[
    {
        "city": "Corguinho",
        "state": "MS",
        "district": "Centro",
        "street": "Rua Marechal Deodoro",
        "zipcode": "79460-970"
    },
    {
        "city": "Corguinho",
        "state": "MS",
        "district": "Centro",
        "street": "Rua Principal",
        "zipcode": "79460-971"
    },
    {
        "city": "Corguinho",
        "state": "MS",
        "district": "Centro",
        "street": "Rua da Escola s/n",
        "zipcode": "79460-974"
    },
    {
        "city": "Corguinho",
        "state": "MS",
        "district": null,
        "street": "Rua Principal",
        "zipcode": "79460-992"
    },
    {
        "city": "Corguinho",
        "state": "MS",
        "district": "",
        "street": "",
        "zipcode": "79460-000"
    },
    {
        "city": "Corguinho",
        "state": "MS",
        "district": "Centro",
        "street": "Rua Félix Gonçalves",
        "zipcode": "79460-973"
    },
    {
        "city": "Corguinho",
        "state": "MS",
        "district": null,
        "street": "Rua João Anacleto",
        "zipcode": "79460-991"
    },
    {
        "city": "Corguinho",
        "state": "MS",
        "district": null,
        "street": "Av. Pedro Balduino Pereira",
        "zipcode": "79460-990"
    },
    {
        "city": "Corguinho",
        "state": "MS",
        "district": "Centro",
        "street": "Avenida Pedro Balduino",
        "zipcode": "79460-972"
    }
]