[
    {
        "city": "Corumba",
        "state": "MS",
        "district": "Popular Nova",
        "street": "Alameda Levino Albano",
        "zipcode": "79321-533"
    },
    {
        "city": "Corumba",
        "state": "MS",
        "district": "Centro",
        "street": "Rua Oriental",
        "zipcode": "79303-050"
    },
    {
        "city": "Corumba",
        "state": "MS",
        "district": "Cristo Redentor",
        "street": "Rua Salomone",
        "zipcode": "79311-530"
    },
    {
        "city": "Corumba",
        "state": "MS",
        "district": "Cristo Redentor",
        "street": "Rua Bernardino Alves Do Couto",
        "zipcode": "79311-490"
    },
    {
        "city": "Corumba",
        "state": "MS",
        "district": "Cristo Redentor",
        "street": "Rua Jose S. Jurnvena",
        "zipcode": "79311-550"
    },
    {
        "city": "Corumba",
        "state": "MS",
        "district": "Cristo Redentor",
        "street": "Rua Paraiba",
        "zipcode": "79311-430"
    },
    {
        "city": "Corumba",
        "state": "MS",
        "district": "Cristo Redentor",
        "street": "Rua Jose B. Maciel",
        "zipcode": "79311-500"
    },
    {
        "city": "Corumba",
        "state": "MS",
        "district": "Cristo Redentor",
        "street": "Rua Pernambuco",
        "zipcode": "79311-410"
    },
    {
        "city": "Corumba",
        "state": "MS",
        "district": "Cristo Redentor",
        "street": "Rua Oriental",
        "zipcode": "79311-130"
    },
    {
        "city": "Corumba",
        "state": "MS",
        "district": "Maria Leite",
        "street": "Rua Oriental",
        "zipcode": "79310-580"
    },
    {
        "city": "Corumba",
        "state": "MS",
        "district": "Cristo Redentor",
        "street": "Rua T Mendes",
        "zipcode": "79311-510"
    },
    {
        "city": "Corumba",
        "state": "MS",
        "district": "Aeroporto",
        "street": "Alameda Quatorze Bis",
        "zipcode": "79321-523"
    },
    {
        "city": "Corumba",
        "state": "MS",
        "district": "Popular Nova",
        "street": "Alameda Sao Simao",
        "zipcode": "79321-534"
    },
    {
        "city": "Corumba",
        "state": "MS",
        "district": "Maria Leite",
        "street": "Rua Dom Pedro I",
        "zipcode": "79310-180"
    },
    {
        "city": "Corumba",
        "state": "MS",
        "district": "Popular Nova",
        "street": "Rua Nair Figueiredo Dobes",
        "zipcode": "79321-512"
    },
    {
        "city": "Corumba",
        "state": "MS",
        "district": "Popular Nova",
        "street": "Alameda Augusto Amaral",
        "zipcode": "79321-540"
    },
    {
        "city": "Corumba",
        "state": "MS",
        "district": "Popular Nova",
        "street": "Alameda Roberto Antonio Dobes",
        "zipcode": "79321-543"
    },
    {
        "city": "Corumba",
        "state": "MS",
        "district": "Cristo Redentor",
        "street": "Rua Joao Bosco Da Motta",
        "zipcode": "79311-480"
    },
    {
        "city": "Corumba",
        "state": "MS",
        "district": "Guaicurus",
        "street": "Rua Ceara",
        "zipcode": "79321-610"
    },
    {
        "city": "Corumba",
        "state": "MS",
        "district": "Guaicurus",
        "street": "Alameda Agostinho Monaco",
        "zipcode": "79321-620"
    },
    {
        "city": "Corumba",
        "state": "MS",
        "district": "Guaicurus",
        "street": "Rua Paraiba",
        "zipcode": "79321-580"
    },
    {
        "city": "Corumba",
        "state": "MS",
        "district": "Cristo Redentor",
        "street": "Rua Alexandre De Castro",
        "zipcode": "79311-450"
    },
    {
        "city": "Corumba",
        "state": "MS",
        "district": "Dom Bosco",
        "street": "Alameda Rosa",
        "zipcode": "79333-290"
    },
    {
        "city": "Corumba",
        "state": "MS",
        "district": "Cristo Redentor",
        "street": "Rua Rio Grande Do Norte",
        "zipcode": "79311-440"
    },
    {
        "city": "Corumba",
        "state": "MS",
        "district": "Popular Velha",
        "street": "Alameda Princesinha",
        "zipcode": "79310-691"
    },
    {
        "city": "Corumba",
        "state": "MS",
        "district": "Cristo Redentor",
        "street": "Rua Primeiro De Abril",
        "zipcode": "79311-110"
    },
    {
        "city": "Corumba",
        "state": "MS",
        "district": "Popular Nova",
        "street": "Rua Sete De Setembro",
        "zipcode": "79321-040"
    },
    {
        "city": "Corumba",
        "state": "MS",
        "district": "Cristo Redentor",
        "street": "Rua Antonio Perra",
        "zipcode": "79311-540"
    },
    {
        "city": "Corumba",
        "state": "MS",
        "district": "Popular Nova",
        "street": "Rua Eliane Dobes",
        "zipcode": "79321-511"
    },
    {
        "city": "Corumba",
        "state": "MS",
        "district": "Centro",
        "street": "Rua Primeiro De Abril",
        "zipcode": "79303-040"
    },
    {
        "city": "Corumba",
        "state": "MS",
        "district": "Aeroporto",
        "street": "Alameda Sao Francisco",
        "zipcode": "79332-160"
    },
    {
        "city": "Corumba",
        "state": "MS",
        "district": "Popular Nova",
        "street": "Alameda Iracema",
        "zipcode": "79321-522"
    },
    {
        "city": "Corumba",
        "state": "MS",
        "district": "Popular Nova",
        "street": "Alameda Antonio Dobes",
        "zipcode": "79321-550"
    },
    {
        "city": "Corumba",
        "state": "MS",
        "district": "Aeroporto",
        "street": "Alameda Das Americas",
        "zipcode": "79321-520"
    },
    {
        "city": "Corumba",
        "state": "MS",
        "district": "Guaicurus",
        "street": "Alameda Joao B. Motta",
        "zipcode": "79321-650"
    },
    {
        "city": "Corumba",
        "state": "MS",
        "district": "Cristo Redentor",
        "street": "Rua Ignacio Macellaro",
        "zipcode": "79311-520"
    },
    {
        "city": "Corumba",
        "state": "MS",
        "district": "Guaicurus",
        "street": "Alameda Delfino Scaffa",
        "zipcode": "79321-640"
    },
    {
        "city": "Corumba",
        "state": "MS",
        "district": "Popular Velha",
        "street": "Rua Primeiro De Abril",
        "zipcode": "79310-590"
    },
    {
        "city": "Corumba",
        "state": "MS",
        "district": "Popular Nova",
        "street": "Rua Major Gama",
        "zipcode": "79321-060"
    },
    {
        "city": "Corumba",
        "state": "MS",
        "district": "Guaicurus",
        "street": "Alameda Alexandre De Castro",
        "zipcode": "79321-660"
    },
    {
        "city": "Corumba",
        "state": "MS",
        "district": "Cristo Redentor",
        "street": "Rua Ceara",
        "zipcode": "79311-420"
    },
    {
        "city": "Corumba",
        "state": "MS",
        "district": "Cristo Redentor",
        "street": "Rua Agostinho T. Monaco",
        "zipcode": "79311-460"
    },
    {
        "city": "Corumba",
        "state": "MS",
        "district": "Aeroporto",
        "street": "Alameda Cosme E Damiao",
        "zipcode": "79321-521"
    },
    {
        "city": "Corumba",
        "state": "MS",
        "district": "Popular Nova",
        "street": "Alameda Joao Leite De Barros",
        "zipcode": "79321-542"
    }
]