[
    {
        "city": "Tres Lagoas",
        "state": "MS",
        "district": "Jardim Progresso",
        "street": "Rua Samuel De Sa",
        "zipcode": "79640-340"
    },
    {
        "city": "Tres Lagoas",
        "state": "MS",
        "district": "Vila Sao Joao",
        "street": "Rua Capitao Barao Nunes",
        "zipcode": "79621-470"
    },
    {
        "city": "Tres Lagoas",
        "state": "MS",
        "district": "Centro",
        "street": "Rua Zuleide Perez Tabox",
        "zipcode": "79603-180"
    },
    {
        "city": "Tres Lagoas",
        "state": "MS",
        "district": "Centro",
        "street": "Avenida Rosario Congro",
        "zipcode": "79600-008"
    },
    {
        "city": "Tres Lagoas",
        "state": "MS",
        "district": "Interlagos",
        "street": "Avenida Filinto Muller",
        "zipcode": "79640-000"
    },
    {
        "city": "Tres Lagoas",
        "state": "MS",
        "district": "Jardim Brasilia",
        "street": "Rua Evaristo De Almeida",
        "zipcode": "79620-350"
    },
    {
        "city": "Tres Lagoas",
        "state": "MS",
        "district": "Santos Dumont",
        "street": "Rua Washington J. Da Costa",
        "zipcode": "79620-620"
    },
    {
        "city": "Tres Lagoas",
        "state": "MS",
        "district": "Jardim Cangalha",
        "street": "Rua Elmano Soares",
        "zipcode": "79645-240"
    },
    {
        "city": "Tres Lagoas",
        "state": "MS",
        "district": "Jardim Nova Ipanema",
        "street": "Rua Duque De Caxias",
        "zipcode": "79620-150"
    },
    {
        "city": "Tres Lagoas",
        "state": "MS",
        "district": "Santa Luzia",
        "street": "Rua Cacildo Arantes",
        "zipcode": "79640-370"
    },
    {
        "city": "Tres Lagoas",
        "state": "MS",
        "district": "Jardim Cangalha",
        "street": "Rua Etelvino Custodio De Queiroz",
        "zipcode": "79645-090"
    }
]