[
    {
        "city": "Araranguá",
        "state": "SC",
        "district": "Aeroporto",
        "street": "Rua A",
        "zipcode": "88905-198"
    },
    {
        "city": "Araranguá",
        "state": "SC",
        "district": "Morro dos Conventos",
        "street": "Rua 6",
        "zipcode": "88911-380"
    },
    {
        "city": "Araranguá",
        "state": "SC",
        "district": "Morro dos Conventos",
        "street": "Rua Sarandi",
        "zipcode": "88911-112"
    },
    {
        "city": "Araranguá",
        "state": "SC",
        "district": "Morro dos Conventos",
        "street": "Rua Iraí",
        "zipcode": "88911-108"
    },
    {
        "city": "Araranguá",
        "state": "SC",
        "district": "Lagoão",
        "street": "Rua Fernão Dias",
        "zipcode": "88904-312"
    },
    {
        "city": "Araranguá",
        "state": "SC",
        "district": "Urussanguinha",
        "street": "Servidão 3",
        "zipcode": "88905-436"
    },
    {
        "city": "Araranguá",
        "state": "SC",
        "district": "Aeroporto",
        "street": "Rua C",
        "zipcode": "88905-194"
    },
    {
        "city": "Araranguá",
        "state": "SC",
        "district": "Urussanguinha",
        "street": "Rua A",
        "zipcode": "88905-390"
    },
    {
        "city": "Araranguá",
        "state": "SC",
        "district": "Balneário de Ilhas (Hercílio Luz)",
        "street": "Rua Ari Francisco Pedroso",
        "zipcode": "88912-510"
    },
    {
        "city": "Araranguá",
        "state": "SC",
        "district": "Balneário de Ilhas (Hercílio Luz)",
        "street": "Avenida Beira",
        "zipcode": "88912-526"
    },
    {
        "city": "Araranguá",
        "state": "SC",
        "district": "Balneário de Ilhas (Hercílio Luz)",
        "street": "Rua Osni Gonçalves",
        "zipcode": "88912-518"
    },
    {
        "city": "Araranguá",
        "state": "SC",
        "district": "Vila São José",
        "street": "Rua JPS 3",
        "zipcode": "88900-118"
    },
    {
        "city": "Araranguá",
        "state": "SC",
        "district": "Balneário de Ilhas (Hercílio Luz)",
        "street": "Rua Antonio Jacinto dos Passos",
        "zipcode": "88912-530"
    },
    {
        "city": "Araranguá",
        "state": "SC",
        "district": "Hercílio Luz (Hercílio Luz)",
        "street": "Rua Valmor Freitas",
        "zipcode": "88912-024"
    },
    {
        "city": "Araranguá",
        "state": "SC",
        "district": "Balneário de Ilhas (Hercílio Luz)",
        "street": "Rua 1º de Maio",
        "zipcode": "88912-504"
    },
    {
        "city": "Araranguá",
        "state": "SC",
        "district": "Hercílio Luz (Hercílio Luz)",
        "street": "Rua Bento Costa",
        "zipcode": "88912-027"
    },
    {
        "city": "Araranguá",
        "state": "SC",
        "district": "Balneário de Ilhas (Hercílio Luz)",
        "street": "Rua Antonio Lemos Pedroso",
        "zipcode": "88912-500"
    },
    {
        "city": "Araranguá",
        "state": "SC",
        "district": "Balneário de Ilhas (Hercílio Luz)",
        "street": "Rua Aparício Geraldino",
        "zipcode": "88912-524"
    },
    {
        "city": "Araranguá",
        "state": "SC",
        "district": "Balneário de Ilhas (Hercílio Luz)",
        "street": "Rua Nelíria Maria da Silva",
        "zipcode": "88912-512"
    },
    {
        "city": "Araranguá",
        "state": "SC",
        "district": "Morro dos Conventos",
        "street": "Travessa 1",
        "zipcode": "88911-388"
    },
    {
        "city": "Araranguá",
        "state": "SC",
        "district": "Morro dos Conventos",
        "street": "Rua 2",
        "zipcode": "88911-500"
    },
    {
        "city": "Araranguá",
        "state": "SC",
        "district": "Morro dos Conventos",
        "street": "Rua 3",
        "zipcode": "88911-504"
    },
    {
        "city": "Araranguá",
        "state": "SC",
        "district": "Morro dos Conventos",
        "street": "Rua 7",
        "zipcode": "88911-382"
    },
    {
        "city": "Araranguá",
        "state": "SC",
        "district": "Morro dos Conventos",
        "street": "Rua Gervásio do Canto",
        "zipcode": "88911-480"
    },
    {
        "city": "Araranguá",
        "state": "SC",
        "district": "Hercílio Luz (Hercílio Luz)",
        "street": "Rua Jorge Lacerda",
        "zipcode": "88912-012"
    },
    {
        "city": "Araranguá",
        "state": "SC",
        "district": "Lagoão",
        "street": "Rua José Idalino Pereira",
        "zipcode": "88904-292"
    },
    {
        "city": "Araranguá",
        "state": "SC",
        "district": "Morro dos Conventos",
        "street": "Rua José João de Medeiros",
        "zipcode": "88911-484"
    },
    {
        "city": "Araranguá",
        "state": "SC",
        "district": "Cidade Alta",
        "street": "Rua Sebastião José Lemos",
        "zipcode": "88901-030"
    },
    {
        "city": "Araranguá",
        "state": "SC",
        "district": "Morro dos Conventos",
        "street": "Rua Aparados da Serra",
        "zipcode": "88911-326"
    },
    {
        "city": "Araranguá",
        "state": "SC",
        "district": "Morro dos Conventos",
        "street": "Rua Turvo",
        "zipcode": "88911-334"
    },
    {
        "city": "Araranguá",
        "state": "SC",
        "district": "Morro dos Conventos",
        "street": "Rua Vacaria",
        "zipcode": "88911-330"
    },
    {
        "city": "Araranguá",
        "state": "SC",
        "district": "Morro dos Conventos",
        "street": "Rua Vieira de Castro",
        "zipcode": "88911-386"
    },
    {
        "city": "Araranguá",
        "state": "SC",
        "district": "Morro dos Conventos",
        "street": "Rua A1",
        "zipcode": "88911-118"
    },
    {
        "city": "Araranguá",
        "state": "SC",
        "district": "Morro dos Conventos",
        "street": "Rua A3",
        "zipcode": "88911-122"
    },
    {
        "city": "Araranguá",
        "state": "SC",
        "district": "Morro dos Conventos",
        "street": "Rua A4",
        "zipcode": "88911-124"
    },
    {
        "city": "Araranguá",
        "state": "SC",
        "district": "Morro dos Conventos",
        "street": "Rua Castro Alves",
        "zipcode": "88911-476"
    },
    {
        "city": "Araranguá",
        "state": "SC",
        "district": "Morro dos Conventos",
        "street": "Rua Criciúma",
        "zipcode": "88911-324"
    },
    {
        "city": "Araranguá",
        "state": "SC",
        "district": "Morro dos Conventos",
        "street": "Rua Alcemira Vieira",
        "zipcode": "88911-460"
    },
    {
        "city": "Araranguá",
        "state": "SC",
        "district": "Morro dos Conventos",
        "street": "Rua E",
        "zipcode": "88911-364"
    },
    {
        "city": "Araranguá",
        "state": "SC",
        "district": "Coloninha",
        "street": "Rua Lino Alves da Silva",
        "zipcode": "88906-770"
    },
    {
        "city": "Araranguá",
        "state": "SC",
        "district": "Cidade Alta",
        "street": "Servidão Dona Flor",
        "zipcode": "88901-016"
    },
    {
        "city": "Araranguá",
        "state": "SC",
        "district": "Morro dos Conventos",
        "street": "Travessa SAMAE",
        "zipcode": "88911-408"
    },
    {
        "city": "Araranguá",
        "state": "SC",
        "district": "Morro dos Conventos",
        "street": "Rua Havai",
        "zipcode": "88911-398"
    },
    {
        "city": "Araranguá",
        "state": "SC",
        "district": "Morro dos Conventos",
        "street": "Rodovia ARA",
        "zipcode": "88911-492"
    },
    {
        "city": "Araranguá",
        "state": "SC",
        "district": "Morro dos Conventos",
        "street": "Rua Existente 02",
        "zipcode": "88911-376"
    },
    {
        "city": "Araranguá",
        "state": "SC",
        "district": "Morro dos Conventos",
        "street": "Rua Carlos Cezar da Silva",
        "zipcode": "88911-356"
    },
    {
        "city": "Araranguá",
        "state": "SC",
        "district": "Morro dos Conventos",
        "street": "Rua Francisco Zeferino",
        "zipcode": "88911-354"
    },
    {
        "city": "Araranguá",
        "state": "SC",
        "district": "Morro dos Conventos",
        "street": "Rua Ziomar Delicio do Canto",
        "zipcode": "88911-366"
    },
    {
        "city": "Araranguá",
        "state": "SC",
        "district": "Lagoão",
        "street": "Rua José Baldoino Florentino",
        "zipcode": "88904-262"
    },
    {
        "city": "Araranguá",
        "state": "SC",
        "district": "Hercílio Luz (Hercílio Luz)",
        "street": "Rua Frei Euzébio",
        "zipcode": "88912-003"
    },
    {
        "city": "Araranguá",
        "state": "SC",
        "district": "Urussanguinha",
        "street": "Rua Ido Pedro dos Santos",
        "zipcode": "88905-404"
    },
    {
        "city": "Araranguá",
        "state": "SC",
        "district": "Morro dos Conventos",
        "street": "Rua Camilo Pena",
        "zipcode": "88911-464"
    },
    {
        "city": "Araranguá",
        "state": "SC",
        "district": "Morro dos Conventos",
        "street": "Rua Existente 04",
        "zipcode": "88911-406"
    },
    {
        "city": "Araranguá",
        "state": "SC",
        "district": "Morro dos Conventos",
        "street": "Rua Urussanga",
        "zipcode": "88911-352"
    },
    {
        "city": "Araranguá",
        "state": "SC",
        "district": "Urussanguinha",
        "street": "Rua Belvedere",
        "zipcode": "88905-522"
    },
    {
        "city": "Araranguá",
        "state": "SC",
        "district": "Morro dos Conventos",
        "street": "Rua Lagoa Vermelha",
        "zipcode": "88911-374"
    },
    {
        "city": "Araranguá",
        "state": "SC",
        "district": "Morro dos Conventos",
        "street": "Rua João Jovelino Pires",
        "zipcode": "88911-360"
    },
    {
        "city": "Araranguá",
        "state": "SC",
        "district": "Morro dos Conventos",
        "street": "Rua São Luiz de Gonzaga",
        "zipcode": "88911-136"
    },
    {
        "city": "Araranguá",
        "state": "SC",
        "district": "Hercílio Luz (Hercílio Luz)",
        "street": "Rua 6 de Agosto",
        "zipcode": "88912-001"
    },
    {
        "city": "Araranguá",
        "state": "SC",
        "district": "Morro dos Conventos",
        "street": "Rua Madagascar",
        "zipcode": "88911-396"
    },
    {
        "city": "Araranguá",
        "state": "SC",
        "district": "Morro dos Conventos",
        "street": "Servidão C",
        "zipcode": "88911-512"
    },
    {
        "city": "Araranguá",
        "state": "SC",
        "district": "Urussanguinha",
        "street": "Rua Pedro Antônio Bitencourte",
        "zipcode": "88905-388"
    },
    {
        "city": "Araranguá",
        "state": "SC",
        "district": "Morro dos Conventos",
        "street": "Rua Dionei Pedro Costa",
        "zipcode": "88911-362"
    },
    {
        "city": "Araranguá",
        "state": "SC",
        "district": "Morro dos Conventos",
        "street": "Rua José Farias",
        "zipcode": "88911-384"
    },
    {
        "city": "Araranguá",
        "state": "SC",
        "district": "Morro dos Conventos",
        "street": "Rua Nova Veneza",
        "zipcode": "88911-336"
    },
    {
        "city": "Araranguá",
        "state": "SC",
        "district": "Urussanguinha",
        "street": "Rua Vinício Mucillo",
        "zipcode": "88905-484"
    },
    {
        "city": "Araranguá",
        "state": "SC",
        "district": "Morro dos Conventos",
        "street": "Servidão A",
        "zipcode": "88911-418"
    },
    {
        "city": "Araranguá",
        "state": "SC",
        "district": "Morro dos Conventos",
        "street": "Rua Tubarão",
        "zipcode": "88911-338"
    },
    {
        "city": "Araranguá",
        "state": "SC",
        "district": "Morro dos Conventos",
        "street": "Rua João Goulart",
        "zipcode": "88911-472"
    },
    {
        "city": "Araranguá",
        "state": "SC",
        "district": "Morro dos Conventos",
        "street": "Rua Itaqui",
        "zipcode": "88911-128"
    },
    {
        "city": "Araranguá",
        "state": "SC",
        "district": "Morro dos Conventos",
        "street": "Servidão B",
        "zipcode": "88911-416"
    },
    {
        "city": "Araranguá",
        "state": "SC",
        "district": "Morro dos Conventos",
        "street": "Rua Nova Prata",
        "zipcode": "88911-340"
    },
    {
        "city": "Araranguá",
        "state": "SC",
        "district": "Morro dos Conventos",
        "street": "Rua Galópolis",
        "zipcode": "88911-350"
    },
    {
        "city": "Araranguá",
        "state": "SC",
        "district": "Hercílio Luz (Hercílio Luz)",
        "street": "Rua Pedro João Figueiredo",
        "zipcode": "88912-021"
    },
    {
        "city": "Araranguá",
        "state": "SC",
        "district": "Balneário de Ilhas (Hercílio Luz)",
        "street": "Rua Elviro Francisco Pedroso",
        "zipcode": "88912-520"
    },
    {
        "city": "Araranguá",
        "state": "SC",
        "district": "Morro dos Conventos",
        "street": "Rodovia ARA",
        "zipcode": "88911-508"
    },
    {
        "city": "Araranguá",
        "state": "SC",
        "district": "Coloninha",
        "street": "Rua João Bento de Souza",
        "zipcode": "88906-740"
    },
    {
        "city": "Araranguá",
        "state": "SC",
        "district": "Coloninha",
        "street": "Avenida Capitão Pedro Fernandes",
        "zipcode": "88906-752"
    },
    {
        "city": "Araranguá",
        "state": "SC",
        "district": "Coloninha",
        "street": "Rua Pedro Jovelino Costa",
        "zipcode": "88906-764"
    },
    {
        "city": "Araranguá",
        "state": "SC",
        "district": "Mato Alto",
        "street": "Travessa 1",
        "zipcode": "88904-176"
    },
    {
        "city": "Araranguá",
        "state": "SC",
        "district": "Morro dos Conventos",
        "street": "Rua Primavera",
        "zipcode": "88911-080"
    },
    {
        "city": "Araranguá",
        "state": "SC",
        "district": "Morro dos Conventos",
        "street": "Rua Garibaldi",
        "zipcode": "88911-106"
    },
    {
        "city": "Araranguá",
        "state": "SC",
        "district": "Coloninha",
        "street": "Rua Bernardino Sena Campos",
        "zipcode": "88906-732"
    },
    {
        "city": "Araranguá",
        "state": "SC",
        "district": "Coloninha",
        "street": "Rua Bernardo Vicente Ramos",
        "zipcode": "88906-778"
    },
    {
        "city": "Araranguá",
        "state": "SC",
        "district": "Morro dos Conventos",
        "street": "Rua das Bromélias",
        "zipcode": "88911-084"
    },
    {
        "city": "Araranguá",
        "state": "SC",
        "district": "Coloninha",
        "street": "Rua Amaro José Pereira",
        "zipcode": "88906-742"
    },
    {
        "city": "Araranguá",
        "state": "SC",
        "district": "Coloninha",
        "street": "Rua Amaro José Pereira",
        "zipcode": "88906-744"
    },
    {
        "city": "Araranguá",
        "state": "SC",
        "district": "Coloninha",
        "street": "Avenida XV de Novembro",
        "zipcode": "88906-748"
    },
    {
        "city": "Araranguá",
        "state": "SC",
        "district": "Coloninha",
        "street": "Rua Professora Silvia Soares Neves",
        "zipcode": "88906-754"
    },
    {
        "city": "Araranguá",
        "state": "SC",
        "district": "Coloninha",
        "street": "Rua Antônio Manoel Henrique",
        "zipcode": "88906-800"
    },
    {
        "city": "Araranguá",
        "state": "SC",
        "district": "Coloninha",
        "street": "Rua Antônio Ramos",
        "zipcode": "88906-760"
    },
    {
        "city": "Araranguá",
        "state": "SC",
        "district": "Coloninha",
        "street": "Rua Prefeito Asteróide Arantes",
        "zipcode": "88906-766"
    },
    {
        "city": "Araranguá",
        "state": "SC",
        "district": "Morro dos Conventos",
        "street": "Rua Bagé",
        "zipcode": "88911-130"
    },
    {
        "city": "Araranguá",
        "state": "SC",
        "district": "Coloninha",
        "street": "Avenida Engenheiro Mesquita",
        "zipcode": "88906-734"
    },
    {
        "city": "Araranguá",
        "state": "SC",
        "district": "Coloninha",
        "street": "Rua Valmor Antônio Feliciano",
        "zipcode": "88906-796"
    },
    {
        "city": "Araranguá",
        "state": "SC",
        "district": "Coloninha",
        "street": "Rua Valvites Pedro Rafael",
        "zipcode": "88906-776"
    },
    {
        "city": "Araranguá",
        "state": "SC",
        "district": "Coloninha",
        "street": "Rua Dona Adelaide Furtado",
        "zipcode": "88906-756"
    },
    {
        "city": "Araranguá",
        "state": "SC",
        "district": "Coloninha",
        "street": "Rua Indian",
        "zipcode": "88906-802"
    },
    {
        "city": "Araranguá",
        "state": "SC",
        "district": "Coloninha",
        "street": "Rua Ipiranga",
        "zipcode": "88906-772"
    },
    {
        "city": "Araranguá",
        "state": "SC",
        "district": "Coloninha",
        "street": "Rua Lúcio Antônio Timboni",
        "zipcode": "88906-558"
    },
    {
        "city": "Araranguá",
        "state": "SC",
        "district": "Jardim das Avenidas",
        "street": "Rua São Luiz",
        "zipcode": "88906-096"
    },
    {
        "city": "Araranguá",
        "state": "SC",
        "district": "Coloninha",
        "street": "Rua Ivo Almeida Machado",
        "zipcode": "88906-664"
    },
    {
        "city": "Araranguá",
        "state": "SC",
        "district": "Jardim das Avenidas",
        "street": "Rua Jasmim",
        "zipcode": "88906-030"
    },
    {
        "city": "Araranguá",
        "state": "SC",
        "district": "Morro dos Conventos",
        "street": "Rua Getúlio Vargas",
        "zipcode": "88911-098"
    },
    {
        "city": "Araranguá",
        "state": "SC",
        "district": "Morro dos Conventos",
        "street": "Rua Uruguaiana",
        "zipcode": "88911-146"
    },
    {
        "city": "Araranguá",
        "state": "SC",
        "district": "Sanga da Toca",
        "street": "Rua Jovelino Gomes",
        "zipcode": "88910-048"
    },
    {
        "city": "Araranguá",
        "state": "SC",
        "district": "Morro dos Conventos",
        "street": "Rua Encantado",
        "zipcode": "88911-088"
    },
    {
        "city": "Araranguá",
        "state": "SC",
        "district": "Morro dos Conventos",
        "street": "Rua Taquara",
        "zipcode": "88911-144"
    },
    {
        "city": "Araranguá",
        "state": "SC",
        "district": "Morro dos Conventos",
        "street": "Rua Vitória",
        "zipcode": "88911-082"
    },
    {
        "city": "Araranguá",
        "state": "SC",
        "district": "Morro dos Conventos",
        "street": "Rua Tupanciretã",
        "zipcode": "88911-134"
    },
    {
        "city": "Araranguá",
        "state": "SC",
        "district": "Morro dos Conventos",
        "street": "Rua Hibisco",
        "zipcode": "88911-074"
    },
    {
        "city": "Araranguá",
        "state": "SC",
        "district": "Morro dos Conventos",
        "street": "Rua Cravina",
        "zipcode": "88911-076"
    },
    {
        "city": "Araranguá",
        "state": "SC",
        "district": "Sanga da Toca",
        "street": "Rua José Augusto Clezer",
        "zipcode": "88910-044"
    },
    {
        "city": "Araranguá",
        "state": "SC",
        "district": "Morro dos Conventos",
        "street": "Rua Petunia",
        "zipcode": "88911-070"
    },
    {
        "city": "Araranguá",
        "state": "SC",
        "district": "Morro dos Conventos",
        "street": "Rua Moréa",
        "zipcode": "88911-066"
    },
    {
        "city": "Araranguá",
        "state": "SC",
        "district": "Sanga da Toca",
        "street": "Rua Maria de Oliveira Gonçalves",
        "zipcode": "88910-028"
    },
    {
        "city": "Araranguá",
        "state": "SC",
        "district": "Morro dos Conventos",
        "street": "Rua Curitiba",
        "zipcode": "88911-102"
    },
    {
        "city": "Araranguá",
        "state": "SC",
        "district": "Sanga da Toca",
        "street": "Rua Serafim Manoel de Souza",
        "zipcode": "88910-052"
    },
    {
        "city": "Araranguá",
        "state": "SC",
        "district": "Morro dos Conventos",
        "street": "Rua Monte Negro",
        "zipcode": "88911-104"
    },
    {
        "city": "Araranguá",
        "state": "SC",
        "district": "Morro dos Conventos",
        "street": "Servidão Cica",
        "zipcode": "88911-062"
    },
    {
        "city": "Araranguá",
        "state": "SC",
        "district": "Sanga da Toca",
        "street": "Rua Manoel Davi de Souza",
        "zipcode": "88910-020"
    },
    {
        "city": "Araranguá",
        "state": "SC",
        "district": "Morro dos Conventos",
        "street": "Rua Flores da Cunha",
        "zipcode": "88911-094"
    },
    {
        "city": "Araranguá",
        "state": "SC",
        "district": "Sanga da Toca",
        "street": "Rua Marcelino Manoel de Souza",
        "zipcode": "88910-001"
    },
    {
        "city": "Araranguá",
        "state": "SC",
        "district": "Morro dos Conventos",
        "street": "Rua Bela Emília",
        "zipcode": "88911-060"
    },
    {
        "city": "Araranguá",
        "state": "SC",
        "district": "Morro dos Conventos",
        "street": "Avenida Arroio do Meio",
        "zipcode": "88911-086"
    },
    {
        "city": "Araranguá",
        "state": "SC",
        "district": "Sanga da Toca",
        "street": "Rua Francisco Joaquim Anastácio",
        "zipcode": "88910-040"
    },
    {
        "city": "Araranguá",
        "state": "SC",
        "district": "Sanga da Toca",
        "street": "Rua Manoel Damásio Marques",
        "zipcode": "88910-024"
    },
    {
        "city": "Araranguá",
        "state": "SC",
        "district": "Morro dos Conventos",
        "street": "Rua Santa Maria",
        "zipcode": "88911-138"
    },
    {
        "city": "Araranguá",
        "state": "SC",
        "district": "Sanga da Toca",
        "street": "Rodovia ARA",
        "zipcode": "88910-004"
    },
    {
        "city": "Araranguá",
        "state": "SC",
        "district": "Sanga da Toca",
        "street": "Rua Gonçalves Manoel Elias",
        "zipcode": "88910-012"
    },
    {
        "city": "Araranguá",
        "state": "SC",
        "district": "Morro dos Conventos",
        "street": "Rua São Marcos",
        "zipcode": "88911-096"
    },
    {
        "city": "Araranguá",
        "state": "SC",
        "district": "Coloninha",
        "street": "Rua Joana Pereira Nazário",
        "zipcode": "88906-660"
    },
    {
        "city": "Araranguá",
        "state": "SC",
        "district": "Jardim das Avenidas",
        "street": "Servidão 2",
        "zipcode": "88906-058"
    },
    {
        "city": "Araranguá",
        "state": "SC",
        "district": "Jardim das Avenidas",
        "street": "Rua das Orquídeas",
        "zipcode": "88906-078"
    },
    {
        "city": "Araranguá",
        "state": "SC",
        "district": "Jardim das Avenidas",
        "street": "Rua das Palmas",
        "zipcode": "88906-084"
    },
    {
        "city": "Araranguá",
        "state": "SC",
        "district": "Jardim das Avenidas",
        "street": "Rua das Rosas",
        "zipcode": "88906-060"
    },
    {
        "city": "Araranguá",
        "state": "SC",
        "district": "Jardim das Avenidas",
        "street": "Rua das Rosas",
        "zipcode": "88906-062"
    },
    {
        "city": "Araranguá",
        "state": "SC",
        "district": "Jardim das Avenidas",
        "street": "Rodovia SC",
        "zipcode": "88906-072"
    },
    {
        "city": "Araranguá",
        "state": "SC",
        "district": "Jardim das Avenidas",
        "street": "Rodovia SC",
        "zipcode": "88906-074"
    },
    {
        "city": "Araranguá",
        "state": "SC",
        "district": "Coloninha",
        "street": "Rua Belo Horizonte",
        "zipcode": "88906-718"
    },
    {
        "city": "Araranguá",
        "state": "SC",
        "district": "Coloninha",
        "street": "Rua Caetano Lummertz",
        "zipcode": "88906-706"
    },
    {
        "city": "Araranguá",
        "state": "SC",
        "district": "Jardim das Avenidas",
        "street": "Rua das Camélias",
        "zipcode": "88906-082"
    },
    {
        "city": "Araranguá",
        "state": "SC",
        "district": "Coloninha",
        "street": "Rua José Fernandes",
        "zipcode": "88906-636"
    },
    {
        "city": "Araranguá",
        "state": "SC",
        "district": "Coloninha",
        "street": "Rua A 1 (Lot Alécio Camilo)",
        "zipcode": "88906-690"
    },
    {
        "city": "Araranguá",
        "state": "SC",
        "district": "Coloninha",
        "street": "Rua Prefeito Altícimo Tournier",
        "zipcode": "88906-720"
    },
    {
        "city": "Araranguá",
        "state": "SC",
        "district": "Coloninha",
        "street": "Rua Alziro Santos",
        "zipcode": "88906-692"
    },
    {
        "city": "Araranguá",
        "state": "SC",
        "district": "Jardim das Avenidas",
        "street": "Avenida Getúlio Vargas",
        "zipcode": "88906-038"
    },
    {
        "city": "Araranguá",
        "state": "SC",
        "district": "Coloninha",
        "street": "Rua Giovani Maciel Zeferino",
        "zipcode": "88906-654"
    },
    {
        "city": "Araranguá",
        "state": "SC",
        "district": "Jardim das Avenidas",
        "street": "Rua Amaro José Pereira",
        "zipcode": "88906-106"
    },
    {
        "city": "Araranguá",
        "state": "SC",
        "district": "Jardim das Avenidas",
        "street": "Rua das Hortências",
        "zipcode": "88906-070"
    },
    {
        "city": "Araranguá",
        "state": "SC",
        "district": "Coloninha",
        "street": "Rua Santilino dos Santos",
        "zipcode": "88906-544"
    },
    {
        "city": "Araranguá",
        "state": "SC",
        "district": "Jardim das Avenidas",
        "street": "Rua Sempre",
        "zipcode": "88906-034"
    },
    {
        "city": "Araranguá",
        "state": "SC",
        "district": "Jardim das Avenidas",
        "street": "Rua Sergipe",
        "zipcode": "88906-100"
    },
    {
        "city": "Araranguá",
        "state": "SC",
        "district": "Coloninha",
        "street": "Rua Manoel Francisco Costa",
        "zipcode": "88906-716"
    },
    {
        "city": "Araranguá",
        "state": "SC",
        "district": "Coloninha",
        "street": "Rua Manoel Jovelino Irineu",
        "zipcode": "88906-644"
    },
    {
        "city": "Araranguá",
        "state": "SC",
        "district": "Jardim das Avenidas",
        "street": "Rua Aracaju",
        "zipcode": "88906-092"
    },
    {
        "city": "Araranguá",
        "state": "SC",
        "district": "Jardim das Avenidas",
        "street": "Rua Augusto Cândido Costa",
        "zipcode": "88906-042"
    },
    {
        "city": "Araranguá",
        "state": "SC",
        "district": "Jardim das Avenidas",
        "street": "Rua Maranhão",
        "zipcode": "88906-104"
    },
    {
        "city": "Araranguá",
        "state": "SC",
        "district": "Jardim das Avenidas",
        "street": "Rua das Margaridas",
        "zipcode": "88906-068"
    },
    {
        "city": "Araranguá",
        "state": "SC",
        "district": "Jardim das Avenidas",
        "street": "Rua Morro Azul",
        "zipcode": "88906-056"
    },
    {
        "city": "Araranguá",
        "state": "SC",
        "district": "Coloninha",
        "street": "Rua Vilton Cardoso Xavier",
        "zipcode": "88906-632"
    },
    {
        "city": "Araranguá",
        "state": "SC",
        "district": "Jardim das Avenidas",
        "street": "Rua das Violetas",
        "zipcode": "88906-028"
    },
    {
        "city": "Araranguá",
        "state": "SC",
        "district": "Coloninha",
        "street": "Travessa A",
        "zipcode": "88906-704"
    },
    {
        "city": "Araranguá",
        "state": "SC",
        "district": "Jardim das Avenidas",
        "street": "Travessa A",
        "zipcode": "88906-050"
    },
    {
        "city": "Araranguá",
        "state": "SC",
        "district": "Coloninha",
        "street": "Rua Governador Celso Ramos",
        "zipcode": "88906-546"
    },
    {
        "city": "Araranguá",
        "state": "SC",
        "district": "Jardim das Avenidas",
        "street": "Rua dos Cravos",
        "zipcode": "88906-026"
    },
    {
        "city": "Araranguá",
        "state": "SC",
        "district": "Jardim das Avenidas",
        "street": "Rua das Dálias",
        "zipcode": "88906-012"
    },
    {
        "city": "Araranguá",
        "state": "SC",
        "district": "Coloninha",
        "street": "Rua Alagoas",
        "zipcode": "88906-656"
    },
    {
        "city": "Araranguá",
        "state": "SC",
        "district": "Lagoão",
        "street": "Rua Manoel Borges",
        "zipcode": "88904-360"
    },
    {
        "city": "Araranguá",
        "state": "SC",
        "district": "Jardim das Avenidas",
        "street": "Rua Alagoas",
        "zipcode": "88906-094"
    },
    {
        "city": "Araranguá",
        "state": "SC",
        "district": "Jardim das Avenidas",
        "street": "Rua Maceió",
        "zipcode": "88906-090"
    },
    {
        "city": "Araranguá",
        "state": "SC",
        "district": "Coloninha",
        "street": "Rua Domingos Vieira Alano",
        "zipcode": "88906-556"
    },
    {
        "city": "Araranguá",
        "state": "SC",
        "district": "Coloninha",
        "street": "Avenida Dorival Ferreira",
        "zipcode": "88906-552"
    },
    {
        "city": "Araranguá",
        "state": "SC",
        "district": "Jardim das Avenidas",
        "street": "Rua dos Lírios",
        "zipcode": "88906-066"
    },
    {
        "city": "Araranguá",
        "state": "SC",
        "district": "Coloninha",
        "street": "Rua Hemógenes Orige",
        "zipcode": "88906-648"
    },
    {
        "city": "Araranguá",
        "state": "SC",
        "district": "Coloninha",
        "street": "Rua B 1 (COHAB Nova)",
        "zipcode": "88906-554"
    },
    {
        "city": "Araranguá",
        "state": "SC",
        "district": "Urussanguinha",
        "street": "Avenida Coronel João Fernandes",
        "zipcode": "88905-460"
    },
    {
        "city": "Araranguá",
        "state": "SC",
        "district": "Coloninha",
        "street": "Rua Adolfo Pedro de Souza",
        "zipcode": "88906-658"
    },
    {
        "city": "Araranguá",
        "state": "SC",
        "district": "Coloninha",
        "street": "Rua Olavio de Souza Tavares",
        "zipcode": "88906-562"
    },
    {
        "city": "Araranguá",
        "state": "SC",
        "district": "Coloninha",
        "street": "Rua Manoel Norberto Costa",
        "zipcode": "88906-634"
    },
    {
        "city": "Araranguá",
        "state": "SC",
        "district": "Coloninha",
        "street": "Avenida Lorena Luz Kretschmer",
        "zipcode": "88906-510"
    },
    {
        "city": "Araranguá",
        "state": "SC",
        "district": "Jardim das Avenidas",
        "street": "Avenida Vereador Manoel Costa",
        "zipcode": "88906-080"
    },
    {
        "city": "Araranguá",
        "state": "SC",
        "district": "Urussanguinha",
        "street": "Avenida Coronel João Fernandes",
        "zipcode": "88905-462"
    },
    {
        "city": "Araranguá",
        "state": "SC",
        "district": "Urussanguinha",
        "street": "Avenida Coronel João Fernandes",
        "zipcode": "88905-476"
    },
    {
        "city": "Araranguá",
        "state": "SC",
        "district": "Coloninha",
        "street": "Rua João Paulo II",
        "zipcode": "88906-536"
    },
    {
        "city": "Araranguá",
        "state": "SC",
        "district": "Coloninha",
        "street": "Avenida Paraíso",
        "zipcode": "88906-526"
    },
    {
        "city": "Araranguá",
        "state": "SC",
        "district": "Coloninha",
        "street": "Avenida Paraíso",
        "zipcode": "88906-524"
    },
    {
        "city": "Araranguá",
        "state": "SC",
        "district": "Urussanguinha",
        "street": "Servidão 4",
        "zipcode": "88905-490"
    },
    {
        "city": "Araranguá",
        "state": "SC",
        "district": "Jardim das Avenidas",
        "street": "Rua Pedro Paulo Conceição",
        "zipcode": "88906-102"
    },
    {
        "city": "Araranguá",
        "state": "SC",
        "district": "Jardim das Avenidas",
        "street": "Rua das Palmas",
        "zipcode": "88906-008"
    },
    {
        "city": "Araranguá",
        "state": "SC",
        "district": "Urussanguinha",
        "street": "Rodovia SC",
        "zipcode": "88905-544"
    },
    {
        "city": "Araranguá",
        "state": "SC",
        "district": "Urussanguinha",
        "street": "Rua Maestro Serafim Silva",
        "zipcode": "88905-440"
    },
    {
        "city": "Araranguá",
        "state": "SC",
        "district": "Urussanguinha",
        "street": "Rua Professora Nívia Cunha Bacha",
        "zipcode": "88905-456"
    },
    {
        "city": "Araranguá",
        "state": "SC",
        "district": "Jardim Cibeli",
        "street": "Rua O",
        "zipcode": "88901-264"
    },
    {
        "city": "Araranguá",
        "state": "SC",
        "district": "Jardim das Avenidas",
        "street": "Rua das Begônias",
        "zipcode": "88906-006"
    },
    {
        "city": "Araranguá",
        "state": "SC",
        "district": "Jardim das Avenidas",
        "street": "Rua Flor de Cerejeira",
        "zipcode": "88906-036"
    },
    {
        "city": "Araranguá",
        "state": "SC",
        "district": "Jardim das Avenidas",
        "street": "Rua Flor de Maio",
        "zipcode": "88906-022"
    },
    {
        "city": "Araranguá",
        "state": "SC",
        "district": "Jardim das Avenidas",
        "street": "Rua Flores de Laranjeira",
        "zipcode": "88906-000"
    },
    {
        "city": "Araranguá",
        "state": "SC",
        "district": "Jardim das Avenidas",
        "street": "Rua Soldado Benito Cavaler Bianchi",
        "zipcode": "88906-108"
    },
    {
        "city": "Araranguá",
        "state": "SC",
        "district": "Urussanguinha",
        "street": "Rua Caetano Lummertz",
        "zipcode": "88905-468"
    },
    {
        "city": "Araranguá",
        "state": "SC",
        "district": "Coloninha",
        "street": "Rua Joaquim João de Bem",
        "zipcode": "88906-506"
    },
    {
        "city": "Araranguá",
        "state": "SC",
        "district": "Urussanguinha",
        "street": "Rua Anastácio João de Souza",
        "zipcode": "88905-452"
    },
    {
        "city": "Araranguá",
        "state": "SC",
        "district": "Urussanguinha",
        "street": "Rua Anastácio João de Souza",
        "zipcode": "88905-454"
    },
    {
        "city": "Araranguá",
        "state": "SC",
        "district": "Coloninha",
        "street": "Rua Alirton Gonçalves Pereira",
        "zipcode": "88906-514"
    },
    {
        "city": "Araranguá",
        "state": "SC",
        "district": "Urussanguinha",
        "street": "Avenida Getúlio Vargas",
        "zipcode": "88905-470"
    },
    {
        "city": "Araranguá",
        "state": "SC",
        "district": "Urussanguinha",
        "street": "Avenida Getúlio Vargas",
        "zipcode": "88905-482"
    },
    {
        "city": "Araranguá",
        "state": "SC",
        "district": "Urussanguinha",
        "street": "Avenida Getúlio Vargas",
        "zipcode": "88905-472"
    },
    {
        "city": "Araranguá",
        "state": "SC",
        "district": "Jardim das Avenidas",
        "street": "Avenida Getúlio Vargas",
        "zipcode": "88906-018"
    },
    {
        "city": "Araranguá",
        "state": "SC",
        "district": "Jardim das Avenidas",
        "street": "Avenida Getúlio Vargas",
        "zipcode": "88906-020"
    },
    {
        "city": "Araranguá",
        "state": "SC",
        "district": "Jardim das Avenidas",
        "street": "Rua Girassol",
        "zipcode": "88906-004"
    },
    {
        "city": "Araranguá",
        "state": "SC",
        "district": "Coloninha",
        "street": "Rua Girassol",
        "zipcode": "88906-502"
    },
    {
        "city": "Araranguá",
        "state": "SC",
        "district": "Urussanguinha",
        "street": "Rua Virgulino de Queiroz",
        "zipcode": "88905-458"
    },
    {
        "city": "Araranguá",
        "state": "SC",
        "district": "Coloninha",
        "street": "Rua da República",
        "zipcode": "88906-530"
    },
    {
        "city": "Araranguá",
        "state": "SC",
        "district": "Coloninha",
        "street": "Rua Manoel Horácio Costa",
        "zipcode": "88906-534"
    },
    {
        "city": "Araranguá",
        "state": "SC",
        "district": "Urussanguinha",
        "street": "Rua Morro Azul",
        "zipcode": "88905-492"
    },
    {
        "city": "Araranguá",
        "state": "SC",
        "district": "Coloninha",
        "street": "Rua Danúbio Celuros de Souza",
        "zipcode": "88906-522"
    },
    {
        "city": "Araranguá",
        "state": "SC",
        "district": "Urussanguinha",
        "street": "Rua Albino Pereira de Souza",
        "zipcode": "88905-520"
    },
    {
        "city": "Araranguá",
        "state": "SC",
        "district": "Urussanguinha",
        "street": "Rua Alcina da Silva Machado",
        "zipcode": "88905-528"
    },
    {
        "city": "Araranguá",
        "state": "SC",
        "district": "Urussanguinha",
        "street": "Rua Expedicionário Iracy Luchina",
        "zipcode": "88905-446"
    },
    {
        "city": "Araranguá",
        "state": "SC",
        "district": "Urussanguinha",
        "street": "Rua Expedicionário Iracy Luchina",
        "zipcode": "88905-466"
    },
    {
        "city": "Araranguá",
        "state": "SC",
        "district": "Jardim das Avenidas",
        "street": "Rua Savio Costa",
        "zipcode": "88906-048"
    },
    {
        "city": "Araranguá",
        "state": "SC",
        "district": "Jardim das Avenidas",
        "street": "Rua Estrela do Norte",
        "zipcode": "88906-016"
    },
    {
        "city": "Araranguá",
        "state": "SC",
        "district": "Alto Feliz",
        "street": "Avenida Sete de Setembro",
        "zipcode": "88905-902"
    },
    {
        "city": "Araranguá",
        "state": "SC",
        "district": "Alto Feliz",
        "street": "Avenida Sete de Setembro",
        "zipcode": "88905-900"
    },
    {
        "city": "Araranguá",
        "state": "SC",
        "district": "Urussanguinha",
        "street": "Rua Manoel Bandeira",
        "zipcode": "88905-396"
    },
    {
        "city": "Araranguá",
        "state": "SC",
        "district": "Coloninha",
        "street": "Avenida Lorena Luz Kretschmer",
        "zipcode": "88906-512"
    },
    {
        "city": "Araranguá",
        "state": "SC",
        "district": "Urussanguinha",
        "street": "Rua Agenor Joaquim Mattos",
        "zipcode": "88905-546"
    },
    {
        "city": "Araranguá",
        "state": "SC",
        "district": "Nova Divinéia",
        "street": "Rua Jovelino Costa",
        "zipcode": "88905-240"
    },
    {
        "city": "Araranguá",
        "state": "SC",
        "district": "Aeroporto",
        "street": "Rua Jovelino Costa",
        "zipcode": "88905-202"
    },
    {
        "city": "Araranguá",
        "state": "SC",
        "district": "Nova Divinéia",
        "street": "Rua das Latanias",
        "zipcode": "88905-274"
    },
    {
        "city": "Araranguá",
        "state": "SC",
        "district": "Urussanguinha",
        "street": "Rua Ivan Villar Rabello",
        "zipcode": "88905-488"
    },
    {
        "city": "Araranguá",
        "state": "SC",
        "district": "Urussanguinha",
        "street": "Rua Lindomar Martinho Fermiano",
        "zipcode": "88905-400"
    },
    {
        "city": "Araranguá",
        "state": "SC",
        "district": "Aeroporto",
        "street": "Rua Pedro João Pereira",
        "zipcode": "88905-120"
    },
    {
        "city": "Araranguá",
        "state": "SC",
        "district": "Nova Divinéia",
        "street": "Rua das Pupunhas",
        "zipcode": "88905-276"
    },
    {
        "city": "Araranguá",
        "state": "SC",
        "district": "Nova Divinéia",
        "street": "Rua Ramilio Antonio do Canto",
        "zipcode": "88905-230"
    },
    {
        "city": "Araranguá",
        "state": "SC",
        "district": "Urussanguinha",
        "street": "Rua Virgílio Moysés Geremias",
        "zipcode": "88905-434"
    },
    {
        "city": "Araranguá",
        "state": "SC",
        "district": "Urussanguinha",
        "street": "Rua Norberto Antônio Gomes",
        "zipcode": "88905-416"
    },
    {
        "city": "Araranguá",
        "state": "SC",
        "district": "Aeroporto",
        "street": "Rua Francisco José Felisberto",
        "zipcode": "88905-204"
    },
    {
        "city": "Araranguá",
        "state": "SC",
        "district": "Nova Divinéia",
        "street": "Rua Francisco José Felisberto",
        "zipcode": "88905-222"
    },
    {
        "city": "Araranguá",
        "state": "SC",
        "district": "Urussanguinha",
        "street": "Rua Francisco Rafael",
        "zipcode": "88905-380"
    },
    {
        "city": "Araranguá",
        "state": "SC",
        "district": "Nova Divinéia",
        "street": "Rua Fúlvio Furtado",
        "zipcode": "88905-248"
    },
    {
        "city": "Araranguá",
        "state": "SC",
        "district": "Urussanguinha",
        "street": "Rua General Bento Gonçalves",
        "zipcode": "88905-420"
    },
    {
        "city": "Araranguá",
        "state": "SC",
        "district": "Urussanguinha",
        "street": "Rua Campolino Farias",
        "zipcode": "88905-406"
    },
    {
        "city": "Araranguá",
        "state": "SC",
        "district": "Urussanguinha",
        "street": "Rua Governador Jorge Lacerda",
        "zipcode": "88905-360"
    },
    {
        "city": "Araranguá",
        "state": "SC",
        "district": "Nova Divinéia",
        "street": "Rua Governador Jorge Lacerda",
        "zipcode": "88905-252"
    },
    {
        "city": "Araranguá",
        "state": "SC",
        "district": "Urussanguinha",
        "street": "Rua Governador Jorge Lacerda",
        "zipcode": "88905-355"
    },
    {
        "city": "Araranguá",
        "state": "SC",
        "district": "Aeroporto",
        "street": "Rua José Francisco Alves",
        "zipcode": "88905-108"
    },
    {
        "city": "Araranguá",
        "state": "SC",
        "district": "Nova Divinéia",
        "street": "Rua José Francisco Alves",
        "zipcode": "88905-228"
    },
    {
        "city": "Araranguá",
        "state": "SC",
        "district": "Urussanguinha",
        "street": "Rua Timbé do Sul",
        "zipcode": "88905-368"
    },
    {
        "city": "Araranguá",
        "state": "SC",
        "district": "Nova Divinéia",
        "street": "Rua das Reais",
        "zipcode": "88905-266"
    },
    {
        "city": "Araranguá",
        "state": "SC",
        "district": "Urussanguinha",
        "street": "Travessa Américo Boff",
        "zipcode": "88905-444"
    },
    {
        "city": "Araranguá",
        "state": "SC",
        "district": "Aeroporto",
        "street": "Avenida XV de Novembro",
        "zipcode": "88905-112"
    },
    {
        "city": "Araranguá",
        "state": "SC",
        "district": "Nova Divinéia",
        "street": "Rua Salvato Paladini",
        "zipcode": "88905-226"
    },
    {
        "city": "Araranguá",
        "state": "SC",
        "district": "Urussanguinha",
        "street": "Rua Manoel Francisco Costa",
        "zipcode": "88905-424"
    },
    {
        "city": "Araranguá",
        "state": "SC",
        "district": "Urussanguinha",
        "street": "Rua Manoel Marcelino de Souza",
        "zipcode": "88905-428"
    },
    {
        "city": "Araranguá",
        "state": "SC",
        "district": "Urussanguinha",
        "street": "Rua Manoel Roseno Pereira",
        "zipcode": "88905-412"
    },
    {
        "city": "Araranguá",
        "state": "SC",
        "district": "Nova Divinéia",
        "street": "Rua Vereador Artur Francisco Espíndola",
        "zipcode": "88905-224"
    },
    {
        "city": "Araranguá",
        "state": "SC",
        "district": "Nova Divinéia",
        "street": "Rua Vereador Artur Francisco Espíndola",
        "zipcode": "88905-258"
    },
    {
        "city": "Araranguá",
        "state": "SC",
        "district": "Nova Divinéia",
        "street": "Rua Augusto Pereira Fragnani",
        "zipcode": "88905-322"
    },
    {
        "city": "Araranguá",
        "state": "SC",
        "district": "Aeroporto",
        "street": "Avenida Bandeira",
        "zipcode": "88905-162"
    },
    {
        "city": "Araranguá",
        "state": "SC",
        "district": "Urussanguinha",
        "street": "Rua Mário Adolfo Garcia",
        "zipcode": "88905-534"
    },
    {
        "city": "Araranguá",
        "state": "SC",
        "district": "Aeroporto",
        "street": "Rua Taiane Oliveira Anacleto",
        "zipcode": "88905-200"
    },
    {
        "city": "Araranguá",
        "state": "SC",
        "district": "Aeroporto",
        "street": "Rua Tomaz Silvestre Ferreira",
        "zipcode": "88905-206"
    },
    {
        "city": "Araranguá",
        "state": "SC",
        "district": "Urussanguinha",
        "street": "Rua Turvo",
        "zipcode": "88905-362"
    },
    {
        "city": "Araranguá",
        "state": "SC",
        "district": "Urussanguinha",
        "street": "Rua Soldado José Melo",
        "zipcode": "88905-382"
    },
    {
        "city": "Araranguá",
        "state": "SC",
        "district": "Urussanguinha",
        "street": "Rua Albino Pereira de Souza",
        "zipcode": "88905-422"
    },
    {
        "city": "Araranguá",
        "state": "SC",
        "district": "Urussanguinha",
        "street": "Rua Alceu Glicério Pacheco",
        "zipcode": "88905-486"
    },
    {
        "city": "Araranguá",
        "state": "SC",
        "district": "Urussanguinha",
        "street": "Rua Machado de Assis",
        "zipcode": "88905-394"
    },
    {
        "city": "Araranguá",
        "state": "SC",
        "district": "Nova Divinéia",
        "street": "Rua Vereador Domingos José Costa",
        "zipcode": "88905-254"
    },
    {
        "city": "Araranguá",
        "state": "SC",
        "district": "Aeroporto",
        "street": "Rua Edgar Rodolfo Rick",
        "zipcode": "88905-190"
    },
    {
        "city": "Araranguá",
        "state": "SC",
        "district": "Nova Divinéia",
        "street": "Rua Edgar Rodolfo Rick",
        "zipcode": "88905-244"
    },
    {
        "city": "Araranguá",
        "state": "SC",
        "district": "Aeroporto",
        "street": "Rua Eugênia Pereira Guimarães",
        "zipcode": "88905-153"
    },
    {
        "city": "Araranguá",
        "state": "SC",
        "district": "Urussanguinha",
        "street": "Rua Felício Realino Gomes",
        "zipcode": "88905-376"
    },
    {
        "city": "Araranguá",
        "state": "SC",
        "district": "Mato Alto",
        "street": "Rua José Roberto Paulino",
        "zipcode": "88904-190"
    },
    {
        "city": "Araranguá",
        "state": "SC",
        "district": "Lagoão",
        "street": "Rua José Roberto Paulino",
        "zipcode": "88904-252"
    },
    {
        "city": "Araranguá",
        "state": "SC",
        "district": "Lagoão",
        "street": "Rua L (Lot C Sul)",
        "zipcode": "88904-260"
    },
    {
        "city": "Araranguá",
        "state": "SC",
        "district": "Lagoão",
        "street": "Rua J (Lot C Sul)",
        "zipcode": "88904-264"
    },
    {
        "city": "Araranguá",
        "state": "SC",
        "district": "Nova Divinéia",
        "street": "Rua Janete Joaquim Florentino",
        "zipcode": "88905-318"
    },
    {
        "city": "Araranguá",
        "state": "SC",
        "district": "Urussanguinha",
        "street": "Rua Olímpio Augustinho Ramos",
        "zipcode": "88905-432"
    },
    {
        "city": "Araranguá",
        "state": "SC",
        "district": "Urussanguinha",
        "street": "Rua Professora Izabel Flores Hube",
        "zipcode": "88905-442"
    },
    {
        "city": "Araranguá",
        "state": "SC",
        "district": "Urussanguinha",
        "street": "Rua João Carminatti",
        "zipcode": "88905-372"
    },
    {
        "city": "Araranguá",
        "state": "SC",
        "district": "Mato Alto",
        "street": "Avenida Capitão Pedro Fernandes",
        "zipcode": "88904-192"
    },
    {
        "city": "Araranguá",
        "state": "SC",
        "district": "Alto Feliz",
        "street": "Avenida Capitão Pedro Fernandes",
        "zipcode": "88905-010"
    },
    {
        "city": "Araranguá",
        "state": "SC",
        "district": "Nova Divinéia",
        "street": "Rua Lordi Antonio Paulino",
        "zipcode": "88905-250"
    },
    {
        "city": "Araranguá",
        "state": "SC",
        "district": "Urussanguinha",
        "street": "Rua Prefeito Ruy Stockler de Souza",
        "zipcode": "88905-448"
    },
    {
        "city": "Araranguá",
        "state": "SC",
        "district": "Lagoão",
        "street": "Rua Pedro Gomes",
        "zipcode": "88904-256"
    },
    {
        "city": "Araranguá",
        "state": "SC",
        "district": "Alto Feliz",
        "street": "Servidão 4",
        "zipcode": "88905-016"
    },
    {
        "city": "Araranguá",
        "state": "SC",
        "district": "Lagoão",
        "street": "Rua 5",
        "zipcode": "88904-364"
    },
    {
        "city": "Araranguá",
        "state": "SC",
        "district": "Nova Divinéia",
        "street": "Rua 5 (Lot Mamonas)",
        "zipcode": "88905-316"
    },
    {
        "city": "Araranguá",
        "state": "SC",
        "district": "Mato Alto",
        "street": "Rua Prefeito Osmar Nunes",
        "zipcode": "88904-172"
    },
    {
        "city": "Araranguá",
        "state": "SC",
        "district": "Nova Divinéia",
        "street": "Rua Otília Merêncio de Souza",
        "zipcode": "88905-314"
    },
    {
        "city": "Araranguá",
        "state": "SC",
        "district": "Alto Feliz",
        "street": "Rua Francisco José Felisberto",
        "zipcode": "88905-088"
    },
    {
        "city": "Araranguá",
        "state": "SC",
        "district": "Lagoão",
        "street": "Rua Francisco Rufino Orige",
        "zipcode": "88904-326"
    },
    {
        "city": "Araranguá",
        "state": "SC",
        "district": "Alto Feliz",
        "street": "Rua Fúlvio Furtado",
        "zipcode": "88905-082"
    },
    {
        "city": "Araranguá",
        "state": "SC",
        "district": "Lagoão",
        "street": "Rua Brasil",
        "zipcode": "88904-276"
    },
    {
        "city": "Araranguá",
        "state": "SC",
        "district": "Lagoão",
        "street": "Rua C (Lot M Sul)",
        "zipcode": "88904-368"
    },
    {
        "city": "Araranguá",
        "state": "SC",
        "district": "Lagoão",
        "street": "Rua Campinas do Sul",
        "zipcode": "88904-338"
    },
    {
        "city": "Araranguá",
        "state": "SC",
        "district": "Alto Feliz",
        "street": "Rua José Firmino Leitão",
        "zipcode": "88905-014"
    },
    {
        "city": "Araranguá",
        "state": "SC",
        "district": "Lagoão",
        "street": "Rua Alvarenga Peixoto",
        "zipcode": "88904-342"
    },
    {
        "city": "Araranguá",
        "state": "SC",
        "district": "Alto Feliz",
        "street": "Rua Prefeito Walter Belinzoni",
        "zipcode": "88905-004"
    },
    {
        "city": "Araranguá",
        "state": "SC",
        "district": "Alto Feliz",
        "street": "Rua Xavier José Anastácio",
        "zipcode": "88905-012"
    },
    {
        "city": "Araranguá",
        "state": "SC",
        "district": "Alto Feliz",
        "street": "Avenida XV de Novembro",
        "zipcode": "88905-022"
    },
    {
        "city": "Araranguá",
        "state": "SC",
        "district": "Alto Feliz",
        "street": "Avenida XV de Novembro",
        "zipcode": "88905-002"
    },
    {
        "city": "Araranguá",
        "state": "SC",
        "district": "Lagoão",
        "street": "Rua Rio Branco",
        "zipcode": "88904-314"
    },
    {
        "city": "Araranguá",
        "state": "SC",
        "district": "Alto Feliz",
        "street": "Rua Antonio Manoel Paulino",
        "zipcode": "88905-030"
    },
    {
        "city": "Araranguá",
        "state": "SC",
        "district": "Lagoão",
        "street": "Rua Antonio Tomaz Fernandes",
        "zipcode": "88904-332"
    },
    {
        "city": "Araranguá",
        "state": "SC",
        "district": "Lagoão",
        "street": "Rua Ascendino Vieira Maciel",
        "zipcode": "88904-328"
    },
    {
        "city": "Araranguá",
        "state": "SC",
        "district": "Lagoão",
        "street": "Avenida Bandeira",
        "zipcode": "88904-318"
    },
    {
        "city": "Araranguá",
        "state": "SC",
        "district": "Lagoão",
        "street": "Rua 21 de Abril",
        "zipcode": "88904-282"
    },
    {
        "city": "Araranguá",
        "state": "SC",
        "district": "Lagoão",
        "street": "Rua Carlos Cardoso",
        "zipcode": "88904-334"
    },
    {
        "city": "Araranguá",
        "state": "SC",
        "district": "Lagoão",
        "street": "Rua Carlos Cardoso",
        "zipcode": "88904-274"
    },
    {
        "city": "Araranguá",
        "state": "SC",
        "district": "Lagoão",
        "street": "Rua M (Lot C Sul)",
        "zipcode": "88904-258"
    },
    {
        "city": "Araranguá",
        "state": "SC",
        "district": "Nova Divinéia",
        "street": "Rua das Imperiais",
        "zipcode": "88905-270"
    },
    {
        "city": "Araranguá",
        "state": "SC",
        "district": "Lagoão",
        "street": "Rua Dorvalina Brocca Pasquali",
        "zipcode": "88904-286"
    },
    {
        "city": "Araranguá",
        "state": "SC",
        "district": "Alto Feliz",
        "street": "Rua Jornalista Durval Mattos",
        "zipcode": "88905-034"
    },
    {
        "city": "Araranguá",
        "state": "SC",
        "district": "Aeroporto",
        "street": "Rua Jornalista Durval Mattos",
        "zipcode": "88905-100"
    },
    {
        "city": "Araranguá",
        "state": "SC",
        "district": "Alto Feliz",
        "street": "Rua Edgar Rodolfo Rick",
        "zipcode": "88905-080"
    },
    {
        "city": "Araranguá",
        "state": "SC",
        "district": "Polícia Rodoviária",
        "street": "Rua Los Angeles",
        "zipcode": "88902-332"
    },
    {
        "city": "Araranguá",
        "state": "SC",
        "district": "Polícia Rodoviária",
        "street": "Rua Lourival de Oliveira Martins",
        "zipcode": "88902-372"
    },
    {
        "city": "Araranguá",
        "state": "SC",
        "district": "Mato Alto",
        "street": "Rua João Belarmino de Borba",
        "zipcode": "88904-070"
    },
    {
        "city": "Araranguá",
        "state": "SC",
        "district": "Mato Alto",
        "street": "Rua João Belmiro Nunes",
        "zipcode": "88904-166"
    },
    {
        "city": "Araranguá",
        "state": "SC",
        "district": "Mato Alto",
        "street": "Rua João Francelício Guimarães",
        "zipcode": "88904-148"
    },
    {
        "city": "Araranguá",
        "state": "SC",
        "district": "Mato Alto",
        "street": "Rua Dom Pedro I",
        "zipcode": "88904-060"
    },
    {
        "city": "Araranguá",
        "state": "SC",
        "district": "Mato Alto",
        "street": "Rua Paulo Pietsch Sobrinho",
        "zipcode": "88904-170"
    },
    {
        "city": "Araranguá",
        "state": "SC",
        "district": "Polícia Rodoviária",
        "street": "Rua Pedro Leopoldino Pereira",
        "zipcode": "88902-338"
    },
    {
        "city": "Araranguá",
        "state": "SC",
        "district": "Alto Feliz",
        "street": "Rua Porfírio Lopes de Aguiar",
        "zipcode": "88905-018"
    },
    {
        "city": "Araranguá",
        "state": "SC",
        "district": "Aeroporto",
        "street": "Avenida Emília Dias Veiga",
        "zipcode": "88905-196"
    },
    {
        "city": "Araranguá",
        "state": "SC",
        "district": "Aeroporto",
        "street": "Rua Antonio Belmiro Nunes",
        "zipcode": "88905-165"
    },
    {
        "city": "Araranguá",
        "state": "SC",
        "district": "Nova Divinéia",
        "street": "Rua dos Gerivás",
        "zipcode": "88905-272"
    },
    {
        "city": "Araranguá",
        "state": "SC",
        "district": "Nova Divinéia",
        "street": "Servidão José Luiz da Silva",
        "zipcode": "88905-246"
    },
    {
        "city": "Araranguá",
        "state": "SC",
        "district": "Nova Divinéia",
        "street": "Servidão João Pedro Motta",
        "zipcode": "88905-236"
    },
    {
        "city": "Araranguá",
        "state": "SC",
        "district": "Urussanguinha",
        "street": "Rua Antônio Manoel João",
        "zipcode": "88905-350"
    },
    {
        "city": "Araranguá",
        "state": "SC",
        "district": "Alto Feliz",
        "street": "Rua Prefeito Ruy Stockler de Souza",
        "zipcode": "88905-036"
    },
    {
        "city": "Araranguá",
        "state": "SC",
        "district": "Nova Divinéia",
        "street": "Servidão Tereza Pereira José",
        "zipcode": "88905-238"
    },
    {
        "city": "Araranguá",
        "state": "SC",
        "district": "Aeroporto",
        "street": "Rua Pedro Martiliano Pacheco",
        "zipcode": "88905-116"
    },
    {
        "city": "Araranguá",
        "state": "SC",
        "district": "Nova Divinéia",
        "street": "Rua das Tamareiras",
        "zipcode": "88905-268"
    },
    {
        "city": "Araranguá",
        "state": "SC",
        "district": "Alto Feliz",
        "street": "Rua Jovino Euzébio Pacheco",
        "zipcode": "88905-026"
    },
    {
        "city": "Araranguá",
        "state": "SC",
        "district": "Lagoão",
        "street": "Rua Janete Joaquim Florentino",
        "zipcode": "88904-366"
    },
    {
        "city": "Araranguá",
        "state": "SC",
        "district": "Mato Alto",
        "street": "Rua Francisco José Anastácio",
        "zipcode": "88904-130"
    },
    {
        "city": "Araranguá",
        "state": "SC",
        "district": "Polícia Rodoviária",
        "street": "Rua Franklin Pinheiro",
        "zipcode": "88902-336"
    },
    {
        "city": "Araranguá",
        "state": "SC",
        "district": "Mato Alto",
        "street": "Rua Benevenuto Reginaldo Felisberto",
        "zipcode": "88904-158"
    },
    {
        "city": "Araranguá",
        "state": "SC",
        "district": "Polícia Rodoviária",
        "street": "Rua Bonfim",
        "zipcode": "88902-334"
    },
    {
        "city": "Araranguá",
        "state": "SC",
        "district": "Polícia Rodoviária",
        "street": "Rua Anchieta",
        "zipcode": "88902-406"
    },
    {
        "city": "Araranguá",
        "state": "SC",
        "district": "Alto Feliz",
        "street": "Travessa Angelino Boff",
        "zipcode": "88905-006"
    },
    {
        "city": "Araranguá",
        "state": "SC",
        "district": "Sanga da Areia",
        "street": "Alameda Antônio Alves da Silva",
        "zipcode": "88902-570"
    },
    {
        "city": "Araranguá",
        "state": "SC",
        "district": "Mato Alto",
        "street": "Alameda Antônio Alves da Silva",
        "zipcode": "88904-020"
    },
    {
        "city": "Araranguá",
        "state": "SC",
        "district": "Mato Alto",
        "street": "Rua Antonio Bertoncini",
        "zipcode": "88904-142"
    },
    {
        "city": "Araranguá",
        "state": "SC",
        "district": "Mato Alto",
        "street": "Rua Cabo Alírio Dandolini",
        "zipcode": "88904-188"
    },
    {
        "city": "Araranguá",
        "state": "SC",
        "district": "Polícia Rodoviária",
        "street": "Rua Raposo Tavares",
        "zipcode": "88902-390"
    },
    {
        "city": "Araranguá",
        "state": "SC",
        "district": "Polícia Rodoviária",
        "street": "Rua Régis Bitencourt",
        "zipcode": "88902-392"
    },
    {
        "city": "Araranguá",
        "state": "SC",
        "district": "Mato Alto",
        "street": "Rua Hildebrando Marcelino Floriano",
        "zipcode": "88904-144"
    },
    {
        "city": "Araranguá",
        "state": "SC",
        "district": "Mato Alto",
        "street": "Rua Idalino João Pereira",
        "zipcode": "88904-162"
    },
    {
        "city": "Araranguá",
        "state": "SC",
        "district": "Mato Alto",
        "street": "Avenida XV de Novembro",
        "zipcode": "88904-184"
    },
    {
        "city": "Araranguá",
        "state": "SC",
        "district": "Alto Feliz",
        "street": "Rua Romeu Wendhausen Pereira",
        "zipcode": "88905-074"
    },
    {
        "city": "Araranguá",
        "state": "SC",
        "district": "Mato Alto",
        "street": "Rua Doutor Sabino de Barros Lemos",
        "zipcode": "88904-164"
    },
    {
        "city": "Araranguá",
        "state": "SC",
        "district": "Mato Alto",
        "street": "Rua Severino Clemes da Rosa",
        "zipcode": "88904-076"
    },
    {
        "city": "Araranguá",
        "state": "SC",
        "district": "Santa Catarina",
        "street": "Alameda Ascendino Moraes de Sá",
        "zipcode": "88902-490"
    },
    {
        "city": "Araranguá",
        "state": "SC",
        "district": "Mato Alto",
        "street": "Alameda Ascendino Moraes de Sá",
        "zipcode": "88904-110"
    },
    {
        "city": "Araranguá",
        "state": "SC",
        "district": "Mato Alto",
        "street": "Rua Maria Benta de Souza",
        "zipcode": "88904-168"
    },
    {
        "city": "Araranguá",
        "state": "SC",
        "district": "Polícia Rodoviária",
        "street": "Rua Tatiane da Costa",
        "zipcode": "88902-384"
    },
    {
        "city": "Araranguá",
        "state": "SC",
        "district": "Mato Alto",
        "street": "Rua Teresópolis",
        "zipcode": "88904-156"
    },
    {
        "city": "Araranguá",
        "state": "SC",
        "district": "Mato Alto",
        "street": "Rua Tiradentes",
        "zipcode": "88904-066"
    },
    {
        "city": "Araranguá",
        "state": "SC",
        "district": "Mato Alto",
        "street": "Rua Vereador José Manoel Emídio",
        "zipcode": "88904-180"
    },
    {
        "city": "Araranguá",
        "state": "SC",
        "district": "Santa Catarina",
        "street": "Rua Abílio Jerônimo Pereira",
        "zipcode": "88902-552"
    },
    {
        "city": "Araranguá",
        "state": "SC",
        "district": "Polícia Rodoviária",
        "street": "Rua Caroline de Souza",
        "zipcode": "88902-380"
    },
    {
        "city": "Araranguá",
        "state": "SC",
        "district": "Alto Feliz",
        "street": "Travessa Davina Nunes Borges",
        "zipcode": "88905-024"
    },
    {
        "city": "Araranguá",
        "state": "SC",
        "district": "Polícia Rodoviária",
        "street": "Rua Alessandro de Souza",
        "zipcode": "88902-378"
    },
    {
        "city": "Araranguá",
        "state": "SC",
        "district": "Lagoão",
        "street": "Rua Domingos José André",
        "zipcode": "88904-324"
    },
    {
        "city": "Araranguá",
        "state": "SC",
        "district": "Mato Alto",
        "street": "Rua Domingos Monteiro",
        "zipcode": "88904-146"
    },
    {
        "city": "Araranguá",
        "state": "SC",
        "district": "Mato Alto",
        "street": "Rua Dorvalina Brocca Pasquali",
        "zipcode": "88904-140"
    },
    {
        "city": "Araranguá",
        "state": "SC",
        "district": "Mato Alto",
        "street": "Rua Dorvalina Brocca Pasquali",
        "zipcode": "88904-186"
    },
    {
        "city": "Araranguá",
        "state": "SC",
        "district": "Mato Alto",
        "street": "Rua Eugênia Pereira Guimarães",
        "zipcode": "88904-154"
    },
    {
        "city": "Araranguá",
        "state": "SC",
        "district": "Jardim Cibeli",
        "street": "Rua Manoel Anastácio",
        "zipcode": "88901-270"
    },
    {
        "city": "Araranguá",
        "state": "SC",
        "district": "Polícia Rodoviária",
        "street": "Rua K1",
        "zipcode": "88902-228"
    },
    {
        "city": "Araranguá",
        "state": "SC",
        "district": "Jardim Cibeli",
        "street": "Rua João Anastácio",
        "zipcode": "88901-274"
    },
    {
        "city": "Araranguá",
        "state": "SC",
        "district": "Polícia Rodoviária",
        "street": "Rua João Francisco Alves",
        "zipcode": "88902-230"
    },
    {
        "city": "Araranguá",
        "state": "SC",
        "district": "Jardim Cibeli",
        "street": "Rua Pedro Anastácio",
        "zipcode": "88901-212"
    },
    {
        "city": "Araranguá",
        "state": "SC",
        "district": "Polícia Rodoviária",
        "street": "Rua Pedro Manoel Gomes",
        "zipcode": "88902-220"
    },
    {
        "city": "Araranguá",
        "state": "SC",
        "district": "Jardim Cibeli",
        "street": "Rua 5",
        "zipcode": "88901-254"
    },
    {
        "city": "Araranguá",
        "state": "SC",
        "district": "Polícia Rodoviária",
        "street": "Rua 6",
        "zipcode": "88902-116"
    },
    {
        "city": "Araranguá",
        "state": "SC",
        "district": "Polícia Rodoviária",
        "street": "Rua 7",
        "zipcode": "88902-118"
    },
    {
        "city": "Araranguá",
        "state": "SC",
        "district": "Santa Catarina",
        "street": "Rua Manoel Silveira de Bittencourt",
        "zipcode": "88902-430"
    },
    {
        "city": "Araranguá",
        "state": "SC",
        "district": "Sanga da Areia",
        "street": "Rua Vitor Marinho Anastácio",
        "zipcode": "88902-582"
    },
    {
        "city": "Araranguá",
        "state": "SC",
        "district": "Polícia Rodoviária",
        "street": "Rua Francisca Alixandrina Soares",
        "zipcode": "88902-402"
    },
    {
        "city": "Araranguá",
        "state": "SC",
        "district": "Sanga da Areia",
        "street": "Rua Projetada 2",
        "zipcode": "88902-612"
    },
    {
        "city": "Araranguá",
        "state": "SC",
        "district": "Polícia Rodoviária",
        "street": "Rua da Zona",
        "zipcode": "88902-394"
    },
    {
        "city": "Araranguá",
        "state": "SC",
        "district": "Lagoão",
        "street": "Rua Madre Tereza de Calcutá",
        "zipcode": "88904-278"
    },
    {
        "city": "Araranguá",
        "state": "SC",
        "district": "Lagoão",
        "street": "Rua Antonio Belmiro Nunes",
        "zipcode": "88904-322"
    },
    {
        "city": "Araranguá",
        "state": "SC",
        "district": "Alto Feliz",
        "street": "Travessa Ilma Maria Fernandes Vieira",
        "zipcode": "88905-038"
    },
    {
        "city": "Araranguá",
        "state": "SC",
        "district": "Lagoão",
        "street": "Rua Antônio Manoel João",
        "zipcode": "88904-344"
    },
    {
        "city": "Araranguá",
        "state": "SC",
        "district": "Lagoão",
        "street": "Rua Esmeraldino Antônio Francisco",
        "zipcode": "88904-336"
    },
    {
        "city": "Araranguá",
        "state": "SC",
        "district": "Jardim Cibeli",
        "street": "Rua Francisco Anastácio",
        "zipcode": "88901-272"
    },
    {
        "city": "Araranguá",
        "state": "SC",
        "district": "Jardim Cibeli",
        "street": "Rua José Anastácio",
        "zipcode": "88901-262"
    },
    {
        "city": "Araranguá",
        "state": "SC",
        "district": "Polícia Rodoviária",
        "street": "Rua José Cardoso",
        "zipcode": "88902-083"
    },
    {
        "city": "Araranguá",
        "state": "SC",
        "district": "Jardim Cibeli",
        "street": "Rua José Carlos Silvano",
        "zipcode": "88901-194"
    },
    {
        "city": "Araranguá",
        "state": "SC",
        "district": "Jardim Cibeli",
        "street": "Rua José Carlos Silvano",
        "zipcode": "88901-250"
    },
    {
        "city": "Araranguá",
        "state": "SC",
        "district": "Cidade Alta",
        "street": "Alameda Antônio Alves da Silva",
        "zipcode": "88901-104"
    },
    {
        "city": "Araranguá",
        "state": "SC",
        "district": "Jardim Cibeli",
        "street": "Alameda Antônio Alves da Silva",
        "zipcode": "88901-190"
    },
    {
        "city": "Araranguá",
        "state": "SC",
        "district": "Polícia Rodoviária",
        "street": "Alameda Antônio Alves da Silva",
        "zipcode": "88902-030"
    },
    {
        "city": "Araranguá",
        "state": "SC",
        "district": "Polícia Rodoviária",
        "street": "Rua Antônio Bernardo",
        "zipcode": "88902-278"
    },
    {
        "city": "Araranguá",
        "state": "SC",
        "district": "Jardim Cibeli",
        "street": "Rua Antônio DÁvila",
        "zipcode": "88901-210"
    },
    {
        "city": "Araranguá",
        "state": "SC",
        "district": "Sanga da Areia",
        "street": "Rua Antonio dos Santos Teixeira",
        "zipcode": "88902-676"
    },
    {
        "city": "Araranguá",
        "state": "SC",
        "district": "Santa Catarina",
        "street": "Travessa Antonio Gomes Serafim",
        "zipcode": "88902-542"
    },
    {
        "city": "Araranguá",
        "state": "SC",
        "district": "Polícia Rodoviária",
        "street": "Rua Renato Carbonera",
        "zipcode": "88902-110"
    },
    {
        "city": "Araranguá",
        "state": "SC",
        "district": "Jardim Cibeli",
        "street": "Rua Manoel Pedroso Felisberto",
        "zipcode": "88901-196"
    },
    {
        "city": "Araranguá",
        "state": "SC",
        "district": "Sanga da Areia",
        "street": "Rua Antonio Marques Zeferino",
        "zipcode": "88902-574"
    },
    {
        "city": "Araranguá",
        "state": "SC",
        "district": "Santa Catarina",
        "street": "Rua Arino João Patrício",
        "zipcode": "88902-550"
    },
    {
        "city": "Araranguá",
        "state": "SC",
        "district": "Polícia Rodoviária",
        "street": "Alameda Ascendino Moraes de Sá",
        "zipcode": "88902-180"
    },
    {
        "city": "Araranguá",
        "state": "SC",
        "district": "Polícia Rodoviária",
        "street": "Rua B1",
        "zipcode": "88902-272"
    },
    {
        "city": "Araranguá",
        "state": "SC",
        "district": "Jardim Cibeli",
        "street": "Rua Maria Orgina Angélica",
        "zipcode": "88901-200"
    },
    {
        "city": "Araranguá",
        "state": "SC",
        "district": "Jardim Cibeli",
        "street": "Rua Maria Teixeira de Souza",
        "zipcode": "88901-280"
    },
    {
        "city": "Araranguá",
        "state": "SC",
        "district": "Polícia Rodoviária",
        "street": "Rua N1",
        "zipcode": "88902-276"
    },
    {
        "city": "Araranguá",
        "state": "SC",
        "district": "Cidade Alta",
        "street": "Rua 4 de Maio",
        "zipcode": "88901-096"
    },
    {
        "city": "Araranguá",
        "state": "SC",
        "district": "Polícia Rodoviária",
        "street": "Rua Valmor Costa da Luz",
        "zipcode": "88902-374"
    },
    {
        "city": "Araranguá",
        "state": "SC",
        "district": "Polícia Rodoviária",
        "street": "Rua Castelo Branco",
        "zipcode": "88902-404"
    },
    {
        "city": "Araranguá",
        "state": "SC",
        "district": "Polícia Rodoviária",
        "street": "Rua D1",
        "zipcode": "88902-280"
    },
    {
        "city": "Araranguá",
        "state": "SC",
        "district": "Polícia Rodoviária",
        "street": "Rua Divinópolis",
        "zipcode": "88902-310"
    },
    {
        "city": "Araranguá",
        "state": "SC",
        "district": "Polícia Rodoviária",
        "street": "Rua Domingos Monteiro",
        "zipcode": "88902-224"
    },
    {
        "city": "Araranguá",
        "state": "SC",
        "district": "Cidade Alta",
        "street": "Rua Ernesto Grechi",
        "zipcode": "88901-094"
    },
    {
        "city": "Araranguá",
        "state": "SC",
        "district": "Santa Catarina",
        "street": "Travessa Ésio Roque de Souza",
        "zipcode": "88902-546"
    },
    {
        "city": "Araranguá",
        "state": "SC",
        "district": "Cidade Alta",
        "street": "Rua Otacílio Pacheco",
        "zipcode": "88901-120"
    },
    {
        "city": "Araranguá",
        "state": "SC",
        "district": "Jardim Cibeli",
        "street": "Rua Genésio Pinheiro",
        "zipcode": "88901-290"
    },
    {
        "city": "Araranguá",
        "state": "SC",
        "district": "Cidade Alta",
        "street": "Avenida Sete de Setembro",
        "zipcode": "88901-004"
    },
    {
        "city": "Araranguá",
        "state": "SC",
        "district": "Barranca",
        "street": "Rua São Paulo",
        "zipcode": "88900-316"
    },
    {
        "city": "Araranguá",
        "state": "SC",
        "district": "Polícia Rodoviária",
        "street": "Rua Judith Maria Nunes Rodrigues",
        "zipcode": "88902-050"
    },
    {
        "city": "Araranguá",
        "state": "SC",
        "district": "Cidade Alta",
        "street": "Rua João Alves Ouriques",
        "zipcode": "88901-062"
    },
    {
        "city": "Araranguá",
        "state": "SC",
        "district": "Polícia Rodoviária",
        "street": "Rua João Emerim",
        "zipcode": "88902-038"
    },
    {
        "city": "Araranguá",
        "state": "SC",
        "district": "Cidade Alta",
        "street": "Avenida Presidente João Goulart",
        "zipcode": "88901-026"
    },
    {
        "city": "Araranguá",
        "state": "SC",
        "district": "Cidade Alta",
        "street": "Rua Pedro Natal de Luca",
        "zipcode": "88901-086"
    },
    {
        "city": "Araranguá",
        "state": "SC",
        "district": "Barranca",
        "street": "Servidão 3",
        "zipcode": "88900-380"
    },
    {
        "city": "Araranguá",
        "state": "SC",
        "district": "Polícia Rodoviária",
        "street": "Rua 4 (Lot J Eucaliptos)",
        "zipcode": "88902-112"
    },
    {
        "city": "Araranguá",
        "state": "SC",
        "district": "Cidade Alta",
        "street": "Rua Orlando Turatti",
        "zipcode": "88901-098"
    },
    {
        "city": "Araranguá",
        "state": "SC",
        "district": "Polícia Rodoviária",
        "street": "Rua Otávio Júlio Martins",
        "zipcode": "88902-046"
    },
    {
        "city": "Araranguá",
        "state": "SC",
        "district": "Cidade Alta",
        "street": "Rua Ramilio Antonio do Canto",
        "zipcode": "88901-050"
    },
    {
        "city": "Araranguá",
        "state": "SC",
        "district": "Cidade Alta",
        "street": "Rua Rui Barbosa",
        "zipcode": "88901-000"
    },
    {
        "city": "Araranguá",
        "state": "SC",
        "district": "Polícia Rodoviária",
        "street": "Rua Zeli da Rocha Silveira",
        "zipcode": "88902-312"
    },
    {
        "city": "Araranguá",
        "state": "SC",
        "district": "Barranca",
        "street": "Rua Paulino Luiz Pereira",
        "zipcode": "88900-270"
    },
    {
        "city": "Araranguá",
        "state": "SC",
        "district": "Jardim Cibeli",
        "street": "Rua João Gomes de Almeida",
        "zipcode": "88901-216"
    },
    {
        "city": "Araranguá",
        "state": "SC",
        "district": "Santa Catarina",
        "street": "Rodovia ARA",
        "zipcode": "88902-420"
    },
    {
        "city": "Araranguá",
        "state": "SC",
        "district": "Sanga da Areia",
        "street": "Rua A (Lot Santarém)",
        "zipcode": "88902-672"
    },
    {
        "city": "Araranguá",
        "state": "SC",
        "district": "Sanga da Areia",
        "street": "Rua C (Lo Santarém)",
        "zipcode": "88902-674"
    },
    {
        "city": "Araranguá",
        "state": "SC",
        "district": "Vila São José",
        "street": "Rua Praia Grande",
        "zipcode": "88900-252"
    },
    {
        "city": "Araranguá",
        "state": "SC",
        "district": "Cidade Alta",
        "street": "Rua Giácomo de Pelegrini",
        "zipcode": "88901-084"
    },
    {
        "city": "Araranguá",
        "state": "SC",
        "district": "Sanga da Areia",
        "street": "Rua E (Lot Santarém)",
        "zipcode": "88902-682"
    },
    {
        "city": "Araranguá",
        "state": "SC",
        "district": "Polícia Rodoviária",
        "street": "Rua 8 (Lot J Eucaliptos)",
        "zipcode": "88902-120"
    },
    {
        "city": "Araranguá",
        "state": "SC",
        "district": "Polícia Rodoviária",
        "street": "Rua 9 (Lot J Eucaliptos)",
        "zipcode": "88902-122"
    },
    {
        "city": "Araranguá",
        "state": "SC",
        "district": "Polícia Rodoviária",
        "street": "Rua 10 (Lot J Eucaliptos)",
        "zipcode": "88902-124"
    },
    {
        "city": "Araranguá",
        "state": "SC",
        "district": "Polícia Rodoviária",
        "street": "Rua Norberto da Rocha Marcelino",
        "zipcode": "88902-370"
    },
    {
        "city": "Araranguá",
        "state": "SC",
        "district": "Polícia Rodoviária",
        "street": "Rua Bento Saturnino Soares",
        "zipcode": "88902-342"
    },
    {
        "city": "Araranguá",
        "state": "SC",
        "district": "Vila São José",
        "street": "Rua Brígida Paulino Acorde",
        "zipcode": "88900-237"
    },
    {
        "city": "Araranguá",
        "state": "SC",
        "district": "Cidade Alta",
        "street": "Travessa Jorge de Bem",
        "zipcode": "88901-012"
    },
    {
        "city": "Araranguá",
        "state": "SC",
        "district": "Polícia Rodoviária",
        "street": "Rua Gonçalo Martinho Severino",
        "zipcode": "88902-086"
    },
    {
        "city": "Araranguá",
        "state": "SC",
        "district": "Cidade Alta",
        "street": "Rua Prefeito Walter Belinzoni",
        "zipcode": "88901-002"
    },
    {
        "city": "Araranguá",
        "state": "SC",
        "district": "Cidade Alta",
        "street": "Rua Xavier José Anastácio",
        "zipcode": "88901-006"
    },
    {
        "city": "Araranguá",
        "state": "SC",
        "district": "Cidade Alta",
        "street": "Avenida XV de Novembro",
        "zipcode": "88901-048"
    },
    {
        "city": "Araranguá",
        "state": "SC",
        "district": "Cidade Alta",
        "street": "Rua Rodolfo Steckert",
        "zipcode": "88901-092"
    },
    {
        "city": "Araranguá",
        "state": "SC",
        "district": "Polícia Rodoviária",
        "street": "Rua Santilina Rodrigues da Rocha",
        "zipcode": "88902-270"
    },
    {
        "city": "Araranguá",
        "state": "SC",
        "district": "Barranca",
        "street": "Rua Manoel Rocha",
        "zipcode": "88900-314"
    },
    {
        "city": "Araranguá",
        "state": "SC",
        "district": "Cidade Alta",
        "street": "Rua Doutor Américo Cavalcante Rabello",
        "zipcode": "88901-052"
    },
    {
        "city": "Araranguá",
        "state": "SC",
        "district": "Vila São José",
        "street": "Rua Prefeito Antônio Tomaz da Silva",
        "zipcode": "88900-249"
    },
    {
        "city": "Araranguá",
        "state": "SC",
        "district": "Vila São José",
        "street": "Rua Ariovaldo da Rosa",
        "zipcode": "88900-234"
    },
    {
        "city": "Araranguá",
        "state": "SC",
        "district": "Cidade Alta",
        "street": "Alameda Ascendino Moraes de Sá",
        "zipcode": "88901-082"
    },
    {
        "city": "Araranguá",
        "state": "SC",
        "district": "Barranca",
        "street": "Rua Marcos João Patrício",
        "zipcode": "88900-320"
    },
    {
        "city": "Araranguá",
        "state": "SC",
        "district": "Cidade Alta",
        "street": "Rua Maria Benta de Jesus",
        "zipcode": "88901-102"
    },
    {
        "city": "Araranguá",
        "state": "SC",
        "district": "Polícia Rodoviária",
        "street": "Rua Thiago Dias Lúcio",
        "zipcode": "88902-130"
    },
    {
        "city": "Araranguá",
        "state": "SC",
        "district": "Jardim Cibeli",
        "street": "Rua Tinho Réus",
        "zipcode": "88901-278"
    },
    {
        "city": "Araranguá",
        "state": "SC",
        "district": "Cidade Alta",
        "street": "Rua Tomaz da Rosa Luz",
        "zipcode": "88901-064"
    },
    {
        "city": "Araranguá",
        "state": "SC",
        "district": "Cidade Alta",
        "street": "Rua Alfredo Pessi",
        "zipcode": "88901-060"
    },
    {
        "city": "Araranguá",
        "state": "SC",
        "district": "Barranca",
        "street": "Rua Luiz Spader",
        "zipcode": "88900-280"
    },
    {
        "city": "Araranguá",
        "state": "SC",
        "district": "Cidade Alta",
        "street": "Rua Jornalista Durval Mattos",
        "zipcode": "88901-036"
    },
    {
        "city": "Araranguá",
        "state": "SC",
        "district": null,
        "street": "Alameda Antonio Alves da Silva",
        "zipcode": "88900-992"
    },
    {
        "city": "Araranguá",
        "state": "SC",
        "district": "Centro",
        "street": "Rua Virgulino de Queiroz",
        "zipcode": "88900-902"
    },
    {
        "city": "Araranguá",
        "state": "SC",
        "district": "Cidade Alta",
        "street": "Rua Porfírio Lopes de Aguiar",
        "zipcode": "88901-900"
    },
    {
        "city": "Araranguá",
        "state": "SC",
        "district": "Aeroporto",
        "street": "Rua Catarina de Toledo Mandelli",
        "zipcode": "88905-114"
    },
    {
        "city": "Araranguá",
        "state": "SC",
        "district": "Centro",
        "street": "Avenida Sete de Setembro",
        "zipcode": "88900-051"
    },
    {
        "city": "Araranguá",
        "state": "SC",
        "district": "Vila São José",
        "street": "Avenida Sete de Setembro",
        "zipcode": "88900-110"
    },
    {
        "city": "Araranguá",
        "state": "SC",
        "district": "Vila São José",
        "street": "Avenida Sete de Setembro",
        "zipcode": "88900-132"
    },
    {
        "city": "Araranguá",
        "state": "SC",
        "district": "Vila São José",
        "street": "Avenida Sete de Setembro",
        "zipcode": "88900-154"
    },
    {
        "city": "Araranguá",
        "state": "SC",
        "district": "Cidade Alta",
        "street": "Rua Prefeito Lino Jovelino Costa",
        "zipcode": "88901-080"
    },
    {
        "city": "Araranguá",
        "state": "SC",
        "district": "Morro dos Conventos",
        "street": "Rua 1",
        "zipcode": "88911-412"
    },
    {
        "city": "Araranguá",
        "state": "SC",
        "district": "Morro dos Conventos",
        "street": "Rua 5",
        "zipcode": "88911-400"
    },
    {
        "city": "Araranguá",
        "state": "SC",
        "district": "Centro",
        "street": "Rua Regimento Barriga Verde",
        "zipcode": "88900-063"
    },
    {
        "city": "Araranguá",
        "state": "SC",
        "district": "Centro",
        "street": "Rua Regimento Barriga Verde",
        "zipcode": "88900-061"
    },
    {
        "city": "Araranguá",
        "state": "SC",
        "district": "Barranca",
        "street": "Rua Vitório Manoel Boza",
        "zipcode": "88900-333"
    },
    {
        "city": "Araranguá",
        "state": "SC",
        "district": "Cidade Alta",
        "street": "Rua Wolney Cesa",
        "zipcode": "88901-058"
    },
    {
        "city": "Araranguá",
        "state": "SC",
        "district": "Vila São José",
        "street": "Rua Brasiliano Vieira Maciel",
        "zipcode": "88900-106"
    },
    {
        "city": "Araranguá",
        "state": "SC",
        "district": "Centro",
        "street": "Rua Caetano Lummertz",
        "zipcode": "88900-041"
    },
    {
        "city": "Araranguá",
        "state": "SC",
        "district": "Cidade Alta",
        "street": "Rua Giácomo Antônio Mazzuco",
        "zipcode": "88901-042"
    },
    {
        "city": "Araranguá",
        "state": "SC",
        "district": "Cidade Alta",
        "street": "Travessa Lucas Kindermann",
        "zipcode": "88901-032"
    },
    {
        "city": "Araranguá",
        "state": "SC",
        "district": "Polícia Rodoviária",
        "street": "Rua B (Lot Emerim)",
        "zipcode": "88902-042"
    },
    {
        "city": "Araranguá",
        "state": "SC",
        "district": "Jardim Cibeli",
        "street": "Rua Manoel Tavares da Rosa",
        "zipcode": "88901-256"
    },
    {
        "city": "Araranguá",
        "state": "SC",
        "district": "Cidade Alta",
        "street": "Rua José Nilton Pacheco",
        "zipcode": "88901-122"
    },
    {
        "city": "Araranguá",
        "state": "SC",
        "district": "Jardim Cibeli",
        "street": "Rua Brígida Florisbela Nunes",
        "zipcode": "88901-208"
    },
    {
        "city": "Araranguá",
        "state": "SC",
        "district": "Balneário de Ilhas (Hercílio Luz)",
        "street": "Rua Júlio Anacleto Neto",
        "zipcode": "88912-516"
    },
    {
        "city": "Araranguá",
        "state": "SC",
        "district": "Jardim Cibeli",
        "street": "Rua José Otávio Anastácio",
        "zipcode": "88901-204"
    },
    {
        "city": "Araranguá",
        "state": "SC",
        "district": "Vila São José",
        "street": "Rua Guanabara",
        "zipcode": "88900-210"
    },
    {
        "city": "Araranguá",
        "state": "SC",
        "district": "Vila São José",
        "street": "Rua Guanabara",
        "zipcode": "88900-120"
    },
    {
        "city": "Araranguá",
        "state": "SC",
        "district": "Cidade Alta",
        "street": "Rua Guilherme Hahn",
        "zipcode": "88901-034"
    },
    {
        "city": "Araranguá",
        "state": "SC",
        "district": "Vila São José",
        "street": "Rua Amaro José Pereira",
        "zipcode": "88900-102"
    },
    {
        "city": "Araranguá",
        "state": "SC",
        "district": "Centro",
        "street": "Rua Amaro José Pereira",
        "zipcode": "88900-077"
    },
    {
        "city": "Araranguá",
        "state": "SC",
        "district": "Cidade Alta",
        "street": "Rua Hildebrando Pessi",
        "zipcode": "88901-040"
    },
    {
        "city": "Araranguá",
        "state": "SC",
        "district": "Cidade Alta",
        "street": "Travessa Rodrigo da Rocha",
        "zipcode": "88901-014"
    },
    {
        "city": "Araranguá",
        "state": "SC",
        "district": "Barranca",
        "street": "Rua Serafim dos Anjos Afonso",
        "zipcode": "88900-275"
    },
    {
        "city": "Araranguá",
        "state": "SC",
        "district": "Vila São José",
        "street": "Rua Silvio Cesar Rocha",
        "zipcode": "88900-152"
    },
    {
        "city": "Araranguá",
        "state": "SC",
        "district": "Centro",
        "street": "Avenida Padre Antônio Luiz Dias",
        "zipcode": "88900-065"
    },
    {
        "city": "Araranguá",
        "state": "SC",
        "district": "Vila São José",
        "street": "Avenida Padre Antônio Luiz Dias",
        "zipcode": "88900-219"
    },
    {
        "city": "Araranguá",
        "state": "SC",
        "district": "Vila São José",
        "street": "Avenida Padre Antônio Luiz Dias",
        "zipcode": "88900-222"
    },
    {
        "city": "Araranguá",
        "state": "SC",
        "district": "Centro",
        "street": "Travessa Antônio Soares",
        "zipcode": "88900-059"
    },
    {
        "city": "Araranguá",
        "state": "SC",
        "district": "Centro",
        "street": "Rua Coronel Apolinário Pereira",
        "zipcode": "88900-053"
    },
    {
        "city": "Araranguá",
        "state": "SC",
        "district": "Barranca",
        "street": "Rua Marcolino Antão dos Santos",
        "zipcode": "88900-318"
    },
    {
        "city": "Araranguá",
        "state": "SC",
        "district": "Vila São José",
        "street": "Rua Meleiro",
        "zipcode": "88900-255"
    },
    {
        "city": "Araranguá",
        "state": "SC",
        "district": "Centro",
        "street": "Avenida Engenheiro Mesquita",
        "zipcode": "88900-055"
    },
    {
        "city": "Araranguá",
        "state": "SC",
        "district": "Centro",
        "street": "Rua 3 de Abril",
        "zipcode": "88900-047"
    },
    {
        "city": "Araranguá",
        "state": "SC",
        "district": "Vila São José",
        "street": "Rua Sombrio",
        "zipcode": "88900-258"
    },
    {
        "city": "Araranguá",
        "state": "SC",
        "district": "Barranca",
        "street": "Rua Victor Nunes Costa",
        "zipcode": "88900-336"
    },
    {
        "city": "Araranguá",
        "state": "SC",
        "district": "Vila São José",
        "street": "Rua Dona Adelaide Furtado",
        "zipcode": "88900-108"
    },
    {
        "city": "Araranguá",
        "state": "SC",
        "district": "Vila São José",
        "street": "Rua Clóvis dos Passos",
        "zipcode": "88900-150"
    },
    {
        "city": "Araranguá",
        "state": "SC",
        "district": "Vila São José",
        "street": "Travessa Luiz Pereira",
        "zipcode": "88900-225"
    },
    {
        "city": "Araranguá",
        "state": "SC",
        "district": "Urussanguinha",
        "street": "Rua Ipê",
        "zipcode": "88905-480"
    },
    {
        "city": "Araranguá",
        "state": "SC",
        "district": "Cidade Alta",
        "street": "Travessa Edgar da Cunha Carneiro",
        "zipcode": "88901-010"
    },
    {
        "city": "Araranguá",
        "state": "SC",
        "district": "Centro",
        "street": "Avenida Getúlio Vargas",
        "zipcode": "88900-973"
    },
    {
        "city": "Araranguá",
        "state": "SC",
        "district": "Alto Feliz",
        "street": "Avenida Sete de Setembro",
        "zipcode": "88905-970"
    },
    {
        "city": "Araranguá",
        "state": "SC",
        "district": "Centro",
        "street": "Avenida Getúlio Vargas",
        "zipcode": "88900-970"
    },
    {
        "city": "Araranguá",
        "state": "SC",
        "district": "Centro",
        "street": "Avenida Sete de Setembro",
        "zipcode": "88900-013"
    },
    {
        "city": "Araranguá",
        "state": "SC",
        "district": "Coloninha",
        "street": "Rua José Realino Gomes",
        "zipcode": "88906-804"
    },
    {
        "city": "Araranguá",
        "state": "SC",
        "district": "Morro dos Conventos",
        "street": "Rua José Sérgio",
        "zipcode": "88911-390"
    },
    {
        "city": "Araranguá",
        "state": "SC",
        "district": "Vila São José",
        "street": "Rua Vereador Leonel Batista",
        "zipcode": "88900-122"
    },
    {
        "city": "Araranguá",
        "state": "SC",
        "district": "Centro",
        "street": "Avenida Coronel João Fernandes",
        "zipcode": "88900-003"
    },
    {
        "city": "Araranguá",
        "state": "SC",
        "district": "Centro",
        "street": "Avenida Capitão Pedro Fernandes",
        "zipcode": "88900-031"
    },
    {
        "city": "Araranguá",
        "state": "SC",
        "district": "Centro",
        "street": "Rua Oswaldo Becker",
        "zipcode": "88900-027"
    },
    {
        "city": "Araranguá",
        "state": "SC",
        "district": "Coloninha",
        "street": "Rua Regimento Barriga Verde",
        "zipcode": "88906-738"
    },
    {
        "city": "Araranguá",
        "state": "SC",
        "district": "Centro",
        "street": "Rua Rui Barbosa",
        "zipcode": "88900-007"
    },
    {
        "city": "Araranguá",
        "state": "SC",
        "district": "Urussanguinha",
        "street": "Rodovia SC",
        "zipcode": "88905-542"
    },
    {
        "city": "Araranguá",
        "state": "SC",
        "district": "Coloninha",
        "street": "Rua Maestro Serafim Silva",
        "zipcode": "88906-724"
    },
    {
        "city": "Araranguá",
        "state": "SC",
        "district": "Jardim das Avenidas",
        "street": "Rua das Palmeiras",
        "zipcode": "88906-024"
    },
    {
        "city": "Araranguá",
        "state": "SC",
        "district": "Morro dos Conventos",
        "street": "Rua Novo Hamburgo",
        "zipcode": "88911-344"
    },
    {
        "city": "Araranguá",
        "state": "SC",
        "district": "Coloninha",
        "street": "Rua Brasiliano Vieira Maciel",
        "zipcode": "88906-750"
    },
    {
        "city": "Araranguá",
        "state": "SC",
        "district": "Morro dos Conventos",
        "street": "Rua Ouro Verde",
        "zipcode": "88911-100"
    },
    {
        "city": "Araranguá",
        "state": "SC",
        "district": "Morro dos Conventos",
        "street": "Rua Laguna",
        "zipcode": "88911-348"
    },
    {
        "city": "Araranguá",
        "state": "SC",
        "district": "Morro dos Conventos",
        "street": "Rua Cachoeira",
        "zipcode": "88911-142"
    },
    {
        "city": "Araranguá",
        "state": "SC",
        "district": "Balneário de Ilhas (Hercílio Luz)",
        "street": "Rua Vergínio Amaro Pereira",
        "zipcode": "88912-528"
    },
    {
        "city": "Araranguá",
        "state": "SC",
        "district": "Vila São José",
        "street": "Rua C (Lot Esmeralda)",
        "zipcode": "88900-128"
    },
    {
        "city": "Araranguá",
        "state": "SC",
        "district": "Balneário de Ilhas (Hercílio Luz)",
        "street": "Rua Reduzino João Alexandrino",
        "zipcode": "88912-508"
    },
    {
        "city": "Araranguá",
        "state": "SC",
        "district": "Morro dos Conventos",
        "street": "Rua Júlio de Castilho",
        "zipcode": "88911-090"
    },
    {
        "city": "Araranguá",
        "state": "SC",
        "district": "Morro dos Conventos",
        "street": "Avenida Iris do Vento",
        "zipcode": "88911-078"
    },
    {
        "city": "Araranguá",
        "state": "SC",
        "district": "Vila São José",
        "street": "Rua Procópio Caetano da Silva",
        "zipcode": "88900-100"
    },
    {
        "city": "Araranguá",
        "state": "SC",
        "district": "Barranca",
        "street": "Rua Aroldo Zaneripe",
        "zipcode": "88900-331"
    },
    {
        "city": "Araranguá",
        "state": "SC",
        "district": "Jardim das Avenidas",
        "street": "Rua das Camélias",
        "zipcode": "88906-002"
    },
    {
        "city": "Araranguá",
        "state": "SC",
        "district": "Coloninha",
        "street": "Rua Jorge Elias Aiub",
        "zipcode": "88906-784"
    },
    {
        "city": "Araranguá",
        "state": "SC",
        "district": "Centro",
        "street": "Rua Anastácio João de Souza",
        "zipcode": "88900-023"
    },
    {
        "city": "Araranguá",
        "state": "SC",
        "district": "Morro dos Conventos",
        "street": "Rua Alvares Cabral",
        "zipcode": "88911-488"
    },
    {
        "city": "Araranguá",
        "state": "SC",
        "district": "Centro",
        "street": "Avenida Getúlio Vargas",
        "zipcode": "88900-037"
    },
    {
        "city": "Araranguá",
        "state": "SC",
        "district": "Centro",
        "street": "Avenida Getúlio Vargas",
        "zipcode": "88900-035"
    },
    {
        "city": "Araranguá",
        "state": "SC",
        "district": "Jardim das Avenidas",
        "street": "Avenida Getúlio Vargas",
        "zipcode": "88906-040"
    },
    {
        "city": "Araranguá",
        "state": "SC",
        "district": "Centro",
        "street": "Rua Virgulino de Queiroz",
        "zipcode": "88900-009"
    },
    {
        "city": "Araranguá",
        "state": "SC",
        "district": "Centro",
        "street": "Avenida XV de Novembro",
        "zipcode": "88900-019"
    },
    {
        "city": "Araranguá",
        "state": "SC",
        "district": "Centro",
        "street": "Avenida XV de Novembro",
        "zipcode": "88900-021"
    },
    {
        "city": "Araranguá",
        "state": "SC",
        "district": "Vila São José",
        "street": "Rua Prefeito Asteróide Arantes",
        "zipcode": "88900-231"
    },
    {
        "city": "Araranguá",
        "state": "SC",
        "district": "Coloninha",
        "street": "Rua Professora Maria Celeste Machado dos Santos",
        "zipcode": "88906-712"
    },
    {
        "city": "Araranguá",
        "state": "SC",
        "district": "Vila São José",
        "street": "Rua Max Hahn",
        "zipcode": "88900-116"
    },
    {
        "city": "Araranguá",
        "state": "SC",
        "district": "Morro dos Conventos",
        "street": "Rua Morro dos Conventos",
        "zipcode": "88911-468"
    },
    {
        "city": "Araranguá",
        "state": "SC",
        "district": "Morro dos Conventos",
        "street": "Rua Três Passos",
        "zipcode": "88911-110"
    },
    {
        "city": "Araranguá",
        "state": "SC",
        "district": "Morro dos Conventos",
        "street": "Rua A2",
        "zipcode": "88911-120"
    },
    {
        "city": "Araranguá",
        "state": "SC",
        "district": "Vila São José",
        "street": "Rua Prefeito Abel Esteves de Aguiar",
        "zipcode": "88900-112"
    },
    {
        "city": "Araranguá",
        "state": "SC",
        "district": "Jardim das Avenidas",
        "street": "Rua dos Crisântemos",
        "zipcode": "88906-014"
    },
    {
        "city": "Araranguá",
        "state": "SC",
        "district": "Coloninha",
        "street": "Rua Alexandre Acordi",
        "zipcode": "88906-794"
    },
    {
        "city": "Araranguá",
        "state": "SC",
        "district": "Centro",
        "street": "Praça Hercílio Luz",
        "zipcode": "88900-001"
    },
    {
        "city": "Araranguá",
        "state": "SC",
        "district": "Urussanguinha",
        "street": "Travessa Expedicionário Iracy Luchina",
        "zipcode": "88905-450"
    },
    {
        "city": "Araranguá",
        "state": "SC",
        "district": "Vila São José",
        "street": "Rua Prefeito Edmundo Grisard",
        "zipcode": "88900-246"
    },
    {
        "city": "Araranguá",
        "state": "SC",
        "district": "Cidade Alta",
        "street": "Servidão 1",
        "zipcode": "88901-031"
    },
    {
        "city": "Araranguá",
        "state": "SC",
        "district": "Urussanguinha",
        "street": "Rua Felomena Francisca de Almeida",
        "zipcode": "88905-364"
    },
    {
        "city": "Araranguá",
        "state": "SC",
        "district": "Alto Feliz",
        "street": "Rua Felomena Francisca de Almeida",
        "zipcode": "88905-086"
    },
    {
        "city": "Araranguá",
        "state": "SC",
        "district": "Alto Feliz",
        "street": "Rua José Roberto Pessi",
        "zipcode": "88905-008"
    },
    {
        "city": "Araranguá",
        "state": "SC",
        "district": "Polícia Rodoviária",
        "street": "Rua Júlio de Souza",
        "zipcode": "88902-330"
    },
    {
        "city": "Araranguá",
        "state": "SC",
        "district": "Jardim das Avenidas",
        "street": "Rua Joana Pereira Nazário",
        "zipcode": "88906-052"
    },
    {
        "city": "Araranguá",
        "state": "SC",
        "district": "Urussanguinha",
        "street": "Avenida Coronel João Fernandes",
        "zipcode": "88905-478"
    },
    {
        "city": "Araranguá",
        "state": "SC",
        "district": "Urussanguinha",
        "street": "Travessa Pedro Borges Arcênego",
        "zipcode": "88905-378"
    },
    {
        "city": "Araranguá",
        "state": "SC",
        "district": "Mato Alto",
        "street": "Rua Pedro João Pereira",
        "zipcode": "88904-174"
    },
    {
        "city": "Araranguá",
        "state": "SC",
        "district": "Mato Alto",
        "street": "Rua Pedro João Pereira",
        "zipcode": "88904-150"
    },
    {
        "city": "Araranguá",
        "state": "SC",
        "district": "Mato Alto",
        "street": "Rua Pedro João Pereira",
        "zipcode": "88904-120"
    },
    {
        "city": "Araranguá",
        "state": "SC",
        "district": "Aeroporto",
        "street": "Rua Paulo Pietsch Sobrinho",
        "zipcode": "88905-168"
    },
    {
        "city": "Araranguá",
        "state": "SC",
        "district": "Aeroporto",
        "street": "Avenida Capitão Pedro Fernandes",
        "zipcode": "88905-104"
    },
    {
        "city": "Araranguá",
        "state": "SC",
        "district": "Lagoão",
        "street": "Avenida Capitão Pedro Fernandes",
        "zipcode": "88904-250"
    },
    {
        "city": "Araranguá",
        "state": "SC",
        "district": "Mato Alto",
        "street": "Rua Pedro Gomes",
        "zipcode": "88904-182"
    },
    {
        "city": "Araranguá",
        "state": "SC",
        "district": "Coloninha",
        "street": "Travessa 1 (Lot Lunamari)",
        "zipcode": "88906-650"
    },
    {
        "city": "Araranguá",
        "state": "SC",
        "district": "Coloninha",
        "street": "Rua Nida Garcia Bertoncini",
        "zipcode": "88906-528"
    },
    {
        "city": "Araranguá",
        "state": "SC",
        "district": "Alto Feliz",
        "street": "Rua Governador Jorge Lacerda",
        "zipcode": "88905-032"
    },
    {
        "city": "Araranguá",
        "state": "SC",
        "district": "Morro dos Conventos",
        "street": "Rua Canela",
        "zipcode": "88911-332"
    },
    {
        "city": "Araranguá",
        "state": "SC",
        "district": "Morro dos Conventos",
        "street": "Rua Existente 01",
        "zipcode": "88911-378"
    },
    {
        "city": "Araranguá",
        "state": "SC",
        "district": "Jardim das Avenidas",
        "street": "Avenida Vereador Manoel Costa",
        "zipcode": "88906-064"
    },
    {
        "city": "Araranguá",
        "state": "SC",
        "district": "Morro dos Conventos",
        "street": "Rodovia Valmiro Manoel Gonçalves",
        "zipcode": "88911-970"
    },
    {
        "city": "Araranguá",
        "state": "SC",
        "district": "Vila São José",
        "street": "Rua Esmeralda",
        "zipcode": "88900-130"
    },
    {
        "city": "Araranguá",
        "state": "SC",
        "district": "Coloninha",
        "street": "Rua Ivan Villar Rabello",
        "zipcode": "88906-702"
    },
    {
        "city": "Araranguá",
        "state": "SC",
        "district": "Sanga da Toca",
        "street": "Rua Otávio Belarmino Costa",
        "zipcode": "88910-036"
    },
    {
        "city": "Araranguá",
        "state": "SC",
        "district": "Nova Divinéia",
        "street": "Rua Olívio João de Oliveira",
        "zipcode": "88905-264"
    },
    {
        "city": "Araranguá",
        "state": "SC",
        "district": "Sanga da Toca",
        "street": "Rua João Manoel de Souza",
        "zipcode": "88910-056"
    },
    {
        "city": "Araranguá",
        "state": "SC",
        "district": "Nova Divinéia",
        "street": "Rua José Francisco Alves",
        "zipcode": "88905-256"
    },
    {
        "city": "Araranguá",
        "state": "SC",
        "district": "Urussanguinha",
        "street": "Servidão José Francisco Maciel",
        "zipcode": "88905-438"
    },
    {
        "city": "Araranguá",
        "state": "SC",
        "district": "Sanga da Toca",
        "street": "Rua Hipólito Manoel da Silva",
        "zipcode": "88910-016"
    },
    {
        "city": "Araranguá",
        "state": "SC",
        "district": "Santa Catarina",
        "street": "Alameda Antônio Alves da Silva",
        "zipcode": "88902-410"
    },
    {
        "city": "Araranguá",
        "state": "SC",
        "district": "Urussanguinha",
        "street": "Avenida Getúlio Vargas",
        "zipcode": "88905-464"
    },
    {
        "city": "Araranguá",
        "state": "SC",
        "district": "Alto Feliz",
        "street": "Rua Timbé do Sul",
        "zipcode": "88905-072"
    },
    {
        "city": "Araranguá",
        "state": "SC",
        "district": "Urussanguinha",
        "street": "Rua Virgulino de Queiroz",
        "zipcode": "88905-426"
    },
    {
        "city": "Araranguá",
        "state": "SC",
        "district": "Alto Feliz",
        "street": "Rua Prefeito Walter Belinzoni",
        "zipcode": "88905-000"
    },
    {
        "city": "Araranguá",
        "state": "SC",
        "district": "Lagoão",
        "street": "Rua H (Lot C Sul)",
        "zipcode": "88904-270"
    },
    {
        "city": "Araranguá",
        "state": "SC",
        "district": "Lagoão",
        "street": "Rua Salvato Orige",
        "zipcode": "88904-330"
    },
    {
        "city": "Araranguá",
        "state": "SC",
        "district": "Polícia Rodoviária",
        "street": "Rua Saturnino Francisco Soares",
        "zipcode": "88902-340"
    },
    {
        "city": "Araranguá",
        "state": "SC",
        "district": "Centro",
        "street": "Rua Manoel Gomes Baltazar",
        "zipcode": "88900-075"
    },
    {
        "city": "Araranguá",
        "state": "SC",
        "district": "Urussanguinha",
        "street": "Rua Armelindo Cesa",
        "zipcode": "88905-402"
    },
    {
        "city": "Araranguá",
        "state": "SC",
        "district": "Alto Feliz",
        "street": "Rua Vereador Arthur Bertoncini",
        "zipcode": "88905-042"
    },
    {
        "city": "Araranguá",
        "state": "SC",
        "district": "Lagoão",
        "street": "Avenida Bandeira",
        "zipcode": "88904-320"
    },
    {
        "city": "Araranguá",
        "state": "SC",
        "district": "Coloninha",
        "street": "Rua Vereador Maximiliano Hennemann",
        "zipcode": "88906-640"
    },
    {
        "city": "Araranguá",
        "state": "SC",
        "district": "Nova Divinéia",
        "street": "Rua Tomaz Silvestre Ferreira",
        "zipcode": "88905-220"
    },
    {
        "city": "Araranguá",
        "state": "SC",
        "district": "Coloninha",
        "street": "Rua A (Lot Araponga)",
        "zipcode": "88906-538"
    },
    {
        "city": "Araranguá",
        "state": "SC",
        "district": "Centro",
        "street": "Rua Prefeito Afonso Ghizzo",
        "zipcode": "88900-073"
    },
    {
        "city": "Araranguá",
        "state": "SC",
        "district": "Coloninha",
        "street": "Rua Castro Alves",
        "zipcode": "88906-516"
    },
    {
        "city": "Araranguá",
        "state": "SC",
        "district": "Lagoão",
        "street": "Rua Cristo Rei",
        "zipcode": "88904-340"
    },
    {
        "city": "Araranguá",
        "state": "SC",
        "district": "Urussanguinha",
        "street": "Rua M (Lot V A Sul)",
        "zipcode": "88905-524"
    },
    {
        "city": "Araranguá",
        "state": "SC",
        "district": "Lagoão",
        "street": "Rua Nossa Senhora Mãe dos Homens",
        "zipcode": "88904-310"
    },
    {
        "city": "Araranguá",
        "state": "SC",
        "district": "Polícia Rodoviária",
        "street": "Rua Imigrantes",
        "zipcode": "88902-386"
    },
    {
        "city": "Araranguá",
        "state": "SC",
        "district": "Nova Divinéia",
        "street": "Rua Jornalista Durval Mattos",
        "zipcode": "88905-232"
    },
    {
        "city": "Araranguá",
        "state": "SC",
        "district": "Vila São José",
        "street": "Avenida Sete de Setembro",
        "zipcode": "88900-213"
    },
    {
        "city": "Araranguá",
        "state": "SC",
        "district": "Santa Catarina",
        "street": "Travessa Paulo César de Bitencourt",
        "zipcode": "88902-544"
    },
    {
        "city": "Araranguá",
        "state": "SC",
        "district": "Centro",
        "street": "Avenida Coronel João Fernandes",
        "zipcode": "88900-005"
    },
    {
        "city": "Araranguá",
        "state": "SC",
        "district": "Polícia Rodoviária",
        "street": "Rua João Francisco Guimarães",
        "zipcode": "88902-226"
    },
    {
        "city": "Araranguá",
        "state": "SC",
        "district": "Lagoão",
        "street": "Rua João Nunes",
        "zipcode": "88904-288"
    },
    {
        "city": "Araranguá",
        "state": "SC",
        "district": "Urussanguinha",
        "street": "Rua Pedro Inácio Peres",
        "zipcode": "88905-540"
    },
    {
        "city": "Araranguá",
        "state": "SC",
        "district": "Centro",
        "street": "Avenida Capitão Pedro Fernandes",
        "zipcode": "88900-033"
    },
    {
        "city": "Araranguá",
        "state": "SC",
        "district": "Alto Feliz",
        "street": "Servidão 2",
        "zipcode": "88905-070"
    },
    {
        "city": "Araranguá",
        "state": "SC",
        "district": "Jardim Cibeli",
        "street": "Rua 4",
        "zipcode": "88901-252"
    },
    {
        "city": "Araranguá",
        "state": "SC",
        "district": "Polícia Rodoviária",
        "street": "Rua 5 (Lot J Eucaliptos)",
        "zipcode": "88902-114"
    },
    {
        "city": "Araranguá",
        "state": "SC",
        "district": "Jardim Cibeli",
        "street": "Rua Pedro Roldão Pereira",
        "zipcode": "88901-276"
    },
    {
        "city": "Araranguá",
        "state": "SC",
        "district": "Coloninha",
        "street": "Rua Bertolino Soares de Araújo",
        "zipcode": "88906-786"
    },
    {
        "city": "Araranguá",
        "state": "SC",
        "district": "Centro",
        "street": "Rua Caetano Lummertz",
        "zipcode": "88900-043"
    },
    {
        "city": "Araranguá",
        "state": "SC",
        "district": "Polícia Rodoviária",
        "street": "Rua Jorge José Tavares",
        "zipcode": "88902-376"
    },
    {
        "city": "Araranguá",
        "state": "SC",
        "district": "Polícia Rodoviária",
        "street": "Rua André Pedro Pereira",
        "zipcode": "88902-274"
    },
    {
        "city": "Araranguá",
        "state": "SC",
        "district": "Urussanguinha",
        "street": "Rua Professora Anita Brasil",
        "zipcode": "88905-414"
    },
    {
        "city": "Araranguá",
        "state": "SC",
        "district": "Coloninha",
        "street": "Rua Amaro José Pereira",
        "zipcode": "88906-504"
    },
    {
        "city": "Araranguá",
        "state": "SC",
        "district": "Vila São José",
        "street": "Avenida XV de Novembro",
        "zipcode": "88900-104"
    },
    {
        "city": "Araranguá",
        "state": "SC",
        "district": "Urussanguinha",
        "street": "Rua Romalino Paulino da Silva",
        "zipcode": "88905-386"
    },
    {
        "city": "Araranguá",
        "state": "SC",
        "district": "Lagoão",
        "street": "Rua João Joaquim Anastácio",
        "zipcode": "88904-316"
    },
    {
        "city": "Araranguá",
        "state": "SC",
        "district": "Aeroporto",
        "street": "Rua João Batista Zeferino (Lot. F Campo)",
        "zipcode": "88905-156"
    },
    {
        "city": "Araranguá",
        "state": "SC",
        "district": "Jardim das Avenidas",
        "street": "Rua Manoel Norberto Costa",
        "zipcode": "88906-098"
    },
    {
        "city": "Araranguá",
        "state": "SC",
        "district": "Alto Feliz",
        "street": "Rua Laudelino Inácio dos Santos",
        "zipcode": "88905-020"
    },
    {
        "city": "Araranguá",
        "state": "SC",
        "district": "Morro dos Conventos",
        "street": "Rua São Leopoldo",
        "zipcode": "88911-346"
    },
    {
        "city": "Araranguá",
        "state": "SC",
        "district": "Coloninha",
        "street": "Rua Natalício Eliziário Ferreira",
        "zipcode": "88906-550"
    },
    {
        "city": "Araranguá",
        "state": "SC",
        "district": "Jardim das Avenidas",
        "street": "Avenida Vereador Manoel Costa",
        "zipcode": "88906-086"
    },
    {
        "city": "Araranguá",
        "state": "SC",
        "district": "Jardim Cibeli",
        "street": "Rua Rubens Steckert",
        "zipcode": "88901-202"
    },
    {
        "city": "Araranguá",
        "state": "SC",
        "district": "Centro",
        "street": "Avenida Padre Antônio Luiz Dias",
        "zipcode": "88900-067"
    },
    {
        "city": "Araranguá",
        "state": "SC",
        "district": "Vila São José",
        "street": "Avenida Padre Antônio Luiz Dias",
        "zipcode": "88900-126"
    },
    {
        "city": "Araranguá",
        "state": "SC",
        "district": "Centro",
        "street": "Rua Silveira Júnior",
        "zipcode": "88900-069"
    },
    {
        "city": "Araranguá",
        "state": "SC",
        "district": "Sanga da Toca",
        "street": "Rua Fracelício Matias Pedroso",
        "zipcode": "88910-032"
    },
    {
        "city": "Araranguá",
        "state": "SC",
        "district": "Cidade Alta",
        "street": "Rua Antonio Manoel Paulino",
        "zipcode": "88901-020"
    },
    {
        "city": "Araranguá",
        "state": "SC",
        "district": "Coloninha",
        "street": "Rua Conselheiro Antônio Vieira Maciel",
        "zipcode": "88906-782"
    },
    {
        "city": "Araranguá",
        "state": "SC",
        "district": "Coloninha",
        "street": "Rua Augusto Cândido Costa",
        "zipcode": "88906-662"
    },
    {
        "city": "Araranguá",
        "state": "SC",
        "district": "Polícia Rodoviária",
        "street": "Rua Maurício João Soares",
        "zipcode": "88902-314"
    },
    {
        "city": "Araranguá",
        "state": "SC",
        "district": "Centro",
        "street": "Avenida Engenheiro Mesquita",
        "zipcode": "88900-057"
    },
    {
        "city": "Araranguá",
        "state": "SC",
        "district": "Morro dos Conventos",
        "street": "Rua Soledade",
        "zipcode": "88911-140"
    },
    {
        "city": "Araranguá",
        "state": "SC",
        "district": "Morro dos Conventos",
        "street": "Rua Souza",
        "zipcode": "88911-368"
    },
    {
        "city": "Araranguá",
        "state": "SC",
        "district": "Urussanguinha",
        "street": "Rua Torquato Merêncio",
        "zipcode": "88905-410"
    },
    {
        "city": "Araranguá",
        "state": "SC",
        "district": "Urussanguinha",
        "street": "Rua José Manoel do Nascimento",
        "zipcode": "88905-392"
    },
    {
        "city": "Araranguá",
        "state": "SC",
        "district": "Mato Alto",
        "street": "Rua José Pereira Emerim",
        "zipcode": "88904-068"
    },
    {
        "city": "Araranguá",
        "state": "SC",
        "district": "Mato Alto",
        "street": "Rua David Bertoncini",
        "zipcode": "88904-062"
    },
    {
        "city": "Araranguá",
        "state": "SC",
        "district": "Sanga da Areia",
        "street": "Rua Alaur Patrício Cândido",
        "zipcode": "88902-578"
    },
    {
        "city": "Araranguá",
        "state": "SC",
        "district": "Centro",
        "street": "Rua Governador Irineu Bornhausen",
        "zipcode": "88900-071"
    },
    {
        "city": "Araranguá",
        "state": "SC",
        "district": "Coloninha",
        "street": "Rua Doutor Edgar Serrano",
        "zipcode": "88906-642"
    },
    {
        "city": "Araranguá",
        "state": "SC",
        "district": "Polícia Rodoviária",
        "street": "Rodovia Eduardo Generoso Pereira",
        "zipcode": "88902-080"
    },
    {
        "city": "Araranguá",
        "state": "SC",
        "district": "Centro",
        "street": "Rua Virgulino de Queiroz",
        "zipcode": "88900-900"
    },
    {
        "city": "Araranguá",
        "state": "SC",
        "district": "Centro",
        "street": "Avenida Coronel João Fernandes",
        "zipcode": "88900-904"
    },
    {
        "city": "Araranguá",
        "state": "SC",
        "district": "Jardim Cibeli",
        "street": "Rua Ivo Gonçalves",
        "zipcode": "88901-282"
    },
    {
        "city": "Araranguá",
        "state": "SC",
        "district": "Barranca",
        "street": "Rua João Cândido da Conceição",
        "zipcode": "88900-339"
    },
    {
        "city": "Araranguá",
        "state": "SC",
        "district": "Urussanguinha",
        "street": "Avenida Coronel João Fernandes",
        "zipcode": "88905-494"
    },
    {
        "city": "Araranguá",
        "state": "SC",
        "district": "Urussanguinha",
        "street": "Avenida Coronel João Fernandes",
        "zipcode": "88905-496"
    },
    {
        "city": "Araranguá",
        "state": "SC",
        "district": "Barranca",
        "street": "Servidão 1",
        "zipcode": "88900-384"
    },
    {
        "city": "Araranguá",
        "state": "SC",
        "district": "Cidade Alta",
        "street": "Rua Porfírio Lopes de Aguiar",
        "zipcode": "88901-008"
    },
    {
        "city": "Araranguá",
        "state": "SC",
        "district": "Cidade Alta",
        "street": "Rua Vereador Otacilio Bertoncini",
        "zipcode": "88901-090"
    },
    {
        "city": "Araranguá",
        "state": "SC",
        "district": "Jardim Cibeli",
        "street": "Rua Zeferino Antônio Belmiro",
        "zipcode": "88901-206"
    },
    {
        "city": "Araranguá",
        "state": "SC",
        "district": "Polícia Rodoviária",
        "street": "Rua Patrick de Mendonsa",
        "zipcode": "88902-382"
    },
    {
        "city": "Araranguá",
        "state": "SC",
        "district": "Jardim Cibeli",
        "street": "Rua Joaquim Cristiano de Medeiros",
        "zipcode": "88901-258"
    },
    {
        "city": "Araranguá",
        "state": "SC",
        "district": "Urussanguinha",
        "street": "Rua Jorge Ângelo dos Santos",
        "zipcode": "88905-532"
    },
    {
        "city": "Araranguá",
        "state": "SC",
        "district": "Alto Feliz",
        "street": "Rua Governador Jorge Lacerda",
        "zipcode": "88905-090"
    },
    {
        "city": "Araranguá",
        "state": "SC",
        "district": "Morro dos Conventos",
        "street": "Rua B (Conventos Baixos)",
        "zipcode": "88911-126"
    },
    {
        "city": "Araranguá",
        "state": "SC",
        "district": "Polícia Rodoviária",
        "street": "Rua Antonio Bertoncine",
        "zipcode": "88902-222"
    },
    {
        "city": "Araranguá",
        "state": "SC",
        "district": "Coloninha",
        "street": "Rua Amaro José Pereira",
        "zipcode": "88906-638"
    },
    {
        "city": "Araranguá",
        "state": "SC",
        "district": "Coloninha",
        "street": "Rua Amaro José Pereira",
        "zipcode": "88906-500"
    },
    {
        "city": "Araranguá",
        "state": "SC",
        "district": "Jardim das Avenidas",
        "street": "Rua Amaro José Pereira",
        "zipcode": "88906-110"
    },
    {
        "city": "Araranguá",
        "state": "SC",
        "district": "Aeroporto",
        "street": "Rua Hildebrando Marcelino Floriano",
        "zipcode": "88905-150"
    },
    {
        "city": "Araranguá",
        "state": "SC",
        "district": "Lagoão",
        "street": "Rua Hildebrando Marcelino Floriano",
        "zipcode": "88904-290"
    },
    {
        "city": "Araranguá",
        "state": "SC",
        "district": "Polícia Rodoviária",
        "street": "Rua Hipólito Saturnino Soares",
        "zipcode": "88902-316"
    },
    {
        "city": "Araranguá",
        "state": "SC",
        "district": "Alto Feliz",
        "street": "Rua Manoel Eulógio de Almeida",
        "zipcode": "88905-084"
    },
    {
        "city": "Araranguá",
        "state": "SC",
        "district": "Polícia Rodoviária",
        "street": "Rua Anastácio de Oliveira Soares",
        "zipcode": "88902-400"
    },
    {
        "city": "Araranguá",
        "state": "SC",
        "district": "Morro dos Conventos",
        "street": "Avenida Interpraias",
        "zipcode": "88911-064"
    },
    {
        "city": "Araranguá",
        "state": "SC",
        "district": "Sanga da Toca",
        "street": "Rua Hipólito Manoel da Silva",
        "zipcode": "88910-970"
    },
    {
        "city": "Araranguá",
        "state": "SC",
        "district": "Morro dos Conventos",
        "street": "Rua Caetano da Silva",
        "zipcode": "88911-372"
    },
    {
        "city": "Araranguá",
        "state": "SC",
        "district": "Sanga da Areia",
        "street": "Rodovia Isaias Eugênio Pereira",
        "zipcode": "88902-710"
    },
    {
        "city": "Araranguá",
        "state": "SC",
        "district": "Lagoão",
        "street": "Rua Antônio Manoel Gomes",
        "zipcode": "88904-284"
    },
    {
        "city": "Araranguá",
        "state": "SC",
        "district": "Vila São José",
        "street": "Rua Coronel Apolinário Pereira",
        "zipcode": "88900-261"
    },
    {
        "city": "Araranguá",
        "state": "SC",
        "district": "Sanga da Areia",
        "street": "Alameda Ascendino Moraes de Sá",
        "zipcode": "88902-670"
    },
    {
        "city": "Araranguá",
        "state": "SC",
        "district": "Mato Alto",
        "street": "Rua Manoel Rufino da Silva",
        "zipcode": "88904-025"
    },
    {
        "city": "Araranguá",
        "state": "SC",
        "district": "Morro dos Conventos",
        "street": "Rua Otavio Tomaz",
        "zipcode": "88911-358"
    },
    {
        "city": "Araranguá",
        "state": "SC",
        "district": "Nova Divinéia",
        "street": "Rua Pedro Paulo Coelho",
        "zipcode": "88905-262"
    },
    {
        "city": "Araranguá",
        "state": "SC",
        "district": "Urussanguinha",
        "street": "Servidão Manoel Gregório Pereira",
        "zipcode": "88905-370"
    },
    {
        "city": "Araranguá",
        "state": "SC",
        "district": "Urussanguinha",
        "street": "Rua Genésio Ronconi",
        "zipcode": "88905-526"
    },
    {
        "city": "Araranguá",
        "state": "SC",
        "district": "Mato Alto",
        "street": "Rua Vereador Manoel Serafim Silvano",
        "zipcode": "88904-160"
    },
    {
        "city": "Araranguá",
        "state": "SC",
        "district": "Cidade Alta",
        "street": "Rua Manoel Telesforo Machado",
        "zipcode": "88901-100"
    },
    {
        "city": "Araranguá",
        "state": "SC",
        "district": "Coloninha",
        "street": "Avenida Engenheiro Mesquita",
        "zipcode": "88906-736"
    },
    {
        "city": "Araranguá",
        "state": "SC",
        "district": "Jardim Cibeli",
        "street": "Rua Miguel Manoel Pacheco",
        "zipcode": "88901-260"
    },
    {
        "city": "Araranguá",
        "state": "SC",
        "district": "Barranca",
        "street": "Rua Dona Tereza Cristina",
        "zipcode": "88900-330"
    },
    {
        "city": "Araranguá",
        "state": "SC",
        "district": "Polícia Rodoviária",
        "street": "Rua Valim André Pereira",
        "zipcode": "88902-034"
    },
    {
        "city": "Araranguá",
        "state": "SC",
        "district": "Coloninha",
        "street": "Rua Prefeito Abel Esteves de Aguiar",
        "zipcode": "88906-768"
    },
    {
        "city": "Araranguá",
        "state": "SC",
        "district": "Coloninha",
        "street": "Rua Cleveland",
        "zipcode": "88906-806"
    },
    {
        "city": "Araranguá",
        "state": "SC",
        "district": "Urussanguinha",
        "street": "Rua Albino Pereira de Souza",
        "zipcode": "88905-408"
    },
    {
        "city": "Araranguá",
        "state": "SC",
        "district": "Coloninha",
        "street": "Rua Luiz Ernesto Machado",
        "zipcode": "88906-542"
    },
    {
        "city": "Araranguá",
        "state": "SC",
        "district": "Cidade Alta",
        "street": "Rua Domingos Alves Ouriques",
        "zipcode": "88901-066"
    },
    {
        "city": "Araranguá",
        "state": "SC",
        "district": "Cidade Alta",
        "street": "Rua Jornalista Durval Mattos",
        "zipcode": "88901-046"
    },
    {
        "city": "Araranguá",
        "state": "SC",
        "district": "Santa Catarina",
        "street": "Rua Faustilino Vitorino Pereira",
        "zipcode": "88902-556"
    },
    {
        "city": "Araranguá",
        "state": "SC",
        "district": "Coloninha",
        "street": "Travessa Figueira Alta",
        "zipcode": "88906-700"
    },
    {
        "city": "Araranguá",
        "state": "SC",
        "district": "Morro dos Conventos",
        "street": "Rua 4",
        "zipcode": "88911-414"
    },
    {
        "city": "Araranguá",
        "state": "SC",
        "district": "Mato Alto",
        "street": "Rua Philadélfia",
        "zipcode": "88904-072"
    },
    {
        "city": "Araranguá",
        "state": "SC",
        "district": "Coloninha",
        "street": "Rua Otavio Heleodoro Costa",
        "zipcode": "88906-698"
    },
    {
        "city": "Araranguá",
        "state": "SC",
        "district": "Coloninha",
        "street": "Rua Otávio Munir Bacha",
        "zipcode": "88906-722"
    },
    {
        "city": "Araranguá",
        "state": "SC",
        "district": "Polícia Rodoviária",
        "street": "Rua Paulino Antônio Maciel",
        "zipcode": "88902-126"
    },
    {
        "city": "Araranguá",
        "state": "SC",
        "district": "Morro dos Conventos",
        "street": "Rua São Francisco de Paula",
        "zipcode": "88911-132"
    },
    {
        "city": "Araranguá",
        "state": "SC",
        "district": "Coloninha",
        "street": "Rua Francisco Manoel Pereira",
        "zipcode": "88906-518"
    },
    {
        "city": "Araranguá",
        "state": "SC",
        "district": "Lagoão",
        "street": "Rua G (Lot C Sul)",
        "zipcode": "88904-272"
    },
    {
        "city": "Araranguá",
        "state": "SC",
        "district": "Urussanguinha",
        "street": "Rua Caverazinho",
        "zipcode": "88905-398"
    },
    {
        "city": "Araranguá",
        "state": "SC",
        "district": "Coloninha",
        "street": "Rua Geraldino João da Silva",
        "zipcode": "88906-532"
    },
    {
        "city": "Araranguá",
        "state": "SC",
        "district": "Vila São José",
        "street": "Rua José Genaro Salvador",
        "zipcode": "88900-114"
    },
    {
        "city": "Araranguá",
        "state": "SC",
        "district": "Sanga da Toca",
        "street": "Rodovia BR",
        "zipcode": "88910-060"
    },
    {
        "city": "Araranguá",
        "state": "SC",
        "district": "Morro dos Conventos",
        "street": "Rua Angelino Tomaz",
        "zipcode": "88911-394"
    },
    {
        "city": "Araranguá",
        "state": "SC",
        "district": "Santa Catarina",
        "street": "Travessa Anilton Vitor Anastácio",
        "zipcode": "88902-548"
    },
    {
        "city": "Araranguá",
        "state": "SC",
        "district": "Cidade Alta",
        "street": "Rua Antonio Bertoncini",
        "zipcode": "88901-022"
    },
    {
        "city": "Araranguá",
        "state": "SC",
        "district": "Coloninha",
        "street": "Rua Guanabara",
        "zipcode": "88906-758"
    },
    {
        "city": "Araranguá",
        "state": "SC",
        "district": "Santa Catarina",
        "street": "Rua Raimundo Coelho de Campos",
        "zipcode": "88902-554"
    },
    {
        "city": "Araranguá",
        "state": "SC",
        "district": "Coloninha",
        "street": "Rua Amaro José Pereira",
        "zipcode": "88906-746"
    },
    {
        "city": "Araranguá",
        "state": "SC",
        "district": "Morro dos Conventos",
        "street": "Rua Higino Orestes do Canto",
        "zipcode": "88911-496"
    },
    {
        "city": "Araranguá",
        "state": "SC",
        "district": "Coloninha",
        "street": "Rua Roberto Antônio Belling",
        "zipcode": "88906-520"
    },
    {
        "city": "Araranguá",
        "state": "SC",
        "district": "Balneário de Ilhas (Hercílio Luz)",
        "street": "Rua Norberto Lima da Rosa",
        "zipcode": "88912-536"
    },
    {
        "city": "Araranguá",
        "state": "SC",
        "district": "Lagoão",
        "street": "Rua Chico Mendes",
        "zipcode": "88904-280"
    },
    {
        "city": "Araranguá",
        "state": "SC",
        "district": "Jardim Cibeli",
        "street": "Rua Coronel Luiz Oliveira Leite",
        "zipcode": "88901-266"
    },
    {
        "city": "Araranguá",
        "state": "SC",
        "district": "Coloninha",
        "street": "Rua Doutor Antônio de Barros Lemos",
        "zipcode": "88906-728"
    },
    {
        "city": "Araranguá",
        "state": "SC",
        "district": "Polícia Rodoviária",
        "street": "Rua Arina Pereira Rodrigues",
        "zipcode": "88902-398"
    },
    {
        "city": "Araranguá",
        "state": "SC",
        "district": "Balneário de Ilhas (Hercílio Luz)",
        "street": "Rua Francisco Berto Cardoso",
        "zipcode": "88912-532"
    },
    {
        "city": "Araranguá",
        "state": "SC",
        "district": "Coloninha",
        "street": "Rua Vinício Mucillo",
        "zipcode": "88906-710"
    },
    {
        "city": "Araranguá",
        "state": "SC",
        "district": "Morro dos Conventos",
        "street": "Rua Carazinho",
        "zipcode": "88911-092"
    },
    {
        "city": "Araranguá",
        "state": "SC",
        "district": "Coloninha",
        "street": "Rua Serafim Soares de Araújo",
        "zipcode": "88906-798"
    },
    {
        "city": "Araranguá",
        "state": "SC",
        "district": "Vila São José",
        "street": "Rua Prefeito Antônio Raupp",
        "zipcode": "88900-228"
    },
    {
        "city": "Araranguá",
        "state": "SC",
        "district": "Coloninha",
        "street": "Rua Aracaju",
        "zipcode": "88906-508"
    },
    {
        "city": "Araranguá",
        "state": "SC",
        "district": "Polícia Rodoviária",
        "street": "Rua Manoel Veríssimo Soares",
        "zipcode": "88902-396"
    },
    {
        "city": "Araranguá",
        "state": "SC",
        "district": "Urussanguinha",
        "street": "Rua José Roberto Maciel",
        "zipcode": "88905-536"
    },
    {
        "city": "Araranguá",
        "state": "SC",
        "district": "Balneário de Ilhas (Hercílio Luz)",
        "street": "Rua Juvenil Hermógenes Graciano",
        "zipcode": "88912-534"
    },
    {
        "city": "Araranguá",
        "state": "SC",
        "district": "Balneário de Ilhas (Hercílio Luz)",
        "street": "Rua Joaquim Juvêncio Urbano",
        "zipcode": "88912-514"
    },
    {
        "city": "Araranguá",
        "state": "SC",
        "district": "Jardim Cibeli",
        "street": "Rua Vereador Luiz Oscar Bertoncine",
        "zipcode": "88901-214"
    },
    {
        "city": "Araranguá",
        "state": "SC",
        "district": "Jardim Cibeli",
        "street": "Rua Ana Lídia Carolina",
        "zipcode": "88901-198"
    },
    {
        "city": "Araranguá",
        "state": "SC",
        "district": "Jardim Cibeli",
        "street": "Rua Emília Jorgina da Silva",
        "zipcode": "88901-192"
    },
    {
        "city": "Araranguá",
        "state": "SC",
        "district": "Sanga da Areia",
        "street": "Avenida 25 de Julho",
        "zipcode": "88902-678"
    },
    {
        "city": "Araranguá",
        "state": "SC",
        "district": "Polícia Rodoviária",
        "street": "Rua Marcelo Todeschini",
        "zipcode": "88902-408"
    },
    {
        "city": "Araranguá",
        "state": "SC",
        "district": "Mato Alto",
        "street": "Rua Nascimento Pereira",
        "zipcode": "88904-074"
    },
    {
        "city": "Araranguá",
        "state": "SC",
        "district": "Barranca",
        "street": "Rua Nossa Senhora dos Navegantes",
        "zipcode": "88900-310"
    },
    {
        "city": "Araranguá",
        "state": "SC",
        "district": "Cidade Alta",
        "street": "Rua A",
        "zipcode": "88901-018"
    },
    {
        "city": "Araranguá",
        "state": "SC",
        "district": "Vila São José",
        "street": "Rua Prefeito Abel Esteves de Aguiar",
        "zipcode": "88900-240"
    },
    {
        "city": "Araranguá",
        "state": "SC",
        "district": "Vila São José",
        "street": "Rua Prefeito Adolfo Cechinel",
        "zipcode": "88900-243"
    },
    {
        "city": "Araranguá",
        "state": "SC",
        "district": "Coloninha",
        "street": "Rua Vereador Darci Lindolfo Gomes",
        "zipcode": "88906-774"
    },
    {
        "city": "Araranguá",
        "state": "SC",
        "district": "Urussanguinha",
        "street": "Rua Pedro Patrício Pereira",
        "zipcode": "88905-538"
    },
    {
        "city": "Araranguá",
        "state": "SC",
        "district": "Coloninha",
        "street": "Rua Amaro José Pereira",
        "zipcode": "88906-630"
    },
    {
        "city": "Araranguá",
        "state": "SC",
        "district": "Coloninha",
        "street": "Rua Celestino Assis",
        "zipcode": "88906-646"
    },
    {
        "city": "Araranguá",
        "state": "SC",
        "district": "Coloninha",
        "street": "Rua Governador Celso Ramos",
        "zipcode": "88906-548"
    },
    {
        "city": "Araranguá",
        "state": "SC",
        "district": "Polícia Rodoviária",
        "street": "Rua Gaspar Dutra",
        "zipcode": "88902-388"
    },
    {
        "city": "Araranguá",
        "state": "SC",
        "district": "Barranca",
        "street": "Servidão 2",
        "zipcode": "88900-382"
    },
    {
        "city": "Araranguá",
        "state": "SC",
        "district": "Urussanguinha",
        "street": "Rua Marcos Angelo dos Santos",
        "zipcode": "88905-384"
    },
    {
        "city": "Araranguá",
        "state": "SC",
        "district": "Alto Feliz",
        "street": "Rua Maria Leocárdia",
        "zipcode": "88905-040"
    },
    {
        "city": "Araranguá",
        "state": "SC",
        "district": "Morro dos Conventos",
        "street": "Rua Caxias",
        "zipcode": "88911-320"
    },
    {
        "city": "Araranguá",
        "state": "SC",
        "district": "Coloninha",
        "street": "Rua Eduardo Bertolino de Araújo",
        "zipcode": "88906-792"
    },
    {
        "city": "Araranguá",
        "state": "SC",
        "district": "Cidade Alta",
        "street": "Travessa 1",
        "zipcode": "88901-124"
    },
    {
        "city": "Araranguá",
        "state": "SC",
        "district": "Arapongas",
        "street": "Rodovia Valmiro Manoel Gonçalves",
        "zipcode": "88906-501"
    },
    {
        "city": "Araranguá",
        "state": "SC",
        "district": "Área Rural de Araranguá",
        "street": "Área Rural",
        "zipcode": "88913-899"
    },
    {
        "city": "Araranguá",
        "state": "SC",
        "district": "Jardim das Avenidas",
        "street": "Rua Lourival Honorato de Freitas",
        "zipcode": "88906-101"
    },
    {
        "city": "Araranguá",
        "state": "SC",
        "district": "Cidade Alta",
        "street": "Avenida Sete de Setembro",
        "zipcode": "88901-038"
    },
    {
        "city": "Araranguá",
        "state": "SC",
        "district": "Cidade Alta",
        "street": "Avenida Sete de Setembro",
        "zipcode": "88901-044"
    },
    {
        "city": "Araranguá",
        "state": "SC",
        "district": "Alto Feliz",
        "street": "Avenida Sete de Setembro",
        "zipcode": "88905-028"
    },
    {
        "city": "Araranguá",
        "state": "SC",
        "district": "Centro",
        "street": "Avenida Sete de Setembro",
        "zipcode": "88900-015"
    },
    {
        "city": "Araranguá",
        "state": "SC",
        "district": "Centro",
        "street": "Avenida Sete de Setembro",
        "zipcode": "88900-049"
    },
    {
        "city": "Araranguá",
        "state": "SC",
        "district": "Nova Divinéia",
        "street": "Rua Vereador Paulo Hilzendeger",
        "zipcode": "88905-260"
    },
    {
        "city": "Araranguá",
        "state": "SC",
        "district": "Jardim das Avenidas",
        "street": "Rua Paulo Martins dos Santos",
        "zipcode": "88906-076"
    },
    {
        "city": "Araranguá",
        "state": "SC",
        "district": "Coloninha",
        "street": "Rua Fábio Pereira",
        "zipcode": "88906-714"
    },
    {
        "city": "Araranguá",
        "state": "SC",
        "district": "Coloninha",
        "street": "Rua Felipe Bacha",
        "zipcode": "88906-696"
    },
    {
        "city": "Araranguá",
        "state": "SC",
        "district": "Santa Catarina",
        "street": "Rua Felipe Cidade de Oliveira",
        "zipcode": "88902-540"
    },
    {
        "city": "Araranguá",
        "state": "SC",
        "district": "Urussanguinha",
        "street": "Rua das Figueiras",
        "zipcode": "88905-474"
    },
    {
        "city": "Araranguá",
        "state": "SC",
        "district": "Coloninha",
        "street": "Rua Prefeito José Rocha",
        "zipcode": "88906-726"
    },
    {
        "city": "Araranguá",
        "state": "SC",
        "district": "Hercílio Luz (Hercílio Luz)",
        "street": "Estrada Geral Hercílio Luz",
        "zipcode": "88912-970"
    },
    {
        "city": "Araranguá",
        "state": "SC",
        "district": "Alto Feliz",
        "street": "Servidão 1 (Lot J B Silva)",
        "zipcode": "88905-078"
    },
    {
        "city": "Araranguá",
        "state": "SC",
        "district": "Alto Feliz",
        "street": "Travessa Olívio Rezin (Lot J B Silva)",
        "zipcode": "88905-092"
    },
    {
        "city": "Araranguá",
        "state": "SC",
        "district": "Centro",
        "street": "Rua Dilce Canella Becker",
        "zipcode": "88900-029"
    },
    {
        "city": "Araranguá",
        "state": "SC",
        "district": "Mato Alto",
        "street": "Rua Paulo Hahn",
        "zipcode": "88904-152"
    },
    {
        "city": "Araranguá",
        "state": "SC",
        "district": "Jardim Cibeli",
        "street": "Rua Eroni Souza Gomes",
        "zipcode": "88901-268"
    },
    {
        "city": "Araranguá",
        "state": "SC",
        "district": "Lagoão",
        "street": "Rua Padre Ézio Juli",
        "zipcode": "88904-268"
    },
    {
        "city": "Araranguá",
        "state": "SC",
        "district": "Morro dos Conventos",
        "street": "Rodovia Valmiro Manoel Gonçalves",
        "zipcode": "88911-402"
    },
    {
        "city": "Araranguá",
        "state": "SC",
        "district": "Alto Feliz",
        "street": "Rua Jovelino Costa",
        "zipcode": "88905-076"
    },
    {
        "city": "Araranguá",
        "state": "SC",
        "district": "Barranca",
        "street": "Rua Lauro da Cunha Carneiro",
        "zipcode": "88900-342"
    },
    {
        "city": "Araranguá",
        "state": "SC",
        "district": "Lagoão",
        "street": "Rua Lealdino João Joaquim",
        "zipcode": "88904-266"
    },
    {
        "city": "Araranguá",
        "state": "SC",
        "district": "Cidade Alta",
        "street": "Avenida Presidente João Goulart",
        "zipcode": "88901-024"
    },
    {
        "city": "Araranguá",
        "state": "SC",
        "district": "Barranca",
        "street": "Rua João Inácio Costa",
        "zipcode": "88900-386"
    },
    {
        "city": "Araranguá",
        "state": "SC",
        "district": "Coloninha",
        "street": "Travessa Pedro Rosalino Corrêa",
        "zipcode": "88906-788"
    },
    {
        "city": "Araranguá",
        "state": "SC",
        "district": "Morro dos Conventos",
        "street": "Rua Estrela",
        "zipcode": "88911-114"
    },
    {
        "city": "Araranguá",
        "state": "SC",
        "district": "Cidade Alta",
        "street": "Rua Prefeito Ruy Stockler de Souza",
        "zipcode": "88901-054"
    },
    {
        "city": "Araranguá",
        "state": "SC",
        "district": "Coloninha",
        "street": "Rua B (Lot Araponga)",
        "zipcode": "88906-540"
    },
    {
        "city": "Araranguá",
        "state": "SC",
        "district": "Coloninha",
        "street": "Rua Alceu Glicério Pacheco",
        "zipcode": "88906-708"
    },
    {
        "city": "Araranguá",
        "state": "SC",
        "district": "Morro dos Conventos",
        "street": "Rua A (Conventos Baixos)",
        "zipcode": "88911-116"
    },
    {
        "city": "Araranguá",
        "state": "SC",
        "district": "Morro dos Conventos",
        "street": "Rua Existente 03",
        "zipcode": "88911-404"
    },
    {
        "city": "Araranguá",
        "state": "SC",
        "district": "Hercílio Luz (Hercílio Luz)",
        "street": "Estrada Geral Hercílio Luz",
        "zipcode": "88912-002"
    },
    {
        "city": "Araranguá",
        "state": "SC",
        "district": "Jardim das Avenidas",
        "street": "Rua Enfermeira Sandra Helena da Silva",
        "zipcode": "88906-032"
    },
    {
        "city": "Araranguá",
        "state": "SC",
        "district": "Jardim das Avenidas",
        "street": "Rua Enfermeira Sandra Helena da Silva",
        "zipcode": "88906-010"
    },
    {
        "city": "Araranguá",
        "state": "SC",
        "district": "Morro dos Conventos",
        "street": "Rua 8",
        "zipcode": "88911-392"
    },
    {
        "city": "Araranguá",
        "state": "SC",
        "district": "Cidade Alta",
        "street": "Rua Presidente Nereu Ramos",
        "zipcode": "88901-056"
    },
    {
        "city": "Araranguá",
        "state": "SC",
        "district": "Aeroporto",
        "street": "Rua Fúlvio Furtado",
        "zipcode": "88905-192"
    },
    {
        "city": "Araranguá",
        "state": "SC",
        "district": "Centro",
        "street": "Rua Prefeito Gercino Pasquali",
        "zipcode": "88900-025"
    },
    {
        "city": "Araranguá",
        "state": "SC",
        "district": "Jardim das Avenidas",
        "street": "Rua Caetano Lummertz",
        "zipcode": "88906-046"
    },
    {
        "city": "Araranguá",
        "state": "SC",
        "district": "Centro",
        "street": "Rua Caetano Lummertz",
        "zipcode": "88900-045"
    },
    {
        "city": "Araranguá",
        "state": "SC",
        "district": "Nova Divinéia",
        "street": "Rua Governador Jorge Lacerda",
        "zipcode": "88905-234"
    },
    {
        "city": "Araranguá",
        "state": "SC",
        "district": "Hercílio Luz (Hercílio Luz)",
        "street": "Rua São José",
        "zipcode": "88912-006"
    },
    {
        "city": "Araranguá",
        "state": "SC",
        "district": "Santa Catarina",
        "street": "Rodovia José Francisco Pereira",
        "zipcode": "88902-500"
    },
    {
        "city": "Araranguá",
        "state": "SC",
        "district": "Lagoão",
        "street": "Rua Cabo Alírio Dandolini",
        "zipcode": "88904-254"
    },
    {
        "city": "Araranguá",
        "state": "SC",
        "district": "Coloninha",
        "street": "Rua Prefeito Altícimo Tournier",
        "zipcode": "88906-780"
    },
    {
        "city": "Araranguá",
        "state": "SC",
        "district": "Centro",
        "street": "Rua Prefeito Walter Belinzoni",
        "zipcode": "88900-017"
    },
    {
        "city": "Araranguá",
        "state": "SC",
        "district": "Urussanguinha",
        "street": "Rua Expedicionário Honorato Francisco de Freitas",
        "zipcode": "88905-530"
    },
    {
        "city": "Araranguá",
        "state": "SC",
        "district": "Sanga da Areia",
        "street": "Rua Manoel Patrício Cândido Teixeira",
        "zipcode": "88902-580"
    },
    {
        "city": "Araranguá",
        "state": "SC",
        "district": "Vila São José",
        "street": "Rua Prefeito Asteróide Arantes",
        "zipcode": "88900-216"
    },
    {
        "city": "Araranguá",
        "state": "SC",
        "district": "Sanga da Areia",
        "street": "Rua Marfísio Felisberto Costa",
        "zipcode": "88902-572"
    },
    {
        "city": "Araranguá",
        "state": "SC",
        "district": "Barranca",
        "street": "Rua Vanteiro Nichele",
        "zipcode": "88900-312"
    },
    {
        "city": "Araranguá",
        "state": "SC",
        "district": "Morro dos Conventos",
        "street": "Rua Veranópolis",
        "zipcode": "88911-328"
    },
    {
        "city": "Araranguá",
        "state": "SC",
        "district": "Mato Alto",
        "street": "Rua Vereador José Manoel Emídio",
        "zipcode": "88904-178"
    },
    {
        "city": "Araranguá",
        "state": "SC",
        "district": "Cidade Alta",
        "street": "Rua Professor Abílio Gomes",
        "zipcode": "88901-028"
    },
    {
        "city": "Araranguá",
        "state": "SC",
        "district": "Nova Divinéia",
        "street": "Rua Carlos Cardoso",
        "zipcode": "88905-310"
    },
    {
        "city": "Araranguá",
        "state": "SC",
        "district": "Jardim Cibeli",
        "street": "Rua Celino Rufino da Silva",
        "zipcode": "88901-218"
    },
    {
        "city": "Araranguá",
        "state": "SC",
        "district": "Centro",
        "street": "Rua Expedicionário Iracy Luchina",
        "zipcode": "88900-039"
    },
    {
        "city": "Araranguá",
        "state": "SC",
        "district": "Coloninha",
        "street": "Rua Expedicionário Iracy Luchina",
        "zipcode": "88906-730"
    },
    {
        "city": "Araranguá",
        "state": "SC",
        "district": "Coloninha",
        "street": "Rua Expedicionário Iracy Luchina",
        "zipcode": "88906-762"
    },
    {
        "city": "Araranguá",
        "state": "SC",
        "district": "Morro dos Conventos",
        "street": "Rua Passo Fundo",
        "zipcode": "88911-318"
    },
    {
        "city": "Araranguá",
        "state": "SC",
        "district": "Cidade Alta",
        "street": "Rodovia Prefeito Edevar Pelegrini",
        "zipcode": "88901-087"
    },
    {
        "city": "Araranguá",
        "state": "SC",
        "district": "Balneário de Ilhas (Hercílio Luz)",
        "street": "Rua Antonio João da Silva",
        "zipcode": "88912-506"
    },
    {
        "city": "Araranguá",
        "state": "SC",
        "district": "Hercílio Luz (Hercílio Luz)",
        "street": "Rua Celso Ramos",
        "zipcode": "88912-009"
    },
    {
        "city": "Araranguá",
        "state": "SC",
        "district": "Urussanguinha",
        "street": "Rua Otacílio João Cardoso",
        "zipcode": "88905-366"
    },
    {
        "city": "Araranguá",
        "state": "SC",
        "district": "Morro dos Conventos",
        "street": "Rua Guarani",
        "zipcode": "88911-370"
    },
    {
        "city": "Araranguá",
        "state": "SC",
        "district": "Centro",
        "street": "Rua Procópio Caetano da Silva",
        "zipcode": "88900-079"
    },
    {
        "city": "Araranguá",
        "state": "SC",
        "district": "Vila São José",
        "street": "Rua José Carlos Linhares",
        "zipcode": "88900-124"
    },
    {
        "city": "Araranguá",
        "state": "SC",
        "district": "Coloninha",
        "street": "Avenida B (COHAB Nova)",
        "zipcode": "88906-560"
    },
    {
        "city": "Araranguá",
        "state": "SC",
        "district": "Urussanguinha",
        "street": "Servidão Bartolomeu Manoel Pereira",
        "zipcode": "88905-374"
    },
    {
        "city": "Araranguá",
        "state": "SC",
        "district": "Aeroporto",
        "street": "Rua João Joaquim Anastácio",
        "zipcode": "88905-159"
    },
    {
        "city": "Araranguá",
        "state": "SC",
        "district": "Hercílio Luz (Hercílio Luz)",
        "street": "Rua Manoel Santos de Matos",
        "zipcode": "88912-018"
    },
    {
        "city": "Araranguá",
        "state": "SC",
        "district": "Sanga da Areia",
        "street": "Rua D (Lot Santarém)",
        "zipcode": "88902-680"
    },
    {
        "city": "Araranguá",
        "state": "SC",
        "district": "Coloninha",
        "street": "Servidão Bento Soares de Araújo",
        "zipcode": "88906-790"
    },
    {
        "city": "Araranguá",
        "state": "SC",
        "district": "Nova Divinéia",
        "street": "Servidão Dircioni Vieira Pereira",
        "zipcode": "88905-242"
    },
    {
        "city": "Araranguá",
        "state": "SC",
        "district": "Cidade Alta",
        "street": "Rua Severino José de Souza",
        "zipcode": "88901-088"
    },
    {
        "city": "Araranguá",
        "state": "SC",
        "district": "Sanga da Areia",
        "street": "Rua Donato Marinho Anastácio",
        "zipcode": "88902-610"
    },
    {
        "city": "Araranguá",
        "state": "SC",
        "district": "Hercílio Luz (Hercílio Luz)",
        "street": "Rua Hercílio Procópio de Souza",
        "zipcode": "88912-015"
    },
    {
        "city": "Araranguá",
        "state": "SC",
        "district": "Jardim das Avenidas",
        "street": "Rua Ivan Villar Rabello",
        "zipcode": "88906-044"
    },
    {
        "city": "Araranguá",
        "state": "SC",
        "district": "Urussanguinha",
        "street": "Rua Camilo Virginio de Souza",
        "zipcode": "88905-430"
    },
    {
        "city": "Araranguá",
        "state": "SC",
        "district": "Nova Divinéia",
        "street": "Rua Valdir Daboit Lucthemberg",
        "zipcode": "88905-312"
    },
    {
        "city": "Araranguá",
        "state": "SC",
        "district": "Jardim das Avenidas",
        "street": "Avenida Vereador Manoel Costa",
        "zipcode": "88906-088"
    },
    {
        "city": "Araranguá",
        "state": "SC",
        "district": "Nova Divinéia",
        "street": "Rua Antônio Manoel João",
        "zipcode": "88905-320"
    },
    {
        "city": "Araranguá",
        "state": "SC",
        "district": "Mato Alto",
        "street": "Rua Padre Pacífico DAgostin",
        "zipcode": "88904-064"
    },
    {
        "city": "Araranguá",
        "state": "SC",
        "district": "Sanga da Toca",
        "street": "Rua José Manoel Gomes",
        "zipcode": "88910-008"
    },
    {
        "city": "Araranguá",
        "state": "SC",
        "district": "Coloninha",
        "street": "Rua Erotides do Canto Caetano",
        "zipcode": "88906-694"
    },
    {
        "city": "Araranguá",
        "state": "SC",
        "district": "Polícia Rodoviária",
        "street": "Rua Manoel Francisco de Oliveira (Lot J Eucaliptos)",
        "zipcode": "88902-128"
    },
    {
        "city": "Araranguá",
        "state": "SC",
        "district": "Morro dos Conventos",
        "street": "Rua Antonio Prado",
        "zipcode": "88911-342"
    },
    {
        "city": "Araranguá",
        "state": "SC",
        "district": "Jardim das Avenidas",
        "street": "Rua Manoel Norberto Costa",
        "zipcode": "88906-054"
    },
    {
        "city": "Araranguá",
        "state": "SC",
        "district": "Sanga da Areia",
        "street": "Rua Manoel João Bitencourt",
        "zipcode": "88902-576"
    },
    {
        "city": "Araranguá",
        "state": "SC",
        "district": "Morro dos Conventos",
        "street": "Avenida Atlântica",
        "zipcode": "88911-322"
    },
    {
        "city": "Araranguá",
        "state": "SC",
        "district": "Polícia Rodoviária",
        "street": "Rua Juarez Veiga",
        "zipcode": "88902-134"
    },
    {
        "city": "Araranguá",
        "state": "SC",
        "district": "Morro dos Conventos",
        "street": "Servidão G (Paiquere)",
        "zipcode": "88911-068"
    },
    {
        "city": "Araranguá",
        "state": "SC",
        "district": "Centro",
        "street": "Rua Sargento Arnaldo Hubbe",
        "zipcode": "88900-011"
    },
    {
        "city": "Araranguá",
        "state": "SC",
        "district": "Balneário de Ilhas (Hercílio Luz)",
        "street": "Rua Bráulia de Souza Freitas",
        "zipcode": "88912-502"
    },
    {
        "city": "Araranguá",
        "state": "SC",
        "district": "Coloninha",
        "street": "Rua Nilton Goulart Ramos",
        "zipcode": "88906-652"
    },
    {
        "city": "Araranguá",
        "state": "SC",
        "district": "Lagoão",
        "street": "Rua Otília Merêncio de Souza",
        "zipcode": "88904-362"
    },
    {
        "city": "Araranguá",
        "state": "SC",
        "district": "Urussanguinha",
        "street": "Rua Guilherme Kretschmer",
        "zipcode": "88905-418"
    },
    {
        "city": "Araranguá",
        "state": "SC",
        "district": "Balneário de Ilhas (Hercílio Luz)",
        "street": "Travessa 21 de Abril",
        "zipcode": "88912-522"
    },
    {
        "city": "Araranguá",
        "state": "SC",
        "district": "Morro dos Conventos",
        "street": "Avenida Beira",
        "zipcode": "88911-072"
    },
    {
        "city": "Araranguá",
        "state": "SC",
        "district": "Morro dos Conventos",
        "street": "Rua Vereador Euclides Odorico do Canto",
        "zipcode": "88911-410"
    }
]