[
    {
        "city": "Balneário Camboriú",
        "state": "SC",
        "district": "Barra",
        "street": "Rua Bruno Zabel",
        "zipcode": "88332-110"
    },
    {
        "city": "Balneário Camboriú",
        "state": "SC",
        "district": "Barra",
        "street": "Rua Eliel Corrêa",
        "zipcode": "88332-205"
    },
    {
        "city": "Balneário Camboriú",
        "state": "SC",
        "district": "Nações",
        "street": "Rua Bulgária",
        "zipcode": "88338-325"
    },
    {
        "city": "Balneário Camboriú",
        "state": "SC",
        "district": "Estados",
        "street": "Rua Rondônia",
        "zipcode": "88339-050"
    },
    {
        "city": "Balneário Camboriú",
        "state": "SC",
        "district": "Centro",
        "street": "Avenida Atlântica",
        "zipcode": "88330-003"
    },
    {
        "city": "Balneário Camboriú",
        "state": "SC",
        "district": "Centro",
        "street": "Rua 2000",
        "zipcode": "88330-466"
    },
    {
        "city": "Balneário Camboriú",
        "state": "SC",
        "district": "Centro",
        "street": "Rua Particular",
        "zipcode": "88330-185"
    },
    {
        "city": "Balneário Camboriú",
        "state": "SC",
        "district": "Centro",
        "street": "Rua 900",
        "zipcode": "88330-604"
    },
    {
        "city": "Balneário Camboriú",
        "state": "SC",
        "district": "Nova Esperança",
        "street": "Rua Mario Silvério Cabral",
        "zipcode": "88336-038"
    },
    {
        "city": "Balneário Camboriú",
        "state": "SC",
        "district": "Praia do Estaleirinho",
        "street": "Rua Paulo João Ramos",
        "zipcode": "88334-560"
    },
    {
        "city": "Balneário Camboriú",
        "state": "SC",
        "district": "Nações",
        "street": "Rua Iugoslávia",
        "zipcode": "88338-040"
    },
    {
        "city": "Balneário Camboriú",
        "state": "SC",
        "district": "Nações",
        "street": "Rua Mônaco",
        "zipcode": "88338-070"
    },
    {
        "city": "Balneário Camboriú",
        "state": "SC",
        "district": "Estados",
        "street": "Alameda dos Estados Policial Luiz Carlos Rosa",
        "zipcode": "88339-122"
    },
    {
        "city": "Balneário Camboriú",
        "state": "SC",
        "district": "Barra",
        "street": "Rua Lindolfo André Linhares",
        "zipcode": "88332-215"
    },
    {
        "city": "Balneário Camboriú",
        "state": "SC",
        "district": "Municípios",
        "street": "Rua Anita Garibaldi",
        "zipcode": "88337-540"
    },
    {
        "city": "Balneário Camboriú",
        "state": "SC",
        "district": "Municípios",
        "street": "Rodovia BR",
        "zipcode": "88337-330"
    },
    {
        "city": "Balneário Camboriú",
        "state": "SC",
        "district": "Barra",
        "street": "Rua Pedro Pinto Corrêa",
        "zipcode": "88332-240"
    },
    {
        "city": "Balneário Camboriú",
        "state": "SC",
        "district": "Praia do Estaleiro",
        "street": "Rua Pedro Francisco Vieira",
        "zipcode": "88334-086"
    },
    {
        "city": "Balneário Camboriú",
        "state": "SC",
        "district": "Pioneiros",
        "street": "Rua Bibiano dos Santos",
        "zipcode": "88331-095"
    },
    {
        "city": "Balneário Camboriú",
        "state": "SC",
        "district": "Centro",
        "street": "Avenida do Estado Dalmo Vieira",
        "zipcode": "88330-663"
    },
    {
        "city": "Balneário Camboriú",
        "state": "SC",
        "district": "Centro",
        "street": "Avenida Central",
        "zipcode": "88330-668"
    },
    {
        "city": "Balneário Camboriú",
        "state": "SC",
        "district": "Centro",
        "street": "Avenida Atlântica",
        "zipcode": "88330-012"
    },
    {
        "city": "Balneário Camboriú",
        "state": "SC",
        "district": "Barra",
        "street": "Rua Bento Cunha",
        "zipcode": "88332-170"
    },
    {
        "city": "Balneário Camboriú",
        "state": "SC",
        "district": "Praia do Estaleiro",
        "street": "Rua Benta Vieira",
        "zipcode": "88334-123"
    },
    {
        "city": "Balneário Camboriú",
        "state": "SC",
        "district": "Praia do Estaleirinho",
        "street": "Rua Antônio Sabino da Silva",
        "zipcode": "88334-695"
    },
    {
        "city": "Balneário Camboriú",
        "state": "SC",
        "district": "Nova Esperança",
        "street": "Rua Alcides Kurth",
        "zipcode": "88336-105"
    },
    {
        "city": "Balneário Camboriú",
        "state": "SC",
        "district": "Vila Real",
        "street": "Avenida Marginal Oeste",
        "zipcode": "88337-000"
    },
    {
        "city": "Balneário Camboriú",
        "state": "SC",
        "district": "Municípios",
        "street": "Rua Anchieta",
        "zipcode": "88337-485"
    },
    {
        "city": "Balneário Camboriú",
        "state": "SC",
        "district": "Praia das Taquaras",
        "street": "Alameda das Acácias",
        "zipcode": "88333-040"
    },
    {
        "city": "Balneário Camboriú",
        "state": "SC",
        "district": "Nações",
        "street": "Avenida Palestina",
        "zipcode": "88338-010"
    },
    {
        "city": "Balneário Camboriú",
        "state": "SC",
        "district": "Centro",
        "street": "Rua 2050",
        "zipcode": "88330-458"
    },
    {
        "city": "Balneário Camboriú",
        "state": "SC",
        "district": "Centro",
        "street": "Rua 1950",
        "zipcode": "88330-474"
    },
    {
        "city": "Balneário Camboriú",
        "state": "SC",
        "district": "Centro",
        "street": "Rua 1500",
        "zipcode": "88330-528"
    },
    {
        "city": "Balneário Camboriú",
        "state": "SC",
        "district": "Centro",
        "street": "Rua 1107",
        "zipcode": "88330-777"
    },
    {
        "city": "Balneário Camboriú",
        "state": "SC",
        "district": "Centro",
        "street": "Rua 1150",
        "zipcode": "88330-555"
    },
    {
        "city": "Balneário Camboriú",
        "state": "SC",
        "district": "Centro",
        "street": "Rua 1536",
        "zipcode": "88330-610"
    },
    {
        "city": "Balneário Camboriú",
        "state": "SC",
        "district": "Barra",
        "street": "Rua Jardim da Saudade",
        "zipcode": "88332-055"
    },
    {
        "city": "Balneário Camboriú",
        "state": "SC",
        "district": "Centro",
        "street": "Rua 2060",
        "zipcode": "88330-449"
    },
    {
        "city": "Balneário Camboriú",
        "state": "SC",
        "district": "Centro",
        "street": "Rua 620",
        "zipcode": "88330-622"
    },
    {
        "city": "Balneário Camboriú",
        "state": "SC",
        "district": "Nova Esperança",
        "street": "Rua Almiro Leodoro",
        "zipcode": "88336-160"
    },
    {
        "city": "Balneário Camboriú",
        "state": "SC",
        "district": "Ariribá",
        "street": "Rua Coruja",
        "zipcode": "88338-517"
    },
    {
        "city": "Balneário Camboriú",
        "state": "SC",
        "district": "Ariribá",
        "street": "Rua Rouxinol",
        "zipcode": "88338-650"
    },
    {
        "city": "Balneário Camboriú",
        "state": "SC",
        "district": "Estados",
        "street": "Rua Acre",
        "zipcode": "88339-080"
    },
    {
        "city": "Balneário Camboriú",
        "state": "SC",
        "district": "Barra",
        "street": "Rua José Francisco Vitor",
        "zipcode": "88332-230"
    },
    {
        "city": "Balneário Camboriú",
        "state": "SC",
        "district": "Centro",
        "street": "Rua 701",
        "zipcode": "88330-711"
    },
    {
        "city": "Balneário Camboriú",
        "state": "SC",
        "district": "Pioneiros",
        "street": "Rua Miguel Matte",
        "zipcode": "88331-030"
    },
    {
        "city": "Balneário Camboriú",
        "state": "SC",
        "district": "Pioneiros",
        "street": "Rua Walmor Boaventura",
        "zipcode": "88331-035"
    },
    {
        "city": "Balneário Camboriú",
        "state": "SC",
        "district": "Centro",
        "street": "Rua 4600",
        "zipcode": "88330-140"
    },
    {
        "city": "Balneário Camboriú",
        "state": "SC",
        "district": "Municípios",
        "street": "Rua Blumenau",
        "zipcode": "88337-440"
    },
    {
        "city": "Balneário Camboriú",
        "state": "SC",
        "district": "Centro",
        "street": "Avenida Normando Tedesco",
        "zipcode": "88330-120"
    },
    {
        "city": "Balneário Camboriú",
        "state": "SC",
        "district": "Centro",
        "street": "3ª Avenida",
        "zipcode": "88330-088"
    },
    {
        "city": "Balneário Camboriú",
        "state": "SC",
        "district": "Centro",
        "street": "Avenida Normando Tedesco",
        "zipcode": "88330-123"
    },
    {
        "city": "Balneário Camboriú",
        "state": "SC",
        "district": "Centro",
        "street": "Avenida do Estado Dalmo Vieira",
        "zipcode": "88330-079"
    },
    {
        "city": "Balneário Camboriú",
        "state": "SC",
        "district": "Centro",
        "street": "Rua 3700",
        "zipcode": "88330-203"
    },
    {
        "city": "Balneário Camboriú",
        "state": "SC",
        "district": "Centro",
        "street": "Avenida do Estado Dalmo Vieira",
        "zipcode": "88330-075"
    },
    {
        "city": "Balneário Camboriú",
        "state": "SC",
        "district": "Centro",
        "street": "Rua 4750",
        "zipcode": "88330-130"
    },
    {
        "city": "Balneário Camboriú",
        "state": "SC",
        "district": "Praia das Taquaras",
        "street": "Rua Hibisco",
        "zipcode": "88333-055"
    },
    {
        "city": "Balneário Camboriú",
        "state": "SC",
        "district": "Centro",
        "street": "Rua 2970",
        "zipcode": "88330-340"
    },
    {
        "city": "Balneário Camboriú",
        "state": "SC",
        "district": "Barra",
        "street": "Rua Maria Madalena Cardoso da Cunha",
        "zipcode": "88332-233"
    },
    {
        "city": "Balneário Camboriú",
        "state": "SC",
        "district": "Praia dos Amores",
        "street": "Rua Cruz e Sousa",
        "zipcode": "88331-420"
    },
    {
        "city": "Balneário Camboriú",
        "state": "SC",
        "district": "Pioneiros",
        "street": "Avenida Osmar de Souza Nunes",
        "zipcode": "88331-070"
    },
    {
        "city": "Balneário Camboriú",
        "state": "SC",
        "district": "Centro",
        "street": "Rua 2350",
        "zipcode": "88330-420"
    },
    {
        "city": "Balneário Camboriú",
        "state": "SC",
        "district": "Centro",
        "street": "Rua 2300",
        "zipcode": "88330-428"
    },
    {
        "city": "Balneário Camboriú",
        "state": "SC",
        "district": "Centro",
        "street": "Rua 2700",
        "zipcode": "88330-378"
    },
    {
        "city": "Balneário Camboriú",
        "state": "SC",
        "district": "Centro",
        "street": "Rua 2700",
        "zipcode": "88330-376"
    },
    {
        "city": "Balneário Camboriú",
        "state": "SC",
        "district": "Centro",
        "street": "Rodovia BR",
        "zipcode": "88330-331"
    },
    {
        "city": "Balneário Camboriú",
        "state": "SC",
        "district": "Centro",
        "street": "Rua 2970",
        "zipcode": "88330-338"
    },
    {
        "city": "Balneário Camboriú",
        "state": "SC",
        "district": "Centro",
        "street": "Rua 2850",
        "zipcode": "88330-363"
    },
    {
        "city": "Balneário Camboriú",
        "state": "SC",
        "district": "Centro",
        "street": "Rua 2850",
        "zipcode": "88330-365"
    },
    {
        "city": "Balneário Camboriú",
        "state": "SC",
        "district": "Centro",
        "street": "Rua 2800",
        "zipcode": "88330-368"
    },
    {
        "city": "Balneário Camboriú",
        "state": "SC",
        "district": "Centro",
        "street": "Rua 2800",
        "zipcode": "88330-372"
    },
    {
        "city": "Balneário Camboriú",
        "state": "SC",
        "district": "Centro",
        "street": "Rua 3000",
        "zipcode": "88330-334"
    },
    {
        "city": "Balneário Camboriú",
        "state": "SC",
        "district": "Centro",
        "street": "Rua 2900",
        "zipcode": "88330-355"
    },
    {
        "city": "Balneário Camboriú",
        "state": "SC",
        "district": "Centro",
        "street": "Rua 3110",
        "zipcode": "88330-287"
    },
    {
        "city": "Balneário Camboriú",
        "state": "SC",
        "district": "Centro",
        "street": "Rua 3144",
        "zipcode": "88330-296"
    },
    {
        "city": "Balneário Camboriú",
        "state": "SC",
        "district": "Centro",
        "street": "Rua 3024",
        "zipcode": "88330-314"
    },
    {
        "city": "Balneário Camboriú",
        "state": "SC",
        "district": "Centro",
        "street": "Avenida Brasil",
        "zipcode": "88330-053"
    },
    {
        "city": "Balneário Camboriú",
        "state": "SC",
        "district": "Centro",
        "street": "Avenida Atlântica",
        "zipcode": "88330-015"
    },
    {
        "city": "Balneário Camboriú",
        "state": "SC",
        "district": "Vila Real",
        "street": "Rua Dom Afonso",
        "zipcode": "88337-070"
    },
    {
        "city": "Balneário Camboriú",
        "state": "SC",
        "district": "Praia das Taquaras",
        "street": "Rua Bacupari",
        "zipcode": "88333-015"
    },
    {
        "city": "Balneário Camboriú",
        "state": "SC",
        "district": "Centro",
        "street": "Avenida Brasil",
        "zipcode": "88330-043"
    },
    {
        "city": "Balneário Camboriú",
        "state": "SC",
        "district": "Centro",
        "street": "Rua 1919",
        "zipcode": "88330-822"
    },
    {
        "city": "Balneário Camboriú",
        "state": "SC",
        "district": "Praia das Taquaras",
        "street": "Rua Jabuticabeira",
        "zipcode": "88333-077"
    },
    {
        "city": "Balneário Camboriú",
        "state": "SC",
        "district": "Centro",
        "street": "Rua 2448",
        "zipcode": "88330-398"
    },
    {
        "city": "Balneário Camboriú",
        "state": "SC",
        "district": "Centro",
        "street": "Rua 901",
        "zipcode": "88330-725"
    },
    {
        "city": "Balneário Camboriú",
        "state": "SC",
        "district": "Centro",
        "street": "Rua 2700",
        "zipcode": "88330-374"
    },
    {
        "city": "Balneário Camboriú",
        "state": "SC",
        "district": "Centro",
        "street": "Rua 2650",
        "zipcode": "88330-380"
    },
    {
        "city": "Balneário Camboriú",
        "state": "SC",
        "district": "Centro",
        "street": "Rua 2400",
        "zipcode": "88330-414"
    },
    {
        "city": "Balneário Camboriú",
        "state": "SC",
        "district": "Centro",
        "street": "Rua 2600",
        "zipcode": "88330-385"
    },
    {
        "city": "Balneário Camboriú",
        "state": "SC",
        "district": "Centro",
        "street": "Rua 990",
        "zipcode": "88330-572"
    },
    {
        "city": "Balneário Camboriú",
        "state": "SC",
        "district": "Centro",
        "street": "Avenida Atlântica",
        "zipcode": "88330-024"
    },
    {
        "city": "Balneário Camboriú",
        "state": "SC",
        "district": "Centro",
        "street": "Rua 3712",
        "zipcode": "88330-221"
    },
    {
        "city": "Balneário Camboriú",
        "state": "SC",
        "district": "Centro",
        "street": "Rua 3614",
        "zipcode": "88330-242"
    },
    {
        "city": "Balneário Camboriú",
        "state": "SC",
        "district": "Centro",
        "street": "Rua 4100",
        "zipcode": "88330-175"
    },
    {
        "city": "Balneário Camboriú",
        "state": "SC",
        "district": "Centro",
        "street": "Rua 3900",
        "zipcode": "88330-188"
    },
    {
        "city": "Balneário Camboriú",
        "state": "SC",
        "district": "Centro",
        "street": "3ª Avenida",
        "zipcode": "88330-096"
    },
    {
        "city": "Balneário Camboriú",
        "state": "SC",
        "district": "Centro",
        "street": "3ª Avenida",
        "zipcode": "88330-099"
    },
    {
        "city": "Balneário Camboriú",
        "state": "SC",
        "district": "Centro",
        "street": "4ª Avenida",
        "zipcode": "88330-107"
    },
    {
        "city": "Balneário Camboriú",
        "state": "SC",
        "district": "Centro",
        "street": "Rua 4550",
        "zipcode": "88330-145"
    },
    {
        "city": "Balneário Camboriú",
        "state": "SC",
        "district": "Centro",
        "street": "Rua 3300",
        "zipcode": "88330-272"
    },
    {
        "city": "Balneário Camboriú",
        "state": "SC",
        "district": "Centro",
        "street": "Rua 3020",
        "zipcode": "88330-317"
    },
    {
        "city": "Balneário Camboriú",
        "state": "SC",
        "district": "Centro",
        "street": "Rua 2390",
        "zipcode": "88330-497"
    },
    {
        "city": "Balneário Camboriú",
        "state": "SC",
        "district": "Nova Esperança",
        "street": "Rua Fermino Cunha",
        "zipcode": "88336-175"
    },
    {
        "city": "Balneário Camboriú",
        "state": "SC",
        "district": "São Judas Tadeu",
        "street": "Rua João Laurindo",
        "zipcode": "88332-430"
    },
    {
        "city": "Balneário Camboriú",
        "state": "SC",
        "district": "Estados",
        "street": "Avenida Santa Catarina",
        "zipcode": "88339-901"
    },
    {
        "city": "Balneário Camboriú",
        "state": "SC",
        "district": "Centro",
        "street": "Rua 1950",
        "zipcode": "88330-470"
    },
    {
        "city": "Balneário Camboriú",
        "state": "SC",
        "district": "Centro",
        "street": "Rua 2380",
        "zipcode": "88330-494"
    },
    {
        "city": "Balneário Camboriú",
        "state": "SC",
        "district": "Centro",
        "street": "Rua 1542",
        "zipcode": "88330-503"
    },
    {
        "city": "Balneário Camboriú",
        "state": "SC",
        "district": "Centro",
        "street": "Rua 3140",
        "zipcode": "88330-323"
    },
    {
        "city": "Balneário Camboriú",
        "state": "SC",
        "district": "Centro",
        "street": "Rua 3198",
        "zipcode": "88330-326"
    },
    {
        "city": "Balneário Camboriú",
        "state": "SC",
        "district": "Centro",
        "street": "Rua 2950",
        "zipcode": "88330-345"
    },
    {
        "city": "Balneário Camboriú",
        "state": "SC",
        "district": "Centro",
        "street": "Rua 3158",
        "zipcode": "88330-320"
    },
    {
        "city": "Balneário Camboriú",
        "state": "SC",
        "district": "Centro",
        "street": "Rua 3160",
        "zipcode": "88330-284"
    },
    {
        "city": "Balneário Camboriú",
        "state": "SC",
        "district": "Centro",
        "street": "Rua 3130",
        "zipcode": "88330-293"
    },
    {
        "city": "Balneário Camboriú",
        "state": "SC",
        "district": "Centro",
        "street": "Rua 3146",
        "zipcode": "88330-299"
    },
    {
        "city": "Balneário Camboriú",
        "state": "SC",
        "district": "Centro",
        "street": "Rua 3030",
        "zipcode": "88330-311"
    },
    {
        "city": "Balneário Camboriú",
        "state": "SC",
        "district": "Centro",
        "street": "Rua 3122",
        "zipcode": "88330-290"
    },
    {
        "city": "Balneário Camboriú",
        "state": "SC",
        "district": "Centro",
        "street": "Rua 3104",
        "zipcode": "88330-306"
    },
    {
        "city": "Balneário Camboriú",
        "state": "SC",
        "district": "Centro",
        "street": "Rua 3150",
        "zipcode": "88330-281"
    },
    {
        "city": "Balneário Camboriú",
        "state": "SC",
        "district": "Nova Esperança",
        "street": "Rua André Leão",
        "zipcode": "88336-340"
    },
    {
        "city": "Balneário Camboriú",
        "state": "SC",
        "district": "Nações",
        "street": "Rua Ilhas Marshall",
        "zipcode": "88338-267"
    },
    {
        "city": "Balneário Camboriú",
        "state": "SC",
        "district": "Centro",
        "street": "Rua 2000",
        "zipcode": "88330-468"
    },
    {
        "city": "Balneário Camboriú",
        "state": "SC",
        "district": "Centro",
        "street": "Rua 1950",
        "zipcode": "88330-476"
    },
    {
        "city": "Balneário Camboriú",
        "state": "SC",
        "district": "Centro",
        "street": "Rua 1926",
        "zipcode": "88330-478"
    },
    {
        "city": "Balneário Camboriú",
        "state": "SC",
        "district": "Centro",
        "street": "Rua 1900",
        "zipcode": "88330-482"
    },
    {
        "city": "Balneário Camboriú",
        "state": "SC",
        "district": "Centro",
        "street": "Rua 1822",
        "zipcode": "88330-484"
    },
    {
        "city": "Balneário Camboriú",
        "state": "SC",
        "district": "Centro",
        "street": "Rua 1980",
        "zipcode": "88330-491"
    },
    {
        "city": "Balneário Camboriú",
        "state": "SC",
        "district": "Centro",
        "street": "Rua 1700",
        "zipcode": "88330-514"
    },
    {
        "city": "Balneário Camboriú",
        "state": "SC",
        "district": "Centro",
        "street": "Rua 1650",
        "zipcode": "88330-517"
    },
    {
        "city": "Balneário Camboriú",
        "state": "SC",
        "district": "Centro",
        "street": "Rua 1600",
        "zipcode": "88330-520"
    },
    {
        "city": "Balneário Camboriú",
        "state": "SC",
        "district": "Centro",
        "street": "Rua 1500",
        "zipcode": "88330-522"
    },
    {
        "city": "Balneário Camboriú",
        "state": "SC",
        "district": "Centro",
        "street": "Rua 1556",
        "zipcode": "88330-523"
    },
    {
        "city": "Balneário Camboriú",
        "state": "SC",
        "district": "Centro",
        "street": "Rua 1400",
        "zipcode": "88330-530"
    },
    {
        "city": "Balneário Camboriú",
        "state": "SC",
        "district": "Praia das Taquaras",
        "street": "Rua Manacá",
        "zipcode": "88333-070"
    },
    {
        "city": "Balneário Camboriú",
        "state": "SC",
        "district": "Praia das Taquaras",
        "street": "Rua Mangueira",
        "zipcode": "88333-085"
    },
    {
        "city": "Balneário Camboriú",
        "state": "SC",
        "district": "Nações",
        "street": "Rua Polônia",
        "zipcode": "88338-184"
    },
    {
        "city": "Balneário Camboriú",
        "state": "SC",
        "district": "Centro",
        "street": "Rua 3604",
        "zipcode": "88330-236"
    },
    {
        "city": "Balneário Camboriú",
        "state": "SC",
        "district": "Centro",
        "street": "Rua 3610",
        "zipcode": "88330-245"
    },
    {
        "city": "Balneário Camboriú",
        "state": "SC",
        "district": "Centro",
        "street": "Rua 3600",
        "zipcode": "88330-248"
    },
    {
        "city": "Balneário Camboriú",
        "state": "SC",
        "district": "Centro",
        "street": "Rua 3506",
        "zipcode": "88330-257"
    },
    {
        "city": "Balneário Camboriú",
        "state": "SC",
        "district": "Centro",
        "street": "Rua 3400",
        "zipcode": "88330-266"
    },
    {
        "city": "Balneário Camboriú",
        "state": "SC",
        "district": "Centro",
        "street": "Rua 3310",
        "zipcode": "88330-269"
    },
    {
        "city": "Balneário Camboriú",
        "state": "SC",
        "district": "Centro",
        "street": "Rua 3550",
        "zipcode": "88330-251"
    },
    {
        "city": "Balneário Camboriú",
        "state": "SC",
        "district": "Barra",
        "street": "Rua Natanael Jacinto",
        "zipcode": "88332-137"
    },
    {
        "city": "Balneário Camboriú",
        "state": "SC",
        "district": "Nações",
        "street": "Rua Suriname",
        "zipcode": "88338-072"
    },
    {
        "city": "Balneário Camboriú",
        "state": "SC",
        "district": "Centro",
        "street": "4ª Avenida",
        "zipcode": "88330-105"
    },
    {
        "city": "Balneário Camboriú",
        "state": "SC",
        "district": "Centro",
        "street": "3ª Avenida",
        "zipcode": "88330-084"
    },
    {
        "city": "Balneário Camboriú",
        "state": "SC",
        "district": "Centro",
        "street": "3ª Avenida",
        "zipcode": "88330-092"
    },
    {
        "city": "Balneário Camboriú",
        "state": "SC",
        "district": "Centro",
        "street": "3ª Avenida",
        "zipcode": "88330-095"
    },
    {
        "city": "Balneário Camboriú",
        "state": "SC",
        "district": "Centro",
        "street": "3ª Avenida",
        "zipcode": "88330-102"
    },
    {
        "city": "Balneário Camboriú",
        "state": "SC",
        "district": "Centro",
        "street": "4ª Avenida",
        "zipcode": "88330-104"
    },
    {
        "city": "Balneário Camboriú",
        "state": "SC",
        "district": "Nações",
        "street": "Rua Zimbábue",
        "zipcode": "88338-080"
    },
    {
        "city": "Balneário Camboriú",
        "state": "SC",
        "district": "Centro",
        "street": "Avenida Brasil",
        "zipcode": "88330-048"
    },
    {
        "city": "Balneário Camboriú",
        "state": "SC",
        "district": "Centro",
        "street": "Rua 3680",
        "zipcode": "88330-206"
    },
    {
        "city": "Balneário Camboriú",
        "state": "SC",
        "district": "Centro",
        "street": "Rua 2018",
        "zipcode": "88330-444"
    },
    {
        "city": "Balneário Camboriú",
        "state": "SC",
        "district": "Centro",
        "street": "Rua 971",
        "zipcode": "88330-747"
    },
    {
        "city": "Balneário Camboriú",
        "state": "SC",
        "district": "Centro",
        "street": "Rua 1601",
        "zipcode": "88330-807"
    },
    {
        "city": "Balneário Camboriú",
        "state": "SC",
        "district": "Nações",
        "street": "Rua Rússia",
        "zipcode": "88338-083"
    },
    {
        "city": "Balneário Camboriú",
        "state": "SC",
        "district": "Ariribá",
        "street": "Rua Gaturamo",
        "zipcode": "88338-545"
    },
    {
        "city": "Balneário Camboriú",
        "state": "SC",
        "district": "Ariribá",
        "street": "Rua Cegonha",
        "zipcode": "88338-510"
    },
    {
        "city": "Balneário Camboriú",
        "state": "SC",
        "district": "Centro",
        "street": "Rua 1440",
        "zipcode": "88330-537"
    },
    {
        "city": "Balneário Camboriú",
        "state": "SC",
        "district": "Centro",
        "street": "Rua 906",
        "zipcode": "88330-586"
    },
    {
        "city": "Balneário Camboriú",
        "state": "SC",
        "district": "Centro",
        "street": "Rua 403",
        "zipcode": "88330-708"
    },
    {
        "city": "Balneário Camboriú",
        "state": "SC",
        "district": "Centro",
        "street": "Rua 2308",
        "zipcode": "88330-438"
    },
    {
        "city": "Balneário Camboriú",
        "state": "SC",
        "district": "Centro",
        "street": "Rua 3208",
        "zipcode": "88330-329"
    },
    {
        "city": "Balneário Camboriú",
        "state": "SC",
        "district": "Centro",
        "street": "Avenida Brasil",
        "zipcode": "88330-045"
    },
    {
        "city": "Balneário Camboriú",
        "state": "SC",
        "district": "Centro",
        "street": "Avenida Brasil",
        "zipcode": "88330-040"
    },
    {
        "city": "Balneário Camboriú",
        "state": "SC",
        "district": "Centro",
        "street": "Rua 1922",
        "zipcode": "88330-534"
    },
    {
        "city": "Balneário Camboriú",
        "state": "SC",
        "district": "Centro",
        "street": "Rua 1300",
        "zipcode": "88330-546"
    },
    {
        "city": "Balneário Camboriú",
        "state": "SC",
        "district": "Centro",
        "street": "Rua 1200",
        "zipcode": "88330-549"
    },
    {
        "city": "Balneário Camboriú",
        "state": "SC",
        "district": "Centro",
        "street": "Rua 1100",
        "zipcode": "88330-558"
    },
    {
        "city": "Balneário Camboriú",
        "state": "SC",
        "district": "Centro",
        "street": "Rua 1001",
        "zipcode": "88330-756"
    },
    {
        "city": "Balneário Camboriú",
        "state": "SC",
        "district": "Centro",
        "street": "Rua 1041",
        "zipcode": "88330-768"
    },
    {
        "city": "Balneário Camboriú",
        "state": "SC",
        "district": "Centro",
        "street": "Rua 1121",
        "zipcode": "88330-783"
    },
    {
        "city": "Balneário Camboriú",
        "state": "SC",
        "district": "Centro",
        "street": "Rua 1141",
        "zipcode": "88330-789"
    },
    {
        "city": "Balneário Camboriú",
        "state": "SC",
        "district": "Centro",
        "street": "Rua 1201",
        "zipcode": "88330-792"
    },
    {
        "city": "Balneário Camboriú",
        "state": "SC",
        "district": "Centro",
        "street": "Rua 1301",
        "zipcode": "88330-795"
    },
    {
        "city": "Balneário Camboriú",
        "state": "SC",
        "district": "Centro",
        "street": "Rua 1501",
        "zipcode": "88330-804"
    },
    {
        "city": "Balneário Camboriú",
        "state": "SC",
        "district": "Centro",
        "street": "Rua 1170",
        "zipcode": "88330-552"
    },
    {
        "city": "Balneário Camboriú",
        "state": "SC",
        "district": "Centro",
        "street": "Rua 1021",
        "zipcode": "88330-762"
    },
    {
        "city": "Balneário Camboriú",
        "state": "SC",
        "district": "Centro",
        "street": "Rua 1701",
        "zipcode": "88330-813"
    },
    {
        "city": "Balneário Camboriú",
        "state": "SC",
        "district": "Centro",
        "street": "Rua 1801",
        "zipcode": "88330-816"
    },
    {
        "city": "Balneário Camboriú",
        "state": "SC",
        "district": "Centro",
        "street": "Rua 2328",
        "zipcode": "88330-446"
    },
    {
        "city": "Balneário Camboriú",
        "state": "SC",
        "district": "Centro",
        "street": "Rua 2070",
        "zipcode": "88330-454"
    },
    {
        "city": "Balneário Camboriú",
        "state": "SC",
        "district": "Centro",
        "street": "Rua 970",
        "zipcode": "88330-588"
    },
    {
        "city": "Balneário Camboriú",
        "state": "SC",
        "district": "Centro",
        "street": "Rua 801",
        "zipcode": "88330-717"
    },
    {
        "city": "Balneário Camboriú",
        "state": "SC",
        "district": "Centro",
        "street": "Rua 951",
        "zipcode": "88330-729"
    },
    {
        "city": "Balneário Camboriú",
        "state": "SC",
        "district": "Centro",
        "street": "Rua 959",
        "zipcode": "88330-735"
    },
    {
        "city": "Balneário Camboriú",
        "state": "SC",
        "district": "Centro",
        "street": "Rua 961",
        "zipcode": "88330-738"
    },
    {
        "city": "Balneário Camboriú",
        "state": "SC",
        "district": "Centro",
        "street": "Rua 991",
        "zipcode": "88330-753"
    },
    {
        "city": "Balneário Camboriú",
        "state": "SC",
        "district": "Centro",
        "street": "Rua 2080",
        "zipcode": "88330-452"
    },
    {
        "city": "Balneário Camboriú",
        "state": "SC",
        "district": "Centro",
        "street": "Rua 910",
        "zipcode": "88330-574"
    },
    {
        "city": "Balneário Camboriú",
        "state": "SC",
        "district": "Centro",
        "street": "Rua 908",
        "zipcode": "88330-582"
    },
    {
        "city": "Balneário Camboriú",
        "state": "SC",
        "district": "Centro",
        "street": "Rua 2400",
        "zipcode": "88330-412"
    },
    {
        "city": "Balneário Camboriú",
        "state": "SC",
        "district": "Centro",
        "street": "Avenida Atlântica",
        "zipcode": "88330-006"
    },
    {
        "city": "Balneário Camboriú",
        "state": "SC",
        "district": "Centro",
        "street": "Avenida Atlântica",
        "zipcode": "88330-027"
    },
    {
        "city": "Balneário Camboriú",
        "state": "SC",
        "district": "Centro",
        "street": "Rua 4000",
        "zipcode": "88330-180"
    },
    {
        "city": "Balneário Camboriú",
        "state": "SC",
        "district": "Centro",
        "street": "Rua 3950",
        "zipcode": "88330-183"
    },
    {
        "city": "Balneário Camboriú",
        "state": "SC",
        "district": "Centro",
        "street": "Rua 3800",
        "zipcode": "88330-191"
    },
    {
        "city": "Balneário Camboriú",
        "state": "SC",
        "district": "Centro",
        "street": "Rua 3710",
        "zipcode": "88330-200"
    },
    {
        "city": "Balneário Camboriú",
        "state": "SC",
        "district": "Centro",
        "street": "Rua 3704",
        "zipcode": "88330-212"
    },
    {
        "city": "Balneário Camboriú",
        "state": "SC",
        "district": "Centro",
        "street": "Rua 3706",
        "zipcode": "88330-215"
    },
    {
        "city": "Balneário Camboriú",
        "state": "SC",
        "district": "Centro",
        "street": "Rua 3760",
        "zipcode": "88330-224"
    },
    {
        "city": "Balneário Camboriú",
        "state": "SC",
        "district": "Centro",
        "street": "Rua 3770",
        "zipcode": "88330-227"
    },
    {
        "city": "Balneário Camboriú",
        "state": "SC",
        "district": "Centro",
        "street": "Rua 3790",
        "zipcode": "88330-233"
    },
    {
        "city": "Balneário Camboriú",
        "state": "SC",
        "district": "Centro",
        "street": "Rua 4500",
        "zipcode": "88330-150"
    },
    {
        "city": "Balneário Camboriú",
        "state": "SC",
        "district": "Centro",
        "street": "Rua 2438",
        "zipcode": "88330-404"
    },
    {
        "city": "Balneário Camboriú",
        "state": "SC",
        "district": "Nova Esperança",
        "street": "Rua Fernão Dias Paes",
        "zipcode": "88336-350"
    },
    {
        "city": "Balneário Camboriú",
        "state": "SC",
        "district": "Praia dos Amores",
        "street": "Rua Ruy Barbosa",
        "zipcode": "88331-510"
    },
    {
        "city": "Balneário Camboriú",
        "state": "SC",
        "district": "Praia dos Amores",
        "street": "Rua Evaristo da Veiga",
        "zipcode": "88331-500"
    },
    {
        "city": "Balneário Camboriú",
        "state": "SC",
        "district": "Praia dos Amores",
        "street": "Rua Gregório de Matos",
        "zipcode": "88331-475"
    },
    {
        "city": "Balneário Camboriú",
        "state": "SC",
        "district": "Centro",
        "street": "Rua Alvin Bauer",
        "zipcode": "88330-643"
    },
    {
        "city": "Balneário Camboriú",
        "state": "SC",
        "district": "Centro",
        "street": "Rua 300",
        "zipcode": "88330-645"
    },
    {
        "city": "Balneário Camboriú",
        "state": "SC",
        "district": "Centro",
        "street": "Rua 200",
        "zipcode": "88330-648"
    },
    {
        "city": "Balneário Camboriú",
        "state": "SC",
        "district": "Centro",
        "street": "Rua 290",
        "zipcode": "88330-651"
    },
    {
        "city": "Balneário Camboriú",
        "state": "SC",
        "district": "Centro",
        "street": "Rua 100",
        "zipcode": "88330-654"
    },
    {
        "city": "Balneário Camboriú",
        "state": "SC",
        "district": "Centro",
        "street": "Rua 15",
        "zipcode": "88330-672"
    },
    {
        "city": "Balneário Camboriú",
        "state": "SC",
        "district": "Centro",
        "street": "Rua 11",
        "zipcode": "88330-678"
    },
    {
        "city": "Balneário Camboriú",
        "state": "SC",
        "district": "Centro",
        "street": "Rua 2350",
        "zipcode": "88330-422"
    },
    {
        "city": "Balneário Camboriú",
        "state": "SC",
        "district": "Centro",
        "street": "Rua 2300",
        "zipcode": "88330-426"
    },
    {
        "city": "Balneário Camboriú",
        "state": "SC",
        "district": "Centro",
        "street": "Rua 2200",
        "zipcode": "88330-434"
    },
    {
        "city": "Balneário Camboriú",
        "state": "SC",
        "district": "Centro",
        "street": "Rua 101",
        "zipcode": "88330-687"
    },
    {
        "city": "Balneário Camboriú",
        "state": "SC",
        "district": "Centro",
        "street": "Rua 2001",
        "zipcode": "88330-834"
    },
    {
        "city": "Balneário Camboriú",
        "state": "SC",
        "district": "Centro",
        "street": "Rua 2100",
        "zipcode": "88330-436"
    },
    {
        "city": "Balneário Camboriú",
        "state": "SC",
        "district": "Barra",
        "street": "Beco do Beto",
        "zipcode": "88332-065"
    },
    {
        "city": "Balneário Camboriú",
        "state": "SC",
        "district": "Praia do Estaleiro",
        "street": "Avenida Vereador Domingos Fonseca",
        "zipcode": "88334-080"
    },
    {
        "city": "Balneário Camboriú",
        "state": "SC",
        "district": "Barra",
        "street": "Rua Donaciano Santos",
        "zipcode": "88332-045"
    },
    {
        "city": "Balneário Camboriú",
        "state": "SC",
        "district": "Centro",
        "street": "Rua 2000",
        "zipcode": "88330-460"
    },
    {
        "city": "Balneário Camboriú",
        "state": "SC",
        "district": "Centro",
        "street": "Rua 1546",
        "zipcode": "88330-613"
    },
    {
        "city": "Balneário Camboriú",
        "state": "SC",
        "district": "Centro",
        "street": "Rua 1911",
        "zipcode": "88330-825"
    },
    {
        "city": "Balneário Camboriú",
        "state": "SC",
        "district": "Centro",
        "street": "Rua 1931",
        "zipcode": "88330-828"
    },
    {
        "city": "Balneário Camboriú",
        "state": "SC",
        "district": "Centro",
        "street": "Rua 1951",
        "zipcode": "88330-831"
    },
    {
        "city": "Balneário Camboriú",
        "state": "SC",
        "district": "Barra",
        "street": "Rua João Batista da Cunha",
        "zipcode": "88332-020"
    },
    {
        "city": "Balneário Camboriú",
        "state": "SC",
        "district": "Barra",
        "street": "Rua Januário Pedro Ferreira",
        "zipcode": "88332-025"
    },
    {
        "city": "Balneário Camboriú",
        "state": "SC",
        "district": "Barra",
        "street": "Rua Fermino Taveira Cruz",
        "zipcode": "88332-050"
    },
    {
        "city": "Balneário Camboriú",
        "state": "SC",
        "district": "Barra",
        "street": "Rua José Damásio Duarte",
        "zipcode": "88332-057"
    },
    {
        "city": "Balneário Camboriú",
        "state": "SC",
        "district": "Barra",
        "street": "Rua Euclides Rosa",
        "zipcode": "88332-060"
    },
    {
        "city": "Balneário Camboriú",
        "state": "SC",
        "district": "Praia do Estaleiro",
        "street": "Rua José Araújo",
        "zipcode": "88334-060"
    },
    {
        "city": "Balneário Camboriú",
        "state": "SC",
        "district": "Centro",
        "street": "Rua 2450",
        "zipcode": "88330-410"
    },
    {
        "city": "Balneário Camboriú",
        "state": "SC",
        "district": "Centro",
        "street": "Rua 601",
        "zipcode": "88330-705"
    },
    {
        "city": "Balneário Camboriú",
        "state": "SC",
        "district": "Centro",
        "street": "Rua 2538",
        "zipcode": "88330-393"
    },
    {
        "city": "Balneário Camboriú",
        "state": "SC",
        "district": "Centro",
        "street": "Rua 2528",
        "zipcode": "88330-395"
    },
    {
        "city": "Balneário Camboriú",
        "state": "SC",
        "district": "Centro",
        "street": "Rua 2400",
        "zipcode": "88330-418"
    },
    {
        "city": "Balneário Camboriú",
        "state": "SC",
        "district": "Centro",
        "street": "Rua 968",
        "zipcode": "88330-617"
    },
    {
        "city": "Balneário Camboriú",
        "state": "SC",
        "district": "Centro",
        "street": "Rua 700",
        "zipcode": "88330-618"
    },
    {
        "city": "Balneário Camboriú",
        "state": "SC",
        "district": "Centro",
        "street": "Rua 622",
        "zipcode": "88330-627"
    },
    {
        "city": "Balneário Camboriú",
        "state": "SC",
        "district": "Centro",
        "street": "Avenida Atlântica",
        "zipcode": "88330-021"
    },
    {
        "city": "Balneário Camboriú",
        "state": "SC",
        "district": "Centro",
        "street": "Rua 53",
        "zipcode": "88330-682"
    },
    {
        "city": "Balneário Camboriú",
        "state": "SC",
        "district": "Centro",
        "street": "Rua 401",
        "zipcode": "88330-696"
    },
    {
        "city": "Balneário Camboriú",
        "state": "SC",
        "district": "Praia dos Amores",
        "street": "Rua Machado de Assis",
        "zipcode": "88331-445"
    },
    {
        "city": "Balneário Camboriú",
        "state": "SC",
        "district": "Praia dos Amores",
        "street": "Rua Mário Palmério",
        "zipcode": "88331-455"
    },
    {
        "city": "Balneário Camboriú",
        "state": "SC",
        "district": "Praia dos Amores",
        "street": "Rua Mário Quintana",
        "zipcode": "88331-495"
    },
    {
        "city": "Balneário Camboriú",
        "state": "SC",
        "district": "Barra",
        "street": "Rua Orivaldo Batista Cunha",
        "zipcode": "88332-035"
    },
    {
        "city": "Balneário Camboriú",
        "state": "SC",
        "district": "Praia das Taquaras",
        "street": "Rua Pinheiro",
        "zipcode": "88333-100"
    },
    {
        "city": "Balneário Camboriú",
        "state": "SC",
        "district": "Praia do Estaleiro",
        "street": "Rua Nestor Torquato",
        "zipcode": "88334-040"
    },
    {
        "city": "Balneário Camboriú",
        "state": "SC",
        "district": "Praia do Estaleiro",
        "street": "Rua Pedro Venâncio Ramos",
        "zipcode": "88334-100"
    },
    {
        "city": "Balneário Camboriú",
        "state": "SC",
        "district": "Centro",
        "street": "Rua 4900",
        "zipcode": "88330-125"
    },
    {
        "city": "Balneário Camboriú",
        "state": "SC",
        "district": "Praia das Taquaras",
        "street": "Rua Peroba",
        "zipcode": "88333-090"
    },
    {
        "city": "Balneário Camboriú",
        "state": "SC",
        "district": "Nova Esperança",
        "street": "Rua José Francisco Borges",
        "zipcode": "88336-130"
    },
    {
        "city": "Balneário Camboriú",
        "state": "SC",
        "district": "Nova Esperança",
        "street": "Rua Mário José da Silva",
        "zipcode": "88336-150"
    },
    {
        "city": "Balneário Camboriú",
        "state": "SC",
        "district": "Nova Esperança",
        "street": "Rua João Sebastião Domingos",
        "zipcode": "88336-230"
    },
    {
        "city": "Balneário Camboriú",
        "state": "SC",
        "district": "Nova Esperança",
        "street": "Rua Manoel de Borba Gato",
        "zipcode": "88336-300"
    },
    {
        "city": "Balneário Camboriú",
        "state": "SC",
        "district": "São Judas Tadeu",
        "street": "Rua João Maurício Pereira",
        "zipcode": "88332-425"
    },
    {
        "city": "Balneário Camboriú",
        "state": "SC",
        "district": "São Judas Tadeu",
        "street": "Rua Maria Mansoto",
        "zipcode": "88332-500"
    },
    {
        "city": "Balneário Camboriú",
        "state": "SC",
        "district": "Nova Esperança",
        "street": "Rua Leonesa Pereira Motta",
        "zipcode": "88336-115"
    },
    {
        "city": "Balneário Camboriú",
        "state": "SC",
        "district": "Nações",
        "street": "Rua Irlanda",
        "zipcode": "88338-025"
    },
    {
        "city": "Balneário Camboriú",
        "state": "SC",
        "district": "Praia dos Amores",
        "street": "Rua Juventino Linhares",
        "zipcode": "88331-438"
    },
    {
        "city": "Balneário Camboriú",
        "state": "SC",
        "district": "Nações",
        "street": "Rua Somália",
        "zipcode": "88338-035"
    },
    {
        "city": "Balneário Camboriú",
        "state": "SC",
        "district": "Pioneiros",
        "street": "Rua Antônio Bittencourt",
        "zipcode": "88331-090"
    },
    {
        "city": "Balneário Camboriú",
        "state": "SC",
        "district": "Praia dos Amores",
        "street": "Rua Dinah Silveira de Queiroz",
        "zipcode": "88331-400"
    },
    {
        "city": "Balneário Camboriú",
        "state": "SC",
        "district": "Praia dos Amores",
        "street": "Rua Rachel de Queiroz",
        "zipcode": "88331-415"
    },
    {
        "city": "Balneário Camboriú",
        "state": "SC",
        "district": "Praia dos Amores",
        "street": "Rua Cecília Meireles",
        "zipcode": "88331-405"
    },
    {
        "city": "Balneário Camboriú",
        "state": "SC",
        "district": "Centro",
        "street": "Avenida Central",
        "zipcode": "88330-666"
    },
    {
        "city": "Balneário Camboriú",
        "state": "SC",
        "district": "Centro",
        "street": "Rua 10",
        "zipcode": "88330-657"
    },
    {
        "city": "Balneário Camboriú",
        "state": "SC",
        "district": "Praia dos Amores",
        "street": "Rua Aurélio Buarque de Holanda",
        "zipcode": "88331-520"
    },
    {
        "city": "Balneário Camboriú",
        "state": "SC",
        "district": "São Judas Tadeu",
        "street": "Rua Daniel Anastácio Fraga",
        "zipcode": "88332-440"
    },
    {
        "city": "Balneário Camboriú",
        "state": "SC",
        "district": "Praia das Taquaras",
        "street": "Rua Aroeira",
        "zipcode": "88333-010"
    },
    {
        "city": "Balneário Camboriú",
        "state": "SC",
        "district": "Praia das Taquaras",
        "street": "Rua da Palmeira",
        "zipcode": "88333-095"
    },
    {
        "city": "Balneário Camboriú",
        "state": "SC",
        "district": "Praia do Estaleiro",
        "street": "Avenida Rodesindo Pavan",
        "zipcode": "88334-000"
    },
    {
        "city": "Balneário Camboriú",
        "state": "SC",
        "district": "Nova Esperança",
        "street": "Rua Doralice Linhares Bernardes",
        "zipcode": "88336-220"
    },
    {
        "city": "Balneário Camboriú",
        "state": "SC",
        "district": "Nova Esperança",
        "street": "Rua Boa Vista",
        "zipcode": "88336-250"
    },
    {
        "city": "Balneário Camboriú",
        "state": "SC",
        "district": "Nova Esperança",
        "street": "Rua Alécio Domingos",
        "zipcode": "88336-280"
    },
    {
        "city": "Balneário Camboriú",
        "state": "SC",
        "district": "Nova Esperança",
        "street": "Rua Amador Bueno da Ribeira",
        "zipcode": "88336-320"
    },
    {
        "city": "Balneário Camboriú",
        "state": "SC",
        "district": "Municípios",
        "street": "Rua Araquari",
        "zipcode": "88337-480"
    },
    {
        "city": "Balneário Camboriú",
        "state": "SC",
        "district": "Barra",
        "street": "Avenida Rodesindo Pavan",
        "zipcode": "88332-245"
    },
    {
        "city": "Balneário Camboriú",
        "state": "SC",
        "district": "Praia das Taquaras",
        "street": "Alameda Araucária",
        "zipcode": "88333-065"
    },
    {
        "city": "Balneário Camboriú",
        "state": "SC",
        "district": "Barra",
        "street": "Rua Hermínio Longo",
        "zipcode": "88332-242"
    },
    {
        "city": "Balneário Camboriú",
        "state": "SC",
        "district": "São Judas Tadeu",
        "street": "Rua Júlio Graciliano",
        "zipcode": "88332-442"
    },
    {
        "city": "Balneário Camboriú",
        "state": "SC",
        "district": "São Judas Tadeu",
        "street": "Rua Maria Maurícia Pereira",
        "zipcode": "88332-460"
    },
    {
        "city": "Balneário Camboriú",
        "state": "SC",
        "district": "São Judas Tadeu",
        "street": "Rua Maurício Venâncio Cunha",
        "zipcode": "88332-470"
    },
    {
        "city": "Balneário Camboriú",
        "state": "SC",
        "district": "Praia das Taquaras",
        "street": "Rua Flamboyant",
        "zipcode": "88333-020"
    },
    {
        "city": "Balneário Camboriú",
        "state": "SC",
        "district": "Praia das Taquaras",
        "street": "Rua Guaruva",
        "zipcode": "88333-045"
    },
    {
        "city": "Balneário Camboriú",
        "state": "SC",
        "district": "Praia das Taquaras",
        "street": "Rua Maçaranduba",
        "zipcode": "88333-080"
    },
    {
        "city": "Balneário Camboriú",
        "state": "SC",
        "district": "Praia do Estaleiro",
        "street": "Rua Maria Vieira",
        "zipcode": "88334-110"
    },
    {
        "city": "Balneário Camboriú",
        "state": "SC",
        "district": "Centro",
        "street": "Rua 600",
        "zipcode": "88330-630"
    },
    {
        "city": "Balneário Camboriú",
        "state": "SC",
        "district": "Praia das Taquaras",
        "street": "Rua Figueira",
        "zipcode": "88333-035"
    },
    {
        "city": "Balneário Camboriú",
        "state": "SC",
        "district": "Praia das Taquaras",
        "street": "Rua da Goiabeira",
        "zipcode": "88333-060"
    },
    {
        "city": "Balneário Camboriú",
        "state": "SC",
        "district": "Nova Esperança",
        "street": "Rua Belmiro Diogo Cordeiro",
        "zipcode": "88336-015"
    },
    {
        "city": "Balneário Camboriú",
        "state": "SC",
        "district": "Nova Esperança",
        "street": "Rua Edgar Linhares",
        "zipcode": "88336-210"
    },
    {
        "city": "Balneário Camboriú",
        "state": "SC",
        "district": "Centro",
        "street": "Rua 600",
        "zipcode": "88330-632"
    },
    {
        "city": "Balneário Camboriú",
        "state": "SC",
        "district": "Pioneiros",
        "street": "Travessa Jardim das Palmeiras",
        "zipcode": "88331-040"
    },
    {
        "city": "Balneário Camboriú",
        "state": "SC",
        "district": "Pioneiros",
        "street": "Rua Nilva Melo Brandi",
        "zipcode": "88331-105"
    },
    {
        "city": "Balneário Camboriú",
        "state": "SC",
        "district": "Praia dos Amores",
        "street": "Rua Lindolf Bell",
        "zipcode": "88331-430"
    },
    {
        "city": "Balneário Camboriú",
        "state": "SC",
        "district": "São Judas Tadeu",
        "street": "Rua Sargento Mário Manoel Rodrigues",
        "zipcode": "88332-480"
    },
    {
        "city": "Balneário Camboriú",
        "state": "SC",
        "district": "Nova Esperança",
        "street": "Rua Nova Iguaçu",
        "zipcode": "88336-260"
    },
    {
        "city": "Balneário Camboriú",
        "state": "SC",
        "district": "Nações",
        "street": "Rua Quênia",
        "zipcode": "88338-033"
    },
    {
        "city": "Balneário Camboriú",
        "state": "SC",
        "district": "Praia do Estaleirinho",
        "street": "Rua Tomaz Rebelo",
        "zipcode": "88334-540"
    },
    {
        "city": "Balneário Camboriú",
        "state": "SC",
        "district": "Nova Esperança",
        "street": "Rua Vivalma Borges Domingos",
        "zipcode": "88336-040"
    },
    {
        "city": "Balneário Camboriú",
        "state": "SC",
        "district": "Barra",
        "street": "Rua Manoel Athanázio Corrêa",
        "zipcode": "88332-150"
    },
    {
        "city": "Balneário Camboriú",
        "state": "SC",
        "district": "Barra",
        "street": "Rua Maria Joaquina Corrêa",
        "zipcode": "88332-200"
    },
    {
        "city": "Balneário Camboriú",
        "state": "SC",
        "district": "Praia do Estaleirinho",
        "street": "Rua Jaime Jacinto Emerenciano",
        "zipcode": "88334-605"
    },
    {
        "city": "Balneário Camboriú",
        "state": "SC",
        "district": "Praia do Estaleirinho",
        "street": "Rua Lauro Soares",
        "zipcode": "88334-645"
    },
    {
        "city": "Balneário Camboriú",
        "state": "SC",
        "district": "Praia do Estaleirinho",
        "street": "Rua Irineu João Pereira",
        "zipcode": "88334-650"
    },
    {
        "city": "Balneário Camboriú",
        "state": "SC",
        "district": "Centro",
        "street": "Rua 201",
        "zipcode": "88330-690"
    },
    {
        "city": "Balneário Camboriú",
        "state": "SC",
        "district": "Nova Esperança",
        "street": "Rua José Cesário Pereira",
        "zipcode": "88336-010"
    },
    {
        "city": "Balneário Camboriú",
        "state": "SC",
        "district": "Nova Esperança",
        "street": "Rua José Célio da Silva",
        "zipcode": "88336-080"
    },
    {
        "city": "Balneário Camboriú",
        "state": "SC",
        "district": "Nova Esperança",
        "street": "Rua Isaías Serrão",
        "zipcode": "88336-090"
    },
    {
        "city": "Balneário Camboriú",
        "state": "SC",
        "district": "Nova Esperança",
        "street": "Rua José Francisco Corrêa",
        "zipcode": "88336-140"
    },
    {
        "city": "Balneário Camboriú",
        "state": "SC",
        "district": "Municípios",
        "street": "Rua Águas Mornas",
        "zipcode": "88337-490"
    },
    {
        "city": "Balneário Camboriú",
        "state": "SC",
        "district": "Nações",
        "street": "Rua Iêmen",
        "zipcode": "88338-015"
    },
    {
        "city": "Balneário Camboriú",
        "state": "SC",
        "district": "Nações",
        "street": "Rua Índia",
        "zipcode": "88338-048"
    },
    {
        "city": "Balneário Camboriú",
        "state": "SC",
        "district": "Pioneiros",
        "street": "Rua Romeu Pereira",
        "zipcode": "88331-045"
    },
    {
        "city": "Balneário Camboriú",
        "state": "SC",
        "district": "Pioneiros",
        "street": "Rua Protásio Boaventura Caetano",
        "zipcode": "88331-075"
    },
    {
        "city": "Balneário Camboriú",
        "state": "SC",
        "district": "Nova Esperança",
        "street": "Rua José Luiz dos Reis",
        "zipcode": "88336-020"
    },
    {
        "city": "Balneário Camboriú",
        "state": "SC",
        "district": "Municípios",
        "street": "Rua Angelina",
        "zipcode": "88337-470"
    },
    {
        "city": "Balneário Camboriú",
        "state": "SC",
        "district": "Nações",
        "street": "Rua Áustria",
        "zipcode": "88338-330"
    },
    {
        "city": "Balneário Camboriú",
        "state": "SC",
        "district": "Nova Esperança",
        "street": "Rua José Alves Cabral",
        "zipcode": "88336-030"
    },
    {
        "city": "Balneário Camboriú",
        "state": "SC",
        "district": "Nova Esperança",
        "street": "Rua Júlia Serrão",
        "zipcode": "88336-100"
    },
    {
        "city": "Balneário Camboriú",
        "state": "SC",
        "district": "Municípios",
        "street": "Rua Biguaçu",
        "zipcode": "88337-450"
    },
    {
        "city": "Balneário Camboriú",
        "state": "SC",
        "district": "Nações",
        "street": "Avenida Martin Luther",
        "zipcode": "88338-038"
    },
    {
        "city": "Balneário Camboriú",
        "state": "SC",
        "district": "Municípios",
        "street": "Rua Botuverá",
        "zipcode": "88337-310"
    },
    {
        "city": "Balneário Camboriú",
        "state": "SC",
        "district": "Pioneiros",
        "street": "Rua Francisco Claudino da Silva",
        "zipcode": "88331-125"
    },
    {
        "city": "Balneário Camboriú",
        "state": "SC",
        "district": "Barra",
        "street": "Rua Antônio dos Santos",
        "zipcode": "88332-225"
    },
    {
        "city": "Balneário Camboriú",
        "state": "SC",
        "district": "Praia do Estaleirinho",
        "street": "Rua Anaor Romário da Silva",
        "zipcode": "88334-690"
    },
    {
        "city": "Balneário Camboriú",
        "state": "SC",
        "district": "Nações",
        "street": "Rua Jordânia",
        "zipcode": "88338-245"
    },
    {
        "city": "Balneário Camboriú",
        "state": "SC",
        "district": "Barra",
        "street": "Rua Antônio Domingos da Silva",
        "zipcode": "88332-140"
    },
    {
        "city": "Balneário Camboriú",
        "state": "SC",
        "district": "Municípios",
        "street": "Rua Anitápolis",
        "zipcode": "88337-520"
    },
    {
        "city": "Balneário Camboriú",
        "state": "SC",
        "district": "Nações",
        "street": "Rua Libéria",
        "zipcode": "88338-235"
    },
    {
        "city": "Balneário Camboriú",
        "state": "SC",
        "district": "Nações",
        "street": "Rua Itália",
        "zipcode": "88338-260"
    },
    {
        "city": "Balneário Camboriú",
        "state": "SC",
        "district": "Nações",
        "street": "Rua Ilhas Salomão",
        "zipcode": "88338-271"
    },
    {
        "city": "Balneário Camboriú",
        "state": "SC",
        "district": "Jardim Iate Clube",
        "street": "Rua Atalanta",
        "zipcode": "88337-275"
    },
    {
        "city": "Balneário Camboriú",
        "state": "SC",
        "district": "Municípios",
        "street": "Rua Campo Erê",
        "zipcode": "88337-340"
    },
    {
        "city": "Balneário Camboriú",
        "state": "SC",
        "district": "Municípios",
        "street": "Rua Chapecó",
        "zipcode": "88337-380"
    },
    {
        "city": "Balneário Camboriú",
        "state": "SC",
        "district": "Municípios",
        "street": "Rua Caçador",
        "zipcode": "88337-385"
    },
    {
        "city": "Balneário Camboriú",
        "state": "SC",
        "district": "Municípios",
        "street": "Rua Camboriú",
        "zipcode": "88337-400"
    },
    {
        "city": "Balneário Camboriú",
        "state": "SC",
        "district": "Municípios",
        "street": "Rua Bom Retiro",
        "zipcode": "88337-420"
    },
    {
        "city": "Balneário Camboriú",
        "state": "SC",
        "district": "Jardim Iate Clube",
        "street": "Rua Dom Henrique",
        "zipcode": "88337-260"
    },
    {
        "city": "Balneário Camboriú",
        "state": "SC",
        "district": "Jardim Iate Clube",
        "street": "Rua Água Doce",
        "zipcode": "88337-280"
    },
    {
        "city": "Balneário Camboriú",
        "state": "SC",
        "district": "Nações",
        "street": "Rua Argélia",
        "zipcode": "88338-050"
    },
    {
        "city": "Balneário Camboriú",
        "state": "SC",
        "district": "Nações",
        "street": "Rua Austrália",
        "zipcode": "88338-335"
    },
    {
        "city": "Balneário Camboriú",
        "state": "SC",
        "district": "Ariribá",
        "street": "Avenida das Gaivotas",
        "zipcode": "88338-450"
    },
    {
        "city": "Balneário Camboriú",
        "state": "SC",
        "district": "Ariribá",
        "street": "Rua Corrupião",
        "zipcode": "88338-513"
    },
    {
        "city": "Balneário Camboriú",
        "state": "SC",
        "district": "Praia do Estaleirinho",
        "street": "Rua Pedro Francisco da Silva",
        "zipcode": "88334-570"
    },
    {
        "city": "Balneário Camboriú",
        "state": "SC",
        "district": "Nova Esperança",
        "street": "Rua Nicolau Barreto",
        "zipcode": "88336-335"
    },
    {
        "city": "Balneário Camboriú",
        "state": "SC",
        "district": "Pioneiros",
        "street": "Rua João Francisco dos Santos",
        "zipcode": "88331-120"
    },
    {
        "city": "Balneário Camboriú",
        "state": "SC",
        "district": "Nova Esperança",
        "street": "Rua Pedras Brancas",
        "zipcode": "88336-050"
    },
    {
        "city": "Balneário Camboriú",
        "state": "SC",
        "district": "Nações",
        "street": "Rua Uruguai",
        "zipcode": "88338-170"
    },
    {
        "city": "Balneário Camboriú",
        "state": "SC",
        "district": "Nações",
        "street": "Rua Uruguai",
        "zipcode": "88338-175"
    },
    {
        "city": "Balneário Camboriú",
        "state": "SC",
        "district": "Nações",
        "street": "Rua Iraque",
        "zipcode": "88338-280"
    },
    {
        "city": "Balneário Camboriú",
        "state": "SC",
        "district": "Nações",
        "street": "Rua Inglaterra",
        "zipcode": "88338-290"
    },
    {
        "city": "Balneário Camboriú",
        "state": "SC",
        "district": "Nações",
        "street": "Rua Grécia",
        "zipcode": "88338-300"
    },
    {
        "city": "Balneário Camboriú",
        "state": "SC",
        "district": "Municípios",
        "street": "Rua Concórdia",
        "zipcode": "88337-370"
    },
    {
        "city": "Balneário Camboriú",
        "state": "SC",
        "district": "Nações",
        "street": "Rua Mauritânia",
        "zipcode": "88338-088"
    },
    {
        "city": "Balneário Camboriú",
        "state": "SC",
        "district": "Nações",
        "street": "Rua Síria",
        "zipcode": "88338-135"
    },
    {
        "city": "Balneário Camboriú",
        "state": "SC",
        "district": "Nações",
        "street": "Rua México",
        "zipcode": "88338-223"
    },
    {
        "city": "Balneário Camboriú",
        "state": "SC",
        "district": "Nações",
        "street": "Rua Marrocos",
        "zipcode": "88338-225"
    },
    {
        "city": "Balneário Camboriú",
        "state": "SC",
        "district": "Ariribá",
        "street": "Rua Patativa",
        "zipcode": "88338-540"
    },
    {
        "city": "Balneário Camboriú",
        "state": "SC",
        "district": "Estados",
        "street": "Rua São Paulo",
        "zipcode": "88339-025"
    },
    {
        "city": "Balneário Camboriú",
        "state": "SC",
        "district": "Estados",
        "street": "Rua Amazonas",
        "zipcode": "88339-075"
    },
    {
        "city": "Balneário Camboriú",
        "state": "SC",
        "district": "Jardim Iate Clube",
        "street": "Rua Dom Rodrigo",
        "zipcode": "88337-255"
    },
    {
        "city": "Balneário Camboriú",
        "state": "SC",
        "district": "Jardim Iate Clube",
        "street": "Rua Agronômica",
        "zipcode": "88337-270"
    },
    {
        "city": "Balneário Camboriú",
        "state": "SC",
        "district": "Nações",
        "street": "Rua Panamá",
        "zipcode": "88338-190"
    },
    {
        "city": "Balneário Camboriú",
        "state": "SC",
        "district": "Nações",
        "street": "Rua Espanha",
        "zipcode": "88338-310"
    },
    {
        "city": "Balneário Camboriú",
        "state": "SC",
        "district": "Estados",
        "street": "Rua Aqueduto",
        "zipcode": "88339-090"
    },
    {
        "city": "Balneário Camboriú",
        "state": "SC",
        "district": "Municípios",
        "street": "Rua Bombinhas",
        "zipcode": "88337-320"
    },
    {
        "city": "Balneário Camboriú",
        "state": "SC",
        "district": "Vila Real",
        "street": "Rua Dom Jaime",
        "zipcode": "88337-120"
    },
    {
        "city": "Balneário Camboriú",
        "state": "SC",
        "district": "Jardim Iate Clube",
        "street": "Rua Aurora",
        "zipcode": "88337-225"
    },
    {
        "city": "Balneário Camboriú",
        "state": "SC",
        "district": "Municípios",
        "street": "6ª Avenida",
        "zipcode": "88337-315"
    },
    {
        "city": "Balneário Camboriú",
        "state": "SC",
        "district": "Vila Real",
        "street": "Rua Dom Eduardo",
        "zipcode": "88337-028"
    },
    {
        "city": "Balneário Camboriú",
        "state": "SC",
        "district": "Vila Real",
        "street": "Rua Dom Fernando",
        "zipcode": "88337-043"
    },
    {
        "city": "Balneário Camboriú",
        "state": "SC",
        "district": "Vila Real",
        "street": "Rua Dom Artur",
        "zipcode": "88337-050"
    },
    {
        "city": "Balneário Camboriú",
        "state": "SC",
        "district": "Nações",
        "street": "Rua Malásia",
        "zipcode": "88338-228"
    },
    {
        "city": "Balneário Camboriú",
        "state": "SC",
        "district": "Nações",
        "street": "Rua Líbia",
        "zipcode": "88338-230"
    },
    {
        "city": "Balneário Camboriú",
        "state": "SC",
        "district": "Vila Real",
        "street": "Rua Dom Henrique",
        "zipcode": "88337-155"
    },
    {
        "city": "Balneário Camboriú",
        "state": "SC",
        "district": "Jardim Iate Clube",
        "street": "Rua Dom Mateus",
        "zipcode": "88337-240"
    },
    {
        "city": "Balneário Camboriú",
        "state": "SC",
        "district": "Vila Real",
        "street": "Rua Dom Ricardo",
        "zipcode": "88337-150"
    },
    {
        "city": "Balneário Camboriú",
        "state": "SC",
        "district": "Jardim Iate Clube",
        "street": "Rua Ascurra",
        "zipcode": "88337-220"
    },
    {
        "city": "Balneário Camboriú",
        "state": "SC",
        "district": "Municípios",
        "street": "Rua Canelinha",
        "zipcode": "88337-360"
    },
    {
        "city": "Balneário Camboriú",
        "state": "SC",
        "district": "Municípios",
        "street": "Rua Corupá",
        "zipcode": "88337-410"
    },
    {
        "city": "Balneário Camboriú",
        "state": "SC",
        "district": "Nações",
        "street": "Rua Suíça",
        "zipcode": "88338-140"
    },
    {
        "city": "Balneário Camboriú",
        "state": "SC",
        "district": "Nações",
        "street": "Rua Suíça",
        "zipcode": "88338-145"
    },
    {
        "city": "Balneário Camboriú",
        "state": "SC",
        "district": "Nações",
        "street": "Rua Venezuela",
        "zipcode": "88338-180"
    },
    {
        "city": "Balneário Camboriú",
        "state": "SC",
        "district": "Nações",
        "street": "Rua Noruega",
        "zipcode": "88338-195"
    },
    {
        "city": "Balneário Camboriú",
        "state": "SC",
        "district": "Nações",
        "street": "Rua Nicarágua",
        "zipcode": "88338-205"
    },
    {
        "city": "Balneário Camboriú",
        "state": "SC",
        "district": "Nações",
        "street": "Rua Nepal",
        "zipcode": "88338-210"
    },
    {
        "city": "Balneário Camboriú",
        "state": "SC",
        "district": "Estados",
        "street": "Avenida Santa Catarina",
        "zipcode": "88339-005"
    },
    {
        "city": "Balneário Camboriú",
        "state": "SC",
        "district": "Estados",
        "street": "Rua Pernambuco",
        "zipcode": "88339-030"
    },
    {
        "city": "Balneário Camboriú",
        "state": "SC",
        "district": "Estados",
        "street": "Rua Tocantins",
        "zipcode": "88339-035"
    },
    {
        "city": "Balneário Camboriú",
        "state": "SC",
        "district": "Estados",
        "street": "Rua Piauí",
        "zipcode": "88339-040"
    },
    {
        "city": "Balneário Camboriú",
        "state": "SC",
        "district": "Estados",
        "street": "Rua Pará",
        "zipcode": "88339-045"
    },
    {
        "city": "Balneário Camboriú",
        "state": "SC",
        "district": "Estados",
        "street": "Rua Alagoas",
        "zipcode": "88339-070"
    },
    {
        "city": "Balneário Camboriú",
        "state": "SC",
        "district": "Nações",
        "street": "Rua Porto Rico",
        "zipcode": "88338-087"
    },
    {
        "city": "Balneário Camboriú",
        "state": "SC",
        "district": "Nações",
        "street": "Rua Paraguai",
        "zipcode": "88338-090"
    },
    {
        "city": "Balneário Camboriú",
        "state": "SC",
        "district": "Nações",
        "street": "Rua Peru",
        "zipcode": "88338-100"
    },
    {
        "city": "Balneário Camboriú",
        "state": "SC",
        "district": "Nações",
        "street": "Rua Peru",
        "zipcode": "88338-105"
    },
    {
        "city": "Balneário Camboriú",
        "state": "SC",
        "district": "Nações",
        "street": "Rua Rodésia",
        "zipcode": "88338-120"
    },
    {
        "city": "Balneário Camboriú",
        "state": "SC",
        "district": "Nações",
        "street": "Rua Síria",
        "zipcode": "88338-130"
    },
    {
        "city": "Balneário Camboriú",
        "state": "SC",
        "district": "Barra",
        "street": "Rua Mário Antônio Souza",
        "zipcode": "88332-010"
    },
    {
        "city": "Balneário Camboriú",
        "state": "SC",
        "district": "Praia do Estaleirinho",
        "street": "Rua Victório Fornerolli",
        "zipcode": "88334-610"
    },
    {
        "city": "Balneário Camboriú",
        "state": "SC",
        "district": "Nova Esperança",
        "street": "Rua José Cordeiro",
        "zipcode": "88336-155"
    },
    {
        "city": "Balneário Camboriú",
        "state": "SC",
        "district": "Nova Esperança",
        "street": "Rua Juvêncio Delfino da Silva",
        "zipcode": "88336-240"
    },
    {
        "city": "Balneário Camboriú",
        "state": "SC",
        "district": "Vila Real",
        "street": "5ª Avenida",
        "zipcode": "88337-010"
    },
    {
        "city": "Balneário Camboriú",
        "state": "SC",
        "district": "Barra",
        "street": "Rua Ivo Januário Reis",
        "zipcode": "88332-180"
    },
    {
        "city": "Balneário Camboriú",
        "state": "SC",
        "district": "Praia do Estaleiro",
        "street": "Rua João Jorge Pio",
        "zipcode": "88334-150"
    },
    {
        "city": "Balneário Camboriú",
        "state": "SC",
        "district": "Praia do Estaleirinho",
        "street": "Rua Manoel Geraldo de Souza",
        "zipcode": "88334-580"
    },
    {
        "city": "Balneário Camboriú",
        "state": "SC",
        "district": "Nações",
        "street": "Rua Noruega",
        "zipcode": "88338-200"
    },
    {
        "city": "Balneário Camboriú",
        "state": "SC",
        "district": "Nações",
        "street": "Rua México",
        "zipcode": "88338-220"
    },
    {
        "city": "Balneário Camboriú",
        "state": "SC",
        "district": "Nações",
        "street": "Rua Madagáscar",
        "zipcode": "88338-253"
    },
    {
        "city": "Balneário Camboriú",
        "state": "SC",
        "district": "Barra",
        "street": "Rua Emanuel Rebelo dos Santos",
        "zipcode": "88332-135"
    },
    {
        "city": "Balneário Camboriú",
        "state": "SC",
        "district": "Ariribá",
        "street": "Rua Albatroz",
        "zipcode": "88338-500"
    },
    {
        "city": "Balneário Camboriú",
        "state": "SC",
        "district": "Praia dos Amores",
        "street": "Rua Clarice Lispector",
        "zipcode": "88331-505"
    },
    {
        "city": "Balneário Camboriú",
        "state": "SC",
        "district": "Nações",
        "street": "Rua Dinamarca",
        "zipcode": "88338-900"
    },
    {
        "city": "Balneário Camboriú",
        "state": "SC",
        "district": "Vila Real",
        "street": "Rua Dom Miguel",
        "zipcode": "88337-140"
    },
    {
        "city": "Balneário Camboriú",
        "state": "SC",
        "district": "Jardim Iate Clube",
        "street": "Rua Dom Paulo",
        "zipcode": "88337-245"
    },
    {
        "city": "Balneário Camboriú",
        "state": "SC",
        "district": "Municípios",
        "street": "Rua Araranguá",
        "zipcode": "88337-460"
    },
    {
        "city": "Balneário Camboriú",
        "state": "SC",
        "district": "Ariribá",
        "street": "Rua Mergulhão",
        "zipcode": "88338-480"
    },
    {
        "city": "Balneário Camboriú",
        "state": "SC",
        "district": "Centro",
        "street": "Avenida Central",
        "zipcode": "88330-670"
    },
    {
        "city": "Balneário Camboriú",
        "state": "SC",
        "district": "Barra",
        "street": "Rua Ademar Rebelo Linhares",
        "zipcode": "88332-133"
    },
    {
        "city": "Balneário Camboriú",
        "state": "SC",
        "district": "Barra",
        "street": "Rua Domingos Eleutério Pinheiro",
        "zipcode": "88332-220"
    },
    {
        "city": "Balneário Camboriú",
        "state": "SC",
        "district": "Praia das Taquaras",
        "street": "Rua Cambará",
        "zipcode": "88333-030"
    },
    {
        "city": "Balneário Camboriú",
        "state": "SC",
        "district": "Vila Real",
        "street": "Rua Dom Carlos",
        "zipcode": "88337-025"
    },
    {
        "city": "Balneário Camboriú",
        "state": "SC",
        "district": "Praia do Estaleirinho",
        "street": "Rua Alex Sandro Simas",
        "zipcode": "88334-532"
    },
    {
        "city": "Balneário Camboriú",
        "state": "SC",
        "district": "Praia do Estaleirinho",
        "street": "Rua Alcides Antonio da Silva",
        "zipcode": "88334-534"
    },
    {
        "city": "Balneário Camboriú",
        "state": "SC",
        "district": "Praia do Estaleirinho",
        "street": "Rua Cacildo Pereira",
        "zipcode": "88334-680"
    },
    {
        "city": "Balneário Camboriú",
        "state": "SC",
        "district": "Nova Esperança",
        "street": "Rua Antônio Dias de Oliveira",
        "zipcode": "88336-305"
    },
    {
        "city": "Balneário Camboriú",
        "state": "SC",
        "district": "Nova Esperança",
        "street": "Rua Bartolomeu Bueno da Silva",
        "zipcode": "88336-360"
    },
    {
        "city": "Balneário Camboriú",
        "state": "SC",
        "district": "Praia das Taquaras",
        "street": "Rua Jacarandá",
        "zipcode": "88333-075"
    },
    {
        "city": "Balneário Camboriú",
        "state": "SC",
        "district": "Praia do Estaleiro",
        "street": "Rua Hercelina M. Vieira",
        "zipcode": "88334-020"
    },
    {
        "city": "Balneário Camboriú",
        "state": "SC",
        "district": "Vila Real",
        "street": "Rua Dom José",
        "zipcode": "88337-130"
    },
    {
        "city": "Balneário Camboriú",
        "state": "SC",
        "district": "Jardim Iate Clube",
        "street": "Rua Arroio Trinta",
        "zipcode": "88337-200"
    },
    {
        "city": "Balneário Camboriú",
        "state": "SC",
        "district": "Jardim Iate Clube",
        "street": "Rua Dom Marcos",
        "zipcode": "88337-235"
    },
    {
        "city": "Balneário Camboriú",
        "state": "SC",
        "district": "Municípios",
        "street": "Avenida Marginal Oeste",
        "zipcode": "88337-335"
    },
    {
        "city": "Balneário Camboriú",
        "state": "SC",
        "district": "Municípios",
        "street": "Rua Curitibanos",
        "zipcode": "88337-375"
    },
    {
        "city": "Balneário Camboriú",
        "state": "SC",
        "district": "Ariribá",
        "street": "Rua Azulão",
        "zipcode": "88338-505"
    },
    {
        "city": "Balneário Camboriú",
        "state": "SC",
        "district": "Ariribá",
        "street": "Rua Cardeal",
        "zipcode": "88338-515"
    },
    {
        "city": "Balneário Camboriú",
        "state": "SC",
        "district": "Ariribá",
        "street": "Rua Gralha Azul",
        "zipcode": "88338-550"
    },
    {
        "city": "Balneário Camboriú",
        "state": "SC",
        "district": "Ariribá",
        "street": "Rua Guará",
        "zipcode": "88338-555"
    },
    {
        "city": "Balneário Camboriú",
        "state": "SC",
        "district": "Ariribá",
        "street": "Rua João de Barro",
        "zipcode": "88338-570"
    },
    {
        "city": "Balneário Camboriú",
        "state": "SC",
        "district": "Ariribá",
        "street": "Rua Juruva",
        "zipcode": "88338-575"
    },
    {
        "city": "Balneário Camboriú",
        "state": "SC",
        "district": "Ariribá",
        "street": "Rua Maçarico",
        "zipcode": "88338-580"
    },
    {
        "city": "Balneário Camboriú",
        "state": "SC",
        "district": "Ariribá",
        "street": "Rua Macuco",
        "zipcode": "88338-585"
    },
    {
        "city": "Balneário Camboriú",
        "state": "SC",
        "district": "Ariribá",
        "street": "Rua Freirinha",
        "zipcode": "88338-590"
    },
    {
        "city": "Balneário Camboriú",
        "state": "SC",
        "district": "Ariribá",
        "street": "Rua Caracará",
        "zipcode": "88338-625"
    },
    {
        "city": "Balneário Camboriú",
        "state": "SC",
        "district": "Ariribá",
        "street": "Avenida das Arapongas",
        "zipcode": "88338-630"
    },
    {
        "city": "Balneário Camboriú",
        "state": "SC",
        "district": "Estados",
        "street": "Rua Espírito Santo",
        "zipcode": "88339-015"
    },
    {
        "city": "Balneário Camboriú",
        "state": "SC",
        "district": "Estados",
        "street": "Rua Bahia",
        "zipcode": "88339-065"
    },
    {
        "city": "Balneário Camboriú",
        "state": "SC",
        "district": "Vila Real",
        "street": "Rua Dom Abelardo",
        "zipcode": "88337-145"
    },
    {
        "city": "Balneário Camboriú",
        "state": "SC",
        "district": "Praia do Estaleiro",
        "street": "Rua Napoleão Vieira",
        "zipcode": "88334-070"
    },
    {
        "city": "Balneário Camboriú",
        "state": "SC",
        "district": "Nações",
        "street": "Rua Ilhas Maldivas",
        "zipcode": "88338-277"
    },
    {
        "city": "Balneário Camboriú",
        "state": "SC",
        "district": "Nações",
        "street": "Rua Holanda",
        "zipcode": "88338-295"
    },
    {
        "city": "Balneário Camboriú",
        "state": "SC",
        "district": "Centro",
        "street": "Avenida Atlântica",
        "zipcode": "88330-909"
    },
    {
        "city": "Balneário Camboriú",
        "state": "SC",
        "district": "Centro",
        "street": "Rua 600",
        "zipcode": "88330-973"
    },
    {
        "city": "Balneário Camboriú",
        "state": "SC",
        "district": "Praia do Estaleirinho",
        "street": "Rua Itamar José Jacinto Soares",
        "zipcode": "88334-640"
    },
    {
        "city": "Balneário Camboriú",
        "state": "SC",
        "district": "Nações",
        "street": "Rua Vaticano",
        "zipcode": "88338-074"
    },
    {
        "city": "Balneário Camboriú",
        "state": "SC",
        "district": "Ariribá",
        "street": "Rua Bem",
        "zipcode": "88338-605"
    },
    {
        "city": "Balneário Camboriú",
        "state": "SC",
        "district": "Municípios",
        "street": "5ª Avenida",
        "zipcode": "88337-305"
    },
    {
        "city": "Balneário Camboriú",
        "state": "SC",
        "district": "Nações",
        "street": "Rua Dinamarca",
        "zipcode": "88338-315"
    },
    {
        "city": "Balneário Camboriú",
        "state": "SC",
        "district": "Nações",
        "street": "Rua Albânia",
        "zipcode": "88338-340"
    },
    {
        "city": "Balneário Camboriú",
        "state": "SC",
        "district": "Ariribá",
        "street": "Rua Japuaçu",
        "zipcode": "88338-478"
    },
    {
        "city": "Balneário Camboriú",
        "state": "SC",
        "district": "Nações",
        "street": "Rua Tailândia",
        "zipcode": "88338-150"
    },
    {
        "city": "Balneário Camboriú",
        "state": "SC",
        "district": "Nações",
        "street": "Rua Armênia",
        "zipcode": "88338-338"
    },
    {
        "city": "Balneário Camboriú",
        "state": "SC",
        "district": "Ariribá",
        "street": "Rua Biguá",
        "zipcode": "88338-600"
    },
    {
        "city": "Balneário Camboriú",
        "state": "SC",
        "district": "Praia dos Amores",
        "street": "Rua Érico Veríssimo",
        "zipcode": "88331-435"
    },
    {
        "city": "Balneário Camboriú",
        "state": "SC",
        "district": "Centro",
        "street": "Rua Alvin Bauer",
        "zipcode": "88330-640"
    },
    {
        "city": "Balneário Camboriú",
        "state": "SC",
        "district": "Centro",
        "street": "Rua 1131",
        "zipcode": "88330-786"
    },
    {
        "city": "Balneário Camboriú",
        "state": "SC",
        "district": "Praia das Taquaras",
        "street": "Rua Bougainvillea",
        "zipcode": "88333-025"
    },
    {
        "city": "Balneário Camboriú",
        "state": "SC",
        "district": "Nova Esperança",
        "street": "Rua Alvandina Bacca",
        "zipcode": "88336-145"
    },
    {
        "city": "Balneário Camboriú",
        "state": "SC",
        "district": "Nova Esperança",
        "street": "Rodovia BR",
        "zipcode": "88336-200"
    },
    {
        "city": "Balneário Camboriú",
        "state": "SC",
        "district": "Nova Esperança",
        "street": "Rua Avelon Cordeiro",
        "zipcode": "88336-400"
    },
    {
        "city": "Balneário Camboriú",
        "state": "SC",
        "district": "Municípios",
        "street": "Rua Alfredo Wagner",
        "zipcode": "88337-475"
    },
    {
        "city": "Balneário Camboriú",
        "state": "SC",
        "district": "Municípios",
        "street": "Rua Armazém",
        "zipcode": "88337-500"
    },
    {
        "city": "Balneário Camboriú",
        "state": "SC",
        "district": "Nações",
        "street": "Rua Argentina",
        "zipcode": "88338-055"
    },
    {
        "city": "Balneário Camboriú",
        "state": "SC",
        "district": "Nações",
        "street": "Rua Bélgica",
        "zipcode": "88338-060"
    },
    {
        "city": "Balneário Camboriú",
        "state": "SC",
        "district": "Centro",
        "street": "Rua 1401",
        "zipcode": "88330-798"
    },
    {
        "city": "Balneário Camboriú",
        "state": "SC",
        "district": "Centro",
        "street": "Rua 1101",
        "zipcode": "88330-774"
    },
    {
        "city": "Balneário Camboriú",
        "state": "SC",
        "district": "Centro",
        "street": "Rua 1651",
        "zipcode": "88330-810"
    },
    {
        "city": "Balneário Camboriú",
        "state": "SC",
        "district": "Pioneiros",
        "street": "Rua Isidoro Caetano",
        "zipcode": "88331-005"
    },
    {
        "city": "Balneário Camboriú",
        "state": "SC",
        "district": "Centro",
        "street": "Rua 902",
        "zipcode": "88330-594"
    },
    {
        "city": "Balneário Camboriú",
        "state": "SC",
        "district": "Centro",
        "street": "Rua 960",
        "zipcode": "88330-616"
    },
    {
        "city": "Balneário Camboriú",
        "state": "SC",
        "district": "Centro",
        "street": "Rua 620",
        "zipcode": "88330-624"
    },
    {
        "city": "Balneário Camboriú",
        "state": "SC",
        "district": "Centro",
        "street": "Rua 953",
        "zipcode": "88330-732"
    },
    {
        "city": "Balneário Camboriú",
        "state": "SC",
        "district": "Centro",
        "street": "Rua 965",
        "zipcode": "88330-744"
    },
    {
        "city": "Balneário Camboriú",
        "state": "SC",
        "district": "Centro",
        "street": "Rua 995",
        "zipcode": "88330-755"
    },
    {
        "city": "Balneário Camboriú",
        "state": "SC",
        "district": "Centro",
        "street": "Rua 980",
        "zipcode": "88330-579"
    },
    {
        "city": "Balneário Camboriú",
        "state": "SC",
        "district": "Centro",
        "street": "Avenida Atlântica",
        "zipcode": "88330-905"
    },
    {
        "city": "Balneário Camboriú",
        "state": "SC",
        "district": "Ariribá",
        "street": "Rua Pardal",
        "zipcode": "88338-455"
    },
    {
        "city": "Balneário Camboriú",
        "state": "SC",
        "district": "Ariribá",
        "street": "Rua Pica",
        "zipcode": "88338-530"
    },
    {
        "city": "Balneário Camboriú",
        "state": "SC",
        "district": "Ariribá",
        "street": "Rua Pintassilgo",
        "zipcode": "88338-535"
    },
    {
        "city": "Balneário Camboriú",
        "state": "SC",
        "district": "Ariribá",
        "street": "Rua Cambacica",
        "zipcode": "88338-615"
    },
    {
        "city": "Balneário Camboriú",
        "state": "SC",
        "district": "Ariribá",
        "street": "Rua Canário da Terra",
        "zipcode": "88338-620"
    },
    {
        "city": "Balneário Camboriú",
        "state": "SC",
        "district": "Centro",
        "street": "Rua 55",
        "zipcode": "88330-681"
    },
    {
        "city": "Balneário Camboriú",
        "state": "SC",
        "district": "Centro",
        "street": "Rua 57",
        "zipcode": "88330-684"
    },
    {
        "city": "Balneário Camboriú",
        "state": "SC",
        "district": "Centro",
        "street": "Rua 3450",
        "zipcode": "88330-260"
    },
    {
        "city": "Balneário Camboriú",
        "state": "SC",
        "district": "Centro",
        "street": "Rua 511",
        "zipcode": "88330-903"
    },
    {
        "city": "Balneário Camboriú",
        "state": "SC",
        "district": "Centro",
        "street": "Rua 600",
        "zipcode": "88330-971"
    },
    {
        "city": "Balneário Camboriú",
        "state": "SC",
        "district": "Praia dos Amores",
        "street": "Rua Plínio Salgado",
        "zipcode": "88331-450"
    },
    {
        "city": "Balneário Camboriú",
        "state": "SC",
        "district": "Nações",
        "street": "Rua Nova Zelândia",
        "zipcode": "88338-030"
    },
    {
        "city": "Balneário Camboriú",
        "state": "SC",
        "district": "Nações",
        "street": "Rua Paraguai",
        "zipcode": "88338-095"
    },
    {
        "city": "Balneário Camboriú",
        "state": "SC",
        "district": "Centro",
        "street": "Rua 916",
        "zipcode": "88330-570"
    },
    {
        "city": "Balneário Camboriú",
        "state": "SC",
        "district": "Centro",
        "street": "Rua 901",
        "zipcode": "88330-902"
    },
    {
        "city": "Balneário Camboriú",
        "state": "SC",
        "district": "Centro",
        "street": "Avenida Atlântica",
        "zipcode": "88330-907"
    },
    {
        "city": "Balneário Camboriú",
        "state": "SC",
        "district": "Centro",
        "street": "Avenida Atlântica",
        "zipcode": "88330-911"
    },
    {
        "city": "Balneário Camboriú",
        "state": "SC",
        "district": "Praia do Estaleirinho",
        "street": "Rua Higino João Pio",
        "zipcode": "88334-660"
    },
    {
        "city": "Balneário Camboriú",
        "state": "SC",
        "district": "Ariribá",
        "street": "Rua Coleirinha",
        "zipcode": "88338-470"
    },
    {
        "city": "Balneário Camboriú",
        "state": "SC",
        "district": "Centro",
        "street": "Avenida Brasil",
        "zipcode": "88330-970"
    },
    {
        "city": "Balneário Camboriú",
        "state": "SC",
        "district": "Nações",
        "street": "Rua Portugal",
        "zipcode": "88338-110"
    },
    {
        "city": "Balneário Camboriú",
        "state": "SC",
        "district": "Nações",
        "street": "Rua Panamá",
        "zipcode": "88338-185"
    },
    {
        "city": "Balneário Camboriú",
        "state": "SC",
        "district": "Centro",
        "street": "Rua 2300",
        "zipcode": "88330-432"
    },
    {
        "city": "Balneário Camboriú",
        "state": "SC",
        "district": "Centro",
        "street": "Rua 2412",
        "zipcode": "88330-440"
    },
    {
        "city": "Balneário Camboriú",
        "state": "SC",
        "district": "Centro",
        "street": "Avenida Brasil",
        "zipcode": "88330-901"
    },
    {
        "city": "Balneário Camboriú",
        "state": "SC",
        "district": "Centro",
        "street": "Rua 2500",
        "zipcode": "88330-394"
    },
    {
        "city": "Balneário Camboriú",
        "state": "SC",
        "district": "Centro",
        "street": "Rua 3000",
        "zipcode": "88330-336"
    },
    {
        "city": "Balneário Camboriú",
        "state": "SC",
        "district": "Centro",
        "street": "Rua 2950",
        "zipcode": "88330-348"
    },
    {
        "city": "Balneário Camboriú",
        "state": "SC",
        "district": "Centro",
        "street": "Rua 2870",
        "zipcode": "88330-358"
    },
    {
        "city": "Balneário Camboriú",
        "state": "SC",
        "district": "Centro",
        "street": "Rua 3050",
        "zipcode": "88330-308"
    },
    {
        "city": "Balneário Camboriú",
        "state": "SC",
        "district": "Vila Real",
        "street": "Rua Dom Francisco",
        "zipcode": "88337-090"
    },
    {
        "city": "Balneário Camboriú",
        "state": "SC",
        "district": "Nações",
        "street": "Rua Alemanha",
        "zipcode": "88338-053"
    },
    {
        "city": "Balneário Camboriú",
        "state": "SC",
        "district": "Nações",
        "street": "Avenida do Estado Dalmo Vieira",
        "zipcode": "88338-068"
    },
    {
        "city": "Balneário Camboriú",
        "state": "SC",
        "district": "Nações",
        "street": "Rua Jordânia",
        "zipcode": "88338-240"
    },
    {
        "city": "Balneário Camboriú",
        "state": "SC",
        "district": "Centro",
        "street": "Rua 2000",
        "zipcode": "88330-462"
    },
    {
        "city": "Balneário Camboriú",
        "state": "SC",
        "district": "Centro",
        "street": "Rua 1970",
        "zipcode": "88330-488"
    },
    {
        "city": "Balneário Camboriú",
        "state": "SC",
        "district": "Centro",
        "street": "Rua 1552",
        "zipcode": "88330-500"
    },
    {
        "city": "Balneário Camboriú",
        "state": "SC",
        "district": "Centro",
        "street": "Rua 1750",
        "zipcode": "88330-511"
    },
    {
        "city": "Balneário Camboriú",
        "state": "SC",
        "district": "Centro",
        "street": "Rua 1500",
        "zipcode": "88330-524"
    },
    {
        "city": "Balneário Camboriú",
        "state": "SC",
        "district": "Centro",
        "street": "Rua 1910",
        "zipcode": "88330-480"
    },
    {
        "city": "Balneário Camboriú",
        "state": "SC",
        "district": "Barra",
        "street": "Rua Helena Maria Candido",
        "zipcode": "88332-047"
    },
    {
        "city": "Balneário Camboriú",
        "state": "SC",
        "district": "Barra",
        "street": "Rua Vicente Florencio de Souza",
        "zipcode": "88332-235"
    },
    {
        "city": "Balneário Camboriú",
        "state": "SC",
        "district": "São Judas Tadeu",
        "street": "Rua Evaldino Venâncio Cunha",
        "zipcode": "88332-450"
    },
    {
        "city": "Balneário Camboriú",
        "state": "SC",
        "district": "Centro",
        "street": "Rua 2340",
        "zipcode": "88330-401"
    },
    {
        "city": "Balneário Camboriú",
        "state": "SC",
        "district": "Centro",
        "street": "Rua 2550",
        "zipcode": "88330-390"
    },
    {
        "city": "Balneário Camboriú",
        "state": "SC",
        "district": "Nações",
        "street": "Rua Tailândia",
        "zipcode": "88338-155"
    },
    {
        "city": "Balneário Camboriú",
        "state": "SC",
        "district": "Nações",
        "street": "Rua Indonésia",
        "zipcode": "88338-285"
    },
    {
        "city": "Balneário Camboriú",
        "state": "SC",
        "district": "Ariribá",
        "street": "Rua Flamingo",
        "zipcode": "88338-460"
    },
    {
        "city": "Balneário Camboriú",
        "state": "SC",
        "district": "Ariribá",
        "street": "Rua Maracanã",
        "zipcode": "88338-475"
    },
    {
        "city": "Balneário Camboriú",
        "state": "SC",
        "district": "Centro",
        "street": "Avenida Atlântica",
        "zipcode": "88330-910"
    },
    {
        "city": "Balneário Camboriú",
        "state": "SC",
        "district": "São Judas Tadeu",
        "street": "Rua Pedro Pinto Felipe",
        "zipcode": "88332-490"
    },
    {
        "city": "Balneário Camboriú",
        "state": "SC",
        "district": "Nova Esperança",
        "street": "Rua Manoel Campos Bicudo",
        "zipcode": "88336-330"
    },
    {
        "city": "Balneário Camboriú",
        "state": "SC",
        "district": "Centro",
        "street": "Rua 3780",
        "zipcode": "88330-230"
    },
    {
        "city": "Balneário Camboriú",
        "state": "SC",
        "district": "Centro",
        "street": "Rua 500",
        "zipcode": "88330-904"
    },
    {
        "city": "Balneário Camboriú",
        "state": "SC",
        "district": "Pioneiros",
        "street": "Rua Mingote Serafim",
        "zipcode": "88331-025"
    },
    {
        "city": "Balneário Camboriú",
        "state": "SC",
        "district": "Pioneiros",
        "street": "Rua José Manir Lucca",
        "zipcode": "88331-050"
    },
    {
        "city": "Balneário Camboriú",
        "state": "SC",
        "district": "Barra",
        "street": "Rua Osmar Rebelo Linhares",
        "zipcode": "88332-108"
    },
    {
        "city": "Balneário Camboriú",
        "state": "SC",
        "district": "Praia do Estaleirinho",
        "street": "Rua Miguel de Aviz",
        "zipcode": "88334-700"
    },
    {
        "city": "Balneário Camboriú",
        "state": "SC",
        "district": "Nova Esperança",
        "street": "Rua Osvaldo da Silva",
        "zipcode": "88336-060"
    },
    {
        "city": "Balneário Camboriú",
        "state": "SC",
        "district": "Nações",
        "street": "Rua Paquistão",
        "zipcode": "88338-085"
    },
    {
        "city": "Balneário Camboriú",
        "state": "SC",
        "district": "Nações",
        "street": "Rua Portugal",
        "zipcode": "88338-115"
    },
    {
        "city": "Balneário Camboriú",
        "state": "SC",
        "district": "Centro",
        "street": "Rua 4450",
        "zipcode": "88330-155"
    },
    {
        "city": "Balneário Camboriú",
        "state": "SC",
        "district": "Centro",
        "street": "Avenida Atlântica",
        "zipcode": "88330-906"
    },
    {
        "city": "Balneário Camboriú",
        "state": "SC",
        "district": "Praia dos Amores",
        "street": "Rua Manuel Bandeira",
        "zipcode": "88331-493"
    },
    {
        "city": "Balneário Camboriú",
        "state": "SC",
        "district": "Praia do Estaleirinho",
        "street": "Rua Venância Rita da Conceição",
        "zipcode": "88334-530"
    },
    {
        "city": "Balneário Camboriú",
        "state": "SC",
        "district": "Praia do Estaleirinho",
        "street": "Rua Manoel Amândio Rocha",
        "zipcode": "88334-590"
    },
    {
        "city": "Balneário Camboriú",
        "state": "SC",
        "district": "Nova Esperança",
        "street": "Rua José Borges Siqueira",
        "zipcode": "88336-270"
    },
    {
        "city": "Balneário Camboriú",
        "state": "SC",
        "district": "Municípios",
        "street": "Rua Criciúma",
        "zipcode": "88337-390"
    },
    {
        "city": "Balneário Camboriú",
        "state": "SC",
        "district": "Nações",
        "street": "Rua Nepal",
        "zipcode": "88338-215"
    },
    {
        "city": "Balneário Camboriú",
        "state": "SC",
        "district": "Nações",
        "street": "Rua Libéria",
        "zipcode": "88338-233"
    },
    {
        "city": "Balneário Camboriú",
        "state": "SC",
        "district": "Ariribá",
        "street": "Rua Aracuã",
        "zipcode": "88338-520"
    },
    {
        "city": "Balneário Camboriú",
        "state": "SC",
        "district": "Estados",
        "street": "Rua Paraíba",
        "zipcode": "88339-020"
    },
    {
        "city": "Balneário Camboriú",
        "state": "SC",
        "district": "Pioneiros",
        "street": "Rua Eleutéria Maria Euzébia Caetano",
        "zipcode": "88331-110"
    },
    {
        "city": "Balneário Camboriú",
        "state": "SC",
        "district": "Pioneiros",
        "street": "Rua Edwino Koteba",
        "zipcode": "88331-140"
    },
    {
        "city": "Balneário Camboriú",
        "state": "SC",
        "district": "Praia dos Amores",
        "street": "Rua Afonso Arinos",
        "zipcode": "88331-460"
    },
    {
        "city": "Balneário Camboriú",
        "state": "SC",
        "district": "Praia das Laranjeiras",
        "street": "Calçadão de Laranjeiras",
        "zipcode": "88333-420"
    },
    {
        "city": "Balneário Camboriú",
        "state": "SC",
        "district": "Praia das Laranjeiras",
        "street": "Rua Atenor Bonifácio Cardoso",
        "zipcode": "88333-430"
    },
    {
        "city": "Balneário Camboriú",
        "state": "SC",
        "district": "Praia do Estaleiro",
        "street": "Rua Amarildo Pereira",
        "zipcode": "88334-130"
    },
    {
        "city": "Balneário Camboriú",
        "state": "SC",
        "district": "Nova Esperança",
        "street": "Rua Albertina Honorato da Silva",
        "zipcode": "88336-085"
    },
    {
        "city": "Balneário Camboriú",
        "state": "SC",
        "district": "Nova Esperança",
        "street": "Rua Ana Guilhermina Siqueira",
        "zipcode": "88336-110"
    },
    {
        "city": "Balneário Camboriú",
        "state": "SC",
        "district": "Nova Esperança",
        "street": "Rua Brás Cubas",
        "zipcode": "88336-325"
    },
    {
        "city": "Balneário Camboriú",
        "state": "SC",
        "district": "Nova Esperança",
        "street": "Rua A (Lot Denise)",
        "zipcode": "88336-410"
    },
    {
        "city": "Balneário Camboriú",
        "state": "SC",
        "district": "Vila Real",
        "street": "Rua Dom Diniz",
        "zipcode": "88337-085"
    },
    {
        "city": "Balneário Camboriú",
        "state": "SC",
        "district": "Nova Esperança",
        "street": "Rua Antônio Joaquim Vitorino",
        "zipcode": "88336-120"
    },
    {
        "city": "Balneário Camboriú",
        "state": "SC",
        "district": "Vila Real",
        "street": "Rua Dom Daniel",
        "zipcode": "88337-040"
    },
    {
        "city": "Balneário Camboriú",
        "state": "SC",
        "district": "Municípios",
        "street": "Rua Apiúna",
        "zipcode": "88337-510"
    },
    {
        "city": "Balneário Camboriú",
        "state": "SC",
        "district": "Nações",
        "street": "Rua Itália",
        "zipcode": "88338-265"
    },
    {
        "city": "Balneário Camboriú",
        "state": "SC",
        "district": "Barra",
        "street": "Rua Carmelita Zimmermann",
        "zipcode": "88332-030"
    },
    {
        "city": "Balneário Camboriú",
        "state": "SC",
        "district": "São Judas Tadeu",
        "street": "Rua Daniel Vieira",
        "zipcode": "88332-495"
    },
    {
        "city": "Balneário Camboriú",
        "state": "SC",
        "district": "Barra",
        "street": "Rua Ildefonso Manoel Martins",
        "zipcode": "88332-160"
    },
    {
        "city": "Balneário Camboriú",
        "state": "SC",
        "district": "Centro",
        "street": "Avenida Atlântica",
        "zipcode": "88330-036"
    },
    {
        "city": "Balneário Camboriú",
        "state": "SC",
        "district": "Vila Real",
        "street": "Rua Dom Sebastião",
        "zipcode": "88337-110"
    },
    {
        "city": "Balneário Camboriú",
        "state": "SC",
        "district": "Municípios",
        "street": "Rua Campos Novos",
        "zipcode": "88337-350"
    },
    {
        "city": "Balneário Camboriú",
        "state": "SC",
        "district": "Centro",
        "street": "Avenida Atlântica",
        "zipcode": "88330-912"
    },
    {
        "city": "Balneário Camboriú",
        "state": "SC",
        "district": "Jardim Iate Clube",
        "street": "Rua Dom João",
        "zipcode": "88337-205"
    },
    {
        "city": "Balneário Camboriú",
        "state": "SC",
        "district": "Jardim Iate Clube",
        "street": "Rua Dom Fradique",
        "zipcode": "88337-250"
    },
    {
        "city": "Balneário Camboriú",
        "state": "SC",
        "district": "Ariribá",
        "street": "Rua Beija",
        "zipcode": "88338-490"
    },
    {
        "city": "Balneário Camboriú",
        "state": "SC",
        "district": "Ariribá",
        "street": "Rua Inhambuguaçú",
        "zipcode": "88338-560"
    },
    {
        "city": "Balneário Camboriú",
        "state": "SC",
        "district": "Ariribá",
        "street": "Rua Jaçanã",
        "zipcode": "88338-595"
    },
    {
        "city": "Balneário Camboriú",
        "state": "SC",
        "district": "Estados",
        "street": "Avenida Marginal Leste",
        "zipcode": "88339-125"
    },
    {
        "city": "Balneário Camboriú",
        "state": "SC",
        "district": "Estados",
        "street": "Avenida das Flores",
        "zipcode": "88339-130"
    },
    {
        "city": "Balneário Camboriú",
        "state": "SC",
        "district": "Centro",
        "street": "Rua 3850",
        "zipcode": "88330-190"
    },
    {
        "city": "Balneário Camboriú",
        "state": "SC",
        "district": "Centro",
        "street": "Rua 3750",
        "zipcode": "88330-194"
    },
    {
        "city": "Balneário Camboriú",
        "state": "SC",
        "district": "Centro",
        "street": "Rua 963",
        "zipcode": "88330-741"
    },
    {
        "city": "Balneário Camboriú",
        "state": "SC",
        "district": "Centro",
        "street": "Rua 501",
        "zipcode": "88330-699"
    },
    {
        "city": "Balneário Camboriú",
        "state": "SC",
        "district": "Praia dos Amores",
        "street": "Rua Monteiro Lobato",
        "zipcode": "88331-425"
    },
    {
        "city": "Balneário Camboriú",
        "state": "SC",
        "district": "Barra",
        "street": "Rua Percílio Jacinto",
        "zipcode": "88332-130"
    },
    {
        "city": "Balneário Camboriú",
        "state": "SC",
        "district": "Centro",
        "street": "3ª Avenida",
        "zipcode": "88330-100"
    },
    {
        "city": "Balneário Camboriú",
        "state": "SC",
        "district": "Centro",
        "street": "3ª Avenida",
        "zipcode": "88330-091"
    },
    {
        "city": "Balneário Camboriú",
        "state": "SC",
        "district": "Centro",
        "street": "Rua 1031",
        "zipcode": "88330-765"
    },
    {
        "city": "Balneário Camboriú",
        "state": "SC",
        "district": "Centro",
        "street": "Rua 1451",
        "zipcode": "88330-801"
    },
    {
        "city": "Balneário Camboriú",
        "state": "SC",
        "district": "Nova Esperança",
        "street": "Rua Arminda Rosa Cordeiro",
        "zipcode": "88336-017"
    },
    {
        "city": "Balneário Camboriú",
        "state": "SC",
        "district": "Nações",
        "street": "Rua Irã",
        "zipcode": "88338-020"
    },
    {
        "city": "Balneário Camboriú",
        "state": "SC",
        "district": "Ariribá",
        "street": "Avenida do Estado Dalmo Vieira",
        "zipcode": "88338-640"
    },
    {
        "city": "Balneário Camboriú",
        "state": "SC",
        "district": "Pioneiros",
        "street": "Avenida do Estado Dalmo Vieira",
        "zipcode": "88331-901"
    },
    {
        "city": "Balneário Camboriú",
        "state": "SC",
        "district": "Barra",
        "street": "Rua Edison Linhares Cruz",
        "zipcode": "88332-080"
    },
    {
        "city": "Balneário Camboriú",
        "state": "SC",
        "district": "Pioneiros",
        "street": "Rua Bruno Silva",
        "zipcode": "88331-065"
    },
    {
        "city": "Balneário Camboriú",
        "state": "SC",
        "district": "Centro",
        "street": "Rua 1800",
        "zipcode": "88330-508"
    },
    {
        "city": "Balneário Camboriú",
        "state": "SC",
        "district": "Centro",
        "street": "Rua 1011",
        "zipcode": "88330-759"
    },
    {
        "city": "Balneário Camboriú",
        "state": "SC",
        "district": "Centro",
        "street": "Avenida Brasil",
        "zipcode": "88330-900"
    },
    {
        "city": "Balneário Camboriú",
        "state": "SC",
        "district": "Centro",
        "street": "Rua 3000",
        "zipcode": "88330-332"
    },
    {
        "city": "Balneário Camboriú",
        "state": "SC",
        "district": "Centro",
        "street": "Rua 2870",
        "zipcode": "88330-360"
    },
    {
        "city": "Balneário Camboriú",
        "state": "SC",
        "district": "Centro",
        "street": "Rua 3100",
        "zipcode": "88330-302"
    },
    {
        "city": "Balneário Camboriú",
        "state": "SC",
        "district": "Centro",
        "street": "Avenida da Lagoa",
        "zipcode": "88330-714"
    },
    {
        "city": "Balneário Camboriú",
        "state": "SC",
        "district": "Nova Esperança",
        "street": "Avenida Marginal Oeste",
        "zipcode": "88336-203"
    },
    {
        "city": "Balneário Camboriú",
        "state": "SC",
        "district": "Nova Esperança",
        "street": "Avenida Lourival Cesário Pereira (Lot. Jd. Primavera)",
        "zipcode": "88336-275"
    },
    {
        "city": "Balneário Camboriú",
        "state": "SC",
        "district": "Nova Esperança",
        "street": "Rua Acadêmico Wagner Nathan de Castro (Lot. Jd. Primavera)",
        "zipcode": "88336-277"
    },
    {
        "city": "Balneário Camboriú",
        "state": "SC",
        "district": "Vila Real",
        "street": "Rodovia BR",
        "zipcode": "88337-060"
    },
    {
        "city": "Balneário Camboriú",
        "state": "SC",
        "district": "Municípios",
        "street": "Rua Agrolândia",
        "zipcode": "88337-525"
    },
    {
        "city": "Balneário Camboriú",
        "state": "SC",
        "district": "Nações",
        "street": "Rua Ilhas Fiji",
        "zipcode": "88338-266"
    },
    {
        "city": "Balneário Camboriú",
        "state": "SC",
        "district": "Centro",
        "street": "Rua 1950",
        "zipcode": "88330-472"
    },
    {
        "city": "Balneário Camboriú",
        "state": "SC",
        "district": "Centro",
        "street": "Rua 1500",
        "zipcode": "88330-526"
    },
    {
        "city": "Balneário Camboriú",
        "state": "SC",
        "district": "Centro",
        "street": "Rua 1304",
        "zipcode": "88330-561"
    },
    {
        "city": "Balneário Camboriú",
        "state": "SC",
        "district": "Centro",
        "street": "Rua 1111",
        "zipcode": "88330-780"
    },
    {
        "city": "Balneário Camboriú",
        "state": "SC",
        "district": "Centro",
        "street": "Rua 1125",
        "zipcode": "88330-785"
    },
    {
        "city": "Balneário Camboriú",
        "state": "SC",
        "district": "Centro",
        "street": "Rua 1528",
        "zipcode": "88330-540"
    },
    {
        "city": "Balneário Camboriú",
        "state": "SC",
        "district": "Centro",
        "street": "Rua 1901",
        "zipcode": "88330-819"
    },
    {
        "city": "Balneário Camboriú",
        "state": "SC",
        "district": "Pioneiros",
        "street": "Rua Justiniano Neves",
        "zipcode": "88331-020"
    },
    {
        "city": "Balneário Camboriú",
        "state": "SC",
        "district": "Centro",
        "street": "Rua 2050",
        "zipcode": "88330-456"
    },
    {
        "city": "Balneário Camboriú",
        "state": "SC",
        "district": "Centro",
        "street": "Rua 910",
        "zipcode": "88330-576"
    },
    {
        "city": "Balneário Camboriú",
        "state": "SC",
        "district": "Centro",
        "street": "Rua 904",
        "zipcode": "88330-592"
    },
    {
        "city": "Balneário Camboriú",
        "state": "SC",
        "district": "Centro",
        "street": "Rua 2480",
        "zipcode": "88330-407"
    },
    {
        "city": "Balneário Camboriú",
        "state": "SC",
        "district": "Centro",
        "street": "Rua 700",
        "zipcode": "88330-620"
    },
    {
        "city": "Balneário Camboriú",
        "state": "SC",
        "district": "Centro",
        "street": "Rua 2550",
        "zipcode": "88330-388"
    },
    {
        "city": "Balneário Camboriú",
        "state": "SC",
        "district": "Vila Real",
        "street": "Rua Dom Felipe",
        "zipcode": "88337-020"
    },
    {
        "city": "Balneário Camboriú",
        "state": "SC",
        "district": "Pioneiros",
        "street": "Rua Jacob Schmidt",
        "zipcode": "88331-015"
    },
    {
        "city": "Balneário Camboriú",
        "state": "SC",
        "district": "Municípios",
        "street": "Rua Barra Velha",
        "zipcode": "88337-455"
    },
    {
        "city": "Balneário Camboriú",
        "state": "SC",
        "district": "Estados",
        "street": "Avenida do Estado Dalmo Vieira",
        "zipcode": "88339-060"
    },
    {
        "city": "Balneário Camboriú",
        "state": "SC",
        "district": "Estados",
        "street": "Rodovia BR",
        "zipcode": "88339-115"
    },
    {
        "city": "Balneário Camboriú",
        "state": "SC",
        "district": "Centro",
        "street": "Rua 500",
        "zipcode": "88330-635"
    },
    {
        "city": "Balneário Camboriú",
        "state": "SC",
        "district": "Centro",
        "street": "Rua 51",
        "zipcode": "88330-675"
    },
    {
        "city": "Balneário Camboriú",
        "state": "SC",
        "district": "Praia dos Amores",
        "street": "Rua Padre Antônio Vieira",
        "zipcode": "88331-525"
    },
    {
        "city": "Balneário Camboriú",
        "state": "SC",
        "district": "Barra",
        "street": "Rua Ozório Fernandes de Macedo",
        "zipcode": "88332-075"
    },
    {
        "city": "Balneário Camboriú",
        "state": "SC",
        "district": "Barra",
        "street": "Rua Pedro da Conceição",
        "zipcode": "88332-100"
    },
    {
        "city": "Balneário Camboriú",
        "state": "SC",
        "district": "Centro",
        "street": "3ª Avenida",
        "zipcode": "88330-083"
    },
    {
        "city": "Balneário Camboriú",
        "state": "SC",
        "district": "Nova Esperança",
        "street": "Rua Sebastião Fernandes Tourinho",
        "zipcode": "88336-315"
    },
    {
        "city": "Balneário Camboriú",
        "state": "SC",
        "district": "Nova Esperança",
        "street": "Rua Paulo Marciano Cunha",
        "zipcode": "88336-170"
    },
    {
        "city": "Balneário Camboriú",
        "state": "SC",
        "district": "Municípios",
        "street": "5ª Avenida",
        "zipcode": "88337-300"
    },
    {
        "city": "Balneário Camboriú",
        "state": "SC",
        "district": "Centro",
        "street": "4ª Avenida",
        "zipcode": "88330-108"
    },
    {
        "city": "Balneário Camboriú",
        "state": "SC",
        "district": "Centro",
        "street": "Rodovia BR",
        "zipcode": "88330-114"
    },
    {
        "city": "Balneário Camboriú",
        "state": "SC",
        "district": "Nações",
        "street": "Rua Ilhas Virgens",
        "zipcode": "88338-278"
    },
    {
        "city": "Balneário Camboriú",
        "state": "SC",
        "district": "Centro",
        "street": "Rua 3618",
        "zipcode": "88330-239"
    },
    {
        "city": "Balneário Camboriú",
        "state": "SC",
        "district": "Praia do Estaleiro",
        "street": "Rua Manoel Jesuino Passos",
        "zipcode": "88334-126"
    },
    {
        "city": "Balneário Camboriú",
        "state": "SC",
        "district": "São Judas Tadeu",
        "street": "Rua Irineu Jacques",
        "zipcode": "88332-423"
    },
    {
        "city": "Balneário Camboriú",
        "state": "SC",
        "district": "Pioneiros",
        "street": "Rua Julieta Lins",
        "zipcode": "88331-010"
    },
    {
        "city": "Balneário Camboriú",
        "state": "SC",
        "district": "Nações",
        "street": "Rua Israel",
        "zipcode": "88338-270"
    },
    {
        "city": "Balneário Camboriú",
        "state": "SC",
        "district": "Estados",
        "street": "Rua Amapá",
        "zipcode": "88339-085"
    },
    {
        "city": "Balneário Camboriú",
        "state": "SC",
        "district": "Jardim Iate Clube",
        "street": "Rua Dom Pedro",
        "zipcode": "88337-210"
    },
    {
        "city": "Balneário Camboriú",
        "state": "SC",
        "district": "Barra",
        "street": "Rua Dejair Antônio da Silva",
        "zipcode": "88332-105"
    },
    {
        "city": "Balneário Camboriú",
        "state": "SC",
        "district": "Ariribá",
        "street": "Avenida do Estado Dalmo Vieira",
        "zipcode": "88338-901"
    },
    {
        "city": "Balneário Camboriú",
        "state": "SC",
        "district": "Estados",
        "street": "Rua Ceará",
        "zipcode": "88339-095"
    },
    {
        "city": "Balneário Camboriú",
        "state": "SC",
        "district": "Área Rural de Balneário Camboriú",
        "street": "Área Rural",
        "zipcode": "88339-899"
    },
    {
        "city": "Balneário Camboriú",
        "state": "SC",
        "district": "Barra",
        "street": "Rua Adaci Santos Gomes",
        "zipcode": "88332-115"
    },
    {
        "city": "Balneário Camboriú",
        "state": "SC",
        "district": "Barra",
        "street": "Rua Antônio Athanázio Corrêa",
        "zipcode": "88332-155"
    },
    {
        "city": "Balneário Camboriú",
        "state": "SC",
        "district": "Pioneiros",
        "street": "Rua Alípio Evilásio Meirinho",
        "zipcode": "88331-100"
    },
    {
        "city": "Balneário Camboriú",
        "state": "SC",
        "district": "Centro",
        "street": "Praça Higino João Pio",
        "zipcode": "88330-683"
    },
    {
        "city": "Balneário Camboriú",
        "state": "SC",
        "district": "Centro",
        "street": "Rua 2350",
        "zipcode": "88330-424"
    },
    {
        "city": "Balneário Camboriú",
        "state": "SC",
        "district": "Barra",
        "street": "Rua Antônio da Cunha",
        "zipcode": "88332-128"
    },
    {
        "city": "Balneário Camboriú",
        "state": "SC",
        "district": "Praia do Estaleirinho",
        "street": "Rodovia BR",
        "zipcode": "88334-520"
    },
    {
        "city": "Balneário Camboriú",
        "state": "SC",
        "district": "Nova Esperança",
        "street": "Rua Acadêmica Marlene Tochetto (Lot. Jd. Primavera)",
        "zipcode": "88336-265"
    },
    {
        "city": "Balneário Camboriú",
        "state": "SC",
        "district": "Nova Esperança",
        "street": "Rua Acadêmico Rafael Goulart (Lot. Jd. Primavera)",
        "zipcode": "88336-285"
    },
    {
        "city": "Balneário Camboriú",
        "state": "SC",
        "district": "Vila Real",
        "street": "Rua Dom Gregório",
        "zipcode": "88337-080"
    },
    {
        "city": "Balneário Camboriú",
        "state": "SC",
        "district": "São Judas Tadeu",
        "street": "Avenida Hermógenes de Assis Feijó",
        "zipcode": "88332-400"
    },
    {
        "city": "Balneário Camboriú",
        "state": "SC",
        "district": "Nações",
        "street": "Avenida do Estado Dalmo Vieira",
        "zipcode": "88338-065"
    },
    {
        "city": "Balneário Camboriú",
        "state": "SC",
        "district": "Nações",
        "street": "Rua Ilhas Carolinas",
        "zipcode": "88338-273"
    },
    {
        "city": "Balneário Camboriú",
        "state": "SC",
        "district": "Centro",
        "street": "Rua 1000",
        "zipcode": "88330-564"
    },
    {
        "city": "Balneário Camboriú",
        "state": "SC",
        "district": "Centro",
        "street": "Avenida Atlântica",
        "zipcode": "88330-030"
    },
    {
        "city": "Balneário Camboriú",
        "state": "SC",
        "district": "Barra",
        "street": "Rua Marcos Roberto Fernandes",
        "zipcode": "88332-070"
    },
    {
        "city": "Balneário Camboriú",
        "state": "SC",
        "district": "Praia das Taquaras",
        "street": "Rua Guarapuvu",
        "zipcode": "88333-050"
    },
    {
        "city": "Balneário Camboriú",
        "state": "SC",
        "district": "Praia do Estaleiro",
        "street": "Rua Jucélio Correa",
        "zipcode": "88334-083"
    },
    {
        "city": "Balneário Camboriú",
        "state": "SC",
        "district": "Nações",
        "street": "Rua Estados Unidos",
        "zipcode": "88338-305"
    },
    {
        "city": "Balneário Camboriú",
        "state": "SC",
        "district": "Ariribá",
        "street": "Rua Codorna",
        "zipcode": "88338-465"
    },
    {
        "city": "Balneário Camboriú",
        "state": "SC",
        "district": "Ariribá",
        "street": "Rua Andorinha",
        "zipcode": "88338-495"
    },
    {
        "city": "Balneário Camboriú",
        "state": "SC",
        "district": "Ariribá",
        "street": "Rua Jacupemba",
        "zipcode": "88338-565"
    },
    {
        "city": "Balneário Camboriú",
        "state": "SC",
        "district": "Estados",
        "street": "Rua Paraná",
        "zipcode": "88339-010"
    },
    {
        "city": "Balneário Camboriú",
        "state": "SC",
        "district": "Estados",
        "street": "Rua Rio de Janeiro",
        "zipcode": "88339-067"
    },
    {
        "city": "Balneário Camboriú",
        "state": "SC",
        "district": "Estados",
        "street": "Avenida das Flores",
        "zipcode": "88339-900"
    },
    {
        "city": "Balneário Camboriú",
        "state": "SC",
        "district": "Centro",
        "street": "Rua 3720",
        "zipcode": "88330-197"
    },
    {
        "city": "Balneário Camboriú",
        "state": "SC",
        "district": "Centro",
        "street": "Rua 3650",
        "zipcode": "88330-218"
    },
    {
        "city": "Balneário Camboriú",
        "state": "SC",
        "district": "Centro",
        "street": "Rua 3420",
        "zipcode": "88330-263"
    },
    {
        "city": "Balneário Camboriú",
        "state": "SC",
        "district": "São Judas Tadeu",
        "street": "Rua Samuel Rocha",
        "zipcode": "88332-410"
    },
    {
        "city": "Balneário Camboriú",
        "state": "SC",
        "district": "Praia das Laranjeiras",
        "street": "Rua Sabino Pedro Vicente",
        "zipcode": "88333-425"
    },
    {
        "city": "Balneário Camboriú",
        "state": "SC",
        "district": "Centro",
        "street": "Rua 4502",
        "zipcode": "88330-165"
    },
    {
        "city": "Balneário Camboriú",
        "state": "SC",
        "district": "Praia do Estaleirinho",
        "street": "Rua Miguel de Avis",
        "zipcode": "88334-697"
    },
    {
        "city": "Balneário Camboriú",
        "state": "SC",
        "district": "Centro",
        "street": "4ª Avenida",
        "zipcode": "88330-110"
    },
    {
        "city": "Balneário Camboriú",
        "state": "SC",
        "district": "Centro",
        "street": "Rua 4800",
        "zipcode": "88330-128"
    },
    {
        "city": "Balneário Camboriú",
        "state": "SC",
        "district": "Centro",
        "street": "Rua 3500",
        "zipcode": "88330-254"
    },
    {
        "city": "Balneário Camboriú",
        "state": "SC",
        "district": "Centro",
        "street": "Rua 912",
        "zipcode": "88330-607"
    },
    {
        "city": "Balneário Camboriú",
        "state": "SC",
        "district": "Centro",
        "street": "Avenida Brasil",
        "zipcode": "88330-063"
    },
    {
        "city": "Balneário Camboriú",
        "state": "SC",
        "district": "Pioneiros",
        "street": "Rua Hilda Santos Inácio",
        "zipcode": "88331-032"
    },
    {
        "city": "Balneário Camboriú",
        "state": "SC",
        "district": "Pioneiros",
        "street": "Avenida do Estado Dalmo Vieira",
        "zipcode": "88331-900"
    },
    {
        "city": "Balneário Camboriú",
        "state": "SC",
        "district": "Nova Esperança",
        "street": "Rua José Honorato da Silva",
        "zipcode": "88336-070"
    },
    {
        "city": "Balneário Camboriú",
        "state": "SC",
        "district": "Nações",
        "street": "Rua Chile",
        "zipcode": "88338-320"
    },
    {
        "city": "Balneário Camboriú",
        "state": "SC",
        "district": "Ariribá",
        "street": "Avenida do Estado Dalmo Vieira",
        "zipcode": "88338-635"
    },
    {
        "city": "Balneário Camboriú",
        "state": "SC",
        "district": "São Judas Tadeu",
        "street": "Rua Eduviges Diogo Ramos",
        "zipcode": "88332-420"
    },
    {
        "city": "Balneário Camboriú",
        "state": "SC",
        "district": "Estados",
        "street": "Rua Sergipe",
        "zipcode": "88339-120"
    },
    {
        "city": "Balneário Camboriú",
        "state": "SC",
        "district": "Nova Esperança",
        "street": "Rua Olegário Bacca",
        "zipcode": "88336-095"
    },
    {
        "city": "Balneário Camboriú",
        "state": "SC",
        "district": "Pioneiros",
        "street": "Rua Arthur Max Dôose",
        "zipcode": "88331-085"
    },
    {
        "city": "Balneário Camboriú",
        "state": "SC",
        "district": "Pioneiros",
        "street": "Rua Egidio Alfredo Crispim",
        "zipcode": "88331-102"
    },
    {
        "city": "Balneário Camboriú",
        "state": "SC",
        "district": "Pioneiros",
        "street": "Avenida do Estado Dalmo Vieira",
        "zipcode": "88331-150"
    },
    {
        "city": "Balneário Camboriú",
        "state": "SC",
        "district": "Praia dos Amores",
        "street": "Rua Carlos Drummond de Andrade",
        "zipcode": "88331-410"
    },
    {
        "city": "Balneário Camboriú",
        "state": "SC",
        "district": "Pioneiros",
        "street": "Rua Dimas Campos",
        "zipcode": "88331-033"
    },
    {
        "city": "Balneário Camboriú",
        "state": "SC",
        "district": "Centro",
        "street": "Avenida Atlântica",
        "zipcode": "88330-908"
    },
    {
        "city": "Balneário Camboriú",
        "state": "SC",
        "district": "Centro",
        "street": "Avenida do Estado Dalmo Vieira",
        "zipcode": "88330-659"
    },
    {
        "city": "Balneário Camboriú",
        "state": "SC",
        "district": "Centro",
        "street": "Rua 2414",
        "zipcode": "88330-442"
    },
    {
        "city": "Balneário Camboriú",
        "state": "SC",
        "district": "Centro",
        "street": "Rua 3200",
        "zipcode": "88330-275"
    },
    {
        "city": "Balneário Camboriú",
        "state": "SC",
        "district": "Centro",
        "street": "Rua 3250",
        "zipcode": "88330-278"
    },
    {
        "city": "Balneário Camboriú",
        "state": "SC",
        "district": "Centro",
        "street": "Avenida do Estado Dalmo Vieira",
        "zipcode": "88330-077"
    },
    {
        "city": "Balneário Camboriú",
        "state": "SC",
        "district": "Centro",
        "street": "Avenida Brasil",
        "zipcode": "88330-058"
    },
    {
        "city": "Balneário Camboriú",
        "state": "SC",
        "district": "Centro",
        "street": "Avenida Atlântica",
        "zipcode": "88330-009"
    },
    {
        "city": "Balneário Camboriú",
        "state": "SC",
        "district": "Centro",
        "street": "Avenida Atlântica",
        "zipcode": "88330-018"
    },
    {
        "city": "Balneário Camboriú",
        "state": "SC",
        "district": "Praia dos Amores",
        "street": "Rua Casimiro de Abreu",
        "zipcode": "88331-515"
    },
    {
        "city": "Balneário Camboriú",
        "state": "SC",
        "district": "Barra",
        "street": "Avenida Hermógenes de Assis Feijó",
        "zipcode": "88332-005"
    },
    {
        "city": "Balneário Camboriú",
        "state": "SC",
        "district": "São Judas Tadeu",
        "street": "Rodovia BR",
        "zipcode": "88332-510"
    },
    {
        "city": "Balneário Camboriú",
        "state": "SC",
        "district": "Nova Esperança",
        "street": "Rua Acadêmica Alice Jorge de Souza",
        "zipcode": "88336-025"
    },
    {
        "city": "Balneário Camboriú",
        "state": "SC",
        "district": "Centro",
        "street": "Rua 1532",
        "zipcode": "88330-543"
    },
    {
        "city": "Balneário Camboriú",
        "state": "SC",
        "district": "Centro",
        "street": "Rua 2400",
        "zipcode": "88330-416"
    },
    {
        "city": "Balneário Camboriú",
        "state": "SC",
        "district": "Centro",
        "street": "Rua 906",
        "zipcode": "88330-584"
    },
    {
        "city": "Balneário Camboriú",
        "state": "SC",
        "district": "Centro",
        "street": "Rua 800",
        "zipcode": "88330-598"
    },
    {
        "city": "Balneário Camboriú",
        "state": "SC",
        "district": "Centro",
        "street": "Rua 2500",
        "zipcode": "88330-392"
    },
    {
        "city": "Balneário Camboriú",
        "state": "SC",
        "district": "Centro",
        "street": "Rua 904",
        "zipcode": "88330-590"
    },
    {
        "city": "Balneário Camboriú",
        "state": "SC",
        "district": "Centro",
        "street": "Rua 2650",
        "zipcode": "88330-383"
    },
    {
        "city": "Balneário Camboriú",
        "state": "SC",
        "district": "Nova Esperança",
        "street": "Rua Eliete Pereira Melo (Lot. Jd. Primavera)",
        "zipcode": "88336-267"
    },
    {
        "city": "Balneário Camboriú",
        "state": "SC",
        "district": "Jardim Iate Clube",
        "street": "Rua Abelardo Luz",
        "zipcode": "88337-202"
    },
    {
        "city": "Balneário Camboriú",
        "state": "SC",
        "district": "Ariribá",
        "street": "Rua Caboclinho",
        "zipcode": "88338-485"
    },
    {
        "city": "Balneário Camboriú",
        "state": "SC",
        "district": "Ariribá",
        "street": "Rua Agostinho Lemos de Camargo",
        "zipcode": "88338-633"
    },
    {
        "city": "Balneário Camboriú",
        "state": "SC",
        "district": "Estados",
        "street": "Avenida do Estado Dalmo Vieira",
        "zipcode": "88339-055"
    },
    {
        "city": "Balneário Camboriú",
        "state": "SC",
        "district": "Centro",
        "street": "Rua 500",
        "zipcode": "88330-638"
    },
    {
        "city": "Balneário Camboriú",
        "state": "SC",
        "district": "Pioneiros",
        "street": "Rua José Venâncio dos Santos",
        "zipcode": "88331-115"
    },
    {
        "city": "Balneário Camboriú",
        "state": "SC",
        "district": "Praia dos Amores",
        "street": "Rua José de Alencar",
        "zipcode": "88331-440"
    },
    {
        "city": "Balneário Camboriú",
        "state": "SC",
        "district": "Praia dos Amores",
        "street": "Rua Sérgio Milliet",
        "zipcode": "88331-465"
    },
    {
        "city": "Balneário Camboriú",
        "state": "SC",
        "district": "Barra",
        "street": "Rua Otto Stein",
        "zipcode": "88332-120"
    },
    {
        "city": "Balneário Camboriú",
        "state": "SC",
        "district": "Barra",
        "street": "Rua Nagib Corrêa",
        "zipcode": "88332-145"
    },
    {
        "city": "Balneário Camboriú",
        "state": "SC",
        "district": "Centro",
        "street": "4ª Avenida",
        "zipcode": "88330-112"
    },
    {
        "city": "Balneário Camboriú",
        "state": "SC",
        "district": "Barra",
        "street": "Rua Mário Eleutério Pinheiro",
        "zipcode": "88332-223"
    },
    {
        "city": "Balneário Camboriú",
        "state": "SC",
        "district": "Praia do Estaleirinho",
        "street": "Rua José Amaro da Cunha",
        "zipcode": "88334-600"
    },
    {
        "city": "Balneário Camboriú",
        "state": "SC",
        "district": "Praia do Estaleirinho",
        "street": "Rua José Felipe Emerenciano",
        "zipcode": "88334-730"
    },
    {
        "city": "Balneário Camboriú",
        "state": "SC",
        "district": "Nações",
        "street": "Rua Jamaica",
        "zipcode": "88338-250"
    },
    {
        "city": "Balneário Camboriú",
        "state": "SC",
        "district": "Barra",
        "street": "Rua Eleutério Cipriano Pinheiro",
        "zipcode": "88332-210"
    },
    {
        "city": "Balneário Camboriú",
        "state": "SC",
        "district": "Barra",
        "street": "Rua Aquiles da Costa",
        "zipcode": "88332-125"
    },
    {
        "city": "Balneário Camboriú",
        "state": "SC",
        "district": "Praia do Estaleiro",
        "street": "Estrada Antônio Torquato",
        "zipcode": "88334-090"
    },
    {
        "city": "Balneário Camboriú",
        "state": "SC",
        "district": "Nova Esperança",
        "street": "Rua Antônio Raposo Tavares",
        "zipcode": "88336-345"
    },
    {
        "city": "Balneário Camboriú",
        "state": "SC",
        "district": "Nações",
        "street": "Avenida do Estado Dalmo Vieira",
        "zipcode": "88338-063"
    },
    {
        "city": "Balneário Camboriú",
        "state": "SC",
        "district": "Jardim Iate Clube",
        "street": "Rua Agrolândia",
        "zipcode": "88337-265"
    },
    {
        "city": "Balneário Camboriú",
        "state": "SC",
        "district": "Praia do Estaleiro",
        "street": "Rua Januário Felício Pereira",
        "zipcode": "88334-120"
    },
    {
        "city": "Balneário Camboriú",
        "state": "SC",
        "district": "Praia do Estaleirinho",
        "street": "Rua Rodolfo Felipe Rosa",
        "zipcode": "88334-550"
    },
    {
        "city": "Balneário Camboriú",
        "state": "SC",
        "district": "Praia do Estaleiro",
        "street": "Rua Maria Rosa DAquino",
        "zipcode": "88334-125"
    },
    {
        "city": "Balneário Camboriú",
        "state": "SC",
        "district": "Nova Esperança",
        "street": "Rua Marinilza da Conceição do Nascimento",
        "zipcode": "88336-143"
    },
    {
        "city": "Balneário Camboriú",
        "state": "SC",
        "district": "Praia do Estaleirinho",
        "street": "Avenida Rodesindo Pavan",
        "zipcode": "88334-500"
    },
    {
        "city": "Balneário Camboriú",
        "state": "SC",
        "district": "Praia do Estaleiro",
        "street": "Rua Olimpio Germano Rosa",
        "zipcode": "88334-055"
    },
    {
        "city": "Balneário Camboriú",
        "state": "SC",
        "district": "Vila Real",
        "street": "Rua Dom Manoel",
        "zipcode": "88337-045"
    },
    {
        "city": "Balneário Camboriú",
        "state": "SC",
        "district": "Vila Real",
        "street": "Rua Dom Luiz",
        "zipcode": "88337-100"
    },
    {
        "city": "Balneário Camboriú",
        "state": "SC",
        "district": "Nova Esperança",
        "street": "Rua Ponte de Arame",
        "zipcode": "88336-420"
    },
    {
        "city": "Balneário Camboriú",
        "state": "SC",
        "district": "Barra",
        "street": "Rua Amara Pereira Corrêa",
        "zipcode": "88332-040"
    },
    {
        "city": "Balneário Camboriú",
        "state": "SC",
        "district": "Centro",
        "street": "Rua 2300",
        "zipcode": "88330-430"
    },
    {
        "city": "Balneário Camboriú",
        "state": "SC",
        "district": "Centro",
        "street": "Rua 2800",
        "zipcode": "88330-370"
    },
    {
        "city": "Balneário Camboriú",
        "state": "SC",
        "district": "Centro",
        "street": "Avenida Brasil",
        "zipcode": "88330-050"
    },
    {
        "city": "Balneário Camboriú",
        "state": "SC",
        "district": "Centro",
        "street": "Rua 2028",
        "zipcode": "88330-486"
    },
    {
        "city": "Balneário Camboriú",
        "state": "SC",
        "district": "Centro",
        "street": "Rua 902",
        "zipcode": "88330-596"
    },
    {
        "city": "Balneário Camboriú",
        "state": "SC",
        "district": "Centro",
        "street": "Rua 981",
        "zipcode": "88330-750"
    },
    {
        "city": "Balneário Camboriú",
        "state": "SC",
        "district": "Centro",
        "street": "Rua 770",
        "zipcode": "88330-601"
    },
    {
        "city": "Balneário Camboriú",
        "state": "SC",
        "district": "Estados",
        "street": "Rua Guanabara",
        "zipcode": "88339-105"
    },
    {
        "city": "Balneário Camboriú",
        "state": "SC",
        "district": "Nações",
        "street": "Rua Tanzânia",
        "zipcode": "88338-045"
    },
    {
        "city": "Balneário Camboriú",
        "state": "SC",
        "district": "Estados",
        "street": "Rua Goiás",
        "zipcode": "88339-100"
    },
    {
        "city": "Balneário Camboriú",
        "state": "SC",
        "district": "Estados",
        "street": "Rua Rio Grande do Sul",
        "zipcode": "88339-110"
    },
    {
        "city": "Balneário Camboriú",
        "state": "SC",
        "district": "Centro",
        "street": "Rua 4700",
        "zipcode": "88330-135"
    },
    {
        "city": "Balneário Camboriú",
        "state": "SC",
        "district": "Centro",
        "street": "Avenida Brasil",
        "zipcode": "88330-065"
    },
    {
        "city": "Balneário Camboriú",
        "state": "SC",
        "district": "Praia dos Amores",
        "street": "Avenida do Estado Dalmo Vieira",
        "zipcode": "88331-490"
    },
    {
        "city": "Balneário Camboriú",
        "state": "SC",
        "district": "Praia dos Amores",
        "street": "Rua Fernando de Azevedo",
        "zipcode": "88331-480"
    },
    {
        "city": "Balneário Camboriú",
        "state": "SC",
        "district": "Praia dos Amores",
        "street": "Rua Henrique Mescke",
        "zipcode": "88331-485"
    },
    {
        "city": "Balneário Camboriú",
        "state": "SC",
        "district": "Centro",
        "street": "Avenida Marginal Leste",
        "zipcode": "88330-116"
    },
    {
        "city": "Balneário Camboriú",
        "state": "SC",
        "district": "Centro",
        "street": "Avenida Normando Tedesco",
        "zipcode": "88330-118"
    },
    {
        "city": "Balneário Camboriú",
        "state": "SC",
        "district": "Centro",
        "street": "Rua 4400",
        "zipcode": "88330-160"
    },
    {
        "city": "Balneário Camboriú",
        "state": "SC",
        "district": "Nações",
        "street": "Rua Uganda",
        "zipcode": "88338-160"
    },
    {
        "city": "Balneário Camboriú",
        "state": "SC",
        "district": "Nações",
        "street": "Rua Uganda",
        "zipcode": "88338-165"
    },
    {
        "city": "Balneário Camboriú",
        "state": "SC",
        "district": "Nações",
        "street": "Rua Islândia",
        "zipcode": "88338-275"
    },
    {
        "city": "Balneário Camboriú",
        "state": "SC",
        "district": "Nações",
        "street": "Rua Irlanda do Norte",
        "zipcode": "88338-276"
    },
    {
        "city": "Balneário Camboriú",
        "state": "SC",
        "district": "Nações",
        "street": "Rua Vietnã",
        "zipcode": "88338-076"
    },
    {
        "city": "Balneário Camboriú",
        "state": "SC",
        "district": "Nações",
        "street": "Rua Zâmbia",
        "zipcode": "88338-078"
    },
    {
        "city": "Balneário Camboriú",
        "state": "SC",
        "district": "Nações",
        "street": "Rua Venezuela",
        "zipcode": "88338-183"
    },
    {
        "city": "Balneário Camboriú",
        "state": "SC",
        "district": "Centro",
        "street": "Avenida Brasil",
        "zipcode": "88330-055"
    },
    {
        "city": "Balneário Camboriú",
        "state": "SC",
        "district": "Centro",
        "street": "Rua 1520",
        "zipcode": "88330-532"
    },
    {
        "city": "Balneário Camboriú",
        "state": "SC",
        "district": "Centro",
        "street": "Rua 511",
        "zipcode": "88330-702"
    },
    {
        "city": "Balneário Camboriú",
        "state": "SC",
        "district": "Praia do Estaleiro",
        "street": "Rua Vergílio Rodrigues Pereira",
        "zipcode": "88334-140"
    },
    {
        "city": "Balneário Camboriú",
        "state": "SC",
        "district": "Praia do Estaleirinho",
        "street": "Rua Felipe Germano Rosa",
        "zipcode": "88334-670"
    },
    {
        "city": "Balneário Camboriú",
        "state": "SC",
        "district": "Estados",
        "street": "Rodovia BR",
        "zipcode": "88339-515"
    },
    {
        "city": "Balneário Camboriú",
        "state": "SC",
        "district": "Pioneiros",
        "street": "Rua Francisco Manoel de Souza",
        "zipcode": "88331-080"
    },
    {
        "city": "Balneário Camboriú",
        "state": "SC",
        "district": "Centro",
        "street": "Rua 3100",
        "zipcode": "88330-304"
    },
    {
        "city": "Balneário Camboriú",
        "state": "SC",
        "district": "Centro",
        "street": "Avenida Brasil",
        "zipcode": "88330-060"
    },
    {
        "city": "Balneário Camboriú",
        "state": "SC",
        "district": "Barra",
        "street": "Rodovia BR",
        "zipcode": "88332-085"
    },
    {
        "city": "Balneário Camboriú",
        "state": "SC",
        "district": "São Judas Tadeu",
        "street": "Avenida Hermógenes de Assis Feijó",
        "zipcode": "88332-405"
    },
    {
        "city": "Balneário Camboriú",
        "state": "SC",
        "district": "Praia das Taquaras",
        "street": "Avenida Rodesindo Pavan",
        "zipcode": "88333-120"
    },
    {
        "city": "Balneário Camboriú",
        "state": "SC",
        "district": "Praia das Taquaras",
        "street": "Avenida Rodesindo Pavan",
        "zipcode": "88333-150"
    },
    {
        "city": "Balneário Camboriú",
        "state": "SC",
        "district": "Nações",
        "street": "Rua Jamaica",
        "zipcode": "88338-255"
    },
    {
        "city": "Balneário Camboriú",
        "state": "SC",
        "district": "Centro",
        "street": "Rua 1061",
        "zipcode": "88330-771"
    },
    {
        "city": "Balneário Camboriú",
        "state": "SC",
        "district": "Barra",
        "street": "Rua Joana Maria",
        "zipcode": "88332-015"
    },
    {
        "city": "Balneário Camboriú",
        "state": "SC",
        "district": "Centro",
        "street": "Rua 2500",
        "zipcode": "88330-396"
    },
    {
        "city": "Balneário Camboriú",
        "state": "SC",
        "district": "Centro",
        "street": "Avenida Atlântica",
        "zipcode": "88330-033"
    },
    {
        "city": "Balneário Camboriú",
        "state": "SC",
        "district": "Ariribá",
        "street": "Avenida dos Tucanos",
        "zipcode": "88338-610"
    },
    {
        "city": "Balneário Camboriú",
        "state": "SC",
        "district": "Nova Esperança",
        "street": "Rua Pascoal Moreira Cabral Leme",
        "zipcode": "88336-310"
    },
    {
        "city": "Balneário Camboriú",
        "state": "SC",
        "district": "Centro",
        "street": "3ª Avenida",
        "zipcode": "88330-087"
    },
    {
        "city": "Balneário Camboriú",
        "state": "SC",
        "district": "Praia do Estaleiro",
        "street": "Rua Domingos Mafra",
        "zipcode": "88334-030"
    },
    {
        "city": "Balneário Camboriú",
        "state": "SC",
        "district": "Praia do Estaleiro",
        "street": "Rua Ozória Maria Mafra",
        "zipcode": "88334-050"
    },
    {
        "city": "Balneário Camboriú",
        "state": "SC",
        "district": "Municípios",
        "street": "Rua Brusque",
        "zipcode": "88337-430"
    },
    {
        "city": "Balneário Camboriú",
        "state": "SC",
        "district": "Municípios",
        "street": "Rua Canoinhas",
        "zipcode": "88337-395"
    },
    {
        "city": "Balneário Camboriú",
        "state": "SC",
        "district": "São Judas Tadeu",
        "street": "Rua Franklim Pereira",
        "zipcode": "88332-445"
    }
]