[
    {
        "city": "Biguaçu",
        "state": "SC",
        "district": "Rio Caveiras",
        "street": "Rua Juriti",
        "zipcode": "88161-704"
    },
    {
        "city": "Biguaçu",
        "state": "SC",
        "district": "Boa Vista",
        "street": "Rua João José Rodrigues",
        "zipcode": "88161-124"
    },
    {
        "city": "Biguaçu",
        "state": "SC",
        "district": "Bom Viver",
        "street": "Rua Madre Paulina",
        "zipcode": "88160-734"
    },
    {
        "city": "Biguaçu",
        "state": "SC",
        "district": "Jardim Janaína",
        "street": "Rua Amorim",
        "zipcode": "88162-152"
    },
    {
        "city": "Biguaçu",
        "state": "SC",
        "district": "Saveiro",
        "street": "Rua Xingu",
        "zipcode": "88160-400"
    },
    {
        "city": "Biguaçu",
        "state": "SC",
        "district": "Saveiro",
        "street": "Rua Tietê",
        "zipcode": "88160-388"
    },
    {
        "city": "Biguaçu",
        "state": "SC",
        "district": "Mar das Pedras",
        "street": "Servidão Vitalino João Antônio",
        "zipcode": "88160-520"
    },
    {
        "city": "Biguaçu",
        "state": "SC",
        "district": "Praia João Rosa",
        "street": "Servidão Edevaldo Modesto Simas",
        "zipcode": "88160-283"
    },
    {
        "city": "Biguaçu",
        "state": "SC",
        "district": "Prado de Baixo",
        "street": "Servidão Dona Vitalina Juncks Muller",
        "zipcode": "88160-066"
    },
    {
        "city": "Biguaçu",
        "state": "SC",
        "district": "Prado",
        "street": "Rua 3 (Lot. Jd. Anápolis)",
        "zipcode": "88165-171"
    },
    {
        "city": "Biguaçu",
        "state": "SC",
        "district": "Área Rural de Biguaçu",
        "street": "Área Rural",
        "zipcode": "88169-899"
    },
    {
        "city": "Biguaçu",
        "state": "SC",
        "district": "Tijuquinhas (Guaporanga)",
        "street": "Rua Hermínio Silvy",
        "zipcode": "88168-970"
    },
    {
        "city": "Biguaçu",
        "state": "SC",
        "district": "Areias de Cima (Guaporanga)",
        "street": "Rua José Nascimento dos Reis",
        "zipcode": "88168-746"
    },
    {
        "city": "Biguaçu",
        "state": "SC",
        "district": "Areias de Cima (Guaporanga)",
        "street": "Rua Alexandre Marcelino",
        "zipcode": "88168-670"
    },
    {
        "city": "Biguaçu",
        "state": "SC",
        "district": "Tijuquinhas (Guaporanga)",
        "street": "Rua Juvelino Albano da Silva",
        "zipcode": "88168-408"
    },
    {
        "city": "Biguaçu",
        "state": "SC",
        "district": "São Miguel (Guaporanga)",
        "street": "Servidão Maria Aparecida Gonçalves Tibes",
        "zipcode": "88168-210"
    },
    {
        "city": "Biguaçu",
        "state": "SC",
        "district": "São Miguel (Guaporanga)",
        "street": "Rua Professora Nila Sardá",
        "zipcode": "88168-105"
    },
    {
        "city": "Biguaçu",
        "state": "SC",
        "district": "São Miguel (Guaporanga)",
        "street": "Servidão Chácara do Sol",
        "zipcode": "88168-032"
    },
    {
        "city": "Biguaçu",
        "state": "SC",
        "district": "São Miguel (Guaporanga)",
        "street": "Servidão das Ostras",
        "zipcode": "88168-021"
    },
    {
        "city": "Biguaçu",
        "state": "SC",
        "district": "Prado",
        "street": "Rua João Orivaldo Neves",
        "zipcode": "88165-156"
    },
    {
        "city": "Biguaçu",
        "state": "SC",
        "district": "Prado",
        "street": "Rua Vilmar Valdir de Souza",
        "zipcode": "88165-132"
    },
    {
        "city": "Biguaçu",
        "state": "SC",
        "district": "Rio Caveiras",
        "street": "Rua Hipólito Henrique Pfleger",
        "zipcode": "88161-770"
    },
    {
        "city": "Biguaçu",
        "state": "SC",
        "district": "Universitário",
        "street": "Rua Manoel João Pacheco",
        "zipcode": "88161-076"
    },
    {
        "city": "Biguaçu",
        "state": "SC",
        "district": "Bom Viver",
        "street": "Rua Bernadina Raupp Tomaz",
        "zipcode": "88160-730"
    },
    {
        "city": "Biguaçu",
        "state": "SC",
        "district": "Bom Viver",
        "street": "Rua José Manoel Vieira",
        "zipcode": "88160-646"
    },
    {
        "city": "Biguaçu",
        "state": "SC",
        "district": "Cachoeiras (Guaporanga)",
        "street": "Rua Hercílio Garcia",
        "zipcode": "88168-628"
    },
    {
        "city": "Biguaçu",
        "state": "SC",
        "district": "Universitário",
        "street": "Rua Saimon Feltz do Nascimento",
        "zipcode": "88161-022"
    },
    {
        "city": "Biguaçu",
        "state": "SC",
        "district": "Bom Viver",
        "street": "Rua Nicácio Idelfonso Rosa",
        "zipcode": "88160-750"
    },
    {
        "city": "Biguaçu",
        "state": "SC",
        "district": "Rio Caveiras",
        "street": "Rua João Luiz Pacheco",
        "zipcode": "88161-834"
    },
    {
        "city": "Biguaçu",
        "state": "SC",
        "district": "Rio Caveiras",
        "street": "Rua Otacilio Sodré",
        "zipcode": "88161-692"
    },
    {
        "city": "Biguaçu",
        "state": "SC",
        "district": "Cachoeiras (Guaporanga)",
        "street": "Rua João Pereira Filho",
        "zipcode": "88168-624"
    },
    {
        "city": "Biguaçu",
        "state": "SC",
        "district": "São Miguel (Guaporanga)",
        "street": "Rua Osmar José dos Prazeres",
        "zipcode": "88168-232"
    },
    {
        "city": "Biguaçu",
        "state": "SC",
        "district": "Fundos",
        "street": "Rua Antônio Siqueira de Oliveira",
        "zipcode": "88161-522"
    },
    {
        "city": "Biguaçu",
        "state": "SC",
        "district": "Rio Caveiras",
        "street": "Rua Ana Mielezrski",
        "zipcode": "88161-588"
    },
    {
        "city": "Biguaçu",
        "state": "SC",
        "district": "Rio Caveiras",
        "street": "Rua Adolfo Agostinho Vieira",
        "zipcode": "88161-602"
    },
    {
        "city": "Biguaçu",
        "state": "SC",
        "district": "Rio Caveiras",
        "street": "Rua José Bento de Souza",
        "zipcode": "88161-679"
    },
    {
        "city": "Biguaçu",
        "state": "SC",
        "district": "Rio Caveiras",
        "street": "Rua Avelino Schetz",
        "zipcode": "88161-690"
    },
    {
        "city": "Biguaçu",
        "state": "SC",
        "district": "Rio Caveiras",
        "street": "Rua Berto da Cunha",
        "zipcode": "88161-626"
    },
    {
        "city": "Biguaçu",
        "state": "SC",
        "district": "Centro",
        "street": "Rua São José",
        "zipcode": "88160-156"
    },
    {
        "city": "Biguaçu",
        "state": "SC",
        "district": "Fundos",
        "street": "Rua José Carlos Delanlho",
        "zipcode": "88161-525"
    },
    {
        "city": "Biguaçu",
        "state": "SC",
        "district": "Fundos",
        "street": "Rua Kiliano Kons",
        "zipcode": "88161-528"
    },
    {
        "city": "Biguaçu",
        "state": "SC",
        "district": "Rio Caveiras",
        "street": "Rua José Manoel da Cunha",
        "zipcode": "88161-580"
    },
    {
        "city": "Biguaçu",
        "state": "SC",
        "district": "Prado",
        "street": "Rua 3 de Outubro",
        "zipcode": "88165-000"
    },
    {
        "city": "Biguaçu",
        "state": "SC",
        "district": "Praia João Rosa",
        "street": "Servidão Estefano de Jesus",
        "zipcode": "88160-350"
    },
    {
        "city": "Biguaçu",
        "state": "SC",
        "district": "Praia João Rosa",
        "street": "Servidão Jovalino José Correia",
        "zipcode": "88160-330"
    },
    {
        "city": "Biguaçu",
        "state": "SC",
        "district": "Fundos",
        "street": "Rua Manoel Silveira",
        "zipcode": "88161-295"
    },
    {
        "city": "Biguaçu",
        "state": "SC",
        "district": "Fundos",
        "street": "Rua Alzemiro Flor",
        "zipcode": "88161-512"
    },
    {
        "city": "Biguaçu",
        "state": "SC",
        "district": "Prado de Baixo",
        "street": "Rua Rosa",
        "zipcode": "88160-018"
    },
    {
        "city": "Biguaçu",
        "state": "SC",
        "district": "Estiva (Guaporanga)",
        "street": "Rodovia BR",
        "zipcode": "88168-780"
    },
    {
        "city": "Biguaçu",
        "state": "SC",
        "district": "Areias de Cima (Guaporanga)",
        "street": "Rua 1307",
        "zipcode": "88168-748"
    },
    {
        "city": "Biguaçu",
        "state": "SC",
        "district": "Cachoeiras (Guaporanga)",
        "street": "Rua 2016",
        "zipcode": "88168-554"
    },
    {
        "city": "Biguaçu",
        "state": "SC",
        "district": "Tijuquinhas (Guaporanga)",
        "street": "Rua Família Guedes",
        "zipcode": "88168-464"
    },
    {
        "city": "Biguaçu",
        "state": "SC",
        "district": "São Miguel (Guaporanga)",
        "street": "Rua Zulmira Maria",
        "zipcode": "88168-144"
    },
    {
        "city": "Biguaçu",
        "state": "SC",
        "district": "São Miguel (Guaporanga)",
        "street": "Rua Lincks Siqueira",
        "zipcode": "88168-140"
    },
    {
        "city": "Biguaçu",
        "state": "SC",
        "district": "Saveiro",
        "street": "Rua Araguaia",
        "zipcode": "88160-404"
    },
    {
        "city": "Biguaçu",
        "state": "SC",
        "district": "Rio Caveiras",
        "street": "Rua Ireno Martins",
        "zipcode": "88161-696"
    },
    {
        "city": "Biguaçu",
        "state": "SC",
        "district": "Bom Viver",
        "street": "Rua João Elias das Neves",
        "zipcode": "88160-636"
    },
    {
        "city": "Biguaçu",
        "state": "SC",
        "district": "Bom Viver",
        "street": "Rua Fernando José Zimmermann",
        "zipcode": "88160-624"
    },
    {
        "city": "Biguaçu",
        "state": "SC",
        "district": "Areias de Cima (Guaporanga)",
        "street": "Rua João Pereira",
        "zipcode": "88168-750"
    },
    {
        "city": "Biguaçu",
        "state": "SC",
        "district": "Centro",
        "street": "Rua Jane Cesar da Silva",
        "zipcode": "88160-072"
    },
    {
        "city": "Biguaçu",
        "state": "SC",
        "district": "Boa Vista",
        "street": "Rua Leopoldo Manuel de Souza",
        "zipcode": "88161-175"
    },
    {
        "city": "Biguaçu",
        "state": "SC",
        "district": "Tijuquinhas (Guaporanga)",
        "street": "Rua 2029",
        "zipcode": "88168-385"
    },
    {
        "city": "Biguaçu",
        "state": "SC",
        "district": "Boa Vista",
        "street": "Rua José Rosa Filho",
        "zipcode": "88161-170"
    },
    {
        "city": "Biguaçu",
        "state": "SC",
        "district": "Tijuquinhas (Guaporanga)",
        "street": "Rua da Pedrita",
        "zipcode": "88168-300"
    },
    {
        "city": "Biguaçu",
        "state": "SC",
        "district": "Fundos",
        "street": "Rua José Vitor Schmitz",
        "zipcode": "88161-336"
    },
    {
        "city": "Biguaçu",
        "state": "SC",
        "district": "Areias de Cima (Guaporanga)",
        "street": "Rua Criciúma",
        "zipcode": "88168-712"
    },
    {
        "city": "Biguaçu",
        "state": "SC",
        "district": "Areias de Cima (Guaporanga)",
        "street": "Rua Maria Moisés",
        "zipcode": "88168-740"
    },
    {
        "city": "Biguaçu",
        "state": "SC",
        "district": "Areias de Cima (Guaporanga)",
        "street": "Rua Vitória Régia",
        "zipcode": "88168-738"
    },
    {
        "city": "Biguaçu",
        "state": "SC",
        "district": "Areias de Cima (Guaporanga)",
        "street": "Rua Ezequiel Simas Fernandes",
        "zipcode": "88168-734"
    },
    {
        "city": "Biguaçu",
        "state": "SC",
        "district": "Areias de Cima (Guaporanga)",
        "street": "Rodovia BR",
        "zipcode": "88168-730"
    },
    {
        "city": "Biguaçu",
        "state": "SC",
        "district": "Areias de Cima (Guaporanga)",
        "street": "Rua Nova Trento",
        "zipcode": "88168-706"
    },
    {
        "city": "Biguaçu",
        "state": "SC",
        "district": "Areias de Cima (Guaporanga)",
        "street": "Rua Treze Tílias",
        "zipcode": "88168-704"
    },
    {
        "city": "Biguaçu",
        "state": "SC",
        "district": "Areias de Cima (Guaporanga)",
        "street": "Rua Laguna",
        "zipcode": "88168-700"
    },
    {
        "city": "Biguaçu",
        "state": "SC",
        "district": "Areias de Cima (Guaporanga)",
        "street": "Rua Araranguá",
        "zipcode": "88168-694"
    },
    {
        "city": "Biguaçu",
        "state": "SC",
        "district": "Encruzilhada",
        "street": "Rua Argentina Silva",
        "zipcode": "88165-375"
    },
    {
        "city": "Biguaçu",
        "state": "SC",
        "district": "Bom Viver",
        "street": "Rua Sidney Camacho",
        "zipcode": "88160-774"
    },
    {
        "city": "Biguaçu",
        "state": "SC",
        "district": "Cachoeiras (Guaporanga)",
        "street": "Rua Sebastião Albino",
        "zipcode": "88168-622"
    },
    {
        "city": "Biguaçu",
        "state": "SC",
        "district": "Centro",
        "street": "Rua 7 de Setembro",
        "zipcode": "88160-971"
    },
    {
        "city": "Biguaçu",
        "state": "SC",
        "district": null,
        "street": "Rua Antonio Paulo Garcia",
        "zipcode": "88160-992"
    },
    {
        "city": "Biguaçu",
        "state": "SC",
        "district": "Areias de Cima (Guaporanga)",
        "street": "Rua Leopoldo da Silva",
        "zipcode": "88168-665"
    },
    {
        "city": "Biguaçu",
        "state": "SC",
        "district": "Areias de Cima (Guaporanga)",
        "street": "Rua Antônio José Garcia",
        "zipcode": "88168-660"
    },
    {
        "city": "Biguaçu",
        "state": "SC",
        "district": "Cachoeiras (Guaporanga)",
        "street": "Rua Cipriane Simão",
        "zipcode": "88168-636"
    },
    {
        "city": "Biguaçu",
        "state": "SC",
        "district": "Cachoeiras (Guaporanga)",
        "street": "Rua Gustavo Justino Réis",
        "zipcode": "88168-618"
    },
    {
        "city": "Biguaçu",
        "state": "SC",
        "district": "Cachoeiras (Guaporanga)",
        "street": "Rua Paulo José Garcia",
        "zipcode": "88168-616"
    },
    {
        "city": "Biguaçu",
        "state": "SC",
        "district": "Jardim Janaína",
        "street": "Rua Paulo Zimmermann",
        "zipcode": "88161-850"
    },
    {
        "city": "Biguaçu",
        "state": "SC",
        "district": "Areias de Cima (Guaporanga)",
        "street": "Rua Içara",
        "zipcode": "88168-696"
    },
    {
        "city": "Biguaçu",
        "state": "SC",
        "district": "Cachoeiras (Guaporanga)",
        "street": "Rua Georgino Fermino Machado",
        "zipcode": "88168-620"
    },
    {
        "city": "Biguaçu",
        "state": "SC",
        "district": "Areias de Cima (Guaporanga)",
        "street": "Rua Oaddy Adriano",
        "zipcode": "88168-675"
    },
    {
        "city": "Biguaçu",
        "state": "SC",
        "district": "Cachoeiras (Guaporanga)",
        "street": "Rua Caramuru Garcia",
        "zipcode": "88168-632"
    },
    {
        "city": "Biguaçu",
        "state": "SC",
        "district": "Cachoeiras (Guaporanga)",
        "street": "Rua Brasilício Braga dos Reis",
        "zipcode": "88168-612"
    },
    {
        "city": "Biguaçu",
        "state": "SC",
        "district": "São Miguel (Guaporanga)",
        "street": "Rua 2014",
        "zipcode": "88168-223"
    },
    {
        "city": "Biguaçu",
        "state": "SC",
        "district": "São Miguel (Guaporanga)",
        "street": "Rua Alberto Faganello",
        "zipcode": "88168-205"
    },
    {
        "city": "Biguaçu",
        "state": "SC",
        "district": "Tijuquinhas (Guaporanga)",
        "street": "Rua Bertoldo Machado",
        "zipcode": "88168-512"
    },
    {
        "city": "Biguaçu",
        "state": "SC",
        "district": "Tijuquinhas (Guaporanga)",
        "street": "Servidão Miguel Luiz Ventura",
        "zipcode": "88168-508"
    },
    {
        "city": "Biguaçu",
        "state": "SC",
        "district": "Tijuquinhas (Guaporanga)",
        "street": "Servidão João Balvea",
        "zipcode": "88168-504"
    },
    {
        "city": "Biguaçu",
        "state": "SC",
        "district": "Tijuquinhas (Guaporanga)",
        "street": "Rua Manoel Vicente Ventura",
        "zipcode": "88168-496"
    },
    {
        "city": "Biguaçu",
        "state": "SC",
        "district": "Tijuquinhas (Guaporanga)",
        "street": "Rua Domingos Antônio Pereira",
        "zipcode": "88168-488"
    },
    {
        "city": "Biguaçu",
        "state": "SC",
        "district": "Tijuquinhas (Guaporanga)",
        "street": "Rua Família Bovee",
        "zipcode": "88168-472"
    },
    {
        "city": "Biguaçu",
        "state": "SC",
        "district": "Tijuquinhas (Guaporanga)",
        "street": "Rua Família Miranda",
        "zipcode": "88168-468"
    },
    {
        "city": "Biguaçu",
        "state": "SC",
        "district": "Tijuquinhas (Guaporanga)",
        "street": "Rua Sieuwert Kroon",
        "zipcode": "88168-404"
    },
    {
        "city": "Biguaçu",
        "state": "SC",
        "district": "Tijuquinhas (Guaporanga)",
        "street": "Rua Alahyde Marçal Assumpção",
        "zipcode": "88168-395"
    },
    {
        "city": "Biguaçu",
        "state": "SC",
        "district": "Tijuquinhas (Guaporanga)",
        "street": "Rua João Antônio da Gama",
        "zipcode": "88168-390"
    },
    {
        "city": "Biguaçu",
        "state": "SC",
        "district": "Tijuquinhas (Guaporanga)",
        "street": "Rua José Augusto Anderson",
        "zipcode": "88168-286"
    },
    {
        "city": "Biguaçu",
        "state": "SC",
        "district": "São Miguel (Guaporanga)",
        "street": "Rua 2013",
        "zipcode": "88168-226"
    },
    {
        "city": "Biguaçu",
        "state": "SC",
        "district": "Cachoeiras (Guaporanga)",
        "street": "Rodovia BR",
        "zipcode": "88168-562"
    },
    {
        "city": "Biguaçu",
        "state": "SC",
        "district": "Cachoeiras (Guaporanga)",
        "street": "Rua João Raitz",
        "zipcode": "88168-560"
    },
    {
        "city": "Biguaçu",
        "state": "SC",
        "district": "Tijuquinhas (Guaporanga)",
        "street": "Servidão Família Morfim",
        "zipcode": "88168-480"
    },
    {
        "city": "Biguaçu",
        "state": "SC",
        "district": "Tijuquinhas (Guaporanga)",
        "street": "Rua Família Nunes",
        "zipcode": "88168-476"
    },
    {
        "city": "Biguaçu",
        "state": "SC",
        "district": "Tijuquinhas (Guaporanga)",
        "street": "Rua João Benedito da Luz",
        "zipcode": "88168-460"
    },
    {
        "city": "Biguaçu",
        "state": "SC",
        "district": "Tijuquinhas (Guaporanga)",
        "street": "Rua Júlio Basílio da Rocha",
        "zipcode": "88168-274"
    },
    {
        "city": "Biguaçu",
        "state": "SC",
        "district": "São Miguel (Guaporanga)",
        "street": "Rua Ver o Mar 2",
        "zipcode": "88168-250"
    },
    {
        "city": "Biguaçu",
        "state": "SC",
        "district": "São Miguel (Guaporanga)",
        "street": "Rua Ver o Mar 1",
        "zipcode": "88168-247"
    },
    {
        "city": "Biguaçu",
        "state": "SC",
        "district": "São Miguel (Guaporanga)",
        "street": "Rua Ivo J Scheidt",
        "zipcode": "88168-235"
    },
    {
        "city": "Biguaçu",
        "state": "SC",
        "district": "São Miguel (Guaporanga)",
        "street": "Rua A (Jd Panorama)",
        "zipcode": "88168-195"
    },
    {
        "city": "Biguaçu",
        "state": "SC",
        "district": "São Miguel (Guaporanga)",
        "street": "Rua Maria Albertina Coan",
        "zipcode": "88168-190"
    },
    {
        "city": "Biguaçu",
        "state": "SC",
        "district": "Cachoeiras (Guaporanga)",
        "street": "Servidão Nelzi Cardoso da Cunha",
        "zipcode": "88168-550"
    },
    {
        "city": "Biguaçu",
        "state": "SC",
        "district": "Tijuquinhas (Guaporanga)",
        "street": "Rua Família Cardozo",
        "zipcode": "88168-484"
    },
    {
        "city": "Biguaçu",
        "state": "SC",
        "district": "São Miguel (Guaporanga)",
        "street": "Rua Neusa Prazeres Scheidt",
        "zipcode": "88168-229"
    },
    {
        "city": "Biguaçu",
        "state": "SC",
        "district": "São Miguel (Guaporanga)",
        "street": "Rua Brigadeiro Eduardo Gomes",
        "zipcode": "88168-220"
    },
    {
        "city": "Biguaçu",
        "state": "SC",
        "district": "Jardim Janaína",
        "street": "Rua Dirivaldo José do Amaral",
        "zipcode": "88162-240"
    },
    {
        "city": "Biguaçu",
        "state": "SC",
        "district": "São Miguel (Guaporanga)",
        "street": "Rua C (Jd Panorama)",
        "zipcode": "88168-200"
    },
    {
        "city": "Biguaçu",
        "state": "SC",
        "district": "São Miguel (Guaporanga)",
        "street": "Servidão Miguel Maurino da Silva",
        "zipcode": "88168-132"
    },
    {
        "city": "Biguaçu",
        "state": "SC",
        "district": "São Miguel (Guaporanga)",
        "street": "Servidão Tarsílio Ramos",
        "zipcode": "88168-123"
    },
    {
        "city": "Biguaçu",
        "state": "SC",
        "district": "São Miguel (Guaporanga)",
        "street": "Rua das Pitangueiras",
        "zipcode": "88168-117"
    },
    {
        "city": "Biguaçu",
        "state": "SC",
        "district": "São Miguel (Guaporanga)",
        "street": "Rua das Margaridas",
        "zipcode": "88168-114"
    },
    {
        "city": "Biguaçu",
        "state": "SC",
        "district": "Saudade",
        "street": "Rua Minervina Cardoso",
        "zipcode": "88165-224"
    },
    {
        "city": "Biguaçu",
        "state": "SC",
        "district": "Saudade",
        "street": "Rua 13 de Maio",
        "zipcode": "88165-184"
    },
    {
        "city": "Biguaçu",
        "state": "SC",
        "district": "Saudade",
        "street": "Rua 13 de Maio",
        "zipcode": "88165-180"
    },
    {
        "city": "Biguaçu",
        "state": "SC",
        "district": "São Miguel (Guaporanga)",
        "street": "Rua Luiz José Nau",
        "zipcode": "88168-148"
    },
    {
        "city": "Biguaçu",
        "state": "SC",
        "district": "São Miguel (Guaporanga)",
        "street": "Rua Valdemar Manoel Ferreira",
        "zipcode": "88168-102"
    },
    {
        "city": "Biguaçu",
        "state": "SC",
        "district": "São Miguel (Guaporanga)",
        "street": "Servidão Batista",
        "zipcode": "88168-099"
    },
    {
        "city": "Biguaçu",
        "state": "SC",
        "district": "São Miguel (Guaporanga)",
        "street": "Rua Lindauria Adriano",
        "zipcode": "88168-093"
    },
    {
        "city": "Biguaçu",
        "state": "SC",
        "district": "Encruzilhada",
        "street": "Rua 13 de Maio",
        "zipcode": "88165-330"
    },
    {
        "city": "Biguaçu",
        "state": "SC",
        "district": "São Miguel (Guaporanga)",
        "street": "Rua das Castanheiras",
        "zipcode": "88168-111"
    },
    {
        "city": "Biguaçu",
        "state": "SC",
        "district": "São Miguel (Guaporanga)",
        "street": "Rodovia BR",
        "zipcode": "88168-020"
    },
    {
        "city": "Biguaçu",
        "state": "SC",
        "district": "Saudade",
        "street": "Rua Joaquim João Cardoso",
        "zipcode": "88165-228"
    },
    {
        "city": "Biguaçu",
        "state": "SC",
        "district": "São Miguel (Guaporanga)",
        "street": "Rua Miguel Cypriano Simas",
        "zipcode": "88168-029"
    },
    {
        "city": "Biguaçu",
        "state": "SC",
        "district": "Encruzilhada",
        "street": "Rua Braulino José Antunes",
        "zipcode": "88165-333"
    },
    {
        "city": "Biguaçu",
        "state": "SC",
        "district": "Encruzilhada",
        "street": "Servidão Belarmino Francisco Farias",
        "zipcode": "88165-273"
    },
    {
        "city": "Biguaçu",
        "state": "SC",
        "district": "Saudade",
        "street": "Rua Miguel João Machado",
        "zipcode": "88165-240"
    },
    {
        "city": "Biguaçu",
        "state": "SC",
        "district": "Saudade",
        "street": "Rua José Vitorino Filho",
        "zipcode": "88165-236"
    },
    {
        "city": "Biguaçu",
        "state": "SC",
        "district": "Saudade",
        "street": "Servidão Celi Cardoso de Melo",
        "zipcode": "88165-220"
    },
    {
        "city": "Biguaçu",
        "state": "SC",
        "district": "Saudade",
        "street": "Servidão Salézio José Mangrich",
        "zipcode": "88165-216"
    },
    {
        "city": "Biguaçu",
        "state": "SC",
        "district": "Saudade",
        "street": "Servidão Benta da Conceição",
        "zipcode": "88165-204"
    },
    {
        "city": "Biguaçu",
        "state": "SC",
        "district": "Saudade",
        "street": "Rua 5 (Lot. J. Anápolis)",
        "zipcode": "88165-192"
    },
    {
        "city": "Biguaçu",
        "state": "SC",
        "district": "Saudade",
        "street": "Rua Arlindo Manoel Florêncio",
        "zipcode": "88165-188"
    },
    {
        "city": "Biguaçu",
        "state": "SC",
        "district": "Prado",
        "street": "Rua Pedro Custódio de Oliveira",
        "zipcode": "88165-177"
    },
    {
        "city": "Biguaçu",
        "state": "SC",
        "district": "Prado",
        "street": "Rua Marlene Fernandes Hoffmann",
        "zipcode": "88165-174"
    },
    {
        "city": "Biguaçu",
        "state": "SC",
        "district": "Prado",
        "street": "Rua José Antônio Resende",
        "zipcode": "88165-153"
    },
    {
        "city": "Biguaçu",
        "state": "SC",
        "district": "Prado",
        "street": "Rua Pedro Adão da Silva",
        "zipcode": "88165-147"
    },
    {
        "city": "Biguaçu",
        "state": "SC",
        "district": "Prado",
        "street": "Rua Manoel José Mateus",
        "zipcode": "88165-144"
    },
    {
        "city": "Biguaçu",
        "state": "SC",
        "district": "Prado",
        "street": "Rua Artur João de Souza",
        "zipcode": "88165-135"
    },
    {
        "city": "Biguaçu",
        "state": "SC",
        "district": "Prado",
        "street": "Rua 13 de Maio",
        "zipcode": "88165-123"
    },
    {
        "city": "Biguaçu",
        "state": "SC",
        "district": "Prado",
        "street": "Rua 13 de Maio",
        "zipcode": "88165-120"
    },
    {
        "city": "Biguaçu",
        "state": "SC",
        "district": "Prado",
        "street": "Rua Florianópolis",
        "zipcode": "88165-064"
    },
    {
        "city": "Biguaçu",
        "state": "SC",
        "district": "Prado",
        "street": "Rua Maria Gama de Jesus",
        "zipcode": "88165-060"
    },
    {
        "city": "Biguaçu",
        "state": "SC",
        "district": "Prado",
        "street": "Rua 13 de Maio",
        "zipcode": "88165-040"
    },
    {
        "city": "Biguaçu",
        "state": "SC",
        "district": "Encruzilhada",
        "street": "Rua Bertoldo Ernesto dos Santos",
        "zipcode": "88165-380"
    },
    {
        "city": "Biguaçu",
        "state": "SC",
        "district": "Saudade",
        "street": "Rua Vitorino Luiz Miranda",
        "zipcode": "88165-244"
    },
    {
        "city": "Biguaçu",
        "state": "SC",
        "district": "Saudade",
        "street": "Rua Braulina Maria da Silva",
        "zipcode": "88165-212"
    },
    {
        "city": "Biguaçu",
        "state": "SC",
        "district": "Saudade",
        "street": "Servidão Florentina Maria de Oliveira",
        "zipcode": "88165-196"
    },
    {
        "city": "Biguaçu",
        "state": "SC",
        "district": "Prado",
        "street": "Rua Aimoresia Gomes Pimenta",
        "zipcode": "88165-165"
    },
    {
        "city": "Biguaçu",
        "state": "SC",
        "district": "Prado",
        "street": "Rua João Prudente da Silva",
        "zipcode": "88165-150"
    },
    {
        "city": "Biguaçu",
        "state": "SC",
        "district": "Prado",
        "street": "Rua João Paulo de Souza",
        "zipcode": "88165-138"
    },
    {
        "city": "Biguaçu",
        "state": "SC",
        "district": "Prado",
        "street": "Rua São Miguel",
        "zipcode": "88165-068"
    },
    {
        "city": "Biguaçu",
        "state": "SC",
        "district": "Beira Rio",
        "street": "Rodovia SC",
        "zipcode": "88164-183"
    },
    {
        "city": "Biguaçu",
        "state": "SC",
        "district": "São Miguel (Guaporanga)",
        "street": "Rua Bento Francisco",
        "zipcode": "88168-096"
    },
    {
        "city": "Biguaçu",
        "state": "SC",
        "district": "Prado",
        "street": "Rua João Joaquim Cardoso",
        "zipcode": "88165-141"
    },
    {
        "city": "Biguaçu",
        "state": "SC",
        "district": "Prado",
        "street": "Rua Shalon",
        "zipcode": "88165-052"
    },
    {
        "city": "Biguaçu",
        "state": "SC",
        "district": "Prado",
        "street": "Rua Paulo Roz",
        "zipcode": "88165-009"
    },
    {
        "city": "Biguaçu",
        "state": "SC",
        "district": "Vendaval",
        "street": "Rua Sebastião Lara",
        "zipcode": "88164-160"
    },
    {
        "city": "Biguaçu",
        "state": "SC",
        "district": "Vendaval",
        "street": "Rua João Domingos de Melo",
        "zipcode": "88164-124"
    },
    {
        "city": "Biguaçu",
        "state": "SC",
        "district": "Prado",
        "street": "Rua Luiz Hercílio Soares",
        "zipcode": "88165-080"
    },
    {
        "city": "Biguaçu",
        "state": "SC",
        "district": "Prado",
        "street": "Rua João Antônio Marcelino",
        "zipcode": "88165-048"
    },
    {
        "city": "Biguaçu",
        "state": "SC",
        "district": "Prado",
        "street": "Servidão Luiza Perpétua Marcelino",
        "zipcode": "88165-012"
    },
    {
        "city": "Biguaçu",
        "state": "SC",
        "district": "Beira Rio",
        "street": "Rua E (Lot. Cicobi)",
        "zipcode": "88164-285"
    },
    {
        "city": "Biguaçu",
        "state": "SC",
        "district": "Beira Rio",
        "street": "Avenida Wilson Castelo Branco",
        "zipcode": "88164-220"
    },
    {
        "city": "Biguaçu",
        "state": "SC",
        "district": "Beira Rio",
        "street": "Avenida Beira Rio",
        "zipcode": "88164-210"
    },
    {
        "city": "Biguaçu",
        "state": "SC",
        "district": "Vendaval",
        "street": "Servidão Osmar Cuckert",
        "zipcode": "88164-128"
    },
    {
        "city": "Biguaçu",
        "state": "SC",
        "district": "Vendaval",
        "street": "Rua da Figueira",
        "zipcode": "88164-122"
    },
    {
        "city": "Biguaçu",
        "state": "SC",
        "district": "Vendaval",
        "street": "Rua Cantalício Mendes",
        "zipcode": "88164-100"
    },
    {
        "city": "Biguaçu",
        "state": "SC",
        "district": "Vendaval",
        "street": "Rua Osmar Pedro Hoffmann",
        "zipcode": "88164-096"
    },
    {
        "city": "Biguaçu",
        "state": "SC",
        "district": "Vendaval",
        "street": "Rua Irmã Maria Gema Siqueira",
        "zipcode": "88164-094"
    },
    {
        "city": "Biguaçu",
        "state": "SC",
        "district": "Vendaval",
        "street": "Rua Ivo Tomaz Coelho",
        "zipcode": "88164-088"
    },
    {
        "city": "Biguaçu",
        "state": "SC",
        "district": "Vendaval",
        "street": "Rua Prefeito Avelino Muller",
        "zipcode": "88164-104"
    },
    {
        "city": "Biguaçu",
        "state": "SC",
        "district": "Prado",
        "street": "Rua Sandra Regina Mariano",
        "zipcode": "88165-129"
    },
    {
        "city": "Biguaçu",
        "state": "SC",
        "district": "Prado",
        "street": "Rua Dona Santina Constante da Silva",
        "zipcode": "88165-056"
    },
    {
        "city": "Biguaçu",
        "state": "SC",
        "district": "Beira Rio",
        "street": "Rua D (Lot. Cicobi)",
        "zipcode": "88164-280"
    },
    {
        "city": "Biguaçu",
        "state": "SC",
        "district": "Vendaval",
        "street": "Rua João Francisco Lopes",
        "zipcode": "88164-090"
    },
    {
        "city": "Biguaçu",
        "state": "SC",
        "district": "Vendaval",
        "street": "Rua Libório Francisco Goedert",
        "zipcode": "88164-084"
    },
    {
        "city": "Biguaçu",
        "state": "SC",
        "district": "Vendaval",
        "street": "Rua Egídio Paulino Conrat",
        "zipcode": "88164-082"
    },
    {
        "city": "Biguaçu",
        "state": "SC",
        "district": "Vendaval",
        "street": "Rua Horácio Antônio Vieira",
        "zipcode": "88164-080"
    },
    {
        "city": "Biguaçu",
        "state": "SC",
        "district": "Vendaval",
        "street": "Rua Zulmar Adelço Silva",
        "zipcode": "88164-076"
    },
    {
        "city": "Biguaçu",
        "state": "SC",
        "district": "Vendaval",
        "street": "Rua Professora Olívia Maria Bitencourt Rosa",
        "zipcode": "88164-074"
    },
    {
        "city": "Biguaçu",
        "state": "SC",
        "district": "Vendaval",
        "street": "Rua Vicente E dos Santos Junior",
        "zipcode": "88164-072"
    },
    {
        "city": "Biguaçu",
        "state": "SC",
        "district": "Vendaval",
        "street": "Rua Francisco Manoel Salles",
        "zipcode": "88164-070"
    },
    {
        "city": "Biguaçu",
        "state": "SC",
        "district": "Vendaval",
        "street": "Servidão Santa Terezinha",
        "zipcode": "88164-060"
    },
    {
        "city": "Biguaçu",
        "state": "SC",
        "district": "Vendaval",
        "street": "Rua Arnaldo Bunn",
        "zipcode": "88164-040"
    },
    {
        "city": "Biguaçu",
        "state": "SC",
        "district": "Vendaval",
        "street": "Rua Major Livramento",
        "zipcode": "88164-035"
    },
    {
        "city": "Biguaçu",
        "state": "SC",
        "district": "Jardim Janaína",
        "street": "Servidão Maria Fermina Goulart",
        "zipcode": "88162-252"
    },
    {
        "city": "Biguaçu",
        "state": "SC",
        "district": "Jardim Janaína",
        "street": "Rua Angélica Dalvina Zimmermann",
        "zipcode": "88162-249"
    },
    {
        "city": "Biguaçu",
        "state": "SC",
        "district": "Jardim Janaína",
        "street": "Rua Domingos Antônio Zimmermann",
        "zipcode": "88162-246"
    },
    {
        "city": "Biguaçu",
        "state": "SC",
        "district": "Jardim Janaína",
        "street": "Rua Delfino José de Souza Filho",
        "zipcode": "88162-243"
    },
    {
        "city": "Biguaçu",
        "state": "SC",
        "district": "Jardim Janaína",
        "street": "Rua Sidnei Camacho",
        "zipcode": "88162-237"
    },
    {
        "city": "Biguaçu",
        "state": "SC",
        "district": "Jardim Janaína",
        "street": "Rua José João de Souza",
        "zipcode": "88162-234"
    },
    {
        "city": "Biguaçu",
        "state": "SC",
        "district": "Jardim Janaína",
        "street": "Rua Pedro José Adriano",
        "zipcode": "88162-231"
    },
    {
        "city": "Biguaçu",
        "state": "SC",
        "district": "Jardim Janaína",
        "street": "Rua Arnoldo Boll",
        "zipcode": "88162-228"
    },
    {
        "city": "Biguaçu",
        "state": "SC",
        "district": "Jardim Janaína",
        "street": "Rua Vani Correa",
        "zipcode": "88162-213"
    },
    {
        "city": "Biguaçu",
        "state": "SC",
        "district": "Jardim Janaína",
        "street": "Rua Homero de Miranda Gomes",
        "zipcode": "88162-210"
    },
    {
        "city": "Biguaçu",
        "state": "SC",
        "district": "Jardim Janaína",
        "street": "Rua Homero de Miranda Gomes",
        "zipcode": "88162-170"
    },
    {
        "city": "Biguaçu",
        "state": "SC",
        "district": "Vendaval",
        "street": "Rua Mário Luis da Silva",
        "zipcode": "88164-102"
    },
    {
        "city": "Biguaçu",
        "state": "SC",
        "district": "Vendaval",
        "street": "Rua Jordelino João da Rosa",
        "zipcode": "88164-126"
    },
    {
        "city": "Biguaçu",
        "state": "SC",
        "district": "Centro",
        "street": "Rua Santos Dumont",
        "zipcode": "88160-122"
    },
    {
        "city": "Biguaçu",
        "state": "SC",
        "district": "Vendaval",
        "street": "Rua Major Livramento",
        "zipcode": "88164-030"
    },
    {
        "city": "Biguaçu",
        "state": "SC",
        "district": "Jardim Janaína",
        "street": "Rua Otílio Francisco Farias",
        "zipcode": "88162-219"
    },
    {
        "city": "Biguaçu",
        "state": "SC",
        "district": "Jardim Janaína",
        "street": "Rua Antônio Alberto Correa",
        "zipcode": "88162-216"
    },
    {
        "city": "Biguaçu",
        "state": "SC",
        "district": "Beira Rio",
        "street": "Rodovia BR",
        "zipcode": "88164-180"
    },
    {
        "city": "Biguaçu",
        "state": "SC",
        "district": "Prado",
        "street": "Servidão Jonas Cesconeto",
        "zipcode": "88165-126"
    },
    {
        "city": "Biguaçu",
        "state": "SC",
        "district": "Beira Rio",
        "street": "Rua Gercino Machado (Loteamento Cicob)",
        "zipcode": "88164-290"
    },
    {
        "city": "Biguaçu",
        "state": "SC",
        "district": "Beira Rio",
        "street": "Rua Edgard Hoffmann (Loteamento Cicob)",
        "zipcode": "88164-275"
    },
    {
        "city": "Biguaçu",
        "state": "SC",
        "district": "Jardim Janaína",
        "street": "Rua Manoel João Machado",
        "zipcode": "88162-172"
    },
    {
        "city": "Biguaçu",
        "state": "SC",
        "district": "Jardim Janaína",
        "street": "Servidão Pedro Vargas Mota",
        "zipcode": "88162-166"
    },
    {
        "city": "Biguaçu",
        "state": "SC",
        "district": "Jardim Janaína",
        "street": "Rua Bertholino Coelho",
        "zipcode": "88162-162"
    },
    {
        "city": "Biguaçu",
        "state": "SC",
        "district": "Jardim Janaína",
        "street": "Rua Humberto Cesar de Moraes",
        "zipcode": "88162-156"
    },
    {
        "city": "Biguaçu",
        "state": "SC",
        "district": "Jardim Janaína",
        "street": "Rua Osni Clemente Laurentino",
        "zipcode": "88162-150"
    },
    {
        "city": "Biguaçu",
        "state": "SC",
        "district": "Jardim Janaína",
        "street": "Servidão Manoel Dionísio Goulart",
        "zipcode": "88162-146"
    },
    {
        "city": "Biguaçu",
        "state": "SC",
        "district": "Jardim Janaína",
        "street": "Rua Hélio Carreirão",
        "zipcode": "88162-142"
    },
    {
        "city": "Biguaçu",
        "state": "SC",
        "district": "Jardim Janaína",
        "street": "Rua Benta Gertrudes da Silva",
        "zipcode": "88162-134"
    },
    {
        "city": "Biguaçu",
        "state": "SC",
        "district": "Jardim Janaína",
        "street": "Servidão Victorino Alípio de Castro",
        "zipcode": "88162-122"
    },
    {
        "city": "Biguaçu",
        "state": "SC",
        "district": "Jardim Janaína",
        "street": "Rua Espanha",
        "zipcode": "88162-120"
    },
    {
        "city": "Biguaçu",
        "state": "SC",
        "district": "Jardim Janaína",
        "street": "Rua Itália",
        "zipcode": "88162-118"
    },
    {
        "city": "Biguaçu",
        "state": "SC",
        "district": "Jardim Janaína",
        "street": "Rua das Nações",
        "zipcode": "88162-110"
    },
    {
        "city": "Biguaçu",
        "state": "SC",
        "district": "Jardim Janaína",
        "street": "Servidão Campolina",
        "zipcode": "88162-080"
    },
    {
        "city": "Biguaçu",
        "state": "SC",
        "district": "Jardim Janaína",
        "street": "Servidão Manoel Gerônimo Pereira",
        "zipcode": "88162-054"
    },
    {
        "city": "Biguaçu",
        "state": "SC",
        "district": "Vendaval",
        "street": "Rua Alberto Muller",
        "zipcode": "88164-086"
    },
    {
        "city": "Biguaçu",
        "state": "SC",
        "district": "Jardim Janaína",
        "street": "Rua Paulo Serafin Domingos de Oliveira",
        "zipcode": "88162-051"
    },
    {
        "city": "Biguaçu",
        "state": "SC",
        "district": "Jardim Janaína",
        "street": "Rua Ernesto Joaquim Alves",
        "zipcode": "88162-048"
    },
    {
        "city": "Biguaçu",
        "state": "SC",
        "district": "Jardim Janaína",
        "street": "Rua das Missões",
        "zipcode": "88162-042"
    },
    {
        "city": "Biguaçu",
        "state": "SC",
        "district": "Jardim Janaína",
        "street": "Servidão Olívio João Virtuoso",
        "zipcode": "88162-033"
    },
    {
        "city": "Biguaçu",
        "state": "SC",
        "district": "Jardim Janaína",
        "street": "Rua Bernardino Prudencio de Amorim",
        "zipcode": "88162-030"
    },
    {
        "city": "Biguaçu",
        "state": "SC",
        "district": "Jardim Janaína",
        "street": "Rua das Palmeiras",
        "zipcode": "88161-885"
    },
    {
        "city": "Biguaçu",
        "state": "SC",
        "district": "Jardim Janaína",
        "street": "Rua dos Girassóis",
        "zipcode": "88161-880"
    },
    {
        "city": "Biguaçu",
        "state": "SC",
        "district": "Jardim Janaína",
        "street": "Rua das Acácias",
        "zipcode": "88161-875"
    },
    {
        "city": "Biguaçu",
        "state": "SC",
        "district": "Jardim Janaína",
        "street": "Rua dos Ipês",
        "zipcode": "88161-865"
    },
    {
        "city": "Biguaçu",
        "state": "SC",
        "district": "Jardim Janaína",
        "street": "Rua das Orquídeas",
        "zipcode": "88161-860"
    },
    {
        "city": "Biguaçu",
        "state": "SC",
        "district": "Jardim Janaína",
        "street": "Rua das Azaléias",
        "zipcode": "88161-855"
    },
    {
        "city": "Biguaçu",
        "state": "SC",
        "district": "Rio Caveiras",
        "street": "Rua Teodoro Sampaio",
        "zipcode": "88161-831"
    },
    {
        "city": "Biguaçu",
        "state": "SC",
        "district": "Jardim Janaína",
        "street": "Rua Augusto João Caetano",
        "zipcode": "88162-138"
    },
    {
        "city": "Biguaçu",
        "state": "SC",
        "district": "Jardim Janaína",
        "street": "Rua Paulina Huller de Souza",
        "zipcode": "88162-136"
    },
    {
        "city": "Biguaçu",
        "state": "SC",
        "district": "Jardim Janaína",
        "street": "Rua Doutor Tancredo Neves",
        "zipcode": "88162-130"
    },
    {
        "city": "Biguaçu",
        "state": "SC",
        "district": "Jardim Janaína",
        "street": "Rua Afonso Baseggio",
        "zipcode": "88162-124"
    },
    {
        "city": "Biguaçu",
        "state": "SC",
        "district": "Jardim Janaína",
        "street": "Rua José dos Santos Pereira",
        "zipcode": "88162-112"
    },
    {
        "city": "Biguaçu",
        "state": "SC",
        "district": "Jardim Janaína",
        "street": "Rua Astrogildo Quintino Marçal",
        "zipcode": "88162-085"
    },
    {
        "city": "Biguaçu",
        "state": "SC",
        "district": "Jardim Janaína",
        "street": "Rua das Camélias",
        "zipcode": "88161-870"
    },
    {
        "city": "Biguaçu",
        "state": "SC",
        "district": "Rio Caveiras",
        "street": "Rua Julio Teodoro Martins",
        "zipcode": "88161-840"
    },
    {
        "city": "Biguaçu",
        "state": "SC",
        "district": "Rio Caveiras",
        "street": "Rua Wilson Laus Schmitt",
        "zipcode": "88161-837"
    },
    {
        "city": "Biguaçu",
        "state": "SC",
        "district": "Rio Caveiras",
        "street": "Rua Joel Corrêa",
        "zipcode": "88161-825"
    },
    {
        "city": "Biguaçu",
        "state": "SC",
        "district": "Rio Caveiras",
        "street": "Servidão Coralia da Silva",
        "zipcode": "88161-816"
    },
    {
        "city": "Biguaçu",
        "state": "SC",
        "district": "Rio Caveiras",
        "street": "Rua Paulino Manoel da Silva",
        "zipcode": "88161-807"
    },
    {
        "city": "Biguaçu",
        "state": "SC",
        "district": "Rio Caveiras",
        "street": "Rua Cônego Rodolfo Machado",
        "zipcode": "88161-804"
    },
    {
        "city": "Biguaçu",
        "state": "SC",
        "district": "Rio Caveiras",
        "street": "Rua Julieta Ferreira",
        "zipcode": "88161-795"
    },
    {
        "city": "Biguaçu",
        "state": "SC",
        "district": "Rio Caveiras",
        "street": "Servidão Salum Silva",
        "zipcode": "88161-792"
    },
    {
        "city": "Biguaçu",
        "state": "SC",
        "district": "Jardim Janaína",
        "street": "Rua Domingos da Silva",
        "zipcode": "88162-144"
    },
    {
        "city": "Biguaçu",
        "state": "SC",
        "district": "Jardim Janaína",
        "street": "Rua Portugal",
        "zipcode": "88162-116"
    },
    {
        "city": "Biguaçu",
        "state": "SC",
        "district": "Rio Caveiras",
        "street": "Rua Vereador Lealdo Teófilo Machado",
        "zipcode": "88161-828"
    },
    {
        "city": "Biguaçu",
        "state": "SC",
        "district": "Jardim Janaína",
        "street": "Rua Alemanha",
        "zipcode": "88162-114"
    },
    {
        "city": "Biguaçu",
        "state": "SC",
        "district": "Jardim Janaína",
        "street": "Rua Cláudio Ivan Ferreira",
        "zipcode": "88162-039"
    },
    {
        "city": "Biguaçu",
        "state": "SC",
        "district": "Jardim Janaína",
        "street": "Rua das Hortências",
        "zipcode": "88161-890"
    },
    {
        "city": "Biguaçu",
        "state": "SC",
        "district": "Rio Caveiras",
        "street": "Travessa João Eduardo Mariano",
        "zipcode": "88161-783"
    },
    {
        "city": "Biguaçu",
        "state": "SC",
        "district": "Rio Caveiras",
        "street": "Rua Gregório Flor",
        "zipcode": "88161-780"
    },
    {
        "city": "Biguaçu",
        "state": "SC",
        "district": "Rio Caveiras",
        "street": "Rua Orlando João da Cruz",
        "zipcode": "88161-760"
    },
    {
        "city": "Biguaçu",
        "state": "SC",
        "district": "Rio Caveiras",
        "street": "Rua Cônego Rodolfo Machado",
        "zipcode": "88161-740"
    },
    {
        "city": "Biguaçu",
        "state": "SC",
        "district": "Rio Caveiras",
        "street": "Rua Atílio Hilário Ampessan",
        "zipcode": "88161-730"
    },
    {
        "city": "Biguaçu",
        "state": "SC",
        "district": "Rio Caveiras",
        "street": "Rua Leonardo Francisco Ferreira",
        "zipcode": "88161-728"
    },
    {
        "city": "Biguaçu",
        "state": "SC",
        "district": "Rio Caveiras",
        "street": "Avenida Kiliano Kremer",
        "zipcode": "88161-726"
    },
    {
        "city": "Biguaçu",
        "state": "SC",
        "district": "Rio Caveiras",
        "street": "Rua Davi Francisco Prazeres",
        "zipcode": "88161-724"
    },
    {
        "city": "Biguaçu",
        "state": "SC",
        "district": "Rio Caveiras",
        "street": "Rua Alesander Gustavo Cunha dos Santos",
        "zipcode": "88161-720"
    },
    {
        "city": "Biguaçu",
        "state": "SC",
        "district": "Rio Caveiras",
        "street": "Rua Mora Guimarães",
        "zipcode": "88161-716"
    },
    {
        "city": "Biguaçu",
        "state": "SC",
        "district": "Rio Caveiras",
        "street": "Rua Coletor Zeferino Jerônimo da Costa",
        "zipcode": "88161-714"
    },
    {
        "city": "Biguaçu",
        "state": "SC",
        "district": "Rio Caveiras",
        "street": "Rua Raulino Gorges",
        "zipcode": "88161-710"
    },
    {
        "city": "Biguaçu",
        "state": "SC",
        "district": "Rio Caveiras",
        "street": "Rua João Manoel Ferreira",
        "zipcode": "88161-670"
    },
    {
        "city": "Biguaçu",
        "state": "SC",
        "district": "Fundos",
        "street": "Servidão José Adolfo Vieira",
        "zipcode": "88161-544"
    },
    {
        "city": "Biguaçu",
        "state": "SC",
        "district": "Rio Caveiras",
        "street": "Rua Patrício Antônio Teixeira",
        "zipcode": "88161-586"
    },
    {
        "city": "Biguaçu",
        "state": "SC",
        "district": "Rio Caveiras",
        "street": "Rua Natalício Vieira",
        "zipcode": "88161-594"
    },
    {
        "city": "Biguaçu",
        "state": "SC",
        "district": "Rio Caveiras",
        "street": "Rua Jovito José Sodré",
        "zipcode": "88161-632"
    },
    {
        "city": "Biguaçu",
        "state": "SC",
        "district": "Rio Caveiras",
        "street": "Rua Amandio Manoel de Miranda",
        "zipcode": "88161-672"
    },
    {
        "city": "Biguaçu",
        "state": "SC",
        "district": "Rio Caveiras",
        "street": "Rua Soeli Terezinha da Silva",
        "zipcode": "88161-682"
    },
    {
        "city": "Biguaçu",
        "state": "SC",
        "district": "Fundos",
        "street": "Rua Maria Amândia de Simas",
        "zipcode": "88161-534"
    },
    {
        "city": "Biguaçu",
        "state": "SC",
        "district": "Rio Caveiras",
        "street": "Avenida Governador Ivo de Figueiredo Campos",
        "zipcode": "88161-708"
    },
    {
        "city": "Biguaçu",
        "state": "SC",
        "district": "Rio Caveiras",
        "street": "Rua Benjamin Constant",
        "zipcode": "88161-706"
    },
    {
        "city": "Biguaçu",
        "state": "SC",
        "district": "Rio Caveiras",
        "street": "Rua José Graciliano da Silveira",
        "zipcode": "88161-786"
    },
    {
        "city": "Biguaçu",
        "state": "SC",
        "district": "Rio Caveiras",
        "street": "Rua Olgina Goedert Debortoli",
        "zipcode": "88161-755"
    },
    {
        "city": "Biguaçu",
        "state": "SC",
        "district": "Rio Caveiras",
        "street": "Rua José Joaquim de Souza",
        "zipcode": "88161-745"
    },
    {
        "city": "Biguaçu",
        "state": "SC",
        "district": "Rio Caveiras",
        "street": "Rua Cônego Rodolfo Machado",
        "zipcode": "88161-732"
    },
    {
        "city": "Biguaçu",
        "state": "SC",
        "district": "Rio Caveiras",
        "street": "Rua João Joaquim de Souza",
        "zipcode": "88161-712"
    },
    {
        "city": "Biguaçu",
        "state": "SC",
        "district": "Rio Caveiras",
        "street": "Rua Gisele Marcelino",
        "zipcode": "88161-702"
    },
    {
        "city": "Biguaçu",
        "state": "SC",
        "district": "Rio Caveiras",
        "street": "Avenida Kiliano Kremer",
        "zipcode": "88161-700"
    },
    {
        "city": "Biguaçu",
        "state": "SC",
        "district": "Rio Caveiras",
        "street": "Rua Sergio Luiz Floriano",
        "zipcode": "88161-694"
    },
    {
        "city": "Biguaçu",
        "state": "SC",
        "district": "Fundos",
        "street": "Servidão Daniel Hellmann",
        "zipcode": "88161-494"
    },
    {
        "city": "Biguaçu",
        "state": "SC",
        "district": "Fundos",
        "street": "Rua Neide Terezinha dos Santos Régis",
        "zipcode": "88161-491"
    },
    {
        "city": "Biguaçu",
        "state": "SC",
        "district": "Fundos",
        "street": "Servidão Celestina Maria Hellmann",
        "zipcode": "88161-488"
    },
    {
        "city": "Biguaçu",
        "state": "SC",
        "district": "Fundos",
        "street": "Rua Maria Rita Conceição",
        "zipcode": "88161-485"
    },
    {
        "city": "Biguaçu",
        "state": "SC",
        "district": "Fundos",
        "street": "Rua Gian Francisco de Espíndola",
        "zipcode": "88161-479"
    },
    {
        "city": "Biguaçu",
        "state": "SC",
        "district": "Fundos",
        "street": "Rua Octavio Clemente Martins",
        "zipcode": "88161-476"
    },
    {
        "city": "Biguaçu",
        "state": "SC",
        "district": "Fundos",
        "street": "Rua Homero de Miranda Gomes",
        "zipcode": "88161-470"
    },
    {
        "city": "Biguaçu",
        "state": "SC",
        "district": "Fundos",
        "street": "Rua Papa João Paulo I",
        "zipcode": "88161-450"
    },
    {
        "city": "Biguaçu",
        "state": "SC",
        "district": "Fundos",
        "street": "Rua Homero de Miranda Gomes",
        "zipcode": "88161-420"
    },
    {
        "city": "Biguaçu",
        "state": "SC",
        "district": "Fundos",
        "street": "Rua Antônio Carlos Manoel",
        "zipcode": "88161-405"
    },
    {
        "city": "Biguaçu",
        "state": "SC",
        "district": "Fundos",
        "street": "Rua Julio Teodoro Martins",
        "zipcode": "88161-400"
    },
    {
        "city": "Biguaçu",
        "state": "SC",
        "district": "Fundos",
        "street": "Rua Manoel Mariano Ferreira",
        "zipcode": "88161-372"
    },
    {
        "city": "Biguaçu",
        "state": "SC",
        "district": "Fundos",
        "street": "Rua João Zeferino de Souza",
        "zipcode": "88161-368"
    },
    {
        "city": "Biguaçu",
        "state": "SC",
        "district": "Fundos",
        "street": "Servidão Paulo Goulart",
        "zipcode": "88161-514"
    },
    {
        "city": "Biguaçu",
        "state": "SC",
        "district": "Fundos",
        "street": "Servidão Vanda Maria Fernandes",
        "zipcode": "88161-482"
    },
    {
        "city": "Biguaçu",
        "state": "SC",
        "district": "Fundos",
        "street": "Servidão Amandio Francisco de Miranda",
        "zipcode": "88161-455"
    },
    {
        "city": "Biguaçu",
        "state": "SC",
        "district": "Fundos",
        "street": "Servidão Paulo João Muniz",
        "zipcode": "88161-338"
    },
    {
        "city": "Biguaçu",
        "state": "SC",
        "district": "Fundos",
        "street": "Rua Julio Teodoro Martins",
        "zipcode": "88161-332"
    },
    {
        "city": "Biguaçu",
        "state": "SC",
        "district": "Fundos",
        "street": "Rua Julio Teodoro Martins",
        "zipcode": "88161-330"
    },
    {
        "city": "Biguaçu",
        "state": "SC",
        "district": "Boa Vista",
        "street": "Servidão Osvaldo Muller",
        "zipcode": "88161-142"
    },
    {
        "city": "Biguaçu",
        "state": "SC",
        "district": "Boa Vista",
        "street": "Rua Vidal Mendes",
        "zipcode": "88161-126"
    },
    {
        "city": "Biguaçu",
        "state": "SC",
        "district": "Fundos",
        "street": "Rua Antônio João de Souza",
        "zipcode": "88161-542"
    },
    {
        "city": "Biguaçu",
        "state": "SC",
        "district": "Rio Caveiras",
        "street": "Rua Ana Maria Ferreira",
        "zipcode": "88161-590"
    },
    {
        "city": "Biguaçu",
        "state": "SC",
        "district": "Rio Caveiras",
        "street": "Rua Arno Eleutério dos Santos",
        "zipcode": "88161-596"
    },
    {
        "city": "Biguaçu",
        "state": "SC",
        "district": "Rio Caveiras",
        "street": "Rua José Cardoso da Silva",
        "zipcode": "88161-636"
    },
    {
        "city": "Biguaçu",
        "state": "SC",
        "district": "Rio Caveiras",
        "street": "Rua Idelfonso Manoel Jacques",
        "zipcode": "88161-640"
    },
    {
        "city": "Biguaçu",
        "state": "SC",
        "district": "Rio Caveiras",
        "street": "Rua Adriano Picolli",
        "zipcode": "88161-686"
    },
    {
        "city": "Biguaçu",
        "state": "SC",
        "district": "Rio Caveiras",
        "street": "Rua Fernando Martinho de Souza",
        "zipcode": "88161-592"
    },
    {
        "city": "Biguaçu",
        "state": "SC",
        "district": "Rio Caveiras",
        "street": "Rua Clementina de Andrade",
        "zipcode": "88161-622"
    },
    {
        "city": "Biguaçu",
        "state": "SC",
        "district": "Rio Caveiras",
        "street": "Rua da Amizade",
        "zipcode": "88161-674"
    },
    {
        "city": "Biguaçu",
        "state": "SC",
        "district": "Fundos",
        "street": "Rua Marciano Francisco Kons",
        "zipcode": "88161-526"
    },
    {
        "city": "Biguaçu",
        "state": "SC",
        "district": "Rio Caveiras",
        "street": "Rua Manoel Florêncio da Cunha",
        "zipcode": "88161-598"
    },
    {
        "city": "Biguaçu",
        "state": "SC",
        "district": "Rio Caveiras",
        "street": "Travessa dos Amigos",
        "zipcode": "88161-600"
    },
    {
        "city": "Biguaçu",
        "state": "SC",
        "district": "Rio Caveiras",
        "street": "Rua Olindina Farias Ludvig",
        "zipcode": "88161-624"
    },
    {
        "city": "Biguaçu",
        "state": "SC",
        "district": "Rio Caveiras",
        "street": "Rua Manoel Mariano Ferreira",
        "zipcode": "88161-680"
    },
    {
        "city": "Biguaçu",
        "state": "SC",
        "district": "Rio Caveiras",
        "street": "Rua Manoel Henrique Lino",
        "zipcode": "88161-638"
    },
    {
        "city": "Biguaçu",
        "state": "SC",
        "district": "Rio Caveiras",
        "street": "Rua Domingos Teodoro Martins",
        "zipcode": "88161-634"
    },
    {
        "city": "Biguaçu",
        "state": "SC",
        "district": "Fundos",
        "street": "Rua Maria Luiza de Simas",
        "zipcode": "88161-530"
    },
    {
        "city": "Biguaçu",
        "state": "SC",
        "district": "Fundos",
        "street": "Rua Manoel Justino de Simas",
        "zipcode": "88161-532"
    },
    {
        "city": "Biguaçu",
        "state": "SC",
        "district": "Boa Vista",
        "street": "Rua Major Livramento",
        "zipcode": "88161-122"
    },
    {
        "city": "Biguaçu",
        "state": "SC",
        "district": "Boa Vista",
        "street": "Rua Bertoldo Simão de Oliveira",
        "zipcode": "88161-110"
    },
    {
        "city": "Biguaçu",
        "state": "SC",
        "district": "Fundos",
        "street": "Rua Francisco Manoel Machado",
        "zipcode": "88161-298"
    },
    {
        "city": "Biguaçu",
        "state": "SC",
        "district": "Fundos",
        "street": "Rua Aldo Alfredo Fermiano",
        "zipcode": "88161-289"
    },
    {
        "city": "Biguaçu",
        "state": "SC",
        "district": "Fundos",
        "street": "Rua Nicolau José Muller",
        "zipcode": "88161-435"
    },
    {
        "city": "Biguaçu",
        "state": "SC",
        "district": "Fundos",
        "street": "Servidão Agostinho José Machado",
        "zipcode": "88161-415"
    },
    {
        "city": "Biguaçu",
        "state": "SC",
        "district": "Fundos",
        "street": "Servidão Daniel João Souza",
        "zipcode": "88161-394"
    },
    {
        "city": "Biguaçu",
        "state": "SC",
        "district": "Fundos",
        "street": "Rua Lauredano Pires da Silva",
        "zipcode": "88161-390"
    },
    {
        "city": "Biguaçu",
        "state": "SC",
        "district": "Fundos",
        "street": "Servidão Júlio Campolino do Amaral",
        "zipcode": "88161-386"
    },
    {
        "city": "Biguaçu",
        "state": "SC",
        "district": "Fundos",
        "street": "Rua Hortência de Souza Vieira",
        "zipcode": "88161-384"
    },
    {
        "city": "Biguaçu",
        "state": "SC",
        "district": "Fundos",
        "street": "Rua Antônio Mariano Teodósio",
        "zipcode": "88161-378"
    },
    {
        "city": "Biguaçu",
        "state": "SC",
        "district": "Fundos",
        "street": "Rua Ondina Simas de Miranda",
        "zipcode": "88161-366"
    },
    {
        "city": "Biguaçu",
        "state": "SC",
        "district": "Fundos",
        "street": "Rua Antônio Mariano Filho",
        "zipcode": "88161-362"
    },
    {
        "city": "Biguaçu",
        "state": "SC",
        "district": "Fundos",
        "street": "Rua Benjamim de Carvalho",
        "zipcode": "88161-360"
    },
    {
        "city": "Biguaçu",
        "state": "SC",
        "district": "Fundos",
        "street": "Servidão José Manoel Salles",
        "zipcode": "88161-358"
    },
    {
        "city": "Biguaçu",
        "state": "SC",
        "district": "Fundos",
        "street": "Rua José Sebastião Corrêa",
        "zipcode": "88161-350"
    },
    {
        "city": "Biguaçu",
        "state": "SC",
        "district": "Fundos",
        "street": "Servidão Agostinho Amâncio Vieira",
        "zipcode": "88161-346"
    },
    {
        "city": "Biguaçu",
        "state": "SC",
        "district": "Fundos",
        "street": "Avenida Vereador Esmeraldino Prazeres",
        "zipcode": "88161-344"
    },
    {
        "city": "Biguaçu",
        "state": "SC",
        "district": "Fundos",
        "street": "Servidão Jerônimo José Rosar",
        "zipcode": "88161-304"
    },
    {
        "city": "Biguaçu",
        "state": "SC",
        "district": "Morro da Bina",
        "street": "Rua José do Patrocínio",
        "zipcode": "88160-468"
    },
    {
        "city": "Biguaçu",
        "state": "SC",
        "district": "Fundos",
        "street": "Rua Bonifácio do Livramento",
        "zipcode": "88161-410"
    },
    {
        "city": "Biguaçu",
        "state": "SC",
        "district": "Fundos",
        "street": "Rua Maria da Cunha Manoel",
        "zipcode": "88161-374"
    },
    {
        "city": "Biguaçu",
        "state": "SC",
        "district": "Fundos",
        "street": "Rua José Sabino Simas",
        "zipcode": "88161-364"
    },
    {
        "city": "Biguaçu",
        "state": "SC",
        "district": "Fundos",
        "street": "Servidão João Antônio Manoel",
        "zipcode": "88161-376"
    },
    {
        "city": "Biguaçu",
        "state": "SC",
        "district": "Fundos",
        "street": "Servidão José Neyton Pacheco",
        "zipcode": "88161-352"
    },
    {
        "city": "Biguaçu",
        "state": "SC",
        "district": "Universitário",
        "street": "Rua Cônego Rodolfo Machado",
        "zipcode": "88161-080"
    },
    {
        "city": "Biguaçu",
        "state": "SC",
        "district": "Universitário",
        "street": "Rua Quintino Bocaiúva",
        "zipcode": "88161-072"
    },
    {
        "city": "Biguaçu",
        "state": "SC",
        "district": "Universitário",
        "street": "Rua Ananias Martendal",
        "zipcode": "88161-044"
    },
    {
        "city": "Biguaçu",
        "state": "SC",
        "district": "Universitário",
        "street": "Rua Major Livramento",
        "zipcode": "88161-036"
    },
    {
        "city": "Biguaçu",
        "state": "SC",
        "district": "Universitário",
        "street": "Rua Rodrigo Campos Bastos",
        "zipcode": "88161-020"
    },
    {
        "city": "Biguaçu",
        "state": "SC",
        "district": "Universitário",
        "street": "Rua Malvina Müller Martendal",
        "zipcode": "88161-008"
    },
    {
        "city": "Biguaçu",
        "state": "SC",
        "district": "Fundos",
        "street": "Servidão Nossa Senhora de Fátima",
        "zipcode": "88161-292"
    },
    {
        "city": "Biguaçu",
        "state": "SC",
        "district": "Universitário",
        "street": "Rua Getúlio Vargas",
        "zipcode": "88161-004"
    },
    {
        "city": "Biguaçu",
        "state": "SC",
        "district": "Bom Viver",
        "street": "Rua Ismar Pedro Benz",
        "zipcode": "88160-772"
    },
    {
        "city": "Biguaçu",
        "state": "SC",
        "district": "Bom Viver",
        "street": "Rua Arcanjo Antônio Henrique",
        "zipcode": "88160-770"
    },
    {
        "city": "Biguaçu",
        "state": "SC",
        "district": "Bom Viver",
        "street": "Servidão Nossa Senhora Aparecida",
        "zipcode": "88160-762"
    },
    {
        "city": "Biguaçu",
        "state": "SC",
        "district": "Bom Viver",
        "street": "Rua Hélio Laudelino da Silva",
        "zipcode": "88160-740"
    },
    {
        "city": "Biguaçu",
        "state": "SC",
        "district": "Bom Viver",
        "street": "Rua Virgílio Ceron",
        "zipcode": "88160-732"
    },
    {
        "city": "Biguaçu",
        "state": "SC",
        "district": "Bom Viver",
        "street": "Rua Manoel Nunes Freitas",
        "zipcode": "88160-708"
    },
    {
        "city": "Biguaçu",
        "state": "SC",
        "district": "Boa Vista",
        "street": "Escadaria Luiz Gonzaga Laurentino",
        "zipcode": "88161-138"
    },
    {
        "city": "Biguaçu",
        "state": "SC",
        "district": "Boa Vista",
        "street": "Rua Manoel Justino de Oliveira",
        "zipcode": "88161-136"
    },
    {
        "city": "Biguaçu",
        "state": "SC",
        "district": "Boa Vista",
        "street": "Servidão José Firmino Mangrich",
        "zipcode": "88161-132"
    },
    {
        "city": "Biguaçu",
        "state": "SC",
        "district": "Boa Vista",
        "street": "Escadaria José Lino Martins",
        "zipcode": "88161-116"
    },
    {
        "city": "Biguaçu",
        "state": "SC",
        "district": "Boa Vista",
        "street": "Servidão José Santino",
        "zipcode": "88161-112"
    },
    {
        "city": "Biguaçu",
        "state": "SC",
        "district": "Universitário",
        "street": "Rua Hipólito Henrique Pfleger",
        "zipcode": "88161-068"
    },
    {
        "city": "Biguaçu",
        "state": "SC",
        "district": "Universitário",
        "street": "Rua Hélio Schmitt",
        "zipcode": "88161-056"
    },
    {
        "city": "Biguaçu",
        "state": "SC",
        "district": "Universitário",
        "street": "Rua Prefeito Cantídio Veríssimo",
        "zipcode": "88161-052"
    },
    {
        "city": "Biguaçu",
        "state": "SC",
        "district": "Universitário",
        "street": "Rua Prefeito Paulo Frederico Alves Wildner",
        "zipcode": "88161-048"
    },
    {
        "city": "Biguaçu",
        "state": "SC",
        "district": "Universitário",
        "street": "Rua Leonardo Burn",
        "zipcode": "88161-032"
    },
    {
        "city": "Biguaçu",
        "state": "SC",
        "district": "Fundos",
        "street": "Servidão Airton Eufrásio do Amaral",
        "zipcode": "88161-301"
    },
    {
        "city": "Biguaçu",
        "state": "SC",
        "district": "Universitário",
        "street": "Rua Acácio Reitz",
        "zipcode": "88161-060"
    },
    {
        "city": "Biguaçu",
        "state": "SC",
        "district": "Universitário",
        "street": "Rua Sebastião Lara",
        "zipcode": "88161-000"
    },
    {
        "city": "Biguaçu",
        "state": "SC",
        "district": "Bom Viver",
        "street": "Rua Homero de Miranda Gomes",
        "zipcode": "88160-768"
    },
    {
        "city": "Biguaçu",
        "state": "SC",
        "district": "Bom Viver",
        "street": "Rua José Rodrigues",
        "zipcode": "88160-728"
    },
    {
        "city": "Biguaçu",
        "state": "SC",
        "district": "Bom Viver",
        "street": "Rua João Luiz Duarte",
        "zipcode": "88160-722"
    },
    {
        "city": "Biguaçu",
        "state": "SC",
        "district": "Boa Vista",
        "street": "Servidão Pedro Paulo Martins",
        "zipcode": "88161-140"
    },
    {
        "city": "Biguaçu",
        "state": "SC",
        "district": "Bom Viver",
        "street": "Rua Belmira Mafra Vieira",
        "zipcode": "88160-712"
    },
    {
        "city": "Biguaçu",
        "state": "SC",
        "district": "Boa Vista",
        "street": "Servidão Bertoldo Fraga",
        "zipcode": "88161-134"
    },
    {
        "city": "Biguaçu",
        "state": "SC",
        "district": "Universitário",
        "street": "Rua Prefeito Nilo Prazeres",
        "zipcode": "88161-016"
    },
    {
        "city": "Biguaçu",
        "state": "SC",
        "district": "Universitário",
        "street": "Servidão Maria Ernestina Goedert",
        "zipcode": "88161-012"
    },
    {
        "city": "Biguaçu",
        "state": "SC",
        "district": "Bom Viver",
        "street": "Rua Deofonso da Rosa",
        "zipcode": "88160-752"
    },
    {
        "city": "Biguaçu",
        "state": "SC",
        "district": "Bom Viver",
        "street": "Servidão Erasmo Campos",
        "zipcode": "88160-748"
    },
    {
        "city": "Biguaçu",
        "state": "SC",
        "district": "Bom Viver",
        "street": "Servidão Maria Camacho Tomaz",
        "zipcode": "88160-744"
    },
    {
        "city": "Biguaçu",
        "state": "SC",
        "district": "Bom Viver",
        "street": "Rua Emílio Joaquim de Mello",
        "zipcode": "88160-738"
    },
    {
        "city": "Biguaçu",
        "state": "SC",
        "district": "Bom Viver",
        "street": "Rua João Luiz Duarte",
        "zipcode": "88160-724"
    },
    {
        "city": "Biguaçu",
        "state": "SC",
        "district": "Bom Viver",
        "street": "Rua Rosa Lourdes Cruz Prestes",
        "zipcode": "88160-720"
    },
    {
        "city": "Biguaçu",
        "state": "SC",
        "district": "Boa Vista",
        "street": "Servidão Adolfo Marvo Mendes",
        "zipcode": "88161-130"
    },
    {
        "city": "Biguaçu",
        "state": "SC",
        "district": "Bom Viver",
        "street": "Servidão João Antônio da Cunha",
        "zipcode": "88160-758"
    },
    {
        "city": "Biguaçu",
        "state": "SC",
        "district": "Bom Viver",
        "street": "Servidão Pedro Leopoldino da Silva",
        "zipcode": "88160-756"
    },
    {
        "city": "Biguaçu",
        "state": "SC",
        "district": "Bom Viver",
        "street": "Rua Pedro João Fermiano",
        "zipcode": "88160-754"
    },
    {
        "city": "Biguaçu",
        "state": "SC",
        "district": "Bom Viver",
        "street": "Rua Domingos Manoel Tomaz",
        "zipcode": "88160-760"
    },
    {
        "city": "Biguaçu",
        "state": "SC",
        "district": "Universitário",
        "street": "Rua Vilibaldo Dechamps",
        "zipcode": "88161-024"
    },
    {
        "city": "Biguaçu",
        "state": "SC",
        "district": "Bom Viver",
        "street": "Rua Fermina Rosalina Machado",
        "zipcode": "88160-662"
    },
    {
        "city": "Biguaçu",
        "state": "SC",
        "district": "Bom Viver",
        "street": "Rua Amaro Damásio",
        "zipcode": "88160-648"
    },
    {
        "city": "Biguaçu",
        "state": "SC",
        "district": "Bom Viver",
        "street": "Rua João Luiz Duarte",
        "zipcode": "88160-640"
    },
    {
        "city": "Biguaçu",
        "state": "SC",
        "district": "Bom Viver",
        "street": "Rua João Luiz Duarte",
        "zipcode": "88160-638"
    },
    {
        "city": "Biguaçu",
        "state": "SC",
        "district": "Bom Viver",
        "street": "Servidão Campolina",
        "zipcode": "88160-583"
    },
    {
        "city": "Biguaçu",
        "state": "SC",
        "district": "Mar das Pedras",
        "street": "Rua Humaitá",
        "zipcode": "88160-563"
    },
    {
        "city": "Biguaçu",
        "state": "SC",
        "district": "Mar das Pedras",
        "street": "Rua Presidente Castelo Branco",
        "zipcode": "88160-560"
    },
    {
        "city": "Biguaçu",
        "state": "SC",
        "district": "Mar das Pedras",
        "street": "Rua 2007",
        "zipcode": "88160-528"
    },
    {
        "city": "Biguaçu",
        "state": "SC",
        "district": "Mar das Pedras",
        "street": "Rua Pedro Duarte",
        "zipcode": "88160-526"
    },
    {
        "city": "Biguaçu",
        "state": "SC",
        "district": "Morro da Bina",
        "street": "Rua Geraldino Azevedo",
        "zipcode": "88160-459"
    },
    {
        "city": "Biguaçu",
        "state": "SC",
        "district": "Morro da Bina",
        "street": "Rua São Pedro",
        "zipcode": "88160-456"
    },
    {
        "city": "Biguaçu",
        "state": "SC",
        "district": "Bom Viver",
        "street": "Rua Francisco Venceslau de Farias",
        "zipcode": "88160-670"
    },
    {
        "city": "Biguaçu",
        "state": "SC",
        "district": "Bom Viver",
        "street": "Rua Mário Longo",
        "zipcode": "88160-658"
    },
    {
        "city": "Biguaçu",
        "state": "SC",
        "district": "Bom Viver",
        "street": "Rua Maria Julia Guimarães",
        "zipcode": "88160-652"
    },
    {
        "city": "Biguaçu",
        "state": "SC",
        "district": "Mar das Pedras",
        "street": "Servidão José Crispim Pereira",
        "zipcode": "88160-524"
    },
    {
        "city": "Biguaçu",
        "state": "SC",
        "district": "Mar das Pedras",
        "street": "Rua Hélio Antônio Carvalho",
        "zipcode": "88160-516"
    },
    {
        "city": "Biguaçu",
        "state": "SC",
        "district": "Mar das Pedras",
        "street": "Rua Alexandre Sérgio Godinho",
        "zipcode": "88160-500"
    },
    {
        "city": "Biguaçu",
        "state": "SC",
        "district": "Bom Viver",
        "street": "Rua José Antônio Cardoso",
        "zipcode": "88160-704"
    },
    {
        "city": "Biguaçu",
        "state": "SC",
        "district": "Bom Viver",
        "street": "Rua Pasqualine Ines da Costa",
        "zipcode": "88160-700"
    },
    {
        "city": "Biguaçu",
        "state": "SC",
        "district": "Bom Viver",
        "street": "Rua Erondina Maria da Silva",
        "zipcode": "88160-668"
    },
    {
        "city": "Biguaçu",
        "state": "SC",
        "district": "Bom Viver",
        "street": "Rua Eli Terezinha Luz Souza",
        "zipcode": "88160-666"
    },
    {
        "city": "Biguaçu",
        "state": "SC",
        "district": "Bom Viver",
        "street": "Rua João Eliseu de Campos",
        "zipcode": "88160-660"
    },
    {
        "city": "Biguaçu",
        "state": "SC",
        "district": "Bom Viver",
        "street": "Rua Jorge Alberto Zimmermann",
        "zipcode": "88160-630"
    },
    {
        "city": "Biguaçu",
        "state": "SC",
        "district": "Bom Viver",
        "street": "Rua José Rodolfo Coelho",
        "zipcode": "88160-626"
    },
    {
        "city": "Biguaçu",
        "state": "SC",
        "district": "Bom Viver",
        "street": "Rua Francisco Joaquim da Silva",
        "zipcode": "88160-620"
    },
    {
        "city": "Biguaçu",
        "state": "SC",
        "district": "Bom Viver",
        "street": "Servidão Jordelino Saturnino Luiz",
        "zipcode": "88160-616"
    },
    {
        "city": "Biguaçu",
        "state": "SC",
        "district": "Bom Viver",
        "street": "Rua Adelino Machado",
        "zipcode": "88160-610"
    },
    {
        "city": "Biguaçu",
        "state": "SC",
        "district": "Mar das Pedras",
        "street": "Rua José Zimmermann",
        "zipcode": "88160-566"
    },
    {
        "city": "Biguaçu",
        "state": "SC",
        "district": "Mar das Pedras",
        "street": "Servidão Antônio José de Lima",
        "zipcode": "88160-514"
    },
    {
        "city": "Biguaçu",
        "state": "SC",
        "district": "Mar das Pedras",
        "street": "Avenida Luiz Gonçalves",
        "zipcode": "88160-506"
    },
    {
        "city": "Biguaçu",
        "state": "SC",
        "district": "Mar das Pedras",
        "street": "Servidão Santilha de Souza Pereira",
        "zipcode": "88160-504"
    },
    {
        "city": "Biguaçu",
        "state": "SC",
        "district": "Mar das Pedras",
        "street": "Rua José Francelino do Amaral",
        "zipcode": "88160-502"
    },
    {
        "city": "Biguaçu",
        "state": "SC",
        "district": "Saveiro",
        "street": "Rua Iguaçu",
        "zipcode": "88160-408"
    },
    {
        "city": "Biguaçu",
        "state": "SC",
        "district": "Saveiro",
        "street": "Rua Paranapanema",
        "zipcode": "88160-406"
    },
    {
        "city": "Biguaçu",
        "state": "SC",
        "district": "Saveiro",
        "street": "Rua Tibagi",
        "zipcode": "88160-398"
    },
    {
        "city": "Biguaçu",
        "state": "SC",
        "district": "Saveiro",
        "street": "Rua Belém",
        "zipcode": "88160-396"
    },
    {
        "city": "Biguaçu",
        "state": "SC",
        "district": "Bom Viver",
        "street": "Rua Juvêncio Otaviano Rosa",
        "zipcode": "88160-716"
    },
    {
        "city": "Biguaçu",
        "state": "SC",
        "district": "Bom Viver",
        "street": "Servidão Hermann Vieira",
        "zipcode": "88160-710"
    },
    {
        "city": "Biguaçu",
        "state": "SC",
        "district": "Bom Viver",
        "street": "Rua Manoel Custódio Vieira",
        "zipcode": "88160-656"
    },
    {
        "city": "Biguaçu",
        "state": "SC",
        "district": "Bom Viver",
        "street": "Rua Bertoldo Kuhl Helbe",
        "zipcode": "88160-654"
    },
    {
        "city": "Biguaçu",
        "state": "SC",
        "district": "Bom Viver",
        "street": "Rua José Corrêa Oliveira",
        "zipcode": "88160-634"
    },
    {
        "city": "Biguaçu",
        "state": "SC",
        "district": "Bom Viver",
        "street": "Rua Júlio Bekhauser",
        "zipcode": "88160-632"
    },
    {
        "city": "Biguaçu",
        "state": "SC",
        "district": "Bom Viver",
        "street": "Rua José Ângelo Petit",
        "zipcode": "88160-628"
    },
    {
        "city": "Biguaçu",
        "state": "SC",
        "district": "Bom Viver",
        "street": "Rua Jacob Roberto Petry",
        "zipcode": "88160-622"
    },
    {
        "city": "Biguaçu",
        "state": "SC",
        "district": "Mar das Pedras",
        "street": "Rua 5 (Lot. Gênova)",
        "zipcode": "88160-512"
    },
    {
        "city": "Biguaçu",
        "state": "SC",
        "district": "Saveiro",
        "street": "Rua Juruá",
        "zipcode": "88160-386"
    },
    {
        "city": "Biguaçu",
        "state": "SC",
        "district": "Mar das Pedras",
        "street": "Rua Cecília Maria José Azevedo",
        "zipcode": "88160-518"
    },
    {
        "city": "Biguaçu",
        "state": "SC",
        "district": "Bom Viver",
        "street": "Rua David João de Oliveira",
        "zipcode": "88160-714"
    },
    {
        "city": "Biguaçu",
        "state": "SC",
        "district": "Saveiro",
        "street": "Rua Nossa Senhora dos Navegantes",
        "zipcode": "88160-382"
    },
    {
        "city": "Biguaçu",
        "state": "SC",
        "district": "Praia João Rosa",
        "street": "Rua Vidal Manoel de Souza",
        "zipcode": "88160-374"
    },
    {
        "city": "Biguaçu",
        "state": "SC",
        "district": "Praia João Rosa",
        "street": "Beco Beira Rio",
        "zipcode": "88160-370"
    },
    {
        "city": "Biguaçu",
        "state": "SC",
        "district": "Prado de Baixo",
        "street": "Rua Verônica Juncks Prim",
        "zipcode": "88160-030"
    },
    {
        "city": "Biguaçu",
        "state": "SC",
        "district": "Praia João Rosa",
        "street": "Rua João Martiniano Rodrigues",
        "zipcode": "88160-368"
    },
    {
        "city": "Biguaçu",
        "state": "SC",
        "district": "Praia João Rosa",
        "street": "Rua Maria Cecília Sodré",
        "zipcode": "88160-364"
    },
    {
        "city": "Biguaçu",
        "state": "SC",
        "district": "Praia João Rosa",
        "street": "Rua José Francisco Sodré",
        "zipcode": "88160-342"
    },
    {
        "city": "Biguaçu",
        "state": "SC",
        "district": "Praia João Rosa",
        "street": "Rua Tenente Germano Pacheco",
        "zipcode": "88160-336"
    },
    {
        "city": "Biguaçu",
        "state": "SC",
        "district": "Morro da Bina",
        "street": "Rua Victor Meireles",
        "zipcode": "88160-480"
    },
    {
        "city": "Biguaçu",
        "state": "SC",
        "district": "Morro da Bina",
        "street": "Rua Tiradentes",
        "zipcode": "88160-471"
    },
    {
        "city": "Biguaçu",
        "state": "SC",
        "district": "Morro da Bina",
        "street": "Rua Paulo Pedro Rodrigues",
        "zipcode": "88160-462"
    },
    {
        "city": "Biguaçu",
        "state": "SC",
        "district": "Morro da Bina",
        "street": "Servidão da Família",
        "zipcode": "88160-453"
    },
    {
        "city": "Biguaçu",
        "state": "SC",
        "district": "Saveiro",
        "street": "Servidão Pedro Paulo Leite",
        "zipcode": "88160-414"
    },
    {
        "city": "Biguaçu",
        "state": "SC",
        "district": "Saveiro",
        "street": "Rua Adão dos Santos Chaves",
        "zipcode": "88160-394"
    },
    {
        "city": "Biguaçu",
        "state": "SC",
        "district": "Praia João Rosa",
        "street": "Servidão Miguel Nelson Sodre",
        "zipcode": "88160-362"
    },
    {
        "city": "Biguaçu",
        "state": "SC",
        "district": "Praia João Rosa",
        "street": "Rua Benta Alexandrina Ferreira",
        "zipcode": "88160-360"
    },
    {
        "city": "Biguaçu",
        "state": "SC",
        "district": "Praia João Rosa",
        "street": "Rua Lucidório Bernardino da Cruz",
        "zipcode": "88160-358"
    },
    {
        "city": "Biguaçu",
        "state": "SC",
        "district": "Praia João Rosa",
        "street": "Rua Arlindo João Goulart",
        "zipcode": "88160-352"
    },
    {
        "city": "Biguaçu",
        "state": "SC",
        "district": "Praia João Rosa",
        "street": "Servidão João Maria Rosa",
        "zipcode": "88160-346"
    },
    {
        "city": "Biguaçu",
        "state": "SC",
        "district": "Praia João Rosa",
        "street": "Servidão José Tomé Goulart",
        "zipcode": "88160-340"
    },
    {
        "city": "Biguaçu",
        "state": "SC",
        "district": "Praia João Rosa",
        "street": "Servidão Nossos Anjos",
        "zipcode": "88160-354"
    },
    {
        "city": "Biguaçu",
        "state": "SC",
        "district": "Morro da Bina",
        "street": "Rua Nilton Martins Filho",
        "zipcode": "88160-477"
    },
    {
        "city": "Biguaçu",
        "state": "SC",
        "district": "Morro da Bina",
        "street": "Rua Sidney Pinheiro Filho",
        "zipcode": "88160-474"
    },
    {
        "city": "Biguaçu",
        "state": "SC",
        "district": "Saveiro",
        "street": "Rua Maria Ana do Amaral Pereira",
        "zipcode": "88160-390"
    },
    {
        "city": "Biguaçu",
        "state": "SC",
        "district": "Praia João Rosa",
        "street": "Servidão Lair Francisco Goulart",
        "zipcode": "88160-334"
    },
    {
        "city": "Biguaçu",
        "state": "SC",
        "district": "Praia João Rosa",
        "street": "Rua Pedro Argelino Nicolau",
        "zipcode": "88160-332"
    },
    {
        "city": "Biguaçu",
        "state": "SC",
        "district": "Praia João Rosa",
        "street": "Rua Manoel Peres",
        "zipcode": "88160-328"
    },
    {
        "city": "Biguaçu",
        "state": "SC",
        "district": "Praia João Rosa",
        "street": "Rua José Francisco Goulart",
        "zipcode": "88160-326"
    },
    {
        "city": "Biguaçu",
        "state": "SC",
        "district": "Praia João Rosa",
        "street": "Rua Filomena Maria da Silva",
        "zipcode": "88160-324"
    },
    {
        "city": "Biguaçu",
        "state": "SC",
        "district": "Praia João Rosa",
        "street": "Rua Domingos Coelho",
        "zipcode": "88160-308"
    },
    {
        "city": "Biguaçu",
        "state": "SC",
        "district": "Praia João Rosa",
        "street": "Rua Gumercindo Ferreira",
        "zipcode": "88160-306"
    },
    {
        "city": "Biguaçu",
        "state": "SC",
        "district": "Praia João Rosa",
        "street": "Rua Salima Salum",
        "zipcode": "88160-300"
    },
    {
        "city": "Biguaçu",
        "state": "SC",
        "district": "Praia João Rosa",
        "street": "Rua Paulo Souza",
        "zipcode": "88160-296"
    },
    {
        "city": "Biguaçu",
        "state": "SC",
        "district": "Praia João Rosa",
        "street": "Rua Bento dos Santos",
        "zipcode": "88160-292"
    },
    {
        "city": "Biguaçu",
        "state": "SC",
        "district": "Praia João Rosa",
        "street": "Rua Vereador Emídio Amorim Viríssimo",
        "zipcode": "88160-290"
    },
    {
        "city": "Biguaçu",
        "state": "SC",
        "district": "Praia João Rosa",
        "street": "Avenida Francisco Roberto da Silva",
        "zipcode": "88160-286"
    },
    {
        "city": "Biguaçu",
        "state": "SC",
        "district": "Praia João Rosa",
        "street": "Avenida Francisco Roberto da Silva",
        "zipcode": "88160-284"
    },
    {
        "city": "Biguaçu",
        "state": "SC",
        "district": "Praia João Rosa",
        "street": "Rua Lages",
        "zipcode": "88160-282"
    },
    {
        "city": "Biguaçu",
        "state": "SC",
        "district": "Praia João Rosa",
        "street": "Rua Francisco Carlos Miranda",
        "zipcode": "88160-276"
    },
    {
        "city": "Biguaçu",
        "state": "SC",
        "district": "Praia João Rosa",
        "street": "Rua Manoel Francisco da Silva",
        "zipcode": "88160-272"
    },
    {
        "city": "Biguaçu",
        "state": "SC",
        "district": "Saveiro",
        "street": "Rua Piriqui",
        "zipcode": "88160-410"
    },
    {
        "city": "Biguaçu",
        "state": "SC",
        "district": "Praia João Rosa",
        "street": "Servidão Manoel Amaral",
        "zipcode": "88160-338"
    },
    {
        "city": "Biguaçu",
        "state": "SC",
        "district": "Praia João Rosa",
        "street": "Rua 17 de Maio",
        "zipcode": "88160-318"
    },
    {
        "city": "Biguaçu",
        "state": "SC",
        "district": "Praia João Rosa",
        "street": "Rua Valentim Vieira",
        "zipcode": "88160-302"
    },
    {
        "city": "Biguaçu",
        "state": "SC",
        "district": "Praia João Rosa",
        "street": "Rua Francisco Wollinger",
        "zipcode": "88160-294"
    },
    {
        "city": "Biguaçu",
        "state": "SC",
        "district": "Centro",
        "street": "Rua João Rosa",
        "zipcode": "88160-214"
    },
    {
        "city": "Biguaçu",
        "state": "SC",
        "district": "Centro",
        "street": "Rua Altamiro Machado de Souza",
        "zipcode": "88160-206"
    },
    {
        "city": "Biguaçu",
        "state": "SC",
        "district": "Centro",
        "street": "Rua Gustavo Lopes Farias",
        "zipcode": "88160-204"
    },
    {
        "city": "Biguaçu",
        "state": "SC",
        "district": "Praia João Rosa",
        "street": "Rua João Rosa",
        "zipcode": "88160-270"
    },
    {
        "city": "Biguaçu",
        "state": "SC",
        "district": "Centro",
        "street": "Rua 7 de Setembro",
        "zipcode": "88160-190"
    },
    {
        "city": "Biguaçu",
        "state": "SC",
        "district": "Centro",
        "street": "Servidão Niceo Duarte",
        "zipcode": "88160-180"
    },
    {
        "city": "Biguaçu",
        "state": "SC",
        "district": "Praia João Rosa",
        "street": "Rua Maria Sens Zimmermann",
        "zipcode": "88160-320"
    },
    {
        "city": "Biguaçu",
        "state": "SC",
        "district": "Praia João Rosa",
        "street": "Rua Sargento Aristides Josué",
        "zipcode": "88160-304"
    },
    {
        "city": "Biguaçu",
        "state": "SC",
        "district": "Praia João Rosa",
        "street": "Rua Firmino Viríssimo Bernardino",
        "zipcode": "88160-298"
    },
    {
        "city": "Biguaçu",
        "state": "SC",
        "district": "Praia João Rosa",
        "street": "Praça José Gualberto dos Santos",
        "zipcode": "88160-274"
    },
    {
        "city": "Biguaçu",
        "state": "SC",
        "district": "Centro",
        "street": "Rua Vardeli Rossenque",
        "zipcode": "88160-210"
    },
    {
        "city": "Biguaçu",
        "state": "SC",
        "district": "Praia João Rosa",
        "street": "Rua Vital Delfino de Jesus",
        "zipcode": "88160-310"
    },
    {
        "city": "Biguaçu",
        "state": "SC",
        "district": "Praia João Rosa",
        "street": "Travessa Ângelo Vicente Melilo",
        "zipcode": "88160-280"
    },
    {
        "city": "Biguaçu",
        "state": "SC",
        "district": "Centro",
        "street": "Servidão Cândido Hilário Fagundes",
        "zipcode": "88160-216"
    },
    {
        "city": "Biguaçu",
        "state": "SC",
        "district": "Centro",
        "street": "Rua Mário Cesar Alves",
        "zipcode": "88160-212"
    },
    {
        "city": "Biguaçu",
        "state": "SC",
        "district": "Centro",
        "street": "Rua Pedro José Hoffmann",
        "zipcode": "88160-194"
    },
    {
        "city": "Biguaçu",
        "state": "SC",
        "district": "Centro",
        "street": "Rua Anastácio Fermino de Araújo",
        "zipcode": "88160-186"
    },
    {
        "city": "Biguaçu",
        "state": "SC",
        "district": "Centro",
        "street": "Servidão Florentino dos Santos",
        "zipcode": "88160-184"
    },
    {
        "city": "Biguaçu",
        "state": "SC",
        "district": "Centro",
        "street": "Rua Benta Maria Correa",
        "zipcode": "88160-182"
    },
    {
        "city": "Biguaçu",
        "state": "SC",
        "district": "Centro",
        "street": "Rua Salim Antônio Kair",
        "zipcode": "88160-178"
    },
    {
        "city": "Biguaçu",
        "state": "SC",
        "district": "Centro",
        "street": "Rua 7 de Setembro",
        "zipcode": "88160-164"
    },
    {
        "city": "Biguaçu",
        "state": "SC",
        "district": "Centro",
        "street": "Rua José Júlio de Amorim",
        "zipcode": "88160-162"
    },
    {
        "city": "Biguaçu",
        "state": "SC",
        "district": "Centro",
        "street": "Servidão Luiz Eduardo Borba",
        "zipcode": "88160-168"
    },
    {
        "city": "Biguaçu",
        "state": "SC",
        "district": "Centro",
        "street": "Rua Francisco Petry",
        "zipcode": "88160-158"
    },
    {
        "city": "Biguaçu",
        "state": "SC",
        "district": "Centro",
        "street": "Rua Tabita Schlickmann Locks",
        "zipcode": "88160-154"
    },
    {
        "city": "Biguaçu",
        "state": "SC",
        "district": "Centro",
        "street": "Rua Justino Adalberto Leal",
        "zipcode": "88160-150"
    },
    {
        "city": "Biguaçu",
        "state": "SC",
        "district": "Centro",
        "street": "Rua Avanir Maria Freiberger",
        "zipcode": "88160-148"
    },
    {
        "city": "Biguaçu",
        "state": "SC",
        "district": "Centro",
        "street": "Rua Prefeito Leopoldo Freiberger",
        "zipcode": "88160-144"
    },
    {
        "city": "Biguaçu",
        "state": "SC",
        "district": "Centro",
        "street": "Rua Salima Salum",
        "zipcode": "88160-142"
    },
    {
        "city": "Biguaçu",
        "state": "SC",
        "district": "Centro",
        "street": "Rua Doutor Frank Traebert",
        "zipcode": "88160-140"
    },
    {
        "city": "Biguaçu",
        "state": "SC",
        "district": "Centro",
        "street": "Rua Coronel Teixeira Oliveira",
        "zipcode": "88160-130"
    },
    {
        "city": "Biguaçu",
        "state": "SC",
        "district": "Centro",
        "street": "Rua Lúcio Born",
        "zipcode": "88160-126"
    },
    {
        "city": "Biguaçu",
        "state": "SC",
        "district": "Centro",
        "street": "Rua Barão do Rio Branco",
        "zipcode": "88160-120"
    },
    {
        "city": "Biguaçu",
        "state": "SC",
        "district": "Centro",
        "street": "Rua Pedro José de Azevedo",
        "zipcode": "88160-118"
    },
    {
        "city": "Biguaçu",
        "state": "SC",
        "district": "Centro",
        "street": "Praça Nereu Ramos",
        "zipcode": "88160-116"
    },
    {
        "city": "Biguaçu",
        "state": "SC",
        "district": "Centro",
        "street": "Travessa João Amorim Lisboa",
        "zipcode": "88160-136"
    },
    {
        "city": "Biguaçu",
        "state": "SC",
        "district": "Centro",
        "street": "Travessa Luíza dos Reis Prazeres",
        "zipcode": "88160-132"
    },
    {
        "city": "Biguaçu",
        "state": "SC",
        "district": "Centro",
        "street": "Rua Getúlio Vargas",
        "zipcode": "88160-128"
    },
    {
        "city": "Biguaçu",
        "state": "SC",
        "district": "Centro",
        "street": "Rua Ana de Souza Leal Mendes",
        "zipcode": "88160-114"
    },
    {
        "city": "Biguaçu",
        "state": "SC",
        "district": "Centro",
        "street": "Rua Marechal Deodoro",
        "zipcode": "88160-080"
    },
    {
        "city": "Biguaçu",
        "state": "SC",
        "district": "Centro",
        "street": "Rua Coronel Emídio Amorim",
        "zipcode": "88160-078"
    },
    {
        "city": "Biguaçu",
        "state": "SC",
        "district": "Prado de Baixo",
        "street": "Rua Leonídio Muller",
        "zipcode": "88160-060"
    },
    {
        "city": "Biguaçu",
        "state": "SC",
        "district": "São Miguel (Guaporanga)",
        "street": "Servidão Nelson Juvêncio Rosa",
        "zipcode": "88168-026"
    },
    {
        "city": "Biguaçu",
        "state": "SC",
        "district": "Prado",
        "street": "Rua 5 (Lot. J. Anápolis)",
        "zipcode": "88165-162"
    },
    {
        "city": "Biguaçu",
        "state": "SC",
        "district": "Prado",
        "street": "Rua Maria Bernadete Carvalho",
        "zipcode": "88165-072"
    },
    {
        "city": "Biguaçu",
        "state": "SC",
        "district": "Beira Rio",
        "street": "Rua Abelino Guilherme Richartz",
        "zipcode": "88164-340"
    },
    {
        "city": "Biguaçu",
        "state": "SC",
        "district": "Centro",
        "street": "Rua Maria Antônia Chaves",
        "zipcode": "88160-208"
    },
    {
        "city": "Biguaçu",
        "state": "SC",
        "district": "Centro",
        "street": "Rua Maria Alves Wildner",
        "zipcode": "88160-196"
    },
    {
        "city": "Biguaçu",
        "state": "SC",
        "district": "Centro",
        "street": "Rua Hermogenes Prazeres",
        "zipcode": "88160-152"
    },
    {
        "city": "Biguaçu",
        "state": "SC",
        "district": "Centro",
        "street": "Rua João Amorim Rosa",
        "zipcode": "88160-070"
    },
    {
        "city": "Biguaçu",
        "state": "SC",
        "district": "Prado de Baixo",
        "street": "Rua Vista Bela",
        "zipcode": "88160-064"
    },
    {
        "city": "Biguaçu",
        "state": "SC",
        "district": "Prado de Baixo",
        "street": "Servidão Jerônymo Muller",
        "zipcode": "88160-062"
    },
    {
        "city": "Biguaçu",
        "state": "SC",
        "district": "Centro",
        "street": "Servidão Fábio Alvares da Silva",
        "zipcode": "88160-170"
    },
    {
        "city": "Biguaçu",
        "state": "SC",
        "district": "Vendaval",
        "street": "Rua Maria Salomé Schmitt",
        "zipcode": "88164-098"
    },
    {
        "city": "Biguaçu",
        "state": "SC",
        "district": "Jardim Janaína",
        "street": "Rua José Antônio Leal Neto",
        "zipcode": "88162-140"
    },
    {
        "city": "Biguaçu",
        "state": "SC",
        "district": "Fundos",
        "street": "Servidão Fotógrafo Luiz Carlos Moreira",
        "zipcode": "88161-354"
    },
    {
        "city": "Biguaçu",
        "state": "SC",
        "district": "Boa Vista",
        "street": "Servidão Manoel José de Souza Filho",
        "zipcode": "88161-148"
    },
    {
        "city": "Biguaçu",
        "state": "SC",
        "district": "Bom Viver",
        "street": "Rua Benta Soares Luiz",
        "zipcode": "88160-776"
    },
    {
        "city": "Biguaçu",
        "state": "SC",
        "district": "Bom Viver",
        "street": "Rua Lindomar Vieira",
        "zipcode": "88160-764"
    },
    {
        "city": "Biguaçu",
        "state": "SC",
        "district": "Bom Viver",
        "street": "Servidão Maria Coelho de Souza",
        "zipcode": "88160-650"
    },
    {
        "city": "Biguaçu",
        "state": "SC",
        "district": "Prado de Baixo",
        "street": "Rua Osvaldo Belarmino Guilherme",
        "zipcode": "88160-028"
    },
    {
        "city": "Biguaçu",
        "state": "SC",
        "district": "Prado de Baixo",
        "street": "Rua Antônio de Paula Xavier",
        "zipcode": "88160-024"
    },
    {
        "city": "Biguaçu",
        "state": "SC",
        "district": "Prado de Baixo",
        "street": "Servidão Souza Pereira",
        "zipcode": "88160-020"
    },
    {
        "city": "Biguaçu",
        "state": "SC",
        "district": "Prado de Baixo",
        "street": "Rua José Fermínio Marçal",
        "zipcode": "88160-016"
    },
    {
        "city": "Biguaçu",
        "state": "SC",
        "district": "Prado de Baixo",
        "street": "Rua João Manoel Mangrich",
        "zipcode": "88160-010"
    },
    {
        "city": "Biguaçu",
        "state": "SC",
        "district": "Prado de Baixo",
        "street": "Rua Erondina Stefanes Iachitzki",
        "zipcode": "88160-008"
    },
    {
        "city": "Biguaçu",
        "state": "SC",
        "district": "Centro",
        "street": "Rua Prefeito Lauro Locks",
        "zipcode": "88160-192"
    },
    {
        "city": "Biguaçu",
        "state": "SC",
        "district": "Centro",
        "street": "Servidão Rotílio Pereira",
        "zipcode": "88160-134"
    },
    {
        "city": "Biguaçu",
        "state": "SC",
        "district": "Prado de Baixo",
        "street": "Rua Josemar Guilherme",
        "zipcode": "88160-026"
    },
    {
        "city": "Biguaçu",
        "state": "SC",
        "district": "Prado de Baixo",
        "street": "Rua Luiz Dalmolin",
        "zipcode": "88160-014"
    },
    {
        "city": "Biguaçu",
        "state": "SC",
        "district": "Prado de Baixo",
        "street": "Rua Santa Isabel",
        "zipcode": "88160-002"
    },
    {
        "city": "Biguaçu",
        "state": "SC",
        "district": "Areias de Cima (Guaporanga)",
        "street": "Rua Urubici",
        "zipcode": "88168-688"
    },
    {
        "city": "Biguaçu",
        "state": "SC",
        "district": "Cachoeiras (Guaporanga)",
        "street": "Rua Antônio José Garcia",
        "zipcode": "88168-610"
    },
    {
        "city": "Biguaçu",
        "state": "SC",
        "district": "Tijuquinhas (Guaporanga)",
        "street": "Servidão Francisco Abelardo Gomes",
        "zipcode": "88168-282"
    },
    {
        "city": "Biguaçu",
        "state": "SC",
        "district": "Tijuquinhas (Guaporanga)",
        "street": "Servidão Juvêncio Gregório de Carvalho",
        "zipcode": "88168-278"
    },
    {
        "city": "Biguaçu",
        "state": "SC",
        "district": "Encruzilhada",
        "street": "Rua João Jacob",
        "zipcode": "88165-250"
    },
    {
        "city": "Biguaçu",
        "state": "SC",
        "district": "Saudade",
        "street": "Servidão José Coelho de Ávila",
        "zipcode": "88165-208"
    },
    {
        "city": "Biguaçu",
        "state": "SC",
        "district": "Prado",
        "street": "Rua Ana Paula Ratiere",
        "zipcode": "88165-159"
    },
    {
        "city": "Biguaçu",
        "state": "SC",
        "district": "Rio Caveiras",
        "street": "Servidão Rita Alexandrina de Jesus Soares",
        "zipcode": "88161-822"
    },
    {
        "city": "Biguaçu",
        "state": "SC",
        "district": "Fundos",
        "street": "Servidão Lúcio Sabino",
        "zipcode": "88161-440"
    },
    {
        "city": "Biguaçu",
        "state": "SC",
        "district": "Bom Viver",
        "street": "Rua Martinha Maria Rodrigues",
        "zipcode": "88160-614"
    },
    {
        "city": "Biguaçu",
        "state": "SC",
        "district": "Prado de Baixo",
        "street": "Rua Pery Cabral",
        "zipcode": "88160-001"
    },
    {
        "city": "Biguaçu",
        "state": "SC",
        "district": "Cachoeiras (Guaporanga)",
        "street": "Travessa José Lino da Cunha",
        "zipcode": "88168-558"
    },
    {
        "city": "Biguaçu",
        "state": "SC",
        "district": "Prado",
        "street": "Rua 13 de Maio",
        "zipcode": "88165-044"
    },
    {
        "city": "Biguaçu",
        "state": "SC",
        "district": "Vendaval",
        "street": "Rua Major Livramento",
        "zipcode": "88164-050"
    },
    {
        "city": "Biguaçu",
        "state": "SC",
        "district": "Vendaval",
        "street": "Rua Osvaldina Ana Garcia",
        "zipcode": "88164-048"
    },
    {
        "city": "Biguaçu",
        "state": "SC",
        "district": "Jardim Janaína",
        "street": "Servidão Francisco Adelar Machado",
        "zipcode": "88162-164"
    },
    {
        "city": "Biguaçu",
        "state": "SC",
        "district": "Rio Caveiras",
        "street": "Rua Cônego Rodolfo Machado",
        "zipcode": "88161-801"
    },
    {
        "city": "Biguaçu",
        "state": "SC",
        "district": "Boa Vista",
        "street": "Escadaria Manoel José de Oliveira",
        "zipcode": "88161-120"
    },
    {
        "city": "Biguaçu",
        "state": "SC",
        "district": "Universitário",
        "street": "Rua Bertoldo Simão de Oliveira",
        "zipcode": "88161-040"
    },
    {
        "city": "Biguaçu",
        "state": "SC",
        "district": "Bom Viver",
        "street": "Rua Edilar Ângelo Valter",
        "zipcode": "88160-706"
    },
    {
        "city": "Biguaçu",
        "state": "SC",
        "district": "Bom Viver",
        "street": "Servidão Cidade de Lauro Muller",
        "zipcode": "88160-642"
    },
    {
        "city": "Biguaçu",
        "state": "SC",
        "district": "Morro da Bina",
        "street": "Rua José Francelino do Amaral",
        "zipcode": "88160-489"
    },
    {
        "city": "Biguaçu",
        "state": "SC",
        "district": "Morro da Bina",
        "street": "Rua Viviane da Silva",
        "zipcode": "88160-483"
    },
    {
        "city": "Biguaçu",
        "state": "SC",
        "district": "Fundos",
        "street": "Rua Prefeito Hugo Amorim",
        "zipcode": "88161-370"
    },
    {
        "city": "Biguaçu",
        "state": "SC",
        "district": "Boa Vista",
        "street": "Rua José Schmitz",
        "zipcode": "88161-180"
    },
    {
        "city": "Biguaçu",
        "state": "SC",
        "district": "Saveiro",
        "street": "Rua Ângelo Ribeiro",
        "zipcode": "88160-391"
    },
    {
        "city": "Biguaçu",
        "state": "SC",
        "district": "Praia João Rosa",
        "street": "Servidão Mário Florentino Machado",
        "zipcode": "88160-366"
    },
    {
        "city": "Biguaçu",
        "state": "SC",
        "district": "Praia João Rosa",
        "street": "Rua José Zeferino de Souza",
        "zipcode": "88160-322"
    },
    {
        "city": "Biguaçu",
        "state": "SC",
        "district": "Praia João Rosa",
        "street": "Rua Vereador Benjamin Corrêa",
        "zipcode": "88160-372"
    },
    {
        "city": "Biguaçu",
        "state": "SC",
        "district": "Prado de Baixo",
        "street": "Rua São Jorge",
        "zipcode": "88160-004"
    },
    {
        "city": "Biguaçu",
        "state": "SC",
        "district": "Fundos",
        "street": "Servidão Antônio Vieira",
        "zipcode": "88161-445"
    },
    {
        "city": "Biguaçu",
        "state": "SC",
        "district": "Centro",
        "street": "Rua João Pessoa",
        "zipcode": "88160-110"
    },
    {
        "city": "Biguaçu",
        "state": "SC",
        "district": "Fundos",
        "street": "Rua Neri Odilon Cardoso",
        "zipcode": "88161-473"
    },
    {
        "city": "Biguaçu",
        "state": "SC",
        "district": "Saveiro",
        "street": "Rua Solimões",
        "zipcode": "88160-412"
    },
    {
        "city": "Biguaçu",
        "state": "SC",
        "district": "Centro",
        "street": "Travessa Plácido de Castro",
        "zipcode": "88160-124"
    },
    {
        "city": "Biguaçu",
        "state": "SC",
        "district": "Areias de Cima (Guaporanga)",
        "street": "Rua Tijucas",
        "zipcode": "88168-682"
    },
    {
        "city": "Biguaçu",
        "state": "SC",
        "district": "Centro",
        "street": "Rua João Born",
        "zipcode": "88160-074"
    },
    {
        "city": "Biguaçu",
        "state": "SC",
        "district": "Areias de Cima (Guaporanga)",
        "street": "Rua Caçador",
        "zipcode": "88168-692"
    },
    {
        "city": "Biguaçu",
        "state": "SC",
        "district": "Mar das Pedras",
        "street": "Rua 3 (Lot. Gênova)",
        "zipcode": "88160-510"
    },
    {
        "city": "Biguaçu",
        "state": "SC",
        "district": "Centro",
        "street": "Servidão Domingos Raimundo",
        "zipcode": "88160-176"
    },
    {
        "city": "Biguaçu",
        "state": "SC",
        "district": "Bom Viver",
        "street": "Rua Nilson João Vieira",
        "zipcode": "88160-735"
    },
    {
        "city": "Biguaçu",
        "state": "SC",
        "district": "Jardim Janaína",
        "street": "Rua José Mangrich",
        "zipcode": "88162-168"
    },
    {
        "city": "Biguaçu",
        "state": "SC",
        "district": "Centro",
        "street": "Rua Marechal Floriano Peixoto",
        "zipcode": "88160-076"
    },
    {
        "city": "Biguaçu",
        "state": "SC",
        "district": "Tijuquinhas (Guaporanga)",
        "street": "Rua Ipacaray",
        "zipcode": "88168-492"
    },
    {
        "city": "Biguaçu",
        "state": "SC",
        "district": "Fundos",
        "street": "Rua Emídio Goulart",
        "zipcode": "88161-524"
    },
    {
        "city": "Biguaçu",
        "state": "SC",
        "district": "Fundos",
        "street": "Rua Hilda Ana Machado",
        "zipcode": "88161-536"
    },
    {
        "city": "Biguaçu",
        "state": "SC",
        "district": "Rio Caveiras",
        "street": "Rua Clovis Medeiros e Silva",
        "zipcode": "88161-688"
    },
    {
        "city": "Biguaçu",
        "state": "SC",
        "district": "Fundos",
        "street": "Rua Manoel Francisco Machado",
        "zipcode": "88161-516"
    },
    {
        "city": "Biguaçu",
        "state": "SC",
        "district": "Fundos",
        "street": "Rua Pedro José Martins",
        "zipcode": "88161-520"
    },
    {
        "city": "Biguaçu",
        "state": "SC",
        "district": "Rio Caveiras",
        "street": "Rua Pedro Paulo de Souza",
        "zipcode": "88161-676"
    },
    {
        "city": "Biguaçu",
        "state": "SC",
        "district": "Fundos",
        "street": "Rua Antônio Gaspar Filho",
        "zipcode": "88161-392"
    },
    {
        "city": "Biguaçu",
        "state": "SC",
        "district": "Rio Caveiras",
        "street": "Rua Gumercindo Manoel Ferreira",
        "zipcode": "88161-584"
    },
    {
        "city": "Biguaçu",
        "state": "SC",
        "district": "Fundos",
        "street": "Servidão Hélio Wollinger",
        "zipcode": "88161-538"
    },
    {
        "city": "Biguaçu",
        "state": "SC",
        "district": "Rio Caveiras",
        "street": "Rua Pedro Veríssimo das Neves",
        "zipcode": "88161-628"
    },
    {
        "city": "Biguaçu",
        "state": "SC",
        "district": "Fundos",
        "street": "Travessa Cecília Zimmermann Muller",
        "zipcode": "88161-518"
    },
    {
        "city": "Biguaçu",
        "state": "SC",
        "district": "Mar das Pedras",
        "street": "Rua 2 (Lot. Gênova)",
        "zipcode": "88160-508"
    },
    {
        "city": "Biguaçu",
        "state": "SC",
        "district": "Areias de Cima (Guaporanga)",
        "street": "Rua Paulo Lopes",
        "zipcode": "88168-684"
    },
    {
        "city": "Biguaçu",
        "state": "SC",
        "district": "Prado",
        "street": "Rua São Lourenço",
        "zipcode": "88165-076"
    },
    {
        "city": "Biguaçu",
        "state": "SC",
        "district": "São Miguel (Guaporanga)",
        "street": "Rodovia BR",
        "zipcode": "88168-090"
    },
    {
        "city": "Biguaçu",
        "state": "SC",
        "district": "Fundos",
        "street": "Rua Vanderléia Teotonia de Faria",
        "zipcode": "88161-388"
    },
    {
        "city": "Biguaçu",
        "state": "SC",
        "district": "Praia João Rosa",
        "street": "Travessa Júlio Minervino de Azevedo",
        "zipcode": "88160-348"
    },
    {
        "city": "Biguaçu",
        "state": "SC",
        "district": "Universitário",
        "street": "Rua João Coan",
        "zipcode": "88161-064"
    },
    {
        "city": "Biguaçu",
        "state": "SC",
        "district": "Vendaval",
        "street": "Rua Marechal Deodoro",
        "zipcode": "88164-106"
    },
    {
        "city": "Biguaçu",
        "state": "SC",
        "district": "Jardim Janaína",
        "street": "Rua Bartolomeu José Schmitt",
        "zipcode": "88162-158"
    },
    {
        "city": "Biguaçu",
        "state": "SC",
        "district": "Rio Caveiras",
        "street": "Rua Egílio Machado",
        "zipcode": "88161-798"
    },
    {
        "city": "Biguaçu",
        "state": "SC",
        "district": "Centro",
        "street": "Servidão Júlio Husadel de Amorim",
        "zipcode": "88160-172"
    },
    {
        "city": "Biguaçu",
        "state": "SC",
        "district": "Vendaval",
        "street": "Rua Juliana Ceri de Oliveira",
        "zipcode": "88164-120"
    },
    {
        "city": "Biguaçu",
        "state": "SC",
        "district": "Jardim Janaína",
        "street": "Rua Davito Fernandes Gorges",
        "zipcode": "88162-225"
    },
    {
        "city": "Biguaçu",
        "state": "SC",
        "district": "Fundos",
        "street": "Servidão José Francisco de Andrade",
        "zipcode": "88161-430"
    },
    {
        "city": "Biguaçu",
        "state": "SC",
        "district": "Fundos",
        "street": "Rua Campolino Paulino da Silveira",
        "zipcode": "88161-382"
    },
    {
        "city": "Biguaçu",
        "state": "SC",
        "district": "Boa Vista",
        "street": "Servidão Orlando Matias Nau",
        "zipcode": "88161-146"
    },
    {
        "city": "Biguaçu",
        "state": "SC",
        "district": "Praia João Rosa",
        "street": "Travessa Waldemar Ernesto Nunes",
        "zipcode": "88160-278"
    },
    {
        "city": "Biguaçu",
        "state": "SC",
        "district": "Boa Vista",
        "street": "Rua Rosa Lima de Souza",
        "zipcode": "88161-131"
    },
    {
        "city": "Biguaçu",
        "state": "SC",
        "district": "Areias de Cima (Guaporanga)",
        "street": "Rua Imbituba",
        "zipcode": "88168-686"
    },
    {
        "city": "Biguaçu",
        "state": "SC",
        "district": "Jardim Janaína",
        "street": "Servidão José Coelho",
        "zipcode": "88162-174"
    },
    {
        "city": "Biguaçu",
        "state": "SC",
        "district": "Jardim Janaína",
        "street": "Rua Guilherme Valdir Nascimento",
        "zipcode": "88162-160"
    },
    {
        "city": "Biguaçu",
        "state": "SC",
        "district": "Jardim Janaína",
        "street": "Rua Maria Benvinda Souza",
        "zipcode": "88162-126"
    },
    {
        "city": "Biguaçu",
        "state": "SC",
        "district": "Fundos",
        "street": "Rua Osnildo Artur Marcelino",
        "zipcode": "88161-365"
    },
    {
        "city": "Biguaçu",
        "state": "SC",
        "district": "Jardim Janaína",
        "street": "Rua Delorme dos Santos Martins",
        "zipcode": "88162-148"
    },
    {
        "city": "Biguaçu",
        "state": "SC",
        "district": "Centro",
        "street": "Rua Frederico Bunn",
        "zipcode": "88160-112"
    },
    {
        "city": "Biguaçu",
        "state": "SC",
        "district": "São Miguel (Guaporanga)",
        "street": "Servidão Antônio José de Simas",
        "zipcode": "88168-238"
    },
    {
        "city": "Biguaçu",
        "state": "SC",
        "district": "Rio Caveiras",
        "street": "Rua Julio Teodoro Martins",
        "zipcode": "88161-620"
    },
    {
        "city": "Biguaçu",
        "state": "SC",
        "district": "Rio Caveiras",
        "street": "Rua José Vieira de Souza",
        "zipcode": "88161-630"
    },
    {
        "city": "Biguaçu",
        "state": "SC",
        "district": "Areias de Cima (Guaporanga)",
        "street": "Rua Camboriú",
        "zipcode": "88168-708"
    },
    {
        "city": "Biguaçu",
        "state": "SC",
        "district": "Fundos",
        "street": "Rua Osvaldino Gustavo Vieira",
        "zipcode": "88161-348"
    },
    {
        "city": "Biguaçu",
        "state": "SC",
        "district": "Boa Vista",
        "street": "Escadaria Francisca Maria de Amorim",
        "zipcode": "88161-118"
    },
    {
        "city": "Biguaçu",
        "state": "SC",
        "district": "Tijuquinhas (Guaporanga)",
        "street": "Rua Hermínio Silvy",
        "zipcode": "88168-380"
    },
    {
        "city": "Biguaçu",
        "state": "SC",
        "district": "Beira Rio",
        "street": "Avenida Principal (Loteamento Cicob)",
        "zipcode": "88164-270"
    },
    {
        "city": "Biguaçu",
        "state": "SC",
        "district": "Bom Viver",
        "street": "Servidão Vanderson Alves dos Santos",
        "zipcode": "88160-664"
    },
    {
        "city": "Biguaçu",
        "state": "SC",
        "district": "Morro da Bina",
        "street": "Rua Cecília Maria José Azevedo",
        "zipcode": "88160-450"
    },
    {
        "city": "Biguaçu",
        "state": "SC",
        "district": "Prado de Baixo",
        "street": "Rua Joaquim Narciso de Souza",
        "zipcode": "88160-012"
    },
    {
        "city": "Biguaçu",
        "state": "SC",
        "district": "Areias de Cima (Guaporanga)",
        "street": "Rua Arnaldo João Pereira",
        "zipcode": "88168-744"
    },
    {
        "city": "Biguaçu",
        "state": "SC",
        "district": "Areias de Cima (Guaporanga)",
        "street": "Rua Três Riachos",
        "zipcode": "88168-710"
    },
    {
        "city": "Biguaçu",
        "state": "SC",
        "district": "Cachoeiras (Guaporanga)",
        "street": "Rua Salustiano Garcia",
        "zipcode": "88168-626"
    },
    {
        "city": "Biguaçu",
        "state": "SC",
        "district": "Centro",
        "street": "Travessa Anoraldo Borba",
        "zipcode": "88160-160"
    },
    {
        "city": "Biguaçu",
        "state": "SC",
        "district": "Areias de Cima (Guaporanga)",
        "street": "Rua Margarida Gonçalves de Simas",
        "zipcode": "88168-732"
    },
    {
        "city": "Biguaçu",
        "state": "SC",
        "district": "Rio Caveiras",
        "street": "Servidão José João de Andrade",
        "zipcode": "88161-810"
    },
    {
        "city": "Biguaçu",
        "state": "SC",
        "district": "Cachoeiras (Guaporanga)",
        "street": "Rua Noemi da Trindade Xavier",
        "zipcode": "88168-630"
    },
    {
        "city": "Biguaçu",
        "state": "SC",
        "district": "Areias de Cima (Guaporanga)",
        "street": "Rua Antônio Carlos",
        "zipcode": "88168-698"
    },
    {
        "city": "Biguaçu",
        "state": "SC",
        "district": "Areias de Cima (Guaporanga)",
        "street": "Rua Geral Jardim Carolina",
        "zipcode": "88168-680"
    },
    {
        "city": "Biguaçu",
        "state": "SC",
        "district": "Cachoeiras (Guaporanga)",
        "street": "Servidão Walmir Hercílio Garcia",
        "zipcode": "88168-614"
    },
    {
        "city": "Biguaçu",
        "state": "SC",
        "district": "Cachoeiras (Guaporanga)",
        "street": "Acesso Lateral BR",
        "zipcode": "88168-556"
    },
    {
        "city": "Biguaçu",
        "state": "SC",
        "district": "Tijuquinhas (Guaporanga)",
        "street": "Travessa Maria Salomé Ventura",
        "zipcode": "88168-500"
    },
    {
        "city": "Biguaçu",
        "state": "SC",
        "district": "Tijuquinhas (Guaporanga)",
        "street": "Rodovia BR",
        "zipcode": "88168-400"
    },
    {
        "city": "Biguaçu",
        "state": "SC",
        "district": "Cachoeiras (Guaporanga)",
        "street": "Rua José Manoel",
        "zipcode": "88168-634"
    },
    {
        "city": "Biguaçu",
        "state": "SC",
        "district": "Cachoeiras (Guaporanga)",
        "street": "Rua Osvaldo Alves Setubal",
        "zipcode": "88168-552"
    },
    {
        "city": "Biguaçu",
        "state": "SC",
        "district": "Tijuquinhas (Guaporanga)",
        "street": "Rodovia BR",
        "zipcode": "88168-270"
    },
    {
        "city": "Biguaçu",
        "state": "SC",
        "district": "São Miguel (Guaporanga)",
        "street": "Rua Jovita Gonçalves Freire",
        "zipcode": "88168-129"
    },
    {
        "city": "Biguaçu",
        "state": "SC",
        "district": "São Miguel (Guaporanga)",
        "street": "Beco Américo",
        "zipcode": "88168-126"
    },
    {
        "city": "Biguaçu",
        "state": "SC",
        "district": "São Miguel (Guaporanga)",
        "street": "Rua Florentino Bertolino da Costa",
        "zipcode": "88168-023"
    },
    {
        "city": "Biguaçu",
        "state": "SC",
        "district": "Encruzilhada",
        "street": "Rua 13 de Maio",
        "zipcode": "88165-270"
    },
    {
        "city": "Biguaçu",
        "state": "SC",
        "district": "Saudade",
        "street": "Servidão Antônio Domingos de Campos",
        "zipcode": "88165-200"
    },
    {
        "city": "Biguaçu",
        "state": "SC",
        "district": "Prado",
        "street": "Servidão Nadir de Andrade",
        "zipcode": "88165-168"
    },
    {
        "city": "Biguaçu",
        "state": "SC",
        "district": "Prado",
        "street": "Servidão Olivio João Marcelino",
        "zipcode": "88165-006"
    },
    {
        "city": "Biguaçu",
        "state": "SC",
        "district": "Vendaval",
        "street": "Rodovia SC",
        "zipcode": "88164-169"
    },
    {
        "city": "Biguaçu",
        "state": "SC",
        "district": "Prado",
        "street": "Rua Marina Setubal da Costa",
        "zipcode": "88165-003"
    },
    {
        "city": "Biguaçu",
        "state": "SC",
        "district": "Vendaval",
        "street": "Servidão Maria Goreti Matias",
        "zipcode": "88164-130"
    },
    {
        "city": "Biguaçu",
        "state": "SC",
        "district": "Vendaval",
        "street": "Rua Nilton Fermino da Silva",
        "zipcode": "88164-092"
    },
    {
        "city": "Biguaçu",
        "state": "SC",
        "district": "Beira Rio",
        "street": "Avenida Egídio Abelino Richartz",
        "zipcode": "88164-240"
    },
    {
        "city": "Biguaçu",
        "state": "SC",
        "district": "Vendaval",
        "street": "Rua José Francisco Junkes",
        "zipcode": "88164-078"
    },
    {
        "city": "Biguaçu",
        "state": "SC",
        "district": "Vendaval",
        "street": "Rua São João Evangelista",
        "zipcode": "88164-055"
    },
    {
        "city": "Biguaçu",
        "state": "SC",
        "district": "Jardim Janaína",
        "street": "Servidão José Francisco Goulart",
        "zipcode": "88162-222"
    },
    {
        "city": "Biguaçu",
        "state": "SC",
        "district": "Rio Caveiras",
        "street": "Rua Germano Manoel Ferreira",
        "zipcode": "88161-813"
    },
    {
        "city": "Biguaçu",
        "state": "SC",
        "district": "Jardim Janaína",
        "street": "Rua Maria Soares de Souza",
        "zipcode": "88162-128"
    },
    {
        "city": "Biguaçu",
        "state": "SC",
        "district": "Jardim Janaína",
        "street": "Rua Doracy Atalício Santana",
        "zipcode": "88162-036"
    },
    {
        "city": "Biguaçu",
        "state": "SC",
        "district": "Jardim Janaína",
        "street": "Servidão Geraldo Amaro Cavalcante",
        "zipcode": "88162-154"
    },
    {
        "city": "Biguaçu",
        "state": "SC",
        "district": "Rio Caveiras",
        "street": "Rua Manoel Apolinário Ferreira",
        "zipcode": "88161-819"
    },
    {
        "city": "Biguaçu",
        "state": "SC",
        "district": "Rio Caveiras",
        "street": "Rua Célio de Oliveira",
        "zipcode": "88161-789"
    },
    {
        "city": "Biguaçu",
        "state": "SC",
        "district": "Rio Caveiras",
        "street": "Rua Vereador Antônio Fagundes",
        "zipcode": "88161-718"
    },
    {
        "city": "Biguaçu",
        "state": "SC",
        "district": "Rio Caveiras",
        "street": "Rua Quintino Bocaiúva",
        "zipcode": "88161-750"
    },
    {
        "city": "Biguaçu",
        "state": "SC",
        "district": "Fundos",
        "street": "Servidão Amâncio Sebastião Schudt",
        "zipcode": "88161-510"
    },
    {
        "city": "Biguaçu",
        "state": "SC",
        "district": "Saveiro",
        "street": "Rua Tapajós",
        "zipcode": "88160-402"
    },
    {
        "city": "Biguaçu",
        "state": "SC",
        "district": "Fundos",
        "street": "Rua Laudeli José Kretzer",
        "zipcode": "88161-340"
    },
    {
        "city": "Biguaçu",
        "state": "SC",
        "district": "Fundos",
        "street": "Rua Bertoldo Simão de Oliveira",
        "zipcode": "88161-280"
    },
    {
        "city": "Biguaçu",
        "state": "SC",
        "district": "Fundos",
        "street": "Rua Maria Anna Francisco",
        "zipcode": "88161-380"
    },
    {
        "city": "Biguaçu",
        "state": "SC",
        "district": "Fundos",
        "street": "Servidão Antonia Maria de Jesus",
        "zipcode": "88161-356"
    },
    {
        "city": "Biguaçu",
        "state": "SC",
        "district": "Fundos",
        "street": "Rua Alfredo João Fermiano",
        "zipcode": "88161-283"
    },
    {
        "city": "Biguaçu",
        "state": "SC",
        "district": "Rio Caveiras",
        "street": "Rua Inez Maria Ferreira",
        "zipcode": "88161-698"
    },
    {
        "city": "Biguaçu",
        "state": "SC",
        "district": "Fundos",
        "street": "Rua São Francisco de Paula",
        "zipcode": "88161-425"
    },
    {
        "city": "Biguaçu",
        "state": "SC",
        "district": "Boa Vista",
        "street": "Servidão Silvestre Prim",
        "zipcode": "88161-144"
    },
    {
        "city": "Biguaçu",
        "state": "SC",
        "district": "Fundos",
        "street": "Servidão Adilson Fermiano",
        "zipcode": "88161-286"
    },
    {
        "city": "Biguaçu",
        "state": "SC",
        "district": "Boa Vista",
        "street": "Servidão Amâncio Vieira",
        "zipcode": "88161-114"
    },
    {
        "city": "Biguaçu",
        "state": "SC",
        "district": "Universitário",
        "street": "Rua Basilicio Consesso Garcia",
        "zipcode": "88161-028"
    },
    {
        "city": "Biguaçu",
        "state": "SC",
        "district": "Boa Vista",
        "street": "Servidão Cachoeira",
        "zipcode": "88161-128"
    },
    {
        "city": "Biguaçu",
        "state": "SC",
        "district": "Bom Viver",
        "street": "Servidão Emílio Serafim Duarte",
        "zipcode": "88160-746"
    },
    {
        "city": "Biguaçu",
        "state": "SC",
        "district": "Bom Viver",
        "street": "Rua Rosa Elias Meira",
        "zipcode": "88160-736"
    },
    {
        "city": "Biguaçu",
        "state": "SC",
        "district": "Bom Viver",
        "street": "Rua 1º de Maio",
        "zipcode": "88160-702"
    },
    {
        "city": "Biguaçu",
        "state": "SC",
        "district": "Bom Viver",
        "street": "Rua Elizabete da Silva Moura",
        "zipcode": "88160-718"
    },
    {
        "city": "Biguaçu",
        "state": "SC",
        "district": "Jardim Janaína",
        "street": "Rua Euclides João dos Santos",
        "zipcode": "88162-132"
    },
    {
        "city": "Biguaçu",
        "state": "SC",
        "district": "Bom Viver",
        "street": "Rua Manoel Henrique Lopes",
        "zipcode": "88160-766"
    },
    {
        "city": "Biguaçu",
        "state": "SC",
        "district": "Bom Viver",
        "street": "Rua Francisco Luiz Ferreira",
        "zipcode": "88160-672"
    },
    {
        "city": "Biguaçu",
        "state": "SC",
        "district": "Bom Viver",
        "street": "Travessa Antônio Gabriel Prim",
        "zipcode": "88160-612"
    },
    {
        "city": "Biguaçu",
        "state": "SC",
        "district": "Morro da Bina",
        "street": "Rua Alexandre Sérgio Godinho",
        "zipcode": "88160-486"
    },
    {
        "city": "Biguaçu",
        "state": "SC",
        "district": "Saveiro",
        "street": "Rua Sebastião Narciso Vargas",
        "zipcode": "88160-392"
    },
    {
        "city": "Biguaçu",
        "state": "SC",
        "district": "Saveiro",
        "street": "Rua Ivai",
        "zipcode": "88160-384"
    },
    {
        "city": "Biguaçu",
        "state": "SC",
        "district": "Morro da Bina",
        "street": "Rua Castro Alves",
        "zipcode": "88160-465"
    },
    {
        "city": "Biguaçu",
        "state": "SC",
        "district": "Saveiro",
        "street": "Rua Cecília Maria José Azevedo",
        "zipcode": "88160-380"
    },
    {
        "city": "Biguaçu",
        "state": "SC",
        "district": "Praia João Rosa",
        "street": "Rua Gregório Constâncio",
        "zipcode": "88160-344"
    },
    {
        "city": "Biguaçu",
        "state": "SC",
        "district": "Praia João Rosa",
        "street": "Servidão Helmut Wasielenski",
        "zipcode": "88160-376"
    },
    {
        "city": "Biguaçu",
        "state": "SC",
        "district": "Praia João Rosa",
        "street": "Rua João da Silva",
        "zipcode": "88160-316"
    },
    {
        "city": "Biguaçu",
        "state": "SC",
        "district": "Centro",
        "street": "Rua 7 de Setembro",
        "zipcode": "88160-202"
    },
    {
        "city": "Biguaçu",
        "state": "SC",
        "district": "Praia João Rosa",
        "street": "Servidão Germano Fernando Vieira",
        "zipcode": "88160-314"
    },
    {
        "city": "Biguaçu",
        "state": "SC",
        "district": "Praia João Rosa",
        "street": "Rua Vilmar Salles",
        "zipcode": "88160-312"
    },
    {
        "city": "Biguaçu",
        "state": "SC",
        "district": "Centro",
        "street": "Rua Agostinho José de Faria",
        "zipcode": "88160-198"
    },
    {
        "city": "Biguaçu",
        "state": "SC",
        "district": "Centro",
        "street": "Servidão Manoel Francelino Duarte",
        "zipcode": "88160-188"
    },
    {
        "city": "Biguaçu",
        "state": "SC",
        "district": "Centro",
        "street": "Servidão João Madeira Reis",
        "zipcode": "88160-174"
    },
    {
        "city": "Biguaçu",
        "state": "SC",
        "district": "Centro",
        "street": "Avenida Marcondes de Mattos",
        "zipcode": "88160-146"
    },
    {
        "city": "Biguaçu",
        "state": "SC",
        "district": "Centro",
        "street": "Rua Marcondes de Mattos",
        "zipcode": "88160-138"
    },
    {
        "city": "Biguaçu",
        "state": "SC",
        "district": "Prado de Baixo",
        "street": "Rua José Edgar Balcasar Martinez",
        "zipcode": "88160-032"
    },
    {
        "city": "Biguaçu",
        "state": "SC",
        "district": "Vendaval",
        "street": "Servidão Arnoldo Pedro Zimmermann",
        "zipcode": "88164-045"
    },
    {
        "city": "Biguaçu",
        "state": "SC",
        "district": "Boa Vista",
        "street": "Servidão Pedro Joaquim de Andrade",
        "zipcode": "88161-240"
    },
    {
        "city": "Biguaçu",
        "state": "SC",
        "district": "Prado de Baixo",
        "street": "Servidão Manoel Aníbal Lino",
        "zipcode": "88160-022"
    },
    {
        "city": "Biguaçu",
        "state": "SC",
        "district": "Centro",
        "street": "Rua Professor Antônio Pereira da Silva",
        "zipcode": "88160-200"
    },
    {
        "city": "Biguaçu",
        "state": "SC",
        "district": "São Miguel (Guaporanga)",
        "street": "Servidão Laura Ramos Geraldo",
        "zipcode": "88168-060"
    },
    {
        "city": "Biguaçu",
        "state": "SC",
        "district": "Praia João Rosa",
        "street": "Servidão Alcionei Alcides de Jesus",
        "zipcode": "88160-356"
    },
    {
        "city": "Biguaçu",
        "state": "SC",
        "district": "Areias de Cima (Guaporanga)",
        "street": "Rua Olívio Rafael Schula",
        "zipcode": "88168-742"
    },
    {
        "city": "Biguaçu",
        "state": "SC",
        "district": "São Miguel (Guaporanga)",
        "street": "Servidão Orlando Bertolino Costa",
        "zipcode": "88168-108"
    },
    {
        "city": "Biguaçu",
        "state": "SC",
        "district": "Mar das Pedras",
        "street": "Servidão Pedro Rodolfo Fabrício",
        "zipcode": "88160-522"
    },
    {
        "city": "Biguaçu",
        "state": "SC",
        "district": "Jardim Janaína",
        "street": "Rua Sérgio Murilo Martins",
        "zipcode": "88162-045"
    },
    {
        "city": "Biguaçu",
        "state": "SC",
        "district": "Praia João Rosa",
        "street": "Avenida Francisco Roberto da Silva",
        "zipcode": "88160-288"
    },
    {
        "city": "Biguaçu",
        "state": "SC",
        "district": "São Miguel (Guaporanga)",
        "street": "Travessa do Garcia",
        "zipcode": "88168-120"
    },
    {
        "city": "Biguaçu",
        "state": "SC",
        "district": "Rio Caveiras",
        "street": "Avenida Vereador Esmeraldino Prazeres",
        "zipcode": "88161-722"
    },
    {
        "city": "Biguaçu",
        "state": "SC",
        "district": "Prado de Baixo",
        "street": "Rua Fernando Amâncio Rodrigues",
        "zipcode": "88160-006"
    },
    {
        "city": "Biguaçu",
        "state": "SC",
        "district": "Rio Caveiras",
        "street": "Servidão Alvorada",
        "zipcode": "88161-765"
    },
    {
        "city": "Biguaçu",
        "state": "SC",
        "district": "Bom Viver",
        "street": "Servidão Dilma Izaltina Tomaz",
        "zipcode": "88160-737"
    },
    {
        "city": "Biguaçu",
        "state": "SC",
        "district": "Bom Viver",
        "street": "Rua Paulo Zimmermann",
        "zipcode": "88160-580"
    },
    {
        "city": "Biguaçu",
        "state": "SC",
        "district": "Bom Viver",
        "street": "Rua Maria Lavinia de Souza",
        "zipcode": "88160-644"
    },
    {
        "city": "Biguaçu",
        "state": "SC",
        "district": "Fundos",
        "street": "Servidão Gildo Agostinho Vieira",
        "zipcode": "88161-342"
    },
    {
        "city": "Biguaçu",
        "state": "SC",
        "district": "Centro",
        "street": "Servidão Leonel Eleutério Ramos",
        "zipcode": "88160-166"
    },
    {
        "city": "Biguaçu",
        "state": "SC",
        "district": "Bom Viver",
        "street": "Servidão Almeri José Zimmer",
        "zipcode": "88160-726"
    },
    {
        "city": "Biguaçu",
        "state": "SC",
        "district": "Bom Viver",
        "street": "Servidão João Turíbio Rodrigues",
        "zipcode": "88160-742"
    },
    {
        "city": "Biguaçu",
        "state": "SC",
        "district": "Prado",
        "street": "Servidão Saymon Fernandes da Cunha",
        "zipcode": "88165-014"
    },
    {
        "city": "Biguaçu",
        "state": "SC",
        "district": "Centro",
        "street": "Rua 7 de Setembro",
        "zipcode": "88160-970"
    },
    {
        "city": "Biguaçu",
        "state": "SC",
        "district": "Fundos",
        "street": "Servidão Vereador Bertoldo José Costa",
        "zipcode": "88161-540"
    },
    {
        "city": "Biguaçu",
        "state": "SC",
        "district": "Rio Caveiras",
        "street": "Rua Eurico Garbelotto",
        "zipcode": "88161-582"
    },
    {
        "city": "Biguaçu",
        "state": "SC",
        "district": "São Miguel (Guaporanga)",
        "street": "Travessa Nemésio José da Luz",
        "zipcode": "88168-241"
    },
    {
        "city": "Biguaçu",
        "state": "SC",
        "district": "São Miguel (Guaporanga)",
        "street": "Servidão Hermano José de Souza",
        "zipcode": "88168-244"
    },
    {
        "city": "Biguaçu",
        "state": "SC",
        "district": "Rio Caveiras",
        "street": "Servidão Francisca Ferreira Francisco",
        "zipcode": "88161-678"
    },
    {
        "city": "Biguaçu",
        "state": "SC",
        "district": "Rio Caveiras",
        "street": "Rua Prefeito Hugo Amorim",
        "zipcode": "88161-684"
    },
    {
        "city": "Biguaçu",
        "state": "SC",
        "district": "Areias de Cima (Guaporanga)",
        "street": "Rua Joinville",
        "zipcode": "88168-690"
    },
    {
        "city": "Biguaçu",
        "state": "SC",
        "district": "Praia João Rosa",
        "street": "Servidão das Kissaças",
        "zipcode": "88160-273"
    },
    {
        "city": "Biguaçu",
        "state": "SC",
        "district": "Fundos",
        "street": "Servidão Eronildo Mafra",
        "zipcode": "88161-334"
    },
    {
        "city": "Biguaçu",
        "state": "SC",
        "district": "Areias de Cima (Guaporanga)",
        "street": "Rua Itajaí",
        "zipcode": "88168-702"
    },
    {
        "city": "Biguaçu",
        "state": "SC",
        "district": "Encruzilhada",
        "street": "Rodovia Prefeito João Brasil de Azevedo",
        "zipcode": "88165-370"
    },
    {
        "city": "Biguaçu",
        "state": "SC",
        "district": "Beira Rio",
        "street": "Avenida Deltaville",
        "zipcode": "88164-230"
    },
    {
        "city": "Biguaçu",
        "state": "SC",
        "district": null,
        "street": "Rodovia BR",
        "zipcode": "88160-991"
    },
    {
        "city": "Biguaçu",
        "state": "SC",
        "district": "Bom Viver",
        "street": "Travessa Maura Georgina Soares",
        "zipcode": "88160-618"
    },
    {
        "city": "Biguaçu",
        "state": "SC",
        "district": "Areias de Cima (Guaporanga)",
        "street": "Rua Feliciano Francisco Gonçalves",
        "zipcode": "88168-736"
    },
    {
        "city": "Biguaçu",
        "state": "SC",
        "district": "Saudade",
        "street": "Servidão Ivanilde de Souza",
        "zipcode": "88165-232"
    }
]