[
    {
        "city": "Camboriú",
        "state": "SC",
        "district": "Centro",
        "street": "Rua João Morais",
        "zipcode": "88340-338"
    },
    {
        "city": "Camboriú",
        "state": "SC",
        "district": "Santa Regina",
        "street": "Rua Cairo",
        "zipcode": "88345-602"
    },
    {
        "city": "Camboriú",
        "state": "SC",
        "district": "Rio Pequeno",
        "street": "Rua Rio Atuba",
        "zipcode": "88343-445"
    },
    {
        "city": "Camboriú",
        "state": "SC",
        "district": "Areias",
        "street": "Rua Cuiabá",
        "zipcode": "88345-245"
    },
    {
        "city": "Camboriú",
        "state": "SC",
        "district": "Rio Pequeno",
        "street": "Rua Rio Novo",
        "zipcode": "88343-609"
    },
    {
        "city": "Camboriú",
        "state": "SC",
        "district": "Santa Regina",
        "street": "Rua Edimburgo",
        "zipcode": "88345-503"
    },
    {
        "city": "Camboriú",
        "state": "SC",
        "district": "Tabuleiro (Monte Alegre)",
        "street": "Rua Pinheiro",
        "zipcode": "88348-240"
    },
    {
        "city": "Camboriú",
        "state": "SC",
        "district": "Santa Regina",
        "street": "Rua Luxemburgo",
        "zipcode": "88345-747"
    },
    {
        "city": "Camboriú",
        "state": "SC",
        "district": "Tabuleiro (Monte Alegre)",
        "street": "Rua Pedra Vermelha",
        "zipcode": "88348-012"
    },
    {
        "city": "Camboriú",
        "state": "SC",
        "district": "Tabuleiro (Monte Alegre)",
        "street": "Rua Pinho",
        "zipcode": "88348-249"
    },
    {
        "city": "Camboriú",
        "state": "SC",
        "district": "Rio Pequeno",
        "street": "Rua Rio do Ouro",
        "zipcode": "88343-465"
    },
    {
        "city": "Camboriú",
        "state": "SC",
        "district": "Rio Pequeno",
        "street": "Rua Rio Carreiro",
        "zipcode": "88343-455"
    },
    {
        "city": "Camboriú",
        "state": "SC",
        "district": "Rio Pequeno",
        "street": "Rua Rio das Flores",
        "zipcode": "88343-462"
    },
    {
        "city": "Camboriú",
        "state": "SC",
        "district": "Rio Pequeno",
        "street": "Rua Rio Belo",
        "zipcode": "88343-425"
    },
    {
        "city": "Camboriú",
        "state": "SC",
        "district": "Rio Pequeno",
        "street": "Rua Rio dos Cedros",
        "zipcode": "88343-449"
    },
    {
        "city": "Camboriú",
        "state": "SC",
        "district": "Rio Pequeno",
        "street": "Rua Rio Pontinga",
        "zipcode": "88343-475"
    },
    {
        "city": "Camboriú",
        "state": "SC",
        "district": "Areias",
        "street": "Rua Jaime Cesário Pereira",
        "zipcode": "88345-012"
    },
    {
        "city": "Camboriú",
        "state": "SC",
        "district": "Centro",
        "street": "Rua Basílio Pedro da Silva",
        "zipcode": "88340-392"
    },
    {
        "city": "Camboriú",
        "state": "SC",
        "district": "Centro",
        "street": "Rua Presidente Costa e Silva",
        "zipcode": "88340-404"
    },
    {
        "city": "Camboriú",
        "state": "SC",
        "district": "Centro",
        "street": "Alameda Estudantil",
        "zipcode": "88340-077"
    },
    {
        "city": "Camboriú",
        "state": "SC",
        "district": "Centro",
        "street": "Rua Olga Bernardes Amorim",
        "zipcode": "88340-149"
    },
    {
        "city": "Camboriú",
        "state": "SC",
        "district": "Centro",
        "street": "Rua Virgílio Rodrigues Pereira",
        "zipcode": "88340-152"
    },
    {
        "city": "Camboriú",
        "state": "SC",
        "district": "Santa Regina",
        "street": "Rua Jerusalém",
        "zipcode": "88345-518"
    },
    {
        "city": "Camboriú",
        "state": "SC",
        "district": "Tabuleiro (Monte Alegre)",
        "street": "Rua Jatobá",
        "zipcode": "88348-071"
    },
    {
        "city": "Camboriú",
        "state": "SC",
        "district": "Monte Alegre (Monte Alegre)",
        "street": "Rua Cambará",
        "zipcode": "88348-365"
    },
    {
        "city": "Camboriú",
        "state": "SC",
        "district": "Rio Pequeno",
        "street": "Servidão Rio São João",
        "zipcode": "88343-740"
    },
    {
        "city": "Camboriú",
        "state": "SC",
        "district": "Rio Pequeno",
        "street": "Rua Rio Guaíra",
        "zipcode": "88343-742"
    },
    {
        "city": "Camboriú",
        "state": "SC",
        "district": "Rio Pequeno",
        "street": "Rua Rio Glória",
        "zipcode": "88343-772"
    },
    {
        "city": "Camboriú",
        "state": "SC",
        "district": "Rio Pequeno",
        "street": "Rua Rio Corumbá",
        "zipcode": "88343-774"
    },
    {
        "city": "Camboriú",
        "state": "SC",
        "district": "Areias",
        "street": "Rua Petrolina",
        "zipcode": "88345-243"
    },
    {
        "city": "Camboriú",
        "state": "SC",
        "district": "Santa Regina",
        "street": "Rua Tóquio",
        "zipcode": "88345-545"
    },
    {
        "city": "Camboriú",
        "state": "SC",
        "district": "Tabuleiro (Monte Alegre)",
        "street": "Servidão Lindaura Silva",
        "zipcode": "88348-026"
    },
    {
        "city": "Camboriú",
        "state": "SC",
        "district": "Tabuleiro (Monte Alegre)",
        "street": "Rua Monte Pouso Alto",
        "zipcode": "88348-267"
    },
    {
        "city": "Camboriú",
        "state": "SC",
        "district": "Monte Alegre (Monte Alegre)",
        "street": "Rua Monte Agulhas Negras",
        "zipcode": "88348-408"
    },
    {
        "city": "Camboriú",
        "state": "SC",
        "district": "Rio Pequeno",
        "street": "Rua Rio Amazonas",
        "zipcode": "88343-690"
    },
    {
        "city": "Camboriú",
        "state": "SC",
        "district": "Rio Pequeno",
        "street": "Rua Rio Lena",
        "zipcode": "88343-710"
    },
    {
        "city": "Camboriú",
        "state": "SC",
        "district": "Areias",
        "street": "Rua Minas Gerais",
        "zipcode": "88345-227"
    },
    {
        "city": "Camboriú",
        "state": "SC",
        "district": "Rio Pequeno",
        "street": "Rua Rio Santa Cruz",
        "zipcode": "88343-339"
    },
    {
        "city": "Camboriú",
        "state": "SC",
        "district": "Rio Pequeno",
        "street": "Rua Rio Santa Maria",
        "zipcode": "88343-442"
    },
    {
        "city": "Camboriú",
        "state": "SC",
        "district": "Rio Pequeno",
        "street": "Rua Rio Mourão",
        "zipcode": "88343-576"
    },
    {
        "city": "Camboriú",
        "state": "SC",
        "district": "Rio Pequeno",
        "street": "Rua Rio Gravataí",
        "zipcode": "88343-580"
    },
    {
        "city": "Camboriú",
        "state": "SC",
        "district": "Rio Pequeno",
        "street": "Rua Rio Uruguai",
        "zipcode": "88343-584"
    },
    {
        "city": "Camboriú",
        "state": "SC",
        "district": "Cedro",
        "street": "Rua Augusto Benvenuti",
        "zipcode": "88341-577"
    },
    {
        "city": "Camboriú",
        "state": "SC",
        "district": "Rio Pequeno",
        "street": "Rua Rio Muniz",
        "zipcode": "88343-586"
    },
    {
        "city": "Camboriú",
        "state": "SC",
        "district": "Rio Pequeno",
        "street": "Rua Rio Jaraguá",
        "zipcode": "88343-458"
    },
    {
        "city": "Camboriú",
        "state": "SC",
        "district": "Rio Pequeno",
        "street": "Rua Rio Piraju",
        "zipcode": "88343-464"
    },
    {
        "city": "Camboriú",
        "state": "SC",
        "district": "Rio Pequeno",
        "street": "Rua Rio Taquara",
        "zipcode": "88343-466"
    },
    {
        "city": "Camboriú",
        "state": "SC",
        "district": "Rio Pequeno",
        "street": "Rua Rio Itoupava",
        "zipcode": "88343-468"
    },
    {
        "city": "Camboriú",
        "state": "SC",
        "district": "Rio Pequeno",
        "street": "Rua Rio Tramandaí",
        "zipcode": "88343-469"
    },
    {
        "city": "Camboriú",
        "state": "SC",
        "district": "Rio Pequeno",
        "street": "Rua Rio Imbituva",
        "zipcode": "88343-470"
    },
    {
        "city": "Camboriú",
        "state": "SC",
        "district": "Rio Pequeno",
        "street": "Rua Rio Pinhal",
        "zipcode": "88343-578"
    },
    {
        "city": "Camboriú",
        "state": "SC",
        "district": "Rio Pequeno",
        "street": "Rua Rio Santa Rosa",
        "zipcode": "88343-581"
    },
    {
        "city": "Camboriú",
        "state": "SC",
        "district": "Rio Pequeno",
        "street": "Rua Rio Ivaí",
        "zipcode": "88343-583"
    },
    {
        "city": "Camboriú",
        "state": "SC",
        "district": "Rio Pequeno",
        "street": "Rua Rio Iporã",
        "zipcode": "88343-460"
    },
    {
        "city": "Camboriú",
        "state": "SC",
        "district": "Monte Alegre (Monte Alegre)",
        "street": "Rua Monte Sião",
        "zipcode": "88348-613"
    },
    {
        "city": "Camboriú",
        "state": "SC",
        "district": "Centro",
        "street": "Rua 21 de Abril",
        "zipcode": "88340-278"
    },
    {
        "city": "Camboriú",
        "state": "SC",
        "district": "Monte Alegre (Monte Alegre)",
        "street": "Rua Tupungato",
        "zipcode": "88348-810"
    },
    {
        "city": "Camboriú",
        "state": "SC",
        "district": "Monte Alegre (Monte Alegre)",
        "street": "Rua Monte Mercendário",
        "zipcode": "88348-813"
    },
    {
        "city": "Camboriú",
        "state": "SC",
        "district": "Monte Alegre (Monte Alegre)",
        "street": "Rua Monte Meru",
        "zipcode": "88348-819"
    },
    {
        "city": "Camboriú",
        "state": "SC",
        "district": "Monte Alegre (Monte Alegre)",
        "street": "Rua Monte Pamir",
        "zipcode": "88348-828"
    },
    {
        "city": "Camboriú",
        "state": "SC",
        "district": "Monte Alegre (Monte Alegre)",
        "street": "Rua Monte Santana",
        "zipcode": "88348-834"
    },
    {
        "city": "Camboriú",
        "state": "SC",
        "district": "Monte Alegre (Monte Alegre)",
        "street": "Rua Amor Perfeito",
        "zipcode": "88348-840"
    },
    {
        "city": "Camboriú",
        "state": "SC",
        "district": "Monte Alegre (Monte Alegre)",
        "street": "Rua Margarida",
        "zipcode": "88348-843"
    },
    {
        "city": "Camboriú",
        "state": "SC",
        "district": "Monte Alegre (Monte Alegre)",
        "street": "Rua Rosa Branca",
        "zipcode": "88348-846"
    },
    {
        "city": "Camboriú",
        "state": "SC",
        "district": "Monte Alegre (Monte Alegre)",
        "street": "Rua Monte Tabor",
        "zipcode": "88348-852"
    },
    {
        "city": "Camboriú",
        "state": "SC",
        "district": "Várzea do Ranchinho (Monte Alegre)",
        "street": "Rua Santa Cecília",
        "zipcode": "88349-153"
    },
    {
        "city": "Camboriú",
        "state": "SC",
        "district": "Várzea do Ranchinho (Monte Alegre)",
        "street": "Rua Presidente Nereu",
        "zipcode": "88349-156"
    },
    {
        "city": "Camboriú",
        "state": "SC",
        "district": "Várzea do Ranchinho (Monte Alegre)",
        "street": "Rua Presidente Getúlio",
        "zipcode": "88349-159"
    },
    {
        "city": "Camboriú",
        "state": "SC",
        "district": "Várzea do Ranchinho (Monte Alegre)",
        "street": "Rua Taió",
        "zipcode": "88349-162"
    },
    {
        "city": "Camboriú",
        "state": "SC",
        "district": "Várzea do Ranchinho (Monte Alegre)",
        "street": "Rua Camboriú",
        "zipcode": "88349-165"
    },
    {
        "city": "Camboriú",
        "state": "SC",
        "district": "Centro",
        "street": "Rua Almeri Antonio Machado Junior",
        "zipcode": "88340-004"
    },
    {
        "city": "Camboriú",
        "state": "SC",
        "district": "São Francisco de Assis",
        "street": "Rua Santa Rita",
        "zipcode": "88340-774"
    },
    {
        "city": "Camboriú",
        "state": "SC",
        "district": "Várzea do Ranchinho (Monte Alegre)",
        "street": "Rua Urubici",
        "zipcode": "88349-170"
    },
    {
        "city": "Camboriú",
        "state": "SC",
        "district": "Várzea do Ranchinho (Monte Alegre)",
        "street": "Rua Timbó",
        "zipcode": "88349-157"
    },
    {
        "city": "Camboriú",
        "state": "SC",
        "district": "Centro",
        "street": "Avenida Minas Gerais",
        "zipcode": "88340-176"
    },
    {
        "city": "Camboriú",
        "state": "SC",
        "district": "Rio Pequeno",
        "street": "Rua Rio Canela",
        "zipcode": "88343-402"
    },
    {
        "city": "Camboriú",
        "state": "SC",
        "district": "Rio Pequeno",
        "street": "Rua Rio Bandeira",
        "zipcode": "88343-433"
    },
    {
        "city": "Camboriú",
        "state": "SC",
        "district": "Rio Pequeno",
        "street": "Rua Rio Dourado",
        "zipcode": "88343-443"
    },
    {
        "city": "Camboriú",
        "state": "SC",
        "district": "Lídia Duarte",
        "street": "Rua Daniel Silvério",
        "zipcode": "88341-191"
    },
    {
        "city": "Camboriú",
        "state": "SC",
        "district": "Lídia Duarte",
        "street": "Rua Francisco da Silva",
        "zipcode": "88341-197"
    },
    {
        "city": "Camboriú",
        "state": "SC",
        "district": "Lídia Duarte",
        "street": "Rua Domingos Bento Amandio",
        "zipcode": "88341-212"
    },
    {
        "city": "Camboriú",
        "state": "SC",
        "district": "Lídia Duarte",
        "street": "Avenida Progresso",
        "zipcode": "88341-252"
    },
    {
        "city": "Camboriú",
        "state": "SC",
        "district": "Centro",
        "street": "Rua Ernesto Waldemar Noldin",
        "zipcode": "88340-548"
    },
    {
        "city": "Camboriú",
        "state": "SC",
        "district": "Lídia Duarte",
        "street": "Rua Antônio Pedro da Silva",
        "zipcode": "88341-148"
    },
    {
        "city": "Camboriú",
        "state": "SC",
        "district": "Lídia Duarte",
        "street": "Rua Maria Stolfi da Silva",
        "zipcode": "88341-209"
    },
    {
        "city": "Camboriú",
        "state": "SC",
        "district": "Lídia Duarte",
        "street": "Rua José Gervasi",
        "zipcode": "88341-095"
    },
    {
        "city": "Camboriú",
        "state": "SC",
        "district": "Centro",
        "street": "Rua Justiniano da Silva Neves",
        "zipcode": "88340-410"
    },
    {
        "city": "Camboriú",
        "state": "SC",
        "district": "Centro",
        "street": "Rua Padre André Aneza",
        "zipcode": "88340-422"
    },
    {
        "city": "Camboriú",
        "state": "SC",
        "district": "Centro",
        "street": "Rua Vitório Veiga Filho",
        "zipcode": "88340-437"
    },
    {
        "city": "Camboriú",
        "state": "SC",
        "district": "Centro",
        "street": "Rua Vitor Pedro Correa",
        "zipcode": "88340-446"
    },
    {
        "city": "Camboriú",
        "state": "SC",
        "district": "Centro",
        "street": "Rua Alcino Simas Filho",
        "zipcode": "88340-473"
    },
    {
        "city": "Camboriú",
        "state": "SC",
        "district": "Centro",
        "street": "Rua Joaquim Agostinho Vieira",
        "zipcode": "88340-239"
    },
    {
        "city": "Camboriú",
        "state": "SC",
        "district": "Centro",
        "street": "Rua Professor Andrônico Pereira",
        "zipcode": "88340-389"
    },
    {
        "city": "Camboriú",
        "state": "SC",
        "district": "Centro",
        "street": "Servidão Gregório Vignoli",
        "zipcode": "88340-230"
    },
    {
        "city": "Camboriú",
        "state": "SC",
        "district": "Monte Alegre (Monte Alegre)",
        "street": "Rua Monte Torco Curi",
        "zipcode": "88348-822"
    },
    {
        "city": "Camboriú",
        "state": "SC",
        "district": "Monte Alegre (Monte Alegre)",
        "street": "Rua Monte Lopu",
        "zipcode": "88348-756"
    },
    {
        "city": "Camboriú",
        "state": "SC",
        "district": "Centro",
        "street": "Rua Porto Alegre",
        "zipcode": "88340-221"
    },
    {
        "city": "Camboriú",
        "state": "SC",
        "district": "Centro",
        "street": "Rua Joaquim Garcia",
        "zipcode": "88340-055"
    },
    {
        "city": "Camboriú",
        "state": "SC",
        "district": "Centro",
        "street": "Rua Prefeito Aurélio Francisco",
        "zipcode": "88340-058"
    },
    {
        "city": "Camboriú",
        "state": "SC",
        "district": "Centro",
        "street": "Rua Silvio Roberto Bastos",
        "zipcode": "88340-461"
    },
    {
        "city": "Camboriú",
        "state": "SC",
        "district": "Lídia Duarte",
        "street": "Rua Siqueira Campos",
        "zipcode": "88341-142"
    },
    {
        "city": "Camboriú",
        "state": "SC",
        "district": "Lídia Duarte",
        "street": "Servidão Otávio Coelho dos Santos",
        "zipcode": "88341-192"
    },
    {
        "city": "Camboriú",
        "state": "SC",
        "district": "Rio Pequeno",
        "street": "Rua Rio Tijucas",
        "zipcode": "88343-403"
    },
    {
        "city": "Camboriú",
        "state": "SC",
        "district": "Rio Pequeno",
        "street": "Rua Rio São Domingos",
        "zipcode": "88343-421"
    },
    {
        "city": "Camboriú",
        "state": "SC",
        "district": "Monte Alegre (Monte Alegre)",
        "street": "Rua Monte Solimana",
        "zipcode": "88348-622"
    },
    {
        "city": "Camboriú",
        "state": "SC",
        "district": "Monte Alegre (Monte Alegre)",
        "street": "Rua Monte Caraíba",
        "zipcode": "88348-625"
    },
    {
        "city": "Camboriú",
        "state": "SC",
        "district": "Monte Alegre (Monte Alegre)",
        "street": "Rua Monte Verde",
        "zipcode": "88348-670"
    },
    {
        "city": "Camboriú",
        "state": "SC",
        "district": "Monte Alegre (Monte Alegre)",
        "street": "Rua Azaléia",
        "zipcode": "88348-690"
    },
    {
        "city": "Camboriú",
        "state": "SC",
        "district": "Monte Alegre (Monte Alegre)",
        "street": "Rua Girassol",
        "zipcode": "88348-696"
    },
    {
        "city": "Camboriú",
        "state": "SC",
        "district": "Monte Alegre (Monte Alegre)",
        "street": "Rua Petúnia",
        "zipcode": "88348-699"
    },
    {
        "city": "Camboriú",
        "state": "SC",
        "district": "Tabuleiro (Monte Alegre)",
        "street": "Rua Marmeleiro",
        "zipcode": "88348-228"
    },
    {
        "city": "Camboriú",
        "state": "SC",
        "district": "Tabuleiro (Monte Alegre)",
        "street": "Rua Licurana",
        "zipcode": "88348-186"
    },
    {
        "city": "Camboriú",
        "state": "SC",
        "district": "Tabuleiro (Monte Alegre)",
        "street": "Rua Licurana",
        "zipcode": "88348-225"
    },
    {
        "city": "Camboriú",
        "state": "SC",
        "district": "Tabuleiro (Monte Alegre)",
        "street": "Rua Massaranduba",
        "zipcode": "88348-204"
    },
    {
        "city": "Camboriú",
        "state": "SC",
        "district": "Monte Alegre (Monte Alegre)",
        "street": "Rua Alecrim",
        "zipcode": "88348-711"
    },
    {
        "city": "Camboriú",
        "state": "SC",
        "district": "Monte Alegre (Monte Alegre)",
        "street": "Rua Monte Marins",
        "zipcode": "88348-750"
    },
    {
        "city": "Camboriú",
        "state": "SC",
        "district": "Tabuleiro (Monte Alegre)",
        "street": "Rua Pau Brasil",
        "zipcode": "88348-198"
    },
    {
        "city": "Camboriú",
        "state": "SC",
        "district": "Tabuleiro (Monte Alegre)",
        "street": "Rua Seringueira",
        "zipcode": "88348-201"
    },
    {
        "city": "Camboriú",
        "state": "SC",
        "district": "Tabuleiro (Monte Alegre)",
        "street": "Rua Macieira",
        "zipcode": "88348-207"
    },
    {
        "city": "Camboriú",
        "state": "SC",
        "district": "Tabuleiro (Monte Alegre)",
        "street": "Rua Araucária",
        "zipcode": "88348-210"
    },
    {
        "city": "Camboriú",
        "state": "SC",
        "district": "Tabuleiro (Monte Alegre)",
        "street": "Rua Goiabeira",
        "zipcode": "88348-213"
    },
    {
        "city": "Camboriú",
        "state": "SC",
        "district": "Tabuleiro (Monte Alegre)",
        "street": "Rua Jacarandá",
        "zipcode": "88348-219"
    },
    {
        "city": "Camboriú",
        "state": "SC",
        "district": "Tabuleiro (Monte Alegre)",
        "street": "Rua Ipê",
        "zipcode": "88348-222"
    },
    {
        "city": "Camboriú",
        "state": "SC",
        "district": "Santa Regina",
        "street": "Rua Johanesburgo",
        "zipcode": "88345-750"
    },
    {
        "city": "Camboriú",
        "state": "SC",
        "district": "Monte Alegre (Monte Alegre)",
        "street": "Rua Monte Olivares",
        "zipcode": "88348-447"
    },
    {
        "city": "Camboriú",
        "state": "SC",
        "district": "Monte Alegre (Monte Alegre)",
        "street": "Rua Onze Horas",
        "zipcode": "88348-520"
    },
    {
        "city": "Camboriú",
        "state": "SC",
        "district": "Monte Alegre (Monte Alegre)",
        "street": "Rua Monte Serra Fina",
        "zipcode": "88348-529"
    },
    {
        "city": "Camboriú",
        "state": "SC",
        "district": "Monte Alegre (Monte Alegre)",
        "street": "Rua Monte Pitangueira",
        "zipcode": "88348-535"
    },
    {
        "city": "Camboriú",
        "state": "SC",
        "district": "Monte Alegre (Monte Alegre)",
        "street": "Rua Monte Pirineus",
        "zipcode": "88348-538"
    },
    {
        "city": "Camboriú",
        "state": "SC",
        "district": "Monte Alegre (Monte Alegre)",
        "street": "Rua Monte Pouso Alto",
        "zipcode": "88348-541"
    },
    {
        "city": "Camboriú",
        "state": "SC",
        "district": "Tabuleiro (Monte Alegre)",
        "street": "Rua Nicolau Rocha dos Santos",
        "zipcode": "88348-565"
    },
    {
        "city": "Camboriú",
        "state": "SC",
        "district": "Monte Alegre (Monte Alegre)",
        "street": "Rua Monte Sanford",
        "zipcode": "88348-577"
    },
    {
        "city": "Camboriú",
        "state": "SC",
        "district": "Monte Alegre (Monte Alegre)",
        "street": "Rua Monte Alverne",
        "zipcode": "88348-580"
    },
    {
        "city": "Camboriú",
        "state": "SC",
        "district": "Monte Alegre (Monte Alegre)",
        "street": "Rua Monte Castelito",
        "zipcode": "88348-586"
    },
    {
        "city": "Camboriú",
        "state": "SC",
        "district": "Monte Alegre (Monte Alegre)",
        "street": "Rua Samambaia",
        "zipcode": "88348-559"
    },
    {
        "city": "Camboriú",
        "state": "SC",
        "district": "Monte Alegre (Monte Alegre)",
        "street": "Rua Monte Sanga",
        "zipcode": "88348-574"
    },
    {
        "city": "Camboriú",
        "state": "SC",
        "district": "Monte Alegre (Monte Alegre)",
        "street": "Rua Monte Caracol",
        "zipcode": "88348-583"
    },
    {
        "city": "Camboriú",
        "state": "SC",
        "district": "Monte Alegre (Monte Alegre)",
        "street": "Rua Flamboyant",
        "zipcode": "88348-592"
    },
    {
        "city": "Camboriú",
        "state": "SC",
        "district": "Monte Alegre (Monte Alegre)",
        "street": "Travessa Palmeiras",
        "zipcode": "88348-598"
    },
    {
        "city": "Camboriú",
        "state": "SC",
        "district": "Monte Alegre (Monte Alegre)",
        "street": "Rua Violeta",
        "zipcode": "88348-604"
    },
    {
        "city": "Camboriú",
        "state": "SC",
        "district": "Monte Alegre (Monte Alegre)",
        "street": "Rua Monte Nuila",
        "zipcode": "88348-571"
    },
    {
        "city": "Camboriú",
        "state": "SC",
        "district": "Monte Alegre (Monte Alegre)",
        "street": "Rua Brinco de Princesa",
        "zipcode": "88348-607"
    },
    {
        "city": "Camboriú",
        "state": "SC",
        "district": "Areias",
        "street": "Rua Fortaleza",
        "zipcode": "88345-247"
    },
    {
        "city": "Camboriú",
        "state": "SC",
        "district": "Santa Regina",
        "street": "Rua Dakar",
        "zipcode": "88345-723"
    },
    {
        "city": "Camboriú",
        "state": "SC",
        "district": "Rio Pequeno",
        "street": "Rua Rio Nilo",
        "zipcode": "88343-830"
    },
    {
        "city": "Camboriú",
        "state": "SC",
        "district": "Santa Regina",
        "street": "Rua Quito",
        "zipcode": "88345-674"
    },
    {
        "city": "Camboriú",
        "state": "SC",
        "district": "Santa Regina",
        "street": "Rua Oslo",
        "zipcode": "88345-753"
    },
    {
        "city": "Camboriú",
        "state": "SC",
        "district": "Monte Alegre (Monte Alegre)",
        "street": "Rua Monte Everest",
        "zipcode": "88348-399"
    },
    {
        "city": "Camboriú",
        "state": "SC",
        "district": "Monte Alegre (Monte Alegre)",
        "street": "Travessa Copo de Leite",
        "zipcode": "88348-523"
    },
    {
        "city": "Camboriú",
        "state": "SC",
        "district": "Monte Alegre (Monte Alegre)",
        "street": "Travessa Boca de Leão",
        "zipcode": "88348-526"
    },
    {
        "city": "Camboriú",
        "state": "SC",
        "district": "Monte Alegre (Monte Alegre)",
        "street": "Rua Rodolfo da Silva Simas",
        "zipcode": "88348-556"
    },
    {
        "city": "Camboriú",
        "state": "SC",
        "district": "Areias",
        "street": "Rua Sergipe",
        "zipcode": "88345-179"
    },
    {
        "city": "Camboriú",
        "state": "SC",
        "district": "Rio Pequeno",
        "street": "Rua Rio Guaporé",
        "zipcode": "88343-473"
    },
    {
        "city": "Camboriú",
        "state": "SC",
        "district": "Tabuleiro (Monte Alegre)",
        "street": "Rua Figueira",
        "zipcode": "88348-089"
    },
    {
        "city": "Camboriú",
        "state": "SC",
        "district": "Centro",
        "street": "Rua Bento Elóy Garcia",
        "zipcode": "88340-350"
    },
    {
        "city": "Camboriú",
        "state": "SC",
        "district": "Tabuleiro (Monte Alegre)",
        "street": "Rua Figueira",
        "zipcode": "88348-119"
    },
    {
        "city": "Camboriú",
        "state": "SC",
        "district": "Tabuleiro (Monte Alegre)",
        "street": "Rua Laranjeira",
        "zipcode": "88348-116"
    },
    {
        "city": "Camboriú",
        "state": "SC",
        "district": "Tabuleiro (Monte Alegre)",
        "street": "Rua Tereza Evangelista Gonçalves",
        "zipcode": "88348-171"
    },
    {
        "city": "Camboriú",
        "state": "SC",
        "district": "Tabuleiro (Monte Alegre)",
        "street": "Rua Cerejeira",
        "zipcode": "88348-104"
    },
    {
        "city": "Camboriú",
        "state": "SC",
        "district": "Tabuleiro (Monte Alegre)",
        "street": "Rua Angico",
        "zipcode": "88348-086"
    },
    {
        "city": "Camboriú",
        "state": "SC",
        "district": "Tabuleiro (Monte Alegre)",
        "street": "Rua Guararema",
        "zipcode": "88348-092"
    },
    {
        "city": "Camboriú",
        "state": "SC",
        "district": "Tabuleiro (Monte Alegre)",
        "street": "Rua José Batista de Almeida",
        "zipcode": "88348-125"
    },
    {
        "city": "Camboriú",
        "state": "SC",
        "district": "Tabuleiro (Monte Alegre)",
        "street": "Rua Manoel Inácio Linhares",
        "zipcode": "88348-153"
    },
    {
        "city": "Camboriú",
        "state": "SC",
        "district": "Tabuleiro (Monte Alegre)",
        "street": "Rua Sucupira",
        "zipcode": "88348-110"
    },
    {
        "city": "Camboriú",
        "state": "SC",
        "district": "Tabuleiro (Monte Alegre)",
        "street": "Rua Mapa",
        "zipcode": "88348-113"
    },
    {
        "city": "Camboriú",
        "state": "SC",
        "district": "Tabuleiro (Monte Alegre)",
        "street": "Rua João Serafim Cabral",
        "zipcode": "88348-156"
    },
    {
        "city": "Camboriú",
        "state": "SC",
        "district": "Tabuleiro (Monte Alegre)",
        "street": "Rua Marcos José da Costa",
        "zipcode": "88348-165"
    },
    {
        "city": "Camboriú",
        "state": "SC",
        "district": "Tabuleiro (Monte Alegre)",
        "street": "Rua Mogno",
        "zipcode": "88348-174"
    },
    {
        "city": "Camboriú",
        "state": "SC",
        "district": "Tabuleiro (Monte Alegre)",
        "street": "Rua Tajubá",
        "zipcode": "88348-177"
    },
    {
        "city": "Camboriú",
        "state": "SC",
        "district": "Tabuleiro (Monte Alegre)",
        "street": "Rua Tulipa",
        "zipcode": "88348-183"
    },
    {
        "city": "Camboriú",
        "state": "SC",
        "district": "Tabuleiro (Monte Alegre)",
        "street": "Rua Caroba",
        "zipcode": "88348-189"
    },
    {
        "city": "Camboriú",
        "state": "SC",
        "district": "Tabuleiro (Monte Alegre)",
        "street": "Rua Jacatirão",
        "zipcode": "88348-192"
    },
    {
        "city": "Camboriú",
        "state": "SC",
        "district": "São Francisco de Assis",
        "street": "Rua Santa Aparecida",
        "zipcode": "88340-728"
    },
    {
        "city": "Camboriú",
        "state": "SC",
        "district": "Monte Alegre (Monte Alegre)",
        "street": "Rua Monte Libertador",
        "zipcode": "88348-435"
    },
    {
        "city": "Camboriú",
        "state": "SC",
        "district": "Monte Alegre (Monte Alegre)",
        "street": "Rua Monte Pedra Azul",
        "zipcode": "88348-490"
    },
    {
        "city": "Camboriú",
        "state": "SC",
        "district": "Monte Alegre (Monte Alegre)",
        "street": "Rua Monte Bandeiras",
        "zipcode": "88348-499"
    },
    {
        "city": "Camboriú",
        "state": "SC",
        "district": "Monte Alegre (Monte Alegre)",
        "street": "Rua Monte Rosa",
        "zipcode": "88348-511"
    },
    {
        "city": "Camboriú",
        "state": "SC",
        "district": "Monte Alegre (Monte Alegre)",
        "street": "Rua Monte Serra Negra",
        "zipcode": "88348-514"
    },
    {
        "city": "Camboriú",
        "state": "SC",
        "district": "Tabuleiro (Monte Alegre)",
        "street": "Rua Guaraparim",
        "zipcode": "88348-237"
    },
    {
        "city": "Camboriú",
        "state": "SC",
        "district": "Tabuleiro (Monte Alegre)",
        "street": "Rua Sassafrás",
        "zipcode": "88348-252"
    },
    {
        "city": "Camboriú",
        "state": "SC",
        "district": "Monte Alegre (Monte Alegre)",
        "street": "Rua Marginal Oeste",
        "zipcode": "88348-382"
    },
    {
        "city": "Camboriú",
        "state": "SC",
        "district": "Monte Alegre (Monte Alegre)",
        "street": "Rua Monte Neblina",
        "zipcode": "88348-441"
    },
    {
        "city": "Camboriú",
        "state": "SC",
        "district": "Monte Alegre (Monte Alegre)",
        "street": "Rua Monte Orizada",
        "zipcode": "88348-450"
    },
    {
        "city": "Camboriú",
        "state": "SC",
        "district": "Tabuleiro (Monte Alegre)",
        "street": "Rua Eucalipto",
        "zipcode": "88348-270"
    },
    {
        "city": "Camboriú",
        "state": "SC",
        "district": "Santa Regina",
        "street": "Rua La Paz",
        "zipcode": "88345-554"
    },
    {
        "city": "Camboriú",
        "state": "SC",
        "district": "Monte Alegre (Monte Alegre)",
        "street": "Rua Monte Serrada",
        "zipcode": "88348-423"
    },
    {
        "city": "Camboriú",
        "state": "SC",
        "district": "Monte Alegre (Monte Alegre)",
        "street": "Rua Monte Pedra do Sino",
        "zipcode": "88348-493"
    },
    {
        "city": "Camboriú",
        "state": "SC",
        "district": "Rio Pequeno",
        "street": "Rua Rio Camacuã",
        "zipcode": "88343-440"
    },
    {
        "city": "Camboriú",
        "state": "SC",
        "district": "Santa Regina",
        "street": "Rua Argel",
        "zipcode": "88345-551"
    },
    {
        "city": "Camboriú",
        "state": "SC",
        "district": "Santa Regina",
        "street": "Rua Jerusalém",
        "zipcode": "88345-560"
    },
    {
        "city": "Camboriú",
        "state": "SC",
        "district": "Santa Regina",
        "street": "Rua Atenas",
        "zipcode": "88345-566"
    },
    {
        "city": "Camboriú",
        "state": "SC",
        "district": "Santa Regina",
        "street": "Rua Berlim",
        "zipcode": "88345-596"
    },
    {
        "city": "Camboriú",
        "state": "SC",
        "district": "Monte Alegre (Monte Alegre)",
        "street": "Rua Monte Bonete",
        "zipcode": "88348-414"
    },
    {
        "city": "Camboriú",
        "state": "SC",
        "district": "Monte Alegre (Monte Alegre)",
        "street": "Rua Monte Branco",
        "zipcode": "88348-417"
    },
    {
        "city": "Camboriú",
        "state": "SC",
        "district": "Monte Alegre (Monte Alegre)",
        "street": "Rua Monte Cruzeiro",
        "zipcode": "88348-420"
    },
    {
        "city": "Camboriú",
        "state": "SC",
        "district": "Monte Alegre (Monte Alegre)",
        "street": "Rua Monte Cristal",
        "zipcode": "88348-426"
    },
    {
        "city": "Camboriú",
        "state": "SC",
        "district": "Monte Alegre (Monte Alegre)",
        "street": "Rua Monte Juliana",
        "zipcode": "88348-432"
    },
    {
        "city": "Camboriú",
        "state": "SC",
        "district": "Areias",
        "street": "Rua Rondônia",
        "zipcode": "88345-191"
    },
    {
        "city": "Camboriú",
        "state": "SC",
        "district": "Tabuleiro (Monte Alegre)",
        "street": "Rua Pindaíba",
        "zipcode": "88348-234"
    },
    {
        "city": "Camboriú",
        "state": "SC",
        "district": "Tabuleiro (Monte Alegre)",
        "street": "Rua Sassafrás",
        "zipcode": "88348-258"
    },
    {
        "city": "Camboriú",
        "state": "SC",
        "district": "Tabuleiro (Monte Alegre)",
        "street": "Rua Monte Alto",
        "zipcode": "88348-279"
    },
    {
        "city": "Camboriú",
        "state": "SC",
        "district": "Monte Alegre (Monte Alegre)",
        "street": "Rua Monte Alto",
        "zipcode": "88348-402"
    },
    {
        "city": "Camboriú",
        "state": "SC",
        "district": "Monte Alegre (Monte Alegre)",
        "street": "Rua Monte Acaraí",
        "zipcode": "88348-405"
    },
    {
        "city": "Camboriú",
        "state": "SC",
        "district": "Areias",
        "street": "Rua Rio de Janeiro",
        "zipcode": "88345-048"
    },
    {
        "city": "Camboriú",
        "state": "SC",
        "district": "Santa Regina",
        "street": "Rua São Paulo",
        "zipcode": "88345-662"
    },
    {
        "city": "Camboriú",
        "state": "SC",
        "district": "Monte Alegre (Monte Alegre)",
        "street": "Rua Jequitiba",
        "zipcode": "88348-360"
    },
    {
        "city": "Camboriú",
        "state": "SC",
        "district": "Tabuleiro (Monte Alegre)",
        "street": "Rua Guamirim",
        "zipcode": "88348-065"
    },
    {
        "city": "Camboriú",
        "state": "SC",
        "district": "Tabuleiro (Monte Alegre)",
        "street": "Rua Garapuvu",
        "zipcode": "88348-276"
    },
    {
        "city": "Camboriú",
        "state": "SC",
        "district": "Santa Regina",
        "street": "Rua Madrid",
        "zipcode": "88345-656"
    },
    {
        "city": "Camboriú",
        "state": "SC",
        "district": "Santa Regina",
        "street": "Rua Luxemburgo",
        "zipcode": "88345-738"
    },
    {
        "city": "Camboriú",
        "state": "SC",
        "district": "Tabuleiro (Monte Alegre)",
        "street": "Avenida Santa Catarina",
        "zipcode": "88348-006"
    },
    {
        "city": "Camboriú",
        "state": "SC",
        "district": "Tabuleiro (Monte Alegre)",
        "street": "Rua Cerejeira",
        "zipcode": "88348-062"
    },
    {
        "city": "Camboriú",
        "state": "SC",
        "district": "Tabuleiro (Monte Alegre)",
        "street": "Rua Peroba",
        "zipcode": "88348-074"
    },
    {
        "city": "Camboriú",
        "state": "SC",
        "district": "Tabuleiro (Monte Alegre)",
        "street": "Rua Angelim",
        "zipcode": "88348-083"
    },
    {
        "city": "Camboriú",
        "state": "SC",
        "district": "Santa Regina",
        "street": "Rua Manágua",
        "zipcode": "88345-689"
    },
    {
        "city": "Camboriú",
        "state": "SC",
        "district": "Santa Regina",
        "street": "Rua Budapeste",
        "zipcode": "88345-741"
    },
    {
        "city": "Camboriú",
        "state": "SC",
        "district": "Tabuleiro (Monte Alegre)",
        "street": "Rua Pedra Branca",
        "zipcode": "88348-018"
    },
    {
        "city": "Camboriú",
        "state": "SC",
        "district": "Areias",
        "street": "Rua Padre André Aneza",
        "zipcode": "88345-003"
    },
    {
        "city": "Camboriú",
        "state": "SC",
        "district": "Santa Regina",
        "street": "Rua Assunção",
        "zipcode": "88345-569"
    },
    {
        "city": "Camboriú",
        "state": "SC",
        "district": "Santa Regina",
        "street": "Rua Dublin",
        "zipcode": "88345-590"
    },
    {
        "city": "Camboriú",
        "state": "SC",
        "district": "Santa Regina",
        "street": "Rua Amsterdam",
        "zipcode": "88345-605"
    },
    {
        "city": "Camboriú",
        "state": "SC",
        "district": "Santa Regina",
        "street": "Rua Ancara",
        "zipcode": "88345-650"
    },
    {
        "city": "Camboriú",
        "state": "SC",
        "district": "Santa Regina",
        "street": "Rua Bogotá",
        "zipcode": "88345-680"
    },
    {
        "city": "Camboriú",
        "state": "SC",
        "district": "Santa Regina",
        "street": "Rua Jacarta",
        "zipcode": "88345-698"
    },
    {
        "city": "Camboriú",
        "state": "SC",
        "district": "Santa Regina",
        "street": "Rua Caracas",
        "zipcode": "88345-707"
    },
    {
        "city": "Camboriú",
        "state": "SC",
        "district": "Tabuleiro (Monte Alegre)",
        "street": "Avenida Santa Catarina",
        "zipcode": "88348-050"
    },
    {
        "city": "Camboriú",
        "state": "SC",
        "district": "Tabuleiro (Monte Alegre)",
        "street": "Rua Itaúba",
        "zipcode": "88348-261"
    },
    {
        "city": "Camboriú",
        "state": "SC",
        "district": "Monte Alegre (Monte Alegre)",
        "street": "Rua Antonio de Liz Cardoso",
        "zipcode": "88348-380"
    },
    {
        "city": "Camboriú",
        "state": "SC",
        "district": "Rio Pequeno",
        "street": "Rua Rio Senna",
        "zipcode": "88343-842"
    },
    {
        "city": "Camboriú",
        "state": "SC",
        "district": "Rio Pequeno",
        "street": "Rua Rio Paraguai",
        "zipcode": "88343-846"
    },
    {
        "city": "Camboriú",
        "state": "SC",
        "district": "Rio Pequeno",
        "street": "Servidão Rio Paraibuna",
        "zipcode": "88343-850"
    },
    {
        "city": "Camboriú",
        "state": "SC",
        "district": "Rio Pequeno",
        "street": "Rua Rio das Pedras",
        "zipcode": "88343-858"
    },
    {
        "city": "Camboriú",
        "state": "SC",
        "district": "Rio Pequeno",
        "street": "Rua Rio Verde",
        "zipcode": "88343-866"
    },
    {
        "city": "Camboriú",
        "state": "SC",
        "district": "Rio Pequeno",
        "street": "Rua Rio Tavares",
        "zipcode": "88343-870"
    },
    {
        "city": "Camboriú",
        "state": "SC",
        "district": "Rio Pequeno",
        "street": "Rua Rio Tigre",
        "zipcode": "88343-872"
    },
    {
        "city": "Camboriú",
        "state": "SC",
        "district": "Rio Pequeno",
        "street": "Rua Rio Canoas",
        "zipcode": "88343-874"
    },
    {
        "city": "Camboriú",
        "state": "SC",
        "district": "Areias",
        "street": "Rua Pará",
        "zipcode": "88345-018"
    },
    {
        "city": "Camboriú",
        "state": "SC",
        "district": "Santa Regina",
        "street": "Rua Vienna",
        "zipcode": "88345-578"
    },
    {
        "city": "Camboriú",
        "state": "SC",
        "district": "Santa Regina",
        "street": "Rua São Paulo",
        "zipcode": "88345-581"
    },
    {
        "city": "Camboriú",
        "state": "SC",
        "district": "Santa Regina",
        "street": "Rua Monaco",
        "zipcode": "88345-593"
    },
    {
        "city": "Camboriú",
        "state": "SC",
        "district": "Santa Regina",
        "street": "Rua Londres",
        "zipcode": "88345-599"
    },
    {
        "city": "Camboriú",
        "state": "SC",
        "district": "Santa Regina",
        "street": "Rua Roma",
        "zipcode": "88345-608"
    },
    {
        "city": "Camboriú",
        "state": "SC",
        "district": "Santa Regina",
        "street": "Rua Paramaribo",
        "zipcode": "88345-653"
    },
    {
        "city": "Camboriú",
        "state": "SC",
        "district": "Santa Regina",
        "street": "Rua Paramaribo",
        "zipcode": "88345-665"
    },
    {
        "city": "Camboriú",
        "state": "SC",
        "district": "Santa Regina",
        "street": "Rua Montevidéu",
        "zipcode": "88345-677"
    },
    {
        "city": "Camboriú",
        "state": "SC",
        "district": "Santa Regina",
        "street": "Rua Lima",
        "zipcode": "88345-695"
    },
    {
        "city": "Camboriú",
        "state": "SC",
        "district": "Santa Regina",
        "street": "Rua San Marino",
        "zipcode": "88345-720"
    },
    {
        "city": "Camboriú",
        "state": "SC",
        "district": "Santa Regina",
        "street": "Rua Luxemburgo",
        "zipcode": "88345-729"
    },
    {
        "city": "Camboriú",
        "state": "SC",
        "district": "Santa Regina",
        "street": "Rua Telaviv",
        "zipcode": "88345-732"
    },
    {
        "city": "Camboriú",
        "state": "SC",
        "district": "Santa Regina",
        "street": "Rua Montreal",
        "zipcode": "88345-744"
    },
    {
        "city": "Camboriú",
        "state": "SC",
        "district": "Tabuleiro (Monte Alegre)",
        "street": "Rua Leopoldo Leite",
        "zipcode": "88348-003"
    },
    {
        "city": "Camboriú",
        "state": "SC",
        "district": "Monte Alegre (Monte Alegre)",
        "street": "Rua Vitório Muller",
        "zipcode": "88348-385"
    },
    {
        "city": "Camboriú",
        "state": "SC",
        "district": "Santa Regina",
        "street": "Rua Roma",
        "zipcode": "88345-557"
    },
    {
        "city": "Camboriú",
        "state": "SC",
        "district": "Santa Regina",
        "street": "Rua Luanda",
        "zipcode": "88345-683"
    },
    {
        "city": "Camboriú",
        "state": "SC",
        "district": "Santa Regina",
        "street": "Rua Lisboa",
        "zipcode": "88345-692"
    },
    {
        "city": "Camboriú",
        "state": "SC",
        "district": "Santa Regina",
        "street": "Rua San Marino",
        "zipcode": "88345-756"
    },
    {
        "city": "Camboriú",
        "state": "SC",
        "district": "Rio Pequeno",
        "street": "Rua Rio Teixeira",
        "zipcode": "88343-112"
    },
    {
        "city": "Camboriú",
        "state": "SC",
        "district": "Rio Pequeno",
        "street": "Rua Rio Bonito",
        "zipcode": "88343-118"
    },
    {
        "city": "Camboriú",
        "state": "SC",
        "district": "Rio Pequeno",
        "street": "Rua Rio Capivari",
        "zipcode": "88343-121"
    },
    {
        "city": "Camboriú",
        "state": "SC",
        "district": "Rio Pequeno",
        "street": "Rua Santo Expedito",
        "zipcode": "88343-223"
    },
    {
        "city": "Camboriú",
        "state": "SC",
        "district": "Rio Pequeno",
        "street": "Rua Santa Clara",
        "zipcode": "88343-226"
    },
    {
        "city": "Camboriú",
        "state": "SC",
        "district": "Rio Pequeno",
        "street": "Rua Santo Agostinho",
        "zipcode": "88343-232"
    },
    {
        "city": "Camboriú",
        "state": "SC",
        "district": "Rio Pequeno",
        "street": "Rua São Bartolomeu",
        "zipcode": "88343-235"
    },
    {
        "city": "Camboriú",
        "state": "SC",
        "district": "Rio Pequeno",
        "street": "Rua Santa Inês",
        "zipcode": "88343-238"
    },
    {
        "city": "Camboriú",
        "state": "SC",
        "district": "Cedro",
        "street": "Rua Avelino Bertelli",
        "zipcode": "88341-795"
    },
    {
        "city": "Camboriú",
        "state": "SC",
        "district": "Cedro",
        "street": "Rua José da Silva",
        "zipcode": "88341-798"
    },
    {
        "city": "Camboriú",
        "state": "SC",
        "district": "Cedro",
        "street": "Rua Osvaldo Minella",
        "zipcode": "88341-780"
    },
    {
        "city": "Camboriú",
        "state": "SC",
        "district": "Cedro",
        "street": "Rua Cândido José",
        "zipcode": "88341-804"
    },
    {
        "city": "Camboriú",
        "state": "SC",
        "district": "São Francisco de Assis",
        "street": "Rua São Lucas",
        "zipcode": "88340-708"
    },
    {
        "city": "Camboriú",
        "state": "SC",
        "district": "Cedro",
        "street": "Rua Martinho Pedro da Silva",
        "zipcode": "88341-810"
    },
    {
        "city": "Camboriú",
        "state": "SC",
        "district": "Areias",
        "street": "Rua Amazonas",
        "zipcode": "88345-036"
    },
    {
        "city": "Camboriú",
        "state": "SC",
        "district": "Santa Regina",
        "street": "Rua Moscou",
        "zipcode": "88345-521"
    },
    {
        "city": "Camboriú",
        "state": "SC",
        "district": "Areias",
        "street": "Rua Bahia",
        "zipcode": "88345-155"
    },
    {
        "city": "Camboriú",
        "state": "SC",
        "district": "Areias",
        "street": "Rua Acre",
        "zipcode": "88345-158"
    },
    {
        "city": "Camboriú",
        "state": "SC",
        "district": "Areias",
        "street": "Rua Maranhão",
        "zipcode": "88345-188"
    },
    {
        "city": "Camboriú",
        "state": "SC",
        "district": "Areias",
        "street": "Rua Capitão Ernesto Nunes",
        "zipcode": "88345-197"
    },
    {
        "city": "Camboriú",
        "state": "SC",
        "district": "Areias",
        "street": "Rua Capitão Ernesto Nunes",
        "zipcode": "88345-220"
    },
    {
        "city": "Camboriú",
        "state": "SC",
        "district": "Santa Regina",
        "street": "Rua Bucareste",
        "zipcode": "88345-527"
    },
    {
        "city": "Camboriú",
        "state": "SC",
        "district": "Areias",
        "street": "Rua Belo Horizonte",
        "zipcode": "88345-067"
    },
    {
        "city": "Camboriú",
        "state": "SC",
        "district": "Santa Regina",
        "street": "Rua Estocolmo",
        "zipcode": "88345-506"
    },
    {
        "city": "Camboriú",
        "state": "SC",
        "district": "Areias",
        "street": "Rua Tocantins",
        "zipcode": "88345-063"
    },
    {
        "city": "Camboriú",
        "state": "SC",
        "district": "Areias",
        "street": "Rua Jesuíno Anastácio Pereira",
        "zipcode": "88345-140"
    },
    {
        "city": "Camboriú",
        "state": "SC",
        "district": "Santa Regina",
        "street": "Rua Bagdá",
        "zipcode": "88345-500"
    },
    {
        "city": "Camboriú",
        "state": "SC",
        "district": "Areias",
        "street": "Rua Aracaju",
        "zipcode": "88345-021"
    },
    {
        "city": "Camboriú",
        "state": "SC",
        "district": "Areias",
        "street": "Rua Espírito Santo",
        "zipcode": "88345-033"
    },
    {
        "city": "Camboriú",
        "state": "SC",
        "district": "Areias",
        "street": "Rua Acre",
        "zipcode": "88345-054"
    },
    {
        "city": "Camboriú",
        "state": "SC",
        "district": "Areias",
        "street": "Rua Ceará",
        "zipcode": "88345-060"
    },
    {
        "city": "Camboriú",
        "state": "SC",
        "district": "Areias",
        "street": "Rua Bagdá",
        "zipcode": "88345-113"
    },
    {
        "city": "Camboriú",
        "state": "SC",
        "district": "Areias",
        "street": "Rua Bagdá",
        "zipcode": "88345-134"
    },
    {
        "city": "Camboriú",
        "state": "SC",
        "district": "Areias",
        "street": "Avenida Brasília",
        "zipcode": "88345-137"
    },
    {
        "city": "Camboriú",
        "state": "SC",
        "district": "Areias",
        "street": "Rua Alagoas",
        "zipcode": "88345-176"
    },
    {
        "city": "Camboriú",
        "state": "SC",
        "district": "Santa Regina",
        "street": "Rua Berna",
        "zipcode": "88345-515"
    },
    {
        "city": "Camboriú",
        "state": "SC",
        "district": "Santa Regina",
        "street": "Rua Cabul",
        "zipcode": "88345-530"
    },
    {
        "city": "Camboriú",
        "state": "SC",
        "district": "Santa Regina",
        "street": "Avenida Brasília",
        "zipcode": "88345-541"
    },
    {
        "city": "Camboriú",
        "state": "SC",
        "district": "Areias",
        "street": "Rua Salvador",
        "zipcode": "88345-027"
    },
    {
        "city": "Camboriú",
        "state": "SC",
        "district": "Areias",
        "street": "Rua Manaus",
        "zipcode": "88345-030"
    },
    {
        "city": "Camboriú",
        "state": "SC",
        "district": "Areias",
        "street": "Rua Paraná",
        "zipcode": "88345-045"
    },
    {
        "city": "Camboriú",
        "state": "SC",
        "district": "Areias",
        "street": "Rua Vitória",
        "zipcode": "88345-070"
    },
    {
        "city": "Camboriú",
        "state": "SC",
        "district": "Areias",
        "street": "Rua Maceió",
        "zipcode": "88345-152"
    },
    {
        "city": "Camboriú",
        "state": "SC",
        "district": "Areias",
        "street": "Rua Minas Gerais",
        "zipcode": "88345-167"
    },
    {
        "city": "Camboriú",
        "state": "SC",
        "district": "Areias",
        "street": "Rua Mato Grosso",
        "zipcode": "88345-170"
    },
    {
        "city": "Camboriú",
        "state": "SC",
        "district": "Areias",
        "street": "Rua Paraíba",
        "zipcode": "88345-194"
    },
    {
        "city": "Camboriú",
        "state": "SC",
        "district": "Areias",
        "street": "Rua São Luiz",
        "zipcode": "88345-235"
    },
    {
        "city": "Camboriú",
        "state": "SC",
        "district": "Areias",
        "street": "Rua Valério Olegário Rebelo",
        "zipcode": "88345-239"
    },
    {
        "city": "Camboriú",
        "state": "SC",
        "district": "Areias",
        "street": "Rua Uruguaiana",
        "zipcode": "88345-251"
    },
    {
        "city": "Camboriú",
        "state": "SC",
        "district": "Areias",
        "street": "Rua Minas Gerais",
        "zipcode": "88345-039"
    },
    {
        "city": "Camboriú",
        "state": "SC",
        "district": "Areias",
        "street": "Rua Pernambuco",
        "zipcode": "88345-146"
    },
    {
        "city": "Camboriú",
        "state": "SC",
        "district": "Areias",
        "street": "Rua Rio de Janeiro",
        "zipcode": "88345-164"
    },
    {
        "city": "Camboriú",
        "state": "SC",
        "district": "Areias",
        "street": "Rua Rio Grande do Norte",
        "zipcode": "88345-185"
    },
    {
        "city": "Camboriú",
        "state": "SC",
        "district": "Areias",
        "street": "Rua Porto Velho",
        "zipcode": "88345-223"
    },
    {
        "city": "Camboriú",
        "state": "SC",
        "district": "Lídia Duarte",
        "street": "Rua Capitão Ernesto Nunes",
        "zipcode": "88341-055"
    },
    {
        "city": "Camboriú",
        "state": "SC",
        "district": "Lídia Duarte",
        "street": "Rua Henok Bernardino",
        "zipcode": "88341-067"
    },
    {
        "city": "Camboriú",
        "state": "SC",
        "district": "Lídia Duarte",
        "street": "Rua Saul Dalago",
        "zipcode": "88341-070"
    },
    {
        "city": "Camboriú",
        "state": "SC",
        "district": "Rio Pequeno",
        "street": "Rua Rio das Antas",
        "zipcode": "88343-106"
    },
    {
        "city": "Camboriú",
        "state": "SC",
        "district": "Rio Pequeno",
        "street": "Rua Rio Paraná",
        "zipcode": "88343-109"
    },
    {
        "city": "Camboriú",
        "state": "SC",
        "district": "Centro",
        "street": "Rua Joaquim Nunes",
        "zipcode": "88340-371"
    },
    {
        "city": "Camboriú",
        "state": "SC",
        "district": "Lídia Duarte",
        "street": "Rua Joaquim Maria Simas",
        "zipcode": "88341-052"
    },
    {
        "city": "Camboriú",
        "state": "SC",
        "district": "Lídia Duarte",
        "street": "Rua Rufino Olegário",
        "zipcode": "88341-061"
    },
    {
        "city": "Camboriú",
        "state": "SC",
        "district": "Rio Pequeno",
        "street": "Rua Rio Mississipi",
        "zipcode": "88343-124"
    },
    {
        "city": "Camboriú",
        "state": "SC",
        "district": "São Francisco de Assis",
        "street": "Rua Santo Amaro",
        "zipcode": "88340-680"
    },
    {
        "city": "Camboriú",
        "state": "SC",
        "district": "Cedro",
        "street": "Rua João Onofre",
        "zipcode": "88341-570"
    },
    {
        "city": "Camboriú",
        "state": "SC",
        "district": "Cedro",
        "street": "Rua Leandro Bertoldi",
        "zipcode": "88341-589"
    },
    {
        "city": "Camboriú",
        "state": "SC",
        "district": "Cedro",
        "street": "Rua Brigido Antonio Felippe",
        "zipcode": "88341-601"
    },
    {
        "city": "Camboriú",
        "state": "SC",
        "district": "Cedro",
        "street": "Rua João Mello",
        "zipcode": "88341-604"
    },
    {
        "city": "Camboriú",
        "state": "SC",
        "district": "Cedro",
        "street": "Rua Maria Tereza Vieira",
        "zipcode": "88341-703"
    },
    {
        "city": "Camboriú",
        "state": "SC",
        "district": "Cedro",
        "street": "Rua Bento Ramiro Rocha",
        "zipcode": "88341-712"
    },
    {
        "city": "Camboriú",
        "state": "SC",
        "district": "Centro",
        "street": "Rua Siqueira Campos",
        "zipcode": "88340-374"
    },
    {
        "city": "Camboriú",
        "state": "SC",
        "district": "Lídia Duarte",
        "street": "Rua Antonio José Jorge Filho",
        "zipcode": "88341-073"
    },
    {
        "city": "Camboriú",
        "state": "SC",
        "district": "Cedro",
        "street": "Rua Oclandio Nicolao da Silva",
        "zipcode": "88341-583"
    },
    {
        "city": "Camboriú",
        "state": "SC",
        "district": "São Francisco de Assis",
        "street": "Rua São Jorge",
        "zipcode": "88340-612"
    },
    {
        "city": "Camboriú",
        "state": "SC",
        "district": "São Francisco de Assis",
        "street": "Rua São Gabriel",
        "zipcode": "88340-616"
    },
    {
        "city": "Camboriú",
        "state": "SC",
        "district": "São Francisco de Assis",
        "street": "Rua São Carlos",
        "zipcode": "88340-624"
    },
    {
        "city": "Camboriú",
        "state": "SC",
        "district": "São Francisco de Assis",
        "street": "Rua São Bonifácio",
        "zipcode": "88340-638"
    },
    {
        "city": "Camboriú",
        "state": "SC",
        "district": "São Francisco de Assis",
        "street": "Rua Santo Estevão",
        "zipcode": "88340-684"
    },
    {
        "city": "Camboriú",
        "state": "SC",
        "district": "São Francisco de Assis",
        "street": "Rua Santo André",
        "zipcode": "88340-696"
    },
    {
        "city": "Camboriú",
        "state": "SC",
        "district": "São Francisco de Assis",
        "street": "Rua São João",
        "zipcode": "88340-704"
    },
    {
        "city": "Camboriú",
        "state": "SC",
        "district": "São Francisco de Assis",
        "street": "Rua São Marcos",
        "zipcode": "88340-716"
    },
    {
        "city": "Camboriú",
        "state": "SC",
        "district": "São Francisco de Assis",
        "street": "Rua Santa Terezinha",
        "zipcode": "88340-724"
    },
    {
        "city": "Camboriú",
        "state": "SC",
        "district": "São Francisco de Assis",
        "street": "Rua Santa Paulina",
        "zipcode": "88340-736"
    },
    {
        "city": "Camboriú",
        "state": "SC",
        "district": "São Francisco de Assis",
        "street": "Rua São Sebastião",
        "zipcode": "88340-780"
    },
    {
        "city": "Camboriú",
        "state": "SC",
        "district": "São Francisco de Assis",
        "street": "Rua São Miguel",
        "zipcode": "88340-805"
    },
    {
        "city": "Camboriú",
        "state": "SC",
        "district": "Cedro",
        "street": "Rua Idalino Benvenutti",
        "zipcode": "88341-592"
    },
    {
        "city": "Camboriú",
        "state": "SC",
        "district": "Lídia Duarte",
        "street": "Rua Olímpio Soares",
        "zipcode": "88341-003"
    },
    {
        "city": "Camboriú",
        "state": "SC",
        "district": "Lídia Duarte",
        "street": "Rua Francisco Alípio dos Santos",
        "zipcode": "88341-006"
    },
    {
        "city": "Camboriú",
        "state": "SC",
        "district": "São Francisco de Assis",
        "street": "Rua São Genaro",
        "zipcode": "88340-714"
    },
    {
        "city": "Camboriú",
        "state": "SC",
        "district": "Cedro",
        "street": "Rua Pedro Orsi",
        "zipcode": "88341-787"
    },
    {
        "city": "Camboriú",
        "state": "SC",
        "district": "Cedro",
        "street": "Rua Herminio Claudio da Silva",
        "zipcode": "88341-512"
    },
    {
        "city": "Camboriú",
        "state": "SC",
        "district": "Cedro",
        "street": "Rua Alci Teixeira",
        "zipcode": "88341-532"
    },
    {
        "city": "Camboriú",
        "state": "SC",
        "district": "Cedro",
        "street": "Rua Marciano Honorato",
        "zipcode": "88341-516"
    },
    {
        "city": "Camboriú",
        "state": "SC",
        "district": "Cedro",
        "street": "Rua João Anastácio da Silva",
        "zipcode": "88341-524"
    },
    {
        "city": "Camboriú",
        "state": "SC",
        "district": "Rio Pequeno",
        "street": "Rua Rio Claro",
        "zipcode": "88343-401"
    },
    {
        "city": "Camboriú",
        "state": "SC",
        "district": "Rio Pequeno",
        "street": "Rua Rio Jaguariba",
        "zipcode": "88343-702"
    },
    {
        "city": "Camboriú",
        "state": "SC",
        "district": "Rio Pequeno",
        "street": "Rua Rio Ipanema",
        "zipcode": "88343-722"
    },
    {
        "city": "Camboriú",
        "state": "SC",
        "district": "Rio Pequeno",
        "street": "Rua Rio Madeira",
        "zipcode": "88343-738"
    },
    {
        "city": "Camboriú",
        "state": "SC",
        "district": "Rio Pequeno",
        "street": "Rua Rio Ipiranga",
        "zipcode": "88343-840"
    },
    {
        "city": "Camboriú",
        "state": "SC",
        "district": "Rio Pequeno",
        "street": "Rua Rio Gavião",
        "zipcode": "88343-706"
    },
    {
        "city": "Camboriú",
        "state": "SC",
        "district": "Rio Pequeno",
        "street": "Rua Rio Jari",
        "zipcode": "88343-730"
    },
    {
        "city": "Camboriú",
        "state": "SC",
        "district": "Rio Pequeno",
        "street": "Rua Rio Negro",
        "zipcode": "88343-409"
    },
    {
        "city": "Camboriú",
        "state": "SC",
        "district": "Rio Pequeno",
        "street": "Rua Rio Imarui",
        "zipcode": "88343-415"
    },
    {
        "city": "Camboriú",
        "state": "SC",
        "district": "Rio Pequeno",
        "street": "Rua Rio Pardo",
        "zipcode": "88343-570"
    },
    {
        "city": "Camboriú",
        "state": "SC",
        "district": "Rio Pequeno",
        "street": "Rua Rio Paraguaçu",
        "zipcode": "88343-573"
    },
    {
        "city": "Camboriú",
        "state": "SC",
        "district": "Centro",
        "street": "Rua Hercílio Zuchi",
        "zipcode": "88340-254"
    },
    {
        "city": "Camboriú",
        "state": "SC",
        "district": "Centro",
        "street": "Rua Benjamim Garcia",
        "zipcode": "88340-269"
    },
    {
        "city": "Camboriú",
        "state": "SC",
        "district": "Centro",
        "street": "Rua 7 de Setembro",
        "zipcode": "88340-272"
    },
    {
        "city": "Camboriú",
        "state": "SC",
        "district": "Centro",
        "street": "Rua Orquídea",
        "zipcode": "88340-275"
    },
    {
        "city": "Camboriú",
        "state": "SC",
        "district": "Centro",
        "street": "Rua Zélia Saut",
        "zipcode": "88340-287"
    },
    {
        "city": "Camboriú",
        "state": "SC",
        "district": "Centro",
        "street": "Rua Henrique Coppi",
        "zipcode": "88340-290"
    },
    {
        "city": "Camboriú",
        "state": "SC",
        "district": "Centro",
        "street": "Rua Lauro Muller",
        "zipcode": "88340-293"
    },
    {
        "city": "Camboriú",
        "state": "SC",
        "district": "Centro",
        "street": "Rua Mathias Faquetti",
        "zipcode": "88340-317"
    },
    {
        "city": "Camboriú",
        "state": "SC",
        "district": "Centro",
        "street": "Rua Antonio Idelfonso Garcia",
        "zipcode": "88340-323"
    },
    {
        "city": "Camboriú",
        "state": "SC",
        "district": "Centro",
        "street": "Rua Acilá Garcia",
        "zipcode": "88340-332"
    },
    {
        "city": "Camboriú",
        "state": "SC",
        "district": "Centro",
        "street": "Rua Pedro Bento da Silva",
        "zipcode": "88340-335"
    },
    {
        "city": "Camboriú",
        "state": "SC",
        "district": "Centro",
        "street": "Rua Evelina Vieira",
        "zipcode": "88340-359"
    },
    {
        "city": "Camboriú",
        "state": "SC",
        "district": "Centro",
        "street": "Rua Cypriano Manoel Vieira",
        "zipcode": "88340-368"
    },
    {
        "city": "Camboriú",
        "state": "SC",
        "district": "Centro",
        "street": "Rua Coronel Benjamin Vieira",
        "zipcode": "88340-356"
    },
    {
        "city": "Camboriú",
        "state": "SC",
        "district": "Centro",
        "street": "Rua Rodolfo Silva Simas",
        "zipcode": "88340-046"
    },
    {
        "city": "Camboriú",
        "state": "SC",
        "district": "Centro",
        "street": "Rua Curitiba",
        "zipcode": "88340-248"
    },
    {
        "city": "Camboriú",
        "state": "SC",
        "district": "Centro",
        "street": "Rua José Rebelo da Cunha",
        "zipcode": "88340-308"
    },
    {
        "city": "Camboriú",
        "state": "SC",
        "district": "Centro",
        "street": "Rua Heitor Santos",
        "zipcode": "88340-320"
    },
    {
        "city": "Camboriú",
        "state": "SC",
        "district": "São Francisco de Assis",
        "street": "Rua São Pedro",
        "zipcode": "88340-608"
    },
    {
        "city": "Camboriú",
        "state": "SC",
        "district": "São Francisco de Assis",
        "street": "Rua São Mateus",
        "zipcode": "88340-692"
    },
    {
        "city": "Camboriú",
        "state": "SC",
        "district": "São Francisco de Assis",
        "street": "Rua Santo Inácio",
        "zipcode": "88340-700"
    },
    {
        "city": "Camboriú",
        "state": "SC",
        "district": "São Francisco de Assis",
        "street": "Rua São Caetano",
        "zipcode": "88340-752"
    },
    {
        "city": "Camboriú",
        "state": "SC",
        "district": "São Francisco de Assis",
        "street": "Rua São Leopoldo",
        "zipcode": "88340-760"
    },
    {
        "city": "Camboriú",
        "state": "SC",
        "district": "Centro",
        "street": "Rua Siqueira Campos",
        "zipcode": "88340-449"
    },
    {
        "city": "Camboriú",
        "state": "SC",
        "district": "Monte Alegre (Monte Alegre)",
        "street": "Rua Monte Tajubá",
        "zipcode": "88348-553"
    },
    {
        "city": "Camboriú",
        "state": "SC",
        "district": "Centro",
        "street": "Rua Hilda Garcia",
        "zipcode": "88340-485"
    },
    {
        "city": "Camboriú",
        "state": "SC",
        "district": "Centro",
        "street": "Rua José Luciano Nunes",
        "zipcode": "88340-539"
    },
    {
        "city": "Camboriú",
        "state": "SC",
        "district": "Lídia Duarte",
        "street": "Rua João Batista Ganancini",
        "zipcode": "88341-076"
    },
    {
        "city": "Camboriú",
        "state": "SC",
        "district": "Lídia Duarte",
        "street": "Rua Maria Uller do Carmo",
        "zipcode": "88341-090"
    },
    {
        "city": "Camboriú",
        "state": "SC",
        "district": "Lídia Duarte",
        "street": "Rua Vitor Pedro Correa",
        "zipcode": "88341-130"
    },
    {
        "city": "Camboriú",
        "state": "SC",
        "district": "Lídia Duarte",
        "street": "Rua Jaílson Francisco de Miranda",
        "zipcode": "88341-173"
    },
    {
        "city": "Camboriú",
        "state": "SC",
        "district": "Lídia Duarte",
        "street": "Rua Raulino Luiz Bambinetti",
        "zipcode": "88341-176"
    },
    {
        "city": "Camboriú",
        "state": "SC",
        "district": "Lídia Duarte",
        "street": "Rua Idalino Benvenutti",
        "zipcode": "88341-185"
    },
    {
        "city": "Camboriú",
        "state": "SC",
        "district": "Lídia Duarte",
        "street": "Rua Amaro Luiz Cardoso",
        "zipcode": "88341-200"
    },
    {
        "city": "Camboriú",
        "state": "SC",
        "district": "Lídia Duarte",
        "street": "Rua do Empreendedor",
        "zipcode": "88341-240"
    },
    {
        "city": "Camboriú",
        "state": "SC",
        "district": "Lídia Duarte",
        "street": "Rua dos Empresários",
        "zipcode": "88341-256"
    },
    {
        "city": "Camboriú",
        "state": "SC",
        "district": "Centro",
        "street": "Rua João Lázaro do Nascimento",
        "zipcode": "88340-482"
    },
    {
        "city": "Camboriú",
        "state": "SC",
        "district": "Centro",
        "street": "Rua Irani Ana Moser",
        "zipcode": "88340-494"
    },
    {
        "city": "Camboriú",
        "state": "SC",
        "district": "Lídia Duarte",
        "street": "Rua José Alexandre Bolda",
        "zipcode": "88341-133"
    },
    {
        "city": "Camboriú",
        "state": "SC",
        "district": "Lídia Duarte",
        "street": "Rua Izaura da Silva Barcelos",
        "zipcode": "88341-085"
    },
    {
        "city": "Camboriú",
        "state": "SC",
        "district": "Centro",
        "street": "Rua Castelo Branco",
        "zipcode": "88340-533"
    },
    {
        "city": "Camboriú",
        "state": "SC",
        "district": "Lídia Duarte",
        "street": "Rua Osvaldo Minella",
        "zipcode": "88341-139"
    },
    {
        "city": "Camboriú",
        "state": "SC",
        "district": "Lídia Duarte",
        "street": "Avenida das Indústrias",
        "zipcode": "88341-244"
    },
    {
        "city": "Camboriú",
        "state": "SC",
        "district": "Centro",
        "street": "Rua Zilda Silva de Souza",
        "zipcode": "88340-431"
    },
    {
        "city": "Camboriú",
        "state": "SC",
        "district": "Centro",
        "street": "Servidão Juri Silva",
        "zipcode": "88340-443"
    },
    {
        "city": "Camboriú",
        "state": "SC",
        "district": "Centro",
        "street": "Rua Pedro Ramos",
        "zipcode": "88340-479"
    },
    {
        "city": "Camboriú",
        "state": "SC",
        "district": "Centro",
        "street": "Rua Rio Solimões",
        "zipcode": "88340-458"
    },
    {
        "city": "Camboriú",
        "state": "SC",
        "district": "Centro",
        "street": "Rua 31 de Março",
        "zipcode": "88340-536"
    },
    {
        "city": "Camboriú",
        "state": "SC",
        "district": "Centro",
        "street": "Travessa Doze",
        "zipcode": "88340-545"
    },
    {
        "city": "Camboriú",
        "state": "SC",
        "district": "São Francisco de Assis",
        "street": "Rua Santo Antonio",
        "zipcode": "88340-600"
    },
    {
        "city": "Camboriú",
        "state": "SC",
        "district": "Lídia Duarte",
        "street": "Servidão Francisco Medeiros",
        "zipcode": "88341-136"
    },
    {
        "city": "Camboriú",
        "state": "SC",
        "district": "Centro",
        "street": "Rua Sérgio Paulo Moraes",
        "zipcode": "88340-257"
    },
    {
        "city": "Camboriú",
        "state": "SC",
        "district": "Monte Alegre (Monte Alegre)",
        "street": "Rua Monte Corcovado",
        "zipcode": "88348-619"
    },
    {
        "city": "Camboriú",
        "state": "SC",
        "district": "Monte Alegre (Monte Alegre)",
        "street": "Rua Gerânio",
        "zipcode": "88348-693"
    },
    {
        "city": "Camboriú",
        "state": "SC",
        "district": "Tabuleiro (Monte Alegre)",
        "street": "Rua Coqueiros",
        "zipcode": "88348-101"
    },
    {
        "city": "Camboriú",
        "state": "SC",
        "district": "Tabuleiro (Monte Alegre)",
        "street": "Rua Imbuia",
        "zipcode": "88348-216"
    },
    {
        "city": "Camboriú",
        "state": "SC",
        "district": "Lídia Duarte",
        "street": "Rua Maria Teodora de Souza",
        "zipcode": "88341-194"
    },
    {
        "city": "Camboriú",
        "state": "SC",
        "district": "Monte Alegre (Monte Alegre)",
        "street": "Rua Monte Sajana",
        "zipcode": "88348-674"
    },
    {
        "city": "Camboriú",
        "state": "SC",
        "district": "Tabuleiro (Monte Alegre)",
        "street": "Rua Tereza Evangelista Gonçalves",
        "zipcode": "88348-122"
    },
    {
        "city": "Camboriú",
        "state": "SC",
        "district": "Tabuleiro (Monte Alegre)",
        "street": "Rua Massaranduba",
        "zipcode": "88348-231"
    },
    {
        "city": "Camboriú",
        "state": "SC",
        "district": "Centro",
        "street": "Rua Gustavo Richard",
        "zipcode": "88340-281"
    },
    {
        "city": "Camboriú",
        "state": "SC",
        "district": "Centro",
        "street": "Rua Osmar Dutra Mello",
        "zipcode": "88340-284"
    },
    {
        "city": "Camboriú",
        "state": "SC",
        "district": "Centro",
        "street": "Rua Theonilia Francisca Simas",
        "zipcode": "88340-302"
    },
    {
        "city": "Camboriú",
        "state": "SC",
        "district": "Centro",
        "street": "Rua Osana Maria Garcia Rocha",
        "zipcode": "88340-311"
    },
    {
        "city": "Camboriú",
        "state": "SC",
        "district": "Centro",
        "street": "Rua Luiz Gonzaga de Souza",
        "zipcode": "88340-341"
    },
    {
        "city": "Camboriú",
        "state": "SC",
        "district": "Centro",
        "street": "Rua Vitório de Souza Veiga",
        "zipcode": "88340-344"
    },
    {
        "city": "Camboriú",
        "state": "SC",
        "district": "Monte Alegre (Monte Alegre)",
        "street": "Rua Monte Maipu",
        "zipcode": "88348-816"
    },
    {
        "city": "Camboriú",
        "state": "SC",
        "district": "Rio Pequeno",
        "street": "Rua Santa Madalena",
        "zipcode": "88343-220"
    },
    {
        "city": "Camboriú",
        "state": "SC",
        "district": "Centro",
        "street": "Rua Leopoldo Leite",
        "zipcode": "88340-001"
    },
    {
        "city": "Camboriú",
        "state": "SC",
        "district": "Centro",
        "street": "Rua José Batista de Almeida",
        "zipcode": "88340-034"
    },
    {
        "city": "Camboriú",
        "state": "SC",
        "district": "Tabuleiro (Monte Alegre)",
        "street": "Rua Manoel Inácio Linhares",
        "zipcode": "88348-162"
    },
    {
        "city": "Camboriú",
        "state": "SC",
        "district": "Centro",
        "street": "Rua Francisco Garcia",
        "zipcode": "88340-007"
    },
    {
        "city": "Camboriú",
        "state": "SC",
        "district": "Centro",
        "street": "Rua Lauro Rebello",
        "zipcode": "88340-013"
    },
    {
        "city": "Camboriú",
        "state": "SC",
        "district": "Centro",
        "street": "Rua Augusto Feijó",
        "zipcode": "88340-019"
    },
    {
        "city": "Camboriú",
        "state": "SC",
        "district": "Várzea do Ranchinho (Monte Alegre)",
        "street": "Rua Pouso Redondo",
        "zipcode": "88349-154"
    },
    {
        "city": "Camboriú",
        "state": "SC",
        "district": "Centro",
        "street": "Rua José Francisco Bernardes",
        "zipcode": "88340-970"
    },
    {
        "city": "Camboriú",
        "state": "SC",
        "district": "Centro",
        "street": "Rua Belém",
        "zipcode": "88340-191"
    },
    {
        "city": "Camboriú",
        "state": "SC",
        "district": "Centro",
        "street": "Rua Salvador",
        "zipcode": "88340-194"
    },
    {
        "city": "Camboriú",
        "state": "SC",
        "district": "Centro",
        "street": "Rua Pedro Saut Junior",
        "zipcode": "88340-398"
    },
    {
        "city": "Camboriú",
        "state": "SC",
        "district": "Centro",
        "street": "Rua Francisco Barreto",
        "zipcode": "88340-401"
    },
    {
        "city": "Camboriú",
        "state": "SC",
        "district": "Centro",
        "street": "Rua 5 de abril",
        "zipcode": "88340-407"
    },
    {
        "city": "Camboriú",
        "state": "SC",
        "district": "Centro",
        "street": "Rua João Cristóvão Pacheco",
        "zipcode": "88340-416"
    },
    {
        "city": "Camboriú",
        "state": "SC",
        "district": "Centro",
        "street": "Rua Cesar Rosa",
        "zipcode": "88340-464"
    },
    {
        "city": "Camboriú",
        "state": "SC",
        "district": "Centro",
        "street": "Rua Doutor Acácio Bernardes",
        "zipcode": "88340-413"
    },
    {
        "city": "Camboriú",
        "state": "SC",
        "district": "Centro",
        "street": "Rua Antonio Cassemiro Bitencourt",
        "zipcode": "88340-386"
    },
    {
        "city": "Camboriú",
        "state": "SC",
        "district": "Centro",
        "street": "Rua José Francisco Bernardes",
        "zipcode": "88340-233"
    },
    {
        "city": "Camboriú",
        "state": "SC",
        "district": "Centro",
        "street": "Rua Goiania",
        "zipcode": "88340-227"
    },
    {
        "city": "Camboriú",
        "state": "SC",
        "district": "Centro",
        "street": "Rua Aracaju",
        "zipcode": "88340-200"
    },
    {
        "city": "Camboriú",
        "state": "SC",
        "district": "Centro",
        "street": "Rua São Paulo",
        "zipcode": "88340-209"
    },
    {
        "city": "Camboriú",
        "state": "SC",
        "district": "Centro",
        "street": "Rua Olga Bernardes Amorim",
        "zipcode": "88340-212"
    },
    {
        "city": "Camboriú",
        "state": "SC",
        "district": "Centro",
        "street": "Rua Pedro Honorato Amorim",
        "zipcode": "88340-215"
    },
    {
        "city": "Camboriú",
        "state": "SC",
        "district": "Centro",
        "street": "Rua Curitiba",
        "zipcode": "88340-218"
    },
    {
        "city": "Camboriú",
        "state": "SC",
        "district": "Centro",
        "street": "Rua Florianópolis",
        "zipcode": "88340-203"
    },
    {
        "city": "Camboriú",
        "state": "SC",
        "district": "Centro",
        "street": "Rua Tarci Testoni dos Santos",
        "zipcode": "88340-164"
    },
    {
        "city": "Camboriú",
        "state": "SC",
        "district": "Centro",
        "street": "Rua Antonio de Almeida",
        "zipcode": "88340-170"
    },
    {
        "city": "Camboriú",
        "state": "SC",
        "district": "Centro",
        "street": "Rua Amazonas",
        "zipcode": "88340-179"
    },
    {
        "city": "Camboriú",
        "state": "SC",
        "district": "Centro",
        "street": "Rua Justina de Souza Pena",
        "zipcode": "88340-182"
    },
    {
        "city": "Camboriú",
        "state": "SC",
        "district": "Centro",
        "street": "Rua Manaus",
        "zipcode": "88340-188"
    },
    {
        "city": "Camboriú",
        "state": "SC",
        "district": "Centro",
        "street": "Rua Arnoldo Bastos",
        "zipcode": "88340-146"
    },
    {
        "city": "Camboriú",
        "state": "SC",
        "district": "Centro",
        "street": "Rua Valmir Zanette",
        "zipcode": "88340-161"
    },
    {
        "city": "Camboriú",
        "state": "SC",
        "district": "Rio Pequeno",
        "street": "Servidão Rio Cachoeira",
        "zipcode": "88343-588"
    },
    {
        "city": "Camboriú",
        "state": "SC",
        "district": "Rio Pequeno",
        "street": "Rua Rio São Francisco",
        "zipcode": "88343-859"
    },
    {
        "city": "Camboriú",
        "state": "SC",
        "district": "Rio Pequeno",
        "street": "Rua Rio Jacutinga",
        "zipcode": "88343-867"
    },
    {
        "city": "Camboriú",
        "state": "SC",
        "district": "São Francisco de Assis",
        "street": "Rua Santa Ana",
        "zipcode": "88340-604"
    },
    {
        "city": "Camboriú",
        "state": "SC",
        "district": "Cedro",
        "street": "Rua Nadyr Garcia Azevedo",
        "zipcode": "88341-785"
    },
    {
        "city": "Camboriú",
        "state": "SC",
        "district": "Centro",
        "street": "Rua Nivaldo Nicolau Gardini",
        "zipcode": "88340-329"
    },
    {
        "city": "Camboriú",
        "state": "SC",
        "district": "Centro",
        "street": "Rua Getúlio Vargas",
        "zipcode": "88340-347"
    },
    {
        "city": "Camboriú",
        "state": "SC",
        "district": "Cedro",
        "street": "Rua Braz Garcia",
        "zipcode": "88341-700"
    },
    {
        "city": "Camboriú",
        "state": "SC",
        "district": "Cedro",
        "street": "Rua Odete Epifanea da Silva",
        "zipcode": "88341-709"
    },
    {
        "city": "Camboriú",
        "state": "SC",
        "district": "Centro",
        "street": "Rua Heitor Santos",
        "zipcode": "88340-314"
    },
    {
        "city": "Camboriú",
        "state": "SC",
        "district": "Centro",
        "street": "Rua Presidente Costa e Silva",
        "zipcode": "88340-377"
    },
    {
        "city": "Camboriú",
        "state": "SC",
        "district": "Rio Pequeno",
        "street": "Rua Rio Amazonas",
        "zipcode": "88343-103"
    },
    {
        "city": "Camboriú",
        "state": "SC",
        "district": "Cedro",
        "street": "Rua Osvaldo Minella",
        "zipcode": "88341-580"
    },
    {
        "city": "Camboriú",
        "state": "SC",
        "district": "Cedro",
        "street": "Rua Daniel Silvério",
        "zipcode": "88341-595"
    },
    {
        "city": "Camboriú",
        "state": "SC",
        "district": "Centro",
        "street": "Rua Joaquim Anastácio",
        "zipcode": "88340-028"
    },
    {
        "city": "Camboriú",
        "state": "SC",
        "district": "Centro",
        "street": "Rua Cinquentenário",
        "zipcode": "88340-031"
    },
    {
        "city": "Camboriú",
        "state": "SC",
        "district": "Centro",
        "street": "Rua Cândido Gonçalves Chaves",
        "zipcode": "88340-040"
    },
    {
        "city": "Camboriú",
        "state": "SC",
        "district": "Centro",
        "street": "Rua Cipriano João da Silva",
        "zipcode": "88340-043"
    },
    {
        "city": "Camboriú",
        "state": "SC",
        "district": "Tabuleiro (Monte Alegre)",
        "street": "Rua Mangabeira",
        "zipcode": "88348-195"
    },
    {
        "city": "Camboriú",
        "state": "SC",
        "district": "São Francisco de Assis",
        "street": "Rua São Nicolau",
        "zipcode": "88340-620"
    },
    {
        "city": "Camboriú",
        "state": "SC",
        "district": "São Francisco de Assis",
        "street": "Rua São José",
        "zipcode": "88340-688"
    },
    {
        "city": "Camboriú",
        "state": "SC",
        "district": "São Francisco de Assis",
        "street": "Rua Santa Maria",
        "zipcode": "88340-756"
    },
    {
        "city": "Camboriú",
        "state": "SC",
        "district": "Santa Regina",
        "street": "Rua Buenos Aires",
        "zipcode": "88345-686"
    },
    {
        "city": "Camboriú",
        "state": "SC",
        "district": "Monte Alegre (Monte Alegre)",
        "street": "Rua Monte Andes",
        "zipcode": "88348-550"
    },
    {
        "city": "Camboriú",
        "state": "SC",
        "district": "Monte Alegre (Monte Alegre)",
        "street": "Rua Monte Carlos",
        "zipcode": "88348-568"
    },
    {
        "city": "Camboriú",
        "state": "SC",
        "district": "Santa Regina",
        "street": "Rua Guatemala",
        "zipcode": "88345-704"
    },
    {
        "city": "Camboriú",
        "state": "SC",
        "district": "Tabuleiro (Monte Alegre)",
        "street": "Rua Ariribá",
        "zipcode": "88348-080"
    },
    {
        "city": "Camboriú",
        "state": "SC",
        "district": "Monte Alegre (Monte Alegre)",
        "street": "Rua Monte Calvário",
        "zipcode": "88348-517"
    },
    {
        "city": "Camboriú",
        "state": "SC",
        "district": "Tabuleiro (Monte Alegre)",
        "street": "Rua Imbuia",
        "zipcode": "88348-068"
    },
    {
        "city": "Camboriú",
        "state": "SC",
        "district": "Tabuleiro (Monte Alegre)",
        "street": "Rua Silveira",
        "zipcode": "88348-273"
    },
    {
        "city": "Camboriú",
        "state": "SC",
        "district": "Monte Alegre (Monte Alegre)",
        "street": "Rua Paraná",
        "zipcode": "88348-601"
    },
    {
        "city": "Camboriú",
        "state": "SC",
        "district": "Cedro",
        "street": "Rua Maria da Silva Balland",
        "zipcode": "88341-504"
    },
    {
        "city": "Camboriú",
        "state": "SC",
        "district": "Cedro",
        "street": "Rua Rio Amazonas",
        "zipcode": "88341-528"
    },
    {
        "city": "Camboriú",
        "state": "SC",
        "district": "Rio Pequeno",
        "street": "Rua Rio Amazonas",
        "zipcode": "88343-400"
    },
    {
        "city": "Camboriú",
        "state": "SC",
        "district": "Rio Pequeno",
        "street": "Rua Rio Camboriú",
        "zipcode": "88343-406"
    },
    {
        "city": "Camboriú",
        "state": "SC",
        "district": "Rio Pequeno",
        "street": "Rua Rio Guarani",
        "zipcode": "88343-437"
    },
    {
        "city": "Camboriú",
        "state": "SC",
        "district": "Lídia Duarte",
        "street": "Rua Lucília Reis Coppi",
        "zipcode": "88341-134"
    },
    {
        "city": "Camboriú",
        "state": "SC",
        "district": "Rio Pequeno",
        "street": "Servidão Rio da Prata",
        "zipcode": "88343-591"
    },
    {
        "city": "Camboriú",
        "state": "SC",
        "district": "Lídia Duarte",
        "street": "Rua Gabriel Vitor Coelho",
        "zipcode": "88341-145"
    },
    {
        "city": "Camboriú",
        "state": "SC",
        "district": "Centro",
        "street": "Rua Oscar Vieira",
        "zipcode": "88340-425"
    },
    {
        "city": "Camboriú",
        "state": "SC",
        "district": "Centro",
        "street": "Rua Oscar Vieira",
        "zipcode": "88340-434"
    },
    {
        "city": "Camboriú",
        "state": "SC",
        "district": "Centro",
        "street": "Rua Rio Amazonas",
        "zipcode": "88340-452"
    },
    {
        "city": "Camboriú",
        "state": "SC",
        "district": "Centro",
        "street": "Rua Luiz Vieira dos Santos",
        "zipcode": "88340-395"
    },
    {
        "city": "Camboriú",
        "state": "SC",
        "district": "Centro",
        "street": "Rua Ricardo Asse",
        "zipcode": "88340-140"
    },
    {
        "city": "Camboriú",
        "state": "SC",
        "district": "Centro",
        "street": "Rua Prefeito Joaquim da Silva Santos",
        "zipcode": "88340-064"
    },
    {
        "city": "Camboriú",
        "state": "SC",
        "district": "Centro",
        "street": "Rua Prefeito João Dalmácio de Mello",
        "zipcode": "88340-061"
    },
    {
        "city": "Camboriú",
        "state": "SC",
        "district": "Santa Regina",
        "street": "Rua Damasco",
        "zipcode": "88345-587"
    },
    {
        "city": "Camboriú",
        "state": "SC",
        "district": "Tabuleiro (Monte Alegre)",
        "street": "Rua Braúna",
        "zipcode": "88348-053"
    },
    {
        "city": "Camboriú",
        "state": "SC",
        "district": "Rio Pequeno",
        "street": "Rua Rio Juruá",
        "zipcode": "88343-714"
    },
    {
        "city": "Camboriú",
        "state": "SC",
        "district": "Santa Regina",
        "street": "Rua Vienna",
        "zipcode": "88345-575"
    },
    {
        "city": "Camboriú",
        "state": "SC",
        "district": "Santa Regina",
        "street": "Rua Santiago",
        "zipcode": "88345-671"
    },
    {
        "city": "Camboriú",
        "state": "SC",
        "district": "Santa Regina",
        "street": "Rua San Marino",
        "zipcode": "88345-735"
    },
    {
        "city": "Camboriú",
        "state": "SC",
        "district": "Tabuleiro (Monte Alegre)",
        "street": "Rua Tarumã",
        "zipcode": "88348-255"
    },
    {
        "city": "Camboriú",
        "state": "SC",
        "district": "Rio Pequeno",
        "street": "Rua Rio Benedito",
        "zipcode": "88343-597"
    },
    {
        "city": "Camboriú",
        "state": "SC",
        "district": "Centro",
        "street": "Rua Siqueira Campos",
        "zipcode": "88340-488"
    },
    {
        "city": "Camboriú",
        "state": "SC",
        "district": "Rio Pequeno",
        "street": "Rua Rio Ijuí",
        "zipcode": "88343-467"
    },
    {
        "city": "Camboriú",
        "state": "SC",
        "district": "Lídia Duarte",
        "street": "Rua Maria da Silva Borba",
        "zipcode": "88341-046"
    },
    {
        "city": "Camboriú",
        "state": "SC",
        "district": "Rio Pequeno",
        "street": "Rua Rio São Mateus",
        "zipcode": "88343-115"
    },
    {
        "city": "Camboriú",
        "state": "SC",
        "district": "Centro",
        "street": "Rua Manuel Anastácio Pereira",
        "zipcode": "88340-299"
    },
    {
        "city": "Camboriú",
        "state": "SC",
        "district": "Lídia Duarte",
        "street": "Rua João Nestor Simas",
        "zipcode": "88341-049"
    },
    {
        "city": "Camboriú",
        "state": "SC",
        "district": "São Francisco de Assis",
        "street": "Rua Santo Amaro",
        "zipcode": "88340-750"
    },
    {
        "city": "Camboriú",
        "state": "SC",
        "district": "Cedro",
        "street": "Rua Amilton Rogério Oliveira",
        "zipcode": "88341-598"
    },
    {
        "city": "Camboriú",
        "state": "SC",
        "district": "Cedro",
        "street": "Rua Rodrigo Fáveri",
        "zipcode": "88341-706"
    },
    {
        "city": "Camboriú",
        "state": "SC",
        "district": "Cedro",
        "street": "Rua Luiz de Aguiar",
        "zipcode": "88341-783"
    },
    {
        "city": "Camboriú",
        "state": "SC",
        "district": "Cedro",
        "street": "Rua Fábio Margarida da Silva",
        "zipcode": "88341-792"
    },
    {
        "city": "Camboriú",
        "state": "SC",
        "district": "Centro",
        "street": "Avenida Santa Catarina",
        "zipcode": "88340-010"
    },
    {
        "city": "Camboriú",
        "state": "SC",
        "district": "Centro",
        "street": "Rua Manoel Inácio Linhares",
        "zipcode": "88340-037"
    },
    {
        "city": "Camboriú",
        "state": "SC",
        "district": "Centro",
        "street": "Rua Porto Alegre",
        "zipcode": "88340-251"
    },
    {
        "city": "Camboriú",
        "state": "SC",
        "district": "Centro",
        "street": "Rua José Rebelo da Cunha",
        "zipcode": "88340-326"
    },
    {
        "city": "Camboriú",
        "state": "SC",
        "district": "Cedro",
        "street": "Rua Daniel Silvério",
        "zipcode": "88341-789"
    },
    {
        "city": "Camboriú",
        "state": "SC",
        "district": "Centro",
        "street": "Rua Geraldo José Soares",
        "zipcode": "88340-022"
    },
    {
        "city": "Camboriú",
        "state": "SC",
        "district": "Centro",
        "street": "Rua 3",
        "zipcode": "88340-025"
    },
    {
        "city": "Camboriú",
        "state": "SC",
        "district": "São Francisco de Assis",
        "street": "Rua Santo Alexandre",
        "zipcode": "88340-720"
    },
    {
        "city": "Camboriú",
        "state": "SC",
        "district": "São Francisco de Assis",
        "street": "Rua Santa Adelaide",
        "zipcode": "88340-732"
    },
    {
        "city": "Camboriú",
        "state": "SC",
        "district": "Santa Regina",
        "street": "Rua Cingapura",
        "zipcode": "88345-563"
    },
    {
        "city": "Camboriú",
        "state": "SC",
        "district": "Areias",
        "street": "Rua Goiás",
        "zipcode": "88345-057"
    },
    {
        "city": "Camboriú",
        "state": "SC",
        "district": "Areias",
        "street": "Rua Agenor de Borba",
        "zipcode": "88345-231"
    },
    {
        "city": "Camboriú",
        "state": "SC",
        "district": "Areias",
        "street": "Rua Piauí",
        "zipcode": "88345-173"
    },
    {
        "city": "Camboriú",
        "state": "SC",
        "district": "Santa Regina",
        "street": "Rua Seul",
        "zipcode": "88345-524"
    },
    {
        "city": "Camboriú",
        "state": "SC",
        "district": "Rio Pequeno",
        "street": "Rua Rio Jordão",
        "zipcode": "88343-734"
    },
    {
        "city": "Camboriú",
        "state": "SC",
        "district": "Areias",
        "street": "Rua Belém",
        "zipcode": "88345-024"
    },
    {
        "city": "Camboriú",
        "state": "SC",
        "district": "Santa Regina",
        "street": "Rua Cingapura",
        "zipcode": "88345-542"
    },
    {
        "city": "Camboriú",
        "state": "SC",
        "district": "Lídia Duarte",
        "street": "Rua Clemente Felipe Duarte",
        "zipcode": "88341-188"
    },
    {
        "city": "Camboriú",
        "state": "SC",
        "district": "Lídia Duarte",
        "street": "Rua da Manufatura",
        "zipcode": "88341-246"
    },
    {
        "city": "Camboriú",
        "state": "SC",
        "district": "Lídia Duarte",
        "street": "Rua dos Trabalhadores",
        "zipcode": "88341-248"
    },
    {
        "city": "Camboriú",
        "state": "SC",
        "district": "Centro",
        "street": "Rua Adelaide Borba da Silva",
        "zipcode": "88340-550"
    },
    {
        "city": "Camboriú",
        "state": "SC",
        "district": "Centro",
        "street": "Rua Paschoal Antonio Felipe",
        "zipcode": "88340-467"
    },
    {
        "city": "Camboriú",
        "state": "SC",
        "district": "Centro",
        "street": "Rua Espírito Santo",
        "zipcode": "88340-185"
    },
    {
        "city": "Camboriú",
        "state": "SC",
        "district": "Centro",
        "street": "Rua Pedro Honorato Amorim",
        "zipcode": "88340-167"
    },
    {
        "city": "Camboriú",
        "state": "SC",
        "district": "Areias",
        "street": "Rua Bogotá (Lo. Dona Clara)",
        "zipcode": "88345-080"
    },
    {
        "city": "Camboriú",
        "state": "SC",
        "district": "Areias",
        "street": "Rua Argel (Lot. Dona Clara)",
        "zipcode": "88345-085"
    },
    {
        "city": "Camboriú",
        "state": "SC",
        "district": "Areias",
        "street": "Rua Goiás",
        "zipcode": "88345-143"
    },
    {
        "city": "Camboriú",
        "state": "SC",
        "district": "Santa Regina",
        "street": "Rua Jerusalém",
        "zipcode": "88345-539"
    },
    {
        "city": "Camboriú",
        "state": "SC",
        "district": "Rio Pequeno",
        "street": "Rua Rio Japurá",
        "zipcode": "88343-726"
    },
    {
        "city": "Camboriú",
        "state": "SC",
        "district": "Rio Pequeno",
        "street": "Rua Rio Paraíba",
        "zipcode": "88343-838"
    },
    {
        "city": "Camboriú",
        "state": "SC",
        "district": "Rio Pequeno",
        "street": "Rua Rio Guaíra",
        "zipcode": "88343-862"
    },
    {
        "city": "Camboriú",
        "state": "SC",
        "district": "Rio Pequeno",
        "street": "Rua Rio Iracema",
        "zipcode": "88343-869"
    },
    {
        "city": "Camboriú",
        "state": "SC",
        "district": "Areias",
        "street": "Rua Paulo Faquetti",
        "zipcode": "88345-000"
    },
    {
        "city": "Camboriú",
        "state": "SC",
        "district": "Areias",
        "street": "Rua Urias Bernardes",
        "zipcode": "88345-009"
    },
    {
        "city": "Camboriú",
        "state": "SC",
        "district": "Areias",
        "street": "Rua São Paulo",
        "zipcode": "88345-042"
    },
    {
        "city": "Camboriú",
        "state": "SC",
        "district": "Areias",
        "street": "Rua Vienna",
        "zipcode": "88345-110"
    },
    {
        "city": "Camboriú",
        "state": "SC",
        "district": "Areias",
        "street": "Rua José Francisco Bernardes",
        "zipcode": "88345-200"
    },
    {
        "city": "Camboriú",
        "state": "SC",
        "district": "Santa Regina",
        "street": "Rua Roma",
        "zipcode": "88345-536"
    },
    {
        "city": "Camboriú",
        "state": "SC",
        "district": "Santa Regina",
        "street": "Rua Lima",
        "zipcode": "88345-659"
    },
    {
        "city": "Camboriú",
        "state": "SC",
        "district": "Lídia Duarte",
        "street": "Rua Valério Olegário Rebelo",
        "zipcode": "88341-206"
    },
    {
        "city": "Camboriú",
        "state": "SC",
        "district": "Monte Alegre (Monte Alegre)",
        "street": "Rua Monte Ebal",
        "zipcode": "88348-686"
    },
    {
        "city": "Camboriú",
        "state": "SC",
        "district": "Centro",
        "street": "Rua Ana Garcia Pereira",
        "zipcode": "88340-305"
    },
    {
        "city": "Camboriú",
        "state": "SC",
        "district": "Centro",
        "street": "Rua Lourenço Coppi",
        "zipcode": "88340-362"
    },
    {
        "city": "Camboriú",
        "state": "SC",
        "district": "Monte Alegre (Monte Alegre)",
        "street": "Travessa Olho de Boneca",
        "zipcode": "88348-849"
    },
    {
        "city": "Camboriú",
        "state": "SC",
        "district": "Monte Alegre (Monte Alegre)",
        "street": "Rua Monte das Oliveiras",
        "zipcode": "88348-855"
    },
    {
        "city": "Camboriú",
        "state": "SC",
        "district": "Monte Alegre (Monte Alegre)",
        "street": "Rua Monte Fuji",
        "zipcode": "88348-858"
    },
    {
        "city": "Camboriú",
        "state": "SC",
        "district": "Lídia Duarte",
        "street": "Rua Maria Leopoldina de Jesus",
        "zipcode": "88341-058"
    },
    {
        "city": "Camboriú",
        "state": "SC",
        "district": "Monte Alegre (Monte Alegre)",
        "street": "Rua Flamboyant",
        "zipcode": "88348-837"
    },
    {
        "city": "Camboriú",
        "state": "SC",
        "district": "Centro",
        "street": "Rua Centenário",
        "zipcode": "88340-016"
    },
    {
        "city": "Camboriú",
        "state": "SC",
        "district": "Tabuleiro (Monte Alegre)",
        "street": "Rua Manoel Mateus de Bittencourt",
        "zipcode": "88348-159"
    },
    {
        "city": "Camboriú",
        "state": "SC",
        "district": "São Francisco de Assis",
        "street": "Rua Santa Anastácia",
        "zipcode": "88340-712"
    },
    {
        "city": "Camboriú",
        "state": "SC",
        "district": "São Francisco de Assis",
        "street": "Rua Santa Rosa",
        "zipcode": "88340-764"
    },
    {
        "city": "Camboriú",
        "state": "SC",
        "district": "Monte Alegre (Monte Alegre)",
        "street": "Rua Monte Bonete",
        "zipcode": "88348-502"
    },
    {
        "city": "Camboriú",
        "state": "SC",
        "district": "Monte Alegre (Monte Alegre)",
        "street": "Rua Monte Branco",
        "zipcode": "88348-505"
    },
    {
        "city": "Camboriú",
        "state": "SC",
        "district": "Monte Alegre (Monte Alegre)",
        "street": "Rua Monte Cruzeiro",
        "zipcode": "88348-508"
    },
    {
        "city": "Camboriú",
        "state": "SC",
        "district": "Monte Alegre (Monte Alegre)",
        "street": "Rua Monte Acaraí",
        "zipcode": "88348-547"
    },
    {
        "city": "Camboriú",
        "state": "SC",
        "district": "Monte Alegre (Monte Alegre)",
        "street": "Rua Manoel Inácio Linhares",
        "zipcode": "88348-562"
    },
    {
        "city": "Camboriú",
        "state": "SC",
        "district": "Areias",
        "street": "Rua Ivanda Serafim Azevedo",
        "zipcode": "88345-147"
    },
    {
        "city": "Camboriú",
        "state": "SC",
        "district": "Tabuleiro (Monte Alegre)",
        "street": "Travessa Pedra Rosa",
        "zipcode": "88348-021"
    },
    {
        "city": "Camboriú",
        "state": "SC",
        "district": "Tabuleiro (Monte Alegre)",
        "street": "Rua Palmeiras",
        "zipcode": "88348-243"
    },
    {
        "city": "Camboriú",
        "state": "SC",
        "district": "Santa Regina",
        "street": "Rua Paris",
        "zipcode": "88345-584"
    },
    {
        "city": "Camboriú",
        "state": "SC",
        "district": "Monte Alegre (Monte Alegre)",
        "street": "Rua Guaraparim",
        "zipcode": "88348-375"
    },
    {
        "city": "Camboriú",
        "state": "SC",
        "district": "Tabuleiro (Monte Alegre)",
        "street": "Rua Guaraparim",
        "zipcode": "88348-077"
    },
    {
        "city": "Camboriú",
        "state": "SC",
        "district": "Santa Regina",
        "street": "Rua Varsóvia",
        "zipcode": "88345-726"
    },
    {
        "city": "Camboriú",
        "state": "SC",
        "district": "Monte Alegre (Monte Alegre)",
        "street": "Rua Monte Colina",
        "zipcode": "88348-390"
    },
    {
        "city": "Camboriú",
        "state": "SC",
        "district": "Monte Alegre (Monte Alegre)",
        "street": "Rua Monte Roraima",
        "zipcode": "88348-532"
    },
    {
        "city": "Camboriú",
        "state": "SC",
        "district": "Rio Pequeno",
        "street": "Rua Antonio Lopes Gonçalves Bastos",
        "zipcode": "88343-412"
    },
    {
        "city": "Camboriú",
        "state": "SC",
        "district": "Rio Pequeno",
        "street": "Rua Rio do Peixe",
        "zipcode": "88343-446"
    },
    {
        "city": "Camboriú",
        "state": "SC",
        "district": "Rio Pequeno",
        "street": "Servidão Rio Jacaré",
        "zipcode": "88343-854"
    },
    {
        "city": "Camboriú",
        "state": "SC",
        "district": "Areias",
        "street": "Rua Eleodoro Marcos Teixeira",
        "zipcode": "88345-015"
    },
    {
        "city": "Camboriú",
        "state": "SC",
        "district": "Lídia Duarte",
        "street": "Rua Capitão Ernesto Nunes",
        "zipcode": "88341-170"
    },
    {
        "city": "Camboriú",
        "state": "SC",
        "district": "Lídia Duarte",
        "street": "Rua Oclandio Nicolao da Silva",
        "zipcode": "88341-179"
    },
    {
        "city": "Camboriú",
        "state": "SC",
        "district": "Centro",
        "street": "Rua Alberto Dalago",
        "zipcode": "88340-530"
    },
    {
        "city": "Camboriú",
        "state": "SC",
        "district": "Lídia Duarte",
        "street": "Rua Leopoldino Souza",
        "zipcode": "88341-093"
    },
    {
        "city": "Camboriú",
        "state": "SC",
        "district": "Centro",
        "street": "Rua João Gasperi",
        "zipcode": "88340-440"
    },
    {
        "city": "Camboriú",
        "state": "SC",
        "district": "Centro",
        "street": "Rua Ivonete Rosa da Silva",
        "zipcode": "88340-470"
    },
    {
        "city": "Camboriú",
        "state": "SC",
        "district": "Centro",
        "street": "Rua José Bernardes dos Passos",
        "zipcode": "88340-476"
    },
    {
        "city": "Camboriú",
        "state": "SC",
        "district": "Centro",
        "street": "Rua Anastácio José Pereira",
        "zipcode": "88340-236"
    },
    {
        "city": "Camboriú",
        "state": "SC",
        "district": "Centro",
        "street": "Rua José Francisco Bernardes",
        "zipcode": "88340-206"
    },
    {
        "city": "Camboriú",
        "state": "SC",
        "district": "Santa Regina",
        "street": "Rua Georgetown",
        "zipcode": "88345-668"
    },
    {
        "city": "Camboriú",
        "state": "SC",
        "district": "Monte Alegre (Monte Alegre)",
        "street": "Rua Monte Bandeiras",
        "zipcode": "88348-411"
    },
    {
        "city": "Camboriú",
        "state": "SC",
        "district": "Rio Pequeno",
        "street": "Rua Rio Guaíra",
        "zipcode": "88343-698"
    },
    {
        "city": "Camboriú",
        "state": "SC",
        "district": "Rio Pequeno",
        "street": "Rua Rio Iguaçu",
        "zipcode": "88343-718"
    },
    {
        "city": "Camboriú",
        "state": "SC",
        "district": "Rio Pequeno",
        "street": "Rua Rio Amazonas",
        "zipcode": "88343-834"
    },
    {
        "city": "Camboriú",
        "state": "SC",
        "district": "Areias",
        "street": "Rua Tóquio (Lot. Dona Clara)",
        "zipcode": "88345-075"
    },
    {
        "city": "Camboriú",
        "state": "SC",
        "district": "Tabuleiro (Monte Alegre)",
        "street": "Rua Silveira",
        "zipcode": "88348-264"
    },
    {
        "city": "Camboriú",
        "state": "SC",
        "district": "Monte Alegre (Monte Alegre)",
        "street": "Rua Monte Dedo de Deus",
        "zipcode": "88348-396"
    },
    {
        "city": "Camboriú",
        "state": "SC",
        "district": "Cedro",
        "street": "Rua Raulino Luiz Bambinetti",
        "zipcode": "88341-586"
    },
    {
        "city": "Camboriú",
        "state": "SC",
        "district": "Areias",
        "street": "Rua Tocantins",
        "zipcode": "88345-149"
    },
    {
        "city": "Camboriú",
        "state": "SC",
        "district": "Centro",
        "street": "Rua Rio Mariano Teixeira",
        "zipcode": "88340-455"
    },
    {
        "city": "Camboriú",
        "state": "SC",
        "district": "Monte Alegre (Monte Alegre)",
        "street": "Rua Monte Lucania",
        "zipcode": "88348-438"
    },
    {
        "city": "Camboriú",
        "state": "SC",
        "district": "Santa Regina",
        "street": "Rua Bogotá",
        "zipcode": "88345-548"
    },
    {
        "city": "Camboriú",
        "state": "SC",
        "district": "Santa Regina",
        "street": "Rua Havana",
        "zipcode": "88345-701"
    },
    {
        "city": "Camboriú",
        "state": "SC",
        "district": "Tabuleiro (Monte Alegre)",
        "street": "Rua Coqueiros",
        "zipcode": "88348-056"
    },
    {
        "city": "Camboriú",
        "state": "SC",
        "district": "Areias",
        "street": "Rua Rio Grande do Sul",
        "zipcode": "88345-161"
    },
    {
        "city": "Camboriú",
        "state": "SC",
        "district": "Areias",
        "street": "Rua Rio Grande do Sul",
        "zipcode": "88345-051"
    },
    {
        "city": "Camboriú",
        "state": "SC",
        "district": "Tabuleiro (Monte Alegre)",
        "street": "Alameda Kadiz",
        "zipcode": "88348-059"
    },
    {
        "city": "Camboriú",
        "state": "SC",
        "district": "Rio Pequeno",
        "street": "Rua Rio Formoso",
        "zipcode": "88343-427"
    },
    {
        "city": "Camboriú",
        "state": "SC",
        "district": "Lídia Duarte",
        "street": "Alameda SESC",
        "zipcode": "88341-215"
    },
    {
        "city": "Camboriú",
        "state": "SC",
        "district": "Lídia Duarte",
        "street": "Rua Ademir Duarte",
        "zipcode": "88341-079"
    },
    {
        "city": "Camboriú",
        "state": "SC",
        "district": "Centro",
        "street": "Avenida João Acácio Simas",
        "zipcode": "88340-075"
    },
    {
        "city": "Camboriú",
        "state": "SC",
        "district": "Tabuleiro (Monte Alegre)",
        "street": "Avenida dos Mármores",
        "zipcode": "88348-015"
    },
    {
        "city": "Camboriú",
        "state": "SC",
        "district": "Rio Pequeno",
        "street": "Rua Rio Chapecó",
        "zipcode": "88343-452"
    },
    {
        "city": "Camboriú",
        "state": "SC",
        "district": "Área Rural de Camboriú",
        "street": "Área Rural",
        "zipcode": "88349-899"
    },
    {
        "city": "Camboriú",
        "state": "SC",
        "district": "Centro",
        "street": "Rua Vilmar Zonta",
        "zipcode": "88340-380"
    },
    {
        "city": "Camboriú",
        "state": "SC",
        "district": "Cedro",
        "street": "Rua Veralba Vargas Leite",
        "zipcode": "88341-801"
    },
    {
        "city": "Camboriú",
        "state": "SC",
        "district": "Santa Regina",
        "street": "Rua Bruxelas",
        "zipcode": "88345-509"
    },
    {
        "city": "Camboriú",
        "state": "SC",
        "district": "Monte Alegre (Monte Alegre)",
        "street": "Rua Peroba",
        "zipcode": "88348-370"
    },
    {
        "city": "Camboriú",
        "state": "SC",
        "district": "Monte Alegre (Monte Alegre)",
        "street": "Rua Monte Frade Macaé",
        "zipcode": "88348-429"
    },
    {
        "city": "Camboriú",
        "state": "SC",
        "district": "Monte Alegre (Monte Alegre)",
        "street": "Rua Lauro Francisco dos Santos",
        "zipcode": "88348-595"
    },
    {
        "city": "Camboriú",
        "state": "SC",
        "district": "Tabuleiro (Monte Alegre)",
        "street": "Rua Pinus",
        "zipcode": "88348-246"
    },
    {
        "city": "Camboriú",
        "state": "SC",
        "district": "Tabuleiro (Monte Alegre)",
        "street": "Rua Espinheira Santa",
        "zipcode": "88348-030"
    },
    {
        "city": "Camboriú",
        "state": "SC",
        "district": "Cedro",
        "street": "Rua Cabo Henrique Francisco Bernardes",
        "zipcode": "88341-508"
    },
    {
        "city": "Camboriú",
        "state": "SC",
        "district": "Santa Regina",
        "street": "Rua Pequim",
        "zipcode": "88345-512"
    },
    {
        "city": "Camboriú",
        "state": "SC",
        "district": "Areias",
        "street": "Rua João Pessoa",
        "zipcode": "88345-193"
    },
    {
        "city": "Camboriú",
        "state": "SC",
        "district": "Rio Pequeno",
        "street": "Rua Rio Negrinho",
        "zipcode": "88343-405"
    },
    {
        "city": "Camboriú",
        "state": "SC",
        "district": "Centro",
        "street": "Rua Angelo Gardini",
        "zipcode": "88340-428"
    },
    {
        "city": "Camboriú",
        "state": "SC",
        "district": "Tabuleiro (Monte Alegre)",
        "street": "Avenida Santa Catarina",
        "zipcode": "88348-001"
    },
    {
        "city": "Camboriú",
        "state": "SC",
        "district": "Monte Alegre (Monte Alegre)",
        "street": "Rua Monte Stanley",
        "zipcode": "88348-589"
    },
    {
        "city": "Camboriú",
        "state": "SC",
        "district": "Lídia Duarte",
        "street": "Rua da Produção",
        "zipcode": "88341-260"
    },
    {
        "city": "Camboriú",
        "state": "SC",
        "district": "Centro",
        "street": "Rua José Nicolau Rocha",
        "zipcode": "88340-491"
    },
    {
        "city": "Camboriú",
        "state": "SC",
        "district": "Centro",
        "street": "Rua Coronel Benjamin Vieira",
        "zipcode": "88340-542"
    },
    {
        "city": "Camboriú",
        "state": "SC",
        "district": "Centro",
        "street": "Rua Padre Antonio Dias",
        "zipcode": "88340-419"
    },
    {
        "city": "Camboriú",
        "state": "SC",
        "district": "Centro",
        "street": "Rua Natal",
        "zipcode": "88340-224"
    },
    {
        "city": "Camboriú",
        "state": "SC",
        "district": "Centro",
        "street": "Rua Espírito Santo",
        "zipcode": "88340-197"
    },
    {
        "city": "Camboriú",
        "state": "SC",
        "district": "Centro",
        "street": "Avenida Minas Gerais",
        "zipcode": "88340-143"
    },
    {
        "city": "Camboriú",
        "state": "SC",
        "district": "Centro",
        "street": "Rua Aparecida Jesus de Almeida dos Reis",
        "zipcode": "88340-155"
    },
    {
        "city": "Camboriú",
        "state": "SC",
        "district": "Centro",
        "street": "Rua Prefeito José Cesário Pereira",
        "zipcode": "88340-067"
    },
    {
        "city": "Camboriú",
        "state": "SC",
        "district": "Centro",
        "street": "Avenida Santa Catarina",
        "zipcode": "88340-052"
    },
    {
        "city": "Camboriú",
        "state": "SC",
        "district": "Centro",
        "street": "Rua Bernardino Borges Correia Feijó",
        "zipcode": "88340-049"
    },
    {
        "city": "Camboriú",
        "state": "SC",
        "district": "Tabuleiro (Monte Alegre)",
        "street": "Servidão Ivo Gomes",
        "zipcode": "88348-009"
    },
    {
        "city": "Camboriú",
        "state": "SC",
        "district": "Cedro",
        "street": "Rua Domingos Bento Amandio",
        "zipcode": "88341-596"
    },
    {
        "city": "Camboriú",
        "state": "SC",
        "district": "São Francisco de Assis",
        "street": "Rua São Brás",
        "zipcode": "88340-610"
    },
    {
        "city": "Camboriú",
        "state": "SC",
        "district": "Centro",
        "street": "Rua Maria da Glória Pereira",
        "zipcode": "88340-260"
    },
    {
        "city": "Camboriú",
        "state": "SC",
        "district": "Cedro",
        "street": "Rua Rio Guaíra",
        "zipcode": "88341-536"
    },
    {
        "city": "Camboriú",
        "state": "SC",
        "district": "Cedro",
        "street": "Rua Capitão Ernesto Nunes",
        "zipcode": "88341-574"
    },
    {
        "city": "Camboriú",
        "state": "SC",
        "district": "Centro",
        "street": "Rua Maurício Garcia",
        "zipcode": "88340-242"
    },
    {
        "city": "Camboriú",
        "state": "SC",
        "district": "Centro",
        "street": "Rua Ernesto Florêncio Pereira",
        "zipcode": "88340-263"
    },
    {
        "city": "Camboriú",
        "state": "SC",
        "district": "Centro",
        "street": "Rua 15 de Novembro",
        "zipcode": "88340-266"
    },
    {
        "city": "Camboriú",
        "state": "SC",
        "district": "Monte Alegre (Monte Alegre)",
        "street": "Rua Pingo de Ouro",
        "zipcode": "88348-610"
    },
    {
        "city": "Camboriú",
        "state": "SC",
        "district": "Monte Alegre (Monte Alegre)",
        "street": "Rua Monte Dourado",
        "zipcode": "88348-678"
    },
    {
        "city": "Camboriú",
        "state": "SC",
        "district": "Monte Alegre (Monte Alegre)",
        "street": "Rua Monte Sotara",
        "zipcode": "88348-702"
    },
    {
        "city": "Camboriú",
        "state": "SC",
        "district": "Monte Alegre (Monte Alegre)",
        "street": "Rua Monte Makalu",
        "zipcode": "88348-705"
    },
    {
        "city": "Camboriú",
        "state": "SC",
        "district": "Tabuleiro (Monte Alegre)",
        "street": "Rua Guamirim",
        "zipcode": "88348-107"
    },
    {
        "city": "Camboriú",
        "state": "SC",
        "district": "Tabuleiro (Monte Alegre)",
        "street": "Rua Laranjeira",
        "zipcode": "88348-095"
    },
    {
        "city": "Camboriú",
        "state": "SC",
        "district": "Tabuleiro (Monte Alegre)",
        "street": "Rua Marmeleiro",
        "zipcode": "88348-180"
    },
    {
        "city": "Camboriú",
        "state": "SC",
        "district": "Rio Pequeno",
        "street": "Rua Rio Araguaia",
        "zipcode": "88343-100"
    },
    {
        "city": "Camboriú",
        "state": "SC",
        "district": "Centro",
        "street": "Rua Flávio Vieira",
        "zipcode": "88340-296"
    },
    {
        "city": "Camboriú",
        "state": "SC",
        "district": "Centro",
        "street": "Rua João Gomes",
        "zipcode": "88340-365"
    },
    {
        "city": "Camboriú",
        "state": "SC",
        "district": "Monte Alegre (Monte Alegre)",
        "street": "Rua Lírio do Vale",
        "zipcode": "88348-708"
    },
    {
        "city": "Camboriú",
        "state": "SC",
        "district": "Monte Alegre (Monte Alegre)",
        "street": "Rua Monte Pilatos",
        "zipcode": "88348-825"
    },
    {
        "city": "Camboriú",
        "state": "SC",
        "district": "Rio Pequeno",
        "street": "Rua Santa Bárbara",
        "zipcode": "88343-229"
    },
    {
        "city": "Camboriú",
        "state": "SC",
        "district": "Tabuleiro (Monte Alegre)",
        "street": "Rua Rodolfo Silva Simas",
        "zipcode": "88348-168"
    },
    {
        "city": "Camboriú",
        "state": "SC",
        "district": "Centro",
        "street": "Rua Oscar Vieira",
        "zipcode": "88340-383"
    },
    {
        "city": "Camboriú",
        "state": "SC",
        "district": "Várzea do Ranchinho (Monte Alegre)",
        "street": "Rodovia BR",
        "zipcode": "88349-175"
    },
    {
        "city": "Camboriú",
        "state": "SC",
        "district": "Lídia Duarte",
        "street": "Rua Arthur Manoel Crispim Correa",
        "zipcode": "88341-075"
    },
    {
        "city": "Camboriú",
        "state": "SC",
        "district": "Centro",
        "street": "Rua Prefeito Hermínio Irineu Vieira",
        "zipcode": "88340-073"
    },
    {
        "city": "Camboriú",
        "state": "SC",
        "district": "Monte Alegre (Monte Alegre)",
        "street": "Rua Monte Castelo",
        "zipcode": "88348-393"
    },
    {
        "city": "Camboriú",
        "state": "SC",
        "district": "Centro",
        "street": "Rua Bento Pereira Soares",
        "zipcode": "88340-245"
    },
    {
        "city": "Camboriú",
        "state": "SC",
        "district": "Monte Alegre (Monte Alegre)",
        "street": "Rua Monte Nevada",
        "zipcode": "88348-444"
    },
    {
        "city": "Camboriú",
        "state": "SC",
        "district": "Monte Alegre (Monte Alegre)",
        "street": "Rua Monte Pedra Açu",
        "zipcode": "88348-544"
    },
    {
        "city": "Camboriú",
        "state": "SC",
        "district": "Monte Alegre (Monte Alegre)",
        "street": "Rua Monte Agulhas Negras",
        "zipcode": "88348-496"
    },
    {
        "city": "Camboriú",
        "state": "SC",
        "district": "Cedro",
        "street": "Rua Osvaldo Minella",
        "zipcode": "88341-500"
    },
    {
        "city": "Camboriú",
        "state": "SC",
        "district": "Lídia Duarte",
        "street": "Rua João Justiniano da Silva",
        "zipcode": "88341-203"
    },
    {
        "city": "Camboriú",
        "state": "SC",
        "district": "Centro",
        "street": "Rua São Paulo",
        "zipcode": "88340-173"
    },
    {
        "city": "Camboriú",
        "state": "SC",
        "district": "Santa Regina",
        "street": "Rua Jesuíno Anastácio Pereira",
        "zipcode": "88345-533"
    },
    {
        "city": "Camboriú",
        "state": "SC",
        "district": "Santa Regina",
        "street": "Rua Jesuíno Anastácio Pereira",
        "zipcode": "88345-572"
    },
    {
        "city": "Camboriú",
        "state": "SC",
        "district": "Monte Alegre (Monte Alegre)",
        "street": "Rodovia BR",
        "zipcode": "88348-410"
    },
    {
        "city": "Camboriú",
        "state": "SC",
        "district": "Areias",
        "street": "Rua José Francisco Bernardes",
        "zipcode": "88345-006"
    },
    {
        "city": "Camboriú",
        "state": "SC",
        "district": "Areias",
        "street": "Rua José Francisco Bernardes",
        "zipcode": "88345-182"
    },
    {
        "city": "Camboriú",
        "state": "SC",
        "district": "Monte Alegre (Monte Alegre)",
        "street": "Rua Monte Santa Isabel",
        "zipcode": "88348-672"
    },
    {
        "city": "Camboriú",
        "state": "SC",
        "district": "Centro",
        "street": "Rua Victor Juvêncio Mafra",
        "zipcode": "88340-158"
    },
    {
        "city": "Camboriú",
        "state": "SC",
        "district": "Centro",
        "street": "Rua Prefeito Antonio Manços de Souza Mafra",
        "zipcode": "88340-070"
    },
    {
        "city": "Camboriú",
        "state": "SC",
        "district": "Rio Pequeno",
        "street": "Rua Rio Itajaí",
        "zipcode": "88343-694"
    },
    {
        "city": "Camboriú",
        "state": "SC",
        "district": "Rio Pequeno",
        "street": "Rua Rio Canoinhas",
        "zipcode": "88343-127"
    },
    {
        "city": "Camboriú",
        "state": "SC",
        "district": "Monte Alegre (Monte Alegre)",
        "street": "Rua Monte Castelito",
        "zipcode": "88348-831"
    },
    {
        "city": "Camboriú",
        "state": "SC",
        "district": "Lídia Duarte",
        "street": "Rua Oscar Vieira",
        "zipcode": "88341-000"
    },
    {
        "city": "Camboriú",
        "state": "SC",
        "district": "Tabuleiro (Monte Alegre)",
        "street": "Rua Garuva",
        "zipcode": "88348-098"
    },
    {
        "city": "Camboriú",
        "state": "SC",
        "district": "Lídia Duarte",
        "street": "Rua Alcides Maçaneiro",
        "zipcode": "88341-064"
    },
    {
        "city": "Camboriú",
        "state": "SC",
        "district": "Tabuleiro (Monte Alegre)",
        "street": "Rua Rodolfo Silva Simas",
        "zipcode": "88348-150"
    },
    {
        "city": "Camboriú",
        "state": "SC",
        "district": "Monte Alegre (Monte Alegre)",
        "street": "Rua Monte Branco",
        "zipcode": "88348-628"
    },
    {
        "city": "Camboriú",
        "state": "SC",
        "district": "Lídia Duarte",
        "street": "Rua Paulo Faquetti",
        "zipcode": "88341-043"
    },
    {
        "city": "Camboriú",
        "state": "SC",
        "district": "Monte Alegre (Monte Alegre)",
        "street": "Rua Monte Cruzeiro",
        "zipcode": "88348-631"
    },
    {
        "city": "Camboriú",
        "state": "SC",
        "district": "Monte Alegre (Monte Alegre)",
        "street": "Rua Gerezen",
        "zipcode": "88348-616"
    },
    {
        "city": "Camboriú",
        "state": "SC",
        "district": "Monte Alegre (Monte Alegre)",
        "street": "Rua Monte Santo Elias",
        "zipcode": "88348-682"
    },
    {
        "city": "Camboriú",
        "state": "SC",
        "district": "Cedro",
        "street": "Servidão Ida Casagrande de Aguiar",
        "zipcode": "88341-575"
    },
    {
        "city": "Camboriú",
        "state": "SC",
        "district": "Lídia Duarte",
        "street": "Rua Padre André Aneza",
        "zipcode": "88341-040"
    },
    {
        "city": "Camboriú",
        "state": "SC",
        "district": "Centro",
        "street": "Rua Antonio Maria de Souza",
        "zipcode": "88340-353"
    }
]