[
    {
        "city": "Canoinhas",
        "state": "SC",
        "district": "",
        "street": "",
        "zipcode": "89460-000"
    },
    {
        "city": "Canoinhas",
        "state": "SC",
        "district": "Pinheiros",
        "street": "",
        "zipcode": "89476-000"
    },
    {
        "city": "Canoinhas",
        "state": "SC",
        "district": "Paula Pereira",
        "street": "",
        "zipcode": "89470-000"
    },
    {
        "city": "Canoinhas",
        "state": "SC",
        "district": "Água Verde",
        "street": "Rua José Bayel",
        "zipcode": "89466-822"
    },
    {
        "city": "Canoinhas",
        "state": "SC",
        "district": "Industrial 2",
        "street": "Rua Jacob Scheuer",
        "zipcode": "89466-422"
    },
    {
        "city": "Canoinhas",
        "state": "SC",
        "district": "Água Verde",
        "street": "Rodovia SC",
        "zipcode": "89466-605"
    },
    {
        "city": "Canoinhas",
        "state": "SC",
        "district": "Industrial 1",
        "street": "Rua Ana Hening Scholze",
        "zipcode": "89462-528"
    },
    {
        "city": "Canoinhas",
        "state": "SC",
        "district": "Jardim Esperança",
        "street": "Rua Erna Schumacher",
        "zipcode": "89464-034"
    },
    {
        "city": "Canoinhas",
        "state": "SC",
        "district": "Industrial 1",
        "street": "Rua Harry Schereiber",
        "zipcode": "89462-496"
    },
    {
        "city": "Canoinhas",
        "state": "SC",
        "district": "Alto da Tijuca",
        "street": "Rua Erasmo Schimidt",
        "zipcode": "89464-298"
    },
    {
        "city": "Canoinhas",
        "state": "SC",
        "district": "Alto da Tijuca",
        "street": "Estrada Alfredo Schumacher",
        "zipcode": "89464-242"
    },
    {
        "city": "Canoinhas",
        "state": "SC",
        "district": "Industrial 2",
        "street": "Rodovia SC",
        "zipcode": "89466-552"
    },
    {
        "city": "Canoinhas",
        "state": "SC",
        "district": "Sossego",
        "street": "Rua Emílio Scholtz",
        "zipcode": "89462-262"
    },
    {
        "city": "Canoinhas",
        "state": "SC",
        "district": "Jardim Esperança",
        "street": "Rua Erna Schumacher",
        "zipcode": "89464-050"
    },
    {
        "city": "Canoinhas",
        "state": "SC",
        "district": "Campo da Água Verde",
        "street": "Avenida dos Expedicionários",
        "zipcode": "89466-312"
    },
    {
        "city": "Canoinhas",
        "state": "SC",
        "district": "Área Rural de Canoinhas",
        "street": "Área Rural de Canoinhas",
        "zipcode": "89469-899"
    },
    {
        "city": "Canoinhas",
        "state": "SC",
        "district": "Piedade",
        "street": "Estrada Dona Francisca",
        "zipcode": "89460-490"
    },
    {
        "city": "Canoinhas",
        "state": "SC",
        "district": "Industrial 1",
        "street": "Avenida Senador Ivo DÁquino",
        "zipcode": "89462-630"
    },
    {
        "city": "Canoinhas",
        "state": "SC",
        "district": "Tricolin",
        "street": "Rua Emílio Scholtz",
        "zipcode": "89462-194"
    },
    {
        "city": "Canoinhas",
        "state": "SC",
        "district": "Alto da Tijuca",
        "street": "Rua José Samuel Schmidt",
        "zipcode": "89464-294"
    },
    {
        "city": "Canoinhas",
        "state": "SC",
        "district": "Centro",
        "street": "Rua Emílio Scholtz",
        "zipcode": "89460-072"
    },
    {
        "city": "Canoinhas",
        "state": "SC",
        "district": "Alto das Palmeiras",
        "street": "Rua Adolfo Schik",
        "zipcode": "89462-094"
    },
    {
        "city": "Canoinhas",
        "state": "SC",
        "district": "Campo da Água Verde",
        "street": "Avenida dos Expedicionários",
        "zipcode": "89466-076"
    },
    {
        "city": "Canoinhas",
        "state": "SC",
        "district": "Piedade",
        "street": "Rua Leonides Schiessi",
        "zipcode": "89460-655"
    },
    {
        "city": "Canoinhas",
        "state": "SC",
        "district": "Piedade",
        "street": "Rua Abel Rosa Nascimento",
        "zipcode": "89460-622"
    },
    {
        "city": "Canoinhas",
        "state": "SC",
        "district": "Piedade",
        "street": "Rua Paulo Scheuer",
        "zipcode": "89460-634"
    },
    {
        "city": "Canoinhas",
        "state": "SC",
        "district": "Industrial 1",
        "street": "Rua Alfredo Bach",
        "zipcode": "89462-370"
    },
    {
        "city": "Canoinhas",
        "state": "SC",
        "district": "Boa Vista",
        "street": "Rodovia BR",
        "zipcode": "89460-396"
    },
    {
        "city": "Canoinhas",
        "state": "SC",
        "district": "Centro",
        "street": "Rua Agenor Fabio Gomes",
        "zipcode": "89460-104"
    },
    {
        "city": "Canoinhas",
        "state": "SC",
        "district": "Industrial 2",
        "street": "Rua Miguel Schiel Sobrinho",
        "zipcode": "89466-362"
    },
    {
        "city": "Canoinhas",
        "state": "SC",
        "district": "Alto das Palmeiras",
        "street": "Rua Agenor Fabio Gomes",
        "zipcode": "89462-000"
    },
    {
        "city": "Canoinhas",
        "state": "SC",
        "district": "Industrial 1",
        "street": "Rua Maximiliano Scholze",
        "zipcode": "89462-420"
    },
    {
        "city": "Canoinhas",
        "state": "SC",
        "district": "Boa Vista",
        "street": "Rodovia BR",
        "zipcode": "89460-250"
    },
    {
        "city": "Canoinhas",
        "state": "SC",
        "district": "Piedade",
        "street": "Avenida Vereador Moisés Damaso",
        "zipcode": "89460-470"
    },
    {
        "city": "Canoinhas",
        "state": "SC",
        "district": "Água Verde",
        "street": "Rodovia BR",
        "zipcode": "89466-580"
    },
    {
        "city": "Canoinhas",
        "state": "SC",
        "district": "Centro",
        "street": "Rua Senador Felipe Schimidt",
        "zipcode": "89460-140"
    },
    {
        "city": "Canoinhas",
        "state": "SC",
        "district": "Centro",
        "street": "Rua Senador Felipe Schimidt",
        "zipcode": "89460-900"
    },
    {
        "city": "Canoinhas",
        "state": "SC",
        "district": "Campo da Água Verde",
        "street": "Rodovia BR",
        "zipcode": "89466-218"
    },
    {
        "city": "Canoinhas",
        "state": "SC",
        "district": "Alto das Palmeiras",
        "street": "Rodovia BR",
        "zipcode": "89462-020"
    },
    {
        "city": "Canoinhas",
        "state": "SC",
        "district": "Industrial 2",
        "street": "Avenida dos Expedicionários",
        "zipcode": "89466-434"
    },
    {
        "city": "Canoinhas",
        "state": "SC",
        "district": "Campo da Água Verde",
        "street": "Rua Miguel Schiel Sobrinho",
        "zipcode": "89466-158"
    },
    {
        "city": "Canoinhas",
        "state": "SC",
        "district": "Industrial 1",
        "street": "Avenida Senador Ivo DÁquino",
        "zipcode": "89462-486"
    },
    {
        "city": "Canoinhas",
        "state": "SC",
        "district": "Industrial 2",
        "street": "Rodovia BR",
        "zipcode": "89466-456"
    },
    {
        "city": "Canoinhas",
        "state": "SC",
        "district": "Alto das Palmeiras",
        "street": "Estrada Dona Francisca",
        "zipcode": "89462-044"
    },
    {
        "city": "Canoinhas",
        "state": "SC",
        "district": "Alto das Palmeiras",
        "street": "Rua Adão Tyska",
        "zipcode": "89462-130"
    },
    {
        "city": "Canoinhas",
        "state": "SC",
        "district": "Tricolin",
        "street": "Rua Adolfo Voigt",
        "zipcode": "89462-196"
    },
    {
        "city": "Canoinhas",
        "state": "SC",
        "district": "Industrial 1",
        "street": "Avenida Senador Ivo DÁquino",
        "zipcode": "89462-488"
    },
    {
        "city": "Canoinhas",
        "state": "SC",
        "district": "Jardim Esperança",
        "street": "Rua Rodolfo Scheide",
        "zipcode": "89464-048"
    },
    {
        "city": "Canoinhas",
        "state": "SC",
        "district": "Centro",
        "street": "Rua Senador Felipe Schimidt",
        "zipcode": "89460-090"
    },
    {
        "city": "Canoinhas",
        "state": "SC",
        "district": "Centro",
        "street": "Rua Adolfo Boading",
        "zipcode": "89460-130"
    },
    {
        "city": "Canoinhas",
        "state": "SC",
        "district": "Campo da Água Verde",
        "street": "Avenida dos Expedicionários",
        "zipcode": "89466-314"
    },
    {
        "city": "Canoinhas",
        "state": "SC",
        "district": "Campo da Água Verde",
        "street": "Rua Adolfo Boading",
        "zipcode": "89466-210"
    },
    {
        "city": "Canoinhas",
        "state": "SC",
        "district": "Felipe Schmidt",
        "street": "",
        "zipcode": "89473-000"
    },
    {
        "city": "Canoinhas",
        "state": "SC",
        "district": "Industrial 1",
        "street": "Rua Adão Tyska",
        "zipcode": "89462-352"
    },
    {
        "city": "Canoinhas",
        "state": "SC",
        "district": "Piedade",
        "street": "Rodovia BR",
        "zipcode": "89460-485"
    },
    {
        "city": "Canoinhas",
        "state": "SC",
        "district": "Industrial 1",
        "street": "Rua Zeferina Cruz G Schimidt",
        "zipcode": "89462-508"
    },
    {
        "city": "Canoinhas",
        "state": "SC",
        "district": "Industrial 2",
        "street": "Rua Adelaide Budant Wendt",
        "zipcode": "89466-546"
    },
    {
        "city": "Canoinhas",
        "state": "SC",
        "district": "Boa Vista",
        "street": "Rua Agenor Fabio Gomes",
        "zipcode": "89460-244"
    },
    {
        "city": "Canoinhas",
        "state": "SC",
        "district": "Industrial 2",
        "street": "Rua Acir Woitexen",
        "zipcode": "89466-430"
    },
    {
        "city": "Canoinhas",
        "state": "SC",
        "district": "Piedade",
        "street": "Rua Adautilio Munhoz",
        "zipcode": "89460-661"
    },
    {
        "city": "Canoinhas",
        "state": "SC",
        "district": "Água Verde",
        "street": "Rodovia BR",
        "zipcode": "89466-583"
    },
    {
        "city": "Canoinhas",
        "state": "SC",
        "district": "Centro",
        "street": "Rua Alberto Tokarski",
        "zipcode": "89460-070"
    },
    {
        "city": "Canoinhas",
        "state": "SC",
        "district": "Centro",
        "street": "Rua André Pangratz",
        "zipcode": "89460-030"
    },
    {
        "city": "Canoinhas",
        "state": "SC",
        "district": "Industrial 1",
        "street": "Rua Antônio Liller",
        "zipcode": "89462-398"
    },
    {
        "city": "Canoinhas",
        "state": "SC",
        "district": "Industrial 1",
        "street": "Rua Arthur Oscar Spies",
        "zipcode": "89462-620"
    },
    {
        "city": "Canoinhas",
        "state": "SC",
        "district": "Piedade",
        "street": "Rodovia BR",
        "zipcode": "89460-540"
    },
    {
        "city": "Canoinhas",
        "state": "SC",
        "district": "Alto da Tijuca",
        "street": "Rua Augusto Haag",
        "zipcode": "89464-306"
    },
    {
        "city": "Canoinhas",
        "state": "SC",
        "district": "Água Verde",
        "street": "Rua Afonso Bail",
        "zipcode": "89466-895"
    },
    {
        "city": "Canoinhas",
        "state": "SC",
        "district": "Campo da Água Verde",
        "street": "Rua Alfredo Mayer",
        "zipcode": "89466-310"
    },
    {
        "city": "Canoinhas",
        "state": "SC",
        "district": "Boa Vista",
        "street": "Rua Antônio Moreschi",
        "zipcode": "89460-394"
    },
    {
        "city": "Canoinhas",
        "state": "SC",
        "district": "Campo da Água Verde",
        "street": "Rua Alvino Voigt",
        "zipcode": "89466-250"
    },
    {
        "city": "Canoinhas",
        "state": "SC",
        "district": "Tricolin",
        "street": "Rua Barão do Rio Branco",
        "zipcode": "89462-234"
    },
    {
        "city": "Canoinhas",
        "state": "SC",
        "district": "Tricolin",
        "street": "Rua Arthur Burgardt",
        "zipcode": "89462-198"
    },
    {
        "city": "Canoinhas",
        "state": "SC",
        "district": "Industrial 1",
        "street": "Estrada João Leandro Gonçalves",
        "zipcode": "89462-625"
    },
    {
        "city": "Canoinhas",
        "state": "SC",
        "district": "Água Verde",
        "street": "Rua Antônio Gapski",
        "zipcode": "89466-819"
    },
    {
        "city": "Canoinhas",
        "state": "SC",
        "district": "Alto da Tijuca",
        "street": "Rua Ari Hauffe",
        "zipcode": "89464-108"
    },
    {
        "city": "Canoinhas",
        "state": "SC",
        "district": "Piedade",
        "street": "Rua Alipio Martins",
        "zipcode": "89460-601"
    },
    {
        "city": "Canoinhas",
        "state": "SC",
        "district": "Boa Vista",
        "street": "Rua Benjamin Constant",
        "zipcode": "89460-232"
    },
    {
        "city": "Canoinhas",
        "state": "SC",
        "district": "Piedade",
        "street": "Rua Alfredo Ivo Paul",
        "zipcode": "89460-637"
    },
    {
        "city": "Canoinhas",
        "state": "SC",
        "district": "Alto das Palmeiras",
        "street": "Rua Antônio Liller",
        "zipcode": "89462-180"
    },
    {
        "city": "Canoinhas",
        "state": "SC",
        "district": "Água Verde",
        "street": "Rua Antônio Bertão",
        "zipcode": "89466-672"
    },
    {
        "city": "Canoinhas",
        "state": "SC",
        "district": "Centro",
        "street": "Rua Alois Stueber",
        "zipcode": "89460-110"
    },
    {
        "city": "Canoinhas",
        "state": "SC",
        "district": "Campo da Água Verde",
        "street": "Rua Alinor Vieira Corte",
        "zipcode": "89466-220"
    },
    {
        "city": "Canoinhas",
        "state": "SC",
        "district": "Tricolin",
        "street": "Rua Álvaro Soares Machado",
        "zipcode": "89462-240"
    },
    {
        "city": "Canoinhas",
        "state": "SC",
        "district": "Tricolin",
        "street": "Rua Basílio Humenhuk",
        "zipcode": "89462-206"
    },
    {
        "city": "Canoinhas",
        "state": "SC",
        "district": "Industrial 2",
        "street": "Rua Alvino Voigt",
        "zipcode": "89466-428"
    },
    {
        "city": "Canoinhas",
        "state": "SC",
        "district": "Campo da Água Verde",
        "street": "Rua Alfredo Paul",
        "zipcode": "89466-146"
    },
    {
        "city": "Canoinhas",
        "state": "SC",
        "district": "Campo da Água Verde",
        "street": "Rua Antônio Massaneiro",
        "zipcode": "89466-226"
    },
    {
        "city": "Canoinhas",
        "state": "SC",
        "district": "Campo da Água Verde",
        "street": "Rua Basílio Conceição",
        "zipcode": "89466-150"
    },
    {
        "city": "Canoinhas",
        "state": "SC",
        "district": "Industrial 1",
        "street": "Rua Álvaro Soares Machado",
        "zipcode": "89462-340"
    },
    {
        "city": "Canoinhas",
        "state": "SC",
        "district": "Água Verde",
        "street": "Rua Amazonas Vidal Lopes",
        "zipcode": "89466-883"
    },
    {
        "city": "Canoinhas",
        "state": "SC",
        "district": "Centro",
        "street": "Rua Benjamin Constant",
        "zipcode": "89460-150"
    },
    {
        "city": "Canoinhas",
        "state": "SC",
        "district": "Alto das Palmeiras",
        "street": "Rua Angelo Alberti",
        "zipcode": "89462-100"
    },
    {
        "city": "Canoinhas",
        "state": "SC",
        "district": "Marcílio Dias",
        "street": "Rua Antônio Salai",
        "zipcode": "89465-199"
    },
    {
        "city": "Canoinhas",
        "state": "SC",
        "district": "Industrial 1",
        "street": "Rua Alfredo Sapucaia",
        "zipcode": "89462-342"
    },
    {
        "city": "Canoinhas",
        "state": "SC",
        "district": "Água Verde",
        "street": "Rua Antônio Grosskopf",
        "zipcode": "89466-770"
    },
    {
        "city": "Canoinhas",
        "state": "SC",
        "district": "Boa Vista",
        "street": "Rua Augusto Germano Haensch",
        "zipcode": "89460-320"
    },
    {
        "city": "Canoinhas",
        "state": "SC",
        "district": "Alto da Tijuca",
        "street": "Rua Alvino Volkmann",
        "zipcode": "89464-296"
    },
    {
        "city": "Canoinhas",
        "state": "SC",
        "district": "Jardim Esperança",
        "street": "Rua Basílio Humenhuk",
        "zipcode": "89464-022"
    },
    {
        "city": "Canoinhas",
        "state": "SC",
        "district": "Jardim Esperança",
        "street": "Rua Alvina Baze Kepp",
        "zipcode": "89464-044"
    },
    {
        "city": "Canoinhas",
        "state": "SC",
        "district": "Campo da Água Verde",
        "street": "Rua Antônio Nicolazzi",
        "zipcode": "89466-228"
    },
    {
        "city": "Canoinhas",
        "state": "SC",
        "district": "Alto da Tijuca",
        "street": "Rua Alfredo Kelner",
        "zipcode": "89464-270"
    },
    {
        "city": "Canoinhas",
        "state": "SC",
        "district": "Tricolin",
        "street": "Rua Alfredo Bach",
        "zipcode": "89462-210"
    },
    {
        "city": "Canoinhas",
        "state": "SC",
        "district": "Industrial 2",
        "street": "Rua Alfredo Paul",
        "zipcode": "89466-424"
    },
    {
        "city": "Canoinhas",
        "state": "SC",
        "district": "Industrial 1",
        "street": "Rua Antônio Santoro",
        "zipcode": "89462-524"
    },
    {
        "city": "Canoinhas",
        "state": "SC",
        "district": "Industrial 1",
        "street": "Rua Antônio Lopes Vieira",
        "zipcode": "89462-498"
    },
    {
        "city": "Canoinhas",
        "state": "SC",
        "district": "Alto das Palmeiras",
        "street": "Rua Antônio Ostrowski",
        "zipcode": "89462-132"
    },
    {
        "city": "Canoinhas",
        "state": "SC",
        "district": "Centro",
        "street": "Rua Almeida Cardoso",
        "zipcode": "89460-076"
    },
    {
        "city": "Canoinhas",
        "state": "SC",
        "district": "Jardim Esperança",
        "street": "Rua Antônio Cordeiro Maciel",
        "zipcode": "89464-056"
    },
    {
        "city": "Canoinhas",
        "state": "SC",
        "district": "Centro",
        "street": "Rua Arthur Burgardt",
        "zipcode": "89460-074"
    },
    {
        "city": "Canoinhas",
        "state": "SC",
        "district": "Alto das Palmeiras",
        "street": "Rua Antônio Saloman",
        "zipcode": "89462-016"
    },
    {
        "city": "Canoinhas",
        "state": "SC",
        "district": "Industrial 1",
        "street": "Rua Bento de Moura Bueno",
        "zipcode": "89462-510"
    },
    {
        "city": "Canoinhas",
        "state": "SC",
        "district": "Marcílio Dias",
        "street": "Rua Alipio da Cruz Cordeiro",
        "zipcode": "89465-095"
    },
    {
        "city": "Canoinhas",
        "state": "SC",
        "district": "Campo da Água Verde",
        "street": "Rua Alfredo Mayer",
        "zipcode": "89466-248"
    },
    {
        "city": "Canoinhas",
        "state": "SC",
        "district": "Boa Vista",
        "street": "Rua Claudionor Gaissler da Silveira",
        "zipcode": "89460-406"
    },
    {
        "city": "Canoinhas",
        "state": "SC",
        "district": "Marcílio Dias",
        "street": "Rua Bernardo Olsen",
        "zipcode": "89465-060"
    },
    {
        "city": "Canoinhas",
        "state": "SC",
        "district": "Alto da Tijuca",
        "street": "Rua Ernestina P Cordeiro",
        "zipcode": "89464-300"
    },
    {
        "city": "Canoinhas",
        "state": "SC",
        "district": "Marcílio Dias",
        "street": "Rua Carlos Groth",
        "zipcode": "89465-217"
    },
    {
        "city": "Canoinhas",
        "state": "SC",
        "district": "Água Verde",
        "street": "Rua Emílio Massaneiro",
        "zipcode": "89466-688"
    },
    {
        "city": "Canoinhas",
        "state": "SC",
        "district": "Centro",
        "street": "Rua Caetano Costa",
        "zipcode": "89460-098"
    },
    {
        "city": "Canoinhas",
        "state": "SC",
        "district": "Industrial 1",
        "street": "Rua Celio Kohler",
        "zipcode": "89462-482"
    },
    {
        "city": "Canoinhas",
        "state": "SC",
        "district": "Alto das Palmeiras",
        "street": "Rua Deodato de Lima",
        "zipcode": "89462-050"
    },
    {
        "city": "Canoinhas",
        "state": "SC",
        "district": "Boa Vista",
        "street": "Rua Curitibanos",
        "zipcode": "89460-236"
    },
    {
        "city": "Canoinhas",
        "state": "SC",
        "district": "Campo da Água Verde",
        "street": "Rua Bento de Lima",
        "zipcode": "89466-244"
    },
    {
        "city": "Canoinhas",
        "state": "SC",
        "district": "Industrial 1",
        "street": "Rua Castelo Branco",
        "zipcode": "89462-492"
    },
    {
        "city": "Canoinhas",
        "state": "SC",
        "district": "Centro",
        "street": "Rua Benjamin Constant",
        "zipcode": "89460-172"
    },
    {
        "city": "Canoinhas",
        "state": "SC",
        "district": "Marcílio Dias",
        "street": "Rua Bernardo Metzger",
        "zipcode": "89465-214"
    },
    {
        "city": "Canoinhas",
        "state": "SC",
        "district": "Centro",
        "street": "Rua Bernardo Olsen",
        "zipcode": "89460-004"
    },
    {
        "city": "Canoinhas",
        "state": "SC",
        "district": "Marcílio Dias",
        "street": "Rua Bernardo Olsen",
        "zipcode": "89465-132"
    },
    {
        "city": "Canoinhas",
        "state": "SC",
        "district": "Alto das Palmeiras",
        "street": "Rua Ernesto Koch",
        "zipcode": "89462-024"
    },
    {
        "city": "Canoinhas",
        "state": "SC",
        "district": "Sossego",
        "street": "Rua Barão do Rio Branco",
        "zipcode": "89462-252"
    },
    {
        "city": "Canoinhas",
        "state": "SC",
        "district": "Água Verde",
        "street": "Rua Donato de Souza",
        "zipcode": "89466-666"
    },
    {
        "city": "Canoinhas",
        "state": "SC",
        "district": "Alto da Tijuca",
        "street": "Rua Erna Holler Demikoski",
        "zipcode": "89464-262"
    },
    {
        "city": "Canoinhas",
        "state": "SC",
        "district": "Alto da Tijuca",
        "street": "Rua Bernardo Olsen",
        "zipcode": "89464-274"
    },
    {
        "city": "Canoinhas",
        "state": "SC",
        "district": "Campo da Água Verde",
        "street": "Rua Fauri de Lima",
        "zipcode": "89466-238"
    },
    {
        "city": "Canoinhas",
        "state": "SC",
        "district": "Industrial 2",
        "street": "Rua Carlos Wagner",
        "zipcode": "89466-420"
    },
    {
        "city": "Canoinhas",
        "state": "SC",
        "district": "Marcílio Dias",
        "street": "Rua Emílio Bernardo Seidel",
        "zipcode": "89465-220"
    },
    {
        "city": "Canoinhas",
        "state": "SC",
        "district": "Marcílio Dias",
        "street": "Rua Euzébio Piermann",
        "zipcode": "89465-196"
    },
    {
        "city": "Canoinhas",
        "state": "SC",
        "district": "Centro",
        "street": "Rua Boleslau Kwiecen",
        "zipcode": "89460-134"
    },
    {
        "city": "Canoinhas",
        "state": "SC",
        "district": "Alto da Tijuca",
        "street": "Rua Bernardo Olsen",
        "zipcode": "89464-284"
    },
    {
        "city": "Canoinhas",
        "state": "SC",
        "district": "Campo da Água Verde",
        "street": "Rua Esmael Cunha",
        "zipcode": "89466-336"
    },
    {
        "city": "Canoinhas",
        "state": "SC",
        "district": "Piedade",
        "street": "Rua Dorival Rosa do Nascimento",
        "zipcode": "89460-658"
    },
    {
        "city": "Canoinhas",
        "state": "SC",
        "district": "Marcílio Dias",
        "street": "Rua Celestino Leite",
        "zipcode": "89465-252"
    },
    {
        "city": "Canoinhas",
        "state": "SC",
        "district": "Centro",
        "street": "Rua Curitibanos",
        "zipcode": "89460-146"
    },
    {
        "city": "Canoinhas",
        "state": "SC",
        "district": "Centro",
        "street": "Rua Duque de Caxias",
        "zipcode": "89460-102"
    },
    {
        "city": "Canoinhas",
        "state": "SC",
        "district": "Campo da Água Verde",
        "street": "Rua Epaminondas Ricardo da Silva",
        "zipcode": "89466-230"
    },
    {
        "city": "Canoinhas",
        "state": "SC",
        "district": "Industrial 1",
        "street": "Rua Candido Freitas",
        "zipcode": "89462-396"
    },
    {
        "city": "Canoinhas",
        "state": "SC",
        "district": "Água Verde",
        "street": "Rua Edson Fernando Grosskopf",
        "zipcode": "89466-813"
    },
    {
        "city": "Canoinhas",
        "state": "SC",
        "district": "Boa Vista",
        "street": "Rua Derby Fontana",
        "zipcode": "89460-204"
    },
    {
        "city": "Canoinhas",
        "state": "SC",
        "district": "Campo da Água Verde",
        "street": "Rua Fauri de Lima",
        "zipcode": "89466-242"
    },
    {
        "city": "Canoinhas",
        "state": "SC",
        "district": "Piedade",
        "street": "Rua Catarina de Souza Hubner",
        "zipcode": "89460-613"
    },
    {
        "city": "Canoinhas",
        "state": "SC",
        "district": "Alto da Tijuca",
        "street": "Rua Donatílio Lader",
        "zipcode": "89464-272"
    },
    {
        "city": "Canoinhas",
        "state": "SC",
        "district": "Alto da Tijuca",
        "street": "Rua Eurides Cordeiro Guimarães",
        "zipcode": "89464-258"
    },
    {
        "city": "Canoinhas",
        "state": "SC",
        "district": "Marcílio Dias",
        "street": "Rua Elza Baukat",
        "zipcode": "89465-080"
    },
    {
        "city": "Canoinhas",
        "state": "SC",
        "district": "Marcílio Dias",
        "street": "Rua Bernardo Szkudlarek",
        "zipcode": "89465-258"
    },
    {
        "city": "Canoinhas",
        "state": "SC",
        "district": "Alto das Palmeiras",
        "street": "Rua Deodato de Lima",
        "zipcode": "89462-006"
    },
    {
        "city": "Canoinhas",
        "state": "SC",
        "district": "Água Verde",
        "street": "Rua Eduardo Kwischal",
        "zipcode": "89466-678"
    },
    {
        "city": "Canoinhas",
        "state": "SC",
        "district": "Industrial 2",
        "street": "Rua Bernardo Wendt",
        "zipcode": "89466-543"
    },
    {
        "city": "Canoinhas",
        "state": "SC",
        "district": "Marcílio Dias",
        "street": "Rua Emílio Priebe",
        "zipcode": "89465-100"
    },
    {
        "city": "Canoinhas",
        "state": "SC",
        "district": "Boa Vista",
        "street": "Rua Elizabete Ferreira da Costa Canena",
        "zipcode": "89460-198"
    },
    {
        "city": "Canoinhas",
        "state": "SC",
        "district": "Campo da Água Verde",
        "street": "Rua Clemente Procopiak",
        "zipcode": "89466-212"
    },
    {
        "city": "Canoinhas",
        "state": "SC",
        "district": "Industrial 1",
        "street": "Rua Boleslau Wojciechowski",
        "zipcode": "89462-434"
    },
    {
        "city": "Canoinhas",
        "state": "SC",
        "district": "Centro",
        "street": "Rua Coronel Albuquerque",
        "zipcode": "89460-042"
    },
    {
        "city": "Canoinhas",
        "state": "SC",
        "district": "Campo da Água Verde",
        "street": "Rua Carlos Wagner",
        "zipcode": "89466-148"
    },
    {
        "city": "Canoinhas",
        "state": "SC",
        "district": "Marcílio Dias",
        "street": "Rua Bernardo Olsen",
        "zipcode": "89465-065"
    },
    {
        "city": "Canoinhas",
        "state": "SC",
        "district": "Piedade",
        "street": "Rua Emídio Ferreira de Souza",
        "zipcode": "89460-589"
    },
    {
        "city": "Canoinhas",
        "state": "SC",
        "district": "Centro",
        "street": "Rua Coronel Albuquerque",
        "zipcode": "89460-056"
    },
    {
        "city": "Canoinhas",
        "state": "SC",
        "district": "Centro",
        "street": "Rua Getúlio Vargas",
        "zipcode": "89460-136"
    },
    {
        "city": "Canoinhas",
        "state": "SC",
        "district": "Boa Vista",
        "street": "Rua Francisco Bechel",
        "zipcode": "89460-404"
    },
    {
        "city": "Canoinhas",
        "state": "SC",
        "district": "Industrial 1",
        "street": "Rua Francisco de Paula e Silva",
        "zipcode": "89462-344"
    },
    {
        "city": "Canoinhas",
        "state": "SC",
        "district": "Alto da Tijuca",
        "street": "Rua Gustavo Brandes",
        "zipcode": "89464-276"
    },
    {
        "city": "Canoinhas",
        "state": "SC",
        "district": "Piedade",
        "street": "Rua Frohlinde",
        "zipcode": "89460-580"
    },
    {
        "city": "Canoinhas",
        "state": "SC",
        "district": "Alto da Tijuca",
        "street": "Rua Gustavo Thiem",
        "zipcode": "89464-264"
    },
    {
        "city": "Canoinhas",
        "state": "SC",
        "district": "Campo da Água Verde",
        "street": "Rua Francisco Assis Costa",
        "zipcode": "89466-234"
    },
    {
        "city": "Canoinhas",
        "state": "SC",
        "district": "Centro",
        "street": "Rua Getúlio Vargas",
        "zipcode": "89460-046"
    },
    {
        "city": "Canoinhas",
        "state": "SC",
        "district": "Alto da Tijuca",
        "street": "Rua Guilherme Gonchorovski",
        "zipcode": "89464-240"
    },
    {
        "city": "Canoinhas",
        "state": "SC",
        "district": "Industrial 1",
        "street": "Rua Eurico Paul",
        "zipcode": "89462-426"
    },
    {
        "city": "Canoinhas",
        "state": "SC",
        "district": "Boa Vista",
        "street": "Rua Ewaldo Kreis",
        "zipcode": "89460-200"
    },
    {
        "city": "Canoinhas",
        "state": "SC",
        "district": "Centro",
        "street": "Rua Francisco de Paula Pereira",
        "zipcode": "89460-092"
    },
    {
        "city": "Canoinhas",
        "state": "SC",
        "district": "Campo da Água Verde",
        "street": "Rua Guilherme Roeder",
        "zipcode": "89466-036"
    },
    {
        "city": "Canoinhas",
        "state": "SC",
        "district": "Alto da Tijuca",
        "street": "Rua Firmino Soares Fragoso",
        "zipcode": "89464-106"
    },
    {
        "city": "Canoinhas",
        "state": "SC",
        "district": "Industrial 1",
        "street": "Rua Guilherme Goestmeier Sobrinho",
        "zipcode": "89462-348"
    },
    {
        "city": "Canoinhas",
        "state": "SC",
        "district": "Jardim Esperança",
        "street": "Rua Gustavo Brandes",
        "zipcode": "89464-062"
    },
    {
        "city": "Canoinhas",
        "state": "SC",
        "district": "Industrial 1",
        "street": "Rua Francisco Bueno Oliveira",
        "zipcode": "89462-480"
    },
    {
        "city": "Canoinhas",
        "state": "SC",
        "district": "Alto das Palmeiras",
        "street": "Rua Estanislau Munhoz de Lima",
        "zipcode": "89462-060"
    },
    {
        "city": "Canoinhas",
        "state": "SC",
        "district": "Alto das Palmeiras",
        "street": "Rua Florentino A Vieira",
        "zipcode": "89462-090"
    },
    {
        "city": "Canoinhas",
        "state": "SC",
        "district": "Centro",
        "street": "Rua Eugênio de Souza",
        "zipcode": "89460-032"
    },
    {
        "city": "Canoinhas",
        "state": "SC",
        "district": "Boa Vista",
        "street": "Rua Flávio Haensch",
        "zipcode": "89460-324"
    },
    {
        "city": "Canoinhas",
        "state": "SC",
        "district": "Boa Vista",
        "street": "Rua Francisco de Paula Pereira",
        "zipcode": "89460-398"
    },
    {
        "city": "Canoinhas",
        "state": "SC",
        "district": "Campo da Água Verde",
        "street": "Rua Gabriel Raldi",
        "zipcode": "89466-328"
    },
    {
        "city": "Canoinhas",
        "state": "SC",
        "district": "Campo da Água Verde",
        "street": "Rua Francisco M Fuck",
        "zipcode": "89466-082"
    },
    {
        "city": "Canoinhas",
        "state": "SC",
        "district": "Industrial 1",
        "street": "Rua Francisco Leandro Gonçalves",
        "zipcode": "89462-595"
    },
    {
        "city": "Canoinhas",
        "state": "SC",
        "district": "Centro",
        "street": "Rua Francisco Maievski",
        "zipcode": "89460-132"
    },
    {
        "city": "Canoinhas",
        "state": "SC",
        "district": "Alto das Palmeiras",
        "street": "Rua Frei Menandro Kamps",
        "zipcode": "89462-002"
    },
    {
        "city": "Canoinhas",
        "state": "SC",
        "district": "Tricolin",
        "street": "Rua Francisco de Paula e Silva",
        "zipcode": "89462-230"
    },
    {
        "city": "Canoinhas",
        "state": "SC",
        "district": "Piedade",
        "street": "Rua Guilherme Mohr",
        "zipcode": "89460-619"
    },
    {
        "city": "Canoinhas",
        "state": "SC",
        "district": "Industrial 1",
        "street": "Rua Helena Hening",
        "zipcode": "89462-534"
    },
    {
        "city": "Canoinhas",
        "state": "SC",
        "district": "Jardim Esperança",
        "street": "Rua Francisco Ervecio Cubas",
        "zipcode": "89464-046"
    },
    {
        "city": "Canoinhas",
        "state": "SC",
        "district": "Alto das Palmeiras",
        "street": "Rua Francisco de Paula Pereira",
        "zipcode": "89462-008"
    },
    {
        "city": "Canoinhas",
        "state": "SC",
        "district": "Centro",
        "street": "Rua Francisco de Paula Pereira",
        "zipcode": "89460-120"
    },
    {
        "city": "Canoinhas",
        "state": "SC",
        "district": "Industrial 2",
        "street": "Rua Francisco Assis Costa",
        "zipcode": "89466-453"
    },
    {
        "city": "Canoinhas",
        "state": "SC",
        "district": "Jardim Esperança",
        "street": "Rua Feres João Sfair",
        "zipcode": "89464-018"
    },
    {
        "city": "Canoinhas",
        "state": "SC",
        "district": "Boa Vista",
        "street": "Rua Francisco José Klahold",
        "zipcode": "89460-194"
    },
    {
        "city": "Canoinhas",
        "state": "SC",
        "district": "Centro",
        "street": "Rua Gil Costa",
        "zipcode": "89460-168"
    },
    {
        "city": "Canoinhas",
        "state": "SC",
        "district": "Campo da Água Verde",
        "street": "Rua Frederico Kolher",
        "zipcode": "89466-208"
    },
    {
        "city": "Canoinhas",
        "state": "SC",
        "district": "Boa Vista",
        "street": "Rua Frei Menandro Kamps",
        "zipcode": "89460-242"
    },
    {
        "city": "Canoinhas",
        "state": "SC",
        "district": "Alto das Palmeiras",
        "street": "Rua Guilherme Radke",
        "zipcode": "89462-026"
    },
    {
        "city": "Canoinhas",
        "state": "SC",
        "district": "Alto da Tijuca",
        "street": "Rua Guilherme Lohse",
        "zipcode": "89464-254"
    },
    {
        "city": "Canoinhas",
        "state": "SC",
        "district": "Boa Vista",
        "street": "Rua Gustavo Witt",
        "zipcode": "89460-252"
    },
    {
        "city": "Canoinhas",
        "state": "SC",
        "district": "Jardim Esperança",
        "street": "Rua Gustavo Brandes",
        "zipcode": "89464-066"
    },
    {
        "city": "Canoinhas",
        "state": "SC",
        "district": "Jardim Esperança",
        "street": "Rua Feres João Sfair",
        "zipcode": "89464-058"
    },
    {
        "city": "Canoinhas",
        "state": "SC",
        "district": "Centro",
        "street": "Rua Getúlio Vargas",
        "zipcode": "89460-128"
    },
    {
        "city": "Canoinhas",
        "state": "SC",
        "district": "Alto da Tijuca",
        "street": "Rua Guilherme Gonchorovski",
        "zipcode": "89464-190"
    },
    {
        "city": "Canoinhas",
        "state": "SC",
        "district": "Campo da Água Verde",
        "street": "Rua Feres Coury",
        "zipcode": "89466-284"
    },
    {
        "city": "Canoinhas",
        "state": "SC",
        "district": "Piedade",
        "street": "Rua Haroldo José Muller",
        "zipcode": "89460-640"
    },
    {
        "city": "Canoinhas",
        "state": "SC",
        "district": "Industrial 2",
        "street": "Rua Frederico Kolher",
        "zipcode": "89466-432"
    },
    {
        "city": "Canoinhas",
        "state": "SC",
        "district": "Industrial 1",
        "street": "Rua Fermino Pacheco Miranda de Lima",
        "zipcode": "89462-605"
    },
    {
        "city": "Canoinhas",
        "state": "SC",
        "district": "Campo da Água Verde",
        "street": "Rua Francisco Assis Costa",
        "zipcode": "89466-236"
    },
    {
        "city": "Canoinhas",
        "state": "SC",
        "district": "Centro",
        "street": "Rua Irineu Budant",
        "zipcode": "89460-158"
    },
    {
        "city": "Canoinhas",
        "state": "SC",
        "district": "Alto da Tijuca",
        "street": "Rua João Tomaschutz",
        "zipcode": "89464-280"
    },
    {
        "city": "Canoinhas",
        "state": "SC",
        "district": "Alto das Palmeiras",
        "street": "Rua João B Pontarolo",
        "zipcode": "89462-042"
    },
    {
        "city": "Canoinhas",
        "state": "SC",
        "district": "Piedade",
        "street": "Rua Henrique Paulo",
        "zipcode": "89460-583"
    },
    {
        "city": "Canoinhas",
        "state": "SC",
        "district": "Marcílio Dias",
        "street": "Rua João Lader",
        "zipcode": "89465-254"
    },
    {
        "city": "Canoinhas",
        "state": "SC",
        "district": "Alto das Palmeiras",
        "street": "Rua João Sabatke",
        "zipcode": "89462-004"
    },
    {
        "city": "Canoinhas",
        "state": "SC",
        "district": "Campo da Água Verde",
        "street": "Rua Joaquim Vieira de Lima",
        "zipcode": "89466-324"
    },
    {
        "city": "Canoinhas",
        "state": "SC",
        "district": "Marcílio Dias",
        "street": "Rua João Felipe Piermann",
        "zipcode": "89465-264"
    },
    {
        "city": "Canoinhas",
        "state": "SC",
        "district": "Centro",
        "street": "Rua Irmã Maria Felicitas",
        "zipcode": "89460-148"
    },
    {
        "city": "Canoinhas",
        "state": "SC",
        "district": "Água Verde",
        "street": "Rua Jacob Treml",
        "zipcode": "89466-712"
    },
    {
        "city": "Canoinhas",
        "state": "SC",
        "district": "Jardim Esperança",
        "street": "Rua Henrique Sorg",
        "zipcode": "89464-036"
    },
    {
        "city": "Canoinhas",
        "state": "SC",
        "district": "Campo da Água Verde",
        "street": "Rua João César de Andrade",
        "zipcode": "89466-160"
    },
    {
        "city": "Canoinhas",
        "state": "SC",
        "district": "Alto da Tijuca",
        "street": "Rua Heribert Maul",
        "zipcode": "89464-308"
    },
    {
        "city": "Canoinhas",
        "state": "SC",
        "district": "Centro",
        "street": "Rua Jornalista Albino Budant",
        "zipcode": "89460-012"
    },
    {
        "city": "Canoinhas",
        "state": "SC",
        "district": "Centro",
        "street": "Rua Joaquim de Paula Vieira",
        "zipcode": "89460-170"
    },
    {
        "city": "Canoinhas",
        "state": "SC",
        "district": "Industrial 1",
        "street": "Rua João Watzko",
        "zipcode": "89462-530"
    },
    {
        "city": "Canoinhas",
        "state": "SC",
        "district": "Marcílio Dias",
        "street": "Rua Henrique Soetbeer",
        "zipcode": "89465-105"
    },
    {
        "city": "Canoinhas",
        "state": "SC",
        "district": "Industrial 1",
        "street": "Rua João Zenildo Graff",
        "zipcode": "89462-520"
    },
    {
        "city": "Canoinhas",
        "state": "SC",
        "district": "Centro",
        "street": "Rua João Allage",
        "zipcode": "89460-064"
    },
    {
        "city": "Canoinhas",
        "state": "SC",
        "district": "Centro",
        "street": "Rua João da Cruz Kreiling",
        "zipcode": "89460-154"
    },
    {
        "city": "Canoinhas",
        "state": "SC",
        "district": "Piedade",
        "street": "Rua Henrique Pedroso",
        "zipcode": "89460-616"
    },
    {
        "city": "Canoinhas",
        "state": "SC",
        "district": "Industrial 1",
        "street": "Rua Irani Farias Dalla Barba",
        "zipcode": "89462-490"
    },
    {
        "city": "Canoinhas",
        "state": "SC",
        "district": "Piedade",
        "street": "Rua Jacó Oissa",
        "zipcode": "89460-505"
    },
    {
        "city": "Canoinhas",
        "state": "SC",
        "district": "Centro",
        "street": "Rua Hilda Ostroski",
        "zipcode": "89460-002"
    },
    {
        "city": "Canoinhas",
        "state": "SC",
        "district": "Água Verde",
        "street": "Rua Joaquim Ferreira Ribeiro",
        "zipcode": "89466-889"
    },
    {
        "city": "Canoinhas",
        "state": "SC",
        "district": "Boa Vista",
        "street": "Rua João Müller",
        "zipcode": "89460-408"
    },
    {
        "city": "Canoinhas",
        "state": "SC",
        "district": "Água Verde",
        "street": "Rua Irineu Gonzaga",
        "zipcode": "89466-668"
    },
    {
        "city": "Canoinhas",
        "state": "SC",
        "district": "Industrial 2",
        "street": "Rua Joaquim Vieira de Lima",
        "zipcode": "89466-364"
    },
    {
        "city": "Canoinhas",
        "state": "SC",
        "district": "Piedade",
        "street": "Rua João Müller",
        "zipcode": "89460-410"
    },
    {
        "city": "Canoinhas",
        "state": "SC",
        "district": "Boa Vista",
        "street": "Rua José Adão Fuck",
        "zipcode": "89460-392"
    },
    {
        "city": "Canoinhas",
        "state": "SC",
        "district": "Alto das Palmeiras",
        "street": "Rua José Bartolomeu Fedalto",
        "zipcode": "89462-096"
    },
    {
        "city": "Canoinhas",
        "state": "SC",
        "district": "Piedade",
        "street": "Rua Jorge Paulo",
        "zipcode": "89460-625"
    },
    {
        "city": "Canoinhas",
        "state": "SC",
        "district": "Marcílio Dias",
        "street": "Rua João Vicente Gonçalves",
        "zipcode": "89465-075"
    },
    {
        "city": "Canoinhas",
        "state": "SC",
        "district": "Boa Vista",
        "street": "Rua João Krzensinski",
        "zipcode": "89460-190"
    },
    {
        "city": "Canoinhas",
        "state": "SC",
        "district": "Tricolin",
        "street": "Rua João Tomaschutz",
        "zipcode": "89462-200"
    },
    {
        "city": "Canoinhas",
        "state": "SC",
        "district": "Boa Vista",
        "street": "Rua João da Cruz Kreiling",
        "zipcode": "89460-228"
    },
    {
        "city": "Canoinhas",
        "state": "SC",
        "district": "Jardim Esperança",
        "street": "Rua João Tomaschutz",
        "zipcode": "89464-060"
    },
    {
        "city": "Canoinhas",
        "state": "SC",
        "district": "Industrial 1",
        "street": "Rua Hermenegildo Goralski",
        "zipcode": "89462-422"
    },
    {
        "city": "Canoinhas",
        "state": "SC",
        "district": "Boa Vista",
        "street": "Rua Joaquim de Paula Vieira",
        "zipcode": "89460-196"
    },
    {
        "city": "Canoinhas",
        "state": "SC",
        "district": "Alto da Tijuca",
        "street": "Rua Henrique Sorg",
        "zipcode": "89464-132"
    },
    {
        "city": "Canoinhas",
        "state": "SC",
        "district": "Industrial 1",
        "street": "Rua João Fedalto",
        "zipcode": "89462-392"
    },
    {
        "city": "Canoinhas",
        "state": "SC",
        "district": "Industrial 1",
        "street": "Rua João Batista Fedalto",
        "zipcode": "89462-354"
    },
    {
        "city": "Canoinhas",
        "state": "SC",
        "district": "Água Verde",
        "street": "Rua Irineu Bornhausen",
        "zipcode": "89466-662"
    },
    {
        "city": "Canoinhas",
        "state": "SC",
        "district": "Água Verde",
        "street": "Rua Jacob Fuck",
        "zipcode": "89466-700"
    },
    {
        "city": "Canoinhas",
        "state": "SC",
        "district": "Jardim Esperança",
        "street": "Rua Hilda Ostroski",
        "zipcode": "89464-000"
    },
    {
        "city": "Canoinhas",
        "state": "SC",
        "district": "Boa Vista",
        "street": "Rua Joaquim de Paula Vieira",
        "zipcode": "89460-230"
    },
    {
        "city": "Canoinhas",
        "state": "SC",
        "district": "Marcílio Dias",
        "street": "Rua João Jacobowski",
        "zipcode": "89465-262"
    },
    {
        "city": "Canoinhas",
        "state": "SC",
        "district": "Marcílio Dias",
        "street": "Rua João Noernberg",
        "zipcode": "89465-134"
    },
    {
        "city": "Canoinhas",
        "state": "SC",
        "district": "Jardim Esperança",
        "street": "Rua Isabel de Deus Bueno Sabino",
        "zipcode": "89464-040"
    },
    {
        "city": "Canoinhas",
        "state": "SC",
        "district": "Alto das Palmeiras",
        "street": "Rua João Müller",
        "zipcode": "89462-022"
    },
    {
        "city": "Canoinhas",
        "state": "SC",
        "district": "Jardim Esperança",
        "street": "Rua Hilda Ostroski",
        "zipcode": "89464-002"
    },
    {
        "city": "Canoinhas",
        "state": "SC",
        "district": "Água Verde",
        "street": "Rua Irmã Maria Carolina Gross",
        "zipcode": "89466-676"
    },
    {
        "city": "Canoinhas",
        "state": "SC",
        "district": "Boa Vista",
        "street": "Rua José Babireski",
        "zipcode": "89460-400"
    },
    {
        "city": "Canoinhas",
        "state": "SC",
        "district": "Água Verde",
        "street": "Rua Ivani Walter Rodrigues",
        "zipcode": "89466-886"
    },
    {
        "city": "Canoinhas",
        "state": "SC",
        "district": "Campo da Água Verde",
        "street": "Rua Henrique Zugmann",
        "zipcode": "89466-070"
    },
    {
        "city": "Canoinhas",
        "state": "SC",
        "district": "Industrial 2",
        "street": "Rua Nair Mafalda Berão Zaniolo",
        "zipcode": "89466-450"
    },
    {
        "city": "Canoinhas",
        "state": "SC",
        "district": "Boa Vista",
        "street": "Rua Maria da Glória Pires",
        "zipcode": "89460-328"
    },
    {
        "city": "Canoinhas",
        "state": "SC",
        "district": "Centro",
        "street": "Rua Lázaro Bastos",
        "zipcode": "89460-066"
    },
    {
        "city": "Canoinhas",
        "state": "SC",
        "district": "Marcílio Dias",
        "street": "Rua Miguel Barabacha",
        "zipcode": "89465-256"
    },
    {
        "city": "Canoinhas",
        "state": "SC",
        "district": "Boa Vista",
        "street": "Rua Leonel Barcelos",
        "zipcode": "89460-258"
    },
    {
        "city": "Canoinhas",
        "state": "SC",
        "district": "Industrial 1",
        "street": "Rua Maria Matilde Fuck",
        "zipcode": "89462-484"
    },
    {
        "city": "Canoinhas",
        "state": "SC",
        "district": "Água Verde",
        "street": "Rua Loacir Muniz",
        "zipcode": "89466-664"
    },
    {
        "city": "Canoinhas",
        "state": "SC",
        "district": "Alto da Tijuca",
        "street": "Rua Marcílio Müller",
        "zipcode": "89464-070"
    },
    {
        "city": "Canoinhas",
        "state": "SC",
        "district": "Boa Vista",
        "street": "Rua Marechal Deodoro",
        "zipcode": "89460-182"
    },
    {
        "city": "Canoinhas",
        "state": "SC",
        "district": "Industrial 1",
        "street": "Rua José Leal de Barros",
        "zipcode": "89462-645"
    },
    {
        "city": "Canoinhas",
        "state": "SC",
        "district": "Alto da Tijuca",
        "street": "Rua Kurt A Ullig",
        "zipcode": "89464-266"
    },
    {
        "city": "Canoinhas",
        "state": "SC",
        "district": "Marcílio Dias",
        "street": "Rua Leopoldo Naisser",
        "zipcode": "89465-223"
    },
    {
        "city": "Canoinhas",
        "state": "SC",
        "district": "Boa Vista",
        "street": "Rua Martha Rank",
        "zipcode": "89460-264"
    },
    {
        "city": "Canoinhas",
        "state": "SC",
        "district": "Centro",
        "street": "Rua Kurt Mendes",
        "zipcode": "89460-106"
    },
    {
        "city": "Canoinhas",
        "state": "SC",
        "district": "Marcílio Dias",
        "street": "Rua Luis Carlos Gonçalves",
        "zipcode": "89465-193"
    },
    {
        "city": "Canoinhas",
        "state": "SC",
        "district": "Industrial 1",
        "street": "Rua Manoel Ferreira de Lima",
        "zipcode": "89462-506"
    },
    {
        "city": "Canoinhas",
        "state": "SC",
        "district": "Campo da Água Verde",
        "street": "Rua Júlio Correia Costa",
        "zipcode": "89466-154"
    },
    {
        "city": "Canoinhas",
        "state": "SC",
        "district": "Industrial 1",
        "street": "Rua Mamed Cador",
        "zipcode": "89462-428"
    },
    {
        "city": "Canoinhas",
        "state": "SC",
        "district": "Boa Vista",
        "street": "Rua Miguel Tanus Isphair",
        "zipcode": "89460-192"
    },
    {
        "city": "Canoinhas",
        "state": "SC",
        "district": "Água Verde",
        "street": "Rua Mário João Mayer",
        "zipcode": "89466-682"
    },
    {
        "city": "Canoinhas",
        "state": "SC",
        "district": "Boa Vista",
        "street": "Rua Marechal Floriano",
        "zipcode": "89460-188"
    },
    {
        "city": "Canoinhas",
        "state": "SC",
        "district": "Jardim Esperança",
        "street": "Rua Marcílio Müller",
        "zipcode": "89464-068"
    },
    {
        "city": "Canoinhas",
        "state": "SC",
        "district": "Campo da Água Verde",
        "street": "Rua Julio Budant Neto",
        "zipcode": "89466-338"
    },
    {
        "city": "Canoinhas",
        "state": "SC",
        "district": "Campo da Água Verde",
        "street": "Rua Miguel Darmorus",
        "zipcode": "89466-168"
    },
    {
        "city": "Canoinhas",
        "state": "SC",
        "district": "Industrial 2",
        "street": "Rua Milton Wendt",
        "zipcode": "89466-549"
    },
    {
        "city": "Canoinhas",
        "state": "SC",
        "district": "Centro",
        "street": "Rua Marechal Floriano",
        "zipcode": "89460-124"
    },
    {
        "city": "Canoinhas",
        "state": "SC",
        "district": "Boa Vista",
        "street": "Rua Miguel Osni Bileski",
        "zipcode": "89460-332"
    },
    {
        "city": "Canoinhas",
        "state": "SC",
        "district": "Água Verde",
        "street": "Rua José Jair Krauss",
        "zipcode": "89466-674"
    },
    {
        "city": "Canoinhas",
        "state": "SC",
        "district": "Boa Vista",
        "street": "Rua Ladislau Babireski",
        "zipcode": "89460-390"
    },
    {
        "city": "Canoinhas",
        "state": "SC",
        "district": "Piedade",
        "street": "Rua José Maximiliano de Souza",
        "zipcode": "89460-545"
    },
    {
        "city": "Canoinhas",
        "state": "SC",
        "district": "Alto da Tijuca",
        "street": "Rua Melvin Jones",
        "zipcode": "89464-304"
    },
    {
        "city": "Canoinhas",
        "state": "SC",
        "district": "Alto das Palmeiras",
        "street": "Rua Major Vieira",
        "zipcode": "89462-012"
    },
    {
        "city": "Canoinhas",
        "state": "SC",
        "district": "Alto da Tijuca",
        "street": "Rua Luiza Leite da Silva",
        "zipcode": "89464-110"
    },
    {
        "city": "Canoinhas",
        "state": "SC",
        "district": "Boa Vista",
        "street": "Rua Manoel Gravi",
        "zipcode": "89460-260"
    },
    {
        "city": "Canoinhas",
        "state": "SC",
        "district": "Água Verde",
        "street": "Rua Narciso Ruthes",
        "zipcode": "89466-710"
    },
    {
        "city": "Canoinhas",
        "state": "SC",
        "district": "Piedade",
        "street": "Rua Migguel Bredum",
        "zipcode": "89460-610"
    },
    {
        "city": "Canoinhas",
        "state": "SC",
        "district": "Alto das Palmeiras",
        "street": "Rua Major Vieira",
        "zipcode": "89462-014"
    },
    {
        "city": "Canoinhas",
        "state": "SC",
        "district": "Piedade",
        "street": "Rua Martins Frantz Filho",
        "zipcode": "89460-598"
    },
    {
        "city": "Canoinhas",
        "state": "SC",
        "district": "Centro",
        "street": "Rua Major Vieira",
        "zipcode": "89460-112"
    },
    {
        "city": "Canoinhas",
        "state": "SC",
        "district": "Industrial 2",
        "street": "Rua Júlio Correia Costa",
        "zipcode": "89466-366"
    },
    {
        "city": "Canoinhas",
        "state": "SC",
        "district": "Industrial 1",
        "street": "Rua Maria Eva Lima",
        "zipcode": "89462-650"
    },
    {
        "city": "Canoinhas",
        "state": "SC",
        "district": "Alto das Palmeiras",
        "street": "Rua Lourenço Wrublevski",
        "zipcode": "89462-054"
    },
    {
        "city": "Canoinhas",
        "state": "SC",
        "district": "Alto das Palmeiras",
        "street": "Rua Leonico A Kohler",
        "zipcode": "89462-040"
    },
    {
        "city": "Canoinhas",
        "state": "SC",
        "district": "Boa Vista",
        "street": "Rua Martin Leithold",
        "zipcode": "89460-256"
    },
    {
        "city": "Canoinhas",
        "state": "SC",
        "district": "Sossego",
        "street": "Rua Lázaro Bastos",
        "zipcode": "89462-256"
    },
    {
        "city": "Canoinhas",
        "state": "SC",
        "district": "Piedade",
        "street": "Rua Mathias Müller",
        "zipcode": "89460-592"
    },
    {
        "city": "Canoinhas",
        "state": "SC",
        "district": "Campo da Água Verde",
        "street": "Rua Mercedes Corte",
        "zipcode": "89466-038"
    },
    {
        "city": "Canoinhas",
        "state": "SC",
        "district": "Tricolin",
        "street": "Rua Lourenço Wrublevski",
        "zipcode": "89462-192"
    },
    {
        "city": "Canoinhas",
        "state": "SC",
        "district": "Centro",
        "street": "Rua Marechal Floriano",
        "zipcode": "89460-166"
    },
    {
        "city": "Canoinhas",
        "state": "SC",
        "district": "Marcílio Dias",
        "street": "Rua Mario Edson Frochner",
        "zipcode": "89465-130"
    },
    {
        "city": "Canoinhas",
        "state": "SC",
        "district": "Água Verde",
        "street": "Rua Mário João Mayer",
        "zipcode": "89466-698"
    },
    {
        "city": "Canoinhas",
        "state": "SC",
        "district": "Campo da Água Verde",
        "street": "Rua José Lulu Vieira",
        "zipcode": "89466-164"
    },
    {
        "city": "Canoinhas",
        "state": "SC",
        "district": "Água Verde",
        "street": "Rua Maria Lourenço Bueno",
        "zipcode": "89466-690"
    },
    {
        "city": "Canoinhas",
        "state": "SC",
        "district": "Industrial 1",
        "street": "Rua Raphael Boeing",
        "zipcode": "89462-350"
    },
    {
        "city": "Canoinhas",
        "state": "SC",
        "district": "Água Verde",
        "street": "Rua Otávio Xavier Rauen",
        "zipcode": "89466-696"
    },
    {
        "city": "Canoinhas",
        "state": "SC",
        "district": "Boa Vista",
        "street": "Rua Olindina Rocha Ludka",
        "zipcode": "89460-322"
    },
    {
        "city": "Canoinhas",
        "state": "SC",
        "district": "Centro",
        "street": "Rua Roberto Elke",
        "zipcode": "89460-010"
    },
    {
        "city": "Canoinhas",
        "state": "SC",
        "district": "Campo da Água Verde",
        "street": "Rua Otávio Ferreira da Silva",
        "zipcode": "89466-350"
    },
    {
        "city": "Canoinhas",
        "state": "SC",
        "district": "Jardim Esperança",
        "street": "Rua Otto Friedrich",
        "zipcode": "89464-020"
    },
    {
        "city": "Canoinhas",
        "state": "SC",
        "district": "Centro",
        "street": "Rua Rui Barbosa",
        "zipcode": "89460-001"
    },
    {
        "city": "Canoinhas",
        "state": "SC",
        "district": "Jardim Esperança",
        "street": "Rua Roberto Elke",
        "zipcode": "89464-008"
    },
    {
        "city": "Canoinhas",
        "state": "SC",
        "district": "Campo da Água Verde",
        "street": "Rua Pedro Barbosa Moreira",
        "zipcode": "89466-170"
    },
    {
        "city": "Canoinhas",
        "state": "SC",
        "district": "Centro",
        "street": "Rua Paul Harris",
        "zipcode": "89460-164"
    },
    {
        "city": "Canoinhas",
        "state": "SC",
        "district": "Centro",
        "street": "Rua Rolando Lourenço Mallucell",
        "zipcode": "89460-062"
    },
    {
        "city": "Canoinhas",
        "state": "SC",
        "district": "Campo da Água Verde",
        "street": "Rua Paulo Wiese",
        "zipcode": "89466-140"
    },
    {
        "city": "Canoinhas",
        "state": "SC",
        "district": "Piedade",
        "street": "Rua Paula Rank Witt",
        "zipcode": "89460-415"
    },
    {
        "city": "Canoinhas",
        "state": "SC",
        "district": "Tricolin",
        "street": "Rua Rui Barbosa",
        "zipcode": "89462-232"
    },
    {
        "city": "Canoinhas",
        "state": "SC",
        "district": "Campo da Água Verde",
        "street": "Rua Nicolau Fernandes",
        "zipcode": "89466-232"
    },
    {
        "city": "Canoinhas",
        "state": "SC",
        "district": "Marcílio Dias",
        "street": "Rua Oscar de Castilho",
        "zipcode": "89465-205"
    },
    {
        "city": "Canoinhas",
        "state": "SC",
        "district": "Marcílio Dias",
        "street": "Rua Rodolfo Gritzmacher",
        "zipcode": "89465-260"
    },
    {
        "city": "Canoinhas",
        "state": "SC",
        "district": "Piedade",
        "street": "Rua Oscar Vieira",
        "zipcode": "89460-607"
    },
    {
        "city": "Canoinhas",
        "state": "SC",
        "district": "Boa Vista",
        "street": "Rua Nivaldo Brey",
        "zipcode": "89460-326"
    },
    {
        "city": "Canoinhas",
        "state": "SC",
        "district": "Marcílio Dias",
        "street": "Rua Petrolina Dietrich",
        "zipcode": "89465-211"
    },
    {
        "city": "Canoinhas",
        "state": "SC",
        "district": "Campo da Água Verde",
        "street": "Rua Rubens Ribeiro da Silva",
        "zipcode": "89466-216"
    },
    {
        "city": "Canoinhas",
        "state": "SC",
        "district": "Tricolin",
        "street": "Rua Otto Friedrich",
        "zipcode": "89462-202"
    },
    {
        "city": "Canoinhas",
        "state": "SC",
        "district": "Campo da Água Verde",
        "street": "Rua Nicolau Fernandes",
        "zipcode": "89466-348"
    },
    {
        "city": "Canoinhas",
        "state": "SC",
        "district": "Industrial 1",
        "street": "Rua Rosi Zaniolo Freitas",
        "zipcode": "89462-390"
    },
    {
        "city": "Canoinhas",
        "state": "SC",
        "district": "Industrial 1",
        "street": "Rua Pedro Batista de Bastos",
        "zipcode": "89462-526"
    },
    {
        "city": "Canoinhas",
        "state": "SC",
        "district": "Industrial 1",
        "street": "Rua Otto Kohler",
        "zipcode": "89462-600"
    },
    {
        "city": "Canoinhas",
        "state": "SC",
        "district": "Água Verde",
        "street": "Rua Otávio Correia",
        "zipcode": "89466-694"
    },
    {
        "city": "Canoinhas",
        "state": "SC",
        "district": "Campo da Água Verde",
        "street": "Rua Pedro Leal de Barros",
        "zipcode": "89466-032"
    },
    {
        "city": "Canoinhas",
        "state": "SC",
        "district": "Boa Vista",
        "street": "Rua Paulo Ritzmann",
        "zipcode": "89460-222"
    },
    {
        "city": "Canoinhas",
        "state": "SC",
        "district": "Campo da Água Verde",
        "street": "Rua Pedro Barbosa Moreira",
        "zipcode": "89466-330"
    },
    {
        "city": "Canoinhas",
        "state": "SC",
        "district": "Boa Vista",
        "street": "Rua Nery Waltrick",
        "zipcode": "89460-202"
    },
    {
        "city": "Canoinhas",
        "state": "SC",
        "district": "Alto da Tijuca",
        "street": "Rua Rodolfo Emílio Rengst",
        "zipcode": "89464-286"
    },
    {
        "city": "Canoinhas",
        "state": "SC",
        "district": "Alto da Tijuca",
        "street": "Rua Pedro dos Santos Correa",
        "zipcode": "89464-244"
    },
    {
        "city": "Canoinhas",
        "state": "SC",
        "district": "Sossego",
        "street": "Rua Rui Barbosa",
        "zipcode": "89462-254"
    },
    {
        "city": "Canoinhas",
        "state": "SC",
        "district": "Campo da Água Verde",
        "street": "Rua Otávio Tabalipa",
        "zipcode": "89466-152"
    },
    {
        "city": "Canoinhas",
        "state": "SC",
        "district": "Industrial 2",
        "street": "Rua Otávio Ferreira da Silva",
        "zipcode": "89466-360"
    },
    {
        "city": "Canoinhas",
        "state": "SC",
        "district": "Industrial 1",
        "street": "Rua Sallin Zattar",
        "zipcode": "89462-432"
    },
    {
        "city": "Canoinhas",
        "state": "SC",
        "district": "Centro",
        "street": "Rua Paul Harris",
        "zipcode": "89460-156"
    },
    {
        "city": "Canoinhas",
        "state": "SC",
        "district": "Boa Vista",
        "street": "Rua São José",
        "zipcode": "89460-180"
    },
    {
        "city": "Canoinhas",
        "state": "SC",
        "district": "Piedade",
        "street": "Rua Reinoldo Hubner",
        "zipcode": "89460-550"
    },
    {
        "city": "Canoinhas",
        "state": "SC",
        "district": "Piedade",
        "street": "Rua Quintino Tramontin",
        "zipcode": "89460-643"
    },
    {
        "city": "Canoinhas",
        "state": "SC",
        "district": "Campo da Água Verde",
        "street": "Rua Reinaldo Kruger",
        "zipcode": "89466-222"
    },
    {
        "city": "Canoinhas",
        "state": "SC",
        "district": "Centro",
        "street": "Rua Pastor George Weger",
        "zipcode": "89460-144"
    },
    {
        "city": "Canoinhas",
        "state": "SC",
        "district": "Água Verde",
        "street": "Rua Rubens Ribeiro da Silva",
        "zipcode": "89466-560"
    },
    {
        "city": "Canoinhas",
        "state": "SC",
        "district": "Industrial 1",
        "street": "Rua Nereu Ramos",
        "zipcode": "89462-500"
    },
    {
        "city": "Canoinhas",
        "state": "SC",
        "district": "Jardim Esperança",
        "street": "Rua Otília Camargo Furst",
        "zipcode": "89464-052"
    },
    {
        "city": "Canoinhas",
        "state": "SC",
        "district": "Industrial 1",
        "street": "Rua Reneau Cubas",
        "zipcode": "89462-430"
    },
    {
        "city": "Canoinhas",
        "state": "SC",
        "district": "Centro",
        "street": "Rua Santa Cruz",
        "zipcode": "89460-018"
    },
    {
        "city": "Canoinhas",
        "state": "SC",
        "district": "Campo da Água Verde",
        "street": "Rua Nene Pereira",
        "zipcode": "89466-166"
    },
    {
        "city": "Canoinhas",
        "state": "SC",
        "district": "Centro",
        "street": "Rua Nery Waltrick",
        "zipcode": "89460-160"
    },
    {
        "city": "Canoinhas",
        "state": "SC",
        "district": "Boa Vista",
        "street": "Rua Pastor George Weger",
        "zipcode": "89460-238"
    },
    {
        "city": "Canoinhas",
        "state": "SC",
        "district": "Sossego",
        "street": "Rua Roberto Elke",
        "zipcode": "89462-260"
    },
    {
        "city": "Canoinhas",
        "state": "SC",
        "district": "Industrial 1",
        "street": "Rua Olimpio Teixeira da Silva",
        "zipcode": "89462-436"
    },
    {
        "city": "Canoinhas",
        "state": "SC",
        "district": "Jardim Esperança",
        "street": "Rua Zelina Zila S Garcindo",
        "zipcode": "89464-006"
    },
    {
        "city": "Canoinhas",
        "state": "SC",
        "district": "Jardim Esperança",
        "street": "Rua Tenente Ataliba Aduri",
        "zipcode": "89464-064"
    },
    {
        "city": "Canoinhas",
        "state": "SC",
        "district": "Alto da Tijuca",
        "street": "Rua Werner Eugenio Kellner",
        "zipcode": "89464-250"
    },
    {
        "city": "Canoinhas",
        "state": "SC",
        "district": "Jardim Esperança",
        "street": "Rua Saulo Carvalho",
        "zipcode": "89464-028"
    },
    {
        "city": "Canoinhas",
        "state": "SC",
        "district": "Marcílio Dias",
        "street": "Rua Wendelin Metzger",
        "zipcode": "89465-190"
    },
    {
        "city": "Canoinhas",
        "state": "SC",
        "district": "Industrial 1",
        "street": "Rua Vereador Frederico Haag",
        "zipcode": "89462-346"
    },
    {
        "city": "Canoinhas",
        "state": "SC",
        "district": "Industrial 1",
        "street": "Rua Seraphim Martins",
        "zipcode": "89462-635"
    },
    {
        "city": "Canoinhas",
        "state": "SC",
        "district": "Alto da Tijuca",
        "street": "Rua Três de Maio",
        "zipcode": "89464-292"
    },
    {
        "city": "Canoinhas",
        "state": "SC",
        "district": "Campo da Água Verde",
        "street": "Rua Severo de Andrade",
        "zipcode": "89466-224"
    },
    {
        "city": "Canoinhas",
        "state": "SC",
        "district": "Industrial 1",
        "street": "Rua Willi Kurt",
        "zipcode": "89462-424"
    },
    {
        "city": "Canoinhas",
        "state": "SC",
        "district": "Centro",
        "street": "Rua Três de Maio",
        "zipcode": "89460-060"
    },
    {
        "city": "Canoinhas",
        "state": "SC",
        "district": "Alto da Tijuca",
        "street": "Rua Valmor Leite",
        "zipcode": "89464-102"
    },
    {
        "city": "Canoinhas",
        "state": "SC",
        "district": "Centro",
        "street": "Rua Wolff Filho",
        "zipcode": "89460-040"
    },
    {
        "city": "Canoinhas",
        "state": "SC",
        "district": "Campo da Água Verde",
        "street": "Rua Vitalina Honorato de Lima",
        "zipcode": "89466-030"
    },
    {
        "city": "Canoinhas",
        "state": "SC",
        "district": "Piedade",
        "street": "Rua Terezinha de Jesus Loiola",
        "zipcode": "89460-631"
    },
    {
        "city": "Canoinhas",
        "state": "SC",
        "district": "Boa Vista",
        "street": "Rua São José",
        "zipcode": "89460-226"
    },
    {
        "city": "Canoinhas",
        "state": "SC",
        "district": "Tricolin",
        "street": "Rua Saulo Carvalho",
        "zipcode": "89462-238"
    },
    {
        "city": "Canoinhas",
        "state": "SC",
        "district": "Centro",
        "street": "Rua Três de Maio",
        "zipcode": "89460-014"
    },
    {
        "city": "Canoinhas",
        "state": "SC",
        "district": "Campo da Água Verde",
        "street": "Rua Taila Larrocheski",
        "zipcode": "89466-074"
    },
    {
        "city": "Canoinhas",
        "state": "SC",
        "district": "Centro",
        "street": "Rua Vidal Ramos",
        "zipcode": "89460-054"
    },
    {
        "city": "Canoinhas",
        "state": "SC",
        "district": "Industrial 1",
        "street": "Rua Vereador João de Alexandrina",
        "zipcode": "89462-514"
    },
    {
        "city": "Canoinhas",
        "state": "SC",
        "district": "Centro",
        "street": "Rua Vidal Ramos",
        "zipcode": "89460-044"
    },
    {
        "city": "Canoinhas",
        "state": "SC",
        "district": "Alto da Tijuca",
        "street": "Rua Wendelin Metzger",
        "zipcode": "89464-310"
    },
    {
        "city": "Canoinhas",
        "state": "SC",
        "district": "Boa Vista",
        "street": "Rua São José",
        "zipcode": "89460-220"
    },
    {
        "city": "Canoinhas",
        "state": "SC",
        "district": "Industrial 1",
        "street": "Rua Tiradentes",
        "zipcode": "89462-504"
    },
    {
        "city": "Canoinhas",
        "state": "SC",
        "district": "Água Verde",
        "street": "Rua Stanislau Adamski",
        "zipcode": "89466-898"
    },
    {
        "city": "Canoinhas",
        "state": "SC",
        "district": "Piedade",
        "street": "Rua Tereza Brey Pereso",
        "zipcode": "89460-652"
    },
    {
        "city": "Canoinhas",
        "state": "SC",
        "district": "Industrial 2",
        "street": "Rua Waldemar Wendt",
        "zipcode": "89466-540"
    },
    {
        "city": "Canoinhas",
        "state": "SC",
        "district": "Centro",
        "street": "Rua Virgílio Trevisani",
        "zipcode": "89460-006"
    },
    {
        "city": "Canoinhas",
        "state": "SC",
        "district": "Água Verde",
        "street": "Rua Sérgio Gapski",
        "zipcode": "89466-704"
    },
    {
        "city": "Canoinhas",
        "state": "SC",
        "district": "Boa Vista",
        "street": "Rua 12 de Setembro",
        "zipcode": "89460-240"
    },
    {
        "city": "Canoinhas",
        "state": "SC",
        "district": "Tricolin",
        "street": "Rua Wilibaldo Arnoldo Hoffmann",
        "zipcode": "89462-208"
    },
    {
        "city": "Canoinhas",
        "state": "SC",
        "district": "Campo da Água Verde",
        "street": "Servidão Aristides Correa",
        "zipcode": "89466-342"
    },
    {
        "city": "Canoinhas",
        "state": "SC",
        "district": "Industrial 1",
        "street": "Rua 1 de Maio",
        "zipcode": "89462-494"
    },
    {
        "city": "Canoinhas",
        "state": "SC",
        "district": "Campo da Água Verde",
        "street": "Rua Theodoro Humenhuk",
        "zipcode": "89466-316"
    },
    {
        "city": "Canoinhas",
        "state": "SC",
        "district": "Centro",
        "street": "Rua Três de Maio",
        "zipcode": "89460-058"
    },
    {
        "city": "Canoinhas",
        "state": "SC",
        "district": "Água Verde",
        "street": "Rua Vereador Egon Leithold",
        "zipcode": "89466-714"
    },
    {
        "city": "Canoinhas",
        "state": "SC",
        "district": "Alto da Tijuca",
        "street": "Rua Waldemiro Bubniak",
        "zipcode": "89464-260"
    },
    {
        "city": "Canoinhas",
        "state": "SC",
        "district": "Jardim Esperança",
        "street": "Rua Victor Soares de Carvalho",
        "zipcode": "89464-054"
    },
    {
        "city": "Canoinhas",
        "state": "SC",
        "district": "Marcílio Dias",
        "street": "Rua Wendelin Metzger",
        "zipcode": "89465-001"
    },
    {
        "city": "Canoinhas",
        "state": "SC",
        "district": "Industrial 1",
        "street": "Rua Waldemar Carlos Stange",
        "zipcode": "89462-522"
    },
    {
        "city": "Canoinhas",
        "state": "SC",
        "district": "Jardim Esperança",
        "street": "Rua Wilibaldo Arnoldo Hoffmann",
        "zipcode": "89464-024"
    },
    {
        "city": "Canoinhas",
        "state": "SC",
        "district": "Alto da Tijuca",
        "street": "Servidão Enedina Werner Lemos",
        "zipcode": "89464-290"
    },
    {
        "city": "Canoinhas",
        "state": "SC",
        "district": "Piedade",
        "street": "Servidão Angela Mohr",
        "zipcode": "89460-595"
    },
    {
        "city": "Canoinhas",
        "state": "SC",
        "district": "Jardim Esperança",
        "street": "Rua Zeneide Rosa Ribeiro",
        "zipcode": "89464-042"
    },
    {
        "city": "Canoinhas",
        "state": "SC",
        "district": "Tricolin",
        "street": "Rua Wilibaldo Arnoldo Hoffmann",
        "zipcode": "89462-236"
    },
    {
        "city": "Canoinhas",
        "state": "SC",
        "district": "Água Verde",
        "street": "Rua SD 113",
        "zipcode": "89466-692"
    },
    {
        "city": "Canoinhas",
        "state": "SC",
        "district": "Boa Vista",
        "street": "Rua Valério Vachinski",
        "zipcode": "89460-330"
    },
    {
        "city": "Canoinhas",
        "state": "SC",
        "district": "Piedade",
        "street": "Rua Silvino Perosso",
        "zipcode": "89460-649"
    },
    {
        "city": "Canoinhas",
        "state": "SC",
        "district": "Campo da Água Verde",
        "street": "Rua Waldemiro Olsen",
        "zipcode": "89466-246"
    },
    {
        "city": "Canoinhas",
        "state": "SC",
        "district": "Centro",
        "street": "Rua Zelina Zila S Garcindo",
        "zipcode": "89460-008"
    },
    {
        "city": "Canoinhas",
        "state": "SC",
        "district": "Sossego",
        "street": "Rua Saulo Carvalho",
        "zipcode": "89462-278"
    },
    {
        "city": "Canoinhas",
        "state": "SC",
        "district": "Marcílio Dias",
        "street": "Unidade Nelson Theodorovicz",
        "zipcode": "89465-202"
    },
    {
        "city": "Canoinhas",
        "state": "SC",
        "district": "Campo da Água Verde",
        "street": "Servidão Sofia Novakoski",
        "zipcode": "89466-344"
    },
    {
        "city": "Canoinhas",
        "state": "SC",
        "district": "Campo da Água Verde",
        "street": "Servidão Henrique Zacko",
        "zipcode": "89466-078"
    },
    {
        "city": "Canoinhas",
        "state": "SC",
        "district": "Piedade",
        "street": "Servidão Miguel Woitexen",
        "zipcode": "89460-495"
    },
    {
        "city": "Canoinhas",
        "state": "SC",
        "district": "Boa Vista",
        "street": "Servidão Helena Piechencoski",
        "zipcode": "89460-186"
    },
    {
        "city": "Canoinhas",
        "state": "SC",
        "district": "Centro",
        "street": "Travessa Irmã Maria Nivea",
        "zipcode": "89460-068"
    },
    {
        "city": "Canoinhas",
        "state": "SC",
        "district": "Campo da Água Verde",
        "street": "Travessa Alexandre Zucco",
        "zipcode": "89466-172"
    },
    {
        "city": "Canoinhas",
        "state": "SC",
        "district": "Campo da Água Verde",
        "street": "Travessa José Kanzler",
        "zipcode": "89466-202"
    },
    {
        "city": "Canoinhas",
        "state": "SC",
        "district": "Piedade",
        "street": "Servidão Iodácia Moissa Woitexen",
        "zipcode": "89460-500"
    },
    {
        "city": "Canoinhas",
        "state": "SC",
        "district": "Campo da Água Verde",
        "street": "Travessa João Pedro Goes Filho",
        "zipcode": "89466-204"
    },
    {
        "city": "Canoinhas",
        "state": "SC",
        "district": "Centro",
        "street": "Travessa Ubaldo Ricardo da Silva",
        "zipcode": "89460-142"
    },
    {
        "city": "Canoinhas",
        "state": "SC",
        "district": "Alto da Tijuca",
        "street": "Servidão José Haas Lemos",
        "zipcode": "89464-288"
    },
    {
        "city": "Canoinhas",
        "state": "SC",
        "district": "Campo da Água Verde",
        "street": "Travessa Ambrósio Gibovsk",
        "zipcode": "89466-080"
    },
    {
        "city": "Canoinhas",
        "state": "SC",
        "district": "Centro",
        "street": "Travessa Ernesto Ballmann",
        "zipcode": "89460-118"
    },
    {
        "city": "Canoinhas",
        "state": "SC",
        "district": "Jardim Esperança",
        "street": "Rua Alfredo Bach",
        "zipcode": "89464-026"
    },
    {
        "city": "Canoinhas",
        "state": "SC",
        "district": "Campo da Água Verde",
        "street": "Rua Alfredo Paul",
        "zipcode": "89466-252"
    },
    {
        "city": "Canoinhas",
        "state": "SC",
        "district": "Piedade",
        "street": "Rua Ananias Petrentchuck",
        "zipcode": "89460-586"
    },
    {
        "city": "Canoinhas",
        "state": "SC",
        "district": "Campo da Água Verde",
        "street": "Rua Alfredo Mayer",
        "zipcode": "89466-034"
    },
    {
        "city": "Canoinhas",
        "state": "SC",
        "district": "Campo da Água Verde",
        "street": "Rua Augusto Ferreira da Silva",
        "zipcode": "89466-162"
    },
    {
        "city": "Canoinhas",
        "state": "SC",
        "district": "Sossego",
        "street": "Rua Alfredo Bach",
        "zipcode": "89462-276"
    },
    {
        "city": "Canoinhas",
        "state": "SC",
        "district": "Campo da Água Verde",
        "street": "Rua Antônio Milton Tormena",
        "zipcode": "89466-332"
    },
    {
        "city": "Canoinhas",
        "state": "SC",
        "district": "Campo da Água Verde",
        "street": "Rua Alvino Voigt",
        "zipcode": "89466-142"
    },
    {
        "city": "Canoinhas",
        "state": "SC",
        "district": "Alto das Palmeiras",
        "street": "Rua Alois Stueber",
        "zipcode": "89462-018"
    },
    {
        "city": "Canoinhas",
        "state": "SC",
        "district": "Tricolin",
        "street": "Rua Antônio Liller",
        "zipcode": "89462-190"
    },
    {
        "city": "Canoinhas",
        "state": "SC",
        "district": "Alto das Palmeiras",
        "street": "Rua Aquiles Ferrari",
        "zipcode": "89462-092"
    },
    {
        "city": "Canoinhas",
        "state": "SC",
        "district": "Centro",
        "street": "Rua Barão do Rio Branco",
        "zipcode": "89460-100"
    },
    {
        "city": "Canoinhas",
        "state": "SC",
        "district": "Alto da Tijuca",
        "street": "Rua Agrimensor Genival Stelzner Batista",
        "zipcode": "89464-248"
    },
    {
        "city": "Canoinhas",
        "state": "SC",
        "district": "Água Verde",
        "street": "Rua Antônio Carlos Grosskopf",
        "zipcode": "89466-816"
    },
    {
        "city": "Canoinhas",
        "state": "SC",
        "district": "Industrial 2",
        "street": "Avenida dos Expedicionários",
        "zipcode": "89466-459"
    },
    {
        "city": "Canoinhas",
        "state": "SC",
        "district": "Piedade",
        "street": "Avenida Vereador Moisés Damaso",
        "zipcode": "89460-475"
    },
    {
        "city": "Canoinhas",
        "state": "SC",
        "district": "Alto das Palmeiras",
        "street": "Rua Estanislau Schivinski",
        "zipcode": "89462-028"
    },
    {
        "city": "Canoinhas",
        "state": "SC",
        "district": "Campo da Água Verde",
        "street": "Rodovia BR",
        "zipcode": "89466-900"
    },
    {
        "city": "Canoinhas",
        "state": "SC",
        "district": "Alto das Palmeiras",
        "street": "Rua João Schindler",
        "zipcode": "89462-098"
    },
    {
        "city": "Canoinhas",
        "state": "SC",
        "district": "Industrial 2",
        "street": "Rodovia BR",
        "zipcode": "89466-500"
    },
    {
        "city": "Canoinhas",
        "state": "SC",
        "district": "Campo da Água Verde",
        "street": "Avenida dos Expedicionários",
        "zipcode": "89466-072"
    },
    {
        "city": "Canoinhas",
        "state": "SC",
        "district": "Jardim Esperança",
        "street": "Rua Emílio Scholtz",
        "zipcode": "89464-010"
    },
    {
        "city": "Canoinhas",
        "state": "SC",
        "district": "Boa Vista",
        "street": "Rodovia BR",
        "zipcode": "89460-266"
    },
    {
        "city": "Canoinhas",
        "state": "SC",
        "district": "Água Verde",
        "street": "Rodovia SC",
        "zipcode": "89466-600"
    },
    {
        "city": "Canoinhas",
        "state": "SC",
        "district": "Sossego",
        "street": "Rua Afonso Carvalho Kohler",
        "zipcode": "89462-264"
    },
    {
        "city": "Canoinhas",
        "state": "SC",
        "district": "Campo da Água Verde",
        "street": "Rua Miguel Schiel Sobrinho",
        "zipcode": "89466-326"
    },
    {
        "city": "Canoinhas",
        "state": "SC",
        "district": "Água Verde",
        "street": "Rua Ademar Mulhbauer",
        "zipcode": "89466-880"
    },
    {
        "city": "Canoinhas",
        "state": "SC",
        "district": "Água Verde",
        "street": "Rua José Arendarchuka",
        "zipcode": "89466-810"
    },
    {
        "city": "Canoinhas",
        "state": "SC",
        "district": "Alto da Tijuca",
        "street": "Rua Gustavo Brandes",
        "zipcode": "89464-278"
    },
    {
        "city": "Canoinhas",
        "state": "SC",
        "district": "Campo da Água Verde",
        "street": "Rua Fauri de Lima",
        "zipcode": "89466-240"
    },
    {
        "city": "Canoinhas",
        "state": "SC",
        "district": "Marcílio Dias",
        "street": "Rua Germano Raabe",
        "zipcode": "89465-085"
    },
    {
        "city": "Canoinhas",
        "state": "SC",
        "district": "Piedade",
        "street": "Rua Mathias Müller",
        "zipcode": "89460-604"
    },
    {
        "city": "Canoinhas",
        "state": "SC",
        "district": "Centro",
        "street": "Rua Joaquim de Paula Vieira",
        "zipcode": "89460-114"
    },
    {
        "city": "Canoinhas",
        "state": "SC",
        "district": "Alto das Palmeiras",
        "street": "Rua Duque de Caxias",
        "zipcode": "89462-052"
    },
    {
        "city": "Canoinhas",
        "state": "SC",
        "district": "Tricolin",
        "street": "Rua Izidoro Gustavo Jarschel",
        "zipcode": "89462-204"
    },
    {
        "city": "Canoinhas",
        "state": "SC",
        "district": "Centro",
        "street": "Rua Francisco de Paula Pereira",
        "zipcode": "89460-972"
    },
    {
        "city": "Canoinhas",
        "state": "SC",
        "district": "Centro",
        "street": "Rua José Boiteux",
        "zipcode": "89460-036"
    },
    {
        "city": "Canoinhas",
        "state": "SC",
        "district": "Alto da Tijuca",
        "street": "Rua Feres João Sfair",
        "zipcode": "89464-282"
    },
    {
        "city": "Canoinhas",
        "state": "SC",
        "district": "Campo da Água Verde",
        "street": "Rua Joaquim Vieira de Lima",
        "zipcode": "89466-156"
    },
    {
        "city": "Canoinhas",
        "state": "SC",
        "district": "Centro",
        "street": "Rua Frei Menandro Kamps",
        "zipcode": "89460-096"
    },
    {
        "city": "Canoinhas",
        "state": "SC",
        "district": "Água Verde",
        "street": "Rua Licino Alcides Cornelsen",
        "zipcode": "89466-702"
    },
    {
        "city": "Canoinhas",
        "state": "SC",
        "district": "Centro",
        "street": "Rua Major Vieira",
        "zipcode": "89460-052"
    },
    {
        "city": "Canoinhas",
        "state": "SC",
        "district": "Industrial 1",
        "street": "Rua Francisco Wilmar Friedrich",
        "zipcode": "89462-532"
    },
    {
        "city": "Canoinhas",
        "state": "SC",
        "district": "Campo da Água Verde",
        "street": "Rua João Maria Santos",
        "zipcode": "89466-214"
    },
    {
        "city": "Canoinhas",
        "state": "SC",
        "district": "Alto da Tijuca",
        "street": "Rua Ernesto Nunberg",
        "zipcode": "89464-246"
    },
    {
        "city": "Canoinhas",
        "state": "SC",
        "district": "Industrial 1",
        "street": "Rua Francisco Bueno de Siqueira",
        "zipcode": "89462-640"
    },
    {
        "city": "Canoinhas",
        "state": "SC",
        "district": "Centro",
        "street": "Rua Major Vieira",
        "zipcode": "89460-116"
    },
    {
        "city": "Canoinhas",
        "state": "SC",
        "district": "Jardim Esperança",
        "street": "Rua Bernardo Olsen",
        "zipcode": "89464-012"
    },
    {
        "city": "Canoinhas",
        "state": "SC",
        "district": "Marcílio Dias",
        "street": "Rua Maria Olsen",
        "zipcode": "89465-250"
    },
    {
        "city": "Canoinhas",
        "state": "SC",
        "district": "Alto da Tijuca",
        "street": "Rua Ema Joana Kelner",
        "zipcode": "89464-252"
    },
    {
        "city": "Canoinhas",
        "state": "SC",
        "district": "Jardim Esperança",
        "street": "Rua Hilda Ostroski",
        "zipcode": "89464-016"
    },
    {
        "city": "Canoinhas",
        "state": "SC",
        "district": "Jardim Esperança",
        "street": "Rua João Tomaschutz",
        "zipcode": "89464-014"
    },
    {
        "city": "Canoinhas",
        "state": "SC",
        "district": "Sossego",
        "street": "Rua João Allage",
        "zipcode": "89462-272"
    },
    {
        "city": "Canoinhas",
        "state": "SC",
        "district": "Boa Vista",
        "street": "Rua Deodato de Lima",
        "zipcode": "89460-248"
    },
    {
        "city": "Canoinhas",
        "state": "SC",
        "district": "Campo da Água Verde",
        "street": "Rua Carlos Wagner",
        "zipcode": "89466-320"
    },
    {
        "city": "Canoinhas",
        "state": "SC",
        "district": "Alto das Palmeiras",
        "street": "Rua Cidade de Jau",
        "zipcode": "89462-046"
    },
    {
        "city": "Canoinhas",
        "state": "SC",
        "district": "Água Verde",
        "street": "Rua Irmã Maria Albertina Bischof",
        "zipcode": "89466-680"
    },
    {
        "city": "Canoinhas",
        "state": "SC",
        "district": "Centro",
        "street": "Rua José Boiteux",
        "zipcode": "89460-034"
    },
    {
        "city": "Canoinhas",
        "state": "SC",
        "district": "Marcílio Dias",
        "street": "Rua Martin Finta Junior",
        "zipcode": "89465-070"
    },
    {
        "city": "Canoinhas",
        "state": "SC",
        "district": "Marcílio Dias",
        "street": "Rua Eugênio Noernberg",
        "zipcode": "89465-090"
    },
    {
        "city": "Canoinhas",
        "state": "SC",
        "district": "Centro",
        "street": "Rua Francisco de Paula Pereira",
        "zipcode": "89460-048"
    },
    {
        "city": "Canoinhas",
        "state": "SC",
        "district": "Centro",
        "street": "Rua Marechal Deodoro",
        "zipcode": "89460-162"
    },
    {
        "city": "Canoinhas",
        "state": "SC",
        "district": "Centro",
        "street": "Rua Marechal Rondon",
        "zipcode": "89460-108"
    },
    {
        "city": "Canoinhas",
        "state": "SC",
        "district": "Alto da Tijuca",
        "street": "Rua Henrique Sorg",
        "zipcode": "89464-130"
    },
    {
        "city": "Canoinhas",
        "state": "SC",
        "district": "Campo da Água Verde",
        "street": "Rua João César de Andrade",
        "zipcode": "89466-334"
    },
    {
        "city": "Canoinhas",
        "state": "SC",
        "district": "Alto da Tijuca",
        "street": "Rua Coronel Januário de Assis Corte",
        "zipcode": "89464-302"
    },
    {
        "city": "Canoinhas",
        "state": "SC",
        "district": "Alto das Palmeiras",
        "street": "Rua Miguel Klempous",
        "zipcode": "89462-058"
    },
    {
        "city": "Canoinhas",
        "state": "SC",
        "district": "Água Verde",
        "street": "Rua Carlos Bail",
        "zipcode": "89466-892"
    },
    {
        "city": "Canoinhas",
        "state": "SC",
        "district": "Alto da Tijuca",
        "street": "Rua Bernardo Olsen",
        "zipcode": "89464-256"
    },
    {
        "city": "Canoinhas",
        "state": "SC",
        "district": "Industrial 1",
        "street": "Rua Henrique Sorg",
        "zipcode": "89462-512"
    },
    {
        "city": "Canoinhas",
        "state": "SC",
        "district": "Piedade",
        "street": "Rua Haroldo Mohr",
        "zipcode": "89460-646"
    },
    {
        "city": "Canoinhas",
        "state": "SC",
        "district": "Boa Vista",
        "street": "Rua Gil Costa",
        "zipcode": "89460-234"
    },
    {
        "city": "Canoinhas",
        "state": "SC",
        "district": "Industrial 1",
        "street": "Rua Francisco Artner",
        "zipcode": "89462-610"
    },
    {
        "city": "Canoinhas",
        "state": "SC",
        "district": "Boa Vista",
        "street": "Rua Leonardo Brey",
        "zipcode": "89460-402"
    },
    {
        "city": "Canoinhas",
        "state": "SC",
        "district": "Marcílio Dias",
        "street": "Rua João Pedro de Aguiar",
        "zipcode": "89465-208"
    },
    {
        "city": "Canoinhas",
        "state": "SC",
        "district": "Água Verde",
        "street": "Rua Emílio Wendt",
        "zipcode": "89466-684"
    },
    {
        "city": "Canoinhas",
        "state": "SC",
        "district": "Industrial 1",
        "street": "Rua José Roberto Keep",
        "zipcode": "89462-502"
    },
    {
        "city": "Canoinhas",
        "state": "SC",
        "district": "Campo da Água Verde",
        "street": "Rua Júlio Correia Costa",
        "zipcode": "89466-322"
    },
    {
        "city": "Canoinhas",
        "state": "SC",
        "district": "Alto das Palmeiras",
        "street": "Rua Bernardino Fedalto",
        "zipcode": "89462-062"
    },
    {
        "city": "Canoinhas",
        "state": "SC",
        "district": "Campo da Água Verde",
        "street": "Rua Nicolau Fernandes",
        "zipcode": "89466-340"
    },
    {
        "city": "Canoinhas",
        "state": "SC",
        "district": "Sossego",
        "street": "Rua Rolando Lourenço Mallucell",
        "zipcode": "89462-258"
    },
    {
        "city": "Canoinhas",
        "state": "SC",
        "district": "Sossego",
        "street": "Rua Wilibaldo Arnoldo Hoffmann",
        "zipcode": "89462-274"
    },
    {
        "city": "Canoinhas",
        "state": "SC",
        "district": "Água Verde",
        "street": "Travessa Ildefonso Gapski",
        "zipcode": "89466-708"
    },
    {
        "city": "Canoinhas",
        "state": "SC",
        "district": "Centro",
        "street": "Rua Três de Maio",
        "zipcode": "89460-016"
    },
    {
        "city": "Canoinhas",
        "state": "SC",
        "district": "Campo da Água Verde",
        "street": "Rua Nazir Cordeiro",
        "zipcode": "89466-280"
    },
    {
        "city": "Canoinhas",
        "state": "SC",
        "district": "Centro",
        "street": "Rua 12 de Setembro",
        "zipcode": "89460-138"
    },
    {
        "city": "Canoinhas",
        "state": "SC",
        "district": "Jardim Esperança",
        "street": "Rua Rui Barbosa",
        "zipcode": "89464-004"
    },
    {
        "city": "Canoinhas",
        "state": "SC",
        "district": "Industrial 1",
        "street": "Rua Vereador Frederico Haag",
        "zipcode": "89462-394"
    },
    {
        "city": "Canoinhas",
        "state": "SC",
        "district": "Centro",
        "street": "Travessa Sete de Setembro",
        "zipcode": "89460-038"
    },
    {
        "city": "Canoinhas",
        "state": "SC",
        "district": "Campo da Água Verde",
        "street": "Servidão Edmundo Riske",
        "zipcode": "89466-346"
    },
    {
        "city": "Canoinhas",
        "state": "SC",
        "district": "Campo da Água Verde",
        "street": "Servidão Maria Moreira",
        "zipcode": "89466-200"
    },
    {
        "city": "Canoinhas",
        "state": "SC",
        "district": "Industrial 2",
        "street": "Rua Roberto Bolduan",
        "zipcode": "89466-426"
    },
    {
        "city": "Canoinhas",
        "state": "SC",
        "district": "Centro",
        "street": "Rua São José",
        "zipcode": "89460-174"
    },
    {
        "city": "Canoinhas",
        "state": "SC",
        "district": "Industrial 1",
        "street": "Rua Osvaldo Chagas",
        "zipcode": "89462-516"
    },
    {
        "city": "Canoinhas",
        "state": "SC",
        "district": "Jardim Esperança",
        "street": "Rua Virgílio Trevisani",
        "zipcode": "89464-038"
    },
    {
        "city": "Canoinhas",
        "state": "SC",
        "district": "Campo da Água Verde",
        "street": "Rua Theodoro Humenhuk",
        "zipcode": "89466-286"
    },
    {
        "city": "Canoinhas",
        "state": "SC",
        "district": "Campo da Água Verde",
        "street": "Rua Otávio Tabalipa",
        "zipcode": "89466-206"
    },
    {
        "city": "Canoinhas",
        "state": "SC",
        "district": "Campo da Água Verde",
        "street": "Rua Nazir Cordeiro",
        "zipcode": "89466-282"
    },
    {
        "city": "Canoinhas",
        "state": "SC",
        "district": "Sossego",
        "street": "Rua Otto Friedrich",
        "zipcode": "89462-268"
    },
    {
        "city": "Canoinhas",
        "state": "SC",
        "district": "Boa Vista",
        "street": "Servidão Francisco Carvalho",
        "zipcode": "89460-184"
    },
    {
        "city": "Canoinhas",
        "state": "SC",
        "district": "Piedade",
        "street": "Rua Pedro Grosskopf",
        "zipcode": "89460-628"
    },
    {
        "city": "Canoinhas",
        "state": "SC",
        "district": "Industrial 1",
        "street": "Rua Porfírio Alves",
        "zipcode": "89462-518"
    },
    {
        "city": "Canoinhas",
        "state": "SC",
        "district": "Campo da Água Verde",
        "street": "Rua Nair Mafalda Berão Zaniolo",
        "zipcode": "89466-290"
    },
    {
        "city": "Canoinhas",
        "state": "SC",
        "district": "Jardim Esperança",
        "street": "Rua Walmor Ivo Gallotti",
        "zipcode": "89464-032"
    },
    {
        "city": "Canoinhas",
        "state": "SC",
        "district": "Industrial 1",
        "street": "Rua Paulo Artner",
        "zipcode": "89462-615"
    },
    {
        "city": "Canoinhas",
        "state": "SC",
        "district": "Água Verde",
        "street": "Rua Tecla Weinfurter",
        "zipcode": "89466-686"
    },
    {
        "city": "Canoinhas",
        "state": "SC",
        "district": "Alto das Palmeiras",
        "street": "Rua Roberto Ennes Filho",
        "zipcode": "89462-056"
    },
    {
        "city": "Canoinhas",
        "state": "SC",
        "district": "Água Verde",
        "street": "Rua Wiegando Wiese",
        "zipcode": "89466-660"
    },
    {
        "city": "Canoinhas",
        "state": "SC",
        "district": "Alto da Tijuca",
        "street": "Rua Saulo Carvalho",
        "zipcode": "89464-100"
    },
    {
        "city": "Canoinhas",
        "state": "SC",
        "district": "Boa Vista",
        "street": "Rua Paulo Ritzmann",
        "zipcode": "89460-262"
    },
    {
        "city": "Canoinhas",
        "state": "SC",
        "district": "Centro",
        "street": "Rua Paulo Ritzmann",
        "zipcode": "89460-122"
    },
    {
        "city": "Canoinhas",
        "state": "SC",
        "district": "Centro",
        "street": "Rua Frei Menandro Kamps",
        "zipcode": "89460-126"
    },
    {
        "city": "Canoinhas",
        "state": "SC",
        "district": "Boa Vista",
        "street": "Rua Amandus Victor Jantsch",
        "zipcode": "89460-224"
    },
    {
        "city": "Canoinhas",
        "state": "SC",
        "district": "Alto da Tijuca",
        "street": "Rua Walmor Ivo Gallotti",
        "zipcode": "89464-104"
    },
    {
        "city": "Canoinhas",
        "state": "SC",
        "district": "Sossego",
        "street": "Rua João Tomaschutz",
        "zipcode": "89462-266"
    },
    {
        "city": "Canoinhas",
        "state": "SC",
        "district": "Jardim Esperança",
        "street": "Avenida Senador Ivo DÁquino",
        "zipcode": "89464-030"
    },
    {
        "city": "Canoinhas",
        "state": "SC",
        "district": "Campo da Água Verde",
        "street": "Rua Julio Budant Neto",
        "zipcode": "89466-288"
    },
    {
        "city": "Canoinhas",
        "state": "SC",
        "district": "Campo da Água Verde",
        "street": "Rua Fauri de Lima",
        "zipcode": "89466-254"
    },
    {
        "city": "Canoinhas",
        "state": "SC",
        "district": "Alto da Tijuca",
        "street": "Rua Elfrida Kwitschal Baukat",
        "zipcode": "89464-268"
    },
    {
        "city": "Canoinhas",
        "state": "SC",
        "district": "Alto das Palmeiras",
        "street": "Rua São José",
        "zipcode": "89462-010"
    },
    {
        "city": "Canoinhas",
        "state": "SC",
        "district": "Centro",
        "street": "Rua Francisco de Paula Pereira",
        "zipcode": "89460-970"
    },
    {
        "city": "Canoinhas",
        "state": "SC",
        "district": "Campo da Água Verde",
        "street": "Rua Frederico Kolher",
        "zipcode": "89466-318"
    },
    {
        "city": "Canoinhas",
        "state": "SC",
        "district": "Sossego",
        "street": "Rua Álvaro Soares Machado",
        "zipcode": "89462-250"
    },
    {
        "city": "Canoinhas",
        "state": "SC",
        "district": "Alto da Tijuca",
        "street": "Rua Frieda Sorg",
        "zipcode": "89464-112"
    },
    {
        "city": "Canoinhas",
        "state": "SC",
        "district": "Centro",
        "street": "Rua Antônio Bugardt",
        "zipcode": "89460-094"
    },
    {
        "city": "Canoinhas",
        "state": "SC",
        "district": "Industrial 1",
        "street": "Avenida Senador Ivo DÁquino",
        "zipcode": "89462-590"
    },
    {
        "city": "Canoinhas",
        "state": "SC",
        "district": "Alto das Palmeiras",
        "street": "Rua Marechal Rondon",
        "zipcode": "89462-048"
    },
    {
        "city": "Canoinhas",
        "state": "SC",
        "district": "Industrial 1",
        "street": "Rua Saulo Carvalho",
        "zipcode": "89462-280"
    },
    {
        "city": "Canoinhas",
        "state": "SC",
        "district": "Água Verde",
        "street": "Rua Cassimiro Kwiecien",
        "zipcode": "89466-670"
    },
    {
        "city": "Canoinhas",
        "state": "SC",
        "district": "Campo da Água Verde",
        "street": "Rua Pedro Reitz",
        "zipcode": "89466-144"
    },
    {
        "city": "Canoinhas",
        "state": "SC",
        "district": "Sossego",
        "street": "Rua Basílio Humenhuk",
        "zipcode": "89462-270"
    },
    {
        "city": "Canoinhas",
        "state": "SC",
        "district": "Boa Vista",
        "street": "Rua João Sabatke",
        "zipcode": "89460-246"
    },
    {
        "city": "Canoinhas",
        "state": "SC",
        "district": "Centro",
        "street": "Rua Barão do Rio Branco",
        "zipcode": "89460-152"
    },
    {
        "city": "Canoinhas",
        "state": "SC",
        "district": "Boa Vista",
        "street": "Rua Joaquim de Paula Vieira",
        "zipcode": "89460-254"
    },
    {
        "city": "Canoinhas",
        "state": "SC",
        "district": "Campo da Água Verde",
        "street": "Rua Feres Coury",
        "zipcode": "89466-040"
    },
    {
        "city": "Canoinhas",
        "state": "SC",
        "district": "Centro",
        "street": "Rua Senador Felipe Schimidt",
        "zipcode": "89460-050"
    },
    {
        "city": "Canoinhas",
        "state": "SC",
        "district": "Água Verde",
        "street": "Rua Sérgio Gapski",
        "zipcode": "89466-706"
    },
    {
        "city": "Canoinhas",
        "state": "SC",
        "district": "Campo da Água Verde",
        "street": "Rua Guilherme Prust",
        "zipcode": "89466-000"
    },
    {
        "city": "Canoinhas",
        "state": "SC",
        "district": "Piedade",
        "street": "Rodovia BR",
        "zipcode": "89460-480"
    }
]