[
    {
        "city": "Gaspar",
        "state": "SC",
        "district": "Bela Vista",
        "street": "Rua Bahia",
        "zipcode": "89110-794"
    },
    {
        "city": "Gaspar",
        "state": "SC",
        "district": "Belchior Baixo",
        "street": "Rua Germano Junckes",
        "zipcode": "89117-365"
    },
    {
        "city": "Gaspar",
        "state": "SC",
        "district": "Bela Vista",
        "street": "Rua Brasilia",
        "zipcode": "89110-818"
    },
    {
        "city": "Gaspar",
        "state": "SC",
        "district": "Gasparinho",
        "street": "Rua Guilherme Wilbert",
        "zipcode": "89112-331"
    },
    {
        "city": "Gaspar",
        "state": "SC",
        "district": "Bela Vista",
        "street": "Rua Curitiba",
        "zipcode": "89111-048"
    },
    {
        "city": "Gaspar",
        "state": "SC",
        "district": "Gaspar Mirim",
        "street": "Rua Dona Ivone",
        "zipcode": "89112-644"
    },
    {
        "city": "Gaspar",
        "state": "SC",
        "district": "Lagoa",
        "street": "Rua Tia Benta",
        "zipcode": "89115-490"
    },
    {
        "city": "Gaspar",
        "state": "SC",
        "district": "Lagoa",
        "street": "Rua Olimpio Venturini",
        "zipcode": "89115-495"
    },
    {
        "city": "Gaspar",
        "state": "SC",
        "district": "Lagoa",
        "street": "Rua Daniel Alves",
        "zipcode": "89115-500"
    },
    {
        "city": "Gaspar",
        "state": "SC",
        "district": "Bela Vista",
        "street": "Rua Iporã",
        "zipcode": "89111-054"
    },
    {
        "city": "Gaspar",
        "state": "SC",
        "district": "Bela Vista",
        "street": "Rua Santo André",
        "zipcode": "89110-814"
    },
    {
        "city": "Gaspar",
        "state": "SC",
        "district": "Coloninha",
        "street": "Beco Inês Baron",
        "zipcode": "89110-336"
    },
    {
        "city": "Gaspar",
        "state": "SC",
        "district": "Figueira",
        "street": "Rua Alberto Theiss",
        "zipcode": "89110-552"
    },
    {
        "city": "Gaspar",
        "state": "SC",
        "district": "Coloninha",
        "street": "Rua da Glória",
        "zipcode": "89110-161"
    },
    {
        "city": "Gaspar",
        "state": "SC",
        "district": "Bela Vista",
        "street": "Rua Maceió",
        "zipcode": "89111-027"
    },
    {
        "city": "Gaspar",
        "state": "SC",
        "district": "Bela Vista",
        "street": "Rua Goiânia",
        "zipcode": "89111-030"
    },
    {
        "city": "Gaspar",
        "state": "SC",
        "district": "Bela Vista",
        "street": "Rua Rio Branco",
        "zipcode": "89111-036"
    },
    {
        "city": "Gaspar",
        "state": "SC",
        "district": "Bela Vista",
        "street": "Rua Porto Velho",
        "zipcode": "89111-039"
    },
    {
        "city": "Gaspar",
        "state": "SC",
        "district": "Bela Vista",
        "street": "Rua São Paulo",
        "zipcode": "89111-045"
    },
    {
        "city": "Gaspar",
        "state": "SC",
        "district": "Belchior Baixo",
        "street": "Rua Antonio Pamplona",
        "zipcode": "89117-399"
    },
    {
        "city": "Gaspar",
        "state": "SC",
        "district": "Bela Vista",
        "street": "Rua Anfilóquio Nunes Pires 5274 Loja 2",
        "zipcode": "89110-976"
    },
    {
        "city": "Gaspar",
        "state": "SC",
        "district": "Bela Vista",
        "street": "Rua Bruno Celso Zimmermann",
        "zipcode": "89111-000"
    },
    {
        "city": "Gaspar",
        "state": "SC",
        "district": "Santa Terezinha",
        "street": "Rua Osni Fermino de Andrade",
        "zipcode": "89114-363"
    },
    {
        "city": "Gaspar",
        "state": "SC",
        "district": "Santa Terezinha",
        "street": "Avenida Santa Terezinha",
        "zipcode": "89114-443"
    },
    {
        "city": "Gaspar",
        "state": "SC",
        "district": "Santa Terezinha",
        "street": "Rua Alexandre Testoni",
        "zipcode": "89114-467"
    },
    {
        "city": "Gaspar",
        "state": "SC",
        "district": "Santa Terezinha",
        "street": "Rua Pedro Maximiliano Zonta",
        "zipcode": "89114-468"
    },
    {
        "city": "Gaspar",
        "state": "SC",
        "district": "Lagoa",
        "street": "Rua Ambrosio dos Santos",
        "zipcode": "89115-476"
    },
    {
        "city": "Gaspar",
        "state": "SC",
        "district": "Margem Esquerda",
        "street": "Rua Adão Fernandes",
        "zipcode": "89116-570"
    },
    {
        "city": "Gaspar",
        "state": "SC",
        "district": "Margem Esquerda",
        "street": "Rodovia Ingo Hering",
        "zipcode": "89116-622"
    },
    {
        "city": "Gaspar",
        "state": "SC",
        "district": "Barracão",
        "street": "Rua Joaquim Scottini",
        "zipcode": "89113-486"
    },
    {
        "city": "Gaspar",
        "state": "SC",
        "district": "Santa Terezinha",
        "street": "Rua Evandro Schneider",
        "zipcode": "89114-042"
    },
    {
        "city": "Gaspar",
        "state": "SC",
        "district": "Santa Terezinha",
        "street": "Rua Amelia Schmitt",
        "zipcode": "89114-162"
    },
    {
        "city": "Gaspar",
        "state": "SC",
        "district": "Sete de Setembro",
        "street": "Rua Engelberto Schramm",
        "zipcode": "89114-744"
    },
    {
        "city": "Gaspar",
        "state": "SC",
        "district": "Margem Esquerda",
        "street": "Rua Lucia Schramm",
        "zipcode": "89116-532"
    },
    {
        "city": "Gaspar",
        "state": "SC",
        "district": "Centro",
        "street": "Calçadão da Usina",
        "zipcode": "89110-058"
    },
    {
        "city": "Gaspar",
        "state": "SC",
        "district": "Figueira",
        "street": "Avenida Hilberto Gaertner",
        "zipcode": "89110-453"
    },
    {
        "city": "Gaspar",
        "state": "SC",
        "district": "Gasparinho",
        "street": "Rua Apolônia Tonioli",
        "zipcode": "89112-258"
    },
    {
        "city": "Gaspar",
        "state": "SC",
        "district": "Gaspar Mirim",
        "street": "Avenida Santa Terezinha",
        "zipcode": "89112-786"
    },
    {
        "city": "Gaspar",
        "state": "SC",
        "district": "Barracão",
        "street": "Rua Adelina Chiminelli",
        "zipcode": "89113-470"
    },
    {
        "city": "Gaspar",
        "state": "SC",
        "district": "Santa Terezinha",
        "street": "Rua Arezzo",
        "zipcode": "89114-295"
    },
    {
        "city": "Gaspar",
        "state": "SC",
        "district": "Coloninha",
        "street": "Rua Edmundo Eberhardt",
        "zipcode": "89110-236"
    },
    {
        "city": "Gaspar",
        "state": "SC",
        "district": "Figueira",
        "street": "Rua Beija",
        "zipcode": "89110-603"
    },
    {
        "city": "Gaspar",
        "state": "SC",
        "district": "Coloninha",
        "street": "Rua Ogídio da Silva",
        "zipcode": "89110-260"
    },
    {
        "city": "Gaspar",
        "state": "SC",
        "district": "Santa Terezinha",
        "street": "Rua Madalena",
        "zipcode": "89114-281"
    },
    {
        "city": "Gaspar",
        "state": "SC",
        "district": "Coloninha",
        "street": "Rua Sandra Regina Eberhardt",
        "zipcode": "89110-238"
    },
    {
        "city": "Gaspar",
        "state": "SC",
        "district": "Figueira",
        "street": "Rua Silvio Zimmermann",
        "zipcode": "89110-562"
    },
    {
        "city": "Gaspar",
        "state": "SC",
        "district": "Bela Vista",
        "street": "Rua Vila Nova",
        "zipcode": "89110-704"
    },
    {
        "city": "Gaspar",
        "state": "SC",
        "district": "Bela Vista",
        "street": "Rua Selma Zimmermann",
        "zipcode": "89111-007"
    },
    {
        "city": "Gaspar",
        "state": "SC",
        "district": "Bela Vista",
        "street": "Rua Petropolis",
        "zipcode": "89111-107"
    },
    {
        "city": "Gaspar",
        "state": "SC",
        "district": "Bela Vista",
        "street": "Rua XV de Julho",
        "zipcode": "89111-120"
    },
    {
        "city": "Gaspar",
        "state": "SC",
        "district": "Alto Gasparinho",
        "street": "Rua Waltrudes da Silva",
        "zipcode": "89112-846"
    },
    {
        "city": "Gaspar",
        "state": "SC",
        "district": "Alto Gasparinho",
        "street": "Rua Frei Solano",
        "zipcode": "89112-808"
    },
    {
        "city": "Gaspar",
        "state": "SC",
        "district": "Barracão",
        "street": "Rua Luiz Lana",
        "zipcode": "89113-381"
    },
    {
        "city": "Gaspar",
        "state": "SC",
        "district": "Santa Terezinha",
        "street": "Rua Verona",
        "zipcode": "89114-289"
    },
    {
        "city": "Gaspar",
        "state": "SC",
        "district": "Santa Terezinha",
        "street": "Rua Castello",
        "zipcode": "89114-291"
    },
    {
        "city": "Gaspar",
        "state": "SC",
        "district": "Santa Terezinha",
        "street": "Rua Botuvera",
        "zipcode": "89114-292"
    },
    {
        "city": "Gaspar",
        "state": "SC",
        "district": "Santa Terezinha",
        "street": "Rua Bruno Koch",
        "zipcode": "89114-323"
    },
    {
        "city": "Gaspar",
        "state": "SC",
        "district": "Gasparinho",
        "street": "Rua Ipê Amarelo",
        "zipcode": "89112-158"
    },
    {
        "city": "Gaspar",
        "state": "SC",
        "district": "Gaspar Mirim",
        "street": "Rua Salustrino José de Oliveira",
        "zipcode": "89112-526"
    },
    {
        "city": "Gaspar",
        "state": "SC",
        "district": "Santa Terezinha",
        "street": "Rua 21 de novembro",
        "zipcode": "89114-461"
    },
    {
        "city": "Gaspar",
        "state": "SC",
        "district": "Macucos",
        "street": "Rua Daniel Jacob Reinert",
        "zipcode": "89114-484"
    },
    {
        "city": "Gaspar",
        "state": "SC",
        "district": "Sete de Setembro",
        "street": "Rua Nelson Becher",
        "zipcode": "89114-803"
    },
    {
        "city": "Gaspar",
        "state": "SC",
        "district": "Sete de Setembro",
        "street": "Rua Mário Francisco Spengler",
        "zipcode": "89115-072"
    },
    {
        "city": "Gaspar",
        "state": "SC",
        "district": "Sete de Setembro",
        "street": "Rua Hilaria Spengler",
        "zipcode": "89115-074"
    },
    {
        "city": "Gaspar",
        "state": "SC",
        "district": "Lagoa",
        "street": "Rua Francisco Elysio Wanzynick",
        "zipcode": "89115-411"
    },
    {
        "city": "Gaspar",
        "state": "SC",
        "district": "Margem Esquerda",
        "street": "Rua Antonio Francisco de Borba",
        "zipcode": "89116-671"
    },
    {
        "city": "Gaspar",
        "state": "SC",
        "district": "Margem Esquerda",
        "street": "Rua Alvarino Muller",
        "zipcode": "89116-714"
    },
    {
        "city": "Gaspar",
        "state": "SC",
        "district": "Belchior Central",
        "street": "Rua Antônio Rainert",
        "zipcode": "89117-557"
    },
    {
        "city": "Gaspar",
        "state": "SC",
        "district": "Belchior Central",
        "street": "Rua Antônio Gesser",
        "zipcode": "89117-635"
    },
    {
        "city": "Gaspar",
        "state": "SC",
        "district": "Belchior Central",
        "street": "Rua Adolfo Mette",
        "zipcode": "89117-655"
    },
    {
        "city": "Gaspar",
        "state": "SC",
        "district": "Belchior Central",
        "street": "Rua Rosália Petry",
        "zipcode": "89117-665"
    },
    {
        "city": "Gaspar",
        "state": "SC",
        "district": "Belchior Alto",
        "street": "Rua Rosina Reitz Gesser",
        "zipcode": "89117-876"
    },
    {
        "city": "Gaspar",
        "state": "SC",
        "district": "Belchior Alto",
        "street": "Rua Arnoldo Theiss",
        "zipcode": "89118-035"
    },
    {
        "city": "Gaspar",
        "state": "SC",
        "district": "Belchior Central",
        "street": "Rua Gabriel Schmitt",
        "zipcode": "89117-756"
    },
    {
        "city": "Gaspar",
        "state": "SC",
        "district": "Belchior Alto",
        "street": "Rua Antonio Schmitz",
        "zipcode": "89118-060"
    },
    {
        "city": "Gaspar",
        "state": "SC",
        "district": "Figueira",
        "street": "Rua Alfazema",
        "zipcode": "89110-468"
    },
    {
        "city": "Gaspar",
        "state": "SC",
        "district": "Gaspar Mirim",
        "street": "Rua Argemiro Krauss",
        "zipcode": "89112-646"
    },
    {
        "city": "Gaspar",
        "state": "SC",
        "district": "Bateias",
        "street": "Rua Antonio Zuchi",
        "zipcode": "89113-093"
    },
    {
        "city": "Gaspar",
        "state": "SC",
        "district": "Coloninha",
        "street": "Rua Bernardo Hostert",
        "zipcode": "89110-234"
    },
    {
        "city": "Gaspar",
        "state": "SC",
        "district": "Figueira",
        "street": "Rua Begônia",
        "zipcode": "89110-456"
    },
    {
        "city": "Gaspar",
        "state": "SC",
        "district": "Figueira",
        "street": "Rua Carlos Augusto Isensee",
        "zipcode": "89110-560"
    },
    {
        "city": "Gaspar",
        "state": "SC",
        "district": "Gaspar Grande",
        "street": "Rua Augusto Pantalião Soares",
        "zipcode": "89111-416"
    },
    {
        "city": "Gaspar",
        "state": "SC",
        "district": "Gaspar Grande",
        "street": "Rua Bonifacio Augusto Isensee",
        "zipcode": "89111-419"
    },
    {
        "city": "Gaspar",
        "state": "SC",
        "district": "Gaspar Mirim",
        "street": "Rua Dona Maria",
        "zipcode": "89112-650"
    },
    {
        "city": "Gaspar",
        "state": "SC",
        "district": "Alto Gasparinho",
        "street": "Rua David Bonetti",
        "zipcode": "89112-880"
    },
    {
        "city": "Gaspar",
        "state": "SC",
        "district": "Gaspar Alto",
        "street": "Rua Hezio Silveira de Souza",
        "zipcode": "89111-624"
    },
    {
        "city": "Gaspar",
        "state": "SC",
        "district": "Gaspar Alto",
        "street": "Rua José Lungen",
        "zipcode": "89111-630"
    },
    {
        "city": "Gaspar",
        "state": "SC",
        "district": "Alto Gasparinho",
        "street": "Rua Frei Solano",
        "zipcode": "89112-804"
    },
    {
        "city": "Gaspar",
        "state": "SC",
        "district": "Alto Gasparinho",
        "street": "Rua João Nicoletti",
        "zipcode": "89112-832"
    },
    {
        "city": "Gaspar",
        "state": "SC",
        "district": "Alto Gasparinho",
        "street": "Rua José Rampelotti",
        "zipcode": "89112-840"
    },
    {
        "city": "Gaspar",
        "state": "SC",
        "district": "Bateias",
        "street": "Rua João Zuchi",
        "zipcode": "89113-217"
    },
    {
        "city": "Gaspar",
        "state": "SC",
        "district": "Bateias",
        "street": "Rua Irmãos Borba",
        "zipcode": "89113-241"
    },
    {
        "city": "Gaspar",
        "state": "SC",
        "district": "Barracão",
        "street": "Rua Irmãos Borba",
        "zipcode": "89113-251"
    },
    {
        "city": "Gaspar",
        "state": "SC",
        "district": "Gaspar Mirim",
        "street": "Rua Osnilda Terezinha Dietrich",
        "zipcode": "89112-623"
    },
    {
        "city": "Gaspar",
        "state": "SC",
        "district": "Alto Gasparinho",
        "street": "Rua Paulo Alves",
        "zipcode": "89112-856"
    },
    {
        "city": "Gaspar",
        "state": "SC",
        "district": "Figueira",
        "street": "Rua Tulipa",
        "zipcode": "89110-464"
    },
    {
        "city": "Gaspar",
        "state": "SC",
        "district": "Gaspar Alto",
        "street": "Rua Professor Osorio de Carvalho",
        "zipcode": "89111-618"
    },
    {
        "city": "Gaspar",
        "state": "SC",
        "district": "Gasparinho",
        "street": "Rua 25 de Junho",
        "zipcode": "89112-326"
    },
    {
        "city": "Gaspar",
        "state": "SC",
        "district": "Alto Gasparinho",
        "street": "Rua Walentin Nicoletti",
        "zipcode": "89112-860"
    },
    {
        "city": "Gaspar",
        "state": "SC",
        "district": "Alto Gasparinho",
        "street": "Rua Vital Benevenutt",
        "zipcode": "89112-872"
    },
    {
        "city": "Gaspar",
        "state": "SC",
        "district": "Alto Gasparinho",
        "street": "Rua 1 de Março",
        "zipcode": "89112-876"
    },
    {
        "city": "Gaspar",
        "state": "SC",
        "district": "Santa Terezinha",
        "street": "Rua Veneza",
        "zipcode": "89114-287"
    },
    {
        "city": "Gaspar",
        "state": "SC",
        "district": "Gaspar Mirim",
        "street": "Rua Novo Horizonte",
        "zipcode": "89112-642"
    },
    {
        "city": "Gaspar",
        "state": "SC",
        "district": "Santa Terezinha",
        "street": "Rua Equador",
        "zipcode": "89114-079"
    },
    {
        "city": "Gaspar",
        "state": "SC",
        "district": "Sete de Setembro",
        "street": "Rua Itajai",
        "zipcode": "89115-001"
    },
    {
        "city": "Gaspar",
        "state": "SC",
        "district": "Sete de Setembro",
        "street": "Rua Otilia Cecilia Pamplona",
        "zipcode": "89115-005"
    },
    {
        "city": "Gaspar",
        "state": "SC",
        "district": "Margem Esquerda",
        "street": "Rua Leopoldo dos Santos",
        "zipcode": "89116-525"
    },
    {
        "city": "Gaspar",
        "state": "SC",
        "district": "Margem Esquerda",
        "street": "Rua Evaldir Novaes dos Santos",
        "zipcode": "89116-567"
    },
    {
        "city": "Gaspar",
        "state": "SC",
        "district": "Margem Esquerda",
        "street": "Rua Claudete das Chagas",
        "zipcode": "89116-571"
    },
    {
        "city": "Gaspar",
        "state": "SC",
        "district": "Margem Esquerda",
        "street": "Rua Pedro Inacio Bernades",
        "zipcode": "89116-721"
    },
    {
        "city": "Gaspar",
        "state": "SC",
        "district": "Margem Esquerda",
        "street": "Rua Alfredo Mueller",
        "zipcode": "89116-745"
    },
    {
        "city": "Gaspar",
        "state": "SC",
        "district": "Margem Esquerda",
        "street": "Rua Rodolfo Muller",
        "zipcode": "89116-750"
    },
    {
        "city": "Gaspar",
        "state": "SC",
        "district": "Margem Esquerda",
        "street": "Rodovia Ingo Hering",
        "zipcode": "89116-755"
    },
    {
        "city": "Gaspar",
        "state": "SC",
        "district": "Margem Esquerda",
        "street": "Rua Jaime Matias Rainert",
        "zipcode": "89116-760"
    },
    {
        "city": "Gaspar",
        "state": "SC",
        "district": "Margem Esquerda",
        "street": "Rua Waldomiro Becker",
        "zipcode": "89116-765"
    },
    {
        "city": "Gaspar",
        "state": "SC",
        "district": "Margem Esquerda",
        "street": "Rua Teresina",
        "zipcode": "89116-779"
    },
    {
        "city": "Gaspar",
        "state": "SC",
        "district": "Belchior Central",
        "street": "Rua Maria Pamplona Hesckel",
        "zipcode": "89117-740"
    },
    {
        "city": "Gaspar",
        "state": "SC",
        "district": "Belchior Central",
        "street": "Rua Laudelino Deschamps",
        "zipcode": "89117-750"
    },
    {
        "city": "Gaspar",
        "state": "SC",
        "district": "Belchior Alto",
        "street": "Rua Bonifacio Haendchen",
        "zipcode": "89117-770"
    },
    {
        "city": "Gaspar",
        "state": "SC",
        "district": "Belchior Alto",
        "street": "Rua Hermann Gesser",
        "zipcode": "89117-775"
    },
    {
        "city": "Gaspar",
        "state": "SC",
        "district": "Belchior Alto",
        "street": "Rua Bernardo Pereira",
        "zipcode": "89117-780"
    },
    {
        "city": "Gaspar",
        "state": "SC",
        "district": "Belchior Alto",
        "street": "Rua Germano Tilmann",
        "zipcode": "89117-800"
    },
    {
        "city": "Gaspar",
        "state": "SC",
        "district": "Belchior Alto",
        "street": "Rua Estevam Menschein",
        "zipcode": "89117-810"
    },
    {
        "city": "Gaspar",
        "state": "SC",
        "district": "Belchior Alto",
        "street": "Rua Geraldo Venhorst",
        "zipcode": "89117-825"
    },
    {
        "city": "Gaspar",
        "state": "SC",
        "district": "Belchior Alto",
        "street": "Rua Domingos Jose Pereira",
        "zipcode": "89117-885"
    },
    {
        "city": "Gaspar",
        "state": "SC",
        "district": "Belchior Alto",
        "street": "Rua Domingos Pereira de Souza",
        "zipcode": "89117-890"
    },
    {
        "city": "Gaspar",
        "state": "SC",
        "district": "Belchior Alto",
        "street": "Rua Gertrudes Jensen",
        "zipcode": "89118-025"
    },
    {
        "city": "Gaspar",
        "state": "SC",
        "district": "Belchior Alto",
        "street": "Rua José Jansen",
        "zipcode": "89118-030"
    },
    {
        "city": "Gaspar",
        "state": "SC",
        "district": "Belchior Alto",
        "street": "Rua Oswaldo Bernadino Bughmann",
        "zipcode": "89118-045"
    },
    {
        "city": "Gaspar",
        "state": "SC",
        "district": "Belchior Alto",
        "street": "Rua Cecilia Cristina Bugmann",
        "zipcode": "89118-050"
    },
    {
        "city": "Gaspar",
        "state": "SC",
        "district": "Belchior Alto",
        "street": "Rua Emil Berndt",
        "zipcode": "89118-055"
    },
    {
        "city": "Gaspar",
        "state": "SC",
        "district": "Belchior Alto",
        "street": "Rua João Tillmann",
        "zipcode": "89118-070"
    },
    {
        "city": "Gaspar",
        "state": "SC",
        "district": "Belchior Alto",
        "street": "Rua Bertoldo Paulo Theiss",
        "zipcode": "89118-132"
    },
    {
        "city": "Gaspar",
        "state": "SC",
        "district": "Macucos",
        "street": "Rua João Ferreira",
        "zipcode": "89114-520"
    },
    {
        "city": "Gaspar",
        "state": "SC",
        "district": "Coloninha",
        "street": "Rua Aloisio Estefano Beiler",
        "zipcode": "89110-131"
    },
    {
        "city": "Gaspar",
        "state": "SC",
        "district": "Figueira",
        "street": "Rua Adalberto Aureo Maba",
        "zipcode": "89110-506"
    },
    {
        "city": "Gaspar",
        "state": "SC",
        "district": "Figueira",
        "street": "Rua Flor de Laranjeira",
        "zipcode": "89110-472"
    },
    {
        "city": "Gaspar",
        "state": "SC",
        "district": "Belchior Alto",
        "street": "Rua Bernardo Haendchen",
        "zipcode": "89117-875"
    },
    {
        "city": "Gaspar",
        "state": "SC",
        "district": "Figueira",
        "street": "Rua Dália",
        "zipcode": "89110-476"
    },
    {
        "city": "Gaspar",
        "state": "SC",
        "district": "Figueira",
        "street": "Rua Benjamin Zimmermann",
        "zipcode": "89110-504"
    },
    {
        "city": "Gaspar",
        "state": "SC",
        "district": "Figueira",
        "street": "Rua Ermínio Linhares",
        "zipcode": "89110-549"
    },
    {
        "city": "Gaspar",
        "state": "SC",
        "district": "Gaspar Grande",
        "street": "Rua Estrogildo da Silveira",
        "zipcode": "89111-406"
    },
    {
        "city": "Gaspar",
        "state": "SC",
        "district": "Bateias",
        "street": "Rua Fortunato Gabriel Melato",
        "zipcode": "89113-095"
    },
    {
        "city": "Gaspar",
        "state": "SC",
        "district": "Bateias",
        "street": "Rua Fernando Lemos",
        "zipcode": "89113-160"
    },
    {
        "city": "Gaspar",
        "state": "SC",
        "district": "Coloninha",
        "street": "Rua João Bernz",
        "zipcode": "89110-140"
    },
    {
        "city": "Gaspar",
        "state": "SC",
        "district": "Coloninha",
        "street": "Rua Ilhota",
        "zipcode": "89110-339"
    },
    {
        "city": "Gaspar",
        "state": "SC",
        "district": "Figueira",
        "street": "Rua Jasmin",
        "zipcode": "89110-478"
    },
    {
        "city": "Gaspar",
        "state": "SC",
        "district": "Figueira",
        "street": "Rua José Ismael Bernardes",
        "zipcode": "89110-500"
    },
    {
        "city": "Gaspar",
        "state": "SC",
        "district": "Bela Vista",
        "street": "Rua José Geraldo Cardoso",
        "zipcode": "89110-802"
    },
    {
        "city": "Gaspar",
        "state": "SC",
        "district": "Gasparinho",
        "street": "Rua João Pedro da Silva",
        "zipcode": "89112-370"
    },
    {
        "city": "Gaspar",
        "state": "SC",
        "district": "Barracão",
        "street": "Rua Johana Brenk Barbieri",
        "zipcode": "89113-330"
    },
    {
        "city": "Gaspar",
        "state": "SC",
        "district": "Figueira",
        "street": "Rua Lírio",
        "zipcode": "89110-458"
    },
    {
        "city": "Gaspar",
        "state": "SC",
        "district": "Bela Vista",
        "street": "Rua Oscar Deichmann",
        "zipcode": "89111-084"
    },
    {
        "city": "Gaspar",
        "state": "SC",
        "district": "Gaspar Grande",
        "street": "Rua Zeno Lenzi",
        "zipcode": "89111-386"
    },
    {
        "city": "Gaspar",
        "state": "SC",
        "district": "Santa Terezinha",
        "street": "Rua São Luiz",
        "zipcode": "89114-262"
    },
    {
        "city": "Gaspar",
        "state": "SC",
        "district": "Belchior Baixo",
        "street": "Rua Antonio Benedito de Amorim",
        "zipcode": "89117-460"
    },
    {
        "city": "Gaspar",
        "state": "SC",
        "district": "Belchior Baixo",
        "street": "Rua Vidal Flávio Dias",
        "zipcode": "89117-455"
    },
    {
        "city": "Gaspar",
        "state": "SC",
        "district": "Belchior Baixo",
        "street": "Rua João Nascimento",
        "zipcode": "89117-405"
    },
    {
        "city": "Gaspar",
        "state": "SC",
        "district": "Belchior Baixo",
        "street": "Rua Amadeu Pamplona",
        "zipcode": "89117-400"
    },
    {
        "city": "Gaspar",
        "state": "SC",
        "district": "Belchior Baixo",
        "street": "Rodovia Ingo Hering",
        "zipcode": "89117-395"
    },
    {
        "city": "Gaspar",
        "state": "SC",
        "district": "Belchior Baixo",
        "street": "Rua Andre Schmitt",
        "zipcode": "89117-390"
    },
    {
        "city": "Gaspar",
        "state": "SC",
        "district": "Belchior Baixo",
        "street": "Rua Doutor Abelardo Viana",
        "zipcode": "89117-385"
    },
    {
        "city": "Gaspar",
        "state": "SC",
        "district": "Belchior Baixo",
        "street": "Rua Antenor José Marcelino",
        "zipcode": "89117-380"
    },
    {
        "city": "Gaspar",
        "state": "SC",
        "district": "Belchior Baixo",
        "street": "Rua Raul Pedro Reinert",
        "zipcode": "89117-375"
    },
    {
        "city": "Gaspar",
        "state": "SC",
        "district": "Belchior Baixo",
        "street": "Rodovia Ingo Hering",
        "zipcode": "89117-360"
    },
    {
        "city": "Gaspar",
        "state": "SC",
        "district": "Arraial DOuro",
        "street": "Rua Pedro Paulo dos Santos",
        "zipcode": "89117-128"
    },
    {
        "city": "Gaspar",
        "state": "SC",
        "district": "Arraial DOuro",
        "street": "Rua Arnoldo Carlos dos Santos",
        "zipcode": "89117-122"
    },
    {
        "city": "Gaspar",
        "state": "SC",
        "district": "Arraial DOuro",
        "street": "Rua Manoel Germano Franco",
        "zipcode": "89117-116"
    },
    {
        "city": "Gaspar",
        "state": "SC",
        "district": "Arraial DOuro",
        "street": "Rua José Manoel Eleuterio",
        "zipcode": "89117-104"
    },
    {
        "city": "Gaspar",
        "state": "SC",
        "district": "Arraial DOuro",
        "street": "Rua Daniel Werner",
        "zipcode": "89117-098"
    },
    {
        "city": "Gaspar",
        "state": "SC",
        "district": "Arraial DOuro",
        "street": "Rua Agenor Reinert",
        "zipcode": "89117-092"
    },
    {
        "city": "Gaspar",
        "state": "SC",
        "district": "Arraial DOuro",
        "street": "Rua José Junges",
        "zipcode": "89117-086"
    },
    {
        "city": "Gaspar",
        "state": "SC",
        "district": "Arraial DOuro",
        "street": "Rodovia Ingo Hering",
        "zipcode": "89117-080"
    },
    {
        "city": "Gaspar",
        "state": "SC",
        "district": "Margem Esquerda",
        "street": "Rua José Althof",
        "zipcode": "89116-820"
    },
    {
        "city": "Gaspar",
        "state": "SC",
        "district": "Margem Esquerda",
        "street": "Rua Quirino José Reinert",
        "zipcode": "89116-815"
    },
    {
        "city": "Gaspar",
        "state": "SC",
        "district": "Margem Esquerda",
        "street": "Rua José Francisco Sabel",
        "zipcode": "89116-800"
    },
    {
        "city": "Gaspar",
        "state": "SC",
        "district": "Margem Esquerda",
        "street": "Rua Mario Alexandre Gern",
        "zipcode": "89116-795"
    },
    {
        "city": "Gaspar",
        "state": "SC",
        "district": "Margem Esquerda",
        "street": "Rua Bonifacio Zedron",
        "zipcode": "89116-790"
    },
    {
        "city": "Gaspar",
        "state": "SC",
        "district": "Margem Esquerda",
        "street": "Rua Santa Isabel",
        "zipcode": "89116-788"
    },
    {
        "city": "Gaspar",
        "state": "SC",
        "district": "Margem Esquerda",
        "street": "Rua Lageado",
        "zipcode": "89116-784"
    },
    {
        "city": "Gaspar",
        "state": "SC",
        "district": "Margem Esquerda",
        "street": "Rua Manoel Ignacio Bernardo",
        "zipcode": "89116-782"
    },
    {
        "city": "Gaspar",
        "state": "SC",
        "district": "Margem Esquerda",
        "street": "Rua Costa Rica",
        "zipcode": "89116-780"
    },
    {
        "city": "Gaspar",
        "state": "SC",
        "district": "Margem Esquerda",
        "street": "Rua Celso Abelardo Sabel",
        "zipcode": "89116-810"
    },
    {
        "city": "Gaspar",
        "state": "SC",
        "district": "Gasparinho",
        "street": "Rua Teodoro Coradini",
        "zipcode": "89112-355"
    },
    {
        "city": "Gaspar",
        "state": "SC",
        "district": "Sete de Setembro",
        "street": "Rua Angelo Sganzerla",
        "zipcode": "89114-884"
    },
    {
        "city": "Gaspar",
        "state": "SC",
        "district": "Sete de Setembro",
        "street": "Rua Ives Bittelbrum",
        "zipcode": "89115-030"
    },
    {
        "city": "Gaspar",
        "state": "SC",
        "district": "Belchior Central",
        "street": "Rua José Patrocínio dos Santos",
        "zipcode": "89117-620"
    },
    {
        "city": "Gaspar",
        "state": "SC",
        "district": "Belchior Central",
        "street": "Rua Bonifacio Haendchen",
        "zipcode": "89117-680"
    },
    {
        "city": "Gaspar",
        "state": "SC",
        "district": "Belchior Central",
        "street": "Rua Heldo Florentino Wan",
        "zipcode": "89117-710"
    },
    {
        "city": "Gaspar",
        "state": "SC",
        "district": "Belchior Central",
        "street": "Rua Alfredo Simientcoski",
        "zipcode": "89117-715"
    },
    {
        "city": "Gaspar",
        "state": "SC",
        "district": "Belchior Central",
        "street": "Rua Maria Goretti de Oliveira",
        "zipcode": "89117-720"
    },
    {
        "city": "Gaspar",
        "state": "SC",
        "district": "Belchior Central",
        "street": "Rua Alberto José da Silva",
        "zipcode": "89117-730"
    },
    {
        "city": "Gaspar",
        "state": "SC",
        "district": "Belchior Central",
        "street": "Rua Otto Keunecke",
        "zipcode": "89117-735"
    },
    {
        "city": "Gaspar",
        "state": "SC",
        "district": "Belchior Alto",
        "street": "Rua 12 de Junho",
        "zipcode": "89117-790"
    },
    {
        "city": "Gaspar",
        "state": "SC",
        "district": "Belchior Alto",
        "street": "Rua Tocantins",
        "zipcode": "89117-795"
    },
    {
        "city": "Gaspar",
        "state": "SC",
        "district": "Belchior Alto",
        "street": "Rua João Theiss",
        "zipcode": "89118-120"
    },
    {
        "city": "Gaspar",
        "state": "SC",
        "district": "Belchior Alto",
        "street": "Rua Nova Biguaçu",
        "zipcode": "89118-126"
    },
    {
        "city": "Gaspar",
        "state": "SC",
        "district": "Belchior Central",
        "street": "Rua Martin Longen",
        "zipcode": "89117-695"
    },
    {
        "city": "Gaspar",
        "state": "SC",
        "district": "Belchior Alto",
        "street": "Rua Alfonso Oechsler",
        "zipcode": "89117-865"
    },
    {
        "city": "Gaspar",
        "state": "SC",
        "district": "Belchior Central",
        "street": "Rua Fridolino Schmitt",
        "zipcode": "89117-690"
    },
    {
        "city": "Gaspar",
        "state": "SC",
        "district": "Belchior Central",
        "street": "Rua Josefina Schmitt",
        "zipcode": "89117-625"
    },
    {
        "city": "Gaspar",
        "state": "SC",
        "district": "Coloninha",
        "street": "Rua Orleans",
        "zipcode": "89110-137"
    },
    {
        "city": "Gaspar",
        "state": "SC",
        "district": "Bela Vista",
        "street": "Rua Paraiba",
        "zipcode": "89110-806"
    },
    {
        "city": "Gaspar",
        "state": "SC",
        "district": "Santa Terezinha",
        "street": "Rua José Zuchi",
        "zipcode": "89114-258"
    },
    {
        "city": "Gaspar",
        "state": "SC",
        "district": "Bateias",
        "street": "Rua Vitorio Clemente Zuchi",
        "zipcode": "89113-140"
    },
    {
        "city": "Gaspar",
        "state": "SC",
        "district": "Bateias",
        "street": "Rua Rita Parma",
        "zipcode": "89113-155"
    },
    {
        "city": "Gaspar",
        "state": "SC",
        "district": "Santa Terezinha",
        "street": "Rua Porto Belo",
        "zipcode": "89114-256"
    },
    {
        "city": "Gaspar",
        "state": "SC",
        "district": "Sete de Setembro",
        "street": "Rua Pedro Debortoli",
        "zipcode": "89114-734"
    },
    {
        "city": "Gaspar",
        "state": "SC",
        "district": "Sete de Setembro",
        "street": "Rua Helmuth Becker",
        "zipcode": "89114-740"
    },
    {
        "city": "Gaspar",
        "state": "SC",
        "district": "Sete de Setembro",
        "street": "Rua Helena Debortoli",
        "zipcode": "89114-746"
    },
    {
        "city": "Gaspar",
        "state": "SC",
        "district": "Sete de Setembro",
        "street": "Rua Vereador Fernando da Costa Marques",
        "zipcode": "89114-750"
    },
    {
        "city": "Gaspar",
        "state": "SC",
        "district": "Sete de Setembro",
        "street": "Rua Vereador Edmundo dos Santos",
        "zipcode": "89114-752"
    },
    {
        "city": "Gaspar",
        "state": "SC",
        "district": "Sete de Setembro",
        "street": "Rua Frederico Nicolau da Silva",
        "zipcode": "89115-035"
    },
    {
        "city": "Gaspar",
        "state": "SC",
        "district": "Sete de Setembro",
        "street": "Rua Itajai",
        "zipcode": "89115-040"
    },
    {
        "city": "Gaspar",
        "state": "SC",
        "district": "Sete de Setembro",
        "street": "Rua Eurico Felício Wan",
        "zipcode": "89115-060"
    },
    {
        "city": "Gaspar",
        "state": "SC",
        "district": "Poço Grande",
        "street": "Rua Bernardo Leônidas Spengler",
        "zipcode": "89115-160"
    },
    {
        "city": "Gaspar",
        "state": "SC",
        "district": "Poço Grande",
        "street": "Rua Elvira Mondini Spengler",
        "zipcode": "89115-200"
    },
    {
        "city": "Gaspar",
        "state": "SC",
        "district": "Poço Grande",
        "street": "Rua Arnoldo Lenoir",
        "zipcode": "89115-220"
    },
    {
        "city": "Gaspar",
        "state": "SC",
        "district": "Poço Grande",
        "street": "Rua da Conceição",
        "zipcode": "89115-280"
    },
    {
        "city": "Gaspar",
        "state": "SC",
        "district": "Lagoa",
        "street": "Rua Geral Poço Grande",
        "zipcode": "89115-380"
    },
    {
        "city": "Gaspar",
        "state": "SC",
        "district": "Lagoa",
        "street": "Rua Bernardino Alves de Andrade",
        "zipcode": "89115-385"
    },
    {
        "city": "Gaspar",
        "state": "SC",
        "district": "Lagoa",
        "street": "Rua Evelásio Ernesto dos Santos",
        "zipcode": "89115-390"
    },
    {
        "city": "Gaspar",
        "state": "SC",
        "district": "Lagoa",
        "street": "Rua Geral Poço Grande",
        "zipcode": "89115-450"
    },
    {
        "city": "Gaspar",
        "state": "SC",
        "district": "Lagoa",
        "street": "Rua José Joaquim Alves",
        "zipcode": "89115-465"
    },
    {
        "city": "Gaspar",
        "state": "SC",
        "district": "Margem Esquerda",
        "street": "Rua Pedro Simon",
        "zipcode": "89116-520"
    },
    {
        "city": "Gaspar",
        "state": "SC",
        "district": "Margem Esquerda",
        "street": "Rua Nicolau Threiss",
        "zipcode": "89116-560"
    },
    {
        "city": "Gaspar",
        "state": "SC",
        "district": "Margem Esquerda",
        "street": "Rua Paulo Zendron",
        "zipcode": "89116-569"
    },
    {
        "city": "Gaspar",
        "state": "SC",
        "district": "Margem Esquerda",
        "street": "Rua Laurentino",
        "zipcode": "89116-584"
    },
    {
        "city": "Gaspar",
        "state": "SC",
        "district": "Margem Esquerda",
        "street": "Rua Urussanga",
        "zipcode": "89116-586"
    },
    {
        "city": "Gaspar",
        "state": "SC",
        "district": "Margem Esquerda",
        "street": "Rua São Miguel",
        "zipcode": "89116-588"
    },
    {
        "city": "Gaspar",
        "state": "SC",
        "district": "Margem Esquerda",
        "street": "Rua São Francisco",
        "zipcode": "89116-590"
    },
    {
        "city": "Gaspar",
        "state": "SC",
        "district": "Margem Esquerda",
        "street": "Rua Sebastião Hostin",
        "zipcode": "89116-594"
    },
    {
        "city": "Gaspar",
        "state": "SC",
        "district": "Margem Esquerda",
        "street": "Rua Valentim Sansão",
        "zipcode": "89116-613"
    },
    {
        "city": "Gaspar",
        "state": "SC",
        "district": "Margem Esquerda",
        "street": "Rua Geraldo Emidio de Souza",
        "zipcode": "89116-616"
    },
    {
        "city": "Gaspar",
        "state": "SC",
        "district": "Margem Esquerda",
        "street": "Rua Luiz Franzói",
        "zipcode": "89116-652"
    },
    {
        "city": "Gaspar",
        "state": "SC",
        "district": "Margem Esquerda",
        "street": "Rua Gertrudes Seberino da Silva",
        "zipcode": "89116-654"
    },
    {
        "city": "Gaspar",
        "state": "SC",
        "district": "Margem Esquerda",
        "street": "Rua Pedro Bonifacio Sabel",
        "zipcode": "89116-658"
    },
    {
        "city": "Gaspar",
        "state": "SC",
        "district": "Margem Esquerda",
        "street": "Rua Ines Sabel",
        "zipcode": "89116-660"
    },
    {
        "city": "Gaspar",
        "state": "SC",
        "district": "Margem Esquerda",
        "street": "Rua Fraiburgo",
        "zipcode": "89116-662"
    },
    {
        "city": "Gaspar",
        "state": "SC",
        "district": "Margem Esquerda",
        "street": "Rua Rodolfo Gunther",
        "zipcode": "89116-670"
    },
    {
        "city": "Gaspar",
        "state": "SC",
        "district": "Margem Esquerda",
        "street": "Rua João Benicio da Trindade",
        "zipcode": "89116-674"
    },
    {
        "city": "Gaspar",
        "state": "SC",
        "district": "Margem Esquerda",
        "street": "Rua Rio de Janeiro",
        "zipcode": "89116-676"
    },
    {
        "city": "Gaspar",
        "state": "SC",
        "district": "Margem Esquerda",
        "street": "Rua Salvador",
        "zipcode": "89116-678"
    },
    {
        "city": "Gaspar",
        "state": "SC",
        "district": "Margem Esquerda",
        "street": "Rua Hilda Lenfers",
        "zipcode": "89116-682"
    },
    {
        "city": "Gaspar",
        "state": "SC",
        "district": "Margem Esquerda",
        "street": "Rua Militão Dias",
        "zipcode": "89116-684"
    },
    {
        "city": "Gaspar",
        "state": "SC",
        "district": "Margem Esquerda",
        "street": "Rua Mondai",
        "zipcode": "89116-690"
    },
    {
        "city": "Gaspar",
        "state": "SC",
        "district": "Margem Esquerda",
        "street": "Rua Helena Muller",
        "zipcode": "89116-696"
    },
    {
        "city": "Gaspar",
        "state": "SC",
        "district": "Margem Esquerda",
        "street": "Rua São Marcos",
        "zipcode": "89116-703"
    },
    {
        "city": "Gaspar",
        "state": "SC",
        "district": "Margem Esquerda",
        "street": "Rua Reinaldo Ernesto Eskelsen",
        "zipcode": "89116-709"
    },
    {
        "city": "Gaspar",
        "state": "SC",
        "district": "Margem Esquerda",
        "street": "Rua João Jose Batista",
        "zipcode": "89116-712"
    },
    {
        "city": "Gaspar",
        "state": "SC",
        "district": "Margem Esquerda",
        "street": "Rua Girassol",
        "zipcode": "89116-774"
    },
    {
        "city": "Gaspar",
        "state": "SC",
        "district": "Margem Esquerda",
        "street": "Rua Primavera",
        "zipcode": "89116-776"
    },
    {
        "city": "Gaspar",
        "state": "SC",
        "district": "Margem Esquerda",
        "street": "Rua Sertão Verde",
        "zipcode": "89116-778"
    },
    {
        "city": "Gaspar",
        "state": "SC",
        "district": "Belchior Central",
        "street": "Rua Salseiro",
        "zipcode": "89117-560"
    },
    {
        "city": "Gaspar",
        "state": "SC",
        "district": "Belchior Central",
        "street": "Rua Pedro Reinert",
        "zipcode": "89117-685"
    },
    {
        "city": "Gaspar",
        "state": "SC",
        "district": "Sete de Setembro",
        "street": "Rua Fernando Rodolfo Pamplona",
        "zipcode": "89115-010"
    },
    {
        "city": "Gaspar",
        "state": "SC",
        "district": "Margem Esquerda",
        "street": "Travessa Guilherme Simon",
        "zipcode": "89116-563"
    },
    {
        "city": "Gaspar",
        "state": "SC",
        "district": "Margem Esquerda",
        "street": "Rua Ricardo Stanke",
        "zipcode": "89116-582"
    },
    {
        "city": "Gaspar",
        "state": "SC",
        "district": "Belchior Central",
        "street": "Rua Victorino Trierweiler",
        "zipcode": "89117-700"
    },
    {
        "city": "Gaspar",
        "state": "SC",
        "district": "Santa Terezinha",
        "street": "Rua Alagoas",
        "zipcode": "89114-274"
    },
    {
        "city": "Gaspar",
        "state": "SC",
        "district": "Sete de Setembro",
        "street": "Rua Manoel Bittencourt",
        "zipcode": "89114-758"
    },
    {
        "city": "Gaspar",
        "state": "SC",
        "district": "Sete de Setembro",
        "street": "Rua Clara Bittencourt",
        "zipcode": "89114-780"
    },
    {
        "city": "Gaspar",
        "state": "SC",
        "district": "Sete de Setembro",
        "street": "Rua Oriente",
        "zipcode": "89114-800"
    },
    {
        "city": "Gaspar",
        "state": "SC",
        "district": "Sete de Setembro",
        "street": "Rua 25 de Julho",
        "zipcode": "89114-814"
    },
    {
        "city": "Gaspar",
        "state": "SC",
        "district": "Figueira",
        "street": "Rua Giovane Moser",
        "zipcode": "89110-434"
    },
    {
        "city": "Gaspar",
        "state": "SC",
        "district": "Sete de Setembro",
        "street": "Rua Servidor Municipal Carlos Coradini",
        "zipcode": "89114-816"
    },
    {
        "city": "Gaspar",
        "state": "SC",
        "district": "Sete de Setembro",
        "street": "Rua 1º de Maio",
        "zipcode": "89114-818"
    },
    {
        "city": "Gaspar",
        "state": "SC",
        "district": "Sete de Setembro",
        "street": "Rua Jackicelia Andrade",
        "zipcode": "89114-820"
    },
    {
        "city": "Gaspar",
        "state": "SC",
        "district": "Sete de Setembro",
        "street": "Rua Monte Castelo",
        "zipcode": "89114-824"
    },
    {
        "city": "Gaspar",
        "state": "SC",
        "district": "Sete de Setembro",
        "street": "Rua Mato Grosso",
        "zipcode": "89114-826"
    },
    {
        "city": "Gaspar",
        "state": "SC",
        "district": "Sete de Setembro",
        "street": "Rua Flávio Cláudio Debortoli",
        "zipcode": "89114-828"
    },
    {
        "city": "Gaspar",
        "state": "SC",
        "district": "Sete de Setembro",
        "street": "Rua Maranhão",
        "zipcode": "89114-832"
    },
    {
        "city": "Gaspar",
        "state": "SC",
        "district": "Sete de Setembro",
        "street": "Rua Minas Gerais",
        "zipcode": "89114-838"
    },
    {
        "city": "Gaspar",
        "state": "SC",
        "district": "Sete de Setembro",
        "street": "Rua 7 de Setembro",
        "zipcode": "89114-840"
    },
    {
        "city": "Gaspar",
        "state": "SC",
        "district": "Sete de Setembro",
        "street": "Rua Eduardo Heinig",
        "zipcode": "89114-842"
    },
    {
        "city": "Gaspar",
        "state": "SC",
        "district": "Sete de Setembro",
        "street": "Rua Ituporanga",
        "zipcode": "89114-848"
    },
    {
        "city": "Gaspar",
        "state": "SC",
        "district": "Sete de Setembro",
        "street": "Rua 1º de Janeiro",
        "zipcode": "89114-852"
    },
    {
        "city": "Gaspar",
        "state": "SC",
        "district": "Sete de Setembro",
        "street": "Rua 25 de Dezembro",
        "zipcode": "89114-856"
    },
    {
        "city": "Gaspar",
        "state": "SC",
        "district": "Sete de Setembro",
        "street": "Rua 18 de Março",
        "zipcode": "89114-858"
    },
    {
        "city": "Gaspar",
        "state": "SC",
        "district": "Sete de Setembro",
        "street": "Rua 13 de Maio",
        "zipcode": "89114-862"
    },
    {
        "city": "Gaspar",
        "state": "SC",
        "district": "Sete de Setembro",
        "street": "Rua Maria Moser",
        "zipcode": "89114-864"
    },
    {
        "city": "Gaspar",
        "state": "SC",
        "district": "Sete de Setembro",
        "street": "Rua 21 de Abril",
        "zipcode": "89114-866"
    },
    {
        "city": "Gaspar",
        "state": "SC",
        "district": "Sete de Setembro",
        "street": "Rua José Marcos Pereira",
        "zipcode": "89114-870"
    },
    {
        "city": "Gaspar",
        "state": "SC",
        "district": "Sete de Setembro",
        "street": "Rua João Dierschnabel",
        "zipcode": "89114-872"
    },
    {
        "city": "Gaspar",
        "state": "SC",
        "district": "Sete de Setembro",
        "street": "Rua José Krauss",
        "zipcode": "89114-878"
    },
    {
        "city": "Gaspar",
        "state": "SC",
        "district": "Sete de Setembro",
        "street": "Rua Lages",
        "zipcode": "89114-890"
    },
    {
        "city": "Gaspar",
        "state": "SC",
        "district": "Sete de Setembro",
        "street": "Rua Pedro Wan",
        "zipcode": "89115-045"
    },
    {
        "city": "Gaspar",
        "state": "SC",
        "district": "Sete de Setembro",
        "street": "Rua Madre Paulina",
        "zipcode": "89115-065"
    },
    {
        "city": "Gaspar",
        "state": "SC",
        "district": "Poço Grande",
        "street": "Rua Vitor Goedert",
        "zipcode": "89115-105"
    },
    {
        "city": "Gaspar",
        "state": "SC",
        "district": "Poço Grande",
        "street": "Rua Renato Manoel Peixoto",
        "zipcode": "89115-150"
    },
    {
        "city": "Gaspar",
        "state": "SC",
        "district": "Poço Grande",
        "street": "Rua Maria Evelina Spengler",
        "zipcode": "89115-162"
    },
    {
        "city": "Gaspar",
        "state": "SC",
        "district": "Poço Grande",
        "street": "Rua Luciano Francisco Spengler",
        "zipcode": "89115-164"
    },
    {
        "city": "Gaspar",
        "state": "SC",
        "district": "Poço Grande",
        "street": "Rua Pedro Paulo Reinert",
        "zipcode": "89115-215"
    },
    {
        "city": "Gaspar",
        "state": "SC",
        "district": "Poço Grande",
        "street": "Rua Olga Francisca Reinert",
        "zipcode": "89115-225"
    },
    {
        "city": "Gaspar",
        "state": "SC",
        "district": "Poço Grande",
        "street": "Rua Marli Deschanps",
        "zipcode": "89115-240"
    },
    {
        "city": "Gaspar",
        "state": "SC",
        "district": "Poço Grande",
        "street": "Rua João Spengler",
        "zipcode": "89115-245"
    },
    {
        "city": "Gaspar",
        "state": "SC",
        "district": "Lagoa",
        "street": "Rua José Kustner",
        "zipcode": "89115-295"
    },
    {
        "city": "Gaspar",
        "state": "SC",
        "district": "Lagoa",
        "street": "Rua Pedro Simon",
        "zipcode": "89115-300"
    },
    {
        "city": "Gaspar",
        "state": "SC",
        "district": "Lagoa",
        "street": "Rua Luzia Alves de Andrade",
        "zipcode": "89115-405"
    },
    {
        "city": "Gaspar",
        "state": "SC",
        "district": "Lagoa",
        "street": "Rua Pedro Vieira",
        "zipcode": "89115-440"
    },
    {
        "city": "Gaspar",
        "state": "SC",
        "district": "Lagoa",
        "street": "Rua João Manoel Ignácio dos Santos",
        "zipcode": "89115-455"
    },
    {
        "city": "Gaspar",
        "state": "SC",
        "district": "Sete de Setembro",
        "street": "Rua Hilario da Silva",
        "zipcode": "89114-756"
    },
    {
        "city": "Gaspar",
        "state": "SC",
        "district": "Santa Terezinha",
        "street": "Rua Eleoteria Jesuina de Souza",
        "zipcode": "89114-136"
    },
    {
        "city": "Gaspar",
        "state": "SC",
        "district": "Santa Terezinha",
        "street": "Rua dos Imigrantes",
        "zipcode": "89114-168"
    },
    {
        "city": "Gaspar",
        "state": "SC",
        "district": "Santa Terezinha",
        "street": "Rua da Amizade",
        "zipcode": "89114-170"
    },
    {
        "city": "Gaspar",
        "state": "SC",
        "district": "Santa Terezinha",
        "street": "Rua Damiano Venturi",
        "zipcode": "89114-188"
    },
    {
        "city": "Gaspar",
        "state": "SC",
        "district": "Santa Terezinha",
        "street": "Rua Candido João dos Santos",
        "zipcode": "89114-214"
    },
    {
        "city": "Gaspar",
        "state": "SC",
        "district": "Santa Terezinha",
        "street": "Rua Ivo Testoni",
        "zipcode": "89114-190"
    },
    {
        "city": "Gaspar",
        "state": "SC",
        "district": "Santa Terezinha",
        "street": "Rua Jacob Junkes",
        "zipcode": "89114-198"
    },
    {
        "city": "Gaspar",
        "state": "SC",
        "district": "Santa Terezinha",
        "street": "Rua Guaramirim",
        "zipcode": "89114-210"
    },
    {
        "city": "Gaspar",
        "state": "SC",
        "district": "Santa Terezinha",
        "street": "Rua Maravilha",
        "zipcode": "89114-151"
    },
    {
        "city": "Gaspar",
        "state": "SC",
        "district": "Santa Terezinha",
        "street": "Rua Oeste",
        "zipcode": "89114-174"
    },
    {
        "city": "Gaspar",
        "state": "SC",
        "district": "Santa Terezinha",
        "street": "Rua Maria Zimmermann",
        "zipcode": "89114-184"
    },
    {
        "city": "Gaspar",
        "state": "SC",
        "district": "Santa Terezinha",
        "street": "Rua Paulo Testoni",
        "zipcode": "89114-192"
    },
    {
        "city": "Gaspar",
        "state": "SC",
        "district": "Santa Terezinha",
        "street": "Rua Luiz Alves",
        "zipcode": "89114-212"
    },
    {
        "city": "Gaspar",
        "state": "SC",
        "district": "Bateias",
        "street": "Rua Carlos Zuchi Neto",
        "zipcode": "89113-233"
    },
    {
        "city": "Gaspar",
        "state": "SC",
        "district": "Santa Terezinha",
        "street": "Rua Olinda",
        "zipcode": "89114-284"
    },
    {
        "city": "Gaspar",
        "state": "SC",
        "district": "Santa Terezinha",
        "street": "Rua Guabiruba",
        "zipcode": "89114-288"
    },
    {
        "city": "Gaspar",
        "state": "SC",
        "district": "Santa Terezinha",
        "street": "Rua Carajás",
        "zipcode": "89114-290"
    },
    {
        "city": "Gaspar",
        "state": "SC",
        "district": "Santa Terezinha",
        "street": "Rua Canelinha",
        "zipcode": "89114-296"
    },
    {
        "city": "Gaspar",
        "state": "SC",
        "district": "Santa Terezinha",
        "street": "Rua Dois Irmãos",
        "zipcode": "89114-300"
    },
    {
        "city": "Gaspar",
        "state": "SC",
        "district": "Santa Terezinha",
        "street": "Rua João Vieira",
        "zipcode": "89114-320"
    },
    {
        "city": "Gaspar",
        "state": "SC",
        "district": "Santa Terezinha",
        "street": "Rua Maria Vieira",
        "zipcode": "89114-325"
    },
    {
        "city": "Gaspar",
        "state": "SC",
        "district": "Santa Terezinha",
        "street": "Rua Paula Poffo",
        "zipcode": "89114-346"
    },
    {
        "city": "Gaspar",
        "state": "SC",
        "district": "Santa Terezinha",
        "street": "Rua Olavio Rosa",
        "zipcode": "89114-352"
    },
    {
        "city": "Gaspar",
        "state": "SC",
        "district": "Santa Terezinha",
        "street": "Rua Artur Poffo",
        "zipcode": "89114-355"
    },
    {
        "city": "Gaspar",
        "state": "SC",
        "district": "Santa Terezinha",
        "street": "Rua Cezar Blank",
        "zipcode": "89114-361"
    },
    {
        "city": "Gaspar",
        "state": "SC",
        "district": "Santa Terezinha",
        "street": "Rua Joaquim Silvino da Cunha",
        "zipcode": "89114-148"
    },
    {
        "city": "Gaspar",
        "state": "SC",
        "district": "Santa Terezinha",
        "street": "Rua São Gabriel",
        "zipcode": "89114-367"
    },
    {
        "city": "Gaspar",
        "state": "SC",
        "district": "Santa Terezinha",
        "street": "Rua da Granja",
        "zipcode": "89114-400"
    },
    {
        "city": "Gaspar",
        "state": "SC",
        "district": "Santa Terezinha",
        "street": "Rua São Bento",
        "zipcode": "89114-442"
    },
    {
        "city": "Gaspar",
        "state": "SC",
        "district": "Santa Terezinha",
        "street": "Rua Anitapolis",
        "zipcode": "89114-444"
    },
    {
        "city": "Gaspar",
        "state": "SC",
        "district": "Santa Terezinha",
        "street": "Rua Antonio Carlos",
        "zipcode": "89114-446"
    },
    {
        "city": "Gaspar",
        "state": "SC",
        "district": "Santa Terezinha",
        "street": "Rua Ararangua",
        "zipcode": "89114-450"
    },
    {
        "city": "Gaspar",
        "state": "SC",
        "district": "Santa Terezinha",
        "street": "Rua Aurora",
        "zipcode": "89114-454"
    },
    {
        "city": "Gaspar",
        "state": "SC",
        "district": "Santa Terezinha",
        "street": "Rua Barra Velha",
        "zipcode": "89114-456"
    },
    {
        "city": "Gaspar",
        "state": "SC",
        "district": "Santa Terezinha",
        "street": "Rua Mario Lana",
        "zipcode": "89114-466"
    },
    {
        "city": "Gaspar",
        "state": "SC",
        "district": "Santa Terezinha",
        "street": "Rua Giulio Testoni",
        "zipcode": "89114-475"
    },
    {
        "city": "Gaspar",
        "state": "SC",
        "district": "Macucos",
        "street": "Rua Jacob Bernardo Reinert",
        "zipcode": "89114-485"
    },
    {
        "city": "Gaspar",
        "state": "SC",
        "district": "Macucos",
        "street": "Rua Ernesto Censi",
        "zipcode": "89114-570"
    },
    {
        "city": "Gaspar",
        "state": "SC",
        "district": "Santa Terezinha",
        "street": "Rua Eugênio Marchi",
        "zipcode": "89114-458"
    },
    {
        "city": "Gaspar",
        "state": "SC",
        "district": "Santa Terezinha",
        "street": "Rua Angelina",
        "zipcode": "89114-330"
    },
    {
        "city": "Gaspar",
        "state": "SC",
        "district": "Santa Terezinha",
        "street": "Rua Amabilio Merini",
        "zipcode": "89114-349"
    },
    {
        "city": "Gaspar",
        "state": "SC",
        "district": "Gaspar Mirim",
        "street": "Rua Francisco Melo",
        "zipcode": "89112-780"
    },
    {
        "city": "Gaspar",
        "state": "SC",
        "district": "Bateias",
        "street": "Rua Francisco Luchini",
        "zipcode": "89113-218"
    },
    {
        "city": "Gaspar",
        "state": "SC",
        "district": "Santa Terezinha",
        "street": "Rua Claudino Casas",
        "zipcode": "89114-222"
    },
    {
        "city": "Gaspar",
        "state": "SC",
        "district": "Santa Terezinha",
        "street": "Rua Campos Novos",
        "zipcode": "89114-244"
    },
    {
        "city": "Gaspar",
        "state": "SC",
        "district": "Santa Terezinha",
        "street": "Rua Belem",
        "zipcode": "89114-268"
    },
    {
        "city": "Gaspar",
        "state": "SC",
        "district": "Santa Terezinha",
        "street": "Rua Fortaleza",
        "zipcode": "89114-272"
    },
    {
        "city": "Gaspar",
        "state": "SC",
        "district": "Santa Terezinha",
        "street": "Rua Camboriu",
        "zipcode": "89114-278"
    },
    {
        "city": "Gaspar",
        "state": "SC",
        "district": "Gaspar Mirim",
        "street": "Rua José João de Oliveira",
        "zipcode": "89112-535"
    },
    {
        "city": "Gaspar",
        "state": "SC",
        "district": "Gaspar Mirim",
        "street": "Rua Gertrudes Krauss",
        "zipcode": "89112-635"
    },
    {
        "city": "Gaspar",
        "state": "SC",
        "district": "Gaspar Mirim",
        "street": "Rua Francisco Ribas Galvão",
        "zipcode": "89112-730"
    },
    {
        "city": "Gaspar",
        "state": "SC",
        "district": "Gaspar Mirim",
        "street": "Rua João Ferretti",
        "zipcode": "89112-739"
    },
    {
        "city": "Gaspar",
        "state": "SC",
        "district": "Gaspar Mirim",
        "street": "Rua João Zermiani",
        "zipcode": "89112-785"
    },
    {
        "city": "Gaspar",
        "state": "SC",
        "district": "Bateias",
        "street": "Rua José Manoel de Souza",
        "zipcode": "89113-045"
    },
    {
        "city": "Gaspar",
        "state": "SC",
        "district": "Bateias",
        "street": "Rua José de Souza e Silva",
        "zipcode": "89113-050"
    },
    {
        "city": "Gaspar",
        "state": "SC",
        "district": "Bateias",
        "street": "Rua Jose João Rangel",
        "zipcode": "89113-209"
    },
    {
        "city": "Gaspar",
        "state": "SC",
        "district": "Barracão",
        "street": "Rua João de Borba",
        "zipcode": "89113-253"
    },
    {
        "city": "Gaspar",
        "state": "SC",
        "district": "Santa Terezinha",
        "street": "Rua José Pedro Marques",
        "zipcode": "89114-220"
    },
    {
        "city": "Gaspar",
        "state": "SC",
        "district": "Santa Terezinha",
        "street": "Rua Jaragua do Sul",
        "zipcode": "89114-234"
    },
    {
        "city": "Gaspar",
        "state": "SC",
        "district": "Santa Terezinha",
        "street": "Rua Itapema",
        "zipcode": "89114-240"
    },
    {
        "city": "Gaspar",
        "state": "SC",
        "district": "Bateias",
        "street": "Rua Otacilio Martins",
        "zipcode": "89113-230"
    },
    {
        "city": "Gaspar",
        "state": "SC",
        "district": "Bateias",
        "street": "Rua Luiz Andrietti",
        "zipcode": "89113-239"
    },
    {
        "city": "Gaspar",
        "state": "SC",
        "district": "Santa Terezinha",
        "street": "Rua Lauro Muller",
        "zipcode": "89114-216"
    },
    {
        "city": "Gaspar",
        "state": "SC",
        "district": "Santa Terezinha",
        "street": "Rua Laguna",
        "zipcode": "89114-242"
    },
    {
        "city": "Gaspar",
        "state": "SC",
        "district": "Santa Terezinha",
        "street": "Rua Mathias Spengler",
        "zipcode": "89114-266"
    },
    {
        "city": "Gaspar",
        "state": "SC",
        "district": "Bela Vista",
        "street": "Rua Porto Alegre",
        "zipcode": "89111-051"
    },
    {
        "city": "Gaspar",
        "state": "SC",
        "district": "Bateias",
        "street": "Rua Sebastião Roncálio",
        "zipcode": "89113-224"
    },
    {
        "city": "Gaspar",
        "state": "SC",
        "district": "Gasparinho",
        "street": "Rua Modesto Theiss",
        "zipcode": "89112-215"
    },
    {
        "city": "Gaspar",
        "state": "SC",
        "district": "Barracão",
        "street": "Rua Geronimo da Silva",
        "zipcode": "89113-542"
    },
    {
        "city": "Gaspar",
        "state": "SC",
        "district": "Santa Terezinha",
        "street": "Rua Francisco da Silva",
        "zipcode": "89114-054"
    },
    {
        "city": "Gaspar",
        "state": "SC",
        "district": "Santa Terezinha",
        "street": "Rua 2 de Novembro",
        "zipcode": "89114-180"
    },
    {
        "city": "Gaspar",
        "state": "SC",
        "district": "Santa Terezinha",
        "street": "Rua Pedro da Rocha",
        "zipcode": "89114-204"
    },
    {
        "city": "Gaspar",
        "state": "SC",
        "district": "Bateias",
        "street": "Rua José Rangel",
        "zipcode": "89113-215"
    },
    {
        "city": "Gaspar",
        "state": "SC",
        "district": "Gasparinho",
        "street": "Rua Arnoldo Sansão",
        "zipcode": "89112-140"
    },
    {
        "city": "Gaspar",
        "state": "SC",
        "district": "Gaspar Alto",
        "street": "Rua Artur Dorow",
        "zipcode": "89111-623"
    },
    {
        "city": "Gaspar",
        "state": "SC",
        "district": "Gasparinho",
        "street": "Rua Ervino Bernhardt",
        "zipcode": "89112-033"
    },
    {
        "city": "Gaspar",
        "state": "SC",
        "district": "Gasparinho",
        "street": "Rua Domingos Daros",
        "zipcode": "89112-063"
    },
    {
        "city": "Gaspar",
        "state": "SC",
        "district": "Gasparinho",
        "street": "Rua Domingos Francisco de Souza",
        "zipcode": "89112-200"
    },
    {
        "city": "Gaspar",
        "state": "SC",
        "district": "Gasparinho",
        "street": "Rua Francisco Benevenutti",
        "zipcode": "89112-270"
    },
    {
        "city": "Gaspar",
        "state": "SC",
        "district": "Gasparinho",
        "street": "Rua Augusto Nicoletti",
        "zipcode": "89112-313"
    },
    {
        "city": "Gaspar",
        "state": "SC",
        "district": "Barracão",
        "street": "Rua Caroline dos Santos Barbieri",
        "zipcode": "89113-326"
    },
    {
        "city": "Gaspar",
        "state": "SC",
        "district": "Barracão",
        "street": "Rua Fortunato Gabriel Melato",
        "zipcode": "89113-380"
    },
    {
        "city": "Gaspar",
        "state": "SC",
        "district": "Barracão",
        "street": "Rua Braz Lana",
        "zipcode": "89113-430"
    },
    {
        "city": "Gaspar",
        "state": "SC",
        "district": "Barracão",
        "street": "Rua Florindo Chiminelli",
        "zipcode": "89113-465"
    },
    {
        "city": "Gaspar",
        "state": "SC",
        "district": "Barracão",
        "street": "Rua Ernesto Censi",
        "zipcode": "89113-485"
    },
    {
        "city": "Gaspar",
        "state": "SC",
        "district": "Santa Terezinha",
        "street": "Rua Edesio Maya",
        "zipcode": "89114-057"
    },
    {
        "city": "Gaspar",
        "state": "SC",
        "district": "Santa Terezinha",
        "street": "Rua Diamantina",
        "zipcode": "89114-085"
    },
    {
        "city": "Gaspar",
        "state": "SC",
        "district": "Gasparinho",
        "street": "Rua Frei Solano",
        "zipcode": "89112-030"
    },
    {
        "city": "Gaspar",
        "state": "SC",
        "district": "Gasparinho",
        "street": "Rua Gelasio Bernz",
        "zipcode": "89112-042"
    },
    {
        "city": "Gaspar",
        "state": "SC",
        "district": "Gasparinho",
        "street": "Rua João Alberto Venske",
        "zipcode": "89112-145"
    },
    {
        "city": "Gaspar",
        "state": "SC",
        "district": "Gasparinho",
        "street": "Rua Hercilio de Souza Soares",
        "zipcode": "89112-190"
    },
    {
        "city": "Gaspar",
        "state": "SC",
        "district": "Gasparinho",
        "street": "Rua Frei Solano",
        "zipcode": "89112-250"
    },
    {
        "city": "Gaspar",
        "state": "SC",
        "district": "Gasparinho",
        "street": "Rua João Marcelino de Souza",
        "zipcode": "89112-310"
    },
    {
        "city": "Gaspar",
        "state": "SC",
        "district": "Barracão",
        "street": "Rua João Barbieri",
        "zipcode": "89113-334"
    },
    {
        "city": "Gaspar",
        "state": "SC",
        "district": "Barracão",
        "street": "Rua José Melato",
        "zipcode": "89113-338"
    },
    {
        "city": "Gaspar",
        "state": "SC",
        "district": "Barracão",
        "street": "Rua João Andrietti",
        "zipcode": "89113-375"
    },
    {
        "city": "Gaspar",
        "state": "SC",
        "district": "Barracão",
        "street": "Rua José B Barbieri",
        "zipcode": "89113-410"
    },
    {
        "city": "Gaspar",
        "state": "SC",
        "district": "Barracão",
        "street": "Rua José Benaci",
        "zipcode": "89113-420"
    },
    {
        "city": "Gaspar",
        "state": "SC",
        "district": "Barracão",
        "street": "Rua João Russi",
        "zipcode": "89113-540"
    },
    {
        "city": "Gaspar",
        "state": "SC",
        "district": "Gasparinho",
        "street": "Rua Nova Trento",
        "zipcode": "89112-060"
    },
    {
        "city": "Gaspar",
        "state": "SC",
        "district": "Gasparinho",
        "street": "Rua Monte Carlo",
        "zipcode": "89112-080"
    },
    {
        "city": "Gaspar",
        "state": "SC",
        "district": "Gasparinho",
        "street": "Rua Julio Testoni",
        "zipcode": "89112-150"
    },
    {
        "city": "Gaspar",
        "state": "SC",
        "district": "Gasparinho",
        "street": "Rua Marcelino Francisco de Souza",
        "zipcode": "89112-195"
    },
    {
        "city": "Gaspar",
        "state": "SC",
        "district": "Gasparinho",
        "street": "Rua Nicaragua",
        "zipcode": "89112-205"
    },
    {
        "city": "Gaspar",
        "state": "SC",
        "district": "Barracão",
        "street": "Rua Paulo de Souza e Silva",
        "zipcode": "89113-256"
    },
    {
        "city": "Gaspar",
        "state": "SC",
        "district": "Barracão",
        "street": "Rua Kennedy",
        "zipcode": "89113-259"
    },
    {
        "city": "Gaspar",
        "state": "SC",
        "district": "Barracão",
        "street": "Rua Manoel Fernandes da Silva",
        "zipcode": "89113-265"
    },
    {
        "city": "Gaspar",
        "state": "SC",
        "district": "Barracão",
        "street": "Rua Lino Vicente Alberici",
        "zipcode": "89113-314"
    },
    {
        "city": "Gaspar",
        "state": "SC",
        "district": "Barracão",
        "street": "Rua Pedro de Lemos",
        "zipcode": "89113-544"
    },
    {
        "city": "Gaspar",
        "state": "SC",
        "district": "Santa Terezinha",
        "street": "Rua Osni Lidio da Silva",
        "zipcode": "89114-045"
    },
    {
        "city": "Gaspar",
        "state": "SC",
        "district": "Barracão",
        "street": "Rua Teodolina da Cruz",
        "zipcode": "89113-268"
    },
    {
        "city": "Gaspar",
        "state": "SC",
        "district": "Barracão",
        "street": "Rua Vicente Andrietti",
        "zipcode": "89113-322"
    },
    {
        "city": "Gaspar",
        "state": "SC",
        "district": "Barracão",
        "street": "Rua Vitorio Clemente Zuchi",
        "zipcode": "89113-475"
    },
    {
        "city": "Gaspar",
        "state": "SC",
        "district": "Santa Terezinha",
        "street": "Rua Rodolfo Vieira Pamplona",
        "zipcode": "89114-051"
    },
    {
        "city": "Gaspar",
        "state": "SC",
        "district": "Santa Terezinha",
        "street": "Rua Roland Wehmuth",
        "zipcode": "89114-142"
    },
    {
        "city": "Gaspar",
        "state": "SC",
        "district": "Santa Terezinha",
        "street": "Rua Rui Barbosa",
        "zipcode": "89114-166"
    },
    {
        "city": "Gaspar",
        "state": "SC",
        "district": "Santa Terezinha",
        "street": "Rua 9 de Abril",
        "zipcode": "89114-172"
    },
    {
        "city": "Gaspar",
        "state": "SC",
        "district": "Santa Terezinha",
        "street": "Rua 13 de Novembro",
        "zipcode": "89114-178"
    },
    {
        "city": "Gaspar",
        "state": "SC",
        "district": "Santa Terezinha",
        "street": "Rua Progresso",
        "zipcode": "89114-182"
    },
    {
        "city": "Gaspar",
        "state": "SC",
        "district": "Santa Terezinha",
        "street": "Rua Santa Catarina",
        "zipcode": "89114-208"
    },
    {
        "city": "Gaspar",
        "state": "SC",
        "district": "Santa Terezinha",
        "street": "Rua Valfrido Casas",
        "zipcode": "89114-224"
    },
    {
        "city": "Gaspar",
        "state": "SC",
        "district": "Santa Terezinha",
        "street": "Rua Sorocaba",
        "zipcode": "89114-226"
    },
    {
        "city": "Gaspar",
        "state": "SC",
        "district": "Bela Vista",
        "street": "Rua João Pessoa",
        "zipcode": "89111-075"
    },
    {
        "city": "Gaspar",
        "state": "SC",
        "district": "Gaspar Mirim",
        "street": "Rua Osvaldo Krauss",
        "zipcode": "89112-630"
    },
    {
        "city": "Gaspar",
        "state": "SC",
        "district": "Gaspar Alto",
        "street": "Rua Anna Dorow",
        "zipcode": "89111-626"
    },
    {
        "city": "Gaspar",
        "state": "SC",
        "district": "Gasparinho",
        "street": "Rua Onildo Felix",
        "zipcode": "89112-345"
    },
    {
        "city": "Gaspar",
        "state": "SC",
        "district": "Gaspar Mirim",
        "street": "Rua Rodolfo Vieira Pamplona",
        "zipcode": "89112-520"
    },
    {
        "city": "Gaspar",
        "state": "SC",
        "district": "Bateias",
        "street": "Rua Paulo Sansão",
        "zipcode": "89113-090"
    },
    {
        "city": "Gaspar",
        "state": "SC",
        "district": "Figueira",
        "street": "Rua Arnoldo Deschamps",
        "zipcode": "89110-550"
    },
    {
        "city": "Gaspar",
        "state": "SC",
        "district": "Bela Vista",
        "street": "Rua Argentina",
        "zipcode": "89110-738"
    },
    {
        "city": "Gaspar",
        "state": "SC",
        "district": "Figueira",
        "street": "Rua Consul Ferdinand Joséf Kunz",
        "zipcode": "89110-602"
    },
    {
        "city": "Gaspar",
        "state": "SC",
        "district": "Bela Vista",
        "street": "Rua Conceição de Jesus Marques",
        "zipcode": "89110-650"
    },
    {
        "city": "Gaspar",
        "state": "SC",
        "district": "Bela Vista",
        "street": "Rua Catarina Hostert",
        "zipcode": "89110-714"
    },
    {
        "city": "Gaspar",
        "state": "SC",
        "district": "Bela Vista",
        "street": "Rua Bolívia",
        "zipcode": "89110-750"
    },
    {
        "city": "Gaspar",
        "state": "SC",
        "district": "Bela Vista",
        "street": "Rua Esperança Moser",
        "zipcode": "89110-830"
    },
    {
        "city": "Gaspar",
        "state": "SC",
        "district": "Gasparinho",
        "street": "Rua Francisco Celso de Oliveira",
        "zipcode": "89112-325"
    },
    {
        "city": "Gaspar",
        "state": "SC",
        "district": "Gasparinho",
        "street": "Rua Francisco dos Santos",
        "zipcode": "89112-328"
    },
    {
        "city": "Gaspar",
        "state": "SC",
        "district": "Figueira",
        "street": "Rua Fredesvinda Zimmermann",
        "zipcode": "89110-590"
    },
    {
        "city": "Gaspar",
        "state": "SC",
        "district": "Bela Vista",
        "street": "Rua Francisco Xavier Hostert",
        "zipcode": "89110-718"
    },
    {
        "city": "Gaspar",
        "state": "SC",
        "district": "Bela Vista",
        "street": "Rua Goias",
        "zipcode": "89110-786"
    },
    {
        "city": "Gaspar",
        "state": "SC",
        "district": "Bela Vista",
        "street": "Rua José Humberto Zimmermann",
        "zipcode": "89111-012"
    },
    {
        "city": "Gaspar",
        "state": "SC",
        "district": "Bela Vista",
        "street": "Rua João de Oliveira",
        "zipcode": "89111-110"
    },
    {
        "city": "Gaspar",
        "state": "SC",
        "district": "Gasparinho",
        "street": "Rua João Dorvalho de Oliveira",
        "zipcode": "89112-322"
    },
    {
        "city": "Gaspar",
        "state": "SC",
        "district": "Bela Vista",
        "street": "Rua Luiz Leite Neto",
        "zipcode": "89111-015"
    },
    {
        "city": "Gaspar",
        "state": "SC",
        "district": "Bela Vista",
        "street": "Rua Maringa",
        "zipcode": "89111-057"
    },
    {
        "city": "Gaspar",
        "state": "SC",
        "district": "Bela Vista",
        "street": "Rua Natal",
        "zipcode": "89111-069"
    },
    {
        "city": "Gaspar",
        "state": "SC",
        "district": "Bela Vista",
        "street": "Rua Manaus",
        "zipcode": "89111-072"
    },
    {
        "city": "Gaspar",
        "state": "SC",
        "district": "Bela Vista",
        "street": "Rua Pedro Artur Zimmermann",
        "zipcode": "89111-078"
    },
    {
        "city": "Gaspar",
        "state": "SC",
        "district": "Bela Vista",
        "street": "Rua Karl Eugen Spinner",
        "zipcode": "89111-098"
    },
    {
        "city": "Gaspar",
        "state": "SC",
        "district": "Bela Vista",
        "street": "Rua Luiz Moretto",
        "zipcode": "89111-106"
    },
    {
        "city": "Gaspar",
        "state": "SC",
        "district": "Gasparinho",
        "street": "Rua Manoel da Silva",
        "zipcode": "89112-400"
    },
    {
        "city": "Gaspar",
        "state": "SC",
        "district": "Gasparinho",
        "street": "Rua Lorenço Koehler",
        "zipcode": "89112-405"
    },
    {
        "city": "Gaspar",
        "state": "SC",
        "district": "Gasparinho",
        "street": "Rua Marta Hostins",
        "zipcode": "89112-430"
    },
    {
        "city": "Gaspar",
        "state": "SC",
        "district": "Gasparinho",
        "street": "Rua Leoberto Wilbert",
        "zipcode": "89112-475"
    },
    {
        "city": "Gaspar",
        "state": "SC",
        "district": "Gaspar Mirim",
        "street": "Rua Martimiano Francisco Pamplona",
        "zipcode": "89112-530"
    },
    {
        "city": "Gaspar",
        "state": "SC",
        "district": "Gaspar Mirim",
        "street": "Rua Paulo Goedert",
        "zipcode": "89112-676"
    },
    {
        "city": "Gaspar",
        "state": "SC",
        "district": "Gaspar Mirim",
        "street": "Rua Nelson Casas",
        "zipcode": "89112-680"
    },
    {
        "city": "Gaspar",
        "state": "SC",
        "district": "Gaspar Mirim",
        "street": "Rua Manoel João Gonçalves",
        "zipcode": "89112-682"
    },
    {
        "city": "Gaspar",
        "state": "SC",
        "district": "Gaspar Mirim",
        "street": "Rua Laura Neumann",
        "zipcode": "89112-684"
    },
    {
        "city": "Gaspar",
        "state": "SC",
        "district": "Bateias",
        "street": "Rua Maria de Souza e Silva",
        "zipcode": "89113-055"
    },
    {
        "city": "Gaspar",
        "state": "SC",
        "district": "Bateias",
        "street": "Rua Maria do Nascimento Pereira dos Santos",
        "zipcode": "89113-203"
    },
    {
        "city": "Gaspar",
        "state": "SC",
        "district": "Bateias",
        "street": "Rua Nagib Sebastião Barbieri",
        "zipcode": "89113-212"
    },
    {
        "city": "Gaspar",
        "state": "SC",
        "district": "Bela Vista",
        "street": "Rua Tereza Cristina Maciel",
        "zipcode": "89111-018"
    },
    {
        "city": "Gaspar",
        "state": "SC",
        "district": "Bela Vista",
        "street": "Rua Prefeito Bernardino Antônio de Souza",
        "zipcode": "89111-118"
    },
    {
        "city": "Gaspar",
        "state": "SC",
        "district": "Gaspar Mirim",
        "street": "Rua Piracicaba",
        "zipcode": "89112-625"
    },
    {
        "city": "Gaspar",
        "state": "SC",
        "district": "Gaspar Mirim",
        "street": "Rua Roseli Maria Krauss",
        "zipcode": "89112-640"
    },
    {
        "city": "Gaspar",
        "state": "SC",
        "district": "Gaspar Mirim",
        "street": "Rua 19 de Novembro",
        "zipcode": "89112-733"
    },
    {
        "city": "Gaspar",
        "state": "SC",
        "district": "Gaspar Mirim",
        "street": "Rua Santilia Wackerhage",
        "zipcode": "89112-736"
    },
    {
        "city": "Gaspar",
        "state": "SC",
        "district": "Gaspar Mirim",
        "street": "Rua 12 de Outubro",
        "zipcode": "89112-742"
    },
    {
        "city": "Gaspar",
        "state": "SC",
        "district": "Gaspar Mirim",
        "street": "Rua Silvio Rosa",
        "zipcode": "89112-745"
    },
    {
        "city": "Gaspar",
        "state": "SC",
        "district": "Gaspar Mirim",
        "street": "Rua Rosa Zuchi",
        "zipcode": "89112-790"
    },
    {
        "city": "Gaspar",
        "state": "SC",
        "district": "Gaspar Mirim",
        "street": "Rua Silvano João Baptista",
        "zipcode": "89112-795"
    },
    {
        "city": "Gaspar",
        "state": "SC",
        "district": "Bateias",
        "street": "Rua Vitorio Fantoni",
        "zipcode": "89113-206"
    },
    {
        "city": "Gaspar",
        "state": "SC",
        "district": "Figueira",
        "street": "Rua Paulo Bailer",
        "zipcode": "89110-373"
    },
    {
        "city": "Gaspar",
        "state": "SC",
        "district": "Gaspar Grande",
        "street": "Rua Edaclides Carvalho",
        "zipcode": "89111-338"
    },
    {
        "city": "Gaspar",
        "state": "SC",
        "district": "Gaspar Grande",
        "street": "Rua Plucenia Maria Isensee",
        "zipcode": "89111-346"
    },
    {
        "city": "Gaspar",
        "state": "SC",
        "district": "Gaspar Grande",
        "street": "Rua Modesto Nicolau da Rocha",
        "zipcode": "89111-395"
    },
    {
        "city": "Gaspar",
        "state": "SC",
        "district": "Gaspar Grande",
        "street": "Rua Maria Ines dos Santos",
        "zipcode": "89111-291"
    },
    {
        "city": "Gaspar",
        "state": "SC",
        "district": "Gaspar Grande",
        "street": "Rua Herminio Pereira",
        "zipcode": "89111-334"
    },
    {
        "city": "Gaspar",
        "state": "SC",
        "district": "Centro",
        "street": "Rua Douglas Alexandre",
        "zipcode": "89110-091"
    },
    {
        "city": "Gaspar",
        "state": "SC",
        "district": "Coloninha",
        "street": "Rua Francisco Eberhardt",
        "zipcode": "89110-206"
    },
    {
        "city": "Gaspar",
        "state": "SC",
        "district": "Coloninha",
        "street": "Rua Francisco Andrietti",
        "zipcode": "89110-212"
    },
    {
        "city": "Gaspar",
        "state": "SC",
        "district": "Coloninha",
        "street": "Rua Francisco Bohn",
        "zipcode": "89110-265"
    },
    {
        "city": "Gaspar",
        "state": "SC",
        "district": "Gaspar Grande",
        "street": "Rua Curitibanos",
        "zipcode": "89111-285"
    },
    {
        "city": "Gaspar",
        "state": "SC",
        "district": "Coloninha",
        "street": "Rua José Eberhardt",
        "zipcode": "89110-182"
    },
    {
        "city": "Gaspar",
        "state": "SC",
        "district": "Coloninha",
        "street": "Rua Frei Canisio",
        "zipcode": "89110-185"
    },
    {
        "city": "Gaspar",
        "state": "SC",
        "district": "Coloninha",
        "street": "Rua Francisco Wessling",
        "zipcode": "89110-218"
    },
    {
        "city": "Gaspar",
        "state": "SC",
        "district": "Coloninha",
        "street": "Rua Hilario dos Santos",
        "zipcode": "89110-221"
    },
    {
        "city": "Gaspar",
        "state": "SC",
        "district": "Coloninha",
        "street": "Rua Jacob Muller",
        "zipcode": "89110-283"
    },
    {
        "city": "Gaspar",
        "state": "SC",
        "district": "Coloninha",
        "street": "Rua Johan Wolfrann",
        "zipcode": "89110-289"
    },
    {
        "city": "Gaspar",
        "state": "SC",
        "district": "Figueira",
        "street": "Rua José Casas",
        "zipcode": "89110-370"
    },
    {
        "city": "Gaspar",
        "state": "SC",
        "district": "Figueira",
        "street": "Rua Helena Augusta Gaertner",
        "zipcode": "89110-450"
    },
    {
        "city": "Gaspar",
        "state": "SC",
        "district": "Figueira",
        "street": "Rua Irineu Deschamps",
        "zipcode": "89110-510"
    },
    {
        "city": "Gaspar",
        "state": "SC",
        "district": "Figueira",
        "street": "Rua Guilherme Sabel",
        "zipcode": "89110-520"
    },
    {
        "city": "Gaspar",
        "state": "SC",
        "district": "Figueira",
        "street": "Rua Hercilio Luz",
        "zipcode": "89110-522"
    },
    {
        "city": "Gaspar",
        "state": "SC",
        "district": "Bela Vista",
        "street": "Rua Geni Spinner",
        "zipcode": "89111-122"
    },
    {
        "city": "Gaspar",
        "state": "SC",
        "district": "Gaspar Grande",
        "street": "Rua José Anastácio da Silva",
        "zipcode": "89111-273"
    },
    {
        "city": "Gaspar",
        "state": "SC",
        "district": "Coloninha",
        "street": "Rua Maria da Silva",
        "zipcode": "89110-194"
    },
    {
        "city": "Gaspar",
        "state": "SC",
        "district": "Coloninha",
        "street": "Rua Martins Felício Eberhardt",
        "zipcode": "89110-200"
    },
    {
        "city": "Gaspar",
        "state": "SC",
        "district": "Coloninha",
        "street": "Rua Juvencio José dos Santos",
        "zipcode": "89110-203"
    },
    {
        "city": "Gaspar",
        "state": "SC",
        "district": "Coloninha",
        "street": "Rua Otto Pawlowsky",
        "zipcode": "89110-224"
    },
    {
        "city": "Gaspar",
        "state": "SC",
        "district": "Coloninha",
        "street": "Rua Maestro Egon Bohn",
        "zipcode": "89110-259"
    },
    {
        "city": "Gaspar",
        "state": "SC",
        "district": "Coloninha",
        "street": "Rua Paulo Gaertner",
        "zipcode": "89110-268"
    },
    {
        "city": "Gaspar",
        "state": "SC",
        "district": "Figueira",
        "street": "Rua Olga Bohn",
        "zipcode": "89110-382"
    },
    {
        "city": "Gaspar",
        "state": "SC",
        "district": "Figueira",
        "street": "Rua Manoel Bernardo da Silva",
        "zipcode": "89110-430"
    },
    {
        "city": "Gaspar",
        "state": "SC",
        "district": "Figueira",
        "street": "Rua Olga Sabel",
        "zipcode": "89110-442"
    },
    {
        "city": "Gaspar",
        "state": "SC",
        "district": "Figueira",
        "street": "Rua Leopoldo Buzzi",
        "zipcode": "89110-518"
    },
    {
        "city": "Gaspar",
        "state": "SC",
        "district": "Figueira",
        "street": "Rua Maria Muller Cardozo",
        "zipcode": "89110-532"
    },
    {
        "city": "Gaspar",
        "state": "SC",
        "district": "Bela Vista",
        "street": "Rua Nilla Matilde do Nascimento",
        "zipcode": "89111-126"
    },
    {
        "city": "Gaspar",
        "state": "SC",
        "district": "Gaspar Grande",
        "street": "Rua Otto Nuss",
        "zipcode": "89111-410"
    },
    {
        "city": "Gaspar",
        "state": "SC",
        "district": "Coloninha",
        "street": "Travessa Júlio Joél da Costa",
        "zipcode": "89110-280"
    },
    {
        "city": "Gaspar",
        "state": "SC",
        "district": "Figueira",
        "street": "Travessa Cleber dos Santos",
        "zipcode": "89110-530"
    },
    {
        "city": "Gaspar",
        "state": "SC",
        "district": "Figueira",
        "street": "Rua Professor Vitório Anacleto Cardoso",
        "zipcode": "89110-534"
    },
    {
        "city": "Gaspar",
        "state": "SC",
        "district": "Figueira",
        "street": "Rua Rio Negrinho",
        "zipcode": "89110-536"
    },
    {
        "city": "Gaspar",
        "state": "SC",
        "district": "Figueira",
        "street": "Rua Teodoro Deschamps",
        "zipcode": "89110-540"
    },
    {
        "city": "Gaspar",
        "state": "SC",
        "district": "Figueira",
        "street": "Rua Piçarras",
        "zipcode": "89110-542"
    },
    {
        "city": "Gaspar",
        "state": "SC",
        "district": "Figueira",
        "street": "Rua Pomerode",
        "zipcode": "89110-544"
    },
    {
        "city": "Gaspar",
        "state": "SC",
        "district": "Figueira",
        "street": "Rua Porto União",
        "zipcode": "89110-546"
    },
    {
        "city": "Gaspar",
        "state": "SC",
        "district": "Gaspar Grande",
        "street": "Rua Rosalina Theiss",
        "zipcode": "89111-350"
    },
    {
        "city": "Gaspar",
        "state": "SC",
        "district": "Gaspar Grande",
        "street": "Rua Vitor Sansão",
        "zipcode": "89111-390"
    },
    {
        "city": "Gaspar",
        "state": "SC",
        "district": "Gaspar Alto",
        "street": "Rua Reinoldo Belz",
        "zipcode": "89111-632"
    },
    {
        "city": "Gaspar",
        "state": "SC",
        "district": "Gasparinho",
        "street": "Rua Ponte Serrada",
        "zipcode": "89112-048"
    },
    {
        "city": "Gaspar",
        "state": "SC",
        "district": "Gasparinho",
        "street": "Rua Recife",
        "zipcode": "89112-054"
    },
    {
        "city": "Gaspar",
        "state": "SC",
        "district": "Gasparinho",
        "street": "Rua São Cristóvão",
        "zipcode": "89112-066"
    },
    {
        "city": "Gaspar",
        "state": "SC",
        "district": "Gasparinho",
        "street": "Rua Silvio Fistarol",
        "zipcode": "89112-360"
    },
    {
        "city": "Gaspar",
        "state": "SC",
        "district": "Gasparinho",
        "street": "Rua Porcinio Luiz da Silva",
        "zipcode": "89112-390"
    },
    {
        "city": "Gaspar",
        "state": "SC",
        "district": "Gasparinho",
        "street": "Rua Serafim Dalla",
        "zipcode": "89112-395"
    },
    {
        "city": "Gaspar",
        "state": "SC",
        "district": "Centro",
        "street": "Travessa Carlos Wehmuth",
        "zipcode": "89110-079"
    },
    {
        "city": "Gaspar",
        "state": "SC",
        "district": "Coloninha",
        "street": "Rua Pedro Krauss",
        "zipcode": "89110-149"
    },
    {
        "city": "Gaspar",
        "state": "SC",
        "district": "Coloninha",
        "street": "Rua João Krauss",
        "zipcode": "89110-152"
    },
    {
        "city": "Gaspar",
        "state": "SC",
        "district": "Coloninha",
        "street": "Rua Paulo Evaldo Gaertner",
        "zipcode": "89110-274"
    },
    {
        "city": "Gaspar",
        "state": "SC",
        "district": "Bela Vista",
        "street": "Rua Henrique Hostert",
        "zipcode": "89110-690"
    },
    {
        "city": "Gaspar",
        "state": "SC",
        "district": "Bela Vista",
        "street": "Rua Tubarão",
        "zipcode": "89110-698"
    },
    {
        "city": "Gaspar",
        "state": "SC",
        "district": "Centro",
        "street": "Rua Francisco Laguna",
        "zipcode": "89110-034"
    },
    {
        "city": "Gaspar",
        "state": "SC",
        "district": "Centro",
        "street": "Rua Fernando José Tonson",
        "zipcode": "89110-037"
    },
    {
        "city": "Gaspar",
        "state": "SC",
        "district": "Centro",
        "street": "Rua Eurico Fontes",
        "zipcode": "89110-061"
    },
    {
        "city": "Gaspar",
        "state": "SC",
        "district": "Centro",
        "street": "Rua José Beiler",
        "zipcode": "89110-043"
    },
    {
        "city": "Gaspar",
        "state": "SC",
        "district": "Centro",
        "street": "Rua Frei Otocar",
        "zipcode": "89110-106"
    },
    {
        "city": "Gaspar",
        "state": "SC",
        "district": "Figueira",
        "street": "Rua Henrique Cardoso",
        "zipcode": "89110-593"
    },
    {
        "city": "Gaspar",
        "state": "SC",
        "district": "Bela Vista",
        "street": "Rua Joaquim Moser",
        "zipcode": "89110-722"
    },
    {
        "city": "Gaspar",
        "state": "SC",
        "district": "Bela Vista",
        "street": "Rua Guilherme Nazario",
        "zipcode": "89110-734"
    },
    {
        "city": "Gaspar",
        "state": "SC",
        "district": "Centro",
        "street": "Rua José Vanzuiten",
        "zipcode": "89110-046"
    },
    {
        "city": "Gaspar",
        "state": "SC",
        "district": "Coloninha",
        "street": "Rua Paulo de Oliveira",
        "zipcode": "89110-122"
    },
    {
        "city": "Gaspar",
        "state": "SC",
        "district": "Bela Vista",
        "street": "Rua Mirian Doce",
        "zipcode": "89110-762"
    },
    {
        "city": "Gaspar",
        "state": "SC",
        "district": "Bela Vista",
        "street": "Rua Paraná",
        "zipcode": "89110-778"
    },
    {
        "city": "Gaspar",
        "state": "SC",
        "district": "Bela Vista",
        "street": "Rua Marcos Zimmermann",
        "zipcode": "89111-003"
    },
    {
        "city": "Gaspar",
        "state": "SC",
        "district": "Centro",
        "street": "Travessa Lídia Laguna da Silva",
        "zipcode": "89110-073"
    },
    {
        "city": "Gaspar",
        "state": "SC",
        "district": "Centro",
        "street": "Rua São Pedro",
        "zipcode": "89110-082"
    },
    {
        "city": "Gaspar",
        "state": "SC",
        "district": "Coloninha",
        "street": "Rua 31 de Julho",
        "zipcode": "89110-113"
    },
    {
        "city": "Gaspar",
        "state": "SC",
        "district": "Coloninha",
        "street": "Rua 21 de Junho",
        "zipcode": "89110-155"
    },
    {
        "city": "Gaspar",
        "state": "SC",
        "district": "Figueira",
        "street": "Rua Tiradentes",
        "zipcode": "89110-596"
    },
    {
        "city": "Gaspar",
        "state": "SC",
        "district": "Bela Vista",
        "street": "Rua Tijucas",
        "zipcode": "89110-702"
    },
    {
        "city": "Gaspar",
        "state": "SC",
        "district": "Bela Vista",
        "street": "Rua Timbó",
        "zipcode": "89110-726"
    },
    {
        "city": "Gaspar",
        "state": "SC",
        "district": "Bela Vista",
        "street": "Rua Venezuela",
        "zipcode": "89110-746"
    },
    {
        "city": "Gaspar",
        "state": "SC",
        "district": "Bela Vista",
        "street": "Rua Teobaldo Deschamps",
        "zipcode": "89110-758"
    },
    {
        "city": "Gaspar",
        "state": "SC",
        "district": "Bela Vista",
        "street": "Rua Santo Amaro",
        "zipcode": "89110-790"
    },
    {
        "city": "Gaspar",
        "state": "SC",
        "district": "Sete de Setembro",
        "street": "Rua José Benedicto Spengler",
        "zipcode": "89115-070"
    },
    {
        "city": "Gaspar",
        "state": "SC",
        "district": "Poço Grande",
        "street": "Rua Henrique Thon",
        "zipcode": "89115-156"
    },
    {
        "city": "Gaspar",
        "state": "SC",
        "district": "Margem Esquerda",
        "street": "Rua Flamboyants",
        "zipcode": "89116-530"
    },
    {
        "city": "Gaspar",
        "state": "SC",
        "district": "Coloninha",
        "street": "Rua Gustavo Jose da Costa",
        "zipcode": "89110-164"
    },
    {
        "city": "Gaspar",
        "state": "SC",
        "district": "Coloninha",
        "street": "Rua José Honorato Muller",
        "zipcode": "89110-170"
    },
    {
        "city": "Gaspar",
        "state": "SC",
        "district": "Alto Gasparinho",
        "street": "Rua Itália",
        "zipcode": "89112-820"
    },
    {
        "city": "Gaspar",
        "state": "SC",
        "district": "Coloninha",
        "street": "Rua Júlio Deschamps",
        "zipcode": "89110-173"
    },
    {
        "city": "Gaspar",
        "state": "SC",
        "district": "Figueira",
        "street": "Rua Magnólia",
        "zipcode": "89110-470"
    },
    {
        "city": "Gaspar",
        "state": "SC",
        "district": "Bela Vista",
        "street": "Rua Leo Rothermel",
        "zipcode": "89111-146"
    },
    {
        "city": "Gaspar",
        "state": "SC",
        "district": "Gaspar Alto",
        "street": "Rua Otavio Caresia",
        "zipcode": "89111-631"
    },
    {
        "city": "Gaspar",
        "state": "SC",
        "district": "Coloninha",
        "street": "Rua Vereador Celso Huber",
        "zipcode": "89110-176"
    },
    {
        "city": "Gaspar",
        "state": "SC",
        "district": "Gasparinho",
        "street": "Rua Fênix",
        "zipcode": "89112-148"
    },
    {
        "city": "Gaspar",
        "state": "SC",
        "district": "Santa Terezinha",
        "street": "Rua Lucca",
        "zipcode": "89114-293"
    },
    {
        "city": "Gaspar",
        "state": "SC",
        "district": "Gaspar Grande",
        "street": "Rua Prefeito Leopoldo Schramm",
        "zipcode": "89111-270"
    },
    {
        "city": "Gaspar",
        "state": "SC",
        "district": "Gaspar Grande",
        "street": "Rua Augusto Pedro Schnaider",
        "zipcode": "89111-434"
    },
    {
        "city": "Gaspar",
        "state": "SC",
        "district": "Gaspar Mirim",
        "street": "Rua Catarina Schneider",
        "zipcode": "89112-686"
    },
    {
        "city": "Gaspar",
        "state": "SC",
        "district": "Gaspar Grande",
        "street": "Rua Egídio Romualdo da Silva",
        "zipcode": "89111-460"
    },
    {
        "city": "Gaspar",
        "state": "SC",
        "district": "Gasparinho",
        "street": "Rua Enio Lopes de Souza",
        "zipcode": "89112-324"
    },
    {
        "city": "Gaspar",
        "state": "SC",
        "district": "Centro",
        "street": "Rua Irmãos Krauss",
        "zipcode": "89110-068"
    },
    {
        "city": "Gaspar",
        "state": "SC",
        "district": "Alto Gasparinho",
        "street": "Rua João Tonioli",
        "zipcode": "89112-842"
    },
    {
        "city": "Gaspar",
        "state": "SC",
        "district": "Santa Terezinha",
        "street": "Rua João Claudino dos Santos",
        "zipcode": "89114-478"
    },
    {
        "city": "Gaspar",
        "state": "SC",
        "district": "Margem Esquerda",
        "street": "Rua João Stiburski",
        "zipcode": "89116-568"
    },
    {
        "city": "Gaspar",
        "state": "SC",
        "district": "Margem Esquerda",
        "street": "Rua Içara",
        "zipcode": "89116-667"
    },
    {
        "city": "Gaspar",
        "state": "SC",
        "district": "Belchior Alto",
        "street": "Rua Laureano Frochlich",
        "zipcode": "89117-819"
    },
    {
        "city": "Gaspar",
        "state": "SC",
        "district": "Centro",
        "street": "Rua Industrial José Beduschi",
        "zipcode": "89110-001"
    },
    {
        "city": "Gaspar",
        "state": "SC",
        "district": "Figueira",
        "street": "Rua Thimoteo Deschamps",
        "zipcode": "89110-524"
    },
    {
        "city": "Gaspar",
        "state": "SC",
        "district": "Figueira",
        "street": "Rua Alberto Fernando Sabel",
        "zipcode": "89110-553"
    },
    {
        "city": "Gaspar",
        "state": "SC",
        "district": "Figueira",
        "street": "Rua Amalia Seide",
        "zipcode": "89110-558"
    },
    {
        "city": "Gaspar",
        "state": "SC",
        "district": "Bela Vista",
        "street": "Rua Arnoldo Hostert",
        "zipcode": "89110-766"
    },
    {
        "city": "Gaspar",
        "state": "SC",
        "district": "Bela Vista",
        "street": "Rua Arnoldo Pinheiro",
        "zipcode": "89110-770"
    },
    {
        "city": "Gaspar",
        "state": "SC",
        "district": "Centro",
        "street": "Rua Duque de Caxias",
        "zipcode": "89110-052"
    },
    {
        "city": "Gaspar",
        "state": "SC",
        "district": "Coloninha",
        "street": "Rua Doutor Nereu Ramos",
        "zipcode": "89110-110"
    },
    {
        "city": "Gaspar",
        "state": "SC",
        "district": "Coloninha",
        "street": "Rua Edeltraud Lydia Gaetner",
        "zipcode": "89110-262"
    },
    {
        "city": "Gaspar",
        "state": "SC",
        "district": "Figueira",
        "street": "Rua Francisco Demmer",
        "zipcode": "89110-385"
    },
    {
        "city": "Gaspar",
        "state": "SC",
        "district": "Figueira",
        "street": "Rua Camélia",
        "zipcode": "89110-454"
    },
    {
        "city": "Gaspar",
        "state": "SC",
        "district": "Figueira",
        "street": "Rua Elisabeth Deschamps",
        "zipcode": "89110-599"
    },
    {
        "city": "Gaspar",
        "state": "SC",
        "district": "Bela Vista",
        "street": "Rua Ernesto Hostert",
        "zipcode": "89110-730"
    },
    {
        "city": "Gaspar",
        "state": "SC",
        "district": "Bela Vista",
        "street": "Rua Biguaçu",
        "zipcode": "89110-810"
    },
    {
        "city": "Gaspar",
        "state": "SC",
        "district": "Bela Vista",
        "street": "Rua Florianópolis",
        "zipcode": "89111-042"
    },
    {
        "city": "Gaspar",
        "state": "SC",
        "district": "Centro",
        "street": "Rua Herminio Fachini",
        "zipcode": "89110-016"
    },
    {
        "city": "Gaspar",
        "state": "SC",
        "district": "Centro",
        "street": "Rua Isidoro Correa",
        "zipcode": "89110-055"
    },
    {
        "city": "Gaspar",
        "state": "SC",
        "district": "Coloninha",
        "street": "Rua Joinville",
        "zipcode": "89110-128"
    },
    {
        "city": "Gaspar",
        "state": "SC",
        "district": "Coloninha",
        "street": "Rua Frei Antonino",
        "zipcode": "89110-167"
    },
    {
        "city": "Gaspar",
        "state": "SC",
        "district": "Coloninha",
        "street": "Rua Francisco Pamplona",
        "zipcode": "89110-197"
    },
    {
        "city": "Gaspar",
        "state": "SC",
        "district": "Coloninha",
        "street": "Rua Gregório Pedro Eberhardt",
        "zipcode": "89110-230"
    },
    {
        "city": "Gaspar",
        "state": "SC",
        "district": "Coloninha",
        "street": "Rua Helmuth Muller",
        "zipcode": "89110-277"
    },
    {
        "city": "Gaspar",
        "state": "SC",
        "district": "Coloninha",
        "street": "Rua Ibirama",
        "zipcode": "89110-330"
    },
    {
        "city": "Gaspar",
        "state": "SC",
        "district": "Coloninha",
        "street": "Rua Imbituba",
        "zipcode": "89110-342"
    },
    {
        "city": "Gaspar",
        "state": "SC",
        "district": "Figueira",
        "street": "Rua Henrique Deschamps",
        "zipcode": "89110-502"
    },
    {
        "city": "Gaspar",
        "state": "SC",
        "district": "Figueira",
        "street": "Rua José Mondini",
        "zipcode": "89110-538"
    },
    {
        "city": "Gaspar",
        "state": "SC",
        "district": "Bela Vista",
        "street": "Rua Helena Kaufmann",
        "zipcode": "89110-710"
    },
    {
        "city": "Gaspar",
        "state": "SC",
        "district": "Bela Vista",
        "street": "Rua Hilma Muller Zimmermann",
        "zipcode": "89111-006"
    },
    {
        "city": "Gaspar",
        "state": "SC",
        "district": "Gaspar Grande",
        "street": "Rua João Augusto Isensee",
        "zipcode": "89111-342"
    },
    {
        "city": "Gaspar",
        "state": "SC",
        "district": "Centro",
        "street": "Rua Mario Vanzuita",
        "zipcode": "89110-103"
    },
    {
        "city": "Gaspar",
        "state": "SC",
        "district": "Coloninha",
        "street": "Rua Pedro Jose Venera",
        "zipcode": "89110-125"
    },
    {
        "city": "Gaspar",
        "state": "SC",
        "district": "Coloninha",
        "street": "Rua Nova Veneza",
        "zipcode": "89110-134"
    },
    {
        "city": "Gaspar",
        "state": "SC",
        "district": "Coloninha",
        "street": "Rua Leopoldo Moser",
        "zipcode": "89110-153"
    },
    {
        "city": "Gaspar",
        "state": "SC",
        "district": "Coloninha",
        "street": "Rua Julio Zimmermann",
        "zipcode": "89110-209"
    },
    {
        "city": "Gaspar",
        "state": "SC",
        "district": "Figueira",
        "street": "Rua Manoel João Severino",
        "zipcode": "89110-508"
    },
    {
        "city": "Gaspar",
        "state": "SC",
        "district": "Coloninha",
        "street": "Rua Paulo Alois Eberhardt",
        "zipcode": "89110-179"
    },
    {
        "city": "Gaspar",
        "state": "SC",
        "district": "Bela Vista",
        "street": "Rua Paraiso dos Poneis",
        "zipcode": "89110-655"
    },
    {
        "city": "Gaspar",
        "state": "SC",
        "district": "Bela Vista",
        "street": "Rua Paraguai",
        "zipcode": "89110-754"
    },
    {
        "city": "Gaspar",
        "state": "SC",
        "district": "Bela Vista",
        "street": "Rua Nilton Cardoso",
        "zipcode": "89111-024"
    },
    {
        "city": "Gaspar",
        "state": "SC",
        "district": "Bela Vista",
        "street": "Rua Margarida Zimmermann",
        "zipcode": "89111-094"
    },
    {
        "city": "Gaspar",
        "state": "SC",
        "district": "Centro",
        "street": "Rua São João",
        "zipcode": "89110-038"
    },
    {
        "city": "Gaspar",
        "state": "SC",
        "district": "Coloninha",
        "street": "Rua Sylvio João Zimmermann",
        "zipcode": "89110-143"
    },
    {
        "city": "Gaspar",
        "state": "SC",
        "district": "Coloninha",
        "street": "Rua Petronilia Wessling",
        "zipcode": "89110-183"
    },
    {
        "city": "Gaspar",
        "state": "SC",
        "district": "Figueira",
        "street": "Rua Petúnia",
        "zipcode": "89110-474"
    },
    {
        "city": "Gaspar",
        "state": "SC",
        "district": "Figueira",
        "street": "Rua Rio do Sul",
        "zipcode": "89110-548"
    },
    {
        "city": "Gaspar",
        "state": "SC",
        "district": "Bela Vista",
        "street": "Rua Sergipe",
        "zipcode": "89110-782"
    },
    {
        "city": "Gaspar",
        "state": "SC",
        "district": "Bela Vista",
        "street": "Rua Vitória",
        "zipcode": "89111-063"
    },
    {
        "city": "Gaspar",
        "state": "SC",
        "district": "Bela Vista",
        "street": "Rua Vitor José Miranda",
        "zipcode": "89111-114"
    },
    {
        "city": "Gaspar",
        "state": "SC",
        "district": "Gaspar Grande",
        "street": "Rua Rondonia",
        "zipcode": "89111-276"
    },
    {
        "city": "Gaspar",
        "state": "SC",
        "district": "Gaspar Mirim",
        "street": "Rua São Bento",
        "zipcode": "89112-770"
    },
    {
        "city": "Gaspar",
        "state": "SC",
        "district": "Alto Gasparinho",
        "street": "Rua Antonio Seraphin Marquetti",
        "zipcode": "89112-868"
    },
    {
        "city": "Gaspar",
        "state": "SC",
        "district": "Bateias",
        "street": "Rua Paulo Berti",
        "zipcode": "89113-080"
    },
    {
        "city": "Gaspar",
        "state": "SC",
        "district": "Bateias",
        "street": "Rua José Horn",
        "zipcode": "89113-236"
    },
    {
        "city": "Gaspar",
        "state": "SC",
        "district": "Santa Terezinha",
        "street": "Rua Florença",
        "zipcode": "89114-283"
    },
    {
        "city": "Gaspar",
        "state": "SC",
        "district": "Santa Terezinha",
        "street": "Rua São Joaquim",
        "zipcode": "89114-315"
    },
    {
        "city": "Gaspar",
        "state": "SC",
        "district": "Santa Terezinha",
        "street": "Rua Irineu da Costa",
        "zipcode": "89114-322"
    },
    {
        "city": "Gaspar",
        "state": "SC",
        "district": "Alto Gasparinho",
        "street": "Rua Adolfo Bonifácio Zimmermann",
        "zipcode": "89112-890"
    },
    {
        "city": "Gaspar",
        "state": "SC",
        "district": "Bateias",
        "street": "Rua Antonia Basilio da Silva",
        "zipcode": "89113-210"
    },
    {
        "city": "Gaspar",
        "state": "SC",
        "district": "Santa Terezinha",
        "street": "Rua Antonio Augusto de Oliveira",
        "zipcode": "89114-076"
    },
    {
        "city": "Gaspar",
        "state": "SC",
        "district": "Gaspar Grande",
        "street": "Rua Felicia Reinert",
        "zipcode": "89111-425"
    },
    {
        "city": "Gaspar",
        "state": "SC",
        "district": "Gaspar Grande",
        "street": "Rua Augusto Zimmermann",
        "zipcode": "89111-455"
    },
    {
        "city": "Gaspar",
        "state": "SC",
        "district": "Gaspar Alto",
        "street": "Rua Eduardo Godri",
        "zipcode": "89111-629"
    },
    {
        "city": "Gaspar",
        "state": "SC",
        "district": "Gasparinho",
        "street": "Rua Fernando Krauss",
        "zipcode": "89112-275"
    },
    {
        "city": "Gaspar",
        "state": "SC",
        "district": "Gasparinho",
        "street": "Rua Fausto Dagnoni",
        "zipcode": "89112-480"
    },
    {
        "city": "Gaspar",
        "state": "SC",
        "district": "Alto Gasparinho",
        "street": "Rua Francisco Bornhausen",
        "zipcode": "89112-828"
    },
    {
        "city": "Gaspar",
        "state": "SC",
        "district": "Bateias",
        "street": "Rua Fiovarante Lana",
        "zipcode": "89113-221"
    },
    {
        "city": "Gaspar",
        "state": "SC",
        "district": "Barracão",
        "street": "Rua Ernesto Acini",
        "zipcode": "89113-318"
    },
    {
        "city": "Gaspar",
        "state": "SC",
        "district": "Barracão",
        "street": "Rua Braz Toledo dos Santos",
        "zipcode": "89113-342"
    },
    {
        "city": "Gaspar",
        "state": "SC",
        "district": "Santa Terezinha",
        "street": "Rua da Colina",
        "zipcode": "89114-055"
    },
    {
        "city": "Gaspar",
        "state": "SC",
        "district": "Santa Terezinha",
        "street": "Rua das Araucárias",
        "zipcode": "89114-164"
    },
    {
        "city": "Gaspar",
        "state": "SC",
        "district": "Santa Terezinha",
        "street": "Rua Dario Erico Beduschi",
        "zipcode": "89114-260"
    },
    {
        "city": "Gaspar",
        "state": "SC",
        "district": "Gaspar Grande",
        "street": "Rua José de Souza Soares",
        "zipcode": "89111-432"
    },
    {
        "city": "Gaspar",
        "state": "SC",
        "district": "Gasparinho",
        "street": "Rua Jaime João Marquetti",
        "zipcode": "89112-075"
    },
    {
        "city": "Gaspar",
        "state": "SC",
        "district": "Gasparinho",
        "street": "Rua Guatemala",
        "zipcode": "89112-135"
    },
    {
        "city": "Gaspar",
        "state": "SC",
        "district": "Gasparinho",
        "street": "Rua Henrique Nicoletti",
        "zipcode": "89112-210"
    },
    {
        "city": "Gaspar",
        "state": "SC",
        "district": "Gasparinho",
        "street": "Rua João Benigno de Oliveira",
        "zipcode": "89112-319"
    },
    {
        "city": "Gaspar",
        "state": "SC",
        "district": "Gasparinho",
        "street": "Rua Hedwiges Theiss",
        "zipcode": "89112-420"
    },
    {
        "city": "Gaspar",
        "state": "SC",
        "district": "Alto Gasparinho",
        "street": "Rua João Mathias Zimmermann",
        "zipcode": "89112-800"
    },
    {
        "city": "Gaspar",
        "state": "SC",
        "district": "Santa Terezinha",
        "street": "Rua Herta Zimmermann",
        "zipcode": "89114-186"
    },
    {
        "city": "Gaspar",
        "state": "SC",
        "district": "Santa Terezinha",
        "street": "Rua Gisele Brick Maraschi",
        "zipcode": "89114-200"
    },
    {
        "city": "Gaspar",
        "state": "SC",
        "district": "Santa Terezinha",
        "street": "Rua Joaçaba",
        "zipcode": "89114-236"
    },
    {
        "city": "Gaspar",
        "state": "SC",
        "district": "Gaspar Grande",
        "street": "Rua Nicolau de Aguiar",
        "zipcode": "89111-400"
    },
    {
        "city": "Gaspar",
        "state": "SC",
        "district": "Gasparinho",
        "street": "Rua Leontino da Rocha",
        "zipcode": "89112-045"
    },
    {
        "city": "Gaspar",
        "state": "SC",
        "district": "Gasparinho",
        "street": "Rua Manoel Pedra",
        "zipcode": "89112-155"
    },
    {
        "city": "Gaspar",
        "state": "SC",
        "district": "Gaspar Mirim",
        "street": "Rua Maria José da Cruz",
        "zipcode": "89112-525"
    },
    {
        "city": "Gaspar",
        "state": "SC",
        "district": "Gaspar Mirim",
        "street": "Rua Mansueto Venture",
        "zipcode": "89112-621"
    },
    {
        "city": "Gaspar",
        "state": "SC",
        "district": "Gaspar Mirim",
        "street": "Rua Oalair Veloso Linhares",
        "zipcode": "89112-648"
    },
    {
        "city": "Gaspar",
        "state": "SC",
        "district": "Gaspar Mirim",
        "street": "Rua Julio Isaias de Oliveira",
        "zipcode": "89112-674"
    },
    {
        "city": "Gaspar",
        "state": "SC",
        "district": "Alto Gasparinho",
        "street": "Rua Marsemino Nicoletti",
        "zipcode": "89112-836"
    },
    {
        "city": "Gaspar",
        "state": "SC",
        "district": "Bateias",
        "street": "Rua Pedro Berti",
        "zipcode": "89113-165"
    },
    {
        "city": "Gaspar",
        "state": "SC",
        "district": "Barracão",
        "street": "Rua Maria Rosalina Lana",
        "zipcode": "89113-262"
    },
    {
        "city": "Gaspar",
        "state": "SC",
        "district": "Barracão",
        "street": "Rua Paulo Arquelau Roncaglio",
        "zipcode": "89113-480"
    },
    {
        "city": "Gaspar",
        "state": "SC",
        "district": "Barracão",
        "street": "Rua José Vanio Zeitz",
        "zipcode": "89113-546"
    },
    {
        "city": "Gaspar",
        "state": "SC",
        "district": "Santa Terezinha",
        "street": "Rua Manoel João de Souza",
        "zipcode": "89114-133"
    },
    {
        "city": "Gaspar",
        "state": "SC",
        "district": "Santa Terezinha",
        "street": "Rua Pedro João de Deus Correia",
        "zipcode": "89114-145"
    },
    {
        "city": "Gaspar",
        "state": "SC",
        "district": "Santa Terezinha",
        "street": "Rua Leopoldo Cani",
        "zipcode": "89114-218"
    },
    {
        "city": "Gaspar",
        "state": "SC",
        "district": "Santa Terezinha",
        "street": "Rua Manoel José Alves de Andrade",
        "zipcode": "89114-246"
    },
    {
        "city": "Gaspar",
        "state": "SC",
        "district": "Gaspar Mirim",
        "street": "Rua Rodolfo Vieira Pamplona",
        "zipcode": "89112-670"
    },
    {
        "city": "Gaspar",
        "state": "SC",
        "district": "Gaspar Mirim",
        "street": "Rua Rosalina Dieckmann",
        "zipcode": "89112-688"
    },
    {
        "city": "Gaspar",
        "state": "SC",
        "district": "Barracão",
        "street": "Rua Vitório Testoni",
        "zipcode": "89113-415"
    },
    {
        "city": "Gaspar",
        "state": "SC",
        "district": "Santa Terezinha",
        "street": "Rua Uruguai",
        "zipcode": "89114-082"
    },
    {
        "city": "Gaspar",
        "state": "SC",
        "district": "Santa Terezinha",
        "street": "Rua Zeno Zimmermann",
        "zipcode": "89114-196"
    },
    {
        "city": "Gaspar",
        "state": "SC",
        "district": "Santa Terezinha",
        "street": "Rua Santa Cecília",
        "zipcode": "89114-286"
    },
    {
        "city": "Gaspar",
        "state": "SC",
        "district": "Gaspar Grande",
        "street": "Rua Geraldo Claudino dos Santos",
        "zipcode": "89111-288"
    },
    {
        "city": "Gaspar",
        "state": "SC",
        "district": "Gasparinho",
        "street": "Rua Frei Solano",
        "zipcode": "89112-340"
    },
    {
        "city": "Gaspar",
        "state": "SC",
        "district": "Gasparinho",
        "street": "Rua Tosnelda Testoni Bernardo",
        "zipcode": "89112-467"
    },
    {
        "city": "Gaspar",
        "state": "SC",
        "district": "Bateias",
        "street": "Rua Palmiro Lana",
        "zipcode": "89113-100"
    },
    {
        "city": "Gaspar",
        "state": "SC",
        "district": "Santa Terezinha",
        "street": "Rua Vitor Presentino Venturi",
        "zipcode": "89114-370"
    },
    {
        "city": "Gaspar",
        "state": "SC",
        "district": "Santa Terezinha",
        "street": "Rua Angelo Zermiani",
        "zipcode": "89114-448"
    },
    {
        "city": "Gaspar",
        "state": "SC",
        "district": "Santa Terezinha",
        "street": "Rua Hilária Venturi Testoni",
        "zipcode": "89114-463"
    },
    {
        "city": "Gaspar",
        "state": "SC",
        "district": "Santa Terezinha",
        "street": "Rua Paulo Reinert",
        "zipcode": "89114-470"
    },
    {
        "city": "Gaspar",
        "state": "SC",
        "district": "Sete de Setembro",
        "street": "Rua Vereador Gilberto Francisco Sabel",
        "zipcode": "89114-748"
    },
    {
        "city": "Gaspar",
        "state": "SC",
        "district": "Sete de Setembro",
        "street": "Rua Stanke",
        "zipcode": "89114-760"
    },
    {
        "city": "Gaspar",
        "state": "SC",
        "district": "Sete de Setembro",
        "street": "Rua Bernardo Reinert",
        "zipcode": "89114-812"
    },
    {
        "city": "Gaspar",
        "state": "SC",
        "district": "Sete de Setembro",
        "street": "Rua João de Deus Correa",
        "zipcode": "89114-822"
    },
    {
        "city": "Gaspar",
        "state": "SC",
        "district": "Sete de Setembro",
        "street": "Rua Navegantes",
        "zipcode": "89114-836"
    },
    {
        "city": "Gaspar",
        "state": "SC",
        "district": "Sete de Setembro",
        "street": "Rua XV de Novembro",
        "zipcode": "89114-844"
    },
    {
        "city": "Gaspar",
        "state": "SC",
        "district": "Sete de Setembro",
        "street": "Rua Mathilde Berns",
        "zipcode": "89114-860"
    },
    {
        "city": "Gaspar",
        "state": "SC",
        "district": "Sete de Setembro",
        "street": "Rua José Flores Ayroso",
        "zipcode": "89114-868"
    },
    {
        "city": "Gaspar",
        "state": "SC",
        "district": "Sete de Setembro",
        "street": "Rua Bertholdo Bornhausen",
        "zipcode": "89114-888"
    },
    {
        "city": "Gaspar",
        "state": "SC",
        "district": "Sete de Setembro",
        "street": "Rua Nelson Goedert",
        "zipcode": "89115-050"
    },
    {
        "city": "Gaspar",
        "state": "SC",
        "district": "Poço Grande",
        "street": "Rua Francisco Spengler",
        "zipcode": "89115-152"
    },
    {
        "city": "Gaspar",
        "state": "SC",
        "district": "Poço Grande",
        "street": "Rua Silvio Garzewski",
        "zipcode": "89115-154"
    },
    {
        "city": "Gaspar",
        "state": "SC",
        "district": "Poço Grande",
        "street": "Rua Theobaldo Anselmo Sansão",
        "zipcode": "89115-235"
    },
    {
        "city": "Gaspar",
        "state": "SC",
        "district": "Lagoa",
        "street": "Rua Geral Poço Grande",
        "zipcode": "89115-290"
    },
    {
        "city": "Gaspar",
        "state": "SC",
        "district": "Lagoa",
        "street": "Rua Nilton Hostin",
        "zipcode": "89115-305"
    },
    {
        "city": "Gaspar",
        "state": "SC",
        "district": "Lagoa",
        "street": "Rua Geral Poço Grande",
        "zipcode": "89115-395"
    },
    {
        "city": "Gaspar",
        "state": "SC",
        "district": "Lagoa",
        "street": "Rua José Russi",
        "zipcode": "89115-400"
    },
    {
        "city": "Gaspar",
        "state": "SC",
        "district": "Lagoa",
        "street": "Rua Joaquim Alves de Andrade",
        "zipcode": "89115-415"
    },
    {
        "city": "Gaspar",
        "state": "SC",
        "district": "Lagoa",
        "street": "Rua Geral Poço Grande",
        "zipcode": "89115-485"
    },
    {
        "city": "Gaspar",
        "state": "SC",
        "district": "Margem Esquerda",
        "street": "Rua Lagoa Vermelha",
        "zipcode": "89116-580"
    },
    {
        "city": "Gaspar",
        "state": "SC",
        "district": "Margem Esquerda",
        "street": "Rua Penha",
        "zipcode": "89116-592"
    },
    {
        "city": "Gaspar",
        "state": "SC",
        "district": "Margem Esquerda",
        "street": "Rua Chapecó",
        "zipcode": "89116-664"
    },
    {
        "city": "Gaspar",
        "state": "SC",
        "district": "Margem Esquerda",
        "street": "Rua Norma Monica Sabel",
        "zipcode": "89116-668"
    },
    {
        "city": "Gaspar",
        "state": "SC",
        "district": "Margem Esquerda",
        "street": "Rua Niteroi",
        "zipcode": "89116-680"
    },
    {
        "city": "Gaspar",
        "state": "SC",
        "district": "Margem Esquerda",
        "street": "Rua Osvaldo Tamazia",
        "zipcode": "89116-689"
    },
    {
        "city": "Gaspar",
        "state": "SC",
        "district": "Margem Esquerda",
        "street": "Rua Wandelino Francisco Isensee",
        "zipcode": "89116-694"
    },
    {
        "city": "Gaspar",
        "state": "SC",
        "district": "Margem Esquerda",
        "street": "Rua Ermenegildo Trindade",
        "zipcode": "89116-715"
    },
    {
        "city": "Gaspar",
        "state": "SC",
        "district": "Margem Esquerda",
        "street": "Rua Maria Tereza Bernardes Braz",
        "zipcode": "89116-718"
    },
    {
        "city": "Gaspar",
        "state": "SC",
        "district": "Belchior Central",
        "street": "Rua Vandelino Krauss",
        "zipcode": "89117-565"
    },
    {
        "city": "Gaspar",
        "state": "SC",
        "district": "Belchior Central",
        "street": "Rua Artur Mette",
        "zipcode": "89117-645"
    },
    {
        "city": "Gaspar",
        "state": "SC",
        "district": "Belchior Central",
        "street": "Rua Octaviano Marangoni",
        "zipcode": "89117-705"
    },
    {
        "city": "Gaspar",
        "state": "SC",
        "district": "Belchior Central",
        "street": "Rua Marcelino Amaro de Oliveira",
        "zipcode": "89117-725"
    },
    {
        "city": "Gaspar",
        "state": "SC",
        "district": "Belchior Central",
        "street": "Rua Paula Soares",
        "zipcode": "89117-745"
    },
    {
        "city": "Gaspar",
        "state": "SC",
        "district": "Belchior Alto",
        "street": "Rua Aloisio Haendchen",
        "zipcode": "89117-785"
    },
    {
        "city": "Gaspar",
        "state": "SC",
        "district": "Belchior Alto",
        "street": "Rua Maria Cecilia Menschein",
        "zipcode": "89117-815"
    },
    {
        "city": "Gaspar",
        "state": "SC",
        "district": "Belchior Alto",
        "street": "Rua Bonifacio Haendchen",
        "zipcode": "89117-870"
    },
    {
        "city": "Gaspar",
        "state": "SC",
        "district": "Belchior Alto",
        "street": "Rua José Koser",
        "zipcode": "89118-040"
    },
    {
        "city": "Gaspar",
        "state": "SC",
        "district": "Belchior Alto",
        "street": "Rua Celso Theiss",
        "zipcode": "89118-075"
    },
    {
        "city": "Gaspar",
        "state": "SC",
        "district": "Belchior Alto",
        "street": "Rua José Tomazio Oeschler",
        "zipcode": "89118-128"
    },
    {
        "city": "Gaspar",
        "state": "SC",
        "district": "Sete de Setembro",
        "street": "Rua Artur Antonio Schmitt",
        "zipcode": "89115-055"
    },
    {
        "city": "Gaspar",
        "state": "SC",
        "district": "Belchior Alto",
        "street": "Rua Frei Libório Schmitt",
        "zipcode": "89117-820"
    },
    {
        "city": "Gaspar",
        "state": "SC",
        "district": "Santa Terezinha",
        "street": "Rua Alvaro Fernando Wandalen",
        "zipcode": "89114-340"
    },
    {
        "city": "Gaspar",
        "state": "SC",
        "district": "Santa Terezinha",
        "street": "Avenida Luiz Poffo",
        "zipcode": "89114-343"
    },
    {
        "city": "Gaspar",
        "state": "SC",
        "district": "Margem Esquerda",
        "street": "Rua Francisco Lenfers",
        "zipcode": "89116-700"
    },
    {
        "city": "Gaspar",
        "state": "SC",
        "district": "Margem Esquerda",
        "street": "Rua Etvino Ervino Siebert",
        "zipcode": "89116-796"
    },
    {
        "city": "Gaspar",
        "state": "SC",
        "district": "Alto Gasparinho",
        "street": "Rua Henrique Benevenutti",
        "zipcode": "89112-812"
    },
    {
        "city": "Gaspar",
        "state": "SC",
        "district": "Alto Gasparinho",
        "street": "Rua João Bugmann",
        "zipcode": "89112-844"
    },
    {
        "city": "Gaspar",
        "state": "SC",
        "district": "Arraial DOuro",
        "street": "Rua 9 de Agosto",
        "zipcode": "89117-096"
    },
    {
        "city": "Gaspar",
        "state": "SC",
        "district": "Belchior Baixo",
        "street": "Rua Bernardo José Hank",
        "zipcode": "89117-397"
    },
    {
        "city": "Gaspar",
        "state": "SC",
        "district": "Belchior Baixo",
        "street": "Rua Margarida Deschamps",
        "zipcode": "89117-372"
    },
    {
        "city": "Gaspar",
        "state": "SC",
        "district": "Centro",
        "street": "Rua Coronel Aristiliano Ramos 158",
        "zipcode": "89110-970"
    },
    {
        "city": "Gaspar",
        "state": "SC",
        "district": "Gasparino",
        "street": "Rua Frei Solano 284",
        "zipcode": "89110-974"
    },
    {
        "city": "Gaspar",
        "state": "SC",
        "district": "Sete de Setembro",
        "street": "Rua Anna Wan",
        "zipcode": "89115-046"
    },
    {
        "city": "Gaspar",
        "state": "SC",
        "district": "Sete de Setembro",
        "street": "Rua Alfredo Michel",
        "zipcode": "89115-053"
    },
    {
        "city": "Gaspar",
        "state": "SC",
        "district": "Lagoa",
        "street": "Rua Anselmo dos Santos",
        "zipcode": "89115-456"
    },
    {
        "city": "Gaspar",
        "state": "SC",
        "district": "Belchior Alto",
        "street": "Beco Pedro Haendchen",
        "zipcode": "89117-880"
    },
    {
        "city": "Gaspar",
        "state": "SC",
        "district": "Belchior Alto",
        "street": "Rua Ursinus Schmitz",
        "zipcode": "89118-065"
    },
    {
        "city": "Gaspar",
        "state": "SC",
        "district": "Área Rural de Gaspar",
        "street": "Área Rural",
        "zipcode": "89119-899"
    },
    {
        "city": "Gaspar",
        "state": "SC",
        "district": "Figueira",
        "street": "Rua João Izidorio Schramm",
        "zipcode": "89110-554"
    },
    {
        "city": "Gaspar",
        "state": "SC",
        "district": "Figueira",
        "street": "Rua Lidia Schramm",
        "zipcode": "89110-556"
    },
    {
        "city": "Gaspar",
        "state": "SC",
        "district": "Gaspar Grande",
        "street": "Rua João Izidorio Schramm",
        "zipcode": "89111-417"
    },
    {
        "city": "Gaspar",
        "state": "SC",
        "district": "Gaspar Alto",
        "street": "Rua Gregório Schmidt",
        "zipcode": "89111-622"
    },
    {
        "city": "Gaspar",
        "state": "SC",
        "district": "Gaspar Grande",
        "street": "Rua Maria Christina Schnaider Soares",
        "zipcode": "89111-418"
    },
    {
        "city": "Gaspar",
        "state": "SC",
        "district": "Macucos",
        "street": "Rua José Augusto Schramm",
        "zipcode": "89114-495"
    },
    {
        "city": "Gaspar",
        "state": "SC",
        "district": "Margem Esquerda",
        "street": "Rua Carlos Roberto Schramm",
        "zipcode": "89116-740"
    },
    {
        "city": "Gaspar",
        "state": "SC",
        "district": "Belchior Alto",
        "street": "Rua José Schmitt Sobrinho",
        "zipcode": "89117-860"
    },
    {
        "city": "Gaspar",
        "state": "SC",
        "district": "Belchior Alto",
        "street": "Rua João Bernardo Schimitt",
        "zipcode": "89118-020"
    },
    {
        "city": "Gaspar",
        "state": "SC",
        "district": "Figueira",
        "street": "Avenida Hilberto Gaertner",
        "zipcode": "89110-462"
    },
    {
        "city": "Gaspar",
        "state": "SC",
        "district": "Gasparinho",
        "street": "Beco José Francisco da Silva",
        "zipcode": "89112-365"
    },
    {
        "city": "Gaspar",
        "state": "SC",
        "district": "Alto Gasparinho",
        "street": "Rua Alberto Clock",
        "zipcode": "89112-852"
    },
    {
        "city": "Gaspar",
        "state": "SC",
        "district": "Bateias",
        "street": "Rodovia Ivo Silveira",
        "zipcode": "89113-150"
    },
    {
        "city": "Gaspar",
        "state": "SC",
        "district": "Santa Terezinha",
        "street": "Avenida das Comunidades",
        "zipcode": "89114-033"
    },
    {
        "city": "Gaspar",
        "state": "SC",
        "district": "Santa Terezinha",
        "street": "Avenida Roma",
        "zipcode": "89114-285"
    },
    {
        "city": "Gaspar",
        "state": "SC",
        "district": "Santa Terezinha",
        "street": "Rua Albertina Tanholi",
        "zipcode": "89114-321"
    },
    {
        "city": "Gaspar",
        "state": "SC",
        "district": null,
        "street": "Rua Geral",
        "zipcode": "89110-990"
    },
    {
        "city": "Gaspar",
        "state": "SC",
        "district": "Margem Esquerda",
        "street": "Rua Imarui",
        "zipcode": "89116-786"
    },
    {
        "city": "Gaspar",
        "state": "SC",
        "district": "Sete de Setembro",
        "street": "Rua Itajai",
        "zipcode": "89115-900"
    },
    {
        "city": "Gaspar",
        "state": "SC",
        "district": "Sete de Setembro",
        "street": "Rua Prefeito Julio Schramm",
        "zipcode": "89114-900"
    },
    {
        "city": "Gaspar",
        "state": "SC",
        "district": "Sete de Setembro",
        "street": "Rua Barão do Rio Branco",
        "zipcode": "89114-730"
    },
    {
        "city": "Gaspar",
        "state": "SC",
        "district": "Belchior Central",
        "street": "Rua José Antão Soares",
        "zipcode": "89117-555"
    },
    {
        "city": "Gaspar",
        "state": "SC",
        "district": "Belchior Central",
        "street": "Rua Alberto Reinert",
        "zipcode": "89117-550"
    },
    {
        "city": "Gaspar",
        "state": "SC",
        "district": "Belchior Central",
        "street": "Rua Bonifacio Haendchen",
        "zipcode": "89117-545"
    },
    {
        "city": "Gaspar",
        "state": "SC",
        "district": "Belchior Central",
        "street": "Rodovia Ingo Hering",
        "zipcode": "89117-540"
    },
    {
        "city": "Gaspar",
        "state": "SC",
        "district": "Belchior Baixo",
        "street": "Rua Carlos Roberto Schramm",
        "zipcode": "89117-450"
    },
    {
        "city": "Gaspar",
        "state": "SC",
        "district": "Poço Grande",
        "street": "Rodovia Jorge Lacerda",
        "zipcode": "89115-901"
    },
    {
        "city": "Gaspar",
        "state": "SC",
        "district": "Sete de Setembro",
        "street": "Rua Prefeito Julio Schramm",
        "zipcode": "89114-738"
    },
    {
        "city": "Gaspar",
        "state": "SC",
        "district": "Sete de Setembro",
        "street": "Rua Arnoldo Bernadino de Souza",
        "zipcode": "89114-762"
    },
    {
        "city": "Gaspar",
        "state": "SC",
        "district": "Sete de Setembro",
        "street": "Rua Alberto Pedro Reinert",
        "zipcode": "89114-785"
    },
    {
        "city": "Gaspar",
        "state": "SC",
        "district": "Sete de Setembro",
        "street": "Rua Angelina Motter",
        "zipcode": "89114-805"
    },
    {
        "city": "Gaspar",
        "state": "SC",
        "district": "Sete de Setembro",
        "street": "Rua Augusto Debortoli",
        "zipcode": "89114-830"
    },
    {
        "city": "Gaspar",
        "state": "SC",
        "district": "Sete de Setembro",
        "street": "Rua Belo Horizonte",
        "zipcode": "89114-834"
    },
    {
        "city": "Gaspar",
        "state": "SC",
        "district": "Sete de Setembro",
        "street": "Rua Benedito Bernz",
        "zipcode": "89114-846"
    },
    {
        "city": "Gaspar",
        "state": "SC",
        "district": "Sete de Setembro",
        "street": "Rua Angelina Muller",
        "zipcode": "89114-874"
    },
    {
        "city": "Gaspar",
        "state": "SC",
        "district": "Sete de Setembro",
        "street": "Beco Pamplona",
        "zipcode": "89114-876"
    },
    {
        "city": "Gaspar",
        "state": "SC",
        "district": "Sete de Setembro",
        "street": "Rua Adolfo Wehmuth",
        "zipcode": "89115-015"
    },
    {
        "city": "Gaspar",
        "state": "SC",
        "district": "Sete de Setembro",
        "street": "Rua Agronômica",
        "zipcode": "89115-020"
    },
    {
        "city": "Gaspar",
        "state": "SC",
        "district": "Poço Grande",
        "street": "Avenida Deputado Francisco Mastella",
        "zipcode": "89115-090"
    },
    {
        "city": "Gaspar",
        "state": "SC",
        "district": "Poço Grande",
        "street": "Rua Agostinho de Oliveira",
        "zipcode": "89115-095"
    },
    {
        "city": "Gaspar",
        "state": "SC",
        "district": "Poço Grande",
        "street": "Rodovia Jorge Lacerda",
        "zipcode": "89115-100"
    },
    {
        "city": "Gaspar",
        "state": "SC",
        "district": "Poço Grande",
        "street": "Rua Ambrosio Spengler",
        "zipcode": "89115-166"
    },
    {
        "city": "Gaspar",
        "state": "SC",
        "district": "Poço Grande",
        "street": "Rua Pedro Schmitt Junior",
        "zipcode": "89115-210"
    },
    {
        "city": "Gaspar",
        "state": "SC",
        "district": "Poço Grande",
        "street": "Rodovia Jorge Lacerda",
        "zipcode": "89115-285"
    },
    {
        "city": "Gaspar",
        "state": "SC",
        "district": "Lagoa",
        "street": "Rodovia Ingo Hering",
        "zipcode": "89115-330"
    },
    {
        "city": "Gaspar",
        "state": "SC",
        "district": "Lagoa",
        "street": "Rua Bruno de Souza",
        "zipcode": "89115-445"
    },
    {
        "city": "Gaspar",
        "state": "SC",
        "district": "Lagoa",
        "street": "Rua Carlos Oneda",
        "zipcode": "89115-460"
    },
    {
        "city": "Gaspar",
        "state": "SC",
        "district": "Lagoa",
        "street": "Rua Almirante Tamandaré",
        "zipcode": "89115-470"
    },
    {
        "city": "Gaspar",
        "state": "SC",
        "district": "Lagoa",
        "street": "Rua Alfredo Nicolao da Silva",
        "zipcode": "89115-475"
    },
    {
        "city": "Gaspar",
        "state": "SC",
        "district": "Lagoa",
        "street": "Rua Bernardino de Souza",
        "zipcode": "89115-480"
    },
    {
        "city": "Gaspar",
        "state": "SC",
        "district": "Margem Esquerda",
        "street": "Rua Arnoldo Simon",
        "zipcode": "89116-535"
    },
    {
        "city": "Gaspar",
        "state": "SC",
        "district": "Margem Esquerda",
        "street": "Rua Antonio Zendron",
        "zipcode": "89116-566"
    },
    {
        "city": "Gaspar",
        "state": "SC",
        "district": "Margem Esquerda",
        "street": "Rua Adriana Muller",
        "zipcode": "89116-572"
    },
    {
        "city": "Gaspar",
        "state": "SC",
        "district": "Margem Esquerda",
        "street": "Rua Amaro Muller",
        "zipcode": "89116-656"
    },
    {
        "city": "Gaspar",
        "state": "SC",
        "district": "Margem Esquerda",
        "street": "Rua Criciuma",
        "zipcode": "89116-666"
    },
    {
        "city": "Gaspar",
        "state": "SC",
        "district": "Margem Esquerda",
        "street": "Rua Augusto Becker",
        "zipcode": "89116-672"
    },
    {
        "city": "Gaspar",
        "state": "SC",
        "district": "Margem Esquerda",
        "street": "Rua Antonio Augusto Isensee",
        "zipcode": "89116-688"
    },
    {
        "city": "Gaspar",
        "state": "SC",
        "district": "Margem Esquerda",
        "street": "Rua Bernardo Matias Junges",
        "zipcode": "89116-692"
    },
    {
        "city": "Gaspar",
        "state": "SC",
        "district": "Margem Esquerda",
        "street": "Rua Diogo Teodoro Pereira",
        "zipcode": "89116-706"
    },
    {
        "city": "Gaspar",
        "state": "SC",
        "district": "Margem Esquerda",
        "street": "Rua das Palmeiras",
        "zipcode": "89116-770"
    },
    {
        "city": "Gaspar",
        "state": "SC",
        "district": "Margem Esquerda",
        "street": "Rua Bom Jardim",
        "zipcode": "89116-772"
    },
    {
        "city": "Gaspar",
        "state": "SC",
        "district": "Sete de Setembro",
        "street": "Rua Antonio Sansão",
        "zipcode": "89114-850"
    },
    {
        "city": "Gaspar",
        "state": "SC",
        "district": "Sete de Setembro",
        "street": "Rua Industrial Leopoldo Schmalz",
        "zipcode": "89114-742"
    },
    {
        "city": "Gaspar",
        "state": "SC",
        "district": "Sete de Setembro",
        "street": "Rua Ignes Hilaria Schneider",
        "zipcode": "89114-854"
    },
    {
        "city": "Gaspar",
        "state": "SC",
        "district": "Sete de Setembro",
        "street": "Rua Cecilia Joana Schneider Krauss",
        "zipcode": "89114-880"
    },
    {
        "city": "Gaspar",
        "state": "SC",
        "district": "Sete de Setembro",
        "street": "Rua José Schwartz",
        "zipcode": "89114-886"
    },
    {
        "city": "Gaspar",
        "state": "SC",
        "district": "Poço Grande",
        "street": "Rua João Maria Scheidt",
        "zipcode": "89115-205"
    },
    {
        "city": "Gaspar",
        "state": "SC",
        "district": "Poço Grande",
        "street": "Rua Leonardo Pedro Schmitt",
        "zipcode": "89115-230"
    },
    {
        "city": "Gaspar",
        "state": "SC",
        "district": "Poço Grande",
        "street": "Rua Oswaldo Matias Schmitt",
        "zipcode": "89115-158"
    },
    {
        "city": "Gaspar",
        "state": "SC",
        "district": null,
        "street": null,
        "zipcode": "89110-000"
    },
    {
        "city": "Gaspar",
        "state": "SC",
        "district": "Macucos",
        "street": "Rua Oswaldo Spengler",
        "zipcode": "89114-575"
    },
    {
        "city": "Gaspar",
        "state": "SC",
        "district": "Santa Terezinha",
        "street": "Rua Arco",
        "zipcode": "89114-176"
    },
    {
        "city": "Gaspar",
        "state": "SC",
        "district": "Santa Terezinha",
        "street": "Rua Augusto Krauss",
        "zipcode": "89114-194"
    },
    {
        "city": "Gaspar",
        "state": "SC",
        "district": "Santa Terezinha",
        "street": "Avenida Frei Godofredo",
        "zipcode": "89114-294"
    },
    {
        "city": "Gaspar",
        "state": "SC",
        "district": "Santa Terezinha",
        "street": "Avenida Deputado Francisco Mastella",
        "zipcode": "89114-073"
    },
    {
        "city": "Gaspar",
        "state": "SC",
        "district": "Santa Terezinha",
        "street": "Avenida Frei Godofredo",
        "zipcode": "89114-440"
    },
    {
        "city": "Gaspar",
        "state": "SC",
        "district": "Macucos",
        "street": "Rua José Censi",
        "zipcode": "89114-490"
    },
    {
        "city": "Gaspar",
        "state": "SC",
        "district": "Barracão",
        "street": "Rua João Schwartz",
        "zipcode": "89113-490"
    },
    {
        "city": "Gaspar",
        "state": "SC",
        "district": "Santa Terezinha",
        "street": "Rua José Rafael Schmitt",
        "zipcode": "89114-036"
    },
    {
        "city": "Gaspar",
        "state": "SC",
        "district": "Santa Terezinha",
        "street": "Rua Libório Jose Schmitt",
        "zipcode": "89114-088"
    },
    {
        "city": "Gaspar",
        "state": "SC",
        "district": "Santa Terezinha",
        "street": "Rua Artur Schneider",
        "zipcode": "89114-160"
    },
    {
        "city": "Gaspar",
        "state": "SC",
        "district": "Santa Terezinha",
        "street": "Rua Anna Schmitt Deschamps",
        "zipcode": "89114-252"
    },
    {
        "city": "Gaspar",
        "state": "SC",
        "district": "Santa Terezinha",
        "street": "Rua Lauro Schneider",
        "zipcode": "89114-270"
    },
    {
        "city": "Gaspar",
        "state": "SC",
        "district": "Santa Terezinha",
        "street": "Rua Crescencio Pedro Schneider",
        "zipcode": "89114-276"
    },
    {
        "city": "Gaspar",
        "state": "SC",
        "district": "Santa Terezinha",
        "street": "Rua Francisco Nicolau Schmitt",
        "zipcode": "89114-364"
    },
    {
        "city": "Gaspar",
        "state": "SC",
        "district": "Santa Terezinha",
        "street": "Rua Carlos Schmitt",
        "zipcode": "89114-380"
    },
    {
        "city": "Gaspar",
        "state": "SC",
        "district": "Santa Terezinha",
        "street": "Rua Francisco Schmitt",
        "zipcode": "89114-385"
    },
    {
        "city": "Gaspar",
        "state": "SC",
        "district": "Santa Terezinha",
        "street": "Rua Jacob Lucas Schmitt",
        "zipcode": "89114-390"
    },
    {
        "city": "Gaspar",
        "state": "SC",
        "district": "Santa Terezinha",
        "street": "Rua Gentile Schmitt",
        "zipcode": "89114-395"
    },
    {
        "city": "Gaspar",
        "state": "SC",
        "district": "Santa Terezinha",
        "street": "Rua Ida Scottini",
        "zipcode": "89114-462"
    },
    {
        "city": "Gaspar",
        "state": "SC",
        "district": "Santa Terezinha",
        "street": "Rua José Scottini",
        "zipcode": "89114-464"
    },
    {
        "city": "Gaspar",
        "state": "SC",
        "district": "Macucos",
        "street": "Rua Leonardo Pedro Schmitt",
        "zipcode": "89114-480"
    },
    {
        "city": "Gaspar",
        "state": "SC",
        "district": "Santa Terezinha",
        "street": "Rua João Scottini",
        "zipcode": "89114-460"
    },
    {
        "city": "Gaspar",
        "state": "SC",
        "district": "Macucos",
        "street": "Rua Bertoldo Schmitt",
        "zipcode": "89114-530"
    },
    {
        "city": "Gaspar",
        "state": "SC",
        "district": "Gasparinho",
        "street": "Rua Alertino Bonifacio Hostin",
        "zipcode": "89112-425"
    },
    {
        "city": "Gaspar",
        "state": "SC",
        "district": "Gasparinho",
        "street": "Rua Anthero João de Oliveira",
        "zipcode": "89112-465"
    },
    {
        "city": "Gaspar",
        "state": "SC",
        "district": "Gaspar Mirim",
        "street": "Rua Ana Venturi",
        "zipcode": "89112-620"
    },
    {
        "city": "Gaspar",
        "state": "SC",
        "district": "Gaspar Mirim",
        "street": "Rua Arno Zimmermann",
        "zipcode": "89112-672"
    },
    {
        "city": "Gaspar",
        "state": "SC",
        "district": "Barracão",
        "street": "Rodovia Ivo Silveira",
        "zipcode": "89113-250"
    },
    {
        "city": "Gaspar",
        "state": "SC",
        "district": "Barracão",
        "street": "Rua Aleixo Chiminelli",
        "zipcode": "89113-346"
    },
    {
        "city": "Gaspar",
        "state": "SC",
        "district": "Barracão",
        "street": "Rua Antonio Pedrini",
        "zipcode": "89113-425"
    },
    {
        "city": "Gaspar",
        "state": "SC",
        "district": "Barracão",
        "street": "Rua Altair Paulo",
        "zipcode": "89113-548"
    },
    {
        "city": "Gaspar",
        "state": "SC",
        "district": "Santa Terezinha",
        "street": "Rua Alessandro Amorim da Silva",
        "zipcode": "89114-048"
    },
    {
        "city": "Gaspar",
        "state": "SC",
        "district": "Santa Terezinha",
        "street": "Avenida Frei Godofredo",
        "zipcode": "89114-070"
    },
    {
        "city": "Gaspar",
        "state": "SC",
        "district": "Santa Terezinha",
        "street": "Avenida Frei Godofredo",
        "zipcode": "89114-130"
    },
    {
        "city": "Gaspar",
        "state": "SC",
        "district": "Santa Terezinha",
        "street": "Rua Paulo Bernardo Schmitt",
        "zipcode": "89114-206"
    },
    {
        "city": "Gaspar",
        "state": "SC",
        "district": "Santa Terezinha",
        "street": "Rua Angelo Moser",
        "zipcode": "89114-228"
    },
    {
        "city": "Gaspar",
        "state": "SC",
        "district": "Santa Terezinha",
        "street": "Rua Alberto Francisco Junkes",
        "zipcode": "89114-238"
    },
    {
        "city": "Gaspar",
        "state": "SC",
        "district": "Santa Terezinha",
        "street": "Avenida Construtor Augusto Vitorio Deschamps",
        "zipcode": "89114-248"
    },
    {
        "city": "Gaspar",
        "state": "SC",
        "district": "Santa Terezinha",
        "street": "Rua Aloysio Victorio Deschamps",
        "zipcode": "89114-250"
    },
    {
        "city": "Gaspar",
        "state": "SC",
        "district": "Santa Terezinha",
        "street": "Beco Henrique Plucenio",
        "zipcode": "89114-254"
    },
    {
        "city": "Gaspar",
        "state": "SC",
        "district": "Santa Terezinha",
        "street": "Avenida Frei Godofredo",
        "zipcode": "89114-310"
    },
    {
        "city": "Gaspar",
        "state": "SC",
        "district": "Gasparinho",
        "street": "Rua da Santinha",
        "zipcode": "89112-460"
    },
    {
        "city": "Gaspar",
        "state": "SC",
        "district": "Gaspar Mirim",
        "street": "Rua Cesar Junior Krauss",
        "zipcode": "89112-615"
    },
    {
        "city": "Gaspar",
        "state": "SC",
        "district": "Gaspar Mirim",
        "street": "Rua Cid Pamplona",
        "zipcode": "89112-678"
    },
    {
        "city": "Gaspar",
        "state": "SC",
        "district": "Barracão",
        "street": "Rua Barracão",
        "zipcode": "89113-271"
    },
    {
        "city": "Gaspar",
        "state": "SC",
        "district": "Barracão",
        "street": "Rua Bernardo Testoni",
        "zipcode": "89113-310"
    },
    {
        "city": "Gaspar",
        "state": "SC",
        "district": "Santa Terezinha",
        "street": "Rua Barão do Rio Branco",
        "zipcode": "89114-030"
    },
    {
        "city": "Gaspar",
        "state": "SC",
        "district": "Santa Terezinha",
        "street": "Rua Barão do Rio Branco",
        "zipcode": "89114-139"
    },
    {
        "city": "Gaspar",
        "state": "SC",
        "district": "Santa Terezinha",
        "street": "Rua Brasil",
        "zipcode": "89114-154"
    },
    {
        "city": "Gaspar",
        "state": "SC",
        "district": "Santa Terezinha",
        "street": "Rua Barão do Rio Branco",
        "zipcode": "89114-230"
    },
    {
        "city": "Gaspar",
        "state": "SC",
        "district": "Santa Terezinha",
        "street": "Rua Belarmino João da Silva",
        "zipcode": "89114-264"
    },
    {
        "city": "Gaspar",
        "state": "SC",
        "district": "Alto Gasparinho",
        "street": "Rua João Mathias Zimmermann",
        "zipcode": "89112-900"
    },
    {
        "city": "Gaspar",
        "state": "SC",
        "district": "Bela Vista",
        "street": "Rua Anfiloquio Nunes Pires",
        "zipcode": "89111-900"
    },
    {
        "city": "Gaspar",
        "state": "SC",
        "district": "Coloninha",
        "street": "Rua Doutor Nereu Ramos",
        "zipcode": "89110-902"
    },
    {
        "city": "Gaspar",
        "state": "SC",
        "district": "Centro",
        "street": "Rua Augusto Beduschi",
        "zipcode": "89110-901"
    },
    {
        "city": "Gaspar",
        "state": "SC",
        "district": "Centro",
        "street": "Rua Coronel Aristiliano Ramos",
        "zipcode": "89110-900"
    },
    {
        "city": "Gaspar",
        "state": "SC",
        "district": "Bela Vista",
        "street": "Rua Antonio Walfredo do Nascimento",
        "zipcode": "89111-130"
    },
    {
        "city": "Gaspar",
        "state": "SC",
        "district": "Gaspar Mirim",
        "street": "Rua Fernando Krauss",
        "zipcode": "89112-610"
    },
    {
        "city": "Gaspar",
        "state": "SC",
        "district": "Bela Vista",
        "street": "Rua Clara Schmitz",
        "zipcode": "89110-774"
    },
    {
        "city": "Gaspar",
        "state": "SC",
        "district": "Bela Vista",
        "street": "Rua João José Schmitz",
        "zipcode": "89110-826"
    },
    {
        "city": "Gaspar",
        "state": "SC",
        "district": "Bela Vista",
        "street": "Rua Bruno Rodolfo Schaper",
        "zipcode": "89111-021"
    },
    {
        "city": "Gaspar",
        "state": "SC",
        "district": "Bela Vista",
        "street": "Rua José Augusto Schapper",
        "zipcode": "89111-134"
    },
    {
        "city": "Gaspar",
        "state": "SC",
        "district": "Gaspar Grande",
        "street": "Rua Reinaldo Schramm",
        "zipcode": "89111-282"
    },
    {
        "city": "Gaspar",
        "state": "SC",
        "district": "Gasparinho",
        "street": "Rua Alfredo Schramm",
        "zipcode": "89112-036"
    },
    {
        "city": "Gaspar",
        "state": "SC",
        "district": "Gasparinho",
        "street": "Rua Leopoldo Alberto Schramm",
        "zipcode": "89112-039"
    },
    {
        "city": "Gaspar",
        "state": "SC",
        "district": "Gasparinho",
        "street": "Rua Walter Schnaider",
        "zipcode": "89112-057"
    },
    {
        "city": "Gaspar",
        "state": "SC",
        "district": "Gasparinho",
        "street": "Rua Erasmo Luiz Schramm",
        "zipcode": "89112-085"
    },
    {
        "city": "Gaspar",
        "state": "SC",
        "district": "Gasparinho",
        "street": "Rua Paula Schramm",
        "zipcode": "89112-090"
    },
    {
        "city": "Gaspar",
        "state": "SC",
        "district": "Gasparinho",
        "street": "Rua Benedito Miguel Schramm",
        "zipcode": "89112-255"
    },
    {
        "city": "Gaspar",
        "state": "SC",
        "district": "Coloninha",
        "street": "Rua Alfonso Eberhardt",
        "zipcode": "89110-188"
    },
    {
        "city": "Gaspar",
        "state": "SC",
        "district": "Coloninha",
        "street": "Rua Alicio Hugo Hostins",
        "zipcode": "89110-215"
    },
    {
        "city": "Gaspar",
        "state": "SC",
        "district": "Coloninha",
        "street": "Rua Arnoldo Koch",
        "zipcode": "89110-250"
    },
    {
        "city": "Gaspar",
        "state": "SC",
        "district": "Figueira",
        "street": "Rua Anfiloquio Nunes Pires",
        "zipcode": "89110-608"
    },
    {
        "city": "Gaspar",
        "state": "SC",
        "district": "Bela Vista",
        "street": "Rua Anfiloquio Nunes Pires",
        "zipcode": "89110-640"
    },
    {
        "city": "Gaspar",
        "state": "SC",
        "district": "Bela Vista",
        "street": "Rua Antonio Moser",
        "zipcode": "89110-694"
    },
    {
        "city": "Gaspar",
        "state": "SC",
        "district": "Bela Vista",
        "street": "Rua Angela Maria Hostert",
        "zipcode": "89110-706"
    },
    {
        "city": "Gaspar",
        "state": "SC",
        "district": "Bela Vista",
        "street": "Rua Amazonas",
        "zipcode": "89110-798"
    },
    {
        "city": "Gaspar",
        "state": "SC",
        "district": "Bela Vista",
        "street": "Rua Adriano Kormann",
        "zipcode": "89111-009"
    },
    {
        "city": "Gaspar",
        "state": "SC",
        "district": "Bela Vista",
        "street": "Rua Aracaju",
        "zipcode": "89111-066"
    },
    {
        "city": "Gaspar",
        "state": "SC",
        "district": "Bela Vista",
        "street": "Rua Anfiloquio Nunes Pires",
        "zipcode": "89111-081"
    },
    {
        "city": "Gaspar",
        "state": "SC",
        "district": "Bela Vista",
        "street": "Rua Anfiloquio Nunes Pires",
        "zipcode": "89111-090"
    },
    {
        "city": "Gaspar",
        "state": "SC",
        "district": "Bela Vista",
        "street": "Rua Alvorada",
        "zipcode": "89111-138"
    },
    {
        "city": "Gaspar",
        "state": "SC",
        "district": "Gaspar Grande",
        "street": "Rua Antonio Francisco de Carvalho",
        "zipcode": "89111-330"
    },
    {
        "city": "Gaspar",
        "state": "SC",
        "district": "Gaspar Grande",
        "street": "Rua Alino Prospero de Aguiar",
        "zipcode": "89111-405"
    },
    {
        "city": "Gaspar",
        "state": "SC",
        "district": "Gaspar Grande",
        "street": "Estrada Geral Gaspar Grande",
        "zipcode": "89111-420"
    },
    {
        "city": "Gaspar",
        "state": "SC",
        "district": "Gaspar Grande",
        "street": "Estrada Geral Gaspar Grande",
        "zipcode": "89111-430"
    },
    {
        "city": "Gaspar",
        "state": "SC",
        "district": "Gasparinho",
        "street": "Rua Afonso Becker",
        "zipcode": "89112-130"
    },
    {
        "city": "Gaspar",
        "state": "SC",
        "district": "Gasparinho",
        "street": "Rua Alfredo Sansão",
        "zipcode": "89112-160"
    },
    {
        "city": "Gaspar",
        "state": "SC",
        "district": "Gaspar Mirim",
        "street": "Rua Antonio João de Oliveira",
        "zipcode": "89112-775"
    },
    {
        "city": "Gaspar",
        "state": "SC",
        "district": "Alto Gasparinho",
        "street": "Rodovia Ivo Silveira",
        "zipcode": "89112-830"
    },
    {
        "city": "Gaspar",
        "state": "SC",
        "district": "Bateias",
        "street": "Rodovia Ivo Silveira",
        "zipcode": "89113-040"
    },
    {
        "city": "Gaspar",
        "state": "SC",
        "district": "Bateias",
        "street": "Rua Angelo Dalsochio",
        "zipcode": "89113-170"
    },
    {
        "city": "Gaspar",
        "state": "SC",
        "district": "Bateias",
        "street": "Rua Antonio Bernardi",
        "zipcode": "89113-200"
    },
    {
        "city": "Gaspar",
        "state": "SC",
        "district": "Gaspar Grande",
        "street": "Estrada Geral da Garuba",
        "zipcode": "89111-415"
    },
    {
        "city": "Gaspar",
        "state": "SC",
        "district": "Gaspar Alto",
        "street": "Estrada Geral Gaspar Alto",
        "zipcode": "89111-620"
    },
    {
        "city": "Gaspar",
        "state": "SC",
        "district": "Coloninha",
        "street": "Rua Ervin Wolfran",
        "zipcode": "89110-286"
    },
    {
        "city": "Gaspar",
        "state": "SC",
        "district": "Bela Vista",
        "street": "Rua Boa Vista",
        "zipcode": "89111-033"
    },
    {
        "city": "Gaspar",
        "state": "SC",
        "district": "Bela Vista",
        "street": "Rua Bom Retiro",
        "zipcode": "89111-142"
    },
    {
        "city": "Gaspar",
        "state": "SC",
        "district": "Bateias",
        "street": "Rua Euclides Berti",
        "zipcode": "89113-085"
    },
    {
        "city": "Gaspar",
        "state": "SC",
        "district": null,
        "street": "Rua Itália",
        "zipcode": "89110-993"
    },
    {
        "city": "Gaspar",
        "state": "SC",
        "district": null,
        "street": "Rua Itália",
        "zipcode": "89110-994"
    },
    {
        "city": "Gaspar",
        "state": "SC",
        "district": "Centro",
        "street": "Rua Augusto Beduschi",
        "zipcode": "89110-070"
    },
    {
        "city": "Gaspar",
        "state": "SC",
        "district": "Figueira",
        "street": "Rua Cerena Dellandrea",
        "zipcode": "89110-514"
    },
    {
        "city": "Gaspar",
        "state": "SC",
        "district": "Margem Esquerda",
        "street": "Rua Clovis Morais Santos",
        "zipcode": "89116-619"
    },
    {
        "city": "Gaspar",
        "state": "SC",
        "district": "Centro",
        "street": "Rua Arnoldo Schramm",
        "zipcode": "89110-097"
    },
    {
        "city": "Gaspar",
        "state": "SC",
        "district": "Centro",
        "street": "Rua Catarina Kammer Schramm",
        "zipcode": "89110-100"
    },
    {
        "city": "Gaspar",
        "state": "SC",
        "district": "Coloninha",
        "street": "Rua Adelina Schramm",
        "zipcode": "89110-146"
    },
    {
        "city": "Gaspar",
        "state": "SC",
        "district": "Figueira",
        "street": "Rua Antonio Frederico Schramm",
        "zipcode": "89110-388"
    },
    {
        "city": "Gaspar",
        "state": "SC",
        "district": "Figueira",
        "street": "Rua Francisco Silvério Scheidt",
        "zipcode": "89110-446"
    },
    {
        "city": "Gaspar",
        "state": "SC",
        "district": "Figueira",
        "street": "Rua Adolfo Schiller",
        "zipcode": "89110-516"
    },
    {
        "city": "Gaspar",
        "state": "SC",
        "district": "Centro",
        "street": "Rua Antonio Conceiçao",
        "zipcode": "89110-049"
    },
    {
        "city": "Gaspar",
        "state": "SC",
        "district": "Centro",
        "street": "Rua Alfredo Kostetzer",
        "zipcode": "89110-076"
    },
    {
        "city": "Gaspar",
        "state": "SC",
        "district": "Centro",
        "street": "Avenida das Comunidades",
        "zipcode": "89110-085"
    },
    {
        "city": "Gaspar",
        "state": "SC",
        "district": "Centro",
        "street": "Rua Antonio de Souza e Silva",
        "zipcode": "89110-088"
    },
    {
        "city": "Gaspar",
        "state": "SC",
        "district": "Centro",
        "street": "Rua Arno Correia",
        "zipcode": "89110-094"
    },
    {
        "city": "Gaspar",
        "state": "SC",
        "district": "Coloninha",
        "street": "Rua Rosa Schramm",
        "zipcode": "89110-116"
    },
    {
        "city": "Gaspar",
        "state": "SC",
        "district": "Figueira",
        "street": "Rua Anfiloquio Nunes Pires",
        "zipcode": "89110-350"
    },
    {
        "city": "Gaspar",
        "state": "SC",
        "district": "Figueira",
        "street": "Rua Anfiloquio Nunes Pires",
        "zipcode": "89110-352"
    },
    {
        "city": "Gaspar",
        "state": "SC",
        "district": "Figueira",
        "street": "Rua Antonino Pamplona",
        "zipcode": "89110-376"
    },
    {
        "city": "Gaspar",
        "state": "SC",
        "district": "Figueira",
        "street": "Estrada Geral Aguas Negras",
        "zipcode": "89110-526"
    },
    {
        "city": "Gaspar",
        "state": "SC",
        "district": "Barracão",
        "street": "Rua Amadio Beduschi",
        "zipcode": "89113-460"
    },
    {
        "city": "Gaspar",
        "state": "SC",
        "district": "Santa Terezinha",
        "street": "Rua Ademir Paulo Krauss",
        "zipcode": "89114-202"
    },
    {
        "city": "Gaspar",
        "state": "SC",
        "district": "Santa Terezinha",
        "street": "Rua Sylvio Scottini",
        "zipcode": "89114-282"
    },
    {
        "city": "Gaspar",
        "state": "SC",
        "district": "Centro",
        "street": "Rua Coronel Aristiliano Ramos",
        "zipcode": "89110-064"
    },
    {
        "city": "Gaspar",
        "state": "SC",
        "district": "Centro",
        "street": "Rua Coronel Aristiliano Ramos",
        "zipcode": "89110-067"
    },
    {
        "city": "Gaspar",
        "state": "SC",
        "district": "Coloninha",
        "street": "Rua Dom Daniel Hostins",
        "zipcode": "89110-158"
    },
    {
        "city": "Gaspar",
        "state": "SC",
        "district": "Figueira",
        "street": "Rua Cecilia Lucia Eberhardt",
        "zipcode": "89110-379"
    },
    {
        "city": "Gaspar",
        "state": "SC",
        "district": "Figueira",
        "street": "Rua Daniel Zabel",
        "zipcode": "89110-438"
    },
    {
        "city": "Gaspar",
        "state": "SC",
        "district": "Figueira",
        "street": "Rua Dionisio Moser",
        "zipcode": "89110-512"
    },
    {
        "city": "Gaspar",
        "state": "SC",
        "district": "Figueira",
        "street": "Rua Ezequiel Anacleto Cardoso",
        "zipcode": "89110-528"
    },
    {
        "city": "Gaspar",
        "state": "SC",
        "district": "Macucos",
        "street": "Rua Manoel Pereira",
        "zipcode": "89114-580"
    },
    {
        "city": "Gaspar",
        "state": "SC",
        "district": "Coloninha",
        "street": "Rua Heinrich Gorisch",
        "zipcode": "89110-256"
    },
    {
        "city": "Gaspar",
        "state": "SC",
        "district": "Santa Terezinha",
        "street": "Rua Cantidio Machado",
        "zipcode": "89114-280"
    },
    {
        "city": "Gaspar",
        "state": "SC",
        "district": "Centro",
        "street": "Rua Narciso Poffo",
        "zipcode": "89110-040"
    },
    {
        "city": "Gaspar",
        "state": "SC",
        "district": "Centro",
        "street": "Rua Emma Reinert",
        "zipcode": "89110-022"
    },
    {
        "city": "Gaspar",
        "state": "SC",
        "district": "Santa Terezinha",
        "street": "Rua Gemma Poffo",
        "zipcode": "89114-375"
    },
    {
        "city": "Gaspar",
        "state": "SC",
        "district": "Lagoa",
        "street": "Rua Olga Zuchi",
        "zipcode": "89115-530"
    },
    {
        "city": "Gaspar",
        "state": "SC",
        "district": "Centro",
        "street": "Rua Adão Schmitt",
        "zipcode": "89110-004"
    },
    {
        "city": "Gaspar",
        "state": "SC",
        "district": "Centro",
        "street": "Rua Antonio Pedro Schmitt",
        "zipcode": "89110-007"
    },
    {
        "city": "Gaspar",
        "state": "SC",
        "district": "Centro",
        "street": "Rua Alberto Serafim Schmitt",
        "zipcode": "89110-019"
    },
    {
        "city": "Gaspar",
        "state": "SC",
        "district": "Centro",
        "street": "Rua Augusto Jacinto dos Santos",
        "zipcode": "89110-031"
    },
    {
        "city": "Gaspar",
        "state": "SC",
        "district": "Centro",
        "street": "Rua Doralicio Garcia",
        "zipcode": "89110-013"
    },
    {
        "city": "Gaspar",
        "state": "SC",
        "district": "Centro",
        "street": "Rua Jerônimo Elias Albanaz",
        "zipcode": "89110-028"
    },
    {
        "city": "Gaspar",
        "state": "SC",
        "district": "Centro",
        "street": "Rua Paulo Baldo",
        "zipcode": "89110-025"
    },
    {
        "city": "Gaspar",
        "state": "SC",
        "district": "Gaspar Mirim",
        "street": "Rua Maria Gonçalves",
        "zipcode": "89112-540"
    },
    {
        "city": "Gaspar",
        "state": "SC",
        "district": "Centro",
        "street": "Rua São José",
        "zipcode": "89110-010"
    },
    {
        "city": "Gaspar",
        "state": "SC",
        "district": "Arraial DOuro",
        "street": "Rua Pedro Francisco dos Santos",
        "zipcode": "89117-094"
    },
    {
        "city": "Gaspar",
        "state": "SC",
        "district": "Arraial DOuro",
        "street": "Rua Filadélfia",
        "zipcode": "89117-090"
    },
    {
        "city": "Gaspar",
        "state": "SC",
        "district": "Coloninha",
        "street": "Rua Indaial",
        "zipcode": "89110-333"
    },
    {
        "city": "Gaspar",
        "state": "SC",
        "district": "Bela Vista",
        "street": "Rua Ceará",
        "zipcode": "89110-822"
    },
    {
        "city": "Gaspar",
        "state": "SC",
        "district": "Sete de Setembro",
        "street": "Rua Blumenau",
        "zipcode": "89115-025"
    },
    {
        "city": "Gaspar",
        "state": "SC",
        "district": "Belchior Baixo",
        "street": "Rua João José Deschamps",
        "zipcode": "89117-500"
    },
    {
        "city": "Gaspar",
        "state": "SC",
        "district": "Belchior Baixo",
        "street": "Rua Bonifacio Carlos Dechamps",
        "zipcode": "89117-370"
    },
    {
        "city": "Gaspar",
        "state": "SC",
        "district": "Arraial DOuro",
        "street": "Rua Antonio Francisco dos Santos",
        "zipcode": "89117-110"
    },
    {
        "city": "Gaspar",
        "state": "SC",
        "district": "Margem Esquerda",
        "street": "Rua Albertina Maba",
        "zipcode": "89116-805"
    },
    {
        "city": "Gaspar",
        "state": "SC",
        "district": "Arraial DOuro",
        "street": "Rua Pedro Rohling",
        "zipcode": "89117-088"
    },
    {
        "city": "Gaspar",
        "state": "SC",
        "district": "Sete de Setembro",
        "street": "Avenida Deputado Francisco Mastella",
        "zipcode": "89114-732"
    },
    {
        "city": "Gaspar",
        "state": "SC",
        "district": "Belchior Alto",
        "street": "Rua Bonifacio Haendchen",
        "zipcode": "89117-970"
    },
    {
        "city": "Gaspar",
        "state": "SC",
        "district": "Macucos",
        "street": "Rua Ernesto Censi",
        "zipcode": "89114-620"
    },
    {
        "city": "Gaspar",
        "state": "SC",
        "district": "Gasparinho",
        "street": "Rua Frei Solano",
        "zipcode": "89112-970"
    },
    {
        "city": "Gaspar",
        "state": "SC",
        "district": "Bela Vista",
        "street": "Rua Anfiloquio Nunes Pires",
        "zipcode": "89111-970"
    },
    {
        "city": "Gaspar",
        "state": "SC",
        "district": "Coloninha",
        "street": "Rua Prefeito Leopoldo Schramm",
        "zipcode": "89110-119"
    },
    {
        "city": "Gaspar",
        "state": "SC",
        "district": "Coloninha",
        "street": "Rua Felix Deggau",
        "zipcode": "89110-271"
    },
    {
        "city": "Gaspar",
        "state": "SC",
        "district": "Figueira",
        "street": "Rua Gerânio",
        "zipcode": "89110-460"
    },
    {
        "city": "Gaspar",
        "state": "SC",
        "district": "Figueira",
        "street": "Rua Amor Perfeito",
        "zipcode": "89110-466"
    },
    {
        "city": "Gaspar",
        "state": "SC",
        "district": "Bela Vista",
        "street": "Rua Anfiloquio Nunes Pires",
        "zipcode": "89110-645"
    },
    {
        "city": "Gaspar",
        "state": "SC",
        "district": "Bela Vista",
        "street": "Rua Chile",
        "zipcode": "89110-742"
    },
    {
        "city": "Gaspar",
        "state": "SC",
        "district": "Bela Vista",
        "street": "Rua Martinho Nifa de Oliveira",
        "zipcode": "89111-060"
    },
    {
        "city": "Gaspar",
        "state": "SC",
        "district": "Gasparinho",
        "street": "Rua Frei Solano",
        "zipcode": "89112-070"
    },
    {
        "city": "Gaspar",
        "state": "SC",
        "district": "Gasparinho",
        "street": "Rua Antonio Weidgenannt",
        "zipcode": "89112-316"
    },
    {
        "city": "Gaspar",
        "state": "SC",
        "district": "Gasparinho",
        "street": "Rua Francisco Pedro da Silva",
        "zipcode": "89112-350"
    },
    {
        "city": "Gaspar",
        "state": "SC",
        "district": "Gasparinho",
        "street": "Rua Vó Ida Dagnoni",
        "zipcode": "89112-375"
    },
    {
        "city": "Gaspar",
        "state": "SC",
        "district": "Bateias",
        "street": "Rua Silva",
        "zipcode": "89113-227"
    },
    {
        "city": "Gaspar",
        "state": "SC",
        "district": "Barracão",
        "street": "Rodovia Ivo Silveira",
        "zipcode": "89113-370"
    },
    {
        "city": "Gaspar",
        "state": "SC",
        "district": "Santa Terezinha",
        "street": "Rua Bruno dos Santos",
        "zipcode": "89114-298"
    },
    {
        "city": "Gaspar",
        "state": "SC",
        "district": "Santa Terezinha",
        "street": "Rua Rosa Laurentino Lana",
        "zipcode": "89114-358"
    },
    {
        "city": "Gaspar",
        "state": "SC",
        "district": "Santa Terezinha",
        "street": "Rodovia Ivo Silveira",
        "zipcode": "89114-452"
    },
    {
        "city": "Gaspar",
        "state": "SC",
        "district": "Sete de Setembro",
        "street": "Avenida Olga Wehmuth",
        "zipcode": "89114-736"
    },
    {
        "city": "Gaspar",
        "state": "SC",
        "district": "Sete de Setembro",
        "street": "Rua Vereador Reinoldo Bornhausen",
        "zipcode": "89114-754"
    },
    {
        "city": "Gaspar",
        "state": "SC",
        "district": "Sete de Setembro",
        "street": "Rua João Silvino da Cunha",
        "zipcode": "89114-810"
    },
    {
        "city": "Gaspar",
        "state": "SC",
        "district": "Lagoa",
        "street": "Rua Joaquim Alves de Andrade",
        "zipcode": "89115-410"
    },
    {
        "city": "Gaspar",
        "state": "SC",
        "district": "Margem Esquerda",
        "street": "Rua Albertina Maba",
        "zipcode": "89116-610"
    },
    {
        "city": "Gaspar",
        "state": "SC",
        "district": "Margem Esquerda",
        "street": "Rua Hercilio Fides Zimmermann",
        "zipcode": "89116-650"
    },
    {
        "city": "Gaspar",
        "state": "SC",
        "district": "Margem Esquerda",
        "street": "Rua João Olídio da Trindade",
        "zipcode": "89116-686"
    },
    {
        "city": "Gaspar",
        "state": "SC",
        "district": "Belchior Central",
        "street": "Rua Thereza Schmitt",
        "zipcode": "89117-758"
    },
    {
        "city": "Gaspar",
        "state": "SC",
        "district": "Belchior Alto",
        "street": "Rua Pedro Leo Menschein",
        "zipcode": "89117-805"
    },
    {
        "city": "Gaspar",
        "state": "SC",
        "district": "Belchior Alto",
        "street": "Rua Aloysio Petry",
        "zipcode": "89117-830"
    },
    {
        "city": "Gaspar",
        "state": "SC",
        "district": "Figueira",
        "street": "Rua Anfiloquio Nunes Pires",
        "zipcode": "89110-605"
    },
    {
        "city": "Gaspar",
        "state": "SC",
        "district": "Alto Gasparinho",
        "street": "Rua Alberto Pedro Craf",
        "zipcode": "89112-898"
    },
    {
        "city": "Gaspar",
        "state": "SC",
        "district": "Santa Terezinha",
        "street": "Rua Anselmo Paschoal da Silva",
        "zipcode": "89114-039"
    },
    {
        "city": "Gaspar",
        "state": "SC",
        "district": "Coloninha",
        "street": "Rua José Lanznaster",
        "zipcode": "89110-191"
    },
    {
        "city": "Gaspar",
        "state": "SC",
        "district": "Gasparinho",
        "street": "Rua José Geronço Pereira",
        "zipcode": "89112-051"
    },
    {
        "city": "Gaspar",
        "state": "SC",
        "district": "Gasparinho",
        "street": "Rua Frei Solano",
        "zipcode": "89112-470"
    },
    {
        "city": "Gaspar",
        "state": "SC",
        "district": "Coloninha",
        "street": "Rua Paulina Berkenbrok Gorisch",
        "zipcode": "89110-253"
    },
    {
        "city": "Gaspar",
        "state": "SC",
        "district": "Bela Vista",
        "street": "Rua Marciel do Nascimento",
        "zipcode": "89111-102"
    },
    {
        "city": "Gaspar",
        "state": "SC",
        "district": "Gasparinho",
        "street": "Rua Pedro Anselmo Sansão",
        "zipcode": "89112-265"
    },
    {
        "city": "Gaspar",
        "state": "SC",
        "district": "Gaspar Grande",
        "street": "Rua Pedro Nicolau Isense",
        "zipcode": "89111-279"
    },
    {
        "city": "Gaspar",
        "state": "SC",
        "district": null,
        "street": "Rua Prefeito Leopoldo Schramm",
        "zipcode": "89110-995"
    },
    {
        "city": "Gaspar",
        "state": "SC",
        "district": "Santa Terezinha",
        "street": "Rua Mafra",
        "zipcode": "89114-232"
    },
    {
        "city": "Gaspar",
        "state": "SC",
        "district": "Sete de Setembro",
        "street": "Rua Canoinhas",
        "zipcode": "89114-882"
    },
    {
        "city": "Gaspar",
        "state": "SC",
        "district": null,
        "street": "Rua Guilherme Bels",
        "zipcode": "89110-991"
    },
    {
        "city": "Gaspar",
        "state": "SC",
        "district": "Gasparinho",
        "street": "Rua Ana Laureci Sansão",
        "zipcode": "89112-260"
    },
    {
        "city": "Gaspar",
        "state": "SC",
        "district": "Alto Gasparinho",
        "street": "Rua Pedro José Bergamo",
        "zipcode": "89112-848"
    },
    {
        "city": "Gaspar",
        "state": "SC",
        "district": "Gaspar Alto",
        "street": "Rua Felix Heringer",
        "zipcode": "89111-615"
    },
    {
        "city": "Gaspar",
        "state": "SC",
        "district": "Povoado de Belchior Alto",
        "street": "Rua Bonifácio Haendchen 2013",
        "zipcode": "89110-975"
    }
]