[
    {
        "city": "Governador Celso Ramos",
        "state": "SC",
        "district": "",
        "street": "",
        "zipcode": "88190-000"
    },
    {
        "city": "Governador Celso Ramos",
        "state": "SC",
        "district": "Centro",
        "street": "Praça Seis de Novembro",
        "zipcode": "88190-970"
    },
    {
        "city": "Governador Celso Ramos",
        "state": "SC",
        "district": null,
        "street": "Rua Enéa Joaquim Costa 66",
        "zipcode": "88190-991"
    },
    {
        "city": "Governador Celso Ramos",
        "state": "SC",
        "district": null,
        "street": "Rodovia SC",
        "zipcode": "88190-992"
    },
    {
        "city": "Governador Celso Ramos",
        "state": "SC",
        "district": null,
        "street": "BR",
        "zipcode": "88190-993"
    },
    {
        "city": "Governador Celso Ramos",
        "state": "SC",
        "district": "",
        "street": "Av. Nézio João de Miranda",
        "zipcode": "88190-996"
    },
    {
        "city": "Governador Celso Ramos",
        "state": "SC",
        "district": "",
        "street": "Rodovia SC",
        "zipcode": "88190-997"
    },
    {
        "city": "Governador Celso Ramos",
        "state": "SC",
        "district": null,
        "street": "Rua Gentil de Moura Carvalho",
        "zipcode": "88190-994"
    }
]