[
    {
        "city": "Itajai",
        "state": "SC",
        "district": "Fazenda",
        "street": "Travessa Italiana",
        "zipcode": "88301-672"
    },
    {
        "city": "Itajai",
        "state": "SC",
        "district": "Sao Joao",
        "street": "Rua Paulo Borelli Guimaraes",
        "zipcode": "88304-080"
    },
    {
        "city": "Itajai",
        "state": "SC",
        "district": "Fazenda",
        "street": "Rua Joao Wollinger",
        "zipcode": "88306-012"
    },
    {
        "city": "Itajai",
        "state": "SC",
        "district": "Cabecudas",
        "street": "Rua Deputado Francisco Evaristo Canziani",
        "zipcode": "88306-300"
    },
    {
        "city": "Itajai",
        "state": "SC",
        "district": "Salseiros",
        "street": "Rua Bruno Vicente Da Luz",
        "zipcode": "88311-620"
    },
    {
        "city": "Itajai",
        "state": "SC",
        "district": "Salseiros",
        "street": "Rua Inspetor Othon Joao Nogueira",
        "zipcode": "88311-630"
    },
    {
        "city": "Itajai",
        "state": "SC",
        "district": "Cordeiros",
        "street": "Loteamento Santa Maria",
        "zipcode": "88311-210"
    },
    {
        "city": "Itajai",
        "state": "SC",
        "district": "Salseiros",
        "street": "Rua Jose Natal Cugik",
        "zipcode": "88317-700"
    },
    {
        "city": "Itajai",
        "state": "SC",
        "district": "Salseiros",
        "street": "Rua Bertolino Serra",
        "zipcode": "88311-670"
    },
    {
        "city": "Itajai",
        "state": "SC",
        "district": "Fazenda",
        "street": "Rua Emmanuel Pereira De Campos",
        "zipcode": "88306-016"
    },
    {
        "city": "Itajai",
        "state": "SC",
        "district": "Fazenda",
        "street": "Rua Caetano Chaves",
        "zipcode": "88302-335"
    },
    {
        "city": "Itajai",
        "state": "SC",
        "district": "Sao Joao",
        "street": "Rua Joao Pessoa",
        "zipcode": "88304-106"
    },
    {
        "city": "Itajai",
        "state": "SC",
        "district": "Fazenda",
        "street": "Rua Galdino Geronimo Vieira",
        "zipcode": "88306-010"
    },
    {
        "city": "Itajai",
        "state": "SC",
        "district": "Cabecudas",
        "street": "Rua Dos Gnomos",
        "zipcode": "88306-548"
    },
    {
        "city": "Itajai",
        "state": "SC",
        "district": "Quilometro Doze",
        "street": "Rua Vereador Germano Luiz Vieira",
        "zipcode": "88316-700"
    },
    {
        "city": "Itajai",
        "state": "SC",
        "district": "Sao Vicente",
        "street": "Rodovia Br",
        "zipcode": "88308-800"
    },
    {
        "city": "Itajai",
        "state": "SC",
        "district": "Salseiros",
        "street": "Rodovia Br",
        "zipcode": "88307-750"
    },
    {
        "city": "Itajai",
        "state": "SC",
        "district": "Quilometro Doze",
        "street": "Rodovia Br",
        "zipcode": "88316-010"
    },
    {
        "city": "Itajai",
        "state": "SC",
        "district": "Sao Vicente",
        "street": "Beco Da Galega",
        "zipcode": "88309-217"
    },
    {
        "city": "Itajai",
        "state": "SC",
        "district": "Sao Vicente",
        "street": "Avenida Marginal De Sao Vicente",
        "zipcode": "88309-490"
    },
    {
        "city": "Itajai",
        "state": "SC",
        "district": "Barra Do Rio",
        "street": "Rua Peru",
        "zipcode": "88305-385"
    },
    {
        "city": "Itajai",
        "state": "SC",
        "district": "Salseiros",
        "street": "Rua Joaquim Geraldino Bitencourt",
        "zipcode": "88311-610"
    },
    {
        "city": "Itajai",
        "state": "SC",
        "district": "Cordeiros",
        "street": "Loteamento Juliete",
        "zipcode": "88311-160"
    },
    {
        "city": "Itajai",
        "state": "SC",
        "district": "Fazenda",
        "street": "Rua Vereador Luiz Soares",
        "zipcode": "88306-014"
    },
    {
        "city": "Itajai",
        "state": "SC",
        "district": "Salseiros",
        "street": "Rua Amaro Belmiro Coelho",
        "zipcode": "88311-615"
    },
    {
        "city": "Itajai",
        "state": "SC",
        "district": "Barra Do Rio",
        "street": "Rua Antonio Serafim",
        "zipcode": "88305-267"
    },
    {
        "city": "Itajai",
        "state": "SC",
        "district": "Sao Judas",
        "street": "Rua Santa Luzia",
        "zipcode": "88303-512"
    },
    {
        "city": "Itajai",
        "state": "SC",
        "district": "Salseiros",
        "street": "Rua Joao Montagna",
        "zipcode": "88311-680"
    },
    {
        "city": "Itajai",
        "state": "SC",
        "district": "Sao Vicente",
        "street": "Rua Interligacao I",
        "zipcode": "88308-300"
    },
    {
        "city": "Itajai",
        "state": "SC",
        "district": "Sao Vicente",
        "street": "Rua Prof. Erotides Da Silva Fontes",
        "zipcode": "88309-600"
    }
]