[
    {
        "city": "Jaragua Do Sul",
        "state": "SC",
        "district": "Vila Lenzi",
        "street": "Rua Maria Umbelina Da Silva",
        "zipcode": "89252-490"
    },
    {
        "city": "Jaragua Do Sul",
        "state": "SC",
        "district": "Estrada Nova",
        "street": "Rua 780",
        "zipcode": "89254-307"
    },
    {
        "city": "Jaragua Do Sul",
        "state": "SC",
        "district": "Vila Nova",
        "street": "Rua 25 De Julho",
        "zipcode": "89259-001"
    },
    {
        "city": "Jaragua Do Sul",
        "state": "SC",
        "district": "Ilha Da Figueira",
        "street": "Rua Heini Behling",
        "zipcode": "89258-024"
    },
    {
        "city": "Jaragua Do Sul",
        "state": "SC",
        "district": "Barra Do Rio Cerro",
        "street": "Rua 562",
        "zipcode": "89260-050"
    },
    {
        "city": "Jaragua Do Sul",
        "state": "SC",
        "district": "Estrada Nova",
        "street": "Rodovia Prefeito Engelbert Oechsler",
        "zipcode": "89265-000"
    },
    {
        "city": "Jaragua Do Sul",
        "state": "SC",
        "district": "Jaragua Esquerdo",
        "street": "Rua Joao Januario Ayroso",
        "zipcode": "89253-101"
    },
    {
        "city": "Jaragua Do Sul",
        "state": "SC",
        "district": "Nereu Ramos",
        "street": "Rua Edmundo Koch",
        "zipcode": "89265-260"
    },
    {
        "city": "Jaragua Do Sul",
        "state": "SC",
        "district": "Ribeirao Cavalo",
        "street": "Rua Ermelina Trentini Menel",
        "zipcode": "89265-827"
    },
    {
        "city": "Jaragua Do Sul",
        "state": "SC",
        "district": "Chico De Paula",
        "street": "Rua Maria Umbelina Da Silva",
        "zipcode": "89254-660"
    },
    {
        "city": "Jaragua Do Sul",
        "state": "SC",
        "district": "Vila Nova",
        "street": "Rua Angelo Vicenzi",
        "zipcode": "89259-250"
    },
    {
        "city": "Jaragua Do Sul",
        "state": "SC",
        "district": "Amizade",
        "street": "Rua Lauro Muller",
        "zipcode": "89255-650"
    },
    {
        "city": "Jaragua Do Sul",
        "state": "SC",
        "district": "Centro",
        "street": "Rua Jose Pellis",
        "zipcode": "89251-290"
    },
    {
        "city": "Jaragua Do Sul",
        "state": "SC",
        "district": "Nereu Ramos",
        "street": "Estrada Paulo Voltolini",
        "zipcode": "89265-830"
    },
    {
        "city": "Jaragua Do Sul",
        "state": "SC",
        "district": "Nova Brasilia",
        "street": "Rua Joao Planincheck",
        "zipcode": "89253-090"
    },
    {
        "city": "Jaragua Do Sul",
        "state": "SC",
        "district": "Ilha Da Figueira",
        "street": "Rua Vitorio Piazera",
        "zipcode": "89258-450"
    },
    {
        "city": "Jaragua Do Sul",
        "state": "SC",
        "district": "Barra Do Rio Molha",
        "street": "Rua Joacaba",
        "zipcode": "89259-740"
    },
    {
        "city": "Jaragua Do Sul",
        "state": "SC",
        "district": "Ribeirao Cavalo",
        "street": "Rua 865",
        "zipcode": "89265-850"
    },
    {
        "city": "Jaragua Do Sul",
        "state": "SC",
        "district": "Ribeirao Cavalo",
        "street": "Rua Tifa Terezinha",
        "zipcode": "89265-450"
    },
    {
        "city": "Jaragua Do Sul",
        "state": "SC",
        "district": "Centro",
        "street": "Rua Expedicionario Antonio Carlos Ferreira",
        "zipcode": "89252-100"
    },
    {
        "city": "Jaragua Do Sul",
        "state": "SC",
        "district": "Ilha Da Figueira",
        "street": "Rua 466",
        "zipcode": "89258-410"
    },
    {
        "city": "Jaragua Do Sul",
        "state": "SC",
        "district": "Ilha Da Figueira",
        "street": "Rua 660",
        "zipcode": "89258-420"
    },
    {
        "city": "Jaragua Do Sul",
        "state": "SC",
        "district": "Ilha Da Figueira",
        "street": "Rua Emilio Behling",
        "zipcode": "89258-020"
    },
    {
        "city": "Jaragua Do Sul",
        "state": "SC",
        "district": "Barra Do Rio Cerro",
        "street": "Rua 536",
        "zipcode": "89260-230"
    },
    {
        "city": "Jaragua Do Sul",
        "state": "SC",
        "district": "Nereu Ramos",
        "street": "Rua Alberto Murara",
        "zipcode": "89265-320"
    },
    {
        "city": "Jaragua Do Sul",
        "state": "SC",
        "district": "Nereu Ramos",
        "street": "Rua Joao Ropelatto",
        "zipcode": "89265-300"
    },
    {
        "city": "Jaragua Do Sul",
        "state": "SC",
        "district": "Nereu Ramos",
        "street": "Estrada Francisco Greter",
        "zipcode": "89265-840"
    },
    {
        "city": "Jaragua Do Sul",
        "state": "SC",
        "district": "Nova Brasilia",
        "street": "Rua Jose Emmendoerfer",
        "zipcode": "89252-200"
    },
    {
        "city": "Jaragua Do Sul",
        "state": "SC",
        "district": "Ilha Da Figueira",
        "street": "Rua Andre Corsino De Magalhaes",
        "zipcode": "89258-022"
    }
]