[
    {
        "city": "Navegantes",
        "state": "SC",
        "district": "Gravatá",
        "street": "Rua Alaíde Rodrigues Alves",
        "zipcode": "88372-672"
    },
    {
        "city": "Navegantes",
        "state": "SC",
        "district": "Escalvados",
        "street": "Rua João Melles",
        "zipcode": "88374-140"
    },
    {
        "city": "Navegantes",
        "state": "SC",
        "district": "Machados",
        "street": "Rua Antonio Maria",
        "zipcode": "88371-334"
    },
    {
        "city": "Navegantes",
        "state": "SC",
        "district": "Centro",
        "street": "Rua Indaial",
        "zipcode": "88370-251"
    },
    {
        "city": "Navegantes",
        "state": "SC",
        "district": "São Pedro",
        "street": "Rua José Domingos Pereira",
        "zipcode": "88370-021"
    },
    {
        "city": "Navegantes",
        "state": "SC",
        "district": "São Domingos",
        "street": "Rua Antonio José Batista",
        "zipcode": "88370-650"
    },
    {
        "city": "Navegantes",
        "state": "SC",
        "district": "Gravatá",
        "street": "Avenida Rio do Sul",
        "zipcode": "88372-646"
    },
    {
        "city": "Navegantes",
        "state": "SC",
        "district": "São Domingos",
        "street": "Rua Eduardo José Leal",
        "zipcode": "88370-662"
    },
    {
        "city": "Navegantes",
        "state": "SC",
        "district": "Centro",
        "street": "Rua Balneário Camboriú",
        "zipcode": "88370-288"
    },
    {
        "city": "Navegantes",
        "state": "SC",
        "district": "São Domingos",
        "street": "Rua José Luiz Maximo Pereira",
        "zipcode": "88370-606"
    },
    {
        "city": "Navegantes",
        "state": "SC",
        "district": "São Domingos",
        "street": "Servidão Claudemir José Schneider",
        "zipcode": "88370-798"
    },
    {
        "city": "Navegantes",
        "state": "SC",
        "district": "Machados",
        "street": "Beco Etelvira Fião Pivatto",
        "zipcode": "88371-640"
    },
    {
        "city": "Navegantes",
        "state": "SC",
        "district": "Pedreiras",
        "street": "Rua Matias Silva Rebelo",
        "zipcode": "88373-093"
    },
    {
        "city": "Navegantes",
        "state": "SC",
        "district": "São Domingos",
        "street": "Servidão Manoel dos Santos",
        "zipcode": "88371-009"
    },
    {
        "city": "Navegantes",
        "state": "SC",
        "district": "São Domingos",
        "street": "Rua Maria Andreza Couto",
        "zipcode": "88370-558"
    },
    {
        "city": "Navegantes",
        "state": "SC",
        "district": "Centro",
        "street": "Rua Nair Vieira",
        "zipcode": "88370-372"
    },
    {
        "city": "Navegantes",
        "state": "SC",
        "district": "Machados",
        "street": "Servidão Santa Catarina",
        "zipcode": "88371-442"
    },
    {
        "city": "Navegantes",
        "state": "SC",
        "district": "Gravatá",
        "street": "Rua G",
        "zipcode": "88372-802"
    },
    {
        "city": "Navegantes",
        "state": "SC",
        "district": "Centro",
        "street": "Rua Vereador Nereu Liberato Nunes",
        "zipcode": "88370-232"
    },
    {
        "city": "Navegantes",
        "state": "SC",
        "district": "Gravatá",
        "street": "Avenida Nereu Ramos",
        "zipcode": "88372-714"
    },
    {
        "city": "Navegantes",
        "state": "SC",
        "district": "Centro",
        "street": "Rua Manoel Candido Couto",
        "zipcode": "88370-092"
    },
    {
        "city": "Navegantes",
        "state": "SC",
        "district": "Pedreiras",
        "street": "Rua Francisco Schmitz",
        "zipcode": "88373-155"
    },
    {
        "city": "Navegantes",
        "state": "SC",
        "district": "Nossa Senhora das Graças",
        "street": "Rua Prefeito João José Fagundes",
        "zipcode": "88371-288"
    },
    {
        "city": "Navegantes",
        "state": "SC",
        "district": "Centro",
        "street": "Servidão Ida Rodrigues Galvez",
        "zipcode": "88370-440"
    },
    {
        "city": "Navegantes",
        "state": "SC",
        "district": "Machados",
        "street": "Rua Irineu José da Silva",
        "zipcode": "88371-584"
    },
    {
        "city": "Navegantes",
        "state": "SC",
        "district": "Meia Praia",
        "street": "Rua Alfredo José Rebello",
        "zipcode": "88372-084"
    },
    {
        "city": "Navegantes",
        "state": "SC",
        "district": "São Domingos",
        "street": "Rua Manoel Leopoldo Rocha",
        "zipcode": "88370-564"
    },
    {
        "city": "Navegantes",
        "state": "SC",
        "district": "Centro",
        "street": "Rua Vereador Manoel Dorval da Costa",
        "zipcode": "88370-368"
    },
    {
        "city": "Navegantes",
        "state": "SC",
        "district": "Meia Praia",
        "street": "Rua Honorato Manoel Felício",
        "zipcode": "88372-052"
    },
    {
        "city": "Navegantes",
        "state": "SC",
        "district": "Escalvados",
        "street": "Rua Sílvio Corrêa",
        "zipcode": "88374-150"
    },
    {
        "city": "Navegantes",
        "state": "SC",
        "district": "Escalvados",
        "street": "Rua Antonio Martins Filho",
        "zipcode": "88374-050"
    },
    {
        "city": "Navegantes",
        "state": "SC",
        "district": "São Paulo",
        "street": "Rua Arlindo Leal Neves",
        "zipcode": "88371-062"
    },
    {
        "city": "Navegantes",
        "state": "SC",
        "district": "Gravatá",
        "street": "Rua Onélia Couto Cabral",
        "zipcode": "88372-542"
    },
    {
        "city": "Navegantes",
        "state": "SC",
        "district": "Gravatá",
        "street": "Rua Beira Rio",
        "zipcode": "88372-708"
    },
    {
        "city": "Navegantes",
        "state": "SC",
        "district": "Gravatá",
        "street": "Rua Argentina",
        "zipcode": "88372-676"
    },
    {
        "city": "Navegantes",
        "state": "SC",
        "district": "São Paulo",
        "street": "Rua Romilda Neis Chiamulera",
        "zipcode": "88371-130"
    },
    {
        "city": "Navegantes",
        "state": "SC",
        "district": "Centro",
        "street": "Rua Vereador Antonio Juveniano Emílio",
        "zipcode": "88370-350"
    },
    {
        "city": "Navegantes",
        "state": "SC",
        "district": "Machados",
        "street": "Beco do Duca",
        "zipcode": "88371-590"
    },
    {
        "city": "Navegantes",
        "state": "SC",
        "district": "Gravatá",
        "street": "Rua Fernando dÁvila Vieira",
        "zipcode": "88372-662"
    },
    {
        "city": "Navegantes",
        "state": "SC",
        "district": "Centro",
        "street": "Rua Paulina Borba Vieira",
        "zipcode": "88370-436"
    },
    {
        "city": "Navegantes",
        "state": "SC",
        "district": "Gravatá",
        "street": "Rua Dorval João Vieira",
        "zipcode": "88372-554"
    },
    {
        "city": "Navegantes",
        "state": "SC",
        "district": "Centro",
        "street": "Travessa Dario Mazurecki",
        "zipcode": "88370-302"
    },
    {
        "city": "Navegantes",
        "state": "SC",
        "district": "Machados",
        "street": "Rua Zenaide Vieira de Lima",
        "zipcode": "88371-356"
    },
    {
        "city": "Navegantes",
        "state": "SC",
        "district": "Gravatá",
        "street": "Rua Nelson Seara Heusi",
        "zipcode": "88372-732"
    },
    {
        "city": "Navegantes",
        "state": "SC",
        "district": "Gravatá",
        "street": "Rua Nilo Imhof",
        "zipcode": "88372-552"
    },
    {
        "city": "Navegantes",
        "state": "SC",
        "district": "Machados",
        "street": "Rua Olímpio Caragnatto",
        "zipcode": "88371-378"
    },
    {
        "city": "Navegantes",
        "state": "SC",
        "district": "Gravatá",
        "street": "Rua Vasconcelos Drumond",
        "zipcode": "88372-602"
    },
    {
        "city": "Navegantes",
        "state": "SC",
        "district": "Gravatá",
        "street": "Rua Encontrista Artur Alfredo Galvez",
        "zipcode": "88372-818"
    },
    {
        "city": "Navegantes",
        "state": "SC",
        "district": "Gravatá",
        "street": "Rua Jornalista Abdon Fóes",
        "zipcode": "88372-822"
    },
    {
        "city": "Navegantes",
        "state": "SC",
        "district": "Gravatá",
        "street": "Rua Gerhard Schmidt",
        "zipcode": "88372-634"
    },
    {
        "city": "Navegantes",
        "state": "SC",
        "district": "Centro",
        "street": "Rua Lidio Joaquim Couto",
        "zipcode": "88370-214"
    },
    {
        "city": "Navegantes",
        "state": "SC",
        "district": "São Domingos",
        "street": "Rua Amadeu Zucki",
        "zipcode": "88370-783"
    },
    {
        "city": "Navegantes",
        "state": "SC",
        "district": "Machados",
        "street": "Rua Manoel João Bento",
        "zipcode": "88371-457"
    },
    {
        "city": "Navegantes",
        "state": "SC",
        "district": "Escalvados",
        "street": "Rua Irmãos Oliveira",
        "zipcode": "88374-120"
    },
    {
        "city": "Navegantes",
        "state": "SC",
        "district": "Escalvados",
        "street": "Rua Domingos Oliveira",
        "zipcode": "88374-130"
    },
    {
        "city": "Navegantes",
        "state": "SC",
        "district": "Gravatá",
        "street": "Rua Carlos de Paula Seara",
        "zipcode": "88372-758"
    },
    {
        "city": "Navegantes",
        "state": "SC",
        "district": "Gravatá",
        "street": "Rua Carlos Wegner",
        "zipcode": "88372-658"
    },
    {
        "city": "Navegantes",
        "state": "SC",
        "district": "Nossa Senhora das Graças",
        "street": "Rua Vereador Celso Antonio dos Passos",
        "zipcode": "88371-190"
    },
    {
        "city": "Navegantes",
        "state": "SC",
        "district": "Gravatá",
        "street": "Rua Chile",
        "zipcode": "88372-648"
    },
    {
        "city": "Navegantes",
        "state": "SC",
        "district": "Gravatá",
        "street": "Rua Francisco Avelino Antunes",
        "zipcode": "88372-710"
    },
    {
        "city": "Navegantes",
        "state": "SC",
        "district": "Machados",
        "street": "Rua Dalério Gazaniga",
        "zipcode": "88371-587"
    },
    {
        "city": "Navegantes",
        "state": "SC",
        "district": "Gravatá",
        "street": "Rua José Paulina",
        "zipcode": "88372-578"
    },
    {
        "city": "Navegantes",
        "state": "SC",
        "district": "Gravatá",
        "street": "Rua Ernesto Guilherme Hofmann",
        "zipcode": "88372-614"
    },
    {
        "city": "Navegantes",
        "state": "SC",
        "district": "Machados",
        "street": "Servidão Juventino João da Silva",
        "zipcode": "88371-533"
    },
    {
        "city": "Navegantes",
        "state": "SC",
        "district": "Gravatá",
        "street": "Rua Waldemar Krieger",
        "zipcode": "88372-734"
    },
    {
        "city": "Navegantes",
        "state": "SC",
        "district": "Gravatá",
        "street": "Rua E",
        "zipcode": "88372-808"
    },
    {
        "city": "Navegantes",
        "state": "SC",
        "district": "Gravatá",
        "street": "Rua Francisco Wolinger",
        "zipcode": "88372-830"
    },
    {
        "city": "Navegantes",
        "state": "SC",
        "district": "Machados",
        "street": "Rua Fúlvio Diniz",
        "zipcode": "88371-340"
    },
    {
        "city": "Navegantes",
        "state": "SC",
        "district": "Pedreiras",
        "street": "Rua Galdino Jerônimo Vieira",
        "zipcode": "88373-305"
    },
    {
        "city": "Navegantes",
        "state": "SC",
        "district": "Centro",
        "street": "Rua Guilherme Palumbo",
        "zipcode": "88370-376"
    },
    {
        "city": "Navegantes",
        "state": "SC",
        "district": "Machados",
        "street": "Rua Helena Passos Dauer",
        "zipcode": "88371-487"
    },
    {
        "city": "Navegantes",
        "state": "SC",
        "district": "Machados",
        "street": "Rua Hipólito Francisco de Borba",
        "zipcode": "88371-382"
    },
    {
        "city": "Navegantes",
        "state": "SC",
        "district": "Machados",
        "street": "Rua Agenor dos Santos",
        "zipcode": "88371-344"
    },
    {
        "city": "Navegantes",
        "state": "SC",
        "district": "Gravatá",
        "street": "Rua Albino Daniel Pereira",
        "zipcode": "88372-582"
    },
    {
        "city": "Navegantes",
        "state": "SC",
        "district": "Gravatá",
        "street": "Rua Alfredo João Krieck",
        "zipcode": "88372-626"
    },
    {
        "city": "Navegantes",
        "state": "SC",
        "district": "Gravatá",
        "street": "Rua Maria de Lourdes Couto Cabral",
        "zipcode": "88372-748"
    },
    {
        "city": "Navegantes",
        "state": "SC",
        "district": "Pedreiras",
        "street": "Rua Anastácio Dias",
        "zipcode": "88373-096"
    },
    {
        "city": "Navegantes",
        "state": "SC",
        "district": "Machados",
        "street": "Beco Antonio Ramos da Silva",
        "zipcode": "88371-620"
    },
    {
        "city": "Navegantes",
        "state": "SC",
        "district": "Escalvados",
        "street": "Rua Ludgero Soares da Silva",
        "zipcode": "88374-080"
    },
    {
        "city": "Navegantes",
        "state": "SC",
        "district": "Escalvados",
        "street": "Rua Francisco João Tobias",
        "zipcode": "88374-070"
    },
    {
        "city": "Navegantes",
        "state": "SC",
        "district": "Escalvados",
        "street": "Rua Olíndio Rodolfo de Souza",
        "zipcode": "88374-110"
    },
    {
        "city": "Navegantes",
        "state": "SC",
        "district": "Meia Praia",
        "street": "Rua Herbert Neitzel",
        "zipcode": "88372-072"
    },
    {
        "city": "Navegantes",
        "state": "SC",
        "district": "Pedreiras",
        "street": "Servidão Esperança",
        "zipcode": "88373-350"
    },
    {
        "city": "Navegantes",
        "state": "SC",
        "district": "Gravatá",
        "street": "Rua Ester Sedres Régis",
        "zipcode": "88372-598"
    },
    {
        "city": "Navegantes",
        "state": "SC",
        "district": "Gravatá",
        "street": "Rua André Schumacher",
        "zipcode": "88372-798"
    },
    {
        "city": "Navegantes",
        "state": "SC",
        "district": "Pedreiras",
        "street": "Beco Anísio João Bento",
        "zipcode": "88373-099"
    },
    {
        "city": "Navegantes",
        "state": "SC",
        "district": "Gravatá",
        "street": "Rua Anita Garibaldi",
        "zipcode": "88372-702"
    },
    {
        "city": "Navegantes",
        "state": "SC",
        "district": "Nossa Senhora das Graças",
        "street": "Rua Antonio Inácio de Souza",
        "zipcode": "88371-286"
    },
    {
        "city": "Navegantes",
        "state": "SC",
        "district": "Pedreiras",
        "street": "Beco Antonio João Bento",
        "zipcode": "88373-152"
    },
    {
        "city": "Navegantes",
        "state": "SC",
        "district": "São Paulo",
        "street": "Rua Antonio João Jacinto",
        "zipcode": "88371-100"
    },
    {
        "city": "Navegantes",
        "state": "SC",
        "district": "Meia Praia",
        "street": "Avenida Osvaldo José Reiser",
        "zipcode": "88372-286"
    },
    {
        "city": "Navegantes",
        "state": "SC",
        "district": "Meia Praia",
        "street": "Rua Oswaldo Karten",
        "zipcode": "88372-038"
    },
    {
        "city": "Navegantes",
        "state": "SC",
        "district": "Gravatá",
        "street": "Rua Panamá",
        "zipcode": "88372-664"
    },
    {
        "city": "Navegantes",
        "state": "SC",
        "district": "Nossa Senhora das Graças",
        "street": "Servidão Pedro João Nunes",
        "zipcode": "88371-294"
    },
    {
        "city": "Navegantes",
        "state": "SC",
        "district": "Machados",
        "street": "Rua Regina Milanez Maccarini",
        "zipcode": "88371-551"
    },
    {
        "city": "Navegantes",
        "state": "SC",
        "district": "Gravatá",
        "street": "Rua Antonio Victor dos Santos",
        "zipcode": "88372-536"
    },
    {
        "city": "Navegantes",
        "state": "SC",
        "district": "Gravatá",
        "street": "Rua Argentina",
        "zipcode": "88372-700"
    },
    {
        "city": "Navegantes",
        "state": "SC",
        "district": "São Pedro",
        "street": "Beco do Tonico",
        "zipcode": "88370-037"
    },
    {
        "city": "Navegantes",
        "state": "SC",
        "district": "Centro",
        "street": "Rua Félix Giovanella",
        "zipcode": "88370-228"
    },
    {
        "city": "Navegantes",
        "state": "SC",
        "district": "Nossa Senhora das Graças",
        "street": "Rua Pedro Ribeiro dos Santos",
        "zipcode": "88371-281"
    },
    {
        "city": "Navegantes",
        "state": "SC",
        "district": "Nossa Senhora das Graças",
        "street": "Rua Jornalista Rui Ademar Rodrigues",
        "zipcode": "88371-191"
    },
    {
        "city": "Navegantes",
        "state": "SC",
        "district": "São Paulo",
        "street": "Rua João Batista Couto",
        "zipcode": "88371-137"
    },
    {
        "city": "Navegantes",
        "state": "SC",
        "district": "Gravatá",
        "street": "Rua Gelásio Rodrigues",
        "zipcode": "88372-577"
    },
    {
        "city": "Navegantes",
        "state": "SC",
        "district": "Nossa Senhora das Graças",
        "street": "Rua Vereador Norival José Bento",
        "zipcode": "88371-220"
    },
    {
        "city": "Navegantes",
        "state": "SC",
        "district": "Volta Grande",
        "street": "Rua Vereador Olímpio Romão Mianes",
        "zipcode": "88371-860"
    },
    {
        "city": "Navegantes",
        "state": "SC",
        "district": "Machados",
        "street": "Rua Augustinho Anacleto",
        "zipcode": "88371-406"
    },
    {
        "city": "Navegantes",
        "state": "SC",
        "district": "Machados",
        "street": "Rua Augusto Romão",
        "zipcode": "88371-472"
    },
    {
        "city": "Navegantes",
        "state": "SC",
        "district": "São Paulo",
        "street": "Rua Vereadora Marlene de Souza Delfino",
        "zipcode": "88371-078"
    },
    {
        "city": "Navegantes",
        "state": "SC",
        "district": "Meia Praia",
        "street": "Rua Horácio Júlio da Silva",
        "zipcode": "88372-006"
    },
    {
        "city": "Navegantes",
        "state": "SC",
        "district": "Escalvados",
        "street": "Rua Alzira Gertrudes de Souza",
        "zipcode": "88374-100"
    },
    {
        "city": "Navegantes",
        "state": "SC",
        "district": "Meia Praia",
        "street": "Rua Milton Seara Müller",
        "zipcode": "88372-190"
    },
    {
        "city": "Navegantes",
        "state": "SC",
        "district": "São Paulo",
        "street": "Rua Abdon Cardoso Sacavem",
        "zipcode": "88371-120"
    },
    {
        "city": "Navegantes",
        "state": "SC",
        "district": "Gravatá",
        "street": "Avenida Joaquim Couto",
        "zipcode": "88372-576"
    },
    {
        "city": "Navegantes",
        "state": "SC",
        "district": "Gravatá",
        "street": "Rua Lourenço Nascimento",
        "zipcode": "88372-544"
    },
    {
        "city": "Navegantes",
        "state": "SC",
        "district": "Centro",
        "street": "Rua Lúcia Rebello Gaya",
        "zipcode": "88370-242"
    },
    {
        "city": "Navegantes",
        "state": "SC",
        "district": "São Domingos",
        "street": "Rua Lizanias Araujo Coelho",
        "zipcode": "88371-015"
    },
    {
        "city": "Navegantes",
        "state": "SC",
        "district": "Machados",
        "street": "Rua Prefeito Manoel Evaldo Müller",
        "zipcode": "88371-600"
    },
    {
        "city": "Navegantes",
        "state": "SC",
        "district": "Nossa Senhora das Graças",
        "street": "Rua Vereador José Flavio Soares",
        "zipcode": "88371-244"
    },
    {
        "city": "Navegantes",
        "state": "SC",
        "district": "Machados",
        "street": "Rua Francisco Correia",
        "zipcode": "88371-569"
    },
    {
        "city": "Navegantes",
        "state": "SC",
        "district": "Gravatá",
        "street": "Rua Francisco Schmitz",
        "zipcode": "88372-522"
    },
    {
        "city": "Navegantes",
        "state": "SC",
        "district": "Meia Praia",
        "street": "Rua João Henrique Reis",
        "zipcode": "88372-032"
    },
    {
        "city": "Navegantes",
        "state": "SC",
        "district": "Meia Praia",
        "street": "Rua José Menescal do Monte",
        "zipcode": "88372-274"
    },
    {
        "city": "Navegantes",
        "state": "SC",
        "district": "Nossa Senhora das Graças",
        "street": "Rua Vereador José Olimpio Mianes",
        "zipcode": "88371-202"
    },
    {
        "city": "Navegantes",
        "state": "SC",
        "district": "Gravatá",
        "street": "Rua Waldemar Krieger",
        "zipcode": "88372-638"
    },
    {
        "city": "Navegantes",
        "state": "SC",
        "district": "São Paulo",
        "street": "Rua Wanderlei de Mello",
        "zipcode": "88371-088"
    },
    {
        "city": "Navegantes",
        "state": "SC",
        "district": "Machados",
        "street": "Rua Edelberto Honorato Nunes",
        "zipcode": "88371-326"
    },
    {
        "city": "Navegantes",
        "state": "SC",
        "district": "Gravatá",
        "street": "Rua Jacob Frank",
        "zipcode": "88372-564"
    },
    {
        "city": "Navegantes",
        "state": "SC",
        "district": "Volta Grande",
        "street": "Rua João Aragão",
        "zipcode": "88371-885"
    },
    {
        "city": "Navegantes",
        "state": "SC",
        "district": "Meia Praia",
        "street": "Rua João Baldança Filho",
        "zipcode": "88372-086"
    },
    {
        "city": "Navegantes",
        "state": "SC",
        "district": "Meia Praia",
        "street": "Rua Adelina Leal Narciso",
        "zipcode": "88372-022"
    },
    {
        "city": "Navegantes",
        "state": "SC",
        "district": "Gravatá",
        "street": "Rua Geraldo Laurentino Inácio",
        "zipcode": "88372-600"
    },
    {
        "city": "Navegantes",
        "state": "SC",
        "district": "Meia Praia",
        "street": "Rua Promotor Hélio Rosa",
        "zipcode": "88372-094"
    },
    {
        "city": "Navegantes",
        "state": "SC",
        "district": "Gravatá",
        "street": "Rua Helmuth Baungarten",
        "zipcode": "88372-624"
    },
    {
        "city": "Navegantes",
        "state": "SC",
        "district": "São Paulo",
        "street": "Rua Ivonete da Ventura",
        "zipcode": "88371-066"
    },
    {
        "city": "Navegantes",
        "state": "SC",
        "district": "Pedreiras",
        "street": "Rua Onório Bortolato",
        "zipcode": "88373-902"
    },
    {
        "city": "Navegantes",
        "state": "SC",
        "district": "Nossa Senhora das Graças",
        "street": "Servidão Eduardo Ranguet",
        "zipcode": "88371-309"
    },
    {
        "city": "Navegantes",
        "state": "SC",
        "district": "Nossa Senhora das Graças",
        "street": "Travessa Emílio Ribeiro",
        "zipcode": "88371-278"
    },
    {
        "city": "Navegantes",
        "state": "SC",
        "district": "Meia Praia",
        "street": "Rua Horácio Júlio da Silva",
        "zipcode": "88372-046"
    },
    {
        "city": "Navegantes",
        "state": "SC",
        "district": "Meia Praia",
        "street": "Rua Doutor Humberto Pederneira",
        "zipcode": "88372-106"
    },
    {
        "city": "Navegantes",
        "state": "SC",
        "district": "São Paulo",
        "street": "Rua Adolfo José da Luz",
        "zipcode": "88371-110"
    },
    {
        "city": "Navegantes",
        "state": "SC",
        "district": "Machados",
        "street": "Rua Alicio Jacob Ricobom",
        "zipcode": "88371-332"
    },
    {
        "city": "Navegantes",
        "state": "SC",
        "district": "Nossa Senhora das Graças",
        "street": "Rua Manoel Schneider",
        "zipcode": "88371-266"
    },
    {
        "city": "Navegantes",
        "state": "SC",
        "district": "Gravatá",
        "street": "Rua Valmor Ostermann",
        "zipcode": "88372-722"
    },
    {
        "city": "Navegantes",
        "state": "SC",
        "district": "Gravatá",
        "street": "Rua Ana Boos",
        "zipcode": "88372-588"
    },
    {
        "city": "Navegantes",
        "state": "SC",
        "district": "Machados",
        "street": "Rua Anibal Gazaniga",
        "zipcode": "88371-563"
    },
    {
        "city": "Navegantes",
        "state": "SC",
        "district": "Meia Praia",
        "street": "Rua Osmundo Dutra",
        "zipcode": "88372-012"
    },
    {
        "city": "Navegantes",
        "state": "SC",
        "district": "Gravatá",
        "street": "Rua Pedro Cândido Cabral",
        "zipcode": "88372-532"
    },
    {
        "city": "Navegantes",
        "state": "SC",
        "district": "Meia Praia",
        "street": "Rua Comandante Pedro Floriano dos Santos",
        "zipcode": "88372-060"
    },
    {
        "city": "Navegantes",
        "state": "SC",
        "district": "Gravatá",
        "street": "Rua Bernardino Antonio Narciso",
        "zipcode": "88372-504"
    },
    {
        "city": "Navegantes",
        "state": "SC",
        "district": "Meia Praia",
        "street": "Rua Olindo José Bernardes",
        "zipcode": "88372-284"
    },
    {
        "city": "Navegantes",
        "state": "SC",
        "district": "São Domingos",
        "street": "Avenida Portuária Vicente Coelho",
        "zipcode": "88370-906"
    },
    {
        "city": "Navegantes",
        "state": "SC",
        "district": "Centro",
        "street": "Rua Vandelino Lopes Fagundes",
        "zipcode": "88370-370"
    },
    {
        "city": "Navegantes",
        "state": "SC",
        "district": "Centro",
        "street": "Rua Vicente Honorato Coelho",
        "zipcode": "88370-354"
    },
    {
        "city": "Navegantes",
        "state": "SC",
        "district": "Centro",
        "street": "Rua Artur Apoloni Russi",
        "zipcode": "88370-198"
    },
    {
        "city": "Navegantes",
        "state": "SC",
        "district": "Centro",
        "street": "Rua Áurea Vitalina Vieira",
        "zipcode": "88370-416"
    },
    {
        "city": "Navegantes",
        "state": "SC",
        "district": "Centro",
        "street": "Rua Mário Rebelo",
        "zipcode": "88370-098"
    },
    {
        "city": "Navegantes",
        "state": "SC",
        "district": "Centro",
        "street": "Travessa Neli Langner de Lima",
        "zipcode": "88370-270"
    },
    {
        "city": "Navegantes",
        "state": "SC",
        "district": "São Domingos",
        "street": "Rua Vereador José Frederico de Souza",
        "zipcode": "88370-576"
    },
    {
        "city": "Navegantes",
        "state": "SC",
        "district": "Centro",
        "street": "Rua Secretário José Juarez da Costa",
        "zipcode": "88370-318"
    },
    {
        "city": "Navegantes",
        "state": "SC",
        "district": "Meia Praia",
        "street": "Rua Senador Carlos Gomes de Oliveira",
        "zipcode": "88372-282"
    },
    {
        "city": "Navegantes",
        "state": "SC",
        "district": "Centro",
        "street": "Rua Comandante Francisco Dias",
        "zipcode": "88370-328"
    },
    {
        "city": "Navegantes",
        "state": "SC",
        "district": "Centro",
        "street": "Rua Vereador Francisco Marcelino Vieira",
        "zipcode": "88370-360"
    },
    {
        "city": "Navegantes",
        "state": "SC",
        "district": "Centro",
        "street": "Avenida Conselheiro João Gaya",
        "zipcode": "88370-396"
    },
    {
        "city": "Navegantes",
        "state": "SC",
        "district": "Centro",
        "street": "Rua João Kleis",
        "zipcode": "88370-120"
    },
    {
        "city": "Navegantes",
        "state": "SC",
        "district": "Centro",
        "street": "Rua Emília Linhares de Souza",
        "zipcode": "88370-258"
    },
    {
        "city": "Navegantes",
        "state": "SC",
        "district": "Centro",
        "street": "Rua José Thiago da Costa",
        "zipcode": "88370-486"
    },
    {
        "city": "Navegantes",
        "state": "SC",
        "district": "Centro",
        "street": "Beco José Tiago",
        "zipcode": "88370-488"
    },
    {
        "city": "Navegantes",
        "state": "SC",
        "district": "Centro",
        "street": "Rua Lauro Amâncio Couto",
        "zipcode": "88370-294"
    },
    {
        "city": "Navegantes",
        "state": "SC",
        "district": "Centro",
        "street": "Rua Leocádio Ferreira Barbosa",
        "zipcode": "88370-220"
    },
    {
        "city": "Navegantes",
        "state": "SC",
        "district": "Centro",
        "street": "Rua Evaldo Reiser",
        "zipcode": "88370-462"
    },
    {
        "city": "Navegantes",
        "state": "SC",
        "district": "Centro",
        "street": "Rua Virginia Couto de Souza",
        "zipcode": "88370-502"
    },
    {
        "city": "Navegantes",
        "state": "SC",
        "district": "São Domingos",
        "street": "Beco João Claudino",
        "zipcode": "88370-537"
    },
    {
        "city": "Navegantes",
        "state": "SC",
        "district": "Centro",
        "street": "Rua Padre Gilberto Gonzaga",
        "zipcode": "88370-154"
    },
    {
        "city": "Navegantes",
        "state": "SC",
        "district": "São Domingos",
        "street": "Rua Gracilides Coelho Reiser",
        "zipcode": "88370-552"
    },
    {
        "city": "Navegantes",
        "state": "SC",
        "district": "Gravatá",
        "street": "Rua Guilherme Wegner",
        "zipcode": "88372-718"
    },
    {
        "city": "Navegantes",
        "state": "SC",
        "district": "Gravatá",
        "street": "Servidão Hertha Beduschi",
        "zipcode": "88372-610"
    },
    {
        "city": "Navegantes",
        "state": "SC",
        "district": "Centro",
        "street": "Rua Maria Gaya",
        "zipcode": "88370-426"
    },
    {
        "city": "Navegantes",
        "state": "SC",
        "district": "Gravatá",
        "street": "Rua Valdir da Luz",
        "zipcode": "88372-750"
    },
    {
        "city": "Navegantes",
        "state": "SC",
        "district": "Centro",
        "street": "Rua Antero José Rocha",
        "zipcode": "88370-452"
    },
    {
        "city": "Navegantes",
        "state": "SC",
        "district": "Centro",
        "street": "Rua Antonio Adolfo da Luz",
        "zipcode": "88370-404"
    },
    {
        "city": "Navegantes",
        "state": "SC",
        "district": "Centro",
        "street": "Rua Osmar Gaya",
        "zipcode": "88370-208"
    },
    {
        "city": "Navegantes",
        "state": "SC",
        "district": "Meia Praia",
        "street": "Rua Fortunato Antonio Inácio",
        "zipcode": "88372-126"
    },
    {
        "city": "Navegantes",
        "state": "SC",
        "district": "Machados",
        "street": "Rua Prefeito Domingos Angelino Régis",
        "zipcode": "88371-427"
    },
    {
        "city": "Navegantes",
        "state": "SC",
        "district": "São Paulo",
        "street": "Rua Manoel Mauricio Rocha",
        "zipcode": "88371-098"
    },
    {
        "city": "Navegantes",
        "state": "SC",
        "district": "Centro",
        "street": "Rua Marechal Olímpio Falcuniéri da Cunha",
        "zipcode": "88370-384"
    },
    {
        "city": "Navegantes",
        "state": "SC",
        "district": "Centro",
        "street": "Avenida Prefeito José Juvenal Mafra",
        "zipcode": "88370-136"
    },
    {
        "city": "Navegantes",
        "state": "SC",
        "district": "Machados",
        "street": "Rua Amandio José Mafra",
        "zipcode": "88371-445"
    },
    {
        "city": "Navegantes",
        "state": "SC",
        "district": "Centro",
        "street": "Rua Osni Antônio Valentim",
        "zipcode": "88370-226"
    },
    {
        "city": "Navegantes",
        "state": "SC",
        "district": "São Domingos",
        "street": "Rua Expedicionário Paulino Bernardino Francisco",
        "zipcode": "88370-819"
    },
    {
        "city": "Navegantes",
        "state": "SC",
        "district": "Centro",
        "street": "Rua Pedro Dionísio de Souza",
        "zipcode": "88370-236"
    },
    {
        "city": "Navegantes",
        "state": "SC",
        "district": "Centro",
        "street": "Rua Pedro Elpídio Lobo",
        "zipcode": "88370-248"
    },
    {
        "city": "Navegantes",
        "state": "SC",
        "district": "São Domingos",
        "street": "Avenida Portuária Vicente Coelho",
        "zipcode": "88370-522"
    },
    {
        "city": "Navegantes",
        "state": "SC",
        "district": "Centro",
        "street": "Rua Antonio Reiser",
        "zipcode": "88370-144"
    },
    {
        "city": "Navegantes",
        "state": "SC",
        "district": "São Domingos",
        "street": "Rua Antonio Saturnino Cardoso",
        "zipcode": "88370-712"
    },
    {
        "city": "Navegantes",
        "state": "SC",
        "district": "Centro",
        "street": "Rua Sebastião Vicente Coelho",
        "zipcode": "88370-174"
    },
    {
        "city": "Navegantes",
        "state": "SC",
        "district": "Centro",
        "street": "Rua Selma Gaya Coelho",
        "zipcode": "88370-164"
    },
    {
        "city": "Navegantes",
        "state": "SC",
        "district": "Gravatá",
        "street": "Rua Theotonia Ana de Jesus",
        "zipcode": "88372-728"
    },
    {
        "city": "Navegantes",
        "state": "SC",
        "district": "São Domingos",
        "street": "Rua Félix Estevão Couto",
        "zipcode": "88370-588"
    },
    {
        "city": "Navegantes",
        "state": "SC",
        "district": "Machados",
        "street": "Rua Rodrigo Erbs",
        "zipcode": "88371-564"
    },
    {
        "city": "Navegantes",
        "state": "SC",
        "district": "Gravatá",
        "street": "Avenida Joaquim Couto",
        "zipcode": "88372-812"
    },
    {
        "city": "Navegantes",
        "state": "SC",
        "district": "Centro",
        "street": "Rua Lúcio Souza",
        "zipcode": "88370-450"
    },
    {
        "city": "Navegantes",
        "state": "SC",
        "district": "Pedreiras",
        "street": "Beco Luiz João Bento",
        "zipcode": "88373-143"
    },
    {
        "city": "Navegantes",
        "state": "SC",
        "district": "Centro",
        "street": "Servidão Manoel Costa",
        "zipcode": "88370-086"
    },
    {
        "city": "Navegantes",
        "state": "SC",
        "district": "Gravatá",
        "street": "Rua Canadá",
        "zipcode": "88372-666"
    },
    {
        "city": "Navegantes",
        "state": "SC",
        "district": "Gravatá",
        "street": "Rua Carlos Boos",
        "zipcode": "88372-800"
    },
    {
        "city": "Navegantes",
        "state": "SC",
        "district": "São Pedro",
        "street": "Avenida Prefeito Cirino Adolfo Cabral",
        "zipcode": "88370-053"
    },
    {
        "city": "Navegantes",
        "state": "SC",
        "district": "Pedreiras",
        "street": "Rua Francisco de Paula Seara",
        "zipcode": "88373-000"
    },
    {
        "city": "Navegantes",
        "state": "SC",
        "district": "Machados",
        "street": "Rua João Inácio Moreira",
        "zipcode": "88371-330"
    },
    {
        "city": "Navegantes",
        "state": "SC",
        "district": "Gravatá",
        "street": "Rua Eurico Krobel",
        "zipcode": "88372-816"
    },
    {
        "city": "Navegantes",
        "state": "SC",
        "district": "Gravatá",
        "street": "Rua J",
        "zipcode": "88372-806"
    },
    {
        "city": "Navegantes",
        "state": "SC",
        "district": "Pedreiras",
        "street": "Rodovia BR",
        "zipcode": "88373-330"
    },
    {
        "city": "Navegantes",
        "state": "SC",
        "district": "Centro",
        "street": "Rua Honorato Coelho da Rocha",
        "zipcode": "88370-076"
    },
    {
        "city": "Navegantes",
        "state": "SC",
        "district": "Gravatá",
        "street": "Rua I",
        "zipcode": "88372-804"
    },
    {
        "city": "Navegantes",
        "state": "SC",
        "district": "Centro",
        "street": "Servidão Domiciliana Pereira Lopes",
        "zipcode": "88370-476"
    },
    {
        "city": "Navegantes",
        "state": "SC",
        "district": "Centro",
        "street": "Avenida Prefeito José Juvenal Mafra",
        "zipcode": "88370-112"
    },
    {
        "city": "Navegantes",
        "state": "SC",
        "district": "São Domingos",
        "street": "Rua Vereador Gilço Antonio Batista",
        "zipcode": "88370-774"
    },
    {
        "city": "Navegantes",
        "state": "SC",
        "district": "Meia Praia",
        "street": "Rua Administrador Manoel Damásio Mafra",
        "zipcode": "88372-070"
    },
    {
        "city": "Navegantes",
        "state": "SC",
        "district": "Centro",
        "street": "Rua José Claudinor Rebello",
        "zipcode": "88370-352"
    },
    {
        "city": "Navegantes",
        "state": "SC",
        "district": "São Pedro",
        "street": "Rua Irene Gaya",
        "zipcode": "88370-017"
    },
    {
        "city": "Navegantes",
        "state": "SC",
        "district": "Gravatá",
        "street": "Rua Aldo Mário de Almeida",
        "zipcode": "88372-814"
    },
    {
        "city": "Navegantes",
        "state": "SC",
        "district": "Machados",
        "street": "Rua Alfredo Manoel Bento",
        "zipcode": "88371-322"
    },
    {
        "city": "Navegantes",
        "state": "SC",
        "district": "São Pedro",
        "street": "Rua Manoel Patrício",
        "zipcode": "88370-007"
    },
    {
        "city": "Navegantes",
        "state": "SC",
        "district": "Centro",
        "street": "Rua Maria Augusta da Costa",
        "zipcode": "88370-482"
    },
    {
        "city": "Navegantes",
        "state": "SC",
        "district": "Pedreiras",
        "street": "Servidão Maria Bento Justino",
        "zipcode": "88373-149"
    },
    {
        "city": "Navegantes",
        "state": "SC",
        "district": "Pedreiras",
        "street": "Beco Maria Cardoso Bento",
        "zipcode": "88373-140"
    },
    {
        "city": "Navegantes",
        "state": "SC",
        "district": "Nossa Senhora das Graças",
        "street": "Rua Maria Glaci Silveira",
        "zipcode": "88371-270"
    },
    {
        "city": "Navegantes",
        "state": "SC",
        "district": "São Domingos",
        "street": "Rua Anastácio Silva",
        "zipcode": "88370-816"
    },
    {
        "city": "Navegantes",
        "state": "SC",
        "district": "Gravatá",
        "street": "Rua Anibal Narciso",
        "zipcode": "88372-828"
    },
    {
        "city": "Navegantes",
        "state": "SC",
        "district": "Gravatá",
        "street": "Rua Antonio Adolfo Cabral",
        "zipcode": "88372-794"
    },
    {
        "city": "Navegantes",
        "state": "SC",
        "district": "Gravatá",
        "street": "Rua Antonio Amandio Couto",
        "zipcode": "88372-792"
    },
    {
        "city": "Navegantes",
        "state": "SC",
        "district": "São Pedro",
        "street": "Rua Otávio Joaquim Emílio",
        "zipcode": "88370-029"
    },
    {
        "city": "Navegantes",
        "state": "SC",
        "district": "Centro",
        "street": "Travessa Aracati",
        "zipcode": "88370-064"
    },
    {
        "city": "Navegantes",
        "state": "SC",
        "district": "Machados",
        "street": "Beco Romão",
        "zipcode": "88371-578"
    },
    {
        "city": "Navegantes",
        "state": "SC",
        "district": "Gravatá",
        "street": "Rua Salomão Eichner",
        "zipcode": "88372-660"
    },
    {
        "city": "Navegantes",
        "state": "SC",
        "district": "Gravatá",
        "street": "Rua Salvio Narciso",
        "zipcode": "88372-832"
    },
    {
        "city": "Navegantes",
        "state": "SC",
        "district": "São Paulo",
        "street": "Rua Sérgio Gaya",
        "zipcode": "88371-134"
    },
    {
        "city": "Navegantes",
        "state": "SC",
        "district": "Pedreiras",
        "street": "Beco Arnaldo João Bento",
        "zipcode": "88373-146"
    },
    {
        "city": "Navegantes",
        "state": "SC",
        "district": "Escalvados",
        "street": "Rua do Leiteiro",
        "zipcode": "88374-010"
    },
    {
        "city": "Navegantes",
        "state": "SC",
        "district": "São Paulo",
        "street": "Rua Gilberto Eduardo Leal",
        "zipcode": "88371-138"
    },
    {
        "city": "Navegantes",
        "state": "SC",
        "district": "Pedreiras",
        "street": "Rua Romeu Inácio da Silva",
        "zipcode": "88373-340"
    },
    {
        "city": "Navegantes",
        "state": "SC",
        "district": "Escalvados",
        "street": "Rua José Emidio",
        "zipcode": "88374-060"
    },
    {
        "city": "Navegantes",
        "state": "SC",
        "district": "Centro",
        "street": "Rua Ricardo Mafra",
        "zipcode": "88370-490"
    },
    {
        "city": "Navegantes",
        "state": "SC",
        "district": "Escalvados",
        "street": "Rua da Amizade",
        "zipcode": "88374-040"
    },
    {
        "city": "Navegantes",
        "state": "SC",
        "district": "Pedreiras",
        "street": "Rua Onório Bortolato",
        "zipcode": "88373-180"
    },
    {
        "city": "Navegantes",
        "state": "SC",
        "district": "Pedreiras",
        "street": "Rua Manoel Mariano",
        "zipcode": "88373-310"
    },
    {
        "city": "Navegantes",
        "state": "SC",
        "district": "Gravatá",
        "street": "Rua Deputado Gilmar Knaesel",
        "zipcode": "88372-826"
    },
    {
        "city": "Navegantes",
        "state": "SC",
        "district": "São Domingos",
        "street": "Rua Vereador Olímpio Romão Mianes",
        "zipcode": "88370-771"
    },
    {
        "city": "Navegantes",
        "state": "SC",
        "district": "Gravatá",
        "street": "Rua Onélia Couto Cabral",
        "zipcode": "88372-824"
    },
    {
        "city": "Navegantes",
        "state": "SC",
        "district": "Centro",
        "street": "Rua Tecla Largura",
        "zipcode": "88370-244"
    },
    {
        "city": "Navegantes",
        "state": "SC",
        "district": "São Domingos",
        "street": "Rua José Eduardo Cardoso",
        "zipcode": "88370-703"
    },
    {
        "city": "Navegantes",
        "state": "SC",
        "district": "Gravatá",
        "street": "Rua Manoel Claudino da Costa",
        "zipcode": "88372-586"
    },
    {
        "city": "Navegantes",
        "state": "SC",
        "district": "Gravatá",
        "street": "Rua Jorge Lacerda",
        "zipcode": "88372-616"
    },
    {
        "city": "Navegantes",
        "state": "SC",
        "district": "Gravatá",
        "street": "Rua Jorge Lacerda",
        "zipcode": "88372-652"
    },
    {
        "city": "Navegantes",
        "state": "SC",
        "district": "Gravatá",
        "street": "Rua Carlos Boos",
        "zipcode": "88372-580"
    },
    {
        "city": "Navegantes",
        "state": "SC",
        "district": "Gravatá",
        "street": "Rua Carlos de Oliveira",
        "zipcode": "88372-686"
    },
    {
        "city": "Navegantes",
        "state": "SC",
        "district": "Gravatá",
        "street": "Rua Carlos de Paula Seara",
        "zipcode": "88372-620"
    },
    {
        "city": "Navegantes",
        "state": "SC",
        "district": "Centro",
        "street": "Travessa Cerutti",
        "zipcode": "88370-230"
    },
    {
        "city": "Navegantes",
        "state": "SC",
        "district": "Gravatá",
        "street": "Avenida Prefeito Cirino Adolfo Cabral",
        "zipcode": "88372-612"
    },
    {
        "city": "Navegantes",
        "state": "SC",
        "district": "Gravatá",
        "street": "Rua Flaviano de Paula Seara",
        "zipcode": "88372-606"
    },
    {
        "city": "Navegantes",
        "state": "SC",
        "district": "Gravatá",
        "street": "Rua Francisco Manoel da Silva",
        "zipcode": "88372-630"
    },
    {
        "city": "Navegantes",
        "state": "SC",
        "district": "Gravatá",
        "street": "Rua João Nicolau dos Santos",
        "zipcode": "88372-712"
    },
    {
        "city": "Navegantes",
        "state": "SC",
        "district": "Gravatá",
        "street": "Rua Jaraguá do Sul",
        "zipcode": "88372-632"
    },
    {
        "city": "Navegantes",
        "state": "SC",
        "district": "Gravatá",
        "street": "Rua Costa Panoramica",
        "zipcode": "88372-716"
    },
    {
        "city": "Navegantes",
        "state": "SC",
        "district": "Gravatá",
        "street": "Rua Délcio Amorim",
        "zipcode": "88372-692"
    },
    {
        "city": "Navegantes",
        "state": "SC",
        "district": "Gravatá",
        "street": "Rua José Maximiliano de Andrade",
        "zipcode": "88372-752"
    },
    {
        "city": "Navegantes",
        "state": "SC",
        "district": "Gravatá",
        "street": "Rua Lauro Muller",
        "zipcode": "88372-640"
    },
    {
        "city": "Navegantes",
        "state": "SC",
        "district": "Gravatá",
        "street": "Rua Evaldo Reiser Filho",
        "zipcode": "88372-736"
    },
    {
        "city": "Navegantes",
        "state": "SC",
        "district": "Gravatá",
        "street": "Rua Evaldo Reiser Filho",
        "zipcode": "88372-742"
    },
    {
        "city": "Navegantes",
        "state": "SC",
        "district": "Gravatá",
        "street": "Rua Victor Konder",
        "zipcode": "88372-622"
    },
    {
        "city": "Navegantes",
        "state": "SC",
        "district": "Gravatá",
        "street": "Rua Virgínio Reiser",
        "zipcode": "88372-604"
    },
    {
        "city": "Navegantes",
        "state": "SC",
        "district": "Gravatá",
        "street": "Rua Wilhelm Otto Heinrich Nack",
        "zipcode": "88372-636"
    },
    {
        "city": "Navegantes",
        "state": "SC",
        "district": "Gravatá",
        "street": "Rua Henrique Julião",
        "zipcode": "88372-810"
    },
    {
        "city": "Navegantes",
        "state": "SC",
        "district": "Pedreiras",
        "street": "Servidão Teodoro Laudelino Amorim",
        "zipcode": "88373-370"
    },
    {
        "city": "Navegantes",
        "state": "SC",
        "district": "São Domingos",
        "street": "Rua Itajaí",
        "zipcode": "88370-513"
    },
    {
        "city": "Navegantes",
        "state": "SC",
        "district": "Gravatá",
        "street": "Rua Hercílio Gonçalves",
        "zipcode": "88372-696"
    },
    {
        "city": "Navegantes",
        "state": "SC",
        "district": "Gravatá",
        "street": "Rua Hernandes Lopes",
        "zipcode": "88372-590"
    },
    {
        "city": "Navegantes",
        "state": "SC",
        "district": "Gravatá",
        "street": "Rua Alberto Werner",
        "zipcode": "88372-596"
    },
    {
        "city": "Navegantes",
        "state": "SC",
        "district": "Gravatá",
        "street": "Rua Alberto Werner",
        "zipcode": "88372-790"
    },
    {
        "city": "Navegantes",
        "state": "SC",
        "district": "Gravatá",
        "street": "Rua Aldo Mário de Almeida",
        "zipcode": "88372-574"
    },
    {
        "city": "Navegantes",
        "state": "SC",
        "district": "Gravatá",
        "street": "Rua Maria de Lourdes Couto Cabral",
        "zipcode": "88372-746"
    },
    {
        "city": "Navegantes",
        "state": "SC",
        "district": "Gravatá",
        "street": "Rua Valmor Ostermann",
        "zipcode": "88372-654"
    },
    {
        "city": "Navegantes",
        "state": "SC",
        "district": "Gravatá",
        "street": "Rua André Schumacher",
        "zipcode": "88372-584"
    },
    {
        "city": "Navegantes",
        "state": "SC",
        "district": "Gravatá",
        "street": "Rua Anita Garibaldi",
        "zipcode": "88372-670"
    },
    {
        "city": "Navegantes",
        "state": "SC",
        "district": "Gravatá",
        "street": "Rua Antonio Adolfo Cabral",
        "zipcode": "88372-592"
    },
    {
        "city": "Navegantes",
        "state": "SC",
        "district": "Gravatá",
        "street": "Rua Oscar Cordeiro",
        "zipcode": "88372-628"
    },
    {
        "city": "Navegantes",
        "state": "SC",
        "district": "Gravatá",
        "street": "Rua Osmar Reiser",
        "zipcode": "88372-738"
    },
    {
        "city": "Navegantes",
        "state": "SC",
        "district": "Gravatá",
        "street": "Rua Osvaldo Schimitz",
        "zipcode": "88372-668"
    },
    {
        "city": "Navegantes",
        "state": "SC",
        "district": "Gravatá",
        "street": "Rua Osvaldo Schimitz",
        "zipcode": "88372-706"
    },
    {
        "city": "Navegantes",
        "state": "SC",
        "district": "Gravatá",
        "street": "Rua Paraguai",
        "zipcode": "88372-680"
    },
    {
        "city": "Navegantes",
        "state": "SC",
        "district": "Gravatá",
        "street": "Rua Pedro Cardoso Sacavem",
        "zipcode": "88372-740"
    },
    {
        "city": "Navegantes",
        "state": "SC",
        "district": "Gravatá",
        "street": "Rua Roberto Hartke",
        "zipcode": "88372-594"
    },
    {
        "city": "Navegantes",
        "state": "SC",
        "district": "Gravatá",
        "street": "Rua Sebastião Rodrigues",
        "zipcode": "88372-726"
    },
    {
        "city": "Navegantes",
        "state": "SC",
        "district": "Gravatá",
        "street": "Rua Cristino Maria da Conceição",
        "zipcode": "88372-684"
    },
    {
        "city": "Navegantes",
        "state": "SC",
        "district": "Gravatá",
        "street": "Rua Ney João Gaya",
        "zipcode": "88372-720"
    },
    {
        "city": "Navegantes",
        "state": "SC",
        "district": "Gravatá",
        "street": "Rua Valdemar Bornhausen",
        "zipcode": "88372-644"
    },
    {
        "city": "Navegantes",
        "state": "SC",
        "district": "Pedreiras",
        "street": "Rua Onório Bortolato",
        "zipcode": "88373-900"
    },
    {
        "city": "Navegantes",
        "state": "SC",
        "district": "Gravatá",
        "street": "Rua Leonel Flaviano de Paulo Seara",
        "zipcode": "88372-704"
    },
    {
        "city": "Navegantes",
        "state": "SC",
        "district": "Meia Praia",
        "street": "Rua Emilio Jannis",
        "zipcode": "88372-108"
    },
    {
        "city": "Navegantes",
        "state": "SC",
        "district": "Gravatá",
        "street": "Rua Bolívia",
        "zipcode": "88372-682"
    },
    {
        "city": "Navegantes",
        "state": "SC",
        "district": "Centro",
        "street": "Beco Taioba",
        "zipcode": "88370-466"
    },
    {
        "city": "Navegantes",
        "state": "SC",
        "district": "Gravatá",
        "street": "Rua Uruguai",
        "zipcode": "88372-678"
    },
    {
        "city": "Navegantes",
        "state": "SC",
        "district": "Gravatá",
        "street": "Rua Uruguai",
        "zipcode": "88372-690"
    },
    {
        "city": "Navegantes",
        "state": "SC",
        "district": "Gravatá",
        "street": "Rua Maurício Monerat",
        "zipcode": "88372-530"
    },
    {
        "city": "Navegantes",
        "state": "SC",
        "district": "Gravatá",
        "street": "Rua Miguel Narciso",
        "zipcode": "88372-534"
    },
    {
        "city": "Navegantes",
        "state": "SC",
        "district": "Gravatá",
        "street": "Rua Luiz Manoel do Nascimento",
        "zipcode": "88372-540"
    },
    {
        "city": "Navegantes",
        "state": "SC",
        "district": "Gravatá",
        "street": "Rua Jorge Agenor da Luz",
        "zipcode": "88372-570"
    },
    {
        "city": "Navegantes",
        "state": "SC",
        "district": "Gravatá",
        "street": "Rua José Anacleto",
        "zipcode": "88372-562"
    },
    {
        "city": "Navegantes",
        "state": "SC",
        "district": "Gravatá",
        "street": "Rua José Couto",
        "zipcode": "88372-550"
    },
    {
        "city": "Navegantes",
        "state": "SC",
        "district": "Meia Praia",
        "street": "Rua José Eugênio Muller",
        "zipcode": "88372-264"
    },
    {
        "city": "Navegantes",
        "state": "SC",
        "district": "Meia Praia",
        "street": "Rua José Lino Rocha",
        "zipcode": "88372-175"
    },
    {
        "city": "Navegantes",
        "state": "SC",
        "district": "Meia Praia",
        "street": "Rua José Lino Rocha",
        "zipcode": "88372-185"
    },
    {
        "city": "Navegantes",
        "state": "SC",
        "district": "Meia Praia",
        "street": "Rua Manoel Inácio da Silveira",
        "zipcode": "88372-292"
    },
    {
        "city": "Navegantes",
        "state": "SC",
        "district": "Meia Praia",
        "street": "Avenida Prefeito Cirino Adolfo Cabral",
        "zipcode": "88372-260"
    },
    {
        "city": "Navegantes",
        "state": "SC",
        "district": "Meia Praia",
        "street": "Avenida Prefeito Cirino Adolfo Cabral",
        "zipcode": "88372-268"
    },
    {
        "city": "Navegantes",
        "state": "SC",
        "district": "Gravatá",
        "street": "Avenida Prefeito Cirino Adolfo Cabral",
        "zipcode": "88372-500"
    },
    {
        "city": "Navegantes",
        "state": "SC",
        "district": "Meia Praia",
        "street": "Rua Prefeito Francisco de Almeida",
        "zipcode": "88372-278"
    },
    {
        "city": "Navegantes",
        "state": "SC",
        "district": "Meia Praia",
        "street": "Rua Professor Francisco José Baron",
        "zipcode": "88372-114"
    },
    {
        "city": "Navegantes",
        "state": "SC",
        "district": "Gravatá",
        "street": "Rua João Graciliano da Silva",
        "zipcode": "88372-572"
    },
    {
        "city": "Navegantes",
        "state": "SC",
        "district": "Meia Praia",
        "street": "Rua Egídio Narciso",
        "zipcode": "88372-272"
    },
    {
        "city": "Navegantes",
        "state": "SC",
        "district": "Meia Praia",
        "street": "Rua Conceição Maria da Costa",
        "zipcode": "88372-180"
    },
    {
        "city": "Navegantes",
        "state": "SC",
        "district": "Gravatá",
        "street": "Rua José Romão",
        "zipcode": "88372-502"
    },
    {
        "city": "Navegantes",
        "state": "SC",
        "district": "Gravatá",
        "street": "Rua Júlia Cardoso do Nascimento",
        "zipcode": "88372-538"
    },
    {
        "city": "Navegantes",
        "state": "SC",
        "district": "Meia Praia",
        "street": "Rua Juventino Linhares",
        "zipcode": "88372-270"
    },
    {
        "city": "Navegantes",
        "state": "SC",
        "district": "Meia Praia",
        "street": "Rua Laudelino Fermino de Novaes",
        "zipcode": "88372-102"
    },
    {
        "city": "Navegantes",
        "state": "SC",
        "district": "Gravatá",
        "street": "Rua Eurico Krobel",
        "zipcode": "88372-568"
    },
    {
        "city": "Navegantes",
        "state": "SC",
        "district": "Meia Praia",
        "street": "Rua Zozimo André",
        "zipcode": "88372-290"
    },
    {
        "city": "Navegantes",
        "state": "SC",
        "district": "Meia Praia",
        "street": "Avenida Ivo Silveira",
        "zipcode": "88372-130"
    },
    {
        "city": "Navegantes",
        "state": "SC",
        "district": "Gravatá",
        "street": "Avenida Ivo Silveira",
        "zipcode": "88372-510"
    },
    {
        "city": "Navegantes",
        "state": "SC",
        "district": "Gravatá",
        "street": "Rua Raimundo Mafra",
        "zipcode": "88372-744"
    },
    {
        "city": "Navegantes",
        "state": "SC",
        "district": "Meia Praia",
        "street": "Rua Geraldo José Borba",
        "zipcode": "88372-205"
    },
    {
        "city": "Navegantes",
        "state": "SC",
        "district": "Gravatá",
        "street": "Rua Gerônimo de Souza",
        "zipcode": "88372-524"
    },
    {
        "city": "Navegantes",
        "state": "SC",
        "district": "Meia Praia",
        "street": "Rua Gervásio de Souza",
        "zipcode": "88372-210"
    },
    {
        "city": "Navegantes",
        "state": "SC",
        "district": "Meia Praia",
        "street": "Rua Adolfo Cabral Júnior",
        "zipcode": "88372-200"
    },
    {
        "city": "Navegantes",
        "state": "SC",
        "district": "Meia Praia",
        "street": "Rua Alfredo José Rebello",
        "zipcode": "88372-266"
    },
    {
        "city": "Navegantes",
        "state": "SC",
        "district": "Meia Praia",
        "street": "Rua Iris Moraes",
        "zipcode": "88372-128"
    },
    {
        "city": "Navegantes",
        "state": "SC",
        "district": "Meia Praia",
        "street": "Rua Valério Leopoldo Largura",
        "zipcode": "88372-110"
    },
    {
        "city": "Navegantes",
        "state": "SC",
        "district": "Gravatá",
        "street": "Rua América Narciso Pereira",
        "zipcode": "88372-508"
    },
    {
        "city": "Navegantes",
        "state": "SC",
        "district": "Nossa Senhora das Graças",
        "street": "Rua Anivaldo Couto",
        "zipcode": "88371-300"
    },
    {
        "city": "Navegantes",
        "state": "SC",
        "district": "Gravatá",
        "street": "Rua Frei Antoninho",
        "zipcode": "88372-518"
    },
    {
        "city": "Navegantes",
        "state": "SC",
        "district": "Gravatá",
        "street": "Rua Antonio Gartner",
        "zipcode": "88372-566"
    },
    {
        "city": "Navegantes",
        "state": "SC",
        "district": "Meia Praia",
        "street": "Rua Antonio Inácio",
        "zipcode": "88372-288"
    },
    {
        "city": "Navegantes",
        "state": "SC",
        "district": "Meia Praia",
        "street": "Travessa Antonio Lauriano das Neves",
        "zipcode": "88372-118"
    },
    {
        "city": "Navegantes",
        "state": "SC",
        "district": "Meia Praia",
        "street": "Rua Antonio Libório",
        "zipcode": "88372-112"
    },
    {
        "city": "Navegantes",
        "state": "SC",
        "district": "Gravatá",
        "street": "Rua Antonio Nascimento",
        "zipcode": "88372-520"
    },
    {
        "city": "Navegantes",
        "state": "SC",
        "district": "Meia Praia",
        "street": "Rua Orlandino Formigal",
        "zipcode": "88372-122"
    },
    {
        "city": "Navegantes",
        "state": "SC",
        "district": "Gravatá",
        "street": "Rua Paulino Libório",
        "zipcode": "88372-514"
    },
    {
        "city": "Navegantes",
        "state": "SC",
        "district": "Meia Praia",
        "street": "Rua Engenheiro Paulo Werer",
        "zipcode": "88372-276"
    },
    {
        "city": "Navegantes",
        "state": "SC",
        "district": "Meia Praia",
        "street": "Avenida Radial Leste",
        "zipcode": "88372-100"
    },
    {
        "city": "Navegantes",
        "state": "SC",
        "district": "Meia Praia",
        "street": "Rua Antonio Vicente dos Passos Filho",
        "zipcode": "88372-124"
    },
    {
        "city": "Navegantes",
        "state": "SC",
        "district": "Meia Praia",
        "street": "Rua Vereador Thimóteo Goes Rebelo",
        "zipcode": "88372-120"
    },
    {
        "city": "Navegantes",
        "state": "SC",
        "district": "Gravatá",
        "street": "Beco João Estevão Libório",
        "zipcode": "88372-528"
    },
    {
        "city": "Navegantes",
        "state": "SC",
        "district": "Gravatá",
        "street": "Rua Aparício José Mafra",
        "zipcode": "88372-526"
    },
    {
        "city": "Navegantes",
        "state": "SC",
        "district": "Gravatá",
        "street": "Rua Alvin Marcelino Bernardo",
        "zipcode": "88372-558"
    },
    {
        "city": "Navegantes",
        "state": "SC",
        "district": "Meia Praia",
        "street": "Rua Félix Busso Assenburg",
        "zipcode": "88372-104"
    },
    {
        "city": "Navegantes",
        "state": "SC",
        "district": "Gravatá",
        "street": "Rua Félix Krieger",
        "zipcode": "88372-516"
    },
    {
        "city": "Navegantes",
        "state": "SC",
        "district": "Meia Praia",
        "street": "Rua Nilo Fachini",
        "zipcode": "88372-042"
    },
    {
        "city": "Navegantes",
        "state": "SC",
        "district": "Meia Praia",
        "street": "Rua Engenheiro Victor Hug",
        "zipcode": "88372-068"
    },
    {
        "city": "Navegantes",
        "state": "SC",
        "district": "Volta Grande",
        "street": "Rua Prefeito Manoel Evaldo Müller",
        "zipcode": "88371-870"
    },
    {
        "city": "Navegantes",
        "state": "SC",
        "district": "Machados",
        "street": "Travessa Macarini",
        "zipcode": "88371-548"
    },
    {
        "city": "Navegantes",
        "state": "SC",
        "district": "Meia Praia",
        "street": "Rua Manoel Hoffmann",
        "zipcode": "88372-040"
    },
    {
        "city": "Navegantes",
        "state": "SC",
        "district": "Meia Praia",
        "street": "Rua Carl Gerner",
        "zipcode": "88372-082"
    },
    {
        "city": "Navegantes",
        "state": "SC",
        "district": "Meia Praia",
        "street": "Rua Carlos Henrique Melchier",
        "zipcode": "88372-074"
    },
    {
        "city": "Navegantes",
        "state": "SC",
        "district": "Meia Praia",
        "street": "Avenida Prefeito Cirino Adolfo Cabral",
        "zipcode": "88372-000"
    },
    {
        "city": "Navegantes",
        "state": "SC",
        "district": "Meia Praia",
        "street": "Avenida Prefeito Cirino Adolfo Cabral",
        "zipcode": "88372-028"
    },
    {
        "city": "Navegantes",
        "state": "SC",
        "district": "Volta Grande",
        "street": "Servidão Francisco Vieira",
        "zipcode": "88371-686"
    },
    {
        "city": "Navegantes",
        "state": "SC",
        "district": "Meia Praia",
        "street": "Rua Engenheiro Félix Malburg",
        "zipcode": "88372-098"
    },
    {
        "city": "Navegantes",
        "state": "SC",
        "district": "Machados",
        "street": "Rua Elza Zimmermann Provesi",
        "zipcode": "88371-644"
    },
    {
        "city": "Navegantes",
        "state": "SC",
        "district": "Meia Praia",
        "street": "Rua José Vander Pinheiro",
        "zipcode": "88372-014"
    },
    {
        "city": "Navegantes",
        "state": "SC",
        "district": "Meia Praia",
        "street": "Rua Ernesto Müller",
        "zipcode": "88372-036"
    },
    {
        "city": "Navegantes",
        "state": "SC",
        "district": "Machados",
        "street": "Rua Eugênia Pereira Ignácio",
        "zipcode": "88371-632"
    },
    {
        "city": "Navegantes",
        "state": "SC",
        "district": "Machados",
        "street": "Rua José Vieira Rodrigues",
        "zipcode": "88371-616"
    },
    {
        "city": "Navegantes",
        "state": "SC",
        "district": "Meia Praia",
        "street": "Rua João Baldança Filho",
        "zipcode": "88372-058"
    },
    {
        "city": "Navegantes",
        "state": "SC",
        "district": "Meia Praia",
        "street": "Rua Engenheiro João da Rocha Mello",
        "zipcode": "88372-030"
    },
    {
        "city": "Navegantes",
        "state": "SC",
        "district": "Volta Grande",
        "street": "Rua João Dalçóquio",
        "zipcode": "88371-875"
    },
    {
        "city": "Navegantes",
        "state": "SC",
        "district": "Machados",
        "street": "Rodovia BR",
        "zipcode": "88371-624"
    },
    {
        "city": "Navegantes",
        "state": "SC",
        "district": "Volta Grande",
        "street": "Rodovia BR",
        "zipcode": "88371-890"
    },
    {
        "city": "Navegantes",
        "state": "SC",
        "district": "Meia Praia",
        "street": "Rua Eduardo Solon Cabral Canziani",
        "zipcode": "88372-002"
    },
    {
        "city": "Navegantes",
        "state": "SC",
        "district": "Meia Praia",
        "street": "Rua Fúlvio Pinto",
        "zipcode": "88372-010"
    },
    {
        "city": "Navegantes",
        "state": "SC",
        "district": "Volta Grande",
        "street": "Rua Germano Lemos",
        "zipcode": "88371-880"
    },
    {
        "city": "Navegantes",
        "state": "SC",
        "district": "Meia Praia",
        "street": "Rua Helmuth Becker",
        "zipcode": "88372-020"
    },
    {
        "city": "Navegantes",
        "state": "SC",
        "district": "Meia Praia",
        "street": "Rua Hervino Sebastião Belly",
        "zipcode": "88372-062"
    },
    {
        "city": "Navegantes",
        "state": "SC",
        "district": "Meia Praia",
        "street": "Rua Aldo Pereira da Costa",
        "zipcode": "88372-064"
    },
    {
        "city": "Navegantes",
        "state": "SC",
        "district": "Meia Praia",
        "street": "Rua Professora Maria Carlota Vieira",
        "zipcode": "88372-016"
    },
    {
        "city": "Navegantes",
        "state": "SC",
        "district": "Meia Praia",
        "street": "Rua Senador Antonio Carlos Konder Reis",
        "zipcode": "88372-008"
    },
    {
        "city": "Navegantes",
        "state": "SC",
        "district": "Meia Praia",
        "street": "Rua Juiz Osvaldo Area Horn",
        "zipcode": "88372-096"
    },
    {
        "city": "Navegantes",
        "state": "SC",
        "district": "Meia Praia",
        "street": "Rua Paulo Bauer",
        "zipcode": "88372-092"
    },
    {
        "city": "Navegantes",
        "state": "SC",
        "district": "Meia Praia",
        "street": "Rua Rodolfo Fischer",
        "zipcode": "88372-026"
    },
    {
        "city": "Navegantes",
        "state": "SC",
        "district": "Meia Praia",
        "street": "Rua Rudolf Gair",
        "zipcode": "88372-034"
    },
    {
        "city": "Navegantes",
        "state": "SC",
        "district": "Meia Praia",
        "street": "Rua Bernardino Antonio Narciso",
        "zipcode": "88372-066"
    },
    {
        "city": "Navegantes",
        "state": "SC",
        "district": "Meia Praia",
        "street": "Rua Bernardino Antonio Narciso",
        "zipcode": "88372-076"
    },
    {
        "city": "Navegantes",
        "state": "SC",
        "district": "Meia Praia",
        "street": "Rua Bernardino Fernandes de Oliveira",
        "zipcode": "88372-078"
    },
    {
        "city": "Navegantes",
        "state": "SC",
        "district": "Volta Grande",
        "street": "Servidão Bernardino Vitório Vieira",
        "zipcode": "88371-683"
    },
    {
        "city": "Navegantes",
        "state": "SC",
        "district": "Machados",
        "street": "Rua Orlando Ferreira",
        "zipcode": "88371-900"
    },
    {
        "city": "Navegantes",
        "state": "SC",
        "district": "Machados",
        "street": "Rua Santos Maccarini",
        "zipcode": "88371-904"
    },
    {
        "city": "Navegantes",
        "state": "SC",
        "district": "Machados",
        "street": "Rua Orlando Ferreira",
        "zipcode": "88371-902"
    },
    {
        "city": "Navegantes",
        "state": "SC",
        "district": "Meia Praia",
        "street": "Avenida Prefeito José Juvenal Mafra",
        "zipcode": "88372-080"
    },
    {
        "city": "Navegantes",
        "state": "SC",
        "district": "Nossa Senhora das Graças",
        "street": "Beco Dona Amélia",
        "zipcode": "88371-284"
    },
    {
        "city": "Navegantes",
        "state": "SC",
        "district": "Machados",
        "street": "Beco Graciliano Dias de Moura",
        "zipcode": "88371-636"
    },
    {
        "city": "Navegantes",
        "state": "SC",
        "district": "São Pedro",
        "street": "Rua Manoel Mafra Filho",
        "zipcode": "88370-003"
    },
    {
        "city": "Navegantes",
        "state": "SC",
        "district": "Meia Praia",
        "street": "Rua Engenheiro Ezair Francisco Borba",
        "zipcode": "88372-048"
    },
    {
        "city": "Navegantes",
        "state": "SC",
        "district": "Meia Praia",
        "street": "Rua Juvenal Constâncio Mafra",
        "zipcode": "88372-088"
    },
    {
        "city": "Navegantes",
        "state": "SC",
        "district": "Meia Praia",
        "street": "Rua Brusque",
        "zipcode": "88372-018"
    },
    {
        "city": "Navegantes",
        "state": "SC",
        "district": "Machados",
        "street": "Rua Prefeito Manoel Evaldo Müller",
        "zipcode": "88371-906"
    },
    {
        "city": "Navegantes",
        "state": "SC",
        "district": "Machados",
        "street": "Rua Olázio Schneider",
        "zipcode": "88371-346"
    },
    {
        "city": "Navegantes",
        "state": "SC",
        "district": "Machados",
        "street": "Rua Olga Gomes Pereira",
        "zipcode": "88371-484"
    },
    {
        "city": "Navegantes",
        "state": "SC",
        "district": "Machados",
        "street": "Rua Belmiro Santiago",
        "zipcode": "88371-604"
    },
    {
        "city": "Navegantes",
        "state": "SC",
        "district": "Machados",
        "street": "Rua Miguel Ranghetti",
        "zipcode": "88371-376"
    },
    {
        "city": "Navegantes",
        "state": "SC",
        "district": "Machados",
        "street": "Rua Moisés dos Santos",
        "zipcode": "88371-374"
    },
    {
        "city": "Navegantes",
        "state": "SC",
        "district": "Machados",
        "street": "Rua Vereador Luiz Costa",
        "zipcode": "88371-481"
    },
    {
        "city": "Navegantes",
        "state": "SC",
        "district": "Machados",
        "street": "Rua Santa Luzia",
        "zipcode": "88371-572"
    },
    {
        "city": "Navegantes",
        "state": "SC",
        "district": "Nossa Senhora das Graças",
        "street": "Rua Manoel da Luz",
        "zipcode": "88371-276"
    },
    {
        "city": "Navegantes",
        "state": "SC",
        "district": "Machados",
        "street": "Rua Vereador José João da Silva",
        "zipcode": "88371-475"
    },
    {
        "city": "Navegantes",
        "state": "SC",
        "district": "Machados",
        "street": "Travessa Manoel João dos Santos",
        "zipcode": "88371-493"
    },
    {
        "city": "Navegantes",
        "state": "SC",
        "district": "Machados",
        "street": "Rua Carlos Mayer",
        "zipcode": "88371-400"
    },
    {
        "city": "Navegantes",
        "state": "SC",
        "district": "Machados",
        "street": "Rua João Gazaniga",
        "zipcode": "88371-581"
    },
    {
        "city": "Navegantes",
        "state": "SC",
        "district": "Machados",
        "street": "Rua Emanoel Couto",
        "zipcode": "88371-372"
    },
    {
        "city": "Navegantes",
        "state": "SC",
        "district": "Machados",
        "street": "Rua Eugênio Gazaniga",
        "zipcode": "88371-542"
    },
    {
        "city": "Navegantes",
        "state": "SC",
        "district": "Machados",
        "street": "Rua Wenceslau Teodoro Pereira",
        "zipcode": "88371-496"
    },
    {
        "city": "Navegantes",
        "state": "SC",
        "district": "Machados",
        "street": "Rua Edgar Negherbon",
        "zipcode": "88371-545"
    },
    {
        "city": "Navegantes",
        "state": "SC",
        "district": "Machados",
        "street": "Rua Eduardo Couto",
        "zipcode": "88371-338"
    },
    {
        "city": "Navegantes",
        "state": "SC",
        "district": "Machados",
        "street": "Rua Henrique Dauer Júnior",
        "zipcode": "88371-490"
    },
    {
        "city": "Navegantes",
        "state": "SC",
        "district": "Machados",
        "street": "Rua Hercílio Rocha Weber",
        "zipcode": "88371-370"
    },
    {
        "city": "Navegantes",
        "state": "SC",
        "district": "Machados",
        "street": "Rua Honorato Joaquim Nunes",
        "zipcode": "88371-403"
    },
    {
        "city": "Navegantes",
        "state": "SC",
        "district": "Machados",
        "street": "Rua Adolfo Koeler",
        "zipcode": "88371-433"
    },
    {
        "city": "Navegantes",
        "state": "SC",
        "district": "Machados",
        "street": "Rua Manoel Silvestre dos Santos",
        "zipcode": "88371-352"
    },
    {
        "city": "Navegantes",
        "state": "SC",
        "district": "Machados",
        "street": "Rua Manoel Vieira",
        "zipcode": "88371-342"
    },
    {
        "city": "Navegantes",
        "state": "SC",
        "district": "Machados",
        "street": "Rua Maria Leonil das Chagas",
        "zipcode": "88371-380"
    },
    {
        "city": "Navegantes",
        "state": "SC",
        "district": "Machados",
        "street": "Rua Valdezir Sebastião Sacavem",
        "zipcode": "88371-424"
    },
    {
        "city": "Navegantes",
        "state": "SC",
        "district": "Machados",
        "street": "Rua Ana Amélia Flor",
        "zipcode": "88371-454"
    },
    {
        "city": "Navegantes",
        "state": "SC",
        "district": "Machados",
        "street": "Beco do Aniceto",
        "zipcode": "88371-463"
    },
    {
        "city": "Navegantes",
        "state": "SC",
        "district": "Machados",
        "street": "Rua Antero Samuel Anacleto",
        "zipcode": "88371-354"
    },
    {
        "city": "Navegantes",
        "state": "SC",
        "district": "Machados",
        "street": "Rua Orlando Ferreira",
        "zipcode": "88371-320"
    },
    {
        "city": "Navegantes",
        "state": "SC",
        "district": "Machados",
        "street": "Rua Orlando Ferreira",
        "zipcode": "88371-448"
    },
    {
        "city": "Navegantes",
        "state": "SC",
        "district": "Machados",
        "street": "Rua Orlando Ferreira",
        "zipcode": "88371-530"
    },
    {
        "city": "Navegantes",
        "state": "SC",
        "district": "Machados",
        "street": "Servidão Santa Tereza",
        "zipcode": "88371-612"
    },
    {
        "city": "Navegantes",
        "state": "SC",
        "district": "Machados",
        "street": "Servidão Antonio da Silva",
        "zipcode": "88371-628"
    },
    {
        "city": "Navegantes",
        "state": "SC",
        "district": "Machados",
        "street": "Beco Manoel João Lamim",
        "zipcode": "88371-469"
    },
    {
        "city": "Navegantes",
        "state": "SC",
        "district": "Machados",
        "street": "Rua Amadio Gazaniga",
        "zipcode": "88371-324"
    },
    {
        "city": "Navegantes",
        "state": "SC",
        "district": "Meia Praia",
        "street": "Rua Aniceto Nascimento",
        "zipcode": "88372-056"
    },
    {
        "city": "Navegantes",
        "state": "SC",
        "district": "Machados",
        "street": "Rua Vereador Osmar Inácio da Silva",
        "zipcode": "88371-478"
    },
    {
        "city": "Navegantes",
        "state": "SC",
        "district": "Machados",
        "street": "Rua Paulino de Lima",
        "zipcode": "88371-575"
    },
    {
        "city": "Navegantes",
        "state": "SC",
        "district": "Machados",
        "street": "Rua Pedro Costa",
        "zipcode": "88371-536"
    },
    {
        "city": "Navegantes",
        "state": "SC",
        "district": "Machados",
        "street": "Rua Pedro Felisbino da Costa",
        "zipcode": "88371-539"
    },
    {
        "city": "Navegantes",
        "state": "SC",
        "district": "Machados",
        "street": "Rua Pedro Paulo Correia",
        "zipcode": "88371-566"
    },
    {
        "city": "Navegantes",
        "state": "SC",
        "district": "Machados",
        "street": "Rua Raul Couto",
        "zipcode": "88371-328"
    },
    {
        "city": "Navegantes",
        "state": "SC",
        "district": "Machados",
        "street": "Rua Raulino Couto",
        "zipcode": "88371-409"
    },
    {
        "city": "Navegantes",
        "state": "SC",
        "district": "Machados",
        "street": "Rua Aristides Silva",
        "zipcode": "88371-436"
    },
    {
        "city": "Navegantes",
        "state": "SC",
        "district": "Machados",
        "street": "Rua Santos Coelho",
        "zipcode": "88371-439"
    },
    {
        "city": "Navegantes",
        "state": "SC",
        "district": "Machados",
        "street": "Rua Santos Maccarini",
        "zipcode": "88371-554"
    },
    {
        "city": "Navegantes",
        "state": "SC",
        "district": "Nossa Senhora das Graças",
        "street": "Beco Sergio Felipe",
        "zipcode": "88371-303"
    },
    {
        "city": "Navegantes",
        "state": "SC",
        "district": "Machados",
        "street": "Rua Simpliciano Costa",
        "zipcode": "88371-466"
    },
    {
        "city": "Navegantes",
        "state": "SC",
        "district": "Machados",
        "street": "Rua Teodoro da Silva",
        "zipcode": "88371-451"
    },
    {
        "city": "Navegantes",
        "state": "SC",
        "district": "Machados",
        "street": "Rua Santa Terezinha",
        "zipcode": "88371-557"
    },
    {
        "city": "Navegantes",
        "state": "SC",
        "district": "Machados",
        "street": "Rua Felipe Inácio",
        "zipcode": "88371-348"
    },
    {
        "city": "Navegantes",
        "state": "SC",
        "district": "São Domingos",
        "street": "Rua Vandelino Zimermann",
        "zipcode": "88370-873"
    },
    {
        "city": "Navegantes",
        "state": "SC",
        "district": "São Paulo",
        "street": "Rua Vereador Moacir Alfredo Bento",
        "zipcode": "88371-106"
    },
    {
        "city": "Navegantes",
        "state": "SC",
        "district": "São Paulo",
        "street": "Rua Padre João Pivatto",
        "zipcode": "88371-074"
    },
    {
        "city": "Navegantes",
        "state": "SC",
        "district": "Machados",
        "street": "Rua Leonardo Ranguetti",
        "zipcode": "88371-336"
    },
    {
        "city": "Navegantes",
        "state": "SC",
        "district": "Machados",
        "street": "Servidão Isidoro Avache",
        "zipcode": "88371-460"
    },
    {
        "city": "Navegantes",
        "state": "SC",
        "district": "Machados",
        "street": "Rua João Denir Benassi",
        "zipcode": "88371-418"
    },
    {
        "city": "Navegantes",
        "state": "SC",
        "district": "Nossa Senhora das Graças",
        "street": "Rua Domingas",
        "zipcode": "88371-282"
    },
    {
        "city": "Navegantes",
        "state": "SC",
        "district": "São Paulo",
        "street": "Rua José Baltazar",
        "zipcode": "88371-090"
    },
    {
        "city": "Navegantes",
        "state": "SC",
        "district": "São Paulo",
        "street": "Rua Vereador José Frederico de Souza",
        "zipcode": "88371-116"
    },
    {
        "city": "Navegantes",
        "state": "SC",
        "district": "Nossa Senhora das Graças",
        "street": "Rua Vereador José Maria Ouriques",
        "zipcode": "88371-196"
    },
    {
        "city": "Navegantes",
        "state": "SC",
        "district": "São Domingos",
        "street": "Rua Félix Vieira",
        "zipcode": "88371-012"
    },
    {
        "city": "Navegantes",
        "state": "SC",
        "district": "São Paulo",
        "street": "Rua Francisco de Paula Seara",
        "zipcode": "88371-060"
    },
    {
        "city": "Navegantes",
        "state": "SC",
        "district": "São Paulo",
        "street": "Rua João Manoel Gualberto",
        "zipcode": "88371-068"
    },
    {
        "city": "Navegantes",
        "state": "SC",
        "district": "Nossa Senhora das Graças",
        "street": "Rua Vereador Elson Renato dos Santos",
        "zipcode": "88371-214"
    },
    {
        "city": "Navegantes",
        "state": "SC",
        "district": "Nossa Senhora das Graças",
        "street": "Rua Vereador Elson Renato dos Santos",
        "zipcode": "88371-242"
    },
    {
        "city": "Navegantes",
        "state": "SC",
        "district": "São Paulo",
        "street": "Rua Constantino Fideleski",
        "zipcode": "88371-096"
    },
    {
        "city": "Navegantes",
        "state": "SC",
        "district": "São Paulo",
        "street": "Rua Divo Caetano Lopes",
        "zipcode": "88371-102"
    },
    {
        "city": "Navegantes",
        "state": "SC",
        "district": "Nossa Senhora das Graças",
        "street": "Rua Euclides Vieira",
        "zipcode": "88371-250"
    },
    {
        "city": "Navegantes",
        "state": "SC",
        "district": "Nossa Senhora das Graças",
        "street": "Rua Vereador Jurandir Waldemiro da Luz",
        "zipcode": "88371-217"
    },
    {
        "city": "Navegantes",
        "state": "SC",
        "district": "São Paulo",
        "street": "Servidão Vitória",
        "zipcode": "88371-124"
    },
    {
        "city": "Navegantes",
        "state": "SC",
        "district": "Nossa Senhora das Graças",
        "street": "Rua Waldemiro Adolfo da Luz",
        "zipcode": "88371-199"
    },
    {
        "city": "Navegantes",
        "state": "SC",
        "district": "São Paulo",
        "street": "Rua Dorival Borges de Oliveira",
        "zipcode": "88371-132"
    },
    {
        "city": "Navegantes",
        "state": "SC",
        "district": "São Paulo",
        "street": "Rua Jandir Couto",
        "zipcode": "88371-136"
    },
    {
        "city": "Navegantes",
        "state": "SC",
        "district": "São Paulo",
        "street": "Rua Jandir Maier",
        "zipcode": "88371-082"
    },
    {
        "city": "Navegantes",
        "state": "SC",
        "district": "São Domingos",
        "street": "Rua Adelar de Oliveira",
        "zipcode": "88371-018"
    },
    {
        "city": "Navegantes",
        "state": "SC",
        "district": "São Domingos",
        "street": "Rodovia BR",
        "zipcode": "88371-000"
    },
    {
        "city": "Navegantes",
        "state": "SC",
        "district": "São Domingos",
        "street": "Rodovia BR",
        "zipcode": "88370-888"
    },
    {
        "city": "Navegantes",
        "state": "SC",
        "district": "São Paulo",
        "street": "Rua Vereador Adelson Machado de Oliveira",
        "zipcode": "88371-084"
    },
    {
        "city": "Navegantes",
        "state": "SC",
        "district": "Nossa Senhora das Graças",
        "street": "Rua Vereador Ademar Luiz Provesi",
        "zipcode": "88371-223"
    },
    {
        "city": "Navegantes",
        "state": "SC",
        "district": "São Paulo",
        "street": "Rua Alírio Pereira dos Santos",
        "zipcode": "88371-070"
    },
    {
        "city": "Navegantes",
        "state": "SC",
        "district": "Nossa Senhora das Graças",
        "street": "Rua Alzira Guilhermina Merin",
        "zipcode": "88371-272"
    },
    {
        "city": "Navegantes",
        "state": "SC",
        "district": "São Paulo",
        "street": "Rua Amandio da Silva Neves",
        "zipcode": "88371-104"
    },
    {
        "city": "Navegantes",
        "state": "SC",
        "district": "São Paulo",
        "street": "Rua Maria Leondina Rodrigues",
        "zipcode": "88371-126"
    },
    {
        "city": "Navegantes",
        "state": "SC",
        "district": "Nossa Senhora das Graças",
        "street": "Rua Amandio Ferreira das Neves",
        "zipcode": "88371-226"
    },
    {
        "city": "Navegantes",
        "state": "SC",
        "district": "Nossa Senhora das Graças",
        "street": "Rua Vereadora Anita Muzulão Moraes",
        "zipcode": "88371-208"
    },
    {
        "city": "Navegantes",
        "state": "SC",
        "district": "São Paulo",
        "street": "Rua Antonio Carlos da Silva",
        "zipcode": "88371-080"
    },
    {
        "city": "Navegantes",
        "state": "SC",
        "district": "São Paulo",
        "street": "Rua Antonio Carlos Mendes",
        "zipcode": "88371-128"
    },
    {
        "city": "Navegantes",
        "state": "SC",
        "district": "Nossa Senhora das Graças",
        "street": "Rua João Inácio da Silva Júnior",
        "zipcode": "88371-246"
    },
    {
        "city": "Navegantes",
        "state": "SC",
        "district": "São Paulo",
        "street": "Rua Antonio Lucindo",
        "zipcode": "88371-108"
    },
    {
        "city": "Navegantes",
        "state": "SC",
        "district": "São Domingos",
        "street": "Rua Pedro Felício da Costa",
        "zipcode": "88371-003"
    },
    {
        "city": "Navegantes",
        "state": "SC",
        "district": "Nossa Senhora das Graças",
        "street": "Rua Pedro Rossi",
        "zipcode": "88371-264"
    },
    {
        "city": "Navegantes",
        "state": "SC",
        "district": "Nossa Senhora das Graças",
        "street": "Rua Aristides Silva",
        "zipcode": "88371-256"
    },
    {
        "city": "Navegantes",
        "state": "SC",
        "district": "Nossa Senhora das Graças",
        "street": "Rua Rogério Vieira",
        "zipcode": "88371-252"
    },
    {
        "city": "Navegantes",
        "state": "SC",
        "district": "São Paulo",
        "street": "Rua Roque Bernardino Rosa",
        "zipcode": "88371-076"
    },
    {
        "city": "Navegantes",
        "state": "SC",
        "district": "São Paulo",
        "street": "Rua Sidnei Gaya",
        "zipcode": "88371-072"
    },
    {
        "city": "Navegantes",
        "state": "SC",
        "district": "Nossa Senhora das Graças",
        "street": "Rua Fábio José da Silva",
        "zipcode": "88371-205"
    },
    {
        "city": "Navegantes",
        "state": "SC",
        "district": "Centro",
        "street": "Rua Nicolau Kleis",
        "zipcode": "88370-128"
    },
    {
        "city": "Navegantes",
        "state": "SC",
        "district": "Centro",
        "street": "Avenida Conselheiro João Gaya",
        "zipcode": "88370-902"
    },
    {
        "city": "Navegantes",
        "state": "SC",
        "district": "São Domingos",
        "street": "Avenida Portuária Vicente Coelho",
        "zipcode": "88370-904"
    },
    {
        "city": "Navegantes",
        "state": "SC",
        "district": "São Domingos",
        "street": "Rua Nilo de Borba",
        "zipcode": "88370-813"
    },
    {
        "city": "Navegantes",
        "state": "SC",
        "district": "São Domingos",
        "street": "Travessa Nilsa Vieira Francisco",
        "zipcode": "88370-804"
    },
    {
        "city": "Navegantes",
        "state": "SC",
        "district": "São Domingos",
        "street": "Rua Deputado Nilton Kucker",
        "zipcode": "88370-519"
    },
    {
        "city": "Navegantes",
        "state": "SC",
        "district": "São Domingos",
        "street": "Beco Martimiano Teixeira",
        "zipcode": "88370-510"
    },
    {
        "city": "Navegantes",
        "state": "SC",
        "district": "Nossa Senhora das Graças",
        "street": "Rua Vereador Darci Bertam",
        "zipcode": "88371-193"
    },
    {
        "city": "Navegantes",
        "state": "SC",
        "district": "Nossa Senhora das Graças",
        "street": "Rua João Zeferino Graf",
        "zipcode": "88371-248"
    },
    {
        "city": "Navegantes",
        "state": "SC",
        "district": "Nossa Senhora das Graças",
        "street": "Rua Manoel Fagundes",
        "zipcode": "88371-229"
    },
    {
        "city": "Navegantes",
        "state": "SC",
        "district": "São Paulo",
        "street": "Rua Vereadora Ivana Rebelo Rocha Mafra",
        "zipcode": "88371-086"
    },
    {
        "city": "Navegantes",
        "state": "SC",
        "district": "Nossa Senhora das Graças",
        "street": "Rua Arlindo Bristoti",
        "zipcode": "88371-260"
    },
    {
        "city": "Navegantes",
        "state": "SC",
        "district": "São Domingos",
        "street": "Rua Natividade Costa",
        "zipcode": "88370-534"
    },
    {
        "city": "Navegantes",
        "state": "SC",
        "district": "Centro",
        "street": "Travessa Nossa Senhora dos Navegantes",
        "zipcode": "88370-456"
    },
    {
        "city": "Navegantes",
        "state": "SC",
        "district": "São Domingos",
        "street": "Rua João Pedro de Souza Junior",
        "zipcode": "88370-656"
    },
    {
        "city": "Navegantes",
        "state": "SC",
        "district": "São Domingos",
        "street": "Rua Abdon Cardoso Sacavem",
        "zipcode": "88370-585"
    },
    {
        "city": "Navegantes",
        "state": "SC",
        "district": "São Domingos",
        "street": "Rua João Silva",
        "zipcode": "88370-870"
    },
    {
        "city": "Navegantes",
        "state": "SC",
        "district": "Centro",
        "street": "Rua Manoel Couto Senior",
        "zipcode": "88370-460"
    },
    {
        "city": "Navegantes",
        "state": "SC",
        "district": "São Domingos",
        "street": "Rua Manoel de Souza Reis",
        "zipcode": "88370-609"
    },
    {
        "city": "Navegantes",
        "state": "SC",
        "district": "São Domingos",
        "street": "Rua Manoel Estevão Couto",
        "zipcode": "88370-555"
    },
    {
        "city": "Navegantes",
        "state": "SC",
        "district": "São Domingos",
        "street": "Rua José Francisco Laurindo",
        "zipcode": "88370-573"
    },
    {
        "city": "Navegantes",
        "state": "SC",
        "district": "Centro",
        "street": "Rua José Honorio Vieira",
        "zipcode": "88370-484"
    },
    {
        "city": "Navegantes",
        "state": "SC",
        "district": "São Domingos",
        "street": "Beco Francisco Claudino",
        "zipcode": "88370-540"
    },
    {
        "city": "Navegantes",
        "state": "SC",
        "district": "Centro",
        "street": "Travessa Francisco Couto",
        "zipcode": "88370-468"
    },
    {
        "city": "Navegantes",
        "state": "SC",
        "district": "São Domingos",
        "street": "Rua Francisco de Paula Seara",
        "zipcode": "88370-570"
    },
    {
        "city": "Navegantes",
        "state": "SC",
        "district": "Centro",
        "street": "Avenida Conselheiro João Gaya",
        "zipcode": "88370-472"
    },
    {
        "city": "Navegantes",
        "state": "SC",
        "district": "São Domingos",
        "street": "Rua João Olávio Coelho",
        "zipcode": "88370-531"
    },
    {
        "city": "Navegantes",
        "state": "SC",
        "district": "Centro",
        "street": "Rua Elpídio Sacavem",
        "zipcode": "88370-498"
    },
    {
        "city": "Navegantes",
        "state": "SC",
        "district": "São Domingos",
        "street": "Rua Vereador Cláudio Pedro Ramos",
        "zipcode": "88370-756"
    },
    {
        "city": "Navegantes",
        "state": "SC",
        "district": "São Domingos",
        "street": "Travessa São Domingos",
        "zipcode": "88370-795"
    },
    {
        "city": "Navegantes",
        "state": "SC",
        "district": "Centro",
        "street": "Travessa José Vieira Braz",
        "zipcode": "88370-088"
    },
    {
        "city": "Navegantes",
        "state": "SC",
        "district": "São Domingos",
        "street": "Rua Júlia Coelho Constâncio",
        "zipcode": "88370-528"
    },
    {
        "city": "Navegantes",
        "state": "SC",
        "district": "Centro",
        "street": "Rua Waldemar Vieira",
        "zipcode": "88370-454"
    },
    {
        "city": "Navegantes",
        "state": "SC",
        "district": "São Domingos",
        "street": "Rua Jandir Couto",
        "zipcode": "88370-600"
    },
    {
        "city": "Navegantes",
        "state": "SC",
        "district": "Centro",
        "street": "Rua João Domingos da Costa",
        "zipcode": "88370-480"
    },
    {
        "city": "Navegantes",
        "state": "SC",
        "district": "Centro",
        "street": "Rua João Emílio",
        "zipcode": "88370-446"
    },
    {
        "city": "Navegantes",
        "state": "SC",
        "district": "São Domingos",
        "street": "Beco do Acácio",
        "zipcode": "88370-665"
    },
    {
        "city": "Navegantes",
        "state": "SC",
        "district": "São Domingos",
        "street": "Rua Iolanda Couto Rodrigues",
        "zipcode": "88370-591"
    },
    {
        "city": "Navegantes",
        "state": "SC",
        "district": "São Domingos",
        "street": "Rua Agenor Francisco Borges",
        "zipcode": "88370-597"
    },
    {
        "city": "Navegantes",
        "state": "SC",
        "district": "Centro",
        "street": "Rua Manoel Santos Gaya",
        "zipcode": "88370-418"
    },
    {
        "city": "Navegantes",
        "state": "SC",
        "district": "Centro",
        "street": "Rua Anibal Gaya",
        "zipcode": "88370-474"
    },
    {
        "city": "Navegantes",
        "state": "SC",
        "district": "Centro",
        "street": "Rua Anibal Gaya",
        "zipcode": "88370-506"
    },
    {
        "city": "Navegantes",
        "state": "SC",
        "district": "São Domingos",
        "street": "Rua Antonio Bernardo Schaufert",
        "zipcode": "88370-653"
    },
    {
        "city": "Navegantes",
        "state": "SC",
        "district": "São Domingos",
        "street": "Rua Pedro Francisco de Souza",
        "zipcode": "88370-546"
    },
    {
        "city": "Navegantes",
        "state": "SC",
        "district": "São Domingos",
        "street": "Rua Ranghetti",
        "zipcode": "88370-786"
    },
    {
        "city": "Navegantes",
        "state": "SC",
        "district": "São Domingos",
        "street": "Rua Antonio Saturnino Cardoso",
        "zipcode": "88370-709"
    },
    {
        "city": "Navegantes",
        "state": "SC",
        "district": "São Domingos",
        "street": "Beco Argentino Fausto",
        "zipcode": "88370-567"
    },
    {
        "city": "Navegantes",
        "state": "SC",
        "district": "São Domingos",
        "street": "Travessa Rosa Couto",
        "zipcode": "88370-706"
    },
    {
        "city": "Navegantes",
        "state": "SC",
        "district": "São Domingos",
        "street": "Travessa Rosane Cardoso Corrêa",
        "zipcode": "88370-789"
    },
    {
        "city": "Navegantes",
        "state": "SC",
        "district": "São Domingos",
        "street": "Rua Jornalista Rui Ademar Rodrigues",
        "zipcode": "88370-777"
    },
    {
        "city": "Navegantes",
        "state": "SC",
        "district": "Centro",
        "street": "Avenida Santos Dumont",
        "zipcode": "88370-458"
    },
    {
        "city": "Navegantes",
        "state": "SC",
        "district": "São Domingos",
        "street": "Rua Vereador Sebastião Andriani",
        "zipcode": "88370-753"
    },
    {
        "city": "Navegantes",
        "state": "SC",
        "district": "São Domingos",
        "street": "Rua Sérgio Gaya",
        "zipcode": "88370-594"
    },
    {
        "city": "Navegantes",
        "state": "SC",
        "district": "São Domingos",
        "street": "Rua Sérgio Veríssimo Máximo",
        "zipcode": "88370-792"
    },
    {
        "city": "Navegantes",
        "state": "SC",
        "district": "Centro",
        "street": "Rua Arnaldo Passos",
        "zipcode": "88370-470"
    },
    {
        "city": "Navegantes",
        "state": "SC",
        "district": "São Domingos",
        "street": "Travessa Bornhausen",
        "zipcode": "88370-879"
    },
    {
        "city": "Navegantes",
        "state": "SC",
        "district": "Centro",
        "street": "Rua Vandelino Lopes Fagundes",
        "zipcode": "88370-374"
    },
    {
        "city": "Navegantes",
        "state": "SC",
        "district": "Centro",
        "street": "Rua Vicente Honorato Coelho",
        "zipcode": "88370-362"
    },
    {
        "city": "Navegantes",
        "state": "SC",
        "district": "Centro",
        "street": "Rua Maria Lopes Borba",
        "zipcode": "88370-340"
    },
    {
        "city": "Navegantes",
        "state": "SC",
        "district": "Centro",
        "street": "Rua 26 de Agosto",
        "zipcode": "88370-444"
    },
    {
        "city": "Navegantes",
        "state": "SC",
        "district": "Centro",
        "street": "Avenida João Sacavem",
        "zipcode": "88370-438"
    },
    {
        "city": "Navegantes",
        "state": "SC",
        "district": "Centro",
        "street": "Rua Lourdes Montagna Lopes",
        "zipcode": "88370-420"
    },
    {
        "city": "Navegantes",
        "state": "SC",
        "district": "São Domingos",
        "street": "Rua Rodolfo Rodrigues dos Passos",
        "zipcode": "88370-768"
    },
    {
        "city": "Navegantes",
        "state": "SC",
        "district": "Centro",
        "street": "Rua Graciliano Rodrigues",
        "zipcode": "88370-122"
    },
    {
        "city": "Navegantes",
        "state": "SC",
        "district": "São Domingos",
        "street": "Rua Vereador Aldo Chimenelli",
        "zipcode": "88370-759"
    },
    {
        "city": "Navegantes",
        "state": "SC",
        "district": "Centro",
        "street": "Rua Mairton Mario da Silva",
        "zipcode": "88370-496"
    },
    {
        "city": "Navegantes",
        "state": "SC",
        "district": "Centro",
        "street": "Rua Malvina Sacavem Couto",
        "zipcode": "88370-504"
    },
    {
        "city": "Navegantes",
        "state": "SC",
        "district": "Centro",
        "street": "Rua José Estevão Couto",
        "zipcode": "88370-394"
    },
    {
        "city": "Navegantes",
        "state": "SC",
        "district": "Centro",
        "street": "Rua José Honorio Cardoso",
        "zipcode": "88370-348"
    },
    {
        "city": "Navegantes",
        "state": "SC",
        "district": "Centro",
        "street": "Rua Secretário José Juarez da Costa",
        "zipcode": "88370-316"
    },
    {
        "city": "Navegantes",
        "state": "SC",
        "district": "Centro",
        "street": "Rua Manoel Izidro",
        "zipcode": "88370-434"
    },
    {
        "city": "Navegantes",
        "state": "SC",
        "district": "Centro",
        "street": "Rua Carlos Goes Rebello",
        "zipcode": "88370-320"
    },
    {
        "city": "Navegantes",
        "state": "SC",
        "district": "Centro",
        "street": "Rua Carlos Goes Rebello",
        "zipcode": "88370-322"
    },
    {
        "city": "Navegantes",
        "state": "SC",
        "district": "Centro",
        "street": "Rua Carmem Linhares de Souza",
        "zipcode": "88370-336"
    },
    {
        "city": "Navegantes",
        "state": "SC",
        "district": "Centro",
        "street": "Rua Francisco Solano Lopes",
        "zipcode": "88370-422"
    },
    {
        "city": "Navegantes",
        "state": "SC",
        "district": "Centro",
        "street": "Rua Comandante Francisco Dias",
        "zipcode": "88370-324"
    },
    {
        "city": "Navegantes",
        "state": "SC",
        "district": "Centro",
        "street": "Avenida Conselheiro João Gaya",
        "zipcode": "88370-390"
    },
    {
        "city": "Navegantes",
        "state": "SC",
        "district": "Centro",
        "street": "Servidão João Manoel Machado",
        "zipcode": "88370-478"
    },
    {
        "city": "Navegantes",
        "state": "SC",
        "district": "Centro",
        "street": "Rua José Schubert Junior",
        "zipcode": "88370-388"
    },
    {
        "city": "Navegantes",
        "state": "SC",
        "district": "Centro",
        "street": "Rua Itamar José da Luz",
        "zipcode": "88370-378"
    },
    {
        "city": "Navegantes",
        "state": "SC",
        "district": "Centro",
        "street": "Rua João Antônio de Souza",
        "zipcode": "88370-408"
    },
    {
        "city": "Navegantes",
        "state": "SC",
        "district": "Centro",
        "street": "Rua João Claudino de Freitas",
        "zipcode": "88370-346"
    },
    {
        "city": "Navegantes",
        "state": "SC",
        "district": "Centro",
        "street": "Rua Vereador Gildo Batista",
        "zipcode": "88370-366"
    },
    {
        "city": "Navegantes",
        "state": "SC",
        "district": "Centro",
        "street": "Rua Manoel Moreira Maia",
        "zipcode": "88370-442"
    },
    {
        "city": "Navegantes",
        "state": "SC",
        "district": "Centro",
        "street": "Rua Dona Maria Conceição Coelho",
        "zipcode": "88370-334"
    },
    {
        "city": "Navegantes",
        "state": "SC",
        "district": "Centro",
        "street": "Rua Maria Leonor da Cunha Rebello",
        "zipcode": "88370-398"
    },
    {
        "city": "Navegantes",
        "state": "SC",
        "district": "Centro",
        "street": "Rua Valmor Bilk",
        "zipcode": "88370-500"
    },
    {
        "city": "Navegantes",
        "state": "SC",
        "district": "Centro",
        "street": "Rua Manoel Felício Adriano",
        "zipcode": "88370-312"
    },
    {
        "city": "Navegantes",
        "state": "SC",
        "district": "Centro",
        "street": "Rua Manoel Felício Adriano",
        "zipcode": "88370-314"
    },
    {
        "city": "Navegantes",
        "state": "SC",
        "district": "Centro",
        "street": "Rua Manoel Fernandes",
        "zipcode": "88370-406"
    },
    {
        "city": "Navegantes",
        "state": "SC",
        "district": "São Domingos",
        "street": "Servidão Amara Maria Borba",
        "zipcode": "88370-516"
    },
    {
        "city": "Navegantes",
        "state": "SC",
        "district": "Centro",
        "street": "Beco Antonio Alario da Silva",
        "zipcode": "88370-424"
    },
    {
        "city": "Navegantes",
        "state": "SC",
        "district": "Centro",
        "street": "Rua Vereador Osório Gonçalves Viana",
        "zipcode": "88370-356"
    },
    {
        "city": "Navegantes",
        "state": "SC",
        "district": "Centro",
        "street": "Rua Pedro Adolfo da Luz",
        "zipcode": "88370-402"
    },
    {
        "city": "Navegantes",
        "state": "SC",
        "district": "Centro",
        "street": "Rua Perciliana Rodrigues Gaya",
        "zipcode": "88370-494"
    },
    {
        "city": "Navegantes",
        "state": "SC",
        "district": "Centro",
        "street": "Rua Advogado Arão Rebelo",
        "zipcode": "88370-382"
    },
    {
        "city": "Navegantes",
        "state": "SC",
        "district": "Centro",
        "street": "Rua Rodolfo Francisco Couto",
        "zipcode": "88370-344"
    },
    {
        "city": "Navegantes",
        "state": "SC",
        "district": "Centro",
        "street": "Rua Rodolfo Francisco Couto",
        "zipcode": "88370-342"
    },
    {
        "city": "Navegantes",
        "state": "SC",
        "district": "Centro",
        "street": "Rua Ezequiel Antero Rocha",
        "zipcode": "88370-410"
    },
    {
        "city": "Navegantes",
        "state": "SC",
        "district": "Centro",
        "street": "Rua Arnaldo Passos",
        "zipcode": "88370-400"
    },
    {
        "city": "Navegantes",
        "state": "SC",
        "district": "Centro",
        "street": "Rua Vereador Onofre Joaquim Rodrigues Júnior",
        "zipcode": "88370-358"
    },
    {
        "city": "Navegantes",
        "state": "SC",
        "district": "Centro",
        "street": "Rua Teodoro Benassi",
        "zipcode": "88370-392"
    },
    {
        "city": "Navegantes",
        "state": "SC",
        "district": "São Domingos",
        "street": "Travessa Sálvio José Mateus",
        "zipcode": "88370-807"
    },
    {
        "city": "Navegantes",
        "state": "SC",
        "district": "São Domingos",
        "street": "Servidão João José Tomás",
        "zipcode": "88370-801"
    },
    {
        "city": "Navegantes",
        "state": "SC",
        "district": "São Domingos",
        "street": "Rua José Erbs",
        "zipcode": "88370-876"
    },
    {
        "city": "Navegantes",
        "state": "SC",
        "district": "São Domingos",
        "street": "Rua José Francisco Laurindo",
        "zipcode": "88370-603"
    },
    {
        "city": "Navegantes",
        "state": "SC",
        "district": "São Domingos",
        "street": "Rua José Francisco Laurindo",
        "zipcode": "88370-750"
    },
    {
        "city": "Navegantes",
        "state": "SC",
        "district": "São Domingos",
        "street": "Rua Vereador Manoel José Inácio",
        "zipcode": "88370-765"
    },
    {
        "city": "Navegantes",
        "state": "SC",
        "district": "Centro",
        "street": "Servidão Leopoldina da Costa Couto",
        "zipcode": "88370-403"
    },
    {
        "city": "Navegantes",
        "state": "SC",
        "district": "Centro",
        "street": "Rua Frei Odorico Durieux",
        "zipcode": "88370-200"
    },
    {
        "city": "Navegantes",
        "state": "SC",
        "district": "Centro",
        "street": "Rua Artur Correa",
        "zipcode": "88370-218"
    },
    {
        "city": "Navegantes",
        "state": "SC",
        "district": "Centro",
        "street": "Rua Artur Gaya",
        "zipcode": "88370-178"
    },
    {
        "city": "Navegantes",
        "state": "SC",
        "district": "Centro",
        "street": "Rua Benvenuta Rocha do Nascimento",
        "zipcode": "88370-252"
    },
    {
        "city": "Navegantes",
        "state": "SC",
        "district": "Centro",
        "street": "Rua Dona Maria Lídia Bento",
        "zipcode": "88370-298"
    },
    {
        "city": "Navegantes",
        "state": "SC",
        "district": "São Pedro",
        "street": "Rua Moacir Gaya",
        "zipcode": "88370-011"
    },
    {
        "city": "Navegantes",
        "state": "SC",
        "district": "Centro",
        "street": "Rua Luiz Martins",
        "zipcode": "88370-192"
    },
    {
        "city": "Navegantes",
        "state": "SC",
        "district": "Centro",
        "street": "Rua Manoel Deodoro Arcari",
        "zipcode": "88370-196"
    },
    {
        "city": "Navegantes",
        "state": "SC",
        "district": "São Domingos",
        "street": "Rua Vereador Felismino Pedro Mafra",
        "zipcode": "88370-464"
    },
    {
        "city": "Navegantes",
        "state": "SC",
        "district": "Centro",
        "street": "Rua Joinville",
        "zipcode": "88370-284"
    },
    {
        "city": "Navegantes",
        "state": "SC",
        "district": "Centro",
        "street": "Avenida José Alcebiades Laurentino",
        "zipcode": "88370-308"
    },
    {
        "city": "Navegantes",
        "state": "SC",
        "district": "Centro",
        "street": "Rua José Elias Palumbo",
        "zipcode": "88370-152"
    },
    {
        "city": "Navegantes",
        "state": "SC",
        "district": "Centro",
        "street": "Rua José Manoel da Costa",
        "zipcode": "88370-250"
    },
    {
        "city": "Navegantes",
        "state": "SC",
        "district": "Centro",
        "street": "Rua Carlos Maximiano da Silva",
        "zipcode": "88370-156"
    },
    {
        "city": "Navegantes",
        "state": "SC",
        "district": "Centro",
        "street": "Avenida Prefeito Cirino Adolfo Cabral",
        "zipcode": "88370-162"
    },
    {
        "city": "Navegantes",
        "state": "SC",
        "district": "Centro",
        "street": "Rua João Manoel Francisco",
        "zipcode": "88370-268"
    },
    {
        "city": "Navegantes",
        "state": "SC",
        "district": "Centro",
        "street": "Rua Eraci Santos Couto",
        "zipcode": "88370-222"
    },
    {
        "city": "Navegantes",
        "state": "SC",
        "district": "Centro",
        "street": "Rua Dona Erna Gaya",
        "zipcode": "88370-300"
    },
    {
        "city": "Navegantes",
        "state": "SC",
        "district": "Centro",
        "street": "Rua Dona Erna Gaya",
        "zipcode": "88370-306"
    },
    {
        "city": "Navegantes",
        "state": "SC",
        "district": "Centro",
        "street": "Rua Ernesto Assini",
        "zipcode": "88370-186"
    },
    {
        "city": "Navegantes",
        "state": "SC",
        "district": "Centro",
        "street": "Rua Ernesto Assini",
        "zipcode": "88370-274"
    },
    {
        "city": "Navegantes",
        "state": "SC",
        "district": "Centro",
        "street": "Rua Ernesto Assini",
        "zipcode": "88370-276"
    },
    {
        "city": "Navegantes",
        "state": "SC",
        "district": "Centro",
        "street": "Rua Estevão Pivatto",
        "zipcode": "88370-234"
    },
    {
        "city": "Navegantes",
        "state": "SC",
        "district": "Centro",
        "street": "Rua Eulécio Olímpio da Silva",
        "zipcode": "88370-290"
    },
    {
        "city": "Navegantes",
        "state": "SC",
        "district": "Centro",
        "street": "Rua Lauro Amâncio Couto",
        "zipcode": "88370-292"
    },
    {
        "city": "Navegantes",
        "state": "SC",
        "district": "Centro",
        "street": "Rua Lauro Consoni",
        "zipcode": "88370-158"
    },
    {
        "city": "Navegantes",
        "state": "SC",
        "district": "Centro",
        "street": "Rua Donato Correa",
        "zipcode": "88370-180"
    },
    {
        "city": "Navegantes",
        "state": "SC",
        "district": "Centro",
        "street": "Travessa São João",
        "zipcode": "88370-304"
    },
    {
        "city": "Navegantes",
        "state": "SC",
        "district": "Centro",
        "street": "Rua Ilhota",
        "zipcode": "88370-266"
    },
    {
        "city": "Navegantes",
        "state": "SC",
        "district": "Centro",
        "street": "Rua Manoel Nazário Alves",
        "zipcode": "88370-238"
    },
    {
        "city": "Navegantes",
        "state": "SC",
        "district": "Centro",
        "street": "Rua Maria Cipriano de Souza",
        "zipcode": "88370-246"
    },
    {
        "city": "Navegantes",
        "state": "SC",
        "district": "Centro",
        "street": "Rua Maria Jocelina Couto",
        "zipcode": "88370-146"
    },
    {
        "city": "Navegantes",
        "state": "SC",
        "district": "Centro",
        "street": "Rua Valmir dos Santos Benassi",
        "zipcode": "88370-166"
    },
    {
        "city": "Navegantes",
        "state": "SC",
        "district": "Centro",
        "street": "Rua Antonio de Souza",
        "zipcode": "88370-190"
    },
    {
        "city": "Navegantes",
        "state": "SC",
        "district": "Centro",
        "street": "Rua Antonio de Souza",
        "zipcode": "88370-272"
    },
    {
        "city": "Navegantes",
        "state": "SC",
        "district": "Centro",
        "street": "Rua Antonio Manoel Honório",
        "zipcode": "88370-202"
    },
    {
        "city": "Navegantes",
        "state": "SC",
        "district": "Centro",
        "street": "Rua Vereador Osmar Inácio da Silva",
        "zipcode": "88370-240"
    },
    {
        "city": "Navegantes",
        "state": "SC",
        "district": "Centro",
        "street": "Rua Pedro Verissimo de Campos",
        "zipcode": "88370-286"
    },
    {
        "city": "Navegantes",
        "state": "SC",
        "district": "Centro",
        "street": "Rua Dona Araci",
        "zipcode": "88370-256"
    },
    {
        "city": "Navegantes",
        "state": "SC",
        "district": "Centro",
        "street": "Rua Roberto Reiser",
        "zipcode": "88370-176"
    },
    {
        "city": "Navegantes",
        "state": "SC",
        "district": "Centro",
        "street": "Rua Arnaldo Gaya",
        "zipcode": "88370-170"
    },
    {
        "city": "Navegantes",
        "state": "SC",
        "district": "Centro",
        "street": "Rua Arno Gaya",
        "zipcode": "88370-172"
    },
    {
        "city": "Navegantes",
        "state": "SC",
        "district": "Centro",
        "street": "Rua Taniz",
        "zipcode": "88370-160"
    },
    {
        "city": "Navegantes",
        "state": "SC",
        "district": "Centro",
        "street": "Avenida João Sacavem",
        "zipcode": "88370-971"
    },
    {
        "city": "Navegantes",
        "state": "SC",
        "district": "Centro",
        "street": "Rua Leonel Manoel da Costa",
        "zipcode": "88370-148"
    },
    {
        "city": "Navegantes",
        "state": "SC",
        "district": "Centro",
        "street": "Rua Joaquina Maria Albano da Silva",
        "zipcode": "88370-216"
    },
    {
        "city": "Navegantes",
        "state": "SC",
        "district": "Centro",
        "street": "Avenida João Sacavem",
        "zipcode": "88370-972"
    },
    {
        "city": "Navegantes",
        "state": "SC",
        "district": "São Pedro",
        "street": "Beco Manoel Clemente",
        "zipcode": "88370-006"
    },
    {
        "city": "Navegantes",
        "state": "SC",
        "district": "Gravatá",
        "street": "Rua Nelson Seara Heusi",
        "zipcode": "88372-642"
    },
    {
        "city": "Navegantes",
        "state": "SC",
        "district": "São Pedro",
        "street": "Rua Presidente Nereu Ramos",
        "zipcode": "88370-019"
    },
    {
        "city": "Navegantes",
        "state": "SC",
        "district": "São Pedro",
        "street": "Beco do Olavo",
        "zipcode": "88370-039"
    },
    {
        "city": "Navegantes",
        "state": "SC",
        "district": "Gravatá",
        "street": "Rua Professora Benta Seara Rebello",
        "zipcode": "88372-820"
    },
    {
        "city": "Navegantes",
        "state": "SC",
        "district": "Centro",
        "street": "Travessa Bernardina Gaya Müller",
        "zipcode": "88370-078"
    },
    {
        "city": "Navegantes",
        "state": "SC",
        "district": "São Pedro",
        "street": "Rua Miguel Pivatto",
        "zipcode": "88370-005"
    },
    {
        "city": "Navegantes",
        "state": "SC",
        "district": "São Pedro",
        "street": "Rua 26 de Agosto",
        "zipcode": "88370-041"
    },
    {
        "city": "Navegantes",
        "state": "SC",
        "district": "Centro",
        "street": "Avenida João Sacavem",
        "zipcode": "88370-074"
    },
    {
        "city": "Navegantes",
        "state": "SC",
        "district": "São Pedro",
        "street": "Rua Luiz Joaquim dos Santos",
        "zipcode": "88370-001"
    },
    {
        "city": "Navegantes",
        "state": "SC",
        "district": "São Pedro",
        "street": "Rua Manoel Bento Romão",
        "zipcode": "88370-009"
    },
    {
        "city": "Navegantes",
        "state": "SC",
        "district": "Centro",
        "street": "Rua Adilio Juvenal Mafra",
        "zipcode": "88370-280"
    },
    {
        "city": "Navegantes",
        "state": "SC",
        "district": "Centro",
        "street": "Rua Alice Maria Hostim",
        "zipcode": "88370-210"
    },
    {
        "city": "Navegantes",
        "state": "SC",
        "district": "Centro",
        "street": "Rua Lauro Ladislau Rodrigues",
        "zipcode": "88370-212"
    },
    {
        "city": "Navegantes",
        "state": "SC",
        "district": "São Pedro",
        "street": "Servidão Joaquim Juveniano Emilio",
        "zipcode": "88370-027"
    },
    {
        "city": "Navegantes",
        "state": "SC",
        "district": "São Pedro",
        "street": "Rua Joaquim Rodrigues",
        "zipcode": "88370-049"
    },
    {
        "city": "Navegantes",
        "state": "SC",
        "district": "São Pedro",
        "street": "Rua José Gaya",
        "zipcode": "88370-015"
    },
    {
        "city": "Navegantes",
        "state": "SC",
        "district": "São Pedro",
        "street": "Rua Manoel Gaya Neto",
        "zipcode": "88370-013"
    },
    {
        "city": "Navegantes",
        "state": "SC",
        "district": "Centro",
        "street": "Rua Manoel Izidro",
        "zipcode": "88370-082"
    },
    {
        "city": "Navegantes",
        "state": "SC",
        "district": "Centro",
        "street": "Rua Brasília",
        "zipcode": "88370-100"
    },
    {
        "city": "Navegantes",
        "state": "SC",
        "district": "Centro",
        "street": "Avenida Prefeito Cirino Adolfo Cabral",
        "zipcode": "88370-104"
    },
    {
        "city": "Navegantes",
        "state": "SC",
        "district": "Gravatá",
        "street": "Avenida Prefeito Cirino Adolfo Cabral",
        "zipcode": "88372-548"
    },
    {
        "city": "Navegantes",
        "state": "SC",
        "district": "São Pedro",
        "street": "Servidão Francisco Albino Borba",
        "zipcode": "88370-031"
    },
    {
        "city": "Navegantes",
        "state": "SC",
        "district": "São Pedro",
        "street": "Rua Francisco Romão",
        "zipcode": "88370-023"
    },
    {
        "city": "Navegantes",
        "state": "SC",
        "district": "Centro",
        "street": "Avenida Conselheiro João Gaya",
        "zipcode": "88370-114"
    },
    {
        "city": "Navegantes",
        "state": "SC",
        "district": "São Pedro",
        "street": "Rua João Hercílio da Luz",
        "zipcode": "88370-025"
    },
    {
        "city": "Navegantes",
        "state": "SC",
        "district": "São Pedro",
        "street": "Travessa Comar Seara Muller",
        "zipcode": "88370-033"
    },
    {
        "city": "Navegantes",
        "state": "SC",
        "district": "Meia Praia",
        "street": "Rua Curt S V Hertwig",
        "zipcode": "88372-280"
    },
    {
        "city": "Navegantes",
        "state": "SC",
        "district": "Centro",
        "street": "Rua José Schubert Junior",
        "zipcode": "88370-116"
    },
    {
        "city": "Navegantes",
        "state": "SC",
        "district": "Centro",
        "street": "Rua Justino Ribeiro Córdova",
        "zipcode": "88370-134"
    },
    {
        "city": "Navegantes",
        "state": "SC",
        "district": "Centro",
        "street": "Travessa Leandro",
        "zipcode": "88370-080"
    },
    {
        "city": "Navegantes",
        "state": "SC",
        "district": "Gravatá",
        "street": "Rua Hélio Jesus Montenegro",
        "zipcode": "88372-512"
    },
    {
        "city": "Navegantes",
        "state": "SC",
        "district": "Gravatá",
        "street": "Rua Helmuth Baungarten",
        "zipcode": "88372-756"
    },
    {
        "city": "Navegantes",
        "state": "SC",
        "district": "Centro",
        "street": "Rua Honorato Coelho da Rocha",
        "zipcode": "88370-106"
    },
    {
        "city": "Navegantes",
        "state": "SC",
        "district": "São Pedro",
        "street": "Rua Manoel Rodrigues dos Passos",
        "zipcode": "88370-047"
    },
    {
        "city": "Navegantes",
        "state": "SC",
        "district": "Gravatá",
        "street": "Rua Manoel Teodoro dos Santos",
        "zipcode": "88372-698"
    },
    {
        "city": "Navegantes",
        "state": "SC",
        "district": "Centro",
        "street": "Rua Marcos Gustavo Heusi",
        "zipcode": "88370-124"
    },
    {
        "city": "Navegantes",
        "state": "SC",
        "district": "Centro",
        "street": "Rua Maria da Costa Ferreira",
        "zipcode": "88370-070"
    },
    {
        "city": "Navegantes",
        "state": "SC",
        "district": "Centro",
        "street": "Rua Maria Leonor da Cunha Rebello",
        "zipcode": "88370-108"
    },
    {
        "city": "Navegantes",
        "state": "SC",
        "district": "São Pedro",
        "street": "Servidão Valeriano Gaya",
        "zipcode": "88370-045"
    },
    {
        "city": "Navegantes",
        "state": "SC",
        "district": "Centro",
        "street": "Rua Analú Gaya",
        "zipcode": "88370-072"
    },
    {
        "city": "Navegantes",
        "state": "SC",
        "district": "São Pedro",
        "street": "Rua Antônio dos Santos Gaya",
        "zipcode": "88370-051"
    },
    {
        "city": "Navegantes",
        "state": "SC",
        "district": "Centro",
        "street": "Rua Osmar Joaquim Rebello",
        "zipcode": "88370-130"
    },
    {
        "city": "Navegantes",
        "state": "SC",
        "district": "Centro",
        "street": "Rua Paulo Kleis",
        "zipcode": "88370-126"
    },
    {
        "city": "Navegantes",
        "state": "SC",
        "district": "Pedreiras",
        "street": "Rua Pedro Vergílio Ricobon",
        "zipcode": "88373-300"
    },
    {
        "city": "Navegantes",
        "state": "SC",
        "district": "Centro",
        "street": "Rua Advogado Arão Rebelo",
        "zipcode": "88370-118"
    },
    {
        "city": "Navegantes",
        "state": "SC",
        "district": "Centro",
        "street": "Rua Saulo Müller Júnior",
        "zipcode": "88370-132"
    },
    {
        "city": "Navegantes",
        "state": "SC",
        "district": "Centro",
        "street": "Servidão Silvestra dos Santos Ferreira",
        "zipcode": "88370-068"
    },
    {
        "city": "Navegantes",
        "state": "SC",
        "district": "Centro",
        "street": "Rua Florsina Rocha Couto",
        "zipcode": "88370-142"
    },
    {
        "city": "Navegantes",
        "state": "SC",
        "district": "Escalvados",
        "street": "Rua Antonio Berkenbrock",
        "zipcode": "88374-160"
    },
    {
        "city": "Navegantes",
        "state": "SC",
        "district": "Centro",
        "street": "Rua Jorge Ramos de Souza",
        "zipcode": "88370-224"
    },
    {
        "city": "Navegantes",
        "state": "SC",
        "district": "Centro",
        "street": "Avenida Prefeito José Juvenal Mafra",
        "zipcode": "88370-168"
    },
    {
        "city": "Navegantes",
        "state": "SC",
        "district": "São Pedro",
        "street": "Servidão Rosalina Rita Davila",
        "zipcode": "88370-043"
    },
    {
        "city": "Navegantes",
        "state": "SC",
        "district": "Centro",
        "street": "Rua Arnaldo Passos",
        "zipcode": "88370-102"
    },
    {
        "city": "Navegantes",
        "state": "SC",
        "district": "Centro",
        "street": "Rua Félix Gaya",
        "zipcode": "88370-138"
    },
    {
        "city": "Navegantes",
        "state": "SC",
        "district": "Gravatá",
        "street": "Rua Gustavo Krieck",
        "zipcode": "88372-665"
    },
    {
        "city": "Navegantes",
        "state": "SC",
        "district": "São Domingos",
        "street": "Rua Avelina dos Santos Baptista",
        "zipcode": "88370-883"
    },
    {
        "city": "Navegantes",
        "state": "SC",
        "district": "Centro",
        "street": "Rua Luiz Manoel Ferreira",
        "zipcode": "88370-380"
    },
    {
        "city": "Navegantes",
        "state": "SC",
        "district": "Centro",
        "street": "Rua Carmem Linhares de Souza",
        "zipcode": "88370-338"
    },
    {
        "city": "Navegantes",
        "state": "SC",
        "district": "Nossa Senhora das Graças",
        "street": "Rua Castorina Cordeiro de Godói",
        "zipcode": "88371-268"
    },
    {
        "city": "Navegantes",
        "state": "SC",
        "district": "Meia Praia",
        "street": "Avenida Prefeito Cirino Adolfo Cabral",
        "zipcode": "88372-054"
    },
    {
        "city": "Navegantes",
        "state": "SC",
        "district": "Centro",
        "street": "Avenida Prefeito Cirino Adolfo Cabral",
        "zipcode": "88370-140"
    },
    {
        "city": "Navegantes",
        "state": "SC",
        "district": "São Pedro",
        "street": "Servidão Evilázio Martins dos Santos",
        "zipcode": "88370-035"
    },
    {
        "city": "Navegantes",
        "state": "SC",
        "district": "Centro",
        "street": "Rua Francisco Solano Lopes",
        "zipcode": "88370-414"
    },
    {
        "city": "Navegantes",
        "state": "SC",
        "district": "Centro",
        "street": "Beco Empídio Lobo",
        "zipcode": "88370-264"
    },
    {
        "city": "Navegantes",
        "state": "SC",
        "district": "Volta Grande",
        "street": "Rua 1º de Maio",
        "zipcode": "88371-608"
    },
    {
        "city": "Navegantes",
        "state": "SC",
        "district": "Machados",
        "street": "Rua Prefeito João José Fagundes",
        "zipcode": "88371-430"
    },
    {
        "city": "Navegantes",
        "state": "SC",
        "district": "São Domingos",
        "street": "Beco José Mendes",
        "zipcode": "88370-549"
    },
    {
        "city": "Navegantes",
        "state": "SC",
        "district": "São Domingos",
        "street": "Rua José Silvestre Toledo dos Santos",
        "zipcode": "88370-882"
    },
    {
        "city": "Navegantes",
        "state": "SC",
        "district": "Centro",
        "street": "Rua Etelvina Gaya Rebello",
        "zipcode": "88370-260"
    },
    {
        "city": "Navegantes",
        "state": "SC",
        "district": "Centro",
        "street": "Rua Eulécio Olímpio da Silva",
        "zipcode": "88370-282"
    },
    {
        "city": "Navegantes",
        "state": "SC",
        "district": "Centro",
        "street": "Rua Júlio Geraldo",
        "zipcode": "88370-066"
    },
    {
        "city": "Navegantes",
        "state": "SC",
        "district": "Nossa Senhora das Graças",
        "street": "Rua Prefeito Domingos Angelino Régis",
        "zipcode": "88371-290"
    },
    {
        "city": "Navegantes",
        "state": "SC",
        "district": "São Domingos",
        "street": "Travessa João Aldo Mendes",
        "zipcode": "88370-525"
    },
    {
        "city": "Navegantes",
        "state": "SC",
        "district": "Nossa Senhora das Graças",
        "street": "Rua João Denir Benassi",
        "zipcode": "88371-292"
    },
    {
        "city": "Navegantes",
        "state": "SC",
        "district": "Centro",
        "street": "Rua Gastorina Polucena Rocha",
        "zipcode": "88370-254"
    },
    {
        "city": "Navegantes",
        "state": "SC",
        "district": "São Domingos",
        "street": "Rua Adolfo Emílio Couto",
        "zipcode": "88370-561"
    },
    {
        "city": "Navegantes",
        "state": "SC",
        "district": "Centro",
        "street": "Rua Adolfo Manoel Toledo",
        "zipcode": "88370-412"
    },
    {
        "city": "Navegantes",
        "state": "SC",
        "district": "São Paulo",
        "street": "Rua Alcênio Antonio dos Passos",
        "zipcode": "88371-112"
    },
    {
        "city": "Navegantes",
        "state": "SC",
        "district": "São Paulo",
        "street": "Rua Manoel Leopoldo Couto",
        "zipcode": "88371-114"
    },
    {
        "city": "Navegantes",
        "state": "SC",
        "district": "Machados",
        "street": "Rua Maria Anacleto",
        "zipcode": "88371-412"
    },
    {
        "city": "Navegantes",
        "state": "SC",
        "district": "Centro",
        "street": "Rua Antonio de Souza",
        "zipcode": "88370-262"
    },
    {
        "city": "Navegantes",
        "state": "SC",
        "district": "Machados",
        "street": "Servidão Ronan Ricardo Maccarini",
        "zipcode": "88371-560"
    },
    {
        "city": "Navegantes",
        "state": "SC",
        "district": "Centro",
        "street": "Rua Salentim",
        "zipcode": "88370-096"
    },
    {
        "city": "Navegantes",
        "state": "SC",
        "district": "Centro",
        "street": "Rua Vereador Arnoldo Bento Rodrigues",
        "zipcode": "88370-364"
    },
    {
        "city": "Navegantes",
        "state": "SC",
        "district": "São Paulo",
        "street": "Rua Tomé João da Ventura",
        "zipcode": "88371-122"
    },
    {
        "city": "Navegantes",
        "state": "SC",
        "district": "Gravatá",
        "street": "Avenida Rio do Sul",
        "zipcode": "88372-724"
    },
    {
        "city": "Navegantes",
        "state": "SC",
        "district": "São Domingos",
        "street": "Rua Antonio José Cardoso",
        "zipcode": "88370-659"
    },
    {
        "city": "Navegantes",
        "state": "SC",
        "district": "São Domingos",
        "street": "Travessa Hygino José Francisco",
        "zipcode": "88370-668"
    },
    {
        "city": "Navegantes",
        "state": "SC",
        "district": "São Domingos",
        "street": "Rua José Francisco Laurindo",
        "zipcode": "88370-700"
    },
    {
        "city": "Navegantes",
        "state": "SC",
        "district": "São Pedro",
        "street": "Servidão Pedro Medeiros",
        "zipcode": "88370-042"
    },
    {
        "city": "Navegantes",
        "state": "SC",
        "district": "Área Rural de Navegantes",
        "street": "Área Rural",
        "zipcode": "88379-899"
    },
    {
        "city": "Navegantes",
        "state": "SC",
        "district": "Machados",
        "street": "Rua Carla Niedzviedzki",
        "zipcode": "88373-359"
    },
    {
        "city": "Navegantes",
        "state": "SC",
        "district": "Machados",
        "street": "Rua Raimundo Mathiola",
        "zipcode": "88373-355"
    },
    {
        "city": "Navegantes",
        "state": "SC",
        "district": "Machados",
        "street": "Rua Jornalista Rui Ademar Rodrigues",
        "zipcode": "88371-321"
    },
    {
        "city": "Navegantes",
        "state": "SC",
        "district": "São Paulo",
        "street": "Rua Helena Maria Mendes de Oliveira",
        "zipcode": "88371-069"
    },
    {
        "city": "Navegantes",
        "state": "SC",
        "district": "São Paulo",
        "street": "Rua Júlio Madruga Mendes",
        "zipcode": "88371-111"
    },
    {
        "city": "Navegantes",
        "state": "SC",
        "district": "Gravatá",
        "street": "Rua Desportista Avelino José Coelho",
        "zipcode": "88372-673"
    },
    {
        "city": "Navegantes",
        "state": "SC",
        "district": "Meia Praia",
        "street": "Rua Osmar Gaya",
        "zipcode": "88372-001"
    },
    {
        "city": "Navegantes",
        "state": "SC",
        "district": "",
        "street": "Rua Francisco Miguel Nunes",
        "zipcode": "88374-990"
    },
    {
        "city": "Navegantes",
        "state": "SC",
        "district": "Meia Praia",
        "street": "Rua Osmar Gaya",
        "zipcode": "88372-900"
    },
    {
        "city": "Navegantes",
        "state": "SC",
        "district": "Nossa Senhora das Graças",
        "street": "Rua Raulino Couto",
        "zipcode": "88371-308"
    },
    {
        "city": "Navegantes",
        "state": "SC",
        "district": "Volta Grande",
        "street": "Rodovia Governador Mário Covas",
        "zipcode": "88371-898"
    },
    {
        "city": "Navegantes",
        "state": "SC",
        "district": "São Paulo",
        "street": "Rua Valdir Guarezi",
        "zipcode": "88371-094"
    },
    {
        "city": "Navegantes",
        "state": "SC",
        "district": "Gravatá",
        "street": "Rua João Vicente da Cruz",
        "zipcode": "88372-791"
    },
    {
        "city": "Navegantes",
        "state": "SC",
        "district": "Volta Grande",
        "street": "Rua Romeu Inácio da Silva",
        "zipcode": "88373-365"
    },
    {
        "city": "Navegantes",
        "state": "SC",
        "district": "São Domingos",
        "street": "Rua Leopoldo Arcanjo da Rocha",
        "zipcode": "88370-579"
    },
    {
        "city": "Navegantes",
        "state": "SC",
        "district": "São Paulo",
        "street": "Rua Leopoldo Arcanjo da Rocha",
        "zipcode": "88371-118"
    },
    {
        "city": "Navegantes",
        "state": "SC",
        "district": "São Domingos",
        "street": "Rua Leopoldo Koeler",
        "zipcode": "88370-582"
    },
    {
        "city": "Navegantes",
        "state": "SC",
        "district": "Centro",
        "street": "Servidão Nelson Limas",
        "zipcode": "88370-084"
    },
    {
        "city": "Navegantes",
        "state": "SC",
        "district": "Centro",
        "street": "Rua Doutor Nely Piccoli",
        "zipcode": "88370-150"
    },
    {
        "city": "Navegantes",
        "state": "SC",
        "district": "Meia Praia",
        "street": "Rua Nestor Schiefler",
        "zipcode": "88372-090"
    },
    {
        "city": "Navegantes",
        "state": "SC",
        "district": "São Paulo",
        "street": "Rua Tenente Nildo Batista",
        "zipcode": "88371-092"
    },
    {
        "city": "Navegantes",
        "state": "SC",
        "district": "Nossa Senhora das Graças",
        "street": "Rua Nilo Souza",
        "zipcode": "88371-306"
    },
    {
        "city": "Navegantes",
        "state": "SC",
        "district": "São Domingos",
        "street": "Rua Vereador Odair Francisco Patrício",
        "zipcode": "88370-762"
    },
    {
        "city": "Navegantes",
        "state": "SC",
        "district": "Centro",
        "street": "Rua Efeuzina Gaya",
        "zipcode": "88370-432"
    },
    {
        "city": "Navegantes",
        "state": "SC",
        "district": "São Paulo",
        "street": "Rua Homero Pereira",
        "zipcode": "88371-064"
    },
    {
        "city": "Navegantes",
        "state": "SC",
        "district": "Centro",
        "street": "Rua Esther Rebello Narciso",
        "zipcode": "88370-110"
    },
    {
        "city": "Navegantes",
        "state": "SC",
        "district": "Centro",
        "street": "Rua Comandante Apolinário Marques Brandão",
        "zipcode": "88370-194"
    },
    {
        "city": "Navegantes",
        "state": "SC",
        "district": "Centro",
        "street": "Rua Nelson Machado",
        "zipcode": "88370-326"
    },
    {
        "city": "Navegantes",
        "state": "SC",
        "district": "Gravatá",
        "street": "Rua Encontrista Artur Alfredo Galvez",
        "zipcode": "88372-560"
    },
    {
        "city": "Navegantes",
        "state": "SC",
        "district": "Centro",
        "street": "Rua Prefeito Athanásio Joaquim Rodrigues",
        "zipcode": "88370-062"
    },
    {
        "city": "Navegantes",
        "state": "SC",
        "district": "Gravatá",
        "street": "Rua Belmiro Manoel Pierre",
        "zipcode": "88372-674"
    },
    {
        "city": "Navegantes",
        "state": "SC",
        "district": "Centro",
        "street": "Rua Dona Maria Lídia Bento",
        "zipcode": "88370-296"
    },
    {
        "city": "Navegantes",
        "state": "SC",
        "district": "Meia Praia",
        "street": "Rua Milton Seara Müller",
        "zipcode": "88372-195"
    },
    {
        "city": "Navegantes",
        "state": "SC",
        "district": "Nossa Senhora das Graças",
        "street": "Rua Natalino Cesário",
        "zipcode": "88371-262"
    },
    {
        "city": "Navegantes",
        "state": "SC",
        "district": "Gravatá",
        "street": "Rua Jornalista Abdon Fóes",
        "zipcode": "88372-556"
    },
    {
        "city": "Navegantes",
        "state": "SC",
        "district": "Volta Grande",
        "street": "Rua Prefeito Manoel Evaldo Müller",
        "zipcode": "88371-680"
    },
    {
        "city": "Navegantes",
        "state": "SC",
        "district": "Volta Grande",
        "street": "Rua Prefeito Manoel Evaldo Müller",
        "zipcode": "88371-790"
    },
    {
        "city": "Navegantes",
        "state": "SC",
        "district": "Centro",
        "street": "Avenida José Alcebiades Laurentino",
        "zipcode": "88370-310"
    },
    {
        "city": "Navegantes",
        "state": "SC",
        "district": "Pedreiras",
        "street": "Rua Brandino Sikeira",
        "zipcode": "88373-090"
    },
    {
        "city": "Navegantes",
        "state": "SC",
        "district": "Centro",
        "street": "Avenida Prefeito Cirino Adolfo Cabral",
        "zipcode": "88370-188"
    },
    {
        "city": "Navegantes",
        "state": "SC",
        "district": "Centro",
        "street": "Avenida Prefeito Cirino Adolfo Cabral",
        "zipcode": "88370-060"
    },
    {
        "city": "Navegantes",
        "state": "SC",
        "district": "Machados",
        "street": "Rua Francisco de Assis Couto",
        "zipcode": "88371-350"
    },
    {
        "city": "Navegantes",
        "state": "SC",
        "district": "Gravatá",
        "street": "Rua José Maximiliano de Andrade",
        "zipcode": "88372-754"
    },
    {
        "city": "Navegantes",
        "state": "SC",
        "district": "São Domingos",
        "street": "Rua José Silvestre Toledo dos Santos",
        "zipcode": "88370-885"
    },
    {
        "city": "Navegantes",
        "state": "SC",
        "district": "Gravatá",
        "street": "Rua Evaristo de Oliveira Sacavem",
        "zipcode": "88372-694"
    },
    {
        "city": "Navegantes",
        "state": "SC",
        "district": "Gravatá",
        "street": "Rua Victor Konder",
        "zipcode": "88372-650"
    },
    {
        "city": "Navegantes",
        "state": "SC",
        "district": "Nossa Senhora das Graças",
        "street": "Rodovia BR",
        "zipcode": "88371-240"
    },
    {
        "city": "Navegantes",
        "state": "SC",
        "district": "Gravatá",
        "street": "Rua Guilherme Wegner",
        "zipcode": "88372-656"
    },
    {
        "city": "Navegantes",
        "state": "SC",
        "district": "São Domingos",
        "street": "Rua Irineu Torquato",
        "zipcode": "88371-006"
    },
    {
        "city": "Navegantes",
        "state": "SC",
        "district": "Centro",
        "street": "Travessa Adolfo Cirino Müller",
        "zipcode": "88370-448"
    },
    {
        "city": "Navegantes",
        "state": "SC",
        "district": "Machados",
        "street": "Rua Alfredo Ponciano",
        "zipcode": "88371-415"
    },
    {
        "city": "Navegantes",
        "state": "SC",
        "district": "Meia Praia",
        "street": "Rua Manoel Pio dos Santos",
        "zipcode": "88372-024"
    },
    {
        "city": "Navegantes",
        "state": "SC",
        "district": "Gravatá",
        "street": "Rua Ana Boos",
        "zipcode": "88372-796"
    },
    {
        "city": "Navegantes",
        "state": "SC",
        "district": "Nossa Senhora das Graças",
        "street": "Rua Antonio de Oliveira",
        "zipcode": "88371-274"
    },
    {
        "city": "Navegantes",
        "state": "SC",
        "district": "Pedreiras",
        "street": "Rua Onório Bortolato",
        "zipcode": "88373-160"
    },
    {
        "city": "Navegantes",
        "state": "SC",
        "district": "Centro",
        "street": "Beco Orminda Gaya da Silva",
        "zipcode": "88370-428"
    },
    {
        "city": "Navegantes",
        "state": "SC",
        "district": "São Domingos",
        "street": "Rua Pascoal Ranghetti",
        "zipcode": "88370-780"
    },
    {
        "city": "Navegantes",
        "state": "SC",
        "district": "Centro",
        "street": "Beco Pedro Paulo Couto",
        "zipcode": "88370-090"
    },
    {
        "city": "Navegantes",
        "state": "SC",
        "district": "Nossa Senhora das Graças",
        "street": "Rua Santos Coelho",
        "zipcode": "88371-254"
    },
    {
        "city": "Navegantes",
        "state": "SC",
        "district": "Gravatá",
        "street": "Rua Onofre Joaquim Rodrigues",
        "zipcode": "88372-608"
    },
    {
        "city": "Navegantes",
        "state": "SC",
        "district": "Centro",
        "street": "Rua Balneário Camboriú",
        "zipcode": "88370-330"
    },
    {
        "city": "Navegantes",
        "state": "SC",
        "district": "Volta Grande",
        "street": "Rodovia Governador Mário Covas",
        "zipcode": "88371-895"
    },
    {
        "city": "Navegantes",
        "state": "SC",
        "district": "Nossa Senhora das Graças",
        "street": "Rua Vereador Paulo Ney Laurentino",
        "zipcode": "88371-211"
    },
    {
        "city": "Navegantes",
        "state": "SC",
        "district": "Volta Grande",
        "street": "Rua Belmiro Santiago",
        "zipcode": "88371-610"
    },
    {
        "city": "Navegantes",
        "state": "SC",
        "district": "Pedreiras",
        "street": "Rua Vicente Betoni",
        "zipcode": "88373-320"
    },
    {
        "city": "Navegantes",
        "state": "SC",
        "district": "Centro",
        "street": "Rua Adilio Juvenal Mafra",
        "zipcode": "88370-278"
    },
    {
        "city": "Navegantes",
        "state": "SC",
        "district": "São Domingos",
        "street": "Rua Manoel Constâncio Mafra",
        "zipcode": "88370-543"
    },
    {
        "city": "Navegantes",
        "state": "SC",
        "district": "Centro",
        "street": "Avenida Prefeito José Juvenal Mafra",
        "zipcode": "88370-900"
    },
    {
        "city": "Navegantes",
        "state": "SC",
        "district": "Gravatá",
        "street": "Avenida Prefeito José Juvenal Mafra",
        "zipcode": "88372-506"
    },
    {
        "city": "Navegantes",
        "state": "SC",
        "district": "Centro",
        "street": "Avenida Prefeito José Juvenal Mafra",
        "zipcode": "88370-430"
    },
    {
        "city": "Navegantes",
        "state": "SC",
        "district": "Centro",
        "street": "Avenida Prefeito José Juvenal Mafra",
        "zipcode": "88370-386"
    },
    {
        "city": "Navegantes",
        "state": "SC",
        "district": "Meia Praia",
        "street": "Avenida Prefeito José Juvenal Mafra",
        "zipcode": "88372-044"
    },
    {
        "city": "Navegantes",
        "state": "SC",
        "district": "Centro",
        "street": "Rua Júlia Maria Mafra",
        "zipcode": "88370-492"
    },
    {
        "city": "Navegantes",
        "state": "SC",
        "district": "Centro",
        "street": "Avenida Prefeito José Juvenal Mafra",
        "zipcode": "88370-332"
    },
    {
        "city": "Navegantes",
        "state": "SC",
        "district": "Gravatá",
        "street": "Avenida Prefeito José Juvenal Mafra",
        "zipcode": "88372-618"
    },
    {
        "city": "Navegantes",
        "state": "SC",
        "district": "Centro",
        "street": "Avenida Prefeito José Juvenal Mafra",
        "zipcode": "88370-206"
    },
    {
        "city": "Navegantes",
        "state": "SC",
        "district": "Meia Praia",
        "street": "Avenida Prefeito José Juvenal Mafra",
        "zipcode": "88372-004"
    },
    {
        "city": "Navegantes",
        "state": "SC",
        "district": "Centro",
        "street": "Avenida Prefeito José Juvenal Mafra",
        "zipcode": "88370-094"
    },
    {
        "city": "Navegantes",
        "state": "SC",
        "district": "Escalvados",
        "street": "Rua Frutuoso Soares da Silva",
        "zipcode": "88374-090"
    },
    {
        "city": "Navegantes",
        "state": "SC",
        "district": "Meia Praia",
        "street": "Travessa Antonio Pereira dos Santos",
        "zipcode": "88372-116"
    },
    {
        "city": "Navegantes",
        "state": "SC",
        "district": "Escalvados",
        "street": "Estrada Geral de Areias",
        "zipcode": "88374-000"
    },
    {
        "city": "Navegantes",
        "state": "SC",
        "district": "Machados",
        "street": "Beco Joaquim Rocha",
        "zipcode": "88371-421"
    },
    {
        "city": "Navegantes",
        "state": "SC",
        "district": "Nossa Senhora das Graças",
        "street": "Rua João Pedro Passos",
        "zipcode": "88371-280"
    },
    {
        "city": "Navegantes",
        "state": "SC",
        "district": "Escalvados",
        "street": "Rua Vereador Loureci Soares da Silva",
        "zipcode": "88374-030"
    },
    {
        "city": "Navegantes",
        "state": "SC",
        "district": "Escalvados",
        "street": "Rua Ferreira Anacleto Moser",
        "zipcode": "88374-020"
    },
    {
        "city": "Navegantes",
        "state": "SC",
        "district": "Gravatá",
        "street": "Rua Olávio Honorato Coelho",
        "zipcode": "88372-546"
    },
    {
        "city": "Navegantes",
        "state": "SC",
        "district": "Pedreiras",
        "street": "Beco da Trindade",
        "zipcode": "88373-360"
    },
    {
        "city": "Navegantes",
        "state": "SC",
        "district": "Centro",
        "street": "Rua Padre Agostinho Rombadi",
        "zipcode": "88370-182"
    },
    {
        "city": "Navegantes",
        "state": "SC",
        "district": "Meia Praia",
        "street": "Rua Padre Valdir Staehlin",
        "zipcode": "88372-050"
    },
    {
        "city": "Navegantes",
        "state": "SC",
        "district": "Gravatá",
        "street": "Rua Valdemar Bornhausen",
        "zipcode": "88372-730"
    },
    {
        "city": "Navegantes",
        "state": "SC",
        "district": "Gravatá",
        "street": "Avenida Prefeito José Juvenal Mafra",
        "zipcode": "88372-688"
    },
    {
        "city": "Navegantes",
        "state": "SC",
        "district": "Meia Praia",
        "street": "Avenida Prefeito José Juvenal Mafra",
        "zipcode": "88372-262"
    },
    {
        "city": "Navegantes",
        "state": "SC",
        "district": "Machados",
        "street": "Beco Crispim Lourenço",
        "zipcode": "88371-648"
    },
    {
        "city": "Navegantes",
        "state": "SC",
        "district": "Centro",
        "street": "Rua Adilio Juvenal Mafra",
        "zipcode": "88370-184"
    },
    {
        "city": "Navegantes",
        "state": "SC",
        "district": "São Domingos",
        "street": "Servidão Leonida Cidral Couto",
        "zipcode": "88370-810"
    },
    {
        "city": "Navegantes",
        "state": "SC",
        "district": "Meia Praia",
        "street": "Avenida Prefeito José Juvenal Mafra",
        "zipcode": "88372-170"
    },
    {
        "city": "Navegantes",
        "state": "SC",
        "district": "Nossa Senhora das Graças",
        "street": "Rua Márcio Correa",
        "zipcode": "88371-258"
    }
]