[
    {
        "city": "Palhoca",
        "state": "SC",
        "district": "Passa Vinte",
        "street": "Rua Lages",
        "zipcode": "88133-170"
    },
    {
        "city": "Palhoca",
        "state": "SC",
        "district": "Passa Vinte",
        "street": "Rua Chica Da Silva",
        "zipcode": "88133-245"
    },
    {
        "city": "Palhoca",
        "state": "SC",
        "district": "Passa Vinte",
        "street": "Rua Indaial",
        "zipcode": "88133-160"
    },
    {
        "city": "Palhoca",
        "state": "SC",
        "district": "Passa Vinte",
        "street": "Rua Arnoldo Schlemper",
        "zipcode": "88133-085"
    },
    {
        "city": "Palhoca",
        "state": "SC",
        "district": "Brejaru",
        "street": "Rua Glauber Rocha",
        "zipcode": "88133-325"
    },
    {
        "city": "Palhoca",
        "state": "SC",
        "district": "Passa Vinte",
        "street": "Rua Joao Paulo I",
        "zipcode": "88133-080"
    },
    {
        "city": "Palhoca",
        "state": "SC",
        "district": "Alto Aririu",
        "street": "Rua Morro Dos Quadros",
        "zipcode": "88135-800"
    },
    {
        "city": "Palhoca",
        "state": "SC",
        "district": "Praia De Fora",
        "street": "Rua Do Cedro",
        "zipcode": "88138-810"
    },
    {
        "city": "Palhoca",
        "state": "SC",
        "district": "Passa Vinte",
        "street": "Rua Jaragua Do Sul",
        "zipcode": "88133-180"
    },
    {
        "city": "Palhoca",
        "state": "SC",
        "district": "Brejaru",
        "street": "Rua Celio Webber",
        "zipcode": "88133-410"
    },
    {
        "city": "Palhoca",
        "state": "SC",
        "district": "Barra Do Aririu",
        "street": "Loteamento Miriam",
        "zipcode": "88134-050"
    },
    {
        "city": "Palhoca",
        "state": "SC",
        "district": "Passa Vinte",
        "street": "Rua Orleans",
        "zipcode": "88133-120"
    },
    {
        "city": "Palhoca",
        "state": "SC",
        "district": "Passa Vinte",
        "street": "Rua Silvio Lisboa Gandolfi",
        "zipcode": "88133-200"
    },
    {
        "city": "Palhoca",
        "state": "SC",
        "district": "Barra Do Aririu",
        "street": "Rua Alcino Dos Navegantes Moreira",
        "zipcode": "88134-400"
    },
    {
        "city": "Palhoca",
        "state": "SC",
        "district": "Passa Vinte",
        "street": "Rua Jose De Alencar",
        "zipcode": "88133-070"
    }
]