[
    {
        "city": "Rio do Sul",
        "state": "SC",
        "district": "Budag",
        "street": "Rua Itá",
        "zipcode": "89165-382"
    },
    {
        "city": "Rio do Sul",
        "state": "SC",
        "district": "Canta Galo",
        "street": "Beco Lontras",
        "zipcode": "89163-143"
    },
    {
        "city": "Rio do Sul",
        "state": "SC",
        "district": "Santana",
        "street": "Rua Caetano Cé",
        "zipcode": "89160-315"
    },
    {
        "city": "Rio do Sul",
        "state": "SC",
        "district": "Valada Itoupava",
        "street": "Rodovia Lauro Pamplona",
        "zipcode": "89162-810"
    },
    {
        "city": "Rio do Sul",
        "state": "SC",
        "district": "Taboão",
        "street": "Travessa Imperador",
        "zipcode": "89160-497"
    },
    {
        "city": "Rio do Sul",
        "state": "SC",
        "district": "Barra Itoupava",
        "street": "Rua AmbrosioFronza",
        "zipcode": "89162-574"
    },
    {
        "city": "Rio do Sul",
        "state": "SC",
        "district": "Jardim América",
        "street": "Alameda Bela Aliança",
        "zipcode": "89160-172"
    },
    {
        "city": "Rio do Sul",
        "state": "SC",
        "district": "Canta Galo",
        "street": "Rua Luiz Stédile",
        "zipcode": "89163-038"
    },
    {
        "city": "Rio do Sul",
        "state": "SC",
        "district": "Santana",
        "street": "Rua Rodrigues Alves",
        "zipcode": "89160-296"
    },
    {
        "city": "Rio do Sul",
        "state": "SC",
        "district": "Fundo Canoas",
        "street": "Rua Emilia Heesch",
        "zipcode": "89163-451"
    },
    {
        "city": "Rio do Sul",
        "state": "SC",
        "district": "Fundo Canoas",
        "street": "Beco Dona Francisca",
        "zipcode": "89163-416"
    },
    {
        "city": "Rio do Sul",
        "state": "SC",
        "district": "Budag",
        "street": "Rua Félix Deeke Junior",
        "zipcode": "89165-302"
    },
    {
        "city": "Rio do Sul",
        "state": "SC",
        "district": "Fundo Canoas",
        "street": "Rua Henrique Münzfeld",
        "zipcode": "89163-491"
    },
    {
        "city": "Rio do Sul",
        "state": "SC",
        "district": "Sumaré",
        "street": "Rua Ituporanga",
        "zipcode": "89165-793"
    },
    {
        "city": "Rio do Sul",
        "state": "SC",
        "district": "Budag",
        "street": "Rua Curt Schroeder",
        "zipcode": "89165-379"
    },
    {
        "city": "Rio do Sul",
        "state": "SC",
        "district": "Progresso",
        "street": "Rua Rio Negrinho",
        "zipcode": "89163-640"
    },
    {
        "city": "Rio do Sul",
        "state": "SC",
        "district": "Canta Galo",
        "street": "Travessa Joaquim Ferrari",
        "zipcode": "89163-230"
    },
    {
        "city": "Rio do Sul",
        "state": "SC",
        "district": "Navegantes",
        "street": "Rua do Escultor",
        "zipcode": "89162-532"
    },
    {
        "city": "Rio do Sul",
        "state": "SC",
        "district": "Canta Galo",
        "street": "Rua Severino Lenzi",
        "zipcode": "89163-200"
    },
    {
        "city": "Rio do Sul",
        "state": "SC",
        "district": "Canta Galo",
        "street": "Rua Rainoldo Arnoldo Schlemper",
        "zipcode": "89163-158"
    },
    {
        "city": "Rio do Sul",
        "state": "SC",
        "district": "Canta Galo",
        "street": "Rua Witmarsun",
        "zipcode": "89163-140"
    },
    {
        "city": "Rio do Sul",
        "state": "SC",
        "district": "Navegantes",
        "street": "Rua Georg Rausch",
        "zipcode": "89162-508"
    },
    {
        "city": "Rio do Sul",
        "state": "SC",
        "district": "Jardim América",
        "street": "Alameda Aristiliano Ramos",
        "zipcode": "89160-240"
    },
    {
        "city": "Rio do Sul",
        "state": "SC",
        "district": "Santana",
        "street": "Rua Petrolândia",
        "zipcode": "89160-264"
    },
    {
        "city": "Rio do Sul",
        "state": "SC",
        "district": "Santana",
        "street": "Rua Justina Debarba Ledra",
        "zipcode": "89160-266"
    },
    {
        "city": "Rio do Sul",
        "state": "SC",
        "district": "Santana",
        "street": "Travessa Ademécio Bella Cruz",
        "zipcode": "89160-272"
    },
    {
        "city": "Rio do Sul",
        "state": "SC",
        "district": "Santana",
        "street": "Rua Aloisius Peyerl",
        "zipcode": "89160-287"
    },
    {
        "city": "Rio do Sul",
        "state": "SC",
        "district": "Santa Rita",
        "street": "Rua Augusto Atanázio Correia",
        "zipcode": "89162-350"
    },
    {
        "city": "Rio do Sul",
        "state": "SC",
        "district": "Santa Rita",
        "street": "Rua Ambrosio Semioni",
        "zipcode": "89162-416"
    },
    {
        "city": "Rio do Sul",
        "state": "SC",
        "district": "Taboão",
        "street": "Beco Guino Rieter",
        "zipcode": "89160-404"
    },
    {
        "city": "Rio do Sul",
        "state": "SC",
        "district": "Canta Galo",
        "street": "Rua Alfredo Schneider",
        "zipcode": "89163-086"
    },
    {
        "city": "Rio do Sul",
        "state": "SC",
        "district": "Laranjeiras",
        "street": "Beco Elias João Merten",
        "zipcode": "89167-356"
    },
    {
        "city": "Rio do Sul",
        "state": "SC",
        "district": "Laranjeiras",
        "street": "Rua Professora Leila Mara Amorim Krajeski",
        "zipcode": "89167-424"
    },
    {
        "city": "Rio do Sul",
        "state": "SC",
        "district": "Albertina",
        "street": "Beco Germano Augusto Otto Ladewig",
        "zipcode": "89167-605"
    },
    {
        "city": "Rio do Sul",
        "state": "SC",
        "district": "Albertina",
        "street": "Rua Liberto Schütz (Loteamento Silvio Schütz)",
        "zipcode": "89167-653"
    },
    {
        "city": "Rio do Sul",
        "state": "SC",
        "district": "Canta Galo",
        "street": "Beco Alexandre Porthun",
        "zipcode": "89163-316"
    },
    {
        "city": "Rio do Sul",
        "state": "SC",
        "district": "Fundo Canoas",
        "street": "Rua Augusto Munzfeld",
        "zipcode": "89163-572"
    },
    {
        "city": "Rio do Sul",
        "state": "SC",
        "district": "Barra do Trombudo",
        "street": "Rua Sebastião dos Santos",
        "zipcode": "89164-508"
    },
    {
        "city": "Rio do Sul",
        "state": "SC",
        "district": "Barra do Trombudo",
        "street": "Rua Santo Finardi",
        "zipcode": "89164-556"
    },
    {
        "city": "Rio do Sul",
        "state": "SC",
        "district": "Fundo Canoas",
        "street": "Rua Nilza Hoffmann",
        "zipcode": "89163-438"
    },
    {
        "city": "Rio do Sul",
        "state": "SC",
        "district": "Fundo Canoas",
        "street": "Rua Luis Flavio Ferreira",
        "zipcode": "89163-447"
    },
    {
        "city": "Rio do Sul",
        "state": "SC",
        "district": "Fundo Canoas",
        "street": "Rua Carlito Becker",
        "zipcode": "89163-549"
    },
    {
        "city": "Rio do Sul",
        "state": "SC",
        "district": "Barragem",
        "street": "Travessa Rosalina Barboza",
        "zipcode": "89165-250"
    },
    {
        "city": "Rio do Sul",
        "state": "SC",
        "district": "Barragem",
        "street": "Rua Pedro Joaquim de Souza",
        "zipcode": "89165-261"
    },
    {
        "city": "Rio do Sul",
        "state": "SC",
        "district": "Budag",
        "street": "Rua Johann Kepler",
        "zipcode": "89165-400"
    },
    {
        "city": "Rio do Sul",
        "state": "SC",
        "district": "Budag",
        "street": "Rua Rodolfo Anton",
        "zipcode": "89165-409"
    },
    {
        "city": "Rio do Sul",
        "state": "SC",
        "district": "Eugênio Schneider",
        "street": "Beco Henrique Perfoll",
        "zipcode": "89167-021"
    },
    {
        "city": "Rio do Sul",
        "state": "SC",
        "district": "Sumaré",
        "street": "Rua México",
        "zipcode": "89165-643"
    },
    {
        "city": "Rio do Sul",
        "state": "SC",
        "district": "Fundo Canoas",
        "street": "Rua Orivaldo Giacomini",
        "zipcode": "89163-450"
    },
    {
        "city": "Rio do Sul",
        "state": "SC",
        "district": "Fundo Canoas",
        "street": "Rua Francisco Altamir Wagner",
        "zipcode": "89163-533"
    },
    {
        "city": "Rio do Sul",
        "state": "SC",
        "district": "Fundo Canoas",
        "street": "Rua das Indústrias",
        "zipcode": "89163-566"
    },
    {
        "city": "Rio do Sul",
        "state": "SC",
        "district": "Fundo Canoas",
        "street": "Rua Werner Heesch",
        "zipcode": "89163-448"
    },
    {
        "city": "Rio do Sul",
        "state": "SC",
        "district": "Canoas",
        "street": "Beco Edgar Kaestner",
        "zipcode": "89164-111"
    },
    {
        "city": "Rio do Sul",
        "state": "SC",
        "district": "Boa Vista",
        "street": "Beco Rainoldo Horst",
        "zipcode": "89167-163"
    },
    {
        "city": "Rio do Sul",
        "state": "SC",
        "district": "Barragem",
        "street": "Rua Carlos Rocha",
        "zipcode": "89165-044"
    },
    {
        "city": "Rio do Sul",
        "state": "SC",
        "district": "Barragem",
        "street": "Rua Isair Laguna (Loteamento Cedro)",
        "zipcode": "89165-092"
    },
    {
        "city": "Rio do Sul",
        "state": "SC",
        "district": "Barragem",
        "street": "Rua Alfredo Dolsan (Loteamento Cedro)",
        "zipcode": "89165-094"
    },
    {
        "city": "Rio do Sul",
        "state": "SC",
        "district": "Barragem",
        "street": "Rua Colina",
        "zipcode": "89165-218"
    },
    {
        "city": "Rio do Sul",
        "state": "SC",
        "district": "Canoas",
        "street": "Largo Montese",
        "zipcode": "89164-046"
    },
    {
        "city": "Rio do Sul",
        "state": "SC",
        "district": "Barragem",
        "street": "Rua Bela Vista",
        "zipcode": "89165-222"
    },
    {
        "city": "Rio do Sul",
        "state": "SC",
        "district": "Budag",
        "street": "Rua Alois Perfoll",
        "zipcode": "89165-454"
    },
    {
        "city": "Rio do Sul",
        "state": "SC",
        "district": "Barragem",
        "street": "Rua Vilmar Custodio dos Santos",
        "zipcode": "89165-042"
    },
    {
        "city": "Rio do Sul",
        "state": "SC",
        "district": "Centro",
        "street": "Ladeira Vereador Adolfo Frischnecht",
        "zipcode": "89160-065"
    },
    {
        "city": "Rio do Sul",
        "state": "SC",
        "district": "Centro",
        "street": "Rua Presidente Kennedy",
        "zipcode": "89160-139"
    },
    {
        "city": "Rio do Sul",
        "state": "SC",
        "district": "Rainha",
        "street": "Rua Leopoldo Kurth",
        "zipcode": "89162-040"
    },
    {
        "city": "Rio do Sul",
        "state": "SC",
        "district": "Canta Galo",
        "street": "Rua Prefeito Wenceslau Borini",
        "zipcode": "89163-026"
    },
    {
        "city": "Rio do Sul",
        "state": "SC",
        "district": "Centro",
        "street": "Rua Pernambuco",
        "zipcode": "89160-067"
    },
    {
        "city": "Rio do Sul",
        "state": "SC",
        "district": "Canta Galo",
        "street": "Rua Jacó Finardi",
        "zipcode": "89163-041"
    },
    {
        "city": "Rio do Sul",
        "state": "SC",
        "district": "Centro",
        "street": "Avenida Oscar Barcelos",
        "zipcode": "89160-971"
    },
    {
        "city": "Rio do Sul",
        "state": "SC",
        "district": "Centro",
        "street": "Rua Oscar Kirsten",
        "zipcode": "89160-049"
    },
    {
        "city": "Rio do Sul",
        "state": "SC",
        "district": "Progresso",
        "street": "Estrada Boa Esperança",
        "zipcode": "89163-610"
    },
    {
        "city": "Rio do Sul",
        "state": "SC",
        "district": "Sumaré",
        "street": "Rua Guilherme Laubenstein",
        "zipcode": "89165-710"
    },
    {
        "city": "Rio do Sul",
        "state": "SC",
        "district": "Canta Galo",
        "street": "Rua Otto Guckert",
        "zipcode": "89163-332"
    },
    {
        "city": "Rio do Sul",
        "state": "SC",
        "district": "Canta Galo",
        "street": "Rua Massaranduba",
        "zipcode": "89163-260"
    },
    {
        "city": "Rio do Sul",
        "state": "SC",
        "district": "Barra Itoupava",
        "street": "Beco Geraldo Geiser",
        "zipcode": "89162-580"
    },
    {
        "city": "Rio do Sul",
        "state": "SC",
        "district": "Canta Galo",
        "street": "Rua Prefeito Wenceslau Borini",
        "zipcode": "89163-152"
    },
    {
        "city": "Rio do Sul",
        "state": "SC",
        "district": "Canta Galo",
        "street": "Rua Ida Lenz",
        "zipcode": "89163-208"
    },
    {
        "city": "Rio do Sul",
        "state": "SC",
        "district": "Canta Galo",
        "street": "Rua Wilfred Engicht",
        "zipcode": "89163-218"
    },
    {
        "city": "Rio do Sul",
        "state": "SC",
        "district": "Canta Galo",
        "street": "Rua Expedicionário Menelau Claudino dos Santos",
        "zipcode": "89163-224"
    },
    {
        "city": "Rio do Sul",
        "state": "SC",
        "district": "Canta Galo",
        "street": "Rua Dinamarca",
        "zipcode": "89163-240"
    },
    {
        "city": "Rio do Sul",
        "state": "SC",
        "district": "Taboão",
        "street": "Rua Vitório Ropelato",
        "zipcode": "89160-362"
    },
    {
        "city": "Rio do Sul",
        "state": "SC",
        "district": "Pamplona",
        "street": "Rua Cerejeira",
        "zipcode": "89164-216"
    },
    {
        "city": "Rio do Sul",
        "state": "SC",
        "district": "Barra do Trombudo",
        "street": "Rua Leandro Murara",
        "zipcode": "89164-516"
    },
    {
        "city": "Rio do Sul",
        "state": "SC",
        "district": "Eugênio Schneider",
        "street": "Rua Botânico Kuhlmann",
        "zipcode": "89167-117"
    },
    {
        "city": "Rio do Sul",
        "state": "SC",
        "district": "Boa Vista",
        "street": "Rua Osvaldo Geiser",
        "zipcode": "89167-244"
    },
    {
        "city": "Rio do Sul",
        "state": "SC",
        "district": "Laranjeiras",
        "street": "Ladeira Araranguá",
        "zipcode": "89167-418"
    },
    {
        "city": "Rio do Sul",
        "state": "SC",
        "district": "Laranjeiras",
        "street": "Beco José Acrifio da Rosa",
        "zipcode": "89167-422"
    },
    {
        "city": "Rio do Sul",
        "state": "SC",
        "district": "Albertina",
        "street": "Rodovia Vereador Carlos Probst",
        "zipcode": "89167-665"
    },
    {
        "city": "Rio do Sul",
        "state": "SC",
        "district": "Canta Galo",
        "street": "Rua Carl Lingner",
        "zipcode": "89163-304"
    },
    {
        "city": "Rio do Sul",
        "state": "SC",
        "district": "Pamplona",
        "street": "Rua Henrique Müller",
        "zipcode": "89164-303"
    },
    {
        "city": "Rio do Sul",
        "state": "SC",
        "district": "Barra do Trombudo",
        "street": "Rua Joaquim Cerutti",
        "zipcode": "89164-504"
    },
    {
        "city": "Rio do Sul",
        "state": "SC",
        "district": "Barra do Trombudo",
        "street": "Rua Venina Maria Bianchi",
        "zipcode": "89164-514"
    },
    {
        "city": "Rio do Sul",
        "state": "SC",
        "district": "Fundo Canoas",
        "street": "Rua Elizabeth Jasper",
        "zipcode": "89163-551"
    },
    {
        "city": "Rio do Sul",
        "state": "SC",
        "district": "Budag",
        "street": "Rua Carlos Knappmann",
        "zipcode": "89165-314"
    },
    {
        "city": "Rio do Sul",
        "state": "SC",
        "district": "Sumaré",
        "street": "Rua das Amoréias",
        "zipcode": "89165-750"
    },
    {
        "city": "Rio do Sul",
        "state": "SC",
        "district": "Progresso",
        "street": "Rua Valdir Schwambach",
        "zipcode": "89163-670"
    },
    {
        "city": "Rio do Sul",
        "state": "SC",
        "district": "Canoas",
        "street": "Beco Lídio Piva",
        "zipcode": "89164-114"
    },
    {
        "city": "Rio do Sul",
        "state": "SC",
        "district": "Barragem",
        "street": "Estrada da Madeira",
        "zipcode": "89165-063"
    },
    {
        "city": "Rio do Sul",
        "state": "SC",
        "district": "Budag",
        "street": "Estrada da Madeira",
        "zipcode": "89165-290"
    },
    {
        "city": "Rio do Sul",
        "state": "SC",
        "district": "Boa Vista",
        "street": "Beco Minas Gerais",
        "zipcode": "89167-154"
    },
    {
        "city": "Rio do Sul",
        "state": "SC",
        "district": "Canta Galo",
        "street": "Rua Jacó Finardi",
        "zipcode": "89163-089"
    },
    {
        "city": "Rio do Sul",
        "state": "SC",
        "district": "Canoas",
        "street": "Rua Jaraguá",
        "zipcode": "89164-126"
    },
    {
        "city": "Rio do Sul",
        "state": "SC",
        "district": "Pamplona",
        "street": "Rodovia BR",
        "zipcode": "89164-182"
    },
    {
        "city": "Rio do Sul",
        "state": "SC",
        "district": "Pamplona",
        "street": "Rua Peroba",
        "zipcode": "89164-192"
    },
    {
        "city": "Rio do Sul",
        "state": "SC",
        "district": "Pamplona",
        "street": "Rua Baguaçú",
        "zipcode": "89164-200"
    },
    {
        "city": "Rio do Sul",
        "state": "SC",
        "district": "Barragem",
        "street": "Rua Vaticano",
        "zipcode": "89165-081"
    },
    {
        "city": "Rio do Sul",
        "state": "SC",
        "district": "Canoas",
        "street": "Rua Voluntários da Pátria",
        "zipcode": "89164-105"
    },
    {
        "city": "Rio do Sul",
        "state": "SC",
        "district": "Canoas",
        "street": "Travessa Corupá",
        "zipcode": "89164-132"
    },
    {
        "city": "Rio do Sul",
        "state": "SC",
        "district": "Boa Vista",
        "street": "Travessa Marcolino Back",
        "zipcode": "89167-194"
    },
    {
        "city": "Rio do Sul",
        "state": "SC",
        "district": "Jardim América",
        "street": "Avenida 7 de Setembro",
        "zipcode": "89160-924"
    },
    {
        "city": "Rio do Sul",
        "state": "SC",
        "district": "Eugênio Schneider",
        "street": "Rua Humaitá",
        "zipcode": "89167-910"
    },
    {
        "city": "Rio do Sul",
        "state": "SC",
        "district": "Canta Galo",
        "street": "Rua Canoinhas",
        "zipcode": "89163-252"
    },
    {
        "city": "Rio do Sul",
        "state": "SC",
        "district": "Progresso",
        "street": "Rua Uldemar Trapp",
        "zipcode": "89163-772"
    },
    {
        "city": "Rio do Sul",
        "state": "SC",
        "district": "Progresso",
        "street": "Rua Silvio Pellizzetti",
        "zipcode": "89163-763"
    },
    {
        "city": "Rio do Sul",
        "state": "SC",
        "district": "Brehmer",
        "street": "Rua Albano Fronza",
        "zipcode": "89161-072"
    },
    {
        "city": "Rio do Sul",
        "state": "SC",
        "district": "Brehmer",
        "street": "Rua Vereador Antonio Cavilha",
        "zipcode": "89161-006"
    },
    {
        "city": "Rio do Sul",
        "state": "SC",
        "district": "Bela Aliança",
        "street": "Rua Arnoldo Wutzow",
        "zipcode": "89161-319"
    },
    {
        "city": "Rio do Sul",
        "state": "SC",
        "district": "Taboão",
        "street": "Beco Leandro Fronza",
        "zipcode": "89160-509"
    },
    {
        "city": "Rio do Sul",
        "state": "SC",
        "district": "Brehmer",
        "street": "Estrada Quintino",
        "zipcode": "89161-148"
    },
    {
        "city": "Rio do Sul",
        "state": "SC",
        "district": "Bela Aliança",
        "street": "Rua Alfredo Swarowsky",
        "zipcode": "89161-360"
    },
    {
        "city": "Rio do Sul",
        "state": "SC",
        "district": "Progresso",
        "street": "Rua Nivaldo Pickler",
        "zipcode": "89163-686"
    },
    {
        "city": "Rio do Sul",
        "state": "SC",
        "district": "Taboão",
        "street": "Rua João Stolf",
        "zipcode": "89160-596"
    },
    {
        "city": "Rio do Sul",
        "state": "SC",
        "district": "Taboão",
        "street": "Travessa Conselheiro",
        "zipcode": "89160-479"
    },
    {
        "city": "Rio do Sul",
        "state": "SC",
        "district": "Taboão",
        "street": "Rua Carlos Parma",
        "zipcode": "89160-775"
    },
    {
        "city": "Rio do Sul",
        "state": "SC",
        "district": "Taboão",
        "street": "Rua João Ledra",
        "zipcode": "89160-690"
    },
    {
        "city": "Rio do Sul",
        "state": "SC",
        "district": "Sumaré",
        "street": "Rua Hubert Warmling",
        "zipcode": "89165-796"
    },
    {
        "city": "Rio do Sul",
        "state": "SC",
        "district": "Fundo Canoas",
        "street": "Rua Adolfo Bet",
        "zipcode": "89163-476"
    },
    {
        "city": "Rio do Sul",
        "state": "SC",
        "district": "Budag",
        "street": "Rua Padre Pedro Francisco Heisel",
        "zipcode": "89165-311"
    },
    {
        "city": "Rio do Sul",
        "state": "SC",
        "district": "Sumaré",
        "street": "Rua Jaguaruna",
        "zipcode": "89165-552"
    },
    {
        "city": "Rio do Sul",
        "state": "SC",
        "district": "Sumaré",
        "street": "Rua Oswaldo Krieck",
        "zipcode": "89165-586"
    },
    {
        "city": "Rio do Sul",
        "state": "SC",
        "district": "Eugênio Schneider",
        "street": "Rua Pará",
        "zipcode": "89167-036"
    },
    {
        "city": "Rio do Sul",
        "state": "SC",
        "district": "Barragem",
        "street": "Estrada da Madeira",
        "zipcode": "89165-140"
    },
    {
        "city": "Rio do Sul",
        "state": "SC",
        "district": "Boa Vista",
        "street": "Rua José Cardoso Sobrinho",
        "zipcode": "89167-182"
    },
    {
        "city": "Rio do Sul",
        "state": "SC",
        "district": "Boa Vista",
        "street": "Travessa Aracajú",
        "zipcode": "89167-214"
    },
    {
        "city": "Rio do Sul",
        "state": "SC",
        "district": "Boa Vista",
        "street": "Rua Guanabara",
        "zipcode": "89167-290"
    },
    {
        "city": "Rio do Sul",
        "state": "SC",
        "district": "Laranjeiras",
        "street": "Rua Guanabara",
        "zipcode": "89167-300"
    },
    {
        "city": "Rio do Sul",
        "state": "SC",
        "district": "Laranjeiras",
        "street": "Rua Lages",
        "zipcode": "89167-442"
    },
    {
        "city": "Rio do Sul",
        "state": "SC",
        "district": "Laranjeiras",
        "street": "Rua dos Imigrantes",
        "zipcode": "89167-518"
    },
    {
        "city": "Rio do Sul",
        "state": "SC",
        "district": "Laranjeiras",
        "street": "Rua Hercílio Padilha",
        "zipcode": "89167-538"
    },
    {
        "city": "Rio do Sul",
        "state": "SC",
        "district": "Albertina",
        "street": "Rodovia Vereador Carlos Probst",
        "zipcode": "89167-660"
    },
    {
        "city": "Rio do Sul",
        "state": "SC",
        "district": "Sumaré",
        "street": "Rua Argentina",
        "zipcode": "89165-619"
    },
    {
        "city": "Rio do Sul",
        "state": "SC",
        "district": "Fundo Canoas",
        "street": "Estrada Boa Esperança",
        "zipcode": "89163-554"
    },
    {
        "city": "Rio do Sul",
        "state": "SC",
        "district": "Budag",
        "street": "Rua Alfredo Pereira de Medeiros",
        "zipcode": "89165-370"
    },
    {
        "city": "Rio do Sul",
        "state": "SC",
        "district": "Progresso",
        "street": "Rua Filomena Kraus de Souza",
        "zipcode": "89163-678"
    },
    {
        "city": "Rio do Sul",
        "state": "SC",
        "district": "Budag",
        "street": "Rua Intendente Pedro Claudino",
        "zipcode": "89165-403"
    },
    {
        "city": "Rio do Sul",
        "state": "SC",
        "district": "Sumaré",
        "street": "Rua Carlos Chagas",
        "zipcode": "89165-525"
    },
    {
        "city": "Rio do Sul",
        "state": "SC",
        "district": "Budag",
        "street": "Rua Salete",
        "zipcode": "89165-323"
    },
    {
        "city": "Rio do Sul",
        "state": "SC",
        "district": "Budag",
        "street": "Rua Vereadora Isabel A Batchauer",
        "zipcode": "89165-385"
    },
    {
        "city": "Rio do Sul",
        "state": "SC",
        "district": "Sumaré",
        "street": "Rua Chile",
        "zipcode": "89165-637"
    },
    {
        "city": "Rio do Sul",
        "state": "SC",
        "district": "Eugênio Schneider",
        "street": "Rua Humaitá",
        "zipcode": "89167-000"
    },
    {
        "city": "Rio do Sul",
        "state": "SC",
        "district": "Eugênio Schneider",
        "street": "Rua Euclides da Cunha",
        "zipcode": "89167-002"
    },
    {
        "city": "Rio do Sul",
        "state": "SC",
        "district": "Eugênio Schneider",
        "street": "Beco Santa Maria",
        "zipcode": "89167-051"
    },
    {
        "city": "Rio do Sul",
        "state": "SC",
        "district": "Eugênio Schneider",
        "street": "Rua Bahia",
        "zipcode": "89167-066"
    },
    {
        "city": "Rio do Sul",
        "state": "SC",
        "district": "Fundo Canoas",
        "street": "Rua Papa João XXIII",
        "zipcode": "89163-509"
    },
    {
        "city": "Rio do Sul",
        "state": "SC",
        "district": "Barragem",
        "street": "Beco Nilva Butzke",
        "zipcode": "89165-183"
    },
    {
        "city": "Rio do Sul",
        "state": "SC",
        "district": "Boa Vista",
        "street": "Beco Emílio Gutjahr",
        "zipcode": "89167-160"
    },
    {
        "city": "Rio do Sul",
        "state": "SC",
        "district": "Barragem",
        "street": "Rua Apocalipse",
        "zipcode": "89165-096"
    },
    {
        "city": "Rio do Sul",
        "state": "SC",
        "district": "Barragem",
        "street": "Rua José Severiano Neves",
        "zipcode": "89165-200"
    },
    {
        "city": "Rio do Sul",
        "state": "SC",
        "district": "Boa Vista",
        "street": "Rua Guanabara",
        "zipcode": "89167-150"
    },
    {
        "city": "Rio do Sul",
        "state": "SC",
        "district": "Boa Vista",
        "street": "Rua Guanabara",
        "zipcode": "89167-172"
    },
    {
        "city": "Rio do Sul",
        "state": "SC",
        "district": "Boa Vista",
        "street": "Travessa Centro Social Urbano",
        "zipcode": "89167-236"
    },
    {
        "city": "Rio do Sul",
        "state": "SC",
        "district": "Centro",
        "street": "Rua Dom Bosco",
        "zipcode": "89160-908"
    },
    {
        "city": "Rio do Sul",
        "state": "SC",
        "district": "Centro",
        "street": "Avenida Oscar Barcelos",
        "zipcode": "89160-920"
    },
    {
        "city": "Rio do Sul",
        "state": "SC",
        "district": "Jardim América",
        "street": "Rua Duque de Caxias",
        "zipcode": "89160-928"
    },
    {
        "city": "Rio do Sul",
        "state": "SC",
        "district": "Centro",
        "street": "Alameda Aristiliano Ramos",
        "zipcode": "89160-149"
    },
    {
        "city": "Rio do Sul",
        "state": "SC",
        "district": "Centro",
        "street": "Alameda Aristiliano Ramos",
        "zipcode": "89160-129"
    },
    {
        "city": "Rio do Sul",
        "state": "SC",
        "district": "Taboão",
        "street": "Rua Durval Victor de Andrade",
        "zipcode": "89160-424"
    },
    {
        "city": "Rio do Sul",
        "state": "SC",
        "district": "Taboão",
        "street": "Rua Juarez Jaime Mazzini",
        "zipcode": "89160-645"
    },
    {
        "city": "Rio do Sul",
        "state": "SC",
        "district": "Rainha",
        "street": "Rodovia BR",
        "zipcode": "89162-020"
    },
    {
        "city": "Rio do Sul",
        "state": "SC",
        "district": "Bela Aliança",
        "street": "Rua Julio Schlupp",
        "zipcode": "89161-436"
    },
    {
        "city": "Rio do Sul",
        "state": "SC",
        "district": "Brehmer",
        "street": "Rua Raimundo Mayer Sobrinho",
        "zipcode": "89161-202"
    },
    {
        "city": "Rio do Sul",
        "state": "SC",
        "district": "Centro",
        "street": "Rua Maria Auxiliadora",
        "zipcode": "89160-059"
    },
    {
        "city": "Rio do Sul",
        "state": "SC",
        "district": "Centro",
        "street": "Rua Visconde de Mauá",
        "zipcode": "89160-103"
    },
    {
        "city": "Rio do Sul",
        "state": "SC",
        "district": "Taboão",
        "street": "Rua Vitório Fronza",
        "zipcode": "89160-705"
    },
    {
        "city": "Rio do Sul",
        "state": "SC",
        "district": "Taboão",
        "street": "Rua Alberto Mazzi",
        "zipcode": "89160-762"
    },
    {
        "city": "Rio do Sul",
        "state": "SC",
        "district": "Barra do Trombudo",
        "street": "Rua Luis Demarch",
        "zipcode": "89164-421"
    },
    {
        "city": "Rio do Sul",
        "state": "SC",
        "district": "Barra do Trombudo",
        "street": "Rua Rude Meshker",
        "zipcode": "89164-502"
    },
    {
        "city": "Rio do Sul",
        "state": "SC",
        "district": "Sumaré",
        "street": "Rua Professor João Conrado Stoll",
        "zipcode": "89165-510"
    },
    {
        "city": "Rio do Sul",
        "state": "SC",
        "district": "Sumaré",
        "street": "Rua Pastor Leonhard Grau",
        "zipcode": "89165-540"
    },
    {
        "city": "Rio do Sul",
        "state": "SC",
        "district": "Barra do Trombudo",
        "street": "Beco Edilson Martin Franco",
        "zipcode": "89164-553"
    },
    {
        "city": "Rio do Sul",
        "state": "SC",
        "district": "Budag",
        "street": "Beco Bernardo Lange",
        "zipcode": "89165-442"
    },
    {
        "city": "Rio do Sul",
        "state": "SC",
        "district": "Barragem",
        "street": "Rua Ana dos Santos",
        "zipcode": "89165-255"
    },
    {
        "city": "Rio do Sul",
        "state": "SC",
        "district": "Canta Galo",
        "street": "Beco Itaiópolis",
        "zipcode": "89163-320"
    },
    {
        "city": "Rio do Sul",
        "state": "SC",
        "district": "Pamplona",
        "street": "Rodovia BR",
        "zipcode": "89164-330"
    },
    {
        "city": "Rio do Sul",
        "state": "SC",
        "district": "Barragem",
        "street": "Estrada da Madeira",
        "zipcode": "89165-000"
    },
    {
        "city": "Rio do Sul",
        "state": "SC",
        "district": "Barragem",
        "street": "Rua Edemundo Nogueira Miranda",
        "zipcode": "89165-010"
    },
    {
        "city": "Rio do Sul",
        "state": "SC",
        "district": "Budag",
        "street": "Rua Luis Pasteur",
        "zipcode": "89165-415"
    },
    {
        "city": "Rio do Sul",
        "state": "SC",
        "district": "Rainha",
        "street": "Rua Guilherme Meriz",
        "zipcode": "89162-126"
    },
    {
        "city": "Rio do Sul",
        "state": "SC",
        "district": "Rainha",
        "street": "Travessa Severino Lunelli",
        "zipcode": "89162-123"
    },
    {
        "city": "Rio do Sul",
        "state": "SC",
        "district": "Santana",
        "street": "Rua Bom Sucesso",
        "zipcode": "89160-286"
    },
    {
        "city": "Rio do Sul",
        "state": "SC",
        "district": "Santana",
        "street": "Ladeira da Eternidade",
        "zipcode": "89160-316"
    },
    {
        "city": "Rio do Sul",
        "state": "SC",
        "district": "Santa Rita",
        "street": "Rua Cerro Azul",
        "zipcode": "89162-366"
    },
    {
        "city": "Rio do Sul",
        "state": "SC",
        "district": "Centro",
        "street": "Rua Caetano Cé",
        "zipcode": "89160-105"
    },
    {
        "city": "Rio do Sul",
        "state": "SC",
        "district": "Centro",
        "street": "Rua Abraham Lincoln",
        "zipcode": "89160-131"
    },
    {
        "city": "Rio do Sul",
        "state": "SC",
        "district": "Brehmer",
        "street": "Beco Vitório Ramos da Silva",
        "zipcode": "89161-124"
    },
    {
        "city": "Rio do Sul",
        "state": "SC",
        "district": "Taboão",
        "street": "Travessa Elvira Georg Friedel",
        "zipcode": "89160-544"
    },
    {
        "city": "Rio do Sul",
        "state": "SC",
        "district": "Jardim América",
        "street": "Rua Alvares Cabral",
        "zipcode": "89160-228"
    },
    {
        "city": "Rio do Sul",
        "state": "SC",
        "district": "Navegantes",
        "street": "Estrada Navegantes",
        "zipcode": "89162-504"
    },
    {
        "city": "Rio do Sul",
        "state": "SC",
        "district": "Sumaré",
        "street": "Rua Eleonora Budag",
        "zipcode": "89165-580"
    },
    {
        "city": "Rio do Sul",
        "state": "SC",
        "district": "Taboão",
        "street": "Rua André Largura",
        "zipcode": "89160-400"
    },
    {
        "city": "Rio do Sul",
        "state": "SC",
        "district": "Fundo Canoas",
        "street": "Rua Waldemar Hoffmann",
        "zipcode": "89163-446"
    },
    {
        "city": "Rio do Sul",
        "state": "SC",
        "district": "Navegantes",
        "street": "Rodovia BR",
        "zipcode": "89162-528"
    },
    {
        "city": "Rio do Sul",
        "state": "SC",
        "district": "Navegantes",
        "street": "Rua Pedro Bittencourt",
        "zipcode": "89162-544"
    },
    {
        "city": "Rio do Sul",
        "state": "SC",
        "district": "Barra Itoupava",
        "street": "Travessa Emílio Trevesani",
        "zipcode": "89162-576"
    },
    {
        "city": "Rio do Sul",
        "state": "SC",
        "district": "Santana",
        "street": "Rua Visconde de Cairú",
        "zipcode": "89160-256"
    },
    {
        "city": "Rio do Sul",
        "state": "SC",
        "district": "Santa Rita",
        "street": "Rua Nossa Senhora Aparecida",
        "zipcode": "89162-346"
    },
    {
        "city": "Rio do Sul",
        "state": "SC",
        "district": "Jardim América",
        "street": "Travessa Radialista Nilton Novais",
        "zipcode": "89160-242"
    },
    {
        "city": "Rio do Sul",
        "state": "SC",
        "district": "Santa Rita",
        "street": "Rua Amélia Maschio",
        "zipcode": "89162-412"
    },
    {
        "city": "Rio do Sul",
        "state": "SC",
        "district": "Santana",
        "street": "Beco Arnoldo Molinari",
        "zipcode": "89160-334"
    },
    {
        "city": "Rio do Sul",
        "state": "SC",
        "district": "Santana",
        "street": "Rua Agnes Zimmermann",
        "zipcode": "89160-325"
    },
    {
        "city": "Rio do Sul",
        "state": "SC",
        "district": "Jardim América",
        "street": "Rua Duque de Caxias",
        "zipcode": "89160-220"
    },
    {
        "city": "Rio do Sul",
        "state": "SC",
        "district": "Centro",
        "street": "Rua Machado de Assis",
        "zipcode": "89160-159"
    },
    {
        "city": "Rio do Sul",
        "state": "SC",
        "district": "Centro",
        "street": "Travessa Victor Hugo",
        "zipcode": "89160-031"
    },
    {
        "city": "Rio do Sul",
        "state": "SC",
        "district": "Boa Vista",
        "street": "Ladeira Paraná",
        "zipcode": "89167-220"
    },
    {
        "city": "Rio do Sul",
        "state": "SC",
        "district": "Boa Vista",
        "street": "Estrada Rondônia",
        "zipcode": "89167-230"
    },
    {
        "city": "Rio do Sul",
        "state": "SC",
        "district": "Boa Vista",
        "street": "Beco Planalto",
        "zipcode": "89167-240"
    },
    {
        "city": "Rio do Sul",
        "state": "SC",
        "district": "Laranjeiras",
        "street": "Estrada do Acre",
        "zipcode": "89167-308"
    },
    {
        "city": "Rio do Sul",
        "state": "SC",
        "district": "Laranjeiras",
        "street": "Ladeira Brasília",
        "zipcode": "89167-354"
    },
    {
        "city": "Rio do Sul",
        "state": "SC",
        "district": "Laranjeiras",
        "street": "Rua Lisboa",
        "zipcode": "89167-506"
    },
    {
        "city": "Rio do Sul",
        "state": "SC",
        "district": "Laranjeiras",
        "street": "Rua São Judas Tadeu",
        "zipcode": "89167-510"
    },
    {
        "city": "Rio do Sul",
        "state": "SC",
        "district": "Jardim América",
        "street": "Rua Prefeito Raulino João Rosar",
        "zipcode": "89160-184"
    },
    {
        "city": "Rio do Sul",
        "state": "SC",
        "district": "Laranjeiras",
        "street": "Rua Ribeirão Preto",
        "zipcode": "89167-514"
    },
    {
        "city": "Rio do Sul",
        "state": "SC",
        "district": "Laranjeiras",
        "street": "Rua Salvador",
        "zipcode": "89167-522"
    },
    {
        "city": "Rio do Sul",
        "state": "SC",
        "district": "Laranjeiras",
        "street": "Rua dos Pampas",
        "zipcode": "89167-526"
    },
    {
        "city": "Rio do Sul",
        "state": "SC",
        "district": "Laranjeiras",
        "street": "Rua Bom Jesus da Lapa",
        "zipcode": "89167-534"
    },
    {
        "city": "Rio do Sul",
        "state": "SC",
        "district": "Canta Galo",
        "street": "Beco Ruth Schroeder Ohf",
        "zipcode": "89163-248"
    },
    {
        "city": "Rio do Sul",
        "state": "SC",
        "district": "Canta Galo",
        "street": "Rodovia BR",
        "zipcode": "89163-300"
    },
    {
        "city": "Rio do Sul",
        "state": "SC",
        "district": "Fundo Canoas",
        "street": "Rua Augusto Perfoll",
        "zipcode": "89163-470"
    },
    {
        "city": "Rio do Sul",
        "state": "SC",
        "district": "Progresso",
        "street": "Beco Clovis Porto",
        "zipcode": "89163-642"
    },
    {
        "city": "Rio do Sul",
        "state": "SC",
        "district": "Progresso",
        "street": "Rua Ademar Ohf",
        "zipcode": "89163-654"
    },
    {
        "city": "Rio do Sul",
        "state": "SC",
        "district": "Fundo Canoas",
        "street": "Beco Arthur Rabitzsch",
        "zipcode": "89163-524"
    },
    {
        "city": "Rio do Sul",
        "state": "SC",
        "district": "Fundo Canoas",
        "street": "Rua Oscar Strey",
        "zipcode": "89163-584"
    },
    {
        "city": "Rio do Sul",
        "state": "SC",
        "district": "Budag",
        "street": "Rua Jacob Johann Dyck",
        "zipcode": "89165-342"
    },
    {
        "city": "Rio do Sul",
        "state": "SC",
        "district": "Progresso",
        "street": "Travessa Arno Mariam",
        "zipcode": "89163-666"
    },
    {
        "city": "Rio do Sul",
        "state": "SC",
        "district": "Boa Vista",
        "street": "Beco Ponta Grossa",
        "zipcode": "89167-216"
    },
    {
        "city": "Rio do Sul",
        "state": "SC",
        "district": "Barragem",
        "street": "Rua Descanso",
        "zipcode": "89165-072"
    },
    {
        "city": "Rio do Sul",
        "state": "SC",
        "district": "Eugênio Schneider",
        "street": "Rua Gonçalves Dias",
        "zipcode": "89167-081"
    },
    {
        "city": "Rio do Sul",
        "state": "SC",
        "district": "Pamplona",
        "street": "Rua Tarumã",
        "zipcode": "89164-194"
    },
    {
        "city": "Rio do Sul",
        "state": "SC",
        "district": "Boa Vista",
        "street": "Rua Emma Carolina Dias Américo",
        "zipcode": "89167-180"
    },
    {
        "city": "Rio do Sul",
        "state": "SC",
        "district": "Boa Vista",
        "street": "Rua Gustavo Kopp",
        "zipcode": "89167-186"
    },
    {
        "city": "Rio do Sul",
        "state": "SC",
        "district": "Boa Vista",
        "street": "Rua Atalanta",
        "zipcode": "89167-196"
    },
    {
        "city": "Rio do Sul",
        "state": "SC",
        "district": "Boa Vista",
        "street": "Rua Goiânia",
        "zipcode": "89167-206"
    },
    {
        "city": "Rio do Sul",
        "state": "SC",
        "district": "Boa Vista",
        "street": "Rua Curitiba",
        "zipcode": "89167-218"
    },
    {
        "city": "Rio do Sul",
        "state": "SC",
        "district": "Boa Vista",
        "street": "Rua São Luiz",
        "zipcode": "89167-228"
    },
    {
        "city": "Rio do Sul",
        "state": "SC",
        "district": "Boa Vista",
        "street": "Rua Humaitá",
        "zipcode": "89167-242"
    },
    {
        "city": "Rio do Sul",
        "state": "SC",
        "district": "Boa Vista",
        "street": "Rua Humaitá",
        "zipcode": "89167-246"
    },
    {
        "city": "Rio do Sul",
        "state": "SC",
        "district": "Boa Vista",
        "street": "Rua Antônio Chequetto",
        "zipcode": "89167-293"
    },
    {
        "city": "Rio do Sul",
        "state": "SC",
        "district": "Laranjeiras",
        "street": "Rua Otto Ern",
        "zipcode": "89167-324"
    },
    {
        "city": "Rio do Sul",
        "state": "SC",
        "district": "Laranjeiras",
        "street": "Rua Maranhão",
        "zipcode": "89167-332"
    },
    {
        "city": "Rio do Sul",
        "state": "SC",
        "district": "Laranjeiras",
        "street": "Rua Claudina Agnes Rodrigues",
        "zipcode": "89167-340"
    },
    {
        "city": "Rio do Sul",
        "state": "SC",
        "district": "Laranjeiras",
        "street": "Rua Criciúma",
        "zipcode": "89167-348"
    },
    {
        "city": "Rio do Sul",
        "state": "SC",
        "district": "Laranjeiras",
        "street": "Rua Roberto Taufenbach",
        "zipcode": "89167-364"
    },
    {
        "city": "Rio do Sul",
        "state": "SC",
        "district": "Laranjeiras",
        "street": "Rua Henrique Schütze",
        "zipcode": "89167-414"
    },
    {
        "city": "Rio do Sul",
        "state": "SC",
        "district": "Laranjeiras",
        "street": "Rua Limeira",
        "zipcode": "89167-434"
    },
    {
        "city": "Rio do Sul",
        "state": "SC",
        "district": "Laranjeiras",
        "street": "Rua Guilherme Joos",
        "zipcode": "89167-438"
    },
    {
        "city": "Rio do Sul",
        "state": "SC",
        "district": "Laranjeiras",
        "street": "Travessa Bom Jardim",
        "zipcode": "89167-458"
    },
    {
        "city": "Rio do Sul",
        "state": "SC",
        "district": "Laranjeiras",
        "street": "Rua Raulino Demarchi",
        "zipcode": "89167-462"
    },
    {
        "city": "Rio do Sul",
        "state": "SC",
        "district": "Laranjeiras",
        "street": "Rua Gentil Becker",
        "zipcode": "89167-478"
    },
    {
        "city": "Rio do Sul",
        "state": "SC",
        "district": "Laranjeiras",
        "street": "Beco Feldmann",
        "zipcode": "89167-480"
    },
    {
        "city": "Rio do Sul",
        "state": "SC",
        "district": "Laranjeiras",
        "street": "Conjunto Habitacional Natal das Alianças",
        "zipcode": "89167-524"
    },
    {
        "city": "Rio do Sul",
        "state": "SC",
        "district": "Laranjeiras",
        "street": "Rua Guilherme Witt",
        "zipcode": "89167-542"
    },
    {
        "city": "Rio do Sul",
        "state": "SC",
        "district": "Laranjeiras",
        "street": "Rodovia Vereador Carlos Probst",
        "zipcode": "89167-546"
    },
    {
        "city": "Rio do Sul",
        "state": "SC",
        "district": "Albertina",
        "street": "Rua Robert Holler",
        "zipcode": "89167-575"
    },
    {
        "city": "Rio do Sul",
        "state": "SC",
        "district": "Albertina",
        "street": "Rua João Eifler",
        "zipcode": "89167-580"
    },
    {
        "city": "Rio do Sul",
        "state": "SC",
        "district": "Boa Vista",
        "street": "Rua Chapecó",
        "zipcode": "89167-208"
    },
    {
        "city": "Rio do Sul",
        "state": "SC",
        "district": "Laranjeiras",
        "street": "Rua Lages",
        "zipcode": "89167-454"
    },
    {
        "city": "Rio do Sul",
        "state": "SC",
        "district": "Albertina",
        "street": "Rua Florianópolis",
        "zipcode": "89167-585"
    },
    {
        "city": "Rio do Sul",
        "state": "SC",
        "district": "Eugênio Schneider",
        "street": "Rua Castro Alves",
        "zipcode": "89167-069"
    },
    {
        "city": "Rio do Sul",
        "state": "SC",
        "district": "Eugênio Schneider",
        "street": "Ladeira Fortaleza",
        "zipcode": "89167-075"
    },
    {
        "city": "Rio do Sul",
        "state": "SC",
        "district": "Boa Vista",
        "street": "Beco Roberto Jasper",
        "zipcode": "89167-158"
    },
    {
        "city": "Rio do Sul",
        "state": "SC",
        "district": "Boa Vista",
        "street": "Beco Leonel José de Aviz",
        "zipcode": "89167-192"
    },
    {
        "city": "Rio do Sul",
        "state": "SC",
        "district": "Barragem",
        "street": "Rua Fredolino Erckmann",
        "zipcode": "89165-024"
    },
    {
        "city": "Rio do Sul",
        "state": "SC",
        "district": "Barragem",
        "street": "Rua Albertina Ignez Erkmann",
        "zipcode": "89165-030"
    },
    {
        "city": "Rio do Sul",
        "state": "SC",
        "district": "Barragem",
        "street": "Rua Decio Giovane Schlatter",
        "zipcode": "89165-032"
    },
    {
        "city": "Rio do Sul",
        "state": "SC",
        "district": "Eugênio Schneider",
        "street": "Rua Adolfo Buhr",
        "zipcode": "89167-087"
    },
    {
        "city": "Rio do Sul",
        "state": "SC",
        "district": "Boa Vista",
        "street": "Rua Genivaldo da Costa",
        "zipcode": "89167-152"
    },
    {
        "city": "Rio do Sul",
        "state": "SC",
        "district": "Boa Vista",
        "street": "Rua São Paulo",
        "zipcode": "89167-164"
    },
    {
        "city": "Rio do Sul",
        "state": "SC",
        "district": "Boa Vista",
        "street": "Rua Belo Horizonte",
        "zipcode": "89167-166"
    },
    {
        "city": "Rio do Sul",
        "state": "SC",
        "district": "Boa Vista",
        "street": "Rua Espírito Santo",
        "zipcode": "89167-174"
    },
    {
        "city": "Rio do Sul",
        "state": "SC",
        "district": "Boa Vista",
        "street": "Rua Gabriel Maueski",
        "zipcode": "89167-178"
    },
    {
        "city": "Rio do Sul",
        "state": "SC",
        "district": "Canoas",
        "street": "Servidão Oscar Schulze",
        "zipcode": "89164-120"
    },
    {
        "city": "Rio do Sul",
        "state": "SC",
        "district": "Boa Vista",
        "street": "Travessa Maceió",
        "zipcode": "89167-198"
    },
    {
        "city": "Rio do Sul",
        "state": "SC",
        "district": "Boa Vista",
        "street": "Travessa Alagoas",
        "zipcode": "89167-200"
    },
    {
        "city": "Rio do Sul",
        "state": "SC",
        "district": "Boa Vista",
        "street": "Travessa Petrópolis",
        "zipcode": "89167-212"
    },
    {
        "city": "Rio do Sul",
        "state": "SC",
        "district": "Laranjeiras",
        "street": "Rua Vereador Ogenil de Oliveira",
        "zipcode": "89167-304"
    },
    {
        "city": "Rio do Sul",
        "state": "SC",
        "district": "Taboão",
        "street": "Rua das Orquídeas",
        "zipcode": "89160-476"
    },
    {
        "city": "Rio do Sul",
        "state": "SC",
        "district": "Laranjeiras",
        "street": "Rua XV de Novembro",
        "zipcode": "89167-328"
    },
    {
        "city": "Rio do Sul",
        "state": "SC",
        "district": "Laranjeiras",
        "street": "Rua XV de Novembro",
        "zipcode": "89167-410"
    },
    {
        "city": "Rio do Sul",
        "state": "SC",
        "district": "Laranjeiras",
        "street": "Travessa Sete Quedas",
        "zipcode": "89167-474"
    },
    {
        "city": "Rio do Sul",
        "state": "SC",
        "district": "Laranjeiras",
        "street": "Rua Vilibaldo Valentim Niehues",
        "zipcode": "89167-494"
    },
    {
        "city": "Rio do Sul",
        "state": "SC",
        "district": "Canoas",
        "street": "Rua Fernando Silva",
        "zipcode": "89164-036"
    },
    {
        "city": "Rio do Sul",
        "state": "SC",
        "district": "Canoas",
        "street": "Rua Jorge Schütz",
        "zipcode": "89164-072"
    },
    {
        "city": "Rio do Sul",
        "state": "SC",
        "district": "Budag",
        "street": "Rua Alexandre Von Humboldt",
        "zipcode": "89165-418"
    },
    {
        "city": "Rio do Sul",
        "state": "SC",
        "district": "Budag",
        "street": "Rua Herculano Nunes Teixeira",
        "zipcode": "89165-478"
    },
    {
        "city": "Rio do Sul",
        "state": "SC",
        "district": "Sumaré",
        "street": "Rua Bolívia",
        "zipcode": "89165-625"
    },
    {
        "city": "Rio do Sul",
        "state": "SC",
        "district": "Sumaré",
        "street": "Rua Helmuth Skowasch",
        "zipcode": "89165-583"
    },
    {
        "city": "Rio do Sul",
        "state": "SC",
        "district": "Eugênio Schneider",
        "street": "Rua Porto Alegre",
        "zipcode": "89167-045"
    },
    {
        "city": "Rio do Sul",
        "state": "SC",
        "district": "Eugênio Schneider",
        "street": "Rua 12 de Outubro",
        "zipcode": "89167-054"
    },
    {
        "city": "Rio do Sul",
        "state": "SC",
        "district": "Eugênio Schneider",
        "street": "Rua Vicente João Barcelos",
        "zipcode": "89167-060"
    },
    {
        "city": "Rio do Sul",
        "state": "SC",
        "district": "Eugênio Schneider",
        "street": "Travessa Niterói",
        "zipcode": "89167-063"
    },
    {
        "city": "Rio do Sul",
        "state": "SC",
        "district": "Budag",
        "street": "Rua Engenheiro Odebrecht",
        "zipcode": "89165-412"
    },
    {
        "city": "Rio do Sul",
        "state": "SC",
        "district": "Sumaré",
        "street": "Rua Pastor Gerhold Hobus",
        "zipcode": "89165-528"
    },
    {
        "city": "Rio do Sul",
        "state": "SC",
        "district": "Sumaré",
        "street": "Beco Maria Machado dos Santos",
        "zipcode": "89165-531"
    },
    {
        "city": "Rio do Sul",
        "state": "SC",
        "district": "Sumaré",
        "street": "Rua Cleto Barros Westphalen",
        "zipcode": "89165-546"
    },
    {
        "city": "Rio do Sul",
        "state": "SC",
        "district": "Sumaré",
        "street": "Rua Urubici",
        "zipcode": "89165-595"
    },
    {
        "city": "Rio do Sul",
        "state": "SC",
        "district": "Eugênio Schneider",
        "street": "Rua Paraíba",
        "zipcode": "89167-012"
    },
    {
        "city": "Rio do Sul",
        "state": "SC",
        "district": "Sumaré",
        "street": "Rua Maria Leite da Silva",
        "zipcode": "89165-799"
    },
    {
        "city": "Rio do Sul",
        "state": "SC",
        "district": "Eugênio Schneider",
        "street": "Ladeira Manoel Pedro Alves",
        "zipcode": "89167-024"
    },
    {
        "city": "Rio do Sul",
        "state": "SC",
        "district": "Budag",
        "street": "Rua Basílio Correa de Negredo",
        "zipcode": "89165-481"
    },
    {
        "city": "Rio do Sul",
        "state": "SC",
        "district": "Sumaré",
        "street": "Rua dos Lírios",
        "zipcode": "89165-734"
    },
    {
        "city": "Rio do Sul",
        "state": "SC",
        "district": "Sumaré",
        "street": "Rua das Rosas",
        "zipcode": "89165-742"
    },
    {
        "city": "Rio do Sul",
        "state": "SC",
        "district": "Budag",
        "street": "Rua Albert Einstein",
        "zipcode": "89165-424"
    },
    {
        "city": "Rio do Sul",
        "state": "SC",
        "district": "Budag",
        "street": "Rua Emanuel Kant",
        "zipcode": "89165-430"
    },
    {
        "city": "Rio do Sul",
        "state": "SC",
        "district": "Budag",
        "street": "Praça Getúlio Vargas",
        "zipcode": "89165-489"
    },
    {
        "city": "Rio do Sul",
        "state": "SC",
        "district": "Sumaré",
        "street": "Rua Içara",
        "zipcode": "89165-555"
    },
    {
        "city": "Rio do Sul",
        "state": "SC",
        "district": "Sumaré",
        "street": "Rua Brasil",
        "zipcode": "89165-613"
    },
    {
        "city": "Rio do Sul",
        "state": "SC",
        "district": "Sumaré",
        "street": "Rua Uruguai",
        "zipcode": "89165-616"
    },
    {
        "city": "Rio do Sul",
        "state": "SC",
        "district": "Sumaré",
        "street": "Rua Paraguai",
        "zipcode": "89165-622"
    },
    {
        "city": "Rio do Sul",
        "state": "SC",
        "district": "Sumaré",
        "street": "Rua Brasil",
        "zipcode": "89165-634"
    },
    {
        "city": "Rio do Sul",
        "state": "SC",
        "district": "Sumaré",
        "street": "Rua Colômbia",
        "zipcode": "89165-640"
    },
    {
        "city": "Rio do Sul",
        "state": "SC",
        "district": "Eugênio Schneider",
        "street": "Rua Milton Blemer",
        "zipcode": "89167-003"
    },
    {
        "city": "Rio do Sul",
        "state": "SC",
        "district": "Eugênio Schneider",
        "street": "Rua Rocha Pombo",
        "zipcode": "89167-009"
    },
    {
        "city": "Rio do Sul",
        "state": "SC",
        "district": "Eugênio Schneider",
        "street": "Rua Botânico Kuhlmann",
        "zipcode": "89167-015"
    },
    {
        "city": "Rio do Sul",
        "state": "SC",
        "district": "Eugênio Schneider",
        "street": "Rua Atlântida",
        "zipcode": "89167-039"
    },
    {
        "city": "Rio do Sul",
        "state": "SC",
        "district": "Eugênio Schneider",
        "street": "Rua das Flores",
        "zipcode": "89167-042"
    },
    {
        "city": "Rio do Sul",
        "state": "SC",
        "district": "Barragem",
        "street": "Rua Israel",
        "zipcode": "89165-084"
    },
    {
        "city": "Rio do Sul",
        "state": "SC",
        "district": "Barragem",
        "street": "Rua Portugal",
        "zipcode": "89165-093"
    },
    {
        "city": "Rio do Sul",
        "state": "SC",
        "district": "Barragem",
        "street": "Rua Palestina",
        "zipcode": "89165-099"
    },
    {
        "city": "Rio do Sul",
        "state": "SC",
        "district": "Barragem",
        "street": "Rua Bagdá",
        "zipcode": "89165-105"
    },
    {
        "city": "Rio do Sul",
        "state": "SC",
        "district": "Barragem",
        "street": "Rua Gênesis",
        "zipcode": "89165-108"
    },
    {
        "city": "Rio do Sul",
        "state": "SC",
        "district": "Barragem",
        "street": "Rua São Samuel",
        "zipcode": "89165-111"
    },
    {
        "city": "Rio do Sul",
        "state": "SC",
        "district": "Barragem",
        "street": "Rua Alberto Schultz",
        "zipcode": "89165-182"
    },
    {
        "city": "Rio do Sul",
        "state": "SC",
        "district": "Barragem",
        "street": "Rua Antonio Tonon",
        "zipcode": "89165-184"
    },
    {
        "city": "Rio do Sul",
        "state": "SC",
        "district": "Barragem",
        "street": "Rua Germano Sandri",
        "zipcode": "89165-188"
    },
    {
        "city": "Rio do Sul",
        "state": "SC",
        "district": "Barragem",
        "street": "Rua Altamiro Gastão",
        "zipcode": "89165-216"
    },
    {
        "city": "Rio do Sul",
        "state": "SC",
        "district": "Sumaré",
        "street": "Rua Equador",
        "zipcode": "89165-592"
    },
    {
        "city": "Rio do Sul",
        "state": "SC",
        "district": "Eugênio Schneider",
        "street": "Rua Leandro Dellagiustina",
        "zipcode": "89167-084"
    },
    {
        "city": "Rio do Sul",
        "state": "SC",
        "district": "Boa Vista",
        "street": "Travessa Valmor Aristides Machado",
        "zipcode": "89167-188"
    },
    {
        "city": "Rio do Sul",
        "state": "SC",
        "district": "Boa Vista",
        "street": "Travessa 23 de Maio",
        "zipcode": "89167-232"
    },
    {
        "city": "Rio do Sul",
        "state": "SC",
        "district": "Laranjeiras",
        "street": "Travessa Paulo Grah",
        "zipcode": "89167-446"
    },
    {
        "city": "Rio do Sul",
        "state": "SC",
        "district": "Laranjeiras",
        "street": "Travessa José Emílio Cordeiro",
        "zipcode": "89167-486"
    },
    {
        "city": "Rio do Sul",
        "state": "SC",
        "district": "Canta Galo",
        "street": "Rodovia BR",
        "zipcode": "89163-915"
    },
    {
        "city": "Rio do Sul",
        "state": "SC",
        "district": "Fundo Canoas",
        "street": "Estrada Boa Esperança",
        "zipcode": "89163-920"
    },
    {
        "city": "Rio do Sul",
        "state": "SC",
        "district": "Progresso",
        "street": "Rua das Palmeiras",
        "zipcode": "89163-775"
    },
    {
        "city": "Rio do Sul",
        "state": "SC",
        "district": "Canoas",
        "street": "Travessa Tamoio",
        "zipcode": "89164-018"
    },
    {
        "city": "Rio do Sul",
        "state": "SC",
        "district": "Canoas",
        "street": "Travessa Tupi",
        "zipcode": "89164-021"
    },
    {
        "city": "Rio do Sul",
        "state": "SC",
        "district": "Canoas",
        "street": "Rua Aimorés",
        "zipcode": "89164-015"
    },
    {
        "city": "Rio do Sul",
        "state": "SC",
        "district": "Progresso",
        "street": "Rua Acaraí",
        "zipcode": "89163-726"
    },
    {
        "city": "Rio do Sul",
        "state": "SC",
        "district": "Progresso",
        "street": "Rua das Hortências",
        "zipcode": "89163-684"
    },
    {
        "city": "Rio do Sul",
        "state": "SC",
        "district": "Progresso",
        "street": "Rodovia BR",
        "zipcode": "89163-720"
    },
    {
        "city": "Rio do Sul",
        "state": "SC",
        "district": "Progresso",
        "street": "Rua João Custódio da Luz",
        "zipcode": "89163-766"
    },
    {
        "city": "Rio do Sul",
        "state": "SC",
        "district": "Progresso",
        "street": "Rua Olimpio Peters",
        "zipcode": "89163-688"
    },
    {
        "city": "Rio do Sul",
        "state": "SC",
        "district": "Progresso",
        "street": "Rua Dom João VI",
        "zipcode": "89163-787"
    },
    {
        "city": "Rio do Sul",
        "state": "SC",
        "district": "Progresso",
        "street": "Rua Gaivota",
        "zipcode": "89163-724"
    },
    {
        "city": "Rio do Sul",
        "state": "SC",
        "district": "Progresso",
        "street": "Rua Santa Cruz",
        "zipcode": "89163-781"
    },
    {
        "city": "Rio do Sul",
        "state": "SC",
        "district": "Progresso",
        "street": "Estrada Dário Althoff",
        "zipcode": "89163-690"
    },
    {
        "city": "Rio do Sul",
        "state": "SC",
        "district": "Budag",
        "street": "Rua Pedro Américo",
        "zipcode": "89165-433"
    },
    {
        "city": "Rio do Sul",
        "state": "SC",
        "district": "Sumaré",
        "street": "Travessa Paulo Herbst Filho",
        "zipcode": "89165-601"
    },
    {
        "city": "Rio do Sul",
        "state": "SC",
        "district": "Budag",
        "street": "Rua Ruy Barbosa",
        "zipcode": "89165-487"
    },
    {
        "city": "Rio do Sul",
        "state": "SC",
        "district": "Sumaré",
        "street": "Rua Ruy Barbosa",
        "zipcode": "89165-513"
    },
    {
        "city": "Rio do Sul",
        "state": "SC",
        "district": "Barragem",
        "street": "Rua Helmuth Keske",
        "zipcode": "89165-014"
    },
    {
        "city": "Rio do Sul",
        "state": "SC",
        "district": "Fundo Canoas",
        "street": "Travessa Papa João Paulo II",
        "zipcode": "89163-515"
    },
    {
        "city": "Rio do Sul",
        "state": "SC",
        "district": "Fundo Canoas",
        "street": "Rua Helmuth Hedel",
        "zipcode": "89163-534"
    },
    {
        "city": "Rio do Sul",
        "state": "SC",
        "district": "Progresso",
        "street": "Rua Jaborá",
        "zipcode": "89163-728"
    },
    {
        "city": "Rio do Sul",
        "state": "SC",
        "district": "Barra do Trombudo",
        "street": "Beco Xavantina",
        "zipcode": "89164-642"
    },
    {
        "city": "Rio do Sul",
        "state": "SC",
        "district": "Barragem",
        "street": "Rua Ari Bonifácio Berri",
        "zipcode": "89165-012"
    },
    {
        "city": "Rio do Sul",
        "state": "SC",
        "district": "Barragem",
        "street": "Rua Abelardo da Silva Ramos",
        "zipcode": "89165-008"
    },
    {
        "city": "Rio do Sul",
        "state": "SC",
        "district": "Fundo Canoas",
        "street": "Rua Augusto Sofka",
        "zipcode": "89163-527"
    },
    {
        "city": "Rio do Sul",
        "state": "SC",
        "district": "Barra do Trombudo",
        "street": "Rua Pouso Redondo",
        "zipcode": "89164-432"
    },
    {
        "city": "Rio do Sul",
        "state": "SC",
        "district": "Barra do Trombudo",
        "street": "Rua Valdemiro da Silva",
        "zipcode": "89164-506"
    },
    {
        "city": "Rio do Sul",
        "state": "SC",
        "district": "Barragem",
        "street": "Travessa Água Verde",
        "zipcode": "89165-002"
    },
    {
        "city": "Rio do Sul",
        "state": "SC",
        "district": "Budag",
        "street": "Rua Mario Dalponte",
        "zipcode": "89165-448"
    },
    {
        "city": "Rio do Sul",
        "state": "SC",
        "district": "Budag",
        "street": "Rua Lauro Müller",
        "zipcode": "89165-451"
    },
    {
        "city": "Rio do Sul",
        "state": "SC",
        "district": "Budag",
        "street": "Rua Vidal Ramos",
        "zipcode": "89165-466"
    },
    {
        "city": "Rio do Sul",
        "state": "SC",
        "district": "Sumaré",
        "street": "Rua Leopoldo Fuchs",
        "zipcode": "89165-722"
    },
    {
        "city": "Rio do Sul",
        "state": "SC",
        "district": "Canoas",
        "street": "Beco Nestor Laurindo",
        "zipcode": "89164-093"
    },
    {
        "city": "Rio do Sul",
        "state": "SC",
        "district": "Canoas",
        "street": "Rua Almirante Tamandaré",
        "zipcode": "89164-081"
    },
    {
        "city": "Rio do Sul",
        "state": "SC",
        "district": "Canoas",
        "street": "Rua Padre Anchieta",
        "zipcode": "89164-084"
    },
    {
        "city": "Rio do Sul",
        "state": "SC",
        "district": "Canoas",
        "street": "Rua Imperatriz Leopoldina",
        "zipcode": "89164-090"
    },
    {
        "city": "Rio do Sul",
        "state": "SC",
        "district": "Canoas",
        "street": "Rua Dom Pedro II",
        "zipcode": "89164-138"
    },
    {
        "city": "Rio do Sul",
        "state": "SC",
        "district": "Pamplona",
        "street": "Rua João Pedro Marcelino",
        "zipcode": "89164-184"
    },
    {
        "city": "Rio do Sul",
        "state": "SC",
        "district": "Pamplona",
        "street": "Rua Câmara Junior",
        "zipcode": "89164-196"
    },
    {
        "city": "Rio do Sul",
        "state": "SC",
        "district": "Pamplona",
        "street": "Rua Maiate",
        "zipcode": "89164-202"
    },
    {
        "city": "Rio do Sul",
        "state": "SC",
        "district": "Pamplona",
        "street": "Rua Cedro",
        "zipcode": "89164-204"
    },
    {
        "city": "Rio do Sul",
        "state": "SC",
        "district": "Pamplona",
        "street": "Rua Louro",
        "zipcode": "89164-206"
    },
    {
        "city": "Rio do Sul",
        "state": "SC",
        "district": "Pamplona",
        "street": "Rua Canela",
        "zipcode": "89164-212"
    },
    {
        "city": "Rio do Sul",
        "state": "SC",
        "district": "Pamplona",
        "street": "Rua Cândido Nasato",
        "zipcode": "89164-186"
    },
    {
        "city": "Rio do Sul",
        "state": "SC",
        "district": "Pamplona",
        "street": "Rua Araucária",
        "zipcode": "89164-208"
    },
    {
        "city": "Rio do Sul",
        "state": "SC",
        "district": "Barragem",
        "street": "Rua Juventude",
        "zipcode": "89165-075"
    },
    {
        "city": "Rio do Sul",
        "state": "SC",
        "district": "Barragem",
        "street": "Rua São Mateus",
        "zipcode": "89165-087"
    },
    {
        "city": "Rio do Sul",
        "state": "SC",
        "district": "Barragem",
        "street": "Rua Paulo César Tonon",
        "zipcode": "89165-155"
    },
    {
        "city": "Rio do Sul",
        "state": "SC",
        "district": "Barragem",
        "street": "Rua Tangará",
        "zipcode": "89165-192"
    },
    {
        "city": "Rio do Sul",
        "state": "SC",
        "district": "Barragem",
        "street": "Rua Laureci Rosa dos Santos",
        "zipcode": "89165-212"
    },
    {
        "city": "Rio do Sul",
        "state": "SC",
        "district": "Barragem",
        "street": "Rua Ruth Demarch",
        "zipcode": "89165-246"
    },
    {
        "city": "Rio do Sul",
        "state": "SC",
        "district": "Barragem",
        "street": "Rua Julia Tonet",
        "zipcode": "89165-258"
    },
    {
        "city": "Rio do Sul",
        "state": "SC",
        "district": "Sumaré",
        "street": "Rua Osvaldo Cruz",
        "zipcode": "89165-519"
    },
    {
        "city": "Rio do Sul",
        "state": "SC",
        "district": "Barragem",
        "street": "Travessa Leopoldo Dolzan",
        "zipcode": "89165-026"
    },
    {
        "city": "Rio do Sul",
        "state": "SC",
        "district": "Barragem",
        "street": "Rua Virgínia Cavilha",
        "zipcode": "89165-249"
    },
    {
        "city": "Rio do Sul",
        "state": "SC",
        "district": "Canta Galo",
        "street": "Rodovia BR",
        "zipcode": "89163-020"
    },
    {
        "city": "Rio do Sul",
        "state": "SC",
        "district": "Valada Itoupava",
        "street": "Rodovia BR",
        "zipcode": "89162-870"
    },
    {
        "city": "Rio do Sul",
        "state": "SC",
        "district": "Valada Itoupava",
        "street": "Travessa João Dolzan",
        "zipcode": "89162-783"
    },
    {
        "city": "Rio do Sul",
        "state": "SC",
        "district": "Valada Itoupava",
        "street": "Rua Jacarandá",
        "zipcode": "89162-722"
    },
    {
        "city": "Rio do Sul",
        "state": "SC",
        "district": "Canta Galo",
        "street": "Marginal Sul",
        "zipcode": "89163-023"
    },
    {
        "city": "Rio do Sul",
        "state": "SC",
        "district": "Valada Itoupava",
        "street": "Rua dos Vereadores",
        "zipcode": "89162-830"
    },
    {
        "city": "Rio do Sul",
        "state": "SC",
        "district": "Fundo Canoas",
        "street": "Rua Francisco Ferrari",
        "zipcode": "89163-557"
    },
    {
        "city": "Rio do Sul",
        "state": "SC",
        "district": "Fundo Canoas",
        "street": "Rua Luiz Olímpio Ferrari",
        "zipcode": "89163-581"
    },
    {
        "city": "Rio do Sul",
        "state": "SC",
        "district": "Progresso",
        "street": "Rua Benedito Novo",
        "zipcode": "89163-650"
    },
    {
        "city": "Rio do Sul",
        "state": "SC",
        "district": "Progresso",
        "street": "Estrada São Bento",
        "zipcode": "89163-656"
    },
    {
        "city": "Rio do Sul",
        "state": "SC",
        "district": "Pamplona",
        "street": "Rua Altamiro Allembrandt",
        "zipcode": "89164-190"
    },
    {
        "city": "Rio do Sul",
        "state": "SC",
        "district": "Barra do Trombudo",
        "street": "Rua Amadeu Pavanello",
        "zipcode": "89164-518"
    },
    {
        "city": "Rio do Sul",
        "state": "SC",
        "district": "Canta Galo",
        "street": "Beco América",
        "zipcode": "89163-149"
    },
    {
        "city": "Rio do Sul",
        "state": "SC",
        "district": "Fundo Canoas",
        "street": "Beco Eugênio Masson",
        "zipcode": "89163-539"
    },
    {
        "city": "Rio do Sul",
        "state": "SC",
        "district": "Fundo Canoas",
        "street": "Rua Alfredo Viebrantz",
        "zipcode": "89163-560"
    },
    {
        "city": "Rio do Sul",
        "state": "SC",
        "district": "Fundo Canoas",
        "street": "Rua Alberto Hedel",
        "zipcode": "89163-578"
    },
    {
        "city": "Rio do Sul",
        "state": "SC",
        "district": "Progresso",
        "street": "Beco Ruth Greuel",
        "zipcode": "89163-616"
    },
    {
        "city": "Rio do Sul",
        "state": "SC",
        "district": "Progresso",
        "street": "Rua Antonio Tadeu Leandro",
        "zipcode": "89163-662"
    },
    {
        "city": "Rio do Sul",
        "state": "SC",
        "district": "Progresso",
        "street": "Beco Jaime Ferrari",
        "zipcode": "89163-674"
    },
    {
        "city": "Rio do Sul",
        "state": "SC",
        "district": "Fundo Canoas",
        "street": "Rua Lindolfo Degenhardt",
        "zipcode": "89163-545"
    },
    {
        "city": "Rio do Sul",
        "state": "SC",
        "district": "Valada Itoupava",
        "street": "Rua João Baldassari",
        "zipcode": "89162-726"
    },
    {
        "city": "Rio do Sul",
        "state": "SC",
        "district": "Fundo Canoas",
        "street": "Rua Auta Sofka",
        "zipcode": "89163-530"
    },
    {
        "city": "Rio do Sul",
        "state": "SC",
        "district": "Fundo Canoas",
        "street": "Beco Natalino Stopassoli",
        "zipcode": "89163-485"
    },
    {
        "city": "Rio do Sul",
        "state": "SC",
        "district": "Progresso",
        "street": "Rua Ângelo Marques Vieira",
        "zipcode": "89163-646"
    },
    {
        "city": "Rio do Sul",
        "state": "SC",
        "district": "Progresso",
        "street": "Rua Antonio Teodoro de Miranda",
        "zipcode": "89163-664"
    },
    {
        "city": "Rio do Sul",
        "state": "SC",
        "district": "Fundo Canoas",
        "street": "Estrada Boa Esperança",
        "zipcode": "89163-506"
    },
    {
        "city": "Rio do Sul",
        "state": "SC",
        "district": "Fundo Canoas",
        "street": "Rua Evaldir José Jasper",
        "zipcode": "89163-548"
    },
    {
        "city": "Rio do Sul",
        "state": "SC",
        "district": "Fundo Canoas",
        "street": "Rua Harold Munzfeld",
        "zipcode": "89163-569"
    },
    {
        "city": "Rio do Sul",
        "state": "SC",
        "district": "Fundo Canoas",
        "street": "Rua Oscar Strey",
        "zipcode": "89163-575"
    },
    {
        "city": "Rio do Sul",
        "state": "SC",
        "district": "Progresso",
        "street": "Rua Garuva",
        "zipcode": "89163-613"
    },
    {
        "city": "Rio do Sul",
        "state": "SC",
        "district": "Progresso",
        "street": "Rua Santa Rita de Cássia",
        "zipcode": "89163-680"
    },
    {
        "city": "Rio do Sul",
        "state": "SC",
        "district": "Progresso",
        "street": "Rua Santo Antonio",
        "zipcode": "89163-682"
    },
    {
        "city": "Rio do Sul",
        "state": "SC",
        "district": "Fundo Canoas",
        "street": "Rua Carlos Haag",
        "zipcode": "89163-482"
    },
    {
        "city": "Rio do Sul",
        "state": "SC",
        "district": "Fundo Canoas",
        "street": "Rua Oscar Hoffmann",
        "zipcode": "89163-488"
    },
    {
        "city": "Rio do Sul",
        "state": "SC",
        "district": "Fundo Canoas",
        "street": "Rua Haroldo Lucas",
        "zipcode": "89163-503"
    },
    {
        "city": "Rio do Sul",
        "state": "SC",
        "district": "Fundo Canoas",
        "street": "Rua Josef Sofka",
        "zipcode": "89163-521"
    },
    {
        "city": "Rio do Sul",
        "state": "SC",
        "district": "Fundo Canoas",
        "street": "Rua Carmela Fronza",
        "zipcode": "89163-561"
    },
    {
        "city": "Rio do Sul",
        "state": "SC",
        "district": "Progresso",
        "street": "Rua São Francisco",
        "zipcode": "89163-660"
    },
    {
        "city": "Rio do Sul",
        "state": "SC",
        "district": "Fundo Canoas",
        "street": "Rua Rodolfo Reblin",
        "zipcode": "89163-494"
    },
    {
        "city": "Rio do Sul",
        "state": "SC",
        "district": "Fundo Canoas",
        "street": "Rua Rodolfo Vellwock",
        "zipcode": "89163-500"
    },
    {
        "city": "Rio do Sul",
        "state": "SC",
        "district": "Progresso",
        "street": "Rua Rodolfo Odebrecht",
        "zipcode": "89163-652"
    },
    {
        "city": "Rio do Sul",
        "state": "SC",
        "district": "Canta Galo",
        "street": "Rua Poeta Drummond",
        "zipcode": "89163-083"
    },
    {
        "city": "Rio do Sul",
        "state": "SC",
        "district": "Canta Galo",
        "street": "Rua Francisco Fernandes",
        "zipcode": "89163-095"
    },
    {
        "city": "Rio do Sul",
        "state": "SC",
        "district": "Valada Itoupava",
        "street": "Travessa Pedro Mazzini",
        "zipcode": "89162-753"
    },
    {
        "city": "Rio do Sul",
        "state": "SC",
        "district": "Canta Galo",
        "street": "Beco Lucindo Finardi",
        "zipcode": "89163-056"
    },
    {
        "city": "Rio do Sul",
        "state": "SC",
        "district": "Valada Itoupava",
        "street": "Marginal Norte",
        "zipcode": "89162-860"
    },
    {
        "city": "Rio do Sul",
        "state": "SC",
        "district": "Pamplona",
        "street": "Rua Roberto Henrique Wagner",
        "zipcode": "89164-180"
    },
    {
        "city": "Rio do Sul",
        "state": "SC",
        "district": "Pamplona",
        "street": "Rua Genésio Nasatto",
        "zipcode": "89164-188"
    },
    {
        "city": "Rio do Sul",
        "state": "SC",
        "district": "Barra do Trombudo",
        "street": "Rua José Clemente Demarch",
        "zipcode": "89164-500"
    },
    {
        "city": "Rio do Sul",
        "state": "SC",
        "district": "Canoas",
        "street": "Travessa Atleta Maristela Rossini",
        "zipcode": "89164-108"
    },
    {
        "city": "Rio do Sul",
        "state": "SC",
        "district": "Valada Itoupava",
        "street": "Rodovia BR",
        "zipcode": "89162-915"
    },
    {
        "city": "Rio do Sul",
        "state": "SC",
        "district": "Rainha",
        "street": "Rua Teodoro Morastoni",
        "zipcode": "89162-044"
    },
    {
        "city": "Rio do Sul",
        "state": "SC",
        "district": "Santa Rita",
        "street": "Rua Olintho Jordão Molinari",
        "zipcode": "89162-298"
    },
    {
        "city": "Rio do Sul",
        "state": "SC",
        "district": "Santa Rita",
        "street": "Rua Águas Mornas",
        "zipcode": "89162-294"
    },
    {
        "city": "Rio do Sul",
        "state": "SC",
        "district": "Santa Rita",
        "street": "Rua Alberto Bonfanti",
        "zipcode": "89162-314"
    },
    {
        "city": "Rio do Sul",
        "state": "SC",
        "district": "Santa Rita",
        "street": "Beco Aldo Magnani",
        "zipcode": "89162-318"
    },
    {
        "city": "Rio do Sul",
        "state": "SC",
        "district": "Bela Aliança",
        "street": "Beco Ernesto Michelson",
        "zipcode": "89161-464"
    },
    {
        "city": "Rio do Sul",
        "state": "SC",
        "district": "Santa Rita",
        "street": "Rua Andradina",
        "zipcode": "89162-330"
    },
    {
        "city": "Rio do Sul",
        "state": "SC",
        "district": "Valada São Paulo",
        "street": "Rua Antonio Dolzani",
        "zipcode": "89162-190"
    },
    {
        "city": "Rio do Sul",
        "state": "SC",
        "district": "Brehmer",
        "street": "Rua Antonio José Poleza",
        "zipcode": "89161-206"
    },
    {
        "city": "Rio do Sul",
        "state": "SC",
        "district": "Valada Itoupava",
        "street": "Rua José Marchi",
        "zipcode": "89162-714"
    },
    {
        "city": "Rio do Sul",
        "state": "SC",
        "district": "Bela Aliança",
        "street": "Beco Waldemar Bernardi",
        "zipcode": "89161-428"
    },
    {
        "city": "Rio do Sul",
        "state": "SC",
        "district": "Bela Aliança",
        "street": "Rua Waldemar Pabst",
        "zipcode": "89161-322"
    },
    {
        "city": "Rio do Sul",
        "state": "SC",
        "district": "Santa Rita",
        "street": "Beco Jânio Cipriani",
        "zipcode": "89162-322"
    },
    {
        "city": "Rio do Sul",
        "state": "SC",
        "district": "Valada São Paulo",
        "street": "Rua João Marchi",
        "zipcode": "89162-178"
    },
    {
        "city": "Rio do Sul",
        "state": "SC",
        "district": "Bela Aliança",
        "street": "Rua Conselheiro Willy Hering",
        "zipcode": "89161-310"
    },
    {
        "city": "Rio do Sul",
        "state": "SC",
        "district": "Bela Aliança",
        "street": "Rua Conselheiro Willy Hering",
        "zipcode": "89161-460"
    },
    {
        "city": "Rio do Sul",
        "state": "SC",
        "district": "Santa Rita",
        "street": "Rua Nelson Ricardo Sansão",
        "zipcode": "89162-306"
    },
    {
        "city": "Rio do Sul",
        "state": "SC",
        "district": "Brehmer",
        "street": "Rua Tenente Neves",
        "zipcode": "89161-210"
    },
    {
        "city": "Rio do Sul",
        "state": "SC",
        "district": "Bela Aliança",
        "street": "Rua Pedro Frankenberger",
        "zipcode": "89161-313"
    },
    {
        "city": "Rio do Sul",
        "state": "SC",
        "district": "Bela Aliança",
        "street": "Rua Pedro Frankenberger",
        "zipcode": "89161-316"
    },
    {
        "city": "Rio do Sul",
        "state": "SC",
        "district": "Brehmer",
        "street": "Rua João Nascheweng",
        "zipcode": "89161-218"
    },
    {
        "city": "Rio do Sul",
        "state": "SC",
        "district": "Rainha",
        "street": "Rua Camboriú",
        "zipcode": "89162-086"
    },
    {
        "city": "Rio do Sul",
        "state": "SC",
        "district": "Santa Rita",
        "street": "Rua Marcelo Nagel",
        "zipcode": "89162-302"
    },
    {
        "city": "Rio do Sul",
        "state": "SC",
        "district": "Canta Galo",
        "street": "Estrada do Redentor",
        "zipcode": "89163-356"
    },
    {
        "city": "Rio do Sul",
        "state": "SC",
        "district": "Fundo Canoas",
        "street": "Rua José Salla",
        "zipcode": "89163-479"
    },
    {
        "city": "Rio do Sul",
        "state": "SC",
        "district": "Pamplona",
        "street": "Rua Vila Real",
        "zipcode": "89164-350"
    },
    {
        "city": "Rio do Sul",
        "state": "SC",
        "district": "Canta Galo",
        "street": "Rua Pedro Paulo Cunha",
        "zipcode": "89163-272"
    },
    {
        "city": "Rio do Sul",
        "state": "SC",
        "district": "Canta Galo",
        "street": "Ladeira Serra Geral",
        "zipcode": "89163-308"
    },
    {
        "city": "Rio do Sul",
        "state": "SC",
        "district": "Navegantes",
        "street": "Rua Padre Feijó",
        "zipcode": "89162-540"
    },
    {
        "city": "Rio do Sul",
        "state": "SC",
        "district": "Canta Galo",
        "street": "Rua Pomerode",
        "zipcode": "89163-220"
    },
    {
        "city": "Rio do Sul",
        "state": "SC",
        "district": "Santa Rita",
        "street": "Rua Santa Isabel",
        "zipcode": "89162-362"
    },
    {
        "city": "Rio do Sul",
        "state": "SC",
        "district": "Canta Galo",
        "street": "Travessa Itaipú",
        "zipcode": "89163-080"
    },
    {
        "city": "Rio do Sul",
        "state": "SC",
        "district": "Canta Galo",
        "street": "Rua Emilio Ferrari",
        "zipcode": "89163-228"
    },
    {
        "city": "Rio do Sul",
        "state": "SC",
        "district": "Canta Galo",
        "street": "Rodovia BR",
        "zipcode": "89163-244"
    },
    {
        "city": "Rio do Sul",
        "state": "SC",
        "district": "Canta Galo",
        "street": "Beco Fermino Schneider",
        "zipcode": "89163-256"
    },
    {
        "city": "Rio do Sul",
        "state": "SC",
        "district": "Canta Galo",
        "street": "Rua Acary Ismar Dalfovo",
        "zipcode": "89163-344"
    },
    {
        "city": "Rio do Sul",
        "state": "SC",
        "district": "Canta Galo",
        "street": "Ladeira Mirador",
        "zipcode": "89163-161"
    },
    {
        "city": "Rio do Sul",
        "state": "SC",
        "district": "Canta Galo",
        "street": "Beco da Lagoa",
        "zipcode": "89163-352"
    },
    {
        "city": "Rio do Sul",
        "state": "SC",
        "district": "Fundo Canoas",
        "street": "Rua Antonio Salla",
        "zipcode": "89163-413"
    },
    {
        "city": "Rio do Sul",
        "state": "SC",
        "district": "Canta Galo",
        "street": "Beco Major Vieira",
        "zipcode": "89163-328"
    },
    {
        "city": "Rio do Sul",
        "state": "SC",
        "district": "Fundo Canoas",
        "street": "Beco Zilma Munzfeld",
        "zipcode": "89163-455"
    },
    {
        "city": "Rio do Sul",
        "state": "SC",
        "district": "Pamplona",
        "street": "Rua Vila Pamplona",
        "zipcode": "89164-338"
    },
    {
        "city": "Rio do Sul",
        "state": "SC",
        "district": "Barra do Trombudo",
        "street": "Rua Roque Poncio",
        "zipcode": "89164-388"
    },
    {
        "city": "Rio do Sul",
        "state": "SC",
        "district": "Canta Galo",
        "street": "Rua Joaquim Paulino de Souza",
        "zipcode": "89163-348"
    },
    {
        "city": "Rio do Sul",
        "state": "SC",
        "district": "Canta Galo",
        "street": "Rua Heitor Largura",
        "zipcode": "89163-360"
    },
    {
        "city": "Rio do Sul",
        "state": "SC",
        "district": "Fundo Canoas",
        "street": "Rua João Hoffmann",
        "zipcode": "89163-440"
    },
    {
        "city": "Rio do Sul",
        "state": "SC",
        "district": "Fundo Canoas",
        "street": "Rua Guido Vota",
        "zipcode": "89163-467"
    },
    {
        "city": "Rio do Sul",
        "state": "SC",
        "district": "Fundo Canoas",
        "street": "Rua Guilherme Hamann",
        "zipcode": "89163-452"
    },
    {
        "city": "Rio do Sul",
        "state": "SC",
        "district": "Fundo Canoas",
        "street": "Rua Rosa Hoffmann",
        "zipcode": "89163-449"
    },
    {
        "city": "Rio do Sul",
        "state": "SC",
        "district": "Fundo Canoas",
        "street": "Rua Otília F da Silva",
        "zipcode": "89163-473"
    },
    {
        "city": "Rio do Sul",
        "state": "SC",
        "district": "Canta Galo",
        "street": "Beco Ervino de Borba",
        "zipcode": "89163-068"
    },
    {
        "city": "Rio do Sul",
        "state": "SC",
        "district": "Canta Galo",
        "street": "Rua Verde Vale",
        "zipcode": "89163-077"
    },
    {
        "city": "Rio do Sul",
        "state": "SC",
        "district": "Canta Galo",
        "street": "Rua Emílio Wutzow",
        "zipcode": "89163-212"
    },
    {
        "city": "Rio do Sul",
        "state": "SC",
        "district": "Rainha",
        "street": "Rua Otto Keske",
        "zipcode": "89162-129"
    },
    {
        "city": "Rio do Sul",
        "state": "SC",
        "district": "Rainha",
        "street": "Rua Ernesto Machado",
        "zipcode": "89162-083"
    },
    {
        "city": "Rio do Sul",
        "state": "SC",
        "district": "Bela Aliança",
        "street": "Estrada Braço Bela Aliança",
        "zipcode": "89161-432"
    },
    {
        "city": "Rio do Sul",
        "state": "SC",
        "district": "Brehmer",
        "street": "Rua Brusque",
        "zipcode": "89161-070"
    },
    {
        "city": "Rio do Sul",
        "state": "SC",
        "district": "Rainha",
        "street": "Rua Antonio Rosa",
        "zipcode": "89162-095"
    },
    {
        "city": "Rio do Sul",
        "state": "SC",
        "district": "Rainha",
        "street": "Rua Aparicio Basílio Rocha",
        "zipcode": "89162-089"
    },
    {
        "city": "Rio do Sul",
        "state": "SC",
        "district": "Brehmer",
        "street": "Rua Leopoldo Cardoso",
        "zipcode": "89161-198"
    },
    {
        "city": "Rio do Sul",
        "state": "SC",
        "district": "Brehmer",
        "street": "Beco Leopoldo Harbs",
        "zipcode": "89161-128"
    },
    {
        "city": "Rio do Sul",
        "state": "SC",
        "district": "Brehmer",
        "street": "Beco Biguaçú",
        "zipcode": "89161-074"
    },
    {
        "city": "Rio do Sul",
        "state": "SC",
        "district": "Brehmer",
        "street": "Rua Adolfo Bechtold",
        "zipcode": "89161-194"
    },
    {
        "city": "Rio do Sul",
        "state": "SC",
        "district": "Valada São Paulo",
        "street": "Rua Willy Odorizzi",
        "zipcode": "89162-166"
    },
    {
        "city": "Rio do Sul",
        "state": "SC",
        "district": "Taboão",
        "street": "Rua Lauro Fronza",
        "zipcode": "89160-648"
    },
    {
        "city": "Rio do Sul",
        "state": "SC",
        "district": "Brehmer",
        "street": "Estrada Quintino",
        "zipcode": "89161-132"
    },
    {
        "city": "Rio do Sul",
        "state": "SC",
        "district": "Bela Aliança",
        "street": "Rua Julio Schlupp",
        "zipcode": "89161-424"
    },
    {
        "city": "Rio do Sul",
        "state": "SC",
        "district": "Taboão",
        "street": "Rua Nazira Hermann",
        "zipcode": "89160-693"
    },
    {
        "city": "Rio do Sul",
        "state": "SC",
        "district": "Brehmer",
        "street": "Beco Piçarras",
        "zipcode": "89161-076"
    },
    {
        "city": "Rio do Sul",
        "state": "SC",
        "district": "Taboão",
        "street": "Rua João Ledra",
        "zipcode": "89160-760"
    },
    {
        "city": "Rio do Sul",
        "state": "SC",
        "district": "Brehmer",
        "street": "Beco Itapema",
        "zipcode": "89161-060"
    },
    {
        "city": "Rio do Sul",
        "state": "SC",
        "district": "Bela Aliança",
        "street": "Rua Roberto Pinheiro",
        "zipcode": "89161-434"
    },
    {
        "city": "Rio do Sul",
        "state": "SC",
        "district": "Canta Galo",
        "street": "Beco Maria Bruno",
        "zipcode": "89163-122"
    },
    {
        "city": "Rio do Sul",
        "state": "SC",
        "district": "Canta Galo",
        "street": "Rua Valmor Pasqualini",
        "zipcode": "89163-232"
    },
    {
        "city": "Rio do Sul",
        "state": "SC",
        "district": "Navegantes",
        "street": "Rua 13 de Agosto",
        "zipcode": "89162-520"
    },
    {
        "city": "Rio do Sul",
        "state": "SC",
        "district": "Canta Galo",
        "street": "Travessa Luiz Alves",
        "zipcode": "89163-134"
    },
    {
        "city": "Rio do Sul",
        "state": "SC",
        "district": "Canta Galo",
        "street": "Rua Jacó Finardi",
        "zipcode": "89163-101"
    },
    {
        "city": "Rio do Sul",
        "state": "SC",
        "district": "Barra Itoupava",
        "street": "Marginal Sul",
        "zipcode": "89162-564"
    },
    {
        "city": "Rio do Sul",
        "state": "SC",
        "district": "Navegantes",
        "street": "Estrada Navegantes",
        "zipcode": "89162-552"
    },
    {
        "city": "Rio do Sul",
        "state": "SC",
        "district": "Barra Itoupava",
        "street": "Rua Itajaí",
        "zipcode": "89162-584"
    },
    {
        "city": "Rio do Sul",
        "state": "SC",
        "district": "Barra Itoupava",
        "street": "Travessa Ângelo Lenzi",
        "zipcode": "89162-588"
    },
    {
        "city": "Rio do Sul",
        "state": "SC",
        "district": "Bela Aliança",
        "street": "Rua Demétrio Fachini",
        "zipcode": "89161-328"
    },
    {
        "city": "Rio do Sul",
        "state": "SC",
        "district": "Bela Aliança",
        "street": "Rua Gustav Hasse",
        "zipcode": "89161-385"
    },
    {
        "city": "Rio do Sul",
        "state": "SC",
        "district": "Canta Galo",
        "street": "Rua Rodolfo Roberto Goulart",
        "zipcode": "89163-137"
    },
    {
        "city": "Rio do Sul",
        "state": "SC",
        "district": "Barra Itoupava",
        "street": "Rua Maria Cechet",
        "zipcode": "89162-568"
    },
    {
        "city": "Rio do Sul",
        "state": "SC",
        "district": "Navegantes",
        "street": "Estrada Navegantes",
        "zipcode": "89162-458"
    },
    {
        "city": "Rio do Sul",
        "state": "SC",
        "district": "Canta Galo",
        "street": "Beco Willy Lippel",
        "zipcode": "89163-173"
    },
    {
        "city": "Rio do Sul",
        "state": "SC",
        "district": "Canta Galo",
        "street": "Beco Liberdade",
        "zipcode": "89163-176"
    },
    {
        "city": "Rio do Sul",
        "state": "SC",
        "district": "Canta Galo",
        "street": "Marginal Norte",
        "zipcode": "89163-204"
    },
    {
        "city": "Rio do Sul",
        "state": "SC",
        "district": "Canta Galo",
        "street": "Beco Rosa Maria Heinz",
        "zipcode": "89163-104"
    },
    {
        "city": "Rio do Sul",
        "state": "SC",
        "district": "Centro",
        "street": "Avenida 7 de Setembro",
        "zipcode": "89160-903"
    },
    {
        "city": "Rio do Sul",
        "state": "SC",
        "district": "Centro",
        "street": "Alameda Aristiliano Ramos",
        "zipcode": "89160-905"
    },
    {
        "city": "Rio do Sul",
        "state": "SC",
        "district": "Centro",
        "street": "Alameda Aristiliano Ramos",
        "zipcode": "89160-906"
    },
    {
        "city": "Rio do Sul",
        "state": "SC",
        "district": "Centro",
        "street": "Rua Carlos Gomes",
        "zipcode": "89160-910"
    },
    {
        "city": "Rio do Sul",
        "state": "SC",
        "district": "Centro",
        "street": "Rua Coelho Neto",
        "zipcode": "89160-912"
    },
    {
        "city": "Rio do Sul",
        "state": "SC",
        "district": "Centro",
        "street": "Rua Dom Bosco",
        "zipcode": "89160-914"
    },
    {
        "city": "Rio do Sul",
        "state": "SC",
        "district": "Centro",
        "street": "Rua Dom Bosco",
        "zipcode": "89160-916"
    },
    {
        "city": "Rio do Sul",
        "state": "SC",
        "district": "Centro",
        "street": "Rua Dom Bosco",
        "zipcode": "89160-918"
    },
    {
        "city": "Rio do Sul",
        "state": "SC",
        "district": "Centro",
        "street": "Rua Tuiuti",
        "zipcode": "89160-922"
    },
    {
        "city": "Rio do Sul",
        "state": "SC",
        "district": "Jardim América",
        "street": "Rua Abraham Lincoln",
        "zipcode": "89160-926"
    },
    {
        "city": "Rio do Sul",
        "state": "SC",
        "district": "Valada São Paulo",
        "street": "Rua Prefeito Luiz Adelar Soldatelli",
        "zipcode": "89162-160"
    },
    {
        "city": "Rio do Sul",
        "state": "SC",
        "district": "Rainha",
        "street": "Beco Nicolau da Cruz",
        "zipcode": "89162-048"
    },
    {
        "city": "Rio do Sul",
        "state": "SC",
        "district": "Bela Aliança",
        "street": "Rua Nilson Pickler",
        "zipcode": "89161-476"
    },
    {
        "city": "Rio do Sul",
        "state": "SC",
        "district": "Bela Aliança",
        "street": "Beco Agenor Schmitz",
        "zipcode": "89161-380"
    },
    {
        "city": "Rio do Sul",
        "state": "SC",
        "district": "Rainha",
        "street": "Rua Walter Vierbrand",
        "zipcode": "89162-053"
    },
    {
        "city": "Rio do Sul",
        "state": "SC",
        "district": "Bela Aliança",
        "street": "Rua Professora Renate Ax Wilhelm",
        "zipcode": "89161-468"
    },
    {
        "city": "Rio do Sul",
        "state": "SC",
        "district": "Jardim América",
        "street": "Rua Georg Lucas",
        "zipcode": "89160-930"
    },
    {
        "city": "Rio do Sul",
        "state": "SC",
        "district": "Taboão",
        "street": "Rua Políbio Pinheiro",
        "zipcode": "89160-663"
    },
    {
        "city": "Rio do Sul",
        "state": "SC",
        "district": "Taboão",
        "street": "Rua Selesta Fronza",
        "zipcode": "89160-540"
    },
    {
        "city": "Rio do Sul",
        "state": "SC",
        "district": "Taboão",
        "street": "Beco Sematel",
        "zipcode": "89160-642"
    },
    {
        "city": "Rio do Sul",
        "state": "SC",
        "district": "Taboão",
        "street": "Rua Felício Fronza",
        "zipcode": "89160-657"
    },
    {
        "city": "Rio do Sul",
        "state": "SC",
        "district": "Taboão",
        "street": "Rua Vergílio Rossetti",
        "zipcode": "89160-654"
    },
    {
        "city": "Rio do Sul",
        "state": "SC",
        "district": "Taboão",
        "street": "Beco Eduardo Marchi",
        "zipcode": "89160-770"
    },
    {
        "city": "Rio do Sul",
        "state": "SC",
        "district": "Taboão",
        "street": "Rua Ercílio Marcelino",
        "zipcode": "89160-432"
    },
    {
        "city": "Rio do Sul",
        "state": "SC",
        "district": "Brehmer",
        "street": "Beco Erick Germano Nau",
        "zipcode": "89161-144"
    },
    {
        "city": "Rio do Sul",
        "state": "SC",
        "district": "Taboão",
        "street": "Rua Ermínio João Fronza",
        "zipcode": "89160-548"
    },
    {
        "city": "Rio do Sul",
        "state": "SC",
        "district": "Taboão",
        "street": "Rua Ermínio Stolf",
        "zipcode": "89160-600"
    },
    {
        "city": "Rio do Sul",
        "state": "SC",
        "district": "Brehmer",
        "street": "Rua Ferdinando Jahn",
        "zipcode": "89161-094"
    },
    {
        "city": "Rio do Sul",
        "state": "SC",
        "district": "Brehmer",
        "street": "Rua Osvaldo Wilvert",
        "zipcode": "89161-140"
    },
    {
        "city": "Rio do Sul",
        "state": "SC",
        "district": "Taboão",
        "street": "Rua Aldo Luiz Cristofolini",
        "zipcode": "89160-765"
    },
    {
        "city": "Rio do Sul",
        "state": "SC",
        "district": "Taboão",
        "street": "Rua Ambrósio Vieira",
        "zipcode": "89160-714"
    },
    {
        "city": "Rio do Sul",
        "state": "SC",
        "district": "Taboão",
        "street": "Rua Ana Negherbon",
        "zipcode": "89160-428"
    },
    {
        "city": "Rio do Sul",
        "state": "SC",
        "district": "Taboão",
        "street": "Beco Antonio Albano Nogueira",
        "zipcode": "89160-488"
    },
    {
        "city": "Rio do Sul",
        "state": "SC",
        "district": "Taboão",
        "street": "Rua Augustinho Milau Baptista",
        "zipcode": "89160-651"
    },
    {
        "city": "Rio do Sul",
        "state": "SC",
        "district": "Brehmer",
        "street": "Beco Adolfo Francisco",
        "zipcode": "89161-096"
    },
    {
        "city": "Rio do Sul",
        "state": "SC",
        "district": "Taboão",
        "street": "Rua José Cimardi",
        "zipcode": "89160-444"
    },
    {
        "city": "Rio do Sul",
        "state": "SC",
        "district": "Taboão",
        "street": "Beco José Pereira",
        "zipcode": "89160-485"
    },
    {
        "city": "Rio do Sul",
        "state": "SC",
        "district": "Taboão",
        "street": "Rua Luiz Gavioli",
        "zipcode": "89160-473"
    },
    {
        "city": "Rio do Sul",
        "state": "SC",
        "district": "Taboão",
        "street": "Beco Hercílio Bernardo Cláudio",
        "zipcode": "89160-588"
    },
    {
        "city": "Rio do Sul",
        "state": "SC",
        "district": "Brehmer",
        "street": "Rua Igonaldo Menslin",
        "zipcode": "89161-084"
    },
    {
        "city": "Rio do Sul",
        "state": "SC",
        "district": "Taboão",
        "street": "Rua João Cavilha",
        "zipcode": "89160-584"
    },
    {
        "city": "Rio do Sul",
        "state": "SC",
        "district": "Taboão",
        "street": "Rua Príncipe",
        "zipcode": "89160-482"
    },
    {
        "city": "Rio do Sul",
        "state": "SC",
        "district": "Brehmer",
        "street": "Beco Rodolfo Franzoi",
        "zipcode": "89161-092"
    },
    {
        "city": "Rio do Sul",
        "state": "SC",
        "district": "Taboão",
        "street": "Rua das Missões",
        "zipcode": "89160-630"
    },
    {
        "city": "Rio do Sul",
        "state": "SC",
        "district": "Taboão",
        "street": "Rua Nilcéia Reinert Ceolin",
        "zipcode": "89160-711"
    },
    {
        "city": "Rio do Sul",
        "state": "SC",
        "district": "Taboão",
        "street": "Travessa Pérola",
        "zipcode": "89160-639"
    },
    {
        "city": "Rio do Sul",
        "state": "SC",
        "district": "Taboão",
        "street": "Rua Genésio da Cruz",
        "zipcode": "89160-592"
    },
    {
        "city": "Rio do Sul",
        "state": "SC",
        "district": "Taboão",
        "street": "Rua Genésio Malheiro",
        "zipcode": "89160-699"
    },
    {
        "city": "Rio do Sul",
        "state": "SC",
        "district": "Taboão",
        "street": "Rua Geremias Medeiros",
        "zipcode": "89160-636"
    },
    {
        "city": "Rio do Sul",
        "state": "SC",
        "district": "Taboão",
        "street": "Rua Carmela Stolf",
        "zipcode": "89160-708"
    },
    {
        "city": "Rio do Sul",
        "state": "SC",
        "district": "Taboão",
        "street": "Travessa Majestade",
        "zipcode": "89160-500"
    },
    {
        "city": "Rio do Sul",
        "state": "SC",
        "district": "Brehmer",
        "street": "Rua Manoel Soares",
        "zipcode": "89161-136"
    },
    {
        "city": "Rio do Sul",
        "state": "SC",
        "district": "Taboão",
        "street": "Rua Vitório Beling",
        "zipcode": "89160-491"
    },
    {
        "city": "Rio do Sul",
        "state": "SC",
        "district": "Brehmer",
        "street": "Rua Vila Vicentim",
        "zipcode": "89161-034"
    },
    {
        "city": "Rio do Sul",
        "state": "SC",
        "district": "Taboão",
        "street": "Rua João Fronza",
        "zipcode": "89160-416"
    },
    {
        "city": "Rio do Sul",
        "state": "SC",
        "district": "Taboão",
        "street": "Rua João Fronza",
        "zipcode": "89160-412"
    },
    {
        "city": "Rio do Sul",
        "state": "SC",
        "district": "Taboão",
        "street": "Rua João Ledra",
        "zipcode": "89160-470"
    },
    {
        "city": "Rio do Sul",
        "state": "SC",
        "district": "Barra Itoupava",
        "street": "Rodovia BR",
        "zipcode": "89162-596"
    },
    {
        "city": "Rio do Sul",
        "state": "SC",
        "district": "Navegantes",
        "street": "Rua Lilly Bremer",
        "zipcode": "89162-454"
    },
    {
        "city": "Rio do Sul",
        "state": "SC",
        "district": "Navegantes",
        "street": "Rua Alfredo Friedel",
        "zipcode": "89162-500"
    },
    {
        "city": "Rio do Sul",
        "state": "SC",
        "district": "Navegantes",
        "street": "Rua Condomínio Bellegante",
        "zipcode": "89162-512"
    },
    {
        "city": "Rio do Sul",
        "state": "SC",
        "district": "Santana",
        "street": "Rua Vergínia Ledra",
        "zipcode": "89160-318"
    },
    {
        "city": "Rio do Sul",
        "state": "SC",
        "district": "Santa Rita",
        "street": "Rua Odete Merencio Melo",
        "zipcode": "89162-370"
    },
    {
        "city": "Rio do Sul",
        "state": "SC",
        "district": "Santa Rita",
        "street": "Rua Josephina Ferrari",
        "zipcode": "89162-408"
    },
    {
        "city": "Rio do Sul",
        "state": "SC",
        "district": "Santa Rita",
        "street": "Rua Ricardo Marchi",
        "zipcode": "89162-336"
    },
    {
        "city": "Rio do Sul",
        "state": "SC",
        "district": "Santa Rita",
        "street": "Rua Concórdia",
        "zipcode": "89162-338"
    },
    {
        "city": "Rio do Sul",
        "state": "SC",
        "district": "Santa Rita",
        "street": "Rua São Sebastião",
        "zipcode": "89162-342"
    },
    {
        "city": "Rio do Sul",
        "state": "SC",
        "district": "Santa Rita",
        "street": "Rua José Valiati",
        "zipcode": "89162-404"
    },
    {
        "city": "Rio do Sul",
        "state": "SC",
        "district": "Centro",
        "street": "Alameda Aristiliano Ramos",
        "zipcode": "89160-113"
    },
    {
        "city": "Rio do Sul",
        "state": "SC",
        "district": "Centro",
        "street": "Travessa Hercílio Luz",
        "zipcode": "89160-133"
    },
    {
        "city": "Rio do Sul",
        "state": "SC",
        "district": "Centro",
        "street": "Rua Tiradentes",
        "zipcode": "89160-085"
    },
    {
        "city": "Rio do Sul",
        "state": "SC",
        "district": "Brehmer",
        "street": "Rua Luiz Dalmolin",
        "zipcode": "89161-134"
    },
    {
        "city": "Rio do Sul",
        "state": "SC",
        "district": "Taboão",
        "street": "Rua Irineu Rossa",
        "zipcode": "89160-696"
    },
    {
        "city": "Rio do Sul",
        "state": "SC",
        "district": "Centro",
        "street": "Beco Altino João da Rocha",
        "zipcode": "89160-111"
    },
    {
        "city": "Rio do Sul",
        "state": "SC",
        "district": "Centro",
        "street": "Rua Anita Garibaldi",
        "zipcode": "89160-153"
    },
    {
        "city": "Rio do Sul",
        "state": "SC",
        "district": "Centro",
        "street": "Travessa Bento de Oliveira",
        "zipcode": "89160-143"
    },
    {
        "city": "Rio do Sul",
        "state": "SC",
        "district": "Centro",
        "street": "Rua Georg Lucas",
        "zipcode": "89160-127"
    },
    {
        "city": "Rio do Sul",
        "state": "SC",
        "district": "Centro",
        "street": "Travessa Heitor Luz",
        "zipcode": "89160-140"
    },
    {
        "city": "Rio do Sul",
        "state": "SC",
        "district": "Centro",
        "street": "Rua Monte Castelo",
        "zipcode": "89160-097"
    },
    {
        "city": "Rio do Sul",
        "state": "SC",
        "district": "Centro",
        "street": "Rua Expedicionário Nardelli",
        "zipcode": "89160-089"
    },
    {
        "city": "Rio do Sul",
        "state": "SC",
        "district": "Centro",
        "street": "Rua Acadêmico Nilo Marchi",
        "zipcode": "89160-075"
    },
    {
        "city": "Rio do Sul",
        "state": "SC",
        "district": "Centro",
        "street": "Travessa Piauí",
        "zipcode": "89160-073"
    },
    {
        "city": "Rio do Sul",
        "state": "SC",
        "district": "Centro",
        "street": "Rua Santos Dumont",
        "zipcode": "89160-145"
    },
    {
        "city": "Rio do Sul",
        "state": "SC",
        "district": "Centro",
        "street": "Rua Dom Bosco",
        "zipcode": "89160-135"
    },
    {
        "city": "Rio do Sul",
        "state": "SC",
        "district": "Centro",
        "street": "Rua Dom Bosco",
        "zipcode": "89160-121"
    },
    {
        "city": "Rio do Sul",
        "state": "SC",
        "district": "Centro",
        "street": "Rua São João",
        "zipcode": "89160-147"
    },
    {
        "city": "Rio do Sul",
        "state": "SC",
        "district": "Centro",
        "street": "Rua Ana Nery",
        "zipcode": "89160-099"
    },
    {
        "city": "Rio do Sul",
        "state": "SC",
        "district": "Centro",
        "street": "Rua Coelho Neto",
        "zipcode": "89160-155"
    },
    {
        "city": "Rio do Sul",
        "state": "SC",
        "district": "Centro",
        "street": "Rua Duque de Caxias",
        "zipcode": "89160-123"
    },
    {
        "city": "Rio do Sul",
        "state": "SC",
        "district": "Centro",
        "street": "Avenida 7 de Setembro",
        "zipcode": "89160-970"
    },
    {
        "city": "Rio do Sul",
        "state": "SC",
        "district": "Jardim América",
        "street": "Rua 1º de Maio",
        "zipcode": "89160-230"
    },
    {
        "city": "Rio do Sul",
        "state": "SC",
        "district": "Santana",
        "street": "Rua Ana Nery",
        "zipcode": "89160-252"
    },
    {
        "city": "Rio do Sul",
        "state": "SC",
        "district": "Santana",
        "street": "Rua Eufrázia Tomio",
        "zipcode": "89160-274"
    },
    {
        "city": "Rio do Sul",
        "state": "SC",
        "district": "Santana",
        "street": "Alameda Aristiliano Ramos",
        "zipcode": "89160-320"
    },
    {
        "city": "Rio do Sul",
        "state": "SC",
        "district": "Jardim América",
        "street": "Rua Angelo Tomio",
        "zipcode": "89160-232"
    },
    {
        "city": "Rio do Sul",
        "state": "SC",
        "district": "Jardim América",
        "street": "Beco Cristina Buzzi",
        "zipcode": "89160-238"
    },
    {
        "city": "Rio do Sul",
        "state": "SC",
        "district": "Santana",
        "street": "Rua Washington Luiz",
        "zipcode": "89160-250"
    },
    {
        "city": "Rio do Sul",
        "state": "SC",
        "district": "Santana",
        "street": "Rua Imaruí",
        "zipcode": "89160-260"
    },
    {
        "city": "Rio do Sul",
        "state": "SC",
        "district": "Santana",
        "street": "Rua Gravatai",
        "zipcode": "89160-262"
    },
    {
        "city": "Rio do Sul",
        "state": "SC",
        "district": "Santana",
        "street": "Rua Padre Francisco Spaeth",
        "zipcode": "89160-270"
    },
    {
        "city": "Rio do Sul",
        "state": "SC",
        "district": "Santana",
        "street": "Rua João Prudêncio Garcia Filho",
        "zipcode": "89160-276"
    },
    {
        "city": "Rio do Sul",
        "state": "SC",
        "district": "Santana",
        "street": "Beco Aristides Moratelli",
        "zipcode": "89160-280"
    },
    {
        "city": "Rio do Sul",
        "state": "SC",
        "district": "Santana",
        "street": "Travessa Manoel Ferreira",
        "zipcode": "89160-284"
    },
    {
        "city": "Rio do Sul",
        "state": "SC",
        "district": "Santana",
        "street": "Servidão Leandro Vicentin",
        "zipcode": "89160-289"
    },
    {
        "city": "Rio do Sul",
        "state": "SC",
        "district": "Santana",
        "street": "Rua Leopoldo Ledra",
        "zipcode": "89160-290"
    },
    {
        "city": "Rio do Sul",
        "state": "SC",
        "district": "Santana",
        "street": "Rua João C da Silva",
        "zipcode": "89160-294"
    },
    {
        "city": "Rio do Sul",
        "state": "SC",
        "district": "Santana",
        "street": "Travessa Canelinha",
        "zipcode": "89160-298"
    },
    {
        "city": "Rio do Sul",
        "state": "SC",
        "district": "Centro",
        "street": "Praça Luiz Santos Sché",
        "zipcode": "89160-107"
    },
    {
        "city": "Rio do Sul",
        "state": "SC",
        "district": "Santana",
        "street": "Estrada Tijucas",
        "zipcode": "89160-300"
    },
    {
        "city": "Rio do Sul",
        "state": "SC",
        "district": "Santana",
        "street": "Travessa Helena Cavilha",
        "zipcode": "89160-308"
    },
    {
        "city": "Rio do Sul",
        "state": "SC",
        "district": "Santana",
        "street": "Beco Pedro Ledra",
        "zipcode": "89160-310"
    },
    {
        "city": "Rio do Sul",
        "state": "SC",
        "district": "Taboão",
        "street": "Rua Plásio Bilk Júnior",
        "zipcode": "89160-408"
    },
    {
        "city": "Rio do Sul",
        "state": "SC",
        "district": "Santana",
        "street": "Rua Gaspar",
        "zipcode": "89160-324"
    },
    {
        "city": "Rio do Sul",
        "state": "SC",
        "district": "Santana",
        "street": "Beco Ari Ledra",
        "zipcode": "89160-326"
    },
    {
        "city": "Rio do Sul",
        "state": "SC",
        "district": "Santana",
        "street": "Estrada São José",
        "zipcode": "89160-328"
    },
    {
        "city": "Rio do Sul",
        "state": "SC",
        "district": "Santana",
        "street": "Rua Alfonaso Pedro Schneider",
        "zipcode": "89160-330"
    },
    {
        "city": "Rio do Sul",
        "state": "SC",
        "district": "Santana",
        "street": "Estrada Blumenau",
        "zipcode": "89160-332"
    },
    {
        "city": "Rio do Sul",
        "state": "SC",
        "district": "Santana",
        "street": "Rua Gustavo Metzger",
        "zipcode": "89160-336"
    },
    {
        "city": "Rio do Sul",
        "state": "SC",
        "district": "Taboão",
        "street": "Beco São Domingos Sávio",
        "zipcode": "89160-358"
    },
    {
        "city": "Rio do Sul",
        "state": "SC",
        "district": "Taboão",
        "street": "Estrada Blumenau",
        "zipcode": "89160-350"
    },
    {
        "city": "Rio do Sul",
        "state": "SC",
        "district": "Jardim América",
        "street": "Rua Bulcão Viana",
        "zipcode": "89160-226"
    },
    {
        "city": "Rio do Sul",
        "state": "SC",
        "district": "Rainha",
        "street": "Rua Arnoldo Hoffmann",
        "zipcode": "89162-028"
    },
    {
        "city": "Rio do Sul",
        "state": "SC",
        "district": "Bela Aliança",
        "street": "Beco Arthur Hering",
        "zipcode": "89161-420"
    },
    {
        "city": "Rio do Sul",
        "state": "SC",
        "district": "Rainha",
        "street": "Estrada Willand Kurth",
        "zipcode": "89162-024"
    },
    {
        "city": "Rio do Sul",
        "state": "SC",
        "district": "Brehmer",
        "street": "Rua Zeferino Moretti",
        "zipcode": "89161-088"
    },
    {
        "city": "Rio do Sul",
        "state": "SC",
        "district": "Centro",
        "street": "Rua Manoel José Teixeira",
        "zipcode": "89160-101"
    },
    {
        "city": "Rio do Sul",
        "state": "SC",
        "district": "Centro",
        "street": "Beco Maria Camila Machado",
        "zipcode": "89160-091"
    },
    {
        "city": "Rio do Sul",
        "state": "SC",
        "district": "Centro",
        "street": "Rua Cristina Lamim",
        "zipcode": "89160-087"
    },
    {
        "city": "Rio do Sul",
        "state": "SC",
        "district": "Santa Rita",
        "street": "Rodovia BR",
        "zipcode": "89162-290"
    },
    {
        "city": "Rio do Sul",
        "state": "SC",
        "district": "Valada Itoupava",
        "street": "Rodovia BR",
        "zipcode": "89162-875"
    },
    {
        "city": "Rio do Sul",
        "state": "SC",
        "district": "Centro",
        "street": "Rua Recife",
        "zipcode": "89160-069"
    },
    {
        "city": "Rio do Sul",
        "state": "SC",
        "district": "Canoas",
        "street": "Rua Odorico Tomaz Ferreira",
        "zipcode": "89164-024"
    },
    {
        "city": "Rio do Sul",
        "state": "SC",
        "district": "Centro",
        "street": "Rua Olinda",
        "zipcode": "89160-071"
    },
    {
        "city": "Rio do Sul",
        "state": "SC",
        "district": "Centro",
        "street": "Rua dos Pioneiros",
        "zipcode": "89160-063"
    },
    {
        "city": "Rio do Sul",
        "state": "SC",
        "district": "Canoas",
        "street": "Rua Vila Ipiranga",
        "zipcode": "89164-027"
    },
    {
        "city": "Rio do Sul",
        "state": "SC",
        "district": "Santa Rita",
        "street": "Rua Edinei de Souza",
        "zipcode": "89162-332"
    },
    {
        "city": "Rio do Sul",
        "state": "SC",
        "district": "Santana",
        "street": "Beco Tropical",
        "zipcode": "89160-292"
    },
    {
        "city": "Rio do Sul",
        "state": "SC",
        "district": "Progresso",
        "street": "Rua Neri José Finardi",
        "zipcode": "89163-668"
    },
    {
        "city": "Rio do Sul",
        "state": "SC",
        "district": "Budag",
        "street": "Rua Virgílio Maçaneiro",
        "zipcode": "89165-299"
    },
    {
        "city": "Rio do Sul",
        "state": "SC",
        "district": "Navegantes",
        "street": "Rua Ana Bellegante",
        "zipcode": "89162-536"
    },
    {
        "city": "Rio do Sul",
        "state": "SC",
        "district": "Budag",
        "street": "Rua Zulnei Petris",
        "zipcode": "89165-305"
    },
    {
        "city": "Rio do Sul",
        "state": "SC",
        "district": "Navegantes",
        "street": "Rua Ervin Dolzan",
        "zipcode": "89162-548"
    },
    {
        "city": "Rio do Sul",
        "state": "SC",
        "district": "Navegantes",
        "street": "Rodovia BR",
        "zipcode": "89162-556"
    },
    {
        "city": "Rio do Sul",
        "state": "SC",
        "district": "Navegantes",
        "street": "Rua Germano Fronza",
        "zipcode": "89162-524"
    },
    {
        "city": "Rio do Sul",
        "state": "SC",
        "district": "Santana",
        "street": "Rua Bom Abrigo",
        "zipcode": "89160-288"
    },
    {
        "city": "Rio do Sul",
        "state": "SC",
        "district": "Santana",
        "street": "Beco Aldina Ledra Fava",
        "zipcode": "89160-322"
    },
    {
        "city": "Rio do Sul",
        "state": "SC",
        "district": "Santana",
        "street": "Rua Nova Trento",
        "zipcode": "89160-282"
    },
    {
        "city": "Rio do Sul",
        "state": "SC",
        "district": "Navegantes",
        "street": "Rodovia BR",
        "zipcode": "89162-450"
    },
    {
        "city": "Rio do Sul",
        "state": "SC",
        "district": "Jardim América",
        "street": "Rua Juca Thives",
        "zipcode": "89160-192"
    },
    {
        "city": "Rio do Sul",
        "state": "SC",
        "district": "Jardim América",
        "street": "Rua Georg Lucas",
        "zipcode": "89160-210"
    },
    {
        "city": "Rio do Sul",
        "state": "SC",
        "district": "Jardim América",
        "street": "Beco Pedro Lucas",
        "zipcode": "89160-214"
    },
    {
        "city": "Rio do Sul",
        "state": "SC",
        "district": "Jardim América",
        "street": "Alameda Bela Aliança",
        "zipcode": "89160-216"
    },
    {
        "city": "Rio do Sul",
        "state": "SC",
        "district": "Jardim América",
        "street": "Rua Raulino Dolzan",
        "zipcode": "89160-194"
    },
    {
        "city": "Rio do Sul",
        "state": "SC",
        "district": "Jardim América",
        "street": "Beco Saturnino Claudino dos Santos",
        "zipcode": "89160-204"
    },
    {
        "city": "Rio do Sul",
        "state": "SC",
        "district": "Jardim América",
        "street": "Rua Vila Heinz",
        "zipcode": "89160-208"
    },
    {
        "city": "Rio do Sul",
        "state": "SC",
        "district": "Jardim América",
        "street": "Beco São Leopoldo",
        "zipcode": "89160-212"
    },
    {
        "city": "Rio do Sul",
        "state": "SC",
        "district": "Jardim América",
        "street": "Travessa Ernesto Schoenau",
        "zipcode": "89160-198"
    },
    {
        "city": "Rio do Sul",
        "state": "SC",
        "district": "Jardim América",
        "street": "Rua General Osório",
        "zipcode": "89160-224"
    },
    {
        "city": "Rio do Sul",
        "state": "SC",
        "district": "Jardim América",
        "street": "Rua Marechal Rondon",
        "zipcode": "89160-182"
    },
    {
        "city": "Rio do Sul",
        "state": "SC",
        "district": "Jardim América",
        "street": "Rua Marcílio Dias",
        "zipcode": "89160-186"
    },
    {
        "city": "Rio do Sul",
        "state": "SC",
        "district": "Centro",
        "street": "Rua José Zanis",
        "zipcode": "89160-055"
    },
    {
        "city": "Rio do Sul",
        "state": "SC",
        "district": "Centro",
        "street": "Avenida 7 de Setembro",
        "zipcode": "89160-163"
    },
    {
        "city": "Rio do Sul",
        "state": "SC",
        "district": "Centro",
        "street": "Beco Leopoldo Moser",
        "zipcode": "89160-077"
    },
    {
        "city": "Rio do Sul",
        "state": "SC",
        "district": "Boa Vista",
        "street": "Rua Reinoldo Klehm",
        "zipcode": "89167-184"
    },
    {
        "city": "Rio do Sul",
        "state": "SC",
        "district": "Laranjeiras",
        "street": "Rua São Joaquim",
        "zipcode": "89167-430"
    },
    {
        "city": "Rio do Sul",
        "state": "SC",
        "district": "Laranjeiras",
        "street": "Rua Ernesto Feldmann",
        "zipcode": "89167-490"
    },
    {
        "city": "Rio do Sul",
        "state": "SC",
        "district": "Laranjeiras",
        "street": "Rua Emilia Medeiros",
        "zipcode": "89167-502"
    },
    {
        "city": "Rio do Sul",
        "state": "SC",
        "district": "Albertina",
        "street": "Estrada Geral Ribeirão Albertina",
        "zipcode": "89167-655"
    },
    {
        "city": "Rio do Sul",
        "state": "SC",
        "district": "Budag",
        "street": "Rua Bento José da Rocha",
        "zipcode": "89165-397"
    },
    {
        "city": "Rio do Sul",
        "state": "SC",
        "district": "Progresso",
        "street": "Rua Mafalda Lingner Porto",
        "zipcode": "89163-644"
    },
    {
        "city": "Rio do Sul",
        "state": "SC",
        "district": "Progresso",
        "street": "Rua Edésio Luiz de Amorim",
        "zipcode": "89163-648"
    },
    {
        "city": "Rio do Sul",
        "state": "SC",
        "district": "Progresso",
        "street": "Rua Engenheiro Tadeu Carraro",
        "zipcode": "89163-672"
    },
    {
        "city": "Rio do Sul",
        "state": "SC",
        "district": "Jardim América",
        "street": "Rua Doutor Guilherme Gemballa",
        "zipcode": "89160-932"
    },
    {
        "city": "Rio do Sul",
        "state": "SC",
        "district": "Budag",
        "street": "Beco Eno José Mattos",
        "zipcode": "89165-484"
    },
    {
        "city": "Rio do Sul",
        "state": "SC",
        "district": "Sumaré",
        "street": "Rua do Centro Evangélico",
        "zipcode": "89165-534"
    },
    {
        "city": "Rio do Sul",
        "state": "SC",
        "district": "Eugênio Schneider",
        "street": "Rua Tolentino Aristides Gomes",
        "zipcode": "89167-027"
    },
    {
        "city": "Rio do Sul",
        "state": "SC",
        "district": "Canta Galo",
        "street": "Rua Regina Pasqualini",
        "zipcode": "89163-264"
    },
    {
        "city": "Rio do Sul",
        "state": "SC",
        "district": "Barragem",
        "street": "Rua São Marcos",
        "zipcode": "89165-078"
    },
    {
        "city": "Rio do Sul",
        "state": "SC",
        "district": "Barragem",
        "street": "Rua José John",
        "zipcode": "89165-196"
    },
    {
        "city": "Rio do Sul",
        "state": "SC",
        "district": "Laranjeiras",
        "street": "Rua José Dirschen",
        "zipcode": "89167-316"
    },
    {
        "city": "Rio do Sul",
        "state": "SC",
        "district": "Laranjeiras",
        "street": "Rua Antonia Cordeiro",
        "zipcode": "89167-336"
    },
    {
        "city": "Rio do Sul",
        "state": "SC",
        "district": "Laranjeiras",
        "street": "Rua Helga Ana Cordeiro Krieck",
        "zipcode": "89167-344"
    },
    {
        "city": "Rio do Sul",
        "state": "SC",
        "district": "Albertina",
        "street": "Rua Madre Paulina",
        "zipcode": "89167-600"
    },
    {
        "city": "Rio do Sul",
        "state": "SC",
        "district": "Pamplona",
        "street": "Rodovia BR",
        "zipcode": "89164-300"
    },
    {
        "city": "Rio do Sul",
        "state": "SC",
        "district": "Sumaré",
        "street": "Rua dos Antúrios",
        "zipcode": "89165-746"
    },
    {
        "city": "Rio do Sul",
        "state": "SC",
        "district": "Pamplona",
        "street": "Rua Granja Pamplona",
        "zipcode": "89164-346"
    },
    {
        "city": "Rio do Sul",
        "state": "SC",
        "district": "Barra do Trombudo",
        "street": "Rua Clemente Demarch",
        "zipcode": "89164-420"
    },
    {
        "city": "Rio do Sul",
        "state": "SC",
        "district": "Barra do Trombudo",
        "street": "Rua Patrício Noveletto",
        "zipcode": "89164-550"
    },
    {
        "city": "Rio do Sul",
        "state": "SC",
        "district": "Budag",
        "street": "Travessa Janet Pabst Tschumi",
        "zipcode": "89165-463"
    },
    {
        "city": "Rio do Sul",
        "state": "SC",
        "district": "Sumaré",
        "street": "Rua Peru",
        "zipcode": "89165-628"
    },
    {
        "city": "Rio do Sul",
        "state": "SC",
        "district": "Sumaré",
        "street": "Rua Ruy Barbosa",
        "zipcode": "89165-790"
    },
    {
        "city": "Rio do Sul",
        "state": "SC",
        "district": "Sumaré",
        "street": "Rua Roberto Kock",
        "zipcode": "89165-537"
    },
    {
        "city": "Rio do Sul",
        "state": "SC",
        "district": "Fundo Canoas",
        "street": "Travessa Alfredo Vellwock",
        "zipcode": "89163-458"
    },
    {
        "city": "Rio do Sul",
        "state": "SC",
        "district": "Eugênio Schneider",
        "street": "Beco Hermenegildo Silveira da Costa",
        "zipcode": "89167-093"
    },
    {
        "city": "Rio do Sul",
        "state": "SC",
        "district": "Budag",
        "street": "Rua Otto Wetzstein",
        "zipcode": "89165-240"
    },
    {
        "city": "Rio do Sul",
        "state": "SC",
        "district": "Sumaré",
        "street": "Rua Jorge Theindl",
        "zipcode": "89165-589"
    },
    {
        "city": "Rio do Sul",
        "state": "SC",
        "district": "Canta Galo",
        "street": "Travessa Florinda Coninck",
        "zipcode": "89163-092"
    },
    {
        "city": "Rio do Sul",
        "state": "SC",
        "district": "Boa Vista",
        "street": "Travessa Pedro Rogério Alves do Rosário",
        "zipcode": "89167-176"
    },
    {
        "city": "Rio do Sul",
        "state": "SC",
        "district": "Taboão",
        "street": "Rua Renato Metzger (Loteamento Novo Horizonte)",
        "zipcode": "89160-534"
    },
    {
        "city": "Rio do Sul",
        "state": "SC",
        "district": "Taboão",
        "street": "Rua Alfredo Carlos Parma (Loteamento Novo Horizonte)",
        "zipcode": "89160-536"
    },
    {
        "city": "Rio do Sul",
        "state": "SC",
        "district": "Budag",
        "street": "Avenida Barão do Rio Branco",
        "zipcode": "89165-472"
    },
    {
        "city": "Rio do Sul",
        "state": "SC",
        "district": "Barra do Trombudo",
        "street": "Rua Rio do Oeste",
        "zipcode": "89164-384"
    },
    {
        "city": "Rio do Sul",
        "state": "SC",
        "district": "Budag",
        "street": "Avenida Dona Augusta Deeke",
        "zipcode": "89165-406"
    },
    {
        "city": "Rio do Sul",
        "state": "SC",
        "district": "Taboão",
        "street": "Rua Mário Alegri (Loteamento Novo Horizonte)",
        "zipcode": "89160-538"
    },
    {
        "city": "Rio do Sul",
        "state": "SC",
        "district": "Barragem",
        "street": "Rua Maria de Barba",
        "zipcode": "89165-252"
    },
    {
        "city": "Rio do Sul",
        "state": "SC",
        "district": "Budag",
        "street": "Rua Professor João Conrado Stoll",
        "zipcode": "89165-436"
    },
    {
        "city": "Rio do Sul",
        "state": "SC",
        "district": "Canta Galo",
        "street": "Beco 10 de Outubro",
        "zipcode": "89163-098"
    },
    {
        "city": "Rio do Sul",
        "state": "SC",
        "district": "Canta Galo",
        "street": "Rua Veneza",
        "zipcode": "89163-125"
    },
    {
        "city": "Rio do Sul",
        "state": "SC",
        "district": "Canta Galo",
        "street": "Beco Francisco A S",
        "zipcode": "89163-164"
    },
    {
        "city": "Rio do Sul",
        "state": "SC",
        "district": "Canta Galo",
        "street": "Rua Expedicionário José Neinkotter",
        "zipcode": "89163-236"
    },
    {
        "city": "Rio do Sul",
        "state": "SC",
        "district": "Canta Galo",
        "street": "Rua Bom Pastor",
        "zipcode": "89163-059"
    },
    {
        "city": "Rio do Sul",
        "state": "SC",
        "district": "Canta Galo",
        "street": "Travessa Giocondo Travaglia",
        "zipcode": "89163-107"
    },
    {
        "city": "Rio do Sul",
        "state": "SC",
        "district": "Canoas",
        "street": "Rua Emílio Schulze",
        "zipcode": "89164-123"
    },
    {
        "city": "Rio do Sul",
        "state": "SC",
        "district": "Barragem",
        "street": "Rua Guaíba",
        "zipcode": "89165-102"
    },
    {
        "city": "Rio do Sul",
        "state": "SC",
        "district": "Canta Galo",
        "street": "Beco Willy Fachini",
        "zipcode": "89163-170"
    },
    {
        "city": "Rio do Sul",
        "state": "SC",
        "district": "Canta Galo",
        "street": "Estrada do Redentor",
        "zipcode": "89163-312"
    },
    {
        "city": "Rio do Sul",
        "state": "SC",
        "district": "Barra do Trombudo",
        "street": "Beco Xaxim",
        "zipcode": "89164-424"
    },
    {
        "city": "Rio do Sul",
        "state": "SC",
        "district": "Budag",
        "street": "Rua Artur Siewert",
        "zipcode": "89165-427"
    },
    {
        "city": "Rio do Sul",
        "state": "SC",
        "district": "Canta Galo",
        "street": "Beco João Pedro Dias",
        "zipcode": "89163-113"
    },
    {
        "city": "Rio do Sul",
        "state": "SC",
        "district": "Canta Galo",
        "street": "Rua Adolfo Felau",
        "zipcode": "89163-116"
    },
    {
        "city": "Rio do Sul",
        "state": "SC",
        "district": "Canta Galo",
        "street": "Beco José Machado de Oliveira",
        "zipcode": "89163-167"
    },
    {
        "city": "Rio do Sul",
        "state": "SC",
        "district": "Pamplona",
        "street": "Rua Trajano Pamplona",
        "zipcode": "89164-334"
    },
    {
        "city": "Rio do Sul",
        "state": "SC",
        "district": "Barra do Trombudo",
        "street": "Rua Pedro Avelino dos Santos",
        "zipcode": "89164-428"
    },
    {
        "city": "Rio do Sul",
        "state": "SC",
        "district": "Barragem",
        "street": "Rua Emilio Adami",
        "zipcode": "89164-630"
    },
    {
        "city": "Rio do Sul",
        "state": "SC",
        "district": "Barragem",
        "street": "Rua Mafalda Cipriani Peters",
        "zipcode": "89165-018"
    },
    {
        "city": "Rio do Sul",
        "state": "SC",
        "district": "Barragem",
        "street": "Rua Marcos José Rossa",
        "zipcode": "89165-243"
    },
    {
        "city": "Rio do Sul",
        "state": "SC",
        "district": "Canta Galo",
        "street": "Beco Bandeirantes",
        "zipcode": "89163-119"
    },
    {
        "city": "Rio do Sul",
        "state": "SC",
        "district": "Canoas",
        "street": "Beco Anildo de Oliveira",
        "zipcode": "89164-087"
    },
    {
        "city": "Rio do Sul",
        "state": "SC",
        "district": "Canta Galo",
        "street": "Rua Prefeito Wenceslau Borini",
        "zipcode": "89163-062"
    },
    {
        "city": "Rio do Sul",
        "state": "SC",
        "district": "Canta Galo",
        "street": "Rua Gustavo Stadnick",
        "zipcode": "89163-065"
    },
    {
        "city": "Rio do Sul",
        "state": "SC",
        "district": "Canta Galo",
        "street": "Rua Francisco Russi",
        "zipcode": "89163-071"
    },
    {
        "city": "Rio do Sul",
        "state": "SC",
        "district": "Canta Galo",
        "street": "Rua Sady Medeiros",
        "zipcode": "89163-073"
    },
    {
        "city": "Rio do Sul",
        "state": "SC",
        "district": "Canta Galo",
        "street": "Rua Deputado Walter Roussenq",
        "zipcode": "89163-074"
    },
    {
        "city": "Rio do Sul",
        "state": "SC",
        "district": "Canta Galo",
        "street": "Rua João Pasqualini",
        "zipcode": "89163-268"
    },
    {
        "city": "Rio do Sul",
        "state": "SC",
        "district": "Canoas",
        "street": "Rua Engenheiro Baugarten",
        "zipcode": "89164-078"
    },
    {
        "city": "Rio do Sul",
        "state": "SC",
        "district": "Canoas",
        "street": "Rua Adolfo Konder",
        "zipcode": "89164-099"
    },
    {
        "city": "Rio do Sul",
        "state": "SC",
        "district": "Canoas",
        "street": "Rua Dom Pedro II",
        "zipcode": "89164-102"
    },
    {
        "city": "Rio do Sul",
        "state": "SC",
        "district": "Canoas",
        "street": "Rua João Jacinto Gadotti",
        "zipcode": "89164-117"
    },
    {
        "city": "Rio do Sul",
        "state": "SC",
        "district": "Canoas",
        "street": "Rua Timbó",
        "zipcode": "89164-129"
    },
    {
        "city": "Rio do Sul",
        "state": "SC",
        "district": "Pamplona",
        "street": "Rua Morro do Klaumann",
        "zipcode": "89164-181"
    },
    {
        "city": "Rio do Sul",
        "state": "SC",
        "district": "Pamplona",
        "street": "Rua Ipê",
        "zipcode": "89164-198"
    },
    {
        "city": "Rio do Sul",
        "state": "SC",
        "district": "Pamplona",
        "street": "Rua Sassafrás",
        "zipcode": "89164-210"
    },
    {
        "city": "Rio do Sul",
        "state": "SC",
        "district": "Pamplona",
        "street": "Rua Angico",
        "zipcode": "89164-214"
    },
    {
        "city": "Rio do Sul",
        "state": "SC",
        "district": "Pamplona",
        "street": "Rua Canjerana",
        "zipcode": "89164-218"
    },
    {
        "city": "Rio do Sul",
        "state": "SC",
        "district": "Barra do Trombudo",
        "street": "Rua Venina Felippe",
        "zipcode": "89164-512"
    },
    {
        "city": "Rio do Sul",
        "state": "SC",
        "district": "Barra do Trombudo",
        "street": "Rua Clarindo Alexandre",
        "zipcode": "89164-520"
    },
    {
        "city": "Rio do Sul",
        "state": "SC",
        "district": "Barragem",
        "street": "Rua Jordina Maria do Nascimento",
        "zipcode": "89165-020"
    },
    {
        "city": "Rio do Sul",
        "state": "SC",
        "district": "Barragem",
        "street": "Rua Dico Sardá",
        "zipcode": "89165-022"
    },
    {
        "city": "Rio do Sul",
        "state": "SC",
        "district": "Barragem",
        "street": "Rua Vereador Luiz Valiatti",
        "zipcode": "89165-028"
    },
    {
        "city": "Rio do Sul",
        "state": "SC",
        "district": "Barragem",
        "street": "Rua Joaçaba",
        "zipcode": "89165-060"
    },
    {
        "city": "Rio do Sul",
        "state": "SC",
        "district": "Barragem",
        "street": "Rua Sulfabril",
        "zipcode": "89165-066"
    },
    {
        "city": "Rio do Sul",
        "state": "SC",
        "district": "Barragem",
        "street": "Rua Água Doce",
        "zipcode": "89165-071"
    },
    {
        "city": "Rio do Sul",
        "state": "SC",
        "district": "Barragem",
        "street": "Rua Santo Nolli (Loteamento Cedro)",
        "zipcode": "89165-091"
    },
    {
        "city": "Rio do Sul",
        "state": "SC",
        "district": "Barragem",
        "street": "Rua Fraiburgo",
        "zipcode": "89165-149"
    },
    {
        "city": "Rio do Sul",
        "state": "SC",
        "district": "Barragem",
        "street": "Rua Sofia Köpp",
        "zipcode": "89165-204"
    },
    {
        "city": "Rio do Sul",
        "state": "SC",
        "district": "Barragem",
        "street": "Rua Ademar José Kniess",
        "zipcode": "89165-208"
    },
    {
        "city": "Rio do Sul",
        "state": "SC",
        "district": "Sumaré",
        "street": "Rua Ruy Barbosa",
        "zipcode": "89165-610"
    },
    {
        "city": "Rio do Sul",
        "state": "SC",
        "district": "Eugênio Schneider",
        "street": "Rua Alfredo Bratting",
        "zipcode": "89167-072"
    },
    {
        "city": "Rio do Sul",
        "state": "SC",
        "district": "Sumaré",
        "street": "Rua Daniel Andreatta",
        "zipcode": "89165-516"
    },
    {
        "city": "Rio do Sul",
        "state": "SC",
        "district": "Sumaré",
        "street": "Rua Antonio Karan",
        "zipcode": "89165-543"
    },
    {
        "city": "Rio do Sul",
        "state": "SC",
        "district": "Eugênio Schneider",
        "street": "Rua Santos",
        "zipcode": "89167-057"
    },
    {
        "city": "Rio do Sul",
        "state": "SC",
        "district": "Eugênio Schneider",
        "street": "Rua Prefeito Eugênio Schneider",
        "zipcode": "89167-018"
    },
    {
        "city": "Rio do Sul",
        "state": "SC",
        "district": "Budag",
        "street": "Rua Roberto Kock",
        "zipcode": "89165-439"
    },
    {
        "city": "Rio do Sul",
        "state": "SC",
        "district": "Eugênio Schneider",
        "street": "Beco Alfonso Metzger",
        "zipcode": "89167-108"
    },
    {
        "city": "Rio do Sul",
        "state": "SC",
        "district": "Boa Vista",
        "street": "Rua Osvaldo Hadlich",
        "zipcode": "89167-190"
    },
    {
        "city": "Rio do Sul",
        "state": "SC",
        "district": "Boa Vista",
        "street": "Rua Pará",
        "zipcode": "89167-202"
    },
    {
        "city": "Rio do Sul",
        "state": "SC",
        "district": "Boa Vista",
        "street": "Rua Goiás",
        "zipcode": "89167-210"
    },
    {
        "city": "Rio do Sul",
        "state": "SC",
        "district": "Boa Vista",
        "street": "Ladeira Porto Velho",
        "zipcode": "89167-234"
    },
    {
        "city": "Rio do Sul",
        "state": "SC",
        "district": "Laranjeiras",
        "street": "Rua Miguel Gutjahr",
        "zipcode": "89167-312"
    },
    {
        "city": "Rio do Sul",
        "state": "SC",
        "district": "Laranjeiras",
        "street": "Rua dos Caçadores",
        "zipcode": "89167-320"
    },
    {
        "city": "Rio do Sul",
        "state": "SC",
        "district": "Laranjeiras",
        "street": "Rua Tubarão",
        "zipcode": "89167-352"
    },
    {
        "city": "Rio do Sul",
        "state": "SC",
        "district": "Laranjeiras",
        "street": "Rua Anitápolis",
        "zipcode": "89167-426"
    },
    {
        "city": "Rio do Sul",
        "state": "SC",
        "district": "Laranjeiras",
        "street": "Beco Walfrido Navarro Lins",
        "zipcode": "89167-466"
    },
    {
        "city": "Rio do Sul",
        "state": "SC",
        "district": "Laranjeiras",
        "street": "Rua Plácido Souza",
        "zipcode": "89167-470"
    },
    {
        "city": "Rio do Sul",
        "state": "SC",
        "district": "Laranjeiras",
        "street": "Rua Porto Seguro",
        "zipcode": "89167-482"
    },
    {
        "city": "Rio do Sul",
        "state": "SC",
        "district": "Laranjeiras",
        "street": "Rua Fritz Kneidl",
        "zipcode": "89167-498"
    },
    {
        "city": "Rio do Sul",
        "state": "SC",
        "district": "Laranjeiras",
        "street": "Rua Recanto Alegre",
        "zipcode": "89167-530"
    },
    {
        "city": "Rio do Sul",
        "state": "SC",
        "district": "Albertina",
        "street": "Rua Edite Bernadete dos Santos",
        "zipcode": "89167-578"
    },
    {
        "city": "Rio do Sul",
        "state": "SC",
        "district": "Albertina",
        "street": "Rodovia Vereador Carlos Probst",
        "zipcode": "89167-650"
    },
    {
        "city": "Rio do Sul",
        "state": "SC",
        "district": "Albertina",
        "street": "Rua Manuel Figueredo (Loteamento Silvio Schütz)",
        "zipcode": "89167-652"
    },
    {
        "city": "Rio do Sul",
        "state": "SC",
        "district": "Sumaré",
        "street": "Rua dos Jasmins",
        "zipcode": "89165-738"
    },
    {
        "city": "Rio do Sul",
        "state": "SC",
        "district": "Budag",
        "street": "Rua Assis Brasil",
        "zipcode": "89165-469"
    },
    {
        "city": "Rio do Sul",
        "state": "SC",
        "district": "Budag",
        "street": "Rua Marconi",
        "zipcode": "89165-475"
    },
    {
        "city": "Rio do Sul",
        "state": "SC",
        "district": "Sumaré",
        "street": "Rua Intendente Gustavo Brandes",
        "zipcode": "89165-522"
    },
    {
        "city": "Rio do Sul",
        "state": "SC",
        "district": "Sumaré",
        "street": "Beco Odilon de Souza Linhares",
        "zipcode": "89165-604"
    },
    {
        "city": "Rio do Sul",
        "state": "SC",
        "district": "Sumaré",
        "street": "Rua Venezuela",
        "zipcode": "89165-631"
    },
    {
        "city": "Rio do Sul",
        "state": "SC",
        "district": "Sumaré",
        "street": "Rua das Bromélias",
        "zipcode": "89165-730"
    },
    {
        "city": "Rio do Sul",
        "state": "SC",
        "district": "Bela Aliança",
        "street": "Rua Girassol",
        "zipcode": "89161-376"
    },
    {
        "city": "Rio do Sul",
        "state": "SC",
        "district": "Eugênio Schneider",
        "street": "Travessa Ceará",
        "zipcode": "89167-006"
    },
    {
        "city": "Rio do Sul",
        "state": "SC",
        "district": "Eugênio Schneider",
        "street": "Rua Amazonas",
        "zipcode": "89167-030"
    },
    {
        "city": "Rio do Sul",
        "state": "SC",
        "district": "Eugênio Schneider",
        "street": "Rua Olavo Bilac",
        "zipcode": "89167-078"
    },
    {
        "city": "Rio do Sul",
        "state": "SC",
        "district": "Eugênio Schneider",
        "street": "Escada de Pedra Adelir Lorenzi",
        "zipcode": "89167-102"
    },
    {
        "city": "Rio do Sul",
        "state": "SC",
        "district": "Eugênio Schneider",
        "street": "Beco João da Rocha",
        "zipcode": "89167-105"
    },
    {
        "city": "Rio do Sul",
        "state": "SC",
        "district": "Boa Vista",
        "street": "Beco Dirce Pires de Moraes",
        "zipcode": "89167-170"
    },
    {
        "city": "Rio do Sul",
        "state": "SC",
        "district": "Sumaré",
        "street": "Rua dos Girassóis",
        "zipcode": "89165-754"
    },
    {
        "city": "Rio do Sul",
        "state": "SC",
        "district": "Boa Vista",
        "street": "Rua Indira Ghandi",
        "zipcode": "89167-168"
    },
    {
        "city": "Rio do Sul",
        "state": "SC",
        "district": "Eugênio Schneider",
        "street": "Travessa Ernesto Ferrari",
        "zipcode": "89167-114"
    },
    {
        "city": "Rio do Sul",
        "state": "SC",
        "district": "Boa Vista",
        "street": "Travessa Antonio Faustino Flor",
        "zipcode": "89167-226"
    },
    {
        "city": "Rio do Sul",
        "state": "SC",
        "district": "Boa Vista",
        "street": "Travessa Expedicionário Lindolfo Rengel",
        "zipcode": "89167-238"
    },
    {
        "city": "Rio do Sul",
        "state": "SC",
        "district": "Laranjeiras",
        "street": "Travessa Lothar Weise",
        "zipcode": "89167-450"
    },
    {
        "city": "Rio do Sul",
        "state": "SC",
        "district": "Boa Vista",
        "street": "Rua Santa Catarina",
        "zipcode": "89167-224"
    },
    {
        "city": "Rio do Sul",
        "state": "SC",
        "district": "Canoas",
        "street": "Rua Indaial",
        "zipcode": "89164-135"
    },
    {
        "city": "Rio do Sul",
        "state": "SC",
        "district": "Fundo Canoas",
        "street": "Rua Hugo Bastos",
        "zipcode": "89163-453"
    },
    {
        "city": "Rio do Sul",
        "state": "SC",
        "district": "Eugênio Schneider",
        "street": "Beco Waldir Navarro Lins",
        "zipcode": "89167-038"
    },
    {
        "city": "Rio do Sul",
        "state": "SC",
        "district": "Budag",
        "street": "Rua Ana Anderson Duarte",
        "zipcode": "89165-373"
    },
    {
        "city": "Rio do Sul",
        "state": "SC",
        "district": "Budag",
        "street": "Rua Leonida Felau",
        "zipcode": "89165-320"
    },
    {
        "city": "Rio do Sul",
        "state": "SC",
        "district": "Barra do Trombudo",
        "street": "Estrada Palmitos",
        "zipcode": "89164-636"
    },
    {
        "city": "Rio do Sul",
        "state": "SC",
        "district": "Canta Galo",
        "street": "Rua Adolfo Kolping",
        "zipcode": "89163-216"
    },
    {
        "city": "Rio do Sul",
        "state": "SC",
        "district": "Sumaré",
        "street": "Rua Angelo Slomp",
        "zipcode": "89165-714"
    },
    {
        "city": "Rio do Sul",
        "state": "SC",
        "district": "Canta Galo",
        "street": "Beco Guckert",
        "zipcode": "89163-324"
    },
    {
        "city": "Rio do Sul",
        "state": "SC",
        "district": "Santana",
        "street": "Travessa Paulo Ledra",
        "zipcode": "89160-244"
    },
    {
        "city": "Rio do Sul",
        "state": "SC",
        "district": "Santana",
        "street": "Rua Guilherme Ricardo Becker",
        "zipcode": "89160-254"
    },
    {
        "city": "Rio do Sul",
        "state": "SC",
        "district": "Centro",
        "street": "Rua Escrivão Osvaldo Marhofer",
        "zipcode": "89160-019"
    },
    {
        "city": "Rio do Sul",
        "state": "SC",
        "district": "Centro",
        "street": "Rua Pedro Moretto",
        "zipcode": "89160-013"
    },
    {
        "city": "Rio do Sul",
        "state": "SC",
        "district": "Jardim América",
        "street": "Rua Dom Bosco",
        "zipcode": "89160-234"
    },
    {
        "city": "Rio do Sul",
        "state": "SC",
        "district": "Jardim América",
        "street": "Rua Manoel Roussenq",
        "zipcode": "89160-206"
    },
    {
        "city": "Rio do Sul",
        "state": "SC",
        "district": "Centro",
        "street": "Travessa Waldemiro Candido da Silva",
        "zipcode": "89160-023"
    },
    {
        "city": "Rio do Sul",
        "state": "SC",
        "district": "Centro",
        "street": "Ladeira Joaquim Nabuco",
        "zipcode": "89160-025"
    },
    {
        "city": "Rio do Sul",
        "state": "SC",
        "district": "Jardim América",
        "street": "Rua São João",
        "zipcode": "89160-174"
    },
    {
        "city": "Rio do Sul",
        "state": "SC",
        "district": "Centro",
        "street": "Rua dos Caçadores",
        "zipcode": "89160-001"
    },
    {
        "city": "Rio do Sul",
        "state": "SC",
        "district": "Centro",
        "street": "Praça 25 de Julho",
        "zipcode": "89160-164"
    },
    {
        "city": "Rio do Sul",
        "state": "SC",
        "district": "Centro",
        "street": "Rua Johann Gutemberg",
        "zipcode": "89160-035"
    },
    {
        "city": "Rio do Sul",
        "state": "SC",
        "district": "Centro",
        "street": "Rua Monteiro Lobato",
        "zipcode": "89160-157"
    },
    {
        "city": "Rio do Sul",
        "state": "SC",
        "district": "Centro",
        "street": "Rua Rudolf Fritsche",
        "zipcode": "89160-053"
    },
    {
        "city": "Rio do Sul",
        "state": "SC",
        "district": "Área Rural de Rio do Sul",
        "street": "Área Rural",
        "zipcode": "89169-899"
    },
    {
        "city": "Rio do Sul",
        "state": "SC",
        "district": "Eugênio Schneider",
        "street": "Rua Prefeito Eugênio Schneider",
        "zipcode": "89167-900"
    },
    {
        "city": "Rio do Sul",
        "state": "SC",
        "district": "Sumaré",
        "street": "Rua Cláudio Machado da Silva",
        "zipcode": "89165-694"
    },
    {
        "city": "Rio do Sul",
        "state": "SC",
        "district": "Taboão",
        "street": "Rua Nicolau da Rocha",
        "zipcode": "89160-660"
    },
    {
        "city": "Rio do Sul",
        "state": "SC",
        "district": "Laranjeiras",
        "street": "Travessa Laguna",
        "zipcode": "89167-360"
    },
    {
        "city": "Rio do Sul",
        "state": "SC",
        "district": "Rainha",
        "street": "Rua Francisco da Cruz dos Santos",
        "zipcode": "89162-092"
    },
    {
        "city": "Rio do Sul",
        "state": "SC",
        "district": "Brehmer",
        "street": "Travessa Leopoldo Dietrich",
        "zipcode": "89161-078"
    },
    {
        "city": "Rio do Sul",
        "state": "SC",
        "district": "Brehmer",
        "street": "Rua Julio Nau",
        "zipcode": "89161-030"
    },
    {
        "city": "Rio do Sul",
        "state": "SC",
        "district": "Centro",
        "street": "Rua São Ludgero",
        "zipcode": "89160-061"
    },
    {
        "city": "Rio do Sul",
        "state": "SC",
        "district": "Brehmer",
        "street": "Beco Walter Hubsch",
        "zipcode": "89161-098"
    },
    {
        "city": "Rio do Sul",
        "state": "SC",
        "district": "Rainha",
        "street": "Rua Leopoldo Kurth",
        "zipcode": "89162-036"
    },
    {
        "city": "Rio do Sul",
        "state": "SC",
        "district": "Canoas",
        "street": "Rua Rinaldo Mezadri",
        "zipcode": "89164-006"
    },
    {
        "city": "Rio do Sul",
        "state": "SC",
        "district": "Canta Galo",
        "street": "Avenida Governador Ivo Silveira",
        "zipcode": "89163-053"
    },
    {
        "city": "Rio do Sul",
        "state": "SC",
        "district": "Canoas",
        "street": "Rua Princesa Isabel",
        "zipcode": "89164-030"
    },
    {
        "city": "Rio do Sul",
        "state": "SC",
        "district": "Barragem",
        "street": "Beco Conrado Probst",
        "zipcode": "89165-069"
    },
    {
        "city": "Rio do Sul",
        "state": "SC",
        "district": "Jardim América",
        "street": "Rua Abraham Lincoln",
        "zipcode": "89160-925"
    },
    {
        "city": "Rio do Sul",
        "state": "SC",
        "district": "Taboão",
        "street": "Beco Terezinha",
        "zipcode": "89160-440"
    },
    {
        "city": "Rio do Sul",
        "state": "SC",
        "district": "Taboão",
        "street": "Rua Vergílio Cristofolini",
        "zipcode": "89160-612"
    },
    {
        "city": "Rio do Sul",
        "state": "SC",
        "district": "Brehmer",
        "street": "Travessa Leopoldo Alberto Vaiss",
        "zipcode": "89161-090"
    },
    {
        "city": "Rio do Sul",
        "state": "SC",
        "district": "Progresso",
        "street": "Rua Miranda Rosa Miranda",
        "zipcode": "89163-778"
    },
    {
        "city": "Rio do Sul",
        "state": "SC",
        "district": "Rainha",
        "street": "Rua Missisipe",
        "zipcode": "89162-052"
    },
    {
        "city": "Rio do Sul",
        "state": "SC",
        "district": "Bela Aliança",
        "street": "Travessa Silene Ruckert da Rocha",
        "zipcode": "89161-472"
    },
    {
        "city": "Rio do Sul",
        "state": "SC",
        "district": "Brehmer",
        "street": "Rua Nelson Diogo",
        "zipcode": "89161-214"
    },
    {
        "city": "Rio do Sul",
        "state": "SC",
        "district": "Taboão",
        "street": "Rua Gabriel Bianchet",
        "zipcode": "89160-506"
    },
    {
        "city": "Rio do Sul",
        "state": "SC",
        "district": "Brehmer",
        "street": "Rua Hermann Brehmer",
        "zipcode": "89161-080"
    },
    {
        "city": "Rio do Sul",
        "state": "SC",
        "district": "Rainha",
        "street": "Rua Leopoldo Kurth",
        "zipcode": "89162-056"
    },
    {
        "city": "Rio do Sul",
        "state": "SC",
        "district": "Canoas",
        "street": "Rua Porto União",
        "zipcode": "89164-045"
    },
    {
        "city": "Rio do Sul",
        "state": "SC",
        "district": "Progresso",
        "street": "Rua Progresso",
        "zipcode": "89163-722"
    },
    {
        "city": "Rio do Sul",
        "state": "SC",
        "district": "Taboão",
        "street": "Travessa Mônaco",
        "zipcode": "89160-494"
    },
    {
        "city": "Rio do Sul",
        "state": "SC",
        "district": "Rainha",
        "street": "Estrada da Penha",
        "zipcode": "89162-080"
    },
    {
        "city": "Rio do Sul",
        "state": "SC",
        "district": "Valada Itoupava",
        "street": "Rua dos Vereadores",
        "zipcode": "89162-850"
    },
    {
        "city": "Rio do Sul",
        "state": "SC",
        "district": "Centro",
        "street": "Rua Manoel Livramento",
        "zipcode": "89160-079"
    },
    {
        "city": "Rio do Sul",
        "state": "SC",
        "district": "Centro",
        "street": "Rua Mato Grosso",
        "zipcode": "89160-083"
    },
    {
        "city": "Rio do Sul",
        "state": "SC",
        "district": "Canta Galo",
        "street": "Beco Malvina Battisti Petris",
        "zipcode": "89163-050"
    },
    {
        "city": "Rio do Sul",
        "state": "SC",
        "district": "Santa Rita",
        "street": "Rua Eugênio Marchi",
        "zipcode": "89162-310"
    },
    {
        "city": "Rio do Sul",
        "state": "SC",
        "district": "Santa Rita",
        "street": "Rua Eugênio Marchi",
        "zipcode": "89162-334"
    },
    {
        "city": "Rio do Sul",
        "state": "SC",
        "district": "Canoas",
        "street": "Parque Municipal Harry Hobus",
        "zipcode": "89164-023"
    },
    {
        "city": "Rio do Sul",
        "state": "SC",
        "district": "Fundo Canoas",
        "street": "Rua Hilberto Bruch",
        "zipcode": "89163-464"
    },
    {
        "city": "Rio do Sul",
        "state": "SC",
        "district": "Sumaré",
        "street": "Rua Haiti",
        "zipcode": "89165-649"
    },
    {
        "city": "Rio do Sul",
        "state": "SC",
        "district": "Eugênio Schneider",
        "street": "Beco Manaus",
        "zipcode": "89167-033"
    },
    {
        "city": "Rio do Sul",
        "state": "SC",
        "district": "Santana",
        "street": "Rua Virgínia Werner",
        "zipcode": "89160-268"
    },
    {
        "city": "Rio do Sul",
        "state": "SC",
        "district": "Albertina",
        "street": "Beco Arnoldo Tillmann",
        "zipcode": "89167-595"
    },
    {
        "city": "Rio do Sul",
        "state": "SC",
        "district": "Eugênio Schneider",
        "street": "Rua Rio Grande",
        "zipcode": "89167-048"
    },
    {
        "city": "Rio do Sul",
        "state": "SC",
        "district": "Budag",
        "street": "Beco José Stadnick",
        "zipcode": "89165-421"
    },
    {
        "city": "Rio do Sul",
        "state": "SC",
        "district": "Budag",
        "street": "Praça Felix Deeke",
        "zipcode": "89165-426"
    },
    {
        "city": "Rio do Sul",
        "state": "SC",
        "district": "Budag",
        "street": "Beco dos Metalúrgicos",
        "zipcode": "89165-445"
    },
    {
        "city": "Rio do Sul",
        "state": "SC",
        "district": "Sumaré",
        "street": "Avenida Jardim Panorama",
        "zipcode": "89165-726"
    },
    {
        "city": "Rio do Sul",
        "state": "SC",
        "district": "Progresso",
        "street": "Rodovia BR",
        "zipcode": "89163-658"
    },
    {
        "city": "Rio do Sul",
        "state": "SC",
        "district": "Sumaré",
        "street": "Rua Agnelo João da Cruz",
        "zipcode": "89165-690"
    },
    {
        "city": "Rio do Sul",
        "state": "SC",
        "district": "Sumaré",
        "street": "Rua Ari Acary de Souza",
        "zipcode": "89165-706"
    },
    {
        "city": "Rio do Sul",
        "state": "SC",
        "district": "Fundo Canoas",
        "street": "Rua João Hoffmann",
        "zipcode": "89163-410"
    },
    {
        "city": "Rio do Sul",
        "state": "SC",
        "district": "Sumaré",
        "street": "Rua Canadá",
        "zipcode": "89165-646"
    },
    {
        "city": "Rio do Sul",
        "state": "SC",
        "district": "Sumaré",
        "street": "Rua dos Menonitas",
        "zipcode": "89165-698"
    },
    {
        "city": "Rio do Sul",
        "state": "SC",
        "district": "Sumaré",
        "street": "Rua Ruy Barbosa",
        "zipcode": "89165-702"
    },
    {
        "city": "Rio do Sul",
        "state": "SC",
        "district": "Fundo Canoas",
        "street": "Rua Teófilo Sofka",
        "zipcode": "89163-536"
    },
    {
        "city": "Rio do Sul",
        "state": "SC",
        "district": "Progresso",
        "street": "Travessa Sizenando José de Souza",
        "zipcode": "89163-676"
    },
    {
        "city": "Rio do Sul",
        "state": "SC",
        "district": "Albertina",
        "street": "Beco Bertoldo Gutjahr",
        "zipcode": "89167-590"
    },
    {
        "city": "Rio do Sul",
        "state": "SC",
        "district": "Barragem",
        "street": "Beco da Saudade",
        "zipcode": "89165-141"
    },
    {
        "city": "Rio do Sul",
        "state": "SC",
        "district": "Valada São Paulo",
        "street": "Rua Prefeito Luiz Adelar Soldatelli",
        "zipcode": "89162-184"
    },
    {
        "city": "Rio do Sul",
        "state": "SC",
        "district": "Valada Itoupava",
        "street": "Rua João Sborz",
        "zipcode": "89162-820"
    },
    {
        "city": "Rio do Sul",
        "state": "SC",
        "district": "Bela Aliança",
        "street": "Rua Caetano Faletti",
        "zipcode": "89161-264"
    },
    {
        "city": "Rio do Sul",
        "state": "SC",
        "district": "Barragem",
        "street": "Beco Lebon Regis",
        "zipcode": "89165-143"
    },
    {
        "city": "Rio do Sul",
        "state": "SC",
        "district": "Barragem",
        "street": "Beco Capinzal",
        "zipcode": "89165-180"
    },
    {
        "city": "Rio do Sul",
        "state": "SC",
        "district": "Eugênio Schneider",
        "street": "Beco Ivo Victor Forbici",
        "zipcode": "89167-099"
    },
    {
        "city": "Rio do Sul",
        "state": "SC",
        "district": "Eugênio Schneider",
        "street": "Beco Mariano João de Souza",
        "zipcode": "89167-120"
    },
    {
        "city": "Rio do Sul",
        "state": "SC",
        "district": "Boa Vista",
        "street": "Beco Nicolau Huberto Selhorst",
        "zipcode": "89167-156"
    },
    {
        "city": "Rio do Sul",
        "state": "SC",
        "district": "Barragem",
        "street": "Rua Alvorada",
        "zipcode": "89165-090"
    },
    {
        "city": "Rio do Sul",
        "state": "SC",
        "district": "Boa Vista",
        "street": "Rua Afonso Theis",
        "zipcode": "89167-162"
    },
    {
        "city": "Rio do Sul",
        "state": "SC",
        "district": "Canta Galo",
        "street": "Rodovia BR",
        "zipcode": "89163-905"
    },
    {
        "city": "Rio do Sul",
        "state": "SC",
        "district": "Pamplona",
        "street": "Rodovia BR",
        "zipcode": "89164-900"
    },
    {
        "city": "Rio do Sul",
        "state": "SC",
        "district": "Sumaré",
        "street": "Rua Ruy Barbosa",
        "zipcode": "89165-915"
    },
    {
        "city": "Rio do Sul",
        "state": "SC",
        "district": "Barra do Trombudo",
        "street": "Beco Mondaí",
        "zipcode": "89164-603"
    },
    {
        "city": "Rio do Sul",
        "state": "SC",
        "district": "Budag",
        "street": "Rua Norita Schütz",
        "zipcode": "89165-368"
    },
    {
        "city": "Rio do Sul",
        "state": "SC",
        "district": "Budag",
        "street": "Rua Otto Wetzstein",
        "zipcode": "89165-293"
    },
    {
        "city": "Rio do Sul",
        "state": "SC",
        "district": "Budag",
        "street": "Rua Afonso Schlemper",
        "zipcode": "89165-317"
    },
    {
        "city": "Rio do Sul",
        "state": "SC",
        "district": "Sumaré",
        "street": "Beco José João Dias",
        "zipcode": "89165-598"
    },
    {
        "city": "Rio do Sul",
        "state": "SC",
        "district": "Barra do Trombudo",
        "street": "Beco Piratuba",
        "zipcode": "89164-633"
    },
    {
        "city": "Rio do Sul",
        "state": "SC",
        "district": "Budag",
        "street": "Rua Artur Lenzi",
        "zipcode": "89165-332"
    },
    {
        "city": "Rio do Sul",
        "state": "SC",
        "district": "Sumaré",
        "street": "Beco Conrado Sasse",
        "zipcode": "89165-718"
    },
    {
        "city": "Rio do Sul",
        "state": "SC",
        "district": "Barragem",
        "street": "Beco Itá",
        "zipcode": "89165-006"
    },
    {
        "city": "Rio do Sul",
        "state": "SC",
        "district": "Budag",
        "street": "Beco Lourival Pereira",
        "zipcode": "89165-460"
    },
    {
        "city": "Rio do Sul",
        "state": "SC",
        "district": "Budag",
        "street": "Rua Virgínia Bianchi",
        "zipcode": "89165-296"
    },
    {
        "city": "Rio do Sul",
        "state": "SC",
        "district": "Budag",
        "street": "Rua Trombudo Central",
        "zipcode": "89165-308"
    },
    {
        "city": "Rio do Sul",
        "state": "SC",
        "district": "Budag",
        "street": "Rua Vereador Juracy Ismael Dalfovo",
        "zipcode": "89165-329"
    },
    {
        "city": "Rio do Sul",
        "state": "SC",
        "district": "Budag",
        "street": "Rua Francisco Alexandre Duarte",
        "zipcode": "89165-376"
    },
    {
        "city": "Rio do Sul",
        "state": "SC",
        "district": "Budag",
        "street": "Rua Celso Conzatti",
        "zipcode": "89165-388"
    },
    {
        "city": "Rio do Sul",
        "state": "SC",
        "district": "Budag",
        "street": "Rua Victor Meirelles",
        "zipcode": "89165-394"
    },
    {
        "city": "Rio do Sul",
        "state": "SC",
        "district": "Canoas",
        "street": "Beco Itumbiara",
        "zipcode": "89164-096"
    },
    {
        "city": "Rio do Sul",
        "state": "SC",
        "district": "Barra do Trombudo",
        "street": "Rua Emilio Adami",
        "zipcode": "89164-910"
    },
    {
        "city": "Rio do Sul",
        "state": "SC",
        "district": "Barra do Trombudo",
        "street": "Rua Frederico Meneghetti",
        "zipcode": "89164-559"
    },
    {
        "city": "Rio do Sul",
        "state": "SC",
        "district": "Barragem",
        "street": "Rua Eliseu Gonçalo do Nascimento",
        "zipcode": "89165-004"
    },
    {
        "city": "Rio do Sul",
        "state": "SC",
        "district": "Barra do Trombudo",
        "street": "Rua Alfonso Montovani",
        "zipcode": "89164-510"
    },
    {
        "city": "Rio do Sul",
        "state": "SC",
        "district": "Canoas",
        "street": "Rua José Bonifácio",
        "zipcode": "89164-069"
    },
    {
        "city": "Rio do Sul",
        "state": "SC",
        "district": "Canoas",
        "street": "Rua Francisco Carvalho",
        "zipcode": "89164-057"
    },
    {
        "city": "Rio do Sul",
        "state": "SC",
        "district": "Canoas",
        "street": "Rua Rio Iguaçu",
        "zipcode": "89164-039"
    },
    {
        "city": "Rio do Sul",
        "state": "SC",
        "district": "Canoas",
        "street": "Rua Rio Preto",
        "zipcode": "89164-042"
    },
    {
        "city": "Rio do Sul",
        "state": "SC",
        "district": "Canoas",
        "street": "Rua Princesa Isabel",
        "zipcode": "89164-054"
    },
    {
        "city": "Rio do Sul",
        "state": "SC",
        "district": "Canoas",
        "street": "Travessa Guaianazes",
        "zipcode": "89164-012"
    },
    {
        "city": "Rio do Sul",
        "state": "SC",
        "district": "Canta Galo",
        "street": "Rua Elma Lenzi",
        "zipcode": "89163-035"
    },
    {
        "city": "Rio do Sul",
        "state": "SC",
        "district": "Canta Galo",
        "street": "Rua Emílio Lenz",
        "zipcode": "89163-029"
    },
    {
        "city": "Rio do Sul",
        "state": "SC",
        "district": "Centro",
        "street": "Calçadão Osny Gonçalves",
        "zipcode": "89160-151"
    },
    {
        "city": "Rio do Sul",
        "state": "SC",
        "district": "Canta Galo",
        "street": "Beco Aldo Tomio",
        "zipcode": "89163-044"
    },
    {
        "city": "Rio do Sul",
        "state": "SC",
        "district": "Brehmer",
        "street": "Rua Alvino Hoffmann",
        "zipcode": "89161-152"
    },
    {
        "city": "Rio do Sul",
        "state": "SC",
        "district": "Centro",
        "street": "Beco Califórnia",
        "zipcode": "89160-119"
    },
    {
        "city": "Rio do Sul",
        "state": "SC",
        "district": "Centro",
        "street": "Rua Recanto",
        "zipcode": "89160-095"
    },
    {
        "city": "Rio do Sul",
        "state": "SC",
        "district": "Bela Aliança",
        "street": "Rua Alfredo Swarowsky",
        "zipcode": "89161-375"
    },
    {
        "city": "Rio do Sul",
        "state": "SC",
        "district": "Centro",
        "street": "Rua General Osório",
        "zipcode": "89160-115"
    },
    {
        "city": "Rio do Sul",
        "state": "SC",
        "district": "Taboão",
        "street": "Rua Germano Carlos Fronza",
        "zipcode": "89160-608"
    },
    {
        "city": "Rio do Sul",
        "state": "SC",
        "district": "Bela Aliança",
        "street": "Beco Cipreste",
        "zipcode": "89161-365"
    },
    {
        "city": "Rio do Sul",
        "state": "SC",
        "district": "Santa Rita",
        "street": "Rua Maria Marchi",
        "zipcode": "89162-326"
    },
    {
        "city": "Rio do Sul",
        "state": "SC",
        "district": "Canta Galo",
        "street": "Rua Orestes Lenzi",
        "zipcode": "89163-027"
    },
    {
        "city": "Rio do Sul",
        "state": "SC",
        "district": "Centro",
        "street": "Rua XV de Novembro",
        "zipcode": "89160-015"
    },
    {
        "city": "Rio do Sul",
        "state": "SC",
        "district": "Centro",
        "street": "Travessa Luiz Piazera",
        "zipcode": "89160-165"
    },
    {
        "city": "Rio do Sul",
        "state": "SC",
        "district": "Canoas",
        "street": "Beco Francisco Leopoldino de Souza",
        "zipcode": "89164-051"
    },
    {
        "city": "Rio do Sul",
        "state": "SC",
        "district": "Taboão",
        "street": "Travessa Enio Padilha",
        "zipcode": "89160-503"
    },
    {
        "city": "Rio do Sul",
        "state": "SC",
        "district": "Canoas",
        "street": "Beco Odemar Oderdenge",
        "zipcode": "89164-070"
    },
    {
        "city": "Rio do Sul",
        "state": "SC",
        "district": "Taboão",
        "street": "Travessa Manoel Campolino Marcelino",
        "zipcode": "89160-633"
    },
    {
        "city": "Rio do Sul",
        "state": "SC",
        "district": "Progresso",
        "street": "Rua Itamar Carvalho da Silva",
        "zipcode": "89163-784"
    },
    {
        "city": "Rio do Sul",
        "state": "SC",
        "district": "Canta Galo",
        "street": "Rua Paul Fritz Kurt Brehsan",
        "zipcode": "89163-340"
    },
    {
        "city": "Rio do Sul",
        "state": "SC",
        "district": "Canta Galo",
        "street": "Travessa Valderedo Bastos",
        "zipcode": "89163-155"
    },
    {
        "city": "Rio do Sul",
        "state": "SC",
        "district": "Barra Itoupava",
        "street": "Rua Carmela Lenzi",
        "zipcode": "89162-592"
    },
    {
        "city": "Rio do Sul",
        "state": "SC",
        "district": "Santana",
        "street": "Beco Ângelo Ledra",
        "zipcode": "89160-312"
    },
    {
        "city": "Rio do Sul",
        "state": "SC",
        "district": "Jardim América",
        "street": "Rua Vila Inconfidência",
        "zipcode": "89160-200"
    },
    {
        "city": "Rio do Sul",
        "state": "SC",
        "district": "Centro",
        "street": "Rua Marechal Deodoro",
        "zipcode": "89160-021"
    },
    {
        "city": "Rio do Sul",
        "state": "SC",
        "district": "Centro",
        "street": "Avenida Oscar Barcelos",
        "zipcode": "89160-027"
    },
    {
        "city": "Rio do Sul",
        "state": "SC",
        "district": "Centro",
        "street": "Rua Doutor Neumann",
        "zipcode": "89160-047"
    },
    {
        "city": "Rio do Sul",
        "state": "SC",
        "district": "Jardim América",
        "street": "Beco Leandro Franzoi",
        "zipcode": "89160-176"
    },
    {
        "city": "Rio do Sul",
        "state": "SC",
        "district": "Jardim América",
        "street": "Beco Mario Andriani",
        "zipcode": "89160-178"
    },
    {
        "city": "Rio do Sul",
        "state": "SC",
        "district": "Jardim América",
        "street": "Travessa Vitória",
        "zipcode": "89160-180"
    },
    {
        "city": "Rio do Sul",
        "state": "SC",
        "district": "Centro",
        "street": "Rua Olavo Bilac",
        "zipcode": "89160-005"
    },
    {
        "city": "Rio do Sul",
        "state": "SC",
        "district": "Centro",
        "street": "Beco Germano Stolf",
        "zipcode": "89160-009"
    },
    {
        "city": "Rio do Sul",
        "state": "SC",
        "district": "Centro",
        "street": "Beco Pedro Manoel Airoso",
        "zipcode": "89160-017"
    },
    {
        "city": "Rio do Sul",
        "state": "SC",
        "district": "Progresso",
        "street": "Rua Marta de Souza",
        "zipcode": "89163-790"
    },
    {
        "city": "Rio do Sul",
        "state": "SC",
        "district": "Canoas",
        "street": "Rua Joinville",
        "zipcode": "89164-063"
    },
    {
        "city": "Rio do Sul",
        "state": "SC",
        "district": "Centro",
        "street": "Rua Nova Era",
        "zipcode": "89160-037"
    },
    {
        "city": "Rio do Sul",
        "state": "SC",
        "district": "Centro",
        "street": "Rua Alfredo Grunwald",
        "zipcode": "89160-039"
    },
    {
        "city": "Rio do Sul",
        "state": "SC",
        "district": "Centro",
        "street": "Praça Nereu Ramos",
        "zipcode": "89160-043"
    },
    {
        "city": "Rio do Sul",
        "state": "SC",
        "district": "Centro",
        "street": "Rua Tuiuti",
        "zipcode": "89160-045"
    },
    {
        "city": "Rio do Sul",
        "state": "SC",
        "district": "Centro",
        "street": "Praça Ermembergo Pellizzetti",
        "zipcode": "89160-057"
    },
    {
        "city": "Rio do Sul",
        "state": "SC",
        "district": "Centro",
        "street": "Praça Dias Velho",
        "zipcode": "89160-058"
    },
    {
        "city": "Rio do Sul",
        "state": "SC",
        "district": "Centro",
        "street": "Rua XV de Novembro",
        "zipcode": "89160-033"
    },
    {
        "city": "Rio do Sul",
        "state": "SC",
        "district": "Sumaré",
        "street": "Beco Xavantes",
        "zipcode": "89165-607"
    },
    {
        "city": "Rio do Sul",
        "state": "SC",
        "district": "Fundo Canoas",
        "street": "Beco Luiz Florentino Porto",
        "zipcode": "89163-461"
    },
    {
        "city": "Rio do Sul",
        "state": "SC",
        "district": "Fundo Canoas",
        "street": "Beco Ottwin Reblin",
        "zipcode": "89163-563"
    },
    {
        "city": "Rio do Sul",
        "state": "SC",
        "district": "Canta Galo",
        "street": "Rua Ademir José Schmitt",
        "zipcode": "89163-336"
    },
    {
        "city": "Rio do Sul",
        "state": "SC",
        "district": "Fundo Canoas",
        "street": "Beco Samuel Hoffmann",
        "zipcode": "89163-518"
    },
    {
        "city": "Rio do Sul",
        "state": "SC",
        "district": "Fundo Canoas",
        "street": "Rua Rafael Rossa",
        "zipcode": "89163-512"
    },
    {
        "city": "Rio do Sul",
        "state": "SC",
        "district": "Valada Itoupava",
        "street": "Rodovia BR",
        "zipcode": "89162-710"
    },
    {
        "city": "Rio do Sul",
        "state": "SC",
        "district": "Canta Galo",
        "street": "Travessa Romão Maçaneiro",
        "zipcode": "89163-146"
    },
    {
        "city": "Rio do Sul",
        "state": "SC",
        "district": "Barra Itoupava",
        "street": "Rua Ângelo Cechet",
        "zipcode": "89162-572"
    },
    {
        "city": "Rio do Sul",
        "state": "SC",
        "district": "Navegantes",
        "street": "Rua Alvin Menslin",
        "zipcode": "89162-516"
    },
    {
        "city": "Rio do Sul",
        "state": "SC",
        "district": "Jardim América",
        "street": "Rua Francisco Cavilha",
        "zipcode": "89160-236"
    },
    {
        "city": "Rio do Sul",
        "state": "SC",
        "district": "Santana",
        "street": "Rua Expedicionário Schaade",
        "zipcode": "89160-258"
    },
    {
        "city": "Rio do Sul",
        "state": "SC",
        "district": "Santana",
        "street": "Rua Felício Ledra",
        "zipcode": "89160-278"
    },
    {
        "city": "Rio do Sul",
        "state": "SC",
        "district": "Santana",
        "street": "Rua José João Nascimento",
        "zipcode": "89160-302"
    },
    {
        "city": "Rio do Sul",
        "state": "SC",
        "district": "Santana",
        "street": "Rua Leopoldo Ledra",
        "zipcode": "89160-306"
    },
    {
        "city": "Rio do Sul",
        "state": "SC",
        "district": "Santana",
        "street": "Avenida Oscar Barcelos",
        "zipcode": "89160-314"
    },
    {
        "city": "Rio do Sul",
        "state": "SC",
        "district": "Santa Rita",
        "street": "Rua Ovídio Bonfanti",
        "zipcode": "89162-354"
    },
    {
        "city": "Rio do Sul",
        "state": "SC",
        "district": "Santa Rita",
        "street": "Rua João Nunes",
        "zipcode": "89162-358"
    },
    {
        "city": "Rio do Sul",
        "state": "SC",
        "district": "Jardim América",
        "street": "Beco Campinas",
        "zipcode": "89160-218"
    },
    {
        "city": "Rio do Sul",
        "state": "SC",
        "district": "Jardim América",
        "street": "Travessa Henrique Coninck",
        "zipcode": "89160-222"
    },
    {
        "city": "Rio do Sul",
        "state": "SC",
        "district": "Jardim América",
        "street": "Rua Abraham Lincoln",
        "zipcode": "89160-202"
    },
    {
        "city": "Rio do Sul",
        "state": "SC",
        "district": "Centro",
        "street": "Beco Rudolf Schoeninger",
        "zipcode": "89160-029"
    },
    {
        "city": "Rio do Sul",
        "state": "SC",
        "district": "Centro",
        "street": "Rua 15 de Abril",
        "zipcode": "89160-161"
    },
    {
        "city": "Rio do Sul",
        "state": "SC",
        "district": "Jardim América",
        "street": "Rua Doutor Guilherme Gemballa",
        "zipcode": "89160-188"
    },
    {
        "city": "Rio do Sul",
        "state": "SC",
        "district": "Centro",
        "street": "Rua Max Wehmuth",
        "zipcode": "89160-003"
    },
    {
        "city": "Rio do Sul",
        "state": "SC",
        "district": "Centro",
        "street": "Rua Adolfo Buhr",
        "zipcode": "89160-011"
    },
    {
        "city": "Rio do Sul",
        "state": "SC",
        "district": "Centro",
        "street": "Beco Cristiano Knoll",
        "zipcode": "89160-041"
    },
    {
        "city": "Rio do Sul",
        "state": "SC",
        "district": "Centro",
        "street": "Rua Carlos Gomes",
        "zipcode": "89160-051"
    },
    {
        "city": "Rio do Sul",
        "state": "SC",
        "district": "Budag",
        "street": "Avenida Governador Jorge Lacerda",
        "zipcode": "89165-457"
    },
    {
        "city": "Rio do Sul",
        "state": "SC",
        "district": "Canta Galo",
        "street": "Beco Antonio Silveira Ramos",
        "zipcode": "89163-131"
    },
    {
        "city": "Rio do Sul",
        "state": "SC",
        "district": "Fundo Canoas",
        "street": "Estrada Boa Esperança",
        "zipcode": "89163-443"
    },
    {
        "city": "Rio do Sul",
        "state": "SC",
        "district": "Budag",
        "street": "Rua Taió",
        "zipcode": "89165-326"
    },
    {
        "city": "Rio do Sul",
        "state": "SC",
        "district": "Fundo Canoas",
        "street": "Rua Rosa Vellwock",
        "zipcode": "89163-497"
    },
    {
        "city": "Rio do Sul",
        "state": "SC",
        "district": "Pamplona",
        "street": "Rua Fernando Cerutti",
        "zipcode": "89164-342"
    },
    {
        "city": "Rio do Sul",
        "state": "SC",
        "district": "Bela Aliança",
        "street": "Rua Rio Paraná",
        "zipcode": "89161-516"
    },
    {
        "city": "Rio do Sul",
        "state": "SC",
        "district": "Valada Itoupava",
        "street": "Rodovia BR",
        "zipcode": "89162-903"
    },
    {
        "city": "Rio do Sul",
        "state": "SC",
        "district": "Bela Aliança",
        "street": "Rua Azaléias",
        "zipcode": "89161-372"
    },
    {
        "city": "Rio do Sul",
        "state": "SC",
        "district": "Bela Aliança",
        "street": "Rua Amarilis",
        "zipcode": "89161-373"
    },
    {
        "city": "Rio do Sul",
        "state": "SC",
        "district": "Bela Aliança",
        "street": "Rua Gerânios",
        "zipcode": "89161-377"
    },
    {
        "city": "Rio do Sul",
        "state": "SC",
        "district": "Bela Aliança",
        "street": "Rua Gudolo Buse",
        "zipcode": "89161-502"
    },
    {
        "city": "Rio do Sul",
        "state": "SC",
        "district": "Bela Aliança",
        "street": "Rua Luiz Froehner",
        "zipcode": "89161-506"
    },
    {
        "city": "Rio do Sul",
        "state": "SC",
        "district": "Bela Aliança",
        "street": "Rua Rio Nilo",
        "zipcode": "89161-508"
    },
    {
        "city": "Rio do Sul",
        "state": "SC",
        "district": "Bela Aliança",
        "street": "Rua Rio Congo",
        "zipcode": "89161-512"
    },
    {
        "city": "Rio do Sul",
        "state": "SC",
        "district": "Bremer",
        "street": "Rua Aristeu dos Santos",
        "zipcode": "89161-138"
    },
    {
        "city": "Rio do Sul",
        "state": "SC",
        "district": "Bela Aliança",
        "street": "Rua Odete Catharina Schmitz",
        "zipcode": "89161-514"
    },
    {
        "city": "Rio do Sul",
        "state": "SC",
        "district": "Bela Aliança",
        "street": "Rua Abel Teixeira",
        "zipcode": "89161-518"
    },
    {
        "city": "Rio do Sul",
        "state": "SC",
        "district": "Centro",
        "street": "Alameda Aristiliano Ramos",
        "zipcode": "89160-973"
    },
    {
        "city": "Rio do Sul",
        "state": "SC",
        "district": "Centro",
        "street": "Alameda Aristiliano Ramos",
        "zipcode": "89160-141"
    },
    {
        "city": "Rio do Sul",
        "state": "SC",
        "district": "Progresso",
        "street": "Estrada São Bento",
        "zipcode": "89163-760"
    },
    {
        "city": "Rio do Sul",
        "state": "SC",
        "district": "Brehmer",
        "street": "Estrada Blumenau",
        "zipcode": "89161-000"
    },
    {
        "city": "Rio do Sul",
        "state": "SC",
        "district": "Bela Aliança",
        "street": "Estrada Blumenau",
        "zipcode": "89161-260"
    },
    {
        "city": "Rio do Sul",
        "state": "SC",
        "district": "Centro",
        "street": "Rua Expedicionário Schaade",
        "zipcode": "89160-093"
    },
    {
        "city": "Rio do Sul",
        "state": "SC",
        "district": "Brehmer",
        "street": "Rua Euclides Atacilde da Costa",
        "zipcode": "89161-190"
    },
    {
        "city": "Rio do Sul",
        "state": "SC",
        "district": "Taboão",
        "street": "Rua Terezinha Martins Machado",
        "zipcode": "89160-436"
    },
    {
        "city": "Rio do Sul",
        "state": "SC",
        "district": "Brehmer",
        "street": "Rua Tocantins",
        "zipcode": "89161-086"
    },
    {
        "city": "Rio do Sul",
        "state": "SC",
        "district": "Progresso",
        "street": "Rua Tulio Cezar Macedo",
        "zipcode": "89163-769"
    },
    {
        "city": "Rio do Sul",
        "state": "SC",
        "district": "Canoas",
        "street": "Rua Victor Konder",
        "zipcode": "89164-075"
    },
    {
        "city": "Rio do Sul",
        "state": "SC",
        "district": "Taboão",
        "street": "Rua Douglas Michael Schnaider",
        "zipcode": "89160-420"
    },
    {
        "city": "Rio do Sul",
        "state": "SC",
        "district": "Bela Aliança",
        "street": "Rua Francisco Salvador",
        "zipcode": "89161-268"
    },
    {
        "city": "Rio do Sul",
        "state": "SC",
        "district": "Rainha",
        "street": "Rua Amabilio Testoni",
        "zipcode": "89162-032"
    },
    {
        "city": "Rio do Sul",
        "state": "SC",
        "district": "Taboão",
        "street": "Rua Antônio Packer",
        "zipcode": "89160-604"
    },
    {
        "city": "Rio do Sul",
        "state": "SC",
        "district": "Taboão",
        "street": "Rua Lúcia Mees Trierweiler",
        "zipcode": "89160-702"
    },
    {
        "city": "Rio do Sul",
        "state": "SC",
        "district": "Bela Aliança",
        "street": "Rua Luciana Maria Toggweiler",
        "zipcode": "89161-325"
    },
    {
        "city": "Rio do Sul",
        "state": "SC",
        "district": "Bela Aliança",
        "street": "Rua Haroldo Leopoldo Swarowsky",
        "zipcode": "89161-370"
    },
    {
        "city": "Rio do Sul",
        "state": "SC",
        "district": "Canoas",
        "street": "Rodovia BR",
        "zipcode": "89164-000"
    },
    {
        "city": "Rio do Sul",
        "state": "SC",
        "district": "Rainha",
        "street": "Rodovia BR",
        "zipcode": "89162-120"
    },
    {
        "city": "Rio do Sul",
        "state": "SC",
        "district": "Valada São Paulo",
        "street": "Rua João Krieger",
        "zipcode": "89162-172"
    },
    {
        "city": "Rio do Sul",
        "state": "SC",
        "district": "Canoas",
        "street": "Rua Prefeito Wenceslau Borini",
        "zipcode": "89164-003"
    },
    {
        "city": "Rio do Sul",
        "state": "SC",
        "district": "Centro",
        "street": "Rua Dom Bosco",
        "zipcode": "89160-137"
    },
    {
        "city": "Rio do Sul",
        "state": "SC",
        "district": "Centro",
        "street": "Rua Dom Bosco",
        "zipcode": "89160-117"
    },
    {
        "city": "Rio do Sul",
        "state": "SC",
        "district": "Valada Itoupava",
        "street": "Rua dos Vereadores",
        "zipcode": "89162-840"
    },
    {
        "city": "Rio do Sul",
        "state": "SC",
        "district": "Brehmer",
        "street": "Beco Maria Cechet Ledra",
        "zipcode": "89161-003"
    },
    {
        "city": "Rio do Sul",
        "state": "SC",
        "district": "Taboão",
        "street": "Rua João Ledra",
        "zipcode": "89160-580"
    },
    {
        "city": "Rio do Sul",
        "state": "SC",
        "district": "Jardim América",
        "street": "Rua Júlio Roussenq Filho",
        "zipcode": "89160-196"
    },
    {
        "city": "Rio do Sul",
        "state": "SC",
        "district": "Barragem",
        "street": "Rua Santa Clara",
        "zipcode": "89165-016"
    },
    {
        "city": "Rio do Sul",
        "state": "SC",
        "district": "Sumaré",
        "street": "Rua Bom Retiro",
        "zipcode": "89165-549"
    },
    {
        "city": "Rio do Sul",
        "state": "SC",
        "district": "Barra do Trombudo",
        "street": "Servidão Guadalupe",
        "zipcode": "89164-639"
    },
    {
        "city": "Rio do Sul",
        "state": "SC",
        "district": "Barra do Trombudo",
        "street": "Rua Patrício Noveletto",
        "zipcode": "89164-600"
    },
    {
        "city": "Rio do Sul",
        "state": "SC",
        "district": "Barra do Trombudo",
        "street": "Rua Clemente Demarch",
        "zipcode": "89164-380"
    },
    {
        "city": "Rio do Sul",
        "state": "SC",
        "district": "Barra Itoupava",
        "street": "Rodovia BR",
        "zipcode": "89162-560"
    },
    {
        "city": "Rio do Sul",
        "state": "SC",
        "district": "Canta Galo",
        "street": "Rua Expedicionário Giuseppe Valle",
        "zipcode": "89163-128"
    },
    {
        "city": "Rio do Sul",
        "state": "SC",
        "district": "Canta Galo",
        "street": "Rua Prefeito Wenceslau Borini",
        "zipcode": "89163-110"
    },
    {
        "city": "Rio do Sul",
        "state": "SC",
        "district": "Bela Aliança",
        "street": "Rua Cuniberto Guse",
        "zipcode": "89161-282"
    },
    {
        "city": "Rio do Sul",
        "state": "SC",
        "district": "Taboão",
        "street": "Beco Alberto Lauret",
        "zipcode": "89160-505"
    },
    {
        "city": "Rio do Sul",
        "state": "SC",
        "district": "Valada São Paulo",
        "street": "Rua dos Eucaliptos",
        "zipcode": "89162-230"
    },
    {
        "city": "Rio do Sul",
        "state": "SC",
        "district": "Bremer",
        "street": "Beco Inácio Clemente de Souza",
        "zipcode": "89161-151"
    },
    {
        "city": "Rio do Sul",
        "state": "SC",
        "district": "Centro",
        "street": "Rua Angelo Tomio",
        "zipcode": "89160-116"
    },
    {
        "city": "Rio do Sul",
        "state": "SC",
        "district": "Navegantes",
        "street": "Estrada Navegantes",
        "zipcode": "89162-462"
    },
    {
        "city": "Rio do Sul",
        "state": "SC",
        "district": "Santana",
        "street": "Travessa Alfredo Sátiro de Oliveira",
        "zipcode": "89160-304"
    },
    {
        "city": "Rio do Sul",
        "state": "SC",
        "district": "Santa Rita",
        "street": "Rodovia BR",
        "zipcode": "89162-400"
    },
    {
        "city": "Rio do Sul",
        "state": "SC",
        "district": "Jardim América",
        "street": "Avenida 7 de Setembro",
        "zipcode": "89160-170"
    },
    {
        "city": "Rio do Sul",
        "state": "SC",
        "district": "Jardim América",
        "street": "Rua Presidente Kennedy",
        "zipcode": "89160-190"
    },
    {
        "city": "Rio do Sul",
        "state": "SC",
        "district": "Boa Vista",
        "street": "Rua Humaitá",
        "zipcode": "89167-222"
    },
    {
        "city": "Rio do Sul",
        "state": "SC",
        "district": "Albertina",
        "street": "Rodovia Vereador Carlos Probst",
        "zipcode": "89167-570"
    },
    {
        "city": "Rio do Sul",
        "state": "SC",
        "district": "Budag",
        "street": "Beco Luciano João Quintino",
        "zipcode": "89165-391"
    },
    {
        "city": "Rio do Sul",
        "state": "SC",
        "district": "Taboão",
        "street": "Rua Mário Machado de Oliveira (Loteamento Novo Horizonte)",
        "zipcode": "89160-532"
    },
    {
        "city": "Rio do Sul",
        "state": "SC",
        "district": "Eugênio Schneider",
        "street": "Beco Rio de Janeiro",
        "zipcode": "89167-096"
    },
    {
        "city": "Rio do Sul",
        "state": "SC",
        "district": "Canoas",
        "street": "Rodovia BR",
        "zipcode": "89164-141"
    },
    {
        "city": "Rio do Sul",
        "state": "SC",
        "district": "Barragem",
        "street": "Rua Curitibanos",
        "zipcode": "89165-152"
    },
    {
        "city": "Rio do Sul",
        "state": "SC",
        "district": "Barragem",
        "street": "Rua Gelsy Maria Marcon Cunha",
        "zipcode": "89165-220"
    },
    {
        "city": "Rio do Sul",
        "state": "SC",
        "district": "Eugênio Schneider",
        "street": "Rua Pedro Moretto",
        "zipcode": "89167-090"
    },
    {
        "city": "Rio do Sul",
        "state": "SC",
        "district": "Eugênio Schneider",
        "street": "Rua Pedro Moretto",
        "zipcode": "89167-111"
    },
    {
        "city": "Rio do Sul",
        "state": "SC",
        "district": "Boa Vista",
        "street": "Servidão Verônica Alves de Campos",
        "zipcode": "89167-204"
    },
    {
        "city": "Rio do Sul",
        "state": "SC",
        "district": "Bela Aliança",
        "street": "Rua Reinhold Porath",
        "zipcode": "89161-371"
    },
    {
        "city": "Rio do Sul",
        "state": "SC",
        "district": "Bela Aliança",
        "street": "Rua Hibiscos",
        "zipcode": "89161-374"
    },
    {
        "city": "Rio do Sul",
        "state": "SC",
        "district": "Bela Aliança",
        "street": "Rua Henrique Strelow",
        "zipcode": "89161-504"
    },
    {
        "city": "Rio do Sul",
        "state": "SC",
        "district": "Bela Aliança",
        "street": "Rua Rio Ganges",
        "zipcode": "89161-510"
    },
    {
        "city": "Rio do Sul",
        "state": "SC",
        "district": "Progresso",
        "street": "Rua João Ubaldo Telles",
        "zipcode": "89163-721"
    },
    {
        "city": "Rio do Sul",
        "state": "SC",
        "district": "Canoas",
        "street": "Travessa Mafra",
        "zipcode": "89164-033"
    },
    {
        "city": "Rio do Sul",
        "state": "SC",
        "district": "Centro",
        "street": "Travessa Londrina",
        "zipcode": "89160-125"
    },
    {
        "city": "Rio do Sul",
        "state": "SC",
        "district": "Canoas",
        "street": "Rua Frei Stanislau",
        "zipcode": "89164-066"
    },
    {
        "city": "Rio do Sul",
        "state": "SC",
        "district": "Brehmer",
        "street": "Travessa Fritz Sussenbach",
        "zipcode": "89161-082"
    },
    {
        "city": "Rio do Sul",
        "state": "SC",
        "district": "Centro",
        "street": "Praça 25 de Julho",
        "zipcode": "89160-900"
    },
    {
        "city": "Rio do Sul",
        "state": "SC",
        "district": "Bremer",
        "street": "Rua Hercílio de Souza",
        "zipcode": "89161-149"
    },
    {
        "city": "Rio do Sul",
        "state": "SC",
        "district": "Valada São Paulo",
        "street": "Rua Prefeito Luiz Adelar Soldatelli",
        "zipcode": "89162-220"
    },
    {
        "city": "Rio do Sul",
        "state": "SC",
        "district": "Centro",
        "street": "Beco Maria Livramento",
        "zipcode": "89160-081"
    },
    {
        "city": "Rio do Sul",
        "state": "SC",
        "district": "Bela Aliança",
        "street": "Rua Bento José Dávila",
        "zipcode": "89161-331"
    },
    {
        "city": "Rio do Sul",
        "state": "SC",
        "district": "Canta Galo",
        "street": "Praça Olinda Ledra Finardi",
        "zipcode": "89163-047"
    },
    {
        "city": "Rio do Sul",
        "state": "SC",
        "district": "Canta Galo",
        "street": "Travessa Desidério Finardi",
        "zipcode": "89163-032"
    },
    {
        "city": "Rio do Sul",
        "state": "SC",
        "district": "Valada Itoupava",
        "street": "Rua Expedicionário Aleandro Stedille",
        "zipcode": "89162-718"
    },
    {
        "city": "Rio do Sul",
        "state": "SC",
        "district": "Taboão",
        "street": "Rua do Cemitério",
        "zipcode": "89160-768"
    },
    {
        "city": "Rio do Sul",
        "state": "SC",
        "district": "Barragem",
        "street": "Rua Videira",
        "zipcode": "89165-146"
    },
    {
        "city": "Rio do Sul",
        "state": "SC",
        "district": "Bela Aliança",
        "street": "Travessa Otto Klug",
        "zipcode": "89161-390"
    },
    {
        "city": "Rio do Sul",
        "state": "SC",
        "district": "Progresso",
        "street": "Rua Palhoça",
        "zipcode": "89163-730"
    },
    {
        "city": "Rio do Sul",
        "state": "SC",
        "district": "Valada Itoupava",
        "street": "Rodovia BR",
        "zipcode": "89162-900"
    },
    {
        "city": "Rio do Sul",
        "state": "SC",
        "district": "Canoas",
        "street": "Rua Orlando João Amaro",
        "zipcode": "89164-009"
    },
    {
        "city": "Rio do Sul",
        "state": "SC",
        "district": "Valada São Paulo",
        "street": "Rua Prefeito Luiz Adelar Soldatelli",
        "zipcode": "89162-240"
    },
    {
        "city": "Rio do Sul",
        "state": "SC",
        "district": "Bela Aliança",
        "street": "Rua Gustav Hasse",
        "zipcode": "89161-395"
    },
    {
        "city": "Rio do Sul",
        "state": "SC",
        "district": "Valada Itoupava",
        "street": "Rua Expedicionário Aleandro Stedille",
        "zipcode": "89162-780"
    },
    {
        "city": "Rio do Sul",
        "state": "SC",
        "district": "Fundo Canoas",
        "street": "Rua Henrique Degenhardt",
        "zipcode": "89163-542"
    },
    {
        "city": "Rio do Sul",
        "state": "SC",
        "district": "Bremer",
        "street": "Rua Sebilla Ropelato (Loteamento Antônio Geremias)",
        "zipcode": "89161-135"
    },
    {
        "city": "Rio do Sul",
        "state": "SC",
        "district": "Centro",
        "street": "Beco José Coninck",
        "zipcode": "89160-109"
    },
    {
        "city": "Rio do Sul",
        "state": "SC",
        "district": "Canoas",
        "street": "Travessa Leopoldo Stahnke",
        "zipcode": "89164-060"
    },
    {
        "city": "Rio do Sul",
        "state": "SC",
        "district": "Bremer",
        "street": "Rua Expedicionário Henrique Stofela",
        "zipcode": "89161-150"
    },
    {
        "city": "Rio do Sul",
        "state": "SC",
        "district": "Valada Itoupava",
        "street": "Rua Expedicionário Aleandro Stedille",
        "zipcode": "89162-750"
    },
    {
        "city": "Rio do Sul",
        "state": "SC",
        "district": "Canoas",
        "street": "Beco Edilson Cesar Schlemper",
        "zipcode": "89164-048"
    }
]