[
    {
        "city": "Sao Jose",
        "state": "SC",
        "district": "Picadas Do Norte",
        "street": "Rua Kiliano Hames",
        "zipcode": "88106-698"
    },
    {
        "city": "Sao Jose",
        "state": "SC",
        "district": "Real Parque",
        "street": "Rua Tabeliao Quintino Da Silva Furtado",
        "zipcode": "88113-580"
    },
    {
        "city": "Sao Jose",
        "state": "SC",
        "district": "Santos Dumont",
        "street": "Rua Paraguai",
        "zipcode": "88117-062"
    },
    {
        "city": "Sao Jose",
        "state": "SC",
        "district": "Santos Dumont",
        "street": "Rua Panama",
        "zipcode": "88117-064"
    },
    {
        "city": "Sao Jose",
        "state": "SC",
        "district": "Santos Dumont",
        "street": "Rua Venezuela",
        "zipcode": "88117-075"
    },
    {
        "city": "Sao Jose",
        "state": "SC",
        "district": "Picadas Do Norte",
        "street": "Servid√£o Joao Francisco Gaspar",
        "zipcode": "88106-701"
    },
    {
        "city": "Sao Jose",
        "state": "SC",
        "district": "Centro",
        "street": "Rua Engenheiro Cesar Amim",
        "zipcode": "88104-150"
    },
    {
        "city": "Sao Jose",
        "state": "SC",
        "district": "Nossa Senhora Do Rosario",
        "street": "Beco Caramuru",
        "zipcode": "88110-698"
    },
    {
        "city": "Sao Jose",
        "state": "SC",
        "district": "Picadas Do Norte",
        "street": "Rua Santa Marta",
        "zipcode": "88106-445"
    },
    {
        "city": "Sao Jose",
        "state": "SC",
        "district": "Sao Luiz",
        "street": "Rua Luiz Carlos Habkost",
        "zipcode": "88106-835"
    },
    {
        "city": "Sao Jose",
        "state": "SC",
        "district": "Rocado",
        "street": "Rua Pedro Cunha",
        "zipcode": "88108-160"
    },
    {
        "city": "Sao Jose",
        "state": "SC",
        "district": "Real Parque",
        "street": "Rua Manga Larga",
        "zipcode": "88113-565"
    },
    {
        "city": "Sao Jose",
        "state": "SC",
        "district": "Picadas Do Norte",
        "street": "Rua Manoel Francisco Filho",
        "zipcode": "88106-570"
    },
    {
        "city": "Sao Jose",
        "state": "SC",
        "district": "Santos Dumont",
        "street": "Rua Nicaragua",
        "zipcode": "88117-070"
    },
    {
        "city": "Sao Jose",
        "state": "SC",
        "district": "Praia Comprida",
        "street": "Rua Raulino Schimidt",
        "zipcode": "88103-680"
    }
]