[
    {
        "city": "Videira",
        "state": "SC",
        "district": "Lourdes",
        "street": "",
        "zipcode": "89568-000"
    },
    {
        "city": "Videira",
        "state": "SC",
        "district": "",
        "street": "",
        "zipcode": "89560-000"
    },
    {
        "city": "Videira",
        "state": "SC",
        "district": "Centro",
        "street": "Rua Pedro Andreazza",
        "zipcode": "89560-972"
    },
    {
        "city": "Videira",
        "state": "SC",
        "district": "Bom Sucesso",
        "street": "",
        "zipcode": "89569-800"
    },
    {
        "city": "Videira",
        "state": "SC",
        "district": "Campo Experimental",
        "street": "Rodovia SC",
        "zipcode": "89564-590"
    },
    {
        "city": "Videira",
        "state": "SC",
        "district": "Campo Experimental",
        "street": "Rodovia SC",
        "zipcode": "89564-550"
    },
    {
        "city": "Videira",
        "state": "SC",
        "district": "Oficina",
        "street": "Rodovia SC",
        "zipcode": "89565-130"
    },
    {
        "city": "Videira",
        "state": "SC",
        "district": "Rio das Pedras",
        "street": "Rodovia SC",
        "zipcode": "89563-200"
    },
    {
        "city": "Videira",
        "state": "SC",
        "district": "Rio das Pedras",
        "street": "Rodovia SC",
        "zipcode": "89563-605"
    },
    {
        "city": "Videira",
        "state": "SC",
        "district": "Santa Gema",
        "street": "Rua Armando Schuller",
        "zipcode": "89567-236"
    },
    {
        "city": "Videira",
        "state": "SC",
        "district": "Centro",
        "street": "Escadaria Germano Schwartz",
        "zipcode": "89560-104"
    },
    {
        "city": "Videira",
        "state": "SC",
        "district": "Rio das Pedras",
        "street": "Rodovia SC",
        "zipcode": "89563-610"
    },
    {
        "city": "Videira",
        "state": "SC",
        "district": "Universitário",
        "street": "Rua Alvin Schuller",
        "zipcode": "89566-088"
    },
    {
        "city": "Videira",
        "state": "SC",
        "district": "Rio das Pedras",
        "street": "Rodovia SC",
        "zipcode": "89563-590"
    },
    {
        "city": "Videira",
        "state": "SC",
        "district": "Vila de Carli",
        "street": "Rodovia SC",
        "zipcode": "89564-474"
    },
    {
        "city": "Videira",
        "state": "SC",
        "district": "Dois Pinheiros",
        "street": "Rodovia SC",
        "zipcode": "89562-210"
    },
    {
        "city": "Videira",
        "state": "SC",
        "district": "Santa Tereza",
        "street": "Rodovia SC",
        "zipcode": "89560-308"
    },
    {
        "city": "Videira",
        "state": "SC",
        "district": "Morada do Sol",
        "street": "Rodovia SC",
        "zipcode": "89562-728"
    },
    {
        "city": "Videira",
        "state": "SC",
        "district": "Universitário",
        "street": "Rua Eleonora Schuller",
        "zipcode": "89566-304"
    },
    {
        "city": "Videira",
        "state": "SC",
        "district": "Nossa Senhora Aparecida",
        "street": "Rodovia SC",
        "zipcode": "89562-880"
    },
    {
        "city": "Videira",
        "state": "SC",
        "district": "Cetrevi",
        "street": "Rua Alfeo Schwaiga",
        "zipcode": "89567-486"
    },
    {
        "city": "Videira",
        "state": "SC",
        "district": "Marafon",
        "street": "Rua Querino Schuller",
        "zipcode": "89560-440"
    },
    {
        "city": "Videira",
        "state": "SC",
        "district": "Cidade Alta",
        "street": "Rua Ema Schmidt Machienavie",
        "zipcode": "89567-094"
    },
    {
        "city": "Videira",
        "state": "SC",
        "district": "Vila Verde",
        "street": "Rua Armândio Schuller",
        "zipcode": "89564-400"
    },
    {
        "city": "Videira",
        "state": "SC",
        "district": "Portal das Videiras",
        "street": "Rodovia SC",
        "zipcode": "89562-260"
    },
    {
        "city": "Videira",
        "state": "SC",
        "district": "Rio das Pedras",
        "street": "Rua Terezinha Scopel Rui",
        "zipcode": "89563-392"
    },
    {
        "city": "Videira",
        "state": "SC",
        "district": "Rio das Pedras",
        "street": "Rodovia SC",
        "zipcode": "89563-595"
    },
    {
        "city": "Videira",
        "state": "SC",
        "district": "São Francisco",
        "street": "Rua Paulo Ricardo Scopel",
        "zipcode": "89565-284"
    },
    {
        "city": "Videira",
        "state": "SC",
        "district": "Rio das Pedras",
        "street": "Rodovia SC",
        "zipcode": "89563-195"
    },
    {
        "city": "Videira",
        "state": "SC",
        "district": "Sesi",
        "street": "Rua Marino Schiochet",
        "zipcode": "89564-362"
    },
    {
        "city": "Videira",
        "state": "SC",
        "district": "Rio das Pedras",
        "street": "Rodovia SC",
        "zipcode": "89563-546"
    },
    {
        "city": "Videira",
        "state": "SC",
        "district": "Nossa Senhora Aparecida",
        "street": "Rodovia SC",
        "zipcode": "89563-115"
    },
    {
        "city": "Videira",
        "state": "SC",
        "district": "Cetrevi",
        "street": "Rua Vidalcyr Paulo Scopel",
        "zipcode": "89567-470"
    },
    {
        "city": "Videira",
        "state": "SC",
        "district": "Rio das Pedras",
        "street": "Rodovia SC",
        "zipcode": "89563-600"
    },
    {
        "city": "Videira",
        "state": "SC",
        "district": "Santa Lucia",
        "street": "Estrada Benedito Tomaz Scussiato",
        "zipcode": "89565-350"
    },
    {
        "city": "Videira",
        "state": "SC",
        "district": "Nossa Senhora Aparecida",
        "street": "Rodovia SC",
        "zipcode": "89563-110"
    },
    {
        "city": "Videira",
        "state": "SC",
        "district": "Rio das Pedras",
        "street": "Rodovia SC",
        "zipcode": "89563-215"
    },
    {
        "city": "Videira",
        "state": "SC",
        "district": "Santa Lucia",
        "street": "Rodovia SC",
        "zipcode": "89565-355"
    },
    {
        "city": "Videira",
        "state": "SC",
        "district": "São Francisco",
        "street": "Rodovia SC",
        "zipcode": "89565-340"
    },
    {
        "city": "Videira",
        "state": "SC",
        "district": "Água Verde",
        "street": "Rodovia SC",
        "zipcode": "89564-690"
    },
    {
        "city": "Videira",
        "state": "SC",
        "district": "Rio das Pedras",
        "street": "Rodovia SC",
        "zipcode": "89563-205"
    },
    {
        "city": "Videira",
        "state": "SC",
        "district": "Universitário",
        "street": "Rua Irena Schuller",
        "zipcode": "89566-092"
    },
    {
        "city": "Videira",
        "state": "SC",
        "district": "Nossa Senhora Aparecida",
        "street": "Rodovia SC",
        "zipcode": "89562-730"
    },
    {
        "city": "Videira",
        "state": "SC",
        "district": "Matriz",
        "street": "Escadaria José Zanon",
        "zipcode": "89560-258"
    },
    {
        "city": "Videira",
        "state": "SC",
        "district": "São Cristovão",
        "street": "Rua Adolfo Konder",
        "zipcode": "89562-066"
    },
    {
        "city": "Videira",
        "state": "SC",
        "district": "Centro",
        "street": "Escadaria Cesar Leoni",
        "zipcode": "89560-176"
    },
    {
        "city": "Videira",
        "state": "SC",
        "district": "Marafon",
        "street": "Escadaria Avelino Granetto",
        "zipcode": "89560-476"
    },
    {
        "city": "Videira",
        "state": "SC",
        "district": "Santa Gema",
        "street": "Rua Milton Schuler",
        "zipcode": "89567-342"
    },
    {
        "city": "Videira",
        "state": "SC",
        "district": "Anta Gorda",
        "street": "",
        "zipcode": "89569-000"
    },
    {
        "city": "Videira",
        "state": "SC",
        "district": "Aeroporto",
        "street": "Rua Germano Schwartz",
        "zipcode": "89560-418"
    },
    {
        "city": "Videira",
        "state": "SC",
        "district": "Sesi",
        "street": "Avenida Dom Pedro II",
        "zipcode": "89564-229"
    },
    {
        "city": "Videira",
        "state": "SC",
        "district": "Sesi",
        "street": "Rua Reinaldo Evaldo Schneider",
        "zipcode": "89564-276"
    },
    {
        "city": "Videira",
        "state": "SC",
        "district": "Vila de Carli",
        "street": "Escadaria Vereador Antônio Figueiroa",
        "zipcode": "89564-448"
    },
    {
        "city": "Videira",
        "state": "SC",
        "district": "Santa Gema",
        "street": "Avenida Mato Grosso",
        "zipcode": "89567-352"
    },
    {
        "city": "Videira",
        "state": "SC",
        "district": "Universitário",
        "street": "Escadaria Augusto Bohrer",
        "zipcode": "89566-080"
    },
    {
        "city": "Videira",
        "state": "SC",
        "district": "Centro",
        "street": "Rua Ademar Caldart",
        "zipcode": "89560-096"
    },
    {
        "city": "Videira",
        "state": "SC",
        "district": "Centro",
        "street": "Rua Abraão Brandalise",
        "zipcode": "89560-164"
    },
    {
        "city": "Videira",
        "state": "SC",
        "district": "Alvorada",
        "street": "Avenida Dom Pedro II",
        "zipcode": "89562-000"
    },
    {
        "city": "Videira",
        "state": "SC",
        "district": "Santa Tereza",
        "street": "Escadaria Paulo Riffel",
        "zipcode": "89560-378"
    },
    {
        "city": "Videira",
        "state": "SC",
        "district": "Nossa Senhora Aparecida",
        "street": "Avenida Zeno Hairto Sebbem",
        "zipcode": "89562-778"
    },
    {
        "city": "Videira",
        "state": "SC",
        "district": "Santa Gema",
        "street": "Rua Ernestina Schulter",
        "zipcode": "89567-344"
    },
    {
        "city": "Videira",
        "state": "SC",
        "district": "Universitário",
        "street": "Avenida Marginal Sul",
        "zipcode": "89566-316"
    },
    {
        "city": "Videira",
        "state": "SC",
        "district": "Cidade Alta",
        "street": "Rua Agostinho Luiz Barros",
        "zipcode": "89567-016"
    },
    {
        "city": "Videira",
        "state": "SC",
        "district": "Amarante",
        "street": "Rua Adelar Pirolli",
        "zipcode": "89566-476"
    },
    {
        "city": "Videira",
        "state": "SC",
        "district": "Sesi",
        "street": "Rua Adelina das Neves Bordignon",
        "zipcode": "89564-253"
    },
    {
        "city": "Videira",
        "state": "SC",
        "district": "São Francisco",
        "street": "Avenida Sérgio Bom",
        "zipcode": "89565-270"
    },
    {
        "city": "Videira",
        "state": "SC",
        "district": "Santa Tereza",
        "street": "Rua Abraão Brandalise",
        "zipcode": "89560-296"
    },
    {
        "city": "Videira",
        "state": "SC",
        "district": "Rio das Pedras",
        "street": "Avenida Treze Tílias",
        "zipcode": "89563-436"
    },
    {
        "city": "Videira",
        "state": "SC",
        "district": "Farroupilha",
        "street": "Escadaria Manoel A Nunes",
        "zipcode": "89560-554"
    },
    {
        "city": "Videira",
        "state": "SC",
        "district": "Panazzolo",
        "street": "Avenida Marginal Sul",
        "zipcode": "89566-016"
    },
    {
        "city": "Videira",
        "state": "SC",
        "district": "Dois Pinheiros",
        "street": "Avenida Sérgio Bom",
        "zipcode": "89562-160"
    },
    {
        "city": "Videira",
        "state": "SC",
        "district": "Universitário",
        "street": "Rua Adão Reynaldo Vailatti",
        "zipcode": "89566-272"
    },
    {
        "city": "Videira",
        "state": "SC",
        "district": "Universitário",
        "street": "Avenida Waldemar Kleinunbing",
        "zipcode": "89566-184"
    },
    {
        "city": "Videira",
        "state": "SC",
        "district": "Alvorada",
        "street": "Escadaria Soterino N Sinigaglia",
        "zipcode": "89562-020"
    },
    {
        "city": "Videira",
        "state": "SC",
        "district": "São Francisco",
        "street": "Rua Afonso Uliana",
        "zipcode": "89565-268"
    },
    {
        "city": "Videira",
        "state": "SC",
        "district": "Alvorada",
        "street": "Avenida Manoel Roque",
        "zipcode": "89562-036"
    },
    {
        "city": "Videira",
        "state": "SC",
        "district": "Centro",
        "street": "Escadaria Alice Eizberger",
        "zipcode": "89560-192"
    },
    {
        "city": "Videira",
        "state": "SC",
        "district": "Panazzolo",
        "street": "Escadaria Augusto Bohrer",
        "zipcode": "89566-076"
    },
    {
        "city": "Videira",
        "state": "SC",
        "district": "Portal das Videiras",
        "street": "Avenida dos Franceses",
        "zipcode": "89562-304"
    },
    {
        "city": "Videira",
        "state": "SC",
        "district": "Santa Lucia",
        "street": "Rodovia Municipal José Gheller",
        "zipcode": "89565-453"
    },
    {
        "city": "Videira",
        "state": "SC",
        "district": "Santa Gema",
        "street": "Avenida Marginal Sul",
        "zipcode": "89567-232"
    },
    {
        "city": "Videira",
        "state": "SC",
        "district": "Cetrevi",
        "street": "Rua Adolfo Haas",
        "zipcode": "89567-432"
    },
    {
        "city": "Videira",
        "state": "SC",
        "district": "São Cristovão",
        "street": "Avenida Sérgio Bom",
        "zipcode": "89562-152"
    },
    {
        "city": "Videira",
        "state": "SC",
        "district": "Santa Gema",
        "street": "Avenida Kroeff",
        "zipcode": "89567-248"
    },
    {
        "city": "Videira",
        "state": "SC",
        "district": "Floresta",
        "street": "Escadaria Adolfo Heusi",
        "zipcode": "89560-023"
    },
    {
        "city": "Videira",
        "state": "SC",
        "district": "Panazzolo",
        "street": "Rua Afonso Tharum",
        "zipcode": "89566-018"
    },
    {
        "city": "Videira",
        "state": "SC",
        "district": "Centro",
        "street": "Avenida Antônio Nico Fávero",
        "zipcode": "89560-204"
    },
    {
        "city": "Videira",
        "state": "SC",
        "district": "Santa Gema",
        "street": "Avenida Waldemar Kleinunbing",
        "zipcode": "89567-242"
    },
    {
        "city": "Videira",
        "state": "SC",
        "district": "Panazzolo",
        "street": "Escadaria Ivo Rostirolla",
        "zipcode": "89566-061"
    },
    {
        "city": "Videira",
        "state": "SC",
        "district": "Rio das Pedras",
        "street": "Avenida Ambrósio Fiorese",
        "zipcode": "89563-446"
    },
    {
        "city": "Videira",
        "state": "SC",
        "district": "Rio das Pedras",
        "street": "Rua Água Doce",
        "zipcode": "89563-526"
    },
    {
        "city": "Videira",
        "state": "SC",
        "district": "Centro",
        "street": "Avenida Dom Pedro II",
        "zipcode": "89560-208"
    },
    {
        "city": "Videira",
        "state": "SC",
        "district": "Sesi",
        "street": "Avenida Antônio Nico Fávero",
        "zipcode": "89564-226"
    },
    {
        "city": "Videira",
        "state": "SC",
        "district": "Amarante",
        "street": "Rua Afonso Tharum",
        "zipcode": "89566-395"
    },
    {
        "city": "Videira",
        "state": "SC",
        "district": "Alvorada",
        "street": "Rua Afonso Marchioro",
        "zipcode": "89562-028"
    },
    {
        "city": "Videira",
        "state": "SC",
        "district": "Alvorada",
        "street": "Rua Adolfo Konder",
        "zipcode": "89562-032"
    },
    {
        "city": "Videira",
        "state": "SC",
        "district": "Rio das Pedras",
        "street": "Avenida Fidêncio Ribeiro Alves",
        "zipcode": "89563-440"
    },
    {
        "city": "Videira",
        "state": "SC",
        "district": "Vila Verde",
        "street": "Escadaria Vereador Henrique Olivo",
        "zipcode": "89564-396"
    },
    {
        "city": "Videira",
        "state": "SC",
        "district": "Marafon",
        "street": "Rua Afonso Berwanger",
        "zipcode": "89560-432"
    },
    {
        "city": "Videira",
        "state": "SC",
        "district": "Santa Gema",
        "street": "Avenida Kroeff",
        "zipcode": "89567-252"
    },
    {
        "city": "Videira",
        "state": "SC",
        "district": "Portal das Videiras",
        "street": "Estrada Municipal",
        "zipcode": "89562-390"
    },
    {
        "city": "Videira",
        "state": "SC",
        "district": "Cidade Alta",
        "street": "Rua Antonio Mendes",
        "zipcode": "89567-024"
    },
    {
        "city": "Videira",
        "state": "SC",
        "district": "Farroupilha",
        "street": "Rua Angelo Demartini",
        "zipcode": "89560-880"
    },
    {
        "city": "Videira",
        "state": "SC",
        "district": "São Cristovão",
        "street": "Rua Aparecida",
        "zipcode": "89562-050"
    },
    {
        "city": "Videira",
        "state": "SC",
        "district": "Cidade Alta",
        "street": "Rua Anselmo Alumo Paese",
        "zipcode": "89567-100"
    },
    {
        "city": "Videira",
        "state": "SC",
        "district": "São Francisco",
        "street": "Rua Aloisio Pedro Kroeff",
        "zipcode": "89565-158"
    },
    {
        "city": "Videira",
        "state": "SC",
        "district": "Marafon",
        "street": "Rua Antônio Marafon",
        "zipcode": "89560-438"
    },
    {
        "city": "Videira",
        "state": "SC",
        "district": "Matriz",
        "street": "Rua Antonio Ferlin",
        "zipcode": "89560-260"
    },
    {
        "city": "Videira",
        "state": "SC",
        "district": "Morada do Sol",
        "street": "Rua Aleixo Guill",
        "zipcode": "89562-712"
    },
    {
        "city": "Videira",
        "state": "SC",
        "district": "Sesi",
        "street": "Rua Araçatuba",
        "zipcode": "89564-346"
    },
    {
        "city": "Videira",
        "state": "SC",
        "district": "Alvorada",
        "street": "Rua Aparecida",
        "zipcode": "89562-046"
    },
    {
        "city": "Videira",
        "state": "SC",
        "district": "Universitário",
        "street": "Rua Amélia Gemo Baldissera",
        "zipcode": "89566-310"
    },
    {
        "city": "Videira",
        "state": "SC",
        "district": "Santa Tereza",
        "street": "Rua Alberto Reichert",
        "zipcode": "89560-310"
    },
    {
        "city": "Videira",
        "state": "SC",
        "district": "São Cristovão",
        "street": "Rua Antônio Testolin",
        "zipcode": "89562-120"
    },
    {
        "city": "Videira",
        "state": "SC",
        "district": "Centro",
        "street": "Rua Antônio Marafon",
        "zipcode": "89560-146"
    },
    {
        "city": "Videira",
        "state": "SC",
        "district": "Rio das Pedras",
        "street": "Rua Albino Alfredo Grando",
        "zipcode": "89563-270"
    },
    {
        "city": "Videira",
        "state": "SC",
        "district": "Cidade Alta",
        "street": "Rua Angelo Bortolozo",
        "zipcode": "89567-028"
    },
    {
        "city": "Videira",
        "state": "SC",
        "district": "Cibrazém",
        "street": "Rua Aledir Fátima Nunes",
        "zipcode": "89564-088"
    },
    {
        "city": "Videira",
        "state": "SC",
        "district": "Vila de Carli",
        "street": "Rua Alois Sporr",
        "zipcode": "89564-468"
    },
    {
        "city": "Videira",
        "state": "SC",
        "district": "Alvorada",
        "street": "Rua Antonio Ferlin",
        "zipcode": "89562-022"
    },
    {
        "city": "Videira",
        "state": "SC",
        "district": "Marafon",
        "street": "Rua Antônio Fantin",
        "zipcode": "89560-442"
    },
    {
        "city": "Videira",
        "state": "SC",
        "district": "Morada do Sol",
        "street": "Rua Antônia Maria Perazzoli Casagrande",
        "zipcode": "89562-722"
    },
    {
        "city": "Videira",
        "state": "SC",
        "district": "Amarante",
        "street": "Rua Antonio Batista de Jesus",
        "zipcode": "89566-466"
    },
    {
        "city": "Videira",
        "state": "SC",
        "district": "Carboni",
        "street": "Rua Anita Garibaldi",
        "zipcode": "89566-760"
    },
    {
        "city": "Videira",
        "state": "SC",
        "district": "Cidade Alta",
        "street": "Rua Albano Posanske",
        "zipcode": "89567-030"
    },
    {
        "city": "Videira",
        "state": "SC",
        "district": "Universitário",
        "street": "Rua Agostinho Salvador",
        "zipcode": "89566-276"
    },
    {
        "city": "Videira",
        "state": "SC",
        "district": "Nossa Senhora Aparecida",
        "street": "Rua Angelin Galafassi",
        "zipcode": "89562-885"
    },
    {
        "city": "Videira",
        "state": "SC",
        "district": "Campo Experimental",
        "street": "Rua Antônio Picolli",
        "zipcode": "89564-653"
    },
    {
        "city": "Videira",
        "state": "SC",
        "district": "Carelli",
        "street": "Rua Antônio Szygalki",
        "zipcode": "89566-748"
    },
    {
        "city": "Videira",
        "state": "SC",
        "district": "Cidade Alta",
        "street": "Rua Angelo Zago",
        "zipcode": "89567-036"
    },
    {
        "city": "Videira",
        "state": "SC",
        "district": "Oficina",
        "street": "Rua Alberto Grando",
        "zipcode": "89565-139"
    },
    {
        "city": "Videira",
        "state": "SC",
        "district": "Oficina",
        "street": "Rua Ângelo Albiero",
        "zipcode": "89565-091"
    },
    {
        "city": "Videira",
        "state": "SC",
        "district": "São Francisco",
        "street": "Rua Albino Lang",
        "zipcode": "89565-280"
    },
    {
        "city": "Videira",
        "state": "SC",
        "district": "Amarante",
        "street": "Rua Alvaro Bueno de Oliveira",
        "zipcode": "89566-478"
    },
    {
        "city": "Videira",
        "state": "SC",
        "district": "São Francisco",
        "street": "Rua Alberto Grando",
        "zipcode": "89565-150"
    },
    {
        "city": "Videira",
        "state": "SC",
        "district": "Morada do Sol",
        "street": "Rua Angela Testolin Vanz",
        "zipcode": "89562-718"
    },
    {
        "city": "Videira",
        "state": "SC",
        "district": "São Cristovão",
        "street": "Rua Antonio Ferlin",
        "zipcode": "89562-082"
    },
    {
        "city": "Videira",
        "state": "SC",
        "district": "Farroupilha",
        "street": "Rua Anta Gorda",
        "zipcode": "89560-494"
    },
    {
        "city": "Videira",
        "state": "SC",
        "district": "Universitário",
        "street": "Rua André Pasqual",
        "zipcode": "89566-104"
    },
    {
        "city": "Videira",
        "state": "SC",
        "district": "Carboni",
        "street": "Rua Antonio Tesa",
        "zipcode": "89566-840"
    },
    {
        "city": "Videira",
        "state": "SC",
        "district": "Cidade Alta",
        "street": "Rua Alexandre Gaedke",
        "zipcode": "89567-034"
    },
    {
        "city": "Videira",
        "state": "SC",
        "district": "Dois Pinheiros",
        "street": "Rua Antônio Testolin",
        "zipcode": "89562-178"
    },
    {
        "city": "Videira",
        "state": "SC",
        "district": "São Cristovão",
        "street": "Rua Alberto Grando",
        "zipcode": "89562-062"
    },
    {
        "city": "Videira",
        "state": "SC",
        "district": "Campo Experimental",
        "street": "Rua Anselmo Pirolli",
        "zipcode": "89564-650"
    },
    {
        "city": "Videira",
        "state": "SC",
        "district": "Sesi",
        "street": "Rua Angelin Antonio Araldi",
        "zipcode": "89564-350"
    },
    {
        "city": "Videira",
        "state": "SC",
        "district": "Alvorada",
        "street": "Rua Antônio Pinto",
        "zipcode": "89562-040"
    },
    {
        "city": "Videira",
        "state": "SC",
        "district": "Santa Tereza",
        "street": "Rua Albina Titton",
        "zipcode": "89560-320"
    },
    {
        "city": "Videira",
        "state": "SC",
        "district": "Centro",
        "street": "Rua Antônio Denardi",
        "zipcode": "89560-180"
    },
    {
        "city": "Videira",
        "state": "SC",
        "district": "Cibrazém",
        "street": "Rua Antonio Deon",
        "zipcode": "89564-076"
    },
    {
        "city": "Videira",
        "state": "SC",
        "district": "São Francisco",
        "street": "Rua Angelo Piccoli",
        "zipcode": "89565-154"
    },
    {
        "city": "Videira",
        "state": "SC",
        "district": "Rio das Pedras",
        "street": "Rua Angelo Fiorelli",
        "zipcode": "89563-540"
    },
    {
        "city": "Videira",
        "state": "SC",
        "district": "Amarante",
        "street": "Rua Almo Rohergger",
        "zipcode": "89566-486"
    },
    {
        "city": "Videira",
        "state": "SC",
        "district": "Alvorada",
        "street": "Rua Alberto Zoller",
        "zipcode": "89562-026"
    },
    {
        "city": "Videira",
        "state": "SC",
        "district": "Centro",
        "street": "Rua Alvise Caldart",
        "zipcode": "89560-174"
    },
    {
        "city": "Videira",
        "state": "SC",
        "district": "Farroupilha",
        "street": "Rua Antonio Marcon",
        "zipcode": "89560-544"
    },
    {
        "city": "Videira",
        "state": "SC",
        "district": "Farroupilha",
        "street": "Rua Alberto João Baroncello",
        "zipcode": "89560-882"
    },
    {
        "city": "Videira",
        "state": "SC",
        "district": "Matriz",
        "street": "Rua Angelo Grazziotin",
        "zipcode": "89560-280"
    },
    {
        "city": "Videira",
        "state": "SC",
        "district": "Santa Gema",
        "street": "Rua Amazonas",
        "zipcode": "89567-324"
    },
    {
        "city": "Videira",
        "state": "SC",
        "district": "Nossa Senhora Aparecida",
        "street": "Rua Carolina Ragadalli",
        "zipcode": "89562-840"
    },
    {
        "city": "Videira",
        "state": "SC",
        "district": "Panazzolo",
        "street": "Rua Caçador",
        "zipcode": "89566-006"
    },
    {
        "city": "Videira",
        "state": "SC",
        "district": "Cidade Alta",
        "street": "Rua Carl Hermann Ramsdorf",
        "zipcode": "89567-050"
    },
    {
        "city": "Videira",
        "state": "SC",
        "district": "São Francisco",
        "street": "Rua Augusto de Martini",
        "zipcode": "89565-260"
    },
    {
        "city": "Videira",
        "state": "SC",
        "district": "Santos Dumont",
        "street": "Rua Biagio Dal Pizzol",
        "zipcode": "89561-148"
    },
    {
        "city": "Videira",
        "state": "SC",
        "district": "São Cristovão",
        "street": "Rua Capitão Ribas",
        "zipcode": "89562-076"
    },
    {
        "city": "Videira",
        "state": "SC",
        "district": "Sesi",
        "street": "Rua Bogoni",
        "zipcode": "89564-220"
    },
    {
        "city": "Videira",
        "state": "SC",
        "district": "Rio das Pedras",
        "street": "Rua Ascânio Ribeiro Chaves",
        "zipcode": "89563-520"
    },
    {
        "city": "Videira",
        "state": "SC",
        "district": "Sesi",
        "street": "Rua Campinas",
        "zipcode": "89564-278"
    },
    {
        "city": "Videira",
        "state": "SC",
        "district": "Floresta",
        "street": "Rua Brasil Viana",
        "zipcode": "89560-033"
    },
    {
        "city": "Videira",
        "state": "SC",
        "district": "Marafon",
        "street": "Rua Carlos Putkamer",
        "zipcode": "89560-434"
    },
    {
        "city": "Videira",
        "state": "SC",
        "district": "Floresta",
        "street": "Rua Caçador",
        "zipcode": "89560-047"
    },
    {
        "city": "Videira",
        "state": "SC",
        "district": "Santa Gema",
        "street": "Rua Ceará",
        "zipcode": "89567-322"
    },
    {
        "city": "Videira",
        "state": "SC",
        "district": "Floresta",
        "street": "Rua Carlos Esperança",
        "zipcode": "89560-039"
    },
    {
        "city": "Videira",
        "state": "SC",
        "district": "Marafon",
        "street": "Rua Augusto Benetti",
        "zipcode": "89560-470"
    },
    {
        "city": "Videira",
        "state": "SC",
        "district": "Farroupilha",
        "street": "Rua Brasil Correa",
        "zipcode": "89560-510"
    },
    {
        "city": "Videira",
        "state": "SC",
        "district": "Santa Gema",
        "street": "Rua Bahia",
        "zipcode": "89567-348"
    },
    {
        "city": "Videira",
        "state": "SC",
        "district": "Matriz",
        "street": "Rua Arthur Formiguieri",
        "zipcode": "89560-240"
    },
    {
        "city": "Videira",
        "state": "SC",
        "district": "Centro",
        "street": "Rua Benjamin Grazziotin",
        "zipcode": "89560-212"
    },
    {
        "city": "Videira",
        "state": "SC",
        "district": "Matriz",
        "street": "Rua Arthur Formiguieri",
        "zipcode": "89560-278"
    },
    {
        "city": "Videira",
        "state": "SC",
        "district": "Santa Tereza",
        "street": "Rua Brasil",
        "zipcode": "89560-382"
    },
    {
        "city": "Videira",
        "state": "SC",
        "district": "Centro",
        "street": "Rua Arlindo de Matos",
        "zipcode": "89560-158"
    },
    {
        "city": "Videira",
        "state": "SC",
        "district": "Morada do Sol",
        "street": "Rua Basílio Adada",
        "zipcode": "89562-692"
    },
    {
        "city": "Videira",
        "state": "SC",
        "district": "Santa Gema",
        "street": "Rua Catarina Kuntz",
        "zipcode": "89567-244"
    },
    {
        "city": "Videira",
        "state": "SC",
        "district": "Farroupilha",
        "street": "Rua Capitão Fidêncio",
        "zipcode": "89560-496"
    },
    {
        "city": "Videira",
        "state": "SC",
        "district": "Campo Experimental",
        "street": "Rua Arlindo Dresch",
        "zipcode": "89564-492"
    },
    {
        "city": "Videira",
        "state": "SC",
        "district": "Marafon",
        "street": "Rua Brasil",
        "zipcode": "89560-430"
    },
    {
        "city": "Videira",
        "state": "SC",
        "district": "Universitário",
        "street": "Rua Carolina Pasqual",
        "zipcode": "89566-170"
    },
    {
        "city": "Videira",
        "state": "SC",
        "district": "Floresta",
        "street": "Rua Bulcão Viana",
        "zipcode": "89560-051"
    },
    {
        "city": "Videira",
        "state": "SC",
        "district": "Santa Tereza",
        "street": "Rua Arlindo de Matos",
        "zipcode": "89560-374"
    },
    {
        "city": "Videira",
        "state": "SC",
        "district": "Centro",
        "street": "Rua Bom Sucesso",
        "zipcode": "89560-118"
    },
    {
        "city": "Videira",
        "state": "SC",
        "district": "Centro",
        "street": "Rua Bulcão Viana",
        "zipcode": "89560-090"
    },
    {
        "city": "Videira",
        "state": "SC",
        "district": "Centro",
        "street": "Rua Brasil",
        "zipcode": "89560-150"
    },
    {
        "city": "Videira",
        "state": "SC",
        "district": "Santa Tereza",
        "street": "Rua Arlindo de Matos",
        "zipcode": "89560-376"
    },
    {
        "city": "Videira",
        "state": "SC",
        "district": "Morada do Sol",
        "street": "Rua Arthur Posanske",
        "zipcode": "89562-708"
    },
    {
        "city": "Videira",
        "state": "SC",
        "district": "Floresta",
        "street": "Rua Bulcão Viana",
        "zipcode": "89560-013"
    },
    {
        "city": "Videira",
        "state": "SC",
        "district": "Amarante",
        "street": "Rua Aytir Zanotto",
        "zipcode": "89566-488"
    },
    {
        "city": "Videira",
        "state": "SC",
        "district": "Centro",
        "street": "Rua Bulcão Viana",
        "zipcode": "89560-094"
    },
    {
        "city": "Videira",
        "state": "SC",
        "district": "Cibrazém",
        "street": "Rua Bogoni",
        "zipcode": "89564-154"
    },
    {
        "city": "Videira",
        "state": "SC",
        "district": "Cidade Alta",
        "street": "Rua Benjamin Chimello",
        "zipcode": "89567-026"
    },
    {
        "city": "Videira",
        "state": "SC",
        "district": "Santa Gema",
        "street": "Rua Catarina Girardi Gemelli",
        "zipcode": "89567-340"
    },
    {
        "city": "Videira",
        "state": "SC",
        "district": "São Cristovão",
        "street": "Rua Assunção",
        "zipcode": "89562-070"
    },
    {
        "city": "Videira",
        "state": "SC",
        "district": "Santa Tereza",
        "street": "Rua Arthur Brandalise",
        "zipcode": "89560-386"
    },
    {
        "city": "Videira",
        "state": "SC",
        "district": "Sesi",
        "street": "Rua Avelina Omizzolo Paulmichl",
        "zipcode": "89564-352"
    },
    {
        "city": "Videira",
        "state": "SC",
        "district": "Santa Lucia",
        "street": "Rua Aurélia Testolin Marcon",
        "zipcode": "89565-514"
    },
    {
        "city": "Videira",
        "state": "SC",
        "district": "Matriz",
        "street": "Rua Campos Novos",
        "zipcode": "89560-232"
    },
    {
        "city": "Videira",
        "state": "SC",
        "district": "Cidade Alta",
        "street": "Rua Augusto Calgaro",
        "zipcode": "89567-076"
    },
    {
        "city": "Videira",
        "state": "SC",
        "district": "Vila de Carli",
        "street": "Rua Avelino de Carli",
        "zipcode": "89564-450"
    },
    {
        "city": "Videira",
        "state": "SC",
        "district": "Aeroporto",
        "street": "Rua Arcângelo Damo",
        "zipcode": "89560-410"
    },
    {
        "city": "Videira",
        "state": "SC",
        "district": "Matriz",
        "street": "Rua Celedônia Celbach",
        "zipcode": "89560-236"
    },
    {
        "city": "Videira",
        "state": "SC",
        "district": "Floresta",
        "street": "Rua Bulcão Viana",
        "zipcode": "89560-011"
    },
    {
        "city": "Videira",
        "state": "SC",
        "district": "Sesi",
        "street": "Rua Campos do Jordão",
        "zipcode": "89564-270"
    },
    {
        "city": "Videira",
        "state": "SC",
        "district": "Universitário",
        "street": "Rua Arno Posanske",
        "zipcode": "89566-308"
    },
    {
        "city": "Videira",
        "state": "SC",
        "district": "Santa Lucia",
        "street": "Rua Atilio Testolin",
        "zipcode": "89565-510"
    },
    {
        "city": "Videira",
        "state": "SC",
        "district": "Centro",
        "street": "Rua Campos Novos",
        "zipcode": "89560-220"
    },
    {
        "city": "Videira",
        "state": "SC",
        "district": "Rio das Pedras",
        "street": "Rua Arlindo Longo",
        "zipcode": "89563-406"
    },
    {
        "city": "Videira",
        "state": "SC",
        "district": "Santa Tereza",
        "street": "Rua Emílio Vescovi",
        "zipcode": "89560-294"
    },
    {
        "city": "Videira",
        "state": "SC",
        "district": "São Francisco",
        "street": "Rua das Palmeiras",
        "zipcode": "89565-156"
    },
    {
        "city": "Videira",
        "state": "SC",
        "district": "Portal das Videiras",
        "street": "Rua dos Mognos",
        "zipcode": "89562-306"
    },
    {
        "city": "Videira",
        "state": "SC",
        "district": "Santa Gema",
        "street": "Rua Constantino Crestani",
        "zipcode": "89567-230"
    },
    {
        "city": "Videira",
        "state": "SC",
        "district": "Vila de Carli",
        "street": "Rua do Arroio",
        "zipcode": "89564-462"
    },
    {
        "city": "Videira",
        "state": "SC",
        "district": "São Francisco",
        "street": "Rua das Hortências",
        "zipcode": "89565-160"
    },
    {
        "city": "Videira",
        "state": "SC",
        "district": "Vila de Carli",
        "street": "Rua Ernesto Miotto",
        "zipcode": "89564-460"
    },
    {
        "city": "Videira",
        "state": "SC",
        "district": "Sesi",
        "street": "Rua Ernesto Anibal Tonet",
        "zipcode": "89564-348"
    },
    {
        "city": "Videira",
        "state": "SC",
        "district": "Santa Gema",
        "street": "Rua Dionísio Robaskewicz",
        "zipcode": "89567-246"
    },
    {
        "city": "Videira",
        "state": "SC",
        "district": "Santa Tereza",
        "street": "Rua Coronel Fagundes",
        "zipcode": "89560-380"
    },
    {
        "city": "Videira",
        "state": "SC",
        "district": "Portal das Videiras",
        "street": "Rua das Imbuias",
        "zipcode": "89562-318"
    },
    {
        "city": "Videira",
        "state": "SC",
        "district": "Universitário",
        "street": "Rua do Pico",
        "zipcode": "89566-096"
    },
    {
        "city": "Videira",
        "state": "SC",
        "district": "Floresta",
        "street": "Rua Delfino Moreira dos Santos",
        "zipcode": "89560-041"
    },
    {
        "city": "Videira",
        "state": "SC",
        "district": "Portal das Videiras",
        "street": "Rua dos Ipês",
        "zipcode": "89562-312"
    },
    {
        "city": "Videira",
        "state": "SC",
        "district": "Centro",
        "street": "Rua Coronel Fagundes",
        "zipcode": "89560-156"
    },
    {
        "city": "Videira",
        "state": "SC",
        "district": "Santa Tereza",
        "street": "Rua David Titon",
        "zipcode": "89560-326"
    },
    {
        "city": "Videira",
        "state": "SC",
        "district": "Santa Tereza",
        "street": "Rua Coronel Fagundes",
        "zipcode": "89560-384"
    },
    {
        "city": "Videira",
        "state": "SC",
        "district": "Dois Pinheiros",
        "street": "Rua Conceição",
        "zipcode": "89562-162"
    },
    {
        "city": "Videira",
        "state": "SC",
        "district": "Sesi",
        "street": "Rua Edir Terezinha Peruchin",
        "zipcode": "89564-342"
    },
    {
        "city": "Videira",
        "state": "SC",
        "district": "Sesi",
        "street": "Rua Ernesto Fantin",
        "zipcode": "89564-247"
    },
    {
        "city": "Videira",
        "state": "SC",
        "district": "Sesi",
        "street": "Rua Ernesto Fantin",
        "zipcode": "89564-330"
    },
    {
        "city": "Videira",
        "state": "SC",
        "district": "Campo Experimental",
        "street": "Rua do Arroio",
        "zipcode": "89564-504"
    },
    {
        "city": "Videira",
        "state": "SC",
        "district": "Nossa Senhora Aparecida",
        "street": "Rua das Araras",
        "zipcode": "89563-100"
    },
    {
        "city": "Videira",
        "state": "SC",
        "district": "Portal das Videiras",
        "street": "Rua Cezário Cantú",
        "zipcode": "89562-408"
    },
    {
        "city": "Videira",
        "state": "SC",
        "district": "Portal das Videiras",
        "street": "Rua dos Eucaliptos",
        "zipcode": "89562-392"
    },
    {
        "city": "Videira",
        "state": "SC",
        "district": "Cetrevi",
        "street": "Rua Eleotherio Burlin",
        "zipcode": "89567-476"
    },
    {
        "city": "Videira",
        "state": "SC",
        "district": "Vila de Carli",
        "street": "Rua Dorico Strapazzon",
        "zipcode": "89564-456"
    },
    {
        "city": "Videira",
        "state": "SC",
        "district": "Cidade Alta",
        "street": "Rua Constantino Crestani",
        "zipcode": "89567-102"
    },
    {
        "city": "Videira",
        "state": "SC",
        "district": "Morada do Sol",
        "street": "Rua da Liberdade",
        "zipcode": "89562-700"
    },
    {
        "city": "Videira",
        "state": "SC",
        "district": "Rio das Pedras",
        "street": "Rua Ermes Carletto",
        "zipcode": "89563-262"
    },
    {
        "city": "Videira",
        "state": "SC",
        "district": "São Francisco",
        "street": "Rua Elisa Maróstica Ferlin",
        "zipcode": "89565-226"
    },
    {
        "city": "Videira",
        "state": "SC",
        "district": "Cidade Alta",
        "street": "Rua Constantino Crestani",
        "zipcode": "89567-055"
    },
    {
        "city": "Videira",
        "state": "SC",
        "district": "Sesi",
        "street": "Rua Dosolina Binotto Menegazzo",
        "zipcode": "89564-356"
    },
    {
        "city": "Videira",
        "state": "SC",
        "district": "Oficina",
        "street": "Rua Dorvalino Rostirola",
        "zipcode": "89565-094"
    },
    {
        "city": "Videira",
        "state": "SC",
        "district": "Sesi",
        "street": "Rua Elza Fischer Muhlbrandt",
        "zipcode": "89564-259"
    },
    {
        "city": "Videira",
        "state": "SC",
        "district": "Santa Tereza",
        "street": "Rua Dario Giassoni",
        "zipcode": "89560-298"
    },
    {
        "city": "Videira",
        "state": "SC",
        "district": "Matriz",
        "street": "Rua César Augusto Filho",
        "zipcode": "89560-270"
    },
    {
        "city": "Videira",
        "state": "SC",
        "district": "Centro",
        "street": "Rua Clério Nicolau Basso",
        "zipcode": "89560-098"
    },
    {
        "city": "Videira",
        "state": "SC",
        "district": "Marafon",
        "street": "Rua da Ladeira",
        "zipcode": "89560-444"
    },
    {
        "city": "Videira",
        "state": "SC",
        "district": "Amarante",
        "street": "Rua Darci Vacchi",
        "zipcode": "89566-470"
    },
    {
        "city": "Videira",
        "state": "SC",
        "district": "Farroupilha",
        "street": "Rua Ernesto Grando",
        "zipcode": "89560-540"
    },
    {
        "city": "Videira",
        "state": "SC",
        "district": "Cidade Alta",
        "street": "Rua Domingos Locatelli",
        "zipcode": "89567-086"
    },
    {
        "city": "Videira",
        "state": "SC",
        "district": "Portal das Videiras",
        "street": "Rua dos Cedros",
        "zipcode": "89562-310"
    },
    {
        "city": "Videira",
        "state": "SC",
        "district": "Vila de Carli",
        "street": "Rua Domingos Lira",
        "zipcode": "89564-440"
    },
    {
        "city": "Videira",
        "state": "SC",
        "district": "Campo Experimental",
        "street": "Rua Domingos Forlin",
        "zipcode": "89564-488"
    },
    {
        "city": "Videira",
        "state": "SC",
        "district": "Panazzolo",
        "street": "Rua Delfino Moreira dos Santos",
        "zipcode": "89566-001"
    },
    {
        "city": "Videira",
        "state": "SC",
        "district": "Nossa Senhora Aparecida",
        "street": "Rua dos Azulões",
        "zipcode": "89563-095"
    },
    {
        "city": "Videira",
        "state": "SC",
        "district": "Santa Lucia",
        "street": "Rua Dirço Piratuba",
        "zipcode": "89565-524"
    },
    {
        "city": "Videira",
        "state": "SC",
        "district": "Cidade Alta",
        "street": "Rua Daniel Vescovi",
        "zipcode": "89567-020"
    },
    {
        "city": "Videira",
        "state": "SC",
        "district": "Carelli",
        "street": "Rua Enésio Moreira",
        "zipcode": "89566-754"
    },
    {
        "city": "Videira",
        "state": "SC",
        "district": "Cetrevi",
        "street": "Rua Cristiano Moriggi",
        "zipcode": "89567-474"
    },
    {
        "city": "Videira",
        "state": "SC",
        "district": "Cetrevi",
        "street": "Rua Egon Egen Sinzker",
        "zipcode": "89567-490"
    },
    {
        "city": "Videira",
        "state": "SC",
        "district": "Portal das Videiras",
        "street": "Rua das Canelas",
        "zipcode": "89562-314"
    },
    {
        "city": "Videira",
        "state": "SC",
        "district": "Centro",
        "street": "Rua Duque de Caxias",
        "zipcode": "89560-116"
    },
    {
        "city": "Videira",
        "state": "SC",
        "district": "Campo Experimental",
        "street": "Rua Ernesto Miotto",
        "zipcode": "89564-500"
    },
    {
        "city": "Videira",
        "state": "SC",
        "district": "Água Verde",
        "street": "Rua Giovani Ricardo Brandalise",
        "zipcode": "89564-696"
    },
    {
        "city": "Videira",
        "state": "SC",
        "district": "São Cristovão",
        "street": "Rua Fraiburgo",
        "zipcode": "89562-126"
    },
    {
        "city": "Videira",
        "state": "SC",
        "district": "Santa Tereza",
        "street": "Rua Fulgêncio Furlin",
        "zipcode": "89560-300"
    },
    {
        "city": "Videira",
        "state": "SC",
        "district": "Vila Verde",
        "street": "Rua Fiorindo Zago",
        "zipcode": "89564-404"
    },
    {
        "city": "Videira",
        "state": "SC",
        "district": "Oficina",
        "street": "Rua Francisco Luiz Lira",
        "zipcode": "89565-073"
    },
    {
        "city": "Videira",
        "state": "SC",
        "district": "Cidade Alta",
        "street": "Rua Gasparino Codagnoni",
        "zipcode": "89567-088"
    },
    {
        "city": "Videira",
        "state": "SC",
        "district": "Água Verde",
        "street": "Rua Giacomo Dal Pizzol",
        "zipcode": "89564-698"
    },
    {
        "city": "Videira",
        "state": "SC",
        "district": "São Cristovão",
        "street": "Rua Governador Lacerda",
        "zipcode": "89562-060"
    },
    {
        "city": "Videira",
        "state": "SC",
        "district": "Rio das Pedras",
        "street": "Rua Eugenio Brancalione",
        "zipcode": "89563-452"
    },
    {
        "city": "Videira",
        "state": "SC",
        "district": "Morada do Sol",
        "street": "Rua Ester Crema Marmentini",
        "zipcode": "89562-706"
    },
    {
        "city": "Videira",
        "state": "SC",
        "district": "Cidade Alta",
        "street": "Rua Francisco Pratto",
        "zipcode": "89567-040"
    },
    {
        "city": "Videira",
        "state": "SC",
        "district": "Cibrazém",
        "street": "Rua Fritz Lorenz",
        "zipcode": "89564-110"
    },
    {
        "city": "Videira",
        "state": "SC",
        "district": "Universitário",
        "street": "Rua Germano Decker",
        "zipcode": "89566-256"
    },
    {
        "city": "Videira",
        "state": "SC",
        "district": "Santa Gema",
        "street": "Rua Espírito Santo",
        "zipcode": "89567-346"
    },
    {
        "city": "Videira",
        "state": "SC",
        "district": "Universitário",
        "street": "Rua Ernesto Paese",
        "zipcode": "89566-254"
    },
    {
        "city": "Videira",
        "state": "SC",
        "district": "São Cristovão",
        "street": "Rua Geovani Crestani",
        "zipcode": "89562-118"
    },
    {
        "city": "Videira",
        "state": "SC",
        "district": "Nossa Senhora Aparecida",
        "street": "Rua Getulio Damo",
        "zipcode": "89562-774"
    },
    {
        "city": "Videira",
        "state": "SC",
        "district": "Cidade Alta",
        "street": "Rua Geovane Carelli",
        "zipcode": "89567-092"
    },
    {
        "city": "Videira",
        "state": "SC",
        "district": "Santa Tereza",
        "street": "Rua Giovani Simonetto",
        "zipcode": "89560-312"
    },
    {
        "city": "Videira",
        "state": "SC",
        "district": "Vila Verde",
        "street": "Rua Gasparino Zorzi",
        "zipcode": "89564-398"
    },
    {
        "city": "Videira",
        "state": "SC",
        "district": "Cetrevi",
        "street": "Rua Guerino Andreazza",
        "zipcode": "89567-478"
    },
    {
        "city": "Videira",
        "state": "SC",
        "district": "Rio das Pedras",
        "street": "Rua Fernando Panacione",
        "zipcode": "89563-538"
    },
    {
        "city": "Videira",
        "state": "SC",
        "district": "Rio das Pedras",
        "street": "Rua Guerina Marta Antunes",
        "zipcode": "89563-398"
    },
    {
        "city": "Videira",
        "state": "SC",
        "district": "Matriz",
        "street": "Rua Guilherme Mathias",
        "zipcode": "89560-268"
    },
    {
        "city": "Videira",
        "state": "SC",
        "district": "Floresta",
        "street": "Rua Frederico Bortolaz",
        "zipcode": "89560-009"
    },
    {
        "city": "Videira",
        "state": "SC",
        "district": "Amarante",
        "street": "Rua Fioravante Tosatti",
        "zipcode": "89566-480"
    },
    {
        "city": "Videira",
        "state": "SC",
        "district": "Santa Lucia",
        "street": "Rua Francisco Baroncello",
        "zipcode": "89565-528"
    },
    {
        "city": "Videira",
        "state": "SC",
        "district": "Centro",
        "street": "Rua Fernando Machado",
        "zipcode": "89560-140"
    },
    {
        "city": "Videira",
        "state": "SC",
        "district": "Centro",
        "street": "Rua Florianópolis",
        "zipcode": "89560-122"
    },
    {
        "city": "Videira",
        "state": "SC",
        "district": "Universitário",
        "street": "Rua Guilherme Brandalise",
        "zipcode": "89566-258"
    },
    {
        "city": "Videira",
        "state": "SC",
        "district": "Dois Pinheiros",
        "street": "Rua Francisco Vanz",
        "zipcode": "89562-176"
    },
    {
        "city": "Videira",
        "state": "SC",
        "district": "Santos Dumont",
        "street": "Rua Graciliano Ribeiro de Souza",
        "zipcode": "89561-164"
    },
    {
        "city": "Videira",
        "state": "SC",
        "district": "Nossa Senhora Aparecida",
        "street": "Rua Genoveva Brandalise",
        "zipcode": "89562-843"
    },
    {
        "city": "Videira",
        "state": "SC",
        "district": "Portal das Videiras",
        "street": "Rua Genuino Conte",
        "zipcode": "89562-446"
    },
    {
        "city": "Videira",
        "state": "SC",
        "district": "São Francisco",
        "street": "Rua Getúlio Janil Bruschi",
        "zipcode": "89565-278"
    },
    {
        "city": "Videira",
        "state": "SC",
        "district": "Universitário",
        "street": "Rua Fernando Busch",
        "zipcode": "89566-314"
    },
    {
        "city": "Videira",
        "state": "SC",
        "district": "Farroupilha",
        "street": "Rua Farroupilha",
        "zipcode": "89560-502"
    },
    {
        "city": "Videira",
        "state": "SC",
        "district": "Água Verde",
        "street": "Rua Genebra Fadani",
        "zipcode": "89564-700"
    },
    {
        "city": "Videira",
        "state": "SC",
        "district": "Cibrazém",
        "street": "Rua Eugenio Menegazzo",
        "zipcode": "89564-152"
    },
    {
        "city": "Videira",
        "state": "SC",
        "district": "Matriz",
        "street": "Rua Geovani Crestani",
        "zipcode": "89560-262"
    },
    {
        "city": "Videira",
        "state": "SC",
        "district": "Sesi",
        "street": "Rua Ernesto Pontin",
        "zipcode": "89564-235"
    },
    {
        "city": "Videira",
        "state": "SC",
        "district": "Universitário",
        "street": "Rua Estanislau Croll",
        "zipcode": "89566-100"
    },
    {
        "city": "Videira",
        "state": "SC",
        "district": "Alvorada",
        "street": "Rua Fiorindo Pires",
        "zipcode": "89562-034"
    },
    {
        "city": "Videira",
        "state": "SC",
        "district": "Cibrazém",
        "street": "Rua Eugenio Fantin",
        "zipcode": "89564-006"
    },
    {
        "city": "Videira",
        "state": "SC",
        "district": "Universitário",
        "street": "Rua Gustavo Beims",
        "zipcode": "89566-110"
    },
    {
        "city": "Videira",
        "state": "SC",
        "district": "Cidade Alta",
        "street": "Rua Geroni Posanske",
        "zipcode": "89567-095"
    },
    {
        "city": "Videira",
        "state": "SC",
        "district": "Universitário",
        "street": "Rua Genelvira Turkot Ragadali",
        "zipcode": "89566-264"
    },
    {
        "city": "Videira",
        "state": "SC",
        "district": "Farroupilha",
        "street": "Rua Farroupilha",
        "zipcode": "89560-504"
    },
    {
        "city": "Videira",
        "state": "SC",
        "district": "Amarante",
        "street": "Rua Geraldo Grazziotin",
        "zipcode": "89566-474"
    },
    {
        "city": "Videira",
        "state": "SC",
        "district": "Farroupilha",
        "street": "Rua Farroupilha",
        "zipcode": "89561-130"
    },
    {
        "city": "Videira",
        "state": "SC",
        "district": "Farroupilha",
        "street": "Rua Fernando Machado",
        "zipcode": "89560-492"
    },
    {
        "city": "Videira",
        "state": "SC",
        "district": "São Cristovão",
        "street": "Rua Frei Rogério",
        "zipcode": "89562-056"
    },
    {
        "city": "Videira",
        "state": "SC",
        "district": "Vila de Carli",
        "street": "Rua Ernesto Zortea",
        "zipcode": "89564-458"
    },
    {
        "city": "Videira",
        "state": "SC",
        "district": "Alvorada",
        "street": "Rua Fernando Eggers",
        "zipcode": "89562-006"
    },
    {
        "city": "Videira",
        "state": "SC",
        "district": "Nossa Senhora Aparecida",
        "street": "Rua Francisco Rodrigues de Lima",
        "zipcode": "89562-788"
    },
    {
        "city": "Videira",
        "state": "SC",
        "district": "Cidade Alta",
        "street": "Rua Gaudêncio Ferlin",
        "zipcode": "89567-065"
    },
    {
        "city": "Videira",
        "state": "SC",
        "district": "Rio das Pedras",
        "street": "Rua Honório Alves de Góis",
        "zipcode": "89563-264"
    },
    {
        "city": "Videira",
        "state": "SC",
        "district": "Universitário",
        "street": "Rua Ismael Saorin",
        "zipcode": "89566-260"
    },
    {
        "city": "Videira",
        "state": "SC",
        "district": "Carelli",
        "street": "Rua Ivo Rostirolla",
        "zipcode": "89566-746"
    },
    {
        "city": "Videira",
        "state": "SC",
        "district": "Cidade Alta",
        "street": "Rua Irio Relon",
        "zipcode": "89567-018"
    },
    {
        "city": "Videira",
        "state": "SC",
        "district": "Santa Tereza",
        "street": "Rua João Carlos Trentin",
        "zipcode": "89560-400"
    },
    {
        "city": "Videira",
        "state": "SC",
        "district": "Amarante",
        "street": "Rua Henrique Goldbach",
        "zipcode": "89566-410"
    },
    {
        "city": "Videira",
        "state": "SC",
        "district": "São Francisco",
        "street": "Rua Joaquim das Neves Vicente Bartolomeu",
        "zipcode": "89565-220"
    },
    {
        "city": "Videira",
        "state": "SC",
        "district": "Farroupilha",
        "street": "Rua José André Baroncelo",
        "zipcode": "89560-500"
    },
    {
        "city": "Videira",
        "state": "SC",
        "district": "Santos Dumont",
        "street": "Rua João Novello",
        "zipcode": "89561-146"
    },
    {
        "city": "Videira",
        "state": "SC",
        "district": "Cetrevi",
        "street": "Rua Hettore Andreazza",
        "zipcode": "89567-494"
    },
    {
        "city": "Videira",
        "state": "SC",
        "district": "Santa Lucia",
        "street": "Rua João Luis de Barros",
        "zipcode": "89565-532"
    },
    {
        "city": "Videira",
        "state": "SC",
        "district": "Floresta",
        "street": "Rua Iomerê",
        "zipcode": "89560-029"
    },
    {
        "city": "Videira",
        "state": "SC",
        "district": "Campo Experimental",
        "street": "Rua Igildo Canever",
        "zipcode": "89564-552"
    },
    {
        "city": "Videira",
        "state": "SC",
        "district": "Dois Pinheiros",
        "street": "Rua Jacob Gaio",
        "zipcode": "89562-180"
    },
    {
        "city": "Videira",
        "state": "SC",
        "district": "Campo Experimental",
        "street": "Rua João Zardo",
        "zipcode": "89564-498"
    },
    {
        "city": "Videira",
        "state": "SC",
        "district": "Santos Dumont",
        "street": "Rua Jacques Vachi",
        "zipcode": "89561-144"
    },
    {
        "city": "Videira",
        "state": "SC",
        "district": "Santa Gema",
        "street": "Rua Ida Robaskewicz",
        "zipcode": "89567-238"
    },
    {
        "city": "Videira",
        "state": "SC",
        "district": "Alvorada",
        "street": "Rua Ilse Ragadalli",
        "zipcode": "89562-012"
    },
    {
        "city": "Videira",
        "state": "SC",
        "district": "Panazzolo",
        "street": "Rua Irmã Concília",
        "zipcode": "89566-068"
    },
    {
        "city": "Videira",
        "state": "SC",
        "district": "Marafon",
        "street": "Rua José Boiteux",
        "zipcode": "89560-436"
    },
    {
        "city": "Videira",
        "state": "SC",
        "district": "Vila Verde",
        "street": "Rua João Zardo",
        "zipcode": "89564-422"
    },
    {
        "city": "Videira",
        "state": "SC",
        "district": "São Cristovão",
        "street": "Rua José Anciutti",
        "zipcode": "89562-080"
    },
    {
        "city": "Videira",
        "state": "SC",
        "district": "Santa Tereza",
        "street": "Rua João Mario Castilho",
        "zipcode": "89560-304"
    },
    {
        "city": "Videira",
        "state": "SC",
        "district": "Floresta",
        "street": "Rua Joaquim Moreira dos Santos",
        "zipcode": "89560-017"
    },
    {
        "city": "Videira",
        "state": "SC",
        "district": "Cidade Alta",
        "street": "Rua Jadir A Dalle Cort",
        "zipcode": "89567-074"
    },
    {
        "city": "Videira",
        "state": "SC",
        "district": "Rio das Pedras",
        "street": "Rua João Ribeiro de Deus",
        "zipcode": "89563-444"
    },
    {
        "city": "Videira",
        "state": "SC",
        "district": "Alvorada",
        "street": "Rua João Zardo",
        "zipcode": "89562-004"
    },
    {
        "city": "Videira",
        "state": "SC",
        "district": "Universitário",
        "street": "Rua João Nardi",
        "zipcode": "89566-084"
    },
    {
        "city": "Videira",
        "state": "SC",
        "district": "Farroupilha",
        "street": "Rua Hettore Bonaldo",
        "zipcode": "89560-552"
    },
    {
        "city": "Videira",
        "state": "SC",
        "district": "Centro",
        "street": "Rua Iomerê",
        "zipcode": "89560-102"
    },
    {
        "city": "Videira",
        "state": "SC",
        "district": "Alvorada",
        "street": "Rua João Contini",
        "zipcode": "89562-018"
    },
    {
        "city": "Videira",
        "state": "SC",
        "district": "Campo Experimental",
        "street": "Rua João Bogoni",
        "zipcode": "89564-490"
    },
    {
        "city": "Videira",
        "state": "SC",
        "district": "Sesi",
        "street": "Rua Joana Pivan Menegola",
        "zipcode": "89564-358"
    },
    {
        "city": "Videira",
        "state": "SC",
        "district": "Portal das Videiras",
        "street": "Rua Henry Gazzi",
        "zipcode": "89562-404"
    },
    {
        "city": "Videira",
        "state": "SC",
        "district": "Amarante",
        "street": "Rua Henrique Sebben",
        "zipcode": "89566-492"
    },
    {
        "city": "Videira",
        "state": "SC",
        "district": "Nossa Senhora Aparecida",
        "street": "Rua Humberto Bom",
        "zipcode": "89562-849"
    },
    {
        "city": "Videira",
        "state": "SC",
        "district": "Morada do Sol",
        "street": "Rua Irio Zardo",
        "zipcode": "89562-726"
    },
    {
        "city": "Videira",
        "state": "SC",
        "district": "Centro",
        "street": "Rua Iomerê",
        "zipcode": "89560-106"
    },
    {
        "city": "Videira",
        "state": "SC",
        "district": "Floresta",
        "street": "Rua João Pelissaro",
        "zipcode": "89560-015"
    },
    {
        "city": "Videira",
        "state": "SC",
        "district": "Panazzolo",
        "street": "Rua Joaçaba",
        "zipcode": "89566-010"
    },
    {
        "city": "Videira",
        "state": "SC",
        "district": "Cidade Alta",
        "street": "Rua João Machienavie",
        "zipcode": "89567-096"
    },
    {
        "city": "Videira",
        "state": "SC",
        "district": "Marafon",
        "street": "Rua Jacques Vachi",
        "zipcode": "89560-472"
    },
    {
        "city": "Videira",
        "state": "SC",
        "district": "Morada do Sol",
        "street": "Rua João Casagrande",
        "zipcode": "89562-714"
    },
    {
        "city": "Videira",
        "state": "SC",
        "district": "Aeroporto",
        "street": "Rua João Fávero",
        "zipcode": "89560-422"
    },
    {
        "city": "Videira",
        "state": "SC",
        "district": "Cidade Alta",
        "street": "Rua João Degenhart",
        "zipcode": "89567-082"
    },
    {
        "city": "Videira",
        "state": "SC",
        "district": "Cidade Alta",
        "street": "Rua João Mena Cardoso",
        "zipcode": "89567-072"
    },
    {
        "city": "Videira",
        "state": "SC",
        "district": "Cibrazém",
        "street": "Rua Ivo Lang",
        "zipcode": "89564-010"
    },
    {
        "city": "Videira",
        "state": "SC",
        "district": "Floresta",
        "street": "Rua Iomerê",
        "zipcode": "89560-031"
    },
    {
        "city": "Videira",
        "state": "SC",
        "district": "Cidade Alta",
        "street": "Rua Ivete Vescovi Drechmer",
        "zipcode": "89566-882"
    },
    {
        "city": "Videira",
        "state": "SC",
        "district": "Rio das Pedras",
        "street": "Rua Irene Benedetti",
        "zipcode": "89563-434"
    },
    {
        "city": "Videira",
        "state": "SC",
        "district": "São Cristovão",
        "street": "Rua Jaçanã",
        "zipcode": "89562-110"
    },
    {
        "city": "Videira",
        "state": "SC",
        "district": "Santa Lucia",
        "street": "Rua Italino Rostirolla",
        "zipcode": "89565-526"
    },
    {
        "city": "Videira",
        "state": "SC",
        "district": "Santos Dumont",
        "street": "Rua Jorge Claudino Lima",
        "zipcode": "89561-158"
    },
    {
        "city": "Videira",
        "state": "SC",
        "district": "Cibrazém",
        "street": "Rua Ibicaré",
        "zipcode": "89564-060"
    },
    {
        "city": "Videira",
        "state": "SC",
        "district": "Centro",
        "street": "Rua Herman Kolberg",
        "zipcode": "89560-080"
    },
    {
        "city": "Videira",
        "state": "SC",
        "district": "Vila de Carli",
        "street": "Rua João Zitterell",
        "zipcode": "89564-454"
    },
    {
        "city": "Videira",
        "state": "SC",
        "district": "Cibrazém",
        "street": "Rua Jose Feiten Junior",
        "zipcode": "89564-074"
    },
    {
        "city": "Videira",
        "state": "SC",
        "district": "Carboni",
        "street": "Rua Lauro Weissheimer",
        "zipcode": "89566-830"
    },
    {
        "city": "Videira",
        "state": "SC",
        "district": "Farroupilha",
        "street": "Rua Júlio Rostirola",
        "zipcode": "89560-832"
    },
    {
        "city": "Videira",
        "state": "SC",
        "district": "Santa Tereza",
        "street": "Rua José Doro",
        "zipcode": "89560-372"
    },
    {
        "city": "Videira",
        "state": "SC",
        "district": "Santos Dumont",
        "street": "Rua José Mendes dos Santos",
        "zipcode": "89561-168"
    },
    {
        "city": "Videira",
        "state": "SC",
        "district": "Floresta",
        "street": "Rua Luiz Argenta",
        "zipcode": "89560-003"
    },
    {
        "city": "Videira",
        "state": "SC",
        "district": "Cibrazém",
        "street": "Rua Leonel de Moura Brizzola",
        "zipcode": "89564-004"
    },
    {
        "city": "Videira",
        "state": "SC",
        "district": "Panazzolo",
        "street": "Rua José Olivotto",
        "zipcode": "89566-064"
    },
    {
        "city": "Videira",
        "state": "SC",
        "district": "Morada do Sol",
        "street": "Rua Julieta Beduschi",
        "zipcode": "89562-710"
    },
    {
        "city": "Videira",
        "state": "SC",
        "district": "Universitário",
        "street": "Rua Luis Carlos Machienavie",
        "zipcode": "89566-176"
    },
    {
        "city": "Videira",
        "state": "SC",
        "district": "Sesi",
        "street": "Rua Luiz Kellermann",
        "zipcode": "89564-344"
    },
    {
        "city": "Videira",
        "state": "SC",
        "district": "Universitário",
        "street": "Rua Léo Zieratzki",
        "zipcode": "89566-302"
    },
    {
        "city": "Videira",
        "state": "SC",
        "district": "Santa Gema",
        "street": "Rua Josefina Sommer",
        "zipcode": "89567-240"
    },
    {
        "city": "Videira",
        "state": "SC",
        "district": "Floresta",
        "street": "Rua Luiz Argenta",
        "zipcode": "89560-001"
    },
    {
        "city": "Videira",
        "state": "SC",
        "district": "Santa Lucia",
        "street": "Rua José Crotti",
        "zipcode": "89565-518"
    },
    {
        "city": "Videira",
        "state": "SC",
        "district": "Sesi",
        "street": "Rua Lindóia",
        "zipcode": "89564-280"
    },
    {
        "city": "Videira",
        "state": "SC",
        "district": "Centro",
        "street": "Rua Lauro Müller",
        "zipcode": "89560-214"
    },
    {
        "city": "Videira",
        "state": "SC",
        "district": "Rio das Pedras",
        "street": "Rua Luis Cattani",
        "zipcode": "89563-544"
    },
    {
        "city": "Videira",
        "state": "SC",
        "district": "Rio das Pedras",
        "street": "Rua Madalena Rostirolla",
        "zipcode": "89563-278"
    },
    {
        "city": "Videira",
        "state": "SC",
        "district": "Vila de Carli",
        "street": "Rua Luiz Strapazzon",
        "zipcode": "89564-464"
    },
    {
        "city": "Videira",
        "state": "SC",
        "district": "Santa Tereza",
        "street": "Rua José Domingos Francio",
        "zipcode": "89560-292"
    },
    {
        "city": "Videira",
        "state": "SC",
        "district": "Farroupilha",
        "street": "Rua José Dal Pizzol",
        "zipcode": "89560-558"
    },
    {
        "city": "Videira",
        "state": "SC",
        "district": "Vila de Carli",
        "street": "Rua Luiz Antônio Morgan",
        "zipcode": "89564-444"
    },
    {
        "city": "Videira",
        "state": "SC",
        "district": "São Cristovão",
        "street": "Rua Josefina Henn",
        "zipcode": "89562-068"
    },
    {
        "city": "Videira",
        "state": "SC",
        "district": "Amarante",
        "street": "Rua Lucila Aparecida Ribeiro",
        "zipcode": "89566-472"
    },
    {
        "city": "Videira",
        "state": "SC",
        "district": "Alvorada",
        "street": "Rua José Formiguieri",
        "zipcode": "89562-008"
    },
    {
        "city": "Videira",
        "state": "SC",
        "district": "Floresta",
        "street": "Rua Maraba",
        "zipcode": "89560-019"
    },
    {
        "city": "Videira",
        "state": "SC",
        "district": "Vila de Carli",
        "street": "Rua Luis Abitante",
        "zipcode": "89564-466"
    },
    {
        "city": "Videira",
        "state": "SC",
        "district": "Cetrevi",
        "street": "Rua Luiz Viecelli",
        "zipcode": "89567-430"
    },
    {
        "city": "Videira",
        "state": "SC",
        "district": "Panazzolo",
        "street": "Rua Luiz Argenta",
        "zipcode": "89566-066"
    },
    {
        "city": "Videira",
        "state": "SC",
        "district": "Sesi",
        "street": "Rua Luiz Menegola",
        "zipcode": "89564-360"
    },
    {
        "city": "Videira",
        "state": "SC",
        "district": "Cibrazém",
        "street": "Rua José Ferreira da Silva",
        "zipcode": "89564-072"
    },
    {
        "city": "Videira",
        "state": "SC",
        "district": "Centro",
        "street": "Rua Lauro Müller",
        "zipcode": "89560-218"
    },
    {
        "city": "Videira",
        "state": "SC",
        "district": "Vila Verde",
        "street": "Rua Lino Valentini",
        "zipcode": "89564-394"
    },
    {
        "city": "Videira",
        "state": "SC",
        "district": "São Francisco",
        "street": "Rua Lagoa das Lágrimas",
        "zipcode": "89565-166"
    },
    {
        "city": "Videira",
        "state": "SC",
        "district": "Farroupilha",
        "street": "Rua José Chaves",
        "zipcode": "89560-514"
    },
    {
        "city": "Videira",
        "state": "SC",
        "district": "Portal das Videiras",
        "street": "Rua Lucina Colle Cantú",
        "zipcode": "89562-396"
    },
    {
        "city": "Videira",
        "state": "SC",
        "district": "Rio das Pedras",
        "street": "Rua Luiz Locatelli",
        "zipcode": "89563-404"
    },
    {
        "city": "Videira",
        "state": "SC",
        "district": "Universitário",
        "street": "Rua Júlio Mayer",
        "zipcode": "89566-312"
    },
    {
        "city": "Videira",
        "state": "SC",
        "district": "Cetrevi",
        "street": "Rua Luiz Orlando Finger",
        "zipcode": "89567-484"
    },
    {
        "city": "Videira",
        "state": "SC",
        "district": "Santa Gema",
        "street": "Rua Maranhão",
        "zipcode": "89567-362"
    },
    {
        "city": "Videira",
        "state": "SC",
        "district": "Santos Dumont",
        "street": "Rua José Lazzari",
        "zipcode": "89561-152"
    },
    {
        "city": "Videira",
        "state": "SC",
        "district": "Matriz",
        "street": "Rua Juvelino Pires Curuca",
        "zipcode": "89560-254"
    },
    {
        "city": "Videira",
        "state": "SC",
        "district": "São Francisco",
        "street": "Rua Julieta Verza Horn",
        "zipcode": "89565-272"
    },
    {
        "city": "Videira",
        "state": "SC",
        "district": "Centro",
        "street": "Rua Marechal Floriano Peixoto",
        "zipcode": "89560-110"
    },
    {
        "city": "Videira",
        "state": "SC",
        "district": "Cidade Alta",
        "street": "Rua Luiz Mezaroba",
        "zipcode": "89567-090"
    },
    {
        "city": "Videira",
        "state": "SC",
        "district": "Rio das Pedras",
        "street": "Rua Lebon Régis",
        "zipcode": "89563-528"
    },
    {
        "city": "Videira",
        "state": "SC",
        "district": "Santa Gema",
        "street": "Rua Luiz Viecelli",
        "zipcode": "89567-320"
    },
    {
        "city": "Videira",
        "state": "SC",
        "district": "Carelli",
        "street": "Rua Marculino Brunetta",
        "zipcode": "89566-744"
    },
    {
        "city": "Videira",
        "state": "SC",
        "district": "Floresta",
        "street": "Rua José Petry",
        "zipcode": "89560-049"
    },
    {
        "city": "Videira",
        "state": "SC",
        "district": "Sesi",
        "street": "Rua Jundiaí",
        "zipcode": "89564-334"
    },
    {
        "city": "Videira",
        "state": "SC",
        "district": "São Cristovão",
        "street": "Rua Leoberto Leal",
        "zipcode": "89562-078"
    },
    {
        "city": "Videira",
        "state": "SC",
        "district": "Alvorada",
        "street": "Rua Lauro Müller",
        "zipcode": "89562-014"
    },
    {
        "city": "Videira",
        "state": "SC",
        "district": "Matriz",
        "street": "Rua Juvelino Pires Curuca",
        "zipcode": "89560-252"
    },
    {
        "city": "Videira",
        "state": "SC",
        "district": "Morada do Sol",
        "street": "Rua Luiz Bom",
        "zipcode": "89562-704"
    },
    {
        "city": "Videira",
        "state": "SC",
        "district": "Cidade Alta",
        "street": "Rua Londrina",
        "zipcode": "89567-012"
    },
    {
        "city": "Videira",
        "state": "SC",
        "district": "Santos Dumont",
        "street": "Rua Luiz Domingos Guzzi",
        "zipcode": "89561-162"
    },
    {
        "city": "Videira",
        "state": "SC",
        "district": "Santa Gema",
        "street": "Rua Maria Gemelli Batisttela",
        "zipcode": "89567-332"
    },
    {
        "city": "Videira",
        "state": "SC",
        "district": "São Cristovão",
        "street": "Rua Otilia Kroeff",
        "zipcode": "89562-064"
    },
    {
        "city": "Videira",
        "state": "SC",
        "district": "Centro",
        "street": "Rua Padre Fidélis",
        "zipcode": "89560-178"
    },
    {
        "city": "Videira",
        "state": "SC",
        "district": "Floresta",
        "street": "Rua Padres Salvatorianos",
        "zipcode": "89560-072"
    },
    {
        "city": "Videira",
        "state": "SC",
        "district": "São Francisco",
        "street": "Rua Maximino Ferlin",
        "zipcode": "89565-276"
    },
    {
        "city": "Videira",
        "state": "SC",
        "district": "Cidade Alta",
        "street": "Rua Osvaldir Ruzicky",
        "zipcode": "89567-060"
    },
    {
        "city": "Videira",
        "state": "SC",
        "district": "Amarante",
        "street": "Rua Mirian Santana",
        "zipcode": "89566-468"
    },
    {
        "city": "Videira",
        "state": "SC",
        "district": "Santa Lucia",
        "street": "Rua Margarida Maróstica Testolin",
        "zipcode": "89565-512"
    },
    {
        "city": "Videira",
        "state": "SC",
        "district": "Universitário",
        "street": "Rua Paese",
        "zipcode": "89566-252"
    },
    {
        "city": "Videira",
        "state": "SC",
        "district": "Rio das Pedras",
        "street": "Rua Martina Rosa Gonzatti Baroncello",
        "zipcode": "89563-272"
    },
    {
        "city": "Videira",
        "state": "SC",
        "district": "Vila Verde",
        "street": "Rua Nelsiro Caregnato",
        "zipcode": "89564-392"
    },
    {
        "city": "Videira",
        "state": "SC",
        "district": "Centro",
        "street": "Rua Padre Anchieta",
        "zipcode": "89560-190"
    },
    {
        "city": "Videira",
        "state": "SC",
        "district": "Cibrazém",
        "street": "Rua Onélio Antonio Dallposso",
        "zipcode": "89564-078"
    },
    {
        "city": "Videira",
        "state": "SC",
        "district": "São Cristovão",
        "street": "Rua Michel Bilous",
        "zipcode": "89562-150"
    },
    {
        "city": "Videira",
        "state": "SC",
        "district": "Marafon",
        "street": "Rua Morro da Fumaça",
        "zipcode": "89560-446"
    },
    {
        "city": "Videira",
        "state": "SC",
        "district": "Universitário",
        "street": "Rua Max Enz",
        "zipcode": "89566-306"
    },
    {
        "city": "Videira",
        "state": "SC",
        "district": "Farroupilha",
        "street": "Rua Pedro Dall Pizzol Senior",
        "zipcode": "89560-546"
    },
    {
        "city": "Videira",
        "state": "SC",
        "district": "Sesi",
        "street": "Rua Otto Alfredo Muhlbrandt",
        "zipcode": "89564-256"
    },
    {
        "city": "Videira",
        "state": "SC",
        "district": "Farroupilha",
        "street": "Rua Nicolau Cavon",
        "zipcode": "89560-506"
    },
    {
        "city": "Videira",
        "state": "SC",
        "district": "Matriz",
        "street": "Rua Padre Anchieta",
        "zipcode": "89560-250"
    },
    {
        "city": "Videira",
        "state": "SC",
        "district": "Centro",
        "street": "Rua Nestor Fernandes",
        "zipcode": "89560-206"
    },
    {
        "city": "Videira",
        "state": "SC",
        "district": "Farroupilha",
        "street": "Rua Osvaldo Crivilatti",
        "zipcode": "89560-834"
    },
    {
        "city": "Videira",
        "state": "SC",
        "district": "Vila Verde",
        "street": "Rua Maria Dalazém",
        "zipcode": "89564-402"
    },
    {
        "city": "Videira",
        "state": "SC",
        "district": "Portal das Videiras",
        "street": "Rua Maria Celia Brandalise Braga",
        "zipcode": "89562-400"
    },
    {
        "city": "Videira",
        "state": "SC",
        "district": "São Francisco",
        "street": "Rua Michel Bilous",
        "zipcode": "89565-274"
    },
    {
        "city": "Videira",
        "state": "SC",
        "district": "Santa Gema",
        "street": "Rua Nair Gemelli Bonetto",
        "zipcode": "89567-338"
    },
    {
        "city": "Videira",
        "state": "SC",
        "district": "Nossa Senhora Aparecida",
        "street": "Rua Maria Vanz",
        "zipcode": "89563-105"
    },
    {
        "city": "Videira",
        "state": "SC",
        "district": "Panazzolo",
        "street": "Rua Paraná",
        "zipcode": "89566-004"
    },
    {
        "city": "Videira",
        "state": "SC",
        "district": "Floresta",
        "street": "Rua Padres Salvatorianos",
        "zipcode": "89560-070"
    },
    {
        "city": "Videira",
        "state": "SC",
        "district": "São Francisco",
        "street": "Rua Miguel Jacob",
        "zipcode": "89565-282"
    },
    {
        "city": "Videira",
        "state": "SC",
        "district": "São Francisco",
        "street": "Rua Maria Ferlin Vanz",
        "zipcode": "89565-224"
    },
    {
        "city": "Videira",
        "state": "SC",
        "district": "Vila de Carli",
        "street": "Rua Nossa Senhora da Saúde",
        "zipcode": "89564-452"
    },
    {
        "city": "Videira",
        "state": "SC",
        "district": "Cetrevi",
        "street": "Rua Maria Sinzker",
        "zipcode": "89567-472"
    },
    {
        "city": "Videira",
        "state": "SC",
        "district": "Santos Dumont",
        "street": "Rua Otto Koeller",
        "zipcode": "89561-150"
    },
    {
        "city": "Videira",
        "state": "SC",
        "district": "Centro",
        "street": "Rua Nicolau Cavon",
        "zipcode": "89560-136"
    },
    {
        "city": "Videira",
        "state": "SC",
        "district": "Universitário",
        "street": "Rua Maria Locatelli Paese",
        "zipcode": "89566-180"
    },
    {
        "city": "Videira",
        "state": "SC",
        "district": "Nossa Senhora Aparecida",
        "street": "Rua Marlene Weber Santi",
        "zipcode": "89562-776"
    },
    {
        "city": "Videira",
        "state": "SC",
        "district": "Marafon",
        "street": "Rua Osvaldo Cruz",
        "zipcode": "89560-484"
    },
    {
        "city": "Videira",
        "state": "SC",
        "district": "Santa Tereza",
        "street": "Rua Maria Titton",
        "zipcode": "89560-322"
    },
    {
        "city": "Videira",
        "state": "SC",
        "district": "Centro",
        "street": "Rua Pedro Andreazza",
        "zipcode": "89560-970"
    },
    {
        "city": "Videira",
        "state": "SC",
        "district": "Matriz",
        "street": "Rua Maria Grazziotin",
        "zipcode": "89560-282"
    },
    {
        "city": "Videira",
        "state": "SC",
        "district": "Cetrevi",
        "street": "Rua Pedro Dalmolin",
        "zipcode": "89567-482"
    },
    {
        "city": "Videira",
        "state": "SC",
        "district": "Centro",
        "street": "Rua Marechal Floriano Peixoto",
        "zipcode": "89560-120"
    },
    {
        "city": "Videira",
        "state": "SC",
        "district": "Centro",
        "street": "Rua Pedro Andreazza",
        "zipcode": "89560-200"
    },
    {
        "city": "Videira",
        "state": "SC",
        "district": "Santa Tereza",
        "street": "Rua Paulo Gheller",
        "zipcode": "89560-302"
    },
    {
        "city": "Videira",
        "state": "SC",
        "district": "Cibrazém",
        "street": "Rua Paulo Ermínio Canani",
        "zipcode": "89564-064"
    },
    {
        "city": "Videira",
        "state": "SC",
        "district": "São Cristovão",
        "street": "Rua Padre Anchieta",
        "zipcode": "89562-116"
    },
    {
        "city": "Videira",
        "state": "SC",
        "district": "Farroupilha",
        "street": "Rua Osvaldo Cruz",
        "zipcode": "89560-490"
    },
    {
        "city": "Videira",
        "state": "SC",
        "district": "Floresta",
        "street": "Rua Pedrinho Maurina",
        "zipcode": "89560-037"
    },
    {
        "city": "Videira",
        "state": "SC",
        "district": "Dois Pinheiros",
        "street": "Rua Paulo Ogliari",
        "zipcode": "89562-186"
    },
    {
        "city": "Videira",
        "state": "SC",
        "district": "Portal das Videiras",
        "street": "Rua Nilton Cantú",
        "zipcode": "89562-406"
    },
    {
        "city": "Videira",
        "state": "SC",
        "district": "Santa Tereza",
        "street": "Rua Odenir Oseas Seemann",
        "zipcode": "89560-318"
    },
    {
        "city": "Videira",
        "state": "SC",
        "district": "Portal das Videiras",
        "street": "Rua Neli Catarina Lourenço Gazzi",
        "zipcode": "89562-442"
    },
    {
        "city": "Videira",
        "state": "SC",
        "district": "Santa Lucia",
        "street": "Rua Natalino Rostirolla",
        "zipcode": "89565-530"
    },
    {
        "city": "Videira",
        "state": "SC",
        "district": "São Cristovão",
        "street": "Rua Nossa Senhora de Lourdes",
        "zipcode": "89562-128"
    },
    {
        "city": "Videira",
        "state": "SC",
        "district": "Amarante",
        "street": "Rua Maurien Amarante",
        "zipcode": "89566-464"
    },
    {
        "city": "Videira",
        "state": "SC",
        "district": "Sesi",
        "street": "Rua Ribeirão Preto",
        "zipcode": "89564-336"
    },
    {
        "city": "Videira",
        "state": "SC",
        "district": "Cibrazém",
        "street": "Rua Sérgio Albiero",
        "zipcode": "89564-084"
    },
    {
        "city": "Videira",
        "state": "SC",
        "district": "Campo Experimental",
        "street": "Rua Pedro Lira",
        "zipcode": "89564-554"
    },
    {
        "city": "Videira",
        "state": "SC",
        "district": "Centro",
        "street": "Rua Saul Brandalise",
        "zipcode": "89560-162"
    },
    {
        "city": "Videira",
        "state": "SC",
        "district": "Panazzolo",
        "street": "Rua Rodolfo Lang",
        "zipcode": "89566-070"
    },
    {
        "city": "Videira",
        "state": "SC",
        "district": "Centro",
        "street": "Rua Saul Brandalise",
        "zipcode": "89560-196"
    },
    {
        "city": "Videira",
        "state": "SC",
        "district": "Santa Tereza",
        "street": "Rua Saul Brandalise",
        "zipcode": "89560-290"
    },
    {
        "city": "Videira",
        "state": "SC",
        "district": "Santa Gema",
        "street": "Rua São Paulo",
        "zipcode": "89567-354"
    },
    {
        "city": "Videira",
        "state": "SC",
        "district": "São Francisco",
        "street": "Rua São Francisco de Assis",
        "zipcode": "89565-164"
    },
    {
        "city": "Videira",
        "state": "SC",
        "district": "São Cristovão",
        "street": "Rua São José",
        "zipcode": "89562-052"
    },
    {
        "city": "Videira",
        "state": "SC",
        "district": "Centro",
        "street": "Rua Santa Catarina",
        "zipcode": "89560-112"
    },
    {
        "city": "Videira",
        "state": "SC",
        "district": "Amarante",
        "street": "Rua Serafim Fortunato Tedesco",
        "zipcode": "89566-484"
    },
    {
        "city": "Videira",
        "state": "SC",
        "district": "Sesi",
        "street": "Rua Ricardo Brandalise",
        "zipcode": "89564-223"
    },
    {
        "city": "Videira",
        "state": "SC",
        "district": "Cetrevi",
        "street": "Rua Raymundo Formighieri",
        "zipcode": "89567-488"
    },
    {
        "city": "Videira",
        "state": "SC",
        "district": "Cibrazém",
        "street": "Rua Presidente Castelo Branco",
        "zipcode": "89564-001"
    },
    {
        "city": "Videira",
        "state": "SC",
        "district": "Sesi",
        "street": "Rua Serra Negra",
        "zipcode": "89564-332"
    },
    {
        "city": "Videira",
        "state": "SC",
        "district": "Oficina",
        "street": "Rua Santa Maria",
        "zipcode": "89565-070"
    },
    {
        "city": "Videira",
        "state": "SC",
        "district": "Dois Pinheiros",
        "street": "Rua Severino Fávero",
        "zipcode": "89562-212"
    },
    {
        "city": "Videira",
        "state": "SC",
        "district": "Aeroporto",
        "street": "Rua Pierina Brolese",
        "zipcode": "89560-414"
    },
    {
        "city": "Videira",
        "state": "SC",
        "district": "Vila de Carli",
        "street": "Rua Rosálio Bogoni",
        "zipcode": "89564-438"
    },
    {
        "city": "Videira",
        "state": "SC",
        "district": "Cibrazém",
        "street": "Rua Ricardo Brandalise",
        "zipcode": "89564-150"
    },
    {
        "city": "Videira",
        "state": "SC",
        "district": "Rio das Pedras",
        "street": "Rua Sebastião Ribeiro de Deus",
        "zipcode": "89563-260"
    },
    {
        "city": "Videira",
        "state": "SC",
        "district": "São Francisco",
        "street": "Rua Princesa Isabel",
        "zipcode": "89565-168"
    },
    {
        "city": "Videira",
        "state": "SC",
        "district": "Universitário",
        "street": "Rua Severino Vitório Paese",
        "zipcode": "89566-182"
    },
    {
        "city": "Videira",
        "state": "SC",
        "district": "Rio das Pedras",
        "street": "Rua Recife",
        "zipcode": "89563-450"
    },
    {
        "city": "Videira",
        "state": "SC",
        "district": "Santa Lucia",
        "street": "Rua Severino Oltramari",
        "zipcode": "89565-536"
    },
    {
        "city": "Videira",
        "state": "SC",
        "district": "São Cristovão",
        "street": "Rua Rosário",
        "zipcode": "89562-122"
    },
    {
        "city": "Videira",
        "state": "SC",
        "district": "Amarante",
        "street": "Rua Professor Joaquim Amarante",
        "zipcode": "89566-482"
    },
    {
        "city": "Videira",
        "state": "SC",
        "district": "Dois Pinheiros",
        "street": "Rua Pinheiros",
        "zipcode": "89562-166"
    },
    {
        "city": "Videira",
        "state": "SC",
        "district": "São Cristovão",
        "street": "Rua Sabiá",
        "zipcode": "89562-112"
    },
    {
        "city": "Videira",
        "state": "SC",
        "district": "Sesi",
        "street": "Rua Rio Claro",
        "zipcode": "89564-338"
    },
    {
        "city": "Videira",
        "state": "SC",
        "district": "Sesi",
        "street": "Rua Ricardo Demeneck",
        "zipcode": "89564-241"
    },
    {
        "city": "Videira",
        "state": "SC",
        "district": "Santos Dumont",
        "street": "Rua Santa Isabel",
        "zipcode": "89561-166"
    },
    {
        "city": "Videira",
        "state": "SC",
        "district": "Morada do Sol",
        "street": "Rua Rosa L Gaio",
        "zipcode": "89562-702"
    },
    {
        "city": "Videira",
        "state": "SC",
        "district": "Vila Verde",
        "street": "Rua Rutier Ankoski",
        "zipcode": "89564-414"
    },
    {
        "city": "Videira",
        "state": "SC",
        "district": "Portal das Videiras",
        "street": "Rua Rubi Nelson Skalee",
        "zipcode": "89562-398"
    },
    {
        "city": "Videira",
        "state": "SC",
        "district": "Dois Pinheiros",
        "street": "Rua Saul Brandalise",
        "zipcode": "89562-184"
    },
    {
        "city": "Videira",
        "state": "SC",
        "district": "Rio das Pedras",
        "street": "Rua Pedro Grazziotin",
        "zipcode": "89563-268"
    },
    {
        "city": "Videira",
        "state": "SC",
        "district": "Santa Lucia",
        "street": "Rua Pietro Testolin",
        "zipcode": "89565-516"
    },
    {
        "city": "Videira",
        "state": "SC",
        "district": "Cidade Alta",
        "street": "Rua Setembrino Comunello",
        "zipcode": "89567-070"
    },
    {
        "city": "Videira",
        "state": "SC",
        "district": "Sesi",
        "street": "Rua Pedro Menegolla",
        "zipcode": "89564-354"
    },
    {
        "city": "Videira",
        "state": "SC",
        "district": "Vila Verde",
        "street": "Rua Sônia Kroeff Antunes",
        "zipcode": "89564-408"
    },
    {
        "city": "Videira",
        "state": "SC",
        "district": "Santa Gema",
        "street": "Rua Rio Grande do Sul",
        "zipcode": "89567-360"
    },
    {
        "city": "Videira",
        "state": "SC",
        "district": "Marafon",
        "street": "Rua Simão Bellozupkp",
        "zipcode": "89560-448"
    },
    {
        "city": "Videira",
        "state": "SC",
        "district": "Rio das Pedras",
        "street": "Rua Primo Demeneck",
        "zipcode": "89563-542"
    },
    {
        "city": "Videira",
        "state": "SC",
        "district": "Amarante",
        "street": "Rua Santa Rech Demartini",
        "zipcode": "89566-462"
    },
    {
        "city": "Videira",
        "state": "SC",
        "district": "Centro",
        "street": "Rua Saul Brandalise",
        "zipcode": "89560-170"
    },
    {
        "city": "Videira",
        "state": "SC",
        "district": "São Cristovão",
        "street": "Rua Primavera",
        "zipcode": "89562-124"
    },
    {
        "city": "Videira",
        "state": "SC",
        "district": "Cibrazém",
        "street": "Rua Silvestre Antônio Fantin",
        "zipcode": "89564-008"
    },
    {
        "city": "Videira",
        "state": "SC",
        "district": "Santa Gema",
        "street": "Rua Pernanbuco",
        "zipcode": "89567-328"
    },
    {
        "city": "Videira",
        "state": "SC",
        "district": "Matriz",
        "street": "Rua Pedro Gaio",
        "zipcode": "89560-246"
    },
    {
        "city": "Videira",
        "state": "SC",
        "district": "Universitário",
        "street": "Rua Severino José Pasqual",
        "zipcode": "89566-106"
    },
    {
        "city": "Videira",
        "state": "SC",
        "district": "Vila de Carli",
        "street": "Rua Santa Maria",
        "zipcode": "89564-442"
    },
    {
        "city": "Videira",
        "state": "SC",
        "district": "Rio das Pedras",
        "street": "Rua Rosa Pagnocelli",
        "zipcode": "89563-402"
    },
    {
        "city": "Videira",
        "state": "SC",
        "district": "Campo Experimental",
        "street": "Rua Rosalene Bogoni",
        "zipcode": "89564-484"
    },
    {
        "city": "Videira",
        "state": "SC",
        "district": "Santos Dumont",
        "street": "Rua Raimundo Grazziotin",
        "zipcode": "89561-154"
    },
    {
        "city": "Videira",
        "state": "SC",
        "district": "São Francisco",
        "street": "Rua Santos Dumont",
        "zipcode": "89565-172"
    },
    {
        "city": "Videira",
        "state": "SC",
        "district": "Matriz",
        "street": "Rua Saul Brandalise",
        "zipcode": "89560-286"
    },
    {
        "city": "Videira",
        "state": "SC",
        "district": "Santa Gema",
        "street": "Rua Rio de Janeiro",
        "zipcode": "89567-350"
    },
    {
        "city": "Videira",
        "state": "SC",
        "district": "Panazzolo",
        "street": "Rua Vereador Alberto Gelain",
        "zipcode": "89566-072"
    },
    {
        "city": "Videira",
        "state": "SC",
        "district": "Matriz",
        "street": "Rua Victor Meirelles",
        "zipcode": "89560-238"
    },
    {
        "city": "Videira",
        "state": "SC",
        "district": "Farroupilha",
        "street": "Rua Verde",
        "zipcode": "89560-542"
    },
    {
        "city": "Videira",
        "state": "SC",
        "district": "Matriz",
        "street": "Rua Vereador Luiz Golin",
        "zipcode": "89560-234"
    },
    {
        "city": "Videira",
        "state": "SC",
        "district": "Universitário",
        "street": "Rua Wilson Macedo",
        "zipcode": "89566-268"
    },
    {
        "city": "Videira",
        "state": "SC",
        "district": "Rio das Pedras",
        "street": "Rua Tereza Berto Dóro",
        "zipcode": "89563-274"
    },
    {
        "city": "Videira",
        "state": "SC",
        "district": "Rio das Pedras",
        "street": "Rua Vereador Albino Secchi",
        "zipcode": "89563-524"
    },
    {
        "city": "Videira",
        "state": "SC",
        "district": "Rio das Pedras",
        "street": "Rua Vereador Antônio Breda",
        "zipcode": "89563-432"
    },
    {
        "city": "Videira",
        "state": "SC",
        "district": "Cibrazém",
        "street": "Rua Urbano Zimmermann",
        "zipcode": "89564-068"
    },
    {
        "city": "Videira",
        "state": "SC",
        "district": "Universitário",
        "street": "Rua Vereador Abel Abatti",
        "zipcode": "89566-300"
    },
    {
        "city": "Videira",
        "state": "SC",
        "district": "Farroupilha",
        "street": "Rua Virgínia Bruschi",
        "zipcode": "89560-760"
    },
    {
        "city": "Videira",
        "state": "SC",
        "district": "Oficina",
        "street": "Rua Vereador Serafin Ferronato",
        "zipcode": "89565-088"
    },
    {
        "city": "Videira",
        "state": "SC",
        "district": "Cibrazém",
        "street": "Rua Valdemino Francisco Moresco",
        "zipcode": "89564-062"
    },
    {
        "city": "Videira",
        "state": "SC",
        "district": "Campo Experimental",
        "street": "Rua Valdir Guedes de Freitas",
        "zipcode": "89564-482"
    },
    {
        "city": "Videira",
        "state": "SC",
        "district": "Universitário",
        "street": "Rua Wilmar Caldart",
        "zipcode": "89566-262"
    },
    {
        "city": "Videira",
        "state": "SC",
        "district": "São Cristovão",
        "street": "Rua Vigário Lourenço",
        "zipcode": "89562-058"
    },
    {
        "city": "Videira",
        "state": "SC",
        "district": "Centro",
        "street": "Rua Tiradentes",
        "zipcode": "89560-216"
    },
    {
        "city": "Videira",
        "state": "SC",
        "district": "São Francisco",
        "street": "Rua Vereador Luiz Ferlin",
        "zipcode": "89565-286"
    },
    {
        "city": "Videira",
        "state": "SC",
        "district": "Cidade Alta",
        "street": "Rua Vereador Herinch Arndt",
        "zipcode": "89567-038"
    },
    {
        "city": "Videira",
        "state": "SC",
        "district": "Rio das Pedras",
        "street": "Rua Valter Pereira Dias",
        "zipcode": "89563-442"
    },
    {
        "city": "Videira",
        "state": "SC",
        "district": "Nossa Senhora Aparecida",
        "street": "Rua Vereador Luiz Vaz de Assis",
        "zipcode": "89562-786"
    },
    {
        "city": "Videira",
        "state": "SC",
        "district": "Cibrazém",
        "street": "Rua Vicente Fernandes",
        "zipcode": "89564-112"
    },
    {
        "city": "Videira",
        "state": "SC",
        "district": "Campo Experimental",
        "street": "Rua Vergilio Castoldi",
        "zipcode": "89564-494"
    },
    {
        "city": "Videira",
        "state": "SC",
        "district": "Vila Verde",
        "street": "Rua Vereador José Pereira Duarte",
        "zipcode": "89564-418"
    },
    {
        "city": "Videira",
        "state": "SC",
        "district": "Cetrevi",
        "street": "Rua Vitório Gemelli",
        "zipcode": "89567-480"
    },
    {
        "city": "Videira",
        "state": "SC",
        "district": "Rio das Pedras",
        "street": "Rua Targino Antunes Abrão",
        "zipcode": "89563-396"
    },
    {
        "city": "Videira",
        "state": "SC",
        "district": "Carelli",
        "street": "Rua Vereador Dino Marafon",
        "zipcode": "89566-740"
    },
    {
        "city": "Videira",
        "state": "SC",
        "district": "Dois Pinheiros",
        "street": "Rua Vereador Osvaldo Heusi",
        "zipcode": "89562-188"
    },
    {
        "city": "Videira",
        "state": "SC",
        "district": "Carboni",
        "street": "Rua Urussanga",
        "zipcode": "89566-834"
    },
    {
        "city": "Videira",
        "state": "SC",
        "district": "Vila Verde",
        "street": "Rua Vereador João D Cantú",
        "zipcode": "89564-390"
    },
    {
        "city": "Videira",
        "state": "SC",
        "district": "Panazzolo",
        "street": "Rua Vereador Adolfo F Groth",
        "zipcode": "89566-012"
    },
    {
        "city": "Videira",
        "state": "SC",
        "district": "Rio das Pedras",
        "street": "Rua Vereador Miguel Lopes da Silva",
        "zipcode": "89563-530"
    },
    {
        "city": "Videira",
        "state": "SC",
        "district": "Cidade Alta",
        "street": "Rua Vereador Alfredo Odilon Taborda Ribas",
        "zipcode": "89567-078"
    },
    {
        "city": "Videira",
        "state": "SC",
        "district": "Sesi",
        "street": "Rua Vereador João D Cantú",
        "zipcode": "89564-364"
    },
    {
        "city": "Videira",
        "state": "SC",
        "district": "Sesi",
        "street": "Rua Vereador José Pereira Duarte",
        "zipcode": "89564-366"
    },
    {
        "city": "Videira",
        "state": "SC",
        "district": "Universitário",
        "street": "Rua XV de Novembro",
        "zipcode": "89566-098"
    },
    {
        "city": "Videira",
        "state": "SC",
        "district": "Matriz",
        "street": "Rua Victor Meirelles",
        "zipcode": "89560-274"
    },
    {
        "city": "Videira",
        "state": "SC",
        "district": "Rio das Pedras",
        "street": "Rua Zuir de Oliveira",
        "zipcode": "89563-266"
    },
    {
        "city": "Videira",
        "state": "SC",
        "district": "Vila de Carli",
        "street": "Rua Vereador José Pereira Duarte",
        "zipcode": "89564-430"
    },
    {
        "city": "Videira",
        "state": "SC",
        "district": "Floresta",
        "street": "Rua 19 de Setembro",
        "zipcode": "89560-005"
    },
    {
        "city": "Videira",
        "state": "SC",
        "district": "Amarante",
        "street": "Rua Vitorio Angelo Gregolon",
        "zipcode": "89566-400"
    },
    {
        "city": "Videira",
        "state": "SC",
        "district": "São Cristovão",
        "street": "Rua Vereador Doré",
        "zipcode": "89562-072"
    },
    {
        "city": "Videira",
        "state": "SC",
        "district": "Oficina",
        "street": "Rua Wilmar Grazziotin",
        "zipcode": "89565-085"
    },
    {
        "city": "Videira",
        "state": "SC",
        "district": "Sesi",
        "street": "Rua Valinhos",
        "zipcode": "89564-272"
    },
    {
        "city": "Videira",
        "state": "SC",
        "district": "Santa Tereza",
        "street": "Rua Waldemar Fragoso",
        "zipcode": "89560-316"
    },
    {
        "city": "Videira",
        "state": "SC",
        "district": "Matriz",
        "street": "Rua Victor Meirelles",
        "zipcode": "89560-272"
    },
    {
        "city": "Videira",
        "state": "SC",
        "district": "Panazzolo",
        "street": "Rua Tangará",
        "zipcode": "89566-008"
    },
    {
        "city": "Videira",
        "state": "SC",
        "district": "Carelli",
        "street": "Rua Vereador Hermínio D Borga",
        "zipcode": "89566-752"
    },
    {
        "city": "Videira",
        "state": "SC",
        "district": "Cidade Alta",
        "street": "Rua Vereador Antonio Mariano Zardo",
        "zipcode": "89567-080"
    },
    {
        "city": "Videira",
        "state": "SC",
        "district": "Centro",
        "street": "Rua Vinicius de Morais",
        "zipcode": "89560-188"
    },
    {
        "city": "Videira",
        "state": "SC",
        "district": "Farroupilha",
        "street": "Rua 13 de Maio",
        "zipcode": "89560-548"
    },
    {
        "city": "Videira",
        "state": "SC",
        "district": "Oficina",
        "street": "Rua Vitalina Antunes Lyra",
        "zipcode": "89565-076"
    },
    {
        "city": "Videira",
        "state": "SC",
        "district": "Vila Verde",
        "street": "Rua 11 de Maio",
        "zipcode": "89564-412"
    },
    {
        "city": "Videira",
        "state": "SC",
        "district": "Centro",
        "street": "Rua Vitória",
        "zipcode": "89560-134"
    },
    {
        "city": "Videira",
        "state": "SC",
        "district": "Cetrevi",
        "street": "Rua Thereza Moriggi Hass",
        "zipcode": "89567-492"
    },
    {
        "city": "Videira",
        "state": "SC",
        "district": "Oficina",
        "street": "Rua Vereador Dante Martorano",
        "zipcode": "89565-133"
    },
    {
        "city": "Videira",
        "state": "SC",
        "district": "Alvorada",
        "street": "Rua Verino Colle",
        "zipcode": "89562-044"
    },
    {
        "city": "Videira",
        "state": "SC",
        "district": "Centro",
        "street": "Rua XV de Novembro",
        "zipcode": "89560-130"
    },
    {
        "city": "Videira",
        "state": "SC",
        "district": "Carelli",
        "street": "Rua Vereador Etelvino Basso",
        "zipcode": "89566-742"
    },
    {
        "city": "Videira",
        "state": "SC",
        "district": "Santa Tereza",
        "street": "Rua Vitório de Marco",
        "zipcode": "89560-306"
    },
    {
        "city": "Videira",
        "state": "SC",
        "district": "Universitário",
        "street": "Travessa 26 de Junho",
        "zipcode": "89566-090"
    },
    {
        "city": "Videira",
        "state": "SC",
        "district": "Floresta",
        "street": "Servidão Jesus Rocha Pinto",
        "zipcode": "89560-007"
    },
    {
        "city": "Videira",
        "state": "SC",
        "district": "Universitário",
        "street": "Rua 10 de Setembro",
        "zipcode": "89566-270"
    },
    {
        "city": "Videira",
        "state": "SC",
        "district": "Vila Verde",
        "street": "Rua 30 de Novembro",
        "zipcode": "89564-406"
    },
    {
        "city": "Videira",
        "state": "SC",
        "district": "Centro",
        "street": "Rua XV de Novembro",
        "zipcode": "89560-128"
    },
    {
        "city": "Videira",
        "state": "SC",
        "district": "Vila Verde",
        "street": "Rua 05 de Dezembro",
        "zipcode": "89564-410"
    },
    {
        "city": "Videira",
        "state": "SC",
        "district": "Floresta",
        "street": "Travessa 26 de Junho",
        "zipcode": "89560-021"
    },
    {
        "city": "Videira",
        "state": "SC",
        "district": "Centro",
        "street": "Rua 7 de Setembro",
        "zipcode": "89560-114"
    },
    {
        "city": "Videira",
        "state": "SC",
        "district": "Santa Gema",
        "street": "Servidão São Pedro",
        "zipcode": "89567-250"
    },
    {
        "city": "Videira",
        "state": "SC",
        "district": "Panazzolo",
        "street": "Rua 19 de Setembro",
        "zipcode": "89566-062"
    },
    {
        "city": "Videira",
        "state": "SC",
        "district": "Sesi",
        "street": "Travessa São Vicente",
        "zipcode": "89564-274"
    },
    {
        "city": "Videira",
        "state": "SC",
        "district": "Marafon",
        "street": "Travessa Imbuial",
        "zipcode": "89560-482"
    },
    {
        "city": "Videira",
        "state": "SC",
        "district": "Matriz",
        "street": "Travessa Franz Sinsker",
        "zipcode": "89560-248"
    },
    {
        "city": "Videira",
        "state": "SC",
        "district": "Centro",
        "street": "Travessa Imbuial",
        "zipcode": "89560-148"
    },
    {
        "city": "Videira",
        "state": "SC",
        "district": "Dois Pinheiros",
        "street": "Travessa Vereador Pedro Ponzoni",
        "zipcode": "89562-192"
    },
    {
        "city": "Videira",
        "state": "SC",
        "district": "Sesi",
        "street": "Travessa Limeira",
        "zipcode": "89564-340"
    },
    {
        "city": "Videira",
        "state": "SC",
        "district": "Santa Tereza",
        "street": "Servidão Nilton Alano",
        "zipcode": "89560-390"
    },
    {
        "city": "Videira",
        "state": "SC",
        "district": "Água Verde",
        "street": "Rodovia SC",
        "zipcode": "89564-692"
    },
    {
        "city": "Videira",
        "state": "SC",
        "district": "Santa Tereza",
        "street": "Escadaria Ernesto Bahr",
        "zipcode": "89560-394"
    },
    {
        "city": "Videira",
        "state": "SC",
        "district": "Amarante",
        "street": "Avenida Waldemar Kleinunbing",
        "zipcode": "89566-390"
    },
    {
        "city": "Videira",
        "state": "SC",
        "district": "Rio das Pedras",
        "street": "Rodovia SC",
        "zipcode": "89563-615"
    },
    {
        "city": "Videira",
        "state": "SC",
        "district": "Rio das Pedras",
        "street": "Rodovia SC",
        "zipcode": "89563-548"
    },
    {
        "city": "Videira",
        "state": "SC",
        "district": "Centro",
        "street": "Escadaria Wilibaldo Rohregger",
        "zipcode": "89560-108"
    },
    {
        "city": "Videira",
        "state": "SC",
        "district": "Farroupilha",
        "street": "Rua Gomercindo Scopel",
        "zipcode": "89560-884"
    },
    {
        "city": "Videira",
        "state": "SC",
        "district": "Rio das Pedras",
        "street": "Rodovia SC",
        "zipcode": "89563-190"
    },
    {
        "city": "Videira",
        "state": "SC",
        "district": "Nossa Senhora Aparecida",
        "street": "Estrada Benedito Tomaz Scussiato",
        "zipcode": "89562-770"
    },
    {
        "city": "Videira",
        "state": "SC",
        "district": "Nossa Senhora Aparecida",
        "street": "Avenida Zeno Hairto Sebbem",
        "zipcode": "89562-780"
    },
    {
        "city": "Videira",
        "state": "SC",
        "district": "Sesi",
        "street": "Escadaria Prefeito Raimundo Formighieri",
        "zipcode": "89564-232"
    },
    {
        "city": "Videira",
        "state": "SC",
        "district": "Portal das Videiras",
        "street": "Avenida Jacinto Forlin",
        "zipcode": "89562-316"
    },
    {
        "city": "Videira",
        "state": "SC",
        "district": "Universitário",
        "street": "Rua Otávio Francisco Schneider",
        "zipcode": "89566-174"
    },
    {
        "city": "Videira",
        "state": "SC",
        "district": "Área Rural de Videira",
        "street": "Área Rural",
        "zipcode": "89567-899"
    },
    {
        "city": "Videira",
        "state": "SC",
        "district": "Amarante",
        "street": "Avenida Marginal Sul",
        "zipcode": "89566-320"
    },
    {
        "city": "Videira",
        "state": "SC",
        "district": "Alvorada",
        "street": "Rua Antonio Ferlin",
        "zipcode": "89562-024"
    },
    {
        "city": "Videira",
        "state": "SC",
        "district": "Cidade Alta",
        "street": "Rua Constantino Crestani",
        "zipcode": "89567-022"
    },
    {
        "city": "Videira",
        "state": "SC",
        "district": "Marafon",
        "street": "Rua Antônio Marafon",
        "zipcode": "89560-474"
    },
    {
        "city": "Videira",
        "state": "SC",
        "district": "Sesi",
        "street": "Rua Calixto Menegat",
        "zipcode": "89564-244"
    },
    {
        "city": "Videira",
        "state": "SC",
        "district": "Carelli",
        "street": "Rua Anita Garibaldi",
        "zipcode": "89566-700"
    },
    {
        "city": "Videira",
        "state": "SC",
        "district": "Vila de Carli",
        "street": "Rua Antônio de Carli",
        "zipcode": "89564-436"
    },
    {
        "city": "Videira",
        "state": "SC",
        "district": "Santa Gema",
        "street": "Rua Aracy Shuler Farias",
        "zipcode": "89567-336"
    },
    {
        "city": "Videira",
        "state": "SC",
        "district": "Matriz",
        "street": "Rua Waldomiro Scussiato",
        "zipcode": "89560-266"
    },
    {
        "city": "Videira",
        "state": "SC",
        "district": "Santa Gema",
        "street": "Rua Daniel Francisco Gemelli",
        "zipcode": "89567-334"
    },
    {
        "city": "Videira",
        "state": "SC",
        "district": "Rio das Pedras",
        "street": "Rua Arlindo Carlesso",
        "zipcode": "89563-534"
    },
    {
        "city": "Videira",
        "state": "SC",
        "district": "Água Verde",
        "street": "Rua Albino Formigheri",
        "zipcode": "89564-694"
    },
    {
        "city": "Videira",
        "state": "SC",
        "district": "Alvorada",
        "street": "Avenida Manoel Roque",
        "zipcode": "89562-038"
    },
    {
        "city": "Videira",
        "state": "SC",
        "district": "Floresta",
        "street": "Rua Acir Piolli",
        "zipcode": "89560-043"
    },
    {
        "city": "Videira",
        "state": "SC",
        "district": "Amarante",
        "street": "Rua Afonso Tharum",
        "zipcode": "89566-405"
    },
    {
        "city": "Videira",
        "state": "SC",
        "district": "Santa Tereza",
        "street": "Rua Benvenuto Francisco Mandelli",
        "zipcode": "89560-396"
    },
    {
        "city": "Videira",
        "state": "SC",
        "district": "Centro",
        "street": "Rua Brasil Viana",
        "zipcode": "89560-100"
    },
    {
        "city": "Videira",
        "state": "SC",
        "district": "Panazzolo",
        "street": "Rua Carlos Esperança",
        "zipcode": "89566-002"
    },
    {
        "city": "Videira",
        "state": "SC",
        "district": "Marafon",
        "street": "Rua Célia Locatelli",
        "zipcode": "89560-478"
    },
    {
        "city": "Videira",
        "state": "SC",
        "district": "Centro",
        "street": "Rua Coronel Alberto Schmidt",
        "zipcode": "89560-198"
    },
    {
        "city": "Videira",
        "state": "SC",
        "district": "Centro",
        "street": "Avenida Dom Pedro II",
        "zipcode": "89560-210"
    },
    {
        "city": "Videira",
        "state": "SC",
        "district": "São Francisco",
        "street": "Rua César Augusto Filho",
        "zipcode": "89565-266"
    },
    {
        "city": "Videira",
        "state": "SC",
        "district": "Santa Gema",
        "street": "Rua Domingos Locatelli",
        "zipcode": "89567-110"
    },
    {
        "city": "Videira",
        "state": "SC",
        "district": "Rio das Pedras",
        "street": "Rua Celestino Munaro",
        "zipcode": "89563-394"
    },
    {
        "city": "Videira",
        "state": "SC",
        "district": "Centro",
        "street": "Rua Arthur Formiguieri",
        "zipcode": "89560-182"
    },
    {
        "city": "Videira",
        "state": "SC",
        "district": "Portal das Videiras",
        "street": "Rua dos Holandeses",
        "zipcode": "89562-302"
    },
    {
        "city": "Videira",
        "state": "SC",
        "district": "Sesi",
        "street": "Rua Araras",
        "zipcode": "89564-282"
    },
    {
        "city": "Videira",
        "state": "SC",
        "district": "Rio das Pedras",
        "street": "Rua Angelo Locatelli",
        "zipcode": "89563-400"
    },
    {
        "city": "Videira",
        "state": "SC",
        "district": "Rio das Pedras",
        "street": "Rua Catanduvas",
        "zipcode": "89563-532"
    },
    {
        "city": "Videira",
        "state": "SC",
        "district": "Farroupilha",
        "street": "Rua Dionisio Locatelli",
        "zipcode": "89560-508"
    },
    {
        "city": "Videira",
        "state": "SC",
        "district": "Rio das Pedras",
        "street": "Rua Angelo Brancalione",
        "zipcode": "89563-390"
    },
    {
        "city": "Videira",
        "state": "SC",
        "district": "Cibrazém",
        "street": "Rua Aurélio Afonso Serafini",
        "zipcode": "89564-082"
    },
    {
        "city": "Videira",
        "state": "SC",
        "district": "Rio das Pedras",
        "street": "Rua Alindo Lopes de Albuquerque",
        "zipcode": "89563-438"
    },
    {
        "city": "Videira",
        "state": "SC",
        "district": "Universitário",
        "street": "Rua Bulcão Viana",
        "zipcode": "89566-082"
    },
    {
        "city": "Videira",
        "state": "SC",
        "district": "São Cristovão",
        "street": "Rua Alberto Grando",
        "zipcode": "89562-084"
    },
    {
        "city": "Videira",
        "state": "SC",
        "district": "Vila de Carli",
        "street": "Rua Candido Rissardi",
        "zipcode": "89564-434"
    },
    {
        "city": "Videira",
        "state": "SC",
        "district": "Santa Gema",
        "street": "Rua Alagoas",
        "zipcode": "89567-326"
    },
    {
        "city": "Videira",
        "state": "SC",
        "district": "Floresta",
        "street": "Rua Alberto Szygalski",
        "zipcode": "89560-045"
    },
    {
        "city": "Videira",
        "state": "SC",
        "district": "Centro",
        "street": "Rua Brasil",
        "zipcode": "89560-144"
    },
    {
        "city": "Videira",
        "state": "SC",
        "district": "Universitário",
        "street": "Rua Afonso Machienavie",
        "zipcode": "89566-178"
    },
    {
        "city": "Videira",
        "state": "SC",
        "district": "Nossa Senhora Aparecida",
        "street": "Rua Colorindo Lazzari",
        "zipcode": "89562-782"
    },
    {
        "city": "Videira",
        "state": "SC",
        "district": "Rio das Pedras",
        "street": "Rua Elvira Ribeiro de Deus",
        "zipcode": "89563-280"
    },
    {
        "city": "Videira",
        "state": "SC",
        "district": "Nossa Senhora Aparecida",
        "street": "Rua André Ragadalli",
        "zipcode": "89562-846"
    },
    {
        "city": "Videira",
        "state": "SC",
        "district": "Portal das Videiras",
        "street": "Rua das Perobas",
        "zipcode": "89562-308"
    },
    {
        "city": "Videira",
        "state": "SC",
        "district": "Santa Gema",
        "street": "Rua Estevão Feski",
        "zipcode": "89567-234"
    },
    {
        "city": "Videira",
        "state": "SC",
        "district": "Santos Dumont",
        "street": "Rua Augusto Benetti",
        "zipcode": "89561-160"
    },
    {
        "city": "Videira",
        "state": "SC",
        "district": "Vila de Carli",
        "street": "Rua Benjamin Boss",
        "zipcode": "89564-446"
    },
    {
        "city": "Videira",
        "state": "SC",
        "district": "Matriz",
        "street": "Rua Alvise Caldart",
        "zipcode": "89560-276"
    },
    {
        "city": "Videira",
        "state": "SC",
        "district": "Dois Pinheiros",
        "street": "Rua Fraiburgo",
        "zipcode": "89562-174"
    },
    {
        "city": "Videira",
        "state": "SC",
        "district": "São Cristovão",
        "street": "Rua Aparecida",
        "zipcode": "89562-074"
    },
    {
        "city": "Videira",
        "state": "SC",
        "district": "Morada do Sol",
        "street": "Rua Adilson Roberto Cendron",
        "zipcode": "89562-698"
    },
    {
        "city": "Videira",
        "state": "SC",
        "district": "Portal das Videiras",
        "street": "Rua Ernesto Andreani",
        "zipcode": "89562-402"
    },
    {
        "city": "Videira",
        "state": "SC",
        "district": "Campo Experimental",
        "street": "Rua Ernesto Miotto",
        "zipcode": "89564-502"
    },
    {
        "city": "Videira",
        "state": "SC",
        "district": "Oficina",
        "street": "Rua José Ferlin",
        "zipcode": "89565-079"
    },
    {
        "city": "Videira",
        "state": "SC",
        "district": "Santos Dumont",
        "street": "Rua Fioravante Macari",
        "zipcode": "89561-156"
    },
    {
        "city": "Videira",
        "state": "SC",
        "district": "Matriz",
        "street": "Rua João Contini",
        "zipcode": "89560-256"
    },
    {
        "city": "Videira",
        "state": "SC",
        "district": "Campo Experimental",
        "street": "Rua Luiz Strapazzon",
        "zipcode": "89564-480"
    },
    {
        "city": "Videira",
        "state": "SC",
        "district": "São Cristovão",
        "street": "Rua Francisco Luiz Lira",
        "zipcode": "89562-054"
    },
    {
        "city": "Videira",
        "state": "SC",
        "district": "Cidade Alta",
        "street": "Rua Eduardo Mauricio Bondan",
        "zipcode": "89567-014"
    },
    {
        "city": "Videira",
        "state": "SC",
        "district": "São Francisco",
        "street": "Rua Maria Inês Zilio",
        "zipcode": "89565-152"
    },
    {
        "city": "Videira",
        "state": "SC",
        "district": "Campo Experimental",
        "street": "Rua Mario Porto Lopes",
        "zipcode": "89564-496"
    },
    {
        "city": "Videira",
        "state": "SC",
        "district": "Universitário",
        "street": "Rua Marechal Floriano Peixoto",
        "zipcode": "89566-094"
    },
    {
        "city": "Videira",
        "state": "SC",
        "district": "São Francisco",
        "street": "Rua Lourenço Cláudio Ferlin",
        "zipcode": "89565-288"
    },
    {
        "city": "Videira",
        "state": "SC",
        "district": "Rio das Pedras",
        "street": "Rua Fabricio Ribeiro Chaves",
        "zipcode": "89563-448"
    },
    {
        "city": "Videira",
        "state": "SC",
        "district": "Farroupilha",
        "street": "Rua Jacques Vachi",
        "zipcode": "89560-498"
    },
    {
        "city": "Videira",
        "state": "SC",
        "district": "Nossa Senhora Aparecida",
        "street": "Rua Manoel de Oliveira",
        "zipcode": "89562-784"
    },
    {
        "city": "Videira",
        "state": "SC",
        "district": "Sesi",
        "street": "Rua Giovana Pan Menegatti",
        "zipcode": "89564-250"
    },
    {
        "city": "Videira",
        "state": "SC",
        "district": "Santa Tereza",
        "street": "Rua Irmãos Melotto",
        "zipcode": "89560-370"
    },
    {
        "city": "Videira",
        "state": "SC",
        "district": "Farroupilha",
        "street": "Rua José Lazzari",
        "zipcode": "89561-132"
    },
    {
        "city": "Videira",
        "state": "SC",
        "district": "Santa Tereza",
        "street": "Rua José Savian",
        "zipcode": "89560-398"
    },
    {
        "city": "Videira",
        "state": "SC",
        "district": "Santa Lucia",
        "street": "Rua Dario Silvino Castoldi",
        "zipcode": "89565-520"
    },
    {
        "city": "Videira",
        "state": "SC",
        "district": "São Francisco",
        "street": "Rua Helia Maria Braga Ferlin",
        "zipcode": "89565-228"
    },
    {
        "city": "Videira",
        "state": "SC",
        "district": "Alvorada",
        "street": "Rua Ernesto Pontin",
        "zipcode": "89562-002"
    },
    {
        "city": "Videira",
        "state": "SC",
        "district": "Rio das Pedras",
        "street": "Rua João Stradiotto",
        "zipcode": "89563-430"
    },
    {
        "city": "Videira",
        "state": "SC",
        "district": "Cibrazém",
        "street": "Rua Ivo Luiz Fantin",
        "zipcode": "89564-080"
    },
    {
        "city": "Videira",
        "state": "SC",
        "district": "Farroupilha",
        "street": "Rua José Bonaldo",
        "zipcode": "89560-550"
    },
    {
        "city": "Videira",
        "state": "SC",
        "district": "Vila Verde",
        "street": "Rua Ernesto Lazzaroto",
        "zipcode": "89564-416"
    },
    {
        "city": "Videira",
        "state": "SC",
        "district": "Universitário",
        "street": "Rua Hercílio Borga",
        "zipcode": "89566-274"
    },
    {
        "city": "Videira",
        "state": "SC",
        "district": "Panazzolo",
        "street": "Rua Frederico Bortolaz",
        "zipcode": "89566-060"
    },
    {
        "city": "Videira",
        "state": "SC",
        "district": "Santos Dumont",
        "street": "Rua Farroupilha",
        "zipcode": "89561-140"
    },
    {
        "city": "Videira",
        "state": "SC",
        "district": "Farroupilha",
        "street": "Rua José Dal Pizzol",
        "zipcode": "89560-556"
    },
    {
        "city": "Videira",
        "state": "SC",
        "district": "Universitário",
        "street": "Rua João Batista Gaio",
        "zipcode": "89566-102"
    },
    {
        "city": "Videira",
        "state": "SC",
        "district": "Universitário",
        "street": "Rua Máximo Santin",
        "zipcode": "89566-172"
    },
    {
        "city": "Videira",
        "state": "SC",
        "district": "Santa Gema",
        "street": "Rua Pará",
        "zipcode": "89567-330"
    },
    {
        "city": "Videira",
        "state": "SC",
        "district": "Centro",
        "street": "Rua Pedro Gaio",
        "zipcode": "89560-172"
    },
    {
        "city": "Videira",
        "state": "SC",
        "district": "Dois Pinheiros",
        "street": "Rua Geovani Crestani",
        "zipcode": "89562-170"
    },
    {
        "city": "Videira",
        "state": "SC",
        "district": "Matriz",
        "street": "Rua Lauro Müller",
        "zipcode": "89560-230"
    },
    {
        "city": "Videira",
        "state": "SC",
        "district": "Centro",
        "street": "Rua Luis Ferlin Senior",
        "zipcode": "89560-154"
    },
    {
        "city": "Videira",
        "state": "SC",
        "district": "Centro",
        "street": "Rua Pedro Andreazza",
        "zipcode": "89560-202"
    },
    {
        "city": "Videira",
        "state": "SC",
        "district": "Matriz",
        "street": "Rua Pedro Gaio",
        "zipcode": "89560-244"
    },
    {
        "city": "Videira",
        "state": "SC",
        "district": "Morada do Sol",
        "street": "Rua Gentil Casagrande",
        "zipcode": "89562-716"
    },
    {
        "city": "Videira",
        "state": "SC",
        "district": "Portal das Videiras",
        "street": "Rua Gelindo Rissardi",
        "zipcode": "89562-440"
    },
    {
        "city": "Videira",
        "state": "SC",
        "district": "Amarante",
        "street": "Rua Professor Joaquim Amarante",
        "zipcode": "89566-460"
    },
    {
        "city": "Videira",
        "state": "SC",
        "district": "Campo Experimental",
        "street": "Rua João Zardo",
        "zipcode": "89564-506"
    },
    {
        "city": "Videira",
        "state": "SC",
        "district": "Rio das Pedras",
        "street": "Rua João Nelson Antunes",
        "zipcode": "89563-350"
    },
    {
        "city": "Videira",
        "state": "SC",
        "district": "Cibrazém",
        "street": "Rua Maria Elvira Ribeiro",
        "zipcode": "89564-086"
    },
    {
        "city": "Videira",
        "state": "SC",
        "district": "Centro",
        "street": "Rua Osvaldo Cruz",
        "zipcode": "89560-142"
    },
    {
        "city": "Videira",
        "state": "SC",
        "district": "Cidade Alta",
        "street": "Rua Jorge Hergert",
        "zipcode": "89567-084"
    },
    {
        "city": "Videira",
        "state": "SC",
        "district": "Matriz",
        "street": "Rua Renato Pereira Gomes",
        "zipcode": "89560-284"
    },
    {
        "city": "Videira",
        "state": "SC",
        "district": "São Francisco",
        "street": "Rua João Ferlin Sobrinho",
        "zipcode": "89565-162"
    },
    {
        "city": "Videira",
        "state": "SC",
        "district": "Vila de Carli",
        "street": "Rua Ricieri Saúgo",
        "zipcode": "89564-470"
    },
    {
        "city": "Videira",
        "state": "SC",
        "district": "Universitário",
        "street": "Rua Iomerê",
        "zipcode": "89566-086"
    },
    {
        "city": "Videira",
        "state": "SC",
        "district": "Oficina",
        "street": "Rua Pacífico",
        "zipcode": "89565-082"
    },
    {
        "city": "Videira",
        "state": "SC",
        "district": "Alvorada",
        "street": "Rua Leoberto Leal",
        "zipcode": "89562-030"
    },
    {
        "city": "Videira",
        "state": "SC",
        "district": "São Francisco",
        "street": "Rua Guarapuava",
        "zipcode": "89565-174"
    },
    {
        "city": "Videira",
        "state": "SC",
        "district": "Dois Pinheiros",
        "street": "Rua Nossa Senhora de Lourdes",
        "zipcode": "89562-168"
    },
    {
        "city": "Videira",
        "state": "SC",
        "district": "Cibrazém",
        "street": "Rua Luiz Melo Pereira",
        "zipcode": "89564-002"
    },
    {
        "city": "Videira",
        "state": "SC",
        "district": "Nossa Senhora Aparecida",
        "street": "Rua Neri Cardoso da Silva",
        "zipcode": "89562-772"
    },
    {
        "city": "Videira",
        "state": "SC",
        "district": "São Francisco",
        "street": "Rua Idina Guarnieri Ferlin",
        "zipcode": "89565-222"
    },
    {
        "city": "Videira",
        "state": "SC",
        "district": "Santa Tereza",
        "street": "Rua Júlio Dal Pizzol",
        "zipcode": "89560-392"
    },
    {
        "city": "Videira",
        "state": "SC",
        "district": "Universitário",
        "street": "Rua Hugo Bruns",
        "zipcode": "89566-108"
    },
    {
        "city": "Videira",
        "state": "SC",
        "district": "Matriz",
        "street": "Rua Guilherme Menegotto",
        "zipcode": "89560-264"
    },
    {
        "city": "Videira",
        "state": "SC",
        "district": "Panazzolo",
        "street": "Rua Luiz Argenta",
        "zipcode": "89566-074"
    },
    {
        "city": "Videira",
        "state": "SC",
        "district": "Rio das Pedras",
        "street": "Travessa Arlindo Martins",
        "zipcode": "89563-536"
    },
    {
        "city": "Videira",
        "state": "SC",
        "district": "Panazzolo",
        "street": "Rua Vitorio Angelo Gregolon",
        "zipcode": "89566-020"
    },
    {
        "city": "Videira",
        "state": "SC",
        "district": "Carboni",
        "street": "Rua Severino José Pasqual",
        "zipcode": "89566-838"
    },
    {
        "city": "Videira",
        "state": "SC",
        "district": "Morada do Sol",
        "street": "Rua Valdecir Pittol",
        "zipcode": "89562-696"
    },
    {
        "city": "Videira",
        "state": "SC",
        "district": "Dois Pinheiros",
        "street": "Rua Vereador Pedro E Comelli",
        "zipcode": "89562-190"
    },
    {
        "city": "Videira",
        "state": "SC",
        "district": "Santa Gema",
        "street": "Rua Minas Gerais",
        "zipcode": "89567-356"
    },
    {
        "city": "Videira",
        "state": "SC",
        "district": "Matriz",
        "street": "Rua Padre Anchieta",
        "zipcode": "89560-242"
    },
    {
        "city": "Videira",
        "state": "SC",
        "district": "Panazzolo",
        "street": "Rua Vereador Antônio Cerbato",
        "zipcode": "89566-014"
    },
    {
        "city": "Videira",
        "state": "SC",
        "district": "Santa Tereza",
        "street": "Rua Natal Zago I",
        "zipcode": "89560-314"
    },
    {
        "city": "Videira",
        "state": "SC",
        "district": "São Francisco",
        "street": "Rua Wilmar Gerolino Argenton",
        "zipcode": "89565-262"
    },
    {
        "city": "Videira",
        "state": "SC",
        "district": "Farroupilha",
        "street": "Travessa Orestes Novello",
        "zipcode": "89560-512"
    },
    {
        "city": "Videira",
        "state": "SC",
        "district": "São Cristovão",
        "street": "Rua Pinheiros",
        "zipcode": "89562-130"
    },
    {
        "city": "Videira",
        "state": "SC",
        "district": "São Francisco",
        "street": "Rua Paulo Fioravante Penso",
        "zipcode": "89565-170"
    },
    {
        "city": "Videira",
        "state": "SC",
        "district": "Rio das Pedras",
        "street": "Rua Sabina Zini Pasqual",
        "zipcode": "89563-276"
    },
    {
        "city": "Videira",
        "state": "SC",
        "district": "Morada do Sol",
        "street": "Rua Pelagio Parigot de Souza",
        "zipcode": "89562-720"
    },
    {
        "city": "Videira",
        "state": "SC",
        "district": "Alvorada",
        "street": "Rua Vigário Lourenço",
        "zipcode": "89562-042"
    },
    {
        "city": "Videira",
        "state": "SC",
        "district": "Centro",
        "street": "Rua XV de Novembro",
        "zipcode": "89560-124"
    },
    {
        "city": "Videira",
        "state": "SC",
        "district": "Cibrazém",
        "street": "Rua Silda Trento Canever",
        "zipcode": "89564-070"
    },
    {
        "city": "Videira",
        "state": "SC",
        "district": "Centro",
        "street": "Rua Saul Brandalise",
        "zipcode": "89560-168"
    },
    {
        "city": "Videira",
        "state": "SC",
        "district": "São Cristovão",
        "street": "Rua Rouxinol",
        "zipcode": "89562-114"
    },
    {
        "city": "Videira",
        "state": "SC",
        "district": "Cidade Alta",
        "street": "Rua Theodoro Turkot",
        "zipcode": "89567-098"
    },
    {
        "city": "Videira",
        "state": "SC",
        "district": "Cidade Alta",
        "street": "Rua Rodolfo Reinaldo Skalee",
        "zipcode": "89567-010"
    },
    {
        "city": "Videira",
        "state": "SC",
        "district": "Santa Tereza",
        "street": "Rua Taió",
        "zipcode": "89560-388"
    },
    {
        "city": "Videira",
        "state": "SC",
        "district": "Floresta",
        "street": "Rua 19 de Setembro",
        "zipcode": "89560-035"
    },
    {
        "city": "Videira",
        "state": "SC",
        "district": "Centro",
        "street": "Rua Victor Meirelles",
        "zipcode": "89560-186"
    },
    {
        "city": "Videira",
        "state": "SC",
        "district": "Centro",
        "street": "Rua XV de Novembro",
        "zipcode": "89560-132"
    },
    {
        "city": "Videira",
        "state": "SC",
        "district": "Centro",
        "street": "Rua Vereador José Gheller",
        "zipcode": "89560-166"
    },
    {
        "city": "Videira",
        "state": "SC",
        "district": "Oficina",
        "street": "Rua Vereador Afonso Letti",
        "zipcode": "89565-136"
    },
    {
        "city": "Videira",
        "state": "SC",
        "district": "Centro",
        "street": "Rua Saul Brandalise",
        "zipcode": "89560-194"
    },
    {
        "city": "Videira",
        "state": "SC",
        "district": "Vila Verde",
        "street": "Rua Vereador Luiz de Souza Pinto",
        "zipcode": "89564-420"
    },
    {
        "city": "Videira",
        "state": "SC",
        "district": "Portal das Videiras",
        "street": "Rua Santina Cantú dos Santos",
        "zipcode": "89562-394"
    },
    {
        "city": "Videira",
        "state": "SC",
        "district": "Centro",
        "street": "Rua Veneriano dos Passos",
        "zipcode": "89560-152"
    },
    {
        "city": "Videira",
        "state": "SC",
        "district": "Carelli",
        "street": "Rua Vereador Gualtiero Reinoldo Piccoli",
        "zipcode": "89566-750"
    },
    {
        "city": "Videira",
        "state": "SC",
        "district": "Farroupilha",
        "street": "Servidão Angelo Luiz Rigo",
        "zipcode": "89560-830"
    },
    {
        "city": "Videira",
        "state": "SC",
        "district": "Santa Tereza",
        "street": "Rua Joaquim Pereira de Farias",
        "zipcode": "89560-324"
    },
    {
        "city": "Videira",
        "state": "SC",
        "district": "Universitário",
        "street": "Rua Paraguaçú Pereira de Souza",
        "zipcode": "89566-250"
    },
    {
        "city": "Videira",
        "state": "SC",
        "district": "Morada do Sol",
        "street": "Rodovia SC",
        "zipcode": "89562-690"
    },
    {
        "city": "Videira",
        "state": "SC",
        "district": "Carboni",
        "street": "Rua Anita Garibaldi",
        "zipcode": "89566-832"
    },
    {
        "city": "Videira",
        "state": "SC",
        "district": "Carboni",
        "street": "Escadaria Vitório Taffarel",
        "zipcode": "89566-836"
    },
    {
        "city": "Videira",
        "state": "SC",
        "district": "Dois Pinheiros",
        "street": "Rua César Augusto Filho",
        "zipcode": "89562-172"
    },
    {
        "city": "Videira",
        "state": "SC",
        "district": "Cibrazém",
        "street": "Rua Sezário Domingues de Souza",
        "zipcode": "89564-066"
    },
    {
        "city": "Videira",
        "state": "SC",
        "district": "Vila de Carli",
        "street": "Rua Arnaldo Francisco Paulmichl",
        "zipcode": "89564-472"
    },
    {
        "city": "Videira",
        "state": "SC",
        "district": "Sesi",
        "street": "Rua Ernesto Pontin",
        "zipcode": "89564-238"
    },
    {
        "city": "Videira",
        "state": "SC",
        "district": "Nossa Senhora Aparecida",
        "street": "Rua Victório Navarini",
        "zipcode": "89563-090"
    },
    {
        "city": "Videira",
        "state": "SC",
        "district": "Nossa Senhora Aparecida",
        "street": "Rua Carlos Martins",
        "zipcode": "89562-790"
    },
    {
        "city": "Videira",
        "state": "SC",
        "district": "Nossa Senhora Aparecida",
        "street": "Rodovia SC",
        "zipcode": "89563-020"
    },
    {
        "city": "Videira",
        "state": "SC",
        "district": "Floresta",
        "street": "Rua Marechal Floriano Peixoto",
        "zipcode": "89560-025"
    },
    {
        "city": "Videira",
        "state": "SC",
        "district": "Dois Pinheiros",
        "street": "Rua Renato Pereira Gomes",
        "zipcode": "89562-182"
    },
    {
        "city": "Videira",
        "state": "SC",
        "district": "Centro",
        "street": "Rua XV de Novembro",
        "zipcode": "89560-126"
    },
    {
        "city": "Videira",
        "state": "SC",
        "district": "Marafon",
        "street": "Rua Antônio Dal Pizzol",
        "zipcode": "89560-480"
    },
    {
        "city": "Videira",
        "state": "SC",
        "district": "Vila de Carli",
        "street": "Rua João Zardo",
        "zipcode": "89564-432"
    },
    {
        "city": "Videira",
        "state": "SC",
        "district": "Centro",
        "street": "Rua Padres Salvatorianos",
        "zipcode": "89560-092"
    },
    {
        "city": "Videira",
        "state": "SC",
        "district": "Campo Experimental",
        "street": "Rua Darci Flores",
        "zipcode": "89564-486"
    },
    {
        "city": "Videira",
        "state": "SC",
        "district": "Portal das Videiras",
        "street": "Avenida Jacinto Forlin",
        "zipcode": "89562-300"
    },
    {
        "city": "Videira",
        "state": "SC",
        "district": "Centro",
        "street": "Rua Victor Meirelles",
        "zipcode": "89560-184"
    },
    {
        "city": "Videira",
        "state": "SC",
        "district": "Morada do Sol",
        "street": "Rua Luis Schuller",
        "zipcode": "89562-694"
    },
    {
        "city": "Videira",
        "state": "SC",
        "district": "Centro",
        "street": "Rua Farroupilha",
        "zipcode": "89560-138"
    },
    {
        "city": "Videira",
        "state": "SC",
        "district": "São Francisco",
        "street": "Rua Antonio Raimundo Lazzari",
        "zipcode": "89565-264"
    },
    {
        "city": "Videira",
        "state": "SC",
        "district": "Santa Lucia",
        "street": "Rodovia SC",
        "zipcode": "89565-450"
    },
    {
        "city": "Videira",
        "state": "SC",
        "district": "Santa Lucia",
        "street": "Rua José Retore",
        "zipcode": "89565-534"
    },
    {
        "city": "Videira",
        "state": "SC",
        "district": "Morada do Sol",
        "street": "Rua Antonio Vanz",
        "zipcode": "89562-724"
    },
    {
        "city": "Videira",
        "state": "SC",
        "district": "Dois Pinheiros",
        "street": "Rua Michel Bilous",
        "zipcode": "89562-164"
    },
    {
        "city": "Videira",
        "state": "SC",
        "district": "Amarante",
        "street": "Rua Engenheiro Donato Frederico",
        "zipcode": "89566-490"
    },
    {
        "city": "Videira",
        "state": "SC",
        "district": "Alvorada",
        "street": "Rua Benjamin Grazziotin",
        "zipcode": "89562-010"
    },
    {
        "city": "Videira",
        "state": "SC",
        "district": "Floresta",
        "street": "Escadaria Wilibaldo Rohregger",
        "zipcode": "89560-027"
    },
    {
        "city": "Videira",
        "state": "SC",
        "district": "Alvorada",
        "street": "Rua Juvelino Pires Curuca",
        "zipcode": "89562-016"
    },
    {
        "city": "Videira",
        "state": "SC",
        "district": "Cidade Alta",
        "street": "Rua Pedro Gianello",
        "zipcode": "89567-032"
    },
    {
        "city": "Videira",
        "state": "SC",
        "district": "São Cristovão",
        "street": "Rua João Ferlin Sobrinho",
        "zipcode": "89562-086"
    },
    {
        "city": "Videira",
        "state": "SC",
        "district": "Portal das Videiras",
        "street": "Rua Claudir Gheller",
        "zipcode": "89562-444"
    },
    {
        "city": "Videira",
        "state": "SC",
        "district": "Santa Gema",
        "street": "Rua Sergipe",
        "zipcode": "89567-358"
    },
    {
        "city": "Videira",
        "state": "SC",
        "district": "Santa Tereza",
        "street": "Rua Arcângelo Damo",
        "zipcode": "89560-402"
    },
    {
        "city": "Videira",
        "state": "SC",
        "district": "Cidade Alta",
        "street": "Rua Severino José Pasqual",
        "zipcode": "89566-880"
    },
    {
        "city": "Videira",
        "state": "SC",
        "district": "Centro",
        "street": "Rua José Domingos Francio",
        "zipcode": "89560-160"
    },
    {
        "city": "Videira",
        "state": "SC",
        "district": "Rio das Pedras",
        "street": "Rua Francisca Ribeiro Chaves",
        "zipcode": "89563-522"
    },
    {
        "city": "Videira",
        "state": "SC",
        "district": "Rio das Pedras",
        "street": "Rodovia SC",
        "zipcode": "89563-210"
    },
    {
        "city": "Videira",
        "state": "SC",
        "district": "Universitário",
        "street": "Rua 10 de Setembro",
        "zipcode": "89566-266"
    },
    {
        "city": "Videira",
        "state": "SC",
        "district": "Santa Lucia",
        "street": "Rua Domingos Baroncello Rostirolla",
        "zipcode": "89565-522"
    },
    {
        "city": "Videira",
        "state": "SC",
        "district": "Santos Dumont",
        "street": "Rua José André Baroncelo",
        "zipcode": "89561-142"
    }
]