[
    {
        "city": "Caxias",
        "state": "MA",
        "district": "Teso Duro",
        "street": "Rua Vinte e Seis (Res Eugênio Coutinho)",
        "zipcode": "65604-595"
    },
    {
        "city": "Caxias",
        "state": "MA",
        "district": "Luiza Queiroz",
        "street": "Rua Vinte de Novembro",
        "zipcode": "65607-710"
    },
    {
        "city": "Caxias",
        "state": "MA",
        "district": "Pai Geraldo",
        "street": "Rua São José",
        "zipcode": "65600-670"
    },
    {
        "city": "Caxias",
        "state": "MA",
        "district": "Teso Duro",
        "street": "Travessa Wilton Lobo",
        "zipcode": "65603-685"
    },
    {
        "city": "Caxias",
        "state": "MA",
        "district": "Centro",
        "street": "Praça Cândido Mendes",
        "zipcode": "65606-010"
    },
    {
        "city": "Caxias",
        "state": "MA",
        "district": "Luiza Queiroz",
        "street": "Avenida João Martins",
        "zipcode": "65607-705"
    },
    {
        "city": "Caxias",
        "state": "MA",
        "district": "Bacuri",
        "street": "Rua Santo Antonio",
        "zipcode": "65603-810"
    },
    {
        "city": "Caxias",
        "state": "MA",
        "district": "Trezidela",
        "street": "Beco Vicente Oliveira",
        "zipcode": "65607-140"
    },
    {
        "city": "Caxias",
        "state": "MA",
        "district": "Antenor Viana",
        "street": "Rua da Voz",
        "zipcode": "65603-550"
    },
    {
        "city": "Caxias",
        "state": "MA",
        "district": "Nova Caxias",
        "street": "Rua das Goiabeiras",
        "zipcode": "65604-335"
    },
    {
        "city": "Caxias",
        "state": "MA",
        "district": "Antenor Viana",
        "street": "2ª Travessa Santarém",
        "zipcode": "65603-545"
    },
    {
        "city": "Caxias",
        "state": "MA",
        "district": "Teso Duro",
        "street": "Rua Nove (Res Eugênio Coutinho)",
        "zipcode": "65604-554"
    },
    {
        "city": "Caxias",
        "state": "MA",
        "district": "José Castro",
        "street": "Rua Paulo e Marcia",
        "zipcode": "65604-745"
    },
    {
        "city": "Caxias",
        "state": "MA",
        "district": "Teso Duro",
        "street": "Rua da Prosperidade (Res Eugênio Coutinho)",
        "zipcode": "65604-515"
    },
    {
        "city": "Caxias",
        "state": "MA",
        "district": "Centro",
        "street": "Rua Desembargador Morato",
        "zipcode": "65600-970"
    },
    {
        "city": "Caxias",
        "state": "MA",
        "district": "Centro",
        "street": "Travessa dos Remédios",
        "zipcode": "65606-050"
    },
    {
        "city": "Caxias",
        "state": "MA",
        "district": "Luiza Queiroz",
        "street": "Rua Cleonice Lima",
        "zipcode": "65607-720"
    },
    {
        "city": "Caxias",
        "state": "MA",
        "district": "Trezidela",
        "street": "Praça Nossa Senhora de Nazaré",
        "zipcode": "65607-550"
    },
    {
        "city": "Caxias",
        "state": "MA",
        "district": "Teso Duro",
        "street": "Rua Professor Arlindo Oliveira (Res Eugênio Coutinho)",
        "zipcode": "65604-525"
    },
    {
        "city": "Caxias",
        "state": "MA",
        "district": "Pai Geraldo",
        "street": "Rua Santo Antonio",
        "zipcode": "65600-660"
    },
    {
        "city": "Caxias",
        "state": "MA",
        "district": "Campo de Belém",
        "street": "Rua Norte Sul",
        "zipcode": "65609-005"
    },
    {
        "city": "Caxias",
        "state": "MA",
        "district": "Mutirão",
        "street": "Conjunto Mutirão",
        "zipcode": "65604-450"
    },
    {
        "city": "Caxias",
        "state": "MA",
        "district": "Pai Geraldo",
        "street": "Vila Pai Geraldo",
        "zipcode": "65600-650"
    },
    {
        "city": "Caxias",
        "state": "MA",
        "district": "Teso Duro",
        "street": "Rua Dezoito (Res Eugênio Coutinho)",
        "zipcode": "65604-577"
    },
    {
        "city": "Caxias",
        "state": "MA",
        "district": "Pirajá",
        "street": "Rua Amazonas (Vl DNER)",
        "zipcode": "65608-710"
    },
    {
        "city": "Caxias",
        "state": "MA",
        "district": "Antenor Viana",
        "street": "Rua Alagoas",
        "zipcode": "65603-530"
    },
    {
        "city": "Caxias",
        "state": "MA",
        "district": "Caldeirões",
        "street": "Praça da Estação Rodoviária",
        "zipcode": "65607-170"
    },
    {
        "city": "Caxias",
        "state": "MA",
        "district": "Luiza Queiroz",
        "street": "Rua Santa Quitéria",
        "zipcode": "65607-727"
    },
    {
        "city": "Caxias",
        "state": "MA",
        "district": "Ponte",
        "street": "Praça Professor José Medeiros",
        "zipcode": "65609-260"
    },
    {
        "city": "Caxias",
        "state": "MA",
        "district": "Seriema",
        "street": "Rua Bento XVI",
        "zipcode": "65603-235"
    },
    {
        "city": "Caxias",
        "state": "MA",
        "district": "Antenor Viana",
        "street": "Travessa do Mocambinho",
        "zipcode": "65603-537"
    },
    {
        "city": "Caxias",
        "state": "MA",
        "district": "Vila Alecrim",
        "street": "Rua da Saúde (Vl Vitória)",
        "zipcode": "65600-740"
    },
    {
        "city": "Caxias",
        "state": "MA",
        "district": "Teso Duro",
        "street": "Rua Vinte e Quatro (Res Eugênio Coutinho)",
        "zipcode": "65604-591"
    },
    {
        "city": "Caxias",
        "state": "MA",
        "district": "Bela Vista",
        "street": "Rua Marcia Ribeiro",
        "zipcode": "65605-260"
    },
    {
        "city": "Caxias",
        "state": "MA",
        "district": "Caldeirões",
        "street": "Rua Campo da Sulina",
        "zipcode": "65607-330"
    },
    {
        "city": "Caxias",
        "state": "MA",
        "district": "Bacuri",
        "street": "Rua Marcia Marinho",
        "zipcode": "65603-830"
    },
    {
        "city": "Caxias",
        "state": "MA",
        "district": "Teso Duro",
        "street": "Rua da Felicidade (Res Eugênio Coutinho)",
        "zipcode": "65604-597"
    },
    {
        "city": "Caxias",
        "state": "MA",
        "district": "Luiza Queiroz",
        "street": "Avenida João Alves de Lima",
        "zipcode": "65607-700"
    },
    {
        "city": "Caxias",
        "state": "MA",
        "district": "Luiza Queiroz",
        "street": "Rua Raimundo Sampaio",
        "zipcode": "65607-732"
    },
    {
        "city": "Caxias",
        "state": "MA",
        "district": "Fazendinha",
        "street": "Travessa São José",
        "zipcode": "65608-605"
    },
    {
        "city": "Caxias",
        "state": "MA",
        "district": "Antenor Viana",
        "street": "1ª Travessa Santarém",
        "zipcode": "65603-543"
    },
    {
        "city": "Caxias",
        "state": "MA",
        "district": "Luiza Queiroz",
        "street": "Rua Nossa Senhora das Graças",
        "zipcode": "65607-719"
    },
    {
        "city": "Caxias",
        "state": "MA",
        "district": "José Castro",
        "street": "Travessa Ismael Ribeiro",
        "zipcode": "65604-765"
    },
    {
        "city": "Caxias",
        "state": "MA",
        "district": "Caldeirões",
        "street": "3ª Travessa da BR",
        "zipcode": "65607-220"
    },
    {
        "city": "Caxias",
        "state": "MA",
        "district": "Salobro",
        "street": "Rua Campo do Racha",
        "zipcode": "65609-780"
    },
    {
        "city": "Caxias",
        "state": "MA",
        "district": "Seriema",
        "street": "Rua João Paulo II",
        "zipcode": "65603-230"
    },
    {
        "city": "Caxias",
        "state": "MA",
        "district": "Centro",
        "street": "Praça Rui Barbosa",
        "zipcode": "65600-040"
    },
    {
        "city": "Caxias",
        "state": "MA",
        "district": "Centro",
        "street": "Rua Coelho Neto",
        "zipcode": "65600-020"
    },
    {
        "city": "Caxias",
        "state": "MA",
        "district": "João Viana",
        "street": "Rua Edson Vidigal",
        "zipcode": "65605-170"
    },
    {
        "city": "Caxias",
        "state": "MA",
        "district": "João Viana",
        "street": "Rua São Domingos",
        "zipcode": "65605-160"
    },
    {
        "city": "Caxias",
        "state": "MA",
        "district": "João Viana",
        "street": "Rua da Mangueira",
        "zipcode": "65605-150"
    },
    {
        "city": "Caxias",
        "state": "MA",
        "district": "João Viana",
        "street": "Rua Maracujá",
        "zipcode": "65605-140"
    },
    {
        "city": "Caxias",
        "state": "MA",
        "district": "Antenor Viana",
        "street": "Rua Pará",
        "zipcode": "65603-580"
    },
    {
        "city": "Caxias",
        "state": "MA",
        "district": "Antenor Viana",
        "street": "Rua Paraíba",
        "zipcode": "65603-585"
    },
    {
        "city": "Caxias",
        "state": "MA",
        "district": "São Francisco",
        "street": "Avenida Santos Dumont",
        "zipcode": "65600-505"
    },
    {
        "city": "Caxias",
        "state": "MA",
        "district": "São Francisco",
        "street": "Rua Quatro",
        "zipcode": "65600-434"
    },
    {
        "city": "Caxias",
        "state": "MA",
        "district": "Seriema",
        "street": "Rua Santa Terezinha (Vl Arias)",
        "zipcode": "65603-280"
    },
    {
        "city": "Caxias",
        "state": "MA",
        "district": "Seriema",
        "street": "Rua do Espírito Santo (IPEM)",
        "zipcode": "65602-550"
    },
    {
        "city": "Caxias",
        "state": "MA",
        "district": "Pai Geraldo",
        "street": "Rua São Marcos",
        "zipcode": "65600-680"
    },
    {
        "city": "Caxias",
        "state": "MA",
        "district": "São Francisco",
        "street": "Rua Sete",
        "zipcode": "65600-437"
    },
    {
        "city": "Caxias",
        "state": "MA",
        "district": "Teso Duro",
        "street": "1ª Travessa do Aeroporto",
        "zipcode": "65603-603"
    },
    {
        "city": "Caxias",
        "state": "MA",
        "district": "Nova Caxias",
        "street": "Avenida Benjamin Constant",
        "zipcode": "65604-260"
    },
    {
        "city": "Caxias",
        "state": "MA",
        "district": "Ponte",
        "street": "Rua do Fio",
        "zipcode": "65609-315"
    },
    {
        "city": "Caxias",
        "state": "MA",
        "district": "Seriema",
        "street": "4ª Travessa do Cajueiro",
        "zipcode": "65602-534"
    },
    {
        "city": "Caxias",
        "state": "MA",
        "district": "Seriema",
        "street": "5ª Travessa do Cajueiro",
        "zipcode": "65602-535"
    },
    {
        "city": "Caxias",
        "state": "MA",
        "district": "Seriema",
        "street": "6ª Travessa do Cajueiro",
        "zipcode": "65602-536"
    },
    {
        "city": "Caxias",
        "state": "MA",
        "district": "Seriema",
        "street": "7ª Travessa do Cajueiro",
        "zipcode": "65602-537"
    },
    {
        "city": "Caxias",
        "state": "MA",
        "district": "Centro",
        "street": "Rua C",
        "zipcode": "65607-005"
    },
    {
        "city": "Caxias",
        "state": "MA",
        "district": "Centro",
        "street": "Rua Afonso Cunha",
        "zipcode": "65604-000"
    },
    {
        "city": "Caxias",
        "state": "MA",
        "district": "Centro",
        "street": "Rua Alecrim",
        "zipcode": "65606-630"
    },
    {
        "city": "Caxias",
        "state": "MA",
        "district": "Nova Caxias",
        "street": "Travessa Alto da Cruz",
        "zipcode": "65604-390"
    },
    {
        "city": "Caxias",
        "state": "MA",
        "district": "Cangalheiro",
        "street": "Rua Barrinha",
        "zipcode": "65606-570"
    },
    {
        "city": "Caxias",
        "state": "MA",
        "district": "Seriema",
        "street": "Rua do Cajueiro",
        "zipcode": "65602-530"
    },
    {
        "city": "Caxias",
        "state": "MA",
        "district": "Seriema",
        "street": "Travessa da Calma",
        "zipcode": "65602-570"
    },
    {
        "city": "Caxias",
        "state": "MA",
        "district": "Seriema",
        "street": "Travessa Ceará",
        "zipcode": "65602-450"
    },
    {
        "city": "Caxias",
        "state": "MA",
        "district": "Seriema",
        "street": "Rua Ceará",
        "zipcode": "65602-440"
    },
    {
        "city": "Caxias",
        "state": "MA",
        "district": "Seriema",
        "street": "Rua das Flores",
        "zipcode": "65602-560"
    },
    {
        "city": "Caxias",
        "state": "MA",
        "district": "Seriema",
        "street": "Rua dos Milagres",
        "zipcode": "65602-500"
    },
    {
        "city": "Caxias",
        "state": "MA",
        "district": "Ponte",
        "street": "Rua Nova",
        "zipcode": "65609-490"
    },
    {
        "city": "Caxias",
        "state": "MA",
        "district": "São Francisco",
        "street": "Rua da Piçarreira",
        "zipcode": "65600-530"
    },
    {
        "city": "Caxias",
        "state": "MA",
        "district": "Centro",
        "street": "Rua Riachuelo",
        "zipcode": "65606-620"
    },
    {
        "city": "Caxias",
        "state": "MA",
        "district": "Seriema",
        "street": "Rua Rio São Francisco",
        "zipcode": "65602-520"
    },
    {
        "city": "Caxias",
        "state": "MA",
        "district": "Seriema",
        "street": "Rua Santo Antônio",
        "zipcode": "65602-410"
    },
    {
        "city": "Caxias",
        "state": "MA",
        "district": "Seriema",
        "street": "Rua São Francisco",
        "zipcode": "65602-490"
    },
    {
        "city": "Caxias",
        "state": "MA",
        "district": "São Francisco",
        "street": "Rua São Francisco",
        "zipcode": "65600-500"
    },
    {
        "city": "Caxias",
        "state": "MA",
        "district": "Seriema",
        "street": "2ª Travessa São João",
        "zipcode": "65602-400"
    },
    {
        "city": "Caxias",
        "state": "MA",
        "district": "Seriema",
        "street": "Rua São Pedro",
        "zipcode": "65602-380"
    },
    {
        "city": "Caxias",
        "state": "MA",
        "district": "São Francisco",
        "street": "Rua Santa Bárbara",
        "zipcode": "65600-520"
    },
    {
        "city": "Caxias",
        "state": "MA",
        "district": "Seriema",
        "street": "Rua Rita Queiroz",
        "zipcode": "65602-470"
    },
    {
        "city": "Caxias",
        "state": "MA",
        "district": "Seriema",
        "street": "Rua Santo Expedito (Vl Arias)",
        "zipcode": "65603-265"
    },
    {
        "city": "Caxias",
        "state": "MA",
        "district": "Antenor Viana",
        "street": "Rua Piauí",
        "zipcode": "65603-595"
    },
    {
        "city": "Caxias",
        "state": "MA",
        "district": "Antenor Viana",
        "street": "Rua Bahia",
        "zipcode": "65603-515"
    },
    {
        "city": "Caxias",
        "state": "MA",
        "district": "Pampulha",
        "street": "Rua Cinco",
        "zipcode": "65606-775"
    },
    {
        "city": "Caxias",
        "state": "MA",
        "district": "Seriema",
        "street": "Rua Montevideo (Vl Arias)",
        "zipcode": "65603-255"
    },
    {
        "city": "Caxias",
        "state": "MA",
        "district": "Seriema",
        "street": "Rua Nossa Senhora da Conceição (Vl Arias)",
        "zipcode": "65603-275"
    },
    {
        "city": "Caxias",
        "state": "MA",
        "district": "Seriema",
        "street": "Rua Santiago (Vl Arias)",
        "zipcode": "65603-285"
    },
    {
        "city": "Caxias",
        "state": "MA",
        "district": "Antenor Viana",
        "street": "Rua Boa Vista",
        "zipcode": "65603-565"
    },
    {
        "city": "Caxias",
        "state": "MA",
        "district": "Antenor Viana",
        "street": "Rua Maranhão",
        "zipcode": "65603-510"
    },
    {
        "city": "Caxias",
        "state": "MA",
        "district": "Antenor Viana",
        "street": "Rua Pernambuco",
        "zipcode": "65603-525"
    },
    {
        "city": "Caxias",
        "state": "MA",
        "district": "São Francisco",
        "street": "1ª Travessa Aluísio Lobo",
        "zipcode": "65600-453"
    },
    {
        "city": "Caxias",
        "state": "MA",
        "district": "Antenor Viana",
        "street": "Rua da Fazenda (Alto do Ipem)",
        "zipcode": "65603-310"
    },
    {
        "city": "Caxias",
        "state": "MA",
        "district": "Antenor Viana",
        "street": "Rua da Saúde (Alto do Ipem)",
        "zipcode": "65603-320"
    },
    {
        "city": "Caxias",
        "state": "MA",
        "district": "São Francisco",
        "street": "Rua Oito",
        "zipcode": "65600-438"
    },
    {
        "city": "Caxias",
        "state": "MA",
        "district": "Baixinha",
        "street": "Travessa Saturnino Belo",
        "zipcode": "65600-439"
    },
    {
        "city": "Caxias",
        "state": "MA",
        "district": "Teso Duro",
        "street": "Rua do Aeroporto",
        "zipcode": "65603-600"
    },
    {
        "city": "Caxias",
        "state": "MA",
        "district": "Refinaria",
        "street": "Rua Dez",
        "zipcode": "65600-405"
    },
    {
        "city": "Caxias",
        "state": "MA",
        "district": "Refinaria",
        "street": "Avenida Castelo Branco",
        "zipcode": "65600-365"
    },
    {
        "city": "Caxias",
        "state": "MA",
        "district": "João Viana",
        "street": "Rua São Lourenço",
        "zipcode": "65605-047"
    },
    {
        "city": "Caxias",
        "state": "MA",
        "district": "Caldeirões",
        "street": "Rua José Nunes",
        "zipcode": "65607-307"
    },
    {
        "city": "Caxias",
        "state": "MA",
        "district": "Pampulha",
        "street": "Rua Primavera",
        "zipcode": "65606-804"
    },
    {
        "city": "Caxias",
        "state": "MA",
        "district": "Luiza Queiroz",
        "street": "Rua Assíria",
        "zipcode": "65607-729"
    },
    {
        "city": "Caxias",
        "state": "MA",
        "district": "Seriema",
        "street": "Travessa Matador Velho (Matadouro Velho)",
        "zipcode": "65602-190"
    },
    {
        "city": "Caxias",
        "state": "MA",
        "district": "Vila Alecrim",
        "street": "Rua do Amor (Vl Vitória)",
        "zipcode": "65600-750"
    },
    {
        "city": "Caxias",
        "state": "MA",
        "district": "Bacuri",
        "street": "Rua Matadouro",
        "zipcode": "65603-850"
    },
    {
        "city": "Caxias",
        "state": "MA",
        "district": "Vila Alecrim",
        "street": "Rua Pindaré Mirim",
        "zipcode": "65605-667"
    },
    {
        "city": "Caxias",
        "state": "MA",
        "district": "Antenor Viana",
        "street": "Rua Santarém",
        "zipcode": "65603-540"
    },
    {
        "city": "Caxias",
        "state": "MA",
        "district": "Vila Alecrim",
        "street": "Rua Capinzal",
        "zipcode": "65605-693"
    },
    {
        "city": "Caxias",
        "state": "MA",
        "district": "Centro",
        "street": "Travessa Nereu Bittencourt",
        "zipcode": "65608-185"
    },
    {
        "city": "Caxias",
        "state": "MA",
        "district": "Vila Alecrim",
        "street": "Rua da Felicidade (Vl Vitória)",
        "zipcode": "65600-730"
    },
    {
        "city": "Caxias",
        "state": "MA",
        "district": "Castelo Branco",
        "street": "Rua Senhor do Bonfim",
        "zipcode": "65600-290"
    },
    {
        "city": "Caxias",
        "state": "MA",
        "district": "Nova Caxias",
        "street": "Rua Airton Sena",
        "zipcode": "65604-325"
    },
    {
        "city": "Caxias",
        "state": "MA",
        "district": "Dinir Silva",
        "street": "Rua Airton Sena",
        "zipcode": "65605-390"
    },
    {
        "city": "Caxias",
        "state": "MA",
        "district": "Castelo Branco",
        "street": "Rua Princesa Isabel",
        "zipcode": "65600-305"
    },
    {
        "city": "Caxias",
        "state": "MA",
        "district": "Nova Caxias",
        "street": "Rua Coelho Neto",
        "zipcode": "65604-345"
    },
    {
        "city": "Caxias",
        "state": "MA",
        "district": "Nova Caxias",
        "street": "Rua Vespasiano Ramos",
        "zipcode": "65604-347"
    },
    {
        "city": "Caxias",
        "state": "MA",
        "district": "Nova Caxias",
        "street": "Rua Victor Gonçalves Neto",
        "zipcode": "65604-348"
    },
    {
        "city": "Caxias",
        "state": "MA",
        "district": "Refinaria",
        "street": "2ª Travessa Central",
        "zipcode": "65600-231"
    },
    {
        "city": "Caxias",
        "state": "MA",
        "district": "São Francisco",
        "street": "Rua Vereador Gentil de Oliveira",
        "zipcode": "65600-445"
    },
    {
        "city": "Caxias",
        "state": "MA",
        "district": "Refinaria",
        "street": "Rua Vereador Gentil de Oliveira",
        "zipcode": "65600-210"
    },
    {
        "city": "Caxias",
        "state": "MA",
        "district": "Centro",
        "street": "Rua da Alegria",
        "zipcode": "65604-360"
    },
    {
        "city": "Caxias",
        "state": "MA",
        "district": "Nova Caxias",
        "street": "Rua Alto da Cruz",
        "zipcode": "65604-330"
    },
    {
        "city": "Caxias",
        "state": "MA",
        "district": "Centro",
        "street": "Travessa da Arueira",
        "zipcode": "65602-260"
    },
    {
        "city": "Caxias",
        "state": "MA",
        "district": "Refinaria",
        "street": "Travessa Baixinha",
        "zipcode": "65600-430"
    },
    {
        "city": "Caxias",
        "state": "MA",
        "district": "Centro",
        "street": "Beco do Galo",
        "zipcode": "65600-240"
    },
    {
        "city": "Caxias",
        "state": "MA",
        "district": "Nova Caxias",
        "street": "1ª Travessa Benjamin Constant",
        "zipcode": "65604-270"
    },
    {
        "city": "Caxias",
        "state": "MA",
        "district": "Castelo Branco",
        "street": "Rua Cristo Rei",
        "zipcode": "65600-320"
    },
    {
        "city": "Caxias",
        "state": "MA",
        "district": "Refinaria",
        "street": "Rua do Cruzeiro",
        "zipcode": "65600-190"
    },
    {
        "city": "Caxias",
        "state": "MA",
        "district": "Nova Caxias",
        "street": "Avenida Jerusalém",
        "zipcode": "65604-310"
    },
    {
        "city": "Caxias",
        "state": "MA",
        "district": "Castelo Branco",
        "street": "Rua do Paraíso",
        "zipcode": "65600-330"
    },
    {
        "city": "Caxias",
        "state": "MA",
        "district": "Castelo Branco",
        "street": "Travessa Princesa Isabel",
        "zipcode": "65600-300"
    },
    {
        "city": "Caxias",
        "state": "MA",
        "district": "Refinaria",
        "street": "Rua Santa Rita",
        "zipcode": "65600-380"
    },
    {
        "city": "Caxias",
        "state": "MA",
        "district": "Seriema",
        "street": "Rua São João",
        "zipcode": "65602-370"
    },
    {
        "city": "Caxias",
        "state": "MA",
        "district": "Seriema",
        "street": "1ª Travessa Sesoste Pereira",
        "zipcode": "65602-360"
    },
    {
        "city": "Caxias",
        "state": "MA",
        "district": "Refinaria",
        "street": "Rua Três de Fevereiro",
        "zipcode": "65600-400"
    },
    {
        "city": "Caxias",
        "state": "MA",
        "district": "Centro",
        "street": "Rua do Trilho Velho",
        "zipcode": "65602-300"
    },
    {
        "city": "Caxias",
        "state": "MA",
        "district": "Centro",
        "street": "Rua Vinícius Duarte",
        "zipcode": "65602-280"
    },
    {
        "city": "Caxias",
        "state": "MA",
        "district": "Seriema",
        "street": "Rua Vinte e Cinco de Agosto",
        "zipcode": "65602-330"
    },
    {
        "city": "Caxias",
        "state": "MA",
        "district": "Seriema",
        "street": "Travessa São Pedro",
        "zipcode": "65602-290"
    },
    {
        "city": "Caxias",
        "state": "MA",
        "district": "Seriema",
        "street": "Travessa Vinte e Cinco de Agosto",
        "zipcode": "65602-340"
    },
    {
        "city": "Caxias",
        "state": "MA",
        "district": "Nova Caxias",
        "street": "Rua Duque de Caxias",
        "zipcode": "65604-290"
    },
    {
        "city": "Caxias",
        "state": "MA",
        "district": "João Viana",
        "street": "Rua Girassol",
        "zipcode": "65605-060"
    },
    {
        "city": "Caxias",
        "state": "MA",
        "district": "Antenor Viana",
        "street": "Rua Sergipe",
        "zipcode": "65603-560"
    },
    {
        "city": "Caxias",
        "state": "MA",
        "district": "Seriema",
        "street": "5ª Travessa Vila Arias (Vl Arias)",
        "zipcode": "65603-223"
    },
    {
        "city": "Caxias",
        "state": "MA",
        "district": "Seriema",
        "street": "Rua Gilberto Barbosa (Vl Arias)",
        "zipcode": "65603-240"
    },
    {
        "city": "Caxias",
        "state": "MA",
        "district": "Seriema",
        "street": "Travessa Gilberto Barbosa (Vl Arias)",
        "zipcode": "65603-245"
    },
    {
        "city": "Caxias",
        "state": "MA",
        "district": "Castelo Branco",
        "street": "Avenida Benjamin Constant",
        "zipcode": "65604-235"
    },
    {
        "city": "Caxias",
        "state": "MA",
        "district": "João Viana",
        "street": "Avenida Manoel Emídio",
        "zipcode": "65605-000"
    },
    {
        "city": "Caxias",
        "state": "MA",
        "district": "Vila Alecrim",
        "street": "Rua Açailândia",
        "zipcode": "65605-660"
    },
    {
        "city": "Caxias",
        "state": "MA",
        "district": "Vila Alecrim",
        "street": "Rua do Campo",
        "zipcode": "65605-640"
    },
    {
        "city": "Caxias",
        "state": "MA",
        "district": "Centro",
        "street": "Avenida Central",
        "zipcode": "65600-160"
    },
    {
        "city": "Caxias",
        "state": "MA",
        "district": "Refinaria",
        "street": "Avenida Central",
        "zipcode": "65600-175"
    },
    {
        "city": "Caxias",
        "state": "MA",
        "district": "Centro",
        "street": "2ª Travessa Acrízio Cruz",
        "zipcode": "65602-235"
    },
    {
        "city": "Caxias",
        "state": "MA",
        "district": "João Viana",
        "street": "2ª Travessa Santo Antonio",
        "zipcode": "65605-015"
    },
    {
        "city": "Caxias",
        "state": "MA",
        "district": "Centro",
        "street": "Travessa Bom Pastor",
        "zipcode": "65600-075"
    },
    {
        "city": "Caxias",
        "state": "MA",
        "district": "Centro",
        "street": "Travessa José Cruz",
        "zipcode": "65600-077"
    },
    {
        "city": "Caxias",
        "state": "MA",
        "district": "João Viana",
        "street": "Rua Ameixa",
        "zipcode": "65605-080"
    },
    {
        "city": "Caxias",
        "state": "MA",
        "district": "João Viana",
        "street": "Travessa Natal",
        "zipcode": "65605-045"
    },
    {
        "city": "Caxias",
        "state": "MA",
        "district": "Mutirão",
        "street": "Avenida Alvorada",
        "zipcode": "65604-890"
    },
    {
        "city": "Caxias",
        "state": "MA",
        "district": "Mutirão",
        "street": "Rua do Piquizeiro",
        "zipcode": "65604-860"
    },
    {
        "city": "Caxias",
        "state": "MA",
        "district": "Mutirão",
        "street": "Rua Lelis Bezerra",
        "zipcode": "65604-880"
    },
    {
        "city": "Caxias",
        "state": "MA",
        "district": "Mutirão",
        "street": "Travessa Alexandre Costa",
        "zipcode": "65604-847"
    },
    {
        "city": "Caxias",
        "state": "MA",
        "district": "João Viana",
        "street": "Rua Hilton Lobo",
        "zipcode": "65605-030"
    },
    {
        "city": "Caxias",
        "state": "MA",
        "district": "João Viana",
        "street": "Rua Santo Antonio",
        "zipcode": "65605-010"
    },
    {
        "city": "Caxias",
        "state": "MA",
        "district": "João Viana",
        "street": "Rua São Sebastião",
        "zipcode": "65605-050"
    },
    {
        "city": "Caxias",
        "state": "MA",
        "district": "Vila Lobão",
        "street": "Rua Penalva",
        "zipcode": "65605-503"
    },
    {
        "city": "Caxias",
        "state": "MA",
        "district": "Volta Redonda",
        "street": "Rua da Bandeira",
        "zipcode": "65606-740"
    },
    {
        "city": "Caxias",
        "state": "MA",
        "district": "Seriema",
        "street": "Travessa do Cemitério",
        "zipcode": "65602-740"
    },
    {
        "city": "Caxias",
        "state": "MA",
        "district": "Antenor Viana",
        "street": "Travessa da Voz",
        "zipcode": "65603-555"
    },
    {
        "city": "Caxias",
        "state": "MA",
        "district": "Antenor Viana",
        "street": "Rua do Mocambinho",
        "zipcode": "65603-535"
    },
    {
        "city": "Caxias",
        "state": "MA",
        "district": "Centro",
        "street": "Rua Gil Gouveia Macieira",
        "zipcode": "65607-000"
    },
    {
        "city": "Caxias",
        "state": "MA",
        "district": "Castelo Branco",
        "street": "Avenida Castelo Branco",
        "zipcode": "65604-170"
    },
    {
        "city": "Caxias",
        "state": "MA",
        "district": "Castelo Branco",
        "street": "Travessa Pé da Ladeira",
        "zipcode": "65604-197"
    },
    {
        "city": "Caxias",
        "state": "MA",
        "district": "Centro",
        "street": "Rua Afonso Pena",
        "zipcode": "65600-060"
    },
    {
        "city": "Caxias",
        "state": "MA",
        "district": "Castelo Branco",
        "street": "1ª Travessa Bela Vista",
        "zipcode": "65604-180"
    },
    {
        "city": "Caxias",
        "state": "MA",
        "district": "Castelo Branco",
        "street": "Rua Bela Vista",
        "zipcode": "65604-160"
    },
    {
        "city": "Caxias",
        "state": "MA",
        "district": "Castelo Branco",
        "street": "Rua Bom Jesus dos Passos",
        "zipcode": "65604-120"
    },
    {
        "city": "Caxias",
        "state": "MA",
        "district": "Centro",
        "street": "Praça Cardeal Mota",
        "zipcode": "65600-590"
    },
    {
        "city": "Caxias",
        "state": "MA",
        "district": "Centro",
        "street": "Praça Dom Luís Marelim",
        "zipcode": "65602-120"
    },
    {
        "city": "Caxias",
        "state": "MA",
        "district": "Centro",
        "street": "Rua Doutor Mirom Pedreira",
        "zipcode": "65602-040"
    },
    {
        "city": "Caxias",
        "state": "MA",
        "district": "Centro",
        "street": "Rua da Independência",
        "zipcode": "65602-210"
    },
    {
        "city": "Caxias",
        "state": "MA",
        "district": "Centro",
        "street": "Travessa da Liberdade",
        "zipcode": "65602-150"
    },
    {
        "city": "Caxias",
        "state": "MA",
        "district": "Centro",
        "street": "Rua da Liberdade",
        "zipcode": "65602-130"
    },
    {
        "city": "Caxias",
        "state": "MA",
        "district": "Centro",
        "street": "Beco da Mangueira",
        "zipcode": "65600-580"
    },
    {
        "city": "Caxias",
        "state": "MA",
        "district": "Centro",
        "street": "Rua Manoel Gonçalves",
        "zipcode": "65600-110"
    },
    {
        "city": "Caxias",
        "state": "MA",
        "district": "Castelo Branco",
        "street": "Travessa Marechal Costa e Silva",
        "zipcode": "65604-220"
    },
    {
        "city": "Caxias",
        "state": "MA",
        "district": "Centro",
        "street": "Travessa do Noronha",
        "zipcode": "65602-070"
    },
    {
        "city": "Caxias",
        "state": "MA",
        "district": "Centro",
        "street": "Rua Padre Gerosa",
        "zipcode": "65602-080"
    },
    {
        "city": "Caxias",
        "state": "MA",
        "district": "Centro",
        "street": "Praça do Panteon",
        "zipcode": "65602-000"
    },
    {
        "city": "Caxias",
        "state": "MA",
        "district": "São Francisco",
        "street": "Travessa Paulo Afonso",
        "zipcode": "65600-600"
    },
    {
        "city": "Caxias",
        "state": "MA",
        "district": "Centro",
        "street": "Rua da Pedreira",
        "zipcode": "65600-120"
    },
    {
        "city": "Caxias",
        "state": "MA",
        "district": "Castelo Branco",
        "street": "Rua Presidente Kennedy",
        "zipcode": "65604-230"
    },
    {
        "city": "Caxias",
        "state": "MA",
        "district": "Nova Caxias",
        "street": "Largo Raimundo Santos",
        "zipcode": "65604-250"
    },
    {
        "city": "Caxias",
        "state": "MA",
        "district": "Centro",
        "street": "Rua Rio Branco",
        "zipcode": "65602-060"
    },
    {
        "city": "Caxias",
        "state": "MA",
        "district": "Centro",
        "street": "Travessa São Benedito",
        "zipcode": "65602-220"
    },
    {
        "city": "Caxias",
        "state": "MA",
        "district": "São Francisco",
        "street": "Travessa São José",
        "zipcode": "65600-550"
    },
    {
        "city": "Caxias",
        "state": "MA",
        "district": "Centro",
        "street": "Travessa Senador Costa Rodrigues",
        "zipcode": "65602-020"
    },
    {
        "city": "Caxias",
        "state": "MA",
        "district": "Centro",
        "street": "Rua Teófilo Dias",
        "zipcode": "65600-090"
    },
    {
        "city": "Caxias",
        "state": "MA",
        "district": "Teso Duro",
        "street": "Vila Teso Duro",
        "zipcode": "65600-630"
    },
    {
        "city": "Caxias",
        "state": "MA",
        "district": "Refinaria",
        "street": "Rua da Faveira",
        "zipcode": "65600-170"
    },
    {
        "city": "Caxias",
        "state": "MA",
        "district": "Centro",
        "street": "Travessa Nossa Senhora de Fátima",
        "zipcode": "65602-180"
    },
    {
        "city": "Caxias",
        "state": "MA",
        "district": "Centro",
        "street": "Praça São Sebastião",
        "zipcode": "65600-260"
    },
    {
        "city": "Caxias",
        "state": "MA",
        "district": "Vila Alecrim",
        "street": "2ª Travessa Monções",
        "zipcode": "65605-613"
    },
    {
        "city": "Caxias",
        "state": "MA",
        "district": "Vila Alecrim",
        "street": "3ª Travessa Monções",
        "zipcode": "65605-615"
    },
    {
        "city": "Caxias",
        "state": "MA",
        "district": "Vila Alecrim",
        "street": "Rua Evangelista",
        "zipcode": "65605-625"
    },
    {
        "city": "Caxias",
        "state": "MA",
        "district": "Vila Alecrim",
        "street": "Rua Matões",
        "zipcode": "65605-630"
    },
    {
        "city": "Caxias",
        "state": "MA",
        "district": "Vila Alecrim",
        "street": "Rua Monções",
        "zipcode": "65605-605"
    },
    {
        "city": "Caxias",
        "state": "MA",
        "district": "Vila Alecrim",
        "street": "Travessa Matões",
        "zipcode": "65605-633"
    },
    {
        "city": "Caxias",
        "state": "MA",
        "district": "Vila Lobão",
        "street": "Rua Chapadinha",
        "zipcode": "65605-587"
    },
    {
        "city": "Caxias",
        "state": "MA",
        "district": "Vila Lobão",
        "street": "Rua Lima Campos",
        "zipcode": "65605-563"
    },
    {
        "city": "Caxias",
        "state": "MA",
        "district": "Vila Lobão",
        "street": "Rua Palestina",
        "zipcode": "65605-575"
    },
    {
        "city": "Caxias",
        "state": "MA",
        "district": "Vila Lobão",
        "street": "Rua Pio XII",
        "zipcode": "65605-545"
    },
    {
        "city": "Caxias",
        "state": "MA",
        "district": "Vila Lobão",
        "street": "Rua Santa Inês",
        "zipcode": "65605-547"
    },
    {
        "city": "Caxias",
        "state": "MA",
        "district": "Vila Lobão",
        "street": "Rua Tutum",
        "zipcode": "65605-570"
    },
    {
        "city": "Caxias",
        "state": "MA",
        "district": "José Castro",
        "street": "Rua da Amizade",
        "zipcode": "65604-730"
    },
    {
        "city": "Caxias",
        "state": "MA",
        "district": "José Castro",
        "street": "Rua Ismael Ribeiro",
        "zipcode": "65604-760"
    },
    {
        "city": "Caxias",
        "state": "MA",
        "district": "José Castro",
        "street": "Rua Nova",
        "zipcode": "65604-735"
    },
    {
        "city": "Caxias",
        "state": "MA",
        "district": "José Castro",
        "street": "Rua São Jorge",
        "zipcode": "65604-750"
    },
    {
        "city": "Caxias",
        "state": "MA",
        "district": "Mutirão",
        "street": "Rua Antonio Ximenes",
        "zipcode": "65604-820"
    },
    {
        "city": "Caxias",
        "state": "MA",
        "district": "Mutirão",
        "street": "Rua Dezesseis de Fevereiro",
        "zipcode": "65604-835"
    },
    {
        "city": "Caxias",
        "state": "MA",
        "district": "Mutirão",
        "street": "Rua São Vicente de Paula",
        "zipcode": "65604-840"
    },
    {
        "city": "Caxias",
        "state": "MA",
        "district": "Mutirão",
        "street": "Rua Salvador Barbosa",
        "zipcode": "65604-800"
    },
    {
        "city": "Caxias",
        "state": "MA",
        "district": "Mutirão",
        "street": "Rua São Bernardo",
        "zipcode": "65604-815"
    },
    {
        "city": "Caxias",
        "state": "MA",
        "district": "João Viana",
        "street": "Rua Natal",
        "zipcode": "65605-040"
    },
    {
        "city": "Caxias",
        "state": "MA",
        "district": "Seriema",
        "street": "Rua Dois",
        "zipcode": "65603-030"
    },
    {
        "city": "Caxias",
        "state": "MA",
        "district": "Seriema",
        "street": "Rua Três",
        "zipcode": "65603-040"
    },
    {
        "city": "Caxias",
        "state": "MA",
        "district": "Seriema",
        "street": "Rua Seis",
        "zipcode": "65603-070"
    },
    {
        "city": "Caxias",
        "state": "MA",
        "district": "Seriema",
        "street": "Rua Sete",
        "zipcode": "65603-080"
    },
    {
        "city": "Caxias",
        "state": "MA",
        "district": "Seriema",
        "street": "Rua Dez",
        "zipcode": "65603-110"
    },
    {
        "city": "Caxias",
        "state": "MA",
        "district": "Seriema",
        "street": "Rua Onze",
        "zipcode": "65603-120"
    },
    {
        "city": "Caxias",
        "state": "MA",
        "district": "Seriema",
        "street": "Rua Doze",
        "zipcode": "65603-130"
    },
    {
        "city": "Caxias",
        "state": "MA",
        "district": "Seriema",
        "street": "Rua Catorze",
        "zipcode": "65603-150"
    },
    {
        "city": "Caxias",
        "state": "MA",
        "district": "Centro",
        "street": "Rua Doutor Berredo",
        "zipcode": "65604-050"
    },
    {
        "city": "Caxias",
        "state": "MA",
        "district": "Vila Lobão",
        "street": "Rua Presidente Dutra",
        "zipcode": "65605-530"
    },
    {
        "city": "Caxias",
        "state": "MA",
        "district": "Castelo Branco",
        "street": "Rua do Fio",
        "zipcode": "65604-115"
    },
    {
        "city": "Caxias",
        "state": "MA",
        "district": "Seriema",
        "street": "Rua da Floresta",
        "zipcode": "65602-723"
    },
    {
        "city": "Caxias",
        "state": "MA",
        "district": "Seriema",
        "street": "Rua Aeroporto Velho",
        "zipcode": "65602-690"
    },
    {
        "city": "Caxias",
        "state": "MA",
        "district": "Centro",
        "street": "Rua Benedito Leite",
        "zipcode": "65604-020"
    },
    {
        "city": "Caxias",
        "state": "MA",
        "district": "Seriema",
        "street": "Rua da Calma",
        "zipcode": "65602-760"
    },
    {
        "city": "Caxias",
        "state": "MA",
        "district": "Volta Redonda",
        "street": "Rua Costa Sobrinho",
        "zipcode": "65606-510"
    },
    {
        "city": "Caxias",
        "state": "MA",
        "district": "Seriema",
        "street": "Rua João Luís Albuquerque",
        "zipcode": "65603-010"
    },
    {
        "city": "Caxias",
        "state": "MA",
        "district": "Cangalheiro",
        "street": "Rua das Lages",
        "zipcode": "65606-550"
    },
    {
        "city": "Caxias",
        "state": "MA",
        "district": "Cangalheiro",
        "street": "Travessa das Lages",
        "zipcode": "65606-560"
    },
    {
        "city": "Caxias",
        "state": "MA",
        "district": "Cangalheiro",
        "street": "Rua Porto da Pólvora",
        "zipcode": "65606-540"
    },
    {
        "city": "Caxias",
        "state": "MA",
        "district": "Volta Redonda",
        "street": "Rua Quinze de Novembro",
        "zipcode": "65606-480"
    },
    {
        "city": "Caxias",
        "state": "MA",
        "district": "Volta Redonda",
        "street": "2ª Rua Rio Branco",
        "zipcode": "65606-500"
    },
    {
        "city": "Caxias",
        "state": "MA",
        "district": "Volta Redonda",
        "street": "Rua Rio Branco",
        "zipcode": "65606-490"
    },
    {
        "city": "Caxias",
        "state": "MA",
        "district": "Centro",
        "street": "Rua Santa Maria",
        "zipcode": "65602-840"
    },
    {
        "city": "Caxias",
        "state": "MA",
        "district": "Centro",
        "street": "Travessa Santa Maria",
        "zipcode": "65602-830"
    },
    {
        "city": "Caxias",
        "state": "MA",
        "district": "Seriema",
        "street": "Rua Saturnino Belo",
        "zipcode": "65602-720"
    },
    {
        "city": "Caxias",
        "state": "MA",
        "district": "Seriema",
        "street": "Rua Seriema",
        "zipcode": "65602-810"
    },
    {
        "city": "Caxias",
        "state": "MA",
        "district": "Seriema",
        "street": "Avenida Vila Arias",
        "zipcode": "65602-660"
    },
    {
        "city": "Caxias",
        "state": "MA",
        "district": "Seriema",
        "street": "2ª Travessa Vila Arias",
        "zipcode": "65602-590"
    },
    {
        "city": "Caxias",
        "state": "MA",
        "district": "Centro",
        "street": "Rua Aarão Reis",
        "zipcode": "65604-060"
    },
    {
        "city": "Caxias",
        "state": "MA",
        "district": "Seriema",
        "street": "4ª Travessa Vila Arias",
        "zipcode": "65602-610"
    },
    {
        "city": "Caxias",
        "state": "MA",
        "district": "Teso Duro",
        "street": "Travessa São Pedro",
        "zipcode": "65603-675"
    },
    {
        "city": "Caxias",
        "state": "MA",
        "district": "Raiz",
        "street": "Avenida dos Canários",
        "zipcode": "65603-700"
    },
    {
        "city": "Caxias",
        "state": "MA",
        "district": "Raiz",
        "street": "Avenida dos Pardais",
        "zipcode": "65603-730"
    },
    {
        "city": "Caxias",
        "state": "MA",
        "district": "Raiz",
        "street": "Rua Bem",
        "zipcode": "65603-740"
    },
    {
        "city": "Caxias",
        "state": "MA",
        "district": "Raiz",
        "street": "Rua das Araras",
        "zipcode": "65603-760"
    },
    {
        "city": "Caxias",
        "state": "MA",
        "district": "Centro",
        "street": "Praça Manoel Pinto da Mota",
        "zipcode": "65600-570"
    },
    {
        "city": "Caxias",
        "state": "MA",
        "district": "Seriema",
        "street": "Rua Colibris",
        "zipcode": "65602-323"
    },
    {
        "city": "Caxias",
        "state": "MA",
        "district": "Raiz",
        "street": "Rua João de Barro",
        "zipcode": "65603-770"
    },
    {
        "city": "Caxias",
        "state": "MA",
        "district": "Bacuri",
        "street": "Rua São José",
        "zipcode": "65603-820"
    },
    {
        "city": "Caxias",
        "state": "MA",
        "district": "Itapecuruzinho",
        "street": "Rua Veneza",
        "zipcode": "65606-887"
    },
    {
        "city": "Caxias",
        "state": "MA",
        "district": "Teso Duro",
        "street": "1ª Travessa da Rua Nova",
        "zipcode": "65603-623"
    },
    {
        "city": "Caxias",
        "state": "MA",
        "district": "Teso Duro",
        "street": "3ª Travessa da Pedreira",
        "zipcode": "65603-637"
    },
    {
        "city": "Caxias",
        "state": "MA",
        "district": "Teso Duro",
        "street": "6ª Travessa da Pedreira",
        "zipcode": "65603-645"
    },
    {
        "city": "Caxias",
        "state": "MA",
        "district": "Teso Duro",
        "street": "7ª Travessa da Pedreira",
        "zipcode": "65603-647"
    },
    {
        "city": "Caxias",
        "state": "MA",
        "district": "Teso Duro",
        "street": "8ª Travessa da Pedreira",
        "zipcode": "65603-650"
    },
    {
        "city": "Caxias",
        "state": "MA",
        "district": "Teso Duro",
        "street": "9ª Travessa da Pedreira",
        "zipcode": "65603-653"
    },
    {
        "city": "Caxias",
        "state": "MA",
        "district": "Teso Duro",
        "street": "Rua Cristiano Barbosa",
        "zipcode": "65603-660"
    },
    {
        "city": "Caxias",
        "state": "MA",
        "district": "Teso Duro",
        "street": "Rua da Pedreira",
        "zipcode": "65603-630"
    },
    {
        "city": "Caxias",
        "state": "MA",
        "district": "Itapecuruzinho",
        "street": "2ª Travessa do Fio",
        "zipcode": "65606-884"
    },
    {
        "city": "Caxias",
        "state": "MA",
        "district": "Dinir Silva",
        "street": "Avenida Alexandre Costa",
        "zipcode": "65605-300"
    },
    {
        "city": "Caxias",
        "state": "MA",
        "district": "Dinir Silva",
        "street": "Rua Bacabal",
        "zipcode": "65605-340"
    },
    {
        "city": "Caxias",
        "state": "MA",
        "district": "Cangalheiro",
        "street": "Rua do Espírito Santo",
        "zipcode": "65606-290"
    },
    {
        "city": "Caxias",
        "state": "MA",
        "district": "Volta Redonda",
        "street": "Rua do Espírito Santo",
        "zipcode": "65606-355"
    },
    {
        "city": "Caxias",
        "state": "MA",
        "district": "Cangalheiro",
        "street": "Rua Quarenta",
        "zipcode": "65606-283"
    },
    {
        "city": "Caxias",
        "state": "MA",
        "district": "Itapecuruzinho",
        "street": "Rodovia MA",
        "zipcode": "65606-885"
    },
    {
        "city": "Caxias",
        "state": "MA",
        "district": "Vila Lobão",
        "street": "Rua Esperantinopólis",
        "zipcode": "65605-520"
    },
    {
        "city": "Caxias",
        "state": "MA",
        "district": "Vila Lobão",
        "street": "Rua Tutóia",
        "zipcode": "65605-513"
    },
    {
        "city": "Caxias",
        "state": "MA",
        "district": "Centro",
        "street": "Rua Alfredo Beleza",
        "zipcode": "65604-055"
    },
    {
        "city": "Caxias",
        "state": "MA",
        "district": "Nova Caxias",
        "street": "Rua Doze (COHAB)",
        "zipcode": "65604-687"
    },
    {
        "city": "Caxias",
        "state": "MA",
        "district": "Nova Caxias",
        "street": "Rua Nove (COHAB)",
        "zipcode": "65604-685"
    },
    {
        "city": "Caxias",
        "state": "MA",
        "district": "COHAB",
        "street": "Rua Sete",
        "zipcode": "65604-661"
    },
    {
        "city": "Caxias",
        "state": "MA",
        "district": "Castelo Branco",
        "street": "Praça do Cemitério dos Remédios",
        "zipcode": "65600-280"
    },
    {
        "city": "Caxias",
        "state": "MA",
        "district": "Vila Alecrim",
        "street": "Rua Vitória (Vl Vitória)",
        "zipcode": "65600-700"
    },
    {
        "city": "Caxias",
        "state": "MA",
        "district": "COHAB",
        "street": "Rua Treze",
        "zipcode": "65604-667"
    },
    {
        "city": "Caxias",
        "state": "MA",
        "district": "COHAB",
        "street": "Rua Um",
        "zipcode": "65604-663"
    },
    {
        "city": "Caxias",
        "state": "MA",
        "district": "Nova Caxias",
        "street": "Rua Vinte e Um (COHAB)",
        "zipcode": "65604-673"
    },
    {
        "city": "Caxias",
        "state": "MA",
        "district": "José Castro",
        "street": "Rua Marcia Marinho",
        "zipcode": "65604-700"
    },
    {
        "city": "Caxias",
        "state": "MA",
        "district": "José Castro",
        "street": "Travessa São José",
        "zipcode": "65604-725"
    },
    {
        "city": "Caxias",
        "state": "MA",
        "district": "Volta Redonda",
        "street": "Rua Bela Vista",
        "zipcode": "65606-330"
    },
    {
        "city": "Caxias",
        "state": "MA",
        "district": "Caldeirões",
        "street": "Travessa Boa Vista",
        "zipcode": "65607-250"
    },
    {
        "city": "Caxias",
        "state": "MA",
        "district": "Volta Redonda",
        "street": "Rua Monte Castelo",
        "zipcode": "65606-380"
    },
    {
        "city": "Caxias",
        "state": "MA",
        "district": "Centro",
        "street": "2ª Travessa Palmeirinha",
        "zipcode": "65607-060"
    },
    {
        "city": "Caxias",
        "state": "MA",
        "district": "Centro",
        "street": "3ª Travessa Palmeirinha",
        "zipcode": "65607-070"
    },
    {
        "city": "Caxias",
        "state": "MA",
        "district": "Volta Redonda",
        "street": "Rua Professor Leôncio Magno",
        "zipcode": "65606-410"
    },
    {
        "city": "Caxias",
        "state": "MA",
        "district": "Caldeirões",
        "street": "Rua da Sulina",
        "zipcode": "65607-240"
    },
    {
        "city": "Caxias",
        "state": "MA",
        "district": "Trezidela",
        "street": "Travessa Santa Luzia",
        "zipcode": "65607-130"
    },
    {
        "city": "Caxias",
        "state": "MA",
        "district": "Centro",
        "street": "Travessa São Benedito",
        "zipcode": "65607-110"
    },
    {
        "city": "Caxias",
        "state": "MA",
        "district": "Volta Redonda",
        "street": "Rua São Francisco",
        "zipcode": "65606-360"
    },
    {
        "city": "Caxias",
        "state": "MA",
        "district": "Caldeirões",
        "street": "2ª Travessa São João",
        "zipcode": "65607-210"
    },
    {
        "city": "Caxias",
        "state": "MA",
        "district": "Caldeirões",
        "street": "3ª Travessa São José",
        "zipcode": "65607-160"
    },
    {
        "city": "Caxias",
        "state": "MA",
        "district": "Volta Redonda",
        "street": "Rua do Sol",
        "zipcode": "65606-320"
    },
    {
        "city": "Caxias",
        "state": "MA",
        "district": "Caldeirões",
        "street": "3ª Travessa da Vila São João",
        "zipcode": "65607-230"
    },
    {
        "city": "Caxias",
        "state": "MA",
        "district": "Volta Redonda",
        "street": "Travessa Volta Redonda",
        "zipcode": "65606-390"
    },
    {
        "city": "Caxias",
        "state": "MA",
        "district": "Centro",
        "street": "Rua Djalma Machado",
        "zipcode": "65607-040"
    },
    {
        "city": "Caxias",
        "state": "MA",
        "district": "Volta Redonda",
        "street": "Travessa Nossa Senhora de Fátima",
        "zipcode": "65606-450"
    },
    {
        "city": "Caxias",
        "state": "MA",
        "district": "Caldeirões",
        "street": "Travessa São Cristóvão",
        "zipcode": "65607-150"
    },
    {
        "city": "Caxias",
        "state": "MA",
        "district": "Fumo Verde",
        "street": "Rua da Piçarreira",
        "zipcode": "65607-760"
    },
    {
        "city": "Caxias",
        "state": "MA",
        "district": "Fumo Verde",
        "street": "Rua das Casinhas",
        "zipcode": "65607-764"
    },
    {
        "city": "Caxias",
        "state": "MA",
        "district": "Itapecuruzinho",
        "street": "Rua Um",
        "zipcode": "65607-817"
    },
    {
        "city": "Caxias",
        "state": "MA",
        "district": "Itapecuruzinho",
        "street": "Rua Três",
        "zipcode": "65607-813"
    },
    {
        "city": "Caxias",
        "state": "MA",
        "district": "Itapecuruzinho",
        "street": "Rua Beira Rio",
        "zipcode": "65607-800"
    },
    {
        "city": "Caxias",
        "state": "MA",
        "district": "Pampulha",
        "street": "Rua Itapecuruzinho",
        "zipcode": "65607-793"
    },
    {
        "city": "Caxias",
        "state": "MA",
        "district": "Pampulha",
        "street": "Rua Dez",
        "zipcode": "65606-874"
    },
    {
        "city": "Caxias",
        "state": "MA",
        "district": "Pampulha",
        "street": "Rua Vinte e Três",
        "zipcode": "65606-877"
    },
    {
        "city": "Caxias",
        "state": "MA",
        "district": "Fumo Verde",
        "street": "Rua Nossa Senhora do Carmo",
        "zipcode": "65607-765"
    },
    {
        "city": "Caxias",
        "state": "MA",
        "district": "Bacuri",
        "street": "Rua São Sebastião",
        "zipcode": "65603-870"
    },
    {
        "city": "Caxias",
        "state": "MA",
        "district": "Pampulha",
        "street": "Rua Nove",
        "zipcode": "65606-872"
    },
    {
        "city": "Caxias",
        "state": "MA",
        "district": "Dinir Silva",
        "street": "Rua Grajaú",
        "zipcode": "65605-325"
    },
    {
        "city": "Caxias",
        "state": "MA",
        "district": "Dinir Silva",
        "street": "Rua Loreto",
        "zipcode": "65605-315"
    },
    {
        "city": "Caxias",
        "state": "MA",
        "district": "Dinir Silva",
        "street": "Rua Projetada",
        "zipcode": "65605-330"
    },
    {
        "city": "Caxias",
        "state": "MA",
        "district": "Dinir Silva",
        "street": "Rua Rosário",
        "zipcode": "65605-350"
    },
    {
        "city": "Caxias",
        "state": "MA",
        "district": "Bela Vista",
        "street": "2ª Travessa Bela Vista",
        "zipcode": "65605-227"
    },
    {
        "city": "Caxias",
        "state": "MA",
        "district": "Bela Vista",
        "street": "Rua Alto da Cruz",
        "zipcode": "65605-240"
    },
    {
        "city": "Caxias",
        "state": "MA",
        "district": "Bela Vista",
        "street": "Rua da Amizade",
        "zipcode": "65605-250"
    },
    {
        "city": "Caxias",
        "state": "MA",
        "district": "Bela Vista",
        "street": "Rua São Bento",
        "zipcode": "65605-270"
    },
    {
        "city": "Caxias",
        "state": "MA",
        "district": "Cangalheiro",
        "street": "1ª Travessa do Angelim",
        "zipcode": "65606-221"
    },
    {
        "city": "Caxias",
        "state": "MA",
        "district": "Cangalheiro",
        "street": "2ª Travessa do Angelim",
        "zipcode": "65606-222"
    },
    {
        "city": "Caxias",
        "state": "MA",
        "district": "Cangalheiro",
        "street": "3ª Travessa do Fio",
        "zipcode": "65606-275"
    },
    {
        "city": "Caxias",
        "state": "MA",
        "district": "Cangalheiro",
        "street": "5ª Travessa do Angelim",
        "zipcode": "65606-225"
    },
    {
        "city": "Caxias",
        "state": "MA",
        "district": "Fumo Verde",
        "street": "Rodovia MA",
        "zipcode": "65607-775"
    },
    {
        "city": "Caxias",
        "state": "MA",
        "district": "Nova Caxias",
        "street": "Rua Dezoito (COHAB)",
        "zipcode": "65604-659"
    },
    {
        "city": "Caxias",
        "state": "MA",
        "district": "Nova Caxias",
        "street": "Rua Dois (COHAB)",
        "zipcode": "65604-652"
    },
    {
        "city": "Caxias",
        "state": "MA",
        "district": "Nova Caxias",
        "street": "Rua Onze (COHAB)",
        "zipcode": "65604-655"
    },
    {
        "city": "Caxias",
        "state": "MA",
        "district": "Nova Caxias",
        "street": "Rua Quatro (COHAB)",
        "zipcode": "65604-605"
    },
    {
        "city": "Caxias",
        "state": "MA",
        "district": "Nova Caxias",
        "street": "Rua Vinte e Dois (COHAB)",
        "zipcode": "65604-615"
    },
    {
        "city": "Caxias",
        "state": "MA",
        "district": "Nova Caxias",
        "street": "Rua Vinte e Oito (COHAB)",
        "zipcode": "65604-637"
    },
    {
        "city": "Caxias",
        "state": "MA",
        "district": "Nova Caxias",
        "street": "Rua Vinte e Seis (COHAB)",
        "zipcode": "65604-617"
    },
    {
        "city": "Caxias",
        "state": "MA",
        "district": "Nova Caxias",
        "street": "Rua Vinte e Sete (COHAB)",
        "zipcode": "65604-635"
    },
    {
        "city": "Caxias",
        "state": "MA",
        "district": "Nova Caxias",
        "street": "Avenida Um (COHAB)",
        "zipcode": "65604-610"
    },
    {
        "city": "Caxias",
        "state": "MA",
        "district": "Nova Caxias",
        "street": "Rua Dezesseis (COHAB)",
        "zipcode": "65604-645"
    },
    {
        "city": "Caxias",
        "state": "MA",
        "district": "Seriema",
        "street": "Conjunto Acaraú",
        "zipcode": "65602-680"
    },
    {
        "city": "Caxias",
        "state": "MA",
        "district": "Seriema",
        "street": "Conjunto do Ipem",
        "zipcode": "65602-630"
    },
    {
        "city": "Caxias",
        "state": "MA",
        "district": "Raiz",
        "street": "Rua do Matadouro",
        "zipcode": "65603-705"
    },
    {
        "city": "Caxias",
        "state": "MA",
        "district": "Cangalheiro",
        "street": "6ª Travessa do Angelim",
        "zipcode": "65606-226"
    },
    {
        "city": "Caxias",
        "state": "MA",
        "district": "Dinir Silva",
        "street": "Rua Pedreiras",
        "zipcode": "65605-375"
    },
    {
        "city": "Caxias",
        "state": "MA",
        "district": "Itapecuruzinho",
        "street": "Rua Manoel Vilanova",
        "zipcode": "65607-835"
    },
    {
        "city": "Caxias",
        "state": "MA",
        "district": "Itapecuruzinho",
        "street": "Rua Maria do Rosário",
        "zipcode": "65607-840"
    },
    {
        "city": "Caxias",
        "state": "MA",
        "district": "Itapecuruzinho",
        "street": "Rua São Benedito",
        "zipcode": "65607-845"
    },
    {
        "city": "Caxias",
        "state": "MA",
        "district": "Itapecuruzinho",
        "street": "Travessa São Pedro",
        "zipcode": "65607-833"
    },
    {
        "city": "Caxias",
        "state": "MA",
        "district": "Luiza Queiroz",
        "street": "Rua do Piquizeiro",
        "zipcode": "65607-726"
    },
    {
        "city": "Caxias",
        "state": "MA",
        "district": "Centro",
        "street": "Rua Agostinho Reis",
        "zipcode": "65608-030"
    },
    {
        "city": "Caxias",
        "state": "MA",
        "district": "Cangalheiro",
        "street": "Travessa do Angelim",
        "zipcode": "65606-220"
    },
    {
        "city": "Caxias",
        "state": "MA",
        "district": "Nova Caxias",
        "street": "Conjunto COHAB",
        "zipcode": "65604-400"
    },
    {
        "city": "Caxias",
        "state": "MA",
        "district": "Cangalheiro",
        "street": "1ª Travessa do Fio",
        "zipcode": "65606-260"
    },
    {
        "city": "Caxias",
        "state": "MA",
        "district": "Cangalheiro",
        "street": "Rua do Fio",
        "zipcode": "65606-250"
    },
    {
        "city": "Caxias",
        "state": "MA",
        "district": "Mutirão",
        "street": "Travessa Frei Serafim",
        "zipcode": "65604-470"
    },
    {
        "city": "Caxias",
        "state": "MA",
        "district": "João Viana",
        "street": "Conjunto João Viana",
        "zipcode": "65604-460"
    },
    {
        "city": "Caxias",
        "state": "MA",
        "district": "Mutirão",
        "street": "Travessa Luís Rocha",
        "zipcode": "65604-430"
    },
    {
        "city": "Caxias",
        "state": "MA",
        "district": "Mutirão",
        "street": "Rua Luís Rocha",
        "zipcode": "65604-420"
    },
    {
        "city": "Caxias",
        "state": "MA",
        "district": "Nova Caxias",
        "street": "Vila Manoel Araújo",
        "zipcode": "65604-480"
    },
    {
        "city": "Caxias",
        "state": "MA",
        "district": "Cangalheiro",
        "street": "Rua Três",
        "zipcode": "65606-240"
    },
    {
        "city": "Caxias",
        "state": "MA",
        "district": "Cangalheiro",
        "street": "Rua do Angelim",
        "zipcode": "65606-210"
    },
    {
        "city": "Caxias",
        "state": "MA",
        "district": "Vila Lobão",
        "street": "Vila Lobão",
        "zipcode": "65604-500"
    },
    {
        "city": "Caxias",
        "state": "MA",
        "district": "Pampulha",
        "street": "Rua Doutora Ana Karine",
        "zipcode": "65606-777"
    },
    {
        "city": "Caxias",
        "state": "MA",
        "district": "Pampulha",
        "street": "Rua Nova Vida",
        "zipcode": "65606-800"
    },
    {
        "city": "Caxias",
        "state": "MA",
        "district": "Pampulha",
        "street": "1ª Travessa Nova Vida",
        "zipcode": "65606-803"
    },
    {
        "city": "Caxias",
        "state": "MA",
        "district": "Pampulha",
        "street": "3ª Travessa Nova Vida",
        "zipcode": "65606-807"
    },
    {
        "city": "Caxias",
        "state": "MA",
        "district": "Vila São José",
        "street": "Rua Santa Maria",
        "zipcode": "65606-770"
    },
    {
        "city": "Caxias",
        "state": "MA",
        "district": "Vila São José",
        "street": "Rua São José",
        "zipcode": "65606-790"
    },
    {
        "city": "Caxias",
        "state": "MA",
        "district": "Fazendinha",
        "street": "Rua Santa Clara",
        "zipcode": "65608-615"
    },
    {
        "city": "Caxias",
        "state": "MA",
        "district": "Fazendinha",
        "street": "Rua São José",
        "zipcode": "65608-600"
    },
    {
        "city": "Caxias",
        "state": "MA",
        "district": "Pampulha",
        "street": "Rua Um",
        "zipcode": "65606-865"
    },
    {
        "city": "Caxias",
        "state": "MA",
        "district": "Pampulha",
        "street": "Rua Onze",
        "zipcode": "65606-875"
    },
    {
        "city": "Caxias",
        "state": "MA",
        "district": "Pampulha",
        "street": "Rua Seis",
        "zipcode": "65606-869"
    },
    {
        "city": "Caxias",
        "state": "MA",
        "district": "Vila São José",
        "street": "4ª Travessa da Coheb",
        "zipcode": "65606-765"
    },
    {
        "city": "Caxias",
        "state": "MA",
        "district": "Pampulha",
        "street": "4ª Travessa Nova Vida",
        "zipcode": "65606-809"
    },
    {
        "city": "Caxias",
        "state": "MA",
        "district": "Pampulha",
        "street": "2ª Travessa Nova Vida",
        "zipcode": "65606-805"
    },
    {
        "city": "Caxias",
        "state": "MA",
        "district": "Bela Vista",
        "street": "1ª Travessa Bela Vista",
        "zipcode": "65605-225"
    },
    {
        "city": "Caxias",
        "state": "MA",
        "district": "Bela Vista",
        "street": "Rua Bela Vista",
        "zipcode": "65605-220"
    },
    {
        "city": "Caxias",
        "state": "MA",
        "district": "Bela Vista",
        "street": "Rua Bom Jesus",
        "zipcode": "65605-210"
    },
    {
        "city": "Caxias",
        "state": "MA",
        "district": "Bela Vista",
        "street": "Rua Paulo Fonseca",
        "zipcode": "65605-200"
    },
    {
        "city": "Caxias",
        "state": "MA",
        "district": "João Viana",
        "street": "2ª Travessa São Bento",
        "zipcode": "65605-097"
    },
    {
        "city": "Caxias",
        "state": "MA",
        "district": "João Viana",
        "street": "3ª Travessa Benjamin Constant",
        "zipcode": "65605-115"
    },
    {
        "city": "Caxias",
        "state": "MA",
        "district": "Pampulha",
        "street": "Rodovia MA",
        "zipcode": "65606-861"
    },
    {
        "city": "Caxias",
        "state": "MA",
        "district": "João Viana",
        "street": "Rua do Poço",
        "zipcode": "65605-175"
    },
    {
        "city": "Caxias",
        "state": "MA",
        "district": "João Viana",
        "street": "Travessa da Rua Nova",
        "zipcode": "65605-135"
    },
    {
        "city": "Caxias",
        "state": "MA",
        "district": "João Viana",
        "street": "Rua Macaúba",
        "zipcode": "65605-120"
    },
    {
        "city": "Caxias",
        "state": "MA",
        "district": "Dinir Silva",
        "street": "Rua Colinas",
        "zipcode": "65605-345"
    },
    {
        "city": "Caxias",
        "state": "MA",
        "district": "Bela Vista",
        "street": "Rua Airton Sena",
        "zipcode": "65605-207"
    },
    {
        "city": "Caxias",
        "state": "MA",
        "district": "Pampulha",
        "street": "Rua Quatro",
        "zipcode": "65606-864"
    },
    {
        "city": "Caxias",
        "state": "MA",
        "district": "Vila São José",
        "street": "Rua Principal",
        "zipcode": "65606-793"
    },
    {
        "city": "Caxias",
        "state": "MA",
        "district": "Campo de Belém",
        "street": "Rua Campo do Belém",
        "zipcode": "65609-040"
    },
    {
        "city": "Caxias",
        "state": "MA",
        "district": "Centro",
        "street": "Rua Delfinópolis",
        "zipcode": "65606-090"
    },
    {
        "city": "Caxias",
        "state": "MA",
        "district": "Campo de Belém",
        "street": "1ª Travessa Doutor Walter Brito",
        "zipcode": "65609-080"
    },
    {
        "city": "Caxias",
        "state": "MA",
        "district": "Pai Geraldo",
        "street": "Rua Vereador Gentil de Oliveira",
        "zipcode": "65600-655"
    },
    {
        "city": "Caxias",
        "state": "MA",
        "district": "Itapecuruzinho",
        "street": "Rua Bacelar",
        "zipcode": "65606-895"
    },
    {
        "city": "Caxias",
        "state": "MA",
        "district": "Raiz",
        "street": "Rua do Juriti",
        "zipcode": "65603-775"
    },
    {
        "city": "Caxias",
        "state": "MA",
        "district": "Luiza Queiroz",
        "street": "Rua Josel da Silva",
        "zipcode": "65607-731"
    },
    {
        "city": "Caxias",
        "state": "MA",
        "district": "Pirajá",
        "street": "Rua Buriti (Vl DNER)",
        "zipcode": "65608-720"
    },
    {
        "city": "Caxias",
        "state": "MA",
        "district": "Seriema",
        "street": "Rua da Raiz",
        "zipcode": "65607-080"
    },
    {
        "city": "Caxias",
        "state": "MA",
        "district": "Pirajá",
        "street": "Avenida Pirajá (Vl DNER)",
        "zipcode": "65608-700"
    },
    {
        "city": "Caxias",
        "state": "MA",
        "district": "Campo de Belém",
        "street": "Avenida Doutor Walter Brito",
        "zipcode": "65609-070"
    },
    {
        "city": "Caxias",
        "state": "MA",
        "district": "Centro",
        "street": "Rua Gustavo Colaço",
        "zipcode": "65606-160"
    },
    {
        "city": "Caxias",
        "state": "MA",
        "district": "Centro",
        "street": "Praça Magalhães de Almeida",
        "zipcode": "65606-060"
    },
    {
        "city": "Caxias",
        "state": "MA",
        "district": "Campo de Belém",
        "street": "3ª Travessa Maria do Rosário",
        "zipcode": "65609-030"
    },
    {
        "city": "Caxias",
        "state": "MA",
        "district": "Campo de Belém",
        "street": "1ª Travessa Maria do Rosário",
        "zipcode": "65609-010"
    },
    {
        "city": "Caxias",
        "state": "MA",
        "district": "Campo de Belém",
        "street": "Rua Maria do Rosário",
        "zipcode": "65609-000"
    },
    {
        "city": "Caxias",
        "state": "MA",
        "district": "Campo de Belém",
        "street": "Rua da José Tadeu",
        "zipcode": "65609-060"
    },
    {
        "city": "Caxias",
        "state": "MA",
        "district": "Caldeirões",
        "street": "Rua Piauí",
        "zipcode": "65608-550"
    },
    {
        "city": "Caxias",
        "state": "MA",
        "district": "Centro",
        "street": "Rua Primeiro de Agosto",
        "zipcode": "65606-070"
    },
    {
        "city": "Caxias",
        "state": "MA",
        "district": "Centro",
        "street": "Travessa Rio de Janeiro",
        "zipcode": "65606-140"
    },
    {
        "city": "Caxias",
        "state": "MA",
        "district": "Trezidela",
        "street": "Rua Rio de Janeiro",
        "zipcode": "65607-680"
    },
    {
        "city": "Caxias",
        "state": "MA",
        "district": "Centro",
        "street": "Praça Salustiano Rego",
        "zipcode": "65606-150"
    },
    {
        "city": "Caxias",
        "state": "MA",
        "district": "Cangalheiro",
        "street": "Rua Sinésio Santos",
        "zipcode": "65606-190"
    },
    {
        "city": "Caxias",
        "state": "MA",
        "district": "Pirajá",
        "street": "Rua São Cristóvão",
        "zipcode": "65608-450"
    },
    {
        "city": "Caxias",
        "state": "MA",
        "district": "Centro",
        "street": "Travessa São Pedro",
        "zipcode": "65608-510"
    },
    {
        "city": "Caxias",
        "state": "MA",
        "district": "Seriema",
        "street": "2ª Travessa Sesoste Pereira",
        "zipcode": "65608-520"
    },
    {
        "city": "Caxias",
        "state": "MA",
        "district": "Caldeirões",
        "street": "Rua Sete",
        "zipcode": "65608-500"
    },
    {
        "city": "Caxias",
        "state": "MA",
        "district": "Centro",
        "street": "Rua Treze de Maio",
        "zipcode": "65606-180"
    },
    {
        "city": "Caxias",
        "state": "MA",
        "district": "Centro",
        "street": "Rua do Norte",
        "zipcode": "65606-110"
    },
    {
        "city": "Caxias",
        "state": "MA",
        "district": "Campo de Belém",
        "street": "Rua Jerusalém",
        "zipcode": "65609-100"
    },
    {
        "city": "Caxias",
        "state": "MA",
        "district": "Caldeirões",
        "street": "Rua Padre Cícero",
        "zipcode": "65608-560"
    },
    {
        "city": "Caxias",
        "state": "MA",
        "district": "Vila São José",
        "street": "Rua da Coheb",
        "zipcode": "65606-760"
    },
    {
        "city": "Caxias",
        "state": "MA",
        "district": "Salobro",
        "street": "2ª Travessa do Parnásio",
        "zipcode": "65609-623"
    },
    {
        "city": "Caxias",
        "state": "MA",
        "district": "Salobro",
        "street": "2ª Travessa Ernesto Geisel",
        "zipcode": "65609-573"
    },
    {
        "city": "Caxias",
        "state": "MA",
        "district": "Salobro",
        "street": "Rua Heráclito Noronha",
        "zipcode": "65609-527"
    },
    {
        "city": "Caxias",
        "state": "MA",
        "district": "Salobro",
        "street": "Travessa da Rua Nova",
        "zipcode": "65609-523"
    },
    {
        "city": "Caxias",
        "state": "MA",
        "district": "Salobro",
        "street": "Travessa do Parnásio",
        "zipcode": "65609-625"
    },
    {
        "city": "Caxias",
        "state": "MA",
        "district": "Salobro",
        "street": "Travessa Janio Quadros",
        "zipcode": "65609-565"
    },
    {
        "city": "Caxias",
        "state": "MA",
        "district": "Vila Alecrim",
        "street": "2ª Travessa do Mangueirão",
        "zipcode": "65605-675"
    },
    {
        "city": "Caxias",
        "state": "MA",
        "district": "Vila Alecrim",
        "street": "Rua Carema",
        "zipcode": "65605-685"
    },
    {
        "city": "Caxias",
        "state": "MA",
        "district": "Vila Alecrim",
        "street": "Rua Carolina",
        "zipcode": "65605-687"
    },
    {
        "city": "Caxias",
        "state": "MA",
        "district": "Vila Alecrim",
        "street": "Rua do Sol",
        "zipcode": "65605-695"
    },
    {
        "city": "Caxias",
        "state": "MA",
        "district": "Vila Alecrim",
        "street": "Travessa do Poço",
        "zipcode": "65605-689"
    },
    {
        "city": "Caxias",
        "state": "MA",
        "district": "Luiza Queiroz",
        "street": "Rua Luis dos Santos",
        "zipcode": "65607-725"
    },
    {
        "city": "Caxias",
        "state": "MA",
        "district": "Luiza Queiroz",
        "street": "Rua Roseno Barbosa",
        "zipcode": "65607-715"
    },
    {
        "city": "Caxias",
        "state": "MA",
        "district": "Ponte",
        "street": "Rua das Acácias",
        "zipcode": "65609-295"
    },
    {
        "city": "Caxias",
        "state": "MA",
        "district": "Volta Redonda",
        "street": "Beco Antônio Edson",
        "zipcode": "65606-733"
    },
    {
        "city": "Caxias",
        "state": "MA",
        "district": "Ponte",
        "street": "Rua Aniceto Cruz",
        "zipcode": "65607-560"
    },
    {
        "city": "Caxias",
        "state": "MA",
        "district": "Ponte",
        "street": "Rua Belo Horizonte",
        "zipcode": "65607-600"
    },
    {
        "city": "Caxias",
        "state": "MA",
        "district": "Salobro",
        "street": "Travessa Berenice Castelo",
        "zipcode": "65609-600"
    },
    {
        "city": "Caxias",
        "state": "MA",
        "district": "Salobro",
        "street": "Travessa Campos Sales",
        "zipcode": "65609-540"
    },
    {
        "city": "Caxias",
        "state": "MA",
        "district": "Trezidela",
        "street": "Travessa Cândido Alves",
        "zipcode": "65609-700"
    },
    {
        "city": "Caxias",
        "state": "MA",
        "district": "Ponte",
        "street": "Rua Cantinho do Céu",
        "zipcode": "65609-660"
    },
    {
        "city": "Caxias",
        "state": "MA",
        "district": "Salobro",
        "street": "Rua do Cemitério",
        "zipcode": "65609-610"
    },
    {
        "city": "Caxias",
        "state": "MA",
        "district": "Salobro",
        "street": "Travessa Ernesto Geisel",
        "zipcode": "65609-570"
    },
    {
        "city": "Caxias",
        "state": "MA",
        "district": "Trezidela",
        "street": "Rua da Fazendinha",
        "zipcode": "65607-530"
    },
    {
        "city": "Caxias",
        "state": "MA",
        "district": "Ponte",
        "street": "Rua Guilherme de Abreu",
        "zipcode": "65609-470"
    },
    {
        "city": "Caxias",
        "state": "MA",
        "district": "Salobro",
        "street": "Rua Jânio Quadros",
        "zipcode": "65609-550"
    },
    {
        "city": "Caxias",
        "state": "MA",
        "district": "Ponte",
        "street": "Rua do Matadouro",
        "zipcode": "65607-610"
    },
    {
        "city": "Caxias",
        "state": "MA",
        "district": "Ponte",
        "street": "Travessa do Matadouro",
        "zipcode": "65607-620"
    },
    {
        "city": "Caxias",
        "state": "MA",
        "district": "Trezidela",
        "street": "Rua Odorico Mendes",
        "zipcode": "65607-370"
    },
    {
        "city": "Caxias",
        "state": "MA",
        "district": "Trezidela",
        "street": "1ª Travessa Odorico Mendes",
        "zipcode": "65607-380"
    },
    {
        "city": "Caxias",
        "state": "MA",
        "district": "Trezidela",
        "street": "2ª Travessa Odorico Mendes",
        "zipcode": "65607-390"
    },
    {
        "city": "Caxias",
        "state": "MA",
        "district": "Tamarineiro",
        "street": "Rua Morro da Santa",
        "zipcode": "65608-580"
    },
    {
        "city": "Caxias",
        "state": "MA",
        "district": "Caldeirões",
        "street": "Rua Marcos Rodrigues",
        "zipcode": "65608-425"
    },
    {
        "city": "Caxias",
        "state": "MA",
        "district": "Luiza Queiroz",
        "street": "Rua Jovana Verônica",
        "zipcode": "65607-709"
    },
    {
        "city": "Caxias",
        "state": "MA",
        "district": "Luiza Queiroz",
        "street": "Rua José Gracy",
        "zipcode": "65607-723"
    },
    {
        "city": "Caxias",
        "state": "MA",
        "district": "Luiza Queiroz",
        "street": "Rua Evangelista",
        "zipcode": "65607-717"
    },
    {
        "city": "Caxias",
        "state": "MA",
        "district": "Centro",
        "street": "Rua João Pereira Lubambo",
        "zipcode": "65607-020"
    },
    {
        "city": "Caxias",
        "state": "MA",
        "district": "Luiza Queiroz",
        "street": "Rua Pedro Batista",
        "zipcode": "65607-707"
    },
    {
        "city": "Caxias",
        "state": "MA",
        "district": "Salobro",
        "street": "Travessa do Parnazio",
        "zipcode": "65609-630"
    },
    {
        "city": "Caxias",
        "state": "MA",
        "district": "Ponte",
        "street": "Rua dos Prazeres",
        "zipcode": "65609-640"
    },
    {
        "city": "Caxias",
        "state": "MA",
        "district": "Trezidela",
        "street": "Travessa Primeiro de Maio",
        "zipcode": "65607-420"
    },
    {
        "city": "Caxias",
        "state": "MA",
        "district": "Pirajá",
        "street": "Rua do Sanharó",
        "zipcode": "65608-410"
    },
    {
        "city": "Caxias",
        "state": "MA",
        "district": "Ponte",
        "street": "Rua Santa Luzia",
        "zipcode": "65607-640"
    },
    {
        "city": "Caxias",
        "state": "MA",
        "district": "Ponte",
        "street": "2ª Travessa Santa Luzia",
        "zipcode": "65607-660"
    },
    {
        "city": "Caxias",
        "state": "MA",
        "district": "Salobro",
        "street": "Rua São Francisco",
        "zipcode": "65609-520"
    },
    {
        "city": "Caxias",
        "state": "MA",
        "district": "Trezidela",
        "street": "Rua São José",
        "zipcode": "65607-440"
    },
    {
        "city": "Caxias",
        "state": "MA",
        "district": "Trezidela",
        "street": "1ª Travessa São José",
        "zipcode": "65607-450"
    },
    {
        "city": "Caxias",
        "state": "MA",
        "district": "Trezidela",
        "street": "3ª Travessa São José",
        "zipcode": "65607-470"
    },
    {
        "city": "Caxias",
        "state": "MA",
        "district": "Trezidela",
        "street": "4ª Travessa São José",
        "zipcode": "65607-480"
    },
    {
        "city": "Caxias",
        "state": "MA",
        "district": "Trezidela",
        "street": "6ª Travessa São José",
        "zipcode": "65607-510"
    },
    {
        "city": "Caxias",
        "state": "MA",
        "district": "Trezidela",
        "street": "7ª Travessa São José",
        "zipcode": "65607-520"
    },
    {
        "city": "Caxias",
        "state": "MA",
        "district": "Salobro",
        "street": "Travessa São José",
        "zipcode": "65609-680"
    },
    {
        "city": "Caxias",
        "state": "MA",
        "district": "Ponte",
        "street": "Travessa São Vicente de Paula",
        "zipcode": "65609-730"
    },
    {
        "city": "Caxias",
        "state": "MA",
        "district": "Trezidela",
        "street": "Travessa Sete de Setembro",
        "zipcode": "65607-360"
    },
    {
        "city": "Caxias",
        "state": "MA",
        "district": "Ponte",
        "street": "Rua Vera de Holanda",
        "zipcode": "65609-450"
    },
    {
        "city": "Caxias",
        "state": "MA",
        "district": "Centro",
        "street": "Rua Aarão Reis",
        "zipcode": "65606-020"
    },
    {
        "city": "Caxias",
        "state": "MA",
        "district": "Centro",
        "street": "Travessa do Hospital",
        "zipcode": "65606-040"
    },
    {
        "city": "Caxias",
        "state": "MA",
        "district": "Pampulha",
        "street": "Travessa Posto Fiscal",
        "zipcode": "65606-810"
    },
    {
        "city": "Caxias",
        "state": "MA",
        "district": "Ponte",
        "street": "Rua José Medeiros",
        "zipcode": "65609-265"
    },
    {
        "city": "Caxias",
        "state": "MA",
        "district": "Ponte",
        "street": "Travessa Primeiro de Agosto",
        "zipcode": "65609-347"
    },
    {
        "city": "Caxias",
        "state": "MA",
        "district": "Campo de Belém",
        "street": "5ª Travessa Maria do Rosário",
        "zipcode": "65609-035"
    },
    {
        "city": "Caxias",
        "state": "MA",
        "district": "Campo de Belém",
        "street": "Travessa Ernesto Geisel",
        "zipcode": "65609-145"
    },
    {
        "city": "Caxias",
        "state": "MA",
        "district": "Centro",
        "street": "Rua Menino Deus",
        "zipcode": "65608-175"
    },
    {
        "city": "Caxias",
        "state": "MA",
        "district": "Centro",
        "street": "Rua Raimundo S Magalhães",
        "zipcode": "65608-075"
    },
    {
        "city": "Caxias",
        "state": "MA",
        "district": "Ponte",
        "street": "2ª Travessa do Fio",
        "zipcode": "65609-325"
    },
    {
        "city": "Caxias",
        "state": "MA",
        "district": "Centro",
        "street": "Rua Santa Mônica",
        "zipcode": "65608-065"
    },
    {
        "city": "Caxias",
        "state": "MA",
        "district": "Caldeirões",
        "street": "Rua Bom Jesus dos Passos",
        "zipcode": "65608-360"
    },
    {
        "city": "Caxias",
        "state": "MA",
        "district": "Centro",
        "street": "Travessa Caetano Carvalho",
        "zipcode": "65608-170"
    },
    {
        "city": "Caxias",
        "state": "MA",
        "district": "Volta Redonda",
        "street": "Rua do Cajueiro",
        "zipcode": "65606-710"
    },
    {
        "city": "Caxias",
        "state": "MA",
        "district": "Caldeirões",
        "street": "5ª Travessa dos Caldeirões",
        "zipcode": "65607-310"
    },
    {
        "city": "Caxias",
        "state": "MA",
        "district": "Caldeirões",
        "street": "2ª Travessa dos Caldeirões",
        "zipcode": "65608-310"
    },
    {
        "city": "Caxias",
        "state": "MA",
        "district": "Caldeirões",
        "street": "1ª Travessa dos Caldeirões",
        "zipcode": "65608-300"
    },
    {
        "city": "Caxias",
        "state": "MA",
        "district": "Luiza Queiroz",
        "street": "Rua Júnior Martins",
        "zipcode": "65607-703"
    },
    {
        "city": "Caxias",
        "state": "MA",
        "district": "Cangalheiro",
        "street": "2ª Travessa Cotovelo",
        "zipcode": "65606-650"
    },
    {
        "city": "Caxias",
        "state": "MA",
        "district": "Volta Redonda",
        "street": "Travessa Cristino Gonçalves",
        "zipcode": "65606-700"
    },
    {
        "city": "Caxias",
        "state": "MA",
        "district": "Trezidela",
        "street": "Rua Dezesseis de Janeiro",
        "zipcode": "65608-380"
    },
    {
        "city": "Caxias",
        "state": "MA",
        "district": "Volta Redonda",
        "street": "Avenida Edson Lobão",
        "zipcode": "65606-690"
    },
    {
        "city": "Caxias",
        "state": "MA",
        "district": "Centro",
        "street": "Rua Esplanada da Estação",
        "zipcode": "65608-090"
    },
    {
        "city": "Caxias",
        "state": "MA",
        "district": "Centro",
        "street": "Rua Esplanada das Oficinas",
        "zipcode": "65608-150"
    },
    {
        "city": "Caxias",
        "state": "MA",
        "district": "Trezidela",
        "street": "Rua da Estrela",
        "zipcode": "65608-220"
    },
    {
        "city": "Caxias",
        "state": "MA",
        "district": "Ponte",
        "street": "Avenida Francisco Castro",
        "zipcode": "65609-410"
    },
    {
        "city": "Caxias",
        "state": "MA",
        "district": "Centro",
        "street": "Avenida Getúlio Vargas",
        "zipcode": "65608-140"
    },
    {
        "city": "Caxias",
        "state": "MA",
        "district": "Campo de Belém",
        "street": "Travessa da Glória",
        "zipcode": "65609-220"
    },
    {
        "city": "Caxias",
        "state": "MA",
        "district": "Ponte",
        "street": "Avenida da Independência",
        "zipcode": "65609-300"
    },
    {
        "city": "Caxias",
        "state": "MA",
        "district": "Campo de Belém",
        "street": "Rua José Sarney",
        "zipcode": "65609-200"
    },
    {
        "city": "Caxias",
        "state": "MA",
        "district": "Campo de Belém",
        "street": "Travessa José Tadeu",
        "zipcode": "65609-190"
    },
    {
        "city": "Caxias",
        "state": "MA",
        "district": "Trezidela",
        "street": "Rua Magalhães de Almeida",
        "zipcode": "65607-400"
    },
    {
        "city": "Caxias",
        "state": "MA",
        "district": "Centro",
        "street": "Rua Menino Deus",
        "zipcode": "65608-210"
    },
    {
        "city": "Caxias",
        "state": "MA",
        "district": "Campo de Belém",
        "street": "Rua Monte Carmelo",
        "zipcode": "65609-160"
    },
    {
        "city": "Caxias",
        "state": "MA",
        "district": "Campo de Belém",
        "street": "Rua Monte Claro",
        "zipcode": "65609-150"
    },
    {
        "city": "Caxias",
        "state": "MA",
        "district": "Centro",
        "street": "Avenida Nereu Bittencourt",
        "zipcode": "65608-180"
    },
    {
        "city": "Caxias",
        "state": "MA",
        "district": "Trezidela",
        "street": "Rua Nova",
        "zipcode": "65608-320"
    },
    {
        "city": "Caxias",
        "state": "MA",
        "district": "Centro",
        "street": "Rua da Palmeirinha",
        "zipcode": "65608-110"
    },
    {
        "city": "Caxias",
        "state": "MA",
        "district": "Centro",
        "street": "Avenida Paulo Ramos",
        "zipcode": "65608-120"
    },
    {
        "city": "Caxias",
        "state": "MA",
        "district": "Campo de Belém",
        "street": "Rua Paulo VI",
        "zipcode": "65609-230"
    },
    {
        "city": "Caxias",
        "state": "MA",
        "district": "Salobro",
        "street": "Rua do Capão",
        "zipcode": "65609-535"
    },
    {
        "city": "Caxias",
        "state": "MA",
        "district": "Trezidela",
        "street": "1ª Travessa Rodrigo Otávio",
        "zipcode": "65609-280"
    },
    {
        "city": "Caxias",
        "state": "MA",
        "district": "Trezidela",
        "street": "Rua Santa Luzia",
        "zipcode": "65608-260"
    },
    {
        "city": "Caxias",
        "state": "MA",
        "district": "Ponte",
        "street": "Rua Santa Rita",
        "zipcode": "65609-380"
    },
    {
        "city": "Caxias",
        "state": "MA",
        "district": "Ponte",
        "street": "Travessa Segisnando Moura",
        "zipcode": "65609-370"
    },
    {
        "city": "Caxias",
        "state": "MA",
        "district": "Trezidela",
        "street": "Rua Sete de Setembro",
        "zipcode": "65607-350"
    },
    {
        "city": "Caxias",
        "state": "MA",
        "district": "Trezidela",
        "street": "3ª Travessa do Tamarineiro",
        "zipcode": "65608-270"
    },
    {
        "city": "Caxias",
        "state": "MA",
        "district": "Trezidela",
        "street": "2ª Travessa do Tamarineiro",
        "zipcode": "65608-250"
    },
    {
        "city": "Caxias",
        "state": "MA",
        "district": "Centro",
        "street": "Rua do Trilho Velho",
        "zipcode": "65608-080"
    },
    {
        "city": "Caxias",
        "state": "MA",
        "district": "Ponte",
        "street": "Travessa da União",
        "zipcode": "65609-430"
    },
    {
        "city": "Caxias",
        "state": "MA",
        "district": "Caldeirões",
        "street": "Rua Vila São João",
        "zipcode": "65608-340"
    },
    {
        "city": "Caxias",
        "state": "MA",
        "district": "Ponte",
        "street": "Rua Vespasiano Ramos",
        "zipcode": "65609-350"
    },
    {
        "city": "Caxias",
        "state": "MA",
        "district": "Caldeirões",
        "street": "2ª Travessa da BR",
        "zipcode": "65607-200"
    },
    {
        "city": "Caxias",
        "state": "MA",
        "district": "Ponte",
        "street": "Travessa dos Prazeres",
        "zipcode": "65609-650"
    },
    {
        "city": "Caxias",
        "state": "MA",
        "district": "Centro",
        "street": "Travessa Siqueira Campos",
        "zipcode": "65608-070"
    },
    {
        "city": "Caxias",
        "state": "MA",
        "district": "Cangalheiro",
        "street": "Travessa Tiradentes",
        "zipcode": "65606-670"
    },
    {
        "city": "Caxias",
        "state": "MA",
        "district": "Fumo Verde",
        "street": "Parque Veneza",
        "zipcode": "65607-762"
    },
    {
        "city": "Caxias",
        "state": "MA",
        "district": "Vila São José",
        "street": "3ª Travessa da Coheb",
        "zipcode": "65606-764"
    },
    {
        "city": "Caxias",
        "state": "MA",
        "district": "Pampulha",
        "street": "Rua Filomena Castro Barros",
        "zipcode": "65607-785"
    },
    {
        "city": "Caxias",
        "state": "MA",
        "district": "Pampulha",
        "street": "Rua Bacuri",
        "zipcode": "65607-795"
    },
    {
        "city": "Caxias",
        "state": "MA",
        "district": "Salobro",
        "street": "Rua Nova",
        "zipcode": "65609-525"
    },
    {
        "city": "Caxias",
        "state": "MA",
        "district": "Pampulha",
        "street": "Avenida Constantino Castro",
        "zipcode": "65606-860"
    },
    {
        "city": "Caxias",
        "state": "MA",
        "district": "Pirajá",
        "street": "Travessa Padre Cícero (Vl DNER)",
        "zipcode": "65608-707"
    },
    {
        "city": "Caxias",
        "state": "MA",
        "district": "Teso Duro",
        "street": "Rua Nova",
        "zipcode": "65603-620"
    },
    {
        "city": "Caxias",
        "state": "MA",
        "district": "João Viana",
        "street": "4ª Travessa Santo Antonio",
        "zipcode": "65605-019"
    },
    {
        "city": "Caxias",
        "state": "MA",
        "district": "Vila Alecrim",
        "street": "3ª Travessa do Mangueirão",
        "zipcode": "65605-677"
    },
    {
        "city": "Caxias",
        "state": "MA",
        "district": "Vila Lobão",
        "street": "2ª Travessa da Coheb",
        "zipcode": "65605-580"
    },
    {
        "city": "Caxias",
        "state": "MA",
        "district": "Nova Caxias",
        "street": "Rua Quinze (COHAB)",
        "zipcode": "65604-670"
    },
    {
        "city": "Caxias",
        "state": "MA",
        "district": "Nova Caxias",
        "street": "Rua Cinco (COHAB)",
        "zipcode": "65604-683"
    },
    {
        "city": "Caxias",
        "state": "MA",
        "district": "Nova Caxias",
        "street": "Rua Dezenove (COHAB)",
        "zipcode": "65604-643"
    },
    {
        "city": "Caxias",
        "state": "MA",
        "district": "João Viana",
        "street": "Travessa São Bento",
        "zipcode": "65605-095"
    },
    {
        "city": "Caxias",
        "state": "MA",
        "district": "Morro do Alecrim",
        "street": "Travessa João da Costa Alecrim",
        "zipcode": "65604-377"
    },
    {
        "city": "Caxias",
        "state": "MA",
        "district": "Mutirão",
        "street": "Rua Nossa Senhora da Conceição",
        "zipcode": "65604-830"
    },
    {
        "city": "Caxias",
        "state": "MA",
        "district": "Ponte",
        "street": "Avenida Luis Sales",
        "zipcode": "65609-330"
    },
    {
        "city": "Caxias",
        "state": "MA",
        "district": "Ponte",
        "street": "Rua Beira Rio",
        "zipcode": "65609-345"
    },
    {
        "city": "Caxias",
        "state": "MA",
        "district": "Seriema",
        "street": "Rua Quatro",
        "zipcode": "65603-050"
    },
    {
        "city": "Caxias",
        "state": "MA",
        "district": "Pirajá",
        "street": "Rua Padre Cícero (Vl DNER)",
        "zipcode": "65608-705"
    },
    {
        "city": "Caxias",
        "state": "MA",
        "district": "Ponte",
        "street": "Avenida Rodrigo Otávio",
        "zipcode": "65609-270"
    },
    {
        "city": "Caxias",
        "state": "MA",
        "district": "Centro",
        "street": "2ª Travessa São Pedro",
        "zipcode": "65608-165"
    },
    {
        "city": "Caxias",
        "state": "MA",
        "district": "Centro",
        "street": "Travessa da Galeana",
        "zipcode": "65608-063"
    },
    {
        "city": "Caxias",
        "state": "MA",
        "district": "Caldeirões",
        "street": "Rua Boa Vista",
        "zipcode": "65608-370"
    },
    {
        "city": "Caxias",
        "state": "MA",
        "district": "Centro",
        "street": "Rua Bom Pastor",
        "zipcode": "65606-120"
    },
    {
        "city": "Caxias",
        "state": "MA",
        "district": "Campo de Belém",
        "street": "Rua Castelo Branco",
        "zipcode": "65609-130"
    },
    {
        "city": "Caxias",
        "state": "MA",
        "district": "Salobro",
        "street": "Rua Ernesto Geisel",
        "zipcode": "65609-560"
    },
    {
        "city": "Caxias",
        "state": "MA",
        "district": "Cangalheiro",
        "street": "2ª Travessa do Espírito Santo",
        "zipcode": "65606-310"
    },
    {
        "city": "Caxias",
        "state": "MA",
        "district": "Centro",
        "street": "Conjunto da Esplanada",
        "zipcode": "65608-530"
    },
    {
        "city": "Caxias",
        "state": "MA",
        "district": "Trezidela",
        "street": "Travessa da Fazendinha",
        "zipcode": "65607-540"
    },
    {
        "city": "Caxias",
        "state": "MA",
        "district": "Ponte",
        "street": "Travessa do Fio",
        "zipcode": "65609-320"
    },
    {
        "city": "Caxias",
        "state": "MA",
        "district": "Ponte",
        "street": "Travessa Francisco Castro",
        "zipcode": "65609-420"
    },
    {
        "city": "Caxias",
        "state": "MA",
        "district": "Salobro",
        "street": "Rua Getúlio Vargas",
        "zipcode": "65609-580"
    },
    {
        "city": "Caxias",
        "state": "MA",
        "district": "Campo de Belém",
        "street": "Rua da Glória",
        "zipcode": "65609-250"
    },
    {
        "city": "Caxias",
        "state": "MA",
        "district": "Campo de Belém",
        "street": "Travessa José Sarney",
        "zipcode": "65609-210"
    },
    {
        "city": "Caxias",
        "state": "MA",
        "district": "Castelo Branco",
        "street": "Rua Marechal Costa e Silva",
        "zipcode": "65604-210"
    },
    {
        "city": "Caxias",
        "state": "MA",
        "district": "Campo de Belém",
        "street": "2ª Travessa Maria do Rosário",
        "zipcode": "65609-020"
    },
    {
        "city": "Caxias",
        "state": "MA",
        "district": "Trezidela",
        "street": "Travessa Nossa Senhora de Nazaré",
        "zipcode": "65608-470"
    },
    {
        "city": "Caxias",
        "state": "MA",
        "district": "Salobro",
        "street": "Rua do Parnazio",
        "zipcode": "65609-620"
    },
    {
        "city": "Caxias",
        "state": "MA",
        "district": "Campo de Belém",
        "street": "Rua Raimundo Vieira",
        "zipcode": "65609-170"
    },
    {
        "city": "Caxias",
        "state": "MA",
        "district": "Centro",
        "street": "Rua Josafá Gomes",
        "zipcode": "65608-093"
    },
    {
        "city": "Caxias",
        "state": "MA",
        "district": "Caldeirões",
        "street": "Travessa São Francisco",
        "zipcode": "65608-330"
    },
    {
        "city": "Caxias",
        "state": "MA",
        "district": "Trezidela",
        "street": "2ª Travessa São José",
        "zipcode": "65607-460"
    },
    {
        "city": "Caxias",
        "state": "MA",
        "district": "Trezidela",
        "street": "5ª Travessa São José",
        "zipcode": "65607-500"
    },
    {
        "city": "Caxias",
        "state": "MA",
        "district": "Ponte",
        "street": "Rua São José",
        "zipcode": "65609-480"
    },
    {
        "city": "Caxias",
        "state": "MA",
        "district": "Ponte",
        "street": "Rua São Judas Tadeu",
        "zipcode": "65607-670"
    },
    {
        "city": "Caxias",
        "state": "MA",
        "district": "Ponte",
        "street": "2ª Travessa Segisnando Moura",
        "zipcode": "65609-720"
    },
    {
        "city": "Caxias",
        "state": "MA",
        "district": "Centro",
        "street": "Rua Siqueira Campos",
        "zipcode": "65608-050"
    },
    {
        "city": "Caxias",
        "state": "MA",
        "district": "Trezidela",
        "street": "4ª Travessa do Tamarineiro",
        "zipcode": "65608-280"
    },
    {
        "city": "Caxias",
        "state": "MA",
        "district": "Trezidela",
        "street": "Rua dos Tamarineiros",
        "zipcode": "65608-230"
    },
    {
        "city": "Caxias",
        "state": "MA",
        "district": "Centro",
        "street": "Rua Vinte e Quatro de Outubro",
        "zipcode": "65608-130"
    },
    {
        "city": "Caxias",
        "state": "MA",
        "district": "Ponte",
        "street": "Rua Segisnando Moura",
        "zipcode": "65609-360"
    },
    {
        "city": "Caxias",
        "state": "MA",
        "district": "Seriema",
        "street": "Travessa das Flores",
        "zipcode": "65602-750"
    },
    {
        "city": "Caxias",
        "state": "MA",
        "district": "Caldeirões",
        "street": "Rua Belo Horizonte",
        "zipcode": "65608-570"
    },
    {
        "city": "Caxias",
        "state": "MA",
        "district": "Vila São José",
        "street": "Rua Cento e Cinquenta",
        "zipcode": "65606-767"
    },
    {
        "city": "Caxias",
        "state": "MA",
        "district": "Vila São José",
        "street": "Travessa São Francisco",
        "zipcode": "65606-813"
    },
    {
        "city": "Caxias",
        "state": "MA",
        "district": "São Francisco",
        "street": "2ª Travessa Santa Barbara",
        "zipcode": "65600-525"
    },
    {
        "city": "Caxias",
        "state": "MA",
        "district": "Pampulha",
        "street": "Rua Dois",
        "zipcode": "65606-867"
    },
    {
        "city": "Caxias",
        "state": "MA",
        "district": "Caldeirões",
        "street": "1ª Travessa da Ferrovia",
        "zipcode": "65607-295"
    },
    {
        "city": "Caxias",
        "state": "MA",
        "district": "Caldeirões",
        "street": "2ª Travessa Ferrovia",
        "zipcode": "65607-297"
    },
    {
        "city": "Caxias",
        "state": "MA",
        "district": "João Viana",
        "street": "Avenida Benjamin Constant",
        "zipcode": "65605-180"
    },
    {
        "city": "Caxias",
        "state": "MA",
        "district": "Vila Lobão",
        "street": "Avenida Alexandre Costa",
        "zipcode": "65605-515"
    },
    {
        "city": "Caxias",
        "state": "MA",
        "district": "Dinir Silva",
        "street": "Rua Balsas",
        "zipcode": "65605-335"
    },
    {
        "city": "Caxias",
        "state": "MA",
        "district": "Vila Alecrim",
        "street": "1ª Travessa Monções",
        "zipcode": "65605-610"
    },
    {
        "city": "Caxias",
        "state": "MA",
        "district": "Vila Alecrim",
        "street": "Rua do Mangueirão",
        "zipcode": "65605-670"
    },
    {
        "city": "Caxias",
        "state": "MA",
        "district": "Vila Alecrim",
        "street": "Rua Lena Costa",
        "zipcode": "65605-683"
    },
    {
        "city": "Caxias",
        "state": "MA",
        "district": "Bela Vista",
        "street": "1ª Travessa Manoel Emídio",
        "zipcode": "65605-230"
    },
    {
        "city": "Caxias",
        "state": "MA",
        "district": "Bela Vista",
        "street": "2ª Travessa Bom Jesus",
        "zipcode": "65605-217"
    },
    {
        "city": "Caxias",
        "state": "MA",
        "district": "Bela Vista",
        "street": "Travessa Paulo Fonseca",
        "zipcode": "65605-205"
    },
    {
        "city": "Caxias",
        "state": "MA",
        "district": "Cangalheiro",
        "street": "3ª Travessa do Angelim",
        "zipcode": "65606-223"
    },
    {
        "city": "Caxias",
        "state": "MA",
        "district": "João Viana",
        "street": "2ª Travessa da Mangueira",
        "zipcode": "65605-157"
    },
    {
        "city": "Caxias",
        "state": "MA",
        "district": "Vila Alecrim",
        "street": "Rua Quinze de Novembro",
        "zipcode": "65605-635"
    },
    {
        "city": "Caxias",
        "state": "MA",
        "district": "Vila Alecrim",
        "street": "Rua Santa Luzia",
        "zipcode": "65605-623"
    },
    {
        "city": "Caxias",
        "state": "MA",
        "district": "Vila Lobão",
        "street": "Rua Itapecuru",
        "zipcode": "65605-565"
    },
    {
        "city": "Caxias",
        "state": "MA",
        "district": "Vila Lobão",
        "street": "Rua Pedreiras",
        "zipcode": "65605-550"
    },
    {
        "city": "Caxias",
        "state": "MA",
        "district": "Vila Lobão",
        "street": "Rua Riachão",
        "zipcode": "65605-535"
    },
    {
        "city": "Caxias",
        "state": "MA",
        "district": "João Viana",
        "street": "Rua Deus é Amor",
        "zipcode": "65605-100"
    },
    {
        "city": "Caxias",
        "state": "MA",
        "district": "Pampulha",
        "street": "Rua Três",
        "zipcode": "65606-863"
    },
    {
        "city": "Caxias",
        "state": "MA",
        "district": "São Francisco",
        "street": "Rua dos Milagres",
        "zipcode": "65600-535"
    },
    {
        "city": "Caxias",
        "state": "MA",
        "district": "Vila Lobão",
        "street": "Avenida Volta Redonda",
        "zipcode": "65605-500"
    },
    {
        "city": "Caxias",
        "state": "MA",
        "district": "Vila São José",
        "street": "Travessa Santa Maria",
        "zipcode": "65606-771"
    },
    {
        "city": "Caxias",
        "state": "MA",
        "district": "Volta Redonda",
        "street": "3ª Travessa do Espírito Santo",
        "zipcode": "65606-359"
    },
    {
        "city": "Caxias",
        "state": "MA",
        "district": "Cangalheiro",
        "street": "1ª Travessa Bela Vista",
        "zipcode": "65606-316"
    },
    {
        "city": "Caxias",
        "state": "MA",
        "district": "Centro",
        "street": "Travessa Aarão Reis",
        "zipcode": "65606-030"
    },
    {
        "city": "Caxias",
        "state": "MA",
        "district": "Cangalheiro",
        "street": "Travessa do Alecrim",
        "zipcode": "65606-200"
    },
    {
        "city": "Caxias",
        "state": "MA",
        "district": "Centro",
        "street": "Rua Antônio Joaquim",
        "zipcode": "65606-080"
    },
    {
        "city": "Caxias",
        "state": "MA",
        "district": "Centro",
        "street": "Rua Antônio Pereira Neto",
        "zipcode": "65602-240"
    },
    {
        "city": "Caxias",
        "state": "MA",
        "district": "Centro",
        "street": "Rua Conselheiro Furtado",
        "zipcode": "65607-340"
    },
    {
        "city": "Caxias",
        "state": "MA",
        "district": "Centro",
        "street": "Rua Desembargador Morato",
        "zipcode": "65606-015"
    },
    {
        "city": "Caxias",
        "state": "MA",
        "district": "Cangalheiro",
        "street": "1ª Travessa do Espírito Santo",
        "zipcode": "65606-300"
    },
    {
        "city": "Caxias",
        "state": "MA",
        "district": "Caldeirões",
        "street": "3ª Travessa da Ferrovia",
        "zipcode": "65607-300"
    },
    {
        "city": "Caxias",
        "state": "MA",
        "district": "Cangalheiro",
        "street": "4ª Travessa do Fio",
        "zipcode": "65606-660"
    },
    {
        "city": "Caxias",
        "state": "MA",
        "district": "Cangalheiro",
        "street": "2ª Travessa do Fio",
        "zipcode": "65606-270"
    },
    {
        "city": "Caxias",
        "state": "MA",
        "district": "Centro",
        "street": "Rua Miguel Sobrinho",
        "zipcode": "65607-010"
    },
    {
        "city": "Caxias",
        "state": "MA",
        "district": "Itapecuruzinho",
        "street": "Rua Norte Sul",
        "zipcode": "65607-815"
    },
    {
        "city": "Caxias",
        "state": "MA",
        "district": "Centro",
        "street": "Rua Maria da Conceição Soares",
        "zipcode": "65608-095"
    },
    {
        "city": "Caxias",
        "state": "MA",
        "district": "Fazendinha",
        "street": "Rua Alto Alegre",
        "zipcode": "65608-610"
    },
    {
        "city": "Caxias",
        "state": "MA",
        "district": "Luiza Queiroz",
        "street": "Rua Alvino Batista",
        "zipcode": "65607-713"
    },
    {
        "city": "Caxias",
        "state": "MA",
        "district": "Seriema",
        "street": "Rua do Morro Verde",
        "zipcode": "65602-580"
    },
    {
        "city": "Caxias",
        "state": "MA",
        "district": "Seriema",
        "street": "Rua Murilo Azevedo",
        "zipcode": "65607-090"
    },
    {
        "city": "Caxias",
        "state": "MA",
        "district": "Volta Redonda",
        "street": "2ª Travessa Nossa Senhora de Fátima",
        "zipcode": "65606-720"
    },
    {
        "city": "Caxias",
        "state": "MA",
        "district": "Centro",
        "street": "1ª Travessa Palmeirinha",
        "zipcode": "65607-050"
    },
    {
        "city": "Caxias",
        "state": "MA",
        "district": "Centro",
        "street": "Travessa da Paz",
        "zipcode": "65607-120"
    },
    {
        "city": "Caxias",
        "state": "MA",
        "district": "Trezidela",
        "street": "Rua Primeiro de Maio",
        "zipcode": "65607-410"
    },
    {
        "city": "Caxias",
        "state": "MA",
        "district": "Volta Redonda",
        "street": "Travessa Professor Leôncio Magno",
        "zipcode": "65606-420"
    },
    {
        "city": "Caxias",
        "state": "MA",
        "district": "Volta Redonda",
        "street": "Travessa São Francisco",
        "zipcode": "65606-370"
    },
    {
        "city": "Caxias",
        "state": "MA",
        "district": "Refinaria",
        "street": "Rua São Pedro",
        "zipcode": "65600-370"
    },
    {
        "city": "Caxias",
        "state": "MA",
        "district": "Refinaria",
        "street": "1ª Travessa da Faveira",
        "zipcode": "65600-220"
    },
    {
        "city": "Caxias",
        "state": "MA",
        "district": "Bacuri",
        "street": "Rua da Bandeira",
        "zipcode": "65603-800"
    },
    {
        "city": "Caxias",
        "state": "MA",
        "district": "Seriema",
        "street": "6ª Travessa Vila Arias (Vl Arias)",
        "zipcode": "65603-225"
    },
    {
        "city": "Caxias",
        "state": "MA",
        "district": "Seriema",
        "street": "Rua Alexandre Medeiros (Vl Arias)",
        "zipcode": "65603-210"
    },
    {
        "city": "Caxias",
        "state": "MA",
        "district": "Antenor Viana",
        "street": "Rua Amazonas",
        "zipcode": "65603-500"
    },
    {
        "city": "Caxias",
        "state": "MA",
        "district": "Seriema",
        "street": "Rua São José (Vl Arias)",
        "zipcode": "65603-260"
    },
    {
        "city": "Caxias",
        "state": "MA",
        "district": "Antenor Viana",
        "street": "Rua da Administração (Alto do Ipem)",
        "zipcode": "65603-300"
    },
    {
        "city": "Caxias",
        "state": "MA",
        "district": "Bacuri",
        "street": "Travessa São José",
        "zipcode": "65603-825"
    },
    {
        "city": "Caxias",
        "state": "MA",
        "district": "Teso Duro",
        "street": "10ª Travessa da Pedreira",
        "zipcode": "65603-655"
    },
    {
        "city": "Caxias",
        "state": "MA",
        "district": "Teso Duro",
        "street": "1ª Travessa da Pedreira",
        "zipcode": "65603-633"
    },
    {
        "city": "Caxias",
        "state": "MA",
        "district": "Teso Duro",
        "street": "2ª Travessa da Rua Nova",
        "zipcode": "65603-625"
    },
    {
        "city": "Caxias",
        "state": "MA",
        "district": "Teso Duro",
        "street": "2ª Travessa do Aeroporto",
        "zipcode": "65603-605"
    },
    {
        "city": "Caxias",
        "state": "MA",
        "district": "Teso Duro",
        "street": "5ª Travessa da Pedreira",
        "zipcode": "65603-643"
    },
    {
        "city": "Caxias",
        "state": "MA",
        "district": "Vila Alecrim",
        "street": "Avenida São Luís",
        "zipcode": "65605-690"
    },
    {
        "city": "Caxias",
        "state": "MA",
        "district": "João Viana",
        "street": "1ª Travessa Santo Antonio",
        "zipcode": "65605-013"
    },
    {
        "city": "Caxias",
        "state": "MA",
        "district": "Nova Caxias",
        "street": "Rua Dezessete (COHAB)",
        "zipcode": "65604-657"
    },
    {
        "city": "Caxias",
        "state": "MA",
        "district": "Nova Caxias",
        "street": "Avenida Quatro (COHAB)",
        "zipcode": "65604-640"
    },
    {
        "city": "Caxias",
        "state": "MA",
        "district": "Nova Caxias",
        "street": "Avenida Três (COHAB)",
        "zipcode": "65604-630"
    },
    {
        "city": "Caxias",
        "state": "MA",
        "district": "Nova Caxias",
        "street": "Rua Dez (COHAB)",
        "zipcode": "65604-653"
    },
    {
        "city": "Caxias",
        "state": "MA",
        "district": "José Castro",
        "street": "Rua Amazonas",
        "zipcode": "65604-710"
    },
    {
        "city": "Caxias",
        "state": "MA",
        "district": "José Castro",
        "street": "Travessa Jerusalém",
        "zipcode": "65604-740"
    },
    {
        "city": "Caxias",
        "state": "MA",
        "district": "Mutirão",
        "street": "Rua Edson Lobão",
        "zipcode": "65604-885"
    },
    {
        "city": "Caxias",
        "state": "MA",
        "district": "Mutirão",
        "street": "Rua Marechal Rondon",
        "zipcode": "65604-810"
    },
    {
        "city": "Caxias",
        "state": "MA",
        "district": "Mutirão",
        "street": "Rua Senador João Castelo",
        "zipcode": "65604-850"
    },
    {
        "city": "Caxias",
        "state": "MA",
        "district": "Mutirão",
        "street": "Travessa do Piquizeiro",
        "zipcode": "65604-865"
    },
    {
        "city": "Caxias",
        "state": "MA",
        "district": "João Viana",
        "street": "Rua São Bento",
        "zipcode": "65605-090"
    },
    {
        "city": "Caxias",
        "state": "MA",
        "district": "João Viana",
        "street": "Rua São José",
        "zipcode": "65605-075"
    },
    {
        "city": "Caxias",
        "state": "MA",
        "district": "Seriema",
        "street": "Rua Cinco",
        "zipcode": "65603-060"
    },
    {
        "city": "Caxias",
        "state": "MA",
        "district": "Seriema",
        "street": "Rua Treze",
        "zipcode": "65603-140"
    },
    {
        "city": "Caxias",
        "state": "MA",
        "district": "Luiza Queiroz",
        "street": "Rua Jadiel Carvalho",
        "zipcode": "65607-730"
    },
    {
        "city": "Caxias",
        "state": "MA",
        "district": "Nova Caxias",
        "street": "Travessa São Pedro",
        "zipcode": "65604-344"
    },
    {
        "city": "Caxias",
        "state": "MA",
        "district": "Volta Redonda",
        "street": "Rua Lis Castro",
        "zipcode": "65606-743"
    },
    {
        "city": "Caxias",
        "state": "MA",
        "district": "Nova Caxias",
        "street": "2ª Travessa Alto da Cruz",
        "zipcode": "65604-331"
    },
    {
        "city": "Caxias",
        "state": "MA",
        "district": "Castelo Branco",
        "street": "2ª Travessa Bela Vista",
        "zipcode": "65604-190"
    },
    {
        "city": "Caxias",
        "state": "MA",
        "district": "Nova Caxias",
        "street": "2ª Travessa Benjamin Constant",
        "zipcode": "65604-280"
    },
    {
        "city": "Caxias",
        "state": "MA",
        "district": "Caldeirões",
        "street": "Rua Galdino de Jesus",
        "zipcode": "65604-490"
    },
    {
        "city": "Caxias",
        "state": "MA",
        "district": "Cangalheiro",
        "street": "Travessa do Pé do Morro Alecrim",
        "zipcode": "65606-230"
    },
    {
        "city": "Caxias",
        "state": "MA",
        "district": "Castelo Branco",
        "street": "Travessa Presidente Kennedy",
        "zipcode": "65604-240"
    },
    {
        "city": "Caxias",
        "state": "MA",
        "district": "Teso Duro",
        "street": "Rua Vinte e Dois (Res Eugênio Coutinho)",
        "zipcode": "65604-587"
    },
    {
        "city": "Caxias",
        "state": "MA",
        "district": "Teso Duro",
        "street": "Rua Dezenove (Res Eugênio Coutinho)",
        "zipcode": "65604-579"
    },
    {
        "city": "Caxias",
        "state": "MA",
        "district": "Teso Duro",
        "street": "Rua Treze (Res Eugênio Coutinho)",
        "zipcode": "65604-567"
    },
    {
        "city": "Caxias",
        "state": "MA",
        "district": "Morro do Alecrim",
        "street": "Rua do Morro do Alecrim",
        "zipcode": "65604-380"
    },
    {
        "city": "Caxias",
        "state": "MA",
        "district": "Teso Duro",
        "street": "Rua da Harmonia (Res Eugênio Coutinho)",
        "zipcode": "65604-599"
    },
    {
        "city": "Caxias",
        "state": "MA",
        "district": "Teso Duro",
        "street": "Rua Vinte e Um (Res Eugênio Coutinho)",
        "zipcode": "65604-585"
    },
    {
        "city": "Caxias",
        "state": "MA",
        "district": "Teso Duro",
        "street": "Rua Dezesseis (Res Eugênio Coutinho)",
        "zipcode": "65604-573"
    },
    {
        "city": "Caxias",
        "state": "MA",
        "district": "Seriema",
        "street": "Rua Rio de Janeiro",
        "zipcode": "65602-820"
    },
    {
        "city": "Caxias",
        "state": "MA",
        "district": "Castelo Branco",
        "street": "Travessa Santa Luzia",
        "zipcode": "65604-140"
    },
    {
        "city": "Caxias",
        "state": "MA",
        "district": "Seriema",
        "street": "6ª Travessa Vila Arias",
        "zipcode": "65602-600"
    },
    {
        "city": "Caxias",
        "state": "MA",
        "district": "Seriema",
        "street": "Travessa Gilberto Barbosa",
        "zipcode": "65602-650"
    },
    {
        "city": "Caxias",
        "state": "MA",
        "district": "Seriema",
        "street": "Travessa São João (Matadouro Velho)",
        "zipcode": "65603-015"
    },
    {
        "city": "Caxias",
        "state": "MA",
        "district": "Centro",
        "street": "Rua da Paz",
        "zipcode": "65602-700"
    },
    {
        "city": "Caxias",
        "state": "MA",
        "district": "Salobro",
        "street": "Travessa José Tadeu",
        "zipcode": "65609-627"
    },
    {
        "city": "Caxias",
        "state": "MA",
        "district": "São Francisco",
        "street": "Travessa João Luis Albuquerque",
        "zipcode": "65600-545"
    },
    {
        "city": "Caxias",
        "state": "MA",
        "district": "Baixinha",
        "street": "Rua Um",
        "zipcode": "65600-431"
    },
    {
        "city": "Caxias",
        "state": "MA",
        "district": "Castelo Branco",
        "street": "Rua Frei Serafim",
        "zipcode": "65600-355"
    },
    {
        "city": "Caxias",
        "state": "MA",
        "district": "São Francisco",
        "street": "Rua Aluísio Lobo",
        "zipcode": "65600-450"
    },
    {
        "city": "Caxias",
        "state": "MA",
        "district": "Nova Caxias",
        "street": "Rua Santa Cruz",
        "zipcode": "65604-350"
    },
    {
        "city": "Caxias",
        "state": "MA",
        "district": "Castelo Branco",
        "street": "Rua General Sampaio",
        "zipcode": "65600-310"
    },
    {
        "city": "Caxias",
        "state": "MA",
        "district": "Castelo Branco",
        "street": "Rua Dom Luís Marilem",
        "zipcode": "65600-293"
    },
    {
        "city": "Caxias",
        "state": "MA",
        "district": "Seriema",
        "street": "2ª Travessa Vinte e Quatro de Dezembro",
        "zipcode": "65602-422"
    },
    {
        "city": "Caxias",
        "state": "MA",
        "district": "Seriema",
        "street": "8ª Travessa do Cajueiro",
        "zipcode": "65602-538"
    },
    {
        "city": "Caxias",
        "state": "MA",
        "district": "Centro",
        "street": "Rua Aarão Reis",
        "zipcode": "65600-901"
    },
    {
        "city": "Caxias",
        "state": "MA",
        "district": "Centro",
        "street": "Rua Aarão Reis",
        "zipcode": "65600-900"
    },
    {
        "city": "Caxias",
        "state": "MA",
        "district": "Centro",
        "street": "Travessa Acrísio Cruz",
        "zipcode": "65602-230"
    },
    {
        "city": "Caxias",
        "state": "MA",
        "district": "Centro",
        "street": "Rua da Aroeira",
        "zipcode": "65602-270"
    },
    {
        "city": "Caxias",
        "state": "MA",
        "district": "Refinaria",
        "street": "Rua da Baixinha",
        "zipcode": "65600-410"
    },
    {
        "city": "Caxias",
        "state": "MA",
        "district": "Salobro",
        "street": "Rua Berenice Castelo",
        "zipcode": "65609-590"
    },
    {
        "city": "Caxias",
        "state": "MA",
        "district": "Seriema",
        "street": "Travessa do Cajueiro",
        "zipcode": "65602-510"
    },
    {
        "city": "Caxias",
        "state": "MA",
        "district": "Salobro",
        "street": "Rua Campos Sales",
        "zipcode": "65609-530"
    },
    {
        "city": "Caxias",
        "state": "MA",
        "district": "Centro",
        "street": "Rua do Dois",
        "zipcode": "65602-170"
    },
    {
        "city": "Caxias",
        "state": "MA",
        "district": "Centro",
        "street": "Travessa Manoel Gonçalves",
        "zipcode": "65602-090"
    },
    {
        "city": "Caxias",
        "state": "MA",
        "district": "Campo de Belém",
        "street": "Travessa Monte Claro",
        "zipcode": "65609-790"
    },
    {
        "city": "Caxias",
        "state": "MA",
        "district": "Centro",
        "street": "Rua Nossa Senhora de Fátima",
        "zipcode": "65600-560"
    },
    {
        "city": "Caxias",
        "state": "MA",
        "district": "Centro",
        "street": "Rua Otávio Passos",
        "zipcode": "65600-140"
    },
    {
        "city": "Caxias",
        "state": "MA",
        "district": "Centro",
        "street": "Travessa Otávio Passos",
        "zipcode": "65600-010"
    },
    {
        "city": "Caxias",
        "state": "MA",
        "district": "Teso Duro",
        "street": "Rua Dezessete (Res Eugênio Coutinho)",
        "zipcode": "65604-575"
    },
    {
        "city": "Caxias",
        "state": "MA",
        "district": "Antenor Viana",
        "street": "Rua Parnaíba",
        "zipcode": "65603-590"
    },
    {
        "city": "Caxias",
        "state": "MA",
        "district": "Teso Duro",
        "street": "Rua Sete (Res Eugênio Coutinho)",
        "zipcode": "65604-550"
    },
    {
        "city": "Caxias",
        "state": "MA",
        "district": "Teso Duro",
        "street": "Rua Vinte e Cinco (Res Eugênio Coutinho)",
        "zipcode": "65604-593"
    },
    {
        "city": "Caxias",
        "state": "MA",
        "district": "Antenor Viana",
        "street": "Rua Rio Grande do Norte",
        "zipcode": "65603-520"
    },
    {
        "city": "Caxias",
        "state": "MA",
        "district": "Teso Duro",
        "street": "Avenida Quinze de Novembro (Res Eugênio Coutinho)",
        "zipcode": "65604-520"
    },
    {
        "city": "Caxias",
        "state": "MA",
        "district": "Teso Duro",
        "street": "Rua Quinze (Res Eugênio Coutinho)",
        "zipcode": "65604-571"
    },
    {
        "city": "Caxias",
        "state": "MA",
        "district": "Teso Duro",
        "street": "Avenida Caxias (Res Eugênio Coutinho)",
        "zipcode": "65604-535"
    },
    {
        "city": "Caxias",
        "state": "MA",
        "district": "Teso Duro",
        "street": "Rua Seis (Res Eugênio Coutinho)",
        "zipcode": "65604-548"
    },
    {
        "city": "Caxias",
        "state": "MA",
        "district": "Teso Duro",
        "street": "Rua Vinte (Res Eugênio Coutinho)",
        "zipcode": "65604-583"
    },
    {
        "city": "Caxias",
        "state": "MA",
        "district": "Teso Duro",
        "street": "Rua Dez (Res Eugênio Coutinho)",
        "zipcode": "65604-556"
    },
    {
        "city": "Caxias",
        "state": "MA",
        "district": "Teso Duro",
        "street": "Rua Dois (Res Eugênio Coutinho)",
        "zipcode": "65604-540"
    },
    {
        "city": "Caxias",
        "state": "MA",
        "district": "Teso Duro",
        "street": "Rua Doze (Res Eugênio Coutinho)",
        "zipcode": "65604-565"
    },
    {
        "city": "Caxias",
        "state": "MA",
        "district": "Centro",
        "street": "Avenida Otávio Passos",
        "zipcode": "65600-030"
    },
    {
        "city": "Caxias",
        "state": "MA",
        "district": "Refinaria",
        "street": "Rua Paulo Afonso",
        "zipcode": "65600-180"
    },
    {
        "city": "Caxias",
        "state": "MA",
        "district": "Centro",
        "street": "Rua Quininha Pires",
        "zipcode": "65602-050"
    },
    {
        "city": "Caxias",
        "state": "MA",
        "district": "Ponte",
        "street": "Conjunto Residencial Acácias",
        "zipcode": "65609-690"
    },
    {
        "city": "Caxias",
        "state": "MA",
        "district": "Alto da Cruz",
        "street": "Conjunto Residencial Dinir Silva",
        "zipcode": "65604-510"
    },
    {
        "city": "Caxias",
        "state": "MA",
        "district": "Centro",
        "street": "Travessa Santa Rita",
        "zipcode": "65600-250"
    },
    {
        "city": "Caxias",
        "state": "MA",
        "district": "Seriema",
        "street": "Travessa São Francisco",
        "zipcode": "65602-460"
    },
    {
        "city": "Caxias",
        "state": "MA",
        "district": "Seriema",
        "street": "Travessa São João",
        "zipcode": "65602-390"
    },
    {
        "city": "Caxias",
        "state": "MA",
        "district": "São Francisco",
        "street": "Rua Saturnino Belo",
        "zipcode": "65600-440"
    },
    {
        "city": "Caxias",
        "state": "MA",
        "district": "Seriema",
        "street": "Rua Trinta e Um de Março",
        "zipcode": "65602-320"
    },
    {
        "city": "Caxias",
        "state": "MA",
        "district": "Teso Duro",
        "street": "Rua Três (Res Eugênio Coutinho)",
        "zipcode": "65604-542"
    },
    {
        "city": "Caxias",
        "state": "MA",
        "district": "Teso Duro",
        "street": "Rua Quatro (Res Eugênio Coutinho)",
        "zipcode": "65604-544"
    },
    {
        "city": "Caxias",
        "state": "MA",
        "district": "Teso Duro",
        "street": "Rua Onze (Res Eugênio Coutinho)",
        "zipcode": "65604-563"
    },
    {
        "city": "Caxias",
        "state": "MA",
        "district": "Teso Duro",
        "street": "Avenida Pedreira (Res Eugênio Coutinho)",
        "zipcode": "65604-511"
    },
    {
        "city": "Caxias",
        "state": "MA",
        "district": "Salobro",
        "street": "Rua Deputado José Resende",
        "zipcode": "65609-537"
    },
    {
        "city": "Caxias",
        "state": "MA",
        "district": "Teso Duro",
        "street": "Avenida Matões (Res Eugênio Coutinho)",
        "zipcode": "65604-560"
    },
    {
        "city": "Caxias",
        "state": "MA",
        "district": "Teso Duro",
        "street": "Rua Um (Res Eugênio Coutinho)",
        "zipcode": "65604-530"
    },
    {
        "city": "Caxias",
        "state": "MA",
        "district": "Teso Duro",
        "street": "Rua Oito (Res Eugênio Coutinho)",
        "zipcode": "65604-552"
    },
    {
        "city": "Caxias",
        "state": "MA",
        "district": "Ponte",
        "street": "Avenida Vera de Holanda",
        "zipcode": "65609-750"
    },
    {
        "city": "Caxias",
        "state": "MA",
        "district": "Seriema",
        "street": "Rua Vinte e Cinco de Dezembro",
        "zipcode": "65602-430"
    },
    {
        "city": "Caxias",
        "state": "MA",
        "district": "Centro",
        "street": "Rua José Benício",
        "zipcode": "65600-080"
    },
    {
        "city": "Caxias",
        "state": "MA",
        "district": "Ponte",
        "street": "Travessa da Rua Nova",
        "zipcode": "65609-500"
    },
    {
        "city": "Caxias",
        "state": "MA",
        "district": "Caldeirões",
        "street": "Rua São José",
        "zipcode": "65607-306"
    },
    {
        "city": "Caxias",
        "state": "MA",
        "district": "São Francisco",
        "street": "Travessa Boa Vista",
        "zipcode": "65600-538"
    },
    {
        "city": "Caxias",
        "state": "MA",
        "district": "São Francisco",
        "street": "Rua Boa Vista",
        "zipcode": "65600-537"
    },
    {
        "city": "Caxias",
        "state": "MA",
        "district": "Seriema",
        "street": "2ª Travessa Saturnino Belo",
        "zipcode": "65602-721"
    },
    {
        "city": "Caxias",
        "state": "MA",
        "district": "Refinaria",
        "street": "Rua Santa Bárbara",
        "zipcode": "65600-429"
    },
    {
        "city": "Caxias",
        "state": "MA",
        "district": "Seriema",
        "street": "3ª Travessa Saturnino Belo",
        "zipcode": "65602-722"
    },
    {
        "city": "Caxias",
        "state": "MA",
        "district": "Itapecuruzinho",
        "street": "Rua São José",
        "zipcode": "65607-820"
    },
    {
        "city": "Caxias",
        "state": "MA",
        "district": "Pampulha",
        "street": "Avenida Dulcimar Castro",
        "zipcode": "65607-780"
    },
    {
        "city": "Caxias",
        "state": "MA",
        "district": "Itapecuruzinho",
        "street": "Rua Velha",
        "zipcode": "65606-883"
    },
    {
        "city": "Caxias",
        "state": "MA",
        "district": "Itapecuruzinho",
        "street": "Travessa da Rua Velha",
        "zipcode": "65606-889"
    },
    {
        "city": "Caxias",
        "state": "MA",
        "district": "Caldeirões",
        "street": "3ª Travessa dos Caldeirões",
        "zipcode": "65607-315"
    },
    {
        "city": "Caxias",
        "state": "MA",
        "district": "Vila São José",
        "street": "2ª Travessa da Coheb",
        "zipcode": "65606-762"
    },
    {
        "city": "Caxias",
        "state": "MA",
        "district": "Ponte",
        "street": "Travessa das Acácias",
        "zipcode": "65609-297"
    },
    {
        "city": "Caxias",
        "state": "MA",
        "district": "Vila São José",
        "street": "Rodovia MA",
        "zipcode": "65606-815"
    },
    {
        "city": "Caxias",
        "state": "MA",
        "district": "Trezidela",
        "street": "Avenida Rodrigo Otávio",
        "zipcode": "65607-365"
    },
    {
        "city": "Caxias",
        "state": "MA",
        "district": "Itapecuruzinho",
        "street": "Rua do Fio",
        "zipcode": "65606-881"
    },
    {
        "city": "Caxias",
        "state": "MA",
        "district": "Pampulha",
        "street": "Rua Projetada",
        "zipcode": "65606-801"
    },
    {
        "city": "Caxias",
        "state": "MA",
        "district": "Pampulha",
        "street": "Rua Oito",
        "zipcode": "65606-871"
    },
    {
        "city": "Caxias",
        "state": "MA",
        "district": "Trezidela",
        "street": "Vila Alto do Sossego",
        "zipcode": "65608-290"
    },
    {
        "city": "Caxias",
        "state": "MA",
        "district": "Pirajá",
        "street": "Rua Amazonas",
        "zipcode": "65608-430"
    },
    {
        "city": "Caxias",
        "state": "MA",
        "district": "Centro",
        "street": "Rua Ana Amélia",
        "zipcode": "65608-540"
    },
    {
        "city": "Caxias",
        "state": "MA",
        "district": "Ponte",
        "street": "1ª Travessa Aniceto Cruz",
        "zipcode": "65607-570"
    },
    {
        "city": "Caxias",
        "state": "MA",
        "district": "Ponte",
        "street": "2ª Travessa Aniceto Cruz",
        "zipcode": "65607-580"
    },
    {
        "city": "Caxias",
        "state": "MA",
        "district": "Ponte",
        "street": "3ª Travessa Aniceto Cruz",
        "zipcode": "65607-590"
    },
    {
        "city": "Caxias",
        "state": "MA",
        "district": "Centro",
        "street": "Rua Bom Pastor",
        "zipcode": "65607-030"
    },
    {
        "city": "Caxias",
        "state": "MA",
        "district": "Campo de Belém",
        "street": "Rua Campo do Fortaleza",
        "zipcode": "65609-050"
    },
    {
        "city": "Caxias",
        "state": "MA",
        "district": "Trezidela",
        "street": "Rua Cândido Alves",
        "zipcode": "65607-430"
    },
    {
        "city": "Caxias",
        "state": "MA",
        "district": "Trezidela",
        "street": "Beco do Capricho",
        "zipcode": "65608-390"
    },
    {
        "city": "Caxias",
        "state": "MA",
        "district": "Centro",
        "street": "Rua Coronel Libânio Lobo",
        "zipcode": "65608-010"
    },
    {
        "city": "Caxias",
        "state": "MA",
        "district": "Campo de Belém",
        "street": "Rua Ernesto Geisel",
        "zipcode": "65609-140"
    },
    {
        "city": "Caxias",
        "state": "MA",
        "district": "Caldeirões",
        "street": "Rua da Ferrovia",
        "zipcode": "65607-290"
    },
    {
        "city": "Caxias",
        "state": "MA",
        "district": "Centro",
        "street": "Rua da Galeana",
        "zipcode": "65608-060"
    },
    {
        "city": "Caxias",
        "state": "MA",
        "district": "Centro",
        "street": "Conjunto da Galiana",
        "zipcode": "65608-100"
    },
    {
        "city": "Caxias",
        "state": "MA",
        "district": "Trezidela",
        "street": "Rua Godofredo Viana",
        "zipcode": "65608-480"
    },
    {
        "city": "Caxias",
        "state": "MA",
        "district": "Campo de Belém",
        "street": "Rua José Tadeu",
        "zipcode": "65609-180"
    },
    {
        "city": "Caxias",
        "state": "MA",
        "district": "Centro",
        "street": "Travessa Luís Almeida",
        "zipcode": "65608-200"
    },
    {
        "city": "Caxias",
        "state": "MA",
        "district": "São Francisco",
        "street": "Rua Raimundo Bebe",
        "zipcode": "65600-455"
    },
    {
        "city": "Caxias",
        "state": "MA",
        "district": "Trezidela",
        "street": "Rua Marechal Deodoro",
        "zipcode": "65607-490"
    },
    {
        "city": "Caxias",
        "state": "MA",
        "district": "Refinaria",
        "street": "Rua do Onze",
        "zipcode": "65600-200"
    },
    {
        "city": "Caxias",
        "state": "MA",
        "district": "Pirajá",
        "street": "Avenida Pirajá",
        "zipcode": "65608-420"
    },
    {
        "city": "Caxias",
        "state": "MA",
        "district": "Seriema",
        "street": "Beco do Porto",
        "zipcode": "65607-100"
    },
    {
        "city": "Caxias",
        "state": "MA",
        "district": "Ponte",
        "street": "Rua Primeiro de Agosto",
        "zipcode": "65609-340"
    },
    {
        "city": "Caxias",
        "state": "MA",
        "district": "Trezidela",
        "street": "2ª Travessa Rodrigo Otávio",
        "zipcode": "65609-290"
    },
    {
        "city": "Caxias",
        "state": "MA",
        "district": "Pirajá",
        "street": "Travessa do Sanharó",
        "zipcode": "65608-400"
    },
    {
        "city": "Caxias",
        "state": "MA",
        "district": "Ponte",
        "street": "1ª Travessa Santa Luzia",
        "zipcode": "65607-650"
    },
    {
        "city": "Caxias",
        "state": "MA",
        "district": "Campo de Belém",
        "street": "Travessa Santo Antônio",
        "zipcode": "65609-120"
    },
    {
        "city": "Caxias",
        "state": "MA",
        "district": "Centro",
        "street": "Rua São Pedro",
        "zipcode": "65608-160"
    },
    {
        "city": "Caxias",
        "state": "MA",
        "district": "Trezidela",
        "street": "1ª Travessa do Tamarineiro",
        "zipcode": "65608-240"
    },
    {
        "city": "Caxias",
        "state": "MA",
        "district": "Caldeirões",
        "street": "1ª Travessa da BR",
        "zipcode": "65607-190"
    },
    {
        "city": "Caxias",
        "state": "MA",
        "district": "Campo de Belém",
        "street": "Rua Paulo II",
        "zipcode": "65609-240"
    },
    {
        "city": "Caxias",
        "state": "MA",
        "district": "Ponte",
        "street": "Travessa Santa Rita",
        "zipcode": "65609-390"
    },
    {
        "city": "Caxias",
        "state": "MA",
        "district": "Centro",
        "street": "Travessa Alcebíades Vilhena",
        "zipcode": "65608-190"
    },
    {
        "city": "Caxias",
        "state": "MA",
        "district": "Centro",
        "street": "Rua da Paz",
        "zipcode": "65608-020"
    },
    {
        "city": "Caxias",
        "state": "MA",
        "district": "Seriema",
        "street": "Rua Rio Negro",
        "zipcode": "65602-780"
    },
    {
        "city": "Caxias",
        "state": "MA",
        "district": "Centro",
        "street": "Praça Vespasiano Ramos",
        "zipcode": "65600-100"
    },
    {
        "city": "Caxias",
        "state": "MA",
        "district": "Pai Geraldo",
        "street": "Avenida Central",
        "zipcode": "65600-685"
    },
    {
        "city": "Caxias",
        "state": "MA",
        "district": "Seriema",
        "street": "Rua Dois (Cj Acaraú)",
        "zipcode": "65602-682"
    },
    {
        "city": "Caxias",
        "state": "MA",
        "district": "Cangalheiro",
        "street": "2ª Travessa do Alecrim",
        "zipcode": "65606-202"
    },
    {
        "city": "Caxias",
        "state": "MA",
        "district": "João Viana",
        "street": "1ª Travessa da Mangueira",
        "zipcode": "65605-155"
    },
    {
        "city": "Caxias",
        "state": "MA",
        "district": "Bela Vista",
        "street": "1ª Travessa Bom Jesus",
        "zipcode": "65605-215"
    },
    {
        "city": "Caxias",
        "state": "MA",
        "district": "Dinir Silva",
        "street": "3ª Travessa Alto da Cruz",
        "zipcode": "65605-360"
    },
    {
        "city": "Caxias",
        "state": "MA",
        "district": "Dinir Silva",
        "street": "Travessa Loreto",
        "zipcode": "65605-320"
    },
    {
        "city": "Caxias",
        "state": "MA",
        "district": "João Viana",
        "street": "Rua Frei Serafim",
        "zipcode": "65605-195"
    },
    {
        "city": "Caxias",
        "state": "MA",
        "district": "Cangalheiro",
        "street": "4ª Travessa do Angelim",
        "zipcode": "65606-224"
    },
    {
        "city": "Caxias",
        "state": "MA",
        "district": "João Viana",
        "street": "3ª Travessa Manoel Emídio",
        "zipcode": "65605-005"
    },
    {
        "city": "Caxias",
        "state": "MA",
        "district": "Residencial Helio Queiroz",
        "street": "Rodovia BR",
        "zipcode": "65605-395"
    },
    {
        "city": "Caxias",
        "state": "MA",
        "district": "Volta Redonda",
        "street": "3ª Travessa Rio Branco",
        "zipcode": "65606-505"
    },
    {
        "city": "Caxias",
        "state": "MA",
        "district": "Vila Alecrim",
        "street": "Rua Santo Antonio",
        "zipcode": "65605-680"
    },
    {
        "city": "Caxias",
        "state": "MA",
        "district": "Vila Alecrim",
        "street": "Travessa do Campo",
        "zipcode": "65605-620"
    },
    {
        "city": "Caxias",
        "state": "MA",
        "district": "Vila Alecrim",
        "street": "Travessa Vinte e Um de Abril",
        "zipcode": "65605-645"
    },
    {
        "city": "Caxias",
        "state": "MA",
        "district": "Vila Lobão",
        "street": "Rua Amarantes",
        "zipcode": "65605-585"
    },
    {
        "city": "Caxias",
        "state": "MA",
        "district": "Vila Lobão",
        "street": "Rua Arari",
        "zipcode": "65605-510"
    },
    {
        "city": "Caxias",
        "state": "MA",
        "district": "Vila Lobão",
        "street": "Rua Barreirinhas",
        "zipcode": "65605-560"
    },
    {
        "city": "Caxias",
        "state": "MA",
        "district": "Vila Lobão",
        "street": "Rua Icatu",
        "zipcode": "65605-583"
    },
    {
        "city": "Caxias",
        "state": "MA",
        "district": "Nova Caxias",
        "street": "Rua Seis (COHAB)",
        "zipcode": "65604-609"
    },
    {
        "city": "Caxias",
        "state": "MA",
        "district": "Nova Caxias",
        "street": "Rua Três (COHAB)",
        "zipcode": "65604-603"
    },
    {
        "city": "Caxias",
        "state": "MA",
        "district": "Nova Caxias",
        "street": "Rua Vinte e Três (COHAB)",
        "zipcode": "65604-675"
    },
    {
        "city": "Caxias",
        "state": "MA",
        "district": "Centro",
        "street": "Travessa José Vieira Chaves",
        "zipcode": "65606-185"
    },
    {
        "city": "Caxias",
        "state": "MA",
        "district": "Nova Caxias",
        "street": "Avenida Dois (COHAB)",
        "zipcode": "65604-620"
    },
    {
        "city": "Caxias",
        "state": "MA",
        "district": "COHAB",
        "street": "Avenida Sete",
        "zipcode": "65604-660"
    },
    {
        "city": "Caxias",
        "state": "MA",
        "district": "José Castro",
        "street": "Rua São José",
        "zipcode": "65604-720"
    },
    {
        "city": "Caxias",
        "state": "MA",
        "district": "José Castro",
        "street": "Travessa Treze de Maio",
        "zipcode": "65604-770"
    },
    {
        "city": "Caxias",
        "state": "MA",
        "district": "Mutirão",
        "street": "Rua Rio Claro",
        "zipcode": "65604-870"
    },
    {
        "city": "Caxias",
        "state": "MA",
        "district": "Mutirão",
        "street": "Rua Santa Rita",
        "zipcode": "65604-825"
    },
    {
        "city": "Caxias",
        "state": "MA",
        "district": "Mutirão",
        "street": "Rua Senador Alexandre Costa",
        "zipcode": "65604-845"
    },
    {
        "city": "Caxias",
        "state": "MA",
        "district": "João Viana",
        "street": "Rua João Viana",
        "zipcode": "65605-020"
    },
    {
        "city": "Caxias",
        "state": "MA",
        "district": "João Viana",
        "street": "Rua Nossa Senhora de Fátima",
        "zipcode": "65605-105"
    },
    {
        "city": "Caxias",
        "state": "MA",
        "district": "Vila Lobão",
        "street": "Rua Colinas",
        "zipcode": "65605-540"
    },
    {
        "city": "Caxias",
        "state": "MA",
        "district": "Vila Lobão",
        "street": "Rua Gonçalves Dias",
        "zipcode": "65605-525"
    },
    {
        "city": "Caxias",
        "state": "MA",
        "district": "Vila Lobão",
        "street": "Rua Nova Iorque",
        "zipcode": "65605-555"
    },
    {
        "city": "Caxias",
        "state": "MA",
        "district": "Dinir Silva",
        "street": "Rua Presidente Dutra",
        "zipcode": "65605-310"
    },
    {
        "city": "Caxias",
        "state": "MA",
        "district": "Nova Caxias",
        "street": "Rua Gonçalves Dias",
        "zipcode": "65604-346"
    },
    {
        "city": "Caxias",
        "state": "MA",
        "district": "Cangalheiro",
        "street": "Travessa Senador Clodomir Cardoso",
        "zipcode": "65606-535"
    },
    {
        "city": "Caxias",
        "state": "MA",
        "district": "Volta Redonda",
        "street": "Avenida Volta Redonda",
        "zipcode": "65606-730"
    },
    {
        "city": "Caxias",
        "state": "MA",
        "district": "Vila Lobão",
        "street": "Rua Parnarama",
        "zipcode": "65605-501"
    },
    {
        "city": "Caxias",
        "state": "MA",
        "district": "Volta Redonda",
        "street": "2ª Travessa Cristino Gonçalves",
        "zipcode": "65606-701"
    },
    {
        "city": "Caxias",
        "state": "MA",
        "district": "Volta Redonda",
        "street": "Rua Aniceto Cruz",
        "zipcode": "65606-400"
    },
    {
        "city": "Caxias",
        "state": "MA",
        "district": "Cangalheiro",
        "street": "Travessa Cotovelo",
        "zipcode": "65606-640"
    },
    {
        "city": "Caxias",
        "state": "MA",
        "district": "Nova Caxias",
        "street": "Travessa Duque de Caxias",
        "zipcode": "65604-300"
    },
    {
        "city": "Caxias",
        "state": "MA",
        "district": "Volta Redonda",
        "street": "Rua do Fio da Coheb",
        "zipcode": "65606-470"
    },
    {
        "city": "Caxias",
        "state": "MA",
        "district": "Centro",
        "street": "Rua Itapecuru",
        "zipcode": "65606-130"
    },
    {
        "city": "Caxias",
        "state": "MA",
        "district": "Itapecuruzinho",
        "street": "Rua do Itapecuruzinho",
        "zipcode": "65606-600"
    },
    {
        "city": "Caxias",
        "state": "MA",
        "district": "Nova Caxias",
        "street": "Travessa Jerusalém",
        "zipcode": "65604-320"
    },
    {
        "city": "Caxias",
        "state": "MA",
        "district": "Morro do Alecrim",
        "street": "Travessa Morro do Alecrim",
        "zipcode": "65604-370"
    },
    {
        "city": "Caxias",
        "state": "MA",
        "district": "Refinaria",
        "street": "Beco do Onze",
        "zipcode": "65600-150"
    },
    {
        "city": "Caxias",
        "state": "MA",
        "district": "Centro",
        "street": "Rua do Porto das Pedras",
        "zipcode": "65606-590"
    },
    {
        "city": "Caxias",
        "state": "MA",
        "district": "Centro",
        "street": "Rua Teixeira Mendes",
        "zipcode": "65606-100"
    },
    {
        "city": "Caxias",
        "state": "MA",
        "district": "Cangalheiro",
        "street": "Rua Tiradentes",
        "zipcode": "65606-280"
    },
    {
        "city": "Caxias",
        "state": "MA",
        "district": "Mutirão",
        "street": "Rua Treze de Maio",
        "zipcode": "65604-410"
    },
    {
        "city": "Caxias",
        "state": "MA",
        "district": "Volta Redonda",
        "street": "Travessa Vinte e Um de Abril",
        "zipcode": "65606-350"
    },
    {
        "city": "Caxias",
        "state": "MA",
        "district": "Volta Redonda",
        "street": "Rua Vinte e Um de Abril",
        "zipcode": "65606-340"
    },
    {
        "city": "Caxias",
        "state": "MA",
        "district": "Raiz",
        "street": "Avenida Beija",
        "zipcode": "65603-720"
    },
    {
        "city": "Caxias",
        "state": "MA",
        "district": "Vila Arias",
        "street": "2ª Travessa Vila Arias",
        "zipcode": "65603-213"
    },
    {
        "city": "Caxias",
        "state": "MA",
        "district": "Antenor Viana",
        "street": "Rua Boa Vontade",
        "zipcode": "65603-505"
    },
    {
        "city": "Caxias",
        "state": "MA",
        "district": "Antenor Viana",
        "street": "Rua do Alto",
        "zipcode": "65603-575"
    },
    {
        "city": "Caxias",
        "state": "MA",
        "district": "Bacuri",
        "street": "Travessa Santo Antonio",
        "zipcode": "65603-815"
    },
    {
        "city": "Caxias",
        "state": "MA",
        "district": "Teso Duro",
        "street": "2ª Travessa Aluísio Lobo",
        "zipcode": "65603-613"
    },
    {
        "city": "Caxias",
        "state": "MA",
        "district": "Teso Duro",
        "street": "3ª Travessa Aluísio Lobo",
        "zipcode": "65603-615"
    },
    {
        "city": "Caxias",
        "state": "MA",
        "district": "Teso Duro",
        "street": "4ª Travessa da Pedreira",
        "zipcode": "65603-640"
    },
    {
        "city": "Caxias",
        "state": "MA",
        "district": "Ponte",
        "street": "Rodovia BR",
        "zipcode": "65609-495"
    },
    {
        "city": "Caxias",
        "state": "MA",
        "district": "Volta Redonda",
        "street": "Rodovia BR",
        "zipcode": "65606-525"
    },
    {
        "city": "Caxias",
        "state": "MA",
        "district": "João Viana",
        "street": "Rodovia BR",
        "zipcode": "65605-193"
    },
    {
        "city": "Caxias",
        "state": "MA",
        "district": "Centro",
        "street": "Travessa Silvandira Rodrigues",
        "zipcode": "65602-065"
    },
    {
        "city": "Caxias",
        "state": "MA",
        "district": "João Viana",
        "street": "Rua Nova",
        "zipcode": "65605-130"
    },
    {
        "city": "Caxias",
        "state": "MA",
        "district": "Seriema",
        "street": "Rua Um",
        "zipcode": "65603-020"
    },
    {
        "city": "Caxias",
        "state": "MA",
        "district": "Seriema",
        "street": "Rua Oito",
        "zipcode": "65603-090"
    },
    {
        "city": "Caxias",
        "state": "MA",
        "district": "Seriema",
        "street": "Rua Nove",
        "zipcode": "65603-100"
    },
    {
        "city": "Caxias",
        "state": "MA",
        "district": "Seriema",
        "street": "Rua Dezesseis",
        "zipcode": "65603-170"
    },
    {
        "city": "Caxias",
        "state": "MA",
        "district": "Teso Duro",
        "street": "Rua Aluísio Lobo",
        "zipcode": "65603-610"
    },
    {
        "city": "Caxias",
        "state": "MA",
        "district": "Antenor Viana",
        "street": "Rua Aluísio Lobo",
        "zipcode": "65603-597"
    },
    {
        "city": "Caxias",
        "state": "MA",
        "district": "Morro do Alecrim",
        "street": "Rua General Sampaio",
        "zipcode": "65604-090"
    },
    {
        "city": "Caxias",
        "state": "MA",
        "district": "Seriema",
        "street": "Rua do Matadouro",
        "zipcode": "65602-620"
    },
    {
        "city": "Caxias",
        "state": "MA",
        "district": "Dinir Silva",
        "street": "Rua Nova Iorque",
        "zipcode": "65605-380"
    },
    {
        "city": "Caxias",
        "state": "MA",
        "district": "Nova Caxias",
        "street": "Travessa Joaquim Nabuco",
        "zipcode": "65604-253"
    },
    {
        "city": "Caxias",
        "state": "MA",
        "district": "Seriema",
        "street": "2ª Travessa do Cajueiro",
        "zipcode": "65602-532"
    },
    {
        "city": "Caxias",
        "state": "MA",
        "district": "Seriema",
        "street": "3ª Travessa do Cajueiro",
        "zipcode": "65602-533"
    },
    {
        "city": "Caxias",
        "state": "MA",
        "district": "Castelo Branco",
        "street": "Travessa Bom Jesus dos Passos",
        "zipcode": "65604-130"
    },
    {
        "city": "Caxias",
        "state": "MA",
        "district": "Seriema",
        "street": "Rua do Espírito Santo",
        "zipcode": "65602-540"
    },
    {
        "city": "Caxias",
        "state": "MA",
        "district": "São Francisco",
        "street": "3ª Travessa da Faveira",
        "zipcode": "65600-620"
    },
    {
        "city": "Caxias",
        "state": "MA",
        "district": "São Francisco",
        "street": "2ª Travessa da Faveira",
        "zipcode": "65600-610"
    },
    {
        "city": "Caxias",
        "state": "MA",
        "district": "Castelo Branco",
        "street": "Travessa General Sampaio",
        "zipcode": "65604-200"
    },
    {
        "city": "Caxias",
        "state": "MA",
        "district": "Seriema",
        "street": "Rua Gilberto Barbosa",
        "zipcode": "65602-640"
    },
    {
        "city": "Caxias",
        "state": "MA",
        "district": "Centro",
        "street": "Praça Gonçalves Dias",
        "zipcode": "65604-010"
    },
    {
        "city": "Caxias",
        "state": "MA",
        "district": "Centro",
        "street": "Rua João de Deus Moreira Ramos",
        "zipcode": "65602-140"
    },
    {
        "city": "Caxias",
        "state": "MA",
        "district": "Centro",
        "street": "Travessa Padre Gerosa",
        "zipcode": "65602-100"
    },
    {
        "city": "Caxias",
        "state": "MA",
        "district": "Centro",
        "street": "Rua Professora Ana Corrêa",
        "zipcode": "65604-080"
    },
    {
        "city": "Caxias",
        "state": "MA",
        "district": "Seriema",
        "street": "Travessa Rita Queiroz",
        "zipcode": "65602-480"
    },
    {
        "city": "Caxias",
        "state": "MA",
        "district": "Centro",
        "street": "Avenida Santos Dumont",
        "zipcode": "65602-310"
    },
    {
        "city": "Caxias",
        "state": "MA",
        "district": "Centro",
        "street": "Rua Senador Costa Rodrigues",
        "zipcode": "65602-030"
    },
    {
        "city": "Caxias",
        "state": "MA",
        "district": "Seriema",
        "street": "Rua Vinte e Quatro de Dezembro",
        "zipcode": "65602-420"
    },
    {
        "city": "Caxias",
        "state": "MA",
        "district": "Centro",
        "street": "Rua Abel Antunes",
        "zipcode": "65602-160"
    },
    {
        "city": "Caxias",
        "state": "MA",
        "district": "Caldeirões",
        "street": "Travessa Doutor Marcelo Tadeu",
        "zipcode": "65607-270"
    },
    {
        "city": "Caxias",
        "state": "MA",
        "district": "Itapecuruzinho",
        "street": "Rua Francisco Vilanova",
        "zipcode": "65607-830"
    },
    {
        "city": "Caxias",
        "state": "MA",
        "district": "José Castro",
        "street": "Rua Raimundo Brandão",
        "zipcode": "65604-780"
    },
    {
        "city": "Caxias",
        "state": "MA",
        "district": "Centro",
        "street": "Beco Novo",
        "zipcode": "65602-710"
    },
    {
        "city": "Caxias",
        "state": "MA",
        "district": "São Francisco",
        "street": "Rua Nove de Novembro",
        "zipcode": "65600-540"
    },
    {
        "city": "Caxias",
        "state": "MA",
        "district": "Seriema",
        "street": "Rua Sesoste Pereira",
        "zipcode": "65602-350"
    },
    {
        "city": "Caxias",
        "state": "MA",
        "district": "Área Rural de Caxias",
        "street": "Área Rural",
        "zipcode": "65609-899"
    },
    {
        "city": "Caxias",
        "state": "MA",
        "district": "Vila São José",
        "street": "Rua Primeiro de Maio",
        "zipcode": "65606-769"
    },
    {
        "city": "Caxias",
        "state": "MA",
        "district": "Itapecuruzinho",
        "street": "1ª Travessa do Fio",
        "zipcode": "65606-882"
    },
    {
        "city": "Caxias",
        "state": "MA",
        "district": "Itapecuruzinho",
        "street": "Rua Leste Oeste",
        "zipcode": "65607-810"
    },
    {
        "city": "Caxias",
        "state": "MA",
        "district": "Salobro",
        "street": "Rua São José",
        "zipcode": "65609-533"
    },
    {
        "city": "Caxias",
        "state": "MA",
        "district": "Caldeirões",
        "street": "Rua Cabana da Serra",
        "zipcode": "65607-180"
    },
    {
        "city": "Caxias",
        "state": "MA",
        "district": "Fazendinha",
        "street": "Rodovia BR",
        "zipcode": "65608-690"
    },
    {
        "city": "Caxias",
        "state": "MA",
        "district": "Itapecuruzinho",
        "street": "Travessa Norte Sul",
        "zipcode": "65607-816"
    },
    {
        "city": "Caxias",
        "state": "MA",
        "district": "Conjunto Hélio Queiroz",
        "street": "Conjunto Hélio Queiroz",
        "zipcode": "65604-440"
    },
    {
        "city": "Caxias",
        "state": "MA",
        "district": "Centro",
        "street": "Praça Cesário Lima",
        "zipcode": "65606-170"
    },
    {
        "city": "Caxias",
        "state": "MA",
        "district": "Pampulha",
        "street": "Rua Hermínia Ferreira de Castro",
        "zipcode": "65607-790"
    },
    {
        "city": "Caxias",
        "state": "MA",
        "district": "Seriema",
        "street": "Rua Curitiba",
        "zipcode": "65602-800"
    },
    {
        "city": "Caxias",
        "state": "MA",
        "district": "Teso Duro",
        "street": "Rua da Paz (Res Eugênio Coutinho)",
        "zipcode": "65604-531"
    },
    {
        "city": "Caxias",
        "state": "MA",
        "district": "Salobro",
        "street": "Travessa Heráclito Noronha",
        "zipcode": "65609-529"
    },
    {
        "city": "Caxias",
        "state": "MA",
        "district": "São Francisco",
        "street": "1ª Travessa Santa Barbara",
        "zipcode": "65600-523"
    },
    {
        "city": "Caxias",
        "state": "MA",
        "district": "Pampulha",
        "street": "Rua Sete",
        "zipcode": "65606-870"
    },
    {
        "city": "Caxias",
        "state": "MA",
        "district": "São Francisco",
        "street": "Rua Cinco",
        "zipcode": "65600-435"
    },
    {
        "city": "Caxias",
        "state": "MA",
        "district": "Baixinha",
        "street": "Rua Dois",
        "zipcode": "65600-432"
    },
    {
        "city": "Caxias",
        "state": "MA",
        "district": "São Francisco",
        "street": "Rua Seis",
        "zipcode": "65600-436"
    },
    {
        "city": "Caxias",
        "state": "MA",
        "district": "Baixinha",
        "street": "Rua Três",
        "zipcode": "65600-433"
    },
    {
        "city": "Caxias",
        "state": "MA",
        "district": "Teso Duro",
        "street": "Rua 24 de Março",
        "zipcode": "65603-690"
    },
    {
        "city": "Caxias",
        "state": "MA",
        "district": "Ponte",
        "street": "Rua Firmino de Carvalho",
        "zipcode": "65609-455"
    },
    {
        "city": "Caxias",
        "state": "MA",
        "district": "João Viana",
        "street": "3ª Travessa Santo Antonio",
        "zipcode": "65605-017"
    },
    {
        "city": "Caxias",
        "state": "MA",
        "district": "Campo de Belém",
        "street": "Rua São Francisco",
        "zipcode": "65609-255"
    },
    {
        "city": "Caxias",
        "state": "MA",
        "district": "Cangalheiro",
        "street": "2ª Travessa Bela Vista",
        "zipcode": "65606-317"
    },
    {
        "city": "Caxias",
        "state": "MA",
        "district": "Refinaria",
        "street": "Rua Nove",
        "zipcode": "65600-403"
    },
    {
        "city": "Caxias",
        "state": "MA",
        "district": "Vila Alecrim",
        "street": "Rua Miranda",
        "zipcode": "65605-665"
    },
    {
        "city": "Caxias",
        "state": "MA",
        "district": "Vila Alecrim",
        "street": "Rua Sucupira",
        "zipcode": "65605-663"
    },
    {
        "city": "Caxias",
        "state": "MA",
        "district": "COHAB",
        "street": "Rua Oito",
        "zipcode": "65604-665"
    },
    {
        "city": "Caxias",
        "state": "MA",
        "district": "COHAB",
        "street": "Rua Catorze",
        "zipcode": "65604-669"
    },
    {
        "city": "Caxias",
        "state": "MA",
        "district": "Nova Caxias",
        "street": "Avenida Seis (COHAB)",
        "zipcode": "65604-650"
    },
    {
        "city": "Caxias",
        "state": "MA",
        "district": "João Viana",
        "street": "Rua Jabuticaba",
        "zipcode": "65605-070"
    },
    {
        "city": "Caxias",
        "state": "MA",
        "district": "Seriema",
        "street": "Rua Quinze",
        "zipcode": "65603-160"
    },
    {
        "city": "Caxias",
        "state": "MA",
        "district": "Refinaria",
        "street": "Rua Santa Cruz",
        "zipcode": "65600-360"
    },
    {
        "city": "Caxias",
        "state": "MA",
        "district": "Centro",
        "street": "Avenida Castelo Branco",
        "zipcode": "65600-087"
    },
    {
        "city": "Caxias",
        "state": "MA",
        "district": "São Francisco",
        "street": "Travessa Vereador Gentil de Oliveira",
        "zipcode": "65600-447"
    },
    {
        "city": "Caxias",
        "state": "MA",
        "district": "Itapecuruzinho",
        "street": "Travessa São José",
        "zipcode": "65607-821"
    },
    {
        "city": "Caxias",
        "state": "MA",
        "district": "Campo de Belém",
        "street": "Rua Sete",
        "zipcode": "65609-900"
    },
    {
        "city": "Caxias",
        "state": "MA",
        "district": "Refinaria",
        "street": "1ª Travessa Central",
        "zipcode": "65600-230"
    },
    {
        "city": "Caxias",
        "state": "MA",
        "district": "Caldeirões",
        "street": "4ª Travessa dos Caldeirões",
        "zipcode": "65607-320"
    },
    {
        "city": "Caxias",
        "state": "MA",
        "district": "Centro",
        "street": "Rua Anísio Vieira Chaves",
        "zipcode": "65608-490"
    },
    {
        "city": "Caxias",
        "state": "MA",
        "district": "Cangalheiro",
        "street": "Rua Cotovelo",
        "zipcode": "65606-580"
    },
    {
        "city": "Caxias",
        "state": "MA",
        "district": "Caldeirões",
        "street": "Rua Dois",
        "zipcode": "65607-280"
    },
    {
        "city": "Caxias",
        "state": "MA",
        "district": "São Francisco",
        "street": "Rua do Fio",
        "zipcode": "65600-510"
    },
    {
        "city": "Caxias",
        "state": "MA",
        "district": "Centro",
        "street": "Rua Joaquim Benedito da Silva",
        "zipcode": "65600-050"
    },
    {
        "city": "Caxias",
        "state": "MA",
        "district": "Volta Redonda",
        "street": "Rua Nossa Senhora da Fátima",
        "zipcode": "65606-440"
    },
    {
        "city": "Caxias",
        "state": "MA",
        "district": "Trezidela",
        "street": "Avenida Nossa Senhora de Nazaré",
        "zipcode": "65608-460"
    },
    {
        "city": "Caxias",
        "state": "MA",
        "district": "Ponte",
        "street": "Rua Padre Aderson Guimarães",
        "zipcode": "65607-630"
    },
    {
        "city": "Caxias",
        "state": "MA",
        "district": "Centro",
        "street": "Rua Quininha Pires",
        "zipcode": "65608-040"
    },
    {
        "city": "Caxias",
        "state": "MA",
        "district": "Castelo Branco",
        "street": "Rua Santa Luzia",
        "zipcode": "65600-340"
    },
    {
        "city": "Caxias",
        "state": "MA",
        "district": "Refinaria",
        "street": "Travessa Santa Rita",
        "zipcode": "65600-390"
    },
    {
        "city": "Caxias",
        "state": "MA",
        "district": "Campo de Belém",
        "street": "Rua Santo Antônio",
        "zipcode": "65609-110"
    },
    {
        "city": "Caxias",
        "state": "MA",
        "district": "Centro",
        "street": "Rua São Benedito",
        "zipcode": "65600-270"
    },
    {
        "city": "Caxias",
        "state": "MA",
        "district": "Pirajá",
        "street": "Rua São Francisco",
        "zipcode": "65608-440"
    },
    {
        "city": "Caxias",
        "state": "MA",
        "district": "Volta Redonda",
        "street": "Travessa Senador Alexendre",
        "zipcode": "65606-460"
    },
    {
        "city": "Caxias",
        "state": "MA",
        "district": "Teso Duro",
        "street": "Rua Cinco (Res Eugênio Coutinho)",
        "zipcode": "65604-546"
    },
    {
        "city": "Caxias",
        "state": "MA",
        "district": "Centro",
        "street": "Rua Tabelião Antônio Torres",
        "zipcode": "65602-205"
    },
    {
        "city": "Caxias",
        "state": "MA",
        "district": "Ponte",
        "street": "Travessa Vera de Holanda",
        "zipcode": "65609-740"
    },
    {
        "city": "Caxias",
        "state": "MA",
        "district": "Centro",
        "street": "Travessa Vinte e Oito de Julho",
        "zipcode": "65600-070"
    },
    {
        "city": "Caxias",
        "state": "MA",
        "district": "Centro",
        "street": "Rua Acrízio Cruz",
        "zipcode": "65602-250"
    },
    {
        "city": "Caxias",
        "state": "MA",
        "district": "Centro",
        "street": "Rua Cristino Cruz",
        "zipcode": "65604-030"
    },
    {
        "city": "Caxias",
        "state": "MA",
        "district": "Seriema",
        "street": "2ª Rua São José (Vl Arias)",
        "zipcode": "65603-270"
    },
    {
        "city": "Caxias",
        "state": "MA",
        "district": "Teso Duro",
        "street": "2ª Travessa da Pedreira",
        "zipcode": "65603-635"
    },
    {
        "city": "Caxias",
        "state": "MA",
        "district": "Itapecuruzinho",
        "street": "Rua Itapecuruzinho",
        "zipcode": "65606-896"
    },
    {
        "city": "Caxias",
        "state": "MA",
        "district": "Salobro",
        "street": "Rodovia BR",
        "zipcode": "65609-635"
    },
    {
        "city": "Caxias",
        "state": "MA",
        "district": "Bela Vista",
        "street": "Rodovia BR",
        "zipcode": "65605-295"
    },
    {
        "city": "Caxias",
        "state": "MA",
        "district": "Nova Caxias",
        "street": "Rua Vinte e Quatro (COHAB)",
        "zipcode": "65604-632"
    },
    {
        "city": "Caxias",
        "state": "MA",
        "district": "Pirajá",
        "street": "Rua Piauí (Vl DNER)",
        "zipcode": "65608-725"
    },
    {
        "city": "Caxias",
        "state": "MA",
        "district": "Pirajá",
        "street": "Rua São Francisco (Vl DNER)",
        "zipcode": "65608-730"
    },
    {
        "city": "Caxias",
        "state": "MA",
        "district": "Teso Duro",
        "street": "Rua do Poço",
        "zipcode": "65603-665"
    },
    {
        "city": "Caxias",
        "state": "MA",
        "district": "Pirajá",
        "street": "Rua Belo Horizonte (Vl DNER)",
        "zipcode": "65608-715"
    },
    {
        "city": "Caxias",
        "state": "MA",
        "district": "Morro do Alecrim",
        "street": "Travessa General Sampaio",
        "zipcode": "65604-375"
    },
    {
        "city": "Caxias",
        "state": "MA",
        "district": "Centro",
        "street": "Rua Doutor Berredo",
        "zipcode": "65604-052"
    },
    {
        "city": "Caxias",
        "state": "MA",
        "district": "Dinir Silva",
        "street": "Rua Gonçalves Dias",
        "zipcode": "65605-305"
    },
    {
        "city": "Caxias",
        "state": "MA",
        "district": "Dinir Silva",
        "street": "Rua Axixá",
        "zipcode": "65605-385"
    },
    {
        "city": "Caxias",
        "state": "MA",
        "district": "Nova Caxias",
        "street": "Travessa Frei Serafim",
        "zipcode": "65604-343"
    },
    {
        "city": "Caxias",
        "state": "MA",
        "district": "Dinir Silva",
        "street": "Rua Pirapemas",
        "zipcode": "65605-370"
    },
    {
        "city": "Caxias",
        "state": "MA",
        "district": "Dinir Silva",
        "street": "Travessa Airton Sena",
        "zipcode": "65605-393"
    },
    {
        "city": "Caxias",
        "state": "MA",
        "district": "Centro",
        "street": "Praça João Castelo",
        "zipcode": "65604-040"
    },
    {
        "city": "Caxias",
        "state": "MA",
        "district": "Ponte",
        "street": "Rua José Firmino de Carvalho",
        "zipcode": "65609-460"
    },
    {
        "city": "Caxias",
        "state": "MA",
        "district": "Castelo Branco",
        "street": "Rua Marechal Costa e Silva",
        "zipcode": "65600-350"
    },
    {
        "city": "Caxias",
        "state": "MA",
        "district": "Centro",
        "street": "Rua Professora da Laci Assunção",
        "zipcode": "65602-110"
    },
    {
        "city": "Caxias",
        "state": "MA",
        "district": "Refinaria",
        "street": "Travessa Três de Fevereiro",
        "zipcode": "65600-420"
    },
    {
        "city": "Caxias",
        "state": "MA",
        "district": "Seriema",
        "street": "1ª Travessa Trinta e Um de Março",
        "zipcode": "65602-670"
    },
    {
        "city": "Caxias",
        "state": "MA",
        "district": "Centro",
        "street": "Rua Abel Antunes",
        "zipcode": "65600-130"
    },
    {
        "city": "Caxias",
        "state": "MA",
        "district": "Itapecuruzinho",
        "street": "Acesso Balneário Veneza",
        "zipcode": "65606-897"
    },
    {
        "city": "Caxias",
        "state": "MA",
        "district": "Centro",
        "street": "Rua da Estrela",
        "zipcode": "65600-083"
    },
    {
        "city": "Caxias",
        "state": "MA",
        "district": "Vila Alecrim",
        "street": "Travessa Zé Doca",
        "zipcode": "65605-655"
    },
    {
        "city": "Caxias",
        "state": "MA",
        "district": "Vila Alecrim",
        "street": "Rua Zé Doca",
        "zipcode": "65605-650"
    },
    {
        "city": "Caxias",
        "state": "MA",
        "district": "Mutirão",
        "street": "Rua Senador Epitácio Cafeteira",
        "zipcode": "65604-855"
    },
    {
        "city": "Caxias",
        "state": "MA",
        "district": "Seriema",
        "street": "Beco Tomas",
        "zipcode": "65602-372"
    },
    {
        "city": "Caxias",
        "state": "MA",
        "district": "Nova Caxias",
        "street": "Rua Vinte (COHAB)",
        "zipcode": "65604-613"
    },
    {
        "city": "Caxias",
        "state": "MA",
        "district": "Centro",
        "street": "Travessa da Estrela",
        "zipcode": "65600-085"
    },
    {
        "city": "Caxias",
        "state": "MA",
        "district": "Centro",
        "street": "Rua Projetada",
        "zipcode": "65608-542"
    },
    {
        "city": "Caxias",
        "state": "MA",
        "district": "Seriema",
        "street": "Rua Um (Cj Acaraú)",
        "zipcode": "65602-681"
    },
    {
        "city": "Caxias",
        "state": "MA",
        "district": "Centro",
        "street": "Rua Anísio Vieira Chaves",
        "zipcode": "65608-970"
    },
    {
        "city": "Caxias",
        "state": "MA",
        "district": "Cangalheiro",
        "street": "5ª Travessa do Fio",
        "zipcode": "65606-277"
    },
    {
        "city": "Caxias",
        "state": "MA",
        "district": "Seriema",
        "street": "Rua Três (Cj Acaraú)",
        "zipcode": "65602-683"
    },
    {
        "city": "Caxias",
        "state": "MA",
        "district": "Refinaria",
        "street": "Rua de Santana",
        "zipcode": "65600-395"
    },
    {
        "city": "Caxias",
        "state": "MA",
        "district": "Seriema",
        "street": "2ª Travessa das Flores",
        "zipcode": "65602-561"
    },
    {
        "city": "Caxias",
        "state": "MA",
        "district": "Centro",
        "street": "Rua Teofilo Dias",
        "zipcode": "65604-070"
    },
    {
        "city": "Caxias",
        "state": "MA",
        "district": "Campo de Belém",
        "street": "Rua Sete",
        "zipcode": "65609-045"
    },
    {
        "city": "Caxias",
        "state": "MA",
        "district": "Centro",
        "street": "Travessa José Guimarães",
        "zipcode": "65606-016"
    },
    {
        "city": "Caxias",
        "state": "MA",
        "district": "Ponte",
        "street": "Rua Santo Antônio",
        "zipcode": "65609-263"
    },
    {
        "city": "Caxias",
        "state": "MA",
        "district": "Teso Duro",
        "street": "Rua São Pedro",
        "zipcode": "65603-670"
    },
    {
        "city": "Caxias",
        "state": "MA",
        "district": "Teso Duro",
        "street": "Travessa Cristiano Barbosa",
        "zipcode": "65603-663"
    },
    {
        "city": "Caxias",
        "state": "MA",
        "district": "Raiz",
        "street": "Rua Pica",
        "zipcode": "65603-750"
    },
    {
        "city": "Caxias",
        "state": "MA",
        "district": "Vila São José",
        "street": "Rua Santo Antonio",
        "zipcode": "65606-795"
    },
    {
        "city": "Caxias",
        "state": "MA",
        "district": "Vila São José",
        "street": "Rua da Igreja",
        "zipcode": "65606-785"
    },
    {
        "city": "Caxias",
        "state": "MA",
        "district": "Ponte",
        "street": "Rua do Ejo",
        "zipcode": "65609-310"
    },
    {
        "city": "Caxias",
        "state": "MA",
        "district": "Salobro",
        "street": "Travessa Cantinho do Céu",
        "zipcode": "65609-770"
    },
    {
        "city": "Caxias",
        "state": "MA",
        "district": "Centro",
        "street": "Rua Desembargador Morato",
        "zipcode": "65606-000"
    },
    {
        "city": "Caxias",
        "state": "MA",
        "district": "Seriema",
        "street": "Rua Rio Amazonas",
        "zipcode": "65602-770"
    },
    {
        "city": "Caxias",
        "state": "MA",
        "district": "Pe Da Ladeira",
        "street": "Rua Do Fio",
        "zipcode": "65604-100"
    },
    {
        "city": "Caxias",
        "state": "MA",
        "district": "Vila São José",
        "street": "Rua do Campo",
        "zipcode": "65606-780"
    },
    {
        "city": "Caxias",
        "state": "MA",
        "district": "Caldeirões",
        "street": "Rua Doutor Marcelo Tadeu",
        "zipcode": "65607-260"
    },
    {
        "city": "Caxias",
        "state": "MA",
        "district": "Ponte",
        "street": "Rua Doutor Alarico Costa",
        "zipcode": "65609-400"
    },
    {
        "city": "Caxias",
        "state": "MA",
        "district": "Campo de Belém",
        "street": "Travessa Campo do Belém",
        "zipcode": "65609-760"
    },
    {
        "city": "Caxias",
        "state": "MA",
        "district": "Teso Duro",
        "street": "Rua Wilton Lobo",
        "zipcode": "65603-680"
    },
    {
        "city": "Caxias",
        "state": "MA",
        "district": "Teso Duro",
        "street": "Avenida Dois de Fevereiro (Res Eugênio Coutinho)",
        "zipcode": "65604-580"
    },
    {
        "city": "Caxias",
        "state": "MA",
        "district": "Bacuri",
        "street": "Rua dos Eucaliptos",
        "zipcode": "65603-840"
    },
    {
        "city": "Caxias",
        "state": "MA",
        "district": "Salobro",
        "street": "Rua do Salobo",
        "zipcode": "65609-510"
    },
    {
        "city": "Caxias",
        "state": "MA",
        "district": "O Tres",
        "street": "Vila Tres",
        "zipcode": "65600-640"
    },
    {
        "city": "Caxias",
        "state": "MA",
        "district": "Bacuri",
        "street": "Rua do Cemitério",
        "zipcode": "65603-860"
    },
    {
        "city": "Caxias",
        "state": "MA",
        "district": "Salobro",
        "street": "Travessa do Salobo",
        "zipcode": "65609-670"
    },
    {
        "city": "Caxias",
        "state": "MA",
        "district": "Teso Duro",
        "street": "Rua Quatorze (Res Eugênio Coutinho)",
        "zipcode": "65604-569"
    },
    {
        "city": "Caxias",
        "state": "MA",
        "district": "Raiz",
        "street": "Avenida das Andorinhas",
        "zipcode": "65603-710"
    },
    {
        "city": "Caxias",
        "state": "MA",
        "district": "Teso Duro",
        "street": "Rua Vinte e Três (Res Eugênio Coutinho)",
        "zipcode": "65604-589"
    },
    {
        "city": "Caxias",
        "state": "MA",
        "district": "Seriema",
        "street": "Rua Sergipe",
        "zipcode": "65602-790"
    },
    {
        "city": "Caxias",
        "state": "MA",
        "district": "Seriema",
        "street": "3ª Travessa Vila Arias (Vl Arias)",
        "zipcode": "65603-215"
    },
    {
        "city": "Caxias",
        "state": "MA",
        "district": "Seriema",
        "street": "4ª Travessa Vila Arias (Vl Arias)",
        "zipcode": "65603-220"
    },
    {
        "city": "Caxias",
        "state": "MA",
        "district": "Seriema",
        "street": "Avenida Brasil (Vl Arias)",
        "zipcode": "65603-200"
    },
    {
        "city": "Caxias",
        "state": "MA",
        "district": "Vila São José",
        "street": "Travessa da Igreja",
        "zipcode": "65606-787"
    },
    {
        "city": "Caxias",
        "state": "MA",
        "district": "São Francisco",
        "street": "Travessa da Igreja",
        "zipcode": "65600-533"
    },
    {
        "city": "Caxias",
        "state": "MA",
        "district": "Caldeirões",
        "street": "Rua dos Caldeirões",
        "zipcode": "65607-305"
    },
    {
        "city": "Caxias",
        "state": "MA",
        "district": "Vila Alecrim",
        "street": "1ª Travessa do Mangueirão",
        "zipcode": "65605-673"
    },
    {
        "city": "Caxias",
        "state": "MA",
        "district": "João Viana",
        "street": "Avenida Central",
        "zipcode": "65605-190"
    },
    {
        "city": "Caxias",
        "state": "MA",
        "district": "Nova Caxias",
        "street": "Rua Frei Serafim",
        "zipcode": "65604-340"
    },
    {
        "city": "Caxias",
        "state": "MA",
        "district": "Itapecuruzinho",
        "street": "Rodovia BR",
        "zipcode": "65606-880"
    },
    {
        "city": "Caxias",
        "state": "MA",
        "district": "Vila Alecrim",
        "street": "Rua Nossa Senhora de Fátima",
        "zipcode": "65605-600"
    },
    {
        "city": "Caxias",
        "state": "MA",
        "district": "Nova Caxias",
        "street": "Rua Vinte e Cinco (COHAB)",
        "zipcode": "65604-633"
    },
    {
        "city": "Caxias",
        "state": "MA",
        "district": "Nova Caxias",
        "street": "Avenida Benjamin Constant (COHAB)",
        "zipcode": "65604-680"
    },
    {
        "city": "Caxias",
        "state": "MA",
        "district": "Mutirão",
        "street": "Rua Senador João Alberto",
        "zipcode": "65604-875"
    },
    {
        "city": "Caxias",
        "state": "MA",
        "district": "Nova Caxias",
        "street": "3ª Travessa Benjamin Constant",
        "zipcode": "65604-285"
    },
    {
        "city": "Caxias",
        "state": "MA",
        "district": "Seriema",
        "street": "1ª Travessa Vinte e Quatro de Dezembro",
        "zipcode": "65602-421"
    },
    {
        "city": "Caxias",
        "state": "MA",
        "district": "Castelo Branco",
        "street": "Avenida Bandeirante",
        "zipcode": "65604-110"
    },
    {
        "city": "Caxias",
        "state": "MA",
        "district": "Cangalheiro",
        "street": "Rua Senador Clodomir Cardoso",
        "zipcode": "65606-530"
    },
    {
        "city": "Caxias",
        "state": "MA",
        "district": "Volta Redonda",
        "street": "Travessa Costa Sobrinho",
        "zipcode": "65606-520"
    },
    {
        "city": "Caxias",
        "state": "MA",
        "district": "Volta Redonda",
        "street": "Rua Cristino Gonçalves",
        "zipcode": "65606-430"
    },
    {
        "city": "Caxias",
        "state": "MA",
        "district": "Campo de Belém",
        "street": "2ª Travessa Doutor Walter Brito",
        "zipcode": "65609-090"
    },
    {
        "city": "Caxias",
        "state": "MA",
        "district": "Centro",
        "street": "Avenida Otávio Passos",
        "zipcode": "65602-010"
    },
    {
        "city": "Caxias",
        "state": "MA",
        "district": "Ponte",
        "street": "Rua São Vicente de Paula",
        "zipcode": "65609-440"
    },
    {
        "city": "Caxias",
        "state": "MA",
        "district": "Seriema",
        "street": "2ª Travessa Trinta e Um de Março",
        "zipcode": "65602-730"
    },
    {
        "city": "Caxias",
        "state": "MA",
        "district": "Caldeirões",
        "street": "1ª Travessa Vila São João",
        "zipcode": "65608-350"
    },
    {
        "city": "Caxias",
        "state": "MA",
        "district": "Campo de Belém",
        "street": "3ª Travessa Walter Brito",
        "zipcode": "65609-710"
    },
    {
        "city": "Caxias",
        "state": "MA",
        "district": "Campo de Belém",
        "street": "Travessa Raimundo Vieira",
        "zipcode": "65609-800"
    },
    {
        "city": "Caxias",
        "state": "MA",
        "district": "Seriema",
        "street": "Rua La Paz (Vl Arias)",
        "zipcode": "65603-250"
    },
    {
        "city": "Caxias",
        "state": "MA",
        "district": "Vila DNER",
        "street": "Rodovia BR",
        "zipcode": "65608-790"
    },
    {
        "city": "Caxias",
        "state": "MA",
        "district": "Antenor Viana",
        "street": "Rua do Açude",
        "zipcode": "65603-570"
    },
    {
        "city": "Caxias",
        "state": "MA",
        "district": "Vila Alecrim",
        "street": "Rua Aurora (Vl Vitória)",
        "zipcode": "65600-710"
    },
    {
        "city": "Caxias",
        "state": "MA",
        "district": "Pe Da Ladeira",
        "street": "Travessa Pe Da Ladeira",
        "zipcode": "65604-150"
    },
    {
        "city": "Caxias",
        "state": "MA",
        "district": "Vila Alecrim",
        "street": "Rua da Esperança (Vl Vitória)",
        "zipcode": "65600-720"
    }
]