[
    {
        "city": "Timon",
        "state": "MA",
        "district": "São Francisco II",
        "street": "Rua Antonio Ferreira de Morais",
        "zipcode": "65638-150"
    },
    {
        "city": "Timon",
        "state": "MA",
        "district": "Cidade Nova",
        "street": "Rua Quatro (Paralela AV Parnarama)",
        "zipcode": "65633-725"
    },
    {
        "city": "Timon",
        "state": "MA",
        "district": "Mutirão",
        "street": "Rua Amapá",
        "zipcode": "65635-482"
    },
    {
        "city": "Timon",
        "state": "MA",
        "district": "Pedro Patrício",
        "street": "Avenida Desembargador João Manoel",
        "zipcode": "65634-378"
    },
    {
        "city": "Timon",
        "state": "MA",
        "district": "Jóia",
        "street": "Quadra 17 (Cj Res Novo Jóia)",
        "zipcode": "65632-392"
    },
    {
        "city": "Timon",
        "state": "MA",
        "district": "Boa Esperança",
        "street": "Quadra H (Cj Novo Tempo)",
        "zipcode": "65636-878"
    },
    {
        "city": "Timon",
        "state": "MA",
        "district": "São Benedito",
        "street": "Rua Vila Sul",
        "zipcode": "65636-214"
    },
    {
        "city": "Timon",
        "state": "MA",
        "district": "Jóia",
        "street": "Quadra 06 (Cj Res Novo Jóia)",
        "zipcode": "65632-381"
    },
    {
        "city": "Timon",
        "state": "MA",
        "district": "São Benedito",
        "street": "Rua Dezesseis",
        "zipcode": "65636-285"
    },
    {
        "city": "Timon",
        "state": "MA",
        "district": "Mutirão",
        "street": "Quadra H (Res Júlia Almeida)",
        "zipcode": "65635-557"
    },
    {
        "city": "Timon",
        "state": "MA",
        "district": "Cicero Ferraz",
        "street": "Rua São Simão",
        "zipcode": "65635-020"
    },
    {
        "city": "Timon",
        "state": "MA",
        "district": "Parque Alvorada",
        "street": "Avenida Presidente Médici",
        "zipcode": "65633-020"
    },
    {
        "city": "Timon",
        "state": "MA",
        "district": "Vila Angélica",
        "street": "Rua Dezenove",
        "zipcode": "65634-485"
    },
    {
        "city": "Timon",
        "state": "MA",
        "district": "Boa Esperança",
        "street": "Quadra K (Cj Novo Tempo)",
        "zipcode": "65636-883"
    },
    {
        "city": "Timon",
        "state": "MA",
        "district": "Boa Esperança",
        "street": "Quadra M (Cj Novo Tempo)",
        "zipcode": "65636-885"
    },
    {
        "city": "Timon",
        "state": "MA",
        "district": "Boa Esperança",
        "street": "Quadra V (Cj Novo Tempo)",
        "zipcode": "65636-853"
    },
    {
        "city": "Timon",
        "state": "MA",
        "district": "Cicero Ferraz",
        "street": "Rua Estevam José",
        "zipcode": "65635-190"
    },
    {
        "city": "Timon",
        "state": "MA",
        "district": "Boa Vista",
        "street": "Rua Airton Costa Cruz",
        "zipcode": "65631-600"
    },
    {
        "city": "Timon",
        "state": "MA",
        "district": "Glória",
        "street": "Loteamento Vila do Bec",
        "zipcode": "65632-160"
    },
    {
        "city": "Timon",
        "state": "MA",
        "district": "Parque Alvorada",
        "street": "Avenida Benedito Ferreira Campos",
        "zipcode": "65633-970"
    },
    {
        "city": "Timon",
        "state": "MA",
        "district": "São Benedito",
        "street": "Rua Filomena Maria de Lima Costa",
        "zipcode": "65636-234"
    },
    {
        "city": "Timon",
        "state": "MA",
        "district": "Mutirão",
        "street": "Rua Presidente Figueiredo",
        "zipcode": "65635-512"
    },
    {
        "city": "Timon",
        "state": "MA",
        "district": "Boa Vista",
        "street": "Rua Tenente Edir",
        "zipcode": "65631-330"
    },
    {
        "city": "Timon",
        "state": "MA",
        "district": "Mutirão",
        "street": "Quadra P (Res Júlia Almeida)",
        "zipcode": "65635-564"
    },
    {
        "city": "Timon",
        "state": "MA",
        "district": "São Francisco II",
        "street": "Rua João Luiz de Mesquita",
        "zipcode": "65638-045"
    },
    {
        "city": "Timon",
        "state": "MA",
        "district": "Mangal",
        "street": "Avenida Presidente Médici",
        "zipcode": "65631-875"
    },
    {
        "city": "Timon",
        "state": "MA",
        "district": "Mutirão",
        "street": "Rua Belém",
        "zipcode": "65635-487"
    },
    {
        "city": "Timon",
        "state": "MA",
        "district": "Sete Estrelas",
        "street": "Loteamento Sete Estrelas",
        "zipcode": "65634-660"
    },
    {
        "city": "Timon",
        "state": "MA",
        "district": "Mateuzinho",
        "street": "Travessa José Venâncio",
        "zipcode": "65630-755"
    },
    {
        "city": "Timon",
        "state": "MA",
        "district": "Cidade Industrial Norte",
        "street": "Avenida C",
        "zipcode": "65638-810"
    },
    {
        "city": "Timon",
        "state": "MA",
        "district": "Pedro Patrício",
        "street": "Rua Filomena Maria de Lima Costa",
        "zipcode": "65634-445"
    },
    {
        "city": "Timon",
        "state": "MA",
        "district": "Boa Esperança",
        "street": "Avenida Presidente Médici",
        "zipcode": "65636-848"
    },
    {
        "city": "Timon",
        "state": "MA",
        "district": "Parque Aliança",
        "street": "Quadra 09 (Cj Res Primavera)",
        "zipcode": "65634-328"
    },
    {
        "city": "Timon",
        "state": "MA",
        "district": "Sete Estrelas",
        "street": "Avenida Ayrton Sena",
        "zipcode": "65632-625"
    },
    {
        "city": "Timon",
        "state": "MA",
        "district": "Boa Esperança",
        "street": "Quadra Q (Cj Novo Tempo)",
        "zipcode": "65636-888"
    },
    {
        "city": "Timon",
        "state": "MA",
        "district": "Boa Esperança",
        "street": "Quadra I (Cj Novo Tempo)",
        "zipcode": "65636-879"
    },
    {
        "city": "Timon",
        "state": "MA",
        "district": "Parque Aliança",
        "street": "Quadra 04 (Cj Res Primavera)",
        "zipcode": "65634-322"
    },
    {
        "city": "Timon",
        "state": "MA",
        "district": "São Francisco II",
        "street": "Residencial Canaã",
        "zipcode": "65636-865"
    },
    {
        "city": "Timon",
        "state": "MA",
        "district": "Cajueiro",
        "street": "Avenida Presidente Médici",
        "zipcode": "65630-484"
    },
    {
        "city": "Timon",
        "state": "MA",
        "district": "Jóia",
        "street": "Quadra 12 (Cj Res Novo Jóia)",
        "zipcode": "65632-387"
    },
    {
        "city": "Timon",
        "state": "MA",
        "district": "Cidade Nova",
        "street": "Rua Cinco (Paralela Av. Parnarama)",
        "zipcode": "65633-728"
    },
    {
        "city": "Timon",
        "state": "MA",
        "district": "Santo Antônio",
        "street": "Avenida Presidente Médici",
        "zipcode": "65630-595"
    },
    {
        "city": "Timon",
        "state": "MA",
        "district": "Parque Aliança",
        "street": "Quadra 14 (Cj Res Primavera)",
        "zipcode": "65634-334"
    },
    {
        "city": "Timon",
        "state": "MA",
        "district": "Cidade Nova",
        "street": "Rua Sete (Paralela a Rua P)",
        "zipcode": "65633-767"
    },
    {
        "city": "Timon",
        "state": "MA",
        "district": "Cidade Nova",
        "street": "Rua Valdo Izidoro do Nascimento",
        "zipcode": "65633-584"
    },
    {
        "city": "Timon",
        "state": "MA",
        "district": "Cicero Ferraz",
        "street": "Rua Dois (Paralela Av. Melvin Jones)",
        "zipcode": "65635-170"
    },
    {
        "city": "Timon",
        "state": "MA",
        "district": "Cicero Ferraz",
        "street": "Rua São João",
        "zipcode": "65635-290"
    },
    {
        "city": "Timon",
        "state": "MA",
        "district": "Mutirão",
        "street": "Rua Orquídeas",
        "zipcode": "65635-538"
    },
    {
        "city": "Timon",
        "state": "MA",
        "district": "Mutirão",
        "street": "Rua Açaí",
        "zipcode": "65635-516"
    },
    {
        "city": "Timon",
        "state": "MA",
        "district": "Mutirão",
        "street": "Rua Goiás",
        "zipcode": "65635-471"
    },
    {
        "city": "Timon",
        "state": "MA",
        "district": "Cidade Nova",
        "street": "Rua N",
        "zipcode": "65633-779"
    },
    {
        "city": "Timon",
        "state": "MA",
        "district": "Cidade Nova",
        "street": "Rua Santa Fé",
        "zipcode": "65633-794"
    },
    {
        "city": "Timon",
        "state": "MA",
        "district": "São Marcos",
        "street": "Rua F",
        "zipcode": "65634-168"
    },
    {
        "city": "Timon",
        "state": "MA",
        "district": "São Marcos",
        "street": "Rua E",
        "zipcode": "65634-170"
    },
    {
        "city": "Timon",
        "state": "MA",
        "district": "Cidade Nova",
        "street": "Rua do Leste",
        "zipcode": "65633-776"
    },
    {
        "city": "Timon",
        "state": "MA",
        "district": "Planalto Boa Esperança",
        "street": "Rua Vinte e Quatro",
        "zipcode": "65632-455"
    },
    {
        "city": "Timon",
        "state": "MA",
        "district": "Mutirão",
        "street": "Rua Nove",
        "zipcode": "65635-494"
    },
    {
        "city": "Timon",
        "state": "MA",
        "district": "Parque Aliança",
        "street": "Rua Oeste",
        "zipcode": "65634-250"
    },
    {
        "city": "Timon",
        "state": "MA",
        "district": "Parque Aliança",
        "street": "Rua P",
        "zipcode": "65634-325"
    },
    {
        "city": "Timon",
        "state": "MA",
        "district": "Pedro Patrício",
        "street": "Rua G",
        "zipcode": "65634-410"
    },
    {
        "city": "Timon",
        "state": "MA",
        "district": "Glória",
        "street": "Rua F",
        "zipcode": "65632-146"
    },
    {
        "city": "Timon",
        "state": "MA",
        "district": "Glória",
        "street": "Rua Jambo",
        "zipcode": "65632-149"
    },
    {
        "city": "Timon",
        "state": "MA",
        "district": "Parque Aliança",
        "street": "Rua Onze",
        "zipcode": "65634-300"
    },
    {
        "city": "Timon",
        "state": "MA",
        "district": "Mateusinho",
        "street": "Rua Um",
        "zipcode": "65630-870"
    },
    {
        "city": "Timon",
        "state": "MA",
        "district": "Parque Piauí",
        "street": "Rua Walter Martins",
        "zipcode": "65631-180"
    },
    {
        "city": "Timon",
        "state": "MA",
        "district": "Flores",
        "street": "Conjunto Cocais",
        "zipcode": "65636-585"
    },
    {
        "city": "Timon",
        "state": "MA",
        "district": "São Marcos",
        "street": "Rua G",
        "zipcode": "65634-166"
    },
    {
        "city": "Timon",
        "state": "MA",
        "district": "Sete Estrelas",
        "street": "Rua B",
        "zipcode": "65632-600"
    },
    {
        "city": "Timon",
        "state": "MA",
        "district": "Sete Estrelas",
        "street": "Estrada do Regimento",
        "zipcode": "65632-815"
    },
    {
        "city": "Timon",
        "state": "MA",
        "district": "Cajueiro",
        "street": "Rodovia BR",
        "zipcode": "65630-482"
    },
    {
        "city": "Timon",
        "state": "MA",
        "district": "Mangueira",
        "street": "Rua Luis Domingues",
        "zipcode": "65630-532"
    },
    {
        "city": "Timon",
        "state": "MA",
        "district": "Mangueira",
        "street": "Rua Acrísio Veras",
        "zipcode": "65630-534"
    },
    {
        "city": "Timon",
        "state": "MA",
        "district": "Mangueira",
        "street": "Travessa Aquiles Lisboa",
        "zipcode": "65630-536"
    },
    {
        "city": "Timon",
        "state": "MA",
        "district": "Santo Antônio",
        "street": "Rua B",
        "zipcode": "65630-570"
    },
    {
        "city": "Timon",
        "state": "MA",
        "district": "Santo Antônio",
        "street": "Rua A",
        "zipcode": "65630-575"
    },
    {
        "city": "Timon",
        "state": "MA",
        "district": "Cidade Nova",
        "street": "Rua P",
        "zipcode": "65633-761"
    },
    {
        "city": "Timon",
        "state": "MA",
        "district": "Boa Vista",
        "street": "Rua São Joaquim",
        "zipcode": "65631-794"
    },
    {
        "city": "Timon",
        "state": "MA",
        "district": "Jóia",
        "street": "Rua Pepita",
        "zipcode": "65632-285"
    },
    {
        "city": "Timon",
        "state": "MA",
        "district": "Mutirão",
        "street": "Rua Sergipe",
        "zipcode": "65635-479"
    },
    {
        "city": "Timon",
        "state": "MA",
        "district": "Marimar",
        "street": "Conjunto Pedro Ceará",
        "zipcode": "65637-120"
    },
    {
        "city": "Timon",
        "state": "MA",
        "district": "Mutirão",
        "street": "Rua Leandro Rêgo",
        "zipcode": "65635-498"
    },
    {
        "city": "Timon",
        "state": "MA",
        "district": "Cicero Ferraz",
        "street": "Rua Dois",
        "zipcode": "65635-200"
    },
    {
        "city": "Timon",
        "state": "MA",
        "district": "Mutirão",
        "street": "Rua Bahia",
        "zipcode": "65635-473"
    },
    {
        "city": "Timon",
        "state": "MA",
        "district": "Parque Piauí",
        "street": "Rua Dulce Oliveira",
        "zipcode": "65631-250"
    },
    {
        "city": "Timon",
        "state": "MA",
        "district": "Mutirão",
        "street": "Rua Pindoba",
        "zipcode": "65635-540"
    },
    {
        "city": "Timon",
        "state": "MA",
        "district": "Jóia",
        "street": "Rua Brilhante",
        "zipcode": "65632-282"
    },
    {
        "city": "Timon",
        "state": "MA",
        "district": "Cidade Nova",
        "street": "Conjunto Habitar Brasil",
        "zipcode": "65633-809"
    },
    {
        "city": "Timon",
        "state": "MA",
        "district": "Mutirão",
        "street": "Rua Paraná",
        "zipcode": "65635-469"
    },
    {
        "city": "Timon",
        "state": "MA",
        "district": "Cicero Ferraz",
        "street": "Rua São Paulo",
        "zipcode": "65635-310"
    },
    {
        "city": "Timon",
        "state": "MA",
        "district": "Mutirão",
        "street": "Rua Jasmin",
        "zipcode": "65635-532"
    },
    {
        "city": "Timon",
        "state": "MA",
        "district": "São Benedito",
        "street": "Rua Manoel Viana Vaz",
        "zipcode": "65636-204"
    },
    {
        "city": "Timon",
        "state": "MA",
        "district": "Parque Piauí",
        "street": "Rua Jaime de Moura Rios",
        "zipcode": "65631-190"
    },
    {
        "city": "Timon",
        "state": "MA",
        "district": "Parque Piauí",
        "street": "Rua Mário Carlos da Costa",
        "zipcode": "65636-295"
    },
    {
        "city": "Timon",
        "state": "MA",
        "district": "Mangal",
        "street": "Rua Dezesseis",
        "zipcode": "65631-870"
    },
    {
        "city": "Timon",
        "state": "MA",
        "district": "Glória",
        "street": "Rua E",
        "zipcode": "65632-147"
    },
    {
        "city": "Timon",
        "state": "MA",
        "district": "Mateuzinho",
        "street": "Rua B",
        "zipcode": "65630-740"
    },
    {
        "city": "Timon",
        "state": "MA",
        "district": "Santo Antônio",
        "street": "Rua Júlio Pinto das Rocha",
        "zipcode": "65630-490"
    },
    {
        "city": "Timon",
        "state": "MA",
        "district": "Santo Antônio",
        "street": "Avenida Circular",
        "zipcode": "65630-640"
    },
    {
        "city": "Timon",
        "state": "MA",
        "district": "Boa Vista",
        "street": "Rua Dez",
        "zipcode": "65631-760"
    },
    {
        "city": "Timon",
        "state": "MA",
        "district": "Boa Vista",
        "street": "Rua Dezoito",
        "zipcode": "65631-590"
    },
    {
        "city": "Timon",
        "state": "MA",
        "district": "Boa Vista",
        "street": "Rua Dois",
        "zipcode": "65631-560"
    },
    {
        "city": "Timon",
        "state": "MA",
        "district": "Santo Antônio",
        "street": "Rua Eliseu Martins Silva",
        "zipcode": "65630-590"
    },
    {
        "city": "Timon",
        "state": "MA",
        "district": "Formosa",
        "street": "Rua José Firmino dos Santos",
        "zipcode": "65632-020"
    },
    {
        "city": "Timon",
        "state": "MA",
        "district": "Parque Alvorada",
        "street": "Rua Manoel Martins Costa",
        "zipcode": "65633-070"
    },
    {
        "city": "Timon",
        "state": "MA",
        "district": "Mateuzinho",
        "street": "Alameda Mateusinho",
        "zipcode": "65630-670"
    },
    {
        "city": "Timon",
        "state": "MA",
        "district": "Mutirão",
        "street": "Rua Carnaúba",
        "zipcode": "65635-524"
    },
    {
        "city": "Timon",
        "state": "MA",
        "district": null,
        "street": "Povoado Roncador",
        "zipcode": "65634-990"
    },
    {
        "city": "Timon",
        "state": "MA",
        "district": "Mutirão",
        "street": "Rua Acre",
        "zipcode": "65635-481"
    },
    {
        "city": "Timon",
        "state": "MA",
        "district": "Mateuzinho",
        "street": "Rua Novecentos",
        "zipcode": "65630-750"
    },
    {
        "city": "Timon",
        "state": "MA",
        "district": "Formosa",
        "street": "Travessa Iracema",
        "zipcode": "65632-220"
    },
    {
        "city": "Timon",
        "state": "MA",
        "district": "Parque Aliança",
        "street": "Rua Sudoeste",
        "zipcode": "65634-245"
    },
    {
        "city": "Timon",
        "state": "MA",
        "district": "Mateuzinho",
        "street": "Rua Novecentos e Cinqüenta",
        "zipcode": "65630-770"
    },
    {
        "city": "Timon",
        "state": "MA",
        "district": "Boa Vista",
        "street": "Rua Onze",
        "zipcode": "65631-780"
    },
    {
        "city": "Timon",
        "state": "MA",
        "district": "Centro",
        "street": "Travessa Paulo Ramos",
        "zipcode": "65630-510"
    },
    {
        "city": "Timon",
        "state": "MA",
        "district": "Parque Alvorada",
        "street": "Rua Pedro José Gomes",
        "zipcode": "65633-050"
    },
    {
        "city": "Timon",
        "state": "MA",
        "district": "Boa Vista",
        "street": "Rua Quatorze",
        "zipcode": "65631-840"
    },
    {
        "city": "Timon",
        "state": "MA",
        "district": "Mateuzinho",
        "street": "Rua Quinhentos",
        "zipcode": "65630-610"
    },
    {
        "city": "Timon",
        "state": "MA",
        "district": "Boa Vista",
        "street": "Rua Quinze",
        "zipcode": "65631-860"
    },
    {
        "city": "Timon",
        "state": "MA",
        "district": "Formosa",
        "street": "Rua São Sebastião",
        "zipcode": "65632-140"
    },
    {
        "city": "Timon",
        "state": "MA",
        "district": "Boa Vista",
        "street": "Rua Seis",
        "zipcode": "65631-640"
    },
    {
        "city": "Timon",
        "state": "MA",
        "district": "Mateuzinho",
        "street": "Rua Seiscentos",
        "zipcode": "65630-630"
    },
    {
        "city": "Timon",
        "state": "MA",
        "district": "Boa Vista",
        "street": "Rua Sete",
        "zipcode": "65631-680"
    },
    {
        "city": "Timon",
        "state": "MA",
        "district": "Mateuzinho",
        "street": "Rua Setecentos",
        "zipcode": "65630-690"
    },
    {
        "city": "Timon",
        "state": "MA",
        "district": "Mateuzinho",
        "street": "Rua Setecentos e Cinqüenta",
        "zipcode": "65630-710"
    },
    {
        "city": "Timon",
        "state": "MA",
        "district": "Mateuzinho",
        "street": "Travessa Três",
        "zipcode": "65630-830"
    },
    {
        "city": "Timon",
        "state": "MA",
        "district": "Boa Vista",
        "street": "Rua Um",
        "zipcode": "65631-540"
    },
    {
        "city": "Timon",
        "state": "MA",
        "district": "Boa Vista",
        "street": "Rua Vinte",
        "zipcode": "65631-630"
    },
    {
        "city": "Timon",
        "state": "MA",
        "district": "Boa Vista",
        "street": "Rua Três",
        "zipcode": "65631-580"
    },
    {
        "city": "Timon",
        "state": "MA",
        "district": "Formosa",
        "street": "Beco F",
        "zipcode": "65632-060"
    },
    {
        "city": "Timon",
        "state": "MA",
        "district": "Parque Alvorada",
        "street": "Beco Beco Um",
        "zipcode": "65633-040"
    },
    {
        "city": "Timon",
        "state": "MA",
        "district": "Parque Alvorada",
        "street": "Avenida Parnarama",
        "zipcode": "65633-080"
    },
    {
        "city": "Timon",
        "state": "MA",
        "district": "Mateuzinho",
        "street": "Avenida Planalto",
        "zipcode": "65630-760"
    },
    {
        "city": "Timon",
        "state": "MA",
        "district": "Mateuzinho",
        "street": "Rua Uirapuru",
        "zipcode": "65630-765"
    },
    {
        "city": "Timon",
        "state": "MA",
        "district": "Mutirão",
        "street": "Vila União",
        "zipcode": "65635-828"
    },
    {
        "city": "Timon",
        "state": "MA",
        "district": "Sete Estrelas",
        "street": "Avenida Um",
        "zipcode": "65632-620"
    },
    {
        "city": "Timon",
        "state": "MA",
        "district": "Sete Estrelas",
        "street": "Rua Um",
        "zipcode": "65632-630"
    },
    {
        "city": "Timon",
        "state": "MA",
        "district": "Sete Estrelas",
        "street": "Rua Quatro",
        "zipcode": "65632-640"
    },
    {
        "city": "Timon",
        "state": "MA",
        "district": "Sete Estrelas",
        "street": "Rua Três",
        "zipcode": "65632-660"
    },
    {
        "city": "Timon",
        "state": "MA",
        "district": "Sete Estrelas",
        "street": "Rua Treze",
        "zipcode": "65632-665"
    },
    {
        "city": "Timon",
        "state": "MA",
        "district": "Sete Estrelas",
        "street": "Rua Quinze",
        "zipcode": "65632-695"
    },
    {
        "city": "Timon",
        "state": "MA",
        "district": "Sete Estrelas",
        "street": "Rua Oito",
        "zipcode": "65632-700"
    },
    {
        "city": "Timon",
        "state": "MA",
        "district": "Sete Estrelas",
        "street": "Rua Dezessete",
        "zipcode": "65632-720"
    },
    {
        "city": "Timon",
        "state": "MA",
        "district": "Sete Estrelas",
        "street": "Rua Dez",
        "zipcode": "65632-725"
    },
    {
        "city": "Timon",
        "state": "MA",
        "district": "Jóia",
        "street": "Rua Seis",
        "zipcode": "65632-360"
    },
    {
        "city": "Timon",
        "state": "MA",
        "district": "Santo Antônio",
        "street": "Rua Odilo Costa",
        "zipcode": "65630-335"
    },
    {
        "city": "Timon",
        "state": "MA",
        "district": "Cajueiro",
        "street": "Rua Sete",
        "zipcode": "65630-462"
    },
    {
        "city": "Timon",
        "state": "MA",
        "district": "Cajueiro",
        "street": "Rua Quatro",
        "zipcode": "65630-466"
    },
    {
        "city": "Timon",
        "state": "MA",
        "district": "Cajueiro",
        "street": "Rua José Odécio Teófilo Silva",
        "zipcode": "65630-476"
    },
    {
        "city": "Timon",
        "state": "MA",
        "district": "Cidade Nova",
        "street": "Rua Vinte e Oito",
        "zipcode": "65633-674"
    },
    {
        "city": "Timon",
        "state": "MA",
        "district": "Cidade Nova",
        "street": "Rua Vinte e Nove",
        "zipcode": "65633-677"
    },
    {
        "city": "Timon",
        "state": "MA",
        "district": "Cidade Nova",
        "street": "Rua Trinta",
        "zipcode": "65633-680"
    },
    {
        "city": "Timon",
        "state": "MA",
        "district": "Cidade Nova",
        "street": "Rua Trinta e Dois",
        "zipcode": "65633-689"
    },
    {
        "city": "Timon",
        "state": "MA",
        "district": "Cidade Nova",
        "street": "Rua Trinta e Três",
        "zipcode": "65633-692"
    },
    {
        "city": "Timon",
        "state": "MA",
        "district": "Boa Esperança",
        "street": "Parque Karina",
        "zipcode": "65636-880"
    },
    {
        "city": "Timon",
        "state": "MA",
        "district": "Mutirão",
        "street": "Rua Recife",
        "zipcode": "65635-483"
    },
    {
        "city": "Timon",
        "state": "MA",
        "district": "Mangueira",
        "street": "Rua Antonio Lidu",
        "zipcode": "65630-458"
    },
    {
        "city": "Timon",
        "state": "MA",
        "district": "São Benedito",
        "street": "Vila São Reis",
        "zipcode": "65636-265"
    },
    {
        "city": "Timon",
        "state": "MA",
        "district": "Cajueiro",
        "street": "Rua Arco Iris",
        "zipcode": "65630-468"
    },
    {
        "city": "Timon",
        "state": "MA",
        "district": "Cajueiro",
        "street": "Rua Palmeiras",
        "zipcode": "65630-470"
    },
    {
        "city": "Timon",
        "state": "MA",
        "district": "Cidade Nova",
        "street": "Rua Trinta e Seis",
        "zipcode": "65633-701"
    },
    {
        "city": "Timon",
        "state": "MA",
        "district": "Cidade Nova",
        "street": "Rua Trinta e Sete",
        "zipcode": "65633-704"
    },
    {
        "city": "Timon",
        "state": "MA",
        "district": "Cidade Nova",
        "street": "Rua Trinta e Nove",
        "zipcode": "65633-710"
    },
    {
        "city": "Timon",
        "state": "MA",
        "district": "Parque União",
        "street": "Rua Cento e Seis",
        "zipcode": "65631-382"
    },
    {
        "city": "Timon",
        "state": "MA",
        "district": "Parque União",
        "street": "Rua Cento e Sete",
        "zipcode": "65631-384"
    },
    {
        "city": "Timon",
        "state": "MA",
        "district": "Mangueira",
        "street": "Rua A",
        "zipcode": "65630-380"
    },
    {
        "city": "Timon",
        "state": "MA",
        "district": "Centro",
        "street": "Rua Aquiles Lisboa",
        "zipcode": "65630-300"
    },
    {
        "city": "Timon",
        "state": "MA",
        "district": "Centro",
        "street": "Travessa Aymoré",
        "zipcode": "65630-390"
    },
    {
        "city": "Timon",
        "state": "MA",
        "district": "Centro",
        "street": "Rua Benedito Leite",
        "zipcode": "65630-320"
    },
    {
        "city": "Timon",
        "state": "MA",
        "district": "Boa Vista",
        "street": "Avenida Boa Vista",
        "zipcode": "65631-430"
    },
    {
        "city": "Timon",
        "state": "MA",
        "district": "Boa Vista",
        "street": "Beco Dois",
        "zipcode": "65631-460"
    },
    {
        "city": "Timon",
        "state": "MA",
        "district": "Centro",
        "street": "Rua Duque de Caxias",
        "zipcode": "65630-190"
    },
    {
        "city": "Timon",
        "state": "MA",
        "district": "Centro",
        "street": "Avenida Getúlio Vargas",
        "zipcode": "65630-120"
    },
    {
        "city": "Timon",
        "state": "MA",
        "district": "Mateuzinho",
        "street": "Rua Sudoeste",
        "zipcode": "65630-800"
    },
    {
        "city": "Timon",
        "state": "MA",
        "district": "Novo Horizonte",
        "street": "Rua Um",
        "zipcode": "65638-110"
    },
    {
        "city": "Timon",
        "state": "MA",
        "district": "Centro",
        "street": "Rua Luís Domingues",
        "zipcode": "65630-110"
    },
    {
        "city": "Timon",
        "state": "MA",
        "district": "Centro",
        "street": "Rua Magalhães de Almeida",
        "zipcode": "65630-290"
    },
    {
        "city": "Timon",
        "state": "MA",
        "district": "Centro",
        "street": "Rua Miguel Simão",
        "zipcode": "65630-220"
    },
    {
        "city": "Timon",
        "state": "MA",
        "district": "Centro",
        "street": "Rua Odílio Costa",
        "zipcode": "65630-250"
    },
    {
        "city": "Timon",
        "state": "MA",
        "district": "Centro",
        "street": "Avenida Piauí",
        "zipcode": "65630-030"
    },
    {
        "city": "Timon",
        "state": "MA",
        "district": "Centro",
        "street": "Travessa Quatro de Setembro",
        "zipcode": "65630-340"
    },
    {
        "city": "Timon",
        "state": "MA",
        "district": "Santo Antônio",
        "street": "Rua São João",
        "zipcode": "65630-440"
    },
    {
        "city": "Timon",
        "state": "MA",
        "district": "Centro",
        "street": "Rua São José",
        "zipcode": "65630-060"
    },
    {
        "city": "Timon",
        "state": "MA",
        "district": "Centro",
        "street": "Praça Saturnino Belo",
        "zipcode": "65630-210"
    },
    {
        "city": "Timon",
        "state": "MA",
        "district": "Centro",
        "street": "Travessa Sete de Setembro",
        "zipcode": "65630-430"
    },
    {
        "city": "Timon",
        "state": "MA",
        "district": "Centro",
        "street": "Travessa Timbiras",
        "zipcode": "65630-410"
    },
    {
        "city": "Timon",
        "state": "MA",
        "district": "Parque Aliança",
        "street": "Rua Quinze",
        "zipcode": "65634-310"
    },
    {
        "city": "Timon",
        "state": "MA",
        "district": "Centro",
        "street": "Travessa Treze de Maio",
        "zipcode": "65630-310"
    },
    {
        "city": "Timon",
        "state": "MA",
        "district": "Boa Vista",
        "street": "Beco Um",
        "zipcode": "65631-440"
    },
    {
        "city": "Timon",
        "state": "MA",
        "district": "Centro",
        "street": "Beco Um",
        "zipcode": "65630-020"
    },
    {
        "city": "Timon",
        "state": "MA",
        "district": "Centro",
        "street": "Avenida Viana Vaz",
        "zipcode": "65630-150"
    },
    {
        "city": "Timon",
        "state": "MA",
        "district": "Centro",
        "street": "Rua Acrísio Veras",
        "zipcode": "65630-070"
    },
    {
        "city": "Timon",
        "state": "MA",
        "district": "Centro",
        "street": "Rua Senador Furtado",
        "zipcode": "65630-130"
    },
    {
        "city": "Timon",
        "state": "MA",
        "district": "Parque União",
        "street": "Travessa Quatorze",
        "zipcode": "65631-379"
    },
    {
        "city": "Timon",
        "state": "MA",
        "district": "Parque União",
        "street": "Rua Oito",
        "zipcode": "65631-374"
    },
    {
        "city": "Timon",
        "state": "MA",
        "district": "Parque União",
        "street": "Beco Vila Dez",
        "zipcode": "65631-376"
    },
    {
        "city": "Timon",
        "state": "MA",
        "district": "Parque União",
        "street": "Rua Dez",
        "zipcode": "65631-378"
    },
    {
        "city": "Timon",
        "state": "MA",
        "district": "São Marcos",
        "street": "Rua Elizeu Silva",
        "zipcode": "65634-182"
    },
    {
        "city": "Timon",
        "state": "MA",
        "district": "São Marcos",
        "street": "Rua B",
        "zipcode": "65634-184"
    },
    {
        "city": "Timon",
        "state": "MA",
        "district": "São Marcos",
        "street": "Rua Antonio Batista",
        "zipcode": "65634-185"
    },
    {
        "city": "Timon",
        "state": "MA",
        "district": "São Marcos",
        "street": "Rua Quinze",
        "zipcode": "65634-194"
    },
    {
        "city": "Timon",
        "state": "MA",
        "district": "São Marcos",
        "street": "Rua Dezessete",
        "zipcode": "65634-198"
    },
    {
        "city": "Timon",
        "state": "MA",
        "district": "Jóia",
        "street": "Rua Três",
        "zipcode": "65632-375"
    },
    {
        "city": "Timon",
        "state": "MA",
        "district": "Planalto Boa Esperança",
        "street": "Rua B",
        "zipcode": "65632-410"
    },
    {
        "city": "Timon",
        "state": "MA",
        "district": "Planalto Boa Esperança",
        "street": "Rua D",
        "zipcode": "65632-420"
    },
    {
        "city": "Timon",
        "state": "MA",
        "district": "Planalto Boa Esperança",
        "street": "Rua Dezoito",
        "zipcode": "65632-425"
    },
    {
        "city": "Timon",
        "state": "MA",
        "district": "Planalto Boa Esperança",
        "street": "Rua Dezenove",
        "zipcode": "65632-430"
    },
    {
        "city": "Timon",
        "state": "MA",
        "district": "Planalto Boa Esperança",
        "street": "Rua Vinte",
        "zipcode": "65632-435"
    },
    {
        "city": "Timon",
        "state": "MA",
        "district": "Cidade Nova",
        "street": "Rua Dez",
        "zipcode": "65633-608"
    },
    {
        "city": "Timon",
        "state": "MA",
        "district": "Cidade Nova",
        "street": "Travessa Circular",
        "zipcode": "65633-611"
    },
    {
        "city": "Timon",
        "state": "MA",
        "district": "Parque Aliança",
        "street": "Rua C",
        "zipcode": "65634-225"
    },
    {
        "city": "Timon",
        "state": "MA",
        "district": "Parque Aliança",
        "street": "Rua Nordeste",
        "zipcode": "65634-237"
    },
    {
        "city": "Timon",
        "state": "MA",
        "district": "Parque Aliança",
        "street": "Rua Dois",
        "zipcode": "65634-260"
    },
    {
        "city": "Timon",
        "state": "MA",
        "district": "Parque Aliança",
        "street": "Rua Oito",
        "zipcode": "65634-275"
    },
    {
        "city": "Timon",
        "state": "MA",
        "district": "Cidade Nova",
        "street": "Rua Doze",
        "zipcode": "65633-620"
    },
    {
        "city": "Timon",
        "state": "MA",
        "district": "Parque Piauí",
        "street": "Rua Luis Pires de Sá",
        "zipcode": "65631-290"
    },
    {
        "city": "Timon",
        "state": "MA",
        "district": "Parque Piauí",
        "street": "Avenida Tenente Antonio Correia da Silva",
        "zipcode": "65631-295"
    },
    {
        "city": "Timon",
        "state": "MA",
        "district": "Cidade Nova",
        "street": "Rua Treze",
        "zipcode": "65633-626"
    },
    {
        "city": "Timon",
        "state": "MA",
        "district": "Cidade Nova",
        "street": "Travessa Dois",
        "zipcode": "65633-629"
    },
    {
        "city": "Timon",
        "state": "MA",
        "district": "Cidade Nova",
        "street": "Rua Quinze",
        "zipcode": "65633-635"
    },
    {
        "city": "Timon",
        "state": "MA",
        "district": "Cidade Nova",
        "street": "Rua Dezesseis",
        "zipcode": "65633-638"
    },
    {
        "city": "Timon",
        "state": "MA",
        "district": "Cidade Nova",
        "street": "Rua Dezenove",
        "zipcode": "65633-647"
    },
    {
        "city": "Timon",
        "state": "MA",
        "district": "Cidade Nova",
        "street": "Rua Vinte",
        "zipcode": "65633-650"
    },
    {
        "city": "Timon",
        "state": "MA",
        "district": "Boa Vista",
        "street": "Rua Eulálio Vaz da Costa e Sousa",
        "zipcode": "65631-784"
    },
    {
        "city": "Timon",
        "state": "MA",
        "district": "Cidade Nova",
        "street": "Rua Vinte e Um",
        "zipcode": "65633-653"
    },
    {
        "city": "Timon",
        "state": "MA",
        "district": "Cidade Nova",
        "street": "Rua Vinte e Três",
        "zipcode": "65633-659"
    },
    {
        "city": "Timon",
        "state": "MA",
        "district": "Cidade Nova",
        "street": "Rua Vinte e Quatro",
        "zipcode": "65633-662"
    },
    {
        "city": "Timon",
        "state": "MA",
        "district": "Cidade Nova",
        "street": "Rua Vinte e Cinco",
        "zipcode": "65633-665"
    },
    {
        "city": "Timon",
        "state": "MA",
        "district": "Cidade Nova",
        "street": "Rua Vinte e Sete",
        "zipcode": "65633-671"
    },
    {
        "city": "Timon",
        "state": "MA",
        "district": "Cidade Nova",
        "street": "Conjunto Cidade Nova I",
        "zipcode": "65633-612"
    },
    {
        "city": "Timon",
        "state": "MA",
        "district": "Boa Vista",
        "street": "Avenida São Luis",
        "zipcode": "65631-325"
    },
    {
        "city": "Timon",
        "state": "MA",
        "district": "Boa Vista",
        "street": "Rua Walter Martins",
        "zipcode": "65631-335"
    },
    {
        "city": "Timon",
        "state": "MA",
        "district": "São Marcos",
        "street": "Beco Um",
        "zipcode": "65634-200"
    },
    {
        "city": "Timon",
        "state": "MA",
        "district": "São Marcos",
        "street": "Rua Dezoito",
        "zipcode": "65634-208"
    },
    {
        "city": "Timon",
        "state": "MA",
        "district": "Parque Piauí",
        "street": "Rua Adão Belarmino",
        "zipcode": "65631-260"
    },
    {
        "city": "Timon",
        "state": "MA",
        "district": "Parque Piauí",
        "street": "Rua Antônio Guimarães",
        "zipcode": "65631-100"
    },
    {
        "city": "Timon",
        "state": "MA",
        "district": "Parque Aliança",
        "street": "Rua Doze",
        "zipcode": "65634-290"
    },
    {
        "city": "Timon",
        "state": "MA",
        "district": "Parque Piauí",
        "street": "Rua Elizete de Oliveira Farias",
        "zipcode": "65631-230"
    },
    {
        "city": "Timon",
        "state": "MA",
        "district": "Parque Piauí",
        "street": "Rua Eulálio Vaz da Costa e Sousa",
        "zipcode": "65631-310"
    },
    {
        "city": "Timon",
        "state": "MA",
        "district": "Centro",
        "street": "Rua Firmino Gonçalves Pedreira",
        "zipcode": "65631-040"
    },
    {
        "city": "Timon",
        "state": "MA",
        "district": "Parque Piauí",
        "street": "Avenida Francisco Carlos Jansen",
        "zipcode": "65631-240"
    },
    {
        "city": "Timon",
        "state": "MA",
        "district": "Parque Piauí",
        "street": "Rua Jamil de Miranda Gedeon",
        "zipcode": "65631-140"
    },
    {
        "city": "Timon",
        "state": "MA",
        "district": "Parque Piauí",
        "street": "Rua Jerônimo Silva",
        "zipcode": "65631-070"
    },
    {
        "city": "Timon",
        "state": "MA",
        "district": "Parque Piauí",
        "street": "Rua João Lula",
        "zipcode": "65631-060"
    },
    {
        "city": "Timon",
        "state": "MA",
        "district": "Parque Piauí",
        "street": "Rua Joaquim Pedreira",
        "zipcode": "65631-350"
    },
    {
        "city": "Timon",
        "state": "MA",
        "district": "Parque Aliança",
        "street": "Rua Nove",
        "zipcode": "65634-210"
    },
    {
        "city": "Timon",
        "state": "MA",
        "district": "Parque Piauí",
        "street": "Avenida Piauí",
        "zipcode": "65631-030"
    },
    {
        "city": "Timon",
        "state": "MA",
        "district": "Parque Piauí",
        "street": "Rua Projetada",
        "zipcode": "65631-220"
    },
    {
        "city": "Timon",
        "state": "MA",
        "district": "Parque Aliança",
        "street": "Rua Quatro",
        "zipcode": "65634-240"
    },
    {
        "city": "Timon",
        "state": "MA",
        "district": "Parque Aliança",
        "street": "Rua Treze",
        "zipcode": "65634-270"
    },
    {
        "city": "Timon",
        "state": "MA",
        "district": "Parque Aliança",
        "street": "Rua Três",
        "zipcode": "65634-220"
    },
    {
        "city": "Timon",
        "state": "MA",
        "district": "Parque Piauí",
        "street": "Travessa João Castelo",
        "zipcode": "65631-110"
    },
    {
        "city": "Timon",
        "state": "MA",
        "district": "Parque Piauí",
        "street": "Rua de Acesso",
        "zipcode": "65631-130"
    },
    {
        "city": "Timon",
        "state": "MA",
        "district": "São Marcos",
        "street": "Avenida Circular",
        "zipcode": "65634-190"
    },
    {
        "city": "Timon",
        "state": "MA",
        "district": "Parque União",
        "street": "Rua Seis",
        "zipcode": "65631-372"
    },
    {
        "city": "Timon",
        "state": "MA",
        "district": "Parque União",
        "street": "Rua Sete",
        "zipcode": "65631-373"
    },
    {
        "city": "Timon",
        "state": "MA",
        "district": "Jóia",
        "street": "Rua Dois",
        "zipcode": "65632-292"
    },
    {
        "city": "Timon",
        "state": "MA",
        "district": "Jóia",
        "street": "Rua F",
        "zipcode": "65632-330"
    },
    {
        "city": "Timon",
        "state": "MA",
        "district": "Jóia",
        "street": "Rua I",
        "zipcode": "65632-345"
    },
    {
        "city": "Timon",
        "state": "MA",
        "district": "São Benedito",
        "street": "Rua Antonio Marques",
        "zipcode": "65636-202"
    },
    {
        "city": "Timon",
        "state": "MA",
        "district": "São Benedito",
        "street": "Rua José Constâncio",
        "zipcode": "65636-207"
    },
    {
        "city": "Timon",
        "state": "MA",
        "district": "Jóia",
        "street": "Rua L",
        "zipcode": "65632-355"
    },
    {
        "city": "Timon",
        "state": "MA",
        "district": "Cidade Nova",
        "street": "Rua Dois",
        "zipcode": "65633-566"
    },
    {
        "city": "Timon",
        "state": "MA",
        "district": "Cidade Nova",
        "street": "Rua Acesso",
        "zipcode": "65633-569"
    },
    {
        "city": "Timon",
        "state": "MA",
        "district": "Cidade Nova",
        "street": "Rua Três",
        "zipcode": "65633-572"
    },
    {
        "city": "Timon",
        "state": "MA",
        "district": "Cidade Nova",
        "street": "Rua Quatro",
        "zipcode": "65633-581"
    },
    {
        "city": "Timon",
        "state": "MA",
        "district": "Cidade Nova",
        "street": "Rua Seis",
        "zipcode": "65633-590"
    },
    {
        "city": "Timon",
        "state": "MA",
        "district": "Cidade Nova",
        "street": "Rua Tiradentes",
        "zipcode": "65633-593"
    },
    {
        "city": "Timon",
        "state": "MA",
        "district": "Cidade Nova",
        "street": "Rua Oito",
        "zipcode": "65633-602"
    },
    {
        "city": "Timon",
        "state": "MA",
        "district": "São Benedito",
        "street": "Travessa Dezesseis",
        "zipcode": "65636-222"
    },
    {
        "city": "Timon",
        "state": "MA",
        "district": "São Benedito",
        "street": "Conjunto Odila Costa",
        "zipcode": "65636-232"
    },
    {
        "city": "Timon",
        "state": "MA",
        "district": "São Benedito",
        "street": "Travessa Dezenove",
        "zipcode": "65636-236"
    },
    {
        "city": "Timon",
        "state": "MA",
        "district": "São Benedito",
        "street": "Beco Um",
        "zipcode": "65636-242"
    },
    {
        "city": "Timon",
        "state": "MA",
        "district": "São Benedito",
        "street": "Beco Dois",
        "zipcode": "65636-244"
    },
    {
        "city": "Timon",
        "state": "MA",
        "district": "Flores",
        "street": "Rua Dois",
        "zipcode": "65636-636"
    },
    {
        "city": "Timon",
        "state": "MA",
        "district": "Parque Piauí",
        "street": "Avenida Teresina",
        "zipcode": "65631-205"
    },
    {
        "city": "Timon",
        "state": "MA",
        "district": "Pedro Patrício",
        "street": "Rua I",
        "zipcode": "65634-418"
    },
    {
        "city": "Timon",
        "state": "MA",
        "district": "Vila Angélica",
        "street": "Rua Um",
        "zipcode": "65634-474"
    },
    {
        "city": "Timon",
        "state": "MA",
        "district": "Vila Angélica",
        "street": "Rua Três",
        "zipcode": "65634-478"
    },
    {
        "city": "Timon",
        "state": "MA",
        "district": "Glória",
        "street": "Rua Quatro",
        "zipcode": "65632-148"
    },
    {
        "city": "Timon",
        "state": "MA",
        "district": "Glória",
        "street": "Rua Dez",
        "zipcode": "65632-154"
    },
    {
        "city": "Timon",
        "state": "MA",
        "district": "Jóia",
        "street": "Rua José Monte",
        "zipcode": "65632-295"
    },
    {
        "city": "Timon",
        "state": "MA",
        "district": "Jóia",
        "street": "Rua Micheline",
        "zipcode": "65632-272"
    },
    {
        "city": "Timon",
        "state": "MA",
        "district": "Glória",
        "street": "Rua Nove",
        "zipcode": "65632-155"
    },
    {
        "city": "Timon",
        "state": "MA",
        "district": "Glória",
        "street": "Rua Sete",
        "zipcode": "65632-158"
    },
    {
        "city": "Timon",
        "state": "MA",
        "district": "Glória",
        "street": "Rua Seis",
        "zipcode": "65632-159"
    },
    {
        "city": "Timon",
        "state": "MA",
        "district": "Glória",
        "street": "Rua C",
        "zipcode": "65632-167"
    },
    {
        "city": "Timon",
        "state": "MA",
        "district": "Glória",
        "street": "Rua Três",
        "zipcode": "65632-173"
    },
    {
        "city": "Timon",
        "state": "MA",
        "district": "Jóia",
        "street": "Rua Ouro",
        "zipcode": "65632-245"
    },
    {
        "city": "Timon",
        "state": "MA",
        "district": "Jóia",
        "street": "Rua D",
        "zipcode": "65632-265"
    },
    {
        "city": "Timon",
        "state": "MA",
        "district": "Parque Piauí",
        "street": "Rua Antônio Marques",
        "zipcode": "65636-170"
    },
    {
        "city": "Timon",
        "state": "MA",
        "district": "Parque Alvorada",
        "street": "Avenida Benedito Ferreira Campos",
        "zipcode": "65633-280"
    },
    {
        "city": "Timon",
        "state": "MA",
        "district": "Parque Alvorada",
        "street": "Rua Firmino José da Silva",
        "zipcode": "65633-330"
    },
    {
        "city": "Timon",
        "state": "MA",
        "district": "Formosa",
        "street": "Avenida Formosa",
        "zipcode": "65636-180"
    },
    {
        "city": "Timon",
        "state": "MA",
        "district": "Parque Alvorada",
        "street": "Rua Jaime Assunção e Silva",
        "zipcode": "65633-250"
    },
    {
        "city": "Timon",
        "state": "MA",
        "district": "Formosa",
        "street": "Rua José Batista",
        "zipcode": "65632-180"
    },
    {
        "city": "Timon",
        "state": "MA",
        "district": "Jóia",
        "street": "Rua Preciosa",
        "zipcode": "65632-280"
    },
    {
        "city": "Timon",
        "state": "MA",
        "district": "Jóia",
        "street": "Rua Topazio I",
        "zipcode": "65632-255"
    },
    {
        "city": "Timon",
        "state": "MA",
        "district": "Planalto Boa Esperança",
        "street": "Loteamento Bandeirante X",
        "zipcode": "65632-400"
    },
    {
        "city": "Timon",
        "state": "MA",
        "district": "São Benedito",
        "street": "Rua Justino de Oliveira Costa",
        "zipcode": "65636-260"
    },
    {
        "city": "Timon",
        "state": "MA",
        "district": "Planalto Formosa",
        "street": "Rua Mil e Quatro",
        "zipcode": "65634-130"
    },
    {
        "city": "Timon",
        "state": "MA",
        "district": "Planalto Formosa",
        "street": "Rua Mil e Três",
        "zipcode": "65634-110"
    },
    {
        "city": "Timon",
        "state": "MA",
        "district": "Parque Alvorada",
        "street": "Rua Newton Bezerra de Moura",
        "zipcode": "65633-370"
    },
    {
        "city": "Timon",
        "state": "MA",
        "district": "Formosa",
        "street": "Rua Santa Helena",
        "zipcode": "65636-160"
    },
    {
        "city": "Timon",
        "state": "MA",
        "district": "São Benedito",
        "street": "Rua São Joaquim",
        "zipcode": "65636-220"
    },
    {
        "city": "Timon",
        "state": "MA",
        "district": "Parque Alvorada",
        "street": "Rua Tibúrcio de Sousa Pena",
        "zipcode": "65633-310"
    },
    {
        "city": "Timon",
        "state": "MA",
        "district": "Vila Bandeirante",
        "street": "Rua Vinte e Seis",
        "zipcode": "65633-430"
    },
    {
        "city": "Timon",
        "state": "MA",
        "district": "Vila Bandeirante",
        "street": "Rua Vinte e Sete",
        "zipcode": "65633-450"
    },
    {
        "city": "Timon",
        "state": "MA",
        "district": "Parque Alvorada",
        "street": "Rua Martinho Carlos da Silva",
        "zipcode": "65633-350"
    },
    {
        "city": "Timon",
        "state": "MA",
        "district": "Vila Bandeirante",
        "street": "Rua Vinte e Oito",
        "zipcode": "65633-470"
    },
    {
        "city": "Timon",
        "state": "MA",
        "district": "Parque Alvorada",
        "street": "Rua Vinte e Cinco",
        "zipcode": "65633-550"
    },
    {
        "city": "Timon",
        "state": "MA",
        "district": "São Benedito",
        "street": "Travessa Firmino Gonçalves Pedreira",
        "zipcode": "65636-270"
    },
    {
        "city": "Timon",
        "state": "MA",
        "district": "Planalto Formosa",
        "street": "Rua Aliança",
        "zipcode": "65634-065"
    },
    {
        "city": "Timon",
        "state": "MA",
        "district": "Cidade Nova",
        "street": "Rua Norte",
        "zipcode": "65633-791"
    },
    {
        "city": "Timon",
        "state": "MA",
        "district": "Cidade Nova",
        "street": "Rua G",
        "zipcode": "65633-800"
    },
    {
        "city": "Timon",
        "state": "MA",
        "district": "Cidade Nova",
        "street": "Rua Raimundo Pereira Magalhães",
        "zipcode": "65633-803"
    },
    {
        "city": "Timon",
        "state": "MA",
        "district": "Cidade Nova",
        "street": "Avenida Parnarama",
        "zipcode": "65633-815"
    },
    {
        "city": "Timon",
        "state": "MA",
        "district": "Planalto Formosa",
        "street": "Rua Dez",
        "zipcode": "65634-020"
    },
    {
        "city": "Timon",
        "state": "MA",
        "district": "Formosa",
        "street": "Rua Oito",
        "zipcode": "65636-080"
    },
    {
        "city": "Timon",
        "state": "MA",
        "district": "Flores",
        "street": "Beco Dez",
        "zipcode": "65636-675"
    },
    {
        "city": "Timon",
        "state": "MA",
        "district": "Flores",
        "street": "Beco Onze",
        "zipcode": "65636-676"
    },
    {
        "city": "Timon",
        "state": "MA",
        "district": "Flores",
        "street": "Beco Quatorze",
        "zipcode": "65636-679"
    },
    {
        "city": "Timon",
        "state": "MA",
        "district": "Flores",
        "street": "Beco Dezesseis",
        "zipcode": "65636-682"
    },
    {
        "city": "Timon",
        "state": "MA",
        "district": "Flores",
        "street": "Beco Dezessete",
        "zipcode": "65636-683"
    },
    {
        "city": "Timon",
        "state": "MA",
        "district": "Flores",
        "street": "Beco Dezoito",
        "zipcode": "65636-684"
    },
    {
        "city": "Timon",
        "state": "MA",
        "district": "Flores",
        "street": "Beco Vinte e Dois",
        "zipcode": "65636-688"
    },
    {
        "city": "Timon",
        "state": "MA",
        "district": "Flores",
        "street": "Beco Vinte e Cinco",
        "zipcode": "65636-692"
    },
    {
        "city": "Timon",
        "state": "MA",
        "district": "São Francisco I",
        "street": "Rua Cento e Treze",
        "zipcode": "65636-722"
    },
    {
        "city": "Timon",
        "state": "MA",
        "district": "Cicero Ferraz",
        "street": "Avenida Melvin Jones",
        "zipcode": "65635-160"
    },
    {
        "city": "Timon",
        "state": "MA",
        "district": "Flores",
        "street": "Rua Um",
        "zipcode": "65636-552"
    },
    {
        "city": "Timon",
        "state": "MA",
        "district": "Jóia",
        "street": "Rua Topazio II",
        "zipcode": "65632-260"
    },
    {
        "city": "Timon",
        "state": "MA",
        "district": "Cicero Ferraz",
        "street": "Rua São Felipe",
        "zipcode": "65635-120"
    },
    {
        "city": "Timon",
        "state": "MA",
        "district": "Parque Piauí",
        "street": "Rua Sambico",
        "zipcode": "65631-150"
    },
    {
        "city": "Timon",
        "state": "MA",
        "district": "Cicero Ferraz",
        "street": "Rua José Marinho da Costa",
        "zipcode": "65635-100"
    },
    {
        "city": "Timon",
        "state": "MA",
        "district": "Centro",
        "street": "Travessa Firmo Pedreira",
        "zipcode": "65630-260"
    },
    {
        "city": "Timon",
        "state": "MA",
        "district": "São Benedito",
        "street": "Beco Lavanderia",
        "zipcode": "65636-224"
    },
    {
        "city": "Timon",
        "state": "MA",
        "district": "Cicero Ferraz",
        "street": "Rua São Mateus",
        "zipcode": "65635-130"
    },
    {
        "city": "Timon",
        "state": "MA",
        "district": "Cicero Ferraz",
        "street": "Rua São Pedro",
        "zipcode": "65635-240"
    },
    {
        "city": "Timon",
        "state": "MA",
        "district": "Cicero Ferraz",
        "street": "Rua Santa Cecília",
        "zipcode": "65635-250"
    },
    {
        "city": "Timon",
        "state": "MA",
        "district": "Cicero Ferraz",
        "street": "Rua São Lucas",
        "zipcode": "65635-140"
    },
    {
        "city": "Timon",
        "state": "MA",
        "district": "Cicero Ferraz",
        "street": "Rua Santa Luzia",
        "zipcode": "65635-080"
    },
    {
        "city": "Timon",
        "state": "MA",
        "district": "Cicero Ferraz",
        "street": "Rua São Bartolomeu",
        "zipcode": "65635-090"
    },
    {
        "city": "Timon",
        "state": "MA",
        "district": "Cicero Ferraz",
        "street": "Rua São José",
        "zipcode": "65635-220"
    },
    {
        "city": "Timon",
        "state": "MA",
        "district": "Flores",
        "street": "Rua Cinco",
        "zipcode": "65636-591"
    },
    {
        "city": "Timon",
        "state": "MA",
        "district": "Flores",
        "street": "Rua Seis",
        "zipcode": "65636-594"
    },
    {
        "city": "Timon",
        "state": "MA",
        "district": "Flores",
        "street": "Beco Oito",
        "zipcode": "65636-673"
    },
    {
        "city": "Timon",
        "state": "MA",
        "district": "Pedro Patrício",
        "street": "Rua J",
        "zipcode": "65634-420"
    },
    {
        "city": "Timon",
        "state": "MA",
        "district": "Pedro Patrício",
        "street": "Rua L",
        "zipcode": "65634-422"
    },
    {
        "city": "Timon",
        "state": "MA",
        "district": "Pedro Patrício",
        "street": "Rua O",
        "zipcode": "65634-428"
    },
    {
        "city": "Timon",
        "state": "MA",
        "district": "Pedro Patrício",
        "street": "Rua Q",
        "zipcode": "65634-434"
    },
    {
        "city": "Timon",
        "state": "MA",
        "district": "Parque Alvorada",
        "street": "Rua Adamastor Oliveira",
        "zipcode": "65633-220"
    },
    {
        "city": "Timon",
        "state": "MA",
        "district": "Formosa",
        "street": "Rua Antônio Nunes",
        "zipcode": "65636-030"
    },
    {
        "city": "Timon",
        "state": "MA",
        "district": "Parque Alvorada",
        "street": "Rua Carlos Alberto de Morais",
        "zipcode": "65633-150"
    },
    {
        "city": "Timon",
        "state": "MA",
        "district": "Parque Alvorada",
        "street": "Avenida Jerônimo Silva",
        "zipcode": "65633-180"
    },
    {
        "city": "Timon",
        "state": "MA",
        "district": "Parque Alvorada",
        "street": "Rua José Odécio Teófilo Silva",
        "zipcode": "65633-140"
    },
    {
        "city": "Timon",
        "state": "MA",
        "district": "Formosa",
        "street": "Beco L",
        "zipcode": "65636-130"
    },
    {
        "city": "Timon",
        "state": "MA",
        "district": "Flores",
        "street": "Rua Luís Pires de Sá",
        "zipcode": "65636-580"
    },
    {
        "city": "Timon",
        "state": "MA",
        "district": "Formosa",
        "street": "Rua Manoel Batista",
        "zipcode": "65636-050"
    },
    {
        "city": "Timon",
        "state": "MA",
        "district": "Parque Alvorada",
        "street": "Rua Manoel Gomes da Silva",
        "zipcode": "65633-240"
    },
    {
        "city": "Timon",
        "state": "MA",
        "district": "Cicero Ferraz",
        "street": "Rua Um",
        "zipcode": "65635-180"
    },
    {
        "city": "Timon",
        "state": "MA",
        "district": "Planalto Formosa",
        "street": "Rua Mil",
        "zipcode": "65634-030"
    },
    {
        "city": "Timon",
        "state": "MA",
        "district": "Planalto Formosa",
        "street": "Rua Mil e Hum",
        "zipcode": "65634-050"
    },
    {
        "city": "Timon",
        "state": "MA",
        "district": "Flores",
        "street": "Beco Vinte e Sete",
        "zipcode": "65636-701"
    },
    {
        "city": "Timon",
        "state": "MA",
        "district": "Flores",
        "street": "Beco Seis",
        "zipcode": "65636-660"
    },
    {
        "city": "Timon",
        "state": "MA",
        "district": "Flores",
        "street": "Rua do Meio",
        "zipcode": "65636-550"
    },
    {
        "city": "Timon",
        "state": "MA",
        "district": "Flores",
        "street": "Rua Vinte e Três",
        "zipcode": "65636-620"
    },
    {
        "city": "Timon",
        "state": "MA",
        "district": "Flores",
        "street": "Rua Vinte e Sete",
        "zipcode": "65636-690"
    },
    {
        "city": "Timon",
        "state": "MA",
        "district": "Parque Alvorada",
        "street": "Rua I",
        "zipcode": "65633-160"
    },
    {
        "city": "Timon",
        "state": "MA",
        "district": "Parque Alvorada",
        "street": "Rua J",
        "zipcode": "65633-200"
    },
    {
        "city": "Timon",
        "state": "MA",
        "district": "Planalto Formosa",
        "street": "Rua Um Mil e Sete",
        "zipcode": "65634-035"
    },
    {
        "city": "Timon",
        "state": "MA",
        "district": "Planalto Formosa",
        "street": "Rua Um Mil e Cinco",
        "zipcode": "65634-055"
    },
    {
        "city": "Timon",
        "state": "MA",
        "district": "Cidade Nova",
        "street": "Rua da Substação",
        "zipcode": "65633-770"
    },
    {
        "city": "Timon",
        "state": "MA",
        "district": "Mutirão",
        "street": "Rua Flôres",
        "zipcode": "65635-528"
    },
    {
        "city": "Timon",
        "state": "MA",
        "district": "Mutirão",
        "street": "Rua Dez",
        "zipcode": "65635-496"
    },
    {
        "city": "Timon",
        "state": "MA",
        "district": "Parque Piauí",
        "street": "Rua do Meio",
        "zipcode": "65636-423"
    },
    {
        "city": "Timon",
        "state": "MA",
        "district": "Parque Piauí",
        "street": "Beco Quatro",
        "zipcode": "65636-475"
    },
    {
        "city": "Timon",
        "state": "MA",
        "district": "Parque Piauí",
        "street": "Travessa Napoleão Guimarães II",
        "zipcode": "65636-483"
    },
    {
        "city": "Timon",
        "state": "MA",
        "district": "Bela Vista",
        "street": "Beco Oito",
        "zipcode": "65637-563"
    },
    {
        "city": "Timon",
        "state": "MA",
        "district": "Bela Vista",
        "street": "Beco Dez",
        "zipcode": "65637-565"
    },
    {
        "city": "Timon",
        "state": "MA",
        "district": "Bela Vista",
        "street": "Beco Onze",
        "zipcode": "65637-566"
    },
    {
        "city": "Timon",
        "state": "MA",
        "district": "Bela Vista",
        "street": "Beco Treze",
        "zipcode": "65637-568"
    },
    {
        "city": "Timon",
        "state": "MA",
        "district": "Bela Vista",
        "street": "Beco Quatorze",
        "zipcode": "65637-569"
    },
    {
        "city": "Timon",
        "state": "MA",
        "district": "Bela Vista",
        "street": "Beco Dezesseis",
        "zipcode": "65637-573"
    },
    {
        "city": "Timon",
        "state": "MA",
        "district": "Bela Vista",
        "street": "Beco Dezessete",
        "zipcode": "65637-574"
    },
    {
        "city": "Timon",
        "state": "MA",
        "district": "Bela Vista",
        "street": "Beco Vinte e Dois",
        "zipcode": "65637-579"
    },
    {
        "city": "Timon",
        "state": "MA",
        "district": "Bela Vista",
        "street": "Beco Vinte e Cinco",
        "zipcode": "65637-583"
    },
    {
        "city": "Timon",
        "state": "MA",
        "district": "Bela Vista",
        "street": "Beco Vinte e Seis",
        "zipcode": "65637-584"
    },
    {
        "city": "Timon",
        "state": "MA",
        "district": "Bela Vista",
        "street": "Beco Vinte e Sete",
        "zipcode": "65637-585"
    },
    {
        "city": "Timon",
        "state": "MA",
        "district": "São Francisco II",
        "street": "Rua Dezessete",
        "zipcode": "65638-005"
    },
    {
        "city": "Timon",
        "state": "MA",
        "district": "São Francisco II",
        "street": "Rua Cento e Um",
        "zipcode": "65638-015"
    },
    {
        "city": "Timon",
        "state": "MA",
        "district": "São Francisco II",
        "street": "Rua Vila Quatorze",
        "zipcode": "65638-025"
    },
    {
        "city": "Timon",
        "state": "MA",
        "district": "São Francisco II",
        "street": "Rua Treze",
        "zipcode": "65638-035"
    },
    {
        "city": "Timon",
        "state": "MA",
        "district": "São Francisco II",
        "street": "Rua Vila Treze",
        "zipcode": "65638-055"
    },
    {
        "city": "Timon",
        "state": "MA",
        "district": "São Francisco II",
        "street": "Rua Dezesseis",
        "zipcode": "65638-080"
    },
    {
        "city": "Timon",
        "state": "MA",
        "district": "Pedro Patrício",
        "street": "Rua Vinte e Um",
        "zipcode": "65634-376"
    },
    {
        "city": "Timon",
        "state": "MA",
        "district": "Pedro Patrício",
        "street": "Rua C",
        "zipcode": "65634-386"
    },
    {
        "city": "Timon",
        "state": "MA",
        "district": "Flores",
        "street": "Rua Antonio Guimarães",
        "zipcode": "65636-542"
    },
    {
        "city": "Timon",
        "state": "MA",
        "district": "Flores",
        "street": "Avenida Teresina",
        "zipcode": "65636-549"
    },
    {
        "city": "Timon",
        "state": "MA",
        "district": "Cidade Nova",
        "street": "Rua S",
        "zipcode": "65633-737"
    },
    {
        "city": "Timon",
        "state": "MA",
        "district": "Cidade Nova",
        "street": "Rua R",
        "zipcode": "65633-740"
    },
    {
        "city": "Timon",
        "state": "MA",
        "district": "Cidade Nova",
        "street": "Rua Q",
        "zipcode": "65633-743"
    },
    {
        "city": "Timon",
        "state": "MA",
        "district": "Mutirão",
        "street": "Rua B",
        "zipcode": "65635-454"
    },
    {
        "city": "Timon",
        "state": "MA",
        "district": "Mutirão",
        "street": "Rua C",
        "zipcode": "65635-456"
    },
    {
        "city": "Timon",
        "state": "MA",
        "district": "Cicero Ferraz",
        "street": "Rua Vinte e Cinco",
        "zipcode": "65635-065"
    },
    {
        "city": "Timon",
        "state": "MA",
        "district": "Glória",
        "street": "Rua das Orquídeas",
        "zipcode": "65632-175"
    },
    {
        "city": "Timon",
        "state": "MA",
        "district": "Mutirão",
        "street": "Rua Noventa e Quatro",
        "zipcode": "65635-470"
    },
    {
        "city": "Timon",
        "state": "MA",
        "district": "Mutirão",
        "street": "Rua Seis",
        "zipcode": "65635-488"
    },
    {
        "city": "Timon",
        "state": "MA",
        "district": "Pedro Patrício",
        "street": "Rua D",
        "zipcode": "65634-388"
    },
    {
        "city": "Timon",
        "state": "MA",
        "district": "Pedro Patrício",
        "street": "Rua Dois",
        "zipcode": "65634-394"
    },
    {
        "city": "Timon",
        "state": "MA",
        "district": "Pedro Patrício",
        "street": "Rua E",
        "zipcode": "65634-396"
    },
    {
        "city": "Timon",
        "state": "MA",
        "district": "Pedro Patrício",
        "street": "Rua F",
        "zipcode": "65634-404"
    },
    {
        "city": "Timon",
        "state": "MA",
        "district": "Pedro Patrício",
        "street": "Rua Cinco",
        "zipcode": "65634-406"
    },
    {
        "city": "Timon",
        "state": "MA",
        "district": "Pedro Patrício",
        "street": "Rua Sete",
        "zipcode": "65634-412"
    },
    {
        "city": "Timon",
        "state": "MA",
        "district": "Mutirão",
        "street": "Rua Oito",
        "zipcode": "65635-492"
    },
    {
        "city": "Timon",
        "state": "MA",
        "district": "Mutirão",
        "street": "Rua dos Oliveiras",
        "zipcode": "65635-502"
    },
    {
        "city": "Timon",
        "state": "MA",
        "district": "Parque União",
        "street": "Rua Cento e Dois",
        "zipcode": "65636-520"
    },
    {
        "city": "Timon",
        "state": "MA",
        "district": "Parque Piauí",
        "street": "Rua Filomena Maria de Lima Costa",
        "zipcode": "65636-490"
    },
    {
        "city": "Timon",
        "state": "MA",
        "district": "Parque Piauí",
        "street": "Rua Dezoito",
        "zipcode": "65636-470"
    },
    {
        "city": "Timon",
        "state": "MA",
        "district": "Piçarreira",
        "street": "Rua Quinze",
        "zipcode": "65638-070"
    },
    {
        "city": "Timon",
        "state": "MA",
        "district": "São Francisco II",
        "street": "Rua Sete",
        "zipcode": "65638-050"
    },
    {
        "city": "Timon",
        "state": "MA",
        "district": "Cicero Ferraz",
        "street": "Beco Três (Paralela Av. Parnarama)",
        "zipcode": "65635-030"
    },
    {
        "city": "Timon",
        "state": "MA",
        "district": "Cicero Ferraz",
        "street": "Beco Um",
        "zipcode": "65635-060"
    },
    {
        "city": "Timon",
        "state": "MA",
        "district": "Parque Piauí",
        "street": "Rua Antonio Rodrigues Machado",
        "zipcode": "65636-535"
    },
    {
        "city": "Timon",
        "state": "MA",
        "district": "Flores",
        "street": "Beco Vinte e Oito",
        "zipcode": "65636-545"
    },
    {
        "city": "Timon",
        "state": "MA",
        "district": "Marimar",
        "street": "Rua Três",
        "zipcode": "65637-030"
    },
    {
        "city": "Timon",
        "state": "MA",
        "district": "São Francisco II",
        "street": "Beco Vinte e Quatro",
        "zipcode": "65638-240"
    },
    {
        "city": "Timon",
        "state": "MA",
        "district": "São Francisco II",
        "street": "Beco Vinte e Sete",
        "zipcode": "65638-255"
    },
    {
        "city": "Timon",
        "state": "MA",
        "district": "São Francisco II",
        "street": "Beco Vinte e Nove",
        "zipcode": "65638-265"
    },
    {
        "city": "Timon",
        "state": "MA",
        "district": "São Francisco II",
        "street": "Beco Dois",
        "zipcode": "65638-275"
    },
    {
        "city": "Timon",
        "state": "MA",
        "district": "São Francisco II",
        "street": "Beco Três",
        "zipcode": "65638-280"
    },
    {
        "city": "Timon",
        "state": "MA",
        "district": "São Francisco II",
        "street": "Beco Quatro",
        "zipcode": "65638-285"
    },
    {
        "city": "Timon",
        "state": "MA",
        "district": "São Francisco II",
        "street": "Rua Oito",
        "zipcode": "65638-300"
    },
    {
        "city": "Timon",
        "state": "MA",
        "district": "São Francisco II",
        "street": "Rua Nove",
        "zipcode": "65638-305"
    },
    {
        "city": "Timon",
        "state": "MA",
        "district": "São Francisco II",
        "street": "Rua Vinte",
        "zipcode": "65638-355"
    },
    {
        "city": "Timon",
        "state": "MA",
        "district": "São Francisco II",
        "street": "Rua Dezenove",
        "zipcode": "65638-360"
    },
    {
        "city": "Timon",
        "state": "MA",
        "district": "São Francisco II",
        "street": "Rua Dezoito",
        "zipcode": "65638-365"
    },
    {
        "city": "Timon",
        "state": "MA",
        "district": "Parque Piauí",
        "street": "Rua Dois",
        "zipcode": "65636-443"
    },
    {
        "city": "Timon",
        "state": "MA",
        "district": "Parque Piauí",
        "street": "Beco Um",
        "zipcode": "65636-445"
    },
    {
        "city": "Timon",
        "state": "MA",
        "district": "São Francisco II",
        "street": "Beco Dezenove",
        "zipcode": "65638-215"
    },
    {
        "city": "Timon",
        "state": "MA",
        "district": "São Francisco II",
        "street": "Beco Vinte e Dois",
        "zipcode": "65638-230"
    },
    {
        "city": "Timon",
        "state": "MA",
        "district": "Vila Bandeirante",
        "street": "Rua Manoel Gomes da Silva",
        "zipcode": "65635-380"
    },
    {
        "city": "Timon",
        "state": "MA",
        "district": "Mutirão",
        "street": "Rua Quatro",
        "zipcode": "65635-448"
    },
    {
        "city": "Timon",
        "state": "MA",
        "district": "Vila Angélica",
        "street": "Rua Cinco",
        "zipcode": "65634-350"
    },
    {
        "city": "Timon",
        "state": "MA",
        "district": "Vila Angélica",
        "street": "Rua Sete",
        "zipcode": "65634-354"
    },
    {
        "city": "Timon",
        "state": "MA",
        "district": "Vila Angélica",
        "street": "Rua Dezoito",
        "zipcode": "65634-356"
    },
    {
        "city": "Timon",
        "state": "MA",
        "district": "Vila Angélica",
        "street": "Rua Sebastião Saraiva",
        "zipcode": "65634-364"
    },
    {
        "city": "Timon",
        "state": "MA",
        "district": "Pedro Patrício",
        "street": "Rua Dezenove",
        "zipcode": "65634-372"
    },
    {
        "city": "Timon",
        "state": "MA",
        "district": "Pedro Patrício",
        "street": "Rua Sebastião Saraiva",
        "zipcode": "65634-374"
    },
    {
        "city": "Timon",
        "state": "MA",
        "district": "Boa Esperança",
        "street": "Rua Um",
        "zipcode": "65636-810"
    },
    {
        "city": "Timon",
        "state": "MA",
        "district": "Boa Esperança",
        "street": "Beco da Amizade",
        "zipcode": "65636-812"
    },
    {
        "city": "Timon",
        "state": "MA",
        "district": "Boa Esperança",
        "street": "Rua Dez",
        "zipcode": "65636-818"
    },
    {
        "city": "Timon",
        "state": "MA",
        "district": "Boa Esperança",
        "street": "Rua Doze",
        "zipcode": "65636-824"
    },
    {
        "city": "Timon",
        "state": "MA",
        "district": "Boa Esperança",
        "street": "Rua Quatro",
        "zipcode": "65636-826"
    },
    {
        "city": "Timon",
        "state": "MA",
        "district": "Boa Esperança",
        "street": "Rua Sete",
        "zipcode": "65636-832"
    },
    {
        "city": "Timon",
        "state": "MA",
        "district": "Cicero Ferraz",
        "street": "Travessa São Paulo",
        "zipcode": "65635-040"
    },
    {
        "city": "Timon",
        "state": "MA",
        "district": "Vila Bandeirante",
        "street": "Loteamento Vila Bandeirante",
        "zipcode": "65634-620"
    },
    {
        "city": "Timon",
        "state": "MA",
        "district": "Planalto Formosa",
        "street": "Avenida Fortaleza",
        "zipcode": "65634-140"
    },
    {
        "city": "Timon",
        "state": "MA",
        "district": "Mutirão",
        "street": "Rua dos Tucuns",
        "zipcode": "65635-544"
    },
    {
        "city": "Timon",
        "state": "MA",
        "district": "Mutirão",
        "street": "Rua Margarida",
        "zipcode": "65635-536"
    },
    {
        "city": "Timon",
        "state": "MA",
        "district": "Pedro Patrício",
        "street": "Loteamento Mutirão",
        "zipcode": "65634-460"
    },
    {
        "city": "Timon",
        "state": "MA",
        "district": "Vila Angélica",
        "street": "Vila Osmar",
        "zipcode": "65634-470"
    },
    {
        "city": "Timon",
        "state": "MA",
        "district": "Mutirão",
        "street": "Rua das Tulipas",
        "zipcode": "65635-546"
    },
    {
        "city": "Timon",
        "state": "MA",
        "district": "Vila Angélica",
        "street": "Rua Filomena Maria de Lima Costa",
        "zipcode": "65634-360"
    },
    {
        "city": "Timon",
        "state": "MA",
        "district": "Boa Esperança",
        "street": "Rua Treze",
        "zipcode": "65636-842"
    },
    {
        "city": "Timon",
        "state": "MA",
        "district": "Boa Esperança",
        "street": "Rua Quinze",
        "zipcode": "65636-846"
    },
    {
        "city": "Timon",
        "state": "MA",
        "district": "Cidade Nova",
        "street": "Avenida Coheb",
        "zipcode": "65633-764"
    },
    {
        "city": "Timon",
        "state": "MA",
        "district": "Mutirão",
        "street": "Rua Um",
        "zipcode": "65635-440"
    },
    {
        "city": "Timon",
        "state": "MA",
        "district": "Mutirão",
        "street": "Rua Dois",
        "zipcode": "65635-444"
    },
    {
        "city": "Timon",
        "state": "MA",
        "district": "Parque Piauí",
        "street": "Rua Dezesseis",
        "zipcode": "65636-430"
    },
    {
        "city": "Timon",
        "state": "MA",
        "district": "Parque Piauí",
        "street": "Rua João Lula",
        "zipcode": "65636-420"
    },
    {
        "city": "Timon",
        "state": "MA",
        "district": "São Francisco II",
        "street": "Conjunto Joaquim Pedreira I",
        "zipcode": "65636-820"
    },
    {
        "city": "Timon",
        "state": "MA",
        "district": "São Marcos",
        "street": "Avenida Palestina",
        "zipcode": "65634-370"
    },
    {
        "city": "Timon",
        "state": "MA",
        "district": "São Francisco I",
        "street": "Rua Oito",
        "zipcode": "65636-748"
    },
    {
        "city": "Timon",
        "state": "MA",
        "district": "São Francisco I",
        "street": "Rua Nove",
        "zipcode": "65636-752"
    },
    {
        "city": "Timon",
        "state": "MA",
        "district": "São Francisco I",
        "street": "Rua Dez",
        "zipcode": "65636-754"
    },
    {
        "city": "Timon",
        "state": "MA",
        "district": "São Francisco I",
        "street": "Rua Cento e Doze",
        "zipcode": "65636-758"
    },
    {
        "city": "Timon",
        "state": "MA",
        "district": "Bela Vista",
        "street": "Vila Marimar",
        "zipcode": "65636-890"
    },
    {
        "city": "Timon",
        "state": "MA",
        "district": "São Francisco I",
        "street": "Rua Quinze",
        "zipcode": "65636-764"
    },
    {
        "city": "Timon",
        "state": "MA",
        "district": "Vila Monteiro",
        "street": "Loteamento Vila Monteiro",
        "zipcode": "65634-540"
    },
    {
        "city": "Timon",
        "state": "MA",
        "district": "Flores",
        "street": "Conjunto Venâncio Lula",
        "zipcode": "65636-555"
    },
    {
        "city": "Timon",
        "state": "MA",
        "district": "Planalto Formosa",
        "street": "Avenida Belo Jardim",
        "zipcode": "65634-100"
    },
    {
        "city": "Timon",
        "state": "MA",
        "district": "Cidade Nova",
        "street": "Rua Projetada",
        "zipcode": "65633-746"
    },
    {
        "city": "Timon",
        "state": "MA",
        "district": "Cidade Nova",
        "street": "Rua Projetada",
        "zipcode": "65633-752"
    },
    {
        "city": "Timon",
        "state": "MA",
        "district": "Mutirão",
        "street": "Rua Samambaia",
        "zipcode": "65635-542"
    },
    {
        "city": "Timon",
        "state": "MA",
        "district": "São Francisco I",
        "street": "Rua Dezesseis",
        "zipcode": "65636-766"
    },
    {
        "city": "Timon",
        "state": "MA",
        "district": "São Francisco I",
        "street": "Rua Cento e Oito",
        "zipcode": "65636-768"
    },
    {
        "city": "Timon",
        "state": "MA",
        "district": "São Francisco I",
        "street": "Rua Cento e Dez",
        "zipcode": "65636-774"
    },
    {
        "city": "Timon",
        "state": "MA",
        "district": "São Francisco I",
        "street": "Rua Cento e Onze",
        "zipcode": "65636-776"
    },
    {
        "city": "Timon",
        "state": "MA",
        "district": "São Francisco II",
        "street": "Beco Um",
        "zipcode": "65638-270"
    },
    {
        "city": "Timon",
        "state": "MA",
        "district": "São Francisco II",
        "street": "Rua Seis",
        "zipcode": "65638-295"
    },
    {
        "city": "Timon",
        "state": "MA",
        "district": "São Francisco II",
        "street": "Rua Quinze",
        "zipcode": "65638-380"
    },
    {
        "city": "Timon",
        "state": "MA",
        "district": "São Francisco II",
        "street": "Rua Cento e Dois",
        "zipcode": "65638-420"
    },
    {
        "city": "Timon",
        "state": "MA",
        "district": "Mutirão",
        "street": "Rua Cravo",
        "zipcode": "65635-526"
    },
    {
        "city": "Timon",
        "state": "MA",
        "district": "Sete Estrelas",
        "street": "Rua Sete",
        "zipcode": "65632-685"
    },
    {
        "city": "Timon",
        "state": "MA",
        "district": "Parque Piauí",
        "street": "Beco Vinte e Dois",
        "zipcode": "65636-395"
    },
    {
        "city": "Timon",
        "state": "MA",
        "district": "Parque Piauí",
        "street": "Beco Vinte e Quatro",
        "zipcode": "65636-415"
    },
    {
        "city": "Timon",
        "state": "MA",
        "district": "Bela Vista",
        "street": "Beco Vinte e Um",
        "zipcode": "65637-578"
    },
    {
        "city": "Timon",
        "state": "MA",
        "district": "São Francisco II",
        "street": "Rua Dois",
        "zipcode": "65638-115"
    },
    {
        "city": "Timon",
        "state": "MA",
        "district": "São Francisco II",
        "street": "Rua Quatro",
        "zipcode": "65638-135"
    },
    {
        "city": "Timon",
        "state": "MA",
        "district": "São Francisco II",
        "street": "Travessa Vinte e Três",
        "zipcode": "65638-175"
    },
    {
        "city": "Timon",
        "state": "MA",
        "district": "São Francisco II",
        "street": "Travessa Vinte e Quatro",
        "zipcode": "65638-180"
    },
    {
        "city": "Timon",
        "state": "MA",
        "district": "São Francisco II",
        "street": "Travessa Vinte e Seis",
        "zipcode": "65638-190"
    },
    {
        "city": "Timon",
        "state": "MA",
        "district": "São Francisco II",
        "street": "Travessa Vinte e Sete",
        "zipcode": "65638-195"
    },
    {
        "city": "Timon",
        "state": "MA",
        "district": "São Francisco II",
        "street": "Beco Dezoito",
        "zipcode": "65638-210"
    },
    {
        "city": "Timon",
        "state": "MA",
        "district": "Flores",
        "street": "Beco Vinte e Quatro",
        "zipcode": "65636-691"
    },
    {
        "city": "Timon",
        "state": "MA",
        "district": "Parque Aliança",
        "street": "Rua Dezessete",
        "zipcode": "65634-312"
    },
    {
        "city": "Timon",
        "state": "MA",
        "district": "Vila Angélica",
        "street": "Rua Quatro",
        "zipcode": "65634-348"
    },
    {
        "city": "Timon",
        "state": "MA",
        "district": "São Benedito",
        "street": "Rua Sebastião Saraiva",
        "zipcode": "65636-238"
    },
    {
        "city": "Timon",
        "state": "MA",
        "district": "Parque Piauí",
        "street": "Beco Dezesseis",
        "zipcode": "65636-375"
    },
    {
        "city": "Timon",
        "state": "MA",
        "district": "Parque Piauí",
        "street": "Beco da Setenta",
        "zipcode": "65636-380"
    },
    {
        "city": "Timon",
        "state": "MA",
        "district": "Parque Piauí",
        "street": "Beco Vinte e Um",
        "zipcode": "65636-390"
    },
    {
        "city": "Timon",
        "state": "MA",
        "district": "Cidade Nova",
        "street": "Avenida Raimundo Correia da Silva",
        "zipcode": "65633-641"
    },
    {
        "city": "Timon",
        "state": "MA",
        "district": "Cidade Nova",
        "street": "Rua da Caixa DAgua",
        "zipcode": "65633-731"
    },
    {
        "city": "Timon",
        "state": "MA",
        "district": "Mutirão",
        "street": "Rua Noventa e Seis",
        "zipcode": "65635-474"
    },
    {
        "city": "Timon",
        "state": "MA",
        "district": "Mutirão",
        "street": "Rua Noventa e Sete",
        "zipcode": "65635-476"
    },
    {
        "city": "Timon",
        "state": "MA",
        "district": "Glória",
        "street": "Rua H",
        "zipcode": "65632-144"
    },
    {
        "city": "Timon",
        "state": "MA",
        "district": "Glória",
        "street": "Rua G",
        "zipcode": "65632-145"
    },
    {
        "city": "Timon",
        "state": "MA",
        "district": "Pedro Patrício",
        "street": "Loteamento Pedro Patrício",
        "zipcode": "65634-380"
    },
    {
        "city": "Timon",
        "state": "MA",
        "district": "Vila Angélica",
        "street": "Avenida João Miguel Budaruiche",
        "zipcode": "65634-342"
    },
    {
        "city": "Timon",
        "state": "MA",
        "district": "Mutirão",
        "street": "Rua São Benedito",
        "zipcode": "65635-510"
    },
    {
        "city": "Timon",
        "state": "MA",
        "district": "Mutirão",
        "street": "Rua Caneleiro",
        "zipcode": "65635-522"
    },
    {
        "city": "Timon",
        "state": "MA",
        "district": "Mutirão",
        "street": "Rua Hortência",
        "zipcode": "65635-530"
    },
    {
        "city": "Timon",
        "state": "MA",
        "district": "Mutirão",
        "street": "Rua das Acácias",
        "zipcode": "65635-514"
    },
    {
        "city": "Timon",
        "state": "MA",
        "district": "Boa Esperança",
        "street": "Quadra D (Cj Novo Tempo)",
        "zipcode": "65636-874"
    },
    {
        "city": "Timon",
        "state": "MA",
        "district": "Mutirão",
        "street": "Rua Coheb",
        "zipcode": "65635-466"
    },
    {
        "city": "Timon",
        "state": "MA",
        "district": "Cidade Nova",
        "street": "Rua Projetada",
        "zipcode": "65633-758"
    },
    {
        "city": "Timon",
        "state": "MA",
        "district": "Mutirão",
        "street": "Rua Buritís",
        "zipcode": "65635-520"
    },
    {
        "city": "Timon",
        "state": "MA",
        "district": "São Marcos",
        "street": "Travessa Palestina",
        "zipcode": "65634-206"
    },
    {
        "city": "Timon",
        "state": "MA",
        "district": "São Francisco II",
        "street": "Rua Vila Onze",
        "zipcode": "65638-425"
    },
    {
        "city": "Timon",
        "state": "MA",
        "district": "Boa Vista",
        "street": "Beco Cinco",
        "zipcode": "65631-550"
    },
    {
        "city": "Timon",
        "state": "MA",
        "district": "Parque Piauí",
        "street": "Avenida Francisco Vitorino de Assunção",
        "zipcode": "65636-310"
    },
    {
        "city": "Timon",
        "state": "MA",
        "district": "Santo Antônio",
        "street": "Rua José Fernandes da Silva",
        "zipcode": "65630-550"
    },
    {
        "city": "Timon",
        "state": "MA",
        "district": "Parque Alvorada",
        "street": "Rua Neusa Assunção",
        "zipcode": "65633-130"
    },
    {
        "city": "Timon",
        "state": "MA",
        "district": "São Benedito",
        "street": "Rua Nossa Senhora de Fátima",
        "zipcode": "65636-360"
    },
    {
        "city": "Timon",
        "state": "MA",
        "district": "São Benedito",
        "street": "Rua São José",
        "zipcode": "65636-320"
    },
    {
        "city": "Timon",
        "state": "MA",
        "district": "Formosa",
        "street": "Rua São Marcos",
        "zipcode": "65636-060"
    },
    {
        "city": "Timon",
        "state": "MA",
        "district": "Flores",
        "street": "Rua Tenente Antônio Correia da Silva",
        "zipcode": "65636-640"
    },
    {
        "city": "Timon",
        "state": "MA",
        "district": "Parque Piauí",
        "street": "Rua Treze",
        "zipcode": "65636-350"
    },
    {
        "city": "Timon",
        "state": "MA",
        "district": "Centro",
        "street": "Avenida Presidente Médici",
        "zipcode": "65630-790"
    },
    {
        "city": "Timon",
        "state": "MA",
        "district": "Parque Piauí",
        "street": "Rua Porfiro Gomes da Costa",
        "zipcode": "65636-410"
    },
    {
        "city": "Timon",
        "state": "MA",
        "district": "São Francisco I",
        "street": "Rua Sete",
        "zipcode": "65636-746"
    },
    {
        "city": "Timon",
        "state": "MA",
        "district": "Pedro Patrício",
        "street": "Vila Angélica",
        "zipcode": "65634-390"
    },
    {
        "city": "Timon",
        "state": "MA",
        "district": "Marimar",
        "street": "Rua Nove",
        "zipcode": "65637-080"
    },
    {
        "city": "Timon",
        "state": "MA",
        "district": "São Francisco II",
        "street": "Beco Vinte e Seis",
        "zipcode": "65638-250"
    },
    {
        "city": "Timon",
        "state": "MA",
        "district": "Parque Piauí",
        "street": "Beco Vinte e Três",
        "zipcode": "65636-405"
    },
    {
        "city": "Timon",
        "state": "MA",
        "district": "Parque Piauí",
        "street": "Beco Três",
        "zipcode": "65636-465"
    },
    {
        "city": "Timon",
        "state": "MA",
        "district": "Parque Piauí",
        "street": "Travessa Um",
        "zipcode": "65636-515"
    },
    {
        "city": "Timon",
        "state": "MA",
        "district": "Bela Vista",
        "street": "Beco Nove",
        "zipcode": "65637-564"
    },
    {
        "city": "Timon",
        "state": "MA",
        "district": "Bela Vista",
        "street": "Beco Doze",
        "zipcode": "65637-567"
    },
    {
        "city": "Timon",
        "state": "MA",
        "district": "Bela Vista",
        "street": "Beco Quinze",
        "zipcode": "65637-572"
    },
    {
        "city": "Timon",
        "state": "MA",
        "district": "Bela Vista",
        "street": "Rua Antonio Correia da Silva",
        "zipcode": "65637-875"
    },
    {
        "city": "Timon",
        "state": "MA",
        "district": "São Francisco II",
        "street": "Rua Cento e Um",
        "zipcode": "65638-020"
    },
    {
        "city": "Timon",
        "state": "MA",
        "district": "São Francisco II",
        "street": "Rua José Constâncio",
        "zipcode": "65638-040"
    },
    {
        "city": "Timon",
        "state": "MA",
        "district": "São Francisco II",
        "street": "Rua Vinte e Um",
        "zipcode": "65638-105"
    },
    {
        "city": "Timon",
        "state": "MA",
        "district": "São Francisco II",
        "street": "Rua Cinco",
        "zipcode": "65638-140"
    },
    {
        "city": "Timon",
        "state": "MA",
        "district": "São Francisco II",
        "street": "Travessa Vinte e Cinco",
        "zipcode": "65638-185"
    },
    {
        "city": "Timon",
        "state": "MA",
        "district": "São Francisco II",
        "street": "Travessa Vinte e Nove",
        "zipcode": "65638-205"
    },
    {
        "city": "Timon",
        "state": "MA",
        "district": "Flores",
        "street": "Beco Treze",
        "zipcode": "65636-678"
    },
    {
        "city": "Timon",
        "state": "MA",
        "district": "Flores",
        "street": "Beco Quinze",
        "zipcode": "65636-681"
    },
    {
        "city": "Timon",
        "state": "MA",
        "district": "Flores",
        "street": "Beco Dezenove",
        "zipcode": "65636-685"
    },
    {
        "city": "Timon",
        "state": "MA",
        "district": "Flores",
        "street": "Beco Vinte e Três",
        "zipcode": "65636-689"
    },
    {
        "city": "Timon",
        "state": "MA",
        "district": "Parque Piauí",
        "street": "Rua Henrique Pereira de Sousa",
        "zipcode": "65636-300"
    },
    {
        "city": "Timon",
        "state": "MA",
        "district": "Parque Piauí",
        "street": "Beco Zero",
        "zipcode": "65636-385"
    },
    {
        "city": "Timon",
        "state": "MA",
        "district": "Boa Esperança",
        "street": "Rua Onze",
        "zipcode": "65636-822"
    },
    {
        "city": "Timon",
        "state": "MA",
        "district": "Boa Esperança",
        "street": "Rua Quatorze",
        "zipcode": "65636-844"
    },
    {
        "city": "Timon",
        "state": "MA",
        "district": "Pedro Patrício",
        "street": "Rua Seis",
        "zipcode": "65634-408"
    },
    {
        "city": "Timon",
        "state": "MA",
        "district": "São Francisco II",
        "street": "Quadra A (Cj Res Palestina)",
        "zipcode": "65638-430"
    },
    {
        "city": "Timon",
        "state": "MA",
        "district": null,
        "street": "BR",
        "zipcode": "65636-990"
    },
    {
        "city": "Timon",
        "state": "MA",
        "district": "Parque Piauí",
        "street": "Avenida Teresina 416",
        "zipcode": "65636-901"
    },
    {
        "city": "Timon",
        "state": "MA",
        "district": "Parque Piauí",
        "street": "Avenida Presidente Médici",
        "zipcode": "65636-902"
    },
    {
        "city": "Timon",
        "state": "MA",
        "district": "Mutirão",
        "street": "Rua São Silvestre",
        "zipcode": "65635-504"
    },
    {
        "city": "Timon",
        "state": "MA",
        "district": "São Francisco II",
        "street": "Rua Juarez Júlio de Morais",
        "zipcode": "65638-060"
    },
    {
        "city": "Timon",
        "state": "MA",
        "district": "Mutirão",
        "street": "Quadra U (Res Júlia Almeida)",
        "zipcode": "65635-569"
    },
    {
        "city": "Timon",
        "state": "MA",
        "district": "Mutirão",
        "street": "Rua Chico Dica",
        "zipcode": "65635-506"
    },
    {
        "city": "Timon",
        "state": "MA",
        "district": "São Francisco II",
        "street": "Rua Luis de Paiva Bezerra",
        "zipcode": "65638-145"
    },
    {
        "city": "Timon",
        "state": "MA",
        "district": "Boa Esperança",
        "street": "Quadra N (Cj Novo Tempo)",
        "zipcode": "65636-886"
    },
    {
        "city": "Timon",
        "state": "MA",
        "district": "São Francisco II",
        "street": "Conjunto Joaquim Pedreira II",
        "zipcode": "65636-840"
    },
    {
        "city": "Timon",
        "state": "MA",
        "district": "Boa Esperança",
        "street": "Quadra P (Cj Novo Tempo)",
        "zipcode": "65636-887"
    },
    {
        "city": "Timon",
        "state": "MA",
        "district": "São Francisco II",
        "street": "Rua Cristiano de Oliveira Meneses",
        "zipcode": "65638-125"
    },
    {
        "city": "Timon",
        "state": "MA",
        "district": "São Francisco II",
        "street": "Rua Reginaldo Lima da Silva",
        "zipcode": "65638-120"
    },
    {
        "city": "Timon",
        "state": "MA",
        "district": "Flores",
        "street": "Rua Adão Belarmino",
        "zipcode": "65636-540"
    },
    {
        "city": "Timon",
        "state": "MA",
        "district": "Centro",
        "street": "Travessa Aquiles Lisboa",
        "zipcode": "65630-050"
    },
    {
        "city": "Timon",
        "state": "MA",
        "district": "Flores",
        "street": "Rua Filomena Martins Nazareno Bringel",
        "zipcode": "65636-560"
    },
    {
        "city": "Timon",
        "state": "MA",
        "district": "São Benedito",
        "street": "Rua das Flores",
        "zipcode": "65636-280"
    },
    {
        "city": "Timon",
        "state": "MA",
        "district": "Parque Piauí",
        "street": "Rua João Joca Assunção",
        "zipcode": "65636-440"
    },
    {
        "city": "Timon",
        "state": "MA",
        "district": "Parque Piauí",
        "street": "Rua José Constâncio",
        "zipcode": "65636-330"
    },
    {
        "city": "Timon",
        "state": "MA",
        "district": "Santo Antônio",
        "street": "Rua Manoel Marinho de Meneses",
        "zipcode": "65630-230"
    },
    {
        "city": "Timon",
        "state": "MA",
        "district": "São Francisco II",
        "street": "Conjunto Palestina",
        "zipcode": "65636-800"
    },
    {
        "city": "Timon",
        "state": "MA",
        "district": "Parque Piauí",
        "street": "Rua Quatorze",
        "zipcode": "65636-370"
    },
    {
        "city": "Timon",
        "state": "MA",
        "district": "Flores",
        "street": "Rua Vinte e Quatro",
        "zipcode": "65636-630"
    },
    {
        "city": "Timon",
        "state": "MA",
        "district": "Flores",
        "street": "Rua Vinte e Seis",
        "zipcode": "65636-670"
    },
    {
        "city": "Timon",
        "state": "MA",
        "district": "São Francisco I",
        "street": "Rua Seis",
        "zipcode": "65636-744"
    },
    {
        "city": "Timon",
        "state": "MA",
        "district": "São Francisco I",
        "street": "Vila Parnaíba",
        "zipcode": "65636-750"
    },
    {
        "city": "Timon",
        "state": "MA",
        "district": "Boa Esperança",
        "street": "Vila Parnaíba",
        "zipcode": "65636-870"
    },
    {
        "city": "Timon",
        "state": "MA",
        "district": "São Benedito",
        "street": "Travessa Luís Firmino de Sousa",
        "zipcode": "65636-345"
    },
    {
        "city": "Timon",
        "state": "MA",
        "district": "São Francisco I",
        "street": "Rua José Constâncio",
        "zipcode": "65636-770"
    },
    {
        "city": "Timon",
        "state": "MA",
        "district": "Vila Bandeirante",
        "street": "Rua H",
        "zipcode": "65635-350"
    },
    {
        "city": "Timon",
        "state": "MA",
        "district": "Vila Bandeirante",
        "street": "Rua G",
        "zipcode": "65635-360"
    },
    {
        "city": "Timon",
        "state": "MA",
        "district": "Vila Angélica",
        "street": "Rua Dois",
        "zipcode": "65634-344"
    },
    {
        "city": "Timon",
        "state": "MA",
        "district": "Vila Angélica",
        "street": "Rua Seis",
        "zipcode": "65634-352"
    },
    {
        "city": "Timon",
        "state": "MA",
        "district": "São Francisco II",
        "street": "Beco Saudade",
        "zipcode": "65638-165"
    },
    {
        "city": "Timon",
        "state": "MA",
        "district": "São Francisco II",
        "street": "Rua José Martinho da Silva",
        "zipcode": "65638-155"
    },
    {
        "city": "Timon",
        "state": "MA",
        "district": "Boa Esperança",
        "street": "Quadra O (Cj Novo Tempo)",
        "zipcode": "65636-884"
    },
    {
        "city": "Timon",
        "state": "MA",
        "district": "São Francisco II",
        "street": "Rua Ermínio Ferreira Lima",
        "zipcode": "65638-100"
    },
    {
        "city": "Timon",
        "state": "MA",
        "district": "Pedro Patrício",
        "street": "Rua B",
        "zipcode": "65634-384"
    },
    {
        "city": "Timon",
        "state": "MA",
        "district": "Mutirão",
        "street": "Rua A",
        "zipcode": "65635-452"
    },
    {
        "city": "Timon",
        "state": "MA",
        "district": "Mutirão",
        "street": "Rua D",
        "zipcode": "65635-458"
    },
    {
        "city": "Timon",
        "state": "MA",
        "district": "Mutirão",
        "street": "Rua Sete",
        "zipcode": "65635-490"
    },
    {
        "city": "Timon",
        "state": "MA",
        "district": "Pedro Patrício",
        "street": "Rua Um",
        "zipcode": "65634-392"
    },
    {
        "city": "Timon",
        "state": "MA",
        "district": "Pedro Patrício",
        "street": "Rua Quatro",
        "zipcode": "65634-402"
    },
    {
        "city": "Timon",
        "state": "MA",
        "district": "Pedro Patrício",
        "street": "Rua M",
        "zipcode": "65634-424"
    },
    {
        "city": "Timon",
        "state": "MA",
        "district": "Pedro Patrício",
        "street": "Rua P",
        "zipcode": "65634-430"
    },
    {
        "city": "Timon",
        "state": "MA",
        "district": "Vila Angélica",
        "street": "Avenida Luis Firmino de Sousa",
        "zipcode": "65634-472"
    },
    {
        "city": "Timon",
        "state": "MA",
        "district": "Vila Bandeirante",
        "street": "Rua Jerônimo Silva",
        "zipcode": "65635-410"
    },
    {
        "city": "Timon",
        "state": "MA",
        "district": "Mutirão",
        "street": "Beco Um",
        "zipcode": "65635-814"
    },
    {
        "city": "Timon",
        "state": "MA",
        "district": "Mutirão",
        "street": "Beco Dois",
        "zipcode": "65635-816"
    },
    {
        "city": "Timon",
        "state": "MA",
        "district": "Mutirão",
        "street": "Rua São João",
        "zipcode": "65635-826"
    },
    {
        "city": "Timon",
        "state": "MA",
        "district": "Mutirão",
        "street": "Rua do Meio",
        "zipcode": "65635-830"
    },
    {
        "city": "Timon",
        "state": "MA",
        "district": "Boa Esperança",
        "street": "Quadra Z (Cj Novo Tempo)",
        "zipcode": "65636-857"
    },
    {
        "city": "Timon",
        "state": "MA",
        "district": "Boa Esperança",
        "street": "Quadra Y (Cj Novo Tempo)",
        "zipcode": "65636-856"
    },
    {
        "city": "Timon",
        "state": "MA",
        "district": "Boa Esperança",
        "street": "Quadra J (Cj Novo Tempo)",
        "zipcode": "65636-881"
    },
    {
        "city": "Timon",
        "state": "MA",
        "district": "Mutirão",
        "street": "Quadra L (Res Júlia Almeida)",
        "zipcode": "65635-560"
    },
    {
        "city": "Timon",
        "state": "MA",
        "district": "Cidade Nova",
        "street": "Avenida Presidente Médici",
        "zipcode": "65633-560"
    },
    {
        "city": "Timon",
        "state": "MA",
        "district": "São Francisco II",
        "street": "Conjunto Residencial Canaã",
        "zipcode": "65636-780"
    },
    {
        "city": "Timon",
        "state": "MA",
        "district": "Cicero Ferraz",
        "street": "Rua Nossa Senhora das Dores",
        "zipcode": "65635-210"
    },
    {
        "city": "Timon",
        "state": "MA",
        "district": "Mutirão",
        "street": "Rua São Francisco",
        "zipcode": "65635-818"
    },
    {
        "city": "Timon",
        "state": "MA",
        "district": "Boa Esperança",
        "street": "Quadra S (Cj Novo Tempo)",
        "zipcode": "65636-850"
    },
    {
        "city": "Timon",
        "state": "MA",
        "district": "Mutirão",
        "street": "Rua Shalon Adonai",
        "zipcode": "65635-810"
    },
    {
        "city": "Timon",
        "state": "MA",
        "district": "Mutirão",
        "street": "Quadra C (Res Júlia Almeida)",
        "zipcode": "65635-552"
    },
    {
        "city": "Timon",
        "state": "MA",
        "district": "Mutirão",
        "street": "Quadra I (Res Júlia Almeida)",
        "zipcode": "65635-558"
    },
    {
        "city": "Timon",
        "state": "MA",
        "district": "Mutirão",
        "street": "Quadra M (Res Júlia Almeida)",
        "zipcode": "65635-561"
    },
    {
        "city": "Timon",
        "state": "MA",
        "district": "Mutirão",
        "street": "Quadra R (Res Júlia Almeida)",
        "zipcode": "65635-566"
    },
    {
        "city": "Timon",
        "state": "MA",
        "district": "Mutirão",
        "street": "Quadra N (Res Júlia Almeida)",
        "zipcode": "65635-562"
    },
    {
        "city": "Timon",
        "state": "MA",
        "district": "Formosa",
        "street": "Rua São Bento",
        "zipcode": "65636-070"
    },
    {
        "city": "Timon",
        "state": "MA",
        "district": "São Benedito",
        "street": "Rua São Judas Tadeu",
        "zipcode": "65636-240"
    },
    {
        "city": "Timon",
        "state": "MA",
        "district": "Parque Piauí",
        "street": "Rua José Inácio da Silva Filho",
        "zipcode": "65636-190"
    },
    {
        "city": "Timon",
        "state": "MA",
        "district": "Planalto Formosa",
        "street": "Rua Doze",
        "zipcode": "65634-015"
    },
    {
        "city": "Timon",
        "state": "MA",
        "district": "São Marcos",
        "street": "Rua Aliança",
        "zipcode": "65634-165"
    },
    {
        "city": "Timon",
        "state": "MA",
        "district": "Planalto Boa Esperança",
        "street": "Rua Vinte e Um",
        "zipcode": "65632-440"
    },
    {
        "city": "Timon",
        "state": "MA",
        "district": "Sete Estrelas",
        "street": "Rua Onze",
        "zipcode": "65632-635"
    },
    {
        "city": "Timon",
        "state": "MA",
        "district": "Sete Estrelas",
        "street": "Rua Doze",
        "zipcode": "65632-650"
    },
    {
        "city": "Timon",
        "state": "MA",
        "district": "Sete Estrelas",
        "street": "Rua Seis",
        "zipcode": "65632-670"
    },
    {
        "city": "Timon",
        "state": "MA",
        "district": "São Marcos",
        "street": "Rua Dezesseis",
        "zipcode": "65634-196"
    },
    {
        "city": "Timon",
        "state": "MA",
        "district": "Sete Estrelas",
        "street": "Rua Dezenove",
        "zipcode": "65632-745"
    },
    {
        "city": "Timon",
        "state": "MA",
        "district": "Cidade Nova",
        "street": "Travessa Um",
        "zipcode": "65633-563"
    },
    {
        "city": "Timon",
        "state": "MA",
        "district": "Planalto Boa Esperança",
        "street": "Rua A",
        "zipcode": "65632-415"
    },
    {
        "city": "Timon",
        "state": "MA",
        "district": "Cidade Nova",
        "street": "Rua Cinco",
        "zipcode": "65633-587"
    },
    {
        "city": "Timon",
        "state": "MA",
        "district": "Parque Aliança",
        "street": "Rua Sete",
        "zipcode": "65634-265"
    },
    {
        "city": "Timon",
        "state": "MA",
        "district": "Boa Esperança",
        "street": "Quadra AB (Cj Novo Tempo)",
        "zipcode": "65636-858"
    },
    {
        "city": "Timon",
        "state": "MA",
        "district": "Mutirão",
        "street": "Quadra S (Res Júlia Almeida)",
        "zipcode": "65635-567"
    },
    {
        "city": "Timon",
        "state": "MA",
        "district": "São Francisco II",
        "street": "Loteamento Boa Vista",
        "zipcode": "65636-720"
    },
    {
        "city": "Timon",
        "state": "MA",
        "district": "Cidade Nova",
        "street": "Conjunto Acácia Mônica Nascimento",
        "zipcode": "65633-715"
    },
    {
        "city": "Timon",
        "state": "MA",
        "district": "Boa Esperança",
        "street": "Quadra W (Cj Novo Tempo)",
        "zipcode": "65636-855"
    },
    {
        "city": "Timon",
        "state": "MA",
        "district": "Mutirão",
        "street": "Quadra F (Res Júlia Almeida)",
        "zipcode": "65635-555"
    },
    {
        "city": "Timon",
        "state": "MA",
        "district": "Mutirão",
        "street": "Rua Babaçú",
        "zipcode": "65635-518"
    },
    {
        "city": "Timon",
        "state": "MA",
        "district": "Cicero Ferraz",
        "street": "Rua São Judas Tadeu",
        "zipcode": "65635-150"
    },
    {
        "city": "Timon",
        "state": "MA",
        "district": "Mutirão",
        "street": "Quadra O (Res Júlia Almeida)",
        "zipcode": "65635-563"
    },
    {
        "city": "Timon",
        "state": "MA",
        "district": "Mutirão",
        "street": "Quadra Q (Res Júlia Almeida)",
        "zipcode": "65635-565"
    },
    {
        "city": "Timon",
        "state": "MA",
        "district": "Cicero Ferraz",
        "street": "Rua São Jorge",
        "zipcode": "65635-230"
    },
    {
        "city": "Timon",
        "state": "MA",
        "district": "Vila Angélica",
        "street": "Loteamento Vila Angélica",
        "zipcode": "65634-340"
    },
    {
        "city": "Timon",
        "state": "MA",
        "district": "Mutirão",
        "street": "Quadra K (Res Júlia Almeida)",
        "zipcode": "65635-571"
    },
    {
        "city": "Timon",
        "state": "MA",
        "district": "Boa Esperança",
        "street": "Quadra L (Cj Novo Tempo)",
        "zipcode": "65636-882"
    },
    {
        "city": "Timon",
        "state": "MA",
        "district": "Mutirão",
        "street": "Quadra E (Res Júlia Almeida)",
        "zipcode": "65635-554"
    },
    {
        "city": "Timon",
        "state": "MA",
        "district": "Cicero Ferraz",
        "street": "Rua da Caixa DAgua",
        "zipcode": "65635-185"
    },
    {
        "city": "Timon",
        "state": "MA",
        "district": "Boa Esperança",
        "street": "Quadra G (Cj Novo Tempo)",
        "zipcode": "65636-877"
    },
    {
        "city": "Timon",
        "state": "MA",
        "district": "Cidade Nova",
        "street": "Rua Projetada",
        "zipcode": "65633-755"
    },
    {
        "city": "Timon",
        "state": "MA",
        "district": "Boa Esperança",
        "street": "Quadra T (Cj Novo Tempo)",
        "zipcode": "65636-851"
    },
    {
        "city": "Timon",
        "state": "MA",
        "district": "Parque Aliança",
        "street": "Rua L",
        "zipcode": "65634-285"
    },
    {
        "city": "Timon",
        "state": "MA",
        "district": "Parque Aliança",
        "street": "Rua N",
        "zipcode": "65634-305"
    },
    {
        "city": "Timon",
        "state": "MA",
        "district": "Parque Aliança",
        "street": "Rua Q",
        "zipcode": "65634-335"
    },
    {
        "city": "Timon",
        "state": "MA",
        "district": "Cidade Nova",
        "street": "Rua Onze",
        "zipcode": "65633-614"
    },
    {
        "city": "Timon",
        "state": "MA",
        "district": "Cidade Nova",
        "street": "Beco Um",
        "zipcode": "65633-623"
    },
    {
        "city": "Timon",
        "state": "MA",
        "district": "Cidade Nova",
        "street": "Rua Quatorze",
        "zipcode": "65633-632"
    },
    {
        "city": "Timon",
        "state": "MA",
        "district": "Cidade Nova",
        "street": "Rua Vinte e Seis",
        "zipcode": "65633-668"
    },
    {
        "city": "Timon",
        "state": "MA",
        "district": "Cidade Nova",
        "street": "Rua Trinta e Um",
        "zipcode": "65633-683"
    },
    {
        "city": "Timon",
        "state": "MA",
        "district": "Cidade Nova",
        "street": "Rua Trinta e Quatro",
        "zipcode": "65633-695"
    },
    {
        "city": "Timon",
        "state": "MA",
        "district": "Cidade Nova",
        "street": "Rua Trinta e Oito",
        "zipcode": "65633-707"
    },
    {
        "city": "Timon",
        "state": "MA",
        "district": "São Marcos",
        "street": "Rua Três",
        "zipcode": "65634-195"
    },
    {
        "city": "Timon",
        "state": "MA",
        "district": "São Marcos",
        "street": "Rua Quatro",
        "zipcode": "65634-197"
    },
    {
        "city": "Timon",
        "state": "MA",
        "district": null,
        "street": "Vila do BEC",
        "zipcode": "65632-990"
    },
    {
        "city": "Timon",
        "state": "MA",
        "district": "Planalto Formosa",
        "street": "Avenida Belo Horizonte",
        "zipcode": "65634-080"
    },
    {
        "city": "Timon",
        "state": "MA",
        "district": "Parque Aliança",
        "street": "Rua Dez",
        "zipcode": "65634-230"
    },
    {
        "city": "Timon",
        "state": "MA",
        "district": "Parque Aliança",
        "street": "Quadra 18 (Cj Res Primavera)",
        "zipcode": "65634-339"
    },
    {
        "city": "Timon",
        "state": "MA",
        "district": "Cicero Ferraz",
        "street": "Rua Santo Onofre",
        "zipcode": "65635-070"
    },
    {
        "city": "Timon",
        "state": "MA",
        "district": "Parque Aliança",
        "street": "Quadra 17 (Cj Res Primavera)",
        "zipcode": "65634-338"
    },
    {
        "city": "Timon",
        "state": "MA",
        "district": "Mutirão",
        "street": "Rua Alagoas",
        "zipcode": "65635-478"
    },
    {
        "city": "Timon",
        "state": "MA",
        "district": "Jóia",
        "street": "Loteamento Sucessão",
        "zipcode": "65632-300"
    },
    {
        "city": "Timon",
        "state": "MA",
        "district": "Parque Aliança",
        "street": "Quadra 15 (Cj Res Primavera)",
        "zipcode": "65634-336"
    },
    {
        "city": "Timon",
        "state": "MA",
        "district": "São Francisco I",
        "street": "Rua Juarez Júlio de Morais",
        "zipcode": "65636-762"
    },
    {
        "city": "Timon",
        "state": "MA",
        "district": "Mutirão",
        "street": "Quadra V (Res Júlia Almeida)",
        "zipcode": "65635-570"
    },
    {
        "city": "Timon",
        "state": "MA",
        "district": "Boa Esperança",
        "street": "Quadra A (Cj Novo Tempo)",
        "zipcode": "65636-871"
    },
    {
        "city": "Timon",
        "state": "MA",
        "district": "Boa Esperança",
        "street": "Quadra F (Cj Novo Tempo)",
        "zipcode": "65636-876"
    },
    {
        "city": "Timon",
        "state": "MA",
        "district": "Boa Esperança",
        "street": "Quadra B (Cj Novo Tempo)",
        "zipcode": "65636-872"
    },
    {
        "city": "Timon",
        "state": "MA",
        "district": "Cicero Ferraz",
        "street": "Beco Dois",
        "zipcode": "65635-050"
    },
    {
        "city": "Timon",
        "state": "MA",
        "district": "Mutirão",
        "street": "Rua Santa Rita",
        "zipcode": "65635-500"
    },
    {
        "city": "Timon",
        "state": "MA",
        "district": "Cicero Ferraz",
        "street": "Rua São Tomaz",
        "zipcode": "65635-110"
    },
    {
        "city": "Timon",
        "state": "MA",
        "district": "Mutirão",
        "street": "Rua Pará",
        "zipcode": "65635-480"
    },
    {
        "city": "Timon",
        "state": "MA",
        "district": "Formosa",
        "street": "Rua Hum (Próximo R. Manoel Batista)",
        "zipcode": "65632-080"
    },
    {
        "city": "Timon",
        "state": "MA",
        "district": "Mutirão",
        "street": "Rua Natal",
        "zipcode": "65635-485"
    },
    {
        "city": "Timon",
        "state": "MA",
        "district": "Mutirão",
        "street": "Rua Paraíba",
        "zipcode": "65635-475"
    },
    {
        "city": "Timon",
        "state": "MA",
        "district": "Mutirão",
        "street": "Quadra A (Res Júlia Almeida)",
        "zipcode": "65635-550"
    },
    {
        "city": "Timon",
        "state": "MA",
        "district": "Cicero Ferraz",
        "street": "Avenida Parnarama",
        "zipcode": "65635-010"
    },
    {
        "city": "Timon",
        "state": "MA",
        "district": "São Marcos",
        "street": "Rua José Fernandes da Silva",
        "zipcode": "65634-180"
    },
    {
        "city": "Timon",
        "state": "MA",
        "district": "Parque Alvorada",
        "street": "Rua Honório de Sousa Lima",
        "zipcode": "65633-210"
    },
    {
        "city": "Timon",
        "state": "MA",
        "district": "Parque Alvorada",
        "street": "Rua Manoel Teixeira de Moraes",
        "zipcode": "65633-320"
    },
    {
        "city": "Timon",
        "state": "MA",
        "district": "Parque Alvorada",
        "street": "Rua Raimundo Pereira Magalhães",
        "zipcode": "65633-260"
    },
    {
        "city": "Timon",
        "state": "MA",
        "district": "Parque Alvorada",
        "street": "Rua Vicente Faustino do Nascimento",
        "zipcode": "65633-270"
    },
    {
        "city": "Timon",
        "state": "MA",
        "district": "Parque Alvorada",
        "street": "Rua José Benedito da Costa",
        "zipcode": "65633-030"
    },
    {
        "city": "Timon",
        "state": "MA",
        "district": "Vila Bandeirante",
        "street": "Rua Vinte e Três",
        "zipcode": "65633-510"
    },
    {
        "city": "Timon",
        "state": "MA",
        "district": "Planalto Formosa",
        "street": "Avenida Dois Mil",
        "zipcode": "65634-150"
    },
    {
        "city": "Timon",
        "state": "MA",
        "district": "Parque Alvorada",
        "street": "Rodovia BR",
        "zipcode": "65633-060"
    },
    {
        "city": "Timon",
        "state": "MA",
        "district": "Parque Alvorada",
        "street": "Rua H",
        "zipcode": "65633-120"
    },
    {
        "city": "Timon",
        "state": "MA",
        "district": "São Francisco I",
        "street": "Quadra 07 (Cj Boa Vista)",
        "zipcode": "65636-731"
    },
    {
        "city": "Timon",
        "state": "MA",
        "district": "São Francisco I",
        "street": "Quadra 06 (Cj Boa Vista)",
        "zipcode": "65636-730"
    },
    {
        "city": "Timon",
        "state": "MA",
        "district": "São Francisco I",
        "street": "Quadra 05 (Cj Boa Vista)",
        "zipcode": "65636-729"
    },
    {
        "city": "Timon",
        "state": "MA",
        "district": "São Francisco I",
        "street": "Quadra 04 (Cj Boa Vista)",
        "zipcode": "65636-728"
    },
    {
        "city": "Timon",
        "state": "MA",
        "district": "São Francisco I",
        "street": "Quadra 02 (Cj Boa Vista)",
        "zipcode": "65636-726"
    },
    {
        "city": "Timon",
        "state": "MA",
        "district": "São Francisco I",
        "street": "Quadra 01 (Cj Boa Vista)",
        "zipcode": "65636-725"
    },
    {
        "city": "Timon",
        "state": "MA",
        "district": "Formosa",
        "street": "Avenida Presidente Médici",
        "zipcode": "65636-045"
    },
    {
        "city": "Timon",
        "state": "MA",
        "district": "Jóia",
        "street": "Rua B",
        "zipcode": "65632-310"
    },
    {
        "city": "Timon",
        "state": "MA",
        "district": "Jóia",
        "street": "Rua J",
        "zipcode": "65632-350"
    },
    {
        "city": "Timon",
        "state": "MA",
        "district": "Jóia",
        "street": "Rua Quatro",
        "zipcode": "65632-370"
    },
    {
        "city": "Timon",
        "state": "MA",
        "district": "Boa Vista",
        "street": "Rua Dezessete",
        "zipcode": "65631-588"
    },
    {
        "city": "Timon",
        "state": "MA",
        "district": "Parque Aliança",
        "street": "Quadra 16 (Cj Res Primavera)",
        "zipcode": "65634-337"
    },
    {
        "city": "Timon",
        "state": "MA",
        "district": "Mutirão",
        "street": "Quadra B (Res Júlia Almeida)",
        "zipcode": "65635-551"
    },
    {
        "city": "Timon",
        "state": "MA",
        "district": "Mutirão",
        "street": "Rua Ceará",
        "zipcode": "65635-477"
    },
    {
        "city": "Timon",
        "state": "MA",
        "district": "Mutirão",
        "street": "Rua Nossa Senhora do Perpétuo Socorro",
        "zipcode": "65635-508"
    },
    {
        "city": "Timon",
        "state": "MA",
        "district": "Mutirão",
        "street": "Rua Manaus",
        "zipcode": "65635-489"
    },
    {
        "city": "Timon",
        "state": "MA",
        "district": "Cidade Nova",
        "street": "Rua Dois (Paralela AV Parnarama)",
        "zipcode": "65633-719"
    },
    {
        "city": "Timon",
        "state": "MA",
        "district": "Glória",
        "street": "Rua D",
        "zipcode": "65632-142"
    },
    {
        "city": "Timon",
        "state": "MA",
        "district": "Glória",
        "street": "Rua Oito",
        "zipcode": "65632-156"
    },
    {
        "city": "Timon",
        "state": "MA",
        "district": "Glória",
        "street": "Rua Dois",
        "zipcode": "65632-178"
    },
    {
        "city": "Timon",
        "state": "MA",
        "district": "Jóia",
        "street": "Rua Um",
        "zipcode": "65632-230"
    },
    {
        "city": "Timon",
        "state": "MA",
        "district": "Jóia",
        "street": "Rua E",
        "zipcode": "65632-262"
    },
    {
        "city": "Timon",
        "state": "MA",
        "district": "Centro",
        "street": "Praça São José",
        "zipcode": "65630-900"
    },
    {
        "city": "Timon",
        "state": "MA",
        "district": "Centro",
        "street": "Avenida Piauí",
        "zipcode": "65630-901"
    },
    {
        "city": "Timon",
        "state": "MA",
        "district": "Centro",
        "street": "Avenida Piauí",
        "zipcode": "65630-902"
    },
    {
        "city": "Timon",
        "state": "MA",
        "district": "Centro",
        "street": "Rua Duque de Caxias",
        "zipcode": "65630-904"
    },
    {
        "city": "Timon",
        "state": "MA",
        "district": "Centro",
        "street": "Praça São José",
        "zipcode": "65630-905"
    },
    {
        "city": "Timon",
        "state": "MA",
        "district": "Centro",
        "street": "Avenida Viana Vaz",
        "zipcode": "65630-906"
    },
    {
        "city": "Timon",
        "state": "MA",
        "district": "Centro",
        "street": "Avenida Paulo Ramos",
        "zipcode": "65630-907"
    },
    {
        "city": "Timon",
        "state": "MA",
        "district": "Centro",
        "street": "Avenida Paulo Ramos",
        "zipcode": "65630-908"
    },
    {
        "city": "Timon",
        "state": "MA",
        "district": "Parque União",
        "street": "Rua Cento e Três",
        "zipcode": "65631-370"
    },
    {
        "city": "Timon",
        "state": "MA",
        "district": "Boa Vista",
        "street": "Rua Cinco",
        "zipcode": "65631-620"
    },
    {
        "city": "Timon",
        "state": "MA",
        "district": "Mateuzinho",
        "street": "Travessa São Marcos",
        "zipcode": "65630-850"
    },
    {
        "city": "Timon",
        "state": "MA",
        "district": "Centro",
        "street": "Avenida Paulo Ramos",
        "zipcode": "65630-140"
    },
    {
        "city": "Timon",
        "state": "MA",
        "district": "Parque Piauí",
        "street": "Rua Filomena Martins Nazareno Bringel",
        "zipcode": "65631-280"
    },
    {
        "city": "Timon",
        "state": "MA",
        "district": "Parque Piauí",
        "street": "Avenida Jaime Rios",
        "zipcode": "65631-210"
    },
    {
        "city": "Timon",
        "state": "MA",
        "district": "Boa Vista",
        "street": "Rua Luís Pires de Sá",
        "zipcode": "65631-320"
    },
    {
        "city": "Timon",
        "state": "MA",
        "district": "Jóia",
        "street": "Quadra 21 (Cj Res Novo Jóia)",
        "zipcode": "65632-396"
    },
    {
        "city": "Timon",
        "state": "MA",
        "district": "Cidade Nova",
        "street": "Rua Saul Barbosa Tavares",
        "zipcode": "65633-578"
    },
    {
        "city": "Timon",
        "state": "MA",
        "district": "Parque Aliança",
        "street": "Quadra 07 (Cj Res Primavera)",
        "zipcode": "65634-326"
    },
    {
        "city": "Timon",
        "state": "MA",
        "district": "Parque Aliança",
        "street": "Quadra 10 (Cj Res Primavera)",
        "zipcode": "65634-329"
    },
    {
        "city": "Timon",
        "state": "MA",
        "district": "Cidade Nova",
        "street": "Rua Projetada",
        "zipcode": "65633-749"
    },
    {
        "city": "Timon",
        "state": "MA",
        "district": "Cidade Nova",
        "street": "Rua Grande",
        "zipcode": "65633-734"
    },
    {
        "city": "Timon",
        "state": "MA",
        "district": "Parque Aliança",
        "street": "Quadra 13 (Cj Res Primavera)",
        "zipcode": "65634-333"
    },
    {
        "city": "Timon",
        "state": "MA",
        "district": "Jóia",
        "street": "Quadra 19 (Cj Res Novo Jóia)",
        "zipcode": "65632-394"
    },
    {
        "city": "Timon",
        "state": "MA",
        "district": "Parque Aliança",
        "street": "Quadra 02 (Cj Res Primavera)",
        "zipcode": "65634-319"
    },
    {
        "city": "Timon",
        "state": "MA",
        "district": "Parque Aliança",
        "street": "Quadra 01 (Cj Res Primavera)",
        "zipcode": "65634-318"
    },
    {
        "city": "Timon",
        "state": "MA",
        "district": "Formosa",
        "street": "Rua Maria Correia",
        "zipcode": "65632-120"
    },
    {
        "city": "Timon",
        "state": "MA",
        "district": "Boa Vista",
        "street": "Rua Nove (Entre R. Boa Vista e R. São Luís)",
        "zipcode": "65631-720"
    },
    {
        "city": "Timon",
        "state": "MA",
        "district": "Boa Vista",
        "street": "Rua Tenente Martins",
        "zipcode": "65631-470"
    },
    {
        "city": "Timon",
        "state": "MA",
        "district": "Boa Vista",
        "street": "Rua Doze",
        "zipcode": "65631-800"
    },
    {
        "city": "Timon",
        "state": "MA",
        "district": "Parque Piauí",
        "street": "Avenida Presidente Médici",
        "zipcode": "65631-390"
    },
    {
        "city": "Timon",
        "state": "MA",
        "district": "Glória",
        "street": "Rua Jasmin",
        "zipcode": "65632-170"
    },
    {
        "city": "Timon",
        "state": "MA",
        "district": "Parque União",
        "street": "Rua Pernambuco",
        "zipcode": "65631-380"
    },
    {
        "city": "Timon",
        "state": "MA",
        "district": "Parque Piauí",
        "street": "Travessa Nossa Senhora de Fátima",
        "zipcode": "65631-120"
    },
    {
        "city": "Timon",
        "state": "MA",
        "district": "Parque União",
        "street": "Avenida Presidente Médici",
        "zipcode": "65631-377"
    },
    {
        "city": "Timon",
        "state": "MA",
        "district": "Marimar",
        "street": "Rua Seis",
        "zipcode": "65637-060"
    },
    {
        "city": "Timon",
        "state": "MA",
        "district": "Marimar",
        "street": "Rua Dez",
        "zipcode": "65637-090"
    },
    {
        "city": "Timon",
        "state": "MA",
        "district": "São Francisco II",
        "street": "Rua Dez",
        "zipcode": "65638-310"
    },
    {
        "city": "Timon",
        "state": "MA",
        "district": "São Francisco II",
        "street": "Rua Pernambuco",
        "zipcode": "65638-385"
    },
    {
        "city": "Timon",
        "state": "MA",
        "district": "São Francisco II",
        "street": "Rua Cento e Três",
        "zipcode": "65638-395"
    },
    {
        "city": "Timon",
        "state": "MA",
        "district": "Marimar",
        "street": "Rua Doze",
        "zipcode": "65637-100"
    },
    {
        "city": "Timon",
        "state": "MA",
        "district": "Marimar",
        "street": "Rua Onze",
        "zipcode": "65637-110"
    },
    {
        "city": "Timon",
        "state": "MA",
        "district": "Bela Vista",
        "street": "Beco Seis",
        "zipcode": "65637-561"
    },
    {
        "city": "Timon",
        "state": "MA",
        "district": "Bela Vista",
        "street": "Beco Sete",
        "zipcode": "65637-562"
    },
    {
        "city": "Timon",
        "state": "MA",
        "district": "Bela Vista",
        "street": "Rua Vinte e Quatro",
        "zipcode": "65637-571"
    },
    {
        "city": "Timon",
        "state": "MA",
        "district": "Bela Vista",
        "street": "Beco Dezenove",
        "zipcode": "65637-576"
    },
    {
        "city": "Timon",
        "state": "MA",
        "district": "Bela Vista",
        "street": "Beco Vinte",
        "zipcode": "65637-577"
    },
    {
        "city": "Timon",
        "state": "MA",
        "district": "Bela Vista",
        "street": "Beco Vinte e Oito",
        "zipcode": "65637-586"
    },
    {
        "city": "Timon",
        "state": "MA",
        "district": "São Francisco II",
        "street": "Rua Um",
        "zipcode": "65638-075"
    },
    {
        "city": "Timon",
        "state": "MA",
        "district": "São Francisco II",
        "street": "Rua Três",
        "zipcode": "65638-085"
    },
    {
        "city": "Timon",
        "state": "MA",
        "district": "Jóia",
        "street": "Quadra 15 (Cj Res Novo Jóia)",
        "zipcode": "65632-390"
    },
    {
        "city": "Timon",
        "state": "MA",
        "district": "Parque Aliança",
        "street": "Quadra 05 (Cj Res Primavera)",
        "zipcode": "65634-323"
    },
    {
        "city": "Timon",
        "state": "MA",
        "district": "Parque Aliança",
        "street": "Quadra 11 (Cj Res Primavera)",
        "zipcode": "65634-331"
    },
    {
        "city": "Timon",
        "state": "MA",
        "district": "Jóia",
        "street": "Quadra 22 (Cj Res Novo Jóia)",
        "zipcode": "65632-397"
    },
    {
        "city": "Timon",
        "state": "MA",
        "district": "Planalto Formosa",
        "street": "Rua Hum (Próximo R. Doze)",
        "zipcode": "65634-040"
    },
    {
        "city": "Timon",
        "state": "MA",
        "district": "Jóia",
        "street": "Quadra 18 (Cj Res Novo Jóia)",
        "zipcode": "65632-393"
    },
    {
        "city": "Timon",
        "state": "MA",
        "district": "Jóia",
        "street": "Quadra 16 (Cj Res Novo Jóia)",
        "zipcode": "65632-391"
    },
    {
        "city": "Timon",
        "state": "MA",
        "district": "São Francisco II",
        "street": "Travessa Vinte e Dois",
        "zipcode": "65638-170"
    },
    {
        "city": "Timon",
        "state": "MA",
        "district": "São Francisco II",
        "street": "Travessa Vinte e Oito",
        "zipcode": "65638-200"
    },
    {
        "city": "Timon",
        "state": "MA",
        "district": "São Francisco II",
        "street": "Beco Vinte",
        "zipcode": "65638-220"
    },
    {
        "city": "Timon",
        "state": "MA",
        "district": "São Francisco II",
        "street": "Beco Vinte e Um",
        "zipcode": "65638-225"
    },
    {
        "city": "Timon",
        "state": "MA",
        "district": "Boa Esperança",
        "street": "Rua Dois",
        "zipcode": "65636-814"
    },
    {
        "city": "Timon",
        "state": "MA",
        "district": "Boa Esperança",
        "street": "Rua Três",
        "zipcode": "65636-816"
    },
    {
        "city": "Timon",
        "state": "MA",
        "district": "Boa Esperança",
        "street": "Rua Cinco",
        "zipcode": "65636-828"
    },
    {
        "city": "Timon",
        "state": "MA",
        "district": "Boa Esperança",
        "street": "Rua Seis",
        "zipcode": "65636-830"
    },
    {
        "city": "Timon",
        "state": "MA",
        "district": "Santo Antônio",
        "street": "Travessa Treze de Maio",
        "zipcode": "65630-405"
    },
    {
        "city": "Timon",
        "state": "MA",
        "district": "Cajueiro",
        "street": "Rua Cinco",
        "zipcode": "65630-464"
    },
    {
        "city": "Timon",
        "state": "MA",
        "district": "Boa Esperança",
        "street": "Rodovia BR",
        "zipcode": "65636-849"
    },
    {
        "city": "Timon",
        "state": "MA",
        "district": "Centro",
        "street": "Rua Magalhães de Almeida",
        "zipcode": "65630-970"
    },
    {
        "city": "Timon",
        "state": "MA",
        "district": "Centro",
        "street": "Rua Magalhães de Almeida",
        "zipcode": "65630-971"
    },
    {
        "city": "Timon",
        "state": "MA",
        "district": "São Benedito",
        "street": "Avenida Luís Firmino de Sousa",
        "zipcode": "65636-904"
    },
    {
        "city": "Timon",
        "state": "MA",
        "district": "Centro",
        "street": "Rua Alcides Sotero de Assunção",
        "zipcode": "65630-280"
    },
    {
        "city": "Timon",
        "state": "MA",
        "district": "Santo Antônio",
        "street": "Avenida Brasil",
        "zipcode": "65630-330"
    },
    {
        "city": "Timon",
        "state": "MA",
        "district": "Mateuzinho",
        "street": "Avenida Brasil",
        "zipcode": "65630-720"
    },
    {
        "city": "Timon",
        "state": "MA",
        "district": "Centro",
        "street": "Rua Coronel Falcão",
        "zipcode": "65630-200"
    },
    {
        "city": "Timon",
        "state": "MA",
        "district": "Centro",
        "street": "Rua Higino Cunha",
        "zipcode": "65630-240"
    },
    {
        "city": "Timon",
        "state": "MA",
        "district": "São Francisco II",
        "street": "Rua Vila Doze",
        "zipcode": "65638-030"
    },
    {
        "city": "Timon",
        "state": "MA",
        "district": "Santo Antônio",
        "street": "Rua Antonio Lidu",
        "zipcode": "65630-500"
    },
    {
        "city": "Timon",
        "state": "MA",
        "district": "Santo Antônio",
        "street": "Rua Quatro",
        "zipcode": "65630-620"
    },
    {
        "city": "Timon",
        "state": "MA",
        "district": "Santo Antônio",
        "street": "Rua Seis",
        "zipcode": "65630-560"
    },
    {
        "city": "Timon",
        "state": "MA",
        "district": "Parque Piauí",
        "street": "Rua Ananias Carvalho Chaves",
        "zipcode": "65631-160"
    },
    {
        "city": "Timon",
        "state": "MA",
        "district": "Flores",
        "street": "Beco Vinte e Seis",
        "zipcode": "65636-710"
    },
    {
        "city": "Timon",
        "state": "MA",
        "district": "Jóia",
        "street": "Quadra 09 (Cj Res Novo Jóia)",
        "zipcode": "65632-384"
    },
    {
        "city": "Timon",
        "state": "MA",
        "district": "Jóia",
        "street": "Quadra 11 (Cj Res Novo Jóia)",
        "zipcode": "65632-386"
    },
    {
        "city": "Timon",
        "state": "MA",
        "district": "Jóia",
        "street": "Quadra 14 (Cj Res Novo Jóia)",
        "zipcode": "65632-389"
    },
    {
        "city": "Timon",
        "state": "MA",
        "district": "Jóia",
        "street": "Quadra 03 (Cj Res Novo Jóia)",
        "zipcode": "65632-378"
    },
    {
        "city": "Timon",
        "state": "MA",
        "district": "Jóia",
        "street": "Quadra 05 (Cj Res Novo Jóia)",
        "zipcode": "65632-380"
    },
    {
        "city": "Timon",
        "state": "MA",
        "district": "Jóia",
        "street": "Quadra 04 (Cj Res Novo Jóia)",
        "zipcode": "65632-379"
    },
    {
        "city": "Timon",
        "state": "MA",
        "district": "São Francisco I",
        "street": "Avenida Presidente Médici",
        "zipcode": "65636-740"
    },
    {
        "city": "Timon",
        "state": "MA",
        "district": "Santo Antônio",
        "street": "Rua João Pereira de Andrade",
        "zipcode": "65630-450"
    },
    {
        "city": "Timon",
        "state": "MA",
        "district": "Mateuzinho",
        "street": "Rua São Joaquim",
        "zipcode": "65630-660"
    },
    {
        "city": "Timon",
        "state": "MA",
        "district": "Mateuzinho",
        "street": "Rua Francisco Ladeira",
        "zipcode": "65630-757"
    },
    {
        "city": "Timon",
        "state": "MA",
        "district": "São Francisco I",
        "street": "Rua Cinco",
        "zipcode": "65636-742"
    },
    {
        "city": "Timon",
        "state": "MA",
        "district": "São Francisco I",
        "street": "Rua Cento e Nove",
        "zipcode": "65636-772"
    },
    {
        "city": "Timon",
        "state": "MA",
        "district": "Cidade Nova",
        "street": "Conjunto Milton Vila Nova",
        "zipcode": "65633-580"
    },
    {
        "city": "Timon",
        "state": "MA",
        "district": "São Francisco I",
        "street": "Quadra 08 (Cj Boa Vista)",
        "zipcode": "65636-732"
    },
    {
        "city": "Timon",
        "state": "MA",
        "district": "São Marcos",
        "street": "Rua J",
        "zipcode": "65634-162"
    },
    {
        "city": "Timon",
        "state": "MA",
        "district": "São Marcos",
        "street": "Rua I",
        "zipcode": "65634-164"
    },
    {
        "city": "Timon",
        "state": "MA",
        "district": "São Marcos",
        "street": "Avenida Melvin Jones",
        "zipcode": "65634-186"
    },
    {
        "city": "Timon",
        "state": "MA",
        "district": "São Marcos",
        "street": "Rua Quatorze",
        "zipcode": "65634-192"
    },
    {
        "city": "Timon",
        "state": "MA",
        "district": "Parque Piauí",
        "street": "Beco Vinte e Cinco",
        "zipcode": "65636-425"
    },
    {
        "city": "Timon",
        "state": "MA",
        "district": "Parque Piauí",
        "street": "Beco Dois",
        "zipcode": "65636-455"
    },
    {
        "city": "Timon",
        "state": "MA",
        "district": "Flores",
        "street": "Beco Nove",
        "zipcode": "65636-674"
    },
    {
        "city": "Timon",
        "state": "MA",
        "district": "Flores",
        "street": "Beco Doze",
        "zipcode": "65636-677"
    },
    {
        "city": "Timon",
        "state": "MA",
        "district": "Flores",
        "street": "Beco Vinte",
        "zipcode": "65636-686"
    },
    {
        "city": "Timon",
        "state": "MA",
        "district": "Flores",
        "street": "Beco Vinte e Um",
        "zipcode": "65636-687"
    },
    {
        "city": "Timon",
        "state": "MA",
        "district": "Vila Bandeirante",
        "street": "Avenida I",
        "zipcode": "65635-340"
    },
    {
        "city": "Timon",
        "state": "MA",
        "district": "Parque Aliança",
        "street": "Rua O",
        "zipcode": "65634-315"
    },
    {
        "city": "Timon",
        "state": "MA",
        "district": "Vila Angélica",
        "street": "Rua Vinte e Um",
        "zipcode": "65634-366"
    },
    {
        "city": "Timon",
        "state": "MA",
        "district": "Pedro Patrício",
        "street": "Rua Vinte e Três",
        "zipcode": "65634-382"
    },
    {
        "city": "Timon",
        "state": "MA",
        "district": "Flores",
        "street": "Rua Sete",
        "zipcode": "65636-597"
    },
    {
        "city": "Timon",
        "state": "MA",
        "district": "Jóia",
        "street": "Quadra 07 (Cj Res Novo Jóia)",
        "zipcode": "65632-382"
    },
    {
        "city": "Timon",
        "state": "MA",
        "district": "Jóia",
        "street": "Quadra 01 (Cj Res Novo Jóia)",
        "zipcode": "65632-376"
    },
    {
        "city": "Timon",
        "state": "MA",
        "district": "São Francisco II",
        "street": "Rua Airton Costa Cruz",
        "zipcode": "65638-298"
    },
    {
        "city": "Timon",
        "state": "MA",
        "district": "Jóia",
        "street": "Quadra 08 (Cj Res Novo Jóia)",
        "zipcode": "65632-383"
    },
    {
        "city": "Timon",
        "state": "MA",
        "district": "São Francisco II",
        "street": "Rua Francisca de Macedo Silva",
        "zipcode": "65638-095"
    },
    {
        "city": "Timon",
        "state": "MA",
        "district": "Jóia",
        "street": "Quadra 10 (Cj Res Novo Jóia)",
        "zipcode": "65632-385"
    },
    {
        "city": "Timon",
        "state": "MA",
        "district": "São Benedito",
        "street": "Avenida Presidente Médici",
        "zipcode": "65636-246"
    },
    {
        "city": "Timon",
        "state": "MA",
        "district": "Flores",
        "street": "Beco Sete",
        "zipcode": "65636-672"
    },
    {
        "city": "Timon",
        "state": "MA",
        "district": "Mutirão",
        "street": "Avenida Luis Firmino de Sousa",
        "zipcode": "65635-468"
    },
    {
        "city": "Timon",
        "state": "MA",
        "district": "Mutirão",
        "street": "Rua Cinco",
        "zipcode": "65635-486"
    },
    {
        "city": "Timon",
        "state": "MA",
        "district": "Pedro Patrício",
        "street": "Rua H",
        "zipcode": "65634-414"
    },
    {
        "city": "Timon",
        "state": "MA",
        "district": "Pedro Patrício",
        "street": "Rua Oito",
        "zipcode": "65634-416"
    },
    {
        "city": "Timon",
        "state": "MA",
        "district": "Pedro Patrício",
        "street": "Travessa I",
        "zipcode": "65634-432"
    },
    {
        "city": "Timon",
        "state": "MA",
        "district": "Vila Bandeirante",
        "street": "Rua José Odécio Teófilo Silva",
        "zipcode": "65635-420"
    },
    {
        "city": "Timon",
        "state": "MA",
        "district": "Vila Bandeirante",
        "street": "Rodovia BR",
        "zipcode": "65635-430"
    },
    {
        "city": "Timon",
        "state": "MA",
        "district": "Mutirão",
        "street": "Rua Três",
        "zipcode": "65635-446"
    },
    {
        "city": "Timon",
        "state": "MA",
        "district": "Mutirão",
        "street": "Avenida Luís Firmino de Sousa",
        "zipcode": "65635-822"
    },
    {
        "city": "Timon",
        "state": "MA",
        "district": "São Marcos",
        "street": "Rua Cinco",
        "zipcode": "65634-183"
    },
    {
        "city": "Timon",
        "state": "MA",
        "district": "São Benedito",
        "street": "Rua Dezoito",
        "zipcode": "65636-327"
    },
    {
        "city": "Timon",
        "state": "MA",
        "district": "Parque Piauí",
        "street": "Rua Antônio Guimarães",
        "zipcode": "65636-460"
    },
    {
        "city": "Timon",
        "state": "MA",
        "district": "Parque Aliança",
        "street": "Rua Cinco",
        "zipcode": "65634-280"
    },
    {
        "city": "Timon",
        "state": "MA",
        "district": "Parque Piauí",
        "street": "Rua Firmino Gonçalves Pedreira",
        "zipcode": "65636-400"
    },
    {
        "city": "Timon",
        "state": "MA",
        "district": "São Benedito",
        "street": "Rua Formosa",
        "zipcode": "65636-200"
    },
    {
        "city": "Timon",
        "state": "MA",
        "district": "Planalto Formosa",
        "street": "Rua Dois",
        "zipcode": "65634-120"
    },
    {
        "city": "Timon",
        "state": "MA",
        "district": "Parque Piauí",
        "street": "Rua Jamil de Miranda Gedeon",
        "zipcode": "65636-480"
    },
    {
        "city": "Timon",
        "state": "MA",
        "district": "São Benedito",
        "street": "Avenida Luís Firmino de Sousa",
        "zipcode": "65636-340"
    },
    {
        "city": "Timon",
        "state": "MA",
        "district": "Flores",
        "street": "Rua Marcos Batista da Silva",
        "zipcode": "65636-600"
    },
    {
        "city": "Timon",
        "state": "MA",
        "district": "Planalto Formosa",
        "street": "Rua Mil e Dois",
        "zipcode": "65634-090"
    },
    {
        "city": "Timon",
        "state": "MA",
        "district": "Flores",
        "street": "Avenida Desembargador João Manoel",
        "zipcode": "65636-590"
    },
    {
        "city": "Timon",
        "state": "MA",
        "district": "Parque Aliança",
        "street": "Rua Quatorze",
        "zipcode": "65634-330"
    },
    {
        "city": "Timon",
        "state": "MA",
        "district": "Formosa",
        "street": "Rua São João",
        "zipcode": "65636-090"
    },
    {
        "city": "Timon",
        "state": "MA",
        "district": "Pedro Patrício",
        "street": "Avenida Melvin Jones",
        "zipcode": "65634-400"
    },
    {
        "city": "Timon",
        "state": "MA",
        "district": "Parque Piauí",
        "street": "Rua Vinte",
        "zipcode": "65636-510"
    },
    {
        "city": "Timon",
        "state": "MA",
        "district": "Parque Piauí",
        "street": "Rua Vinte e Um",
        "zipcode": "65636-530"
    },
    {
        "city": "Timon",
        "state": "MA",
        "district": "São Benedito",
        "street": "Rua Maria Carlos da Silva",
        "zipcode": "65636-230"
    },
    {
        "city": "Timon",
        "state": "MA",
        "district": "Formosa",
        "street": "Avenida Presidente Médici",
        "zipcode": "65634-010"
    },
    {
        "city": "Timon",
        "state": "MA",
        "district": "Cajueiro",
        "street": "Rua Lírio dos Campos",
        "zipcode": "65630-472"
    },
    {
        "city": "Timon",
        "state": "MA",
        "district": "Mangueira",
        "street": "Rua Francisco Firmino de Sousa",
        "zipcode": "65630-454"
    },
    {
        "city": "Timon",
        "state": "MA",
        "district": "Mutirão",
        "street": "Rua Fortaleza",
        "zipcode": "65635-484"
    },
    {
        "city": "Timon",
        "state": "MA",
        "district": "Cicero Ferraz",
        "street": "Rua São Vicente",
        "zipcode": "65635-260"
    },
    {
        "city": "Timon",
        "state": "MA",
        "district": "Mutirão",
        "street": "Quadra T (Res Júlia Almeida)",
        "zipcode": "65635-568"
    },
    {
        "city": "Timon",
        "state": "MA",
        "district": "São Benedito",
        "street": "Beco José Inácio da Silva Filho",
        "zipcode": "65636-225"
    },
    {
        "city": "Timon",
        "state": "MA",
        "district": "Centro",
        "street": "Beco Paulo Ramos",
        "zipcode": "65630-090"
    },
    {
        "city": "Timon",
        "state": "MA",
        "district": "Planalto Formosa",
        "street": "Rua Um Mil e Seis",
        "zipcode": "65634-045"
    },
    {
        "city": "Timon",
        "state": "MA",
        "district": "Cidade Nova",
        "street": "Rua H",
        "zipcode": "65633-797"
    },
    {
        "city": "Timon",
        "state": "MA",
        "district": "Jóia",
        "street": "Rua G",
        "zipcode": "65632-335"
    },
    {
        "city": "Timon",
        "state": "MA",
        "district": "Jóia",
        "street": "Rua H",
        "zipcode": "65632-340"
    },
    {
        "city": "Timon",
        "state": "MA",
        "district": "Planalto Boa Esperança",
        "street": "Rua Vinte e Cinco",
        "zipcode": "65632-460"
    },
    {
        "city": "Timon",
        "state": "MA",
        "district": "Planalto Boa Esperança",
        "street": "Rua Vinte e Seis",
        "zipcode": "65632-465"
    },
    {
        "city": "Timon",
        "state": "MA",
        "district": "Sete Estrelas",
        "street": "Rua C",
        "zipcode": "65632-605"
    },
    {
        "city": "Timon",
        "state": "MA",
        "district": "Sete Estrelas",
        "street": "Rua Dois",
        "zipcode": "65632-645"
    },
    {
        "city": "Timon",
        "state": "MA",
        "district": "Sete Estrelas",
        "street": "Rua Quatorze",
        "zipcode": "65632-680"
    },
    {
        "city": "Timon",
        "state": "MA",
        "district": "Sete Estrelas",
        "street": "Rua Nove",
        "zipcode": "65632-710"
    },
    {
        "city": "Timon",
        "state": "MA",
        "district": "Sete Estrelas",
        "street": "Rua Dezoito",
        "zipcode": "65632-740"
    },
    {
        "city": "Timon",
        "state": "MA",
        "district": "Jóia",
        "street": "Rua Cinco",
        "zipcode": "65632-365"
    },
    {
        "city": "Timon",
        "state": "MA",
        "district": "Cidade Nova",
        "street": "Rua das Flores",
        "zipcode": "65633-575"
    },
    {
        "city": "Timon",
        "state": "MA",
        "district": "Cidade Nova",
        "street": "Rua Sete",
        "zipcode": "65633-596"
    },
    {
        "city": "Timon",
        "state": "MA",
        "district": "Cidade Nova",
        "street": "Beco O",
        "zipcode": "65633-598"
    },
    {
        "city": "Timon",
        "state": "MA",
        "district": "Cidade Nova",
        "street": "Rua do Campo",
        "zipcode": "65633-599"
    },
    {
        "city": "Timon",
        "state": "MA",
        "district": "Cidade Nova",
        "street": "Beco Dois",
        "zipcode": "65633-625"
    },
    {
        "city": "Timon",
        "state": "MA",
        "district": "Cidade Nova",
        "street": "Rua Dezessete",
        "zipcode": "65633-643"
    },
    {
        "city": "Timon",
        "state": "MA",
        "district": "Cidade Nova",
        "street": "Rua Dezoito",
        "zipcode": "65633-644"
    },
    {
        "city": "Timon",
        "state": "MA",
        "district": "Cidade Nova",
        "street": "Rua Trinta e Cinco",
        "zipcode": "65633-698"
    },
    {
        "city": "Timon",
        "state": "MA",
        "district": "Boa Vista",
        "street": "Rua Filomena Martins Nazareno Bringel",
        "zipcode": "65631-788"
    },
    {
        "city": "Timon",
        "state": "MA",
        "district": "Glória",
        "street": "Rua Boa Esperança",
        "zipcode": "65632-143"
    },
    {
        "city": "Timon",
        "state": "MA",
        "district": "Glória",
        "street": "Rua Um",
        "zipcode": "65632-152"
    },
    {
        "city": "Timon",
        "state": "MA",
        "district": "Jóia",
        "street": "Avenida Parnarama",
        "zipcode": "65632-240"
    },
    {
        "city": "Timon",
        "state": "MA",
        "district": "Jóia",
        "street": "Rua Diamante",
        "zipcode": "65632-270"
    },
    {
        "city": "Timon",
        "state": "MA",
        "district": "Parque Piauí",
        "street": "Avenida Francisco Carlos Jansen",
        "zipcode": "65631-970"
    },
    {
        "city": "Timon",
        "state": "MA",
        "district": "Formosa",
        "street": "Loteamento Boa Esperança",
        "zipcode": "65632-200"
    },
    {
        "city": "Timon",
        "state": "MA",
        "district": "Boa Vista",
        "street": "Travessa Alberto Manoel",
        "zipcode": "65631-420"
    },
    {
        "city": "Timon",
        "state": "MA",
        "district": "Parque União",
        "street": "Rua Cento e Quatro",
        "zipcode": "65631-410"
    },
    {
        "city": "Timon",
        "state": "MA",
        "district": "Formosa",
        "street": "Rua Cinco",
        "zipcode": "65636-140"
    },
    {
        "city": "Timon",
        "state": "MA",
        "district": "Parque Alvorada",
        "street": "Rua Constância Gomes da Silva",
        "zipcode": "65633-290"
    },
    {
        "city": "Timon",
        "state": "MA",
        "district": "Boa Vista",
        "street": "Rua Dezenove",
        "zipcode": "65631-610"
    },
    {
        "city": "Timon",
        "state": "MA",
        "district": "Centro",
        "street": "Beco Dois",
        "zipcode": "65630-040"
    },
    {
        "city": "Timon",
        "state": "MA",
        "district": "Parque Alvorada",
        "street": "Rua João Pedreira de Macedo",
        "zipcode": "65633-410"
    },
    {
        "city": "Timon",
        "state": "MA",
        "district": "Parque Alvorada",
        "street": "Rua Pedro Alves de Moraes",
        "zipcode": "65633-170"
    },
    {
        "city": "Timon",
        "state": "MA",
        "district": "Boa Vista",
        "street": "Rua Pernambuco",
        "zipcode": "65631-480"
    },
    {
        "city": "Timon",
        "state": "MA",
        "district": "Parque Alvorada",
        "street": "Rua Raimundo Correia da Silva",
        "zipcode": "65633-010"
    },
    {
        "city": "Timon",
        "state": "MA",
        "district": "Parque Piauí",
        "street": "Rua Rufino da Costa e Sousa",
        "zipcode": "65631-270"
    },
    {
        "city": "Timon",
        "state": "MA",
        "district": "Parque Aliança",
        "street": "Rua Seis",
        "zipcode": "65634-320"
    },
    {
        "city": "Timon",
        "state": "MA",
        "district": "Boa Vista",
        "street": "Beco Três",
        "zipcode": "65631-500"
    },
    {
        "city": "Timon",
        "state": "MA",
        "district": "Parque Alvorada",
        "street": "Rua Amâncio Pequeno de Souza",
        "zipcode": "65633-390"
    },
    {
        "city": "Timon",
        "state": "MA",
        "district": "Formosa",
        "street": "Avenida Circular",
        "zipcode": "65632-040"
    },
    {
        "city": "Timon",
        "state": "MA",
        "district": "Parque Alvorada",
        "street": "Rua Filomena Rios da Cunha",
        "zipcode": "65633-190"
    },
    {
        "city": "Timon",
        "state": "MA",
        "district": "Boa Vista",
        "street": "Rua Oito",
        "zipcode": "65631-700"
    },
    {
        "city": "Timon",
        "state": "MA",
        "district": "Parque Alvorada",
        "street": "Rua Antônio Tomás de Oliveira",
        "zipcode": "65633-090"
    },
    {
        "city": "Timon",
        "state": "MA",
        "district": "Parque Piauí",
        "street": "Avenida Presidente Médici",
        "zipcode": "65636-010"
    },
    {
        "city": "Timon",
        "state": "MA",
        "district": "Glória",
        "street": "Travessa Barro Forte",
        "zipcode": "65632-165"
    },
    {
        "city": "Timon",
        "state": "MA",
        "district": "Parque Alvorada",
        "street": "Rua G",
        "zipcode": "65633-100"
    },
    {
        "city": "Timon",
        "state": "MA",
        "district": "Boa Esperança",
        "street": "Quadra U (Cj Novo Tempo)",
        "zipcode": "65636-852"
    },
    {
        "city": "Timon",
        "state": "MA",
        "district": "São Francisco I",
        "street": "Rua Manoel Viana Vaz",
        "zipcode": "65636-756"
    },
    {
        "city": "Timon",
        "state": "MA",
        "district": "Flores",
        "street": "Avenida Teresina",
        "zipcode": "65636-548"
    },
    {
        "city": "Timon",
        "state": "MA",
        "district": "São Benedito",
        "street": "Rua Porfiro Gomes da Costa",
        "zipcode": "65636-216"
    },
    {
        "city": "Timon",
        "state": "MA",
        "district": "Parque Aliança",
        "street": "Quadra 03 (Cj Res Primavera)",
        "zipcode": "65634-321"
    },
    {
        "city": "Timon",
        "state": "MA",
        "district": "Flores I",
        "street": "Loteamento das Flores",
        "zipcode": "65636-680"
    },
    {
        "city": "Timon",
        "state": "MA",
        "district": "Parque União",
        "street": "Rua Nove",
        "zipcode": "65631-375"
    },
    {
        "city": "Timon",
        "state": "MA",
        "district": "São Marcos",
        "street": "Rua D",
        "zipcode": "65634-172"
    },
    {
        "city": "Timon",
        "state": "MA",
        "district": "São Francisco II",
        "street": "Beco Vinte e Oito",
        "zipcode": "65638-260"
    },
    {
        "city": "Timon",
        "state": "MA",
        "district": "São Francisco II",
        "street": "Rua Cento e Quatro",
        "zipcode": "65638-390"
    },
    {
        "city": "Timon",
        "state": "MA",
        "district": "Parque Piauí",
        "street": "Rua Oliveira",
        "zipcode": "65636-462"
    },
    {
        "city": "Timon",
        "state": "MA",
        "district": "Bela Vista",
        "street": "Beco Vinte e Três",
        "zipcode": "65637-581"
    },
    {
        "city": "Timon",
        "state": "MA",
        "district": "Cidade Nova",
        "street": "Rua Nove",
        "zipcode": "65633-605"
    },
    {
        "city": "Timon",
        "state": "MA",
        "district": "São Francisco I",
        "street": "Rua Caixa DAgua",
        "zipcode": "65636-724"
    },
    {
        "city": "Timon",
        "state": "MA",
        "district": "Vila Bandeirante",
        "street": "Rua J",
        "zipcode": "65635-330"
    },
    {
        "city": "Timon",
        "state": "MA",
        "district": "Vila Bandeirante",
        "street": "Rua Raimundo Pereira Magalhães",
        "zipcode": "65635-370"
    },
    {
        "city": "Timon",
        "state": "MA",
        "district": "Cajueiro",
        "street": "Avenida Jerônimo Silva",
        "zipcode": "65630-478"
    },
    {
        "city": "Timon",
        "state": "MA",
        "district": "Cajueiro",
        "street": "Rua Seis",
        "zipcode": "65630-486"
    },
    {
        "city": "Timon",
        "state": "MA",
        "district": "Mangueira",
        "street": "Rua Duque de Caxias",
        "zipcode": "65630-526"
    },
    {
        "city": "Timon",
        "state": "MA",
        "district": "Santo Antônio",
        "street": "Rua do Campo",
        "zipcode": "65630-585"
    },
    {
        "city": "Timon",
        "state": "MA",
        "district": "Cidade Nova",
        "street": "Rua Um",
        "zipcode": "65633-722"
    },
    {
        "city": "Timon",
        "state": "MA",
        "district": "Mutirão",
        "street": "Rua Noventa e Cinco",
        "zipcode": "65635-472"
    },
    {
        "city": "Timon",
        "state": "MA",
        "district": "Jóia",
        "street": "Rua Jóia",
        "zipcode": "65632-235"
    },
    {
        "city": "Timon",
        "state": "MA",
        "district": "São Marcos",
        "street": "Beco Três",
        "zipcode": "65634-204"
    },
    {
        "city": "Timon",
        "state": "MA",
        "district": "São Francisco II",
        "street": "Quadra D (Cj Res Palestina)",
        "zipcode": "65638-433"
    },
    {
        "city": "Timon",
        "state": "MA",
        "district": "Centro",
        "street": "Rua Duque de Caxias",
        "zipcode": "65630-903"
    },
    {
        "city": "Timon",
        "state": "MA",
        "district": "Parque Piauí",
        "street": "Avenida Presidente Médici",
        "zipcode": "65636-903"
    },
    {
        "city": "Timon",
        "state": "MA",
        "district": "São Francisco II",
        "street": "Avenida Desembargador João Manoel",
        "zipcode": "65638-290"
    },
    {
        "city": "Timon",
        "state": "MA",
        "district": "Boa Esperança",
        "street": "Quadra E (Cj Novo Tempo)",
        "zipcode": "65636-875"
    },
    {
        "city": "Timon",
        "state": "MA",
        "district": "Parque Aliança",
        "street": "Avenida Presidente Médici",
        "zipcode": "65634-255"
    },
    {
        "city": "Timon",
        "state": "MA",
        "district": "Vila Angélica",
        "street": "Avenida Desembargador João Manoel",
        "zipcode": "65634-368"
    },
    {
        "city": "Timon",
        "state": "MA",
        "district": "Parque Aliança",
        "street": "Rua Noroeste",
        "zipcode": "65634-235"
    },
    {
        "city": "Timon",
        "state": "MA",
        "district": "Mutirão",
        "street": "Quadra G (Res Júlia Almeida)",
        "zipcode": "65635-556"
    },
    {
        "city": "Timon",
        "state": "MA",
        "district": "Cicero Ferraz",
        "street": "Rua Santa Filomena",
        "zipcode": "65635-280"
    },
    {
        "city": "Timon",
        "state": "MA",
        "district": "Cidade Nova",
        "street": "Rua Três (Paralela Av Parnarama)",
        "zipcode": "65633-716"
    },
    {
        "city": "Timon",
        "state": "MA",
        "district": "Boa Esperança",
        "street": "Quadra C (Cj Novo Tempo)",
        "zipcode": "65636-873"
    },
    {
        "city": "Timon",
        "state": "MA",
        "district": "Mateuzinho",
        "street": "Avenida Presidente Médici",
        "zipcode": "65630-780"
    },
    {
        "city": "Timon",
        "state": "MA",
        "district": "São Francisco II",
        "street": "Rua Doze",
        "zipcode": "65638-090"
    },
    {
        "city": "Timon",
        "state": "MA",
        "district": "Santo Antônio",
        "street": "Rua Francisco Firmino de Sousa",
        "zipcode": "65630-580"
    },
    {
        "city": "Timon",
        "state": "MA",
        "district": "Parque Piauí",
        "street": "Rua Dezessete",
        "zipcode": "65636-450"
    },
    {
        "city": "Timon",
        "state": "MA",
        "district": "Santo Antônio",
        "street": "Rua Gonçalves Dias",
        "zipcode": "65630-400"
    },
    {
        "city": "Timon",
        "state": "MA",
        "district": "São Benedito",
        "street": "Rua Henrique Pereira de Souza",
        "zipcode": "65636-210"
    },
    {
        "city": "Timon",
        "state": "MA",
        "district": "Centro",
        "street": "Avenida Jaime Rios",
        "zipcode": "65630-370"
    },
    {
        "city": "Timon",
        "state": "MA",
        "district": "Parque Piauí",
        "street": "Rua João Joca Assunção",
        "zipcode": "65631-080"
    },
    {
        "city": "Timon",
        "state": "MA",
        "district": "Santo Antônio",
        "street": "Rua Lourdes Carlos de Oliveira Nunes",
        "zipcode": "65630-350"
    },
    {
        "city": "Timon",
        "state": "MA",
        "district": "Parque Piauí",
        "street": "Rua Manoel Viana Vaz",
        "zipcode": "65636-290"
    },
    {
        "city": "Timon",
        "state": "MA",
        "district": "Mateuzinho",
        "street": "Rua Oitocentos",
        "zipcode": "65630-730"
    },
    {
        "city": "Timon",
        "state": "MA",
        "district": "Parque Alvorada",
        "street": "Loteamento Parque Alvorada",
        "zipcode": "65634-580"
    },
    {
        "city": "Timon",
        "state": "MA",
        "district": "Santo Antônio",
        "street": "Rua Quatro de Setembro",
        "zipcode": "65630-270"
    },
    {
        "city": "Timon",
        "state": "MA",
        "district": "Centro",
        "street": "Praça São José",
        "zipcode": "65630-160"
    },
    {
        "city": "Timon",
        "state": "MA",
        "district": "Parque Piauí",
        "street": "Avenida São Luís",
        "zipcode": "65631-090"
    },
    {
        "city": "Timon",
        "state": "MA",
        "district": "Mangueira",
        "street": "Rua Seis",
        "zipcode": "65630-460"
    },
    {
        "city": "Timon",
        "state": "MA",
        "district": "Mateuzinho",
        "street": "Rua Seiscentos e Cinqüenta",
        "zipcode": "65630-650"
    },
    {
        "city": "Timon",
        "state": "MA",
        "district": "Parque Piauí",
        "street": "Avenida Teresina",
        "zipcode": "65636-500"
    },
    {
        "city": "Timon",
        "state": "MA",
        "district": "Mangueira",
        "street": "Rua Senador Furtado",
        "zipcode": "65630-530"
    },
    {
        "city": "Timon",
        "state": "MA",
        "district": "Flores",
        "street": "Rua Vinte e Cinco",
        "zipcode": "65636-650"
    },
    {
        "city": "Timon",
        "state": "MA",
        "district": "Mateuzinho",
        "street": "Beco Quinta do Herculano",
        "zipcode": "65630-810"
    },
    {
        "city": "Timon",
        "state": "MA",
        "district": "Parque Piauí",
        "street": "Travessa Napoleão Guimarães",
        "zipcode": "65631-170"
    },
    {
        "city": "Timon",
        "state": "MA",
        "district": "Centro",
        "street": "Travessa São José",
        "zipcode": "65630-080"
    },
    {
        "city": "Timon",
        "state": "MA",
        "district": "Parque Alvorada",
        "street": "Conjunto Miguel Arrais",
        "zipcode": "65633-420"
    },
    {
        "city": "Timon",
        "state": "MA",
        "district": "Parque União",
        "street": "Avenida Francisco Carlos Jansen",
        "zipcode": "65631-415"
    },
    {
        "city": "Timon",
        "state": "MA",
        "district": "Boa Esperança",
        "street": "Quadra AA (Cj Novo Tempo)",
        "zipcode": "65636-859"
    },
    {
        "city": "Timon",
        "state": "MA",
        "district": "Mutirão",
        "street": "Quadra D (Res Júlia Almeida)",
        "zipcode": "65635-553"
    },
    {
        "city": "Timon",
        "state": "MA",
        "district": "Vila Bandeirante II",
        "street": "Loteamento Vila Bandeirante",
        "zipcode": "65634-500"
    },
    {
        "city": "Timon",
        "state": "MA",
        "district": "Jóia",
        "street": "Quadra 13 (Cj Res Novo Jóia)",
        "zipcode": "65632-388"
    },
    {
        "city": "Timon",
        "state": "MA",
        "district": "Parque Piauí",
        "street": "Avenida Presidente Médici",
        "zipcode": "65631-391"
    },
    {
        "city": "Timon",
        "state": "MA",
        "district": "Parque União",
        "street": "Rua Treze",
        "zipcode": "65631-385"
    },
    {
        "city": "Timon",
        "state": "MA",
        "district": "Mutirão",
        "street": "Conjunto Alto Bonito",
        "zipcode": "65635-840"
    },
    {
        "city": "Timon",
        "state": "MA",
        "district": "Jóia",
        "street": "Rodovia MA",
        "zipcode": "65632-298"
    },
    {
        "city": "Timon",
        "state": "MA",
        "district": "São Marcos",
        "street": "Rua C",
        "zipcode": "65634-178"
    },
    {
        "city": "Timon",
        "state": "MA",
        "district": "Jóia",
        "street": "Rua Esmeralda",
        "zipcode": "65632-290"
    },
    {
        "city": "Timon",
        "state": "MA",
        "district": "Parque Aliança",
        "street": "Rua M",
        "zipcode": "65634-295"
    },
    {
        "city": "Timon",
        "state": "MA",
        "district": "Cajueiro",
        "street": "Rua Manoel Teixeira de Moraes",
        "zipcode": "65630-474"
    },
    {
        "city": "Timon",
        "state": "MA",
        "district": "Pedro Patrício",
        "street": "Rua N",
        "zipcode": "65634-426"
    },
    {
        "city": "Timon",
        "state": "MA",
        "district": "Boa Vista",
        "street": "Rua Quatro",
        "zipcode": "65631-792"
    },
    {
        "city": "Timon",
        "state": "MA",
        "district": "São Marcos",
        "street": "Beco Dois",
        "zipcode": "65634-202"
    },
    {
        "city": "Timon",
        "state": "MA",
        "district": "São Francisco II",
        "street": "Quadra B (Cj Res Palestina)",
        "zipcode": "65638-431"
    },
    {
        "city": "Timon",
        "state": "MA",
        "district": "São Francisco II",
        "street": "Quadra C (Cj Res Palestina)",
        "zipcode": "65638-432"
    },
    {
        "city": "Timon",
        "state": "MA",
        "district": "São Francisco II",
        "street": "Quadra F (Cj Res Palestina)",
        "zipcode": "65638-435"
    },
    {
        "city": "Timon",
        "state": "MA",
        "district": "São Francisco II",
        "street": "Quadra G (Cj Res Palestina)",
        "zipcode": "65638-436"
    },
    {
        "city": "Timon",
        "state": "MA",
        "district": "São Francisco II",
        "street": "Quadra H (Cj Res Palestina)",
        "zipcode": "65638-437"
    },
    {
        "city": "Timon",
        "state": "MA",
        "district": "São Francisco II",
        "street": "Quadra J (Cj Res Palestina)",
        "zipcode": "65638-439"
    },
    {
        "city": "Timon",
        "state": "MA",
        "district": "Parque Piauí",
        "street": "Avenida Francisco Carlos Jansen",
        "zipcode": "65631-900"
    },
    {
        "city": "Timon",
        "state": "MA",
        "district": "Parque Alvorada",
        "street": "Rua Benedito Pereira de Sousa",
        "zipcode": "65633-230"
    },
    {
        "city": "Timon",
        "state": "MA",
        "district": "Mutirão",
        "street": "Rua Lírios",
        "zipcode": "65635-534"
    },
    {
        "city": "Timon",
        "state": "MA",
        "district": "São Francisco II",
        "street": "Rua Nanoel Viana Vaz",
        "zipcode": "65638-010"
    },
    {
        "city": "Timon",
        "state": "MA",
        "district": "Cicero Ferraz",
        "street": "Travessa São João",
        "zipcode": "65635-300"
    },
    {
        "city": "Timon",
        "state": "MA",
        "district": "São Francisco I",
        "street": "Rua Dayane Rita de Moura Oliveira",
        "zipcode": "65636-760"
    },
    {
        "city": "Timon",
        "state": "MA",
        "district": "Cidade Nova",
        "street": "Rua Axé",
        "zipcode": "65633-617"
    },
    {
        "city": "Timon",
        "state": "MA",
        "district": "Boa Esperança",
        "street": "Quadra R (Cj Novo Tempo)",
        "zipcode": "65636-889"
    },
    {
        "city": "Timon",
        "state": "MA",
        "district": "Boa Vista",
        "street": "Rua Rufinoda Costa e Sousa",
        "zipcode": "65631-786"
    },
    {
        "city": "Timon",
        "state": "MA",
        "district": "São Francisco II",
        "street": "Loteamento Bela Vista",
        "zipcode": "65636-860"
    },
    {
        "city": "Timon",
        "state": "MA",
        "district": "Boa Esperança",
        "street": "Quadra X (Cj Novo Tempo)",
        "zipcode": "65636-854"
    },
    {
        "city": "Timon",
        "state": "MA",
        "district": "Jóia",
        "street": "Quadra 02 (Cj Res Novo Jóia)",
        "zipcode": "65632-377"
    },
    {
        "city": "Timon",
        "state": "MA",
        "district": "Planalto Formosa",
        "street": "Rua Centroeste",
        "zipcode": "65634-160"
    },
    {
        "city": "Timon",
        "state": "MA",
        "district": "Santo Antônio",
        "street": "Rua São Sebastião",
        "zipcode": "65630-520"
    },
    {
        "city": "Timon",
        "state": "MA",
        "district": "Boa Vista",
        "street": "Rua Tenente Antônio Correia da Silva",
        "zipcode": "65631-360"
    },
    {
        "city": "Timon",
        "state": "MA",
        "district": "Boa Vista",
        "street": "Rua Treze",
        "zipcode": "65631-820"
    },
    {
        "city": "Timon",
        "state": "MA",
        "district": "Vila Bandeirante",
        "street": "Avenida João Manoel",
        "zipcode": "65633-490"
    },
    {
        "city": "Timon",
        "state": "MA",
        "district": "Vila Bandeirante",
        "street": "Rua Vinte e Quatro",
        "zipcode": "65633-530"
    },
    {
        "city": "Timon",
        "state": "MA",
        "district": "Boa Vista",
        "street": "Beco Quatro",
        "zipcode": "65631-520"
    },
    {
        "city": "Timon",
        "state": "MA",
        "district": "Parque Alvorada",
        "street": "Rua Poeta Castro Alves",
        "zipcode": "65634-590"
    },
    {
        "city": "Timon",
        "state": "MA",
        "district": "Bela Vista",
        "street": "Beco Dezoito",
        "zipcode": "65637-575"
    },
    {
        "city": "Timon",
        "state": "MA",
        "district": "São Francisco I",
        "street": "Quadra 09 (Cj Boa Vista)",
        "zipcode": "65636-733"
    },
    {
        "city": "Timon",
        "state": "MA",
        "district": "São Francisco I",
        "street": "Quadra 03 (Cj Boa Vista)",
        "zipcode": "65636-727"
    },
    {
        "city": "Timon",
        "state": "MA",
        "district": "Boa Esperança",
        "street": "Rua Dez (Parque Karina)",
        "zipcode": "65636-835"
    },
    {
        "city": "Timon",
        "state": "MA",
        "district": "Cidade Nova",
        "street": "Conjunto Cidade Nova III",
        "zipcode": "65633-713"
    },
    {
        "city": "Timon",
        "state": "MA",
        "district": "Mutirão",
        "street": "Rua Itapuã",
        "zipcode": "65635-832"
    },
    {
        "city": "Timon",
        "state": "MA",
        "district": "Jóia",
        "street": "Rua Amestista",
        "zipcode": "65632-275"
    },
    {
        "city": "Timon",
        "state": "MA",
        "district": "Mutirão",
        "street": "Rua Bom Jesus",
        "zipcode": "65635-820"
    },
    {
        "city": "Timon",
        "state": "MA",
        "district": "Cicero Ferraz",
        "street": "Avenida Luis Inácio Lula da Silva",
        "zipcode": "65635-320"
    },
    {
        "city": "Timon",
        "state": "MA",
        "district": "Parque Aliança",
        "street": "Quadra 08 (Cj Res Primavera)",
        "zipcode": "65634-327"
    },
    {
        "city": "Timon",
        "state": "MA",
        "district": "São Benedito",
        "street": "Rua Juarez Júlio de Morais",
        "zipcode": "65636-212"
    },
    {
        "city": "Timon",
        "state": "MA",
        "district": "Cicero Ferraz",
        "street": "Rua São Marcos",
        "zipcode": "65635-270"
    },
    {
        "city": "Timon",
        "state": "MA",
        "district": "Glória",
        "street": "Avenida Ayrton Senna",
        "zipcode": "65632-162"
    },
    {
        "city": "Timon",
        "state": "MA",
        "district": "Jóia",
        "street": "Rua Turquesa",
        "zipcode": "65632-250"
    },
    {
        "city": "Timon",
        "state": "MA",
        "district": "São Benedito",
        "street": "Rua Projetada",
        "zipcode": "65636-325"
    },
    {
        "city": "Timon",
        "state": "MA",
        "district": "Jóia",
        "street": "Quadra 20 (Cj Res Novo Jóia)",
        "zipcode": "65632-395"
    },
    {
        "city": "Timon",
        "state": "MA",
        "district": "Mutirão",
        "street": "Quadra J (Res Júlia Almeida)",
        "zipcode": "65635-559"
    },
    {
        "city": "Timon",
        "state": "MA",
        "district": "Mutirão",
        "street": "Rua Doutor João Nepomuceno de Freitas Soares",
        "zipcode": "65635-450"
    },
    {
        "city": "Timon",
        "state": "MA",
        "district": "São Francisco II",
        "street": "Rua José Honório dos Santos Filho",
        "zipcode": "65638-160"
    },
    {
        "city": "Timon",
        "state": "MA",
        "district": "Cidade Nova",
        "street": "Conjunto Chico Leitoa",
        "zipcode": "65633-686"
    },
    {
        "city": "Timon",
        "state": "MA",
        "district": "Sete Estrelas",
        "street": "Rua Roosevelt Bastos",
        "zipcode": "65632-615"
    },
    {
        "city": "Timon",
        "state": "MA",
        "district": "São Francisco I",
        "street": "Quadra 10 (Cj Boa Vista)",
        "zipcode": "65636-734"
    },
    {
        "city": "Timon",
        "state": "MA",
        "district": "Baixa do Côco",
        "street": "Rua Seis",
        "zipcode": "65632-470"
    },
    {
        "city": "Timon",
        "state": "MA",
        "district": "Parque Piauí",
        "street": "Rua Marcos Batista da Silva",
        "zipcode": "65631-085"
    },
    {
        "city": "Timon",
        "state": "MA",
        "district": "Flores",
        "street": "Rua Doutor João Lula",
        "zipcode": "65636-565"
    },
    {
        "city": "Timon",
        "state": "MA",
        "district": "Flores",
        "street": "Rua João Joca Assunção",
        "zipcode": "65636-595"
    },
    {
        "city": "Timon",
        "state": "MA",
        "district": "Parque Piauí",
        "street": "Travessa Vinte",
        "zipcode": "65636-505"
    },
    {
        "city": "Timon",
        "state": "MA",
        "district": "São Marcos",
        "street": "Rua Leste",
        "zipcode": "65634-163"
    },
    {
        "city": "Timon",
        "state": "MA",
        "district": "Cidade Nova",
        "street": "Rua M",
        "zipcode": "65633-782"
    },
    {
        "city": "Timon",
        "state": "MA",
        "district": "Cidade Nova",
        "street": "Rua Vila Nova",
        "zipcode": "65633-785"
    },
    {
        "city": "Timon",
        "state": "MA",
        "district": "Cidade Nova",
        "street": "Rua I",
        "zipcode": "65633-788"
    },
    {
        "city": "Timon",
        "state": "MA",
        "district": "Planalto Formosa",
        "street": "Rua Onze",
        "zipcode": "65634-025"
    },
    {
        "city": "Timon",
        "state": "MA",
        "district": "Marimar",
        "street": "Rua Um",
        "zipcode": "65637-010"
    },
    {
        "city": "Timon",
        "state": "MA",
        "district": "Marimar",
        "street": "Rua Dois",
        "zipcode": "65637-020"
    },
    {
        "city": "Timon",
        "state": "MA",
        "district": "Marimar",
        "street": "Rua Quatro",
        "zipcode": "65637-040"
    },
    {
        "city": "Timon",
        "state": "MA",
        "district": "Marimar",
        "street": "Rua Cinco",
        "zipcode": "65637-050"
    },
    {
        "city": "Timon",
        "state": "MA",
        "district": "Guarita",
        "street": "Rua Doutor João Lula",
        "zipcode": "65636-715"
    },
    {
        "city": "Timon",
        "state": "MA",
        "district": "Parque Piauí",
        "street": "Rua Sebastião Saraiva",
        "zipcode": "65631-105"
    },
    {
        "city": "Timon",
        "state": "MA",
        "district": "Área Rural de Timon",
        "street": "Área Rural",
        "zipcode": "65638-899"
    },
    {
        "city": "Timon",
        "state": "MA",
        "district": "São Benedito",
        "street": "Rua Dezessete",
        "zipcode": "65636-365"
    },
    {
        "city": "Timon",
        "state": "MA",
        "district": "Parque Piauí",
        "street": "Rua Dezenove",
        "zipcode": "65631-075"
    },
    {
        "city": "Timon",
        "state": "MA",
        "district": "Parque Piauí",
        "street": "Rua Desembargador João Manoel",
        "zipcode": "65631-065"
    },
    {
        "city": "Timon",
        "state": "MA",
        "district": "São Francisco II",
        "street": "Rua Manoel Viana Vaz",
        "zipcode": "65638-067"
    },
    {
        "city": "Timon",
        "state": "MA",
        "district": "São Francisco II",
        "street": "Rua Sebastião Saraiva",
        "zipcode": "65638-000"
    },
    {
        "city": "Timon",
        "state": "MA",
        "district": "Flores",
        "street": "Rua Firmino Gonçalves Pedreira",
        "zipcode": "65636-570"
    },
    {
        "city": "Timon",
        "state": "MA",
        "district": "Mateuzinho",
        "street": "Rua Duque de Caxias",
        "zipcode": "65630-615"
    },
    {
        "city": "Timon",
        "state": "MA",
        "district": "São Benedito",
        "street": "Rua José Inácio da Silva Filho",
        "zipcode": "65636-245"
    },
    {
        "city": "Timon",
        "state": "MA",
        "district": "Cidade Industrial Norte",
        "street": "Avenida A",
        "zipcode": "65638-800"
    },
    {
        "city": "Timon",
        "state": "MA",
        "district": "São Marcos",
        "street": "Rua Antônio Nunes",
        "zipcode": "65634-175"
    },
    {
        "city": "Timon",
        "state": "MA",
        "district": "Boa Vista",
        "street": "Praça da Rodoriária",
        "zipcode": "65631-345"
    },
    {
        "city": "Timon",
        "state": "MA",
        "district": "São Benedito",
        "street": "Rua Dezenove",
        "zipcode": "65636-275"
    },
    {
        "city": "Timon",
        "state": "MA",
        "district": "Parque Aliança",
        "street": "Rua Dezoito",
        "zipcode": "65634-215"
    },
    {
        "city": "Timon",
        "state": "MA",
        "district": "Mateuzinho",
        "street": "Rua Quatro",
        "zipcode": "65630-633"
    },
    {
        "city": "Timon",
        "state": "MA",
        "district": "Cidade Industrial Norte",
        "street": "Avenida D",
        "zipcode": "65638-815"
    },
    {
        "city": "Timon",
        "state": "MA",
        "district": "Marimar",
        "street": "Rua Sete",
        "zipcode": "65637-070"
    },
    {
        "city": "Timon",
        "state": "MA",
        "district": "Jóia",
        "street": "Rua C",
        "zipcode": "65632-315"
    },
    {
        "city": "Timon",
        "state": "MA",
        "district": "São Francisco II",
        "street": "Beco Vinte e Três",
        "zipcode": "65638-235"
    },
    {
        "city": "Timon",
        "state": "MA",
        "district": "São Francisco II",
        "street": "Beco Vinte e Cinco",
        "zipcode": "65638-245"
    },
    {
        "city": "Timon",
        "state": "MA",
        "district": "Planalto Boa Esperança",
        "street": "Rua Vinte e Dois",
        "zipcode": "65632-445"
    },
    {
        "city": "Timon",
        "state": "MA",
        "district": "Planalto Boa Esperança",
        "street": "Rua Vinte e Três",
        "zipcode": "65632-450"
    },
    {
        "city": "Timon",
        "state": "MA",
        "district": "Sete Estrelas",
        "street": "Rua D",
        "zipcode": "65632-610"
    },
    {
        "city": "Timon",
        "state": "MA",
        "district": "Sete Estrelas",
        "street": "Rua Cinco",
        "zipcode": "65632-655"
    },
    {
        "city": "Timon",
        "state": "MA",
        "district": "Parque Piauí",
        "street": "Rua Tenente Antonio Correia da Silva",
        "zipcode": "65636-487"
    },
    {
        "city": "Timon",
        "state": "MA",
        "district": "São Benedito",
        "street": "Rua Treze",
        "zipcode": "65636-215"
    },
    {
        "city": "Timon",
        "state": "MA",
        "district": "São Benedito",
        "street": "Rua Vicente Juvêncio de Paula",
        "zipcode": "65636-208"
    },
    {
        "city": "Timon",
        "state": "MA",
        "district": "Glória",
        "street": "Rodovia BR",
        "zipcode": "65632-150"
    },
    {
        "city": "Timon",
        "state": "MA",
        "district": "Parque Piauí",
        "street": "Rua Maria Carlos da Silva",
        "zipcode": "65631-125"
    },
    {
        "city": "Timon",
        "state": "MA",
        "district": "São Marcos",
        "street": "Rua Porfiro Gomes da Costa",
        "zipcode": "65634-205"
    },
    {
        "city": "Timon",
        "state": "MA",
        "district": "Planalto Formosa",
        "street": "Rua Abinoan Osório",
        "zipcode": "65634-145"
    },
    {
        "city": "Timon",
        "state": "MA",
        "district": "Santo Antônio",
        "street": "Praça Santo Antônio",
        "zipcode": "65630-235"
    },
    {
        "city": "Timon",
        "state": "MA",
        "district": "Guarita",
        "street": "Avenida Francisco Carlos Jansen",
        "zipcode": "65636-696"
    },
    {
        "city": "Timon",
        "state": "MA",
        "district": "Parque Piauí",
        "street": "Rua Vicente Juvêncio de Paula",
        "zipcode": "65631-115"
    },
    {
        "city": "Timon",
        "state": "MA",
        "district": "Guarita",
        "street": "Avenida São Luís",
        "zipcode": "65636-698"
    },
    {
        "city": "Timon",
        "state": "MA",
        "district": "Marimar",
        "street": "Rua Oito",
        "zipcode": "65637-075"
    },
    {
        "city": "Timon",
        "state": "MA",
        "district": "Cidade Nova",
        "street": "Conjunto Luciano Leitoa",
        "zipcode": "65633-806"
    },
    {
        "city": "Timon",
        "state": "MA",
        "district": "Jóia",
        "street": "Rodovia BR",
        "zipcode": "65632-305"
    },
    {
        "city": "Timon",
        "state": "MA",
        "district": "São Francisco II",
        "street": "Rua Filimena Maria de Lima Costa",
        "zipcode": "65638-065"
    },
    {
        "city": "Timon",
        "state": "MA",
        "district": "São Benedito",
        "street": "Avenida Francisco Vitorino de Assunção",
        "zipcode": "65636-255"
    },
    {
        "city": "Timon",
        "state": "MA",
        "district": "Mateuzinho",
        "street": "Rua Odilo Costa",
        "zipcode": "65630-635"
    },
    {
        "city": "Timon",
        "state": "MA",
        "district": "São Benedito",
        "street": "Rua Quinze",
        "zipcode": "65636-235"
    },
    {
        "city": "Timon",
        "state": "MA",
        "district": "Cidade Industrial Norte",
        "street": "Avenida B",
        "zipcode": "65638-805"
    },
    {
        "city": "Timon",
        "state": "MA",
        "district": "Santo Antônio",
        "street": "Praça Miguel Lima",
        "zipcode": "65630-275"
    },
    {
        "city": "Timon",
        "state": "MA",
        "district": "Bela Vista",
        "street": "Beco Vinte e Quatro",
        "zipcode": "65637-582"
    },
    {
        "city": "Timon",
        "state": "MA",
        "district": "Vila Angélica",
        "street": "Rua Anastácio de Sousa",
        "zipcode": "65634-346"
    },
    {
        "city": "Timon",
        "state": "MA",
        "district": "Flores",
        "street": "Rua Jorge Luiz Alves Júnior",
        "zipcode": "65636-556"
    },
    {
        "city": "Timon",
        "state": "MA",
        "district": "Cajueiro",
        "street": "Avenida Benedito Ferreira Campos",
        "zipcode": "65630-480"
    },
    {
        "city": "Timon",
        "state": "MA",
        "district": "Cidade Nova",
        "street": "Rua Vinte e Dois",
        "zipcode": "65633-656"
    },
    {
        "city": "Timon",
        "state": "MA",
        "district": "Pedro Patrício",
        "street": "Rua Três",
        "zipcode": "65634-398"
    },
    {
        "city": "Timon",
        "state": "MA",
        "district": "Glória",
        "street": "Avenida Dois",
        "zipcode": "65632-172"
    },
    {
        "city": "Timon",
        "state": "MA",
        "district": "Vila Bandeirante",
        "street": "Avenida Benedito Ferreira Campos",
        "zipcode": "65635-400"
    },
    {
        "city": "Timon",
        "state": "MA",
        "district": "Mutirão",
        "street": "Rua São José",
        "zipcode": "65635-812"
    },
    {
        "city": "Timon",
        "state": "MA",
        "district": "São Francisco II",
        "street": "Quadra E (Cj Res Palestina)",
        "zipcode": "65638-434"
    },
    {
        "city": "Timon",
        "state": "MA",
        "district": "São Francisco II",
        "street": "Quadra I (Cj Res Palestina)",
        "zipcode": "65638-438"
    },
    {
        "city": "Timon",
        "state": "MA",
        "district": "Parque Piauí",
        "street": "Rua Filomena Martins Nazareno Bringel",
        "zipcode": "65636-900"
    },
    {
        "city": "Timon",
        "state": "MA",
        "district": "São Benedito",
        "street": "Rua Antônio Rodrigues Machado",
        "zipcode": "65636-250"
    },
    {
        "city": "Timon",
        "state": "MA",
        "district": "Parque Alvorada",
        "street": "Rua Domingos Francisco de Sousa",
        "zipcode": "65633-110"
    },
    {
        "city": "Timon",
        "state": "MA",
        "district": "Centro",
        "street": "Rua José Simões Pedreira",
        "zipcode": "65630-360"
    },
    {
        "city": "Timon",
        "state": "MA",
        "district": "Boa Vista",
        "street": "Rua Marcos Batista da Silva",
        "zipcode": "65631-340"
    },
    {
        "city": "Timon",
        "state": "MA",
        "district": "Parque Piauí",
        "street": "Avenida Teresina",
        "zipcode": "65631-200"
    },
    {
        "city": "Timon",
        "state": "MA",
        "district": "Flores",
        "street": "Rua Jamil de Miranda Gedeon",
        "zipcode": "65636-575"
    },
    {
        "city": "Timon",
        "state": "MA",
        "district": "Novo Parque Uniao",
        "street": "Loteamento Novo Parque Uniao",
        "zipcode": "65636-700"
    },
    {
        "city": "Timon",
        "state": "MA",
        "district": "Formosa",
        "street": "Rua José Constâncio",
        "zipcode": "65632-010"
    },
    {
        "city": "Timon",
        "state": "MA",
        "district": "Guarita",
        "street": "Rua Ananias Carvalho Chaves",
        "zipcode": "65636-711"
    },
    {
        "city": "Timon",
        "state": "MA",
        "district": "São Benedito",
        "street": "Praça da Secretaria de Saúde",
        "zipcode": "65636-205"
    },
    {
        "city": "Timon",
        "state": "MA",
        "district": "São Francisco II",
        "street": "Rua Vicente Juvêncio de Paula",
        "zipcode": "65638-002"
    },
    {
        "city": "Timon",
        "state": "MA",
        "district": "Formosa",
        "street": "Avenida Presidente Médici",
        "zipcode": "65636-040"
    },
    {
        "city": "Timon",
        "state": "MA",
        "district": "Mateuzinho",
        "street": "Rua Manoel Marinho de Meneses",
        "zipcode": "65630-638"
    },
    {
        "city": "Timon",
        "state": "MA",
        "district": "Parque Aliança",
        "street": "Quadra 12 (Cj Res Primavera)",
        "zipcode": "65634-332"
    },
    {
        "city": "Timon",
        "state": "MA",
        "district": "Cidade Industrial Norte",
        "street": "Avenida E",
        "zipcode": "65638-820"
    },
    {
        "city": "Timon",
        "state": "MA",
        "district": "Parque Piauí",
        "street": "Rua Quinze",
        "zipcode": "65631-095"
    },
    {
        "city": "Timon",
        "state": "MA",
        "district": "São Marcos",
        "street": "Rua Vicente Juvêncio de Paula",
        "zipcode": "65634-209"
    },
    {
        "city": "Timon",
        "state": "MA",
        "district": "Parque Aliança",
        "street": "Quadra 06 (Cj Res Primavera)",
        "zipcode": "65634-324"
    }
]