[
    {
        "city": "Almirante Tamandare",
        "state": "PR",
        "district": "Jardim Santa Rita De Cassia",
        "street": "Rua Quatro",
        "zipcode": "83506-420"
    },
    {
        "city": "Almirante Tamandare",
        "state": "PR",
        "district": "Jardim Josiane",
        "street": "Rua Tres",
        "zipcode": "83504-340"
    },
    {
        "city": "Almirante Tamandare",
        "state": "PR",
        "district": "Jardim Gerhusa",
        "street": "Rua Onze",
        "zipcode": "83512-180"
    },
    {
        "city": "Almirante Tamandare",
        "state": "PR",
        "district": "Jardim Silvana",
        "street": "Rua Treze",
        "zipcode": "83512-240"
    },
    {
        "city": "Almirante Tamandare",
        "state": "PR",
        "district": "Jardim Monte Santo",
        "street": "Rua Antonio Johnson",
        "zipcode": "83501-460"
    },
    {
        "city": "Almirante Tamandare",
        "state": "PR",
        "district": "Jardim Apucarana",
        "street": "Rua Timbo",
        "zipcode": "83505-070"
    },
    {
        "city": "Almirante Tamandare",
        "state": "PR",
        "district": "Jardim Iracema",
        "street": "Rua Raposo Tavares",
        "zipcode": "83508-050"
    },
    {
        "city": "Almirante Tamandare",
        "state": "PR",
        "district": "Vila Cachoeira",
        "street": "Rua Alfredo A. Muller",
        "zipcode": "83504-610"
    },
    {
        "city": "Almirante Tamandare",
        "state": "PR",
        "district": "Jardim Bela Vista",
        "street": "Rua Quatro",
        "zipcode": "83513-210"
    },
    {
        "city": "Almirante Tamandare",
        "state": "PR",
        "district": "Vila Graziela",
        "street": "Rua Israel",
        "zipcode": "83505-340"
    },
    {
        "city": "Almirante Tamandare",
        "state": "PR",
        "district": "Jardim Roma",
        "street": "Rua Setenta",
        "zipcode": "83504-280"
    },
    {
        "city": "Almirante Tamandare",
        "state": "PR",
        "district": "Planta Almirante",
        "street": "Avenida Sao Joao",
        "zipcode": "83508-390"
    },
    {
        "city": "Almirante Tamandare",
        "state": "PR",
        "district": "Jardim Alvorada",
        "street": "Rua Quatro",
        "zipcode": "83505-210"
    },
    {
        "city": "Almirante Tamandare",
        "state": "PR",
        "district": "Vila Sao Pedro",
        "street": "Rua Prof. Alberto Piekas",
        "zipcode": "83505-050"
    },
    {
        "city": "Almirante Tamandare",
        "state": "PR",
        "district": "Jardim Buenos Aires",
        "street": "Rua Joaquim Nabuco",
        "zipcode": "83511-160"
    },
    {
        "city": "Almirante Tamandare",
        "state": "PR",
        "district": "Jardim Buenos Aires",
        "street": "Rua Marechal Deodoro Da Fonseca",
        "zipcode": "83511-200"
    },
    {
        "city": "Almirante Tamandare",
        "state": "PR",
        "district": "Vila Grecia",
        "street": "Rua Tres",
        "zipcode": "83502-425"
    },
    {
        "city": "Almirante Tamandare",
        "state": "PR",
        "district": "Jardim Buenos Aires",
        "street": "Rua Cristovao Colombo",
        "zipcode": "83511-170"
    },
    {
        "city": "Almirante Tamandare",
        "state": "PR",
        "district": "Jardim Buenos Aires",
        "street": "Rua Marechal Floriano Peixoto",
        "zipcode": "83511-180"
    },
    {
        "city": "Almirante Tamandare",
        "state": "PR",
        "district": "Vila Dolores",
        "street": "Rua Solano Lopes",
        "zipcode": "83514-280"
    },
    {
        "city": "Almirante Tamandare",
        "state": "PR",
        "district": "Loteamento Recanto Dos Papagaios",
        "street": "Rua Dois",
        "zipcode": "83512-230"
    },
    {
        "city": "Almirante Tamandare",
        "state": "PR",
        "district": "Jardim Buenos Aires",
        "street": "Rua Visconde De Maua",
        "zipcode": "83511-190"
    },
    {
        "city": "Almirante Tamandare",
        "state": "PR",
        "district": "Planta Bela Vista",
        "street": "Rua Dois",
        "zipcode": "83514-340"
    },
    {
        "city": "Almirante Tamandare",
        "state": "PR",
        "district": "Vila Tangua",
        "street": "Rua Das Laranjeiras",
        "zipcode": "83508-490"
    },
    {
        "city": "Almirante Tamandare",
        "state": "PR",
        "district": "Jardim Gerhusa",
        "street": "Rua Sete",
        "zipcode": "83502-230"
    },
    {
        "city": "Almirante Tamandare",
        "state": "PR",
        "district": "Planta Schultz",
        "street": "Travessa Schultz",
        "zipcode": "83504-590"
    }
]