[
    {
        "city": "Antonina",
        "state": "PR",
        "district": "Centro",
        "street": "Rua Quinze de Novembro 191",
        "zipcode": "83370-970"
    },
    {
        "city": "Antonina",
        "state": "PR",
        "district": null,
        "street": "Rua Escoteiro Milton Oribe",
        "zipcode": "83370-991"
    },
    {
        "city": "Antonina",
        "state": "PR",
        "district": "",
        "street": "",
        "zipcode": "83370-000"
    },
    {
        "city": "Antonina",
        "state": "PR",
        "district": null,
        "street": "Rua da Prainha",
        "zipcode": "83370-990"
    },
    {
        "city": "Antonina",
        "state": "PR",
        "district": null,
        "street": "Rua Principal",
        "zipcode": "83375-990"
    },
    {
        "city": "Antonina",
        "state": "PR",
        "district": "Ponta da Pita",
        "street": "Rua Principal",
        "zipcode": "83370-972"
    },
    {
        "city": "Antonina",
        "state": "PR",
        "district": "Rio do Cedro",
        "street": "Rua Principal",
        "zipcode": "83380-972"
    },
    {
        "city": "Antonina",
        "state": "PR",
        "district": null,
        "street": "Rua Zung Suischen",
        "zipcode": "83370-993"
    },
    {
        "city": "Antonina",
        "state": "PR",
        "district": "Bairro Alto",
        "street": "Rua Principal",
        "zipcode": "83380-971"
    },
    {
        "city": "Antonina",
        "state": "PR",
        "district": null,
        "street": "Rua Principal",
        "zipcode": "83380-990"
    },
    {
        "city": "Antonina",
        "state": "PR",
        "district": "Barigui",
        "street": "Rua Principal",
        "zipcode": "83370-971"
    }
]