[
    {
        "city": "Antônio Olinto",
        "state": "PR",
        "district": "Centro",
        "street": "Rua Edgar Train Schafauser",
        "zipcode": "83980-970"
    },
    {
        "city": "Antônio Olinto",
        "state": "PR",
        "district": "",
        "street": "",
        "zipcode": "83980-000"
    },
    {
        "city": "Antônio Olinto",
        "state": "PR",
        "district": "Centro",
        "street": "Rua Principal",
        "zipcode": "83980-977"
    },
    {
        "city": "Antônio Olinto",
        "state": "PR",
        "district": "Água Amarela de Cima",
        "street": "Rua Principal",
        "zipcode": "83980-973"
    },
    {
        "city": "Antônio Olinto",
        "state": "PR",
        "district": "Água Amarela de Baixo",
        "street": "Rua Principal",
        "zipcode": "83980-972"
    },
    {
        "city": "Antônio Olinto",
        "state": "PR",
        "district": "Butiá",
        "street": "Rua Principal",
        "zipcode": "83980-971"
    },
    {
        "city": "Antônio Olinto",
        "state": "PR",
        "district": "Lavador",
        "street": "Rua Principal",
        "zipcode": "83980-976"
    },
    {
        "city": "Antônio Olinto",
        "state": "PR",
        "district": "Lagoa da Cruz",
        "street": "Rua Principal",
        "zipcode": "83980-974"
    },
    {
        "city": "Antônio Olinto",
        "state": "PR",
        "district": "Imbuial",
        "street": "Rua Principal",
        "zipcode": "83980-975"
    }
]