[
    {
        "city": "Araucaria",
        "state": "PR",
        "district": "Fazenda Velha",
        "street": "Rua Arcione Cantador Grabowski",
        "zipcode": "83704-720"
    },
    {
        "city": "Araucaria",
        "state": "PR",
        "district": "Barigui",
        "street": "Rua Targino Silva",
        "zipcode": "83704-710"
    },
    {
        "city": "Araucaria",
        "state": "PR",
        "district": "Boqueirao",
        "street": "Rua Cesar Hasselmann",
        "zipcode": "83704-360"
    },
    {
        "city": "Araucaria",
        "state": "PR",
        "district": "Estacao",
        "street": "Rua Estanislau Lesniowski",
        "zipcode": "83705-780"
    },
    {
        "city": "Araucaria",
        "state": "PR",
        "district": "Estacao",
        "street": "Rua Dr Vital Brasil",
        "zipcode": "83705-720"
    },
    {
        "city": "Araucaria",
        "state": "PR",
        "district": "Porto Das Laranjeiras",
        "street": "Rua Alberto Karas",
        "zipcode": "83703-120"
    },
    {
        "city": "Araucaria",
        "state": "PR",
        "district": "Estacao",
        "street": "Rua Pedro Nolasco Pizatto",
        "zipcode": "83705-690"
    },
    {
        "city": "Araucaria",
        "state": "PR",
        "district": "Iguacu",
        "street": "Rua Itarare",
        "zipcode": "83701-490"
    },
    {
        "city": "Araucaria",
        "state": "PR",
        "district": "Estacao",
        "street": "Rua Francisca Andrade De Souza",
        "zipcode": "83705-710"
    },
    {
        "city": "Araucaria",
        "state": "PR",
        "district": "Estacao",
        "street": "Rua Escolastica Brunato Pisca",
        "zipcode": "83705-775"
    },
    {
        "city": "Araucaria",
        "state": "PR",
        "district": "Estacao",
        "street": "Rua Jeronin Durski",
        "zipcode": "83705-700"
    },
    {
        "city": "Araucaria",
        "state": "PR",
        "district": "Iguacu",
        "street": "Rua Piquiri",
        "zipcode": "83701-470"
    },
    {
        "city": "Araucaria",
        "state": "PR",
        "district": "Porto Das Laranjeiras",
        "street": "Rua Edmundo Ferreira",
        "zipcode": "83703-130"
    },
    {
        "city": "Araucaria",
        "state": "PR",
        "district": "Estacao",
        "street": "Rua Gabriel Cantele",
        "zipcode": "83705-750"
    },
    {
        "city": "Araucaria",
        "state": "PR",
        "district": "Centro",
        "street": "Praça Sao Vicente De Paulo",
        "zipcode": "83705-785"
    },
    {
        "city": "Araucaria",
        "state": "PR",
        "district": "Estacao",
        "street": "Rua Josefa Resner",
        "zipcode": "83705-760"
    },
    {
        "city": "Araucaria",
        "state": "PR",
        "district": "Centro",
        "street": "Rua Manoel Ribas",
        "zipcode": "83702-030"
    },
    {
        "city": "Araucaria",
        "state": "PR",
        "district": "Iguacu",
        "street": "Rua Rio De Janeiro",
        "zipcode": "83701-180"
    },
    {
        "city": "Araucaria",
        "state": "PR",
        "district": "Estacao",
        "street": "Rodovia Br",
        "zipcode": "83705-740"
    },
    {
        "city": "Araucaria",
        "state": "PR",
        "district": "Iguacu",
        "street": "Rua Espirito Santo",
        "zipcode": "83701-200"
    },
    {
        "city": "Araucaria",
        "state": "PR",
        "district": "Vila Nova",
        "street": "Rua Maria Prosdocimo Franceschi",
        "zipcode": "83703-180"
    },
    {
        "city": "Araucaria",
        "state": "PR",
        "district": "Iguacu",
        "street": "Rua Tibagi",
        "zipcode": "83701-480"
    },
    {
        "city": "Araucaria",
        "state": "PR",
        "district": "Iguacu",
        "street": "Rua Ceara",
        "zipcode": "83701-400"
    },
    {
        "city": "Araucaria",
        "state": "PR",
        "district": "Boqueirao",
        "street": "Rua Nicolau Merhy",
        "zipcode": "83704-380"
    },
    {
        "city": "Araucaria",
        "state": "PR",
        "district": "Centro",
        "street": "Avenida Archelau De Almeida Torres",
        "zipcode": "83702-180"
    },
    {
        "city": "Araucaria",
        "state": "PR",
        "district": "Capela Velha",
        "street": "Rua Jose Maria Dos Anjos",
        "zipcode": "83705-795"
    },
    {
        "city": "Araucaria",
        "state": "PR",
        "district": "Boqueirao",
        "street": "Rua Luiz Armando Ohpis",
        "zipcode": "83704-680"
    },
    {
        "city": "Araucaria",
        "state": "PR",
        "district": "Porto Das Laranjeiras",
        "street": "Rua Francisco Dranka",
        "zipcode": "83703-110"
    },
    {
        "city": "Araucaria",
        "state": "PR",
        "district": "Fazenda Velha",
        "street": "Rodovia Br",
        "zipcode": "83703-470"
    },
    {
        "city": "Araucaria",
        "state": "PR",
        "district": "Estacao",
        "street": "Praça Joao Skraba",
        "zipcode": "83705-765"
    },
    {
        "city": "Araucaria",
        "state": "PR",
        "district": "Barigui",
        "street": "Rua Pedro Rudi",
        "zipcode": "83707-710"
    },
    {
        "city": "Araucaria",
        "state": "PR",
        "district": "Campina Da Barra",
        "street": "Rua Nenufar",
        "zipcode": "83709-010"
    },
    {
        "city": "Araucaria",
        "state": "PR",
        "district": "Vila Nova",
        "street": "Rua Lincoln Setembrino Coimbra",
        "zipcode": "83703-210"
    },
    {
        "city": "Araucaria",
        "state": "PR",
        "district": "Costeira",
        "street": "Rua Wanda Sekne",
        "zipcode": "83708-726"
    },
    {
        "city": "Araucaria",
        "state": "PR",
        "district": "Boqueirao",
        "street": "Rua Joao Domingues",
        "zipcode": "83703-480"
    },
    {
        "city": "Araucaria",
        "state": "PR",
        "district": "Estacao",
        "street": "Avenida Das Nacoes",
        "zipcode": "83705-110"
    },
    {
        "city": "Araucaria",
        "state": "PR",
        "district": "Thomaz Coelho",
        "street": "Rua Luiz Wachowicz",
        "zipcode": "83706-620"
    },
    {
        "city": "Araucaria",
        "state": "PR",
        "district": "Capela Velha",
        "street": "Rua Celio Jose Franceschi",
        "zipcode": "83706-700"
    },
    {
        "city": "Araucaria",
        "state": "PR",
        "district": "Estacao",
        "street": "Rua Curio",
        "zipcode": "83705-560"
    },
    {
        "city": "Araucaria",
        "state": "PR",
        "district": "Vila Nova",
        "street": "Rua Edmundo Kampa",
        "zipcode": "83703-220"
    },
    {
        "city": "Araucaria",
        "state": "PR",
        "district": "Thomaz Coelho",
        "street": "Rua Das Araucarias",
        "zipcode": "83707-000"
    },
    {
        "city": "Araucaria",
        "state": "PR",
        "district": "Tindiquera",
        "street": "Rua Izidoro Klichovicz",
        "zipcode": "83708-110"
    },
    {
        "city": "Araucaria",
        "state": "PR",
        "district": "Boqueirao",
        "street": "Rua Antonio Fila",
        "zipcode": "83704-155"
    },
    {
        "city": "Araucaria",
        "state": "PR",
        "district": "Vila Nova",
        "street": "Rua Prof. Joao Chorosnicki",
        "zipcode": "83703-190"
    },
    {
        "city": "Araucaria",
        "state": "PR",
        "district": "Thomaz Coelho",
        "street": "Rua Jose Marques",
        "zipcode": "83706-590"
    },
    {
        "city": "Araucaria",
        "state": "PR",
        "district": "Fazenda Velha",
        "street": "Rua Badia Nacif Merhy",
        "zipcode": "83703-430"
    },
    {
        "city": "Araucaria",
        "state": "PR",
        "district": "Sao Miguel",
        "street": "Rua Sao Miguel",
        "zipcode": "83707-715"
    },
    {
        "city": "Araucaria",
        "state": "PR",
        "district": "Campina Da Barra",
        "street": "Rua Francisco Wengynski",
        "zipcode": "83709-758"
    },
    {
        "city": "Araucaria",
        "state": "PR",
        "district": "Campina Da Barra",
        "street": "Rua Isidoro Burkoski",
        "zipcode": "83709-756"
    },
    {
        "city": "Araucaria",
        "state": "PR",
        "district": "Vila Nova",
        "street": "Rua Alfredo Charviet",
        "zipcode": "83703-230"
    },
    {
        "city": "Araucaria",
        "state": "PR",
        "district": "Costeira",
        "street": "Rua Miguel Aloisio Choinski",
        "zipcode": "83708-727"
    },
    {
        "city": "Araucaria",
        "state": "PR",
        "district": "Boqueirao",
        "street": "Rua Arthur Kicote",
        "zipcode": "83704-660"
    },
    {
        "city": "Araucaria",
        "state": "PR",
        "district": "Boqueirao",
        "street": "Rua Maria Edith De Franca Trauczynski",
        "zipcode": "83704-730"
    },
    {
        "city": "Araucaria",
        "state": "PR",
        "district": "Boqueirao",
        "street": "Rua Paulino Jose Da Motta",
        "zipcode": "83704-600"
    },
    {
        "city": "Araucaria",
        "state": "PR",
        "district": "Estacao",
        "street": "Avenida Das Nacoes",
        "zipcode": "83706-630"
    },
    {
        "city": "Araucaria",
        "state": "PR",
        "district": "Sao Miguel",
        "street": "Rua Miguel Jaraminski",
        "zipcode": "83706-645"
    },
    {
        "city": "Araucaria",
        "state": "PR",
        "district": "Chapada",
        "street": "Rua Edson Queiroz",
        "zipcode": "83707-730"
    },
    {
        "city": "Araucaria",
        "state": "PR",
        "district": "Thomaz Coelho",
        "street": "Rua Francisco Galarda",
        "zipcode": "83706-540"
    },
    {
        "city": "Araucaria",
        "state": "PR",
        "district": "Costeira",
        "street": "Rua Joao Maria Dos Santos",
        "zipcode": "83708-735"
    },
    {
        "city": "Araucaria",
        "state": "PR",
        "district": "Capela Velha",
        "street": "Rua Dr Valerio Sobania",
        "zipcode": "83706-530"
    },
    {
        "city": "Araucaria",
        "state": "PR",
        "district": "Thomaz Coelho",
        "street": "Rua Jose Leal De Oliveira",
        "zipcode": "83706-580"
    },
    {
        "city": "Araucaria",
        "state": "PR",
        "district": "Thomaz Coelho",
        "street": "Rua Francisco Knopik",
        "zipcode": "83706-550"
    },
    {
        "city": "Araucaria",
        "state": "PR",
        "district": "Thomaz Coelho",
        "street": "Rua Joao Waleski",
        "zipcode": "83707-705"
    },
    {
        "city": "Araucaria",
        "state": "PR",
        "district": "Campina Da Barra",
        "street": "Rua Trombetas",
        "zipcode": "83709-350"
    },
    {
        "city": "Araucaria",
        "state": "PR",
        "district": "Thomaz Coelho",
        "street": "Rua Monsenhor Jose Nock",
        "zipcode": "83706-570"
    },
    {
        "city": "Araucaria",
        "state": "PR",
        "district": "Boqueirao",
        "street": "Rua Boles Tonchak",
        "zipcode": "83704-120"
    },
    {
        "city": "Araucaria",
        "state": "PR",
        "district": "Thomaz Coelho",
        "street": "Rua Luiz Franceschi",
        "zipcode": "83707-070"
    },
    {
        "city": "Araucaria",
        "state": "PR",
        "district": "Thomaz Coelho",
        "street": "Rua Felix Tamplim",
        "zipcode": "83706-610"
    },
    {
        "city": "Araucaria",
        "state": "PR",
        "district": "Boqueirao",
        "street": "Avenida Independencia",
        "zipcode": "83704-000"
    },
    {
        "city": "Araucaria",
        "state": "PR",
        "district": "Capela Velha",
        "street": "Rua Martins Deda",
        "zipcode": "83706-080"
    },
    {
        "city": "Araucaria",
        "state": "PR",
        "district": "Campina Da Barra",
        "street": "Avenida Da Natureza",
        "zipcode": "83709-780"
    },
    {
        "city": "Araucaria",
        "state": "PR",
        "district": "Boqueirao",
        "street": "Rua Joao Tulio",
        "zipcode": "83704-370"
    },
    {
        "city": "Araucaria",
        "state": "PR",
        "district": "Boqueirao",
        "street": "Rua Tenente Jose Jeronimo Batista",
        "zipcode": "83704-695"
    },
    {
        "city": "Araucaria",
        "state": "PR",
        "district": "Costeira",
        "street": "Rua Bernardo Lemos",
        "zipcode": "83708-725"
    },
    {
        "city": "Araucaria",
        "state": "PR",
        "district": "Campina Da Barra",
        "street": "Rua Antonio Machnievicz",
        "zipcode": "83709-757"
    },
    {
        "city": "Araucaria",
        "state": "PR",
        "district": "Boqueirao",
        "street": "Rua Olga Cantador Incot",
        "zipcode": "83704-700"
    },
    {
        "city": "Araucaria",
        "state": "PR",
        "district": "Estacao",
        "street": "Rua Jose Butkoski",
        "zipcode": "83705-200"
    },
    {
        "city": "Araucaria",
        "state": "PR",
        "district": "Costeira",
        "street": "Rua Manoel Torquato Da Rocha Reis",
        "zipcode": "83708-810"
    },
    {
        "city": "Araucaria",
        "state": "PR",
        "district": "Tindiquera",
        "street": "Rua Marcelino Jasinski",
        "zipcode": "83708-130"
    },
    {
        "city": "Araucaria",
        "state": "PR",
        "district": "Barigui",
        "street": "Avenida Centenario",
        "zipcode": "83707-610"
    },
    {
        "city": "Araucaria",
        "state": "PR",
        "district": "Sao Miguel",
        "street": "Rua Padre Boleslau Bayer",
        "zipcode": "83706-640"
    },
    {
        "city": "Araucaria",
        "state": "PR",
        "district": "Boqueirao",
        "street": "Rua Pedro Jess",
        "zipcode": "83704-610"
    },
    {
        "city": "Araucaria",
        "state": "PR",
        "district": "Vila Nova",
        "street": "Rua Pedro Czarneski",
        "zipcode": "83703-450"
    },
    {
        "city": "Araucaria",
        "state": "PR",
        "district": "Campina Da Barra",
        "street": "Rua Presidente Costa E Silva",
        "zipcode": "83709-760"
    },
    {
        "city": "Araucaria",
        "state": "PR",
        "district": "Thomaz Coelho",
        "street": "Rua Sebastiao Rodrigues De Souza",
        "zipcode": "83706-600"
    },
    {
        "city": "Araucaria",
        "state": "PR",
        "district": "Iguacu",
        "street": "Rua Maria Kaminski Moll",
        "zipcode": "83701-230"
    },
    {
        "city": "Araucaria",
        "state": "PR",
        "district": "Sabia",
        "street": "Rua Papa Joao Xxiii",
        "zipcode": "83708-800"
    },
    {
        "city": "Araucaria",
        "state": "PR",
        "district": "Chapada",
        "street": "Rua Dr Eli Volpato",
        "zipcode": "83707-720"
    },
    {
        "city": "Araucaria",
        "state": "PR",
        "district": "Chapada",
        "street": "Rua Jorge Tieto Iwasa",
        "zipcode": "83706-670"
    },
    {
        "city": "Araucaria",
        "state": "PR",
        "district": "Iguacu",
        "street": "Rua Barigui",
        "zipcode": "83701-530"
    },
    {
        "city": "Araucaria",
        "state": "PR",
        "district": "Vila Nova",
        "street": "Rua Atilio Benevenuto Furlan",
        "zipcode": "83703-200"
    },
    {
        "city": "Araucaria",
        "state": "PR",
        "district": "Estacao",
        "street": "Rua Coudelaria De Tindiquera",
        "zipcode": "83705-790"
    },
    {
        "city": "Araucaria",
        "state": "PR",
        "district": "Iguacu",
        "street": "Avenida Archelau De Almeida Torres",
        "zipcode": "83701-000"
    },
    {
        "city": "Araucaria",
        "state": "PR",
        "district": "Chapada",
        "street": "Rua Cesario Furman",
        "zipcode": "83705-810"
    },
    {
        "city": "Araucaria",
        "state": "PR",
        "district": "Tindiquera",
        "street": "Rua Manoel Ribas",
        "zipcode": "83708-350"
    },
    {
        "city": "Araucaria",
        "state": "PR",
        "district": "Vila Nova",
        "street": "Rua Felix Klechovicz",
        "zipcode": "83703-460"
    },
    {
        "city": "Araucaria",
        "state": "PR",
        "district": "Estacao",
        "street": "Rua Luiz Brunatto",
        "zipcode": "83705-800"
    },
    {
        "city": "Araucaria",
        "state": "PR",
        "district": "Boqueirao",
        "street": "Rua Marie Roxane Charvet",
        "zipcode": "83704-690"
    },
    {
        "city": "Araucaria",
        "state": "PR",
        "district": "Campina Da Barra",
        "street": "Rua Maria Lucia Dutra",
        "zipcode": "83709-755"
    },
    {
        "city": "Araucaria",
        "state": "PR",
        "district": "Boqueirao",
        "street": "Avenida Nossa Senhora Dos Remedios",
        "zipcode": "83704-250"
    },
    {
        "city": "Araucaria",
        "state": "PR",
        "district": "Porto Das Laranjeiras",
        "street": "Avenida Independencia",
        "zipcode": "83703-000"
    },
    {
        "city": "Araucaria",
        "state": "PR",
        "district": "Estacao",
        "street": "Rua Bonifacio Kaiute",
        "zipcode": "83705-730"
    },
    {
        "city": "Araucaria",
        "state": "PR",
        "district": "Estacao",
        "street": "Rua Mirtes Costa Trauczynski",
        "zipcode": "83705-770"
    },
    {
        "city": "Araucaria",
        "state": "PR",
        "district": "Cachoeira",
        "street": "Rua Maranhao",
        "zipcode": "83709-810"
    },
    {
        "city": "Araucaria",
        "state": "PR",
        "district": "Thomaz Coelho",
        "street": "Rua Dr Jose Czaki",
        "zipcode": "83707-140"
    },
    {
        "city": "Araucaria",
        "state": "PR",
        "district": "Thomaz Coelho",
        "street": "Rua Antonio Marzalek",
        "zipcode": "83706-560"
    },
    {
        "city": "Araucaria",
        "state": "PR",
        "district": "Estacao",
        "street": "Avenida Dos Pinheirais",
        "zipcode": "83705-570"
    }
]