[
    {
        "city": "Balsa Nova",
        "state": "PR",
        "district": "Centro",
        "street": "Avenida Brasil 460",
        "zipcode": "83650-970"
    },
    {
        "city": "Balsa Nova",
        "state": "PR",
        "district": "Centro",
        "street": "Avenida Brasil 665",
        "zipcode": "83650-973"
    },
    {
        "city": "Balsa Nova",
        "state": "PR",
        "district": "",
        "street": "",
        "zipcode": "83650-000"
    },
    {
        "city": "Balsa Nova",
        "state": "PR",
        "district": "Jardim Serrinha",
        "street": "Estrada Principal",
        "zipcode": "83650-972"
    },
    {
        "city": "Balsa Nova",
        "state": "PR",
        "district": "Centro",
        "street": "Rua Principal",
        "zipcode": "83670-970"
    },
    {
        "city": "Balsa Nova",
        "state": "PR",
        "district": "Centro",
        "street": "Rua João Poletto",
        "zipcode": "83660-970"
    },
    {
        "city": "Balsa Nova",
        "state": "PR",
        "district": null,
        "street": "Rua Principal",
        "zipcode": "83670-990"
    },
    {
        "city": "Balsa Nova",
        "state": "PR",
        "district": null,
        "street": "Rua Porcidônio Alves",
        "zipcode": "83650-991"
    },
    {
        "city": "Balsa Nova",
        "state": "PR",
        "district": null,
        "street": "Rua Principal",
        "zipcode": "83650-990"
    },
    {
        "city": "Balsa Nova",
        "state": "PR",
        "district": "São Caetano",
        "street": "Rua Principal",
        "zipcode": "83650-971"
    },
    {
        "city": "Balsa Nova",
        "state": "PR",
        "district": null,
        "street": "Rua Principal",
        "zipcode": "83660-990"
    }
]