[
    {
        "city": "Barbosa Ferraz",
        "state": "PR",
        "district": null,
        "street": "Rua Principal",
        "zipcode": "86960-990"
    },
    {
        "city": "Barbosa Ferraz",
        "state": "PR",
        "district": "Para√≠so do Sul",
        "street": "Avenida Catedral",
        "zipcode": "86960-971"
    },
    {
        "city": "Barbosa Ferraz",
        "state": "PR",
        "district": "Centro",
        "street": "Avenida Presidente Kennedy",
        "zipcode": "86960-970"
    },
    {
        "city": "Barbosa Ferraz",
        "state": "PR",
        "district": null,
        "street": "Rua Joaquim Murtin",
        "zipcode": "86963-990"
    },
    {
        "city": "Barbosa Ferraz",
        "state": "PR",
        "district": null,
        "street": "Avenida Brasil",
        "zipcode": "86968-990"
    },
    {
        "city": "Barbosa Ferraz",
        "state": "PR",
        "district": null,
        "street": "Rua Coronel Junqueira",
        "zipcode": "86964-990"
    },
    {
        "city": "Barbosa Ferraz",
        "state": "PR",
        "district": "",
        "street": "",
        "zipcode": "86960-000"
    },
    {
        "city": "Barbosa Ferraz",
        "state": "PR",
        "district": null,
        "street": "Avenida Principal",
        "zipcode": "86962-990"
    }
]