[
    {
        "city": "Cambe",
        "state": "PR",
        "district": "Centro",
        "street": "Rua Equador",
        "zipcode": "86182-430"
    },
    {
        "city": "Cambe",
        "state": "PR",
        "district": "Parque Residencial Manela",
        "street": "Rua Vital Brasil",
        "zipcode": "86185-510"
    },
    {
        "city": "Cambe",
        "state": "PR",
        "district": "Jardim Ana Eliza",
        "street": "Rua Das Hortensias",
        "zipcode": "86188-560"
    },
    {
        "city": "Cambe",
        "state": "PR",
        "district": "Jardim Taroba",
        "street": "Rodovia Br",
        "zipcode": "86191-415"
    },
    {
        "city": "Cambe",
        "state": "PR",
        "district": "Chacara Manela",
        "street": "Rua Bento Munhoz Da Rocha Neto",
        "zipcode": "86186-000"
    },
    {
        "city": "Cambe",
        "state": "PR",
        "district": "Jardim Santa Izabel",
        "street": "Rua Santo Antonio",
        "zipcode": "86183-330"
    },
    {
        "city": "Cambe",
        "state": "PR",
        "district": "Jardim Santa Adelaide",
        "street": "Rodovia Br",
        "zipcode": "86192-175"
    },
    {
        "city": "Cambe",
        "state": "PR",
        "district": "Jardim Uniao",
        "street": "Rodovia Br",
        "zipcode": "86185-705"
    },
    {
        "city": "Cambe",
        "state": "PR",
        "district": "Jardim Vila Rica",
        "street": "Rua Giusepe Fabiano Fregonesi",
        "zipcode": "86191-730"
    },
    {
        "city": "Cambe",
        "state": "PR",
        "district": "Jardim Ana Eliza",
        "street": "Rua Jandaia Do Sul",
        "zipcode": "86188-550"
    },
    {
        "city": "Cambe",
        "state": "PR",
        "district": "Parque Residencial Ana Rosa",
        "street": "Avenida Antonio Raminelli",
        "zipcode": "86183-000"
    }
]