[
    {
        "city": "Campo Mourao",
        "state": "PR",
        "district": "Jardim Ione",
        "street": "Rua Reineiro Bernardes",
        "zipcode": "87303-120"
    },
    {
        "city": "Campo Mourao",
        "state": "PR",
        "district": "Jardim Santa Cruz",
        "street": "Avenida Prefeito Dr Horacio Amaral",
        "zipcode": "87309-630"
    },
    {
        "city": "Campo Mourao",
        "state": "PR",
        "district": "Jardim Cidade Nova",
        "street": "Travessa Das Flores",
        "zipcode": "87308-090"
    },
    {
        "city": "Campo Mourao",
        "state": "PR",
        "district": "Jardim Modelo",
        "street": "Rua Basilio Pellizzer",
        "zipcode": "87309-480"
    },
    {
        "city": "Campo Mourao",
        "state": "PR",
        "district": "Jardim Paulista",
        "street": "Travessa Largo",
        "zipcode": "87300-510"
    },
    {
        "city": "Campo Mourao",
        "state": "PR",
        "district": "Jardim Florida",
        "street": "Travessa Para Piri",
        "zipcode": "87300-530"
    },
    {
        "city": "Campo Mourao",
        "state": "PR",
        "district": "Jardim Modelo",
        "street": "Rua Elias Simao",
        "zipcode": "87309-500"
    },
    {
        "city": "Campo Mourao",
        "state": "PR",
        "district": "Jardim Cidade Nova",
        "street": "Rua Quinto Salvadori",
        "zipcode": "87308-010"
    },
    {
        "city": "Campo Mourao",
        "state": "PR",
        "district": "Jardim Santa Cruz",
        "street": "Rua Pedro Intronvini",
        "zipcode": "87309-520"
    },
    {
        "city": "Campo Mourao",
        "state": "PR",
        "district": "Distrito Industrial I",
        "street": "Avenida C",
        "zipcode": "87306-470"
    },
    {
        "city": "Campo Mourao",
        "state": "PR",
        "district": "Jardim Laura",
        "street": "Rua Francisco Ferreira Albuquerque",
        "zipcode": "87300-125"
    },
    {
        "city": "Campo Mourao",
        "state": "PR",
        "district": "Distrito Industrial I",
        "street": "Rua D",
        "zipcode": "87306-490"
    },
    {
        "city": "Campo Mourao",
        "state": "PR",
        "district": "Distrito Industrial I",
        "street": "Rua A",
        "zipcode": "87306-450"
    },
    {
        "city": "Campo Mourao",
        "state": "PR",
        "district": "Distrito Industrial I",
        "street": "Rua G",
        "zipcode": "87306-480"
    },
    {
        "city": "Campo Mourao",
        "state": "PR",
        "district": "Jardim Copacabana",
        "street": "Rua Coronel Geraldo Gomes",
        "zipcode": "87302-380"
    },
    {
        "city": "Campo Mourao",
        "state": "PR",
        "district": "Jardim Paulino",
        "street": "Jardim Jardim Paulino",
        "zipcode": "87306-510"
    },
    {
        "city": "Campo Mourao",
        "state": "PR",
        "district": "Jardim Gutierres",
        "street": "Rua Formosa",
        "zipcode": "87300-375"
    },
    {
        "city": "Campo Mourao",
        "state": "PR",
        "district": "Jardim Alvorada",
        "street": "Rua F",
        "zipcode": "87308-425"
    },
    {
        "city": "Campo Mourao",
        "state": "PR",
        "district": "Jardim Lar Parana",
        "street": "Rua Napoleao Bonaparte",
        "zipcode": "87305-420"
    },
    {
        "city": "Campo Mourao",
        "state": "PR",
        "district": "Jardim Cidade Nova",
        "street": "Avenida Vani Borges De Macedo",
        "zipcode": "87308-060"
    },
    {
        "city": "Campo Mourao",
        "state": "PR",
        "district": "Jardim Modelo",
        "street": "Rua Celia Simao Broza",
        "zipcode": "87309-470"
    },
    {
        "city": "Campo Mourao",
        "state": "PR",
        "district": "Jardim Santa Cruz",
        "street": "Rua Francisco Preisner",
        "zipcode": "87309-640"
    },
    {
        "city": "Campo Mourao",
        "state": "PR",
        "district": "Jardim Araucaria",
        "street": "Rua Das Sibipirunas",
        "zipcode": "87301-310"
    },
    {
        "city": "Campo Mourao",
        "state": "PR",
        "district": "Jardim Lar Parana",
        "street": "Rua Luis Xv",
        "zipcode": "87305-480"
    },
    {
        "city": "Campo Mourao",
        "state": "PR",
        "district": "Jardim Tropical I",
        "street": "Rua Paulo V. De Castro",
        "zipcode": "87310-195"
    },
    {
        "city": "Campo Mourao",
        "state": "PR",
        "district": "Jardim Santa Nilce Ii",
        "street": "Rua Das Alfazemas",
        "zipcode": "87308-110"
    },
    {
        "city": "Campo Mourao",
        "state": "PR",
        "district": "Conj Residencial Athilhas",
        "street": "Conjunto Athilhas",
        "zipcode": "87308-600"
    },
    {
        "city": "Campo Mourao",
        "state": "PR",
        "district": "Jardim Santa Cruz",
        "street": "Rua Pedro Guilherme Cavali",
        "zipcode": "87309-530"
    },
    {
        "city": "Campo Mourao",
        "state": "PR",
        "district": "Jardim Alvorada",
        "street": "Avenida Cianorte",
        "zipcode": "87308-426"
    },
    {
        "city": "Campo Mourao",
        "state": "PR",
        "district": "Jardim Lar Parana",
        "street": "Rua Dom Joao Vi",
        "zipcode": "87305-390"
    },
    {
        "city": "Campo Mourao",
        "state": "PR",
        "district": "Jardim Vitoria",
        "street": "Rua Marins C. Pereira",
        "zipcode": "87303-010"
    },
    {
        "city": "Campo Mourao",
        "state": "PR",
        "district": "Jardim Araucaria",
        "street": "Rua Das Araucarias",
        "zipcode": "87301-290"
    },
    {
        "city": "Campo Mourao",
        "state": "PR",
        "district": "Jardim Santa Nilce Ii",
        "street": "Rua Flor",
        "zipcode": "87308-295"
    },
    {
        "city": "Campo Mourao",
        "state": "PR",
        "district": "Jardim Constantino",
        "street": "Rua Aracaju",
        "zipcode": "87303-050"
    },
    {
        "city": "Campo Mourao",
        "state": "PR",
        "district": "Jardim Conrado",
        "street": "Rua Engenheiro Mercer",
        "zipcode": "87308-000"
    },
    {
        "city": "Campo Mourao",
        "state": "PR",
        "district": "Jardim Alvorada",
        "street": "Avenida Guilherme De Paula Xavier",
        "zipcode": "87308-570"
    },
    {
        "city": "Campo Mourao",
        "state": "PR",
        "district": "Jardim Alvorada",
        "street": "Avenida Comendador Norberto Marcondes",
        "zipcode": "87308-580"
    },
    {
        "city": "Campo Mourao",
        "state": "PR",
        "district": "Distrito Industrial I",
        "street": "Rua H",
        "zipcode": "87306-506"
    },
    {
        "city": "Campo Mourao",
        "state": "PR",
        "district": "Jardim Alvorada",
        "street": "Rua Hilda Manin Brzezinski",
        "zipcode": "87308-430"
    },
    {
        "city": "Campo Mourao",
        "state": "PR",
        "district": "Jardim Modelo",
        "street": "Rua Gilberto Goncalves Acafrao",
        "zipcode": "87309-460"
    },
    {
        "city": "Campo Mourao",
        "state": "PR",
        "district": "Jardim Araucaria",
        "street": "Rua Das Rosas",
        "zipcode": "87301-470"
    },
    {
        "city": "Campo Mourao",
        "state": "PR",
        "district": "Jardim Santa Nilce Ii",
        "street": "Rua Dos Geranios",
        "zipcode": "87308-197"
    },
    {
        "city": "Campo Mourao",
        "state": "PR",
        "district": "Jardim Tropical I",
        "street": "Rua Sessenta E Cinco",
        "zipcode": "87310-186"
    },
    {
        "city": "Campo Mourao",
        "state": "PR",
        "district": "Jardim Santa Nilce Ii",
        "street": "Rua Das Salvias",
        "zipcode": "87308-187"
    },
    {
        "city": "Campo Mourao",
        "state": "PR",
        "district": "Jardim Santa Cruz",
        "street": "Rua Pedro Paulo Walker",
        "zipcode": "87309-690"
    },
    {
        "city": "Campo Mourao",
        "state": "PR",
        "district": "Jardim Lar Parana",
        "street": "Rua Princesa Isabel",
        "zipcode": "87305-410"
    },
    {
        "city": "Campo Mourao",
        "state": "PR",
        "district": "Jardim Sao Sebastiao",
        "street": "Rua Paulo G. Bastos",
        "zipcode": "87303-090"
    },
    {
        "city": "Campo Mourao",
        "state": "PR",
        "district": "Jardim Araucaria",
        "street": "Rua Alecrim",
        "zipcode": "87301-460"
    },
    {
        "city": "Campo Mourao",
        "state": "PR",
        "district": "Jardim Araucaria",
        "street": "Rua Das Seringueiras",
        "zipcode": "87301-300"
    },
    {
        "city": "Campo Mourao",
        "state": "PR",
        "district": "Jardim Cidade Nova",
        "street": "Avenida Joao Batista Salvadori",
        "zipcode": "87308-015"
    },
    {
        "city": "Campo Mourao",
        "state": "PR",
        "district": "Distrito Industrial I",
        "street": "Rua E",
        "zipcode": "87306-460"
    },
    {
        "city": "Campo Mourao",
        "state": "PR",
        "district": "Jardim Santa Cruz",
        "street": "Avenida Prefeito Antonio Teodoro De Oliveira",
        "zipcode": "87309-620"
    },
    {
        "city": "Campo Mourao",
        "state": "PR",
        "district": "Distrito Industrial I",
        "street": "Rua B",
        "zipcode": "87306-505"
    },
    {
        "city": "Campo Mourao",
        "state": "PR",
        "district": "Jardim Bandeirantes",
        "street": "Rua Aristhoteles Xavier Do Rego",
        "zipcode": "87308-560"
    },
    {
        "city": "Campo Mourao",
        "state": "PR",
        "district": "Jardim Modelo",
        "street": "Rua Porfirio Querino Pereira",
        "zipcode": "87309-490"
    },
    {
        "city": "Campo Mourao",
        "state": "PR",
        "district": "Jardim Alvorada",
        "street": "Rua Da Soja",
        "zipcode": "87308-370"
    },
    {
        "city": "Campo Mourao",
        "state": "PR",
        "district": "Jardim Lar Parana",
        "street": "Rua Henrique Viii",
        "zipcode": "87305-450"
    }
]