[
    {
        "city": "Campina Grande do Sul",
        "state": "PR",
        "district": null,
        "street": "Rua Principal",
        "zipcode": "83440-991"
    },
    {
        "city": "Campina Grande do Sul",
        "state": "PR",
        "district": "Centro",
        "street": "Avenida Doutor Vicente Machado",
        "zipcode": "83430-970"
    },
    {
        "city": "Campina Grande do Sul",
        "state": "PR",
        "district": "Centro",
        "street": "Rua Miguel Ferreira 64",
        "zipcode": "83430-973"
    },
    {
        "city": "Campina Grande do Sul",
        "state": "PR",
        "district": null,
        "street": "Rua José Simioni",
        "zipcode": "83435-990"
    },
    {
        "city": "Campina Grande do Sul",
        "state": "PR",
        "district": "",
        "street": "",
        "zipcode": "83430-000"
    },
    {
        "city": "Campina Grande do Sul",
        "state": "PR",
        "district": "Jardim Paulista",
        "street": "Rua Duílio Calderari 1829",
        "zipcode": "83430-974"
    },
    {
        "city": "Campina Grande do Sul",
        "state": "PR",
        "district": "Jardim Graciosa",
        "street": "Rua Celestino Ferrarini",
        "zipcode": "83430-972"
    },
    {
        "city": "Campina Grande do Sul",
        "state": "PR",
        "district": null,
        "street": "Rua Benedito Jacomit",
        "zipcode": "83430-992"
    },
    {
        "city": "Campina Grande do Sul",
        "state": "PR",
        "district": null,
        "street": "Rua Principal",
        "zipcode": "83440-990"
    },
    {
        "city": "Campina Grande do Sul",
        "state": "PR",
        "district": null,
        "street": "Rua Principal",
        "zipcode": "83440-993"
    },
    {
        "city": "Campina Grande do Sul",
        "state": "PR",
        "district": null,
        "street": "Rua Principal",
        "zipcode": "83430-991"
    },
    {
        "city": "Campina Grande do Sul",
        "state": "PR",
        "district": null,
        "street": "Rua Principal",
        "zipcode": "83440-992"
    },
    {
        "city": "Campina Grande do Sul",
        "state": "PR",
        "district": null,
        "street": "Rua Principal",
        "zipcode": "83430-990"
    }
]