[
    {
        "city": "Campo Magro",
        "state": "PR",
        "district": null,
        "street": "Rua Jasmin",
        "zipcode": "83535-992"
    },
    {
        "city": "Campo Magro",
        "state": "PR",
        "district": null,
        "street": "Rua Moisés Colotel",
        "zipcode": "83535-993"
    },
    {
        "city": "Campo Magro",
        "state": "PR",
        "district": null,
        "street": "Estrada do Cerne",
        "zipcode": "83535-991"
    },
    {
        "city": "Campo Magro",
        "state": "PR",
        "district": "",
        "street": "Estrada do Cerne",
        "zipcode": "83535-997"
    },
    {
        "city": "Campo Magro",
        "state": "PR",
        "district": "",
        "street": "Rua Ritimo Costa",
        "zipcode": "83535-996"
    },
    {
        "city": "Campo Magro",
        "state": "PR",
        "district": "Centro",
        "street": "Rua Silvestre Jarek 155",
        "zipcode": "83535-970"
    },
    {
        "city": "Campo Magro",
        "state": "PR",
        "district": "Boa Vista",
        "street": "Rua Jasmim 395",
        "zipcode": "83535-971"
    },
    {
        "city": "Campo Magro",
        "state": "PR",
        "district": "Jardim Novos Horizontes",
        "street": "Estrada Principal",
        "zipcode": "83535-973"
    },
    {
        "city": "Campo Magro",
        "state": "PR",
        "district": "Jardim Bom Pastor",
        "street": "Estrada Principal",
        "zipcode": "83535-974"
    },
    {
        "city": "Campo Magro",
        "state": "PR",
        "district": "Água Boa",
        "street": "Estrada Principal",
        "zipcode": "83535-976"
    },
    {
        "city": "Campo Magro",
        "state": "PR",
        "district": "Jardim Viviane",
        "street": "Estrada Principal",
        "zipcode": "83535-972"
    },
    {
        "city": "Campo Magro",
        "state": "PR",
        "district": "",
        "street": "",
        "zipcode": "83535-000"
    },
    {
        "city": "Campo Magro",
        "state": "PR",
        "district": null,
        "street": "Rua Principal",
        "zipcode": "83535-994"
    },
    {
        "city": "Campo Magro",
        "state": "PR",
        "district": "",
        "street": "Rua Petunias",
        "zipcode": "83535-995"
    },
    {
        "city": "Campo Magro",
        "state": "PR",
        "district": "",
        "street": "Estrada Principal do Retiro s/n",
        "zipcode": "83535-998"
    },
    {
        "city": "Campo Magro",
        "state": "PR",
        "district": null,
        "street": "Estrada da Água Boa",
        "zipcode": "83535-990"
    }
]