[
    {
        "city": "Castro",
        "state": "PR",
        "district": "Jardim Social Arapongas",
        "street": "Rua Nova",
        "zipcode": "84174-095"
    },
    {
        "city": "Castro",
        "state": "PR",
        "district": "Cantagalo",
        "street": "Rua José Agnelo Barbosa",
        "zipcode": "84178-290"
    },
    {
        "city": "Castro",
        "state": "PR",
        "district": "Morada do Sol",
        "street": "Travessa Sargento Manoel Santiago da Silva",
        "zipcode": "84172-238"
    },
    {
        "city": "Castro",
        "state": "PR",
        "district": "Jardim Pandorf",
        "street": "Rua Pedro Quadros",
        "zipcode": "84182-230"
    },
    {
        "city": "Castro",
        "state": "PR",
        "district": "Nucleo Habit Padre Piva",
        "street": "Rua Quatro",
        "zipcode": "84178-215"
    },
    {
        "city": "Castro",
        "state": "PR",
        "district": "São Miguel",
        "street": "Rua Emilia de Oliveira da Silva",
        "zipcode": "84182-294"
    },
    {
        "city": "Castro",
        "state": "PR",
        "district": "Jardim Bailly",
        "street": "Rua J",
        "zipcode": "84173-599"
    },
    {
        "city": "Castro",
        "state": "PR",
        "district": "Nucleo Habit Padre Piva",
        "street": "Rua Seis",
        "zipcode": "84178-240"
    },
    {
        "city": "Castro",
        "state": "PR",
        "district": "Jardim Colonial",
        "street": "Praça José Alípio Larocca",
        "zipcode": "84178-122"
    },
    {
        "city": "Castro",
        "state": "PR",
        "district": "Jardim Alvorada",
        "street": "Rua Jocelil de Oliveira Barbosa",
        "zipcode": "84181-318"
    },
    {
        "city": "Castro",
        "state": "PR",
        "district": null,
        "street": "Rua EC",
        "zipcode": "84178-990"
    },
    {
        "city": "Castro",
        "state": "PR",
        "district": "Jardim Bailly",
        "street": "Rua Paul Dinnies",
        "zipcode": "84173-560"
    },
    {
        "city": "Castro",
        "state": "PR",
        "district": "Centro",
        "street": "Rua Carlos Decker",
        "zipcode": "84165-480"
    },
    {
        "city": "Castro",
        "state": "PR",
        "district": "Vila Rio Branco",
        "street": "Rua Otávio Torres Pereira",
        "zipcode": "84172-530"
    },
    {
        "city": "Castro",
        "state": "PR",
        "district": "Vila Rio Branco",
        "street": "Rua Santos Dumont",
        "zipcode": "84172-510"
    },
    {
        "city": "Castro",
        "state": "PR",
        "district": "Vila Rio Branco",
        "street": "Rua Sete de Setembro",
        "zipcode": "84172-520"
    },
    {
        "city": "Castro",
        "state": "PR",
        "district": "Vila Rio Branco",
        "street": "Rua Wenceslau Braz",
        "zipcode": "84172-500"
    },
    {
        "city": "Castro",
        "state": "PR",
        "district": "Vila Rio Branco",
        "street": "Rua Arthur Gomes Machado",
        "zipcode": "84172-460"
    },
    {
        "city": "Castro",
        "state": "PR",
        "district": "Vila Rio Branco",
        "street": "Rua José Bonifácio",
        "zipcode": "84172-450"
    },
    {
        "city": "Castro",
        "state": "PR",
        "district": "Vila Rio Branco",
        "street": "Rua Marechal Deodoro",
        "zipcode": "84172-540"
    },
    {
        "city": "Castro",
        "state": "PR",
        "district": "Vila Rio Branco",
        "street": "Rua Professor Canderoy Mainardes",
        "zipcode": "84172-480"
    },
    {
        "city": "Castro",
        "state": "PR",
        "district": "Castrolanda",
        "street": "Avenida das Palmeiras",
        "zipcode": "84177-044"
    },
    {
        "city": "Castro",
        "state": "PR",
        "district": "Castrolanda",
        "street": "Travessa dos Pioneiros",
        "zipcode": "84177-038"
    },
    {
        "city": "Castro",
        "state": "PR",
        "district": "Jardim Samambaia",
        "street": "Rua Anísio Antunes Neto",
        "zipcode": "84182-070"
    },
    {
        "city": "Castro",
        "state": "PR",
        "district": "Bom Sucesso",
        "street": "Estrada Colônia Santa Leopoldina",
        "zipcode": "84165-710"
    },
    {
        "city": "Castro",
        "state": "PR",
        "district": "Centro",
        "street": "Praça Doutor Costa Carvalho",
        "zipcode": "84165-100"
    },
    {
        "city": "Castro",
        "state": "PR",
        "district": "Jardim Termas Riviera",
        "street": "Avenida das Flores",
        "zipcode": "84182-050"
    },
    {
        "city": "Castro",
        "state": "PR",
        "district": "Vila Santa Cruz",
        "street": "Rua Jaguariaíva",
        "zipcode": "84168-200"
    },
    {
        "city": "Castro",
        "state": "PR",
        "district": "Jardim Samambaia",
        "street": "Rua Luiz Gaertner",
        "zipcode": "84182-100"
    },
    {
        "city": "Castro",
        "state": "PR",
        "district": "Jardim Termas Riviera",
        "street": "Rua Abilio Meira",
        "zipcode": "84182-060"
    },
    {
        "city": "Castro",
        "state": "PR",
        "district": "Lacustre",
        "street": "Rua Pará",
        "zipcode": "84165-150"
    },
    {
        "city": "Castro",
        "state": "PR",
        "district": "Lacustre",
        "street": "Rua Professor Basílio Chirum",
        "zipcode": "84165-160"
    },
    {
        "city": "Castro",
        "state": "PR",
        "district": "Jardim Termas Riviera",
        "street": "Rua Luiz Menarim",
        "zipcode": "84182-040"
    },
    {
        "city": "Castro",
        "state": "PR",
        "district": "Jardim Samambaia",
        "street": "Rua Tenente Benedito Alves da Silva",
        "zipcode": "84182-080"
    },
    {
        "city": "Castro",
        "state": "PR",
        "district": "Jardim Termas Riviera",
        "street": "Rua Daniel de Paula Dias",
        "zipcode": "84182-030"
    },
    {
        "city": "Castro",
        "state": "PR",
        "district": "Jardim Bela Vista",
        "street": "Rua Sidney José Ferraz",
        "zipcode": "84165-427"
    },
    {
        "city": "Castro",
        "state": "PR",
        "district": "Centro",
        "street": "Praça Teotônio Marcondes",
        "zipcode": "84165-270"
    },
    {
        "city": "Castro",
        "state": "PR",
        "district": "Centro",
        "street": "Praça Duque de Caxias",
        "zipcode": "84165-090"
    },
    {
        "city": "Castro",
        "state": "PR",
        "district": "Vila do Rosário",
        "street": "Rua Cruzeiro",
        "zipcode": "84168-075"
    },
    {
        "city": "Castro",
        "state": "PR",
        "district": "Centro",
        "street": "Rua Hernandes Antunes",
        "zipcode": "84165-635"
    },
    {
        "city": "Castro",
        "state": "PR",
        "district": "Nossa Senhora das Graças",
        "street": "Rua Professora Aurea Grimbor Marques",
        "zipcode": "84181-220"
    },
    {
        "city": "Castro",
        "state": "PR",
        "district": "Nossa Senhora das Graças",
        "street": "Rua Germano Magnani",
        "zipcode": "84181-218"
    },
    {
        "city": "Castro",
        "state": "PR",
        "district": "Nossa Senhora das Graças",
        "street": "Rua Parailio Diniz",
        "zipcode": "84181-216"
    },
    {
        "city": "Castro",
        "state": "PR",
        "district": "Nossa Senhora das Graças",
        "street": "Rua Judith Carneiro de Mello",
        "zipcode": "84181-214"
    },
    {
        "city": "Castro",
        "state": "PR",
        "district": "Nossa Senhora das Graças",
        "street": "Rua Major João Xavier Palmeira",
        "zipcode": "84181-206"
    },
    {
        "city": "Castro",
        "state": "PR",
        "district": "Nossa Senhora das Graças",
        "street": "Rua Vereador Antonio Neyr Simão",
        "zipcode": "84181-204"
    },
    {
        "city": "Castro",
        "state": "PR",
        "district": "Nossa Senhora das Graças",
        "street": "Avenida Arthur Ehalt",
        "zipcode": "84181-202"
    },
    {
        "city": "Castro",
        "state": "PR",
        "district": "Santa Paula",
        "street": "Rua Zigmundo Kremer",
        "zipcode": "84181-012"
    },
    {
        "city": "Castro",
        "state": "PR",
        "district": "Santa Paula",
        "street": "Rua Pedro Dallarmi",
        "zipcode": "84181-010"
    },
    {
        "city": "Castro",
        "state": "PR",
        "district": "Nossa Senhora das Graças",
        "street": "Rua Alicéia de Jesus de Oliveira Valença",
        "zipcode": "84181-210"
    },
    {
        "city": "Castro",
        "state": "PR",
        "district": "Nossa Senhora das Graças",
        "street": "Rua Karl Joseph Hoffman",
        "zipcode": "84181-208"
    },
    {
        "city": "Castro",
        "state": "PR",
        "district": "Cantagalo",
        "street": "Rua Anario Aquiles",
        "zipcode": "84178-390"
    },
    {
        "city": "Castro",
        "state": "PR",
        "district": "Jardim Colonial",
        "street": "Rua Bernardo Musialowski",
        "zipcode": "84178-590"
    },
    {
        "city": "Castro",
        "state": "PR",
        "district": "Cantagalo",
        "street": "Travessa Capitão Miguel Sidor",
        "zipcode": "84178-410"
    },
    {
        "city": "Castro",
        "state": "PR",
        "district": "Cantagalo",
        "street": "Estrada Colônia Terra Nova",
        "zipcode": "84178-680"
    },
    {
        "city": "Castro",
        "state": "PR",
        "district": "Cantagalo",
        "street": "Rua Durvalino Kuster de Azevedo",
        "zipcode": "84178-270"
    },
    {
        "city": "Castro",
        "state": "PR",
        "district": "Castroville",
        "street": "Rua Dorival Garcia Kiel",
        "zipcode": "84178-660"
    },
    {
        "city": "Castro",
        "state": "PR",
        "district": "Cantagalo",
        "street": "Travessa Emílio Rebonato",
        "zipcode": "84178-400"
    },
    {
        "city": "Castro",
        "state": "PR",
        "district": "Jardim Colonial",
        "street": "Rua Eurico da Silva Gomes",
        "zipcode": "84178-570"
    },
    {
        "city": "Castro",
        "state": "PR",
        "district": "Castroville",
        "street": "Rua Fernando Alvarez",
        "zipcode": "84178-370"
    },
    {
        "city": "Castro",
        "state": "PR",
        "district": "Vila Farias",
        "street": "Rua Francisco Miroslau de Macedo",
        "zipcode": "84178-320"
    },
    {
        "city": "Castro",
        "state": "PR",
        "district": "Jardim Bailly",
        "street": "Rua Oscar Bueno",
        "zipcode": "84173-530"
    },
    {
        "city": "Castro",
        "state": "PR",
        "district": "Jardim Bailly",
        "street": "Rua Paulo Silas Wysoski",
        "zipcode": "84173-520"
    },
    {
        "city": "Castro",
        "state": "PR",
        "district": "Vila Rio Branco",
        "street": "Rua Rui Barbosa",
        "zipcode": "84172-440"
    },
    {
        "city": "Castro",
        "state": "PR",
        "district": "Jardim dos Bancários",
        "street": "Rua Major Cândido Cruz",
        "zipcode": "84172-370"
    },
    {
        "city": "Castro",
        "state": "PR",
        "district": "Vila Rio Branco",
        "street": "Rua Alcebíades Marques de Souza",
        "zipcode": "84172-430"
    },
    {
        "city": "Castro",
        "state": "PR",
        "district": "Vila Rio Branco",
        "street": "Rua Francisco de Assis Andrade",
        "zipcode": "84172-400"
    },
    {
        "city": "Castro",
        "state": "PR",
        "district": "Jardim Colonial",
        "street": "Rua Gilseu Nilo de Almeida",
        "zipcode": "84178-560"
    },
    {
        "city": "Castro",
        "state": "PR",
        "district": "Castroville",
        "street": "Rua Hans Mayer",
        "zipcode": "84178-640"
    },
    {
        "city": "Castro",
        "state": "PR",
        "district": "Jardim Dona Helena",
        "street": "Rua Homero Madureira",
        "zipcode": "84178-620"
    },
    {
        "city": "Castro",
        "state": "PR",
        "district": "Jardim Termas Riviera",
        "street": "Rua Fernandes Goltz",
        "zipcode": "84182-010"
    },
    {
        "city": "Castro",
        "state": "PR",
        "district": "Cantagalo",
        "street": "Rua João Carvalho de Macedo",
        "zipcode": "84178-460"
    },
    {
        "city": "Castro",
        "state": "PR",
        "district": "Castroville",
        "street": "Rua João Petreski",
        "zipcode": "84178-670"
    },
    {
        "city": "Castro",
        "state": "PR",
        "district": "Cantagalo",
        "street": "Travessa José Fanha",
        "zipcode": "84178-510"
    },
    {
        "city": "Castro",
        "state": "PR",
        "district": "Cantagalo",
        "street": "Rua José Félix Novaes do Canto e Silva",
        "zipcode": "84178-260"
    },
    {
        "city": "Castro",
        "state": "PR",
        "district": "Cantagalo",
        "street": "Rua José Macedo Dantas",
        "zipcode": "84178-480"
    },
    {
        "city": "Castro",
        "state": "PR",
        "district": "Cantagalo",
        "street": "Travessa José Pianowski",
        "zipcode": "84178-430"
    },
    {
        "city": "Castro",
        "state": "PR",
        "district": "Cantagalo",
        "street": "Rua Licínio Pereira Bueno",
        "zipcode": "84178-490"
    },
    {
        "city": "Castro",
        "state": "PR",
        "district": "Jardim Dona Helena",
        "street": "Rua Manoel C. C. Ribas",
        "zipcode": "84178-600"
    },
    {
        "city": "Castro",
        "state": "PR",
        "district": "Jardim Colonial",
        "street": "Rua Miguel Dias de Macedo",
        "zipcode": "84178-580"
    },
    {
        "city": "Castro",
        "state": "PR",
        "district": "Castroville",
        "street": "Rua Odorico Barbosa Bueno",
        "zipcode": "84178-630"
    },
    {
        "city": "Castro",
        "state": "PR",
        "district": "Cantagalo",
        "street": "Rua Pedro Canha Salgado",
        "zipcode": "84178-470"
    },
    {
        "city": "Castro",
        "state": "PR",
        "district": "Jardim Colonial",
        "street": "Rua Sebastião Augusto Querne",
        "zipcode": "84178-540"
    },
    {
        "city": "Castro",
        "state": "PR",
        "district": "Jardim Termas Riviera",
        "street": "Rua Vergilio Ferreira Penteado",
        "zipcode": "84182-020"
    },
    {
        "city": "Castro",
        "state": "PR",
        "district": "Castroville",
        "street": "Avenida Vicente Fiorillo",
        "zipcode": "84178-330"
    },
    {
        "city": "Castro",
        "state": "PR",
        "district": "Jardim Colonial",
        "street": "Rua Waldemar Hey",
        "zipcode": "84178-550"
    },
    {
        "city": "Castro",
        "state": "PR",
        "district": "Cantagalo",
        "street": "Rua Orlando de Biassio",
        "zipcode": "84178-280"
    },
    {
        "city": "Castro",
        "state": "PR",
        "district": "Cantagalo",
        "street": "Rua Basílio Polistchuk Sobrinho",
        "zipcode": "84178-450"
    },
    {
        "city": "Castro",
        "state": "PR",
        "district": "Jardim Colonial",
        "street": "Rua Herculano Martins de Oliveira",
        "zipcode": "84178-420"
    },
    {
        "city": "Castro",
        "state": "PR",
        "district": "Jardim Dona Helena",
        "street": "Rua Alberto M. de Mello",
        "zipcode": "84178-610"
    },
    {
        "city": "Castro",
        "state": "PR",
        "district": "Castroville",
        "street": "Rua CH",
        "zipcode": "84178-675"
    },
    {
        "city": "Castro",
        "state": "PR",
        "district": "Loteamento Jardim Pandorf",
        "street": "Rua Eduardo Sommer",
        "zipcode": "84182-130"
    },
    {
        "city": "Castro",
        "state": "PR",
        "district": "Loteamento Jardim Pandorf",
        "street": "Rua Lauro Caxambu",
        "zipcode": "84182-140"
    },
    {
        "city": "Castro",
        "state": "PR",
        "district": "Cantagalo",
        "street": "Avenida Arthur Ehalt",
        "zipcode": "84178-285"
    },
    {
        "city": "Castro",
        "state": "PR",
        "district": "Castrolanda",
        "street": "Rua Paraná",
        "zipcode": "84177-026"
    },
    {
        "city": "Castro",
        "state": "PR",
        "district": "Castrolanda",
        "street": "Rua Nassau",
        "zipcode": "84177-042"
    },
    {
        "city": "Castro",
        "state": "PR",
        "district": "Castrolanda",
        "street": "Rua Alioth",
        "zipcode": "84177-040"
    },
    {
        "city": "Castro",
        "state": "PR",
        "district": "Castrolanda",
        "street": "Rua Altair",
        "zipcode": "84177-034"
    },
    {
        "city": "Castro",
        "state": "PR",
        "district": "Castrolanda",
        "street": "Rua Rijnland",
        "zipcode": "84177-032"
    },
    {
        "city": "Castro",
        "state": "PR",
        "district": "Castrolanda",
        "street": "Rua Provence",
        "zipcode": "84177-030"
    },
    {
        "city": "Castro",
        "state": "PR",
        "district": "Castrolanda",
        "street": "Travessa Tulipa",
        "zipcode": "84177-020"
    },
    {
        "city": "Castro",
        "state": "PR",
        "district": "Castrolanda",
        "street": "Rua Esperança",
        "zipcode": "84177-018"
    },
    {
        "city": "Castro",
        "state": "PR",
        "district": "Castrolanda",
        "street": "Rua Azalea",
        "zipcode": "84177-016"
    },
    {
        "city": "Castro",
        "state": "PR",
        "district": "Castrolanda",
        "street": "Avenida Brasil",
        "zipcode": "84177-010"
    },
    {
        "city": "Castro",
        "state": "PR",
        "district": "Núcleo Habitacional Padre Piva",
        "street": "Rua Alziro Zarur",
        "zipcode": "84178-210"
    },
    {
        "city": "Castro",
        "state": "PR",
        "district": "Núcleo Habitacional Padre Piva",
        "street": "Rua Ângelo Rolim de Moura",
        "zipcode": "84178-000"
    },
    {
        "city": "Castro",
        "state": "PR",
        "district": "Jardim das Araucárias",
        "street": "Rua Caetano Ribeiro de Moraes",
        "zipcode": "84174-520"
    },
    {
        "city": "Castro",
        "state": "PR",
        "district": "Núcleo Habitacional Padre Piva",
        "street": "Rua Cícero Moraes Collet",
        "zipcode": "84178-230"
    },
    {
        "city": "Castro",
        "state": "PR",
        "district": "Núcleo Habitacional Padre Piva",
        "street": "Rua Doutor Odiles Petreski",
        "zipcode": "84178-250"
    },
    {
        "city": "Castro",
        "state": "PR",
        "district": "Jardim Colonial",
        "street": "Rua Edmundo Wisoski",
        "zipcode": "84178-160"
    },
    {
        "city": "Castro",
        "state": "PR",
        "district": "Jardim das Araucárias",
        "street": "Rua Eurico Madureira Novaes",
        "zipcode": "84174-550"
    },
    {
        "city": "Castro",
        "state": "PR",
        "district": "Cantagalo",
        "street": "Travessa Fernando Carlos Gomes",
        "zipcode": "84178-300"
    },
    {
        "city": "Castro",
        "state": "PR",
        "district": "Núcleo Habitacional Padre Piva",
        "street": "Rua Francisco Cavalin",
        "zipcode": "84178-020"
    },
    {
        "city": "Castro",
        "state": "PR",
        "district": "Jardim Colonial",
        "street": "Rua Gastão Negrão",
        "zipcode": "84178-170"
    },
    {
        "city": "Castro",
        "state": "PR",
        "district": "Jardim Dona Helena",
        "street": "Rua General Manoel F. do V. Aranha",
        "zipcode": "84178-070"
    },
    {
        "city": "Castro",
        "state": "PR",
        "district": "Jardim Colonial",
        "street": "Rua Hamilton Corrêa",
        "zipcode": "84178-150"
    },
    {
        "city": "Castro",
        "state": "PR",
        "district": "Vila Farias",
        "street": "Travessa Itaciano Mainardes",
        "zipcode": "84178-060"
    },
    {
        "city": "Castro",
        "state": "PR",
        "district": "Jardim das Araucárias",
        "street": "Avenida José de Napoli",
        "zipcode": "84174-600"
    },
    {
        "city": "Castro",
        "state": "PR",
        "district": "Núcleo Habitacional Padre Piva",
        "street": "Rua Lauro Bueno",
        "zipcode": "84178-180"
    },
    {
        "city": "Castro",
        "state": "PR",
        "district": "Jardim Dona Helena",
        "street": "Rua Leo Afonso M. de Souza",
        "zipcode": "84178-080"
    },
    {
        "city": "Castro",
        "state": "PR",
        "district": "Jardim Colonial",
        "street": "Rua Manoel José Braga",
        "zipcode": "84178-140"
    },
    {
        "city": "Castro",
        "state": "PR",
        "district": "Núcleo Habitacional Padre Piva",
        "street": "Rua Matheus Langendick",
        "zipcode": "84178-220"
    },
    {
        "city": "Castro",
        "state": "PR",
        "district": "Cantagalo",
        "street": "Rua Mauro Rolin de Moura",
        "zipcode": "84178-310"
    },
    {
        "city": "Castro",
        "state": "PR",
        "district": "Jardim Colonial",
        "street": "Rua Miguel Aiçar de Suss",
        "zipcode": "84178-110"
    },
    {
        "city": "Castro",
        "state": "PR",
        "district": "Jardim das Araucárias",
        "street": "Rua Noel Clodoval Cunninghann",
        "zipcode": "84174-530"
    },
    {
        "city": "Castro",
        "state": "PR",
        "district": "Jardim das Araucárias",
        "street": "Travessa Oscar Ayres",
        "zipcode": "84174-570"
    },
    {
        "city": "Castro",
        "state": "PR",
        "district": "Jardim das Araucárias",
        "street": "Rua Licínio Lopes",
        "zipcode": "84174-610"
    },
    {
        "city": "Castro",
        "state": "PR",
        "district": "Jardim Colonial",
        "street": "Rua Manoel das Chagas Lima",
        "zipcode": "84178-130"
    },
    {
        "city": "Castro",
        "state": "PR",
        "district": "Jardim Colonial",
        "street": "Rua Pacífico J. da Conceição",
        "zipcode": "84178-120"
    },
    {
        "city": "Castro",
        "state": "PR",
        "district": "Vila Farias",
        "street": "Travessa Paulo Ianke",
        "zipcode": "84178-065"
    },
    {
        "city": "Castro",
        "state": "PR",
        "district": "Jardim Colonial",
        "street": "Avenida Prefeito Ronie Cardoso",
        "zipcode": "84178-090"
    },
    {
        "city": "Castro",
        "state": "PR",
        "district": "Núcleo Habitacional Padre Piva",
        "street": "Rua Professor Leo Zappe",
        "zipcode": "84178-200"
    },
    {
        "city": "Castro",
        "state": "PR",
        "district": "Vila Farias",
        "street": "Travessa Raul Inocente dos Santos",
        "zipcode": "84178-100"
    },
    {
        "city": "Castro",
        "state": "PR",
        "district": "Núcleo Habitacional Padre Piva",
        "street": "Rua Salvador A. Sobrinho",
        "zipcode": "84178-030"
    },
    {
        "city": "Castro",
        "state": "PR",
        "district": "Vila Farias",
        "street": "Travessa Tranqüilo Gardinal",
        "zipcode": "84178-040"
    },
    {
        "city": "Castro",
        "state": "PR",
        "district": "Núcleo Habitacional Padre Piva",
        "street": "Rua Voluntários da Pátria",
        "zipcode": "84178-190"
    },
    {
        "city": "Castro",
        "state": "PR",
        "district": "Jardim das Araucárias",
        "street": "Travessa Roberto Tavares Abreu",
        "zipcode": "84174-540"
    },
    {
        "city": "Castro",
        "state": "PR",
        "district": "Jardim das Araucárias",
        "street": "Rua Alfredo de Oliveira Ávila",
        "zipcode": "84174-615"
    },
    {
        "city": "Castro",
        "state": "PR",
        "district": "Jardim das Araucárias",
        "street": "Rua Tenente Sérgio Luiz de Mello",
        "zipcode": "84174-635"
    },
    {
        "city": "Castro",
        "state": "PR",
        "district": "Jardim Social Primavera",
        "street": "Rua Antônio José Gomes",
        "zipcode": "84174-350"
    },
    {
        "city": "Castro",
        "state": "PR",
        "district": "Jardim Social Arapongas",
        "street": "Rua Carlo Antônio Ciappina",
        "zipcode": "84174-240"
    },
    {
        "city": "Castro",
        "state": "PR",
        "district": "Jardim Social Arapongas",
        "street": "Rua Carlos Henrique Ensiedel",
        "zipcode": "84174-200"
    },
    {
        "city": "Castro",
        "state": "PR",
        "district": "Jardim Social Primavera",
        "street": "Rua Cid Danton Kiel",
        "zipcode": "84174-310"
    },
    {
        "city": "Castro",
        "state": "PR",
        "district": "Jardim Social Primavera",
        "street": "Travessa Cristiano Zens",
        "zipcode": "84174-300"
    },
    {
        "city": "Castro",
        "state": "PR",
        "district": "Invernada do Matadouro",
        "street": "Rua Cruz Machado",
        "zipcode": "84174-420"
    },
    {
        "city": "Castro",
        "state": "PR",
        "district": "Jardim Social Arapongas",
        "street": "Rua Darlei José Borges da Costa",
        "zipcode": "84174-470"
    },
    {
        "city": "Castro",
        "state": "PR",
        "district": "Invernada do Matadouro",
        "street": "Rua Doutor Javert Madureira",
        "zipcode": "84174-410"
    },
    {
        "city": "Castro",
        "state": "PR",
        "district": "Jardim Social Arapongas",
        "street": "Rua Doutor Otávio Novaes Júnior",
        "zipcode": "84174-270"
    },
    {
        "city": "Castro",
        "state": "PR",
        "district": "Jardim Social Arapongas",
        "street": "Rua Edgard Briski",
        "zipcode": "84174-230"
    },
    {
        "city": "Castro",
        "state": "PR",
        "district": "Jardim Social Arapongas",
        "street": "Rua Francisco Nitzke",
        "zipcode": "84174-220"
    },
    {
        "city": "Castro",
        "state": "PR",
        "district": "Jardim das Araucárias",
        "street": "Rua Heitor Jorge Iucksch",
        "zipcode": "84174-639"
    },
    {
        "city": "Castro",
        "state": "PR",
        "district": "Jardim Social Primavera",
        "street": "Rua Henrique Schultz",
        "zipcode": "84174-370"
    },
    {
        "city": "Castro",
        "state": "PR",
        "district": "Jardim Social Primavera",
        "street": "Travessa Herminio Rebonato de Oliveira",
        "zipcode": "84174-290"
    },
    {
        "city": "Castro",
        "state": "PR",
        "district": "Jardim Social Arapongas",
        "street": "Rua Humberto Mendes do Prado",
        "zipcode": "84174-260"
    },
    {
        "city": "Castro",
        "state": "PR",
        "district": "Jardim Social Arapongas",
        "street": "Rua Jack Fadel",
        "zipcode": "84174-280"
    },
    {
        "city": "Castro",
        "state": "PR",
        "district": "Jardim Social Arapongas",
        "street": "Rua Emílio Kugler",
        "zipcode": "84174-480"
    },
    {
        "city": "Castro",
        "state": "PR",
        "district": "Jardim Social Arapongas",
        "street": "Travessa Hildebrando Galetto",
        "zipcode": "84174-320"
    },
    {
        "city": "Castro",
        "state": "PR",
        "district": "Jardim Social Arapongas",
        "street": "Rua João Batista Toledo Mascarenhas",
        "zipcode": "84174-460"
    },
    {
        "city": "Castro",
        "state": "PR",
        "district": "Lacustre",
        "street": "Rua Telles",
        "zipcode": "84165-290"
    },
    {
        "city": "Castro",
        "state": "PR",
        "district": "Jardim Social Primavera",
        "street": "Rua José Antônio F. Telles",
        "zipcode": "84174-360"
    },
    {
        "city": "Castro",
        "state": "PR",
        "district": "Jardim Social Arapongas",
        "street": "Rua Maria Antônia Vileski",
        "zipcode": "84174-250"
    },
    {
        "city": "Castro",
        "state": "PR",
        "district": "Invernada do Matadouro",
        "street": "Rua Octávio Paes de Almeida",
        "zipcode": "84174-400"
    },
    {
        "city": "Castro",
        "state": "PR",
        "district": "Jardim das Araucárias",
        "street": "Rua Adília de Mello Beck",
        "zipcode": "84174-580"
    },
    {
        "city": "Castro",
        "state": "PR",
        "district": "Invernada do Matadouro",
        "street": "Rua Renato Menarin",
        "zipcode": "84174-440"
    },
    {
        "city": "Castro",
        "state": "PR",
        "district": "Jardim das Araucárias",
        "street": "Rua Rivadávia de Gracia Lara",
        "zipcode": "84174-490"
    },
    {
        "city": "Castro",
        "state": "PR",
        "district": "Jardim das Araucárias",
        "street": "Travessa Roberto Henrique",
        "zipcode": "84174-605"
    },
    {
        "city": "Castro",
        "state": "PR",
        "district": "Jardim das Araucárias",
        "street": "Travessa Moisés Oliveira de Mello",
        "zipcode": "84174-510"
    },
    {
        "city": "Castro",
        "state": "PR",
        "district": "Jardim Social Arapongas",
        "street": "Travessa Pedro Thadeu Iglesias Canha",
        "zipcode": "84174-275"
    },
    {
        "city": "Castro",
        "state": "PR",
        "district": "Invernada do Matadouro",
        "street": "Rua Professora Maria Helvina C. de Mello",
        "zipcode": "84174-450"
    },
    {
        "city": "Castro",
        "state": "PR",
        "district": "Jardim das Araucárias",
        "street": "Rua Theodoro Lopes de Oliveira",
        "zipcode": "84174-500"
    },
    {
        "city": "Castro",
        "state": "PR",
        "district": "Jardim Social Arapongas",
        "street": "Rua Theófilo Condessa Villela",
        "zipcode": "84174-180"
    },
    {
        "city": "Castro",
        "state": "PR",
        "district": "Jardim Social Primavera",
        "street": "Rua Venâncio Lopes",
        "zipcode": "84174-340"
    },
    {
        "city": "Castro",
        "state": "PR",
        "district": "Jardim Social Primavera",
        "street": "Rua Nelson Iwanoski",
        "zipcode": "84174-330"
    },
    {
        "city": "Castro",
        "state": "PR",
        "district": "Jardim Social Arapongas",
        "street": "Rua Sílvio Afonso Martins Marques de Souza",
        "zipcode": "84174-160"
    },
    {
        "city": "Castro",
        "state": "PR",
        "district": "Jardim das Araucárias",
        "street": "Rua Salvador Natucci",
        "zipcode": "84174-380"
    },
    {
        "city": "Castro",
        "state": "PR",
        "district": "Invernada do Matadouro",
        "street": "Rua C",
        "zipcode": "84174-395"
    },
    {
        "city": "Castro",
        "state": "PR",
        "district": "Jardim das Araucárias",
        "street": "Rua Álvaro de Mello Kiel",
        "zipcode": "84174-616"
    },
    {
        "city": "Castro",
        "state": "PR",
        "district": "Jardim das Araucárias",
        "street": "Rua Major Átila Cunningham",
        "zipcode": "84174-618"
    },
    {
        "city": "Castro",
        "state": "PR",
        "district": "Jardim das Araucárias",
        "street": "Rua Manoel Fidélis do Nascimento",
        "zipcode": "84174-625"
    },
    {
        "city": "Castro",
        "state": "PR",
        "district": "Jardim das Araucárias",
        "street": "Rua Miguel Strazzer",
        "zipcode": "84174-626"
    },
    {
        "city": "Castro",
        "state": "PR",
        "district": "Jardim das Araucárias",
        "street": "Rua Maestro Pedro Maia",
        "zipcode": "84174-628"
    },
    {
        "city": "Castro",
        "state": "PR",
        "district": "Jardim das Araucárias",
        "street": "Rua Rozendo Manoel Galetto",
        "zipcode": "84174-630"
    },
    {
        "city": "Castro",
        "state": "PR",
        "district": "Jardim das Araucárias",
        "street": "Rua Valentim Bannach Júnior",
        "zipcode": "84174-636"
    },
    {
        "city": "Castro",
        "state": "PR",
        "district": "Jardim das Araucárias",
        "street": "Rua Walter Poton Bouguignon",
        "zipcode": "84174-637"
    },
    {
        "city": "Castro",
        "state": "PR",
        "district": "Jardim das Araucárias",
        "street": "Rua Sargento Antônio Dias Cardoso",
        "zipcode": "84174-525"
    },
    {
        "city": "Castro",
        "state": "PR",
        "district": "Jardim das Araucárias",
        "street": "Rua José Antônio de Oliveira",
        "zipcode": "84174-620"
    },
    {
        "city": "Castro",
        "state": "PR",
        "district": "Jardim Social Primavera",
        "street": "Rua Carlos Edson Martins de Oliveira",
        "zipcode": "84174-020"
    },
    {
        "city": "Castro",
        "state": "PR",
        "district": "Morada do Sol",
        "street": "Travessa Tenente José Santiago da Silva",
        "zipcode": "84172-230"
    },
    {
        "city": "Castro",
        "state": "PR",
        "district": "Vila Rio Branco",
        "street": "Rua Coronel Vidal Martins de Oliveira",
        "zipcode": "84172-555"
    },
    {
        "city": "Castro",
        "state": "PR",
        "district": "Jardim São Francisco",
        "street": "Travessa Cristiano Kugler",
        "zipcode": "84174-030"
    },
    {
        "city": "Castro",
        "state": "PR",
        "district": "Jardim Social Arapongas",
        "street": "Rua Cubatão",
        "zipcode": "84174-285"
    },
    {
        "city": "Castro",
        "state": "PR",
        "district": "Jardim Social Arapongas",
        "street": "Rua Doutor Dagoberto Pusch",
        "zipcode": "84174-130"
    },
    {
        "city": "Castro",
        "state": "PR",
        "district": "Jardim Social Primavera",
        "street": "Rua Eduardo José de Quadros",
        "zipcode": "84174-000"
    },
    {
        "city": "Castro",
        "state": "PR",
        "district": "Invernada do Matadouro",
        "street": "Rua Espírito Santo",
        "zipcode": "84174-090"
    },
    {
        "city": "Castro",
        "state": "PR",
        "district": "Vila Rio Branco",
        "street": "Rua Estéfano Mocroski",
        "zipcode": "84172-570"
    },
    {
        "city": "Castro",
        "state": "PR",
        "district": "Jardim Social Arapongas",
        "street": "Rua Genésio Araújo Barbosa",
        "zipcode": "84174-110"
    },
    {
        "city": "Castro",
        "state": "PR",
        "district": "Invernada do Matadouro",
        "street": "Rua Jair Rolim de Moura",
        "zipcode": "84174-060"
    },
    {
        "city": "Castro",
        "state": "PR",
        "district": "Jardim Social Arapongas",
        "street": "Rua Joaquim Silvestre Carvalho",
        "zipcode": "84174-140"
    },
    {
        "city": "Castro",
        "state": "PR",
        "district": "Jardim das Araucárias",
        "street": "Rua José Waldemar Iucksh",
        "zipcode": "84174-080"
    },
    {
        "city": "Castro",
        "state": "PR",
        "district": "Jardim Social Arapongas",
        "street": "Rua Juvenal Ribas",
        "zipcode": "84174-190"
    },
    {
        "city": "Castro",
        "state": "PR",
        "district": "Jardim das Araucárias",
        "street": "Rua Luiz Cardoso",
        "zipcode": "84172-575"
    },
    {
        "city": "Castro",
        "state": "PR",
        "district": "Vila Rio Branco",
        "street": "Rua Marechal Floriano",
        "zipcode": "84172-550"
    },
    {
        "city": "Castro",
        "state": "PR",
        "district": "Jardim Bailly",
        "street": "Rua Humberto Raphael Flores",
        "zipcode": "84173-540"
    },
    {
        "city": "Castro",
        "state": "PR",
        "district": "Jardim Bailly",
        "street": "Rua João de Deus Colect",
        "zipcode": "84173-570"
    },
    {
        "city": "Castro",
        "state": "PR",
        "district": "Jardim Bailly",
        "street": "Rua Afonso Prestes Carneiro",
        "zipcode": "84173-580"
    },
    {
        "city": "Castro",
        "state": "PR",
        "district": "Jardim Bailly",
        "street": "Rua Jacomina Demário Laroca",
        "zipcode": "84173-590"
    },
    {
        "city": "Castro",
        "state": "PR",
        "district": "Jardim das Araucárias",
        "street": "Avenida Prefeito Ronie Cardoso",
        "zipcode": "84174-105"
    },
    {
        "city": "Castro",
        "state": "PR",
        "district": "Vila Rio Branco",
        "street": "Rua Marechal Deodoro",
        "zipcode": "84173-420"
    },
    {
        "city": "Castro",
        "state": "PR",
        "district": "Vila Rio Branco",
        "street": "Rua Otávio Torres Pereira",
        "zipcode": "84173-410"
    },
    {
        "city": "Castro",
        "state": "PR",
        "district": "Vila Rio Branco",
        "street": "Rua Rui Barbosa",
        "zipcode": "84173-340"
    },
    {
        "city": "Castro",
        "state": "PR",
        "district": "Vila Rio Branco",
        "street": "Rua Santa Cruz",
        "zipcode": "84173-300"
    },
    {
        "city": "Castro",
        "state": "PR",
        "district": "Vila Rio Branco",
        "street": "Rua Santos Dumont",
        "zipcode": "84173-390"
    },
    {
        "city": "Castro",
        "state": "PR",
        "district": "Vila Rio Branco",
        "street": "Rua Sete de Setembro",
        "zipcode": "84173-400"
    },
    {
        "city": "Castro",
        "state": "PR",
        "district": "Vila Rio Branco",
        "street": "Rua Wenceslau Braz",
        "zipcode": "84173-380"
    },
    {
        "city": "Castro",
        "state": "PR",
        "district": "Vila Rio Branco",
        "street": "Rua Arthur Gomes Machado",
        "zipcode": "84173-360"
    },
    {
        "city": "Castro",
        "state": "PR",
        "district": "Vila Rio Branco",
        "street": "Rua Professor Canderoy Mainardes",
        "zipcode": "84173-370"
    },
    {
        "city": "Castro",
        "state": "PR",
        "district": "Vila Rio Branco",
        "street": "Rua Major Cândido Cruz",
        "zipcode": "84173-310"
    },
    {
        "city": "Castro",
        "state": "PR",
        "district": "Vila Rio Branco",
        "street": "Rua Alcebíades Marques de Souza",
        "zipcode": "84173-330"
    },
    {
        "city": "Castro",
        "state": "PR",
        "district": "Vila Rio Branco",
        "street": "Rua Francisco de Assis Andrade",
        "zipcode": "84173-320"
    },
    {
        "city": "Castro",
        "state": "PR",
        "district": "Jardim das Nações",
        "street": "Rua Matilde Baer",
        "zipcode": "84172-180"
    },
    {
        "city": "Castro",
        "state": "PR",
        "district": "Jardim Social Arapongas",
        "street": "Rua Miguel Zahdi",
        "zipcode": "84174-120"
    },
    {
        "city": "Castro",
        "state": "PR",
        "district": "Jardim das Araucárias",
        "street": "Rua Moacir Elias Fadel",
        "zipcode": "84172-590"
    },
    {
        "city": "Castro",
        "state": "PR",
        "district": "Jardim Social Primavera",
        "street": "Rua Paulo Madureira Novaes",
        "zipcode": "84174-010"
    },
    {
        "city": "Castro",
        "state": "PR",
        "district": "Jardim Social Arapongas",
        "street": "Rodovia PR",
        "zipcode": "84174-150"
    },
    {
        "city": "Castro",
        "state": "PR",
        "district": "Vila Rio Branco",
        "street": "Rua Quatorze de Julho",
        "zipcode": "84172-490"
    },
    {
        "city": "Castro",
        "state": "PR",
        "district": "Jardim das Araucárias",
        "street": "Travessa Rio de Janeiro",
        "zipcode": "84174-070"
    },
    {
        "city": "Castro",
        "state": "PR",
        "district": "Jardim das Araucárias",
        "street": "Rua Rodolfo Zappe",
        "zipcode": "84172-495"
    },
    {
        "city": "Castro",
        "state": "PR",
        "district": "Vila Rio Branco",
        "street": "Rua Raimundo F. Gaião",
        "zipcode": "84172-560"
    },
    {
        "city": "Castro",
        "state": "PR",
        "district": "Jardim Social Arapongas",
        "street": "Rua Evangelina Madureira Camargo",
        "zipcode": "84174-170"
    },
    {
        "city": "Castro",
        "state": "PR",
        "district": "Jardim Social Primavera",
        "street": "Rua Félix Tadeu Meyer",
        "zipcode": "84174-050"
    },
    {
        "city": "Castro",
        "state": "PR",
        "district": "Jardim das Araucárias",
        "street": "Travessa Humberto Raphael Flores",
        "zipcode": "84172-595"
    },
    {
        "city": "Castro",
        "state": "PR",
        "district": "Invernada do Matadouro",
        "street": "Rua Holanda",
        "zipcode": "84174-100"
    },
    {
        "city": "Castro",
        "state": "PR",
        "district": "Vila Rio Branco",
        "street": "Rua Alfredo Schendroski",
        "zipcode": "84172-380"
    },
    {
        "city": "Castro",
        "state": "PR",
        "district": "Morada do Sol",
        "street": "Rua Antônio José Gomes",
        "zipcode": "84172-150"
    },
    {
        "city": "Castro",
        "state": "PR",
        "district": "Vila Rio Branco",
        "street": "Rua Antônio Menarim",
        "zipcode": "84172-390"
    },
    {
        "city": "Castro",
        "state": "PR",
        "district": "Vila Rio Branco",
        "street": "Travessa Basílio Tavares",
        "zipcode": "84172-335"
    },
    {
        "city": "Castro",
        "state": "PR",
        "district": "Jardim dos Bancários",
        "street": "Rua Bertholdo Martins de Oliveira",
        "zipcode": "84172-350"
    },
    {
        "city": "Castro",
        "state": "PR",
        "district": "Vila Rio Branco",
        "street": "Rua Cezar Augusto Beck",
        "zipcode": "84172-275"
    },
    {
        "city": "Castro",
        "state": "PR",
        "district": "Vila Rio Branco",
        "street": "Travessa do Chafariz",
        "zipcode": "84172-265"
    },
    {
        "city": "Castro",
        "state": "PR",
        "district": "Vila Rio Branco",
        "street": "Avenida Marly Rolim",
        "zipcode": "84172-340"
    },
    {
        "city": "Castro",
        "state": "PR",
        "district": "Vila Rio Branco",
        "street": "Rua Consulesa Helena Van Der Berg",
        "zipcode": "84172-280"
    },
    {
        "city": "Castro",
        "state": "PR",
        "district": "Vila Rio Branco",
        "street": "Rua Coronel Jorge Marcondes",
        "zipcode": "84172-020"
    },
    {
        "city": "Castro",
        "state": "PR",
        "district": "Vila Rio Branco",
        "street": "Rua Cruz Machado",
        "zipcode": "84172-080"
    },
    {
        "city": "Castro",
        "state": "PR",
        "district": "Vila Rio Branco",
        "street": "Rua Doutor Javert Madureira",
        "zipcode": "84172-060"
    },
    {
        "city": "Castro",
        "state": "PR",
        "district": "Jardim das Araucárias",
        "street": "Rua Florentino Telles",
        "zipcode": "84172-485"
    },
    {
        "city": "Castro",
        "state": "PR",
        "district": "Vila Rio Branco",
        "street": "Travessa Florisval R. de Morais",
        "zipcode": "84172-290"
    },
    {
        "city": "Castro",
        "state": "PR",
        "district": "Morada do Sol",
        "street": "Rua Francisco Botogoski",
        "zipcode": "84172-170"
    },
    {
        "city": "Castro",
        "state": "PR",
        "district": "Jardim das Nações",
        "street": "Rua Francisco Pianowski",
        "zipcode": "84172-320"
    },
    {
        "city": "Castro",
        "state": "PR",
        "district": "Vila Rio Branco",
        "street": "Rua General Almada",
        "zipcode": "84172-410"
    },
    {
        "city": "Castro",
        "state": "PR",
        "district": "Jardim dos Bancários",
        "street": "Rua Guilherme Alfredo Kiel",
        "zipcode": "84172-090"
    },
    {
        "city": "Castro",
        "state": "PR",
        "district": "Vila Santa Cruz",
        "street": "Rua Heráclio Mendes de Camargo",
        "zipcode": "84168-260"
    },
    {
        "city": "Castro",
        "state": "PR",
        "district": "Vila Rio Branco",
        "street": "Rua João Rodrigues de Macedo",
        "zipcode": "84172-310"
    },
    {
        "city": "Castro",
        "state": "PR",
        "district": "Morada do Sol",
        "street": "Rua Mário Bertolini",
        "zipcode": "84172-200"
    },
    {
        "city": "Castro",
        "state": "PR",
        "district": "Centro",
        "street": "Avenida Miguel Couto",
        "zipcode": "84172-300"
    },
    {
        "city": "Castro",
        "state": "PR",
        "district": "Jardim das Araucárias",
        "street": "Rua Octávio Pereira da Silva Júnior",
        "zipcode": "84172-580"
    },
    {
        "city": "Castro",
        "state": "PR",
        "district": "Morada do Sol",
        "street": "Rua Herondina Grimbor de Oliveira",
        "zipcode": "84172-240"
    },
    {
        "city": "Castro",
        "state": "PR",
        "district": "Vila Rio Branco",
        "street": "Rua Padre Casimiro",
        "zipcode": "84172-030"
    },
    {
        "city": "Castro",
        "state": "PR",
        "district": "Morada do Sol",
        "street": "Rua Paulo Henning",
        "zipcode": "84172-210"
    },
    {
        "city": "Castro",
        "state": "PR",
        "district": "Vila Rio Branco",
        "street": "Rua Professora Maria Helvina C. de Mello",
        "zipcode": "84172-130"
    },
    {
        "city": "Castro",
        "state": "PR",
        "district": "Jardim dos Bancários",
        "street": "Rua Prudência Celeste da Fonseca Novaes",
        "zipcode": "84172-330"
    },
    {
        "city": "Castro",
        "state": "PR",
        "district": "Jardim das Nações",
        "street": "Rua Padre Piva",
        "zipcode": "84172-160"
    },
    {
        "city": "Castro",
        "state": "PR",
        "district": "Vila Rio Branco",
        "street": "Rua Rodrigo Octávio Torres Pereira",
        "zipcode": "84172-270"
    },
    {
        "city": "Castro",
        "state": "PR",
        "district": "Morada do Sol",
        "street": "Travessa Alda de Andrade Krelling",
        "zipcode": "84172-250"
    },
    {
        "city": "Castro",
        "state": "PR",
        "district": "Jardim dos Bancários",
        "street": "Rua Stephano Rudeck",
        "zipcode": "84172-070"
    },
    {
        "city": "Castro",
        "state": "PR",
        "district": "Vila Rio Branco",
        "street": "Rua Vinte e Um de Abril",
        "zipcode": "84172-470"
    },
    {
        "city": "Castro",
        "state": "PR",
        "district": "Jardim das Nações",
        "street": "Rua Doutor Bernardo Pusch Júnior",
        "zipcode": "84172-140"
    },
    {
        "city": "Castro",
        "state": "PR",
        "district": "Morada do Sol",
        "street": "Travessa Arlindo Corrêa",
        "zipcode": "84172-234"
    },
    {
        "city": "Castro",
        "state": "PR",
        "district": "Morada do Sol",
        "street": "Travessa Levi Saldanha",
        "zipcode": "84172-236"
    },
    {
        "city": "Castro",
        "state": "PR",
        "district": "Vila Rio Branco",
        "street": "Rua Leonardo Machinski",
        "zipcode": "84172-388"
    },
    {
        "city": "Castro",
        "state": "PR",
        "district": "Morada do Sol",
        "street": "Rua Percy Bannach Lopes",
        "zipcode": "84172-190"
    },
    {
        "city": "Castro",
        "state": "PR",
        "district": "Vila Rio Branco",
        "street": "Rua Jair Granado",
        "zipcode": "84172-145"
    },
    {
        "city": "Castro",
        "state": "PR",
        "district": "Jardim dos Bancários",
        "street": "Rua Conselheiro Jesuíno Marcondes",
        "zipcode": "84172-260"
    },
    {
        "city": "Castro",
        "state": "PR",
        "district": "Vila Rio Branco",
        "street": "Rua Hipólito Stori",
        "zipcode": "84172-420"
    },
    {
        "city": "Castro",
        "state": "PR",
        "district": "Jardim Social Primavera",
        "street": "Travessa Ribeirão Preto",
        "zipcode": "84172-600"
    },
    {
        "city": "Castro",
        "state": "PR",
        "district": "Morada do Sol",
        "street": "Rua Elmiro Edelberto Ferrari",
        "zipcode": "84172-220"
    },
    {
        "city": "Castro",
        "state": "PR",
        "district": "Morada do Sol",
        "street": "Rua Dorothéa Wiedemann",
        "zipcode": "84172-155"
    },
    {
        "city": "Castro",
        "state": "PR",
        "district": "Vila Rio Branco",
        "street": "Travessa Maria Magadalena Vassão",
        "zipcode": "84172-405"
    },
    {
        "city": "Castro",
        "state": "PR",
        "district": "Jardim dos Bancários",
        "street": "Rua Coronel Vidal Martins de Oliveira",
        "zipcode": "84172-000"
    },
    {
        "city": "Castro",
        "state": "PR",
        "district": "Lacustre",
        "street": "Travessa Amador Felipe Diniz",
        "zipcode": "84165-665"
    },
    {
        "city": "Castro",
        "state": "PR",
        "district": "Vila Santa Cruz",
        "street": "Rua Antônio Ferreira Salgado",
        "zipcode": "84168-160"
    },
    {
        "city": "Castro",
        "state": "PR",
        "district": "Lacustre",
        "street": "Rua Antônio Schendroski",
        "zipcode": "84165-670"
    },
    {
        "city": "Castro",
        "state": "PR",
        "district": "Vila Santa Cruz",
        "street": "Travessa Antônio Stella",
        "zipcode": "84168-045"
    },
    {
        "city": "Castro",
        "state": "PR",
        "district": "Vila Santa Cruz",
        "street": "Rua Aviador Iereni Malherbi Sinhori",
        "zipcode": "84168-170"
    },
    {
        "city": "Castro",
        "state": "PR",
        "district": "Vila do Rosário",
        "street": "Rua Bolívia",
        "zipcode": "84168-110"
    },
    {
        "city": "Castro",
        "state": "PR",
        "district": "Vila Santa Cruz",
        "street": "Rua Adolfo Gustavo Lesnau",
        "zipcode": "84168-220"
    },
    {
        "city": "Castro",
        "state": "PR",
        "district": "Centro",
        "street": "Rua Carlos Cavalcanti",
        "zipcode": "84165-650"
    },
    {
        "city": "Castro",
        "state": "PR",
        "district": "Vila do Rosário",
        "street": "Rua Chile",
        "zipcode": "84168-060"
    },
    {
        "city": "Castro",
        "state": "PR",
        "district": "Lacustre",
        "street": "Travessa Coronel Olegário de Macedo",
        "zipcode": "84165-690"
    },
    {
        "city": "Castro",
        "state": "PR",
        "district": "Vila Santa Cruz",
        "street": "Rua Dario de Macedo",
        "zipcode": "84168-180"
    },
    {
        "city": "Castro",
        "state": "PR",
        "district": "Vila Santa Cruz",
        "street": "Rua Irmã Apoline Trezub",
        "zipcode": "84168-130"
    },
    {
        "city": "Castro",
        "state": "PR",
        "district": "Centro",
        "street": "Rua João Maria do Carmo",
        "zipcode": "84165-610"
    },
    {
        "city": "Castro",
        "state": "PR",
        "district": "Vila Santa Cruz",
        "street": "Rua Jundiaí",
        "zipcode": "84168-150"
    },
    {
        "city": "Castro",
        "state": "PR",
        "district": "Centro",
        "street": "Praça João José de Farias",
        "zipcode": "84165-070"
    },
    {
        "city": "Castro",
        "state": "PR",
        "district": "Vila Santa Cruz",
        "street": "Travessa Lídia Stella Biassio",
        "zipcode": "84168-120"
    },
    {
        "city": "Castro",
        "state": "PR",
        "district": "Vila Santa Cruz",
        "street": "Rua Cristiano Schmitke",
        "zipcode": "84168-140"
    },
    {
        "city": "Castro",
        "state": "PR",
        "district": "Centro",
        "street": "Rua Mariana Marques",
        "zipcode": "84165-640"
    },
    {
        "city": "Castro",
        "state": "PR",
        "district": "Vila Santa Cruz",
        "street": "Rua Michael Kulpa",
        "zipcode": "84168-240"
    },
    {
        "city": "Castro",
        "state": "PR",
        "district": "Vila Santa Cruz",
        "street": "Avenida Nicolau Jacob Filho",
        "zipcode": "84168-210"
    },
    {
        "city": "Castro",
        "state": "PR",
        "district": "Vila Santa Cruz",
        "street": "Rua Oscar Marfurt",
        "zipcode": "84168-050"
    },
    {
        "city": "Castro",
        "state": "PR",
        "district": "Vila Santa Cruz",
        "street": "Rua Paulo Milek Sobrinho",
        "zipcode": "84168-040"
    },
    {
        "city": "Castro",
        "state": "PR",
        "district": "Centro",
        "street": "Rua Quinze de Novembro",
        "zipcode": "84165-680"
    },
    {
        "city": "Castro",
        "state": "PR",
        "district": "Lacustre",
        "street": "Rua Padre Anchieta",
        "zipcode": "84165-660"
    },
    {
        "city": "Castro",
        "state": "PR",
        "district": "Vila do Rosário",
        "street": "Rua Paraguai",
        "zipcode": "84168-070"
    },
    {
        "city": "Castro",
        "state": "PR",
        "district": "Lacustre",
        "street": "Travessa Rogero Galetto",
        "zipcode": "84165-695"
    },
    {
        "city": "Castro",
        "state": "PR",
        "district": "Vila Santa Cruz",
        "street": "Rua Santo Antônio da Platina",
        "zipcode": "84168-190"
    },
    {
        "city": "Castro",
        "state": "PR",
        "district": "Vila Santa Cruz",
        "street": "Rua São Tomé",
        "zipcode": "84168-010"
    },
    {
        "city": "Castro",
        "state": "PR",
        "district": "Centro",
        "street": "Rua Tiradentes",
        "zipcode": "84165-630"
    },
    {
        "city": "Castro",
        "state": "PR",
        "district": "Vila do Rosário",
        "street": "Rua Uruguai",
        "zipcode": "84168-080"
    },
    {
        "city": "Castro",
        "state": "PR",
        "district": "Vila do Rosário",
        "street": "Rua Yoiti Iwashita",
        "zipcode": "84168-090"
    },
    {
        "city": "Castro",
        "state": "PR",
        "district": "Vila do Rosário",
        "street": "Rua Luiz de Biassio",
        "zipcode": "84168-100"
    },
    {
        "city": "Castro",
        "state": "PR",
        "district": "Vila do Rosário",
        "street": "Rua Ignes de Quadros Krelling",
        "zipcode": "84168-066"
    },
    {
        "city": "Castro",
        "state": "PR",
        "district": "Vila do Rosário",
        "street": "Travessa Alcides Barreto Vaz",
        "zipcode": "84168-067"
    },
    {
        "city": "Castro",
        "state": "PR",
        "district": "Vila do Rosário",
        "street": "Travessa B (Vl S Cruz)",
        "zipcode": "84168-068"
    },
    {
        "city": "Castro",
        "state": "PR",
        "district": "Vila do Rosário",
        "street": "Rua Heinrich Eduardo Armandus Drees",
        "zipcode": "84168-076"
    },
    {
        "city": "Castro",
        "state": "PR",
        "district": "Vila do Rosário",
        "street": "Rua Pedro Lauber",
        "zipcode": "84168-078"
    },
    {
        "city": "Castro",
        "state": "PR",
        "district": "Vila do Rosário",
        "street": "Rua Augustinho Zen",
        "zipcode": "84168-085"
    },
    {
        "city": "Castro",
        "state": "PR",
        "district": "Vila do Rosário",
        "street": "Rua Valentim Valenga",
        "zipcode": "84168-086"
    },
    {
        "city": "Castro",
        "state": "PR",
        "district": "Vila do Rosário",
        "street": "Travessa João Moreira Ribas",
        "zipcode": "84168-108"
    },
    {
        "city": "Castro",
        "state": "PR",
        "district": "Centro",
        "street": "Rua Major Otávio Novaes",
        "zipcode": "84165-648"
    },
    {
        "city": "Castro",
        "state": "PR",
        "district": "Centro",
        "street": "Rua Cipriano Marques de Souza",
        "zipcode": "84165-970"
    },
    {
        "city": "Castro",
        "state": "PR",
        "district": "Centro",
        "street": "Rua Doutor Jorge Xavier da Silva",
        "zipcode": "84166-980"
    },
    {
        "city": "Castro",
        "state": "PR",
        "district": "Centro",
        "street": "Rua Doutor Jorge Xavier da Silva",
        "zipcode": "84166-981"
    },
    {
        "city": "Castro",
        "state": "PR",
        "district": "Vila do Rosário",
        "street": "Rua Eduardo Kops (N S do Rosário)",
        "zipcode": "84168-087"
    },
    {
        "city": "Castro",
        "state": "PR",
        "district": "Vila do Rosário",
        "street": "Rua L (N S do Rosário)",
        "zipcode": "84168-088"
    },
    {
        "city": "Castro",
        "state": "PR",
        "district": "Vila do Rosário",
        "street": "Rua Padre Lívio Donati",
        "zipcode": "84168-069"
    },
    {
        "city": "Castro",
        "state": "PR",
        "district": "Vila Santa Cruz",
        "street": "Rua José Arthur de Jesus",
        "zipcode": "84168-035"
    },
    {
        "city": "Castro",
        "state": "PR",
        "district": "Centro",
        "street": "Rua Ângelo Fagundes da Fonseca",
        "zipcode": "84165-200"
    },
    {
        "city": "Castro",
        "state": "PR",
        "district": "Centro",
        "street": "Rua Antônio Rolim de Moura",
        "zipcode": "84165-580"
    },
    {
        "city": "Castro",
        "state": "PR",
        "district": "Jardim Bela Vista",
        "street": "Rua Carlos Michalski",
        "zipcode": "84165-420"
    },
    {
        "city": "Castro",
        "state": "PR",
        "district": "Centro",
        "street": "Rua Benjamin Constant",
        "zipcode": "84165-220"
    },
    {
        "city": "Castro",
        "state": "PR",
        "district": "Centro",
        "street": "Avenida Bento Munhoz da Rocha Neto",
        "zipcode": "84165-170"
    },
    {
        "city": "Castro",
        "state": "PR",
        "district": "Centro",
        "street": "Rua Bernardo Pusch",
        "zipcode": "84165-600"
    },
    {
        "city": "Castro",
        "state": "PR",
        "district": "Jardim Bela Vista",
        "street": "Rua Julio Rony Beck",
        "zipcode": "84165-360"
    },
    {
        "city": "Castro",
        "state": "PR",
        "district": "Centro",
        "street": "Rua Cipriano Marques de Souza",
        "zipcode": "84165-120"
    },
    {
        "city": "Castro",
        "state": "PR",
        "district": "Centro",
        "street": "Praça da Constituinte de 1932",
        "zipcode": "84165-445"
    },
    {
        "city": "Castro",
        "state": "PR",
        "district": "Jardim Bela Vista",
        "street": "Rua Dezessete de Maio",
        "zipcode": "84165-400"
    },
    {
        "city": "Castro",
        "state": "PR",
        "district": "Centro",
        "street": "Rua Francisco Xavier da Silva",
        "zipcode": "84165-530"
    },
    {
        "city": "Castro",
        "state": "PR",
        "district": "Lacustre",
        "street": "Rua General Abreu",
        "zipcode": "84165-300"
    },
    {
        "city": "Castro",
        "state": "PR",
        "district": "Centro",
        "street": "Rua General Câmara",
        "zipcode": "84165-190"
    },
    {
        "city": "Castro",
        "state": "PR",
        "district": "Centro",
        "street": "Rua General Osório",
        "zipcode": "84165-180"
    },
    {
        "city": "Castro",
        "state": "PR",
        "district": "Vila Frei Mathias",
        "street": "Avenida Germano Kugler",
        "zipcode": "84165-320"
    },
    {
        "city": "Castro",
        "state": "PR",
        "district": "Centro",
        "street": "Praça SantAna do Iapó",
        "zipcode": "84165-490"
    },
    {
        "city": "Castro",
        "state": "PR",
        "district": "Jardim Bela Vista",
        "street": "Rua Januário de Sio",
        "zipcode": "84165-390"
    },
    {
        "city": "Castro",
        "state": "PR",
        "district": "Centro",
        "street": "Praça João Gualberto",
        "zipcode": "84165-520"
    },
    {
        "city": "Castro",
        "state": "PR",
        "district": "Vila Frei Mathias",
        "street": "Rua José Mazzini Galetto",
        "zipcode": "84165-340"
    },
    {
        "city": "Castro",
        "state": "PR",
        "district": "Centro",
        "street": "Rua Maestro Benedito Pereira",
        "zipcode": "84165-240"
    },
    {
        "city": "Castro",
        "state": "PR",
        "district": "Centro",
        "street": "Praça Manoel Ribas",
        "zipcode": "84165-510"
    },
    {
        "city": "Castro",
        "state": "PR",
        "district": "Centro",
        "street": "Rua Nossa Senhora do Carmo",
        "zipcode": "84165-440"
    },
    {
        "city": "Castro",
        "state": "PR",
        "district": "Centro",
        "street": "Rua Jonas Borges Martins",
        "zipcode": "84165-250"
    },
    {
        "city": "Castro",
        "state": "PR",
        "district": "Centro",
        "street": "Rua Maestro Bento Mossurunga",
        "zipcode": "84165-260"
    },
    {
        "city": "Castro",
        "state": "PR",
        "district": "Centro",
        "street": "Rua Otto Kugler",
        "zipcode": "84165-080"
    },
    {
        "city": "Castro",
        "state": "PR",
        "district": "Centro",
        "street": "Rua Padre Nóbrega",
        "zipcode": "84165-570"
    },
    {
        "city": "Castro",
        "state": "PR",
        "district": "Vila Frei Mathias",
        "street": "Rua Paschoal Amato",
        "zipcode": "84165-350"
    },
    {
        "city": "Castro",
        "state": "PR",
        "district": "Centro",
        "street": "Rua Alvares Cabral",
        "zipcode": "84165-590"
    },
    {
        "city": "Castro",
        "state": "PR",
        "district": "Bom Sucesso",
        "street": "Rodovia PR",
        "zipcode": "84165-720"
    },
    {
        "city": "Castro",
        "state": "PR",
        "district": "Centro",
        "street": "Avenida Presidente Kennedy",
        "zipcode": "84165-110"
    },
    {
        "city": "Castro",
        "state": "PR",
        "district": "Centro",
        "street": "Rua Princesa Isabel",
        "zipcode": "84165-450"
    },
    {
        "city": "Castro",
        "state": "PR",
        "district": "Centro",
        "street": "Rua Padre Nicolau Baltazar",
        "zipcode": "84165-460"
    },
    {
        "city": "Castro",
        "state": "PR",
        "district": "Centro",
        "street": "Praça Pedro Kaled",
        "zipcode": "84165-540"
    },
    {
        "city": "Castro",
        "state": "PR",
        "district": "Centro",
        "street": "Rua Rocha Pombo",
        "zipcode": "84165-565"
    },
    {
        "city": "Castro",
        "state": "PR",
        "district": "Centro",
        "street": "Rua do Rosário",
        "zipcode": "84165-130"
    },
    {
        "city": "Castro",
        "state": "PR",
        "district": "Centro",
        "street": "Praça Senador Souza Naves",
        "zipcode": "84165-550"
    },
    {
        "city": "Castro",
        "state": "PR",
        "district": "Lacustre",
        "street": "Rua Silvino Marques de Souza",
        "zipcode": "84165-305"
    },
    {
        "city": "Castro",
        "state": "PR",
        "district": "Lacustre",
        "street": "Rua Urbano Borges Martins",
        "zipcode": "84165-140"
    },
    {
        "city": "Castro",
        "state": "PR",
        "district": "Jardim Bela Vista",
        "street": "Rua Vieira",
        "zipcode": "84165-380"
    },
    {
        "city": "Castro",
        "state": "PR",
        "district": "Centro",
        "street": "Rua Visconde do Rio Branco",
        "zipcode": "84165-470"
    },
    {
        "city": "Castro",
        "state": "PR",
        "district": "Lacustre",
        "street": "Rua Vitória",
        "zipcode": "84165-310"
    },
    {
        "city": "Castro",
        "state": "PR",
        "district": "Centro",
        "street": "Rua Padre Damaso",
        "zipcode": "84165-210"
    },
    {
        "city": "Castro",
        "state": "PR",
        "district": "Centro",
        "street": "Rua Pedro Dobis",
        "zipcode": "84165-545"
    },
    {
        "city": "Castro",
        "state": "PR",
        "district": "Jardim Bela Vista",
        "street": "Rua Maria Aparecida de Mello",
        "zipcode": "84165-418"
    },
    {
        "city": "Castro",
        "state": "PR",
        "district": "Jardim Bela Vista",
        "street": "Rua Ismael de Paula (Jd Mirante da Serra)",
        "zipcode": "84165-425"
    },
    {
        "city": "Castro",
        "state": "PR",
        "district": "Centro",
        "street": "Travessa Basílio Chirum",
        "zipcode": "84165-625"
    },
    {
        "city": "Castro",
        "state": "PR",
        "district": "Vila Santa Cruz",
        "street": "Rua Bogdam Holowchak",
        "zipcode": "84168-026"
    },
    {
        "city": "Castro",
        "state": "PR",
        "district": "Vila Santa Cruz",
        "street": "Rua João Rodrigues da Cruz",
        "zipcode": "84168-027"
    },
    {
        "city": "Castro",
        "state": "PR",
        "district": "Vila Santa Cruz",
        "street": "Rua José Gomes Barbosa",
        "zipcode": "84168-025"
    },
    {
        "city": "Castro",
        "state": "PR",
        "district": "Jardim Bela Vista",
        "street": "Rua Ivo Marques da Silva",
        "zipcode": "84165-412"
    },
    {
        "city": "Castro",
        "state": "PR",
        "district": "Áreal Rural de Castro",
        "street": "Área Rural",
        "zipcode": "84184-899"
    },
    {
        "city": "Castro",
        "state": "PR",
        "district": "Vila Rio Branco",
        "street": "Rua Amsterdam",
        "zipcode": "84178-626"
    },
    {
        "city": "Castro",
        "state": "PR",
        "district": "Castrolanda",
        "street": "Rua Novo Horizonte",
        "zipcode": "84177-050"
    },
    {
        "city": "Castro",
        "state": "PR",
        "district": "Castrolanda",
        "street": "Praça Concórdia",
        "zipcode": "84177-048"
    },
    {
        "city": "Castro",
        "state": "PR",
        "district": "Vila Rio Branco",
        "street": "Rua Luiz Pickler",
        "zipcode": "84173-352"
    },
    {
        "city": "Castro",
        "state": "PR",
        "district": "Castrolanda",
        "street": "Rua Olímpica",
        "zipcode": "84177-024"
    },
    {
        "city": "Castro",
        "state": "PR",
        "district": "Castrolanda",
        "street": "Rua 30 de Novembro",
        "zipcode": "84177-022"
    },
    {
        "city": "Castro",
        "state": "PR",
        "district": "Castrolanda",
        "street": "Rua Europa",
        "zipcode": "84177-012"
    },
    {
        "city": "Castro",
        "state": "PR",
        "district": "Centro",
        "street": "Rua Alagoas",
        "zipcode": "84165-560"
    },
    {
        "city": "Castro",
        "state": "PR",
        "district": "Jardim Social Arapongas",
        "street": "Rua da Amizade",
        "zipcode": "84174-445"
    },
    {
        "city": "Castro",
        "state": "PR",
        "district": "Jardim Social Arapongas",
        "street": "Rua Ervino Schultz",
        "zipcode": "84174-296"
    },
    {
        "city": "Castro",
        "state": "PR",
        "district": "Castroville",
        "street": "Rua CH",
        "zipcode": "84178-650"
    },
    {
        "city": "Castro",
        "state": "PR",
        "district": "Centro",
        "street": "Rua Dom Pedro II",
        "zipcode": "84165-020"
    },
    {
        "city": "Castro",
        "state": "PR",
        "district": "Centro",
        "street": "Rua Doutor Jorge Xavier da Silva",
        "zipcode": "84165-000"
    },
    {
        "city": "Castro",
        "state": "PR",
        "district": "Centro",
        "street": "Rua Doutor Romário Martins",
        "zipcode": "84165-010"
    },
    {
        "city": "Castro",
        "state": "PR",
        "district": "Centro",
        "street": "Rua Guilherme Zimmerman",
        "zipcode": "84165-060"
    },
    {
        "city": "Castro",
        "state": "PR",
        "district": "Vila Santa Cruz",
        "street": "Praça Indalécio de Macedo",
        "zipcode": "84168-230"
    },
    {
        "city": "Castro",
        "state": "PR",
        "district": "Jardim Social Arapongas",
        "street": "Travessa José de Freitas Castro",
        "zipcode": "84174-295"
    },
    {
        "city": "Castro",
        "state": "PR",
        "district": "Vila Farias",
        "street": "Travessa João Stocco",
        "zipcode": "84178-050"
    },
    {
        "city": "Castro",
        "state": "PR",
        "district": "Centro",
        "street": "Praça Leocádio José Correia",
        "zipcode": "84165-035"
    },
    {
        "city": "Castro",
        "state": "PR",
        "district": "Lacustre",
        "street": "Travessa Luiz Razera",
        "zipcode": "84165-295"
    },
    {
        "city": "Castro",
        "state": "PR",
        "district": "Vila Rio Branco",
        "street": "Praça Nossa Senhora do Rosário",
        "zipcode": "84172-010"
    },
    {
        "city": "Castro",
        "state": "PR",
        "district": "Jardim das Nações",
        "street": "Rua Otávio Bannach",
        "zipcode": "84172-120"
    },
    {
        "city": "Castro",
        "state": "PR",
        "district": "Centro",
        "street": "Rua Peregrino Ferrari Júnior",
        "zipcode": "84165-050"
    },
    {
        "city": "Castro",
        "state": "PR",
        "district": "Vila Santa Cruz",
        "street": "Rua Roberto Lesnau",
        "zipcode": "84168-020"
    },
    {
        "city": "Castro",
        "state": "PR",
        "district": "Jardim das Araucárias",
        "street": "Travessa Rodolfo de Meira",
        "zipcode": "84172-565"
    },
    {
        "city": "Castro",
        "state": "PR",
        "district": "Centro",
        "street": "Rua Treze de Maio",
        "zipcode": "84165-040"
    },
    {
        "city": "Castro",
        "state": "PR",
        "district": "Jardim Termas Riviera",
        "street": "Rua Pedro King",
        "zipcode": "84182-000"
    },
    {
        "city": "Castro",
        "state": "PR",
        "district": "Núcleo Habitacional Padre Piva",
        "street": "Rua João Batista Gonçalves",
        "zipcode": "84178-360"
    },
    {
        "city": "Castro",
        "state": "PR",
        "district": "Jardim Bela Vista",
        "street": "Rua João Scheleski",
        "zipcode": "84165-426"
    },
    {
        "city": "Castro",
        "state": "PR",
        "district": "Vila do Rosário",
        "street": "Travessa Lúcio Antônio Carneiro",
        "zipcode": "84168-065"
    },
    {
        "city": "Castro",
        "state": "PR",
        "district": "Vila do Rosário",
        "street": "Rua Irmã Rosa Furlani",
        "zipcode": "84168-077"
    },
    {
        "city": "Castro",
        "state": "PR",
        "district": "Invernada do Matadouro",
        "street": "Rua Campo Grande",
        "zipcode": "84174-396"
    },
    {
        "city": "Castro",
        "state": "PR",
        "district": "Jardim das Araucárias",
        "street": "Rua Capitão Antônio Prestes Filho",
        "zipcode": "84174-617"
    },
    {
        "city": "Castro",
        "state": "PR",
        "district": "Jardim das Araucárias",
        "street": "Rua Rosana Cardoso Amato",
        "zipcode": "84174-629"
    },
    {
        "city": "Castro",
        "state": "PR",
        "district": "Jardim das Araucárias",
        "street": "Rua Doutor Afonso Celso Abrão",
        "zipcode": "84174-640"
    },
    {
        "city": "Castro",
        "state": "PR",
        "district": "Vila Santa Cruz",
        "street": "Rua Alberto Gonçalves",
        "zipcode": "84168-037"
    },
    {
        "city": "Castro",
        "state": "PR",
        "district": "Loteamento Jardim Pandorf",
        "street": "Rua Henrique Pereira",
        "zipcode": "84182-150"
    },
    {
        "city": "Castro",
        "state": "PR",
        "district": "Jardim Bela Vista",
        "street": "Rua Helcias Scheleski",
        "zipcode": "84165-415"
    },
    {
        "city": "Castro",
        "state": "PR",
        "district": "Vila Santa Cruz",
        "street": "Rua Mauro Simão",
        "zipcode": "84168-028"
    },
    {
        "city": "Castro",
        "state": "PR",
        "district": "Loteamento Jardim Pandorf",
        "street": "Rua Werner Schittenhelm",
        "zipcode": "84182-120"
    },
    {
        "city": "Castro",
        "state": "PR",
        "district": "Jardim Bailly",
        "street": "Rua Doutor Oney Barbosa Borba",
        "zipcode": "84173-550"
    },
    {
        "city": "Castro",
        "state": "PR",
        "district": "Jardim Pandorf",
        "street": "Rua Luis Carlos Gerytch",
        "zipcode": "84182-205"
    },
    {
        "city": "Castro",
        "state": "PR",
        "district": "Jardim Pandorf",
        "street": "Rua Valdivino dos Santos Silva",
        "zipcode": "84182-200"
    },
    {
        "city": "Castro",
        "state": "PR",
        "district": "Jardim Pandorf",
        "street": "Rua Lourival Gaida",
        "zipcode": "84182-210"
    },
    {
        "city": "Castro",
        "state": "PR",
        "district": "Jardim Pandorf",
        "street": "Rua Edilberto Kluczkowski",
        "zipcode": "84182-215"
    },
    {
        "city": "Castro",
        "state": "PR",
        "district": "Jardim dos Bancários",
        "street": "Rua Santa Cruz",
        "zipcode": "84172-360"
    },
    {
        "city": "Castro",
        "state": "PR",
        "district": "Centro",
        "street": "Rua Major Otávio Novaes",
        "zipcode": "84165-230"
    },
    {
        "city": "Castro",
        "state": "PR",
        "district": "Jardim das Araucárias",
        "street": "Rua Nelson Schmitke",
        "zipcode": "84174-072"
    },
    {
        "city": "Castro",
        "state": "PR",
        "district": "Vila Frei Mathias",
        "street": "Travessa Pedro Canova",
        "zipcode": "84165-335"
    },
    {
        "city": "Castro",
        "state": "PR",
        "district": "Jardim Bela Vista",
        "street": "Rua Joaquim Donato (Jd Mirante da Serra)",
        "zipcode": "84165-416"
    },
    {
        "city": "Castro",
        "state": "PR",
        "district": "Jardim Bela Vista",
        "street": "Rua João dos Santos",
        "zipcode": "84165-417"
    },
    {
        "city": "Castro",
        "state": "PR",
        "district": "Jardim das Araucárias",
        "street": "Rua Miguel Urso",
        "zipcode": "84174-627"
    },
    {
        "city": "Castro",
        "state": "PR",
        "district": "Loteamento Jardim Pandorf",
        "street": "Rua Nicolau Valenga",
        "zipcode": "84182-170"
    },
    {
        "city": "Castro",
        "state": "PR",
        "district": "Loteamento Jardim Pandorf",
        "street": "Rua Júlio Gerytch",
        "zipcode": "84182-190"
    },
    {
        "city": "Castro",
        "state": "PR",
        "district": "Loteamento Jardim Pandorf",
        "street": "Rua Oscar Wisoski",
        "zipcode": "84182-160"
    },
    {
        "city": "Castro",
        "state": "PR",
        "district": "Jardim Bela Vista",
        "street": "Rua E (Jd Mirante da Serra)",
        "zipcode": "84165-419"
    },
    {
        "city": "Castro",
        "state": "PR",
        "district": "Nossa Senhora das Graças",
        "street": "Rua Edwin Essig",
        "zipcode": "84181-222"
    },
    {
        "city": "Castro",
        "state": "PR",
        "district": "Nossa Senhora das Graças",
        "street": "Rua Ademar Francisco de Souza",
        "zipcode": "84181-226"
    },
    {
        "city": "Castro",
        "state": "PR",
        "district": "Nossa Senhora das Graças",
        "street": "Rua Amantino Adolfo Charão",
        "zipcode": "84181-224"
    },
    {
        "city": "Castro",
        "state": "PR",
        "district": "Nossa Senhora das Graças",
        "street": "Rua Lino Lopes",
        "zipcode": "84181-212"
    },
    {
        "city": "Castro",
        "state": "PR",
        "district": "Vila Rio Branco",
        "street": "Rua Rotterdam",
        "zipcode": "84178-628"
    },
    {
        "city": "Castro",
        "state": "PR",
        "district": "Castrolanda",
        "street": "Rua Juliana",
        "zipcode": "84177-046"
    },
    {
        "city": "Castro",
        "state": "PR",
        "district": "Castrolanda",
        "street": "Praça Alvorada",
        "zipcode": "84177-036"
    },
    {
        "city": "Castro",
        "state": "PR",
        "district": "Castrolanda",
        "street": "Rua Holanda",
        "zipcode": "84177-028"
    },
    {
        "city": "Castro",
        "state": "PR",
        "district": "Castrolanda",
        "street": "Rua das Flores",
        "zipcode": "84177-014"
    },
    {
        "city": "Castro",
        "state": "PR",
        "district": "Jardim dos Bancários",
        "street": "Travessa Iapó",
        "zipcode": "84172-352"
    },
    {
        "city": "Castro",
        "state": "PR",
        "district": "Vila Santa Cruz",
        "street": "Rua Arthur Nitzke da Silva",
        "zipcode": "84168-042"
    },
    {
        "city": "Castro",
        "state": "PR",
        "district": "Centro",
        "street": "Rua Cipriano Marques de Souza",
        "zipcode": "84165-971"
    },
    {
        "city": "Castro",
        "state": "PR",
        "district": "Jardim Social Arapongas",
        "street": "Rua Vereador Lauro Correa Rosa",
        "zipcode": "84174-282"
    },
    {
        "city": "Castro",
        "state": "PR",
        "district": "Jardim São Francisco",
        "street": "Rua Acelino Correia Bueno",
        "zipcode": "84174-040"
    },
    {
        "city": "Castro",
        "state": "PR",
        "district": "Invernada do Matadouro",
        "street": "Rua Alberto Fontes",
        "zipcode": "84174-390"
    },
    {
        "city": "Castro",
        "state": "PR",
        "district": "Núcleo Habitacional Padre Piva",
        "street": "Rua Alcindo R. de Moura",
        "zipcode": "84178-010"
    },
    {
        "city": "Castro",
        "state": "PR",
        "district": "Centro",
        "street": "Rua Alfredo Luiz de Mattos",
        "zipcode": "84165-030"
    },
    {
        "city": "Castro",
        "state": "PR",
        "district": "Jardim Bela Vista",
        "street": "Rua Ana Müller",
        "zipcode": "84165-410"
    },
    {
        "city": "Castro",
        "state": "PR",
        "district": "Cantagalo",
        "street": "Travessa Dácio José de Quadros",
        "zipcode": "84178-440"
    },
    {
        "city": "Castro",
        "state": "PR",
        "district": "Vila Santa Cruz",
        "street": "Rua Doutor Sizenando Bourguignon",
        "zipcode": "84168-030"
    },
    {
        "city": "Castro",
        "state": "PR",
        "district": "Centro",
        "street": "Praça Vereador Antonio Ramin Silveira",
        "zipcode": "84165-022"
    },
    {
        "city": "Castro",
        "state": "PR",
        "district": "Jardim Pandorf",
        "street": "Rua Vicente Kupski",
        "zipcode": "84182-220"
    },
    {
        "city": "Castro",
        "state": "PR",
        "district": "Vila Frei Mathias",
        "street": "Rua Erna Anna M. Laroca",
        "zipcode": "84165-330"
    },
    {
        "city": "Castro",
        "state": "PR",
        "district": "Jardim dos Bancários",
        "street": "Rua Francisco Anacleto da Fonseca",
        "zipcode": "84172-040"
    },
    {
        "city": "Castro",
        "state": "PR",
        "district": "Jardim Samambaia",
        "street": "Travessa Herculano Silva Gomes",
        "zipcode": "84182-110"
    },
    {
        "city": "Castro",
        "state": "PR",
        "district": "Jardim Social Arapongas",
        "street": "Rua Jamil Elias Fadel",
        "zipcode": "84174-210"
    },
    {
        "city": "Castro",
        "state": "PR",
        "district": "Invernada do Matadouro",
        "street": "Rua Jerônimo Cabral Pereira do Amaral",
        "zipcode": "84174-430"
    },
    {
        "city": "Castro",
        "state": "PR",
        "district": "Lacustre",
        "street": "Rua Luiz Antônio Dalarmi",
        "zipcode": "84165-280"
    },
    {
        "city": "Castro",
        "state": "PR",
        "district": "Jardim Social Arapongas",
        "street": "Rua Nova",
        "zipcode": "84174-115"
    },
    {
        "city": "Castro",
        "state": "PR",
        "district": "Centro",
        "street": "Rua Pandiá Calógeras",
        "zipcode": "84165-500"
    },
    {
        "city": "Castro",
        "state": "PR",
        "district": "Jardim Samambaia",
        "street": "Travessa Pedro Gaida Filho",
        "zipcode": "84182-090"
    },
    {
        "city": "Castro",
        "state": "PR",
        "district": "Jardim das Araucárias",
        "street": "Rua Sinezio Marques de Souza",
        "zipcode": "84174-590"
    },
    {
        "city": "Castro",
        "state": "PR",
        "district": "Vila do Rosário",
        "street": "Rua Hugo Iank",
        "zipcode": "84168-079"
    },
    {
        "city": "Castro",
        "state": "PR",
        "district": "Vila Rio Branco",
        "street": "Rua Comendador Manoel Inácio",
        "zipcode": "84172-050"
    },
    {
        "city": "Castro",
        "state": "PR",
        "district": "Vila do Rosário",
        "street": "Rua Francisco Telles",
        "zipcode": "84168-125"
    },
    {
        "city": "Castro",
        "state": "PR",
        "district": "Jardim Bela Vista",
        "street": "Rua Belo Horizonte",
        "zipcode": "84165-370"
    },
    {
        "city": "Castro",
        "state": "PR",
        "district": "Vila Santa Cruz",
        "street": "Rua Bogussuaw Kremer",
        "zipcode": "84168-036"
    },
    {
        "city": "Castro",
        "state": "PR",
        "district": "Loteamento Jardim Pandorf",
        "street": "Rua Walfrido Barreto Lopes",
        "zipcode": "84182-180"
    },
    {
        "city": "Castro",
        "state": "PR",
        "district": "Centro",
        "street": "Rua General Abreu",
        "zipcode": "84165-645"
    },
    {
        "city": "Castro",
        "state": "PR",
        "district": "Vila Rio Branco",
        "street": "Rua Carlos Evers",
        "zipcode": "84172-504"
    },
    {
        "city": "Castro",
        "state": "PR",
        "district": "Santa Paula",
        "street": "Rua Valter Schulz",
        "zipcode": "84181-018"
    },
    {
        "city": "Castro",
        "state": "PR",
        "district": "Santa Paula",
        "street": "Rua Rodolpho Kugler",
        "zipcode": "84181-020"
    },
    {
        "city": "Castro",
        "state": "PR",
        "district": "Santa Paula",
        "street": "Rua Brahim Fadel",
        "zipcode": "84181-026"
    },
    {
        "city": "Castro",
        "state": "PR",
        "district": "Nossa Senhora das Graças",
        "street": "Rua José Francisco Ribas",
        "zipcode": "84181-228"
    },
    {
        "city": "Castro",
        "state": "PR",
        "district": "Nossa Senhora das Graças",
        "street": "Rua Edison Henrique Moers",
        "zipcode": "84181-232"
    },
    {
        "city": "Castro",
        "state": "PR",
        "district": "Jardim Alvorada",
        "street": "Rua Carlos Ernesto Kugler",
        "zipcode": "84181-240"
    },
    {
        "city": "Castro",
        "state": "PR",
        "district": "Jardim Alvorada",
        "street": "Rua Lourdes Ciecielski Mileski",
        "zipcode": "84181-242"
    },
    {
        "city": "Castro",
        "state": "PR",
        "district": "Jardim Alvorada",
        "street": "Rua Adão Liborio Ratuchene",
        "zipcode": "84181-246"
    },
    {
        "city": "Castro",
        "state": "PR",
        "district": "Jardim Alvorada",
        "street": "Rua Doutor Ricardo Nardi Cardoso",
        "zipcode": "84181-248"
    },
    {
        "city": "Castro",
        "state": "PR",
        "district": "Jardim Alvorada",
        "street": "Rua Umberto Pinto de Oliveira",
        "zipcode": "84181-252"
    },
    {
        "city": "Castro",
        "state": "PR",
        "district": "Jardim Alvorada",
        "street": "Rua Lauro Marcondes Ramos",
        "zipcode": "84181-254"
    },
    {
        "city": "Castro",
        "state": "PR",
        "district": "Jardim Alvorada",
        "street": "Rua Roselys Velloso Roderjan",
        "zipcode": "84181-258"
    },
    {
        "city": "Castro",
        "state": "PR",
        "district": "Jardim Alvorada",
        "street": "Rua Idalina Bueno de Magalhães",
        "zipcode": "84181-260"
    },
    {
        "city": "Castro",
        "state": "PR",
        "district": "Jardim Alvorada",
        "street": "Rua Iran de Mario Christoforo",
        "zipcode": "84181-262"
    },
    {
        "city": "Castro",
        "state": "PR",
        "district": "Jardim Alvorada",
        "street": "Rua Catarina Hazelski Antunes",
        "zipcode": "84181-266"
    },
    {
        "city": "Castro",
        "state": "PR",
        "district": "Jardim Alvorada",
        "street": "Rua Emílio de Menezes",
        "zipcode": "84181-268"
    },
    {
        "city": "Castro",
        "state": "PR",
        "district": "Jardim Alvorada",
        "street": "Rua Francisco Silva Canha",
        "zipcode": "84181-270"
    },
    {
        "city": "Castro",
        "state": "PR",
        "district": "Jardim Alvorada",
        "street": "Rua Luan Carlos Ribeiro Alves",
        "zipcode": "84181-274"
    },
    {
        "city": "Castro",
        "state": "PR",
        "district": "Jardim Alvorada",
        "street": "Rua Amilton Bueno",
        "zipcode": "84181-276"
    },
    {
        "city": "Castro",
        "state": "PR",
        "district": "Jardim Alvorada",
        "street": "Rua Jose Antonio Mara",
        "zipcode": "84181-278"
    },
    {
        "city": "Castro",
        "state": "PR",
        "district": "Jardim Alvorada",
        "street": "Rua Conselheiro Laurindo Abelardo de Brito",
        "zipcode": "84181-284"
    },
    {
        "city": "Castro",
        "state": "PR",
        "district": "Jardim Alvorada",
        "street": "Rua Flavio Faria de Albuquerque",
        "zipcode": "84181-290"
    },
    {
        "city": "Castro",
        "state": "PR",
        "district": "Jardim Alvorada",
        "street": "Rua Albino Goltz",
        "zipcode": "84181-292"
    },
    {
        "city": "Castro",
        "state": "PR",
        "district": "Jardim Alvorada",
        "street": "Rua Maria Darmoris Swiech",
        "zipcode": "84181-298"
    },
    {
        "city": "Castro",
        "state": "PR",
        "district": "Jardim Alvorada",
        "street": "Rua Presidente Getúlio Vargas",
        "zipcode": "84181-300"
    },
    {
        "city": "Castro",
        "state": "PR",
        "district": "Jardim Alvorada",
        "street": "Rua Erich Karl Quast",
        "zipcode": "84181-304"
    },
    {
        "city": "Castro",
        "state": "PR",
        "district": "Jardim Alvorada",
        "street": "Rua David Antonio da Silva Carneiro",
        "zipcode": "84181-306"
    },
    {
        "city": "Castro",
        "state": "PR",
        "district": "Jardim Alvorada",
        "street": "Rua Benedito Pantaleão de Camargo",
        "zipcode": "84181-308"
    },
    {
        "city": "Castro",
        "state": "PR",
        "district": "Jardim Alvorada",
        "street": "Rua Rafaelli Hurla Pinto",
        "zipcode": "84181-312"
    },
    {
        "city": "Castro",
        "state": "PR",
        "district": "Invernada do Matadouro",
        "street": "Rua Angelina Beatriz da Silva de Lima",
        "zipcode": "84174-092"
    },
    {
        "city": "Castro",
        "state": "PR",
        "district": "Jardim Bela Vista",
        "street": "Rua São Jorge",
        "zipcode": "84165-430"
    },
    {
        "city": "Castro",
        "state": "PR",
        "district": "Jardim Bela Vista",
        "street": "Rua Deamiro José dos Santos",
        "zipcode": "84165-422"
    },
    {
        "city": "Castro",
        "state": "PR",
        "district": "Santa Paula",
        "street": "Rua Hilda Koeller",
        "zipcode": "84181-022"
    },
    {
        "city": "Castro",
        "state": "PR",
        "district": "Cantagalo",
        "street": "Travessa Osvaldo Rebonato",
        "zipcode": "84178-520"
    },
    {
        "city": "Castro",
        "state": "PR",
        "district": "Cantagalo",
        "street": "Rua Felisbino Gonçalves Pereira Bueno",
        "zipcode": "84178-350"
    },
    {
        "city": "Castro",
        "state": "PR",
        "district": "Jardim Bela Vista",
        "street": "Rua Milton Scheleski de Souza",
        "zipcode": "84165-421"
    },
    {
        "city": "Castro",
        "state": "PR",
        "district": "Jardim Alvorada",
        "street": "Rua Geniplo Marcondes Carneiro Junior",
        "zipcode": "84181-314"
    },
    {
        "city": "Castro",
        "state": "PR",
        "district": "Jardim Alvorada",
        "street": "Rua Max Flugel",
        "zipcode": "84181-320"
    },
    {
        "city": "Castro",
        "state": "PR",
        "district": "Jardim Termas Riviera",
        "street": "Rua Emidio Santos",
        "zipcode": "84182-044"
    },
    {
        "city": "Castro",
        "state": "PR",
        "district": "Jardim Termas Riviera",
        "street": "Rua Rodolfo Asmmé",
        "zipcode": "84182-052"
    },
    {
        "city": "Castro",
        "state": "PR",
        "district": "Jardim Alvorada",
        "street": "Rua Lenir Lopes Sidor",
        "zipcode": "84181-286"
    },
    {
        "city": "Castro",
        "state": "PR",
        "district": "Núcleo Habitacional Padre Piva",
        "street": "Rua Joana da Luz dos Santos",
        "zipcode": "84178-530"
    },
    {
        "city": "Castro",
        "state": "PR",
        "district": "Jardim Termas Riviera",
        "street": "Rua Adolpho Koller",
        "zipcode": "84182-042"
    },
    {
        "city": "Castro",
        "state": "PR",
        "district": "Cantagalo",
        "street": "Travessa Leandro Galeto",
        "zipcode": "84178-500"
    },
    {
        "city": "Castro",
        "state": "PR",
        "district": "Jardim Bela Vista",
        "street": "Rua Alexandre dos Santos",
        "zipcode": "84165-423"
    },
    {
        "city": "Castro",
        "state": "PR",
        "district": "Jardim Alvorada",
        "street": "Rua Barão do Monte Carmelo",
        "zipcode": "84181-282"
    },
    {
        "city": "Castro",
        "state": "PR",
        "district": "Jardim Alvorada",
        "street": "Rua Atalipio Ribas de Castro",
        "zipcode": "84181-294"
    },
    {
        "city": "Castro",
        "state": "PR",
        "district": "Jardim Termas Riviera",
        "street": "Rua João Moreira",
        "zipcode": "84182-054"
    },
    {
        "city": "Castro",
        "state": "PR",
        "district": "Jardim Termas Riviera",
        "street": "Rua Luiz Fernando Pase",
        "zipcode": "84182-056"
    },
    {
        "city": "Castro",
        "state": "PR",
        "district": "Jardim Pandorf",
        "street": "Rua Maria Helena Azambuja Rogoski",
        "zipcode": "84182-227"
    },
    {
        "city": "Castro",
        "state": "PR",
        "district": "Santa Terezinha",
        "street": "Rua Oscar Montenegro Carneiro",
        "zipcode": "84182-264"
    },
    {
        "city": "Castro",
        "state": "PR",
        "district": "Santa Terezinha",
        "street": "Rua Agostinho Kordel",
        "zipcode": "84182-268"
    },
    {
        "city": "Castro",
        "state": "PR",
        "district": "Santa Terezinha",
        "street": "Rua Renato Brisky",
        "zipcode": "84182-272"
    },
    {
        "city": "Castro",
        "state": "PR",
        "district": "Santa Terezinha",
        "street": "Rua Juarez Rupel",
        "zipcode": "84182-274"
    },
    {
        "city": "Castro",
        "state": "PR",
        "district": "Santa Terezinha",
        "street": "Rua Osvaldo Carneiro",
        "zipcode": "84182-278"
    },
    {
        "city": "Castro",
        "state": "PR",
        "district": "Santa Terezinha",
        "street": "Rua Edejane Skripa Ribas",
        "zipcode": "84182-282"
    },
    {
        "city": "Castro",
        "state": "PR",
        "district": "Santa Terezinha",
        "street": "Rua Otacilio Alves",
        "zipcode": "84182-284"
    },
    {
        "city": "Castro",
        "state": "PR",
        "district": "São Miguel",
        "street": "Rua Jorge Diniz",
        "zipcode": "84182-292"
    },
    {
        "city": "Castro",
        "state": "PR",
        "district": "São Miguel",
        "street": "Rua Albino Ribeiro",
        "zipcode": "84182-298"
    },
    {
        "city": "Castro",
        "state": "PR",
        "district": "São Miguel",
        "street": "Rua Zulmira Magaris Fortes",
        "zipcode": "84182-302"
    },
    {
        "city": "Castro",
        "state": "PR",
        "district": "São Miguel",
        "street": "Rua Maria das Graças Gama Carneiro",
        "zipcode": "84182-304"
    },
    {
        "city": "Castro",
        "state": "PR",
        "district": "Centro",
        "street": "Rua Pedro Dobis",
        "zipcode": "84165-620"
    },
    {
        "city": "Castro",
        "state": "PR",
        "district": "Vila Santa Cruz",
        "street": "Avenida Tigre",
        "zipcode": "84168-215"
    },
    {
        "city": "Castro",
        "state": "PR",
        "district": "Morada do Sol",
        "street": "Travessa Manoel Rolim de Moura",
        "zipcode": "84172-232"
    },
    {
        "city": "Castro",
        "state": "PR",
        "district": "Vila Frei Mathias",
        "street": "Rua José Marques",
        "zipcode": "84165-322"
    },
    {
        "city": "Castro",
        "state": "PR",
        "district": "Vila Rio Branco",
        "street": "Rua José Bonifácio",
        "zipcode": "84173-350"
    },
    {
        "city": "Castro",
        "state": "PR",
        "district": "Jardim Bailly",
        "street": "Rua Israel Wysoski",
        "zipcode": "84173-510"
    },
    {
        "city": "Castro",
        "state": "PR",
        "district": "Jardim Bailly",
        "street": "Rua Major Anisio Alfredo Leite Calasans",
        "zipcode": "84173-500"
    },
    {
        "city": "Castro",
        "state": "PR",
        "district": "Jardim Pandorf",
        "street": "Rua Sebastião Machado de Souza",
        "zipcode": "84182-225"
    },
    {
        "city": "Castro",
        "state": "PR",
        "district": "Jardim das Araucárias",
        "street": "Rua Moisés de Oliveira Mello",
        "zipcode": "84174-638"
    },
    {
        "city": "Castro",
        "state": "PR",
        "district": "Jardim dos Bancários",
        "street": "Travessa Diogo de Oliveira Franco",
        "zipcode": "84172-105"
    },
    {
        "city": "Castro",
        "state": "PR",
        "district": "Jardim dos Bancários",
        "street": "Rua Jerônimo Cabral Pereira do Amaral",
        "zipcode": "84172-100"
    },
    {
        "city": "Castro",
        "state": "PR",
        "district": "Jardim dos Bancários",
        "street": "Rua Renato Menarin",
        "zipcode": "84172-110"
    },
    {
        "city": "Castro",
        "state": "PR",
        "district": "Cantagalo",
        "street": "Rua Karl Joseph Hoffman",
        "zipcode": "84178-275"
    },
    {
        "city": "Castro",
        "state": "PR",
        "district": "Jardim Alvorada",
        "street": "Rua Diogenes de Azambuja",
        "zipcode": "84181-310"
    },
    {
        "city": "Castro",
        "state": "PR",
        "district": "Centro",
        "street": "Rua Plinio King",
        "zipcode": "84165-232"
    },
    {
        "city": "Castro",
        "state": "PR",
        "district": "Vila Rio Branco",
        "street": "Rua Oswaldo Evers",
        "zipcode": "84172-502"
    },
    {
        "city": "Castro",
        "state": "PR",
        "district": "Santa Paula",
        "street": "Rua Ligia Menarim de Lima",
        "zipcode": "84181-014"
    },
    {
        "city": "Castro",
        "state": "PR",
        "district": "Santa Paula",
        "street": "Rua Neiva Maria Ribeiro de Moraes",
        "zipcode": "84181-016"
    },
    {
        "city": "Castro",
        "state": "PR",
        "district": "Santa Paula",
        "street": "Rua Paulino Arison da Silva Sutil",
        "zipcode": "84181-024"
    },
    {
        "city": "Castro",
        "state": "PR",
        "district": "Nossa Senhora das Graças",
        "street": "Rua Henrique Conrado Moers",
        "zipcode": "84181-230"
    },
    {
        "city": "Castro",
        "state": "PR",
        "district": "Jardim Alvorada",
        "street": "Rua Antonio Mileski",
        "zipcode": "84181-244"
    },
    {
        "city": "Castro",
        "state": "PR",
        "district": "Jardim Alvorada",
        "street": "Rua Jose Elizeor Priotto",
        "zipcode": "84181-250"
    },
    {
        "city": "Castro",
        "state": "PR",
        "district": "Jardim Alvorada",
        "street": "Rua Estanislau Cardoso de Gusmão",
        "zipcode": "84181-256"
    },
    {
        "city": "Castro",
        "state": "PR",
        "district": "Jardim Alvorada",
        "street": "Rua Valdir Bannach",
        "zipcode": "84181-272"
    },
    {
        "city": "Castro",
        "state": "PR",
        "district": "Agua Suja",
        "street": "Morro Do Ferro",
        "zipcode": "84165-165"
    },
    {
        "city": "Castro",
        "state": "PR",
        "district": "Nucleo Habit Padre Piva",
        "street": "Rua Sete",
        "zipcode": "84178-255"
    },
    {
        "city": "Castro",
        "state": "PR",
        "district": "Nucleo Habit Padre Piva",
        "street": "Rua Tres",
        "zipcode": "84178-195"
    },
    {
        "city": "Castro",
        "state": "PR",
        "district": "Jardim Alvorada",
        "street": "Rua Cecilia de Quadros Dal Col",
        "zipcode": "84181-264"
    },
    {
        "city": "Castro",
        "state": "PR",
        "district": "Cantagalo",
        "street": "Rua F",
        "zipcode": "84178-340"
    },
    {
        "city": "Castro",
        "state": "PR",
        "district": "Bom Sucesso",
        "street": "Rodovia PR",
        "zipcode": "84165-700"
    },
    {
        "city": "Castro",
        "state": "PR",
        "district": "Jardim Alvorada",
        "street": "Rua Adair Pedroso de Oliveira",
        "zipcode": "84181-280"
    },
    {
        "city": "Castro",
        "state": "PR",
        "district": "Vila do Rosário",
        "street": "Rua Elvira Kugler",
        "zipcode": "84168-098"
    },
    {
        "city": "Castro",
        "state": "PR",
        "district": "Jardim Colonial",
        "street": "Rua Ipiranga",
        "zipcode": "84178-165"
    },
    {
        "city": "Castro",
        "state": "PR",
        "district": "Santa Terezinha",
        "street": "Rua Domingos Faustino Carvalho",
        "zipcode": "84182-260"
    },
    {
        "city": "Castro",
        "state": "PR",
        "district": "Nucleo Habit Padre Piva",
        "street": "Rua L",
        "zipcode": "84178-015"
    },
    {
        "city": "Castro",
        "state": "PR",
        "district": "Nucleo Habit Padre Piva",
        "street": "Rua Dois",
        "zipcode": "84178-185"
    },
    {
        "city": "Castro",
        "state": "PR",
        "district": "Nucleo Habit Padre Piva",
        "street": "Rua Um",
        "zipcode": "84178-005"
    },
    {
        "city": "Castro",
        "state": "PR",
        "district": "Nucleo Habit Padre Piva",
        "street": "Rua E",
        "zipcode": "84178-380"
    },
    {
        "city": "Castro",
        "state": "PR",
        "district": "Loteamento Jardim Pandorf",
        "street": "Rua Sebastião Gonçalves da Silva",
        "zipcode": "84182-144"
    },
    {
        "city": "Castro",
        "state": "PR",
        "district": "Loteamento Jardim Pandorf",
        "street": "Rua Argemiro Oliveira Machado",
        "zipcode": "84182-142"
    },
    {
        "city": "Castro",
        "state": "PR",
        "district": "Jardim Das Araucarias",
        "street": "Rua Heitor Jorge Iucksch",
        "zipcode": "84174-560"
    },
    {
        "city": "Castro",
        "state": "PR",
        "district": "Jardim Alvorada",
        "street": "Rua Alferes João José da Fonseca",
        "zipcode": "84181-288"
    },
    {
        "city": "Castro",
        "state": "PR",
        "district": "Jardim Alvorada",
        "street": "Rua Francisco João Ziarecki",
        "zipcode": "84181-302"
    },
    {
        "city": "Castro",
        "state": "PR",
        "district": "Jardim Alvorada",
        "street": "Rua Odetinha do Rosário de Lima Almeida",
        "zipcode": "84181-316"
    },
    {
        "city": "Castro",
        "state": "PR",
        "district": "Jardim Termas Riviera",
        "street": "Avenida Dacio Leonel de Quadros",
        "zipcode": "84182-046"
    },
    {
        "city": "Castro",
        "state": "PR",
        "district": "Jardim Termas Riviera",
        "street": "Rua Jamil Dalcol",
        "zipcode": "84182-058"
    },
    {
        "city": "Castro",
        "state": "PR",
        "district": "Anna Teodora",
        "street": "Rua Luiz Carlos de Farias (Loteamento Anna Teodora)",
        "zipcode": "84182-250"
    },
    {
        "city": "Castro",
        "state": "PR",
        "district": "Santa Terezinha",
        "street": "Rua Nei Levi Bueno Pitthan",
        "zipcode": "84182-270"
    },
    {
        "city": "Castro",
        "state": "PR",
        "district": "Santa Terezinha",
        "street": "Rua Alberto Cropolato",
        "zipcode": "84182-280"
    },
    {
        "city": "Castro",
        "state": "PR",
        "district": "São Miguel",
        "street": "Rua Brunno Ramon Pereira",
        "zipcode": "84182-296"
    },
    {
        "city": "Castro",
        "state": "PR",
        "district": "São Miguel",
        "street": "Rua Marli Terezinha Moraes Alves",
        "zipcode": "84182-300"
    },
    {
        "city": "Castro",
        "state": "PR",
        "district": "Vila Santa Cruz",
        "street": "Rua Heraclio Mendes De Camargo",
        "zipcode": "84168-000"
    },
    {
        "city": "Castro",
        "state": "PR",
        "district": "Jardim Alvorada",
        "street": "Rua Doutor Conrado Caetano Erichsen",
        "zipcode": "84181-296"
    },
    {
        "city": "Castro",
        "state": "PR",
        "district": "Nucleo Habit Padre Piva",
        "street": "Rua Cinco",
        "zipcode": "84178-225"
    },
    {
        "city": "Castro",
        "state": "PR",
        "district": "Casa Nova",
        "street": "",
        "zipcode": "84194-400"
    },
    {
        "city": "Castro",
        "state": "PR",
        "district": "Nucleo Habit Padre Piva",
        "street": "Rua Luanda",
        "zipcode": "84178-016"
    }
]