[
    {
        "city": "Francisco Beltrao",
        "state": "PR",
        "district": "Padre Eurico",
        "street": "Rua Pioneiros",
        "zipcode": "85604-275"
    },
    {
        "city": "Francisco Beltrao",
        "state": "PR",
        "district": "Sao Cristovao",
        "street": "Travessa Dezenove De Dezembro",
        "zipcode": "85601-700"
    },
    {
        "city": "Francisco Beltrao",
        "state": "PR",
        "district": "Pinheirinho",
        "street": "Rua Indianopolis",
        "zipcode": "85603-135"
    },
    {
        "city": "Francisco Beltrao",
        "state": "PR",
        "district": "Pinheirinho",
        "street": "Rua Odosio Dalla Maria",
        "zipcode": "85603-100"
    },
    {
        "city": "Francisco Beltrao",
        "state": "PR",
        "district": "Jardim Novo Mundo",
        "street": "Rua Eduardo Faust",
        "zipcode": "85602-780"
    },
    {
        "city": "Francisco Beltrao",
        "state": "PR",
        "district": "Maniguacu",
        "street": "Rua Tucano",
        "zipcode": "85605-495"
    },
    {
        "city": "Francisco Beltrao",
        "state": "PR",
        "district": "Sao Miguel",
        "street": "Rua Salim Miguel",
        "zipcode": "85602-600"
    },
    {
        "city": "Francisco Beltrao",
        "state": "PR",
        "district": "Cristo Rei",
        "street": "Rua Sete",
        "zipcode": "85602-045"
    },
    {
        "city": "Francisco Beltrao",
        "state": "PR",
        "district": "Loteamento Bordignon",
        "street": "Travessa Um",
        "zipcode": "85601-745"
    },
    {
        "city": "Francisco Beltrao",
        "state": "PR",
        "district": "Marrecas",
        "street": "Rua Realeza",
        "zipcode": "85601-410"
    },
    {
        "city": "Francisco Beltrao",
        "state": "PR",
        "district": "Jardim Novo Mundo",
        "street": "Rua Santa Barbara",
        "zipcode": "85602-770"
    },
    {
        "city": "Francisco Beltrao",
        "state": "PR",
        "district": "Pinheirinho",
        "street": "Rua Cabo Frio",
        "zipcode": "85603-510"
    },
    {
        "city": "Francisco Beltrao",
        "state": "PR",
        "district": "Pinheirinho",
        "street": "Avenida Pirassununga",
        "zipcode": "85603-520"
    },
    {
        "city": "Francisco Beltrao",
        "state": "PR",
        "district": "Jardim Novo Mundo",
        "street": "Rua Fernando Niehurs",
        "zipcode": "85602-790"
    },
    {
        "city": "Francisco Beltrao",
        "state": "PR",
        "district": "Jardim Novo Mundo",
        "street": "Rua Santa Monica",
        "zipcode": "85602-785"
    },
    {
        "city": "Francisco Beltrao",
        "state": "PR",
        "district": "Pinheirinho",
        "street": "Rua Macae",
        "zipcode": "85603-500"
    },
    {
        "city": "Francisco Beltrao",
        "state": "PR",
        "district": "Pinheirinho",
        "street": "Rua Coira",
        "zipcode": "85603-825"
    },
    {
        "city": "Francisco Beltrao",
        "state": "PR",
        "district": "Sao Miguel",
        "street": "Rua Jose Lins Do Rego",
        "zipcode": "85602-720"
    },
    {
        "city": "Francisco Beltrao",
        "state": "PR",
        "district": "Sao Cristovao",
        "street": "Travessa Sao Cristovao",
        "zipcode": "85601-710"
    },
    {
        "city": "Francisco Beltrao",
        "state": "PR",
        "district": "Pinheirinho",
        "street": "Travessa Ipe",
        "zipcode": "85603-840"
    },
    {
        "city": "Francisco Beltrao",
        "state": "PR",
        "district": "Maniguacu",
        "street": "Alameda Gralha",
        "zipcode": "85605-480"
    },
    {
        "city": "Francisco Beltrao",
        "state": "PR",
        "district": "Jardim Floresta",
        "street": "Avenida Roma",
        "zipcode": "85603-805"
    },
    {
        "city": "Francisco Beltrao",
        "state": "PR",
        "district": "Maniguacu",
        "street": "Alameda Tangara",
        "zipcode": "85605-490"
    },
    {
        "city": "Francisco Beltrao",
        "state": "PR",
        "district": "Pinheirinho",
        "street": "Rua Livramento",
        "zipcode": "85603-275"
    },
    {
        "city": "Francisco Beltrao",
        "state": "PR",
        "district": "Pinheirinho",
        "street": "Travessa Ijui",
        "zipcode": "85603-830"
    },
    {
        "city": "Francisco Beltrao",
        "state": "PR",
        "district": "Cristo Rei",
        "street": "Avenida F",
        "zipcode": "85602-505"
    }
]