[
    {
        "city": "Guaratuba",
        "state": "PR",
        "district": "Centro",
        "street": "Avenida Ponta Grossa 194",
        "zipcode": "83280-970"
    },
    {
        "city": "Guaratuba",
        "state": "PR",
        "district": null,
        "street": "Rua Alípio dos Santos",
        "zipcode": "83280-991"
    },
    {
        "city": "Guaratuba",
        "state": "PR",
        "district": null,
        "street": "Rua Faxinal",
        "zipcode": "83280-992"
    },
    {
        "city": "Guaratuba",
        "state": "PR",
        "district": "",
        "street": "",
        "zipcode": "83280-000"
    },
    {
        "city": "Guaratuba",
        "state": "PR",
        "district": null,
        "street": "Av Tiradentes",
        "zipcode": "83280-993"
    },
    {
        "city": "Guaratuba",
        "state": "PR",
        "district": "Nereidas",
        "street": "Rua Venezuela",
        "zipcode": "83280-971"
    },
    {
        "city": "Guaratuba",
        "state": "PR",
        "district": "Cubatão",
        "street": "Estrada Principal",
        "zipcode": "83290-971"
    },
    {
        "city": "Guaratuba",
        "state": "PR",
        "district": null,
        "street": "Rua Geral",
        "zipcode": "83280-990"
    }
]