[
    {
        "city": "Guaraqueçaba",
        "state": "PR",
        "district": "Centro",
        "street": "Rua Principal",
        "zipcode": "83390-978"
    },
    {
        "city": "Guaraqueçaba",
        "state": "PR",
        "district": "Centro",
        "street": "Rua Principal",
        "zipcode": "83390-977"
    },
    {
        "city": "Guaraqueçaba",
        "state": "PR",
        "district": null,
        "street": "Rua Principal",
        "zipcode": "83390-995"
    },
    {
        "city": "Guaraqueçaba",
        "state": "PR",
        "district": "Centro",
        "street": "Rua Principal",
        "zipcode": "83390-976"
    },
    {
        "city": "Guaraqueçaba",
        "state": "PR",
        "district": "Centro",
        "street": "Rua Principal",
        "zipcode": "83390-975"
    },
    {
        "city": "Guaraqueçaba",
        "state": "PR",
        "district": "Tibicanga",
        "street": "Rua Principal",
        "zipcode": "83393-971"
    },
    {
        "city": "Guaraqueçaba",
        "state": "PR",
        "district": null,
        "street": "Rua Principal",
        "zipcode": "83390-993"
    },
    {
        "city": "Guaraqueçaba",
        "state": "PR",
        "district": "Centro",
        "street": "Rua Principal",
        "zipcode": "83390-974"
    },
    {
        "city": "Guaraqueçaba",
        "state": "PR",
        "district": "Centro",
        "street": "Rua Principal",
        "zipcode": "83390-979"
    },
    {
        "city": "Guaraqueçaba",
        "state": "PR",
        "district": null,
        "street": "Rua Principal",
        "zipcode": "83395-991"
    },
    {
        "city": "Guaraqueçaba",
        "state": "PR",
        "district": "Centro",
        "street": "Rua Principal",
        "zipcode": "83393-973"
    },
    {
        "city": "Guaraqueçaba",
        "state": "PR",
        "district": null,
        "street": "Rua Principal",
        "zipcode": "83390-997"
    },
    {
        "city": "Guaraqueçaba",
        "state": "PR",
        "district": null,
        "street": "Rua Principal",
        "zipcode": "83390-996"
    },
    {
        "city": "Guaraqueçaba",
        "state": "PR",
        "district": null,
        "street": "Rua Principal",
        "zipcode": "83390-991"
    },
    {
        "city": "Guaraqueçaba",
        "state": "PR",
        "district": null,
        "street": "Rua Principal",
        "zipcode": "83390-998"
    },
    {
        "city": "Guaraqueçaba",
        "state": "PR",
        "district": null,
        "street": "Rua Principal",
        "zipcode": "83390-992"
    },
    {
        "city": "Guaraqueçaba",
        "state": "PR",
        "district": null,
        "street": "Rua Principal",
        "zipcode": "83390-994"
    },
    {
        "city": "Guaraqueçaba",
        "state": "PR",
        "district": "",
        "street": "",
        "zipcode": "83390-000"
    },
    {
        "city": "Guaraqueçaba",
        "state": "PR",
        "district": "Centro",
        "street": "Avenida Ararapira",
        "zipcode": "83390-970"
    },
    {
        "city": "Guaraqueçaba",
        "state": "PR",
        "district": null,
        "street": "Rua Principal",
        "zipcode": "83395-990"
    },
    {
        "city": "Guaraqueçaba",
        "state": "PR",
        "district": "Centro",
        "street": "Estrada Principal",
        "zipcode": "83390-973"
    },
    {
        "city": "Guaraqueçaba",
        "state": "PR",
        "district": "Centro",
        "street": "Rua Principal",
        "zipcode": "83390-971"
    },
    {
        "city": "Guaraqueçaba",
        "state": "PR",
        "district": "Centro",
        "street": "Rua Principal",
        "zipcode": "83390-972"
    }
]