[
    {
        "city": "Laranjeiras do Sul",
        "state": "PR",
        "district": "Cristo Rei",
        "street": "Rua Paraguay",
        "zipcode": "85304-185"
    },
    {
        "city": "Laranjeiras do Sul",
        "state": "PR",
        "district": "São Francisco",
        "street": "Rua Luiz Ruths",
        "zipcode": "85303-342"
    },
    {
        "city": "Laranjeiras do Sul",
        "state": "PR",
        "district": "Vila Albert",
        "street": "Avenida Oscar Pereira Guedes",
        "zipcode": "85303-820"
    },
    {
        "city": "Laranjeiras do Sul",
        "state": "PR",
        "district": "Centro",
        "street": "Rua Miguel Sondei",
        "zipcode": "85301-022"
    },
    {
        "city": "Laranjeiras do Sul",
        "state": "PR",
        "district": "Cristo Rei",
        "street": "Rua Bolívia",
        "zipcode": "85304-080"
    },
    {
        "city": "Laranjeiras do Sul",
        "state": "PR",
        "district": "Água Verde",
        "street": "Rua Pinhão",
        "zipcode": "85302-430"
    },
    {
        "city": "Laranjeiras do Sul",
        "state": "PR",
        "district": "São Francisco",
        "street": "Rua Cascavel",
        "zipcode": "85303-250"
    },
    {
        "city": "Laranjeiras do Sul",
        "state": "PR",
        "district": "Getúlio Vargas",
        "street": "Rua França",
        "zipcode": "85304-704"
    },
    {
        "city": "Laranjeiras do Sul",
        "state": "PR",
        "district": "Getúlio Vargas",
        "street": "Rua Itália",
        "zipcode": "85304-702"
    },
    {
        "city": "Laranjeiras do Sul",
        "state": "PR",
        "district": "Getúlio Vargas",
        "street": "Rua Almirante Tamandaré",
        "zipcode": "85304-610"
    },
    {
        "city": "Laranjeiras do Sul",
        "state": "PR",
        "district": "Cristo Rei",
        "street": "Rua dos Angicos",
        "zipcode": "85304-380"
    },
    {
        "city": "Laranjeiras do Sul",
        "state": "PR",
        "district": "Cristo Rei",
        "street": "Rua das Araucárias",
        "zipcode": "85304-320"
    },
    {
        "city": "Laranjeiras do Sul",
        "state": "PR",
        "district": "Getúlio Vargas",
        "street": "Rua Arnoldo Gomes Sales",
        "zipcode": "85304-500"
    },
    {
        "city": "Laranjeiras do Sul",
        "state": "PR",
        "district": "Cristo Rei",
        "street": "Rua das Cabriúvas",
        "zipcode": "85304-340"
    },
    {
        "city": "Laranjeiras do Sul",
        "state": "PR",
        "district": "Cristo Rei",
        "street": "Rua das Canafístulas",
        "zipcode": "85304-390"
    },
    {
        "city": "Laranjeiras do Sul",
        "state": "PR",
        "district": "Cristo Rei",
        "street": "Rua das Canelas",
        "zipcode": "85304-310"
    },
    {
        "city": "Laranjeiras do Sul",
        "state": "PR",
        "district": "Getúlio Vargas",
        "street": "Rua Carlos Chagas",
        "zipcode": "85304-600"
    },
    {
        "city": "Laranjeiras do Sul",
        "state": "PR",
        "district": "Getúlio Vargas",
        "street": "Rua Carlos Gomes",
        "zipcode": "85304-580"
    },
    {
        "city": "Laranjeiras do Sul",
        "state": "PR",
        "district": "Cristo Rei",
        "street": "Rua dos Cedros",
        "zipcode": "85304-330"
    },
    {
        "city": "Laranjeiras do Sul",
        "state": "PR",
        "district": "Cristo Rei",
        "street": "Rua Chile",
        "zipcode": "85304-655"
    },
    {
        "city": "Laranjeiras do Sul",
        "state": "PR",
        "district": "Getúlio Vargas",
        "street": "Rua Coronel Guilherme de Paula",
        "zipcode": "85304-440"
    },
    {
        "city": "Laranjeiras do Sul",
        "state": "PR",
        "district": "Getúlio Vargas",
        "street": "Rua Deolinda Oliveira Luz",
        "zipcode": "85304-480"
    },
    {
        "city": "Laranjeiras do Sul",
        "state": "PR",
        "district": "Getúlio Vargas",
        "street": "Rua Dom Pedro I",
        "zipcode": "85304-640"
    },
    {
        "city": "Laranjeiras do Sul",
        "state": "PR",
        "district": "Getúlio Vargas",
        "street": "Rua Dom Pedro II",
        "zipcode": "85304-620"
    },
    {
        "city": "Laranjeiras do Sul",
        "state": "PR",
        "district": "Cristo Rei",
        "street": "Rua Duque de Caxias",
        "zipcode": "85304-290"
    },
    {
        "city": "Laranjeiras do Sul",
        "state": "PR",
        "district": "Cristo Rei",
        "street": "Rua dos Eucaliptos",
        "zipcode": "85304-350"
    },
    {
        "city": "Laranjeiras do Sul",
        "state": "PR",
        "district": "Getúlio Vargas",
        "street": "Rua Faxinal Grande",
        "zipcode": "85304-475"
    },
    {
        "city": "Laranjeiras do Sul",
        "state": "PR",
        "district": "Getúlio Vargas",
        "street": "Rua General Ozório",
        "zipcode": "85304-550"
    },
    {
        "city": "Laranjeiras do Sul",
        "state": "PR",
        "district": "Cristo Rei",
        "street": "Rua dos Ipês",
        "zipcode": "85304-660"
    },
    {
        "city": "Laranjeiras do Sul",
        "state": "PR",
        "district": "Getúlio Vargas",
        "street": "Rua José de Alencar",
        "zipcode": "85304-690"
    },
    {
        "city": "Laranjeiras do Sul",
        "state": "PR",
        "district": "São Francisco",
        "street": "Rua José Martins Pavlak",
        "zipcode": "85303-200"
    },
    {
        "city": "Laranjeiras do Sul",
        "state": "PR",
        "district": "Getúlio Vargas",
        "street": "Rua Marechal Deodoro",
        "zipcode": "85304-560"
    },
    {
        "city": "Laranjeiras do Sul",
        "state": "PR",
        "district": "Getúlio Vargas",
        "street": "Rua Marechal Floriano Peixoto",
        "zipcode": "85304-670"
    },
    {
        "city": "Laranjeiras do Sul",
        "state": "PR",
        "district": "Cristo Rei",
        "street": "Rua dos Marfins",
        "zipcode": "85304-360"
    },
    {
        "city": "Laranjeiras do Sul",
        "state": "PR",
        "district": "Água Verde",
        "street": "Rua Matelândia",
        "zipcode": "85302-320"
    },
    {
        "city": "Laranjeiras do Sul",
        "state": "PR",
        "district": "Getúlio Vargas",
        "street": "Rua Oswaldo Cruz",
        "zipcode": "85304-540"
    },
    {
        "city": "Laranjeiras do Sul",
        "state": "PR",
        "district": "Getúlio Vargas",
        "street": "Rua Padre Manoel da Nóbrega",
        "zipcode": "85304-570"
    },
    {
        "city": "Laranjeiras do Sul",
        "state": "PR",
        "district": "Vila Industrial",
        "street": "Rua dos Papagaios",
        "zipcode": "85303-515"
    },
    {
        "city": "Laranjeiras do Sul",
        "state": "PR",
        "district": "Água Verde",
        "street": "Rua Porto União",
        "zipcode": "85302-250"
    },
    {
        "city": "Laranjeiras do Sul",
        "state": "PR",
        "district": "Getúlio Vargas",
        "street": "Rua Prudente de Morais",
        "zipcode": "85304-520"
    },
    {
        "city": "Laranjeiras do Sul",
        "state": "PR",
        "district": "Água Verde",
        "street": "Rua Belém",
        "zipcode": "85302-021"
    },
    {
        "city": "Laranjeiras do Sul",
        "state": "PR",
        "district": "Getúlio Vargas",
        "street": "Rua Raimundo Ayres de Araújo",
        "zipcode": "85304-700"
    },
    {
        "city": "Laranjeiras do Sul",
        "state": "PR",
        "district": "Getúlio Vargas",
        "street": "Rua Regente Feijó",
        "zipcode": "85304-590"
    },
    {
        "city": "Laranjeiras do Sul",
        "state": "PR",
        "district": "Getúlio Vargas",
        "street": "Rua Santana",
        "zipcode": "85304-460"
    },
    {
        "city": "Laranjeiras do Sul",
        "state": "PR",
        "district": "Getúlio Vargas",
        "street": "Rua Souza Naves",
        "zipcode": "85304-470"
    },
    {
        "city": "Laranjeiras do Sul",
        "state": "PR",
        "district": "Cristo Rei",
        "street": "Rua dos Tarumãs",
        "zipcode": "85304-370"
    },
    {
        "city": "Laranjeiras do Sul",
        "state": "PR",
        "district": "São Francisco",
        "street": "Rua dos Coqueiros",
        "zipcode": "85303-304"
    },
    {
        "city": "Laranjeiras do Sul",
        "state": "PR",
        "district": "Cristo Rei",
        "street": "Rua Vereador Gilio Macarini",
        "zipcode": "85304-650"
    },
    {
        "city": "Laranjeiras do Sul",
        "state": "PR",
        "district": "Getúlio Vargas",
        "street": "Rua Vereador Heitor Safraider",
        "zipcode": "85304-490"
    },
    {
        "city": "Laranjeiras do Sul",
        "state": "PR",
        "district": "Cristo Rei",
        "street": "Rua Vereador Hildebrando Nunes",
        "zipcode": "85304-680"
    },
    {
        "city": "Laranjeiras do Sul",
        "state": "PR",
        "district": "Cristo Rei",
        "street": "Rua Vereador Silvindo A. Perachi",
        "zipcode": "85304-280"
    },
    {
        "city": "Laranjeiras do Sul",
        "state": "PR",
        "district": "Getúlio Vargas",
        "street": "Rua Visconde de Mauá",
        "zipcode": "85304-530"
    },
    {
        "city": "Laranjeiras do Sul",
        "state": "PR",
        "district": "Vila Industrial",
        "street": "Rua Waldemar Moss",
        "zipcode": "85303-484"
    },
    {
        "city": "Laranjeiras do Sul",
        "state": "PR",
        "district": "Getúlio Vargas",
        "street": "Rua Bento Gonçalves",
        "zipcode": "85304-420"
    },
    {
        "city": "Laranjeiras do Sul",
        "state": "PR",
        "district": "Getúlio Vargas",
        "street": "Rua Euclides da Cunha",
        "zipcode": "85304-630"
    },
    {
        "city": "Laranjeiras do Sul",
        "state": "PR",
        "district": "Getúlio Vargas",
        "street": "Rua Benjamin Constant",
        "zipcode": "85304-430"
    },
    {
        "city": "Laranjeiras do Sul",
        "state": "PR",
        "district": "Getúlio Vargas",
        "street": "Rua Aloísio Leoni Levandoski",
        "zipcode": "85304-552"
    },
    {
        "city": "Laranjeiras do Sul",
        "state": "PR",
        "district": "Getúlio Vargas",
        "street": "Rua Euclides Benjamin Bodanese",
        "zipcode": "85304-536"
    },
    {
        "city": "Laranjeiras do Sul",
        "state": "PR",
        "district": "Getúlio Vargas",
        "street": "Rua Paulo Andreiv",
        "zipcode": "85304-534"
    },
    {
        "city": "Laranjeiras do Sul",
        "state": "PR",
        "district": "Getúlio Vargas",
        "street": "Rua Luiz Viola",
        "zipcode": "85304-532"
    },
    {
        "city": "Laranjeiras do Sul",
        "state": "PR",
        "district": "Cristo Rei",
        "street": "Rua Antônio Vidal Pontes",
        "zipcode": "85304-210"
    },
    {
        "city": "Laranjeiras do Sul",
        "state": "PR",
        "district": "Vila Industrial",
        "street": "Rua Augusto Fernandes de Lima",
        "zipcode": "85303-765"
    },
    {
        "city": "Laranjeiras do Sul",
        "state": "PR",
        "district": "Cristo Rei",
        "street": "Rua Doutor Carmosino Vieira Branco",
        "zipcode": "85304-140"
    },
    {
        "city": "Laranjeiras do Sul",
        "state": "PR",
        "district": "Cristo Rei",
        "street": "Rua Vereador Félix Chrusciak",
        "zipcode": "85304-300"
    },
    {
        "city": "Laranjeiras do Sul",
        "state": "PR",
        "district": "Cristo Rei",
        "street": "Rua das Guajuviras",
        "zipcode": "85304-180"
    },
    {
        "city": "Laranjeiras do Sul",
        "state": "PR",
        "district": "Cristo Rei",
        "street": "Rua Iguaçu",
        "zipcode": "85304-145"
    },
    {
        "city": "Laranjeiras do Sul",
        "state": "PR",
        "district": "São Francisco",
        "street": "Rua Jacob Roths",
        "zipcode": "85303-775"
    },
    {
        "city": "Laranjeiras do Sul",
        "state": "PR",
        "district": "Cristo Rei",
        "street": "Rua das Perobas",
        "zipcode": "85304-170"
    },
    {
        "city": "Laranjeiras do Sul",
        "state": "PR",
        "district": "Cristo Rei",
        "street": "Rua Presidente John F. Kennedy",
        "zipcode": "85304-120"
    },
    {
        "city": "Laranjeiras do Sul",
        "state": "PR",
        "district": "Cristo Rei",
        "street": "Travessa Primeiro de Maio",
        "zipcode": "85304-230"
    },
    {
        "city": "Laranjeiras do Sul",
        "state": "PR",
        "district": "Cristo Rei",
        "street": "Rua República Argentina",
        "zipcode": "85304-100"
    },
    {
        "city": "Laranjeiras do Sul",
        "state": "PR",
        "district": "Getúlio Vargas",
        "street": "Rua Rui Barbosa",
        "zipcode": "85304-000"
    },
    {
        "city": "Laranjeiras do Sul",
        "state": "PR",
        "district": "São Francisco",
        "street": "Rua Santa Izabel",
        "zipcode": "85303-700"
    },
    {
        "city": "Laranjeiras do Sul",
        "state": "PR",
        "district": "São Francisco",
        "street": "Rua Santo Antônio",
        "zipcode": "85303-710"
    },
    {
        "city": "Laranjeiras do Sul",
        "state": "PR",
        "district": "São Francisco",
        "street": "Rua São Benedito",
        "zipcode": "85303-715"
    },
    {
        "city": "Laranjeiras do Sul",
        "state": "PR",
        "district": "São Francisco",
        "street": "Rua São João",
        "zipcode": "85303-720"
    },
    {
        "city": "Laranjeiras do Sul",
        "state": "PR",
        "district": "São Francisco",
        "street": "Rua São Lucas",
        "zipcode": "85303-740"
    },
    {
        "city": "Laranjeiras do Sul",
        "state": "PR",
        "district": "São Francisco",
        "street": "Rua São Paulo",
        "zipcode": "85303-750"
    },
    {
        "city": "Laranjeiras do Sul",
        "state": "PR",
        "district": "São Francisco",
        "street": "Rua Teixeira de Souza",
        "zipcode": "85303-770"
    },
    {
        "city": "Laranjeiras do Sul",
        "state": "PR",
        "district": "Cristo Rei",
        "street": "Rua Uruguai",
        "zipcode": "85304-090"
    },
    {
        "city": "Laranjeiras do Sul",
        "state": "PR",
        "district": "Cristo Rei",
        "street": "Rua Venezuela",
        "zipcode": "85304-160"
    },
    {
        "city": "Laranjeiras do Sul",
        "state": "PR",
        "district": "Cristo Rei",
        "street": "Rua Vereador Alfredo Badoti",
        "zipcode": "85304-055"
    },
    {
        "city": "Laranjeiras do Sul",
        "state": "PR",
        "district": "Cristo Rei",
        "street": "Rua Vereador Bacilides André Fae",
        "zipcode": "85304-010"
    },
    {
        "city": "Laranjeiras do Sul",
        "state": "PR",
        "district": "Cristo Rei",
        "street": "Rua Vereador Cyro Pellizari",
        "zipcode": "85304-245"
    },
    {
        "city": "Laranjeiras do Sul",
        "state": "PR",
        "district": "Cristo Rei",
        "street": "Rua Vereador Francisco Mieizva",
        "zipcode": "85304-250"
    },
    {
        "city": "Laranjeiras do Sul",
        "state": "PR",
        "district": "Cristo Rei",
        "street": "Rua Vereador Geremias Zaleski",
        "zipcode": "85304-270"
    },
    {
        "city": "Laranjeiras do Sul",
        "state": "PR",
        "district": "Cristo Rei",
        "street": "Rua Vereador João Chrusciak",
        "zipcode": "85304-030"
    },
    {
        "city": "Laranjeiras do Sul",
        "state": "PR",
        "district": "Cristo Rei",
        "street": "Rua Vereador Jorge Pio Gonçalves",
        "zipcode": "85304-150"
    },
    {
        "city": "Laranjeiras do Sul",
        "state": "PR",
        "district": "Cristo Rei",
        "street": "Rua Vereador Leopoldo Marochi",
        "zipcode": "85304-040"
    },
    {
        "city": "Laranjeiras do Sul",
        "state": "PR",
        "district": "Cristo Rei",
        "street": "Rua Vereador Leopoldo Pietroski",
        "zipcode": "85304-050"
    },
    {
        "city": "Laranjeiras do Sul",
        "state": "PR",
        "district": "Cristo Rei",
        "street": "Rua Vereador Otávio Folda",
        "zipcode": "85304-125"
    },
    {
        "city": "Laranjeiras do Sul",
        "state": "PR",
        "district": "Cristo Rei",
        "street": "Rua Vereador Paulo Palinski",
        "zipcode": "85304-070"
    },
    {
        "city": "Laranjeiras do Sul",
        "state": "PR",
        "district": "Cristo Rei",
        "street": "Rua Vereador Pedro Guimarães Cordeiro",
        "zipcode": "85304-220"
    },
    {
        "city": "Laranjeiras do Sul",
        "state": "PR",
        "district": "Cristo Rei",
        "street": "Rua Vereador Pedro Piaceski",
        "zipcode": "85304-060"
    },
    {
        "city": "Laranjeiras do Sul",
        "state": "PR",
        "district": "Cristo Rei",
        "street": "Rua Vereador Thadeu Folda",
        "zipcode": "85304-020"
    },
    {
        "city": "Laranjeiras do Sul",
        "state": "PR",
        "district": "Cristo Rei",
        "street": "Rua Vereador Ulisses Rodrigues da Costa",
        "zipcode": "85304-130"
    },
    {
        "city": "Laranjeiras do Sul",
        "state": "PR",
        "district": "São Francisco",
        "street": "Rua Vicente Lourenço Ruths",
        "zipcode": "85303-780"
    },
    {
        "city": "Laranjeiras do Sul",
        "state": "PR",
        "district": "Cristo Rei",
        "street": "Rua Vereador João da Costa Cristo",
        "zipcode": "85304-260"
    },
    {
        "city": "Laranjeiras do Sul",
        "state": "PR",
        "district": "Cristo Rei",
        "street": "Rua Pedro Schultz",
        "zipcode": "85304-190"
    },
    {
        "city": "Laranjeiras do Sul",
        "state": "PR",
        "district": "Cristo Rei",
        "street": "Rua Vereador Sebastião Dambroski",
        "zipcode": "85304-200"
    },
    {
        "city": "Laranjeiras do Sul",
        "state": "PR",
        "district": "Cristo Rei",
        "street": "Rua Vereador Alberto Benvenutti",
        "zipcode": "85304-110"
    },
    {
        "city": "Laranjeiras do Sul",
        "state": "PR",
        "district": "Cristo Rei",
        "street": "Rua Roberto Henk",
        "zipcode": "85304-215"
    },
    {
        "city": "Laranjeiras do Sul",
        "state": "PR",
        "district": "Vila Industrial",
        "street": "Rua Alcides Alves Ferreira",
        "zipcode": "85303-570"
    },
    {
        "city": "Laranjeiras do Sul",
        "state": "PR",
        "district": "Vila Industrial",
        "street": "Rua das Andorinhas",
        "zipcode": "85303-600"
    },
    {
        "city": "Laranjeiras do Sul",
        "state": "PR",
        "district": "Vila Industrial",
        "street": "Rua Antônia Oliveira Xavier",
        "zipcode": "85303-580"
    },
    {
        "city": "Laranjeiras do Sul",
        "state": "PR",
        "district": "Vila Industrial",
        "street": "Rua das Araras",
        "zipcode": "85303-590"
    },
    {
        "city": "Laranjeiras do Sul",
        "state": "PR",
        "district": "Vila Industrial",
        "street": "Rua Beija",
        "zipcode": "85303-610"
    },
    {
        "city": "Laranjeiras do Sul",
        "state": "PR",
        "district": "Vila Industrial",
        "street": "Rua Bem",
        "zipcode": "85303-510"
    },
    {
        "city": "Laranjeiras do Sul",
        "state": "PR",
        "district": "Vila Industrial",
        "street": "Rua Brasília",
        "zipcode": "85303-530"
    },
    {
        "city": "Laranjeiras do Sul",
        "state": "PR",
        "district": "Vila Industrial",
        "street": "Rua dos Canários",
        "zipcode": "85303-500"
    },
    {
        "city": "Laranjeiras do Sul",
        "state": "PR",
        "district": "São Francisco",
        "street": "Rua Capitão Ártico Antônio Fae",
        "zipcode": "85303-420"
    },
    {
        "city": "Laranjeiras do Sul",
        "state": "PR",
        "district": "Vila Industrial",
        "street": "Rua Codornas",
        "zipcode": "85303-540"
    },
    {
        "city": "Laranjeiras do Sul",
        "state": "PR",
        "district": "Vila Industrial",
        "street": "Rua dos Curiós",
        "zipcode": "85303-596"
    },
    {
        "city": "Laranjeiras do Sul",
        "state": "PR",
        "district": "Vila Industrial",
        "street": "Rua Dalmo Putini",
        "zipcode": "85303-460"
    },
    {
        "city": "Laranjeiras do Sul",
        "state": "PR",
        "district": "São Francisco",
        "street": "Rua Delegado Atílio Joris Fistarol",
        "zipcode": "85303-790"
    },
    {
        "city": "Laranjeiras do Sul",
        "state": "PR",
        "district": "Vila Industrial",
        "street": "Rua Edwin Sobezak",
        "zipcode": "85303-440"
    },
    {
        "city": "Laranjeiras do Sul",
        "state": "PR",
        "district": "São Francisco",
        "street": "Rua Eugênio Sganzerla",
        "zipcode": "85303-360"
    },
    {
        "city": "Laranjeiras do Sul",
        "state": "PR",
        "district": "Vila Industrial",
        "street": "Rua Garças",
        "zipcode": "85303-595"
    },
    {
        "city": "Laranjeiras do Sul",
        "state": "PR",
        "district": "Vila Industrial",
        "street": "Rua Gralha",
        "zipcode": "85303-620"
    },
    {
        "city": "Laranjeiras do Sul",
        "state": "PR",
        "district": "São Francisco",
        "street": "Rua Irmã Inês Vailatti",
        "zipcode": "85303-310"
    },
    {
        "city": "Laranjeiras do Sul",
        "state": "PR",
        "district": "Vila Industrial",
        "street": "Rua José Gomes de Araújo",
        "zipcode": "85303-560"
    },
    {
        "city": "Laranjeiras do Sul",
        "state": "PR",
        "district": "São Francisco",
        "street": "Rua Nova Laranjeiras",
        "zipcode": "85303-350"
    },
    {
        "city": "Laranjeiras do Sul",
        "state": "PR",
        "district": "Vila Industrial",
        "street": "Rua dos Pardais",
        "zipcode": "85303-640"
    },
    {
        "city": "Laranjeiras do Sul",
        "state": "PR",
        "district": "Vila Industrial",
        "street": "Rua Pedro Alves de Oliveira",
        "zipcode": "85303-490"
    },
    {
        "city": "Laranjeiras do Sul",
        "state": "PR",
        "district": "Centro",
        "street": "Rua Pedro Conrado Sobrinho",
        "zipcode": "85301-490"
    },
    {
        "city": "Laranjeiras do Sul",
        "state": "PR",
        "district": "São Francisco",
        "street": "Rua Pedro Pinto de Oliveira",
        "zipcode": "85303-400"
    },
    {
        "city": "Laranjeiras do Sul",
        "state": "PR",
        "district": "Vila Industrial",
        "street": "Rua dos Piriquitos",
        "zipcode": "85303-597"
    },
    {
        "city": "Laranjeiras do Sul",
        "state": "PR",
        "district": "São Francisco",
        "street": "Rua Prefeito Silvério Araújo",
        "zipcode": "85303-300"
    },
    {
        "city": "Laranjeiras do Sul",
        "state": "PR",
        "district": "Vila Industrial",
        "street": "Rua dos Quero",
        "zipcode": "85303-615"
    },
    {
        "city": "Laranjeiras do Sul",
        "state": "PR",
        "district": "São Francisco",
        "street": "Rua Ricieri Denez",
        "zipcode": "85303-430"
    },
    {
        "city": "Laranjeiras do Sul",
        "state": "PR",
        "district": "São Francisco",
        "street": "Rua Rio da Prata",
        "zipcode": "85303-345"
    },
    {
        "city": "Laranjeiras do Sul",
        "state": "PR",
        "district": "São Francisco",
        "street": "Rua Santa Helena",
        "zipcode": "85303-690"
    },
    {
        "city": "Laranjeiras do Sul",
        "state": "PR",
        "district": "São Francisco",
        "street": "Rua São Luiz",
        "zipcode": "85303-660"
    },
    {
        "city": "Laranjeiras do Sul",
        "state": "PR",
        "district": "São Francisco",
        "street": "Rua São Vicente",
        "zipcode": "85303-680"
    },
    {
        "city": "Laranjeiras do Sul",
        "state": "PR",
        "district": "Vila Industrial",
        "street": "Rua dos Tucanos",
        "zipcode": "85303-630"
    },
    {
        "city": "Laranjeiras do Sul",
        "state": "PR",
        "district": "São Francisco",
        "street": "Rua Tupy",
        "zipcode": "85303-380"
    },
    {
        "city": "Laranjeiras do Sul",
        "state": "PR",
        "district": "Vila Industrial",
        "street": "Rua Urceni Machado",
        "zipcode": "85303-450"
    },
    {
        "city": "Laranjeiras do Sul",
        "state": "PR",
        "district": "Vila Industrial",
        "street": "Rua Vereador Waldemar Becker",
        "zipcode": "85303-480"
    },
    {
        "city": "Laranjeiras do Sul",
        "state": "PR",
        "district": "São Francisco",
        "street": "Rua Virmond",
        "zipcode": "85303-330"
    },
    {
        "city": "Laranjeiras do Sul",
        "state": "PR",
        "district": "São Francisco",
        "street": "Rua Xenofontes Freitas Lopes",
        "zipcode": "85303-410"
    },
    {
        "city": "Laranjeiras do Sul",
        "state": "PR",
        "district": "São Francisco",
        "street": "Rua Sulina",
        "zipcode": "85303-340"
    },
    {
        "city": "Laranjeiras do Sul",
        "state": "PR",
        "district": "São Francisco",
        "street": "Rua Porto Santana",
        "zipcode": "85303-346"
    },
    {
        "city": "Laranjeiras do Sul",
        "state": "PR",
        "district": "São Francisco",
        "street": "Rua Salto Santiago",
        "zipcode": "85303-315"
    },
    {
        "city": "Laranjeiras do Sul",
        "state": "PR",
        "district": "São Francisco",
        "street": "Rua Maringá",
        "zipcode": "85303-320"
    },
    {
        "city": "Laranjeiras do Sul",
        "state": "PR",
        "district": "São Francisco",
        "street": "Rua Rio Bonito",
        "zipcode": "85303-347"
    },
    {
        "city": "Laranjeiras do Sul",
        "state": "PR",
        "district": "São Francisco",
        "street": "Rua Pastor Reno Prodosquismiski",
        "zipcode": "85303-390"
    },
    {
        "city": "Laranjeiras do Sul",
        "state": "PR",
        "district": "São Francisco",
        "street": "Rua Alvise Hélio Fae",
        "zipcode": "85303-040"
    },
    {
        "city": "Laranjeiras do Sul",
        "state": "PR",
        "district": "São Francisco",
        "street": "Rua Barão do Rio Branco",
        "zipcode": "85303-130"
    },
    {
        "city": "Laranjeiras do Sul",
        "state": "PR",
        "district": "Vila Albert",
        "street": "Rua Otto Ernesto Max Monich",
        "zipcode": "85303-825"
    },
    {
        "city": "Laranjeiras do Sul",
        "state": "PR",
        "district": "São Francisco",
        "street": "Travessa Caiapó",
        "zipcode": "85303-225"
    },
    {
        "city": "Laranjeiras do Sul",
        "state": "PR",
        "district": "Água Verde",
        "street": "Rua Coronel Vivida",
        "zipcode": "85302-380"
    },
    {
        "city": "Laranjeiras do Sul",
        "state": "PR",
        "district": "São Francisco",
        "street": "Rua Curitiba",
        "zipcode": "85303-280"
    },
    {
        "city": "Laranjeiras do Sul",
        "state": "PR",
        "district": "São Francisco",
        "street": "Travessa Democracia",
        "zipcode": "85303-105"
    },
    {
        "city": "Laranjeiras do Sul",
        "state": "PR",
        "district": "São Francisco",
        "street": "Avenida Deputado Ivan Ferreira do Amaral",
        "zipcode": "85303-000"
    },
    {
        "city": "Laranjeiras do Sul",
        "state": "PR",
        "district": "Água Verde",
        "street": "Rua Fortaleza",
        "zipcode": "85302-400"
    },
    {
        "city": "Laranjeiras do Sul",
        "state": "PR",
        "district": "Água Verde",
        "street": "Rua Foz do Iguaçu",
        "zipcode": "85302-360"
    },
    {
        "city": "Laranjeiras do Sul",
        "state": "PR",
        "district": "São Francisco",
        "street": "Rua Francisco Freitas",
        "zipcode": "85303-180"
    },
    {
        "city": "Laranjeiras do Sul",
        "state": "PR",
        "district": "São Francisco",
        "street": "Rua Francisco Piomontes",
        "zipcode": "85303-010"
    },
    {
        "city": "Laranjeiras do Sul",
        "state": "PR",
        "district": "Água Verde",
        "street": "Rua Guaraniaçu",
        "zipcode": "85302-390"
    },
    {
        "city": "Laranjeiras do Sul",
        "state": "PR",
        "district": "São Francisco",
        "street": "Rua Imigrantes",
        "zipcode": "85303-120"
    },
    {
        "city": "Laranjeiras do Sul",
        "state": "PR",
        "district": "São Francisco",
        "street": "Travessa Independência",
        "zipcode": "85303-085"
    },
    {
        "city": "Laranjeiras do Sul",
        "state": "PR",
        "district": "Água Verde",
        "street": "Rua João Pilarski",
        "zipcode": "85302-440"
    },
    {
        "city": "Laranjeiras do Sul",
        "state": "PR",
        "district": "Vila Industrial",
        "street": "Rua João Wagner",
        "zipcode": "85303-470"
    },
    {
        "city": "Laranjeiras do Sul",
        "state": "PR",
        "district": "São Francisco",
        "street": "Rua José Arnaldo Molinari",
        "zipcode": "85303-115"
    },
    {
        "city": "Laranjeiras do Sul",
        "state": "PR",
        "district": "São Francisco",
        "street": "Rua José Rodrigues Medina",
        "zipcode": "85303-230"
    },
    {
        "city": "Laranjeiras do Sul",
        "state": "PR",
        "district": "São Francisco",
        "street": "Rua da Liberdade",
        "zipcode": "85303-080"
    },
    {
        "city": "Laranjeiras do Sul",
        "state": "PR",
        "district": "São Francisco",
        "street": "Rua Luiz Brondani",
        "zipcode": "85303-076"
    },
    {
        "city": "Laranjeiras do Sul",
        "state": "PR",
        "district": "São Francisco",
        "street": "Praça Monte Castelo",
        "zipcode": "85303-370"
    },
    {
        "city": "Laranjeiras do Sul",
        "state": "PR",
        "district": "São Francisco",
        "street": "Rua Nereu Ramos",
        "zipcode": "85303-170"
    },
    {
        "city": "Laranjeiras do Sul",
        "state": "PR",
        "district": "São Francisco",
        "street": "Rua Nossa Senhora Aparecida",
        "zipcode": "85303-030"
    },
    {
        "city": "Laranjeiras do Sul",
        "state": "PR",
        "district": "São Francisco",
        "street": "Rua Osvaldo Aranha",
        "zipcode": "85303-190"
    },
    {
        "city": "Laranjeiras do Sul",
        "state": "PR",
        "district": "São Francisco",
        "street": "Rua Otaviano Amaral",
        "zipcode": "85303-160"
    },
    {
        "city": "Laranjeiras do Sul",
        "state": "PR",
        "district": "São Francisco",
        "street": "Rua Padre Paulo Schneider",
        "zipcode": "85303-020"
    },
    {
        "city": "Laranjeiras do Sul",
        "state": "PR",
        "district": "São Francisco",
        "street": "Rua Paulo Brondani",
        "zipcode": "85303-075"
    },
    {
        "city": "Laranjeiras do Sul",
        "state": "PR",
        "district": "São Francisco",
        "street": "Travessa da Paz",
        "zipcode": "85303-106"
    },
    {
        "city": "Laranjeiras do Sul",
        "state": "PR",
        "district": "São Francisco",
        "street": "Rua Pedro Álvares Cabral",
        "zipcode": "85303-090"
    },
    {
        "city": "Laranjeiras do Sul",
        "state": "PR",
        "district": "São Francisco",
        "street": "Rua Pitanga",
        "zipcode": "85303-270"
    },
    {
        "city": "Laranjeiras do Sul",
        "state": "PR",
        "district": "São Francisco",
        "street": "Rua Ponta Grossa",
        "zipcode": "85303-260"
    },
    {
        "city": "Laranjeiras do Sul",
        "state": "PR",
        "district": "São Francisco",
        "street": "Rua Quinze de Novembro",
        "zipcode": "85303-150"
    },
    {
        "city": "Laranjeiras do Sul",
        "state": "PR",
        "district": "São Francisco",
        "street": "Rua da República",
        "zipcode": "85303-100"
    },
    {
        "city": "Laranjeiras do Sul",
        "state": "PR",
        "district": "Água Verde",
        "street": "Rua Rio Grande do Sul",
        "zipcode": "85302-170"
    },
    {
        "city": "Laranjeiras do Sul",
        "state": "PR",
        "district": "São Francisco",
        "street": "Rua Silva Jardim",
        "zipcode": "85303-110"
    },
    {
        "city": "Laranjeiras do Sul",
        "state": "PR",
        "district": "São Francisco",
        "street": "Rua Telepar",
        "zipcode": "85303-026"
    },
    {
        "city": "Laranjeiras do Sul",
        "state": "PR",
        "district": "São Francisco",
        "street": "Rua Tupinambá",
        "zipcode": "85303-210"
    },
    {
        "city": "Laranjeiras do Sul",
        "state": "PR",
        "district": "São Francisco",
        "street": "Rua Valdomira Amaral",
        "zipcode": "85303-070"
    },
    {
        "city": "Laranjeiras do Sul",
        "state": "PR",
        "district": "São Francisco",
        "street": "Travessa Xavantes",
        "zipcode": "85303-215"
    },
    {
        "city": "Laranjeiras do Sul",
        "state": "PR",
        "district": "São Francisco",
        "street": "Rua João Blonski",
        "zipcode": "85303-060"
    },
    {
        "city": "Laranjeiras do Sul",
        "state": "PR",
        "district": "São Francisco",
        "street": "Rua Vereador Antônio R. Oliveira",
        "zipcode": "85303-050"
    },
    {
        "city": "Laranjeiras do Sul",
        "state": "PR",
        "district": "São Francisco",
        "street": "Rua Doutor Jorge Barreiro",
        "zipcode": "85303-240"
    },
    {
        "city": "Laranjeiras do Sul",
        "state": "PR",
        "district": "São Francisco",
        "street": "Avenida Santos Dumont",
        "zipcode": "85303-140"
    },
    {
        "city": "Laranjeiras do Sul",
        "state": "PR",
        "district": "São Francisco",
        "street": "Rua Wenceslau Chrusciak",
        "zipcode": "85303-065"
    },
    {
        "city": "Laranjeiras do Sul",
        "state": "PR",
        "district": "São Francisco",
        "street": "Rua Carolina Chrusciak Lemiezek",
        "zipcode": "85303-066"
    },
    {
        "city": "Laranjeiras do Sul",
        "state": "PR",
        "district": "São Francisco",
        "street": "Rua Mário Uniate",
        "zipcode": "85303-348"
    },
    {
        "city": "Laranjeiras do Sul",
        "state": "PR",
        "district": "Água Verde",
        "street": "Rua Osvaldo Bêe",
        "zipcode": "85302-087"
    },
    {
        "city": "Laranjeiras do Sul",
        "state": "PR",
        "district": "Água Verde",
        "street": "Rua Ernesto Hadlich",
        "zipcode": "85302-093"
    },
    {
        "city": "Laranjeiras do Sul",
        "state": "PR",
        "district": "Água Verde",
        "street": "Rua Dino de Nez",
        "zipcode": "85302-092"
    },
    {
        "city": "Laranjeiras do Sul",
        "state": "PR",
        "district": "Água Verde",
        "street": "Rua Antonio Franzoni",
        "zipcode": "85302-091"
    },
    {
        "city": "Laranjeiras do Sul",
        "state": "PR",
        "district": "Água Verde",
        "street": "Rua Dionisio Zocche",
        "zipcode": "85302-089"
    },
    {
        "city": "Laranjeiras do Sul",
        "state": "PR",
        "district": "Água Verde",
        "street": "Rua Pedro Domingos Passarin",
        "zipcode": "85302-083"
    },
    {
        "city": "Laranjeiras do Sul",
        "state": "PR",
        "district": "Água Verde",
        "street": "Rua Antonio Tomé de Freitas",
        "zipcode": "85302-082"
    },
    {
        "city": "Laranjeiras do Sul",
        "state": "PR",
        "district": "Água Verde",
        "street": "Rua Sebastião Bueno",
        "zipcode": "85302-084"
    },
    {
        "city": "Laranjeiras do Sul",
        "state": "PR",
        "district": "Água Verde",
        "street": "Rua Doutor Carlos Felipe de Sio",
        "zipcode": "85302-085"
    },
    {
        "city": "Laranjeiras do Sul",
        "state": "PR",
        "district": "Água Verde",
        "street": "Rua Antonina",
        "zipcode": "85302-330"
    },
    {
        "city": "Laranjeiras do Sul",
        "state": "PR",
        "district": "Centro",
        "street": "Rua Coronel Guilherme de Paula",
        "zipcode": "85301-970"
    },
    {
        "city": "Laranjeiras do Sul",
        "state": "PR",
        "district": "Água Verde",
        "street": "Rua Apucarana",
        "zipcode": "85302-180"
    },
    {
        "city": "Laranjeiras do Sul",
        "state": "PR",
        "district": "Água Verde",
        "street": "Rua Bahia",
        "zipcode": "85302-230"
    },
    {
        "city": "Laranjeiras do Sul",
        "state": "PR",
        "district": "Água Verde",
        "street": "Rua Barão do Rio Branco",
        "zipcode": "85302-070"
    },
    {
        "city": "Laranjeiras do Sul",
        "state": "PR",
        "district": "Água Verde",
        "street": "Rua Belo Horizonte",
        "zipcode": "85302-040"
    },
    {
        "city": "Laranjeiras do Sul",
        "state": "PR",
        "district": "Água Verde",
        "street": "Rua Maceió",
        "zipcode": "85302-325"
    },
    {
        "city": "Laranjeiras do Sul",
        "state": "PR",
        "district": "Água Verde",
        "street": "Rua Chopinzinho",
        "zipcode": "85302-160"
    },
    {
        "city": "Laranjeiras do Sul",
        "state": "PR",
        "district": "Centro",
        "street": "Rua Expedicionário João Maria",
        "zipcode": "85301-410"
    },
    {
        "city": "Laranjeiras do Sul",
        "state": "PR",
        "district": "Água Verde",
        "street": "Rua Florianópolis",
        "zipcode": "85302-030"
    },
    {
        "city": "Laranjeiras do Sul",
        "state": "PR",
        "district": "Água Verde",
        "street": "Rua Goiás",
        "zipcode": "85302-240"
    },
    {
        "city": "Laranjeiras do Sul",
        "state": "PR",
        "district": "Água Verde",
        "street": "Rua Guaíra",
        "zipcode": "85302-300"
    },
    {
        "city": "Laranjeiras do Sul",
        "state": "PR",
        "district": "Água Verde",
        "street": "Rua Guaratuba",
        "zipcode": "85302-150"
    },
    {
        "city": "Laranjeiras do Sul",
        "state": "PR",
        "district": "Centro",
        "street": "Rua Jaboticabal",
        "zipcode": "85301-460"
    },
    {
        "city": "Laranjeiras do Sul",
        "state": "PR",
        "district": "Centro",
        "street": "Rua José Levandoski",
        "zipcode": "85301-400"
    },
    {
        "city": "Laranjeiras do Sul",
        "state": "PR",
        "district": "Centro",
        "street": "Rua Júlio Maurer",
        "zipcode": "85301-480"
    },
    {
        "city": "Laranjeiras do Sul",
        "state": "PR",
        "district": "Água Verde",
        "street": "Rua Londrina",
        "zipcode": "85302-260"
    },
    {
        "city": "Laranjeiras do Sul",
        "state": "PR",
        "district": "Água Verde",
        "street": "Rua Marechal Cândido Rondon",
        "zipcode": "85302-090"
    },
    {
        "city": "Laranjeiras do Sul",
        "state": "PR",
        "district": "Água Verde",
        "street": "Rua Medianeira",
        "zipcode": "85302-060"
    },
    {
        "city": "Laranjeiras do Sul",
        "state": "PR",
        "district": "Água Verde",
        "street": "Rua Minas Gerais",
        "zipcode": "85302-220"
    },
    {
        "city": "Laranjeiras do Sul",
        "state": "PR",
        "district": "Água Verde",
        "street": "Rua Nova Aurora",
        "zipcode": "85302-265"
    },
    {
        "city": "Laranjeiras do Sul",
        "state": "PR",
        "district": "Água Verde",
        "street": "Rua Palotina",
        "zipcode": "85302-310"
    },
    {
        "city": "Laranjeiras do Sul",
        "state": "PR",
        "district": "Água Verde",
        "street": "Rua Paraná",
        "zipcode": "85302-120"
    },
    {
        "city": "Laranjeiras do Sul",
        "state": "PR",
        "district": "Água Verde",
        "street": "Rua Paranaguá",
        "zipcode": "85302-370"
    },
    {
        "city": "Laranjeiras do Sul",
        "state": "PR",
        "district": "Água Verde",
        "street": "Rua Paranavaí",
        "zipcode": "85302-130"
    },
    {
        "city": "Laranjeiras do Sul",
        "state": "PR",
        "district": "Água Verde",
        "street": "Rua Porto Alegre",
        "zipcode": "85302-020"
    },
    {
        "city": "Laranjeiras do Sul",
        "state": "PR",
        "district": "Água Verde",
        "street": "Rua Rio de Janeiro",
        "zipcode": "85302-210"
    },
    {
        "city": "Laranjeiras do Sul",
        "state": "PR",
        "district": "Água Verde",
        "street": "Rua Salvador",
        "zipcode": "85302-050"
    },
    {
        "city": "Laranjeiras do Sul",
        "state": "PR",
        "district": "Água Verde",
        "street": "Rua Santa Catarina",
        "zipcode": "85302-190"
    },
    {
        "city": "Laranjeiras do Sul",
        "state": "PR",
        "district": "Água Verde",
        "street": "Rua São Paulo",
        "zipcode": "85302-200"
    },
    {
        "city": "Laranjeiras do Sul",
        "state": "PR",
        "district": "Centro",
        "street": "Rua Sargento João Nascimento Lopes",
        "zipcode": "85301-440"
    },
    {
        "city": "Laranjeiras do Sul",
        "state": "PR",
        "district": "Água Verde",
        "street": "Rua Sete de Setembro",
        "zipcode": "85302-100"
    },
    {
        "city": "Laranjeiras do Sul",
        "state": "PR",
        "district": "Água Verde",
        "street": "Rua Tiradentes",
        "zipcode": "85302-110"
    },
    {
        "city": "Laranjeiras do Sul",
        "state": "PR",
        "district": "Água Verde",
        "street": "Rua Toledo",
        "zipcode": "85302-280"
    },
    {
        "city": "Laranjeiras do Sul",
        "state": "PR",
        "district": "Centro",
        "street": "Rua Valdomiro Bee",
        "zipcode": "85301-430"
    },
    {
        "city": "Laranjeiras do Sul",
        "state": "PR",
        "district": "Água Verde",
        "street": "Rua Irati",
        "zipcode": "85302-270"
    },
    {
        "city": "Laranjeiras do Sul",
        "state": "PR",
        "district": "Água Verde",
        "street": "Rua Pato Branco",
        "zipcode": "85302-140"
    },
    {
        "city": "Laranjeiras do Sul",
        "state": "PR",
        "district": "Água Verde",
        "street": "Rua Cantagalo",
        "zipcode": "85302-340"
    },
    {
        "city": "Laranjeiras do Sul",
        "state": "PR",
        "district": "Água Verde",
        "street": "Rua Céu",
        "zipcode": "85302-361"
    },
    {
        "city": "Laranjeiras do Sul",
        "state": "PR",
        "district": "Getúlio Vargas",
        "street": "Rua Inglaterra",
        "zipcode": "85304-708"
    },
    {
        "city": "Laranjeiras do Sul",
        "state": "PR",
        "district": "Getúlio Vargas",
        "street": "Rua Alemanha",
        "zipcode": "85304-706"
    },
    {
        "city": "Laranjeiras do Sul",
        "state": "PR",
        "district": "Água Verde",
        "street": "Rua Ademar Ferreira Soares",
        "zipcode": "85301-145"
    },
    {
        "city": "Laranjeiras do Sul",
        "state": "PR",
        "district": "Centro",
        "street": "Avenida Álvaro Natel de Camargo",
        "zipcode": "85301-100"
    },
    {
        "city": "Laranjeiras do Sul",
        "state": "PR",
        "district": "Centro",
        "street": "Rua Barão do Rio Branco",
        "zipcode": "85301-030"
    },
    {
        "city": "Laranjeiras do Sul",
        "state": "PR",
        "district": "Centro",
        "street": "Rua Capitão Antônio Joaquim de Camargo",
        "zipcode": "85301-230"
    },
    {
        "city": "Laranjeiras do Sul",
        "state": "PR",
        "district": "Centro",
        "street": "Rua Castro Alves",
        "zipcode": "85301-340"
    },
    {
        "city": "Laranjeiras do Sul",
        "state": "PR",
        "district": "Centro",
        "street": "Rua Cezar Brondani",
        "zipcode": "85301-500"
    },
    {
        "city": "Laranjeiras do Sul",
        "state": "PR",
        "district": "Centro",
        "street": "Rua Dante Alighieri",
        "zipcode": "85301-380"
    },
    {
        "city": "Laranjeiras do Sul",
        "state": "PR",
        "district": "Centro",
        "street": "Rua Diogo Pinto",
        "zipcode": "85301-290"
    },
    {
        "city": "Laranjeiras do Sul",
        "state": "PR",
        "district": "Centro",
        "street": "Rua Duque de Caxias",
        "zipcode": "85301-300"
    },
    {
        "city": "Laranjeiras do Sul",
        "state": "PR",
        "district": "Água Verde",
        "street": "Estrada do Cortume",
        "zipcode": "85302-010"
    },
    {
        "city": "Laranjeiras do Sul",
        "state": "PR",
        "district": "Centro",
        "street": "Rua Ezidio Bozza",
        "zipcode": "85301-320"
    },
    {
        "city": "Laranjeiras do Sul",
        "state": "PR",
        "district": "Centro",
        "street": "Praça Governador Garcez",
        "zipcode": "85301-325"
    },
    {
        "city": "Laranjeiras do Sul",
        "state": "PR",
        "district": "Centro",
        "street": "Rua Governador Trota",
        "zipcode": "85301-280"
    },
    {
        "city": "Laranjeiras do Sul",
        "state": "PR",
        "district": "Centro",
        "street": "Rua José Bonifácio",
        "zipcode": "85301-160"
    },
    {
        "city": "Laranjeiras do Sul",
        "state": "PR",
        "district": "Centro",
        "street": "Rua das Laranjeiras",
        "zipcode": "85301-130"
    },
    {
        "city": "Laranjeiras do Sul",
        "state": "PR",
        "district": "Centro",
        "street": "Rua Machado de Assis",
        "zipcode": "85301-350"
    },
    {
        "city": "Laranjeiras do Sul",
        "state": "PR",
        "district": "Centro",
        "street": "Rua Manoel Ribas",
        "zipcode": "85301-020"
    },
    {
        "city": "Laranjeiras do Sul",
        "state": "PR",
        "district": "Centro",
        "street": "Rua Marechal Cândido Rondon",
        "zipcode": "85301-060"
    },
    {
        "city": "Laranjeiras do Sul",
        "state": "PR",
        "district": "Centro",
        "street": "Rua Matheus Piovesan",
        "zipcode": "85301-010"
    },
    {
        "city": "Laranjeiras do Sul",
        "state": "PR",
        "district": "Centro",
        "street": "Rua Olavo Bilac",
        "zipcode": "85301-150"
    },
    {
        "city": "Laranjeiras do Sul",
        "state": "PR",
        "district": "Centro",
        "street": "Travessa Olivar Amaral",
        "zipcode": "85301-390"
    },
    {
        "city": "Laranjeiras do Sul",
        "state": "PR",
        "district": "Centro",
        "street": "Rua Padre Anchieta",
        "zipcode": "85301-120"
    },
    {
        "city": "Laranjeiras do Sul",
        "state": "PR",
        "district": "Centro",
        "street": "Rua Rodolfo Bertuol",
        "zipcode": "85301-260"
    },
    {
        "city": "Laranjeiras do Sul",
        "state": "PR",
        "district": "Centro",
        "street": "Rua Paraná",
        "zipcode": "85301-090"
    },
    {
        "city": "Laranjeiras do Sul",
        "state": "PR",
        "district": "Centro",
        "street": "Rua Presidente John F. Kennedy",
        "zipcode": "85301-330"
    },
    {
        "city": "Laranjeiras do Sul",
        "state": "PR",
        "district": "Centro",
        "street": "Rua Vereador Arlindo José Bavaresco",
        "zipcode": "85301-250"
    },
    {
        "city": "Laranjeiras do Sul",
        "state": "PR",
        "district": "Centro",
        "street": "Rua Quinze de Novembro",
        "zipcode": "85301-050"
    },
    {
        "city": "Laranjeiras do Sul",
        "state": "PR",
        "district": "Centro",
        "street": "Praça República",
        "zipcode": "85301-225"
    },
    {
        "city": "Laranjeiras do Sul",
        "state": "PR",
        "district": "Centro",
        "street": "Praça Rui Barbosa",
        "zipcode": "85301-420"
    },
    {
        "city": "Laranjeiras do Sul",
        "state": "PR",
        "district": "Centro",
        "street": "Rua Sete de Setembro",
        "zipcode": "85301-070"
    },
    {
        "city": "Laranjeiras do Sul",
        "state": "PR",
        "district": "Centro",
        "street": "Rua Tenente Eugênio Martins",
        "zipcode": "85301-370"
    },
    {
        "city": "Laranjeiras do Sul",
        "state": "PR",
        "district": "Centro",
        "street": "Rua Tiradentes",
        "zipcode": "85301-080"
    },
    {
        "city": "Laranjeiras do Sul",
        "state": "PR",
        "district": "Centro",
        "street": "Avenida Vereador Honório Babinski",
        "zipcode": "85301-270"
    },
    {
        "city": "Laranjeiras do Sul",
        "state": "PR",
        "district": "Centro",
        "street": "Rua Vereador João Rocha Loures",
        "zipcode": "85301-000"
    },
    {
        "city": "Laranjeiras do Sul",
        "state": "PR",
        "district": "Centro",
        "street": "Rua Vereador José Ayres de Oliveira",
        "zipcode": "85301-240"
    },
    {
        "city": "Laranjeiras do Sul",
        "state": "PR",
        "district": "Centro",
        "street": "Travessa Vital Brasil",
        "zipcode": "85301-095"
    },
    {
        "city": "Laranjeiras do Sul",
        "state": "PR",
        "district": "Centro",
        "street": "Rua Frei Caneca",
        "zipcode": "85301-450"
    },
    {
        "city": "Laranjeiras do Sul",
        "state": "PR",
        "district": "São Francisco",
        "street": "Rua São Pedro",
        "zipcode": "85303-670"
    },
    {
        "city": "Laranjeiras do Sul",
        "state": "PR",
        "district": "Centro",
        "street": "Avenida José Campigotto",
        "zipcode": "85301-310"
    },
    {
        "city": "Laranjeiras do Sul",
        "state": "PR",
        "district": "Centro",
        "street": "Rua Nogueira do Amaral",
        "zipcode": "85301-140"
    },
    {
        "city": "Laranjeiras do Sul",
        "state": "PR",
        "district": "Centro",
        "street": "Avenida Santos Dumont",
        "zipcode": "85301-040"
    },
    {
        "city": "Laranjeiras do Sul",
        "state": "PR",
        "district": "Centro",
        "street": "Rua Rogério Stefanes Gaspar",
        "zipcode": "85301-315"
    },
    {
        "city": "Laranjeiras do Sul",
        "state": "PR",
        "district": "Centro",
        "street": "Rua Chiassi Antônio Fae",
        "zipcode": "85301-316"
    },
    {
        "city": "Laranjeiras do Sul",
        "state": "PR",
        "district": "Centro",
        "street": "Rua Prefeito Amantino Stephanes",
        "zipcode": "85301-317"
    },
    {
        "city": "Laranjeiras do Sul",
        "state": "PR",
        "district": "Centro",
        "street": "Rua Capitão Félix Fleury",
        "zipcode": "85301-210"
    },
    {
        "city": "Laranjeiras do Sul",
        "state": "PR",
        "district": "Centro",
        "street": "Rua Coronel Guilherme de Paula",
        "zipcode": "85301-220"
    },
    {
        "city": "Laranjeiras do Sul",
        "state": "PR",
        "district": "Centro",
        "street": "Rua General Espírito Santo",
        "zipcode": "85301-170"
    },
    {
        "city": "Laranjeiras do Sul",
        "state": "PR",
        "district": "Centro",
        "street": "Rua Presidente Juscelino Kubitschek",
        "zipcode": "85301-180"
    },
    {
        "city": "Laranjeiras do Sul",
        "state": "PR",
        "district": "Centro",
        "street": "Rua Robinson Fae",
        "zipcode": "85301-185"
    },
    {
        "city": "Laranjeiras do Sul",
        "state": "PR",
        "district": "Vila Industrial",
        "street": "Rua dos Sabiás",
        "zipcode": "85303-520"
    },
    {
        "city": "Laranjeiras do Sul",
        "state": "PR",
        "district": "Centro",
        "street": "Rua Santana",
        "zipcode": "85301-200"
    },
    {
        "city": "Laranjeiras do Sul",
        "state": "PR",
        "district": "Água Verde",
        "street": "Rua Corbélia",
        "zipcode": "85302-420"
    },
    {
        "city": "Laranjeiras do Sul",
        "state": "PR",
        "district": "São Francisco",
        "street": "Rua Evaldo Marquardt Sobrinho",
        "zipcode": "85303-385"
    },
    {
        "city": "Laranjeiras do Sul",
        "state": "PR",
        "district": "Getúlio Vargas",
        "street": "Rua Almerinda Brustolin",
        "zipcode": "85304-554"
    },
    {
        "city": "Laranjeiras do Sul",
        "state": "PR",
        "district": "Getúlio Vargas",
        "street": "Rua Renato Cezar Klein",
        "zipcode": "85304-558"
    },
    {
        "city": "Laranjeiras do Sul",
        "state": "PR",
        "district": "Getúlio Vargas",
        "street": "Rua Frederico Burei",
        "zipcode": "85304-556"
    },
    {
        "city": "Laranjeiras do Sul",
        "state": "PR",
        "district": "Água Verde",
        "street": "Rua Pedro Gitassi",
        "zipcode": "85302-094"
    },
    {
        "city": "Laranjeiras do Sul",
        "state": "PR",
        "district": "Água Verde",
        "street": "Rua Muricy Marinho da Rocha Loures",
        "zipcode": "85302-086"
    },
    {
        "city": "Laranjeiras do Sul",
        "state": "PR",
        "district": "Getúlio Vargas",
        "street": "Rua Espanha",
        "zipcode": "85304-710"
    },
    {
        "city": "Laranjeiras do Sul",
        "state": "PR",
        "district": "Água Verde",
        "street": "Rua Ayrton Senna",
        "zipcode": "85302-088"
    },
    {
        "city": "Laranjeiras do Sul",
        "state": "PR",
        "district": "Água Verde",
        "street": "Rua Ruy Luiz Faé",
        "zipcode": "85302-081"
    },
    {
        "city": "Laranjeiras do Sul",
        "state": "PR",
        "district": "Vila Industrial",
        "street": "Rua Alberto Minski",
        "zipcode": "85303-550"
    },
    {
        "city": "Laranjeiras do Sul",
        "state": "PR",
        "district": "Vila Industrial",
        "street": "Rua Alto São João",
        "zipcode": "85303-760"
    },
    {
        "city": "Laranjeiras do Sul",
        "state": "PR",
        "district": "Água Verde",
        "street": "Avenida Álvaro Natel de Camargo",
        "zipcode": "85302-000"
    },
    {
        "city": "Laranjeiras do Sul",
        "state": "PR",
        "district": "Cristo Rei",
        "street": "Rua Canjaranas",
        "zipcode": "85304-400"
    },
    {
        "city": "Laranjeiras do Sul",
        "state": "PR",
        "district": "Getúlio Vargas",
        "street": "Rua Capitão Félix Fleury",
        "zipcode": "85304-450"
    },
    {
        "city": "Laranjeiras do Sul",
        "state": "PR",
        "district": "São Francisco",
        "street": "Avenida Álvaro Natel de Camargo",
        "zipcode": "85303-290"
    },
    {
        "city": "Laranjeiras do Sul",
        "state": "PR",
        "district": "São Francisco",
        "street": "Rua Georgina R. de Matos Kraemer",
        "zipcode": "85303-395"
    },
    {
        "city": "Laranjeiras do Sul",
        "state": "PR",
        "district": "Centro",
        "street": "Rua Getúlio Vargas",
        "zipcode": "85301-110"
    },
    {
        "city": "Laranjeiras do Sul",
        "state": "PR",
        "district": "Getúlio Vargas",
        "street": "Rua Monteiro Lobato",
        "zipcode": "85304-410"
    },
    {
        "city": "Laranjeiras do Sul",
        "state": "PR",
        "district": "Água Verde",
        "street": "Rua Morretes",
        "zipcode": "85302-410"
    },
    {
        "city": "Laranjeiras do Sul",
        "state": "PR",
        "district": "Centro",
        "street": "Rua Otaviano Amaral",
        "zipcode": "85301-360"
    },
    {
        "city": "Laranjeiras do Sul",
        "state": "PR",
        "district": "Água Verde",
        "street": "Rua Palmeira",
        "zipcode": "85302-290"
    },
    {
        "city": "Laranjeiras do Sul",
        "state": "PR",
        "district": "Água Verde",
        "street": "Rua Quedas do Iguaçu",
        "zipcode": "85302-350"
    },
    {
        "city": "Laranjeiras do Sul",
        "state": "PR",
        "district": "São Francisco",
        "street": "Rua São José",
        "zipcode": "85303-730"
    },
    {
        "city": "Laranjeiras do Sul",
        "state": "PR",
        "district": "Centro",
        "street": "Rua Souza Naves",
        "zipcode": "85301-190"
    },
    {
        "city": "Laranjeiras do Sul",
        "state": "PR",
        "district": "São Francisco",
        "street": "Rua Tenente Eugênio Martins",
        "zipcode": "85303-220"
    },
    {
        "city": "Laranjeiras do Sul",
        "state": "PR",
        "district": "Vila Industrial",
        "street": "Rua Uirapurus",
        "zipcode": "85303-650"
    },
    {
        "city": "Laranjeiras do Sul",
        "state": "PR",
        "district": "Cristo Rei",
        "street": "Rua Vereador João Rodrigues da Silva",
        "zipcode": "85304-240"
    },
    {
        "city": "Laranjeiras do Sul",
        "state": "PR",
        "district": "Getúlio Vargas",
        "street": "Rua Vereador José Vieira",
        "zipcode": "85304-510"
    },
    {
        "city": "Laranjeiras do Sul",
        "state": "PR",
        "district": "Centro",
        "street": "Rua Alcindo N. Camargo",
        "zipcode": "85301-245"
    },
    {
        "city": "Laranjeiras do Sul",
        "state": "PR",
        "district": "Água Verde",
        "street": "Avenida Santos Dumont",
        "zipcode": "85302-080"
    },
    {
        "city": "Laranjeiras do Sul",
        "state": "PR",
        "district": "Getúlio Vargas",
        "street": "Rua Eugênia A. Brandielli",
        "zipcode": "85304-615"
    },
    {
        "city": "Laranjeiras do Sul",
        "state": "PR",
        "district": "Cristo Rei",
        "street": "Rua Alberto Schinaider Fausto",
        "zipcode": "85304-222"
    },
    {
        "city": "Laranjeiras do Sul",
        "state": "PR",
        "district": "Vila Industrial",
        "street": "Rodovia BR",
        "zipcode": "85303-495"
    },
    {
        "city": "Laranjeiras do Sul",
        "state": "PR",
        "district": "Centro",
        "street": "Rua Isaac Newton",
        "zipcode": "85301-404"
    },
    {
        "city": "Laranjeiras do Sul",
        "state": "PR",
        "district": "Getúlio Vargas",
        "street": "Rua Central",
        "zipcode": "85304-425"
    },
    {
        "city": "Laranjeiras do Sul",
        "state": "PR",
        "district": "Vila Industrial",
        "street": "Rua Goiânia",
        "zipcode": "85303-625"
    },
    {
        "city": "Laranjeiras do Sul",
        "state": "PR",
        "district": "São Francisco",
        "street": "Rua das Erveiras",
        "zipcode": "85303-302"
    },
    {
        "city": "Laranjeiras do Sul",
        "state": "PR",
        "district": "Área Rural de Laranjeiras do Sul",
        "street": "Área Rural",
        "zipcode": "85319-899"
    },
    {
        "city": "Laranjeiras do Sul",
        "state": "PR",
        "district": "São Francisco",
        "street": "Rua dos Abacateiros",
        "zipcode": "85303-313"
    },
    {
        "city": "Laranjeiras do Sul",
        "state": "PR",
        "district": "Vila Industrial",
        "street": "Rua Dallas",
        "zipcode": "85303-572"
    },
    {
        "city": "Laranjeiras do Sul",
        "state": "PR",
        "district": "Vila Industrial",
        "street": "Rua Milão",
        "zipcode": "85303-574"
    }
]