[
    {
        "city": "Marechal Cândido Rondon",
        "state": "PR",
        "district": "Centro",
        "street": "Rua Sergipe 613",
        "zipcode": "85960-970"
    },
    {
        "city": "Marechal Cândido Rondon",
        "state": "PR",
        "district": "Centro",
        "street": "Rua Dom João VI 538",
        "zipcode": "85960-981"
    },
    {
        "city": "Marechal Cândido Rondon",
        "state": "PR",
        "district": null,
        "street": "Rua Tocantins",
        "zipcode": "85960-990"
    },
    {
        "city": "Marechal Cândido Rondon",
        "state": "PR",
        "district": null,
        "street": "Avenida Rio Grande do Sul",
        "zipcode": "85960-991"
    },
    {
        "city": "Marechal Cândido Rondon",
        "state": "PR",
        "district": null,
        "street": "Rua das Palmeiras",
        "zipcode": "85960-992"
    },
    {
        "city": "Marechal Cândido Rondon",
        "state": "PR",
        "district": "Centro",
        "street": "Rua Sergipe",
        "zipcode": "85960-974"
    },
    {
        "city": "Marechal Cândido Rondon",
        "state": "PR",
        "district": "Centro",
        "street": "Rua Itaipu",
        "zipcode": "85960-971"
    },
    {
        "city": "Marechal Cândido Rondon",
        "state": "PR",
        "district": "",
        "street": "",
        "zipcode": "85960-000"
    },
    {
        "city": "Marechal Cândido Rondon",
        "state": "PR",
        "district": "Curvado",
        "street": "Rua Principal",
        "zipcode": "85960-973"
    }
]