[
    {
        "city": "Matinhos",
        "state": "PR",
        "district": "Centro",
        "street": "Rua Itacolomi",
        "zipcode": "83260-970"
    },
    {
        "city": "Matinhos",
        "state": "PR",
        "district": null,
        "street": "Avenida Paranaguá",
        "zipcode": "83260-990"
    },
    {
        "city": "Matinhos",
        "state": "PR",
        "district": null,
        "street": "Avenida Paranaguá",
        "zipcode": "83260-993"
    },
    {
        "city": "Matinhos",
        "state": "PR",
        "district": null,
        "street": "Rua Ribeirão Preto",
        "zipcode": "83260-991"
    },
    {
        "city": "Matinhos",
        "state": "PR",
        "district": null,
        "street": "Rua Dezenove de Dezembro",
        "zipcode": "83260-992"
    },
    {
        "city": "Matinhos",
        "state": "PR",
        "district": "",
        "street": "Rua Dezenove de Dezembro",
        "zipcode": "83260-994"
    },
    {
        "city": "Matinhos",
        "state": "PR",
        "district": "",
        "street": "Rua Principal",
        "zipcode": "83260-995"
    },
    {
        "city": "Matinhos",
        "state": "PR",
        "district": "",
        "street": "",
        "zipcode": "83260-000"
    },
    {
        "city": "Matinhos",
        "state": "PR",
        "district": "Mangue Seco",
        "street": "Rodovia Elísio Pereira Alves Filho",
        "zipcode": "83260-971"
    }
]