[
    {
        "city": "Paranaguá",
        "state": "PR",
        "district": "Jardim Vale do Sol",
        "street": "Rua Edival Vidal Ribeiro Filho",
        "zipcode": "83218-520"
    },
    {
        "city": "Paranaguá",
        "state": "PR",
        "district": "Jardim Jacarandá",
        "street": "Rua Souzange Maia Vieira",
        "zipcode": "83215-800"
    },
    {
        "city": "Paranaguá",
        "state": "PR",
        "district": "Jardim Iguaçu",
        "street": "Rua Sessenta e Oito",
        "zipcode": "83210-377"
    },
    {
        "city": "Paranaguá",
        "state": "PR",
        "district": "Loteamento Yamaguchi",
        "street": "Travessa Osvandir Martins",
        "zipcode": "83212-562"
    },
    {
        "city": "Paranaguá",
        "state": "PR",
        "district": "Vila Itiberê",
        "street": "Rua Ana Bahia Zella",
        "zipcode": "83206-353"
    },
    {
        "city": "Paranaguá",
        "state": "PR",
        "district": "Vila Guarani",
        "street": "Acesso Valdomiro Gouveia",
        "zipcode": "83221-434"
    },
    {
        "city": "Paranaguá",
        "state": "PR",
        "district": "Serraria do Rocha",
        "street": "Rua Moisés Daitschman",
        "zipcode": "83221-614"
    },
    {
        "city": "Paranaguá",
        "state": "PR",
        "district": "Serraria do Rocha",
        "street": "Rua Odaléia Orzenn Mattozo",
        "zipcode": "83221-622"
    },
    {
        "city": "Paranaguá",
        "state": "PR",
        "district": "Vila dos Comerciários",
        "street": "Acesso Professor Luiz Carlos dos Santos",
        "zipcode": "83215-063"
    },
    {
        "city": "Paranaguá",
        "state": "PR",
        "district": "Correia Velho",
        "street": "Rua Adelaide Cardoso Pinto",
        "zipcode": "83206-363"
    },
    {
        "city": "Paranaguá",
        "state": "PR",
        "district": "Padre Jackson",
        "street": "Rua Ewaldo Scheeling Filho",
        "zipcode": "83221-300"
    },
    {
        "city": "Paranaguá",
        "state": "PR",
        "district": "Eldorado",
        "street": "Rua Maria Lúcia Marcondes Frumento",
        "zipcode": "83206-516"
    },
    {
        "city": "Paranaguá",
        "state": "PR",
        "district": "Eldorado",
        "street": "Rua Maria da Guia Gomes Piçanço",
        "zipcode": "83206-542"
    },
    {
        "city": "Paranaguá",
        "state": "PR",
        "district": "Loteamento Yamaguchi",
        "street": "Rua Nelson Miro Vernalha",
        "zipcode": "83212-552"
    },
    {
        "city": "Paranaguá",
        "state": "PR",
        "district": "Jardim Iguaçu",
        "street": "Rua Cinquenta e Seis",
        "zipcode": "83210-365"
    },
    {
        "city": "Paranaguá",
        "state": "PR",
        "district": "Jardim Iguaçu",
        "street": "Rua Noventa",
        "zipcode": "83210-399"
    },
    {
        "city": "Paranaguá",
        "state": "PR",
        "district": "Vila dos Comerciários",
        "street": "Acesso Maria Ferreira do Nascimento",
        "zipcode": "83215-033"
    },
    {
        "city": "Paranaguá",
        "state": "PR",
        "district": "Vila dos Comerciários",
        "street": "Acesso Flávio Martins Proença",
        "zipcode": "83215-062"
    },
    {
        "city": "Paranaguá",
        "state": "PR",
        "district": "Jardim Jacarandá",
        "street": "Rua Augusto José Foes",
        "zipcode": "83215-808"
    },
    {
        "city": "Paranaguá",
        "state": "PR",
        "district": "Serraria do Rocha",
        "street": "Rua Manoel Alves da Silva",
        "zipcode": "83221-613"
    },
    {
        "city": "Paranaguá",
        "state": "PR",
        "district": "Parque São João",
        "street": "Rua Aumir Mioto Zela",
        "zipcode": "83212-242"
    },
    {
        "city": "Paranaguá",
        "state": "PR",
        "district": "Conjunto Residencial Moradias Porto Seguro",
        "street": "Rua Eduard Nascimento Viana",
        "zipcode": "83215-744"
    },
    {
        "city": "Paranaguá",
        "state": "PR",
        "district": "Jardim Iguaçu",
        "street": "Rua Setenta e Três",
        "zipcode": "83210-382"
    },
    {
        "city": "Paranaguá",
        "state": "PR",
        "district": "Bockmann",
        "street": "Rua Margarida Luiz Rocha",
        "zipcode": "83206-267"
    },
    {
        "city": "Paranaguá",
        "state": "PR",
        "district": "Jardim Guaraituba",
        "street": "Rua Eudócio Alves Marinho",
        "zipcode": "83209-282"
    },
    {
        "city": "Paranaguá",
        "state": "PR",
        "district": "Jardim Iguaçu",
        "street": "Rua Cinquenta e Cinco",
        "zipcode": "83210-364"
    },
    {
        "city": "Paranaguá",
        "state": "PR",
        "district": "Vila São Vicente",
        "street": "Acesso Maria Geralda",
        "zipcode": "83209-216"
    },
    {
        "city": "Paranaguá",
        "state": "PR",
        "district": "Conjunto Residencial Moradias Porto Seguro",
        "street": "Rua Waldemiro Máximo da Silva",
        "zipcode": "83215-755"
    },
    {
        "city": "Paranaguá",
        "state": "PR",
        "district": "Parque São João",
        "street": "Rua Maria do Amaral Barbosa",
        "zipcode": "83212-482"
    },
    {
        "city": "Paranaguá",
        "state": "PR",
        "district": "Serraria do Rocha",
        "street": "Rua Luiz de Oliveira",
        "zipcode": "83221-646"
    },
    {
        "city": "Paranaguá",
        "state": "PR",
        "district": "Vila São Vicente",
        "street": "Travessa Antonia Lopes Leandro",
        "zipcode": "83209-192"
    },
    {
        "city": "Paranaguá",
        "state": "PR",
        "district": "Jardim Iguaçu",
        "street": "Rua Cinquenta e Oito",
        "zipcode": "83210-367"
    },
    {
        "city": "Paranaguá",
        "state": "PR",
        "district": "Jardim Araçá",
        "street": "Travessa Moacyr Pinto",
        "zipcode": "83221-136"
    },
    {
        "city": "Paranaguá",
        "state": "PR",
        "district": "Vila Itiberê",
        "street": "Rua Theodoro Fangueiro",
        "zipcode": "83206-354"
    },
    {
        "city": "Paranaguá",
        "state": "PR",
        "district": "Parque Agari",
        "street": "Rua Roma",
        "zipcode": "83215-310"
    },
    {
        "city": "Paranaguá",
        "state": "PR",
        "district": "Parque São João",
        "street": "Rua Calim Paulo",
        "zipcode": "83212-470"
    },
    {
        "city": "Paranaguá",
        "state": "PR",
        "district": "Vila São Vicente",
        "street": "Rua Itiberê",
        "zipcode": "83209-195"
    },
    {
        "city": "Paranaguá",
        "state": "PR",
        "district": "Jardim Iguaçu",
        "street": "Rua dos Anjicos",
        "zipcode": "83210-154"
    },
    {
        "city": "Paranaguá",
        "state": "PR",
        "district": "Jardim Iguaçu",
        "street": "Rua das Embaubas",
        "zipcode": "83210-156"
    },
    {
        "city": "Paranaguá",
        "state": "PR",
        "district": "Jardim Iguaçu",
        "street": "Travessa das Jaqueiras",
        "zipcode": "83210-175"
    },
    {
        "city": "Paranaguá",
        "state": "PR",
        "district": "Jardim Iguaçu",
        "street": "Rua José Veiga de Jesus",
        "zipcode": "83210-108"
    },
    {
        "city": "Paranaguá",
        "state": "PR",
        "district": "Jardim Iguaçu",
        "street": "Rua João de Araújo",
        "zipcode": "83210-196"
    },
    {
        "city": "Paranaguá",
        "state": "PR",
        "district": "Vila Guarani",
        "street": "Rua Teotônio Venâncio da Costa",
        "zipcode": "83221-395"
    },
    {
        "city": "Paranaguá",
        "state": "PR",
        "district": "Jardim Esperança",
        "street": "Rua dos Tico",
        "zipcode": "83218-328"
    },
    {
        "city": "Paranaguá",
        "state": "PR",
        "district": "Jardim Esperança",
        "street": "Rua dos Condores",
        "zipcode": "83218-326"
    },
    {
        "city": "Paranaguá",
        "state": "PR",
        "district": "Parque São João",
        "street": "Rua Clarindo Lopes da Silva",
        "zipcode": "83212-225"
    },
    {
        "city": "Paranaguá",
        "state": "PR",
        "district": "Emboguaçu",
        "street": "Rua Cianorte",
        "zipcode": "83209-024"
    },
    {
        "city": "Paranaguá",
        "state": "PR",
        "district": "Centro Histórico",
        "street": "Praça Cônego Alcindino",
        "zipcode": "83203-330"
    },
    {
        "city": "Paranaguá",
        "state": "PR",
        "district": "Parque São João",
        "street": "Rua Jequitinhonha",
        "zipcode": "83212-210"
    },
    {
        "city": "Paranaguá",
        "state": "PR",
        "district": "Vila São Vicente",
        "street": "Rua João Eugênio Cominese",
        "zipcode": "83209-240"
    },
    {
        "city": "Paranaguá",
        "state": "PR",
        "district": "Centro Histórico",
        "street": "Rua José Antônio Temporão",
        "zipcode": "83203-290"
    },
    {
        "city": "Paranaguá",
        "state": "PR",
        "district": "Jardim Esperança",
        "street": "Estrada das Praias",
        "zipcode": "83218-180"
    },
    {
        "city": "Paranaguá",
        "state": "PR",
        "district": "Vila Guarani",
        "street": "Rua Natanael F. dos Santos Júnior",
        "zipcode": "83221-250"
    },
    {
        "city": "Paranaguá",
        "state": "PR",
        "district": "Conjunto Nilson Neves",
        "street": "Rua das Tulipas",
        "zipcode": "83215-530"
    },
    {
        "city": "Paranaguá",
        "state": "PR",
        "district": "Industrial",
        "street": "Estrada Velha do Rocio",
        "zipcode": "83203-785"
    },
    {
        "city": "Paranaguá",
        "state": "PR",
        "district": "Eldorado",
        "street": "Rua Dermot Rodney de Freitas Barbosa Júnior",
        "zipcode": "83206-524"
    },
    {
        "city": "Paranaguá",
        "state": "PR",
        "district": "Eldorado",
        "street": "Rua Jair José Ultrabo",
        "zipcode": "83206-536"
    },
    {
        "city": "Paranaguá",
        "state": "PR",
        "district": "Eldorado",
        "street": "Rua Bruna Possas Ramos",
        "zipcode": "83206-540"
    },
    {
        "city": "Paranaguá",
        "state": "PR",
        "district": "Parque São João",
        "street": "Rua João Alves do Rosário",
        "zipcode": "83212-484"
    },
    {
        "city": "Paranaguá",
        "state": "PR",
        "district": "Jardim Ouro Fino",
        "street": "Avenida Bela Vista",
        "zipcode": "83215-714"
    },
    {
        "city": "Paranaguá",
        "state": "PR",
        "district": "Parque São João",
        "street": "Rua Sebastião Leite da Silva",
        "zipcode": "83212-015"
    },
    {
        "city": "Paranaguá",
        "state": "PR",
        "district": "Jardim América",
        "street": "Rua Soichiro Honda",
        "zipcode": "83209-517"
    },
    {
        "city": "Paranaguá",
        "state": "PR",
        "district": "Vila do Povo",
        "street": "Rua Pará",
        "zipcode": "83209-649"
    },
    {
        "city": "Paranaguá",
        "state": "PR",
        "district": "Vila Rute",
        "street": "Rua José Martins dos Santos",
        "zipcode": "83221-732"
    },
    {
        "city": "Paranaguá",
        "state": "PR",
        "district": "Jardim Iguaçu",
        "street": "Rua Cinquenta e Sete",
        "zipcode": "83210-366"
    },
    {
        "city": "Paranaguá",
        "state": "PR",
        "district": "Correia Velho",
        "street": "Rua Paulo Canhola",
        "zipcode": "83206-392"
    },
    {
        "city": "Paranaguá",
        "state": "PR",
        "district": "Vila São Vicente",
        "street": "Praça Elizete Matias",
        "zipcode": "83209-205"
    },
    {
        "city": "Paranaguá",
        "state": "PR",
        "district": "Jardim Paraná",
        "street": "Rua Duque de Rubi Menon",
        "zipcode": "83218-470"
    },
    {
        "city": "Paranaguá",
        "state": "PR",
        "district": "Rocio",
        "street": "Rua Felipe Mattar",
        "zipcode": "83221-700"
    },
    {
        "city": "Paranaguá",
        "state": "PR",
        "district": "Jardim Iguaçu",
        "street": "Rua dos Guapuruvus",
        "zipcode": "83210-007"
    },
    {
        "city": "Paranaguá",
        "state": "PR",
        "district": "Jardim Iguaçu",
        "street": "Rua das Paineiras",
        "zipcode": "83210-017"
    },
    {
        "city": "Paranaguá",
        "state": "PR",
        "district": "Jardim Paraná",
        "street": "Rua Luiz Gastão Fonseca Corrêa",
        "zipcode": "83218-440"
    },
    {
        "city": "Paranaguá",
        "state": "PR",
        "district": "Correia Velho",
        "street": "Acesso Carlos Correa",
        "zipcode": "83206-369"
    },
    {
        "city": "Paranaguá",
        "state": "PR",
        "district": "Industrial",
        "street": "Avenida Gabriel de Lara",
        "zipcode": "83221-672"
    },
    {
        "city": "Paranaguá",
        "state": "PR",
        "district": "Vila Alboitt",
        "street": "Avenida Gabriel de Lara",
        "zipcode": "83221-586"
    },
    {
        "city": "Paranaguá",
        "state": "PR",
        "district": "Industrial",
        "street": "Rua Comendador Correia Júnior",
        "zipcode": "83221-682"
    },
    {
        "city": "Paranaguá",
        "state": "PR",
        "district": "Raia",
        "street": "Acesso Brasileiro Canfield Júnior",
        "zipcode": "83206-202"
    },
    {
        "city": "Paranaguá",
        "state": "PR",
        "district": "Vila Portuaria",
        "street": "Rua Carlos Fonseca de Araújo",
        "zipcode": "83221-755"
    },
    {
        "city": "Paranaguá",
        "state": "PR",
        "district": "Serraria do Rocha",
        "street": "Rua Alípio dos Santos",
        "zipcode": "83221-630"
    },
    {
        "city": "Paranaguá",
        "state": "PR",
        "district": "Eldorado",
        "street": "Rua Aluizio Ferreira de Abreu",
        "zipcode": "83206-326"
    },
    {
        "city": "Paranaguá",
        "state": "PR",
        "district": "Serraria do Rocha",
        "street": "Rua Cabo Alceu Lobo",
        "zipcode": "83221-655"
    },
    {
        "city": "Paranaguá",
        "state": "PR",
        "district": "Serraria do Rocha",
        "street": "Rua Arthur Bernardes",
        "zipcode": "83221-640"
    },
    {
        "city": "Paranaguá",
        "state": "PR",
        "district": "Vila Alboitt",
        "street": "Rua Barão do Amazonas",
        "zipcode": "83221-580"
    },
    {
        "city": "Paranaguá",
        "state": "PR",
        "district": "Vila Rute",
        "street": "Rua Cabo João dos Santos",
        "zipcode": "83221-690"
    },
    {
        "city": "Paranaguá",
        "state": "PR",
        "district": "Jardim Samambaia",
        "street": "Rua dos Cajueiros",
        "zipcode": "83212-270"
    },
    {
        "city": "Paranaguá",
        "state": "PR",
        "district": "Serraria do Rocha",
        "street": "Rua Claudionor Nascimento",
        "zipcode": "83221-600"
    },
    {
        "city": "Paranaguá",
        "state": "PR",
        "district": "Serraria do Rocha",
        "street": "Rua Comandante Dídio Costa",
        "zipcode": "83221-635"
    },
    {
        "city": "Paranaguá",
        "state": "PR",
        "district": "Industrial",
        "street": "Avenida Coronel Santa Rita",
        "zipcode": "83221-675"
    },
    {
        "city": "Paranaguá",
        "state": "PR",
        "district": "Conjunto Nilson Neves",
        "street": "Rua dos Cravos",
        "zipcode": "83215-420"
    },
    {
        "city": "Paranaguá",
        "state": "PR",
        "district": "29 de Julho",
        "street": "Avenida Gabriel de Lara",
        "zipcode": "83221-685"
    },
    {
        "city": "Paranaguá",
        "state": "PR",
        "district": "Eldorado",
        "street": "Rua Milton Rodrigues dos Santos",
        "zipcode": "83206-325"
    },
    {
        "city": "Paranaguá",
        "state": "PR",
        "district": "Dom Pedro II",
        "street": "Avenida Portuária",
        "zipcode": "83221-570"
    },
    {
        "city": "Paranaguá",
        "state": "PR",
        "district": "Serraria do Rocha",
        "street": "Rua Presidente Getúlio Vargas",
        "zipcode": "83221-620"
    },
    {
        "city": "Paranaguá",
        "state": "PR",
        "district": "Industrial",
        "street": "Rua Professor Cleto",
        "zipcode": "83221-670"
    },
    {
        "city": "Paranaguá",
        "state": "PR",
        "district": "Serraria do Rocha",
        "street": "Rua Rafael Silva",
        "zipcode": "83221-650"
    },
    {
        "city": "Paranaguá",
        "state": "PR",
        "district": "Palmital",
        "street": "Travessa República do Paraguai",
        "zipcode": "83206-150"
    },
    {
        "city": "Paranaguá",
        "state": "PR",
        "district": "Vila Alboitt",
        "street": "Rua Soldado Rafael Muniz",
        "zipcode": "83221-590"
    },
    {
        "city": "Paranaguá",
        "state": "PR",
        "district": "Rocio",
        "street": "Rua José Azevedo",
        "zipcode": "83221-530"
    },
    {
        "city": "Paranaguá",
        "state": "PR",
        "district": "Correia Velho",
        "street": "Travessa Horizonte",
        "zipcode": "83206-390"
    },
    {
        "city": "Paranaguá",
        "state": "PR",
        "district": "Correia Velho",
        "street": "Rua Vereador Mário Macaggi",
        "zipcode": "83206-380"
    },
    {
        "city": "Paranaguá",
        "state": "PR",
        "district": "Vila Garcia",
        "street": "Rua Willy Hauer",
        "zipcode": "83218-020"
    },
    {
        "city": "Paranaguá",
        "state": "PR",
        "district": "Serraria do Rocha",
        "street": "Rua Dona Ludovica Bório",
        "zipcode": "83221-665"
    },
    {
        "city": "Paranaguá",
        "state": "PR",
        "district": "Jardim Samambaia",
        "street": "Rua José Baka",
        "zipcode": "83212-525"
    },
    {
        "city": "Paranaguá",
        "state": "PR",
        "district": "Rocio",
        "street": "Rua João Kravitz",
        "zipcode": "83221-710"
    },
    {
        "city": "Paranaguá",
        "state": "PR",
        "district": "Rocio",
        "street": "Rua Nossa Senhora do Rocio",
        "zipcode": "83221-715"
    },
    {
        "city": "Paranaguá",
        "state": "PR",
        "district": "Vila Paranaguá",
        "street": "Estrada do Correia Velho",
        "zipcode": "83221-720"
    },
    {
        "city": "Paranaguá",
        "state": "PR",
        "district": "Serraria do Rocha",
        "street": "Avenida Tufi Maron",
        "zipcode": "83221-636"
    },
    {
        "city": "Paranaguá",
        "state": "PR",
        "district": "Correia Velho",
        "street": "Avenida Tufi Maron",
        "zipcode": "83206-395"
    },
    {
        "city": "Paranaguá",
        "state": "PR",
        "district": "Jardim Ouro Fino",
        "street": "Rua das Pedras",
        "zipcode": "83215-702"
    },
    {
        "city": "Paranaguá",
        "state": "PR",
        "district": "Jardim Ouro Fino",
        "street": "Rua Diamantina",
        "zipcode": "83215-704"
    },
    {
        "city": "Paranaguá",
        "state": "PR",
        "district": "Vila Paranaguá",
        "street": "Travessa João Hélio Frumento",
        "zipcode": "83221-057"
    },
    {
        "city": "Paranaguá",
        "state": "PR",
        "district": "Correia Velho",
        "street": "Rua Balduína de Andrade Lobo",
        "zipcode": "83206-385"
    },
    {
        "city": "Paranaguá",
        "state": "PR",
        "district": "Vila Alboitt",
        "street": "Rua Odir Landucci",
        "zipcode": "83221-592"
    },
    {
        "city": "Paranaguá",
        "state": "PR",
        "district": "Rocio",
        "street": "Largo Antonio Abud",
        "zipcode": "83221-522"
    },
    {
        "city": "Paranaguá",
        "state": "PR",
        "district": "Vila Alboitt",
        "street": "Travessa Humaitá",
        "zipcode": "83221-597"
    },
    {
        "city": "Paranaguá",
        "state": "PR",
        "district": "Jardim Iguaçu",
        "street": "Rua Oitenta",
        "zipcode": "83210-389"
    },
    {
        "city": "Paranaguá",
        "state": "PR",
        "district": "Vila Cruzeiro",
        "street": "Travessa José Antonio Pereira dos Santos",
        "zipcode": "83221-346"
    },
    {
        "city": "Paranaguá",
        "state": "PR",
        "district": "Dom Pedro II",
        "street": "Travessa Jardim Sabiá",
        "zipcode": "83221-564"
    },
    {
        "city": "Paranaguá",
        "state": "PR",
        "district": "Padre Jackson",
        "street": "Rua Abdon Petit Carneiro",
        "zipcode": "83221-260"
    },
    {
        "city": "Paranaguá",
        "state": "PR",
        "district": "Vila Guarani",
        "street": "Rua Adélio Corrêa",
        "zipcode": "83221-470"
    },
    {
        "city": "Paranaguá",
        "state": "PR",
        "district": "Serraria do Rocha",
        "street": "Rua Albano Müller",
        "zipcode": "83221-615"
    },
    {
        "city": "Paranaguá",
        "state": "PR",
        "district": "Vila Cruzeiro",
        "street": "Rua Amintas Pinho",
        "zipcode": "83221-320"
    },
    {
        "city": "Paranaguá",
        "state": "PR",
        "district": "Vila Guarani",
        "street": "Rua Antônio Jabur",
        "zipcode": "83221-515"
    },
    {
        "city": "Paranaguá",
        "state": "PR",
        "district": "Vila Guarani",
        "street": "Rua Arcésio Guimarães",
        "zipcode": "83221-460"
    },
    {
        "city": "Paranaguá",
        "state": "PR",
        "district": "Vila Guarani",
        "street": "Rua B",
        "zipcode": "83221-430"
    },
    {
        "city": "Paranaguá",
        "state": "PR",
        "district": "Dom Pedro II",
        "street": "Avenida Bento Rocha",
        "zipcode": "83221-565"
    },
    {
        "city": "Paranaguá",
        "state": "PR",
        "district": "Vila Guadalupe",
        "street": "Rua Brasílio Itiberê",
        "zipcode": "83221-550"
    },
    {
        "city": "Paranaguá",
        "state": "PR",
        "district": "Vila Cruzeiro",
        "street": "Rua Cândido Portinari",
        "zipcode": "83221-310"
    },
    {
        "city": "Paranaguá",
        "state": "PR",
        "district": "Vila Cruzeiro",
        "street": "Rua Eugênio José de Souza",
        "zipcode": "83221-360"
    },
    {
        "city": "Paranaguá",
        "state": "PR",
        "district": "Vila Guadalupe",
        "street": "Praça Reinaldo Elias",
        "zipcode": "83221-370"
    },
    {
        "city": "Paranaguá",
        "state": "PR",
        "district": "Dom Pedro II",
        "street": "Avenida Governador Manoel Ribas",
        "zipcode": "83221-560"
    },
    {
        "city": "Paranaguá",
        "state": "PR",
        "district": "Serraria do Rocha",
        "street": "Rua Jesael Caetano da Silva",
        "zipcode": "83221-647"
    },
    {
        "city": "Paranaguá",
        "state": "PR",
        "district": "Palmital",
        "street": "Acesso Adelaide Miranda Mendes",
        "zipcode": "83206-142"
    },
    {
        "city": "Paranaguá",
        "state": "PR",
        "district": "Vila Cruzeiro",
        "street": "Rua Manoel Hermógenes Vidal",
        "zipcode": "83221-350"
    },
    {
        "city": "Paranaguá",
        "state": "PR",
        "district": "Vila Alboitt",
        "street": "Avenida Marginal",
        "zipcode": "83221-585"
    },
    {
        "city": "Paranaguá",
        "state": "PR",
        "district": "Vila Guadalupe",
        "street": "Rua Nilo Cairo",
        "zipcode": "83221-555"
    },
    {
        "city": "Paranaguá",
        "state": "PR",
        "district": "Rocio",
        "street": "Rua Professor Décio",
        "zipcode": "83221-520"
    },
    {
        "city": "Paranaguá",
        "state": "PR",
        "district": "Vila Guarani",
        "street": "Rua Tabajara",
        "zipcode": "83221-400"
    },
    {
        "city": "Paranaguá",
        "state": "PR",
        "district": "Vila Guarani",
        "street": "Rua Tamoio",
        "zipcode": "83221-440"
    },
    {
        "city": "Paranaguá",
        "state": "PR",
        "district": "Vila Guarani",
        "street": "Rua Tapuia",
        "zipcode": "83221-480"
    },
    {
        "city": "Paranaguá",
        "state": "PR",
        "district": "Vila Guarani",
        "street": "Rua Timbiras",
        "zipcode": "83221-390"
    },
    {
        "city": "Paranaguá",
        "state": "PR",
        "district": "Vila Guarani",
        "street": "Rua Tocantins",
        "zipcode": "83221-450"
    },
    {
        "city": "Paranaguá",
        "state": "PR",
        "district": "Vila Cruzeiro",
        "street": "Rua Rocha Pombo",
        "zipcode": "83221-330"
    },
    {
        "city": "Paranaguá",
        "state": "PR",
        "district": "Vila Guarani",
        "street": "Rua Tapajós",
        "zipcode": "83221-490"
    },
    {
        "city": "Paranaguá",
        "state": "PR",
        "district": "Vila Guarani",
        "street": "Praça Tupi",
        "zipcode": "83221-510"
    },
    {
        "city": "Paranaguá",
        "state": "PR",
        "district": "Rocio",
        "street": "Praça Padre Thomas Sheehan",
        "zipcode": "83221-525"
    },
    {
        "city": "Paranaguá",
        "state": "PR",
        "district": "Vila Guarani",
        "street": "Rua Tupinambá",
        "zipcode": "83221-420"
    },
    {
        "city": "Paranaguá",
        "state": "PR",
        "district": "Vila Guarani",
        "street": "Rua Potiguara",
        "zipcode": "83221-486"
    },
    {
        "city": "Paranaguá",
        "state": "PR",
        "district": "Vila Guarani",
        "street": "Rua Guaianá",
        "zipcode": "83221-487"
    },
    {
        "city": "Paranaguá",
        "state": "PR",
        "district": "Vila Guarani",
        "street": "Rua Dezenove de Abril",
        "zipcode": "83221-485"
    },
    {
        "city": "Paranaguá",
        "state": "PR",
        "district": "Vila Guadalupe",
        "street": "Travessa João de Souza Aranha",
        "zipcode": "83221-556"
    },
    {
        "city": "Paranaguá",
        "state": "PR",
        "district": "Vila Guadalupe",
        "street": "Travessa Paulo de Almeida Pires",
        "zipcode": "83221-557"
    },
    {
        "city": "Paranaguá",
        "state": "PR",
        "district": "Vila Guadalupe",
        "street": "Travessa Miguel Taufic Name",
        "zipcode": "83221-558"
    },
    {
        "city": "Paranaguá",
        "state": "PR",
        "district": "Vila Guadalupe",
        "street": "Rua Francisco Machado",
        "zipcode": "83221-540"
    },
    {
        "city": "Paranaguá",
        "state": "PR",
        "district": "Dom Pedro II",
        "street": "Rua Avelino Dias Santos",
        "zipcode": "83221-562"
    },
    {
        "city": "Paranaguá",
        "state": "PR",
        "district": "Serraria do Rocha",
        "street": "Rua Cícero Campos",
        "zipcode": "83221-602"
    },
    {
        "city": "Paranaguá",
        "state": "PR",
        "district": "Serraria do Rocha",
        "street": "Rua Dorcílio Serzinando da Silva",
        "zipcode": "83221-604"
    },
    {
        "city": "Paranaguá",
        "state": "PR",
        "district": "Vila Cruzeiro",
        "street": "Rua Guanabara",
        "zipcode": "83221-354"
    },
    {
        "city": "Paranaguá",
        "state": "PR",
        "district": "Serraria do Rocha",
        "street": "Rua Antônio Terezin Sampaio",
        "zipcode": "83221-608"
    },
    {
        "city": "Paranaguá",
        "state": "PR",
        "district": "Porto dos Padres",
        "street": "Rua Pedro da Silva",
        "zipcode": "83221-179"
    },
    {
        "city": "Paranaguá",
        "state": "PR",
        "district": "Vila Cruzeiro",
        "street": "Travessa Ana Calonassi Veloso",
        "zipcode": "83221-352"
    },
    {
        "city": "Paranaguá",
        "state": "PR",
        "district": "Porto dos Padres",
        "street": "Travessa Adelina Viana",
        "zipcode": "83221-198"
    },
    {
        "city": "Paranaguá",
        "state": "PR",
        "district": "Jardim Araçá",
        "street": "Rua Milo Albini",
        "zipcode": "83221-152"
    },
    {
        "city": "Paranaguá",
        "state": "PR",
        "district": "Vila Cruzeiro",
        "street": "Acesso Nelson Abilhoa",
        "zipcode": "83221-348"
    },
    {
        "city": "Paranaguá",
        "state": "PR",
        "district": "Vila Cruzeiro",
        "street": "Acesso Diva Nunes dos Santos",
        "zipcode": "83221-332"
    },
    {
        "city": "Paranaguá",
        "state": "PR",
        "district": "Vila Guarani",
        "street": "Acesso Evaristo da Costa",
        "zipcode": "83221-442"
    },
    {
        "city": "Paranaguá",
        "state": "PR",
        "district": "Serraria do Rocha",
        "street": "Rua Manoel Fernandes Neves",
        "zipcode": "83221-612"
    },
    {
        "city": "Paranaguá",
        "state": "PR",
        "district": "Porto dos Padres",
        "street": "Acesso Lindo Garcia",
        "zipcode": "83221-173"
    },
    {
        "city": "Paranaguá",
        "state": "PR",
        "district": "Jardim Araçá",
        "street": "Acesso Vitor Luiz do Nascimento Júnior",
        "zipcode": "83221-168"
    },
    {
        "city": "Paranaguá",
        "state": "PR",
        "district": "Jardim Araçá",
        "street": "Rua Luis dos Santos",
        "zipcode": "83221-112"
    },
    {
        "city": "Paranaguá",
        "state": "PR",
        "district": "Jardim Araçá",
        "street": "Rua Alfredo Budant",
        "zipcode": "83221-070"
    },
    {
        "city": "Paranaguá",
        "state": "PR",
        "district": "Vila Paranaguá",
        "street": "Rua Aníbal Dias Paiva",
        "zipcode": "83221-040"
    },
    {
        "city": "Paranaguá",
        "state": "PR",
        "district": "Padre Jackson",
        "street": "Travessa Antonieta Cominese",
        "zipcode": "83221-210"
    },
    {
        "city": "Paranaguá",
        "state": "PR",
        "district": "Jardim Araçá",
        "street": "Rua Antônio Maia",
        "zipcode": "83221-150"
    },
    {
        "city": "Paranaguá",
        "state": "PR",
        "district": "Jardim Araçá",
        "street": "Rua Carlos Drummond de Andrade",
        "zipcode": "83221-096"
    },
    {
        "city": "Paranaguá",
        "state": "PR",
        "district": "Vila Paranaguá",
        "street": "Rua Doutor Antônio Olímpio de Oliveira",
        "zipcode": "83221-055"
    },
    {
        "city": "Paranaguá",
        "state": "PR",
        "district": "Padre Jackson",
        "street": "Rua Desembargador Santa Rita",
        "zipcode": "83221-220"
    },
    {
        "city": "Paranaguá",
        "state": "PR",
        "district": "Porto dos Padres",
        "street": "Rua Frei José Thomaz",
        "zipcode": "83221-200"
    },
    {
        "city": "Paranaguá",
        "state": "PR",
        "district": "Jardim Araçá",
        "street": "Rua Gastão Soares Gomes",
        "zipcode": "83221-080"
    },
    {
        "city": "Paranaguá",
        "state": "PR",
        "district": "Padre Jackson",
        "street": "Rua General Agostinho Pereira Alves Filho",
        "zipcode": "83221-240"
    },
    {
        "city": "Paranaguá",
        "state": "PR",
        "district": "Porto dos Padres",
        "street": "Rua Gilberto Gutierrez",
        "zipcode": "83221-170"
    },
    {
        "city": "Paranaguá",
        "state": "PR",
        "district": "Porto dos Padres",
        "street": "Rua Governador Jorge Lacerda",
        "zipcode": "83221-180"
    },
    {
        "city": "Paranaguá",
        "state": "PR",
        "district": "Serraria do Rocha",
        "street": "Rua Higino Pires Rodrigues",
        "zipcode": "83221-616"
    },
    {
        "city": "Paranaguá",
        "state": "PR",
        "district": "Serraria do Rocha",
        "street": "Rua Marise do Rocio Cunha Grenier",
        "zipcode": "83221-611"
    },
    {
        "city": "Paranaguá",
        "state": "PR",
        "district": "Jardim Araçá",
        "street": "Acesso Urbano Couto",
        "zipcode": "83221-082"
    },
    {
        "city": "Paranaguá",
        "state": "PR",
        "district": "Vila Guarani",
        "street": "Acesso Maria Gouveia",
        "zipcode": "83221-432"
    },
    {
        "city": "Paranaguá",
        "state": "PR",
        "district": "Porto dos Padres",
        "street": "Rua Miguel Vasilaski Neto",
        "zipcode": "83221-175"
    },
    {
        "city": "Paranaguá",
        "state": "PR",
        "district": "Jardim Araçá",
        "street": "Rua Ignácio Reutter Sotomaior Pedroso",
        "zipcode": "83221-090"
    },
    {
        "city": "Paranaguá",
        "state": "PR",
        "district": "Jardim Araçá",
        "street": "Rua Jaly Foes",
        "zipcode": "83221-130"
    },
    {
        "city": "Paranaguá",
        "state": "PR",
        "district": "Vila Paranaguá",
        "street": "Rua Ildefonso Munhoz da Rocha",
        "zipcode": "83221-025"
    },
    {
        "city": "Paranaguá",
        "state": "PR",
        "district": "Jardim Araçá",
        "street": "Rua João Fernandes",
        "zipcode": "83221-120"
    },
    {
        "city": "Paranaguá",
        "state": "PR",
        "district": "Jardim Araçá",
        "street": "Rua Luciano Morozowski",
        "zipcode": "83221-110"
    },
    {
        "city": "Paranaguá",
        "state": "PR",
        "district": "Vila Cruzeiro",
        "street": "Rua Marechal Cândido Rondon",
        "zipcode": "83221-340"
    },
    {
        "city": "Paranaguá",
        "state": "PR",
        "district": "Vila Paranaguá",
        "street": "Travessa José Pereira dos Santos Andrade",
        "zipcode": "83221-015"
    },
    {
        "city": "Paranaguá",
        "state": "PR",
        "district": "Vila Paranaguá",
        "street": "Rua Leônidas Moreira",
        "zipcode": "83221-020"
    },
    {
        "city": "Paranaguá",
        "state": "PR",
        "district": "Padre Jackson",
        "street": "Rua Maria de Lourdes Kossatz",
        "zipcode": "83221-225"
    },
    {
        "city": "Paranaguá",
        "state": "PR",
        "district": "Padre Jackson",
        "street": "Rua Padre Adamo",
        "zipcode": "83221-230"
    },
    {
        "city": "Paranaguá",
        "state": "PR",
        "district": "Jardim Araçá",
        "street": "Rua Mário Gonçalves dos Santos",
        "zipcode": "83221-135"
    },
    {
        "city": "Paranaguá",
        "state": "PR",
        "district": "Porto dos Padres",
        "street": "Rua Raul Silva",
        "zipcode": "83221-190"
    },
    {
        "city": "Paranaguá",
        "state": "PR",
        "district": "Jardim Araçá",
        "street": "Rua Rodrigo Gomes",
        "zipcode": "83221-160"
    },
    {
        "city": "Paranaguá",
        "state": "PR",
        "district": "Vila Paranaguá",
        "street": "Rua Sady Freceiro Miranda",
        "zipcode": "83221-045"
    },
    {
        "city": "Paranaguá",
        "state": "PR",
        "district": "Vila Paranaguá",
        "street": "Rua Samuel Píres de Mello",
        "zipcode": "83221-060"
    },
    {
        "city": "Paranaguá",
        "state": "PR",
        "district": "Padre Jackson",
        "street": "Rua Ana Belinski Guasque",
        "zipcode": "83221-290"
    },
    {
        "city": "Paranaguá",
        "state": "PR",
        "district": "Jardim Araçá",
        "street": "Rua Arnon Corrêa",
        "zipcode": "83221-165"
    },
    {
        "city": "Paranaguá",
        "state": "PR",
        "district": "Jardim Araçá",
        "street": "Rua Silfredo Veiga",
        "zipcode": "83221-155"
    },
    {
        "city": "Paranaguá",
        "state": "PR",
        "district": "Jardim Araçá",
        "street": "Rua Kennedy",
        "zipcode": "83221-145"
    },
    {
        "city": "Paranaguá",
        "state": "PR",
        "district": "Vila Paranaguá",
        "street": "Rua Porto Amazonas",
        "zipcode": "83221-185"
    },
    {
        "city": "Paranaguá",
        "state": "PR",
        "district": "Jardim Araçá",
        "street": "Rua Miguel Baleche",
        "zipcode": "83221-156"
    },
    {
        "city": "Paranaguá",
        "state": "PR",
        "district": "Vila do Caic",
        "street": "Travessa Joaquim Mendes",
        "zipcode": "83215-697"
    },
    {
        "city": "Paranaguá",
        "state": "PR",
        "district": "Jardim Ouro Fino",
        "street": "Rodovia PR",
        "zipcode": "83218-970"
    },
    {
        "city": "Paranaguá",
        "state": "PR",
        "district": null,
        "street": "Rua dos Flamingos",
        "zipcode": "83218-990"
    },
    {
        "city": "Paranaguá",
        "state": "PR",
        "district": null,
        "street": "Rodovia PR",
        "zipcode": "83218-992"
    },
    {
        "city": "Paranaguá",
        "state": "PR",
        "district": "Vila Paranaguá",
        "street": "Travessa José Felisbino dos Santos",
        "zipcode": "83221-022"
    },
    {
        "city": "Paranaguá",
        "state": "PR",
        "district": "Vila Paranaguá",
        "street": "Rua Adalgizo Januário da Silva",
        "zipcode": "83221-042"
    },
    {
        "city": "Paranaguá",
        "state": "PR",
        "district": "Vila Garcia",
        "street": "Rua Levi Gonçalves",
        "zipcode": "83218-130"
    },
    {
        "city": "Paranaguá",
        "state": "PR",
        "district": "Jardim Araçá",
        "street": "Rua Ernesto Gonçalves",
        "zipcode": "83221-010"
    },
    {
        "city": "Paranaguá",
        "state": "PR",
        "district": "Vila Garcia",
        "street": "Avenida Dona Julieta",
        "zipcode": "83218-140"
    },
    {
        "city": "Paranaguá",
        "state": "PR",
        "district": "Jardim Vale do Sol",
        "street": "Rua Júlio Groth Elias Filho",
        "zipcode": "83218-503"
    },
    {
        "city": "Paranaguá",
        "state": "PR",
        "district": "Vila Garcia",
        "street": "Rua Oito",
        "zipcode": "83218-110"
    },
    {
        "city": "Paranaguá",
        "state": "PR",
        "district": "Padre Jackson",
        "street": "Rua Caetano Munhoz da Rocha",
        "zipcode": "83221-270"
    },
    {
        "city": "Paranaguá",
        "state": "PR",
        "district": "Jardim Vale do Sol",
        "street": "Rua Joaquim Benedito da Cruz",
        "zipcode": "83218-524"
    },
    {
        "city": "Paranaguá",
        "state": "PR",
        "district": "Vila Paranaguá",
        "street": "Rua Senador Abilon de Souza Naves",
        "zipcode": "83221-046"
    },
    {
        "city": "Paranaguá",
        "state": "PR",
        "district": "Vila Garcia",
        "street": "Rua Marlene de Fátima Hiabuinski",
        "zipcode": "83218-150"
    },
    {
        "city": "Paranaguá",
        "state": "PR",
        "district": "Vila Garcia",
        "street": "Rua Sete",
        "zipcode": "83218-100"
    },
    {
        "city": "Paranaguá",
        "state": "PR",
        "district": "Jardim Esperança",
        "street": "Rua dos Jaburus",
        "zipcode": "83218-200"
    },
    {
        "city": "Paranaguá",
        "state": "PR",
        "district": "Jardim Esperança",
        "street": "Rua dos Flamingos",
        "zipcode": "83218-210"
    },
    {
        "city": "Paranaguá",
        "state": "PR",
        "district": "Jardim Esperança",
        "street": "Rua dos Gansos",
        "zipcode": "83218-220"
    },
    {
        "city": "Paranaguá",
        "state": "PR",
        "district": "Jardim Esperança",
        "street": "Rua dos Tangarás",
        "zipcode": "83218-230"
    },
    {
        "city": "Paranaguá",
        "state": "PR",
        "district": "Jardim Esperança",
        "street": "Rua dos Pelicanos",
        "zipcode": "83218-250"
    },
    {
        "city": "Paranaguá",
        "state": "PR",
        "district": "Jardim Esperança",
        "street": "Rua dos Macucos",
        "zipcode": "83218-260"
    },
    {
        "city": "Paranaguá",
        "state": "PR",
        "district": "Jardim Esperança",
        "street": "Rua dos Tucanos",
        "zipcode": "83218-270"
    },
    {
        "city": "Paranaguá",
        "state": "PR",
        "district": "Jardim Esperança",
        "street": "Rua das Garças",
        "zipcode": "83218-280"
    },
    {
        "city": "Paranaguá",
        "state": "PR",
        "district": "Jardim Esperança",
        "street": "Rua das Codornas",
        "zipcode": "83218-290"
    },
    {
        "city": "Paranaguá",
        "state": "PR",
        "district": "Jardim Esperança",
        "street": "Rua das Perdizes",
        "zipcode": "83218-300"
    },
    {
        "city": "Paranaguá",
        "state": "PR",
        "district": "Jardim Esperança",
        "street": "Rua das Araras",
        "zipcode": "83218-310"
    },
    {
        "city": "Paranaguá",
        "state": "PR",
        "district": "Jardim Paraná",
        "street": "Rua José Bonifácio",
        "zipcode": "83218-330"
    },
    {
        "city": "Paranaguá",
        "state": "PR",
        "district": "Jardim Paraná",
        "street": "Rua Gaston Luis Pereira Pesch",
        "zipcode": "83218-340"
    },
    {
        "city": "Paranaguá",
        "state": "PR",
        "district": "Jardim Paraná",
        "street": "Rua do Demerval Gonçalves",
        "zipcode": "83218-350"
    },
    {
        "city": "Paranaguá",
        "state": "PR",
        "district": "Jardim Paraná",
        "street": "Rua Ruy Gomes da Veiga Pessoa",
        "zipcode": "83218-360"
    },
    {
        "city": "Paranaguá",
        "state": "PR",
        "district": "Jardim Paraná",
        "street": "Avenida Atlântica",
        "zipcode": "83218-410"
    },
    {
        "city": "Paranaguá",
        "state": "PR",
        "district": "Jardim Paraná",
        "street": "Rua Prático Dacy Pereira",
        "zipcode": "83218-420"
    },
    {
        "city": "Paranaguá",
        "state": "PR",
        "district": "Jardim Esperança",
        "street": "Rua Jaçanã",
        "zipcode": "83218-320"
    },
    {
        "city": "Paranaguá",
        "state": "PR",
        "district": "Jardim Paraná",
        "street": "Avenida Ubirajara Agostinho Ramos",
        "zipcode": "83218-335"
    },
    {
        "city": "Paranaguá",
        "state": "PR",
        "district": "Jardim Paraná",
        "street": "Rua Eloá da Costa Schneider",
        "zipcode": "83218-400"
    },
    {
        "city": "Paranaguá",
        "state": "PR",
        "district": "Jardim Paraná",
        "street": "Rua Professora Cleonize Paiva Valentin dos Santos",
        "zipcode": "83218-430"
    },
    {
        "city": "Paranaguá",
        "state": "PR",
        "district": "Jardim Paraná",
        "street": "Rua Ramon Rosário Acosta Beron",
        "zipcode": "83218-450"
    },
    {
        "city": "Paranaguá",
        "state": "PR",
        "district": "Jardim Paraná",
        "street": "Rua Fuad Farah",
        "zipcode": "83218-480"
    },
    {
        "city": "Paranaguá",
        "state": "PR",
        "district": "Jardim Paraná",
        "street": "Avenida Governador Munhoz da Rocha",
        "zipcode": "83218-370"
    },
    {
        "city": "Paranaguá",
        "state": "PR",
        "district": "Jardim Paraná",
        "street": "Rua Ezil Corrêa Pires",
        "zipcode": "83218-390"
    },
    {
        "city": "Paranaguá",
        "state": "PR",
        "district": "Jardim Esperança",
        "street": "Estrada das Colônias",
        "zipcode": "83218-190"
    },
    {
        "city": "Paranaguá",
        "state": "PR",
        "district": "Vila Paranaguá",
        "street": "Travessa Altair Porto Martineli",
        "zipcode": "83221-049"
    },
    {
        "city": "Paranaguá",
        "state": "PR",
        "district": "Jardim Ouro Fino",
        "street": "Rua Ágata",
        "zipcode": "83215-736"
    },
    {
        "city": "Paranaguá",
        "state": "PR",
        "district": "Vila Garcia",
        "street": "Rua Dilson Fagundes",
        "zipcode": "83218-126"
    },
    {
        "city": "Paranaguá",
        "state": "PR",
        "district": "Vila Garcia",
        "street": "Rua Aurélio Ribeiro Moro",
        "zipcode": "83218-060"
    },
    {
        "city": "Paranaguá",
        "state": "PR",
        "district": "Jardim Samambaia",
        "street": "Avenida Ayrton Senna da Silva",
        "zipcode": "83215-670"
    },
    {
        "city": "Paranaguá",
        "state": "PR",
        "district": "Vila Garcia",
        "street": "Rua Edival Vidal Ribeiro Filho",
        "zipcode": "83218-090"
    },
    {
        "city": "Paranaguá",
        "state": "PR",
        "district": "Conjunto Residencial Prefeito Cominese",
        "street": "Rua General João da Silva Rebello",
        "zipcode": "83215-580"
    },
    {
        "city": "Paranaguá",
        "state": "PR",
        "district": "Conjunto Residencial Prefeito Cominese",
        "street": "Rua Irmã Santana",
        "zipcode": "83215-660"
    },
    {
        "city": "Paranaguá",
        "state": "PR",
        "district": "Conjunto Residencial Prefeito Cominese",
        "street": "Rua João Emílio Silva",
        "zipcode": "83215-590"
    },
    {
        "city": "Paranaguá",
        "state": "PR",
        "district": "Conjunto Residencial Prefeito Cominese",
        "street": "Rua Jorge Marcondes",
        "zipcode": "83215-600"
    },
    {
        "city": "Paranaguá",
        "state": "PR",
        "district": "Vila Garcia",
        "street": "Rua Juarez de Godoi Mendes",
        "zipcode": "83218-136"
    },
    {
        "city": "Paranaguá",
        "state": "PR",
        "district": "Jardim Vale do Sol",
        "street": "Rua Ascendino Pessoa Maciel",
        "zipcode": "83218-516"
    },
    {
        "city": "Paranaguá",
        "state": "PR",
        "district": "Vila Garcia",
        "street": "Rua Joaquim Benedito da Cruz",
        "zipcode": "83218-124"
    },
    {
        "city": "Paranaguá",
        "state": "PR",
        "district": "Vila Garcia",
        "street": "Travessa Virgínia Ribeiro Silva",
        "zipcode": "83218-154"
    },
    {
        "city": "Paranaguá",
        "state": "PR",
        "district": "Jardim Vale do Sol",
        "street": "Rua Francisco Alves Alencar",
        "zipcode": "83218-522"
    },
    {
        "city": "Paranaguá",
        "state": "PR",
        "district": "Jardim Vale do Sol",
        "street": "Rua Etelvina Correa",
        "zipcode": "83218-518"
    },
    {
        "city": "Paranaguá",
        "state": "PR",
        "district": "Jardim Vale do Sol",
        "street": "Rua Eugênio Aloísio Lules",
        "zipcode": "83218-510"
    },
    {
        "city": "Paranaguá",
        "state": "PR",
        "district": "Jardim Vale do Sol",
        "street": "Rua Edival Vidal Ribeiro",
        "zipcode": "83218-505"
    },
    {
        "city": "Paranaguá",
        "state": "PR",
        "district": "Jardim Vale do Sol",
        "street": "Rua Aurélio Romualdo Moro",
        "zipcode": "83218-512"
    },
    {
        "city": "Paranaguá",
        "state": "PR",
        "district": "Vila Garcia",
        "street": "Rua Israel Antônio Chicuta",
        "zipcode": "83218-134"
    },
    {
        "city": "Paranaguá",
        "state": "PR",
        "district": "Jardim Vale do Sol",
        "street": "Rua João Estival",
        "zipcode": "83218-514"
    },
    {
        "city": "Paranaguá",
        "state": "PR",
        "district": "Jardim Vale do Sol",
        "street": "Rua Willy Hauer",
        "zipcode": "83218-506"
    },
    {
        "city": "Paranaguá",
        "state": "PR",
        "district": "Conjunto Residencial Prefeito Cominese",
        "street": "Rua Manuel Cardoso de Araújo",
        "zipcode": "83215-610"
    },
    {
        "city": "Paranaguá",
        "state": "PR",
        "district": "Conjunto Residencial Prefeito Cominese",
        "street": "Rua Nicodemos Ribeiro de Camargo",
        "zipcode": "83215-630"
    },
    {
        "city": "Paranaguá",
        "state": "PR",
        "district": "Conjunto Residencial Prefeito Cominese",
        "street": "Rua Rubens de Santana Tavares",
        "zipcode": "83215-650"
    },
    {
        "city": "Paranaguá",
        "state": "PR",
        "district": "Vila Garcia",
        "street": "Rua Seis",
        "zipcode": "83218-050"
    },
    {
        "city": "Paranaguá",
        "state": "PR",
        "district": "Vila dos Comerciários",
        "street": "Rua Mohamad Hamud Hamud",
        "zipcode": "83215-060"
    },
    {
        "city": "Paranaguá",
        "state": "PR",
        "district": "Vila Garcia",
        "street": "Rua Eugênio Aluísio Lules",
        "zipcode": "83218-000"
    },
    {
        "city": "Paranaguá",
        "state": "PR",
        "district": "Conjunto Residencial Prefeito Cominese",
        "street": "Rua Nelson Pereira Neves",
        "zipcode": "83215-620"
    },
    {
        "city": "Paranaguá",
        "state": "PR",
        "district": "Vila do Caic",
        "street": "Travessa Maria Nely Picanço",
        "zipcode": "83215-696"
    },
    {
        "city": "Paranaguá",
        "state": "PR",
        "district": "Parque Agari",
        "street": "Rua Athenas",
        "zipcode": "83215-280"
    },
    {
        "city": "Paranaguá",
        "state": "PR",
        "district": "Parque Agari",
        "street": "Rua Berlim",
        "zipcode": "83215-250"
    },
    {
        "city": "Paranaguá",
        "state": "PR",
        "district": "Parque Agari",
        "street": "Rua Buenos Aires",
        "zipcode": "83215-330"
    },
    {
        "city": "Paranaguá",
        "state": "PR",
        "district": "Conjunto Nilson Neves",
        "street": "Rua das Camélias",
        "zipcode": "83215-400"
    },
    {
        "city": "Paranaguá",
        "state": "PR",
        "district": "Jardim Ouro Fino",
        "street": "Rua do Manganês",
        "zipcode": "83215-731"
    },
    {
        "city": "Paranaguá",
        "state": "PR",
        "district": "Jardim Ouro Fino",
        "street": "Rua do Cristal",
        "zipcode": "83215-732"
    },
    {
        "city": "Paranaguá",
        "state": "PR",
        "district": "Jardim Ouro Fino",
        "street": "Travessa do Cobre",
        "zipcode": "83215-734"
    },
    {
        "city": "Paranaguá",
        "state": "PR",
        "district": "Jardim Ouro Fino",
        "street": "Rua das Ametistas",
        "zipcode": "83215-716"
    },
    {
        "city": "Paranaguá",
        "state": "PR",
        "district": "Jardim Vale do Sol",
        "street": "Rua Ayro Carvalho Cruz",
        "zipcode": "83218-508"
    },
    {
        "city": "Paranaguá",
        "state": "PR",
        "district": "Conjunto Residencial Moradias Porto Seguro",
        "street": "Rua Alcaiz Mansur",
        "zipcode": "83215-742"
    },
    {
        "city": "Paranaguá",
        "state": "PR",
        "district": "Vila Garcia",
        "street": "Rua Luiz Gerônimo Leite",
        "zipcode": "83218-132"
    },
    {
        "city": "Paranaguá",
        "state": "PR",
        "district": "Conjunto Residencial Moradias Porto Seguro",
        "street": "Rua José Catarino de Freitas",
        "zipcode": "83215-746"
    },
    {
        "city": "Paranaguá",
        "state": "PR",
        "district": "Jardim Ouro Fino",
        "street": "Rua das Esmeraldas",
        "zipcode": "83215-718"
    },
    {
        "city": "Paranaguá",
        "state": "PR",
        "district": "Jardim Ouro Fino",
        "street": "Rua dos Diamantes",
        "zipcode": "83215-721"
    },
    {
        "city": "Paranaguá",
        "state": "PR",
        "district": "Jardim Ouro Fino",
        "street": "Rua Água Marinha",
        "zipcode": "83215-722"
    },
    {
        "city": "Paranaguá",
        "state": "PR",
        "district": "Jardim Ouro Fino",
        "street": "Travessa Ônix",
        "zipcode": "83215-726"
    },
    {
        "city": "Paranaguá",
        "state": "PR",
        "district": "Jardim Ouro Fino",
        "street": "Rua do Ouro",
        "zipcode": "83215-706"
    },
    {
        "city": "Paranaguá",
        "state": "PR",
        "district": "Jardim Ouro Fino",
        "street": "Rua Alexandrita",
        "zipcode": "83215-708"
    },
    {
        "city": "Paranaguá",
        "state": "PR",
        "district": "Jardim Ouro Fino",
        "street": "Rua do Borilo",
        "zipcode": "83215-710"
    },
    {
        "city": "Paranaguá",
        "state": "PR",
        "district": "Jardim Ouro Fino",
        "street": "Rua do Ferro",
        "zipcode": "83215-712"
    },
    {
        "city": "Paranaguá",
        "state": "PR",
        "district": "Conjunto Residencial Prefeito Cominese",
        "street": "Rua Felipe Chede",
        "zipcode": "83215-642"
    },
    {
        "city": "Paranaguá",
        "state": "PR",
        "district": "Jardim Jacarandá",
        "street": "Rua da Prata",
        "zipcode": "83215-816"
    },
    {
        "city": "Paranaguá",
        "state": "PR",
        "district": "Jardim Jacarandá",
        "street": "Rua Raquel Belo Fontes",
        "zipcode": "83215-810"
    },
    {
        "city": "Paranaguá",
        "state": "PR",
        "district": "Jardim Jacarandá",
        "street": "Rua Sueli Alves Bonzatto",
        "zipcode": "83215-812"
    },
    {
        "city": "Paranaguá",
        "state": "PR",
        "district": "Conjunto Nilson Neves",
        "street": "Rua Chuva de Prata",
        "zipcode": "83215-410"
    },
    {
        "city": "Paranaguá",
        "state": "PR",
        "district": "Conjunto Residencial Prefeito Cominese",
        "street": "Rua Eloy Pereira Marcondes de Albuquerque",
        "zipcode": "83215-560"
    },
    {
        "city": "Paranaguá",
        "state": "PR",
        "district": "Conjunto Nilson Neves",
        "street": "Rua dos Dálias",
        "zipcode": "83215-430"
    },
    {
        "city": "Paranaguá",
        "state": "PR",
        "district": "Parque Agari",
        "street": "Rua Delhi",
        "zipcode": "83215-230"
    },
    {
        "city": "Paranaguá",
        "state": "PR",
        "district": "Conjunto Residencial Prefeito Cominese",
        "street": "Rua Hermínio Valinas",
        "zipcode": "83215-570"
    },
    {
        "city": "Paranaguá",
        "state": "PR",
        "district": "Conjunto Nilson Neves",
        "street": "Rua dos Jasmins",
        "zipcode": "83215-460"
    },
    {
        "city": "Paranaguá",
        "state": "PR",
        "district": "Conjunto Nilson Neves",
        "street": "Rua dos Girassóis",
        "zipcode": "83215-450"
    },
    {
        "city": "Paranaguá",
        "state": "PR",
        "district": "Parque Agari",
        "street": "Rua Londres",
        "zipcode": "83215-340"
    },
    {
        "city": "Paranaguá",
        "state": "PR",
        "district": "Parque Agari",
        "street": "Rua Madri",
        "zipcode": "83215-240"
    },
    {
        "city": "Paranaguá",
        "state": "PR",
        "district": "Jardim Samambaia",
        "street": "Rua dos Pinheiros",
        "zipcode": "83212-385"
    },
    {
        "city": "Paranaguá",
        "state": "PR",
        "district": "Conjunto Residencial Moradias Porto Seguro",
        "street": "Rua Eribaldo Veloso da Conceição",
        "zipcode": "83215-753"
    },
    {
        "city": "Paranaguá",
        "state": "PR",
        "district": "Jardim Jacarandá",
        "street": "Rua Vereador Joel Ferruci",
        "zipcode": "83215-804"
    },
    {
        "city": "Paranaguá",
        "state": "PR",
        "district": "Conjunto Residencial Moradias Porto Seguro",
        "street": "Rua Maria da Silva Piolli",
        "zipcode": "83215-754"
    },
    {
        "city": "Paranaguá",
        "state": "PR",
        "district": "Conjunto Residencial Moradias Porto Seguro",
        "street": "Rua Avanir Machado Furusawa",
        "zipcode": "83215-751"
    },
    {
        "city": "Paranaguá",
        "state": "PR",
        "district": "Vila Garcia",
        "street": "Rua Antônio Luiz do Amaral",
        "zipcode": "83218-114"
    },
    {
        "city": "Paranaguá",
        "state": "PR",
        "district": "Jardim Jacarandá",
        "street": "Rua Salvador Evangelista",
        "zipcode": "83215-802"
    },
    {
        "city": "Paranaguá",
        "state": "PR",
        "district": "Jardim Jacarandá",
        "street": "Rua José Justino de Mello",
        "zipcode": "83215-806"
    },
    {
        "city": "Paranaguá",
        "state": "PR",
        "district": "Jardim Ouro Fino",
        "street": "Rua Safira",
        "zipcode": "83215-738"
    },
    {
        "city": "Paranaguá",
        "state": "PR",
        "district": "Conjunto Residencial Moradias Porto Seguro",
        "street": "Rua Elpídio Fabrizzi",
        "zipcode": "83215-748"
    },
    {
        "city": "Paranaguá",
        "state": "PR",
        "district": "Conjunto Residencial Moradias Porto Seguro",
        "street": "Rua Antônio Carlos Rodrigues",
        "zipcode": "83215-750"
    },
    {
        "city": "Paranaguá",
        "state": "PR",
        "district": "Parque Agari",
        "street": "Rua Lisboa",
        "zipcode": "83215-210"
    },
    {
        "city": "Paranaguá",
        "state": "PR",
        "district": "Conjunto Nilson Neves",
        "street": "Rua das Margaridas",
        "zipcode": "83215-480"
    },
    {
        "city": "Paranaguá",
        "state": "PR",
        "district": "Parque Agari",
        "street": "Rua Cidade do México",
        "zipcode": "83215-320"
    },
    {
        "city": "Paranaguá",
        "state": "PR",
        "district": "Parque Agari",
        "street": "Rua Montevidéu",
        "zipcode": "83215-270"
    },
    {
        "city": "Paranaguá",
        "state": "PR",
        "district": "Conjunto Nilson Neves",
        "street": "Rua dos Lírios",
        "zipcode": "83215-470"
    },
    {
        "city": "Paranaguá",
        "state": "PR",
        "district": "Conjunto Nilson Neves",
        "street": "Rua das Papoulas",
        "zipcode": "83215-500"
    },
    {
        "city": "Paranaguá",
        "state": "PR",
        "district": "Parque Agari",
        "street": "Rua Panamá",
        "zipcode": "83215-200"
    },
    {
        "city": "Paranaguá",
        "state": "PR",
        "district": "Conjunto Nilson Neves",
        "street": "Rua das Petúnias",
        "zipcode": "83215-510"
    },
    {
        "city": "Paranaguá",
        "state": "PR",
        "district": "Parque Agari",
        "street": "Rua Rio de Janeiro",
        "zipcode": "83215-260"
    },
    {
        "city": "Paranaguá",
        "state": "PR",
        "district": "Parque Agari",
        "street": "Rua Paris",
        "zipcode": "83215-300"
    },
    {
        "city": "Paranaguá",
        "state": "PR",
        "district": "Parque Agari",
        "street": "Rua Rosário",
        "zipcode": "83215-370"
    },
    {
        "city": "Paranaguá",
        "state": "PR",
        "district": "Parque Agari",
        "street": "Rua Santiago",
        "zipcode": "83215-360"
    },
    {
        "city": "Paranaguá",
        "state": "PR",
        "district": "Parque Agari",
        "street": "Rua Tókio",
        "zipcode": "83215-220"
    },
    {
        "city": "Paranaguá",
        "state": "PR",
        "district": "Conjunto Nilson Neves",
        "street": "Rua Vitória",
        "zipcode": "83215-540"
    },
    {
        "city": "Paranaguá",
        "state": "PR",
        "district": "Conjunto Nilson Neves",
        "street": "Rua Flor",
        "zipcode": "83215-440"
    },
    {
        "city": "Paranaguá",
        "state": "PR",
        "district": "Parque Agari",
        "street": "Rua Lima",
        "zipcode": "83215-350"
    },
    {
        "city": "Paranaguá",
        "state": "PR",
        "district": "Conjunto Residencial Prefeito Cominese",
        "street": "Rua Nilson Pereira Neves",
        "zipcode": "83215-565"
    },
    {
        "city": "Paranaguá",
        "state": "PR",
        "district": "Conjunto Nilson Neves",
        "street": "Rua Pingos de Ouro",
        "zipcode": "83215-520"
    },
    {
        "city": "Paranaguá",
        "state": "PR",
        "district": "Conjunto Nilson Neves",
        "street": "Rua das Rosas",
        "zipcode": "83215-415"
    },
    {
        "city": "Paranaguá",
        "state": "PR",
        "district": "Conjunto Nilson Neves",
        "street": "Rua do Agapanto",
        "zipcode": "83215-435"
    },
    {
        "city": "Paranaguá",
        "state": "PR",
        "district": "Conjunto Nilson Neves",
        "street": "Rua José Bento Marcelino Filho",
        "zipcode": "83215-436"
    },
    {
        "city": "Paranaguá",
        "state": "PR",
        "district": "Vila Garcia",
        "street": "Rua Francisco Alves Fernandes",
        "zipcode": "83218-118"
    },
    {
        "city": "Paranaguá",
        "state": "PR",
        "district": "Parque Agari",
        "street": "Rua Washington",
        "zipcode": "83215-290"
    },
    {
        "city": "Paranaguá",
        "state": "PR",
        "district": "Vila do Caic",
        "street": "Travessa José Marcelo de Moura",
        "zipcode": "83215-686"
    },
    {
        "city": "Paranaguá",
        "state": "PR",
        "district": "Vila do Caic",
        "street": "Travessa Raul Cruz",
        "zipcode": "83215-688"
    },
    {
        "city": "Paranaguá",
        "state": "PR",
        "district": "Vila do Caic",
        "street": "Travessa Arivaldo Correia Ribeiro",
        "zipcode": "83215-689"
    },
    {
        "city": "Paranaguá",
        "state": "PR",
        "district": "Vila do Caic",
        "street": "Travessa Miguel Veiga",
        "zipcode": "83215-690"
    },
    {
        "city": "Paranaguá",
        "state": "PR",
        "district": "Vila do Caic",
        "street": "Avenida Chico Mendes",
        "zipcode": "83215-698"
    },
    {
        "city": "Paranaguá",
        "state": "PR",
        "district": "Vila do Caic",
        "street": "Travessa Marcílio Manoel de Jesus",
        "zipcode": "83215-695"
    },
    {
        "city": "Paranaguá",
        "state": "PR",
        "district": "Vila do Caic",
        "street": "Travessa José Policarpo Ribeiro",
        "zipcode": "83215-685"
    },
    {
        "city": "Paranaguá",
        "state": "PR",
        "district": "Vila dos Comerciários",
        "street": "Travessa Iza de Lara Mendes",
        "zipcode": "83215-057"
    },
    {
        "city": "Paranaguá",
        "state": "PR",
        "district": "Vila dos Comerciários",
        "street": "Acesso Milton Roberto Guedes",
        "zipcode": "83215-082"
    },
    {
        "city": "Paranaguá",
        "state": "PR",
        "district": "Vila dos Comerciários",
        "street": "Rua Assis Chateaubriand",
        "zipcode": "83215-058"
    },
    {
        "city": "Paranaguá",
        "state": "PR",
        "district": "Vila dos Comerciários",
        "street": "Rua Natanael Gonçalves da Silva",
        "zipcode": "83215-093"
    },
    {
        "city": "Paranaguá",
        "state": "PR",
        "district": "Vila dos Comerciários",
        "street": "Rua Joaquim Nardelli",
        "zipcode": "83215-097"
    },
    {
        "city": "Paranaguá",
        "state": "PR",
        "district": "Vila dos Comerciários",
        "street": "Rua Clemente Nardelli",
        "zipcode": "83215-099"
    },
    {
        "city": "Paranaguá",
        "state": "PR",
        "district": "Vila dos Comerciários",
        "street": "Travessa Gildo Ribeiro",
        "zipcode": "83215-094"
    },
    {
        "city": "Paranaguá",
        "state": "PR",
        "district": "Vila dos Comerciários",
        "street": "Acesso Francisco dos Santos Junior",
        "zipcode": "83215-026"
    },
    {
        "city": "Paranaguá",
        "state": "PR",
        "district": "Vila dos Comerciários",
        "street": "Rua Professor Waldomiro Ferreira de Freitas",
        "zipcode": "83215-070"
    },
    {
        "city": "Paranaguá",
        "state": "PR",
        "district": "Divinéia",
        "street": "Rua Regina de Félix Lima",
        "zipcode": "83212-400"
    },
    {
        "city": "Paranaguá",
        "state": "PR",
        "district": "Divinéia",
        "street": "Rua Alberto Ferreira dos Santos",
        "zipcode": "83212-410"
    },
    {
        "city": "Paranaguá",
        "state": "PR",
        "district": "Vila dos Comerciários",
        "street": "Rua Vidal Vanhoni",
        "zipcode": "83215-030"
    },
    {
        "city": "Paranaguá",
        "state": "PR",
        "district": "Vila dos Comerciários",
        "street": "Rua Milton Miró Vernalha",
        "zipcode": "83215-035"
    },
    {
        "city": "Paranaguá",
        "state": "PR",
        "district": "Divinéia",
        "street": "Rua Florinda Carlos Cardoso",
        "zipcode": "83212-420"
    },
    {
        "city": "Paranaguá",
        "state": "PR",
        "district": "Vila dos Comerciários",
        "street": "Rua das Hortênsias",
        "zipcode": "83215-010"
    },
    {
        "city": "Paranaguá",
        "state": "PR",
        "district": "Divinéia",
        "street": "Rua Júlio Groth Elias",
        "zipcode": "83212-415"
    },
    {
        "city": "Paranaguá",
        "state": "PR",
        "district": "Jardim Paranaguá",
        "street": "Rua João Paoli Filho",
        "zipcode": "83215-140"
    },
    {
        "city": "Paranaguá",
        "state": "PR",
        "district": "Parque São João",
        "street": "Rua Renato Leone",
        "zipcode": "83212-475"
    },
    {
        "city": "Paranaguá",
        "state": "PR",
        "district": "Jardim Paranaguá",
        "street": "Rua Crichotemes Mylonas da Silva",
        "zipcode": "83215-190"
    },
    {
        "city": "Paranaguá",
        "state": "PR",
        "district": "Vila dos Comerciários",
        "street": "Rua Zélia Simeão Poplade",
        "zipcode": "83215-055"
    },
    {
        "city": "Paranaguá",
        "state": "PR",
        "district": "Jardim Samambaia",
        "street": "Rua das Pitangueiras",
        "zipcode": "83212-370"
    },
    {
        "city": "Paranaguá",
        "state": "PR",
        "district": "Jardim Samambaia",
        "street": "Rua dos Sombreiros",
        "zipcode": "83212-380"
    },
    {
        "city": "Paranaguá",
        "state": "PR",
        "district": "Jardim Paranaguá",
        "street": "Rua Osny José Miranda",
        "zipcode": "83215-180"
    },
    {
        "city": "Paranaguá",
        "state": "PR",
        "district": "Divinéia",
        "street": "Rua Lucinda Rodrigues Campos",
        "zipcode": "83212-460"
    },
    {
        "city": "Paranaguá",
        "state": "PR",
        "district": "Parque São João",
        "street": "Rua Arsênio Bento dos Santos",
        "zipcode": "83212-480"
    },
    {
        "city": "Paranaguá",
        "state": "PR",
        "district": "Parque São João",
        "street": "Rua Ari Trancoso Matoso",
        "zipcode": "83212-490"
    },
    {
        "city": "Paranaguá",
        "state": "PR",
        "district": "Parque São João",
        "street": "Rua Emiliano Tomé",
        "zipcode": "83212-500"
    },
    {
        "city": "Paranaguá",
        "state": "PR",
        "district": "Parque São João",
        "street": "Rua Gilberto Elias Chaiben",
        "zipcode": "83212-510"
    },
    {
        "city": "Paranaguá",
        "state": "PR",
        "district": "Divinéia",
        "street": "Rua Maria da Conceição Teixeira de Souza",
        "zipcode": "83212-440"
    },
    {
        "city": "Paranaguá",
        "state": "PR",
        "district": "Jardim Paranaguá",
        "street": "Rua Oirdes Fangueiro",
        "zipcode": "83215-160"
    },
    {
        "city": "Paranaguá",
        "state": "PR",
        "district": "Vila dos Comerciários",
        "street": "Rua Luiz Gutierrez",
        "zipcode": "83215-040"
    },
    {
        "city": "Paranaguá",
        "state": "PR",
        "district": "Jardim Paranaguá",
        "street": "Rua Luiz Antônio Amatuzzi de Pinho",
        "zipcode": "83215-170"
    },
    {
        "city": "Paranaguá",
        "state": "PR",
        "district": "Divinéia",
        "street": "Rua Francisco Cabral",
        "zipcode": "83212-430"
    },
    {
        "city": "Paranaguá",
        "state": "PR",
        "district": "Vila dos Comerciários",
        "street": "Rua Paulino Pioli",
        "zipcode": "83215-100"
    },
    {
        "city": "Paranaguá",
        "state": "PR",
        "district": "Vila dos Comerciários",
        "street": "Rua Nilo Lázaro Abud",
        "zipcode": "83215-050"
    },
    {
        "city": "Paranaguá",
        "state": "PR",
        "district": "Conjunto Nilson Neves",
        "street": "Rua das Acácias",
        "zipcode": "83215-380"
    },
    {
        "city": "Paranaguá",
        "state": "PR",
        "district": "Jardim Paranaguá",
        "street": "Rua Edith Amatuzzi de Pinho",
        "zipcode": "83215-110"
    },
    {
        "city": "Paranaguá",
        "state": "PR",
        "district": "Jardim Paranaguá",
        "street": "Rua Soldado Lauro Martins Bitencourt",
        "zipcode": "83215-120"
    },
    {
        "city": "Paranaguá",
        "state": "PR",
        "district": "Jardim Paranaguá",
        "street": "Rua Arthur Santin",
        "zipcode": "83215-150"
    },
    {
        "city": "Paranaguá",
        "state": "PR",
        "district": "Vila dos Comerciários",
        "street": "Rua Nilton Abel de Lima",
        "zipcode": "83215-080"
    },
    {
        "city": "Paranaguá",
        "state": "PR",
        "district": "Divinéia",
        "street": "Travessa José da Rocha Lima",
        "zipcode": "83212-436"
    },
    {
        "city": "Paranaguá",
        "state": "PR",
        "district": "Vila dos Comerciários",
        "street": "Acesso José Romualdo Branco da Silva",
        "zipcode": "83215-064"
    },
    {
        "city": "Paranaguá",
        "state": "PR",
        "district": "Vila dos Comerciários",
        "street": "Acesso Júlio Menezes Barbosa",
        "zipcode": "83215-037"
    },
    {
        "city": "Paranaguá",
        "state": "PR",
        "district": "Jardim Samambaia",
        "street": "Acesso José Vieira da Rosa Filho",
        "zipcode": "83212-348"
    },
    {
        "city": "Paranaguá",
        "state": "PR",
        "district": "Vila São Jorge",
        "street": "Rua João Gomes do Prado",
        "zipcode": "83212-025"
    },
    {
        "city": "Paranaguá",
        "state": "PR",
        "district": "Parque São João",
        "street": "Rua Antônio Camilo dos Nascimento Junior",
        "zipcode": "83212-012"
    },
    {
        "city": "Paranaguá",
        "state": "PR",
        "district": "Parque São João",
        "street": "Avenida Ayrton Senna da Silva",
        "zipcode": "83212-090"
    },
    {
        "city": "Paranaguá",
        "state": "PR",
        "district": "Parque São João",
        "street": "Rua Carlos Leal Gomes",
        "zipcode": "83212-040"
    },
    {
        "city": "Paranaguá",
        "state": "PR",
        "district": "Parque São João",
        "street": "Rua Arlindo Piovesan Vidal",
        "zipcode": "83212-190"
    },
    {
        "city": "Paranaguá",
        "state": "PR",
        "district": "Jardim América",
        "street": "Avenida Bento Munhoz da Rocha Neto",
        "zipcode": "83212-000"
    },
    {
        "city": "Paranaguá",
        "state": "PR",
        "district": "Parque São João",
        "street": "Rua Padre José Roberto de Souza Alvim",
        "zipcode": "83212-020"
    },
    {
        "city": "Paranaguá",
        "state": "PR",
        "district": "Jardim Samambaia",
        "street": "Rua dos Flamboyantes",
        "zipcode": "83212-280"
    },
    {
        "city": "Paranaguá",
        "state": "PR",
        "district": "Jardim Samambaia",
        "street": "Travessa das Flores",
        "zipcode": "83212-290"
    },
    {
        "city": "Paranaguá",
        "state": "PR",
        "district": "Parque São João",
        "street": "Rua Germano Crispim de Oliveira",
        "zipcode": "83212-260"
    },
    {
        "city": "Paranaguá",
        "state": "PR",
        "district": "Jardim Samambaia",
        "street": "Rua das Goiabeiras",
        "zipcode": "83212-300"
    },
    {
        "city": "Paranaguá",
        "state": "PR",
        "district": "Jardim Samambaia",
        "street": "Rua dos Guapezeiros",
        "zipcode": "83212-320"
    },
    {
        "city": "Paranaguá",
        "state": "PR",
        "district": "Jardim Samambaia",
        "street": "Rua dos Ipês",
        "zipcode": "83212-330"
    },
    {
        "city": "Paranaguá",
        "state": "PR",
        "district": "Parque São João",
        "street": "Praça Santa Isabel",
        "zipcode": "83212-080"
    },
    {
        "city": "Paranaguá",
        "state": "PR",
        "district": "Jardim Samambaia",
        "street": "Praça Jorge Luiz Ultrabo Pinto",
        "zipcode": "83212-390"
    },
    {
        "city": "Paranaguá",
        "state": "PR",
        "district": null,
        "street": "Rua dos Jatobás",
        "zipcode": "83210-992"
    },
    {
        "city": "Paranaguá",
        "state": "PR",
        "district": "Parque São João",
        "street": "Rua Alzira Andrade Dutra",
        "zipcode": "83212-100"
    },
    {
        "city": "Paranaguá",
        "state": "PR",
        "district": "Vila São Jorge",
        "street": "Rua Padre Manoel Jordão Cavalheiro",
        "zipcode": "83212-030"
    },
    {
        "city": "Paranaguá",
        "state": "PR",
        "district": "Parque São João",
        "street": "Rua José Luiz Pontes",
        "zipcode": "83212-160"
    },
    {
        "city": "Paranaguá",
        "state": "PR",
        "district": "Jardim Samambaia",
        "street": "Rua das Palmeiras",
        "zipcode": "83212-340"
    },
    {
        "city": "Paranaguá",
        "state": "PR",
        "district": "Parque São João",
        "street": "Rua Tertuliana da Cruz dos Santos",
        "zipcode": "83212-060"
    },
    {
        "city": "Paranaguá",
        "state": "PR",
        "district": "Parque São João",
        "street": "Rua Rodolpho Schwarzabach",
        "zipcode": "83212-230"
    },
    {
        "city": "Paranaguá",
        "state": "PR",
        "district": "Parque São João",
        "street": "Alameda Romano Ancelmo Fontana",
        "zipcode": "83212-070"
    },
    {
        "city": "Paranaguá",
        "state": "PR",
        "district": "Parque São João",
        "street": "Rua São Cosme e Damião",
        "zipcode": "83212-150"
    },
    {
        "city": "Paranaguá",
        "state": "PR",
        "district": "Parque São João",
        "street": "Rua Arnaldo M. de Carvalho",
        "zipcode": "83212-110"
    },
    {
        "city": "Paranaguá",
        "state": "PR",
        "district": "Parque São João",
        "street": "Rua Professor Antônio dos Santos Filho",
        "zipcode": "83212-120"
    },
    {
        "city": "Paranaguá",
        "state": "PR",
        "district": "Divinéia",
        "street": "Rua Antônio A. da Fonseca",
        "zipcode": "83212-450"
    },
    {
        "city": "Paranaguá",
        "state": "PR",
        "district": "Parque São João",
        "street": "Rua Aníbal Roque",
        "zipcode": "83212-240"
    },
    {
        "city": "Paranaguá",
        "state": "PR",
        "district": "Parque São João",
        "street": "Rua José Merino",
        "zipcode": "83212-050"
    },
    {
        "city": "Paranaguá",
        "state": "PR",
        "district": "Parque São João",
        "street": "Rua Aldo SantAna",
        "zipcode": "83212-180"
    },
    {
        "city": "Paranaguá",
        "state": "PR",
        "district": "Parque São João",
        "street": "Avenida Senador Attilio Fontana",
        "zipcode": "83212-250"
    },
    {
        "city": "Paranaguá",
        "state": "PR",
        "district": "Jardim Samambaia",
        "street": "Rua dos Guanandis",
        "zipcode": "83212-310"
    },
    {
        "city": "Paranaguá",
        "state": "PR",
        "district": "Parque São João",
        "street": "Avenida Belmiro Sebastião Marques",
        "zipcode": "83212-010"
    },
    {
        "city": "Paranaguá",
        "state": "PR",
        "district": "Parque São João",
        "street": "Rua Francisco Joaquim da Silva",
        "zipcode": "83212-130"
    },
    {
        "city": "Paranaguá",
        "state": "PR",
        "district": "Parque São João",
        "street": "Avenida Etuzi Takayama",
        "zipcode": "83212-220"
    },
    {
        "city": "Paranaguá",
        "state": "PR",
        "district": "Jardim Samambaia",
        "street": "Rua Walter Gomes Corrêa",
        "zipcode": "83212-275"
    },
    {
        "city": "Paranaguá",
        "state": "PR",
        "district": "Jardim Samambaia",
        "street": "Rua Carlos Oliveira da Velha",
        "zipcode": "83212-526"
    },
    {
        "city": "Paranaguá",
        "state": "PR",
        "district": "Jardim Samambaia",
        "street": "Rua Hideto Kadota",
        "zipcode": "83212-527"
    },
    {
        "city": "Paranaguá",
        "state": "PR",
        "district": "Jardim Samambaia",
        "street": "Rua Jurema Alves Mendes",
        "zipcode": "83212-529"
    },
    {
        "city": "Paranaguá",
        "state": "PR",
        "district": "Parque São João",
        "street": "Rua Antônio Alves Marinho",
        "zipcode": "83212-045"
    },
    {
        "city": "Paranaguá",
        "state": "PR",
        "district": "Jardim Samambaia",
        "street": "Travessa Carlos Roberto Fontes",
        "zipcode": "83212-345"
    },
    {
        "city": "Paranaguá",
        "state": "PR",
        "district": "Jardim Samambaia",
        "street": "Travessa Emílio César Gonçalves",
        "zipcode": "83212-346"
    },
    {
        "city": "Paranaguá",
        "state": "PR",
        "district": null,
        "street": "Rua dos Jacarandás",
        "zipcode": "83210-990"
    },
    {
        "city": "Paranaguá",
        "state": "PR",
        "district": "Jardim Iguaçu",
        "street": "Rua Setenta",
        "zipcode": "83210-379"
    },
    {
        "city": "Paranaguá",
        "state": "PR",
        "district": "Jardim Iguaçu",
        "street": "Rua Sessenta e Três",
        "zipcode": "83210-372"
    },
    {
        "city": "Paranaguá",
        "state": "PR",
        "district": "Jardim Iguaçu",
        "street": "Rua Setenta e Dois",
        "zipcode": "83210-381"
    },
    {
        "city": "Paranaguá",
        "state": "PR",
        "district": "Loteamento Yamaguchi",
        "street": "Rua Nereu Gouvea",
        "zipcode": "83212-554"
    },
    {
        "city": "Paranaguá",
        "state": "PR",
        "district": "Jardim Iguaçu",
        "street": "Rua Oitenta e Oito",
        "zipcode": "83210-397"
    },
    {
        "city": "Paranaguá",
        "state": "PR",
        "district": "Jardim Iguaçu",
        "street": "Rua Setenta e Seis",
        "zipcode": "83210-385"
    },
    {
        "city": "Paranaguá",
        "state": "PR",
        "district": "Jardim Iguaçu",
        "street": "Rua Setenta e Um",
        "zipcode": "83210-380"
    },
    {
        "city": "Paranaguá",
        "state": "PR",
        "district": "Loteamento Yamaguchi",
        "street": "Rua Waldir da Silva Giglio",
        "zipcode": "83212-556"
    },
    {
        "city": "Paranaguá",
        "state": "PR",
        "district": null,
        "street": "Rua dos Jatobás",
        "zipcode": "83210-991"
    },
    {
        "city": "Paranaguá",
        "state": "PR",
        "district": "Emboguaçu",
        "street": "Rua Toledo",
        "zipcode": "83209-080"
    },
    {
        "city": "Paranaguá",
        "state": "PR",
        "district": "Jardim Iguaçu",
        "street": "Acesso dos Pequizeiros",
        "zipcode": "83210-125"
    },
    {
        "city": "Paranaguá",
        "state": "PR",
        "district": "Jardim Iguaçu",
        "street": "Acesso dos Imburãnas",
        "zipcode": "83210-130"
    },
    {
        "city": "Paranaguá",
        "state": "PR",
        "district": "Jardim Iguaçu",
        "street": "Acesso dos Samaúmas",
        "zipcode": "83210-132"
    },
    {
        "city": "Paranaguá",
        "state": "PR",
        "district": "Jardim Iguaçu",
        "street": "Rua Quarenta e Três",
        "zipcode": "83210-352"
    },
    {
        "city": "Paranaguá",
        "state": "PR",
        "district": "Jardim Iguaçu",
        "street": "Rua Quarenta e Quatro",
        "zipcode": "83210-353"
    },
    {
        "city": "Paranaguá",
        "state": "PR",
        "district": "Jardim Iguaçu",
        "street": "Rua Quarenta e Cinco",
        "zipcode": "83210-354"
    },
    {
        "city": "Paranaguá",
        "state": "PR",
        "district": "Jardim Iguaçu",
        "street": "Rua Quarenta e Seis",
        "zipcode": "83210-355"
    },
    {
        "city": "Paranaguá",
        "state": "PR",
        "district": "Jardim Iguaçu",
        "street": "Rua Quarenta e Sete",
        "zipcode": "83210-356"
    },
    {
        "city": "Paranaguá",
        "state": "PR",
        "district": "Jardim Iguaçu",
        "street": "Rua Quarenta e Oito",
        "zipcode": "83210-357"
    },
    {
        "city": "Paranaguá",
        "state": "PR",
        "district": "Jardim Iguaçu",
        "street": "Rua Quarenta e Nove",
        "zipcode": "83210-358"
    },
    {
        "city": "Paranaguá",
        "state": "PR",
        "district": "Jardim Iguaçu",
        "street": "Rua Sessenta e Nove",
        "zipcode": "83210-378"
    },
    {
        "city": "Paranaguá",
        "state": "PR",
        "district": "Jardim Iguaçu",
        "street": "Rua Oitenta e Dois",
        "zipcode": "83210-391"
    },
    {
        "city": "Paranaguá",
        "state": "PR",
        "district": "Jardim Iguaçu",
        "street": "Rua Setenta e Nove",
        "zipcode": "83210-388"
    },
    {
        "city": "Paranaguá",
        "state": "PR",
        "district": "Jardim Iguaçu",
        "street": "Rua Cinquenta",
        "zipcode": "83210-359"
    },
    {
        "city": "Paranaguá",
        "state": "PR",
        "district": "Jardim Iguaçu",
        "street": "Rua Oitenta o Três",
        "zipcode": "83210-392"
    },
    {
        "city": "Paranaguá",
        "state": "PR",
        "district": "Jardim Iguaçu",
        "street": "Rua SETENTA E QUATRO",
        "zipcode": "83210-383"
    },
    {
        "city": "Paranaguá",
        "state": "PR",
        "district": "Jardim Iguaçu",
        "street": "Rua Oitenta e Sete",
        "zipcode": "83210-396"
    },
    {
        "city": "Paranaguá",
        "state": "PR",
        "district": "Jardim Iguaçu",
        "street": "Rua Cinquenta e Um",
        "zipcode": "83210-360"
    },
    {
        "city": "Paranaguá",
        "state": "PR",
        "district": "Jardim Iguaçu",
        "street": "Rua Oitenta e Nove",
        "zipcode": "83210-398"
    },
    {
        "city": "Paranaguá",
        "state": "PR",
        "district": "Jardim Iguaçu",
        "street": "Rua Sessenta e Cinco",
        "zipcode": "83210-374"
    },
    {
        "city": "Paranaguá",
        "state": "PR",
        "district": "Jardim Iguaçu",
        "street": "Rua Cinquenta e Dois",
        "zipcode": "83210-361"
    },
    {
        "city": "Paranaguá",
        "state": "PR",
        "district": "Jardim Iguaçu",
        "street": "Rua Sessenta e Dois",
        "zipcode": "83210-371"
    },
    {
        "city": "Paranaguá",
        "state": "PR",
        "district": "Jardim Iguaçu",
        "street": "Rua Sessenta e Quatro",
        "zipcode": "83210-373"
    },
    {
        "city": "Paranaguá",
        "state": "PR",
        "district": "Jardim Iguaçu",
        "street": "Rua Setenta e Sete",
        "zipcode": "83210-386"
    },
    {
        "city": "Paranaguá",
        "state": "PR",
        "district": "Jardim Iguaçu",
        "street": "Rua Cinquenta e Três",
        "zipcode": "83210-362"
    },
    {
        "city": "Paranaguá",
        "state": "PR",
        "district": "Jardim Iguaçu",
        "street": "Rua Oitenta e Um",
        "zipcode": "83210-390"
    },
    {
        "city": "Paranaguá",
        "state": "PR",
        "district": "Jardim Iguaçu",
        "street": "Rua Sessenta e Um",
        "zipcode": "83210-370"
    },
    {
        "city": "Paranaguá",
        "state": "PR",
        "district": "Jardim Iguaçu",
        "street": "Rua Oitenta e Seis",
        "zipcode": "83210-395"
    },
    {
        "city": "Paranaguá",
        "state": "PR",
        "district": "Jardim Iguaçu",
        "street": "Rua Setenta e Oito",
        "zipcode": "83210-387"
    },
    {
        "city": "Paranaguá",
        "state": "PR",
        "district": "Jardim Iguaçu",
        "street": "Rua Setenta e Cinco",
        "zipcode": "83210-384"
    },
    {
        "city": "Paranaguá",
        "state": "PR",
        "district": "Jardim Iguaçu",
        "street": "Rua Sessenta e Seis",
        "zipcode": "83210-375"
    },
    {
        "city": "Paranaguá",
        "state": "PR",
        "district": "Jardim Iguaçu",
        "street": "Rua Sessenta",
        "zipcode": "83210-369"
    },
    {
        "city": "Paranaguá",
        "state": "PR",
        "district": "Jardim Iguaçu",
        "street": "Rua Oitenta e Cinco",
        "zipcode": "83210-394"
    },
    {
        "city": "Paranaguá",
        "state": "PR",
        "district": "Jardim Iguaçu",
        "street": "Rua Vinte e Cinco",
        "zipcode": "83210-334"
    },
    {
        "city": "Paranaguá",
        "state": "PR",
        "district": "Jardim Iguaçu",
        "street": "Rua Vinte e Seis",
        "zipcode": "83210-335"
    },
    {
        "city": "Paranaguá",
        "state": "PR",
        "district": "Jardim Iguaçu",
        "street": "Rua VINTE E SETE",
        "zipcode": "83210-336"
    },
    {
        "city": "Paranaguá",
        "state": "PR",
        "district": "Jardim Iguaçu",
        "street": "Rua Vinte e Oito",
        "zipcode": "83210-337"
    },
    {
        "city": "Paranaguá",
        "state": "PR",
        "district": "Jardim Iguaçu",
        "street": "Rua Vinte e Nove",
        "zipcode": "83210-338"
    },
    {
        "city": "Paranaguá",
        "state": "PR",
        "district": "Jardim Iguaçu",
        "street": "Rua Trinta",
        "zipcode": "83210-339"
    },
    {
        "city": "Paranaguá",
        "state": "PR",
        "district": "Jardim Iguaçu",
        "street": "Rua Trinta e Um",
        "zipcode": "83210-340"
    },
    {
        "city": "Paranaguá",
        "state": "PR",
        "district": "Jardim Iguaçu",
        "street": "Rua Trinta e Dois",
        "zipcode": "83210-341"
    },
    {
        "city": "Paranaguá",
        "state": "PR",
        "district": "Jardim Iguaçu",
        "street": "Rua TRINTA E TRES",
        "zipcode": "83210-342"
    },
    {
        "city": "Paranaguá",
        "state": "PR",
        "district": "Emboguaçu",
        "street": "Rua Castro",
        "zipcode": "83209-030"
    },
    {
        "city": "Paranaguá",
        "state": "PR",
        "district": "Jardim Iguaçu",
        "street": "Rua Trinta e Quatro",
        "zipcode": "83210-343"
    },
    {
        "city": "Paranaguá",
        "state": "PR",
        "district": "Jardim Iguaçu",
        "street": "Rua Trinta e Seis",
        "zipcode": "83210-345"
    },
    {
        "city": "Paranaguá",
        "state": "PR",
        "district": "Jardim Iguaçu",
        "street": "Rua Trinta e Sete",
        "zipcode": "83210-346"
    },
    {
        "city": "Paranaguá",
        "state": "PR",
        "district": "Jardim Iguaçu",
        "street": "Rua Trinta e Oito",
        "zipcode": "83210-347"
    },
    {
        "city": "Paranaguá",
        "state": "PR",
        "district": "Jardim Iguaçu",
        "street": "Rua Trinta e Nove",
        "zipcode": "83210-348"
    },
    {
        "city": "Paranaguá",
        "state": "PR",
        "district": "Jardim Iguaçu",
        "street": "Rua Quarenta",
        "zipcode": "83210-349"
    },
    {
        "city": "Paranaguá",
        "state": "PR",
        "district": "Jardim Iguaçu",
        "street": "Rua Quarenta e Um",
        "zipcode": "83210-350"
    },
    {
        "city": "Paranaguá",
        "state": "PR",
        "district": "Jardim Iguaçu",
        "street": "Rua Um",
        "zipcode": "83210-310"
    },
    {
        "city": "Paranaguá",
        "state": "PR",
        "district": "Jardim Iguaçu",
        "street": "Rua Tres",
        "zipcode": "83210-312"
    },
    {
        "city": "Paranaguá",
        "state": "PR",
        "district": "Jardim Iguaçu",
        "street": "Rua Quatro",
        "zipcode": "83210-313"
    },
    {
        "city": "Paranaguá",
        "state": "PR",
        "district": "Jardim Iguaçu",
        "street": "Rua Cinco",
        "zipcode": "83210-314"
    },
    {
        "city": "Paranaguá",
        "state": "PR",
        "district": "Jardim Iguaçu",
        "street": "Rua Seis",
        "zipcode": "83210-315"
    },
    {
        "city": "Paranaguá",
        "state": "PR",
        "district": "Jardim Iguaçu",
        "street": "Rua Sete",
        "zipcode": "83210-316"
    },
    {
        "city": "Paranaguá",
        "state": "PR",
        "district": "Jardim Iguaçu",
        "street": "Rua Oito",
        "zipcode": "83210-317"
    },
    {
        "city": "Paranaguá",
        "state": "PR",
        "district": "Jardim Iguaçu",
        "street": "Rua Cinquenta e Quatro",
        "zipcode": "83210-363"
    },
    {
        "city": "Paranaguá",
        "state": "PR",
        "district": "Jardim Iguaçu",
        "street": "Rua Nove",
        "zipcode": "83210-318"
    },
    {
        "city": "Paranaguá",
        "state": "PR",
        "district": "Jardim Iguaçu",
        "street": "Rua Dez",
        "zipcode": "83210-319"
    },
    {
        "city": "Paranaguá",
        "state": "PR",
        "district": "Jardim Iguaçu",
        "street": "Rua Onze",
        "zipcode": "83210-320"
    },
    {
        "city": "Paranaguá",
        "state": "PR",
        "district": "Jardim Iguaçu",
        "street": "Rua DOZE",
        "zipcode": "83210-321"
    },
    {
        "city": "Paranaguá",
        "state": "PR",
        "district": "Jardim Iguaçu",
        "street": "Rua Treze",
        "zipcode": "83210-322"
    },
    {
        "city": "Paranaguá",
        "state": "PR",
        "district": "Jardim Iguaçu",
        "street": "Rua Quatorze",
        "zipcode": "83210-323"
    },
    {
        "city": "Paranaguá",
        "state": "PR",
        "district": "Jardim Iguaçu",
        "street": "Rua Quinze",
        "zipcode": "83210-324"
    },
    {
        "city": "Paranaguá",
        "state": "PR",
        "district": "Jardim Iguaçu",
        "street": "Rua Dezesseis",
        "zipcode": "83210-325"
    },
    {
        "city": "Paranaguá",
        "state": "PR",
        "district": "Jardim Iguaçu",
        "street": "Rua Dezessete",
        "zipcode": "83210-326"
    },
    {
        "city": "Paranaguá",
        "state": "PR",
        "district": "Jardim Iguaçu",
        "street": "Rua Dezoito",
        "zipcode": "83210-327"
    },
    {
        "city": "Paranaguá",
        "state": "PR",
        "district": "Jardim Iguaçu",
        "street": "Rua Dezenove",
        "zipcode": "83210-328"
    },
    {
        "city": "Paranaguá",
        "state": "PR",
        "district": "Jardim Iguaçu",
        "street": "Rua Vinte",
        "zipcode": "83210-329"
    },
    {
        "city": "Paranaguá",
        "state": "PR",
        "district": "Jardim Iguaçu",
        "street": "Rua Vinte e Um",
        "zipcode": "83210-330"
    },
    {
        "city": "Paranaguá",
        "state": "PR",
        "district": "Jardim Iguaçu",
        "street": "Rua Vinte e Dois",
        "zipcode": "83210-331"
    },
    {
        "city": "Paranaguá",
        "state": "PR",
        "district": "Jardim Iguaçu",
        "street": "Rua Vinte e Tres",
        "zipcode": "83210-332"
    },
    {
        "city": "Paranaguá",
        "state": "PR",
        "district": "Jardim Iguaçu",
        "street": "Rua Vinte e Quatro",
        "zipcode": "83210-333"
    },
    {
        "city": "Paranaguá",
        "state": "PR",
        "district": "Jardim Iguaçu",
        "street": "Travessa dos Cedros",
        "zipcode": "83210-136"
    },
    {
        "city": "Paranaguá",
        "state": "PR",
        "district": "Jardim Iguaçu",
        "street": "Acesso Constantino Bauraquiades Filho",
        "zipcode": "83210-138"
    },
    {
        "city": "Paranaguá",
        "state": "PR",
        "district": "Jardim Iguaçu",
        "street": "Acesso Miguel Pereira Borges",
        "zipcode": "83210-143"
    },
    {
        "city": "Paranaguá",
        "state": "PR",
        "district": "Jardim Iguaçu",
        "street": "Acesso Lucas Ramon Ezequiel Matozo Ferreira",
        "zipcode": "83210-146"
    },
    {
        "city": "Paranaguá",
        "state": "PR",
        "district": "Jardim Iguaçu",
        "street": "Rua das Copaíbas",
        "zipcode": "83210-150"
    },
    {
        "city": "Paranaguá",
        "state": "PR",
        "district": "Jardim Iguaçu",
        "street": "Travessa das Acerolas",
        "zipcode": "83210-152"
    },
    {
        "city": "Paranaguá",
        "state": "PR",
        "district": "Jardim Iguaçu",
        "street": "Rua Miguel Zacharias Pesch",
        "zipcode": "83210-093"
    },
    {
        "city": "Paranaguá",
        "state": "PR",
        "district": "Jardim Iguaçu",
        "street": "Rua das Castanheiras",
        "zipcode": "83210-166"
    },
    {
        "city": "Paranaguá",
        "state": "PR",
        "district": "Jardim Iguaçu",
        "street": "Acesso Iraci de Almeida Borges Rangel",
        "zipcode": "83210-164"
    },
    {
        "city": "Paranaguá",
        "state": "PR",
        "district": "Jardim Iguaçu",
        "street": "Travessa dos Coqueiros",
        "zipcode": "83210-011"
    },
    {
        "city": "Paranaguá",
        "state": "PR",
        "district": "Jardim Iguaçu",
        "street": "Rua Juvenil Veiga",
        "zipcode": "83210-110"
    },
    {
        "city": "Paranaguá",
        "state": "PR",
        "district": "Jardim Iguaçu",
        "street": "Rua Ivo dos Santos",
        "zipcode": "83210-085"
    },
    {
        "city": "Paranaguá",
        "state": "PR",
        "district": "Jardim Iguaçu",
        "street": "Rua Orelino Costa",
        "zipcode": "83210-112"
    },
    {
        "city": "Paranaguá",
        "state": "PR",
        "district": "Jardim Iguaçu",
        "street": "Rua Maria Luiza dos Santos Ribas",
        "zipcode": "83210-114"
    },
    {
        "city": "Paranaguá",
        "state": "PR",
        "district": "Jardim Iguaçu",
        "street": "Rua Leontina Nogueira",
        "zipcode": "83210-116"
    },
    {
        "city": "Paranaguá",
        "state": "PR",
        "district": "Jardim Iguaçu",
        "street": "Rua Humberto Scremim",
        "zipcode": "83210-180"
    },
    {
        "city": "Paranaguá",
        "state": "PR",
        "district": "Jardim Iguaçu",
        "street": "Rua Moacir Carneiro",
        "zipcode": "83210-186"
    },
    {
        "city": "Paranaguá",
        "state": "PR",
        "district": "Jardim Iguaçu",
        "street": "Rua Anna Edinger",
        "zipcode": "83210-188"
    },
    {
        "city": "Paranaguá",
        "state": "PR",
        "district": "Jardim Iguaçu",
        "street": "Travessa Iraci de Almeida Borges Rangel",
        "zipcode": "83210-096"
    },
    {
        "city": "Paranaguá",
        "state": "PR",
        "district": "Jardim Iguaçu",
        "street": "Rua Ozires Jaroslau Pereira Pesch",
        "zipcode": "83210-088"
    },
    {
        "city": "Paranaguá",
        "state": "PR",
        "district": "Jardim Iguaçu",
        "street": "Rua Jeovaldo Borges de Oliveira",
        "zipcode": "83210-102"
    },
    {
        "city": "Paranaguá",
        "state": "PR",
        "district": "Jardim Iguaçu",
        "street": "Rua Joatã Sena de Melo",
        "zipcode": "83210-104"
    },
    {
        "city": "Paranaguá",
        "state": "PR",
        "district": "Vila Nova Primavera",
        "street": "Acesso Getulinho",
        "zipcode": "83209-662"
    },
    {
        "city": "Paranaguá",
        "state": "PR",
        "district": "Jardim Iguaçu",
        "street": "Rua das Figueiras",
        "zipcode": "83210-003"
    },
    {
        "city": "Paranaguá",
        "state": "PR",
        "district": "Jardim Iguaçu",
        "street": "Rua das Laranjeiras",
        "zipcode": "83210-020"
    },
    {
        "city": "Paranaguá",
        "state": "PR",
        "district": "Jardim Iguaçu",
        "street": "Rua das Jaboticabeiras",
        "zipcode": "83210-022"
    },
    {
        "city": "Paranaguá",
        "state": "PR",
        "district": "Jardim Iguaçu",
        "street": "Travessa Douglas Borges Dembisk",
        "zipcode": "83210-028"
    },
    {
        "city": "Paranaguá",
        "state": "PR",
        "district": "Jardim Iguaçu",
        "street": "Acesso dos Limoeiros",
        "zipcode": "83210-031"
    },
    {
        "city": "Paranaguá",
        "state": "PR",
        "district": "Jardim Iguaçu",
        "street": "Travessa dos Pessegueiros",
        "zipcode": "83210-035"
    },
    {
        "city": "Paranaguá",
        "state": "PR",
        "district": "Jardim Iguaçu",
        "street": "Travessa dos Eucaliptos",
        "zipcode": "83210-037"
    },
    {
        "city": "Paranaguá",
        "state": "PR",
        "district": "Jardim Iguaçu",
        "street": "Travessa dos Araçás",
        "zipcode": "83210-039"
    },
    {
        "city": "Paranaguá",
        "state": "PR",
        "district": "Jardim Iguaçu",
        "street": "Rua das Cerejeiras",
        "zipcode": "83210-041"
    },
    {
        "city": "Paranaguá",
        "state": "PR",
        "district": "Jardim Iguaçu",
        "street": "Acesso do Marfim",
        "zipcode": "83210-043"
    },
    {
        "city": "Paranaguá",
        "state": "PR",
        "district": "Jardim Iguaçu",
        "street": "Travessa das Aroeiras",
        "zipcode": "83210-047"
    },
    {
        "city": "Paranaguá",
        "state": "PR",
        "district": "Jardim Iguaçu",
        "street": "Acesso Francisca de Souza Lopes",
        "zipcode": "83210-058"
    },
    {
        "city": "Paranaguá",
        "state": "PR",
        "district": "Jardim Iguaçu",
        "street": "Rua João Pires",
        "zipcode": "83210-083"
    },
    {
        "city": "Paranaguá",
        "state": "PR",
        "district": "Jardim Iguaçu",
        "street": "Rua Carlos de Pádua Machado",
        "zipcode": "83210-077"
    },
    {
        "city": "Paranaguá",
        "state": "PR",
        "district": "Jardim Iguaçu",
        "street": "Rua Irene Nogueira Pinto",
        "zipcode": "83210-070"
    },
    {
        "city": "Paranaguá",
        "state": "PR",
        "district": "Jardim Iguaçu",
        "street": "Rua Manoel Elísio Scremim",
        "zipcode": "83210-075"
    },
    {
        "city": "Paranaguá",
        "state": "PR",
        "district": "Colônia Santa Rita",
        "street": "Rua X de Agosto",
        "zipcode": "83209-720"
    },
    {
        "city": "Paranaguá",
        "state": "PR",
        "district": "Colônia Santa Rita",
        "street": "Rua XV de Abril",
        "zipcode": "83209-710"
    },
    {
        "city": "Paranaguá",
        "state": "PR",
        "district": "Vila Nova Primavera",
        "street": "Acesso São Brás",
        "zipcode": "83209-668"
    },
    {
        "city": "Paranaguá",
        "state": "PR",
        "district": "Vila Nova Primavera",
        "street": "Travessa Ipiranga",
        "zipcode": "83209-666"
    },
    {
        "city": "Paranaguá",
        "state": "PR",
        "district": "Vila São Vicente",
        "street": "Rua Asa",
        "zipcode": "83209-600"
    },
    {
        "city": "Paranaguá",
        "state": "PR",
        "district": "Vila do Povo",
        "street": "Rua Amazonas",
        "zipcode": "83209-620"
    },
    {
        "city": "Paranaguá",
        "state": "PR",
        "district": "Vila do Povo",
        "street": "Rua Palmas",
        "zipcode": "83209-625"
    },
    {
        "city": "Paranaguá",
        "state": "PR",
        "district": "Vila do Povo",
        "street": "Rua Goiás",
        "zipcode": "83209-626"
    },
    {
        "city": "Paranaguá",
        "state": "PR",
        "district": "Vila do Povo",
        "street": "Rua Paraíba",
        "zipcode": "83209-627"
    },
    {
        "city": "Paranaguá",
        "state": "PR",
        "district": "Vila do Povo",
        "street": "Rua Rondônia",
        "zipcode": "83209-628"
    },
    {
        "city": "Paranaguá",
        "state": "PR",
        "district": "Vila do Povo",
        "street": "Rua Alagoas",
        "zipcode": "83209-629"
    },
    {
        "city": "Paranaguá",
        "state": "PR",
        "district": "Vila do Povo",
        "street": "Rua São Paulo",
        "zipcode": "83209-639"
    },
    {
        "city": "Paranaguá",
        "state": "PR",
        "district": null,
        "street": "Rua Castro",
        "zipcode": "83209-990"
    },
    {
        "city": "Paranaguá",
        "state": "PR",
        "district": "Emboguaçu",
        "street": "Avenida Ayrton Senna da Silva",
        "zipcode": "83209-900"
    },
    {
        "city": "Paranaguá",
        "state": "PR",
        "district": "Vila do Povo",
        "street": "Rua Santa Catarina",
        "zipcode": "83209-640"
    },
    {
        "city": "Paranaguá",
        "state": "PR",
        "district": "Vila do Povo",
        "street": "Rua Minas Gerais",
        "zipcode": "83209-645"
    },
    {
        "city": "Paranaguá",
        "state": "PR",
        "district": "Vila do Povo",
        "street": "Rua Ceará",
        "zipcode": "83209-646"
    },
    {
        "city": "Paranaguá",
        "state": "PR",
        "district": "Vila do Povo",
        "street": "Rua Maranhão",
        "zipcode": "83209-647"
    },
    {
        "city": "Paranaguá",
        "state": "PR",
        "district": "Vila do Povo",
        "street": "Rua Acre",
        "zipcode": "83209-655"
    },
    {
        "city": "Paranaguá",
        "state": "PR",
        "district": "Vila do Povo",
        "street": "Rua Santo Gabriel",
        "zipcode": "83209-656"
    },
    {
        "city": "Paranaguá",
        "state": "PR",
        "district": "Vila do Povo",
        "street": "Rua Santo Antônio",
        "zipcode": "83209-657"
    },
    {
        "city": "Paranaguá",
        "state": "PR",
        "district": "Vila do Povo",
        "street": "Rua Espírito Santo",
        "zipcode": "83209-630"
    },
    {
        "city": "Paranaguá",
        "state": "PR",
        "district": "Vila do Povo",
        "street": "Rua Sergipe",
        "zipcode": "83209-636"
    },
    {
        "city": "Paranaguá",
        "state": "PR",
        "district": "Vila do Povo",
        "street": "Rua Mato Grosso",
        "zipcode": "83209-637"
    },
    {
        "city": "Paranaguá",
        "state": "PR",
        "district": "Vila do Povo",
        "street": "Rua Bahia",
        "zipcode": "83209-638"
    },
    {
        "city": "Paranaguá",
        "state": "PR",
        "district": "Vila do Povo",
        "street": "Rua Roraima",
        "zipcode": "83209-648"
    },
    {
        "city": "Paranaguá",
        "state": "PR",
        "district": "Vila do Povo",
        "street": "Rua Piauí",
        "zipcode": "83209-635"
    },
    {
        "city": "Paranaguá",
        "state": "PR",
        "district": "Vila do Povo",
        "street": "Avenida José da Costa Leite",
        "zipcode": "83209-658"
    },
    {
        "city": "Paranaguá",
        "state": "PR",
        "district": "Jardim Iguaçu",
        "street": "Travessa das Cabreúvas",
        "zipcode": "83210-005"
    },
    {
        "city": "Paranaguá",
        "state": "PR",
        "district": "Jardim Iguaçu",
        "street": "Rua dos Jacarandás",
        "zipcode": "83210-008"
    },
    {
        "city": "Paranaguá",
        "state": "PR",
        "district": "Jardim Iguaçu",
        "street": "Rua das Bracatingas",
        "zipcode": "83210-009"
    },
    {
        "city": "Paranaguá",
        "state": "PR",
        "district": "Jardim Iguaçu",
        "street": "Rua dos Guatambus",
        "zipcode": "83210-010"
    },
    {
        "city": "Paranaguá",
        "state": "PR",
        "district": "Jardim Iguaçu",
        "street": "Rua Áurea Pereira Martins",
        "zipcode": "83210-000"
    },
    {
        "city": "Paranaguá",
        "state": "PR",
        "district": "Jardim Iguaçu",
        "street": "Rua dos Jequitibás",
        "zipcode": "83210-015"
    },
    {
        "city": "Paranaguá",
        "state": "PR",
        "district": "Jardim Iguaçu",
        "street": "Rua dos Jatobás",
        "zipcode": "83210-016"
    },
    {
        "city": "Paranaguá",
        "state": "PR",
        "district": "Vila São Vicente",
        "street": "Rua Sebastião Machado de Souza Filho",
        "zipcode": "83209-219"
    },
    {
        "city": "Paranaguá",
        "state": "PR",
        "district": "Jardim Guaraituba",
        "street": "Rua Manoel da Silva",
        "zipcode": "83209-377"
    },
    {
        "city": "Paranaguá",
        "state": "PR",
        "district": "Vila São Vicente",
        "street": "Rua Rosa Cordeiro Bitencourt",
        "zipcode": "83209-208"
    },
    {
        "city": "Paranaguá",
        "state": "PR",
        "district": "Vila São Carlos",
        "street": "Rua São Gabriel",
        "zipcode": "83209-552"
    },
    {
        "city": "Paranaguá",
        "state": "PR",
        "district": "Eldorado",
        "street": "Rua Alziro Zarur",
        "zipcode": "83206-330"
    },
    {
        "city": "Paranaguá",
        "state": "PR",
        "district": "Jardim Guaraituba",
        "street": "Rua Apiácas",
        "zipcode": "83209-290"
    },
    {
        "city": "Paranaguá",
        "state": "PR",
        "district": "Jardim Guaraituba",
        "street": "Rua Araguaia",
        "zipcode": "83209-300"
    },
    {
        "city": "Paranaguá",
        "state": "PR",
        "district": "Jardim Guaraituba",
        "street": "Rua Araguari",
        "zipcode": "83209-310"
    },
    {
        "city": "Paranaguá",
        "state": "PR",
        "district": "Jardim Guaraituba",
        "street": "Rua Aripuanã",
        "zipcode": "83209-320"
    },
    {
        "city": "Paranaguá",
        "state": "PR",
        "district": "Jardim América",
        "street": "Rua Bolívia",
        "zipcode": "83209-430"
    },
    {
        "city": "Paranaguá",
        "state": "PR",
        "district": "Jardim Guaraituba",
        "street": "Rua Capibaribe",
        "zipcode": "83209-330"
    },
    {
        "city": "Paranaguá",
        "state": "PR",
        "district": "Jardim Guaraituba",
        "street": "Rua Capivari",
        "zipcode": "83209-350"
    },
    {
        "city": "Paranaguá",
        "state": "PR",
        "district": "Jardim América",
        "street": "Rua Colômbia",
        "zipcode": "83209-440"
    },
    {
        "city": "Paranaguá",
        "state": "PR",
        "district": "Jardim América",
        "street": "Rua Costa Rica",
        "zipcode": "83209-450"
    },
    {
        "city": "Paranaguá",
        "state": "PR",
        "district": "Vila Itiberê",
        "street": "Rua Domingos Peneda",
        "zipcode": "83209-340"
    },
    {
        "city": "Paranaguá",
        "state": "PR",
        "district": "Jardim América",
        "street": "Rua Equador",
        "zipcode": "83209-460"
    },
    {
        "city": "Paranaguá",
        "state": "PR",
        "district": "Jardim América",
        "street": "Avenida Estados Unidos",
        "zipcode": "83209-470"
    },
    {
        "city": "Paranaguá",
        "state": "PR",
        "district": "Jardim Guaraituba",
        "street": "Rua Guaíba",
        "zipcode": "83209-360"
    },
    {
        "city": "Paranaguá",
        "state": "PR",
        "district": "Jardim Guaraituba",
        "street": "Rua Guaporé",
        "zipcode": "83209-260"
    },
    {
        "city": "Paranaguá",
        "state": "PR",
        "district": "Jardim América",
        "street": "Rua Guatemala",
        "zipcode": "83209-480"
    },
    {
        "city": "Paranaguá",
        "state": "PR",
        "district": "Jardim América",
        "street": "Rua Haiti",
        "zipcode": "83209-490"
    },
    {
        "city": "Paranaguá",
        "state": "PR",
        "district": "Vila São Vicente",
        "street": "Rua Francisco Cominese",
        "zipcode": "83209-230"
    },
    {
        "city": "Paranaguá",
        "state": "PR",
        "district": "Jardim Guaraituba",
        "street": "Rua Japurá",
        "zipcode": "83209-280"
    },
    {
        "city": "Paranaguá",
        "state": "PR",
        "district": "Jardim América",
        "street": "Rua México",
        "zipcode": "83209-500"
    },
    {
        "city": "Paranaguá",
        "state": "PR",
        "district": "Jardim Guaraituba",
        "street": "Rua Antônio Lopes dos Santos",
        "zipcode": "83209-334"
    },
    {
        "city": "Paranaguá",
        "state": "PR",
        "district": "Vila São Vicente",
        "street": "Rua Raquel da Silva Pereira",
        "zipcode": "83209-565"
    },
    {
        "city": "Paranaguá",
        "state": "PR",
        "district": "Vila São Vicente",
        "street": "Rua Oiti",
        "zipcode": "83209-170"
    },
    {
        "city": "Paranaguá",
        "state": "PR",
        "district": "Jardim Guaraituba",
        "street": "Rua Paranapanema",
        "zipcode": "83209-270"
    },
    {
        "city": "Paranaguá",
        "state": "PR",
        "district": "Jardim Guaraituba",
        "street": "Rua Pastor Rafael Batista de Oliveira",
        "zipcode": "83209-390"
    },
    {
        "city": "Paranaguá",
        "state": "PR",
        "district": "Vila São Vicente",
        "street": "Rua Romã",
        "zipcode": "83209-180"
    },
    {
        "city": "Paranaguá",
        "state": "PR",
        "district": "Vila São Vicente",
        "street": "Rua Domingos Peneda",
        "zipcode": "83209-575"
    },
    {
        "city": "Paranaguá",
        "state": "PR",
        "district": "Jardim Guaraituba",
        "street": "Rua Solimões",
        "zipcode": "83209-400"
    },
    {
        "city": "Paranaguá",
        "state": "PR",
        "district": "Jardim Guaraituba",
        "street": "Rua Taquari",
        "zipcode": "83209-410"
    },
    {
        "city": "Paranaguá",
        "state": "PR",
        "district": "Jardim América",
        "street": "Rua Estela Berlim Peres",
        "zipcode": "83209-510"
    },
    {
        "city": "Paranaguá",
        "state": "PR",
        "district": "Vila São Vicente",
        "street": "Rua Arioni Toledo Zulai",
        "zipcode": "83209-250"
    },
    {
        "city": "Paranaguá",
        "state": "PR",
        "district": "Jardim Guaraituba",
        "street": "Rua Guaraguaçu",
        "zipcode": "83209-370"
    },
    {
        "city": "Paranaguá",
        "state": "PR",
        "district": "Jardim América",
        "street": "Rua Venezuela",
        "zipcode": "83209-520"
    },
    {
        "city": "Paranaguá",
        "state": "PR",
        "district": "Vila São Vicente",
        "street": "Rua Bento de Oliveira Rocha",
        "zipcode": "83209-200"
    },
    {
        "city": "Paranaguá",
        "state": "PR",
        "district": "Vila São Vicente",
        "street": "Rua Erivan José Tramujas",
        "zipcode": "83209-210"
    },
    {
        "city": "Paranaguá",
        "state": "PR",
        "district": "Vila São Vicente",
        "street": "Rua Ji",
        "zipcode": "83209-560"
    },
    {
        "city": "Paranaguá",
        "state": "PR",
        "district": "Vila São Vicente",
        "street": "Rua Cláudio Fontes",
        "zipcode": "83209-206"
    },
    {
        "city": "Paranaguá",
        "state": "PR",
        "district": "Vila São Vicente",
        "street": "Rua Barigui",
        "zipcode": "83209-590"
    },
    {
        "city": "Paranaguá",
        "state": "PR",
        "district": "Jardim Guaraituba",
        "street": "Travessa Antônio Gervasi",
        "zipcode": "83209-355"
    },
    {
        "city": "Paranaguá",
        "state": "PR",
        "district": "Jardim Guaraituba",
        "street": "Rua Bento Gonçalves",
        "zipcode": "83209-375"
    },
    {
        "city": "Paranaguá",
        "state": "PR",
        "district": "Jardim Guaraituba",
        "street": "Acesso Severino Francisco de Moura",
        "zipcode": "83209-365"
    },
    {
        "city": "Paranaguá",
        "state": "PR",
        "district": "Vila São Vicente",
        "street": "Rua Januário Mendes",
        "zipcode": "83209-217"
    },
    {
        "city": "Paranaguá",
        "state": "PR",
        "district": "Vila São Vicente",
        "street": "Acesso Emílio Souza",
        "zipcode": "83209-209"
    },
    {
        "city": "Paranaguá",
        "state": "PR",
        "district": "Vila São Vicente",
        "street": "Acesso Antonio Alves Leandro",
        "zipcode": "83209-211"
    },
    {
        "city": "Paranaguá",
        "state": "PR",
        "district": "Vila São Vicente",
        "street": "Rua Walter Modesto Rodrigues",
        "zipcode": "83209-212"
    },
    {
        "city": "Paranaguá",
        "state": "PR",
        "district": "Vila São Vicente",
        "street": "Rua Juventino Correia",
        "zipcode": "83209-218"
    },
    {
        "city": "Paranaguá",
        "state": "PR",
        "district": "Vila São Vicente",
        "street": "Rua Pedro Amâncio",
        "zipcode": "83209-203"
    },
    {
        "city": "Paranaguá",
        "state": "PR",
        "district": "Vila São Vicente",
        "street": "Rua Antonio Carlos Oliveira",
        "zipcode": "83209-201"
    },
    {
        "city": "Paranaguá",
        "state": "PR",
        "district": "Vila Horizonte",
        "street": "Avenida Ayrton Senna da Silva",
        "zipcode": "83206-660"
    },
    {
        "city": "Paranaguá",
        "state": "PR",
        "district": "Vila São Vicente",
        "street": "Rua Açaí",
        "zipcode": "83209-130"
    },
    {
        "city": "Paranaguá",
        "state": "PR",
        "district": "Emboguaçu",
        "street": "Rua Arapongas",
        "zipcode": "83209-010"
    },
    {
        "city": "Paranaguá",
        "state": "PR",
        "district": "Aeroporto",
        "street": "Avenida Bento Munhoz da Rocha Neto",
        "zipcode": "83209-000"
    },
    {
        "city": "Paranaguá",
        "state": "PR",
        "district": "Vila São Vicente",
        "street": "Rua Caju",
        "zipcode": "83209-110"
    },
    {
        "city": "Paranaguá",
        "state": "PR",
        "district": "Emboguaçu",
        "street": "Rua Canadá",
        "zipcode": "83209-020"
    },
    {
        "city": "Paranaguá",
        "state": "PR",
        "district": "Emboguaçu",
        "street": "Avenida Ford",
        "zipcode": "83209-040"
    },
    {
        "city": "Paranaguá",
        "state": "PR",
        "district": "Vila São Vicente",
        "street": "Rua Jaca",
        "zipcode": "83209-160"
    },
    {
        "city": "Paranaguá",
        "state": "PR",
        "district": "Emboguaçu",
        "street": "Rua Jacarezinho",
        "zipcode": "83209-060"
    },
    {
        "city": "Paranaguá",
        "state": "PR",
        "district": "Vila São Vicente",
        "street": "Rua Samburá",
        "zipcode": "83209-235"
    },
    {
        "city": "Paranaguá",
        "state": "PR",
        "district": "Emboguaçu",
        "street": "Rua Lapa",
        "zipcode": "83209-070"
    },
    {
        "city": "Paranaguá",
        "state": "PR",
        "district": "Vila São Vicente",
        "street": "Rua Odalício Freitas Gabriel",
        "zipcode": "83209-190"
    },
    {
        "city": "Paranaguá",
        "state": "PR",
        "district": "Emboguaçu",
        "street": "Rua Iara",
        "zipcode": "83209-050"
    },
    {
        "city": "Paranaguá",
        "state": "PR",
        "district": "Vila São Vicente",
        "street": "Rua Uchí",
        "zipcode": "83209-140"
    },
    {
        "city": "Paranaguá",
        "state": "PR",
        "district": "Vila São Vicente",
        "street": "Rua Itamarandiba",
        "zipcode": "83209-255"
    },
    {
        "city": "Paranaguá",
        "state": "PR",
        "district": "Vila São Vicente",
        "street": "Rua Cajá",
        "zipcode": "83209-150"
    },
    {
        "city": "Paranaguá",
        "state": "PR",
        "district": "Vila São Vicente",
        "street": "Rua Sapucaí",
        "zipcode": "83209-245"
    },
    {
        "city": "Paranaguá",
        "state": "PR",
        "district": "Vila Itiberê",
        "street": "Rua Ghandu",
        "zipcode": "83209-345"
    },
    {
        "city": "Paranaguá",
        "state": "PR",
        "district": "Vila Itiberê",
        "street": "Rua Guape",
        "zipcode": "83209-346"
    },
    {
        "city": "Paranaguá",
        "state": "PR",
        "district": "Eldorado",
        "street": "Rua João Cardoso Carmezim",
        "zipcode": "83206-530"
    },
    {
        "city": "Paranaguá",
        "state": "PR",
        "district": "Eldorado",
        "street": "Rua Rene Anastácio Ainati",
        "zipcode": "83206-532"
    },
    {
        "city": "Paranaguá",
        "state": "PR",
        "district": "Eldorado",
        "street": "Rua Edewaldo Ache",
        "zipcode": "83206-534"
    },
    {
        "city": "Paranaguá",
        "state": "PR",
        "district": "Jardim Guaraituba",
        "street": "Acesso Yolando Alípio",
        "zipcode": "83209-372"
    },
    {
        "city": "Paranaguá",
        "state": "PR",
        "district": "Eldorado",
        "street": "Rua Clauco Jorge Brayer",
        "zipcode": "83206-538"
    },
    {
        "city": "Paranaguá",
        "state": "PR",
        "district": "Eldorado",
        "street": "Rua Levi Victorino Picanço",
        "zipcode": "83206-544"
    },
    {
        "city": "Paranaguá",
        "state": "PR",
        "district": "Emboguaçu",
        "street": "Avenida Ayrton Senna da Silva",
        "zipcode": "83209-100"
    },
    {
        "city": "Paranaguá",
        "state": "PR",
        "district": "Alto São Sebastião",
        "street": "Rua Maneco Viana",
        "zipcode": "83206-981"
    },
    {
        "city": "Paranaguá",
        "state": "PR",
        "district": null,
        "street": "Rua Projetada",
        "zipcode": "83206-990"
    },
    {
        "city": "Paranaguá",
        "state": "PR",
        "district": "Estradinha",
        "street": "Alameda Coronel Elysio Pereira",
        "zipcode": "83206-900"
    },
    {
        "city": "Paranaguá",
        "state": "PR",
        "district": "Vila São Vicente",
        "street": "Travessa Márcio Rauscher",
        "zipcode": "83209-155"
    },
    {
        "city": "Paranaguá",
        "state": "PR",
        "district": "Vila São Vicente",
        "street": "Rua Rodolfo Affolter",
        "zipcode": "83209-158"
    },
    {
        "city": "Paranaguá",
        "state": "PR",
        "district": "Vila São Vicente",
        "street": "Rua Cidenes de Paula",
        "zipcode": "83209-159"
    },
    {
        "city": "Paranaguá",
        "state": "PR",
        "district": "Emboguaçu",
        "street": "Rua Balduína de Andrade Lobo",
        "zipcode": "83209-025"
    },
    {
        "city": "Paranaguá",
        "state": "PR",
        "district": "Jardim Guaraituba",
        "street": "Travessa Timóteo Alves Marinho",
        "zipcode": "83209-295"
    },
    {
        "city": "Paranaguá",
        "state": "PR",
        "district": "Jardim Guaraituba",
        "street": "Travessa Soldado Alípio Ferreira de Amorim",
        "zipcode": "83209-297"
    },
    {
        "city": "Paranaguá",
        "state": "PR",
        "district": "Jardim Guaraituba",
        "street": "Acesso Pedro Efigênio Ribeiro",
        "zipcode": "83209-315"
    },
    {
        "city": "Paranaguá",
        "state": "PR",
        "district": "Emboguaçu",
        "street": "Acesso Astorga",
        "zipcode": "83209-016"
    },
    {
        "city": "Paranaguá",
        "state": "PR",
        "district": "Emboguaçu",
        "street": "Acesso Sarandi",
        "zipcode": "83209-014"
    },
    {
        "city": "Paranaguá",
        "state": "PR",
        "district": "Correia Velho",
        "street": "Travessa Glasir Machado Lima",
        "zipcode": "83206-368"
    },
    {
        "city": "Paranaguá",
        "state": "PR",
        "district": "Correia Velho",
        "street": "Rua Alfredo Budant",
        "zipcode": "83206-370"
    },
    {
        "city": "Paranaguá",
        "state": "PR",
        "district": "Alvorada",
        "street": "Rua Amim Mussi",
        "zipcode": "83206-310"
    },
    {
        "city": "Paranaguá",
        "state": "PR",
        "district": "Correia Velho",
        "street": "Rua Antônio Morais Pereira da Costa",
        "zipcode": "83206-400"
    },
    {
        "city": "Paranaguá",
        "state": "PR",
        "district": "Eldorado",
        "street": "Rua Bernardo Hartog",
        "zipcode": "83206-340"
    },
    {
        "city": "Paranaguá",
        "state": "PR",
        "district": "Estradinha",
        "street": "Rua Domingos Peneda",
        "zipcode": "83206-440"
    },
    {
        "city": "Paranaguá",
        "state": "PR",
        "district": "Vila Itiberê",
        "street": "Rua E",
        "zipcode": "83206-345"
    },
    {
        "city": "Paranaguá",
        "state": "PR",
        "district": "Estradinha",
        "street": "Rua dos Expedicionários",
        "zipcode": "83206-450"
    },
    {
        "city": "Paranaguá",
        "state": "PR",
        "district": "Bockmann",
        "street": "Rua Joaquim Tigre",
        "zipcode": "83206-286"
    },
    {
        "city": "Paranaguá",
        "state": "PR",
        "district": "Alvorada",
        "street": "Rua Major Ernâni Vidal",
        "zipcode": "83206-315"
    },
    {
        "city": "Paranaguá",
        "state": "PR",
        "district": "Vila São Vicente",
        "street": "Rua Francelina França",
        "zipcode": "83209-215"
    },
    {
        "city": "Paranaguá",
        "state": "PR",
        "district": "Correia Velho",
        "street": "Rua Nicolau Mader",
        "zipcode": "83206-360"
    },
    {
        "city": "Paranaguá",
        "state": "PR",
        "district": "Bockmann",
        "street": "Rua Professor Randolfo Arzua",
        "zipcode": "83206-284"
    },
    {
        "city": "Paranaguá",
        "state": "PR",
        "district": "Alvorada",
        "street": "Travessa República do Líbano",
        "zipcode": "83206-300"
    },
    {
        "city": "Paranaguá",
        "state": "PR",
        "district": "Bockmann",
        "street": "Rua Soares Gomes",
        "zipcode": "83206-290"
    },
    {
        "city": "Paranaguá",
        "state": "PR",
        "district": "Vila Itiberê",
        "street": "Rua Coronel Alberto Gomes Veiga",
        "zipcode": "83206-355"
    },
    {
        "city": "Paranaguá",
        "state": "PR",
        "district": "Estradinha",
        "street": "Rua Osmar Pereira",
        "zipcode": "83206-445"
    },
    {
        "city": "Paranaguá",
        "state": "PR",
        "district": "Estradinha",
        "street": "Rua Márcio N. Gonçalves",
        "zipcode": "83206-466"
    },
    {
        "city": "Paranaguá",
        "state": "PR",
        "district": "Correia Velho",
        "street": "Rua José Reis de Freitas",
        "zipcode": "83206-364"
    },
    {
        "city": "Paranaguá",
        "state": "PR",
        "district": "Correia Velho",
        "street": "Travessa da Harmonia",
        "zipcode": "83206-366"
    },
    {
        "city": "Paranaguá",
        "state": "PR",
        "district": "Emboguaçu",
        "street": "Rua Santa Cecília",
        "zipcode": "83209-026"
    },
    {
        "city": "Paranaguá",
        "state": "PR",
        "district": "Estradinha",
        "street": "Rua João Picanço Júnior",
        "zipcode": "83206-446"
    },
    {
        "city": "Paranaguá",
        "state": "PR",
        "district": "Estradinha",
        "street": "Rua Wilson Nascimento de Freitas",
        "zipcode": "83206-447"
    },
    {
        "city": "Paranaguá",
        "state": "PR",
        "district": "Estradinha",
        "street": "Travessa Leo César Manso da Silva",
        "zipcode": "83206-448"
    },
    {
        "city": "Paranaguá",
        "state": "PR",
        "district": "Estradinha",
        "street": "Rua Dona Mariquinha J. Ramos",
        "zipcode": "83206-465"
    },
    {
        "city": "Paranaguá",
        "state": "PR",
        "district": "Eldorado",
        "street": "Rua Euler Monteiro Carneiro da Cunha",
        "zipcode": "83206-490"
    },
    {
        "city": "Paranaguá",
        "state": "PR",
        "district": "Eldorado",
        "street": "Rua Osmar Schmidt Júnior",
        "zipcode": "83206-502"
    },
    {
        "city": "Paranaguá",
        "state": "PR",
        "district": "Eldorado",
        "street": "Rua Caio Lúcio Tramujas",
        "zipcode": "83206-504"
    },
    {
        "city": "Paranaguá",
        "state": "PR",
        "district": "Eldorado",
        "street": "Rua Ruy Fernando da Silva Câmara",
        "zipcode": "83206-506"
    },
    {
        "city": "Paranaguá",
        "state": "PR",
        "district": "Eldorado",
        "street": "Rua Cláudio Luiz Chapaval",
        "zipcode": "83206-508"
    },
    {
        "city": "Paranaguá",
        "state": "PR",
        "district": "Eldorado",
        "street": "Rua Débora Cristina Jamnik",
        "zipcode": "83206-522"
    },
    {
        "city": "Paranaguá",
        "state": "PR",
        "district": "Eldorado",
        "street": "Rua Mário Villa",
        "zipcode": "83206-526"
    },
    {
        "city": "Paranaguá",
        "state": "PR",
        "district": "Vila Itiberê",
        "street": "Rua Dois de Julho",
        "zipcode": "83206-358"
    },
    {
        "city": "Paranaguá",
        "state": "PR",
        "district": "Bockmann",
        "street": "Rua Manoel Pereira",
        "zipcode": "83206-282"
    },
    {
        "city": "Paranaguá",
        "state": "PR",
        "district": "Eldorado",
        "street": "Travessa Marijúlia Rodrigues da Cunha",
        "zipcode": "83206-492"
    },
    {
        "city": "Paranaguá",
        "state": "PR",
        "district": "Eldorado",
        "street": "Rua Jorge Eliseo Marcondes",
        "zipcode": "83206-546"
    },
    {
        "city": "Paranaguá",
        "state": "PR",
        "district": "Eldorado",
        "street": "Travessa Rafael dos Santos Souza",
        "zipcode": "83206-494"
    },
    {
        "city": "Paranaguá",
        "state": "PR",
        "district": "Centro Histórico",
        "street": "Rua Mahmoud Mansur Said",
        "zipcode": "83203-095"
    },
    {
        "city": "Paranaguá",
        "state": "PR",
        "district": "Eldorado",
        "street": "Rua William Frank Van Herp",
        "zipcode": "83206-514"
    },
    {
        "city": "Paranaguá",
        "state": "PR",
        "district": "Alvorada",
        "street": "Rua Manoel Pereira",
        "zipcode": "83206-322"
    },
    {
        "city": "Paranaguá",
        "state": "PR",
        "district": "Eldorado",
        "street": "Rua Manoel Pereira",
        "zipcode": "83206-338"
    },
    {
        "city": "Paranaguá",
        "state": "PR",
        "district": "Eldorado",
        "street": "Rua Lary Targa",
        "zipcode": "83206-334"
    },
    {
        "city": "Paranaguá",
        "state": "PR",
        "district": "Industrial",
        "street": "Avenida Ayrton Senna da Silva",
        "zipcode": "83206-410"
    },
    {
        "city": "Paranaguá",
        "state": "PR",
        "district": "Emboguaçu",
        "street": "Rua Sesinando Benckendorf",
        "zipcode": "83206-420"
    },
    {
        "city": "Paranaguá",
        "state": "PR",
        "district": "Aeroporto",
        "street": "Travessa João Zanicoski",
        "zipcode": "83209-005"
    },
    {
        "city": "Paranaguá",
        "state": "PR",
        "district": "Vila Itiberê",
        "street": "Rua Celestinaldo Farias",
        "zipcode": "83206-356"
    },
    {
        "city": "Paranaguá",
        "state": "PR",
        "district": "Vila Itiberê",
        "street": "Rua Ludovico Micosz",
        "zipcode": "83206-348"
    },
    {
        "city": "Paranaguá",
        "state": "PR",
        "district": "Bockmann",
        "street": "Travessa Francisco Vicente Correa",
        "zipcode": "83206-289"
    },
    {
        "city": "Paranaguá",
        "state": "PR",
        "district": "Bockmann",
        "street": "Rua Luiz Carlos Prestes de Assunção",
        "zipcode": "83206-285"
    },
    {
        "city": "Paranaguá",
        "state": "PR",
        "district": "Bockmann",
        "street": "Acesso Ana Batista Araujo",
        "zipcode": "83206-262"
    },
    {
        "city": "Paranaguá",
        "state": "PR",
        "district": "Industrial",
        "street": "Rua Cipriano Mendes",
        "zipcode": "83203-789"
    },
    {
        "city": "Paranaguá",
        "state": "PR",
        "district": "Palmital",
        "street": "Acesso José de Jesus",
        "zipcode": "83206-114"
    },
    {
        "city": "Paranaguá",
        "state": "PR",
        "district": "Campo Grande",
        "street": "Rua Alexandre Bousquet",
        "zipcode": "83206-065"
    },
    {
        "city": "Paranaguá",
        "state": "PR",
        "district": "Estradinha",
        "street": "Rua Aníbal Dias Paiva",
        "zipcode": "83206-070"
    },
    {
        "city": "Paranaguá",
        "state": "PR",
        "district": "Palmital",
        "street": "Rua Anthero Régis Pereira da Costa",
        "zipcode": "83206-100"
    },
    {
        "city": "Paranaguá",
        "state": "PR",
        "district": "Estradinha",
        "street": "Rua Alípio dos Santos",
        "zipcode": "83206-040"
    },
    {
        "city": "Paranaguá",
        "state": "PR",
        "district": "Palmital",
        "street": "Rua Arthur Bernardes",
        "zipcode": "83206-110"
    },
    {
        "city": "Paranaguá",
        "state": "PR",
        "district": "Campo Grande",
        "street": "Rua Baronesa do Cerro Azul",
        "zipcode": "83206-225"
    },
    {
        "city": "Paranaguá",
        "state": "PR",
        "district": "Bockmann",
        "street": "Rua Cesalpino Passos",
        "zipcode": "83206-265"
    },
    {
        "city": "Paranaguá",
        "state": "PR",
        "district": "Parque São João",
        "street": "Rua Holliens de Oliveira",
        "zipcode": "83212-140"
    },
    {
        "city": "Paranaguá",
        "state": "PR",
        "district": "Estradinha",
        "street": "Alameda Coronel Elysio Pereira",
        "zipcode": "83206-000"
    },
    {
        "city": "Paranaguá",
        "state": "PR",
        "district": "Raia",
        "street": "Rua Doutor Arthur de Souza Costa",
        "zipcode": "83206-210"
    },
    {
        "city": "Paranaguá",
        "state": "PR",
        "district": "Emboguaçu",
        "street": "Rua Nelson da Rocha",
        "zipcode": "83209-042"
    },
    {
        "city": "Paranaguá",
        "state": "PR",
        "district": "Eldorado",
        "street": "Rua Thomaz Theófilo da Cunha",
        "zipcode": "83206-496"
    },
    {
        "city": "Paranaguá",
        "state": "PR",
        "district": "Eldorado",
        "street": "Rua Leocádio Maia Filho",
        "zipcode": "83206-520"
    },
    {
        "city": "Paranaguá",
        "state": "PR",
        "district": "Eldorado",
        "street": "Travessa Engenheiro Fernando Charbub Farah",
        "zipcode": "83206-500"
    },
    {
        "city": "Paranaguá",
        "state": "PR",
        "district": "Bockmann",
        "street": "Estrada do Bockmann",
        "zipcode": "83206-260"
    },
    {
        "city": "Paranaguá",
        "state": "PR",
        "district": "Alvorada",
        "street": "Rua Francisco da Gama e Silva",
        "zipcode": "83206-096"
    },
    {
        "city": "Paranaguá",
        "state": "PR",
        "district": "Palmital",
        "street": "Travessa Jarbas Nery Chichorro",
        "zipcode": "83206-170"
    },
    {
        "city": "Paranaguá",
        "state": "PR",
        "district": "Palmital",
        "street": "Rua Joaquim Fraga de Oliveira",
        "zipcode": "83206-160"
    },
    {
        "city": "Paranaguá",
        "state": "PR",
        "district": "Alvorada",
        "street": "Rua Júlio do Rosário Passos",
        "zipcode": "83206-320"
    },
    {
        "city": "Paranaguá",
        "state": "PR",
        "district": "Industrial",
        "street": "Rua Luiz Cordeiro",
        "zipcode": "83203-790"
    },
    {
        "city": "Paranaguá",
        "state": "PR",
        "district": "Alto São Sebastião",
        "street": "Rua Maneco Viana",
        "zipcode": "83206-250"
    },
    {
        "city": "Paranaguá",
        "state": "PR",
        "district": "Palmital",
        "street": "Rua Manoel Corrêa",
        "zipcode": "83206-030"
    },
    {
        "city": "Paranaguá",
        "state": "PR",
        "district": "Estradinha",
        "street": "Rua Ildefonso Munhoz da Rocha",
        "zipcode": "83206-090"
    },
    {
        "city": "Paranaguá",
        "state": "PR",
        "district": "Raia",
        "street": "Rua José Maria Whitaker",
        "zipcode": "83206-240"
    },
    {
        "city": "Paranaguá",
        "state": "PR",
        "district": "29 de Julho",
        "street": "Travessa Maria de Lourdes Morozowski",
        "zipcode": "83203-775"
    },
    {
        "city": "Paranaguá",
        "state": "PR",
        "district": "Raia",
        "street": "Rua Miguel Nicolau Anastácio",
        "zipcode": "83206-220"
    },
    {
        "city": "Paranaguá",
        "state": "PR",
        "district": "Raia",
        "street": "Rua Professor Randolfo Arzua",
        "zipcode": "83206-204"
    },
    {
        "city": "Paranaguá",
        "state": "PR",
        "district": "Bockmann",
        "street": "Rua Professora Eleosina Plaisant",
        "zipcode": "83206-270"
    },
    {
        "city": "Paranaguá",
        "state": "PR",
        "district": "29 de Julho",
        "street": "Rua Soares Gomes",
        "zipcode": "83203-770"
    },
    {
        "city": "Paranaguá",
        "state": "PR",
        "district": "Estradinha",
        "street": "Rua Presidente Getúlio Vargas",
        "zipcode": "83206-020"
    },
    {
        "city": "Paranaguá",
        "state": "PR",
        "district": "29 de Julho",
        "street": "Rua Conselheiro Corrêa",
        "zipcode": "83203-780"
    },
    {
        "city": "Paranaguá",
        "state": "PR",
        "district": "Raia",
        "street": "Rua Desembargador Lauro Lopes",
        "zipcode": "83206-245"
    },
    {
        "city": "Paranaguá",
        "state": "PR",
        "district": "Raia",
        "street": "Rua Lauro Gomes da Veiga Pessoa",
        "zipcode": "83206-235"
    },
    {
        "city": "Paranaguá",
        "state": "PR",
        "district": "Bockmann",
        "street": "Rua José Martins do Carmo",
        "zipcode": "83206-275"
    },
    {
        "city": "Paranaguá",
        "state": "PR",
        "district": "Palmital",
        "street": "Travessa Edmundo Werner Neto",
        "zipcode": "83206-045"
    },
    {
        "city": "Paranaguá",
        "state": "PR",
        "district": "Bockmann",
        "street": "Rua Conselheiro Corrêa",
        "zipcode": "83206-280"
    },
    {
        "city": "Paranaguá",
        "state": "PR",
        "district": "Bockmann",
        "street": "Travessa Júlio Veiga Mendes",
        "zipcode": "83206-288"
    },
    {
        "city": "Paranaguá",
        "state": "PR",
        "district": "Vila Itiberê",
        "street": "Rua José Leite de Farias",
        "zipcode": "83206-357"
    },
    {
        "city": "Paranaguá",
        "state": "PR",
        "district": "Vila Itiberê",
        "street": "Rua Laura dos Santos Dias",
        "zipcode": "83206-352"
    },
    {
        "city": "Paranaguá",
        "state": "PR",
        "district": "Leblon",
        "street": "Rua Manoel Pereira",
        "zipcode": "83203-741"
    },
    {
        "city": "Paranaguá",
        "state": "PR",
        "district": "Raia",
        "street": "Rua Manoel Pereira",
        "zipcode": "83206-200"
    },
    {
        "city": "Paranaguá",
        "state": "PR",
        "district": "29 de Julho",
        "street": "Rua Manoel Pereira",
        "zipcode": "83203-765"
    },
    {
        "city": "Paranaguá",
        "state": "PR",
        "district": "Centro Histórico",
        "street": "Avenida Arthur de Abreu",
        "zipcode": "83203-970"
    },
    {
        "city": "Paranaguá",
        "state": "PR",
        "district": "João Gualberto",
        "street": "Rua José Gomes",
        "zipcode": "83204-970"
    },
    {
        "city": "Paranaguá",
        "state": "PR",
        "district": "Alto São Sebastião",
        "street": "Avenida Gabriel de Lara",
        "zipcode": "83203-737"
    },
    {
        "city": "Paranaguá",
        "state": "PR",
        "district": "Leblon",
        "street": "Avenida Gabriel de Lara",
        "zipcode": "83203-742"
    },
    {
        "city": "Paranaguá",
        "state": "PR",
        "district": "29 de Julho",
        "street": "Rua Comendador Correia Júnior",
        "zipcode": "83203-762"
    },
    {
        "city": "Paranaguá",
        "state": "PR",
        "district": "Raia",
        "street": "Rua Aroldo Antunes dos Santos",
        "zipcode": "83206-192"
    },
    {
        "city": "Paranaguá",
        "state": "PR",
        "district": "Palmital",
        "street": "Acesso Waldemar Ribeiro",
        "zipcode": "83206-112"
    },
    {
        "city": "Paranaguá",
        "state": "PR",
        "district": "João Gualberto",
        "street": "Acesso Loyola Nascimento",
        "zipcode": "83203-548"
    },
    {
        "city": "Paranaguá",
        "state": "PR",
        "district": "Costeira",
        "street": "Rua William de Paula Coelho",
        "zipcode": "83203-402"
    },
    {
        "city": "Paranaguá",
        "state": "PR",
        "district": "Campo Grande",
        "street": "Rua Ada Macaggi",
        "zipcode": "83203-720"
    },
    {
        "city": "Paranaguá",
        "state": "PR",
        "district": "João Gualberto",
        "street": "Rua Doutor Antônio Fontes",
        "zipcode": "83203-600"
    },
    {
        "city": "Paranaguá",
        "state": "PR",
        "district": "Industrial",
        "street": "Rua Aristides de Oliveira",
        "zipcode": "83203-695"
    },
    {
        "city": "Paranaguá",
        "state": "PR",
        "district": "Costeira",
        "street": "Rua Barão do Rio Branco",
        "zipcode": "83203-430"
    },
    {
        "city": "Paranaguá",
        "state": "PR",
        "district": "Costeira",
        "street": "Rua Baronesa do Cerro Azul",
        "zipcode": "83203-420"
    },
    {
        "city": "Paranaguá",
        "state": "PR",
        "district": "Alvorada",
        "street": "Praça Doutor Belmiro Saldanha da Rocha",
        "zipcode": "83206-095"
    },
    {
        "city": "Paranaguá",
        "state": "PR",
        "district": "Oceania",
        "street": "Rua Caetano Gomes Corrêa",
        "zipcode": "83203-350"
    },
    {
        "city": "Paranaguá",
        "state": "PR",
        "district": "João Gualberto",
        "street": "Rua Vereador Salim Jorge Chede",
        "zipcode": "83203-590"
    },
    {
        "city": "Paranaguá",
        "state": "PR",
        "district": "Leblon",
        "street": "Rua Evaristo Logoth do Nascimento",
        "zipcode": "83203-760"
    },
    {
        "city": "Paranaguá",
        "state": "PR",
        "district": "Campo Grande",
        "street": "Rua Florêncio Viana",
        "zipcode": "83203-715"
    },
    {
        "city": "Paranaguá",
        "state": "PR",
        "district": "João Gualberto",
        "street": "Avenida Gabriel de Lara",
        "zipcode": "83203-550"
    },
    {
        "city": "Paranaguá",
        "state": "PR",
        "district": "Costeira",
        "street": "Travessa Genaro Régis",
        "zipcode": "83203-520"
    },
    {
        "city": "Paranaguá",
        "state": "PR",
        "district": "Oceania",
        "street": "Rua Desembargador Ermelino de Leão",
        "zipcode": "83203-380"
    },
    {
        "city": "Paranaguá",
        "state": "PR",
        "district": "Campo Grande",
        "street": "Rua Guadalajara",
        "zipcode": "83203-710"
    },
    {
        "city": "Paranaguá",
        "state": "PR",
        "district": "Leblon",
        "street": "Rua Jader de Azevedo Vidal",
        "zipcode": "83203-750"
    },
    {
        "city": "Paranaguá",
        "state": "PR",
        "district": "Costeira",
        "street": "Rua João Pessoa",
        "zipcode": "83203-500"
    },
    {
        "city": "Paranaguá",
        "state": "PR",
        "district": "Leblon",
        "street": "Rua Joaquim Xavier Neves",
        "zipcode": "83203-740"
    },
    {
        "city": "Paranaguá",
        "state": "PR",
        "district": "Tuiuti",
        "street": "Avenida Coronel Santa Rita",
        "zipcode": "83203-630"
    },
    {
        "city": "Paranaguá",
        "state": "PR",
        "district": "Palmital",
        "street": "Rua Jacy Pereira Passos",
        "zipcode": "83206-140"
    },
    {
        "city": "Paranaguá",
        "state": "PR",
        "district": "Tuiuti",
        "street": "Rua Joaquim Ferreira Barbosa",
        "zipcode": "83203-640"
    },
    {
        "city": "Paranaguá",
        "state": "PR",
        "district": "Costeira",
        "street": "Rua Manoel Corrêa",
        "zipcode": "83203-410"
    },
    {
        "city": "Paranaguá",
        "state": "PR",
        "district": "João Gualberto",
        "street": "Rua José Gomes",
        "zipcode": "83203-610"
    },
    {
        "city": "Paranaguá",
        "state": "PR",
        "district": "Tuiuti",
        "street": "Rua José Tramujas",
        "zipcode": "83203-650"
    },
    {
        "city": "Paranaguá",
        "state": "PR",
        "district": "Oceania",
        "street": "Rua Marechal Floriano",
        "zipcode": "83203-390"
    },
    {
        "city": "Paranaguá",
        "state": "PR",
        "district": "João Gualberto",
        "street": "Rua Nestor Victor",
        "zipcode": "83203-540"
    },
    {
        "city": "Paranaguá",
        "state": "PR",
        "district": "Estradinha",
        "street": "Rua Ivo Silva",
        "zipcode": "83206-005"
    },
    {
        "city": "Paranaguá",
        "state": "PR",
        "district": "Costeira",
        "street": "Travessa Nilson Pereira Neves Filho",
        "zipcode": "83203-460"
    },
    {
        "city": "Paranaguá",
        "state": "PR",
        "district": "Campo Grande",
        "street": "Rua Padre Albino",
        "zipcode": "83203-705"
    },
    {
        "city": "Paranaguá",
        "state": "PR",
        "district": "Campo Grande",
        "street": "Praça da Paz",
        "zipcode": "83203-700"
    },
    {
        "city": "Paranaguá",
        "state": "PR",
        "district": "Costeira",
        "street": "Rua Theodorico dos Santos",
        "zipcode": "83203-450"
    },
    {
        "city": "Paranaguá",
        "state": "PR",
        "district": "Oceania",
        "street": "Rua Iranor Norberto Jamnik",
        "zipcode": "83203-370"
    },
    {
        "city": "Paranaguá",
        "state": "PR",
        "district": "Campo Grande",
        "street": "Rua Vereador Felipe Antunes",
        "zipcode": "83203-690"
    },
    {
        "city": "Paranaguá",
        "state": "PR",
        "district": "Tuiuti",
        "street": "Rua Vereador Jorge Vasilakis",
        "zipcode": "83203-660"
    },
    {
        "city": "Paranaguá",
        "state": "PR",
        "district": "Tuiuti",
        "street": "Rua Xavier da Silva",
        "zipcode": "83203-620"
    },
    {
        "city": "Paranaguá",
        "state": "PR",
        "district": "Palmital",
        "street": "Rua Amália de Oliveira Morais",
        "zipcode": "83206-180"
    },
    {
        "city": "Paranaguá",
        "state": "PR",
        "district": "Alto São Sebastião",
        "street": "Rua Zenon Pereira Leite",
        "zipcode": "83203-730"
    },
    {
        "city": "Paranaguá",
        "state": "PR",
        "district": "Costeira",
        "street": "Rua João Eugênio",
        "zipcode": "83203-400"
    },
    {
        "city": "Paranaguá",
        "state": "PR",
        "district": "Palmital",
        "street": "Travessa Roge da Costa",
        "zipcode": "83206-130"
    },
    {
        "city": "Paranaguá",
        "state": "PR",
        "district": "Campo Grande",
        "street": "Rua Leonor Bonaldi Scomasson",
        "zipcode": "83203-716"
    },
    {
        "city": "Paranaguá",
        "state": "PR",
        "district": "Costeira",
        "street": "Rua José Alves",
        "zipcode": "83203-455"
    },
    {
        "city": "Paranaguá",
        "state": "PR",
        "district": "Estradinha",
        "street": "Rua Alcindo Alves",
        "zipcode": "83206-015"
    },
    {
        "city": "Paranaguá",
        "state": "PR",
        "district": "Costeira",
        "street": "Acesso Nelson do Nascimento",
        "zipcode": "83203-453"
    },
    {
        "city": "Paranaguá",
        "state": "PR",
        "district": "Costeira",
        "street": "Rua Zito Manoel Mendes",
        "zipcode": "83203-457"
    },
    {
        "city": "Paranaguá",
        "state": "PR",
        "district": "Centro Histórico",
        "street": "Praça Acrísio Guimarães",
        "zipcode": "83203-305"
    },
    {
        "city": "Paranaguá",
        "state": "PR",
        "district": "Centro Histórico",
        "street": "Avenida Arthur de Abreu",
        "zipcode": "83203-210"
    },
    {
        "city": "Paranaguá",
        "state": "PR",
        "district": "Centro Histórico",
        "street": "Rua Benjamin Constant",
        "zipcode": "83203-190"
    },
    {
        "city": "Paranaguá",
        "state": "PR",
        "district": "Centro Histórico",
        "street": "Rua Cinco de Junho",
        "zipcode": "83203-140"
    },
    {
        "city": "Paranaguá",
        "state": "PR",
        "district": "Alto São Sebastião",
        "street": "Rua Manoel Pereira",
        "zipcode": "83203-739"
    },
    {
        "city": "Paranaguá",
        "state": "PR",
        "district": "Centro Histórico",
        "street": "Rua Coronel Antônio Bittencourt",
        "zipcode": "83203-130"
    },
    {
        "city": "Paranaguá",
        "state": "PR",
        "district": "Oceania",
        "street": "Avenida Coronel José Lobo",
        "zipcode": "83203-340"
    },
    {
        "city": "Paranaguá",
        "state": "PR",
        "district": "Centro Histórico",
        "street": "Travessa Correia de Freitas",
        "zipcode": "83203-260"
    },
    {
        "city": "Paranaguá",
        "state": "PR",
        "district": "Campo Grande",
        "street": "Rua Doutor Simão Aisemann",
        "zipcode": "83203-680"
    },
    {
        "city": "Paranaguá",
        "state": "PR",
        "district": "Centro Histórico",
        "street": "Rua Conselheiro Sinimbú",
        "zipcode": "83203-030"
    },
    {
        "city": "Paranaguá",
        "state": "PR",
        "district": "Centro Histórico",
        "street": "Rua Doutor Leocádio",
        "zipcode": "83203-270"
    },
    {
        "city": "Paranaguá",
        "state": "PR",
        "district": "Tuiuti",
        "street": "Travessa dos Estivadores",
        "zipcode": "83203-670"
    },
    {
        "city": "Paranaguá",
        "state": "PR",
        "district": "Centro Histórico",
        "street": "Praça Eufrásio Correia",
        "zipcode": "83203-300"
    },
    {
        "city": "Paranaguá",
        "state": "PR",
        "district": "Centro Histórico",
        "street": "Rua Faria Sobrinho",
        "zipcode": "83203-000"
    },
    {
        "city": "Paranaguá",
        "state": "PR",
        "district": "Centro Histórico",
        "street": "Rua Fernando Simas",
        "zipcode": "83203-090"
    },
    {
        "city": "Paranaguá",
        "state": "PR",
        "district": "Centro Histórico",
        "street": "Largo Iria Corrêa",
        "zipcode": "83203-115"
    },
    {
        "city": "Paranaguá",
        "state": "PR",
        "district": "Centro Histórico",
        "street": "Praça Japão",
        "zipcode": "83203-160"
    },
    {
        "city": "Paranaguá",
        "state": "PR",
        "district": "Centro Histórico",
        "street": "Rua João Estêvão",
        "zipcode": "83203-020"
    },
    {
        "city": "Paranaguá",
        "state": "PR",
        "district": "João Gualberto",
        "street": "Praça João Gualberto",
        "zipcode": "83203-545"
    },
    {
        "city": "Paranaguá",
        "state": "PR",
        "district": "Centro Histórico",
        "street": "Rua João Régis",
        "zipcode": "83203-100"
    },
    {
        "city": "Paranaguá",
        "state": "PR",
        "district": "Costeira",
        "street": "Travessa Jamil Buffara",
        "zipcode": "83203-510"
    },
    {
        "city": "Paranaguá",
        "state": "PR",
        "district": "Centro Histórico",
        "street": "Rua Júlia da Costa",
        "zipcode": "83203-060"
    },
    {
        "city": "Paranaguá",
        "state": "PR",
        "district": "Costeira",
        "street": "Rua Justo Eris Almada Insfran",
        "zipcode": "83203-490"
    },
    {
        "city": "Paranaguá",
        "state": "PR",
        "district": "Centro Histórico",
        "street": "Rua Manoel Bonifácio",
        "zipcode": "83203-150"
    },
    {
        "city": "Paranaguá",
        "state": "PR",
        "district": "Centro Histórico",
        "street": "Rua Desembargador Hugo Simas",
        "zipcode": "83203-250"
    },
    {
        "city": "Paranaguá",
        "state": "PR",
        "district": "Centro Histórico",
        "street": "Rua Marechal Alberto de Abreu",
        "zipcode": "83203-240"
    },
    {
        "city": "Paranaguá",
        "state": "PR",
        "district": "Centro Histórico",
        "street": "Rua Mestre Leopoldino",
        "zipcode": "83203-120"
    },
    {
        "city": "Paranaguá",
        "state": "PR",
        "district": "João Gualberto",
        "street": "Rua Oswaldo Rodrigues Branco",
        "zipcode": "83203-580"
    },
    {
        "city": "Paranaguá",
        "state": "PR",
        "district": "Costeira",
        "street": "Rua Maria Cândida de Souza Lobo",
        "zipcode": "83203-440"
    },
    {
        "city": "Paranaguá",
        "state": "PR",
        "district": "Centro Histórico",
        "street": "Rua Princesa Isabel",
        "zipcode": "83203-200"
    },
    {
        "city": "Paranaguá",
        "state": "PR",
        "district": "Centro Histórico",
        "street": "Rua Rodrigues Alves",
        "zipcode": "83203-170"
    },
    {
        "city": "Paranaguá",
        "state": "PR",
        "district": "João Gualberto",
        "street": "Travessa Rotary",
        "zipcode": "83203-570"
    },
    {
        "city": "Paranaguá",
        "state": "PR",
        "district": "Centro Histórico",
        "street": "Rua Vieira dos Santos",
        "zipcode": "83203-050"
    },
    {
        "city": "Paranaguá",
        "state": "PR",
        "district": "Centro Histórico",
        "street": "Ladeira Vinte e Nove de Julho",
        "zipcode": "83203-075"
    },
    {
        "city": "Paranaguá",
        "state": "PR",
        "district": "Centro Histórico",
        "street": "Rua Itiberê de Lima",
        "zipcode": "83203-110"
    },
    {
        "city": "Paranaguá",
        "state": "PR",
        "district": "Centro Histórico",
        "street": "Rua Pecêgo Júnior",
        "zipcode": "83203-310"
    },
    {
        "city": "Paranaguá",
        "state": "PR",
        "district": "Centro Histórico",
        "street": "Rua Quinze de Novembro",
        "zipcode": "83203-010"
    },
    {
        "city": "Paranaguá",
        "state": "PR",
        "district": "Centro Histórico",
        "street": "Rua Sete de Setembro",
        "zipcode": "83203-080"
    },
    {
        "city": "Paranaguá",
        "state": "PR",
        "district": "Centro Histórico",
        "street": "Rua Sully da Rosa Vilarinho",
        "zipcode": "83203-320"
    },
    {
        "city": "Paranaguá",
        "state": "PR",
        "district": "Costeira",
        "street": "Rua Anna dos Santos Bara",
        "zipcode": "83203-530"
    },
    {
        "city": "Paranaguá",
        "state": "PR",
        "district": "Centro Histórico",
        "street": "Rua Marechal Deodoro",
        "zipcode": "83203-040"
    },
    {
        "city": "Paranaguá",
        "state": "PR",
        "district": "Ponta do Caju",
        "street": "Rua Clementina G. Ferreira",
        "zipcode": "83203-135"
    },
    {
        "city": "Paranaguá",
        "state": "PR",
        "district": "Costeira",
        "street": "Travessa Paulo Jorge da Costa Martins",
        "zipcode": "83203-415"
    },
    {
        "city": "Paranaguá",
        "state": "PR",
        "district": "Bockmann",
        "street": "Rua Zenon P. da Costa",
        "zipcode": "83203-435"
    },
    {
        "city": "Paranaguá",
        "state": "PR",
        "district": "29 de Julho",
        "street": "Rua Ezequiel Pinto da Silva",
        "zipcode": "83203-555"
    },
    {
        "city": "Paranaguá",
        "state": "PR",
        "district": "João Gualberto",
        "street": "Praça Professor Alceu de Oliveira Toledo",
        "zipcode": "83203-595"
    },
    {
        "city": "Paranaguá",
        "state": "PR",
        "district": "Centro Histórico",
        "street": "Rua Visconde de Nacar",
        "zipcode": "83203-180"
    },
    {
        "city": "Paranaguá",
        "state": "PR",
        "district": "Ponta do Caju",
        "street": "Rua Gerson Constantino",
        "zipcode": "83203-137"
    },
    {
        "city": "Paranaguá",
        "state": "PR",
        "district": "Porto dos Padres",
        "street": "Rua Lourival Mendes",
        "zipcode": "83221-192"
    },
    {
        "city": "Paranaguá",
        "state": "PR",
        "district": "Jardim Ouro Fino",
        "street": "Rua Topázio",
        "zipcode": "83215-724"
    },
    {
        "city": "Paranaguá",
        "state": "PR",
        "district": "Jardim Iguaçu",
        "street": "Rua Dois",
        "zipcode": "83210-311"
    },
    {
        "city": "Paranaguá",
        "state": "PR",
        "district": null,
        "street": "PR",
        "zipcode": "83251-994"
    },
    {
        "city": "Paranaguá",
        "state": "PR",
        "district": "Ponta do Caju",
        "street": "Rua Vilson Brito",
        "zipcode": "83203-133"
    },
    {
        "city": "Paranaguá",
        "state": "PR",
        "district": "Vila Rute",
        "street": "Rua Francisco Raimundo de Assis",
        "zipcode": "83221-738"
    },
    {
        "city": "Paranaguá",
        "state": "PR",
        "district": "Jardim Iguaçu",
        "street": "Rua Ermínia Soares",
        "zipcode": "83210-190"
    },
    {
        "city": "Paranaguá",
        "state": "PR",
        "district": "Jardim Iguaçu",
        "street": "Rua Nei da Silva",
        "zipcode": "83210-192"
    },
    {
        "city": "Paranaguá",
        "state": "PR",
        "district": "Vila São Vicente",
        "street": "Rua Druzino Salles Bitencourt",
        "zipcode": "83209-204"
    },
    {
        "city": "Paranaguá",
        "state": "PR",
        "district": "Vila São Carlos",
        "street": "Rua São Pedro",
        "zipcode": "83209-550"
    },
    {
        "city": "Paranaguá",
        "state": "PR",
        "district": "Palmital",
        "street": "Acesso Antônio Vanhoni",
        "zipcode": "83206-102"
    },
    {
        "city": "Paranaguá",
        "state": "PR",
        "district": "Estradinha",
        "street": "Travessa José de Félix",
        "zipcode": "83206-055"
    },
    {
        "city": "Paranaguá",
        "state": "PR",
        "district": "Vila Cruzeiro",
        "street": "Rua Amilton Prudencio da Silva",
        "zipcode": "83221-344"
    },
    {
        "city": "Paranaguá",
        "state": "PR",
        "district": "Emboguaçu",
        "street": "Acesso Umuarama",
        "zipcode": "83209-028"
    },
    {
        "city": "Paranaguá",
        "state": "PR",
        "district": "Vila Portuaria",
        "street": "Rua Pastor José Martins Rodrigues",
        "zipcode": "83221-750"
    },
    {
        "city": "Paranaguá",
        "state": "PR",
        "district": "Vila Rute",
        "street": "Rua Fabiano Andreatta",
        "zipcode": "83221-734"
    },
    {
        "city": "Paranaguá",
        "state": "PR",
        "district": "Vila do Caic",
        "street": "Travessa Joaquim Gonçalves",
        "zipcode": "83215-683"
    },
    {
        "city": "Paranaguá",
        "state": "PR",
        "district": "Dom Pedro II",
        "street": "Rua Doutor Rego",
        "zipcode": "83221-575"
    },
    {
        "city": "Paranaguá",
        "state": "PR",
        "district": "Jardim Araçá",
        "street": "Rua Idílio Mendes",
        "zipcode": "83221-140"
    },
    {
        "city": "Paranaguá",
        "state": "PR",
        "district": "Leblon",
        "street": "Travessa do José Rizental",
        "zipcode": "83203-755"
    },
    {
        "city": "Paranaguá",
        "state": "PR",
        "district": "Vila Garcia",
        "street": "Rua Etelvina Correia",
        "zipcode": "83218-080"
    },
    {
        "city": "Paranaguá",
        "state": "PR",
        "district": "Vila dos Comerciários",
        "street": "Rua João Policarpo",
        "zipcode": "83215-020"
    },
    {
        "city": "Paranaguá",
        "state": "PR",
        "district": "Serraria do Rocha",
        "street": "Rua José Cadilhe",
        "zipcode": "83221-610"
    },
    {
        "city": "Paranaguá",
        "state": "PR",
        "district": "Costeira",
        "street": "Rua Miguel Buffara",
        "zipcode": "83203-480"
    },
    {
        "city": "Paranaguá",
        "state": "PR",
        "district": "Centro Histórico",
        "street": "Travessa Nove de Agosto",
        "zipcode": "83203-006"
    },
    {
        "city": "Paranaguá",
        "state": "PR",
        "district": "Estradinha",
        "street": "Rua Odilon Mader",
        "zipcode": "83206-080"
    },
    {
        "city": "Paranaguá",
        "state": "PR",
        "district": null,
        "street": "Praça Central",
        "zipcode": "83251-991"
    },
    {
        "city": "Paranaguá",
        "state": "PR",
        "district": "Eldorado",
        "street": "Rua Georges Mourad",
        "zipcode": "83206-518"
    },
    {
        "city": "Paranaguá",
        "state": "PR",
        "district": "Jardim Iguaçu",
        "street": "Rua Sessenta e Sete",
        "zipcode": "83210-376"
    },
    {
        "city": "Paranaguá",
        "state": "PR",
        "district": null,
        "street": "Rua Principal",
        "zipcode": "83218-991"
    },
    {
        "city": "Paranaguá",
        "state": "PR",
        "district": "Costeira",
        "street": "Rua Nicolau Farah",
        "zipcode": "83203-470"
    },
    {
        "city": "Paranaguá",
        "state": "PR",
        "district": "Centro Histórico",
        "street": "Rua Professor Cleto",
        "zipcode": "83203-070"
    },
    {
        "city": "Paranaguá",
        "state": "PR",
        "district": "Parque São João",
        "street": "Rua Renê Santos",
        "zipcode": "83212-200"
    },
    {
        "city": "Paranaguá",
        "state": "PR",
        "district": "Vila Alboitt",
        "street": "Estrada Velha do Rocio",
        "zipcode": "83221-595"
    },
    {
        "city": "Paranaguá",
        "state": "PR",
        "district": "Padre Jackson",
        "street": "Rua João Teixeira",
        "zipcode": "83221-280"
    },
    {
        "city": "Paranaguá",
        "state": "PR",
        "district": "Jardim Guaraituba",
        "street": "Rua Xingu",
        "zipcode": "83209-420"
    },
    {
        "city": "Paranaguá",
        "state": "PR",
        "district": "Vila Cruzeiro",
        "street": "Rua Sargento Ismail Ferreira da Silva",
        "zipcode": "83221-380"
    },
    {
        "city": "Paranaguá",
        "state": "PR",
        "district": "Conjunto Nilson Neves",
        "street": "Rua da Gardênia",
        "zipcode": "83215-395"
    },
    {
        "city": "Paranaguá",
        "state": "PR",
        "district": "Jardim Esperança",
        "street": "Rua dos Cisnes",
        "zipcode": "83218-240"
    },
    {
        "city": "Paranaguá",
        "state": "PR",
        "district": "Porto dos Padres",
        "street": "Rua Vilmar Gomes",
        "zipcode": "83221-195"
    },
    {
        "city": "Paranaguá",
        "state": "PR",
        "district": "Jardim Iguaçu",
        "street": "Rua Padre Adelir Antônio de Carli",
        "zipcode": "83210-006"
    },
    {
        "city": "Paranaguá",
        "state": "PR",
        "district": "Jardim Ouro Fino",
        "street": "Avenida das Pérolas",
        "zipcode": "83215-720"
    },
    {
        "city": "Paranaguá",
        "state": "PR",
        "district": "Jardim Ouro Fino",
        "street": "Avenida Engenheiro Leonel de Moura Brizola",
        "zipcode": "83215-700"
    },
    {
        "city": "Paranaguá",
        "state": "PR",
        "district": "Vila Rute",
        "street": "Rua Antônio Terezin Sampaio",
        "zipcode": "83221-736"
    },
    {
        "city": "Paranaguá",
        "state": "PR",
        "district": "Jardim Ouro Fino",
        "street": "Rua da Prata",
        "zipcode": "83215-728"
    },
    {
        "city": "Paranaguá",
        "state": "PR",
        "district": "Jardim Jacarandá",
        "street": "Rua Adail Teixeira de Mello",
        "zipcode": "83215-814"
    },
    {
        "city": "Paranaguá",
        "state": "PR",
        "district": "Vila dos Comerciários",
        "street": "Rua Milton Marques Vieira",
        "zipcode": "83215-085"
    },
    {
        "city": "Paranaguá",
        "state": "PR",
        "district": "Vila Itiberê",
        "street": "Rua Olário Guimarães",
        "zipcode": "83206-359"
    },
    {
        "city": "Paranaguá",
        "state": "PR",
        "district": "Vila São Carlos",
        "street": "Acesso Macapá",
        "zipcode": "83209-554"
    },
    {
        "city": "Paranaguá",
        "state": "PR",
        "district": "Conjunto Nilson Neves",
        "street": "Rua Amor",
        "zipcode": "83215-390"
    },
    {
        "city": "Paranaguá",
        "state": "PR",
        "district": "Vila Garcia",
        "street": "Rua Aníbal de Castro",
        "zipcode": "83218-170"
    },
    {
        "city": "Paranaguá",
        "state": "PR",
        "district": "Costeira",
        "street": "Rua Irmã Letícia",
        "zipcode": "83203-475"
    },
    {
        "city": "Paranaguá",
        "state": "PR",
        "district": "Emboguaçu",
        "street": "Avenida Marginal",
        "zipcode": "83209-090"
    },
    {
        "city": "Paranaguá",
        "state": "PR",
        "district": "Vila São Vicente",
        "street": "Rua Alacir Nedir marinho Correia",
        "zipcode": "83209-220"
    },
    {
        "city": "Paranaguá",
        "state": "PR",
        "district": "Vila Paranaguá",
        "street": "Rua Prefeito Roque Vernalha",
        "zipcode": "83221-000"
    },
    {
        "city": "Paranaguá",
        "state": "PR",
        "district": "Vila Garcia",
        "street": "Rua Alcemiro Luciano",
        "zipcode": "83218-160"
    },
    {
        "city": "Paranaguá",
        "state": "PR",
        "district": "Jardim América",
        "street": "Travessa Sambaqui",
        "zipcode": "83209-465"
    },
    {
        "city": "Paranaguá",
        "state": "PR",
        "district": null,
        "street": "Praça Central",
        "zipcode": "83251-993"
    },
    {
        "city": "Paranaguá",
        "state": "PR",
        "district": "Raia",
        "street": "Rua Soldado Manoel Rodrigues",
        "zipcode": "83206-230"
    },
    {
        "city": "Paranaguá",
        "state": "PR",
        "district": "Jardim Araçá",
        "street": "Rua José Rieira Filho",
        "zipcode": "83221-100"
    },
    {
        "city": "Paranaguá",
        "state": "PR",
        "district": "Emboguaçu",
        "street": "Estrada Velha do Emboguaçu",
        "zipcode": "83206-430"
    },
    {
        "city": "Paranaguá",
        "state": "PR",
        "district": "Raia",
        "street": "Rua Dona Ludovica Bório",
        "zipcode": "83206-190"
    },
    {
        "city": "Paranaguá",
        "state": "PR",
        "district": "Estradinha",
        "street": "Rua Treze de Maio",
        "zipcode": "83206-010"
    },
    {
        "city": "Paranaguá",
        "state": "PR",
        "district": "Divinéia",
        "street": "Rua Miguel Brenaz",
        "zipcode": "83212-425"
    },
    {
        "city": "Paranaguá",
        "state": "PR",
        "district": "Jardim Paranaguá",
        "street": "Rua Benedito Fraga de Oliveira",
        "zipcode": "83215-130"
    },
    {
        "city": "Paranaguá",
        "state": "PR",
        "district": "Vila São Vicente",
        "street": "Rua Eropina Campos Cominese",
        "zipcode": "83209-580"
    },
    {
        "city": "Paranaguá",
        "state": "PR",
        "district": "Vila São Vicente",
        "street": "Rua Cezar Alcides Frizzo",
        "zipcode": "83209-156"
    },
    {
        "city": "Paranaguá",
        "state": "PR",
        "district": "Vila do Povo",
        "street": "Acesso Fernando de Noronha",
        "zipcode": "83209-659"
    },
    {
        "city": "Paranaguá",
        "state": "PR",
        "district": "Vila Paranaguá",
        "street": "Travessa Luiz Teixeira da Silva",
        "zipcode": "83221-056"
    },
    {
        "city": "Paranaguá",
        "state": "PR",
        "district": "Campo Grande",
        "street": "Travessa Maestro João Gomes Raposo",
        "zipcode": "83203-706"
    },
    {
        "city": "Paranaguá",
        "state": "PR",
        "district": "Jardim Araçá",
        "street": "Rua Soldado Santino Sabino",
        "zipcode": "83221-097"
    },
    {
        "city": "Paranaguá",
        "state": "PR",
        "district": "Jardim Iguaçu",
        "street": "Rua das Araucárias",
        "zipcode": "83210-160"
    },
    {
        "city": "Paranaguá",
        "state": "PR",
        "district": "Jardim Iguaçu",
        "street": "Rua das Cidreiras",
        "zipcode": "83210-162"
    },
    {
        "city": "Paranaguá",
        "state": "PR",
        "district": "Centro Histórico",
        "street": "Praça da República",
        "zipcode": "83203-007"
    },
    {
        "city": "Paranaguá",
        "state": "PR",
        "district": null,
        "street": "Praça Central",
        "zipcode": "83251-990"
    },
    {
        "city": "Paranaguá",
        "state": "PR",
        "district": "Vila Rute",
        "street": "Rua Mustafá Hassan",
        "zipcode": "83221-730"
    },
    {
        "city": "Paranaguá",
        "state": "PR",
        "district": "Vila dos Comerciários",
        "street": "Acesso Doutor Bezerra de Menezes",
        "zipcode": "83215-044"
    },
    {
        "city": "Paranaguá",
        "state": "PR",
        "district": "Vila do Povo",
        "street": "Travessa Manaus",
        "zipcode": "83209-654"
    },
    {
        "city": "Paranaguá",
        "state": "PR",
        "district": "Vila Cruzeiro",
        "street": "Rua Luzanira Delfino Martins",
        "zipcode": "83221-345"
    },
    {
        "city": "Paranaguá",
        "state": "PR",
        "district": "Loteamento Yamaguchi",
        "street": "Travessa Jani Miranda Rauscher",
        "zipcode": "83212-560"
    },
    {
        "city": "Paranaguá",
        "state": "PR",
        "district": "Costeira",
        "street": "Rua João Freire de Oliveira",
        "zipcode": "83203-462"
    },
    {
        "city": "Paranaguá",
        "state": "PR",
        "district": null,
        "street": "Praça central",
        "zipcode": "83251-992"
    },
    {
        "city": "Paranaguá",
        "state": "PR",
        "district": "Jardim Guaraituba",
        "street": "Travessa Nemo Batista",
        "zipcode": "83209-283"
    },
    {
        "city": "Paranaguá",
        "state": "PR",
        "district": "Porto dos Padres",
        "street": "Rua Ernesto Arlindo das Neves",
        "zipcode": "83221-172"
    },
    {
        "city": "Paranaguá",
        "state": "PR",
        "district": "Porto dos Padres",
        "street": "Acesso Alcides Maciel",
        "zipcode": "83221-174"
    },
    {
        "city": "Paranaguá",
        "state": "PR",
        "district": "Porto dos Padres",
        "street": "Acesso Pedro Candido dos Santos Filho",
        "zipcode": "83221-177"
    },
    {
        "city": "Paranaguá",
        "state": "PR",
        "district": "Jardim Iguaçu",
        "street": "Rua Aurora Barbosa da Silva",
        "zipcode": "83210-100"
    },
    {
        "city": "Paranaguá",
        "state": "PR",
        "district": "Jardim Iguaçu",
        "street": "Rua das Amoreiras",
        "zipcode": "83210-063"
    },
    {
        "city": "Paranaguá",
        "state": "PR",
        "district": "Jardim Iguaçu",
        "street": "Acesso dos Tucumãs",
        "zipcode": "83210-134"
    },
    {
        "city": "Paranaguá",
        "state": "PR",
        "district": "Jardim Iguaçu",
        "street": "Acesso Reginaldo Pinheiro de Oliveira",
        "zipcode": "83210-140"
    },
    {
        "city": "Paranaguá",
        "state": "PR",
        "district": "Vila Itiberê",
        "street": "Rua Valentina Andreoli Rainert",
        "zipcode": "83206-346"
    },
    {
        "city": "Paranaguá",
        "state": "PR",
        "district": "Vila Itiberê",
        "street": "Rua Bruno Pedro Rainert",
        "zipcode": "83206-347"
    },
    {
        "city": "Paranaguá",
        "state": "PR",
        "district": "Jardim Iguaçu",
        "street": "Rua das Jacatirão",
        "zipcode": "83210-013"
    },
    {
        "city": "Paranaguá",
        "state": "PR",
        "district": "Jardim Iguaçu",
        "street": "Travessa dos Abacateiros",
        "zipcode": "83210-033"
    },
    {
        "city": "Paranaguá",
        "state": "PR",
        "district": "Jardim Iguaçu",
        "street": "Acesso Cláudio Roberto Pereira Lagos",
        "zipcode": "83210-045"
    },
    {
        "city": "Paranaguá",
        "state": "PR",
        "district": "Jardim Iguaçu",
        "street": "Rua Pau Brasil",
        "zipcode": "83210-060"
    },
    {
        "city": "Paranaguá",
        "state": "PR",
        "district": "Divinéia",
        "street": "Travessa Alfredo Rederd",
        "zipcode": "83212-433"
    },
    {
        "city": "Paranaguá",
        "state": "PR",
        "district": "Vila Paranaguá",
        "street": "Rua Professora Cristina Beatriz Lück da Silva Diáz Martinez",
        "zipcode": "83221-023"
    },
    {
        "city": "Paranaguá",
        "state": "PR",
        "district": "Jardim Iguaçu",
        "street": "Rua Gilberto Alípio",
        "zipcode": "83210-106"
    },
    {
        "city": "Paranaguá",
        "state": "PR",
        "district": "Jardim Iguaçu",
        "street": "Rua Marcos Antonio Martins da Costa",
        "zipcode": "83210-081"
    },
    {
        "city": "Paranaguá",
        "state": "PR",
        "district": "Jardim Iguaçu",
        "street": "Rua Celson Luiz Corrêa",
        "zipcode": "83210-183"
    },
    {
        "city": "Paranaguá",
        "state": "PR",
        "district": "Vila São Vicente",
        "street": "Rua Gabriel Mendes Machado",
        "zipcode": "83209-213"
    },
    {
        "city": "Paranaguá",
        "state": "PR",
        "district": "Vila dos Comerciários",
        "street": "Rua Francisca Moura",
        "zipcode": "83215-056"
    },
    {
        "city": "Paranaguá",
        "state": "PR",
        "district": "Vila dos Comerciários",
        "street": "Travessa Ivo dos Santos",
        "zipcode": "83215-095"
    },
    {
        "city": "Paranaguá",
        "state": "PR",
        "district": "Eldorado",
        "street": "Rua Djanira Gonçalves Souza",
        "zipcode": "83206-517"
    },
    {
        "city": "Paranaguá",
        "state": "PR",
        "district": "Rocio",
        "street": "Avenida Gabriel de Lara",
        "zipcode": "83221-707"
    },
    {
        "city": "Paranaguá",
        "state": "PR",
        "district": "Tuiuti",
        "street": "Avenida Gabriel de Lara",
        "zipcode": "83203-626"
    },
    {
        "city": "Paranaguá",
        "state": "PR",
        "district": "Vila Guadalupe",
        "street": "Avenida Gabriel de Lara",
        "zipcode": "83221-554"
    },
    {
        "city": "Paranaguá",
        "state": "PR",
        "district": "Jardim Paraná",
        "street": "Rua Jesuína de Matos Silva",
        "zipcode": "83218-460"
    },
    {
        "city": "Paranaguá",
        "state": "PR",
        "district": "Estradinha",
        "street": "Rua Edevino Grani",
        "zipcode": "83206-052"
    },
    {
        "city": "Paranaguá",
        "state": "PR",
        "district": "Centro Histórico",
        "street": "Travessa Felipe Chede",
        "zipcode": "83203-265"
    },
    {
        "city": "Paranaguá",
        "state": "PR",
        "district": "Eldorado",
        "street": "Rua Walter Santos Nascimento",
        "zipcode": "83206-519"
    },
    {
        "city": "Paranaguá",
        "state": "PR",
        "district": "Dom Pedro II",
        "street": "Avenida Ayrton Senna da Silva",
        "zipcode": "83203-800"
    },
    {
        "city": "Paranaguá",
        "state": "PR",
        "district": "Vila Paranaguá",
        "street": "Rua Antônio Pereira",
        "zipcode": "83221-030"
    },
    {
        "city": "Paranaguá",
        "state": "PR",
        "district": "Porto dos Padres",
        "street": "Acesso Francisco Carlos Barbosa",
        "zipcode": "83221-194"
    },
    {
        "city": "Paranaguá",
        "state": "PR",
        "district": "Jardim Samambaia",
        "street": "Acesso Joaquina Nascimento de Oliveira",
        "zipcode": "83212-342"
    },
    {
        "city": "Paranaguá",
        "state": "PR",
        "district": "Vila Nova Primavera",
        "street": "Acesso Galdino",
        "zipcode": "83209-664"
    },
    {
        "city": "Paranaguá",
        "state": "PR",
        "district": "Vila Itiberê",
        "street": "Rua Zelfira Ribeiro da Costa",
        "zipcode": "83209-342"
    },
    {
        "city": "Paranaguá",
        "state": "PR",
        "district": "Emboguaçu",
        "street": "Acesso Irati",
        "zipcode": "83209-012"
    },
    {
        "city": "Paranaguá",
        "state": "PR",
        "district": "Vila Alboitt",
        "street": "Rua Wismar Alves",
        "zipcode": "83221-591"
    },
    {
        "city": "Paranaguá",
        "state": "PR",
        "district": "Jardim Guaraituba",
        "street": "Rua Maria Antonina Silva",
        "zipcode": "83209-376"
    },
    {
        "city": "Paranaguá",
        "state": "PR",
        "district": "Bockmann",
        "street": "Acesso Ana Batista Araújo",
        "zipcode": "83206-276"
    },
    {
        "city": "Paranaguá",
        "state": "PR",
        "district": "",
        "street": "Ilha da Cotinga",
        "zipcode": "83251-996"
    },
    {
        "city": "Paranaguá",
        "state": "PR",
        "district": "Leblon",
        "street": "Acesso Sueli Castilho Oliveira",
        "zipcode": "83203-744"
    },
    {
        "city": "Paranaguá",
        "state": "PR",
        "district": "Bockmann",
        "street": "Rua Agostinho Pereira Alves",
        "zipcode": "83206-287"
    },
    {
        "city": "Paranaguá",
        "state": "PR",
        "district": "Centro Histórico",
        "street": "Praça Almirante Tamandaré",
        "zipcode": "83203-220"
    },
    {
        "city": "Paranaguá",
        "state": "PR",
        "district": "Raia",
        "street": "Rua Álvaro de Souza Vianna",
        "zipcode": "83203-795"
    },
    {
        "city": "Paranaguá",
        "state": "PR",
        "district": "Conjunto Residencial Prefeito Cominese",
        "street": "Rua Anita Ribeiro Fontes",
        "zipcode": "83215-550"
    },
    {
        "city": "Paranaguá",
        "state": "PR",
        "district": "Vila Guarani",
        "street": "Rua Antônio José Santana Lobo",
        "zipcode": "83221-500"
    },
    {
        "city": "Paranaguá",
        "state": "PR",
        "district": "Vila Garcia",
        "street": "Rua Ascendino Pessoa Maciel",
        "zipcode": "83218-070"
    },
    {
        "city": "Paranaguá",
        "state": "PR",
        "district": "Jardim Samambaia",
        "street": "Avenida Bento Munhoz da Rocha Neto",
        "zipcode": "83215-000"
    },
    {
        "city": "Paranaguá",
        "state": "PR",
        "district": "Jardim Araçá",
        "street": "Rua Engenheiro Arthur Miranda Ramos",
        "zipcode": "83221-095"
    },
    {
        "city": "Paranaguá",
        "state": "PR",
        "district": "Estradinha",
        "street": "Rua Comandante Dídio Costa",
        "zipcode": "83206-050"
    },
    {
        "city": "Paranaguá",
        "state": "PR",
        "district": "Alto São Sebastião",
        "street": "Travessa Engenheiro Didio Vianna",
        "zipcode": "83203-735"
    },
    {
        "city": "Paranaguá",
        "state": "PR",
        "district": "Centro Histórico",
        "street": "Praça Fernando Amaro",
        "zipcode": "83203-005"
    },
    {
        "city": "Paranaguá",
        "state": "PR",
        "district": "Centro Histórico",
        "street": "Rua General Carneiro",
        "zipcode": "83203-280"
    },
    {
        "city": "Paranaguá",
        "state": "PR",
        "district": "Jardim Samambaia",
        "street": "Travessa dos Jasmins",
        "zipcode": "83212-350"
    },
    {
        "city": "Paranaguá",
        "state": "PR",
        "district": "Serraria do Rocha",
        "street": "Rua Heitor Ferruci",
        "zipcode": "83221-645"
    },
    {
        "city": "Paranaguá",
        "state": "PR",
        "district": "Alvorada",
        "street": "Rua Manoel Gonçalves Maia Júnior",
        "zipcode": "83206-295"
    },
    {
        "city": "Paranaguá",
        "state": "PR",
        "district": "Jardim Guaraituba",
        "street": "Rua Nhundiaquara",
        "zipcode": "83209-380"
    },
    {
        "city": "Paranaguá",
        "state": "PR",
        "district": "Vila Paranaguá",
        "street": "Rua Odilon Mader",
        "zipcode": "83221-035"
    },
    {
        "city": "Paranaguá",
        "state": "PR",
        "district": "Conjunto Nilson Neves",
        "street": "Rua das Orquídeas",
        "zipcode": "83215-490"
    },
    {
        "city": "Paranaguá",
        "state": "PR",
        "district": "Vila Itiberê",
        "street": "Rua Prefeito Roque Vernalha",
        "zipcode": "83206-350"
    },
    {
        "city": "Paranaguá",
        "state": "PR",
        "district": "Alto São Sebastião",
        "street": "Travessa Roberto Barroso",
        "zipcode": "83203-725"
    },
    {
        "city": "Paranaguá",
        "state": "PR",
        "district": "Conjunto Residencial Prefeito Cominese",
        "street": "Rua Presbítero da Lauro da Fonseca",
        "zipcode": "83215-640"
    },
    {
        "city": "Paranaguá",
        "state": "PR",
        "district": "Centro Histórico",
        "street": "Rua Presciliano Corrêa",
        "zipcode": "83203-230"
    },
    {
        "city": "Paranaguá",
        "state": "PR",
        "district": "Serraria do Rocha",
        "street": "Rua Soldado Eulálio Cordeiro Bahia",
        "zipcode": "83221-605"
    },
    {
        "city": "Paranaguá",
        "state": "PR",
        "district": "Parque São João",
        "street": "Rua Alceu Sebastião Pereira da Silva",
        "zipcode": "83212-170"
    },
    {
        "city": "Paranaguá",
        "state": "PR",
        "district": "Vila Guarani",
        "street": "Rua Tupiniquim",
        "zipcode": "83221-410"
    },
    {
        "city": "Paranaguá",
        "state": "PR",
        "district": "Vila Garcia",
        "street": "Rua Subtenente Onofre Moreira da Rocha",
        "zipcode": "83218-120"
    },
    {
        "city": "Paranaguá",
        "state": "PR",
        "district": "Vila São Vicente",
        "street": "Rua Umbu",
        "zipcode": "83209-120"
    },
    {
        "city": "Paranaguá",
        "state": "PR",
        "district": "Industrial",
        "street": "Rua Xavier da Silva",
        "zipcode": "83221-680"
    },
    {
        "city": "Paranaguá",
        "state": "PR",
        "district": "Vila dos Comerciários",
        "street": "Avenida Belmiro Sebastião Marques",
        "zipcode": "83215-090"
    },
    {
        "city": "Paranaguá",
        "state": "PR",
        "district": "Estradinha",
        "street": "Rua Samuel Píres de Mello",
        "zipcode": "83206-060"
    },
    {
        "city": "Paranaguá",
        "state": "PR",
        "district": "Ponta do Caju",
        "street": "Rua José L. Pinto",
        "zipcode": "83203-136"
    },
    {
        "city": "Paranaguá",
        "state": "PR",
        "district": "Jardim Samambaia",
        "street": "Rua Agripino Ferminiano Pereira",
        "zipcode": "83212-528"
    },
    {
        "city": "Paranaguá",
        "state": "PR",
        "district": "Vila São Vicente",
        "street": "Avenida General Ivan Jejuhy Affonso da Costa",
        "zipcode": "83209-570"
    },
    {
        "city": "Paranaguá",
        "state": "PR",
        "district": "Vila do Povo",
        "street": "Rua Pernambuco",
        "zipcode": "83209-650"
    },
    {
        "city": "Paranaguá",
        "state": "PR",
        "district": "Jardim Paraná",
        "street": "Rua Linda Buffara Farah",
        "zipcode": "83218-380"
    },
    {
        "city": "Paranaguá",
        "state": "PR",
        "district": "Rocio",
        "street": "Travessa Antonieta de Souza Magalhães",
        "zipcode": "83221-705"
    },
    {
        "city": "Paranaguá",
        "state": "PR",
        "district": "Correia Velho",
        "street": "Estrada do Correia Velho",
        "zipcode": "83206-365"
    },
    {
        "city": "Paranaguá",
        "state": "PR",
        "district": "Vila São Vicente",
        "street": "Rua Miguel Ribeiro de Araújo",
        "zipcode": "83209-157"
    },
    {
        "city": "Paranaguá",
        "state": "PR",
        "district": "Vila do Caic",
        "street": "Travessa Gercy Vieira da Silva",
        "zipcode": "83215-687"
    },
    {
        "city": "Paranaguá",
        "state": "PR",
        "district": "Vila Paranaguá",
        "street": "Travessa Vereador Chafic Farah",
        "zipcode": "83221-048"
    },
    {
        "city": "Paranaguá",
        "state": "PR",
        "district": "Vila do Caic",
        "street": "Rua Antônio Felintro de Lima",
        "zipcode": "83215-680"
    },
    {
        "city": "Paranaguá",
        "state": "PR",
        "district": "Jardim Guaraituba",
        "street": "Travessa José Mariano Alves",
        "zipcode": "83209-296"
    },
    {
        "city": "Paranaguá",
        "state": "PR",
        "district": "Divinéia",
        "street": "Travessa José Antônio Mendes",
        "zipcode": "83212-435"
    },
    {
        "city": "Paranaguá",
        "state": "PR",
        "district": "Jardim Guaraituba",
        "street": "Acesso Osmar Frederico Nagel",
        "zipcode": "83209-356"
    },
    {
        "city": "Paranaguá",
        "state": "PR",
        "district": "João Gualberto",
        "street": "Rua Comendador Correia Júnior",
        "zipcode": "83203-560"
    },
    {
        "city": "Paranaguá",
        "state": "PR",
        "district": "Vila Portuaria",
        "street": "Rua Luiz Gonçalves das Neves",
        "zipcode": "83221-760"
    },
    {
        "city": "Paranaguá",
        "state": "PR",
        "district": "Bockmann",
        "street": "Travessa José Carneiro da Silva",
        "zipcode": "83206-278"
    },
    {
        "city": "Paranaguá",
        "state": "PR",
        "district": "Jardim Jacarandá",
        "street": "Rua Olga de Araújo",
        "zipcode": "83215-820"
    },
    {
        "city": "Paranaguá",
        "state": "PR",
        "district": "Jardim Jacarandá",
        "street": "Rua Hermínio Pinto",
        "zipcode": "83215-818"
    },
    {
        "city": "Paranaguá",
        "state": "PR",
        "district": "Emboguaçu",
        "street": "Rua Santa Marta",
        "zipcode": "83209-032"
    },
    {
        "city": "Paranaguá",
        "state": "PR",
        "district": "Divinéia",
        "street": "Travessa José Maria do Amaral",
        "zipcode": "83212-445"
    },
    {
        "city": "Paranaguá",
        "state": "PR",
        "district": "Serraria do Rocha",
        "street": "Travessa Airton Teodoro",
        "zipcode": "83221-606"
    },
    {
        "city": "Paranaguá",
        "state": "PR",
        "district": "Jardim Ouro Fino",
        "street": "Rodovia PR",
        "zipcode": "83218-860"
    },
    {
        "city": "Paranaguá",
        "state": "PR",
        "district": "Vila São Vicente",
        "street": "Rua Darci Paulo",
        "zipcode": "83209-202"
    },
    {
        "city": "Paranaguá",
        "state": "PR",
        "district": "Jardim América",
        "street": "Rua Maria da Graça Andrade",
        "zipcode": "83209-515"
    },
    {
        "city": "Paranaguá",
        "state": "PR",
        "district": "Estradinha",
        "street": "Travessa Doutor José Antônio da Cruz",
        "zipcode": "83206-452"
    },
    {
        "city": "Paranaguá",
        "state": "PR",
        "district": "Vila Paranaguá",
        "street": "Rua Presidente Washington Luiz",
        "zipcode": "83221-052"
    },
    {
        "city": "Paranaguá",
        "state": "PR",
        "district": "Eldorado",
        "street": "Rua Presidente Washington Luiz",
        "zipcode": "83206-332"
    },
    {
        "city": "Paranaguá",
        "state": "PR",
        "district": "Vila do Povo",
        "street": "Travessa Amapá",
        "zipcode": "83209-652"
    },
    {
        "city": "Paranaguá",
        "state": "PR",
        "district": "Vila Garcia",
        "street": "Travessa Roseni de Moura",
        "zipcode": "83218-152"
    },
    {
        "city": "Paranaguá",
        "state": "PR",
        "district": "Jardim Ouro Fino",
        "street": "Travessa Rubi",
        "zipcode": "83215-730"
    },
    {
        "city": "Paranaguá",
        "state": "PR",
        "district": "Eldorado",
        "street": "Rua Ciro Farah",
        "zipcode": "83206-510"
    },
    {
        "city": "Paranaguá",
        "state": "PR",
        "district": "Eldorado",
        "street": "Rua Marlene Barleta da Gama e Silva",
        "zipcode": "83206-512"
    },
    {
        "city": "Paranaguá",
        "state": "PR",
        "district": "Eldorado",
        "street": "Rua Algacir Moraes",
        "zipcode": "83206-528"
    },
    {
        "city": "Paranaguá",
        "state": "PR",
        "district": "Jardim Ouro Fino",
        "street": "Rua Opala",
        "zipcode": "83215-701"
    },
    {
        "city": "Paranaguá",
        "state": "PR",
        "district": "Correia Velho",
        "street": "Rua Júlio Theodorico Guimarães",
        "zipcode": "83206-361"
    },
    {
        "city": "Paranaguá",
        "state": "PR",
        "district": "Estradinha",
        "street": "Rua dos Camarões",
        "zipcode": "83206-054"
    },
    {
        "city": "Paranaguá",
        "state": "PR",
        "district": "Jardim Guaraituba",
        "street": "Rua Domingos Peneda",
        "zipcode": "83209-265"
    },
    {
        "city": "Paranaguá",
        "state": "PR",
        "district": "Jardim Iguaçu",
        "street": "Rua Quarenta e Dois",
        "zipcode": "83210-351"
    },
    {
        "city": "Paranaguá",
        "state": "PR",
        "district": "Jardim Iguaçu",
        "street": "Rua Trinta e Cinco",
        "zipcode": "83210-344"
    },
    {
        "city": "Paranaguá",
        "state": "PR",
        "district": null,
        "street": "Avenida Senador Attilio Fontana",
        "zipcode": "83212-990"
    },
    {
        "city": "Paranaguá",
        "state": "PR",
        "district": "Palmital",
        "street": "Acesso Eleamar Taques de Araújo",
        "zipcode": "83206-105"
    },
    {
        "city": "Paranaguá",
        "state": "PR",
        "district": "Correia Velho",
        "street": "Rua Ginés Gebran",
        "zipcode": "83206-362"
    },
    {
        "city": "Paranaguá",
        "state": "PR",
        "district": "Vila Garcia",
        "street": "Rua Sebastião Cordeiro",
        "zipcode": "83218-122"
    },
    {
        "city": "Paranaguá",
        "state": "PR",
        "district": "Estradinha",
        "street": "Acesso Professor Levi Jorge",
        "zipcode": "83206-442"
    },
    {
        "city": "Paranaguá",
        "state": "PR",
        "district": "Vila Cruzeiro",
        "street": "Rua Holandino Alves",
        "zipcode": "83221-342"
    },
    {
        "city": "Paranaguá",
        "state": "PR",
        "district": "Emboguaçu",
        "street": "Acesso Ivaiporã",
        "zipcode": "83209-018"
    },
    {
        "city": "Paranaguá",
        "state": "PR",
        "district": "Emboguaçu",
        "street": "Rua Cambé",
        "zipcode": "83209-022"
    },
    {
        "city": "Paranaguá",
        "state": "PR",
        "district": "Vila Paranaguá",
        "street": "Acesso Joel de Oliveira Alves",
        "zipcode": "83221-065"
    },
    {
        "city": "Paranaguá",
        "state": "PR",
        "district": "Conjunto Residencial Prefeito Cominese",
        "street": "Rua Simão Inácio Silva",
        "zipcode": "83215-575"
    },
    {
        "city": "Paranaguá",
        "state": "PR",
        "district": "Área Rural de Paranaguá",
        "street": "Área Rural",
        "zipcode": "83249-899"
    },
    {
        "city": "Paranaguá",
        "state": "PR",
        "district": "Conjunto Residencial Moradias Porto Seguro",
        "street": "Rua Reinir Mariano de Miranda",
        "zipcode": "83215-740"
    },
    {
        "city": "Paranaguá",
        "state": "PR",
        "district": "Conjunto Residencial Moradias Porto Seguro",
        "street": "Rua Benedito do Rosário",
        "zipcode": "83215-752"
    },
    {
        "city": "Paranaguá",
        "state": "PR",
        "district": "Loteamento Yamaguchi",
        "street": "Rua Alzir dos Santos Antunes",
        "zipcode": "83212-550"
    },
    {
        "city": "Paranaguá",
        "state": "PR",
        "district": "Eldorado",
        "street": "Travessa Cristiana Moreira Martinelli",
        "zipcode": "83206-498"
    },
    {
        "city": "Paranaguá",
        "state": "PR",
        "district": "Jardim Guaraituba",
        "street": "Rua Osvaldo Gonçalves Pereira",
        "zipcode": "83209-332"
    },
    {
        "city": "Paranaguá",
        "state": "PR",
        "district": "Jardim Iguaçu",
        "street": "Rua Cinquenta e Nove",
        "zipcode": "83210-368"
    },
    {
        "city": "Paranaguá",
        "state": "PR",
        "district": null,
        "street": "Praça de Embarque de Encantadas",
        "zipcode": "83251-995"
    },
    {
        "city": "Paranaguá",
        "state": "PR",
        "district": "Vila dos Comerciários",
        "street": "Acesso Antônio Benedito da Cunha",
        "zipcode": "83215-025"
    },
    {
        "city": "Paranaguá",
        "state": "PR",
        "district": "Estradinha",
        "street": "Acesso João Batista Teixeira",
        "zipcode": "83206-075"
    },
    {
        "city": "Paranaguá",
        "state": "PR",
        "district": "Vila São Vicente",
        "street": "Rua Edileuza Freire Bahia",
        "zipcode": "83209-207"
    },
    {
        "city": "Paranaguá",
        "state": "PR",
        "district": "Jardim Iguaçu",
        "street": "Rua Oitenta e Quatro",
        "zipcode": "83210-393"
    }
]