[
    {
        "city": "Paranavai",
        "state": "PR",
        "district": "Jardim Sao Cristovao",
        "street": "Rua A",
        "zipcode": "87702-180"
    },
    {
        "city": "Paranavai",
        "state": "PR",
        "district": "Vila Operaria",
        "street": "Rua Quadra G",
        "zipcode": "87708-380"
    },
    {
        "city": "Paranavai",
        "state": "PR",
        "district": "Parque Morumbi",
        "street": "Rua Nove",
        "zipcode": "87703-180"
    },
    {
        "city": "Paranavai",
        "state": "PR",
        "district": "Vila Operaria",
        "street": "Rua Quadra A",
        "zipcode": "87708-320"
    },
    {
        "city": "Paranavai",
        "state": "PR",
        "district": "Parque Morumbi",
        "street": "Rua Aparecido Marques Da Silva",
        "zipcode": "87703-060"
    },
    {
        "city": "Paranavai",
        "state": "PR",
        "district": "Vila Operaria",
        "street": "Rua Projetada C",
        "zipcode": "87708-440"
    },
    {
        "city": "Paranavai",
        "state": "PR",
        "district": "Vila Prudencio",
        "street": "Rua Um",
        "zipcode": "87702-360"
    },
    {
        "city": "Paranavai",
        "state": "PR",
        "district": "Vila Operaria",
        "street": "Rua Projetada E",
        "zipcode": "87708-460"
    },
    {
        "city": "Paranavai",
        "state": "PR",
        "district": "Vila Operaria",
        "street": "Rua Projetada F",
        "zipcode": "87708-470"
    },
    {
        "city": "Paranavai",
        "state": "PR",
        "district": "Vila Operaria",
        "street": "Rua Quadra J",
        "zipcode": "87708-410"
    },
    {
        "city": "Paranavai",
        "state": "PR",
        "district": "Jardim Sao Cristovao",
        "street": "Rua B",
        "zipcode": "87702-190"
    },
    {
        "city": "Paranavai",
        "state": "PR",
        "district": "Vila Operaria",
        "street": "Rua B",
        "zipcode": "87708-230"
    },
    {
        "city": "Paranavai",
        "state": "PR",
        "district": "Vila Operaria",
        "street": "Rua C",
        "zipcode": "87708-240"
    },
    {
        "city": "Paranavai",
        "state": "PR",
        "district": "Vila Operaria",
        "street": "Rua Quadra H",
        "zipcode": "87708-390"
    },
    {
        "city": "Paranavai",
        "state": "PR",
        "district": "Vila Operaria",
        "street": "Rua Quadra C",
        "zipcode": "87708-340"
    },
    {
        "city": "Paranavai",
        "state": "PR",
        "district": "Jardim Sao Cristovao",
        "street": "Rua C",
        "zipcode": "87702-200"
    },
    {
        "city": "Paranavai",
        "state": "PR",
        "district": "Parque Morumbi",
        "street": "Rua Sete",
        "zipcode": "87703-140"
    },
    {
        "city": "Paranavai",
        "state": "PR",
        "district": "Vila Operaria",
        "street": "Rua Projetada H",
        "zipcode": "87708-490"
    },
    {
        "city": "Paranavai",
        "state": "PR",
        "district": "Vila Operaria",
        "street": "Rua Jose Souza Leite",
        "zipcode": "87708-690"
    },
    {
        "city": "Paranavai",
        "state": "PR",
        "district": "Centro",
        "street": "Rua Edson Martins",
        "zipcode": "87705-270"
    },
    {
        "city": "Paranavai",
        "state": "PR",
        "district": "Vila Alta",
        "street": "Rua Dos Operarios",
        "zipcode": "87708-600"
    },
    {
        "city": "Paranavai",
        "state": "PR",
        "district": "Vila Operaria",
        "street": "Rua Projetada A",
        "zipcode": "87708-420"
    },
    {
        "city": "Paranavai",
        "state": "PR",
        "district": "Vila Operaria",
        "street": "Rua Quadra E",
        "zipcode": "87708-360"
    },
    {
        "city": "Paranavai",
        "state": "PR",
        "district": "Jardim Sao Cristovao",
        "street": "Rua D",
        "zipcode": "87702-210"
    },
    {
        "city": "Paranavai",
        "state": "PR",
        "district": "Jardim Nakamura",
        "street": "Travessa Lourival Rauen",
        "zipcode": "87701-320"
    },
    {
        "city": "Paranavai",
        "state": "PR",
        "district": "Jardim Videira",
        "street": "Rua H",
        "zipcode": "87711-470"
    },
    {
        "city": "Paranavai",
        "state": "PR",
        "district": "Vila Operaria",
        "street": "Rua Projetada B",
        "zipcode": "87708-430"
    },
    {
        "city": "Paranavai",
        "state": "PR",
        "district": "Jardim Sao Jorge",
        "street": "Rua Guia Lopes",
        "zipcode": "87711-530"
    }
]