[
    {
        "city": "Pato Branco",
        "state": "PR",
        "district": "São Francisco",
        "street": "Rua Pioneiro Victório Lourenço Leonardi",
        "zipcode": "85504-816"
    },
    {
        "city": "Pato Branco",
        "state": "PR",
        "district": "Industrial",
        "street": "Rua Frei Lindolfo Schimitz",
        "zipcode": "85506-526"
    },
    {
        "city": "Pato Branco",
        "state": "PR",
        "district": "São Luiz",
        "street": "Rua Izaias Mazzoti",
        "zipcode": "85504-765"
    },
    {
        "city": "Pato Branco",
        "state": "PR",
        "district": "Veneza",
        "street": "Rua João Batiston",
        "zipcode": "85507-738"
    },
    {
        "city": "Pato Branco",
        "state": "PR",
        "district": "Planalto",
        "street": "Rua Pioneiro Avelino Ardoino Chioquetta",
        "zipcode": "85509-246"
    },
    {
        "city": "Pato Branco",
        "state": "PR",
        "district": "São Luiz",
        "street": "Rua Pioneiro Julio Roberto Pastore",
        "zipcode": "85504-769"
    },
    {
        "city": "Pato Branco",
        "state": "PR",
        "district": "São Luiz",
        "street": "Rua Tocantins",
        "zipcode": "85504-702"
    },
    {
        "city": "Pato Branco",
        "state": "PR",
        "district": "São Francisco",
        "street": "Rua Waldomiro DallIgna",
        "zipcode": "85504-808"
    },
    {
        "city": "Pato Branco",
        "state": "PR",
        "district": "Trevo da Guarany",
        "street": "Via Lateral Alfredo Luiz de Bortoli",
        "zipcode": "85501-414"
    },
    {
        "city": "Pato Branco",
        "state": "PR",
        "district": "Cadorin",
        "street": "Rua Luiz Raimundo Cadorin",
        "zipcode": "85504-597"
    },
    {
        "city": "Pato Branco",
        "state": "PR",
        "district": "Bonatto",
        "street": "Rua Sebastião R. da Costa",
        "zipcode": "85506-506"
    },
    {
        "city": "Pato Branco",
        "state": "PR",
        "district": "Planalto",
        "street": "Rua Nelson Colla",
        "zipcode": "85509-194"
    },
    {
        "city": "Pato Branco",
        "state": "PR",
        "district": "Centro",
        "street": "Rua Osvaldo Aranha",
        "zipcode": "85504-350"
    },
    {
        "city": "Pato Branco",
        "state": "PR",
        "district": "Fraron",
        "street": "Rua Jair Comin",
        "zipcode": "85503-373"
    },
    {
        "city": "Pato Branco",
        "state": "PR",
        "district": "Fraron",
        "street": "Rua Tereza Leonardi Pagnoncelli",
        "zipcode": "85503-333"
    },
    {
        "city": "Pato Branco",
        "state": "PR",
        "district": "Sudoeste",
        "street": "Rua Antônio Didomênico",
        "zipcode": "85507-406"
    },
    {
        "city": "Pato Branco",
        "state": "PR",
        "district": "Área Rural de Pato Branco",
        "street": "Área Rural",
        "zipcode": "85513-899"
    },
    {
        "city": "Pato Branco",
        "state": "PR",
        "district": "Alvorada",
        "street": "Rua Maria Ursulina Palaoro",
        "zipcode": "85508-198"
    },
    {
        "city": "Pato Branco",
        "state": "PR",
        "district": "Vila Esperança",
        "street": "Via Lateral Dórico Tartari",
        "zipcode": "85503-115"
    },
    {
        "city": "Pato Branco",
        "state": "PR",
        "district": "Parque do Som",
        "street": "Rua Carlos Roberto Amadori",
        "zipcode": "85505-450"
    },
    {
        "city": "Pato Branco",
        "state": "PR",
        "district": "Industrial",
        "street": "Rua Mauricio Batista Menosso",
        "zipcode": "85506-521"
    },
    {
        "city": "Pato Branco",
        "state": "PR",
        "district": "Cristo Rei",
        "street": "Rua Jair Rodrigues",
        "zipcode": "85506-282"
    },
    {
        "city": "Pato Branco",
        "state": "PR",
        "district": "Sao Cristovao",
        "street": "Rua Castelo Branco",
        "zipcode": "85508-110"
    },
    {
        "city": "Pato Branco",
        "state": "PR",
        "district": "São Francisco",
        "street": "Rua Matilde Borsoi Campestrini",
        "zipcode": "85504-811"
    },
    {
        "city": "Pato Branco",
        "state": "PR",
        "district": "Fraron",
        "street": "Rua Nelza Mazzuco Braun",
        "zipcode": "85503-440"
    },
    {
        "city": "Pato Branco",
        "state": "PR",
        "district": "Aeroporto",
        "street": "Via Lateral Dórico Tartari",
        "zipcode": "85503-022"
    },
    {
        "city": "Pato Branco",
        "state": "PR",
        "district": "Cadorin",
        "street": "Rua Pedro Caldato",
        "zipcode": "85504-591"
    },
    {
        "city": "Pato Branco",
        "state": "PR",
        "district": "La Salle",
        "street": "Rua Sebastião de Conto",
        "zipcode": "85505-313"
    },
    {
        "city": "Pato Branco",
        "state": "PR",
        "district": "Vila Isabel",
        "street": "Rua Antonio Garces Novaes Filho",
        "zipcode": "85504-308"
    },
    {
        "city": "Pato Branco",
        "state": "PR",
        "district": "São Roque",
        "street": "Rua Assis Andreatta",
        "zipcode": "85507-103"
    },
    {
        "city": "Pato Branco",
        "state": "PR",
        "district": "Sudoeste",
        "street": "Rua Augusta Priamo",
        "zipcode": "85507-409"
    },
    {
        "city": "Pato Branco",
        "state": "PR",
        "district": "Fraron",
        "street": "Rua Silvestre Ambrosio Franchin",
        "zipcode": "85503-374"
    },
    {
        "city": "Pato Branco",
        "state": "PR",
        "district": "Bonatto",
        "street": "Travessa Augustinho Bonatto",
        "zipcode": "85506-452"
    },
    {
        "city": "Pato Branco",
        "state": "PR",
        "district": "Morumbi",
        "street": "Rua Aldoíno Dalmolin",
        "zipcode": "85507-202"
    },
    {
        "city": "Pato Branco",
        "state": "PR",
        "district": "Fraron",
        "street": "Rua Pioneiro Orlando Sambugaro",
        "zipcode": "85503-444"
    },
    {
        "city": "Pato Branco",
        "state": "PR",
        "district": "Jardim Floresta",
        "street": "Rua Jair Eugênio Radaelli",
        "zipcode": "85506-594"
    },
    {
        "city": "Pato Branco",
        "state": "PR",
        "district": "Veneza",
        "street": "Rua Santina Polazzo",
        "zipcode": "85507-732"
    },
    {
        "city": "Pato Branco",
        "state": "PR",
        "district": "Pinheirinho",
        "street": "Rua Reserva Municipal",
        "zipcode": "85506-135"
    },
    {
        "city": "Pato Branco",
        "state": "PR",
        "district": "Vila Esperança",
        "street": "Rua Estanislau Fritz",
        "zipcode": "85503-105"
    },
    {
        "city": "Pato Branco",
        "state": "PR",
        "district": "Parque do Som",
        "street": "Rua Severino Oldoni",
        "zipcode": "85505-448"
    },
    {
        "city": "Pato Branco",
        "state": "PR",
        "district": "Centro",
        "street": "Rua Tamoio",
        "zipcode": "85501-070"
    },
    {
        "city": "Pato Branco",
        "state": "PR",
        "district": "Bortot",
        "street": "Travessa Borba",
        "zipcode": "85504-210"
    },
    {
        "city": "Pato Branco",
        "state": "PR",
        "district": "Centro",
        "street": "Rua Tapejara",
        "zipcode": "85501-040"
    },
    {
        "city": "Pato Branco",
        "state": "PR",
        "district": "Bela Vista",
        "street": "Rua Pioneiro João Francisco Silveira",
        "zipcode": "85509-356"
    },
    {
        "city": "Pato Branco",
        "state": "PR",
        "district": "Sudoeste",
        "street": "Rua Bernardo Refinski",
        "zipcode": "85507-419"
    },
    {
        "city": "Pato Branco",
        "state": "PR",
        "district": "Bela Vista",
        "street": "Rua Arlindo Oldoni",
        "zipcode": "85509-281"
    },
    {
        "city": "Pato Branco",
        "state": "PR",
        "district": "Bela Vista",
        "street": "Rua Arquimedes Gobatto",
        "zipcode": "85509-290"
    },
    {
        "city": "Pato Branco",
        "state": "PR",
        "district": "Bela Vista",
        "street": "Rua Edimo Belmiro Pastro",
        "zipcode": "85509-280"
    },
    {
        "city": "Pato Branco",
        "state": "PR",
        "district": "Planalto",
        "street": "Rua Juriti",
        "zipcode": "85509-250"
    },
    {
        "city": "Pato Branco",
        "state": "PR",
        "district": "Bela Vista",
        "street": "Rua José Waterkemper",
        "zipcode": "85509-300"
    },
    {
        "city": "Pato Branco",
        "state": "PR",
        "district": "Dal Ross",
        "street": "Rua Senador Teotônio Vilela",
        "zipcode": "85509-270"
    },
    {
        "city": "Pato Branco",
        "state": "PR",
        "district": "Pagnoncelli",
        "street": "Rua Valdomiro Pastro",
        "zipcode": "85509-340"
    },
    {
        "city": "Pato Branco",
        "state": "PR",
        "district": "Planalto",
        "street": "Rua das Araras",
        "zipcode": "85509-240"
    },
    {
        "city": "Pato Branco",
        "state": "PR",
        "district": "Pagnoncelli",
        "street": "Rua Celestino Fornari",
        "zipcode": "85509-310"
    },
    {
        "city": "Pato Branco",
        "state": "PR",
        "district": "Dal Ross",
        "street": "Rua Ledovino Fazolin",
        "zipcode": "85509-260"
    },
    {
        "city": "Pato Branco",
        "state": "PR",
        "district": "Bela Vista",
        "street": "Rua Pedro Zancanaro",
        "zipcode": "85509-292"
    },
    {
        "city": "Pato Branco",
        "state": "PR",
        "district": "La Salle",
        "street": "Travessa do Torto",
        "zipcode": "85505-185"
    },
    {
        "city": "Pato Branco",
        "state": "PR",
        "district": "Planalto",
        "street": "Rua das Arapongas",
        "zipcode": "85509-230"
    },
    {
        "city": "Pato Branco",
        "state": "PR",
        "district": "Planalto",
        "street": "Rua dos Canários",
        "zipcode": "85509-160"
    },
    {
        "city": "Pato Branco",
        "state": "PR",
        "district": "Planalto",
        "street": "Rua dos Cardeais",
        "zipcode": "85509-100"
    },
    {
        "city": "Pato Branco",
        "state": "PR",
        "district": "Planalto",
        "street": "Rua das Avestruzes",
        "zipcode": "85509-140"
    },
    {
        "city": "Pato Branco",
        "state": "PR",
        "district": "Planalto",
        "street": "Rua Beija",
        "zipcode": "85509-190"
    },
    {
        "city": "Pato Branco",
        "state": "PR",
        "district": "Planalto",
        "street": "Rua das Cegonhas",
        "zipcode": "85509-080"
    },
    {
        "city": "Pato Branco",
        "state": "PR",
        "district": "São Cristóvão",
        "street": "Rua Coelho Neto",
        "zipcode": "85508-221"
    },
    {
        "city": "Pato Branco",
        "state": "PR",
        "district": "Planalto",
        "street": "Rua das Gaivotas",
        "zipcode": "85509-180"
    },
    {
        "city": "Pato Branco",
        "state": "PR",
        "district": "Planalto",
        "street": "Rua das Garças",
        "zipcode": "85509-000"
    },
    {
        "city": "Pato Branco",
        "state": "PR",
        "district": "Planalto",
        "street": "Rua Gralha",
        "zipcode": "85509-130"
    },
    {
        "city": "Pato Branco",
        "state": "PR",
        "district": "Gralha Azul",
        "street": "Rua Ricieri Pastore",
        "zipcode": "85508-332"
    },
    {
        "city": "Pato Branco",
        "state": "PR",
        "district": "Gralha Azul",
        "street": "Rua João Pícolo",
        "zipcode": "85508-334"
    },
    {
        "city": "Pato Branco",
        "state": "PR",
        "district": "Gralha Azul",
        "street": "Rua Marcelino Parzianello",
        "zipcode": "85508-320"
    },
    {
        "city": "Pato Branco",
        "state": "PR",
        "district": "Gralha Azul",
        "street": "Rua Baldoíno Dartora",
        "zipcode": "85508-322"
    },
    {
        "city": "Pato Branco",
        "state": "PR",
        "district": "Gralha Azul",
        "street": "Rua Jaury Heirtor de Souza",
        "zipcode": "85508-323"
    },
    {
        "city": "Pato Branco",
        "state": "PR",
        "district": "Gralha Azul",
        "street": "Rua Henrique Ascari",
        "zipcode": "85508-324"
    },
    {
        "city": "Pato Branco",
        "state": "PR",
        "district": "Gralha Azul",
        "street": "Rua Eduardo Dágios",
        "zipcode": "85508-325"
    },
    {
        "city": "Pato Branco",
        "state": "PR",
        "district": "Gralha Azul",
        "street": "Rua Jandir Perusso",
        "zipcode": "85508-327"
    },
    {
        "city": "Pato Branco",
        "state": "PR",
        "district": "Gralha Azul",
        "street": "Rua João Cadorin",
        "zipcode": "85508-329"
    },
    {
        "city": "Pato Branco",
        "state": "PR",
        "district": "Gralha Azul",
        "street": "Rua Natalício Fischer",
        "zipcode": "85508-330"
    },
    {
        "city": "Pato Branco",
        "state": "PR",
        "district": "Gralha Azul",
        "street": "Rua Artibano Tacon",
        "zipcode": "85508-331"
    },
    {
        "city": "Pato Branco",
        "state": "PR",
        "district": "Gralha Azul",
        "street": "Rua Claudir Oldoni",
        "zipcode": "85508-336"
    },
    {
        "city": "Pato Branco",
        "state": "PR",
        "district": "Bortot",
        "street": "Rua Anibal Leal",
        "zipcode": "85504-684"
    },
    {
        "city": "Pato Branco",
        "state": "PR",
        "district": "São Cristóvão",
        "street": "Rua Castelo Branco",
        "zipcode": "85508-232"
    },
    {
        "city": "Pato Branco",
        "state": "PR",
        "district": "São Cristóvão",
        "street": "Rua Gonçalves Dias",
        "zipcode": "85508-222"
    },
    {
        "city": "Pato Branco",
        "state": "PR",
        "district": "São Cristóvão",
        "street": "Rua Osvaldo Cruz",
        "zipcode": "85508-228"
    },
    {
        "city": "Pato Branco",
        "state": "PR",
        "district": "São Cristóvão",
        "street": "Rua Alexandre Gusmão",
        "zipcode": "85508-226"
    },
    {
        "city": "Pato Branco",
        "state": "PR",
        "district": "São Cristóvão",
        "street": "Avenida Tupi",
        "zipcode": "85508-225"
    },
    {
        "city": "Pato Branco",
        "state": "PR",
        "district": "Planalto",
        "street": "Rua Aurea Zandona",
        "zipcode": "85509-191"
    },
    {
        "city": "Pato Branco",
        "state": "PR",
        "district": "Planalto",
        "street": "Rua Abrão Ribeiro",
        "zipcode": "85509-192"
    },
    {
        "city": "Pato Branco",
        "state": "PR",
        "district": "São Francisco",
        "street": "Rua Osmar Bertani",
        "zipcode": "85504-799"
    },
    {
        "city": "Pato Branco",
        "state": "PR",
        "district": "Planalto",
        "street": "Rua Alexandra Portela",
        "zipcode": "85509-196"
    },
    {
        "city": "Pato Branco",
        "state": "PR",
        "district": "Planalto",
        "street": "Rua Emilia Rosa Pietrobelli",
        "zipcode": "85509-193"
    },
    {
        "city": "Pato Branco",
        "state": "PR",
        "district": "Planalto",
        "street": "Rua Tarcílio Pedro Colla",
        "zipcode": "85509-248"
    },
    {
        "city": "Pato Branco",
        "state": "PR",
        "district": "São Francisco",
        "street": "Rua Artibano Sutille",
        "zipcode": "85504-790"
    },
    {
        "city": "Pato Branco",
        "state": "PR",
        "district": "Planalto",
        "street": "Rua José Gabrielle",
        "zipcode": "85509-244"
    },
    {
        "city": "Pato Branco",
        "state": "PR",
        "district": "Veneza",
        "street": "Rua Antonio Lorenzetti",
        "zipcode": "85507-734"
    },
    {
        "city": "Pato Branco",
        "state": "PR",
        "district": "São Cristóvão",
        "street": "Rua Érico Veríssimo",
        "zipcode": "85508-246"
    },
    {
        "city": "Pato Branco",
        "state": "PR",
        "district": "Veneza",
        "street": "Travessa João Gabriel",
        "zipcode": "85507-711"
    },
    {
        "city": "Pato Branco",
        "state": "PR",
        "district": "Planalto",
        "street": "Rua Engenheiro Guilherme Jorge Scheide",
        "zipcode": "85509-242"
    },
    {
        "city": "Pato Branco",
        "state": "PR",
        "district": "Fraron",
        "street": "Rua Granja",
        "zipcode": "85503-384"
    },
    {
        "city": "Pato Branco",
        "state": "PR",
        "district": "São Cristóvão",
        "street": "Rua João Negrão",
        "zipcode": "85508-235"
    },
    {
        "city": "Pato Branco",
        "state": "PR",
        "district": "São Cristóvão",
        "street": "Rua Manoel Bandeira",
        "zipcode": "85508-242"
    },
    {
        "city": "Pato Branco",
        "state": "PR",
        "district": "Planalto",
        "street": "Rua Maracanã",
        "zipcode": "85509-010"
    },
    {
        "city": "Pato Branco",
        "state": "PR",
        "district": "Planalto",
        "street": "Rua dos Pavões",
        "zipcode": "85509-110"
    },
    {
        "city": "Pato Branco",
        "state": "PR",
        "district": "Planalto",
        "street": "Rua dos Pelicanos",
        "zipcode": "85509-070"
    },
    {
        "city": "Pato Branco",
        "state": "PR",
        "district": "Planalto",
        "street": "Rua dos Pica",
        "zipcode": "85509-060"
    },
    {
        "city": "Pato Branco",
        "state": "PR",
        "district": "Planalto",
        "street": "Rua dos Pintassilgos",
        "zipcode": "85509-050"
    },
    {
        "city": "Pato Branco",
        "state": "PR",
        "district": "São Cristóvão",
        "street": "Rodovia PR",
        "zipcode": "85508-280"
    },
    {
        "city": "Pato Branco",
        "state": "PR",
        "district": "São Cristóvão",
        "street": "Rua da República",
        "zipcode": "85508-230"
    },
    {
        "city": "Pato Branco",
        "state": "PR",
        "district": "São Cristóvão",
        "street": "Rua Padre Vieira",
        "zipcode": "85508-248"
    },
    {
        "city": "Pato Branco",
        "state": "PR",
        "district": "Planalto",
        "street": "Rua dos Papagaios",
        "zipcode": "85509-170"
    },
    {
        "city": "Pato Branco",
        "state": "PR",
        "district": "Planalto",
        "street": "Rua dos Pardais",
        "zipcode": "85509-210"
    },
    {
        "city": "Pato Branco",
        "state": "PR",
        "district": "Planalto",
        "street": "Rua São Francisco de Assis",
        "zipcode": "85509-030"
    },
    {
        "city": "Pato Branco",
        "state": "PR",
        "district": "Planalto",
        "street": "Rua das Siriemas",
        "zipcode": "85509-020"
    },
    {
        "city": "Pato Branco",
        "state": "PR",
        "district": "Planalto",
        "street": "Rua Santa Clara",
        "zipcode": "85509-090"
    },
    {
        "city": "Pato Branco",
        "state": "PR",
        "district": "Planalto",
        "street": "Rua dos Sabiás",
        "zipcode": "85509-220"
    },
    {
        "city": "Pato Branco",
        "state": "PR",
        "district": "Planalto",
        "street": "Rua dos Tucanos",
        "zipcode": "85509-120"
    },
    {
        "city": "Pato Branco",
        "state": "PR",
        "district": "Planalto",
        "street": "Rua dos Jaburus",
        "zipcode": "85509-150"
    },
    {
        "city": "Pato Branco",
        "state": "PR",
        "district": "Planalto",
        "street": "Rua dos Faisões",
        "zipcode": "85509-040"
    },
    {
        "city": "Pato Branco",
        "state": "PR",
        "district": "Novo Horizonte",
        "street": "Rua Emílio Kruger",
        "zipcode": "85507-663"
    },
    {
        "city": "Pato Branco",
        "state": "PR",
        "district": "Novo Horizonte",
        "street": "Travessa Pedro Boldrini",
        "zipcode": "85507-664"
    },
    {
        "city": "Pato Branco",
        "state": "PR",
        "district": "Novo Horizonte",
        "street": "Rua Augusto Peloso",
        "zipcode": "85507-666"
    },
    {
        "city": "Pato Branco",
        "state": "PR",
        "district": "Veneza",
        "street": "Rua Ângelo Gabriel",
        "zipcode": "85507-720"
    },
    {
        "city": "Pato Branco",
        "state": "PR",
        "district": "Veneza",
        "street": "Rua Cecília Cardoso",
        "zipcode": "85507-721"
    },
    {
        "city": "Pato Branco",
        "state": "PR",
        "district": "Novo Horizonte",
        "street": "Rua Leon Ruaro",
        "zipcode": "85507-668"
    },
    {
        "city": "Pato Branco",
        "state": "PR",
        "district": "Novo Horizonte",
        "street": "Rua Bento Gonçalves",
        "zipcode": "85507-635"
    },
    {
        "city": "Pato Branco",
        "state": "PR",
        "district": "Alvorada",
        "street": "Rua Castelo Branco",
        "zipcode": "85508-042"
    },
    {
        "city": "Pato Branco",
        "state": "PR",
        "district": "Alvorada",
        "street": "Rua Castro Alves",
        "zipcode": "85508-024"
    },
    {
        "city": "Pato Branco",
        "state": "PR",
        "district": "São Cristóvão",
        "street": "Rua Castro Alves",
        "zipcode": "85508-216"
    },
    {
        "city": "Pato Branco",
        "state": "PR",
        "district": "Alvorada",
        "street": "Rua Dom Pedro I",
        "zipcode": "85508-014"
    },
    {
        "city": "Pato Branco",
        "state": "PR",
        "district": "São Cristóvão",
        "street": "Rua Dom Pedro I",
        "zipcode": "85508-206"
    },
    {
        "city": "Pato Branco",
        "state": "PR",
        "district": "Novo Horizonte",
        "street": "Rua dos Gerânios",
        "zipcode": "85507-660"
    },
    {
        "city": "Pato Branco",
        "state": "PR",
        "district": "Veneza",
        "street": "Rua dos Gerânios",
        "zipcode": "85507-727"
    },
    {
        "city": "Pato Branco",
        "state": "PR",
        "district": "Veneza",
        "street": "Rua das Violetas",
        "zipcode": "85507-714"
    },
    {
        "city": "Pato Branco",
        "state": "PR",
        "district": "Alvorada",
        "street": "Rua Gonçalves Dias",
        "zipcode": "85508-032"
    },
    {
        "city": "Pato Branco",
        "state": "PR",
        "district": "Alvorada",
        "street": "Rua Itá",
        "zipcode": "85508-064"
    },
    {
        "city": "Pato Branco",
        "state": "PR",
        "district": "Novo Horizonte",
        "street": "Rua dos Jasmins",
        "zipcode": "85507-650"
    },
    {
        "city": "Pato Branco",
        "state": "PR",
        "district": "Veneza",
        "street": "Rua dos Jasmins",
        "zipcode": "85507-725"
    },
    {
        "city": "Pato Branco",
        "state": "PR",
        "district": "Alvorada",
        "street": "Rua Luiz Xavier",
        "zipcode": "85508-028"
    },
    {
        "city": "Pato Branco",
        "state": "PR",
        "district": "São Cristóvão",
        "street": "Rua Luiz Xavier",
        "zipcode": "85508-218"
    },
    {
        "city": "Pato Branco",
        "state": "PR",
        "district": "Alvorada",
        "street": "Rua Osvaldo Cruz",
        "zipcode": "85508-038"
    },
    {
        "city": "Pato Branco",
        "state": "PR",
        "district": "Alvorada",
        "street": "Rua do Príncipe",
        "zipcode": "85508-012"
    },
    {
        "city": "Pato Branco",
        "state": "PR",
        "district": "São Cristóvão",
        "street": "Rua do Príncipe",
        "zipcode": "85508-204"
    },
    {
        "city": "Pato Branco",
        "state": "PR",
        "district": "Novo Horizonte",
        "street": "Rua das Rosas",
        "zipcode": "85507-640"
    },
    {
        "city": "Pato Branco",
        "state": "PR",
        "district": "Veneza",
        "street": "Rua das Rosas",
        "zipcode": "85507-718"
    },
    {
        "city": "Pato Branco",
        "state": "PR",
        "district": "Alvorada",
        "street": "Rua Alexandre Gusmão",
        "zipcode": "85508-036"
    },
    {
        "city": "Pato Branco",
        "state": "PR",
        "district": "São Cristóvão",
        "street": "Avenida Tupi",
        "zipcode": "85508-214"
    },
    {
        "city": "Pato Branco",
        "state": "PR",
        "district": "Alvorada",
        "street": "Avenida Tupi",
        "zipcode": "85508-005"
    },
    {
        "city": "Pato Branco",
        "state": "PR",
        "district": "Alvorada",
        "street": "Avenida Tupi",
        "zipcode": "85508-034"
    },
    {
        "city": "Pato Branco",
        "state": "PR",
        "district": "Alvorada",
        "street": "Rua Papa João XXIII",
        "zipcode": "85508-016"
    },
    {
        "city": "Pato Branco",
        "state": "PR",
        "district": "São Cristóvão",
        "street": "Rua Papa João XXIII",
        "zipcode": "85508-208"
    },
    {
        "city": "Pato Branco",
        "state": "PR",
        "district": "Veneza",
        "street": "Rua das Acácias",
        "zipcode": "85507-716"
    },
    {
        "city": "Pato Branco",
        "state": "PR",
        "district": "Novo Horizonte",
        "street": "Rua das Adálias",
        "zipcode": "85507-670"
    },
    {
        "city": "Pato Branco",
        "state": "PR",
        "district": "Vila Isabel",
        "street": "Rua Antonio Consentino",
        "zipcode": "85504-316"
    },
    {
        "city": "Pato Branco",
        "state": "PR",
        "district": "Veneza",
        "street": "Rua Valdemar Polazzo",
        "zipcode": "85507-737"
    },
    {
        "city": "Pato Branco",
        "state": "PR",
        "district": "Alvorada",
        "street": "Rua Corretor Vilas Boas",
        "zipcode": "85508-052"
    },
    {
        "city": "Pato Branco",
        "state": "PR",
        "district": "São Cristóvão",
        "street": "Rua das Bandeiras",
        "zipcode": "85508-220"
    },
    {
        "city": "Pato Branco",
        "state": "PR",
        "district": "Alvorada",
        "street": "Rua Dom João VI",
        "zipcode": "85508-058"
    },
    {
        "city": "Pato Branco",
        "state": "PR",
        "district": "Alvorada",
        "street": "Rua Fagundes Varela",
        "zipcode": "85508-054"
    },
    {
        "city": "Pato Branco",
        "state": "PR",
        "district": "Alvorada",
        "street": "Rua das Flores",
        "zipcode": "85508-056"
    },
    {
        "city": "Pato Branco",
        "state": "PR",
        "district": "Alvorada",
        "street": "Travessa Ipacarai",
        "zipcode": "85508-044"
    },
    {
        "city": "Pato Branco",
        "state": "PR",
        "district": "Alvorada",
        "street": "Rua Pedro Lobo",
        "zipcode": "85508-045"
    },
    {
        "city": "Pato Branco",
        "state": "PR",
        "district": "Alvorada",
        "street": "Rua Princesa Isabel",
        "zipcode": "85508-062"
    },
    {
        "city": "Pato Branco",
        "state": "PR",
        "district": "Alvorada",
        "street": "Travessa Siliprandi",
        "zipcode": "85508-043"
    },
    {
        "city": "Pato Branco",
        "state": "PR",
        "district": "Alvorada",
        "street": "Rua Tomé de Souza",
        "zipcode": "85508-018"
    },
    {
        "city": "Pato Branco",
        "state": "PR",
        "district": "São Cristóvão",
        "street": "Rua Vinte e Um de Abril",
        "zipcode": "85508-212"
    },
    {
        "city": "Pato Branco",
        "state": "PR",
        "district": "Cristo Rei",
        "street": "Avenida Tupi",
        "zipcode": "85507-513"
    },
    {
        "city": "Pato Branco",
        "state": "PR",
        "district": "Cristo Rei",
        "street": "Avenida Tupi",
        "zipcode": "85507-512"
    },
    {
        "city": "Pato Branco",
        "state": "PR",
        "district": "Sudoeste",
        "street": "Avenida Tupi",
        "zipcode": "85507-405"
    },
    {
        "city": "Pato Branco",
        "state": "PR",
        "district": "Santo Antônio",
        "street": "Avenida Tupi",
        "zipcode": "85507-315"
    },
    {
        "city": "Pato Branco",
        "state": "PR",
        "district": "Santo Antônio",
        "street": "Travessa Andirá",
        "zipcode": "85507-340"
    },
    {
        "city": "Pato Branco",
        "state": "PR",
        "district": "Santo Antônio",
        "street": "Rua André de Barros",
        "zipcode": "85507-290"
    },
    {
        "city": "Pato Branco",
        "state": "PR",
        "district": "Cristo Rei",
        "street": "Rua Artêmio Felini",
        "zipcode": "85507-510"
    },
    {
        "city": "Pato Branco",
        "state": "PR",
        "district": "Novo Horizonte",
        "street": "Rua dos Cravos",
        "zipcode": "85507-590"
    },
    {
        "city": "Pato Branco",
        "state": "PR",
        "district": "Sudoeste",
        "street": "Travessa Cruz Alta",
        "zipcode": "85507-403"
    },
    {
        "city": "Pato Branco",
        "state": "PR",
        "district": "Morumbi",
        "street": "Travessa Dourados",
        "zipcode": "85507-250"
    },
    {
        "city": "Pato Branco",
        "state": "PR",
        "district": "Santo Antônio",
        "street": "Rua Guaporé",
        "zipcode": "85507-390"
    },
    {
        "city": "Pato Branco",
        "state": "PR",
        "district": "Novo Horizonte",
        "street": "Rua das Hortênsias",
        "zipcode": "85507-560"
    },
    {
        "city": "Pato Branco",
        "state": "PR",
        "district": "Sudoeste",
        "street": "Travessa Ibema",
        "zipcode": "85507-418"
    },
    {
        "city": "Pato Branco",
        "state": "PR",
        "district": "Cristo Rei",
        "street": "Rua Londrina",
        "zipcode": "85507-530"
    },
    {
        "city": "Pato Branco",
        "state": "PR",
        "district": "Cristo Rei",
        "street": "Rua Marechal Deodoro",
        "zipcode": "85507-520"
    },
    {
        "city": "Pato Branco",
        "state": "PR",
        "district": "Novo Horizonte",
        "street": "Rua das Margaridas",
        "zipcode": "85507-600"
    },
    {
        "city": "Pato Branco",
        "state": "PR",
        "district": "Morumbi",
        "street": "Rua Lupicínio Rodrigues",
        "zipcode": "85507-230"
    },
    {
        "city": "Pato Branco",
        "state": "PR",
        "district": "Novo Horizonte",
        "street": "Rua das Orquídeas",
        "zipcode": "85507-580"
    },
    {
        "city": "Pato Branco",
        "state": "PR",
        "district": "Santo Antônio",
        "street": "Rua Presidente Juscelino",
        "zipcode": "85507-370"
    },
    {
        "city": "Pato Branco",
        "state": "PR",
        "district": "Santo Antônio",
        "street": "Rua Presidente Vargas",
        "zipcode": "85507-380"
    },
    {
        "city": "Pato Branco",
        "state": "PR",
        "district": "Sudoeste",
        "street": "Rua Passo Fundo",
        "zipcode": "85507-410"
    },
    {
        "city": "Pato Branco",
        "state": "PR",
        "district": "Morumbi",
        "street": "Rua Princesa Isabel",
        "zipcode": "85507-300"
    },
    {
        "city": "Pato Branco",
        "state": "PR",
        "district": "Sudoeste",
        "street": "Rua Santa Rita",
        "zipcode": "85507-417"
    },
    {
        "city": "Pato Branco",
        "state": "PR",
        "district": "Morumbi",
        "street": "Rua Santos Dumont",
        "zipcode": "85507-260"
    },
    {
        "city": "Pato Branco",
        "state": "PR",
        "district": "Sudoeste",
        "street": "Rua São Francisco",
        "zipcode": "85507-425"
    },
    {
        "city": "Pato Branco",
        "state": "PR",
        "district": "Sudoeste",
        "street": "Rua General Osório",
        "zipcode": "85507-414"
    },
    {
        "city": "Pato Branco",
        "state": "PR",
        "district": "Santo Antônio",
        "street": "Rua General Osório",
        "zipcode": "85507-320"
    },
    {
        "city": "Pato Branco",
        "state": "PR",
        "district": "Santo Antônio",
        "street": "Rua Duque de Caxias",
        "zipcode": "85507-310"
    },
    {
        "city": "Pato Branco",
        "state": "PR",
        "district": "Sudoeste",
        "street": "Rua Duque de Caxias",
        "zipcode": "85507-412"
    },
    {
        "city": "Pato Branco",
        "state": "PR",
        "district": "Sudoeste",
        "street": "Rua Frei Galvão",
        "zipcode": "85507-431"
    },
    {
        "city": "Pato Branco",
        "state": "PR",
        "district": "Sudoeste",
        "street": "Rua Santa Luzia",
        "zipcode": "85507-433"
    },
    {
        "city": "Pato Branco",
        "state": "PR",
        "district": "Sudoeste",
        "street": "Rua Santo Expedito",
        "zipcode": "85507-434"
    },
    {
        "city": "Pato Branco",
        "state": "PR",
        "district": "Cristo Rei",
        "street": "Rua Bento Gonçalves",
        "zipcode": "85507-536"
    },
    {
        "city": "Pato Branco",
        "state": "PR",
        "district": "Cristo Rei",
        "street": "Rua Curitiba",
        "zipcode": "85507-534"
    },
    {
        "city": "Pato Branco",
        "state": "PR",
        "district": "Novo Horizonte",
        "street": "Rua Curitiba",
        "zipcode": "85507-625"
    },
    {
        "city": "Pato Branco",
        "state": "PR",
        "district": "Novo Horizonte",
        "street": "Rua das Violetas",
        "zipcode": "85507-620"
    },
    {
        "city": "Pato Branco",
        "state": "PR",
        "district": "Santo Antônio",
        "street": "Rua Itá",
        "zipcode": "85507-330"
    },
    {
        "city": "Pato Branco",
        "state": "PR",
        "district": "Novo Horizonte",
        "street": "Rua dos Lírios",
        "zipcode": "85507-610"
    },
    {
        "city": "Pato Branco",
        "state": "PR",
        "district": "Novo Horizonte",
        "street": "Rua das Acácias",
        "zipcode": "85507-630"
    },
    {
        "city": "Pato Branco",
        "state": "PR",
        "district": "Sudoeste",
        "street": "Rua São Miguel",
        "zipcode": "85507-423"
    },
    {
        "city": "Pato Branco",
        "state": "PR",
        "district": "Sudoeste",
        "street": "Rua São Pedro",
        "zipcode": "85507-415"
    },
    {
        "city": "Pato Branco",
        "state": "PR",
        "district": "Morumbi",
        "street": "Rua Willibat",
        "zipcode": "85507-270"
    },
    {
        "city": "Pato Branco",
        "state": "PR",
        "district": "Sudoeste",
        "street": "Rua Alfredo Wurzius",
        "zipcode": "85507-408"
    },
    {
        "city": "Pato Branco",
        "state": "PR",
        "district": "Santo Antônio",
        "street": "Rua Tiradentes",
        "zipcode": "85507-360"
    },
    {
        "city": "Pato Branco",
        "state": "PR",
        "district": "Novo Horizonte",
        "street": "Rua Uruguaiana",
        "zipcode": "85507-500"
    },
    {
        "city": "Pato Branco",
        "state": "PR",
        "district": "Morumbi",
        "street": "Rua Vieira da Costa",
        "zipcode": "85507-240"
    },
    {
        "city": "Pato Branco",
        "state": "PR",
        "district": "Morumbi",
        "street": "Travessa Orlando Silva",
        "zipcode": "85507-220"
    },
    {
        "city": "Pato Branco",
        "state": "PR",
        "district": "Novo Horizonte",
        "street": "Rua das Azaléias",
        "zipcode": "85507-570"
    },
    {
        "city": "Pato Branco",
        "state": "PR",
        "district": "Sudoeste",
        "street": "Rua São Tomé",
        "zipcode": "85507-421"
    },
    {
        "city": "Pato Branco",
        "state": "PR",
        "district": "Sudoeste",
        "street": "Travessa Caxambu",
        "zipcode": "85507-400"
    },
    {
        "city": "Pato Branco",
        "state": "PR",
        "district": "Cristo Rei",
        "street": "Rua Maringá",
        "zipcode": "85507-540"
    },
    {
        "city": "Pato Branco",
        "state": "PR",
        "district": "Morumbi",
        "street": "Rua Timbó",
        "zipcode": "85507-280"
    },
    {
        "city": "Pato Branco",
        "state": "PR",
        "district": "Cristo Rei",
        "street": "Rua Antônio Ascari",
        "zipcode": "85506-650"
    },
    {
        "city": "Pato Branco",
        "state": "PR",
        "district": "Jardim Floresta",
        "street": "Rua Adolfo Domingos Zolet",
        "zipcode": "85506-710"
    },
    {
        "city": "Pato Branco",
        "state": "PR",
        "district": "Baixada",
        "street": "Rua Barão do Rio Branco",
        "zipcode": "85506-630"
    },
    {
        "city": "Pato Branco",
        "state": "PR",
        "district": "São Roque",
        "street": "Rua Campinas",
        "zipcode": "85507-020"
    },
    {
        "city": "Pato Branco",
        "state": "PR",
        "district": "Morumbi",
        "street": "Rua Ataúlfo Alves",
        "zipcode": "85507-010"
    },
    {
        "city": "Pato Branco",
        "state": "PR",
        "district": "São Roque",
        "street": "Rua Cubatão",
        "zipcode": "85507-150"
    },
    {
        "city": "Pato Branco",
        "state": "PR",
        "district": "Jardim Floresta",
        "street": "Rua Cirillo Caldato",
        "zipcode": "85506-700"
    },
    {
        "city": "Pato Branco",
        "state": "PR",
        "district": "Jardim Floresta",
        "street": "Rua Francisco Gross",
        "zipcode": "85506-610"
    },
    {
        "city": "Pato Branco",
        "state": "PR",
        "district": "Pinheirinho",
        "street": "Rua Frederico Chass",
        "zipcode": "85506-590"
    },
    {
        "city": "Pato Branco",
        "state": "PR",
        "district": "São Roque",
        "street": "Travessa Guarujá",
        "zipcode": "85507-160"
    },
    {
        "city": "Pato Branco",
        "state": "PR",
        "district": "Novo Horizonte",
        "street": "Rua Jacy Rodrigues Ferreira",
        "zipcode": "85506-720"
    },
    {
        "city": "Pato Branco",
        "state": "PR",
        "district": "São Roque",
        "street": "Travessa Jaú",
        "zipcode": "85507-170"
    },
    {
        "city": "Pato Branco",
        "state": "PR",
        "district": "Morumbi",
        "street": "Rua Lamartine Barbo",
        "zipcode": "85507-210"
    },
    {
        "city": "Pato Branco",
        "state": "PR",
        "district": "São Roque",
        "street": "Travessa Lorena",
        "zipcode": "85507-180"
    },
    {
        "city": "Pato Branco",
        "state": "PR",
        "district": "São Roque",
        "street": "Rua Marília",
        "zipcode": "85507-050"
    },
    {
        "city": "Pato Branco",
        "state": "PR",
        "district": "São Roque",
        "street": "Travessa Mauá",
        "zipcode": "85507-190"
    },
    {
        "city": "Pato Branco",
        "state": "PR",
        "district": "Jardim Floresta",
        "street": "Rua Miguel Parzianello",
        "zipcode": "85506-600"
    },
    {
        "city": "Pato Branco",
        "state": "PR",
        "district": "São Roque",
        "street": "Rua Leopoldina Iunk",
        "zipcode": "85507-100"
    },
    {
        "city": "Pato Branco",
        "state": "PR",
        "district": "Jardim Floresta",
        "street": "Rua Leopoldo Polazzo",
        "zipcode": "85506-660"
    },
    {
        "city": "Pato Branco",
        "state": "PR",
        "district": "São Roque",
        "street": "Rua Ribeirão Preto",
        "zipcode": "85507-080"
    },
    {
        "city": "Pato Branco",
        "state": "PR",
        "district": "Jardim Floresta",
        "street": "Rua Rio Branco",
        "zipcode": "85506-620"
    },
    {
        "city": "Pato Branco",
        "state": "PR",
        "district": "Morumbi",
        "street": "Travessa Santiago",
        "zipcode": "85507-005"
    },
    {
        "city": "Pato Branco",
        "state": "PR",
        "district": "São Roque",
        "street": "Rua São Paulo",
        "zipcode": "85507-120"
    },
    {
        "city": "Pato Branco",
        "state": "PR",
        "district": "Pinheirinho",
        "street": "Rua Poriquis",
        "zipcode": "85506-640"
    },
    {
        "city": "Pato Branco",
        "state": "PR",
        "district": "Morumbi",
        "street": "Rua Santa Maria",
        "zipcode": "85507-040"
    },
    {
        "city": "Pato Branco",
        "state": "PR",
        "district": "São Roque",
        "street": "Rua Santos",
        "zipcode": "85507-110"
    },
    {
        "city": "Pato Branco",
        "state": "PR",
        "district": "Jardim Floresta",
        "street": "Rua Roberto Colli",
        "zipcode": "85506-584"
    },
    {
        "city": "Pato Branco",
        "state": "PR",
        "district": "Jardim Floresta",
        "street": "Rua Silmar Spagnoli",
        "zipcode": "85506-585"
    },
    {
        "city": "Pato Branco",
        "state": "PR",
        "district": "Jardim Floresta",
        "street": "Rua Paolina Weber Guerios",
        "zipcode": "85506-587"
    },
    {
        "city": "Pato Branco",
        "state": "PR",
        "district": "Jardim Floresta",
        "street": "Rua André Cavalli",
        "zipcode": "85506-592"
    },
    {
        "city": "Pato Branco",
        "state": "PR",
        "district": "Jardim Floresta",
        "street": "Rua Celeste Mocelin",
        "zipcode": "85506-593"
    },
    {
        "city": "Pato Branco",
        "state": "PR",
        "district": "Jardim Floresta",
        "street": "Rua Aquiles Pastorello",
        "zipcode": "85506-595"
    },
    {
        "city": "Pato Branco",
        "state": "PR",
        "district": "São Roque",
        "street": "Rua Antônio Garcez",
        "zipcode": "85507-104"
    },
    {
        "city": "Pato Branco",
        "state": "PR",
        "district": "São Roque",
        "street": "Rua Máximo Sloboda",
        "zipcode": "85507-105"
    },
    {
        "city": "Pato Branco",
        "state": "PR",
        "district": "São Roque",
        "street": "Rua Adamastor Zimello",
        "zipcode": "85507-106"
    },
    {
        "city": "Pato Branco",
        "state": "PR",
        "district": "Jardim Floresta",
        "street": "Rua Pioneiro João Soransa",
        "zipcode": "85506-582"
    },
    {
        "city": "Pato Branco",
        "state": "PR",
        "district": "Jardim Floresta",
        "street": "Rua Pioneiro Alcides Tartari",
        "zipcode": "85506-603"
    },
    {
        "city": "Pato Branco",
        "state": "PR",
        "district": "São Roque",
        "street": "Rua Taubaté",
        "zipcode": "85507-140"
    },
    {
        "city": "Pato Branco",
        "state": "PR",
        "district": "Jardim Floresta",
        "street": "Rua Sebastião Rodrigues",
        "zipcode": "85506-680"
    },
    {
        "city": "Pato Branco",
        "state": "PR",
        "district": "São Roque",
        "street": "Rua Sorocaba",
        "zipcode": "85507-070"
    },
    {
        "city": "Pato Branco",
        "state": "PR",
        "district": "Jardim Floresta",
        "street": "Rua Valdemar Schuler",
        "zipcode": "85506-690"
    },
    {
        "city": "Pato Branco",
        "state": "PR",
        "district": "Morumbi",
        "street": "Travessa João Detoni",
        "zipcode": "85507-007"
    },
    {
        "city": "Pato Branco",
        "state": "PR",
        "district": "São Roque",
        "street": "Rua Terezinha Duarte",
        "zipcode": "85507-101"
    },
    {
        "city": "Pato Branco",
        "state": "PR",
        "district": "Dal Ross",
        "street": "Rua João Lora",
        "zipcode": "85507-090"
    },
    {
        "city": "Pato Branco",
        "state": "PR",
        "district": "São Roque",
        "street": "Rua Presidente Prudente",
        "zipcode": "85507-130"
    },
    {
        "city": "Pato Branco",
        "state": "PR",
        "district": "São Roque",
        "street": "Travessa Itu",
        "zipcode": "85507-030"
    },
    {
        "city": "Pato Branco",
        "state": "PR",
        "district": "Cristo Rei",
        "street": "Rua Aida da Costa",
        "zipcode": "85506-270"
    },
    {
        "city": "Pato Branco",
        "state": "PR",
        "district": "São Vicente",
        "street": "Rua Anchieta",
        "zipcode": "85506-360"
    },
    {
        "city": "Pato Branco",
        "state": "PR",
        "district": "Jardim Floresta",
        "street": "Rua Quintiliano de Moraes",
        "zipcode": "85506-682"
    },
    {
        "city": "Pato Branco",
        "state": "PR",
        "district": "Cristo Rei",
        "street": "Rua dos Andradas",
        "zipcode": "85506-260"
    },
    {
        "city": "Pato Branco",
        "state": "PR",
        "district": "São Vicente",
        "street": "Rua Antonina",
        "zipcode": "85506-370"
    },
    {
        "city": "Pato Branco",
        "state": "PR",
        "district": "Bonatto",
        "street": "Rua Bom Sucesso",
        "zipcode": "85506-500"
    },
    {
        "city": "Pato Branco",
        "state": "PR",
        "district": "Santa Terezinha",
        "street": "Rua Casemiro de Abreu",
        "zipcode": "85506-250"
    },
    {
        "city": "Pato Branco",
        "state": "PR",
        "district": "Bonatto",
        "street": "Rua Altamira",
        "zipcode": "85506-420"
    },
    {
        "city": "Pato Branco",
        "state": "PR",
        "district": "São Vicente",
        "street": "Rua Antero Petri",
        "zipcode": "85506-380"
    },
    {
        "city": "Pato Branco",
        "state": "PR",
        "district": "Cristo Rei",
        "street": "Rua Democratas",
        "zipcode": "85506-280"
    },
    {
        "city": "Pato Branco",
        "state": "PR",
        "district": "Bonatto",
        "street": "Rua Eduardo Amadori",
        "zipcode": "85506-480"
    },
    {
        "city": "Pato Branco",
        "state": "PR",
        "district": "Cristo Rei",
        "street": "Rua Domingos Mattos",
        "zipcode": "85506-300"
    },
    {
        "city": "Pato Branco",
        "state": "PR",
        "district": "Jardim Floresta",
        "street": "Rua Eduardo Pedroso",
        "zipcode": "85506-580"
    },
    {
        "city": "Pato Branco",
        "state": "PR",
        "district": "Cristo Rei",
        "street": "Rua Fernando Ferrari",
        "zipcode": "85506-400"
    },
    {
        "city": "Pato Branco",
        "state": "PR",
        "district": "Industrial",
        "street": "Rua Francisco Brochado da Rocha",
        "zipcode": "85506-550"
    },
    {
        "city": "Pato Branco",
        "state": "PR",
        "district": "Cristo Rei",
        "street": "Rua Francisco Rodrigues",
        "zipcode": "85506-340"
    },
    {
        "city": "Pato Branco",
        "state": "PR",
        "district": "Industrial",
        "street": "Rua Industrial",
        "zipcode": "85506-520"
    },
    {
        "city": "Pato Branco",
        "state": "PR",
        "district": "Bonatto",
        "street": "Rua João Alves de Abreu",
        "zipcode": "85506-490"
    },
    {
        "city": "Pato Branco",
        "state": "PR",
        "district": "Bonatto",
        "street": "Rua João Martins de Souza",
        "zipcode": "85506-510"
    },
    {
        "city": "Pato Branco",
        "state": "PR",
        "district": "Bonatto",
        "street": "Rua João Vidor",
        "zipcode": "85506-425"
    },
    {
        "city": "Pato Branco",
        "state": "PR",
        "district": "Cristo Rei",
        "street": "Rua João Rodrigues",
        "zipcode": "85506-266"
    },
    {
        "city": "Pato Branco",
        "state": "PR",
        "district": "Industrial",
        "street": "Rua José Vigano",
        "zipcode": "85506-545"
    },
    {
        "city": "Pato Branco",
        "state": "PR",
        "district": "Industrial",
        "street": "Rua Mateus Leme",
        "zipcode": "85506-430"
    },
    {
        "city": "Pato Branco",
        "state": "PR",
        "district": "Industrial",
        "street": "Travessa Palmeiras",
        "zipcode": "85506-410"
    },
    {
        "city": "Pato Branco",
        "state": "PR",
        "district": "Industrial",
        "street": "Rua Pedro de Lima",
        "zipcode": "85506-555"
    },
    {
        "city": "Pato Branco",
        "state": "PR",
        "district": "Industrial",
        "street": "Rua Pedro Ivo",
        "zipcode": "85506-560"
    },
    {
        "city": "Pato Branco",
        "state": "PR",
        "district": "Industrial",
        "street": "Rua Pioneiro José Catusso",
        "zipcode": "85506-556"
    },
    {
        "city": "Pato Branco",
        "state": "PR",
        "district": "Bonatto",
        "street": "Rua Ricieri Picoli",
        "zipcode": "85506-470"
    },
    {
        "city": "Pato Branco",
        "state": "PR",
        "district": "Cristo Rei",
        "street": "Rua Romano Radaelli",
        "zipcode": "85506-290"
    },
    {
        "city": "Pato Branco",
        "state": "PR",
        "district": "Cristo Rei",
        "street": "Rua Possidio Salomoni",
        "zipcode": "85506-320"
    },
    {
        "city": "Pato Branco",
        "state": "PR",
        "district": "Industrial",
        "street": "Rua Santa Fé",
        "zipcode": "85506-570"
    },
    {
        "city": "Pato Branco",
        "state": "PR",
        "district": "Industrial",
        "street": "Rua Tapuia",
        "zipcode": "85506-546"
    },
    {
        "city": "Pato Branco",
        "state": "PR",
        "district": "Bonatto",
        "street": "Rua Venâncio de Andrade",
        "zipcode": "85506-440"
    },
    {
        "city": "Pato Branco",
        "state": "PR",
        "district": "São Vicente",
        "street": "Rua Tocantins",
        "zipcode": "85506-330"
    },
    {
        "city": "Pato Branco",
        "state": "PR",
        "district": "Industrial",
        "street": "Rua Vereador Orestes Pagliosa",
        "zipcode": "85506-525"
    },
    {
        "city": "Pato Branco",
        "state": "PR",
        "district": "Industrial",
        "street": "Rua Frederico Sguarizzi",
        "zipcode": "85506-530"
    },
    {
        "city": "Pato Branco",
        "state": "PR",
        "district": "Bonatto",
        "street": "Rua Constantino Bonato",
        "zipcode": "85506-441"
    },
    {
        "city": "Pato Branco",
        "state": "PR",
        "district": "Bonatto",
        "street": "Rua Euclides Carneiro",
        "zipcode": "85506-442"
    },
    {
        "city": "Pato Branco",
        "state": "PR",
        "district": "Jardim Floresta",
        "street": "Rua Basílio Flyssak",
        "zipcode": "85506-581"
    },
    {
        "city": "Pato Branco",
        "state": "PR",
        "district": "Cristo Rei",
        "street": "Rua Luiz Fredo",
        "zipcode": "85506-262"
    },
    {
        "city": "Pato Branco",
        "state": "PR",
        "district": "Fraron",
        "street": "Rua Zeferina Artuzi Oltramari",
        "zipcode": "85503-405"
    },
    {
        "city": "Pato Branco",
        "state": "PR",
        "district": "Cristo Rei",
        "street": "Rua Mila",
        "zipcode": "85506-263"
    },
    {
        "city": "Pato Branco",
        "state": "PR",
        "district": "Bonatto",
        "street": "Rua Sebastião Lara",
        "zipcode": "85506-450"
    },
    {
        "city": "Pato Branco",
        "state": "PR",
        "district": "Cristo Rei",
        "street": "Rua Vicente Vieira Ferreira",
        "zipcode": "85506-310"
    },
    {
        "city": "Pato Branco",
        "state": "PR",
        "district": "São Vicente",
        "street": "Rua Waldemar Vigano",
        "zipcode": "85506-350"
    },
    {
        "city": "Pato Branco",
        "state": "PR",
        "district": "São Vicente",
        "street": "Travessa Taobá",
        "zipcode": "85506-325"
    },
    {
        "city": "Pato Branco",
        "state": "PR",
        "district": "Santa Terezinha",
        "street": "Avenida Tupi",
        "zipcode": "85506-038"
    },
    {
        "city": "Pato Branco",
        "state": "PR",
        "district": "Cristo Rei",
        "street": "Rua José Cardoso Bonifácio",
        "zipcode": "85506-264"
    },
    {
        "city": "Pato Branco",
        "state": "PR",
        "district": "Bonatto",
        "street": "Rua Antonio Pedro Ferronato",
        "zipcode": "85506-505"
    },
    {
        "city": "Pato Branco",
        "state": "PR",
        "district": "Pinheirinho",
        "street": "Rua Amapá",
        "zipcode": "85506-080"
    },
    {
        "city": "Pato Branco",
        "state": "PR",
        "district": "Santa Terezinha",
        "street": "Rua Araucária",
        "zipcode": "85506-060"
    },
    {
        "city": "Pato Branco",
        "state": "PR",
        "district": "Santa Terezinha",
        "street": "Rua Amadeu Bernardi",
        "zipcode": "85506-025"
    },
    {
        "city": "Pato Branco",
        "state": "PR",
        "district": "Santa Terezinha",
        "street": "Travessa Bortot",
        "zipcode": "85506-050"
    },
    {
        "city": "Pato Branco",
        "state": "PR",
        "district": "Santa Terezinha",
        "street": "Rua Constante Andreatta",
        "zipcode": "85506-030"
    },
    {
        "city": "Pato Branco",
        "state": "PR",
        "district": "Industrial",
        "street": "Rua Pioneiro Sadi Vigano",
        "zipcode": "85506-527"
    },
    {
        "city": "Pato Branco",
        "state": "PR",
        "district": "Bonatto",
        "street": "Rua Gregorio Pastorello",
        "zipcode": "85506-489"
    },
    {
        "city": "Pato Branco",
        "state": "PR",
        "district": "Bonatto",
        "street": "Travessa Antonia Catusso",
        "zipcode": "85506-504"
    },
    {
        "city": "Pato Branco",
        "state": "PR",
        "district": "Bortot",
        "street": "Rua Florentino Barrinuevo",
        "zipcode": "85504-193"
    },
    {
        "city": "Pato Branco",
        "state": "PR",
        "district": "Pinheirinho",
        "street": "Rua Bartolomeu Bueno",
        "zipcode": "85506-140"
    },
    {
        "city": "Pato Branco",
        "state": "PR",
        "district": "Santa Terezinha",
        "street": "Rua Fiorelo Zandoná",
        "zipcode": "85506-010"
    },
    {
        "city": "Pato Branco",
        "state": "PR",
        "district": "Pinheirinho",
        "street": "Rua Iguatemi",
        "zipcode": "85506-210"
    },
    {
        "city": "Pato Branco",
        "state": "PR",
        "district": "Pinheirinho",
        "street": "Rua Ivaí",
        "zipcode": "85506-100"
    },
    {
        "city": "Pato Branco",
        "state": "PR",
        "district": "Santa Terezinha",
        "street": "Rua Genuíno Piacentini",
        "zipcode": "85506-220"
    },
    {
        "city": "Pato Branco",
        "state": "PR",
        "district": "Santa Terezinha",
        "street": "Rua João Pessoa",
        "zipcode": "85506-230"
    },
    {
        "city": "Pato Branco",
        "state": "PR",
        "district": "Pinheirinho",
        "street": "Rua Lupicínio Rodrigues",
        "zipcode": "85506-150"
    },
    {
        "city": "Pato Branco",
        "state": "PR",
        "district": "Pinheirinho",
        "street": "Rua Napoleão Corrêa Lobo",
        "zipcode": "85506-120"
    },
    {
        "city": "Pato Branco",
        "state": "PR",
        "district": "Santa Terezinha",
        "street": "Rua Raimundo Cadorin",
        "zipcode": "85506-020"
    },
    {
        "city": "Pato Branco",
        "state": "PR",
        "district": "Pinheirinho",
        "street": "Rua Piquiri",
        "zipcode": "85506-200"
    },
    {
        "city": "Pato Branco",
        "state": "PR",
        "district": "Santa Terezinha",
        "street": "Rua Sete de Setembro",
        "zipcode": "85506-040"
    },
    {
        "city": "Pato Branco",
        "state": "PR",
        "district": "Santa Terezinha",
        "street": "Travessa Simião",
        "zipcode": "85506-045"
    },
    {
        "city": "Pato Branco",
        "state": "PR",
        "district": "Pinheirinho",
        "street": "Rua Tuiuti",
        "zipcode": "85506-070"
    },
    {
        "city": "Pato Branco",
        "state": "PR",
        "district": "Santa Terezinha",
        "street": "Rua Visconde de Tamandaré",
        "zipcode": "85506-240"
    },
    {
        "city": "Pato Branco",
        "state": "PR",
        "district": "Pinheirinho",
        "street": "Rua Xavier da Silva",
        "zipcode": "85506-110"
    },
    {
        "city": "Pato Branco",
        "state": "PR",
        "district": "Pinheirinho",
        "street": "Rua Zacarias de Goes e Vasconcelos",
        "zipcode": "85506-130"
    },
    {
        "city": "Pato Branco",
        "state": "PR",
        "district": "Pinheirinho",
        "street": "Rua Vieira da Costa",
        "zipcode": "85506-160"
    },
    {
        "city": "Pato Branco",
        "state": "PR",
        "district": "Pinheirinho",
        "street": "Rua Amambaí",
        "zipcode": "85506-090"
    },
    {
        "city": "Pato Branco",
        "state": "PR",
        "district": "Pinheirinho",
        "street": "Rua Matias de Albuquerque",
        "zipcode": "85506-170"
    },
    {
        "city": "Pato Branco",
        "state": "PR",
        "district": "Parque do Som",
        "street": "Rua Boleslau Fidalski",
        "zipcode": "85505-420"
    },
    {
        "city": "Pato Branco",
        "state": "PR",
        "district": "Parque do Som",
        "street": "Rua Carlos Tumeleiro",
        "zipcode": "85505-422"
    },
    {
        "city": "Pato Branco",
        "state": "PR",
        "district": "Parque do Som",
        "street": "Rua Mário João Perim",
        "zipcode": "85505-423"
    },
    {
        "city": "Pato Branco",
        "state": "PR",
        "district": "Parque do Som",
        "street": "Rua Urbano Wittmann",
        "zipcode": "85505-426"
    },
    {
        "city": "Pato Branco",
        "state": "PR",
        "district": "Parque do Som",
        "street": "Rua Bruno Ceni",
        "zipcode": "85505-427"
    },
    {
        "city": "Pato Branco",
        "state": "PR",
        "district": "Parque do Som",
        "street": "Rua Avelino Giasson",
        "zipcode": "85505-428"
    },
    {
        "city": "Pato Branco",
        "state": "PR",
        "district": "Parque do Som",
        "street": "Rua Valmor Luiz Campestrini",
        "zipcode": "85505-429"
    },
    {
        "city": "Pato Branco",
        "state": "PR",
        "district": "Parque do Som",
        "street": "Rua Afonso Pópia",
        "zipcode": "85505-430"
    },
    {
        "city": "Pato Branco",
        "state": "PR",
        "district": "Pinheirinho",
        "street": "Rua Norberto Maraschin",
        "zipcode": "85506-132"
    },
    {
        "city": "Pato Branco",
        "state": "PR",
        "district": "Pinheirinho",
        "street": "Rua Osvaldo Bertelli",
        "zipcode": "85506-133"
    },
    {
        "city": "Pato Branco",
        "state": "PR",
        "district": "Parque do Som",
        "street": "Rua Maria Graciosa",
        "zipcode": "85505-424"
    },
    {
        "city": "Pato Branco",
        "state": "PR",
        "district": "Parque do Som",
        "street": "Rua Maria Bombarda Oldoni",
        "zipcode": "85505-425"
    },
    {
        "city": "Pato Branco",
        "state": "PR",
        "district": "Parque do Som",
        "street": "Rua Carmelinda Paloski",
        "zipcode": "85505-433"
    },
    {
        "city": "Pato Branco",
        "state": "PR",
        "district": "Parque do Som",
        "street": "Rua José Valdir Garcia",
        "zipcode": "85505-440"
    },
    {
        "city": "Pato Branco",
        "state": "PR",
        "district": "Fraron",
        "street": "Rua Campo Seguro",
        "zipcode": "85503-334"
    },
    {
        "city": "Pato Branco",
        "state": "PR",
        "district": "Parque do Som",
        "street": "Rua Altevir Turra",
        "zipcode": "85505-434"
    },
    {
        "city": "Pato Branco",
        "state": "PR",
        "district": "Parque do Som",
        "street": "Rua Araribóia",
        "zipcode": "85505-445"
    },
    {
        "city": "Pato Branco",
        "state": "PR",
        "district": "Parque do Som",
        "street": "Rua João Oldoni",
        "zipcode": "85505-447"
    },
    {
        "city": "Pato Branco",
        "state": "PR",
        "district": "Parque do Som",
        "street": "Rua Frei Sérgio Hillescheim",
        "zipcode": "85505-446"
    },
    {
        "city": "Pato Branco",
        "state": "PR",
        "district": "Baixada",
        "street": "Avenida Tupi",
        "zipcode": "85505-981"
    },
    {
        "city": "Pato Branco",
        "state": "PR",
        "district": "Baixada",
        "street": "Avenida Tupi",
        "zipcode": "85505-141"
    },
    {
        "city": "Pato Branco",
        "state": "PR",
        "district": "La Salle",
        "street": "Rua Ayrton Senna da Silva",
        "zipcode": "85505-322"
    },
    {
        "city": "Pato Branco",
        "state": "PR",
        "district": "La Salle",
        "street": "Rua Júlio Pagnoncelli",
        "zipcode": "85505-332"
    },
    {
        "city": "Pato Branco",
        "state": "PR",
        "district": "La Salle",
        "street": "Rua Aimoré",
        "zipcode": "85505-170"
    },
    {
        "city": "Pato Branco",
        "state": "PR",
        "district": "La Salle",
        "street": "Rua André Borsoi",
        "zipcode": "85505-310"
    },
    {
        "city": "Pato Branco",
        "state": "PR",
        "district": "La Salle",
        "street": "Rua Aracaju",
        "zipcode": "85505-240"
    },
    {
        "city": "Pato Branco",
        "state": "PR",
        "district": "La Salle",
        "street": "Rua Alagoas",
        "zipcode": "85505-260"
    },
    {
        "city": "Pato Branco",
        "state": "PR",
        "district": "La Salle",
        "street": "Rua Adolfo Chiquetta",
        "zipcode": "85505-290"
    },
    {
        "city": "Pato Branco",
        "state": "PR",
        "district": "La Salle",
        "street": "Rua Diogo Antônio Feijó",
        "zipcode": "85505-270"
    },
    {
        "city": "Pato Branco",
        "state": "PR",
        "district": "La Salle",
        "street": "Rua Francisco Xavier",
        "zipcode": "85505-020"
    },
    {
        "city": "Pato Branco",
        "state": "PR",
        "district": "Baixada",
        "street": "Rua Francisco Gabriel Neto",
        "zipcode": "85505-110"
    },
    {
        "city": "Pato Branco",
        "state": "PR",
        "district": "Centro",
        "street": "Travessa Goiás",
        "zipcode": "85505-005"
    },
    {
        "city": "Pato Branco",
        "state": "PR",
        "district": "La Salle",
        "street": "Rua Itacolomi",
        "zipcode": "85505-050"
    },
    {
        "city": "Pato Branco",
        "state": "PR",
        "district": "La Salle",
        "street": "Rua Itapuã",
        "zipcode": "85505-180"
    },
    {
        "city": "Pato Branco",
        "state": "PR",
        "district": "La Salle",
        "street": "Rua Lindolfo Dietrich",
        "zipcode": "85505-220"
    },
    {
        "city": "Pato Branco",
        "state": "PR",
        "district": "La Salle",
        "street": "Rua Luiz Favretto",
        "zipcode": "85505-150"
    },
    {
        "city": "Pato Branco",
        "state": "PR",
        "district": "La Salle",
        "street": "Rua Lídio Guerra",
        "zipcode": "85505-320"
    },
    {
        "city": "Pato Branco",
        "state": "PR",
        "district": "La Salle",
        "street": "Rua Maria Naura Camargo Rigon",
        "zipcode": "85505-300"
    },
    {
        "city": "Pato Branco",
        "state": "PR",
        "district": "La Salle",
        "street": "Rua Olindo Setti",
        "zipcode": "85505-380"
    },
    {
        "city": "Pato Branco",
        "state": "PR",
        "district": "La Salle",
        "street": "Travessa Paulo Pezarico",
        "zipcode": "85505-070"
    },
    {
        "city": "Pato Branco",
        "state": "PR",
        "district": "La Salle",
        "street": "Rua Olívio Copetti",
        "zipcode": "85505-040"
    },
    {
        "city": "Pato Branco",
        "state": "PR",
        "district": "La Salle",
        "street": "Travessa Pinheiro Machado",
        "zipcode": "85505-060"
    },
    {
        "city": "Pato Branco",
        "state": "PR",
        "district": "La Salle",
        "street": "Rua Prefeito Graeff",
        "zipcode": "85505-120"
    },
    {
        "city": "Pato Branco",
        "state": "PR",
        "district": "La Salle",
        "street": "Rua Presidente Castelo Branco",
        "zipcode": "85505-340"
    },
    {
        "city": "Pato Branco",
        "state": "PR",
        "district": "La Salle",
        "street": "Rua Presidente Costa e Silva",
        "zipcode": "85505-080"
    },
    {
        "city": "Pato Branco",
        "state": "PR",
        "district": "La Salle",
        "street": "Rua Prefeito Tomazzoni",
        "zipcode": "85505-160"
    },
    {
        "city": "Pato Branco",
        "state": "PR",
        "district": "La Salle",
        "street": "Rua Primo Miotto",
        "zipcode": "85505-360"
    },
    {
        "city": "Pato Branco",
        "state": "PR",
        "district": "La Salle",
        "street": "Travessa Santo Antônio",
        "zipcode": "85505-230"
    },
    {
        "city": "Pato Branco",
        "state": "PR",
        "district": "La Salle",
        "street": "Rua Sílvio Vidal",
        "zipcode": "85505-010"
    },
    {
        "city": "Pato Branco",
        "state": "PR",
        "district": "Baixada",
        "street": "Travessa Santo Colla",
        "zipcode": "85505-145"
    },
    {
        "city": "Pato Branco",
        "state": "PR",
        "district": "La Salle",
        "street": "Rua Sergipe",
        "zipcode": "85505-250"
    },
    {
        "city": "Pato Branco",
        "state": "PR",
        "district": "Baixada",
        "street": "Rua Tocantins",
        "zipcode": "85505-140"
    },
    {
        "city": "Pato Branco",
        "state": "PR",
        "district": "La Salle",
        "street": "Travessa Alvino Casiraghi",
        "zipcode": "85505-200"
    },
    {
        "city": "Pato Branco",
        "state": "PR",
        "district": "La Salle",
        "street": "Rua Vilson Valdir Amadori",
        "zipcode": "85505-330"
    },
    {
        "city": "Pato Branco",
        "state": "PR",
        "district": "La Salle",
        "street": "Rua Bispo Dom Carlos Eduardo",
        "zipcode": "85505-280"
    },
    {
        "city": "Pato Branco",
        "state": "PR",
        "district": "La Salle",
        "street": "Rua Pioneiro Alberto Braun",
        "zipcode": "85505-100"
    },
    {
        "city": "Pato Branco",
        "state": "PR",
        "district": "La Salle",
        "street": "Travessa Indus",
        "zipcode": "85505-025"
    },
    {
        "city": "Pato Branco",
        "state": "PR",
        "district": "La Salle",
        "street": "Travessa Protásio Dosciatti",
        "zipcode": "85505-090"
    },
    {
        "city": "Pato Branco",
        "state": "PR",
        "district": "La Salle",
        "street": "Rua Gotardo Dagostim",
        "zipcode": "85505-210"
    },
    {
        "city": "Pato Branco",
        "state": "PR",
        "district": "La Salle",
        "street": "Rua Vereador José Antônio da Silva",
        "zipcode": "85505-130"
    },
    {
        "city": "Pato Branco",
        "state": "PR",
        "district": "São Francisco",
        "street": "Rua Aderbal Tavarez da Luz",
        "zipcode": "85504-814"
    },
    {
        "city": "Pato Branco",
        "state": "PR",
        "district": "São Francisco",
        "street": "Rua Gelmino Martignoni",
        "zipcode": "85504-815"
    },
    {
        "city": "Pato Branco",
        "state": "PR",
        "district": "São Francisco",
        "street": "Rua João Gualberto Gaspar",
        "zipcode": "85504-817"
    },
    {
        "city": "Pato Branco",
        "state": "PR",
        "district": "São Francisco",
        "street": "Rua Adão Mackievics",
        "zipcode": "85504-819"
    },
    {
        "city": "Pato Branco",
        "state": "PR",
        "district": "São Francisco",
        "street": "Rua Oswaldo Saraiva de Medeiros",
        "zipcode": "85504-820"
    },
    {
        "city": "Pato Branco",
        "state": "PR",
        "district": "São Francisco",
        "street": "Rua Ilda Bazzo",
        "zipcode": "85504-809"
    },
    {
        "city": "Pato Branco",
        "state": "PR",
        "district": "São Francisco",
        "street": "Rua Luiz Guerro Sobrinho",
        "zipcode": "85504-812"
    },
    {
        "city": "Pato Branco",
        "state": "PR",
        "district": "La Salle",
        "street": "Rua José Picolo",
        "zipcode": "85505-312"
    },
    {
        "city": "Pato Branco",
        "state": "PR",
        "district": "Baixada",
        "street": "Rua Paraná",
        "zipcode": "85505-142"
    },
    {
        "city": "Pato Branco",
        "state": "PR",
        "district": "La Salle",
        "street": "Rua Araribóia",
        "zipcode": "85505-036"
    },
    {
        "city": "Pato Branco",
        "state": "PR",
        "district": "La Salle",
        "street": "Rua Araribóia",
        "zipcode": "85505-038"
    },
    {
        "city": "Pato Branco",
        "state": "PR",
        "district": "São Luiz",
        "street": "Rua Itapuã",
        "zipcode": "85504-707"
    },
    {
        "city": "Pato Branco",
        "state": "PR",
        "district": "São Luiz",
        "street": "Rua Aimoré",
        "zipcode": "85504-706"
    },
    {
        "city": "Pato Branco",
        "state": "PR",
        "district": "São Luiz",
        "street": "Rua Anibal Leal",
        "zipcode": "85504-716"
    },
    {
        "city": "Pato Branco",
        "state": "PR",
        "district": "Bancários",
        "street": "Rua Carlos Caldart",
        "zipcode": "85504-510"
    },
    {
        "city": "Pato Branco",
        "state": "PR",
        "district": "Pinheiros",
        "street": "Rua Carlos Michelon",
        "zipcode": "85504-560"
    },
    {
        "city": "Pato Branco",
        "state": "PR",
        "district": "Bortot",
        "street": "Rua Carmela Bortot",
        "zipcode": "85504-680"
    },
    {
        "city": "Pato Branco",
        "state": "PR",
        "district": "Industrial",
        "street": "Rodovia BR",
        "zipcode": "85504-670"
    },
    {
        "city": "Pato Branco",
        "state": "PR",
        "district": "Parzianello",
        "street": "Travessa Eugênio Parzianello",
        "zipcode": "85504-500"
    },
    {
        "city": "Pato Branco",
        "state": "PR",
        "district": "Pinheiros",
        "street": "Rua Felipe Camarão",
        "zipcode": "85504-650"
    },
    {
        "city": "Pato Branco",
        "state": "PR",
        "district": "São Francisco",
        "street": "Rua Getúlio Dal Pasquale",
        "zipcode": "85504-610"
    },
    {
        "city": "Pato Branco",
        "state": "PR",
        "district": "São Francisco",
        "street": "Avenida Industrial",
        "zipcode": "85504-620"
    },
    {
        "city": "Pato Branco",
        "state": "PR",
        "district": "Parzianello",
        "street": "Rua Ivo Cantu",
        "zipcode": "85504-530"
    },
    {
        "city": "Pato Branco",
        "state": "PR",
        "district": "Bortot",
        "street": "Rua Entre Rios",
        "zipcode": "85504-660"
    },
    {
        "city": "Pato Branco",
        "state": "PR",
        "district": "Parzianello",
        "street": "Rua José Cattani",
        "zipcode": "85504-540"
    },
    {
        "city": "Pato Branco",
        "state": "PR",
        "district": "Cadorin",
        "street": "Rua José Vergílio Cantu",
        "zipcode": "85504-570"
    },
    {
        "city": "Pato Branco",
        "state": "PR",
        "district": "São Francisco",
        "street": "Rua Pedro Detoni",
        "zipcode": "85504-640"
    },
    {
        "city": "Pato Branco",
        "state": "PR",
        "district": "Cadorin",
        "street": "Rua Tereza Cadorin",
        "zipcode": "85504-580"
    },
    {
        "city": "Pato Branco",
        "state": "PR",
        "district": "São Luiz",
        "street": "Avenida das Torres",
        "zipcode": "85504-710"
    },
    {
        "city": "Pato Branco",
        "state": "PR",
        "district": "Parzianello",
        "street": "Rua São Salvador",
        "zipcode": "85504-520"
    },
    {
        "city": "Pato Branco",
        "state": "PR",
        "district": "Cadorin",
        "street": "Rua Vinícius Cadorin",
        "zipcode": "85504-600"
    },
    {
        "city": "Pato Branco",
        "state": "PR",
        "district": "Cadorin",
        "street": "Rua Prudêncio Alves de Oliveira",
        "zipcode": "85504-590"
    },
    {
        "city": "Pato Branco",
        "state": "PR",
        "district": "São Francisco",
        "street": "Rua Geraldo Veronese",
        "zipcode": "85504-793"
    },
    {
        "city": "Pato Branco",
        "state": "PR",
        "district": "São Francisco",
        "street": "Rua Vitorino Tiocheta",
        "zipcode": "85504-800"
    },
    {
        "city": "Pato Branco",
        "state": "PR",
        "district": "São Francisco",
        "street": "Rua Natal Mazzuco",
        "zipcode": "85504-802"
    },
    {
        "city": "Pato Branco",
        "state": "PR",
        "district": "São Francisco",
        "street": "Rua Celito Giacomel",
        "zipcode": "85504-803"
    },
    {
        "city": "Pato Branco",
        "state": "PR",
        "district": "São Francisco",
        "street": "Rua Aquiles Bet",
        "zipcode": "85504-805"
    },
    {
        "city": "Pato Branco",
        "state": "PR",
        "district": "São Francisco",
        "street": "Travessa São Francisco",
        "zipcode": "85504-806"
    },
    {
        "city": "Pato Branco",
        "state": "PR",
        "district": "São Luiz",
        "street": "Rua Vitório Matiello",
        "zipcode": "85504-730"
    },
    {
        "city": "Pato Branco",
        "state": "PR",
        "district": "São Luiz",
        "street": "Rua Elena Braun",
        "zipcode": "85504-734"
    },
    {
        "city": "Pato Branco",
        "state": "PR",
        "district": "São Luiz",
        "street": "Rua Octaviano Marcante",
        "zipcode": "85504-736"
    },
    {
        "city": "Pato Branco",
        "state": "PR",
        "district": "São Luiz",
        "street": "Rua Nicanor Bacin",
        "zipcode": "85504-740"
    },
    {
        "city": "Pato Branco",
        "state": "PR",
        "district": "Cadorin",
        "street": "Rua Adelaide J. Cadorin",
        "zipcode": "85504-594"
    },
    {
        "city": "Pato Branco",
        "state": "PR",
        "district": "Cadorin",
        "street": "Rua Aldo Antonio Cadorin",
        "zipcode": "85504-592"
    },
    {
        "city": "Pato Branco",
        "state": "PR",
        "district": "Parzianello",
        "street": "Travessa Silvio Pagnoncelli",
        "zipcode": "85504-492"
    },
    {
        "city": "Pato Branco",
        "state": "PR",
        "district": "São Luiz",
        "street": "Rua Angelo Merlo",
        "zipcode": "85504-738"
    },
    {
        "city": "Pato Branco",
        "state": "PR",
        "district": "Cadorin",
        "street": "Rua Tapir",
        "zipcode": "85504-575"
    },
    {
        "city": "Pato Branco",
        "state": "PR",
        "district": "Cadorin",
        "street": "Rua Itabira",
        "zipcode": "85504-578"
    },
    {
        "city": "Pato Branco",
        "state": "PR",
        "district": "Fraron",
        "street": "Rua Primo Lavezzo",
        "zipcode": "85503-328"
    },
    {
        "city": "Pato Branco",
        "state": "PR",
        "district": "São Francisco",
        "street": "Rua Ary Bodanese",
        "zipcode": "85504-794"
    },
    {
        "city": "Pato Branco",
        "state": "PR",
        "district": "São Francisco",
        "street": "Rua Otávio Forselini",
        "zipcode": "85504-791"
    },
    {
        "city": "Pato Branco",
        "state": "PR",
        "district": "Vila Isabel",
        "street": "Rua das Oliveiras",
        "zipcode": "85504-314"
    },
    {
        "city": "Pato Branco",
        "state": "PR",
        "district": "Bancários",
        "street": "Rua Itapuã",
        "zipcode": "85504-424"
    },
    {
        "city": "Pato Branco",
        "state": "PR",
        "district": "Pinheiros",
        "street": "Rua Itapuã",
        "zipcode": "85504-368"
    },
    {
        "city": "Pato Branco",
        "state": "PR",
        "district": "Vila Isabel",
        "street": "Rua Nereu Ramos",
        "zipcode": "85504-312"
    },
    {
        "city": "Pato Branco",
        "state": "PR",
        "district": "Vila Isabel",
        "street": "Rua Pedro Soares",
        "zipcode": "85504-317"
    },
    {
        "city": "Pato Branco",
        "state": "PR",
        "district": "Pinheiros",
        "street": "Rua Salgado Filho",
        "zipcode": "85504-374"
    },
    {
        "city": "Pato Branco",
        "state": "PR",
        "district": "Vila Isabel",
        "street": "Rua Manoel Ribas",
        "zipcode": "85504-313"
    },
    {
        "city": "Pato Branco",
        "state": "PR",
        "district": "Pinheiros",
        "street": "Rua Brasília",
        "zipcode": "85504-379"
    },
    {
        "city": "Pato Branco",
        "state": "PR",
        "district": "Vila Isabel",
        "street": "Rua Silva Jardim",
        "zipcode": "85504-311"
    },
    {
        "city": "Pato Branco",
        "state": "PR",
        "district": "São Luiz",
        "street": "Rua Silva Jardim",
        "zipcode": "85504-708"
    },
    {
        "city": "Pato Branco",
        "state": "PR",
        "district": "São Luiz",
        "street": "Rua Arthur Bernardes",
        "zipcode": "85504-704"
    },
    {
        "city": "Pato Branco",
        "state": "PR",
        "district": "Vila Isabel",
        "street": "Rua Abel Bortot",
        "zipcode": "85504-280"
    },
    {
        "city": "Pato Branco",
        "state": "PR",
        "district": "Bortot",
        "street": "Rua Antônio Franco",
        "zipcode": "85504-200"
    },
    {
        "city": "Pato Branco",
        "state": "PR",
        "district": "Pinheiros",
        "street": "Rua Belo Horizonte",
        "zipcode": "85504-372"
    },
    {
        "city": "Pato Branco",
        "state": "PR",
        "district": "Bortot",
        "street": "Travessa da Cerâmica",
        "zipcode": "85504-170"
    },
    {
        "city": "Pato Branco",
        "state": "PR",
        "district": "Vila Isabel",
        "street": "Rua da Copel",
        "zipcode": "85504-260"
    },
    {
        "city": "Pato Branco",
        "state": "PR",
        "district": "Parzianello",
        "street": "Rua Iguaçu",
        "zipcode": "85504-460"
    },
    {
        "city": "Pato Branco",
        "state": "PR",
        "district": "Bancários",
        "street": "Rua Itabira",
        "zipcode": "85504-430"
    },
    {
        "city": "Pato Branco",
        "state": "PR",
        "district": "Parzianello",
        "street": "Rua Jaciretã",
        "zipcode": "85504-440"
    },
    {
        "city": "Pato Branco",
        "state": "PR",
        "district": "Parzianello",
        "street": "Rua Ibiporã",
        "zipcode": "85504-450"
    },
    {
        "city": "Pato Branco",
        "state": "PR",
        "district": "Pinheiros",
        "street": "Rua João Alves de Medeiros",
        "zipcode": "85504-360"
    },
    {
        "city": "Pato Branco",
        "state": "PR",
        "district": "Parzianello",
        "street": "Travessa Luiz Batistus",
        "zipcode": "85504-490"
    },
    {
        "city": "Pato Branco",
        "state": "PR",
        "district": "Pinheiros",
        "street": "Rua Manaus",
        "zipcode": "85504-370"
    },
    {
        "city": "Pato Branco",
        "state": "PR",
        "district": "Bortot",
        "street": "Rua Estácio de Sá",
        "zipcode": "85504-190"
    },
    {
        "city": "Pato Branco",
        "state": "PR",
        "district": "São Francisco",
        "street": "Rua Marco Menosso",
        "zipcode": "85504-798"
    },
    {
        "city": "Pato Branco",
        "state": "PR",
        "district": "São Francisco",
        "street": "Rua Delelmo Caudato",
        "zipcode": "85504-797"
    },
    {
        "city": "Pato Branco",
        "state": "PR",
        "district": "Bancários",
        "street": "Rua Otílio Amadori",
        "zipcode": "85504-410"
    },
    {
        "city": "Pato Branco",
        "state": "PR",
        "district": "Bortot",
        "street": "Rua Pantaleão Telles",
        "zipcode": "85504-150"
    },
    {
        "city": "Pato Branco",
        "state": "PR",
        "district": "Bortot",
        "street": "Rua Parigot de Souza",
        "zipcode": "85504-180"
    },
    {
        "city": "Pato Branco",
        "state": "PR",
        "district": "Bortot",
        "street": "Travessa Piauí",
        "zipcode": "85504-250"
    },
    {
        "city": "Pato Branco",
        "state": "PR",
        "district": "Bortot",
        "street": "Rua Presidente Kennedy",
        "zipcode": "85504-240"
    },
    {
        "city": "Pato Branco",
        "state": "PR",
        "district": "Bortot",
        "street": "Rua Rui Barbosa",
        "zipcode": "85504-230"
    },
    {
        "city": "Pato Branco",
        "state": "PR",
        "district": "Vila Isabel",
        "street": "Rua Santo Parzianello",
        "zipcode": "85504-290"
    },
    {
        "city": "Pato Branco",
        "state": "PR",
        "district": "Bortot",
        "street": "Travessa Santa Bárbara",
        "zipcode": "85504-220"
    },
    {
        "city": "Pato Branco",
        "state": "PR",
        "district": "Bancários",
        "street": "Rua Tapir",
        "zipcode": "85504-420"
    },
    {
        "city": "Pato Branco",
        "state": "PR",
        "district": "Vila Isabel",
        "street": "Rua Roaldo Carraro",
        "zipcode": "85504-310"
    },
    {
        "city": "Pato Branco",
        "state": "PR",
        "district": "Parzianello",
        "street": "Rua Tupinambá",
        "zipcode": "85504-470"
    },
    {
        "city": "Pato Branco",
        "state": "PR",
        "district": "Bancários",
        "street": "Travessa Pagnoncelli",
        "zipcode": "85504-480"
    },
    {
        "city": "Pato Branco",
        "state": "PR",
        "district": "Vila Isabel",
        "street": "Avenida Tupi",
        "zipcode": "85504-288"
    },
    {
        "city": "Pato Branco",
        "state": "PR",
        "district": "Fraron",
        "street": "Rua Rogério das Chaves",
        "zipcode": "85503-408"
    },
    {
        "city": "Pato Branco",
        "state": "PR",
        "district": "Brasília",
        "street": "Rua Tocantins",
        "zipcode": "85504-024"
    },
    {
        "city": "Pato Branco",
        "state": "PR",
        "district": "Brasília",
        "street": "Rua Osvaldo Aranha",
        "zipcode": "85504-015"
    },
    {
        "city": "Pato Branco",
        "state": "PR",
        "district": "Vila Isabel",
        "street": "Rua Rosa Bortot Merlo",
        "zipcode": "85504-298"
    },
    {
        "city": "Pato Branco",
        "state": "PR",
        "district": "Brasília",
        "street": "Rua Osvaldo Aranha",
        "zipcode": "85504-025"
    },
    {
        "city": "Pato Branco",
        "state": "PR",
        "district": "Brasília",
        "street": "Rua Aimoré",
        "zipcode": "85504-038"
    },
    {
        "city": "Pato Branco",
        "state": "PR",
        "district": "Vila Isabel",
        "street": "Rua Aimoré",
        "zipcode": "85504-296"
    },
    {
        "city": "Pato Branco",
        "state": "PR",
        "district": "Vila Isabel",
        "street": "Rua Tocantins",
        "zipcode": "85504-292"
    },
    {
        "city": "Pato Branco",
        "state": "PR",
        "district": "Vila Isabel",
        "street": "Rua Itapuã",
        "zipcode": "85504-297"
    },
    {
        "city": "Pato Branco",
        "state": "PR",
        "district": "Brasília",
        "street": "Rua Nereu Ramos",
        "zipcode": "85504-021"
    },
    {
        "city": "Pato Branco",
        "state": "PR",
        "district": "Pinheiros",
        "street": "Rua Olindo Setti",
        "zipcode": "85504-375"
    },
    {
        "city": "Pato Branco",
        "state": "PR",
        "district": "Vila Isabel",
        "street": "Rua Olindo Setti",
        "zipcode": "85504-318"
    },
    {
        "city": "Pato Branco",
        "state": "PR",
        "district": "Vila Isabel",
        "street": "Rua Pedro Soares",
        "zipcode": "85504-291"
    },
    {
        "city": "Pato Branco",
        "state": "PR",
        "district": "Brasília",
        "street": "Rua Salgado Filho",
        "zipcode": "85504-026"
    },
    {
        "city": "Pato Branco",
        "state": "PR",
        "district": "Brasília",
        "street": "Rua Manoel Ribas",
        "zipcode": "85504-013"
    },
    {
        "city": "Pato Branco",
        "state": "PR",
        "district": "Brasília",
        "street": "Rua Manoel Ribas",
        "zipcode": "85504-022"
    },
    {
        "city": "Pato Branco",
        "state": "PR",
        "district": "Brasília",
        "street": "Rua Brasília",
        "zipcode": "85504-016"
    },
    {
        "city": "Pato Branco",
        "state": "PR",
        "district": "Brasília",
        "street": "Rua Brasília",
        "zipcode": "85504-027"
    },
    {
        "city": "Pato Branco",
        "state": "PR",
        "district": "Brasília",
        "street": "Rua Silveira Martins",
        "zipcode": "85504-018"
    },
    {
        "city": "Pato Branco",
        "state": "PR",
        "district": "Vila Isabel",
        "street": "Rua Silveira Martins",
        "zipcode": "85504-295"
    },
    {
        "city": "Pato Branco",
        "state": "PR",
        "district": "Brasília",
        "street": "Rua Assis Brasil",
        "zipcode": "85504-011"
    },
    {
        "city": "Pato Branco",
        "state": "PR",
        "district": "Vila Isabel",
        "street": "Rua Assis Brasil",
        "zipcode": "85504-293"
    },
    {
        "city": "Pato Branco",
        "state": "PR",
        "district": "Brasília",
        "street": "Rua Arthur Bernardes",
        "zipcode": "85504-023"
    },
    {
        "city": "Pato Branco",
        "state": "PR",
        "district": "Vila Isabel",
        "street": "Rua Arthur Bernardes",
        "zipcode": "85504-299"
    },
    {
        "city": "Pato Branco",
        "state": "PR",
        "district": "Brasília",
        "street": "Avenida Tupi",
        "zipcode": "85504-014"
    },
    {
        "city": "Pato Branco",
        "state": "PR",
        "district": "Bortot",
        "street": "Travessa do Cemitério",
        "zipcode": "85504-005"
    },
    {
        "city": "Pato Branco",
        "state": "PR",
        "district": "Fraron",
        "street": "Avenida Elisa Rosa Colla Padoan",
        "zipcode": "85503-380"
    },
    {
        "city": "Pato Branco",
        "state": "PR",
        "district": "Bortot",
        "street": "Rua Escolástica Tatto",
        "zipcode": "85504-160"
    },
    {
        "city": "Pato Branco",
        "state": "PR",
        "district": "Bortot",
        "street": "Rua Elaine Caldato Amadori",
        "zipcode": "85504-130"
    },
    {
        "city": "Pato Branco",
        "state": "PR",
        "district": "Bortot",
        "street": "Travessa Javali",
        "zipcode": "85504-100"
    },
    {
        "city": "Pato Branco",
        "state": "PR",
        "district": "Fraron",
        "street": "Rua Joaquim Nabuco",
        "zipcode": "85503-360"
    },
    {
        "city": "Pato Branco",
        "state": "PR",
        "district": "Fraron",
        "street": "Rua Luiz Parzianello",
        "zipcode": "85503-340"
    },
    {
        "city": "Pato Branco",
        "state": "PR",
        "district": "Bortot",
        "street": "Travessa Modesto Vigano",
        "zipcode": "85504-090"
    },
    {
        "city": "Pato Branco",
        "state": "PR",
        "district": "Bortot",
        "street": "Rua Mem de Sá",
        "zipcode": "85504-110"
    },
    {
        "city": "Pato Branco",
        "state": "PR",
        "district": "Brasília",
        "street": "Rua Nereu Ramos",
        "zipcode": "85504-012"
    },
    {
        "city": "Pato Branco",
        "state": "PR",
        "district": "Bortot",
        "street": "Rua Olavo Bilac",
        "zipcode": "85504-080"
    },
    {
        "city": "Pato Branco",
        "state": "PR",
        "district": "Bortot",
        "street": "Travessa Sudoeste",
        "zipcode": "85504-006"
    },
    {
        "city": "Pato Branco",
        "state": "PR",
        "district": "Fraron",
        "street": "Rua Via do Conhecimento",
        "zipcode": "85503-390"
    },
    {
        "city": "Pato Branco",
        "state": "PR",
        "district": "Fraron",
        "street": "Rua Veríssimo Rizzi",
        "zipcode": "85503-370"
    },
    {
        "city": "Pato Branco",
        "state": "PR",
        "district": "Bortot",
        "street": "Rua Pedro Vieira",
        "zipcode": "85504-140"
    },
    {
        "city": "Pato Branco",
        "state": "PR",
        "district": "Bortot",
        "street": "Avenida Tupi",
        "zipcode": "85504-000"
    },
    {
        "city": "Pato Branco",
        "state": "PR",
        "district": "Fraron",
        "street": "Rua Benjamin Borges dos Santos",
        "zipcode": "85503-350"
    },
    {
        "city": "Pato Branco",
        "state": "PR",
        "district": "Fraron",
        "street": "Rua Jair Tonial",
        "zipcode": "85503-246"
    },
    {
        "city": "Pato Branco",
        "state": "PR",
        "district": "Aeroporto",
        "street": "Rua Ademar Rosa",
        "zipcode": "85503-170"
    },
    {
        "city": "Pato Branco",
        "state": "PR",
        "district": "Vila Esperança",
        "street": "Rodovia BR",
        "zipcode": "85503-310"
    },
    {
        "city": "Pato Branco",
        "state": "PR",
        "district": "Bortot",
        "street": "Rodovia BR",
        "zipcode": "85503-300"
    },
    {
        "city": "Pato Branco",
        "state": "PR",
        "district": "Bortot",
        "street": "Travessa Angelo Ronsoni",
        "zipcode": "85504-172"
    },
    {
        "city": "Pato Branco",
        "state": "PR",
        "district": "Menino Deus",
        "street": "Rua Cruz Machado",
        "zipcode": "85502-520"
    },
    {
        "city": "Pato Branco",
        "state": "PR",
        "district": "Aeroporto",
        "street": "Rua Ernesto Colla",
        "zipcode": "85503-010"
    },
    {
        "city": "Pato Branco",
        "state": "PR",
        "district": "Vila Esperança",
        "street": "Rua Irineu Bertani",
        "zipcode": "85503-130"
    },
    {
        "city": "Pato Branco",
        "state": "PR",
        "district": "Vila Esperança",
        "street": "Rua Jacó Morelatto",
        "zipcode": "85503-150"
    },
    {
        "city": "Pato Branco",
        "state": "PR",
        "district": "Fraron",
        "street": "Rua Lídio Oltramari",
        "zipcode": "85503-381"
    },
    {
        "city": "Pato Branco",
        "state": "PR",
        "district": "Fraron",
        "street": "Rua Luiz César Amadori",
        "zipcode": "85503-388"
    },
    {
        "city": "Pato Branco",
        "state": "PR",
        "district": "Fraron",
        "street": "Travessa Pedro Sartori",
        "zipcode": "85503-382"
    },
    {
        "city": "Pato Branco",
        "state": "PR",
        "district": "Fraron",
        "street": "Rua Luiz Detoni",
        "zipcode": "85503-386"
    },
    {
        "city": "Pato Branco",
        "state": "PR",
        "district": "Fraron",
        "street": "Rua Natalino Dartora",
        "zipcode": "85503-385"
    },
    {
        "city": "Pato Branco",
        "state": "PR",
        "district": "Fraron",
        "street": "Rua Armando Chioquetta",
        "zipcode": "85503-322"
    },
    {
        "city": "Pato Branco",
        "state": "PR",
        "district": "Fraron",
        "street": "Rua Clevelândia",
        "zipcode": "85503-324"
    },
    {
        "city": "Pato Branco",
        "state": "PR",
        "district": "Fraron",
        "street": "Rua Maria Madalena Tatto",
        "zipcode": "85503-326"
    },
    {
        "city": "Pato Branco",
        "state": "PR",
        "district": "Fraron",
        "street": "Rua Giuseppe Ortolan",
        "zipcode": "85503-327"
    },
    {
        "city": "Pato Branco",
        "state": "PR",
        "district": "Fraron",
        "street": "Rodovia PR",
        "zipcode": "85503-378"
    },
    {
        "city": "Pato Branco",
        "state": "PR",
        "district": "Fraron",
        "street": "Rua Ernesto Ruchil",
        "zipcode": "85503-372"
    },
    {
        "city": "Pato Branco",
        "state": "PR",
        "district": "Fraron",
        "street": "Rua Nelson Gerhardt",
        "zipcode": "85503-376"
    },
    {
        "city": "Pato Branco",
        "state": "PR",
        "district": "Fraron",
        "street": "Rua Rosina Ortolan",
        "zipcode": "85503-336"
    },
    {
        "city": "Pato Branco",
        "state": "PR",
        "district": "Fraron",
        "street": "Rua Maria Martinello Lavezzo",
        "zipcode": "85503-338"
    },
    {
        "city": "Pato Branco",
        "state": "PR",
        "district": "Fraron",
        "street": "Rua Augustinho Tatto",
        "zipcode": "85503-332"
    },
    {
        "city": "Pato Branco",
        "state": "PR",
        "district": "Sambugaro",
        "street": "Rua Dez de Maio",
        "zipcode": "85502-479"
    },
    {
        "city": "Pato Branco",
        "state": "PR",
        "district": "Fraron",
        "street": "Rua Altair José Motta",
        "zipcode": "85503-353"
    },
    {
        "city": "Pato Branco",
        "state": "PR",
        "district": "Fraron",
        "street": "Rua Algemiro Mari",
        "zipcode": "85503-355"
    },
    {
        "city": "Pato Branco",
        "state": "PR",
        "district": "Fraron",
        "street": "Rua Irineu Parzianello",
        "zipcode": "85503-392"
    },
    {
        "city": "Pato Branco",
        "state": "PR",
        "district": "Fraron",
        "street": "Rua Ângela Parzianello",
        "zipcode": "85503-401"
    },
    {
        "city": "Pato Branco",
        "state": "PR",
        "district": "Fraron",
        "street": "Rua Aurelia Conte Chioquetta",
        "zipcode": "85503-335"
    },
    {
        "city": "Pato Branco",
        "state": "PR",
        "district": "Centro",
        "street": "Rua Tapir",
        "zipcode": "85502-970"
    },
    {
        "city": "Pato Branco",
        "state": "PR",
        "district": "Vila Esperança",
        "street": "Rua João Penso",
        "zipcode": "85503-060"
    },
    {
        "city": "Pato Branco",
        "state": "PR",
        "district": "Fraron",
        "street": "Rua José Bonifácio",
        "zipcode": "85503-270"
    },
    {
        "city": "Pato Branco",
        "state": "PR",
        "district": "Aeroporto",
        "street": "Rua José Covaleski",
        "zipcode": "85503-230"
    },
    {
        "city": "Pato Branco",
        "state": "PR",
        "district": "Fraron",
        "street": "Rua José Fraron",
        "zipcode": "85503-320"
    },
    {
        "city": "Pato Branco",
        "state": "PR",
        "district": "Aeroporto",
        "street": "Rua José Leonardi",
        "zipcode": "85503-000"
    },
    {
        "city": "Pato Branco",
        "state": "PR",
        "district": "Aeroporto",
        "street": "Rua Josefina Maria Leonardi",
        "zipcode": "85503-160"
    },
    {
        "city": "Pato Branco",
        "state": "PR",
        "district": "Aeroporto",
        "street": "Rua Leôncio Amadori",
        "zipcode": "85503-020"
    },
    {
        "city": "Pato Branco",
        "state": "PR",
        "district": "Fraron",
        "street": "Rua Manoel da Nóbrega",
        "zipcode": "85503-250"
    },
    {
        "city": "Pato Branco",
        "state": "PR",
        "district": "Fraron",
        "street": "Rua Martim Afonso de Souza",
        "zipcode": "85503-280"
    },
    {
        "city": "Pato Branco",
        "state": "PR",
        "district": "Aeroporto",
        "street": "Rua Moacir de Jesus Martins",
        "zipcode": "85503-180"
    },
    {
        "city": "Pato Branco",
        "state": "PR",
        "district": "Vila Esperança",
        "street": "Rua Natália Vicente Pereira",
        "zipcode": "85503-100"
    },
    {
        "city": "Pato Branco",
        "state": "PR",
        "district": "Vila Esperança",
        "street": "Rua Marco Penso",
        "zipcode": "85503-050"
    },
    {
        "city": "Pato Branco",
        "state": "PR",
        "district": "Vila Esperança",
        "street": "Rua Nestor Cardoso",
        "zipcode": "85503-140"
    },
    {
        "city": "Pato Branco",
        "state": "PR",
        "district": "Fraron",
        "street": "Rua Pedro Álvares Cabral",
        "zipcode": "85503-260"
    },
    {
        "city": "Pato Branco",
        "state": "PR",
        "district": "Vila Esperança",
        "street": "Rua Nilo Peçanha",
        "zipcode": "85503-090"
    },
    {
        "city": "Pato Branco",
        "state": "PR",
        "district": "Menino Deus",
        "street": "Rua Noel Rosa",
        "zipcode": "85502-530"
    },
    {
        "city": "Pato Branco",
        "state": "PR",
        "district": "Vila Esperança",
        "street": "Rua Ricardo Bôrtolo Tesser",
        "zipcode": "85503-110"
    },
    {
        "city": "Pato Branco",
        "state": "PR",
        "district": "Bortot",
        "street": "Via Lateral Alfredo Luiz de Bortoli",
        "zipcode": "85503-304"
    },
    {
        "city": "Pato Branco",
        "state": "PR",
        "district": "Fraron",
        "street": "Rua Frederico Barancelli",
        "zipcode": "85503-357"
    },
    {
        "city": "Pato Branco",
        "state": "PR",
        "district": "Fraron",
        "street": "Rua Leticia Chioquetta",
        "zipcode": "85503-331"
    },
    {
        "city": "Pato Branco",
        "state": "PR",
        "district": "Fraron",
        "street": "Rua Miguel Belmont",
        "zipcode": "85503-321"
    },
    {
        "city": "Pato Branco",
        "state": "PR",
        "district": "Fraron",
        "street": "Rua Pedro Rubilar de Andrade",
        "zipcode": "85503-330"
    },
    {
        "city": "Pato Branco",
        "state": "PR",
        "district": "Aeroporto",
        "street": "Rua Reinaldo Luiz Agustini",
        "zipcode": "85503-210"
    },
    {
        "city": "Pato Branco",
        "state": "PR",
        "district": "Aeroporto",
        "street": "Rua Saul Vigano",
        "zipcode": "85503-030"
    },
    {
        "city": "Pato Branco",
        "state": "PR",
        "district": "Aeroporto",
        "street": "Rua Vinícius de Morais",
        "zipcode": "85503-200"
    },
    {
        "city": "Pato Branco",
        "state": "PR",
        "district": "Aeroporto",
        "street": "Rua Xisto Ramirez Gutierrez",
        "zipcode": "85503-040"
    },
    {
        "city": "Pato Branco",
        "state": "PR",
        "district": "Fraron",
        "street": "Rua Cristóvão Colombo",
        "zipcode": "85503-240"
    },
    {
        "city": "Pato Branco",
        "state": "PR",
        "district": "Vila Esperança",
        "street": "Rua Joinville",
        "zipcode": "85503-120"
    },
    {
        "city": "Pato Branco",
        "state": "PR",
        "district": "Vila Esperança",
        "street": "Rua Luiz Morelatto",
        "zipcode": "85503-080"
    },
    {
        "city": "Pato Branco",
        "state": "PR",
        "district": "Aeroporto",
        "street": "Rua José Dalmolin",
        "zipcode": "85503-220"
    },
    {
        "city": "Pato Branco",
        "state": "PR",
        "district": "Fraron",
        "street": "Rua Maria Amelia Tatto",
        "zipcode": "85503-375"
    },
    {
        "city": "Pato Branco",
        "state": "PR",
        "district": "Aeroporto",
        "street": "Rua Pedro Kriger",
        "zipcode": "85503-024"
    },
    {
        "city": "Pato Branco",
        "state": "PR",
        "district": "Aeroporto",
        "street": "Rua Irma Lavratti Dagios",
        "zipcode": "85503-185"
    },
    {
        "city": "Pato Branco",
        "state": "PR",
        "district": "Aeroporto",
        "street": "Rua Alberto Nezello",
        "zipcode": "85503-002"
    },
    {
        "city": "Pato Branco",
        "state": "PR",
        "district": "Menino Deus",
        "street": "Rua Ari Barroso",
        "zipcode": "85502-250"
    },
    {
        "city": "Pato Branco",
        "state": "PR",
        "district": "Menino Deus",
        "street": "Rua Bogotá",
        "zipcode": "85502-320"
    },
    {
        "city": "Pato Branco",
        "state": "PR",
        "district": "Jardim Primavera",
        "street": "Rodovia BR",
        "zipcode": "85502-510"
    },
    {
        "city": "Pato Branco",
        "state": "PR",
        "district": "Menino Deus",
        "street": "Rua Caetano Munhoz da Rocha",
        "zipcode": "85502-190"
    },
    {
        "city": "Pato Branco",
        "state": "PR",
        "district": "Jardim das Américas",
        "street": "Rua Chile",
        "zipcode": "85502-450"
    },
    {
        "city": "Pato Branco",
        "state": "PR",
        "district": "Jardim Primavera",
        "street": "Rua Doutor Murici",
        "zipcode": "85502-350"
    },
    {
        "city": "Pato Branco",
        "state": "PR",
        "district": "Menino Deus",
        "street": "Rua Benjamin Constant",
        "zipcode": "85502-290"
    },
    {
        "city": "Pato Branco",
        "state": "PR",
        "district": "Jardim Primavera",
        "street": "Rua Dalton Trevisan",
        "zipcode": "85502-380"
    },
    {
        "city": "Pato Branco",
        "state": "PR",
        "district": "Menino Deus",
        "street": "Rua Frei Caneca",
        "zipcode": "85502-180"
    },
    {
        "city": "Pato Branco",
        "state": "PR",
        "district": "Jardim Primavera",
        "street": "Rua Generoso Marques",
        "zipcode": "85502-390"
    },
    {
        "city": "Pato Branco",
        "state": "PR",
        "district": "Menino Deus",
        "street": "Rua Afonso Pena",
        "zipcode": "85502-260"
    },
    {
        "city": "Pato Branco",
        "state": "PR",
        "district": "Menino Deus",
        "street": "Rua Ercília Corona",
        "zipcode": "85502-300"
    },
    {
        "city": "Pato Branco",
        "state": "PR",
        "district": "Menino Deus",
        "street": "Rua Francisco Alves",
        "zipcode": "85502-110"
    },
    {
        "city": "Pato Branco",
        "state": "PR",
        "district": "Jardim Primavera",
        "street": "Rua Emiliano Perneta",
        "zipcode": "85502-365"
    },
    {
        "city": "Pato Branco",
        "state": "PR",
        "district": "Amadori",
        "street": "Rua Emílio de Negri",
        "zipcode": "85502-200"
    },
    {
        "city": "Pato Branco",
        "state": "PR",
        "district": "Menino Deus",
        "street": "Travessa José Guindani",
        "zipcode": "85502-095"
    },
    {
        "city": "Pato Branco",
        "state": "PR",
        "district": "Menino Deus",
        "street": "Rua Lafaiete",
        "zipcode": "85502-150"
    },
    {
        "city": "Pato Branco",
        "state": "PR",
        "district": "Jardim das Américas",
        "street": "Travessa José Rodrigues Pinto",
        "zipcode": "85502-470"
    },
    {
        "city": "Pato Branco",
        "state": "PR",
        "district": "Menino Deus",
        "street": "Travessa Luiz Debarba",
        "zipcode": "85502-240"
    },
    {
        "city": "Pato Branco",
        "state": "PR",
        "district": "Jardim Primavera",
        "street": "Rua Monteiro Lobato",
        "zipcode": "85502-330"
    },
    {
        "city": "Pato Branco",
        "state": "PR",
        "district": "Sambugaro",
        "street": "Rua Marechal Costa e Silva",
        "zipcode": "85502-477"
    },
    {
        "city": "Pato Branco",
        "state": "PR",
        "district": "Menino Deus",
        "street": "Rua Munhoz da Rocha",
        "zipcode": "85502-280"
    },
    {
        "city": "Pato Branco",
        "state": "PR",
        "district": "Anchieta",
        "street": "Rua Machado de Assis",
        "zipcode": "85502-370"
    },
    {
        "city": "Pato Branco",
        "state": "PR",
        "district": "Jardim Primavera",
        "street": "Rua Marechal Rondon",
        "zipcode": "85502-400"
    },
    {
        "city": "Pato Branco",
        "state": "PR",
        "district": "Vila Esperança",
        "street": "Rua Marginal",
        "zipcode": "85503-142"
    },
    {
        "city": "Pato Branco",
        "state": "PR",
        "district": "Menino Deus",
        "street": "Rua Oliden Rotava",
        "zipcode": "85502-251"
    },
    {
        "city": "Pato Branco",
        "state": "PR",
        "district": "Jardim das Américas",
        "street": "Rua Paraguai",
        "zipcode": "85502-460"
    },
    {
        "city": "Pato Branco",
        "state": "PR",
        "district": "Menino Deus",
        "street": "Travessa Piraquara",
        "zipcode": "85502-125"
    },
    {
        "city": "Pato Branco",
        "state": "PR",
        "district": "Menino Deus",
        "street": "Rua Ubiratã",
        "zipcode": "85502-140"
    },
    {
        "city": "Pato Branco",
        "state": "PR",
        "district": "Jardim das Américas",
        "street": "Rua Uruguai",
        "zipcode": "85502-440"
    },
    {
        "city": "Pato Branco",
        "state": "PR",
        "district": "Amadori",
        "street": "Rua Valdemar Ferraza",
        "zipcode": "85502-220"
    },
    {
        "city": "Pato Branco",
        "state": "PR",
        "district": "Jardim das Américas",
        "street": "Rua Venceslau Braz",
        "zipcode": "85502-410"
    },
    {
        "city": "Pato Branco",
        "state": "PR",
        "district": "Menino Deus",
        "street": "Rua Veraqueta",
        "zipcode": "85502-160"
    },
    {
        "city": "Pato Branco",
        "state": "PR",
        "district": "Vila Esperança",
        "street": "Rua Vicente de Col",
        "zipcode": "85503-070"
    },
    {
        "city": "Pato Branco",
        "state": "PR",
        "district": "Amadori",
        "street": "Rua Vicente Eliseu Ampessam",
        "zipcode": "85502-210"
    },
    {
        "city": "Pato Branco",
        "state": "PR",
        "district": "Jardim das Américas",
        "street": "Rua Visconde De Nacar",
        "zipcode": "85502-420"
    },
    {
        "city": "Pato Branco",
        "state": "PR",
        "district": "Menino Deus",
        "street": "Rua Maria Lora",
        "zipcode": "85502-170"
    },
    {
        "city": "Pato Branco",
        "state": "PR",
        "district": "Amadori",
        "street": "Rua Xavantes",
        "zipcode": "85502-120"
    },
    {
        "city": "Pato Branco",
        "state": "PR",
        "district": "Jardim das Américas",
        "street": "Rua Fernão Dias Pais",
        "zipcode": "85502-430"
    },
    {
        "city": "Pato Branco",
        "state": "PR",
        "district": "Menino Deus",
        "street": "Rua Romilda Aires",
        "zipcode": "85502-130"
    },
    {
        "city": "Pato Branco",
        "state": "PR",
        "district": "Menino Deus",
        "street": "Rua Vicente Machado",
        "zipcode": "85502-340"
    },
    {
        "city": "Pato Branco",
        "state": "PR",
        "district": "Menino Deus",
        "street": "Rua São Vicente",
        "zipcode": "85502-310"
    },
    {
        "city": "Pato Branco",
        "state": "PR",
        "district": "Centro",
        "street": "Avenida Tupi",
        "zipcode": "85501-274"
    },
    {
        "city": "Pato Branco",
        "state": "PR",
        "district": "Centro",
        "street": "Avenida Tupi",
        "zipcode": "85501-284"
    },
    {
        "city": "Pato Branco",
        "state": "PR",
        "district": "Anchieta",
        "street": "Rua Afonso Pena",
        "zipcode": "85501-530"
    },
    {
        "city": "Pato Branco",
        "state": "PR",
        "district": "Centro",
        "street": "Rua Aimoré",
        "zipcode": "85501-276"
    },
    {
        "city": "Pato Branco",
        "state": "PR",
        "district": "Jardim das Américas",
        "street": "Rua Argentina",
        "zipcode": "85502-040"
    },
    {
        "city": "Pato Branco",
        "state": "PR",
        "district": "Anchieta",
        "street": "Rua Antônio Bazzo",
        "zipcode": "85501-490"
    },
    {
        "city": "Pato Branco",
        "state": "PR",
        "district": "Anchieta",
        "street": "Rua Bom Jesus",
        "zipcode": "85501-440"
    },
    {
        "city": "Pato Branco",
        "state": "PR",
        "district": "Anchieta",
        "street": "Rua Cassiano Ricardo",
        "zipcode": "85501-480"
    },
    {
        "city": "Pato Branco",
        "state": "PR",
        "district": "Trevo da Guarany",
        "street": "Rua Dom Pedro",
        "zipcode": "85501-410"
    },
    {
        "city": "Pato Branco",
        "state": "PR",
        "district": "Centro",
        "street": "Rua Farrapos",
        "zipcode": "85501-340"
    },
    {
        "city": "Pato Branco",
        "state": "PR",
        "district": "Anchieta",
        "street": "Rua Guilherme Lebkuchen",
        "zipcode": "85501-470"
    },
    {
        "city": "Pato Branco",
        "state": "PR",
        "district": "Centro",
        "street": "Rua Ibiporã",
        "zipcode": "85501-282"
    },
    {
        "city": "Pato Branco",
        "state": "PR",
        "district": "Jardim das Américas",
        "street": "Rua Itabira",
        "zipcode": "85502-000"
    },
    {
        "city": "Pato Branco",
        "state": "PR",
        "district": "Centro",
        "street": "Rua Itabira",
        "zipcode": "85501-286"
    },
    {
        "city": "Pato Branco",
        "state": "PR",
        "district": "Centro",
        "street": "Rua Itapuã",
        "zipcode": "85501-298"
    },
    {
        "city": "Pato Branco",
        "state": "PR",
        "district": "Anchieta",
        "street": "Rua João Vigano",
        "zipcode": "85501-460"
    },
    {
        "city": "Pato Branco",
        "state": "PR",
        "district": "Centro",
        "street": "Rua Marins Camargo",
        "zipcode": "85501-330"
    },
    {
        "city": "Pato Branco",
        "state": "PR",
        "district": "Anchieta",
        "street": "Rua Minas Gerais",
        "zipcode": "85501-500"
    },
    {
        "city": "Pato Branco",
        "state": "PR",
        "district": "Trevo da Guarany",
        "street": "Rua Nereu Ramos",
        "zipcode": "85501-370"
    },
    {
        "city": "Pato Branco",
        "state": "PR",
        "district": "Trevo da Guarany",
        "street": "Rua Tamoio",
        "zipcode": "85501-358"
    },
    {
        "city": "Pato Branco",
        "state": "PR",
        "district": "Trevo da Guarany",
        "street": "Rua Caramuru",
        "zipcode": "85501-356"
    },
    {
        "city": "Pato Branco",
        "state": "PR",
        "district": "Trevo da Guarany",
        "street": "Rua Governador Jorge Lacerda",
        "zipcode": "85501-352"
    },
    {
        "city": "Pato Branco",
        "state": "PR",
        "district": "Trevo da Guarany",
        "street": "Rua Guarani",
        "zipcode": "85501-354"
    },
    {
        "city": "Pato Branco",
        "state": "PR",
        "district": "Trevo da Guarany",
        "street": "Rua Marechal Costa e Silva",
        "zipcode": "85501-420"
    },
    {
        "city": "Pato Branco",
        "state": "PR",
        "district": "Trevo da Guarany",
        "street": "Rua Paraná",
        "zipcode": "85501-364"
    },
    {
        "city": "Pato Branco",
        "state": "PR",
        "district": "Trevo da Guarany",
        "street": "Avenida Brasil",
        "zipcode": "85501-362"
    },
    {
        "city": "Pato Branco",
        "state": "PR",
        "district": "Centro",
        "street": "Rua Aimoré",
        "zipcode": "85501-296"
    },
    {
        "city": "Pato Branco",
        "state": "PR",
        "district": "Centro",
        "street": "Rua Tapir",
        "zipcode": "85501-288"
    },
    {
        "city": "Pato Branco",
        "state": "PR",
        "district": "Centro",
        "street": "Rua Tocantins",
        "zipcode": "85501-272"
    },
    {
        "city": "Pato Branco",
        "state": "PR",
        "district": "Centro",
        "street": "Rua Caramuru",
        "zipcode": "85501-970"
    },
    {
        "city": "Pato Branco",
        "state": "PR",
        "district": "Anchieta",
        "street": "Rua Padre Anchieta",
        "zipcode": "85501-540"
    },
    {
        "city": "Pato Branco",
        "state": "PR",
        "district": "Menino Deus",
        "street": "Rua Pedro Lora",
        "zipcode": "85502-060"
    },
    {
        "city": "Pato Branco",
        "state": "PR",
        "district": "Amadori",
        "street": "Rua Itacolomi",
        "zipcode": "85502-070"
    },
    {
        "city": "Pato Branco",
        "state": "PR",
        "district": "Centro",
        "street": "Rua Pio XII",
        "zipcode": "85501-320"
    },
    {
        "city": "Pato Branco",
        "state": "PR",
        "district": "Centro",
        "street": "Rua Pedro Ramires de Mello",
        "zipcode": "85502-050"
    },
    {
        "city": "Pato Branco",
        "state": "PR",
        "district": "Bortot",
        "street": "Rua Primo Zanotto",
        "zipcode": "85501-380"
    },
    {
        "city": "Pato Branco",
        "state": "PR",
        "district": "Trevo da Guarany",
        "street": "Rua Procópio de Lima",
        "zipcode": "85501-350"
    },
    {
        "city": "Pato Branco",
        "state": "PR",
        "district": "Centro",
        "street": "Rua Tocantins",
        "zipcode": "85501-292"
    },
    {
        "city": "Pato Branco",
        "state": "PR",
        "district": "Menino Deus",
        "street": "Rua Timbiras",
        "zipcode": "85502-080"
    },
    {
        "city": "Pato Branco",
        "state": "PR",
        "district": "Anchieta",
        "street": "Rua Vereador Cacique Creta",
        "zipcode": "85501-510"
    },
    {
        "city": "Pato Branco",
        "state": "PR",
        "district": "Trevo da Guarany",
        "street": "Rua Vítor Sílvio Biazus",
        "zipcode": "85501-550"
    },
    {
        "city": "Pato Branco",
        "state": "PR",
        "district": "Bortot",
        "street": "Travessa Vividense",
        "zipcode": "85501-375"
    },
    {
        "city": "Pato Branco",
        "state": "PR",
        "district": "Trevo da Guarany",
        "street": "Rua Zacarias Koslinski",
        "zipcode": "85501-360"
    },
    {
        "city": "Pato Branco",
        "state": "PR",
        "district": "Jardim das Américas",
        "street": "Rua Venezuela",
        "zipcode": "85502-030"
    },
    {
        "city": "Pato Branco",
        "state": "PR",
        "district": "Bortot",
        "street": "Rua Vereador Alberto Geron",
        "zipcode": "85501-390"
    },
    {
        "city": "Pato Branco",
        "state": "PR",
        "district": "Anchieta",
        "street": "Rua Visconde De Nacar",
        "zipcode": "85501-450"
    },
    {
        "city": "Pato Branco",
        "state": "PR",
        "district": "Amadori",
        "street": "Rua Xingu",
        "zipcode": "85502-090"
    },
    {
        "city": "Pato Branco",
        "state": "PR",
        "district": "Jardim Primavera",
        "street": "Rua Tapir",
        "zipcode": "85502-010"
    },
    {
        "city": "Pato Branco",
        "state": "PR",
        "district": "Aeroporto",
        "street": "Rua Vital Faggion",
        "zipcode": "85503-026"
    },
    {
        "city": "Pato Branco",
        "state": "PR",
        "district": "Centro",
        "street": "Avenida Tupi",
        "zipcode": "85501-069"
    },
    {
        "city": "Pato Branco",
        "state": "PR",
        "district": "Centro",
        "street": "Avenida Tupi",
        "zipcode": "85501-065"
    },
    {
        "city": "Pato Branco",
        "state": "PR",
        "district": "Centro",
        "street": "Avenida Tupi",
        "zipcode": "85501-063"
    },
    {
        "city": "Pato Branco",
        "state": "PR",
        "district": "Centro",
        "street": "Avenida Tupi",
        "zipcode": "85501-039"
    },
    {
        "city": "Pato Branco",
        "state": "PR",
        "district": "Santa Terezinha",
        "street": "Rua Araucária",
        "zipcode": "85501-160"
    },
    {
        "city": "Pato Branco",
        "state": "PR",
        "district": "Santa Terezinha",
        "street": "Rua Artur Bertol",
        "zipcode": "85501-170"
    },
    {
        "city": "Pato Branco",
        "state": "PR",
        "district": "Centro",
        "street": "Rua Barão do Rio Branco",
        "zipcode": "85501-100"
    },
    {
        "city": "Pato Branco",
        "state": "PR",
        "district": "Santa Terezinha",
        "street": "Rua Dona Ernestina",
        "zipcode": "85501-180"
    },
    {
        "city": "Pato Branco",
        "state": "PR",
        "district": "Santa Terezinha",
        "street": "Rua Genuíno Piacentini",
        "zipcode": "85501-130"
    },
    {
        "city": "Pato Branco",
        "state": "PR",
        "district": "Centro",
        "street": "Rua Clarice Soares Cerqueira",
        "zipcode": "85501-140"
    },
    {
        "city": "Pato Branco",
        "state": "PR",
        "district": "Centro",
        "street": "Travessa Félix Balbinotti",
        "zipcode": "85501-125"
    },
    {
        "city": "Pato Branco",
        "state": "PR",
        "district": "Centro",
        "street": "Rua Tamoio",
        "zipcode": "85501-067"
    },
    {
        "city": "Pato Branco",
        "state": "PR",
        "district": "Centro",
        "street": "Rua Tamoio",
        "zipcode": "85501-054"
    },
    {
        "city": "Pato Branco",
        "state": "PR",
        "district": "Centro",
        "street": "Rua Tamoio",
        "zipcode": "85501-031"
    },
    {
        "city": "Pato Branco",
        "state": "PR",
        "district": "Centro",
        "street": "Rua Tapajós",
        "zipcode": "85501-045"
    },
    {
        "city": "Pato Branco",
        "state": "PR",
        "district": "Centro",
        "street": "Rua Tapajós",
        "zipcode": "85501-043"
    },
    {
        "city": "Pato Branco",
        "state": "PR",
        "district": "Centro",
        "street": "Rua Caramuru",
        "zipcode": "85501-064"
    },
    {
        "city": "Pato Branco",
        "state": "PR",
        "district": "Centro",
        "street": "Rua Caramuru",
        "zipcode": "85501-034"
    },
    {
        "city": "Pato Branco",
        "state": "PR",
        "district": "Centro",
        "street": "Rua Governador Jorge Lacerda",
        "zipcode": "85501-038"
    },
    {
        "city": "Pato Branco",
        "state": "PR",
        "district": "Centro",
        "street": "Rua Guarani",
        "zipcode": "85501-048"
    },
    {
        "city": "Pato Branco",
        "state": "PR",
        "district": "Centro",
        "street": "Rua Guarani",
        "zipcode": "85501-036"
    },
    {
        "city": "Pato Branco",
        "state": "PR",
        "district": "Centro",
        "street": "Rua Paraná",
        "zipcode": "85501-074"
    },
    {
        "city": "Pato Branco",
        "state": "PR",
        "district": "Centro",
        "street": "Avenida Brasil",
        "zipcode": "85501-071"
    },
    {
        "city": "Pato Branco",
        "state": "PR",
        "district": "Centro",
        "street": "Avenida Brasil",
        "zipcode": "85501-057"
    },
    {
        "city": "Pato Branco",
        "state": "PR",
        "district": "Centro",
        "street": "Travessa Joaquim Nabuco",
        "zipcode": "85501-042"
    },
    {
        "city": "Pato Branco",
        "state": "PR",
        "district": "Centro",
        "street": "Rua Ibiporã",
        "zipcode": "85501-056"
    },
    {
        "city": "Pato Branco",
        "state": "PR",
        "district": "Centro",
        "street": "Rua Ibiporã",
        "zipcode": "85501-049"
    },
    {
        "city": "Pato Branco",
        "state": "PR",
        "district": "Centro",
        "street": "Rua Iguaçu",
        "zipcode": "85501-052"
    },
    {
        "city": "Pato Branco",
        "state": "PR",
        "district": "Centro",
        "street": "Rua Itabira",
        "zipcode": "85501-047"
    },
    {
        "city": "Pato Branco",
        "state": "PR",
        "district": "Centro",
        "street": "Rua Itabira",
        "zipcode": "85501-058"
    },
    {
        "city": "Pato Branco",
        "state": "PR",
        "district": "Centro",
        "street": "Rua Osvaldo Aranha",
        "zipcode": "85501-037"
    },
    {
        "city": "Pato Branco",
        "state": "PR",
        "district": "Centro",
        "street": "Rua Tapir",
        "zipcode": "85501-032"
    },
    {
        "city": "Pato Branco",
        "state": "PR",
        "district": "Centro",
        "street": "Rua Manoel Ribas",
        "zipcode": "85501-044"
    },
    {
        "city": "Pato Branco",
        "state": "PR",
        "district": "Santa Terezinha",
        "street": "Rua João Pessoa",
        "zipcode": "85501-120"
    },
    {
        "city": "Pato Branco",
        "state": "PR",
        "district": "Santa Terezinha",
        "street": "Rua Lauro Bertol",
        "zipcode": "85501-150"
    },
    {
        "city": "Pato Branco",
        "state": "PR",
        "district": "Baixada",
        "street": "Rua Mato Grosso",
        "zipcode": "85501-200"
    },
    {
        "city": "Pato Branco",
        "state": "PR",
        "district": "Centro",
        "street": "Rua Itacolomi",
        "zipcode": "85501-240"
    },
    {
        "city": "Pato Branco",
        "state": "PR",
        "district": "Centro",
        "street": "Rua Osvaldo Aranha",
        "zipcode": "85501-029"
    },
    {
        "city": "Pato Branco",
        "state": "PR",
        "district": "Centro",
        "street": "Rua Pedro Ramires de Mello",
        "zipcode": "85501-250"
    },
    {
        "city": "Pato Branco",
        "state": "PR",
        "district": "Centro",
        "street": "Rua Tapir",
        "zipcode": "85501-046"
    },
    {
        "city": "Pato Branco",
        "state": "PR",
        "district": "Centro",
        "street": "Rua Visconde de Tamandaré",
        "zipcode": "85501-110"
    },
    {
        "city": "Pato Branco",
        "state": "PR",
        "district": "Centro",
        "street": "Rua Xavantes",
        "zipcode": "85501-220"
    },
    {
        "city": "Pato Branco",
        "state": "PR",
        "district": "Centro",
        "street": "Rua Xingu",
        "zipcode": "85501-230"
    },
    {
        "city": "Pato Branco",
        "state": "PR",
        "district": "Centro",
        "street": "Travessa Linda Marmentini",
        "zipcode": "85501-105"
    },
    {
        "city": "Pato Branco",
        "state": "PR",
        "district": "Centro",
        "street": "Rua Araribóia",
        "zipcode": "85501-260"
    },
    {
        "city": "Pato Branco",
        "state": "PR",
        "district": "Centro",
        "street": "Rua Araribóia",
        "zipcode": "85501-262"
    },
    {
        "city": "Pato Branco",
        "state": "PR",
        "district": "Menino Deus",
        "street": "Rua Vilma Soares",
        "zipcode": "85502-529"
    },
    {
        "city": "Pato Branco",
        "state": "PR",
        "district": "Menino Deus",
        "street": "Rua Pedro Biava",
        "zipcode": "85502-527"
    },
    {
        "city": "Pato Branco",
        "state": "PR",
        "district": "Menino Deus",
        "street": "Rua Aurélio Boscatto",
        "zipcode": "85502-525"
    },
    {
        "city": "Pato Branco",
        "state": "PR",
        "district": "Menino Deus",
        "street": "Rua Nelson Motta",
        "zipcode": "85502-522"
    },
    {
        "city": "Pato Branco",
        "state": "PR",
        "district": "Aeroporto",
        "street": "Rua Aeroporto",
        "zipcode": "85503-190"
    },
    {
        "city": "Pato Branco",
        "state": "PR",
        "district": "Centro",
        "street": "Rua Antônio Camozzatto",
        "zipcode": "85501-055"
    },
    {
        "city": "Pato Branco",
        "state": "PR",
        "district": "Jardim Primavera",
        "street": "Rua Cândido de Abreu",
        "zipcode": "85502-360"
    },
    {
        "city": "Pato Branco",
        "state": "PR",
        "district": "Trevo da Guarany",
        "street": "Rodovia BR",
        "zipcode": "85501-570"
    },
    {
        "city": "Pato Branco",
        "state": "PR",
        "district": "Centro",
        "street": "Travessa Artur Anastácio Pereira",
        "zipcode": "85501-041"
    },
    {
        "city": "Pato Branco",
        "state": "PR",
        "district": "Centro",
        "street": "Rua Goianases",
        "zipcode": "85501-020"
    },
    {
        "city": "Pato Branco",
        "state": "PR",
        "district": "São João",
        "street": "Rua Aníbal Cardoso",
        "zipcode": "85509-575"
    },
    {
        "city": "Pato Branco",
        "state": "PR",
        "district": "Centro",
        "street": "Rua Paraná",
        "zipcode": "85501-025"
    },
    {
        "city": "Pato Branco",
        "state": "PR",
        "district": "Centro",
        "street": "Avenida Brasil",
        "zipcode": "85501-027"
    },
    {
        "city": "Pato Branco",
        "state": "PR",
        "district": "Veneza",
        "street": "Rua dos Lírios",
        "zipcode": "85507-712"
    },
    {
        "city": "Pato Branco",
        "state": "PR",
        "district": "Fraron",
        "street": "Rua Hilário Primo Faggion",
        "zipcode": "85503-377"
    },
    {
        "city": "Pato Branco",
        "state": "PR",
        "district": "Fraron",
        "street": "Rua Vivaldino Chioqueta",
        "zipcode": "85503-329"
    },
    {
        "city": "Pato Branco",
        "state": "PR",
        "district": "Menino Deus",
        "street": "Rua Carlos Gomes",
        "zipcode": "85502-133"
    },
    {
        "city": "Pato Branco",
        "state": "PR",
        "district": "Bonatto",
        "street": "Rua Edemundo Valdomiro Schneider",
        "zipcode": "85506-508"
    },
    {
        "city": "Pato Branco",
        "state": "PR",
        "district": "Centro",
        "street": "Travessa Esperanto",
        "zipcode": "85501-212"
    },
    {
        "city": "Pato Branco",
        "state": "PR",
        "district": "Morumbi",
        "street": "Rua Augusto Pestana",
        "zipcode": "85507-214"
    },
    {
        "city": "Pato Branco",
        "state": "PR",
        "district": "Bancários",
        "street": "Rua Olindo Setti",
        "zipcode": "85504-418"
    },
    {
        "city": "Pato Branco",
        "state": "PR",
        "district": "Industrial",
        "street": "Rua Doutor Francisco Beltrão",
        "zipcode": "85506-540"
    },
    {
        "city": "Pato Branco",
        "state": "PR",
        "district": null,
        "street": "Avenida Nossa Senhora Aparecida",
        "zipcode": "85513-990"
    },
    {
        "city": "Pato Branco",
        "state": "PR",
        "district": "Centro",
        "street": "Travessa Guilherme Granzotto",
        "zipcode": "85501-059"
    },
    {
        "city": "Pato Branco",
        "state": "PR",
        "district": "Centro",
        "street": "Rua Iguaçu",
        "zipcode": "85501-062"
    },
    {
        "city": "Pato Branco",
        "state": "PR",
        "district": "Santo Antônio",
        "street": "Rua Iva",
        "zipcode": "85507-350"
    },
    {
        "city": "Pato Branco",
        "state": "PR",
        "district": "Fraron",
        "street": "Rua José Tatto",
        "zipcode": "85503-290"
    },
    {
        "city": "Pato Branco",
        "state": "PR",
        "district": "Trevo da Guarany",
        "street": "Rua Maria Bueno",
        "zipcode": "85501-560"
    },
    {
        "city": "Pato Branco",
        "state": "PR",
        "district": "La Salle",
        "street": "Rua Presidente Médici",
        "zipcode": "85505-350"
    },
    {
        "city": "Pato Branco",
        "state": "PR",
        "district": "Pagnoncelli",
        "street": "Rua Vicente de Col",
        "zipcode": "85509-370"
    },
    {
        "city": "Pato Branco",
        "state": "PR",
        "district": "Morumbi",
        "street": "Rua Santo Onofre",
        "zipcode": "85507-200"
    },
    {
        "city": "Pato Branco",
        "state": "PR",
        "district": "Bela Vista",
        "street": "Rua Ângelo Merlin",
        "zipcode": "85509-410"
    },
    {
        "city": "Pato Branco",
        "state": "PR",
        "district": "São Luiz",
        "street": "Rua Pedro Bortot",
        "zipcode": "85504-700"
    },
    {
        "city": "Pato Branco",
        "state": "PR",
        "district": "Cristo Rei",
        "street": "Rua Farroupilha",
        "zipcode": "85506-265"
    },
    {
        "city": "Pato Branco",
        "state": "PR",
        "district": "Bela Vista",
        "street": "Rodovia BR",
        "zipcode": "85509-282"
    },
    {
        "city": "Pato Branco",
        "state": "PR",
        "district": "Bela Vista",
        "street": "Rua Dionísio Martinelo",
        "zipcode": "85509-354"
    },
    {
        "city": "Pato Branco",
        "state": "PR",
        "district": "São João",
        "street": "Rua Setembrino Tomazzi",
        "zipcode": "85509-561"
    },
    {
        "city": "Pato Branco",
        "state": "PR",
        "district": "São João",
        "street": "Rua Sadi Bertol",
        "zipcode": "85509-562"
    },
    {
        "city": "Pato Branco",
        "state": "PR",
        "district": "São João",
        "street": "Rua Valmor Chioquetta",
        "zipcode": "85509-564"
    },
    {
        "city": "Pato Branco",
        "state": "PR",
        "district": "São João",
        "street": "Rua Tereza Catusso",
        "zipcode": "85509-567"
    },
    {
        "city": "Pato Branco",
        "state": "PR",
        "district": "São João",
        "street": "Rua Jacinto Zanardi",
        "zipcode": "85509-568"
    },
    {
        "city": "Pato Branco",
        "state": "PR",
        "district": "São João",
        "street": "Rua Carlos Fontana",
        "zipcode": "85509-570"
    },
    {
        "city": "Pato Branco",
        "state": "PR",
        "district": "São João",
        "street": "Rua Eugênio Pezarico",
        "zipcode": "85509-571"
    },
    {
        "city": "Pato Branco",
        "state": "PR",
        "district": "São João",
        "street": "Rua Frederico Klem",
        "zipcode": "85509-572"
    },
    {
        "city": "Pato Branco",
        "state": "PR",
        "district": "São João",
        "street": "Rua Antônio Marini",
        "zipcode": "85509-576"
    },
    {
        "city": "Pato Branco",
        "state": "PR",
        "district": "Alto da Glória",
        "street": "Rua Amadeu Pereira",
        "zipcode": "85509-520"
    },
    {
        "city": "Pato Branco",
        "state": "PR",
        "district": "Alto da Glória",
        "street": "Rua Helena Pozza",
        "zipcode": "85509-521"
    },
    {
        "city": "Pato Branco",
        "state": "PR",
        "district": "Alto da Glória",
        "street": "Rua Luiz Ruaro",
        "zipcode": "85509-523"
    },
    {
        "city": "Pato Branco",
        "state": "PR",
        "district": "Alto da Glória",
        "street": "Rua Manoel Branco",
        "zipcode": "85509-524"
    },
    {
        "city": "Pato Branco",
        "state": "PR",
        "district": "Alto da Glória",
        "street": "Rua Erasmo F. da Silva",
        "zipcode": "85509-526"
    },
    {
        "city": "Pato Branco",
        "state": "PR",
        "district": "Fraron",
        "street": "Via Lateral Dórico Tartari",
        "zipcode": "85503-325"
    },
    {
        "city": "Pato Branco",
        "state": "PR",
        "district": "Vila Isabel",
        "street": "Rua Pio Miotto",
        "zipcode": "85504-307"
    },
    {
        "city": "Pato Branco",
        "state": "PR",
        "district": "Vila Esperança",
        "street": "Rua Therezinha Marcante Rossoni",
        "zipcode": "85503-145"
    },
    {
        "city": "Pato Branco",
        "state": "PR",
        "district": "Industrial",
        "street": "Rua Osvaldo Otaviano Pastro",
        "zipcode": "85506-522"
    },
    {
        "city": "Pato Branco",
        "state": "PR",
        "district": "Fraron",
        "street": "Rua Ademir Cunico",
        "zipcode": "85503-371"
    },
    {
        "city": "Pato Branco",
        "state": "PR",
        "district": "Planalto",
        "street": "Rua Deodora Kogi",
        "zipcode": "85509-201"
    },
    {
        "city": "Pato Branco",
        "state": "PR",
        "district": "São Francisco",
        "street": "Rua Dionísio Daniel Sauthier",
        "zipcode": "85504-821"
    },
    {
        "city": "Pato Branco",
        "state": "PR",
        "district": "Santo Antônio",
        "street": "Rua Valdir Meira de Moura",
        "zipcode": "85507-362"
    },
    {
        "city": "Pato Branco",
        "state": "PR",
        "district": "Menino Deus",
        "street": "Rua Eli Antônio Burin",
        "zipcode": "85502-132"
    },
    {
        "city": "Pato Branco",
        "state": "PR",
        "district": "Alto da Glória",
        "street": "Rua José Cardoso",
        "zipcode": "85509-528"
    },
    {
        "city": "Pato Branco",
        "state": "PR",
        "district": "São Francisco",
        "street": "Rua Melci Dal Molin",
        "zipcode": "85504-810"
    },
    {
        "city": "Pato Branco",
        "state": "PR",
        "district": "Alto da Glória",
        "street": "Rua Lauro Ferreira Albuquerque",
        "zipcode": "85509-530"
    },
    {
        "city": "Pato Branco",
        "state": "PR",
        "district": "Bela Vista",
        "street": "Rua José Zanella",
        "zipcode": "85509-360"
    },
    {
        "city": "Pato Branco",
        "state": "PR",
        "district": "Bela Vista",
        "street": "Rua Pedro Luiz Tavares",
        "zipcode": "85509-350"
    },
    {
        "city": "Pato Branco",
        "state": "PR",
        "district": "São Francisco",
        "street": "Rua Ulisses Viganó",
        "zipcode": "85504-630"
    },
    {
        "city": "Pato Branco",
        "state": "PR",
        "district": "Pinheiros",
        "street": "Rua Epitácio Pessoa",
        "zipcode": "85504-340"
    },
    {
        "city": "Pato Branco",
        "state": "PR",
        "district": "Santa Terezinha",
        "street": "Rua Doutor Francisco Beltrão",
        "zipcode": "85501-190"
    },
    {
        "city": "Pato Branco",
        "state": "PR",
        "district": "Morumbi",
        "street": "Avenida Tupi",
        "zipcode": "85507-215"
    },
    {
        "city": "Pato Branco",
        "state": "PR",
        "district": "Bortot",
        "street": "Avenida Tupi",
        "zipcode": "85504-084"
    },
    {
        "city": "Pato Branco",
        "state": "PR",
        "district": "Fraron",
        "street": "Rua Elisa Bett",
        "zipcode": "85503-244"
    },
    {
        "city": "Pato Branco",
        "state": "PR",
        "district": "São Francisco",
        "street": "Rua Doutor João Juglair Júnior",
        "zipcode": "85504-795"
    },
    {
        "city": "Pato Branco",
        "state": "PR",
        "district": "Encruzilhada",
        "street": "Rua Evaristo Guerino Bebber",
        "zipcode": "85508-870"
    },
    {
        "city": "Pato Branco",
        "state": "PR",
        "district": "Bortot",
        "street": "Rua Beira Rio",
        "zipcode": "85504-192"
    },
    {
        "city": "Pato Branco",
        "state": "PR",
        "district": null,
        "street": "Rua Frederico Klin",
        "zipcode": "85509-990"
    },
    {
        "city": "Pato Branco",
        "state": "PR",
        "district": "Parque do Som",
        "street": "Rua Santina Cadorin Giasson",
        "zipcode": "85505-449"
    },
    {
        "city": "Pato Branco",
        "state": "PR",
        "district": "Planalto",
        "street": "Rua Augusto Saggin",
        "zipcode": "85509-195"
    },
    {
        "city": "Pato Branco",
        "state": "PR",
        "district": "Aeroporto",
        "street": "Rua Irineu Luiz Giacobo",
        "zipcode": "85503-032"
    },
    {
        "city": "Pato Branco",
        "state": "PR",
        "district": "Pinheirinho",
        "street": "Rua Visconde de Guarapuava",
        "zipcode": "85506-180"
    },
    {
        "city": "Pato Branco",
        "state": "PR",
        "district": "Jardim Primavera",
        "street": "Rua dos Dedaleiros",
        "zipcode": "85502-362"
    },
    {
        "city": "Pato Branco",
        "state": "PR",
        "district": "Fraron",
        "street": "Rua Amélio Dalla Valle",
        "zipcode": "85503-323"
    },
    {
        "city": "Pato Branco",
        "state": "PR",
        "district": "Fraron",
        "street": "Rua Sabina de Barba",
        "zipcode": "85503-248"
    },
    {
        "city": "Pato Branco",
        "state": "PR",
        "district": "Menino Deus",
        "street": "Rua Padre Claret",
        "zipcode": "85502-282"
    },
    {
        "city": "Pato Branco",
        "state": "PR",
        "district": "Menino Deus",
        "street": "Travessa Abel Antonio Guerra",
        "zipcode": "85502-168"
    },
    {
        "city": "Pato Branco",
        "state": "PR",
        "district": "Alvorada",
        "street": "Rua Jericó",
        "zipcode": "85508-068"
    },
    {
        "city": "Pato Branco",
        "state": "PR",
        "district": "La Salle",
        "street": "Rua do Pinhão",
        "zipcode": "85505-324"
    },
    {
        "city": "Pato Branco",
        "state": "PR",
        "district": "Parque do Som",
        "street": "Rua José Oldoni",
        "zipcode": "85505-432"
    },
    {
        "city": "Pato Branco",
        "state": "PR",
        "district": "São Roque",
        "street": "Rua Jerusalém",
        "zipcode": "85507-108"
    },
    {
        "city": "Pato Branco",
        "state": "PR",
        "district": "Aeroporto",
        "street": "Rua Zilda Arns Neumann",
        "zipcode": "85503-034"
    },
    {
        "city": "Pato Branco",
        "state": "PR",
        "district": "Novo Horizonte",
        "street": "Rua Ângelo Dal Bosco",
        "zipcode": "85507-652"
    },
    {
        "city": "Pato Branco",
        "state": "PR",
        "district": "Cristo Rei",
        "street": "Avenida Tupi",
        "zipcode": "85507-515"
    },
    {
        "city": "Pato Branco",
        "state": "PR",
        "district": "São Roque",
        "street": "Avenida Tupi",
        "zipcode": "85507-155"
    },
    {
        "city": "Pato Branco",
        "state": "PR",
        "district": "São Vicente",
        "street": "Avenida Tupi",
        "zipcode": "85506-329"
    },
    {
        "city": "Pato Branco",
        "state": "PR",
        "district": "São Luiz",
        "street": "Rua Ambrósio Bez",
        "zipcode": "85504-717"
    },
    {
        "city": "Pato Branco",
        "state": "PR",
        "district": "Baixada",
        "street": "Avenida Tupi",
        "zipcode": "85505-143"
    },
    {
        "city": "Pato Branco",
        "state": "PR",
        "district": "Pinheirinho",
        "street": "Avenida Tupi",
        "zipcode": "85506-095"
    },
    {
        "city": "Pato Branco",
        "state": "PR",
        "district": "Centro",
        "street": "Avenida Tupi",
        "zipcode": "85501-268"
    },
    {
        "city": "Pato Branco",
        "state": "PR",
        "district": "Centro",
        "street": "Travessa das Bandeiras",
        "zipcode": "85501-026"
    },
    {
        "city": "Pato Branco",
        "state": "PR",
        "district": "La Salle",
        "street": "Rua Angelina Mezzomo",
        "zipcode": "85505-334"
    },
    {
        "city": "Pato Branco",
        "state": "PR",
        "district": "São Luiz",
        "street": "Rua José Rocha",
        "zipcode": "85504-714"
    },
    {
        "city": "Pato Branco",
        "state": "PR",
        "district": "Planalto",
        "street": "Rua das Andorinhas",
        "zipcode": "85509-200"
    },
    {
        "city": "Pato Branco",
        "state": "PR",
        "district": "Sudoeste",
        "street": "Rua Ângelo Copetti",
        "zipcode": "85507-442"
    },
    {
        "city": "Pato Branco",
        "state": "PR",
        "district": "Menino Deus",
        "street": "Rua Arassuai",
        "zipcode": "85502-270"
    },
    {
        "city": "Pato Branco",
        "state": "PR",
        "district": "Centro",
        "street": "Rua Carlos Roberto Carraro",
        "zipcode": "85501-285"
    },
    {
        "city": "Pato Branco",
        "state": "PR",
        "district": "Jardim das Américas",
        "street": "Rua Bolívia",
        "zipcode": "85502-020"
    },
    {
        "city": "Pato Branco",
        "state": "PR",
        "district": "São Vicente",
        "street": "Travessa Borges",
        "zipcode": "85506-390"
    },
    {
        "city": "Pato Branco",
        "state": "PR",
        "district": "Pagnoncelli",
        "street": "Rodovia BR",
        "zipcode": "85509-380"
    },
    {
        "city": "Pato Branco",
        "state": "PR",
        "district": "La Salle",
        "street": "Rua Daniel Pagnoncelli",
        "zipcode": "85505-370"
    },
    {
        "city": "Pato Branco",
        "state": "PR",
        "district": "Bortot",
        "street": "Rua Generoso Catiani",
        "zipcode": "85504-120"
    },
    {
        "city": "Pato Branco",
        "state": "PR",
        "district": "Amadori",
        "street": "Rua Clarice Soares Cerqueira",
        "zipcode": "85502-230"
    },
    {
        "city": "Pato Branco",
        "state": "PR",
        "district": "Centro",
        "street": "Rua Iguaçu",
        "zipcode": "85501-266"
    },
    {
        "city": "Pato Branco",
        "state": "PR",
        "district": "São Cristóvão",
        "street": "Rua da Inconfidência",
        "zipcode": "85508-210"
    },
    {
        "city": "Pato Branco",
        "state": "PR",
        "district": "Bonatto",
        "street": "Rua Jorge Guérios Sobrinho",
        "zipcode": "85506-460"
    },
    {
        "city": "Pato Branco",
        "state": "PR",
        "district": "Bortot",
        "street": "Rua José Burin",
        "zipcode": "85504-690"
    },
    {
        "city": "Pato Branco",
        "state": "PR",
        "district": "São Roque",
        "street": "Rua Jundiaí",
        "zipcode": "85507-060"
    },
    {
        "city": "Pato Branco",
        "state": "PR",
        "district": "São Cristóvão",
        "street": "Travessa Ouvidor",
        "zipcode": "85508-234"
    },
    {
        "city": "Pato Branco",
        "state": "PR",
        "district": "Planalto",
        "street": "Rua Alexandre Popia",
        "zipcode": "85509-202"
    },
    {
        "city": "Pato Branco",
        "state": "PR",
        "district": "São Francisco",
        "street": "Rua Alceu Bengui Ribas",
        "zipcode": "85504-796"
    },
    {
        "city": "Pato Branco",
        "state": "PR",
        "district": "Pinheirinho",
        "street": "Rua Pedro José da Silva",
        "zipcode": "85506-190"
    },
    {
        "city": "Pato Branco",
        "state": "PR",
        "district": "Parzianello",
        "street": "Rua Olindo Setti",
        "zipcode": "85504-550"
    },
    {
        "city": "Pato Branco",
        "state": "PR",
        "district": "La Salle",
        "street": "Rua Prefeito Plácido Machado",
        "zipcode": "85505-190"
    },
    {
        "city": "Pato Branco",
        "state": "PR",
        "district": "Menino Deus",
        "street": "Rua Soares Bento",
        "zipcode": "85509-400"
    },
    {
        "city": "Pato Branco",
        "state": "PR",
        "district": "Sudoeste",
        "street": "Rua São José",
        "zipcode": "85507-428"
    },
    {
        "city": "Pato Branco",
        "state": "PR",
        "district": "Jardim Floresta",
        "street": "Rua Sueli Biazus",
        "zipcode": "85506-670"
    },
    {
        "city": "Pato Branco",
        "state": "PR",
        "district": "Sambugaro",
        "street": "Rua Teóphilo Augusto Loiola",
        "zipcode": "85502-480"
    },
    {
        "city": "Pato Branco",
        "state": "PR",
        "district": "Menino Deus",
        "street": "Rua Vereador Santos Vigano",
        "zipcode": "85502-100"
    },
    {
        "city": "Pato Branco",
        "state": "PR",
        "district": "Pinheirinho",
        "street": "Avenida Tupi",
        "zipcode": "85507-000"
    },
    {
        "city": "Pato Branco",
        "state": "PR",
        "district": "Baixada",
        "street": "Avenida Tupi",
        "zipcode": "85506-000"
    },
    {
        "city": "Pato Branco",
        "state": "PR",
        "district": "Centro",
        "street": "Avenida Tupi",
        "zipcode": "85505-000"
    },
    {
        "city": "Pato Branco",
        "state": "PR",
        "district": "Brasília",
        "street": "Rua Brasília",
        "zipcode": "85504-400"
    },
    {
        "city": "Pato Branco",
        "state": "PR",
        "district": "Brasília",
        "street": "Rua Salgado Filho",
        "zipcode": "85504-390"
    },
    {
        "city": "Pato Branco",
        "state": "PR",
        "district": "Brasília",
        "street": "Rua Manoel Ribas",
        "zipcode": "85504-330"
    },
    {
        "city": "Pato Branco",
        "state": "PR",
        "district": "Vila Isabel",
        "street": "Rua Pedro Soares",
        "zipcode": "85504-300"
    },
    {
        "city": "Pato Branco",
        "state": "PR",
        "district": "Vila Isabel",
        "street": "Rua Ambrósio Bez",
        "zipcode": "85504-270"
    },
    {
        "city": "Pato Branco",
        "state": "PR",
        "district": "Vila Isabel",
        "street": "Rua Silva Jardim",
        "zipcode": "85504-070"
    },
    {
        "city": "Pato Branco",
        "state": "PR",
        "district": "Brasília",
        "street": "Rua Arthur Bernardes",
        "zipcode": "85504-040"
    },
    {
        "city": "Pato Branco",
        "state": "PR",
        "district": "Brasília",
        "street": "Rua Silveira Martins",
        "zipcode": "85504-020"
    },
    {
        "city": "Pato Branco",
        "state": "PR",
        "district": "Brasília",
        "street": "Rua Assis Brasil",
        "zipcode": "85504-010"
    },
    {
        "city": "Pato Branco",
        "state": "PR",
        "district": "Centro",
        "street": "Travessa Guilherme Granzotto",
        "zipcode": "85502-490"
    },
    {
        "city": "Pato Branco",
        "state": "PR",
        "district": "Centro",
        "street": "Travessa da Garagem",
        "zipcode": "85501-520"
    },
    {
        "city": "Pato Branco",
        "state": "PR",
        "district": "Centro",
        "street": "Rua Carlos Roberto Carraro",
        "zipcode": "85501-015"
    },
    {
        "city": "Pato Branco",
        "state": "PR",
        "district": "Centro",
        "street": "Avenida Tupi",
        "zipcode": "85501-000"
    },
    {
        "city": "Pato Branco",
        "state": "PR",
        "district": "Aeroporto",
        "street": "Rua Jacob Gugelmn",
        "zipcode": "85503-004"
    },
    {
        "city": "Pato Branco",
        "state": "PR",
        "district": "Aeroporto",
        "street": "Rua Dórico Tartari",
        "zipcode": "85503-031"
    },
    {
        "city": "Pato Branco",
        "state": "PR",
        "district": "Fraron",
        "street": "Rua Armando Marangon",
        "zipcode": "85503-420"
    },
    {
        "city": "Pato Branco",
        "state": "PR",
        "district": "Cadorin",
        "street": "Rua Zilma Cadorin Marcante",
        "zipcode": "85504-595"
    },
    {
        "city": "Pato Branco",
        "state": "PR",
        "district": "São Luiz",
        "street": "Rua Joel de Mello",
        "zipcode": "85504-767"
    },
    {
        "city": "Pato Branco",
        "state": "PR",
        "district": "São Luiz",
        "street": "Rua Nilva de Mello",
        "zipcode": "85504-768"
    },
    {
        "city": "Pato Branco",
        "state": "PR",
        "district": "Fraron",
        "street": "Rua Clovi Capelezzo",
        "zipcode": "85503-432"
    },
    {
        "city": "Pato Branco",
        "state": "PR",
        "district": "Fraron",
        "street": "Rua Bruno Nilo Patrikosviski",
        "zipcode": "85503-416"
    },
    {
        "city": "Pato Branco",
        "state": "PR",
        "district": "Fraron",
        "street": "Rua Belmiro Michelin",
        "zipcode": "85503-414"
    },
    {
        "city": "Pato Branco",
        "state": "PR",
        "district": "Fraron",
        "street": "Rua Pioneiro Vitorio Sasso",
        "zipcode": "85503-411"
    },
    {
        "city": "Pato Branco",
        "state": "PR",
        "district": "São Luiz",
        "street": "Rua Vereador Osvaldo Ruaro",
        "zipcode": "85504-764"
    },
    {
        "city": "Pato Branco",
        "state": "PR",
        "district": "Fraron",
        "street": "Rua Maximino de Jesus Barbieri",
        "zipcode": "85503-438"
    },
    {
        "city": "Pato Branco",
        "state": "PR",
        "district": "Fraron",
        "street": "Rua Vereador Ivo Luiz Fantinel",
        "zipcode": "85503-412"
    },
    {
        "city": "Pato Branco",
        "state": "PR",
        "district": "São Francisco",
        "street": "Rua Graciosa Martinello",
        "zipcode": "85504-807"
    },
    {
        "city": "Pato Branco",
        "state": "PR",
        "district": "São Luiz",
        "street": "Rua Euclesio Luiz Araujo",
        "zipcode": "85504-760"
    },
    {
        "city": "Pato Branco",
        "state": "PR",
        "district": "Centro",
        "street": "Rua Antônio Camozzatto",
        "zipcode": "85501-210"
    },
    {
        "city": "Pato Branco",
        "state": "PR",
        "district": "Fraron",
        "street": "Rua Professor Genirio João Favero",
        "zipcode": "85503-413"
    },
    {
        "city": "Pato Branco",
        "state": "PR",
        "district": "Fraron",
        "street": "Rua Irmão Albano Arlindo Flach",
        "zipcode": "85503-448"
    },
    {
        "city": "Pato Branco",
        "state": "PR",
        "district": "São Francisco",
        "street": "Rua Arlete Colombo",
        "zipcode": "85504-801"
    },
    {
        "city": "Pato Branco",
        "state": "PR",
        "district": "Fraron",
        "street": "Rua Casemiro Burile",
        "zipcode": "85503-418"
    },
    {
        "city": "Pato Branco",
        "state": "PR",
        "district": "Fraron",
        "street": "Rua João Baptista de Souza",
        "zipcode": "85503-434"
    },
    {
        "city": "Pato Branco",
        "state": "PR",
        "district": "Fraron",
        "street": "Rua Dasolina Dagios",
        "zipcode": "85503-299"
    },
    {
        "city": "Pato Branco",
        "state": "PR",
        "district": "São Francisco",
        "street": "Rua Arthur Campestrini",
        "zipcode": "85504-804"
    },
    {
        "city": "Pato Branco",
        "state": "PR",
        "district": "Sudoeste",
        "street": "Rua Santa Rita",
        "zipcode": "85507-470"
    },
    {
        "city": "Pato Branco",
        "state": "PR",
        "district": "Centro",
        "street": "Rua Caramuru",
        "zipcode": "85501-060"
    },
    {
        "city": "Pato Branco",
        "state": "PR",
        "district": "Fraron",
        "street": "Rua Pioneiro Arelino Izidoro Schenatto",
        "zipcode": "85503-417"
    },
    {
        "city": "Pato Branco",
        "state": "PR",
        "district": "Novo Horizonte",
        "street": "Rua Angelo Copetti",
        "zipcode": "85507-550"
    },
    {
        "city": "Pato Branco",
        "state": "PR",
        "district": "Sudoeste",
        "street": "Rua Sao Miguel",
        "zipcode": "85507-430"
    },
    {
        "city": "Pato Branco",
        "state": "PR",
        "district": "Fraron",
        "street": "Rua Ângelo Albino Dagios",
        "zipcode": "85503-359"
    },
    {
        "city": "Pato Branco",
        "state": "PR",
        "district": "Centro",
        "street": "Rua Guarany",
        "zipcode": "85501-050"
    },
    {
        "city": "Pato Branco",
        "state": "PR",
        "district": "Fraron",
        "street": "Avenida Hugo Luiz Scartezini",
        "zipcode": "85503-430"
    },
    {
        "city": "Pato Branco",
        "state": "PR",
        "district": "Sao Cristovao",
        "street": "Rua Luiz Xavier",
        "zipcode": "85508-070"
    },
    {
        "city": "Pato Branco",
        "state": "PR",
        "district": "Fraron",
        "street": "Rua Eva Santos da Silva",
        "zipcode": "85503-361"
    },
    {
        "city": "Pato Branco",
        "state": "PR",
        "district": "Sudoeste",
        "street": "Rua Sao Jose",
        "zipcode": "85507-450"
    },
    {
        "city": "Pato Branco",
        "state": "PR",
        "district": "Pinheiros",
        "street": "Rua Belo Horizonte",
        "zipcode": "85504-380"
    },
    {
        "city": "Pato Branco",
        "state": "PR",
        "district": "Cristo Rei",
        "street": "Rua Yolanda Ferreira",
        "zipcode": "85506-278"
    },
    {
        "city": "Pato Branco",
        "state": "PR",
        "district": "Sudoeste",
        "street": "Rua Sao Pedro",
        "zipcode": "85507-435"
    },
    {
        "city": "Pato Branco",
        "state": "PR",
        "district": "São Roque",
        "street": "Rua Oliva Demoliner Cattani",
        "zipcode": "85507-141"
    },
    {
        "city": "Pato Branco",
        "state": "PR",
        "district": "São Luiz",
        "street": "Rua Marlene Bach",
        "zipcode": "85504-771"
    },
    {
        "city": "Pato Branco",
        "state": "PR",
        "district": "Sao Cristovao",
        "street": "Rua Castro Alves",
        "zipcode": "85508-060"
    },
    {
        "city": "Pato Branco",
        "state": "PR",
        "district": "São Luiz",
        "street": "Rua Lourenço Colla",
        "zipcode": "85504-762"
    },
    {
        "city": "Pato Branco",
        "state": "PR",
        "district": "Parque do Som",
        "street": "Rua Avenício Ezidio Giasson",
        "zipcode": "85505-431"
    },
    {
        "city": "Pato Branco",
        "state": "PR",
        "district": "São Luiz",
        "street": "Rua Hilda Maria Colla Bianchi",
        "zipcode": "85504-763"
    },
    {
        "city": "Pato Branco",
        "state": "PR",
        "district": "Industrial",
        "street": "Rua Antonio Cesa",
        "zipcode": "85506-529"
    },
    {
        "city": "Pato Branco",
        "state": "PR",
        "district": "Fraron",
        "street": "Rua Reno Chiocheta",
        "zipcode": "85503-442"
    },
    {
        "city": "Pato Branco",
        "state": "PR",
        "district": "Centro",
        "street": "Rua Itabira",
        "zipcode": "85501-290"
    },
    {
        "city": "Pato Branco",
        "state": "PR",
        "district": "Brasilia",
        "street": "Rua Tocantins",
        "zipcode": "85504-030"
    },
    {
        "city": "Pato Branco",
        "state": "PR",
        "district": "Cadorin",
        "street": "Rua Hélio Gomes da Silva",
        "zipcode": "85504-596"
    },
    {
        "city": "Pato Branco",
        "state": "PR",
        "district": "Cristo Rei",
        "street": "Rua Yone Ferreira",
        "zipcode": "85506-283"
    },
    {
        "city": "Pato Branco",
        "state": "PR",
        "district": "Alvorada",
        "street": "Rua Vinte E Um De Abril",
        "zipcode": "85508-040"
    },
    {
        "city": "Pato Branco",
        "state": "PR",
        "district": "Santa Terezinha",
        "street": "Rua Theóphilo Petrikoski",
        "zipcode": "85506-015"
    },
    {
        "city": "Pato Branco",
        "state": "PR",
        "district": "Sambugaro",
        "street": "Rua Gomercindo Palagi",
        "zipcode": "85502-475"
    },
    {
        "city": "Pato Branco",
        "state": "PR",
        "district": "Alvorada",
        "street": "Rua Fagundes Varela",
        "zipcode": "85508-140"
    },
    {
        "city": "Pato Branco",
        "state": "PR",
        "district": "Sudoeste",
        "street": "Rua Sao Francisco",
        "zipcode": "85507-460"
    },
    {
        "city": "Pato Branco",
        "state": "PR",
        "district": "Parzianello",
        "street": "Rua Itapua",
        "zipcode": "85504-060"
    },
    {
        "city": "Pato Branco",
        "state": "PR",
        "district": "Centro",
        "street": "Rua Iguacu",
        "zipcode": "85502-500"
    },
    {
        "city": "Pato Branco",
        "state": "PR",
        "district": "Centro",
        "street": "Rua Aimore",
        "zipcode": "85504-050"
    },
    {
        "city": "Pato Branco",
        "state": "PR",
        "district": "Planalto",
        "street": "Rua Martin Sordi",
        "zipcode": "85509-102"
    },
    {
        "city": "Pato Branco",
        "state": "PR",
        "district": "Centro",
        "street": "Rua Osvaldo Aranha",
        "zipcode": "85501-310"
    },
    {
        "city": "Pato Branco",
        "state": "PR",
        "district": "Trevo Patinhos",
        "street": "Rua Trevo Patinho",
        "zipcode": "85504-665"
    },
    {
        "city": "Pato Branco",
        "state": "PR",
        "district": "São Francisco",
        "street": "Rua Yolanda Fraron",
        "zipcode": "85504-823"
    },
    {
        "city": "Pato Branco",
        "state": "PR",
        "district": "Centro",
        "street": "Rua Ibipora",
        "zipcode": "85501-280"
    },
    {
        "city": "Pato Branco",
        "state": "PR",
        "district": "Planalto",
        "street": "Rua Milton de Paula Garcia",
        "zipcode": "85509-197"
    },
    {
        "city": "Pato Branco",
        "state": "PR",
        "district": "Sao Cristovao",
        "street": "Rua Goncalves Dias",
        "zipcode": "85508-080"
    },
    {
        "city": "Pato Branco",
        "state": "PR",
        "district": "Cristo Rei",
        "street": "Rua Napoleão Cardoso",
        "zipcode": "85506-281"
    },
    {
        "city": "Pato Branco",
        "state": "PR",
        "district": "Centro",
        "street": "Rua Parana",
        "zipcode": "85501-090"
    },
    {
        "city": "Pato Branco",
        "state": "PR",
        "district": "Sudoeste",
        "street": "Rua Sao Tome",
        "zipcode": "85507-440"
    },
    {
        "city": "Pato Branco",
        "state": "PR",
        "district": "Centro",
        "street": "Rua Arariboia",
        "zipcode": "85505-030"
    },
    {
        "city": "Pato Branco",
        "state": "PR",
        "district": "Industrial",
        "street": "Rua Pioneiro Arcide Colla",
        "zipcode": "85506-528"
    },
    {
        "city": "Pato Branco",
        "state": "PR",
        "district": "Alvorada",
        "street": "Rua Princesa Isabel",
        "zipcode": "85508-160"
    },
    {
        "city": "Pato Branco",
        "state": "PR",
        "district": "Sao Cristovao",
        "street": "Travessa Ouvidor",
        "zipcode": "85508-115"
    },
    {
        "city": "Pato Branco",
        "state": "PR",
        "district": "Alvorada",
        "street": "Rua Dom Joao Vi",
        "zipcode": "85508-170"
    },
    {
        "city": "Pato Branco",
        "state": "PR",
        "district": "Vila Esperanca",
        "street": "Rua Marginal",
        "zipcode": "85503-400"
    },
    {
        "city": "Pato Branco",
        "state": "PR",
        "district": "Sao Cristovao",
        "street": "Rua Osvaldo Cruz",
        "zipcode": "85508-100"
    },
    {
        "city": "Pato Branco",
        "state": "PR",
        "district": "Centro",
        "street": "Avenida Brasil",
        "zipcode": "85501-080"
    },
    {
        "city": "Pato Branco",
        "state": "PR",
        "district": "Sao Cristovao",
        "street": "Rua Coelho Neto",
        "zipcode": "85508-240"
    },
    {
        "city": "Pato Branco",
        "state": "PR",
        "district": "Centro",
        "street": "Rua Tocantins",
        "zipcode": "85501-010"
    },
    {
        "city": "Pato Branco",
        "state": "PR",
        "district": "Sao Cristovao",
        "street": "Rua Papa Joao Xxiii",
        "zipcode": "85508-030"
    },
    {
        "city": "Pato Branco",
        "state": "PR",
        "district": "Sao Cristovao",
        "street": "Rua Dom Pedro I",
        "zipcode": "85508-020"
    },
    {
        "city": "Pato Branco",
        "state": "PR",
        "district": "Cristo Rei",
        "street": "Rua Aneri Florindo Baggios",
        "zipcode": "85507-482"
    },
    {
        "city": "Pato Branco",
        "state": "PR",
        "district": "Sao Cristovao",
        "street": "Avenida Tupy",
        "zipcode": "85508-000"
    },
    {
        "city": "Pato Branco",
        "state": "PR",
        "district": "Bela Vista",
        "street": "Rua Albino Oldoni",
        "zipcode": "85509-330"
    },
    {
        "city": "Pato Branco",
        "state": "PR",
        "district": "Industrial",
        "street": "Rua Maria Balbinotti",
        "zipcode": "85506-523"
    },
    {
        "city": "Pato Branco",
        "state": "PR",
        "district": "Cristo Rei",
        "street": "Rua Curitiba",
        "zipcode": "85507-480"
    },
    {
        "city": "Pato Branco",
        "state": "PR",
        "district": "Sao Cristovao",
        "street": "Rua Erico Verissimo",
        "zipcode": "85508-260"
    },
    {
        "city": "Pato Branco",
        "state": "PR",
        "district": "Planalto",
        "street": "Travessa Ademar Cantu",
        "zipcode": "85509-249"
    },
    {
        "city": "Pato Branco",
        "state": "PR",
        "district": "Pagnoncelli",
        "street": "Rua Orlanda Esgorla Picetski",
        "zipcode": "85509-385"
    },
    {
        "city": "Pato Branco",
        "state": "PR",
        "district": "Novo Horizonte",
        "street": "Rua Darcy Gomes Brasil",
        "zipcode": "85507-627"
    },
    {
        "city": "Pato Branco",
        "state": "PR",
        "district": "Centro",
        "street": "Rua Tapir",
        "zipcode": "85501-300"
    },
    {
        "city": "Pato Branco",
        "state": "PR",
        "district": "Planalto",
        "street": "Rua Perdizes",
        "zipcode": "85509-175"
    },
    {
        "city": "Pato Branco",
        "state": "PR",
        "district": "Bonatto",
        "street": "Rua Clodoaldo Prata de Souza",
        "zipcode": "85506-502"
    },
    {
        "city": "Pato Branco",
        "state": "PR",
        "district": "Fraron",
        "street": "Rua Félix Jacob Rossoni",
        "zipcode": "85503-383"
    },
    {
        "city": "Pato Branco",
        "state": "PR",
        "district": "La Salle",
        "street": "Rua Olívio del Sent",
        "zipcode": "85505-331"
    },
    {
        "city": "Pato Branco",
        "state": "PR",
        "district": "Novo Horizonte",
        "street": "Rua Artibano Pícolo",
        "zipcode": "85507-662"
    },
    {
        "city": "Pato Branco",
        "state": "PR",
        "district": "Jardim Floresta",
        "street": "Rua Severino Cavazzola",
        "zipcode": "85506-583"
    },
    {
        "city": "Pato Branco",
        "state": "PR",
        "district": "Parque do Som",
        "street": "Rua José Cardoso Junior",
        "zipcode": "85505-421"
    },
    {
        "city": "Pato Branco",
        "state": "PR",
        "district": "São Francisco",
        "street": "Rua Dezidério Favetti",
        "zipcode": "85504-792"
    },
    {
        "city": "Pato Branco",
        "state": "PR",
        "district": "São João",
        "street": "Rua Clarice Recalcati",
        "zipcode": "85509-560"
    },
    {
        "city": "Pato Branco",
        "state": "PR",
        "district": "São Luiz",
        "street": "Rua Leduir Viganó",
        "zipcode": "85504-742"
    },
    {
        "city": "Pato Branco",
        "state": "PR",
        "district": "Gralha Azul",
        "street": "Rua Nelson Formigueri",
        "zipcode": "85508-338"
    },
    {
        "city": "Pato Branco",
        "state": "PR",
        "district": "Jardim Primavera",
        "street": "Rua Valentin Burile",
        "zipcode": "85502-392"
    },
    {
        "city": "Pato Branco",
        "state": "PR",
        "district": "Centro",
        "street": "Travessa das Bandeiras",
        "zipcode": "85501-081"
    },
    {
        "city": "Pato Branco",
        "state": "PR",
        "district": "Bortot",
        "street": "Rua Vereador Ivan José Chioqueta",
        "zipcode": "85504-082"
    },
    {
        "city": "Pato Branco",
        "state": "PR",
        "district": "Dal Ross",
        "street": "Rodovia BR",
        "zipcode": "85509-262"
    },
    {
        "city": "Pato Branco",
        "state": "PR",
        "district": "Anchieta",
        "street": "Rua Dez de Maio",
        "zipcode": "85501-430"
    },
    {
        "city": "Pato Branco",
        "state": "PR",
        "district": "Centro",
        "street": "Rua Caramuru",
        "zipcode": "85501-051"
    },
    {
        "city": "Pato Branco",
        "state": "PR",
        "district": "Sao Cristovao",
        "street": "Rua Padre Vieira",
        "zipcode": "85508-270"
    },
    {
        "city": "Pato Branco",
        "state": "PR",
        "district": "Bela Vista",
        "street": "Rua Pedro Zancanaro",
        "zipcode": "85509-320"
    },
    {
        "city": "Pato Branco",
        "state": "PR",
        "district": "Sao Cristovao",
        "street": "Rua Joao Negrao",
        "zipcode": "85508-200"
    },
    {
        "city": "Pato Branco",
        "state": "PR",
        "district": "Alvorada",
        "street": "Rua Das Flores",
        "zipcode": "85508-150"
    },
    {
        "city": "Pato Branco",
        "state": "PR",
        "district": "Alvorada",
        "street": "Travessa Siliprandi",
        "zipcode": "85508-190"
    },
    {
        "city": "Pato Branco",
        "state": "PR",
        "district": "Alvorada",
        "street": "Rua Pedro Lobo",
        "zipcode": "85508-120"
    },
    {
        "city": "Pato Branco",
        "state": "PR",
        "district": "Sudoeste",
        "street": "Rua dos Lírios",
        "zipcode": "85507-436"
    },
    {
        "city": "Pato Branco",
        "state": "PR",
        "district": "Centro",
        "street": "Rua Paraná",
        "zipcode": "85501-061"
    },
    {
        "city": "Pato Branco",
        "state": "PR",
        "district": "Sudoeste",
        "street": "Rua Octávio José Fernandes",
        "zipcode": "85507-439"
    },
    {
        "city": "Pato Branco",
        "state": "PR",
        "district": "Fraron",
        "street": "Rua Antonio Dalla Costa",
        "zipcode": "85503-403"
    },
    {
        "city": "Pato Branco",
        "state": "PR",
        "district": "Fraron",
        "street": "Rua Vitélio Parzianello",
        "zipcode": "85503-410"
    },
    {
        "city": "Pato Branco",
        "state": "PR",
        "district": "Veneza",
        "street": "Rua Curitiba",
        "zipcode": "85507-730"
    },
    {
        "city": "Pato Branco",
        "state": "PR",
        "district": "La Salle",
        "street": "Rua Araribóia",
        "zipcode": "85505-031"
    },
    {
        "city": "Pato Branco",
        "state": "PR",
        "district": "Sudoeste",
        "street": "Travessa Ibema",
        "zipcode": "85507-455"
    },
    {
        "city": "Pato Branco",
        "state": "PR",
        "district": "Sao Cristovao",
        "street": "Rua Manoel Bandeira",
        "zipcode": "85508-250"
    },
    {
        "city": "Pato Branco",
        "state": "PR",
        "district": "Menino Deus",
        "street": "Rua Oliden Rotava",
        "zipcode": "85509-390"
    },
    {
        "city": "Pato Branco",
        "state": "PR",
        "district": "Fraron",
        "street": "Rua Josefina Vieceili Defaveri",
        "zipcode": "85503-436"
    },
    {
        "city": "Pato Branco",
        "state": "PR",
        "district": "São João",
        "street": "Rua José Oldoni",
        "zipcode": "85509-565"
    },
    {
        "city": "Pato Branco",
        "state": "PR",
        "district": "Centro",
        "street": "Rua Governador Jorge Lacerda",
        "zipcode": "85501-400"
    },
    {
        "city": "Pato Branco",
        "state": "PR",
        "district": "Fraron",
        "street": "Rua Armando Marangon",
        "zipcode": "85503-425"
    },
    {
        "city": "Pato Branco",
        "state": "PR",
        "district": "Cristo Rei",
        "street": "Rua Bento Goncalves",
        "zipcode": "85507-490"
    },
    {
        "city": "Pato Branco",
        "state": "PR",
        "district": "Fraron",
        "street": "Rua Zamir José Borsatti",
        "zipcode": "85503-362"
    },
    {
        "city": "Pato Branco",
        "state": "PR",
        "district": "São Luiz",
        "street": "Rua Darcilio Mazzoti",
        "zipcode": "85504-766"
    },
    {
        "city": "Pato Branco",
        "state": "PR",
        "district": "Alvorada",
        "street": "Rua Tome De Souza",
        "zipcode": "85508-050"
    },
    {
        "city": "Pato Branco",
        "state": "PR",
        "district": "Centro",
        "street": "Rua Iguacu",
        "zipcode": "85501-270"
    },
    {
        "city": "Pato Branco",
        "state": "PR",
        "district": "Sao Cristovao",
        "street": "Rua Do Principe",
        "zipcode": "85508-010"
    },
    {
        "city": "Pato Branco",
        "state": "PR",
        "district": "Alvorada",
        "street": "Rua Corretor Vilas Boas",
        "zipcode": "85508-130"
    },
    {
        "city": "Pato Branco",
        "state": "PR",
        "district": "Cristo Rei",
        "street": "Rua Pioneiro Arno Bohn",
        "zipcode": "85507-532"
    },
    {
        "city": "Pato Branco",
        "state": "PR",
        "district": "Cristo Rei",
        "street": "Rua Etelvina Pires Ferreira",
        "zipcode": "85506-279"
    },
    {
        "city": "Pato Branco",
        "state": "PR",
        "district": "Cristo Rei",
        "street": "Rua Thereza Rosa Marina Baggio",
        "zipcode": "85507-484"
    },
    {
        "city": "Pato Branco",
        "state": "PR",
        "district": "São Luiz",
        "street": "Rua Izeu Antonio Gazola",
        "zipcode": "85504-770"
    },
    {
        "city": "Pato Branco",
        "state": "PR",
        "district": "Alvorada",
        "street": "Travessa Ipacarai",
        "zipcode": "85508-180"
    },
    {
        "city": "Pato Branco",
        "state": "PR",
        "district": "Bortot",
        "street": "Travessa Lisboa",
        "zipcode": "85504-194"
    },
    {
        "city": "Pato Branco",
        "state": "PR",
        "district": "Santo Antonio",
        "street": "Travessa Cruz Alta",
        "zipcode": "85507-420"
    },
    {
        "city": "Pato Branco",
        "state": "PR",
        "district": "Vila Isabel",
        "street": "Rua Nereu Ramos",
        "zipcode": "85504-320"
    },
    {
        "city": "Pato Branco",
        "state": "PR",
        "district": "Pagnoncelli",
        "street": "Rua Guilherme Zanmaria",
        "zipcode": "85509-382"
    },
    {
        "city": "Pato Branco",
        "state": "PR",
        "district": "Centro",
        "street": "Rua Tapajos",
        "zipcode": "85501-030"
    },
    {
        "city": "Pato Branco",
        "state": "PR",
        "district": "Fraron",
        "street": "Rua Fioravante Colla",
        "zipcode": "85503-446"
    },
    {
        "city": "Pato Branco",
        "state": "PR",
        "district": "São Luiz",
        "street": "Rua Antonio João Leonardi",
        "zipcode": "85504-761"
    },
    {
        "city": "Pato Branco",
        "state": "PR",
        "district": "Fraron",
        "street": "Rua Rafael Pegoraro Rosa",
        "zipcode": "85503-415"
    },
    {
        "city": "Pato Branco",
        "state": "PR",
        "district": "Sao Cristovao",
        "street": "Rua Alexandre Gusmao",
        "zipcode": "85508-090"
    },
    {
        "city": "Pato Branco",
        "state": "PR",
        "district": "Pagnoncelli",
        "street": "Rua Valdir João Giasson",
        "zipcode": "85509-375"
    }
]