[
    {
        "city": "Pinhais",
        "state": "PR",
        "district": "Planta Karla",
        "street": "Rua Flamboyant",
        "zipcode": "83328-670"
    },
    {
        "city": "Pinhais",
        "state": "PR",
        "district": "Jardim Karla",
        "street": "Rua Leonard Conrad Hermann",
        "zipcode": "83328-480"
    },
    {
        "city": "Pinhais",
        "state": "PR",
        "district": "Planta Walde Rosi Galvao",
        "street": "Rua Nirisco",
        "zipcode": "83328-540"
    },
    {
        "city": "Pinhais",
        "state": "PR",
        "district": "Alphaville Graciosa",
        "street": "Rua das Amoreiras",
        "zipcode": "83327-206"
    },
    {
        "city": "Pinhais",
        "state": "PR",
        "district": "Emiliano Perneta",
        "street": "Rua Waldemar Kormann",
        "zipcode": "83325-104"
    },
    {
        "city": "Pinhais",
        "state": "PR",
        "district": "Pineville",
        "street": "Rua Jurandir Antunes",
        "zipcode": "83320-502"
    },
    {
        "city": "Pinhais",
        "state": "PR",
        "district": "Alphaville Graciosa",
        "street": "Rua das Figueiras",
        "zipcode": "83327-205"
    },
    {
        "city": "Pinhais",
        "state": "PR",
        "district": "Weissópolis",
        "street": "Travessa Rio Mississipi",
        "zipcode": "83322-341"
    },
    {
        "city": "Pinhais",
        "state": "PR",
        "district": "Planta Karla",
        "street": "Rua Dos Pinheiros",
        "zipcode": "83328-640"
    },
    {
        "city": "Pinhais",
        "state": "PR",
        "district": "Alto Tarumã",
        "street": "Rua Thaíza Fernanda Cunha Escarcel",
        "zipcode": "83325-602"
    },
    {
        "city": "Pinhais",
        "state": "PR",
        "district": "Alphaville Graciosa",
        "street": "Rua das Itaúbas",
        "zipcode": "83327-202"
    },
    {
        "city": "Pinhais",
        "state": "PR",
        "district": "Pineville",
        "street": "Rua Cairo",
        "zipcode": "83320-130"
    },
    {
        "city": "Pinhais",
        "state": "PR",
        "district": "Emiliano Perneta",
        "street": "Rua União da Vitória",
        "zipcode": "83325-175"
    },
    {
        "city": "Pinhais",
        "state": "PR",
        "district": "Jardim Amélia",
        "street": "Rua Prudente de Moraes",
        "zipcode": "83330-130"
    },
    {
        "city": "Pinhais",
        "state": "PR",
        "district": "Alphaville Graciosa",
        "street": "Estrada da Graciosa",
        "zipcode": "83327-000"
    },
    {
        "city": "Pinhais",
        "state": "PR",
        "district": "Jardim Cláudia",
        "street": "Avenida Jacob Macanhan",
        "zipcode": "83326-000"
    },
    {
        "city": "Pinhais",
        "state": "PR",
        "district": "Jardim Karla",
        "street": "Rua Sady Ricardo dos Santos Filho",
        "zipcode": "83328-493"
    },
    {
        "city": "Pinhais",
        "state": "PR",
        "district": "Atuba",
        "street": "Avenida Maringá",
        "zipcode": "83326-112"
    },
    {
        "city": "Pinhais",
        "state": "PR",
        "district": "Atuba",
        "street": "Rua Walmor Alves Mota",
        "zipcode": "83326-715"
    },
    {
        "city": "Pinhais",
        "state": "PR",
        "district": "Jardim Karla",
        "street": "Rua Gustavo Corção",
        "zipcode": "83328-420"
    },
    {
        "city": "Pinhais",
        "state": "PR",
        "district": "Pineville",
        "street": "Rua Gana",
        "zipcode": "83320-260"
    },
    {
        "city": "Pinhais",
        "state": "PR",
        "district": "Maria Antonieta",
        "street": "Rua Nauza Alves",
        "zipcode": "83331-360"
    },
    {
        "city": "Pinhais",
        "state": "PR",
        "district": "Jardim Karla",
        "street": "Rua Papiro",
        "zipcode": "83328-020"
    },
    {
        "city": "Pinhais",
        "state": "PR",
        "district": "Emiliano Perneta",
        "street": "Rua Pedro Fanor",
        "zipcode": "83324-425"
    },
    {
        "city": "Pinhais",
        "state": "PR",
        "district": "Jardim Karla",
        "street": "Rua das Samambaias",
        "zipcode": "83328-010"
    },
    {
        "city": "Pinhais",
        "state": "PR",
        "district": "Emiliano Perneta",
        "street": "Rua Wanderley do Amaral",
        "zipcode": "83324-550"
    },
    {
        "city": "Pinhais",
        "state": "PR",
        "district": "Vargem Grande",
        "street": "Travessa Leôncio Correia",
        "zipcode": "83321-340"
    },
    {
        "city": "Pinhais",
        "state": "PR",
        "district": "Alphaville Graciosa",
        "street": "Rua Aripuanã",
        "zipcode": "83327-087"
    },
    {
        "city": "Pinhais",
        "state": "PR",
        "district": "Weissópolis",
        "street": "Rua Rio Guanabara",
        "zipcode": "83322-285"
    },
    {
        "city": "Pinhais",
        "state": "PR",
        "district": "Emiliano Perneta",
        "street": "Rua Amaporã",
        "zipcode": "83324-320"
    },
    {
        "city": "Pinhais",
        "state": "PR",
        "district": "Atuba",
        "street": "Rua Kelly Dantas Moraes Cartaxo",
        "zipcode": "83326-730"
    },
    {
        "city": "Pinhais",
        "state": "PR",
        "district": "Atuba",
        "street": "Rua Gerhard Trapp",
        "zipcode": "83326-020"
    },
    {
        "city": "Pinhais",
        "state": "PR",
        "district": "Alphaville Graciosa",
        "street": "Rua dos Mainás",
        "zipcode": "83327-135"
    },
    {
        "city": "Pinhais",
        "state": "PR",
        "district": "Pineville",
        "street": "Rua Maria Leni Barbosa do Nascimento",
        "zipcode": "83320-565"
    },
    {
        "city": "Pinhais",
        "state": "PR",
        "district": "Emiliano Perneta",
        "street": "Travessa A",
        "zipcode": "83324-538"
    },
    {
        "city": "Pinhais",
        "state": "PR",
        "district": "Atuba",
        "street": "Travessa Bela Vista",
        "zipcode": "83326-228"
    },
    {
        "city": "Pinhais",
        "state": "PR",
        "district": "Maria Antonieta",
        "street": "Rua Aristeu de Castro Fernandes",
        "zipcode": "83331-160"
    },
    {
        "city": "Pinhais",
        "state": "PR",
        "district": "Maria Antonieta",
        "street": "Rua Antônio Gelinski",
        "zipcode": "83331-260"
    },
    {
        "city": "Pinhais",
        "state": "PR",
        "district": "Maria Antonieta",
        "street": "Rua Célio José Pivova",
        "zipcode": "83331-320"
    },
    {
        "city": "Pinhais",
        "state": "PR",
        "district": "Maria Antonieta",
        "street": "Rua Alfredina Maciel Pinto",
        "zipcode": "83331-290"
    },
    {
        "city": "Pinhais",
        "state": "PR",
        "district": "Maria Antonieta",
        "street": "Rua Edmundo Mercer Sobrinho",
        "zipcode": "83331-220"
    },
    {
        "city": "Pinhais",
        "state": "PR",
        "district": "Maria Antonieta",
        "street": "Rua Ernesto Wandembruck",
        "zipcode": "83331-280"
    },
    {
        "city": "Pinhais",
        "state": "PR",
        "district": "Maria Antonieta",
        "street": "Rua Francisco Lourenço",
        "zipcode": "83331-270"
    },
    {
        "city": "Pinhais",
        "state": "PR",
        "district": "Maria Antonieta",
        "street": "Rua Delza Souza Borges",
        "zipcode": "83331-340"
    },
    {
        "city": "Pinhais",
        "state": "PR",
        "district": "Maria Antonieta",
        "street": "Rua Jerônimo Mendes dos Santos",
        "zipcode": "83331-170"
    },
    {
        "city": "Pinhais",
        "state": "PR",
        "district": "Maria Antonieta",
        "street": "Rua João Batista Guerra",
        "zipcode": "83331-310"
    },
    {
        "city": "Pinhais",
        "state": "PR",
        "district": "Maria Antonieta",
        "street": "Rodovia João Leopoldo Jacomel",
        "zipcode": "83331-330"
    },
    {
        "city": "Pinhais",
        "state": "PR",
        "district": "Maria Antonieta",
        "street": "Rua João Wilker Rodrigues",
        "zipcode": "83331-380"
    },
    {
        "city": "Pinhais",
        "state": "PR",
        "district": "Maria Antonieta",
        "street": "Rua Leila Diniz",
        "zipcode": "83331-210"
    },
    {
        "city": "Pinhais",
        "state": "PR",
        "district": "Maria Antonieta",
        "street": "Rua Maria Ione G. de Oliveira",
        "zipcode": "83331-350"
    },
    {
        "city": "Pinhais",
        "state": "PR",
        "district": "Maria Antonieta",
        "street": "Rua Maria Maia Duarte",
        "zipcode": "83331-410"
    },
    {
        "city": "Pinhais",
        "state": "PR",
        "district": "Maria Antonieta",
        "street": "Rua Maysa Matarazzo",
        "zipcode": "83331-200"
    },
    {
        "city": "Pinhais",
        "state": "PR",
        "district": "Maria Antonieta",
        "street": "Rua dos Luteranos",
        "zipcode": "83331-190"
    },
    {
        "city": "Pinhais",
        "state": "PR",
        "district": "Maria Antonieta",
        "street": "Rua Osvaldo da Silva Osório",
        "zipcode": "83331-400"
    },
    {
        "city": "Pinhais",
        "state": "PR",
        "district": "Maria Antonieta",
        "street": "Rua Primo Antônio Mottin",
        "zipcode": "83331-240"
    },
    {
        "city": "Pinhais",
        "state": "PR",
        "district": "Maria Antonieta",
        "street": "Rua Pedro Klass",
        "zipcode": "83331-180"
    },
    {
        "city": "Pinhais",
        "state": "PR",
        "district": "Maria Antonieta",
        "street": "Rua Raimundo Belão",
        "zipcode": "83331-370"
    },
    {
        "city": "Pinhais",
        "state": "PR",
        "district": "Alto Tarumã",
        "street": "Rua Goiânia",
        "zipcode": "83325-550"
    },
    {
        "city": "Pinhais",
        "state": "PR",
        "district": "Jardim Amélia",
        "street": "Rua Salgado Filho",
        "zipcode": "83330-971"
    },
    {
        "city": "Pinhais",
        "state": "PR",
        "district": "Jardim Karla",
        "street": "Rua das Acácias",
        "zipcode": "83328-410"
    },
    {
        "city": "Pinhais",
        "state": "PR",
        "district": "Maria Antonieta",
        "street": "Rua Adalberto de Andrade",
        "zipcode": "83331-030"
    },
    {
        "city": "Pinhais",
        "state": "PR",
        "district": "Maria Antonieta",
        "street": "Rua Ana Kozer",
        "zipcode": "83331-010"
    },
    {
        "city": "Pinhais",
        "state": "PR",
        "district": "Maria Antonieta",
        "street": "Rua Antônio de Andrade",
        "zipcode": "83331-150"
    },
    {
        "city": "Pinhais",
        "state": "PR",
        "district": "Maria Antonieta",
        "street": "Rua Arnaldo de Andrade",
        "zipcode": "83331-070"
    },
    {
        "city": "Pinhais",
        "state": "PR",
        "district": "Maria Antonieta",
        "street": "Rua Ataulfo Alves",
        "zipcode": "83331-130"
    },
    {
        "city": "Pinhais",
        "state": "PR",
        "district": "Maria Antonieta",
        "street": "Rua Carlos Poulhmann",
        "zipcode": "83331-090"
    },
    {
        "city": "Pinhais",
        "state": "PR",
        "district": "Maria Antonieta",
        "street": "Rua Agostinho dos Santos",
        "zipcode": "83331-100"
    },
    {
        "city": "Pinhais",
        "state": "PR",
        "district": "Maria Antonieta",
        "street": "Rua Augusto Trevisan",
        "zipcode": "83331-020"
    },
    {
        "city": "Pinhais",
        "state": "PR",
        "district": "Maria Antonieta",
        "street": "Rua Ernesto Kugler",
        "zipcode": "83331-140"
    },
    {
        "city": "Pinhais",
        "state": "PR",
        "district": "Jardim Karla",
        "street": "Rua Flamboyant",
        "zipcode": "83328-400"
    },
    {
        "city": "Pinhais",
        "state": "PR",
        "district": "Jardim Karla",
        "street": "Rua Ipê",
        "zipcode": "83328-320"
    },
    {
        "city": "Pinhais",
        "state": "PR",
        "district": "Jardim Karla",
        "street": "Rua Jatobá",
        "zipcode": "83328-160"
    },
    {
        "city": "Pinhais",
        "state": "PR",
        "district": "Jardim Karla",
        "street": "Rua das Laranjeiras",
        "zipcode": "83328-350"
    },
    {
        "city": "Pinhais",
        "state": "PR",
        "district": "Jardim Karla",
        "street": "Rua Flor",
        "zipcode": "83328-360"
    },
    {
        "city": "Pinhais",
        "state": "PR",
        "district": "Maria Antonieta",
        "street": "Rua João Mendes Batista",
        "zipcode": "83331-050"
    },
    {
        "city": "Pinhais",
        "state": "PR",
        "district": "Maria Antonieta",
        "street": "Rua Manoel Alves Vieira",
        "zipcode": "83331-110"
    },
    {
        "city": "Pinhais",
        "state": "PR",
        "district": "Jardim Karla",
        "street": "Rua Fábio Vicente de Moura",
        "zipcode": "83328-484"
    },
    {
        "city": "Pinhais",
        "state": "PR",
        "district": "Jardim Amélia",
        "street": "Rua Getúlio Vargas",
        "zipcode": "83330-180"
    },
    {
        "city": "Pinhais",
        "state": "PR",
        "district": "Jardim Amélia",
        "street": "Rua Sandro Carlos Sarda",
        "zipcode": "83330-260"
    },
    {
        "city": "Pinhais",
        "state": "PR",
        "district": "Jardim Amélia",
        "street": "Rua João Jorge Porfírio",
        "zipcode": "83330-300"
    },
    {
        "city": "Pinhais",
        "state": "PR",
        "district": "Parque das Nascentes",
        "street": "Rua João Ananias Pinto",
        "zipcode": "83327-040"
    },
    {
        "city": "Pinhais",
        "state": "PR",
        "district": "Jardim Amélia",
        "street": "Rua Romeu Pires",
        "zipcode": "83330-220"
    },
    {
        "city": "Pinhais",
        "state": "PR",
        "district": "Jardim Amélia",
        "street": "Rua Antônio José Pereira",
        "zipcode": "83330-250"
    },
    {
        "city": "Pinhais",
        "state": "PR",
        "district": "Jardim Amélia",
        "street": "Rua Antônio Natal",
        "zipcode": "83330-310"
    },
    {
        "city": "Pinhais",
        "state": "PR",
        "district": "Jardim Amélia",
        "street": "Rua Ataliba Coelho dos Santos",
        "zipcode": "83330-330"
    },
    {
        "city": "Pinhais",
        "state": "PR",
        "district": "Jardim Amélia",
        "street": "Rua Carlos Augusto do Nascimento",
        "zipcode": "83330-230"
    },
    {
        "city": "Pinhais",
        "state": "PR",
        "district": "Jardim Amélia",
        "street": "Rua João do Pulo",
        "zipcode": "83330-265"
    },
    {
        "city": "Pinhais",
        "state": "PR",
        "district": "Jardim Amélia",
        "street": "Rua Aurora do Carmo dos Santos",
        "zipcode": "83330-266"
    },
    {
        "city": "Pinhais",
        "state": "PR",
        "district": "Jardim Amélia",
        "street": "Rua Antônio Micheletti",
        "zipcode": "83330-267"
    },
    {
        "city": "Pinhais",
        "state": "PR",
        "district": "Maria Antonieta",
        "street": "Rua Lázaro Moreira",
        "zipcode": "83331-040"
    },
    {
        "city": "Pinhais",
        "state": "PR",
        "district": "Emiliano Perneta",
        "street": "Rua Mariluz",
        "zipcode": "83325-055"
    },
    {
        "city": "Pinhais",
        "state": "PR",
        "district": "Maria Antonieta",
        "street": "Rua Odith Mallmann Santos",
        "zipcode": "83331-120"
    },
    {
        "city": "Pinhais",
        "state": "PR",
        "district": "Jardim Karla",
        "street": "Rua Pau",
        "zipcode": "83328-380"
    },
    {
        "city": "Pinhais",
        "state": "PR",
        "district": "Jardim Karla",
        "street": "Rua Pau",
        "zipcode": "83328-390"
    },
    {
        "city": "Pinhais",
        "state": "PR",
        "district": "Maria Antonieta",
        "street": "Rua Pixinguinha",
        "zipcode": "83331-080"
    },
    {
        "city": "Pinhais",
        "state": "PR",
        "district": "Jardim Karla",
        "street": "Rua Palmital",
        "zipcode": "83328-330"
    },
    {
        "city": "Pinhais",
        "state": "PR",
        "district": "Maria Antonieta",
        "street": "Rua Maria Antonieta dos Santos",
        "zipcode": "83331-000"
    },
    {
        "city": "Pinhais",
        "state": "PR",
        "district": "Jardim Karla",
        "street": "Rua das Rosas",
        "zipcode": "83328-340"
    },
    {
        "city": "Pinhais",
        "state": "PR",
        "district": "Jardim Amélia",
        "street": "Rua Sebastião Stancki da Luz Júnior",
        "zipcode": "83330-360"
    },
    {
        "city": "Pinhais",
        "state": "PR",
        "district": "Alphaville Graciosa",
        "street": "Rua dos Ingás",
        "zipcode": "83327-128"
    },
    {
        "city": "Pinhais",
        "state": "PR",
        "district": "Alphaville Graciosa",
        "street": "Rua dos Tangarás",
        "zipcode": "83327-145"
    },
    {
        "city": "Pinhais",
        "state": "PR",
        "district": "Jardim Karla",
        "street": "Rua Renato Luiz Lopes",
        "zipcode": "83328-430"
    },
    {
        "city": "Pinhais",
        "state": "PR",
        "district": "Jardim Karla",
        "street": "Rua Belmiro Pereira Alves",
        "zipcode": "83328-460"
    },
    {
        "city": "Pinhais",
        "state": "PR",
        "district": "Jardim Karla",
        "street": "Rua das Araucárias",
        "zipcode": "83328-090"
    },
    {
        "city": "Pinhais",
        "state": "PR",
        "district": "Jardim Karla",
        "street": "Rua Azaléia",
        "zipcode": "83328-300"
    },
    {
        "city": "Pinhais",
        "state": "PR",
        "district": "Jardim Karla",
        "street": "Rua das Canelas",
        "zipcode": "83328-030"
    },
    {
        "city": "Pinhais",
        "state": "PR",
        "district": "Jardim Karla",
        "street": "Estrada Ecológica de Pinhais",
        "zipcode": "83328-200"
    },
    {
        "city": "Pinhais",
        "state": "PR",
        "district": "Jardim Karla",
        "street": "Rua dos Eucaliptos",
        "zipcode": "83328-070"
    },
    {
        "city": "Pinhais",
        "state": "PR",
        "district": "Jardim Karla",
        "street": "Rua Buriti",
        "zipcode": "83328-060"
    },
    {
        "city": "Pinhais",
        "state": "PR",
        "district": "Jardim Karla",
        "street": "Rua Flor",
        "zipcode": "83328-260"
    },
    {
        "city": "Pinhais",
        "state": "PR",
        "district": "Jardim Karla",
        "street": "Rua Gramona",
        "zipcode": "83328-290"
    },
    {
        "city": "Pinhais",
        "state": "PR",
        "district": "Jardim Karla",
        "street": "Rua Vitória",
        "zipcode": "83328-230"
    },
    {
        "city": "Pinhais",
        "state": "PR",
        "district": "Jardim Karla",
        "street": "Avenida das Flores",
        "zipcode": "83328-310"
    },
    {
        "city": "Pinhais",
        "state": "PR",
        "district": "Jardim Karla",
        "street": "Rua das Hortênsias",
        "zipcode": "83328-280"
    },
    {
        "city": "Pinhais",
        "state": "PR",
        "district": "Jardim Karla",
        "street": "Rua Íris",
        "zipcode": "83328-165"
    },
    {
        "city": "Pinhais",
        "state": "PR",
        "district": "Jardim Karla",
        "street": "Rua Jacarandá",
        "zipcode": "83328-110"
    },
    {
        "city": "Pinhais",
        "state": "PR",
        "district": "Jardim Karla",
        "street": "Rua Ipê",
        "zipcode": "83328-240"
    },
    {
        "city": "Pinhais",
        "state": "PR",
        "district": "Jardim Karla",
        "street": "Rua M",
        "zipcode": "83328-190"
    },
    {
        "city": "Pinhais",
        "state": "PR",
        "district": "Jardim Karla",
        "street": "Rua Marechal Floriano Peixoto",
        "zipcode": "83328-292"
    },
    {
        "city": "Pinhais",
        "state": "PR",
        "district": "Alphaville Graciosa",
        "street": "Rua das Gralhas",
        "zipcode": "83327-154"
    },
    {
        "city": "Pinhais",
        "state": "PR",
        "district": "Alphaville Graciosa",
        "street": "Rua das Oliveiras",
        "zipcode": "83327-220"
    },
    {
        "city": "Pinhais",
        "state": "PR",
        "district": "Parque das Nascentes",
        "street": "Rua Fábio Vicente de Moura",
        "zipcode": "83327-460"
    },
    {
        "city": "Pinhais",
        "state": "PR",
        "district": "Parque das Nascentes",
        "street": "Rua Ivone Pimentel",
        "zipcode": "83327-700"
    },
    {
        "city": "Pinhais",
        "state": "PR",
        "district": "Jardim Karla",
        "street": "Alameda dos Bosques",
        "zipcode": "83328-510"
    },
    {
        "city": "Pinhais",
        "state": "PR",
        "district": "Jardim Karla",
        "street": "Rua Particular",
        "zipcode": "83328-530"
    },
    {
        "city": "Pinhais",
        "state": "PR",
        "district": "Parque das Nascentes",
        "street": "Rua Fábio Vicente de Moura",
        "zipcode": "83329-360"
    },
    {
        "city": "Pinhais",
        "state": "PR",
        "district": "Jardim Amélia",
        "street": "Rua Marechal Floriano Peixoto",
        "zipcode": "83330-000"
    },
    {
        "city": "Pinhais",
        "state": "PR",
        "district": "Jardim Amélia",
        "street": "Rua Costa e Silva",
        "zipcode": "83330-010"
    },
    {
        "city": "Pinhais",
        "state": "PR",
        "district": "Jardim Amélia",
        "street": "Rua Café Filho",
        "zipcode": "83330-030"
    },
    {
        "city": "Pinhais",
        "state": "PR",
        "district": "Jardim Amélia",
        "street": "Rua Nereu Ramos",
        "zipcode": "83330-040"
    },
    {
        "city": "Pinhais",
        "state": "PR",
        "district": "Jardim Amélia",
        "street": "Rua José Linhares",
        "zipcode": "83330-060"
    },
    {
        "city": "Pinhais",
        "state": "PR",
        "district": "Jardim Amélia",
        "street": "Rua Washington Luis",
        "zipcode": "83330-070"
    },
    {
        "city": "Pinhais",
        "state": "PR",
        "district": "Jardim Amélia",
        "street": "Rua Salgado Filho",
        "zipcode": "83330-110"
    },
    {
        "city": "Pinhais",
        "state": "PR",
        "district": "Jardim Amélia",
        "street": "Rua Campos Sales",
        "zipcode": "83330-120"
    },
    {
        "city": "Pinhais",
        "state": "PR",
        "district": "Jardim Amélia",
        "street": "Rua Wenceslau Braz",
        "zipcode": "83330-150"
    },
    {
        "city": "Pinhais",
        "state": "PR",
        "district": "Jardim Amélia",
        "street": "Rua Affonso Penna",
        "zipcode": "83330-160"
    },
    {
        "city": "Pinhais",
        "state": "PR",
        "district": "Jardim Amélia",
        "street": "Rua Rodrigues Alves",
        "zipcode": "83330-124"
    },
    {
        "city": "Pinhais",
        "state": "PR",
        "district": "Jardim Amélia",
        "street": "Rua Delfim Moreira",
        "zipcode": "83330-100"
    },
    {
        "city": "Pinhais",
        "state": "PR",
        "district": "Jardim Amélia",
        "street": "Rua Florindo Lindes",
        "zipcode": "83330-270"
    },
    {
        "city": "Pinhais",
        "state": "PR",
        "district": "Jardim Karla",
        "street": "Rua Nirisco",
        "zipcode": "83328-270"
    },
    {
        "city": "Pinhais",
        "state": "PR",
        "district": "Jardim Karla",
        "street": "Rua Palmeira",
        "zipcode": "83328-175"
    },
    {
        "city": "Pinhais",
        "state": "PR",
        "district": "Jardim Karla",
        "street": "Rua Manacá",
        "zipcode": "83328-140"
    },
    {
        "city": "Pinhais",
        "state": "PR",
        "district": "Jardim Karla",
        "street": "Rua das Flores",
        "zipcode": "83328-210"
    },
    {
        "city": "Pinhais",
        "state": "PR",
        "district": "Jardim Karla",
        "street": "Rua Alecrim",
        "zipcode": "83328-250"
    },
    {
        "city": "Pinhais",
        "state": "PR",
        "district": "Jardim Karla",
        "street": "Rua Flor",
        "zipcode": "83328-220"
    },
    {
        "city": "Pinhais",
        "state": "PR",
        "district": "Jardim Karla",
        "street": "Rua das Magnólias",
        "zipcode": "83328-170"
    },
    {
        "city": "Pinhais",
        "state": "PR",
        "district": "Jardim Karla",
        "street": "Rua Augusto da Silva",
        "zipcode": "83328-440"
    },
    {
        "city": "Pinhais",
        "state": "PR",
        "district": "Jardim Karla",
        "street": "Rua Zacharias Abrahão",
        "zipcode": "83328-450"
    },
    {
        "city": "Pinhais",
        "state": "PR",
        "district": "Jardim Cláudia",
        "street": "Rua Antônio de Felício",
        "zipcode": "83326-542"
    },
    {
        "city": "Pinhais",
        "state": "PR",
        "district": "Alphaville Graciosa",
        "street": "Rua das Cerejeiras",
        "zipcode": "83327-204"
    },
    {
        "city": "Pinhais",
        "state": "PR",
        "district": "Alto Tarumã",
        "street": "Rua Guaíra",
        "zipcode": "83325-370"
    },
    {
        "city": "Pinhais",
        "state": "PR",
        "district": "Jardim Cláudia",
        "street": "Avenida Juriti",
        "zipcode": "83326-500"
    },
    {
        "city": "Pinhais",
        "state": "PR",
        "district": "Jardim Cláudia",
        "street": "Rua Milton Anselmo da Silva",
        "zipcode": "83326-510"
    },
    {
        "city": "Pinhais",
        "state": "PR",
        "district": "Jardim Cláudia",
        "street": "Rua Justiliano Mendes da Silva",
        "zipcode": "83326-530"
    },
    {
        "city": "Pinhais",
        "state": "PR",
        "district": "Jardim Cláudia",
        "street": "Rua Helena Bachmann Muhlmann",
        "zipcode": "83326-540"
    },
    {
        "city": "Pinhais",
        "state": "PR",
        "district": "Alto Tarumã",
        "street": "Rua Aracaju",
        "zipcode": "83325-530"
    },
    {
        "city": "Pinhais",
        "state": "PR",
        "district": "Alphaville Graciosa",
        "street": "Rua Paraguaçu",
        "zipcode": "83327-079"
    },
    {
        "city": "Pinhais",
        "state": "PR",
        "district": "Alphaville Graciosa",
        "street": "Rua Salinas",
        "zipcode": "83327-085"
    },
    {
        "city": "Pinhais",
        "state": "PR",
        "district": "Alphaville Graciosa",
        "street": "Rua Curuá",
        "zipcode": "83327-089"
    },
    {
        "city": "Pinhais",
        "state": "PR",
        "district": "Alphaville Graciosa",
        "street": "Rua Aporé",
        "zipcode": "83327-090"
    },
    {
        "city": "Pinhais",
        "state": "PR",
        "district": "Alphaville Graciosa",
        "street": "Rua Surubim",
        "zipcode": "83327-095"
    },
    {
        "city": "Pinhais",
        "state": "PR",
        "district": "Alphaville Graciosa",
        "street": "Rua Dourado",
        "zipcode": "83327-098"
    },
    {
        "city": "Pinhais",
        "state": "PR",
        "district": "Alphaville Graciosa",
        "street": "Rua Matrinchã",
        "zipcode": "83327-099"
    },
    {
        "city": "Pinhais",
        "state": "PR",
        "district": "Alphaville Graciosa",
        "street": "Rua Tucunaré",
        "zipcode": "83327-106"
    },
    {
        "city": "Pinhais",
        "state": "PR",
        "district": "Alphaville Graciosa",
        "street": "Rua Jaçanãs",
        "zipcode": "83327-107"
    },
    {
        "city": "Pinhais",
        "state": "PR",
        "district": "Alphaville Graciosa",
        "street": "Rua das Imbuias",
        "zipcode": "83327-110"
    },
    {
        "city": "Pinhais",
        "state": "PR",
        "district": "Alphaville Graciosa",
        "street": "Rua das Aroeiras",
        "zipcode": "83327-115"
    },
    {
        "city": "Pinhais",
        "state": "PR",
        "district": "Alphaville Graciosa",
        "street": "Rua dos Plátanos",
        "zipcode": "83327-116"
    },
    {
        "city": "Pinhais",
        "state": "PR",
        "district": "Alphaville Graciosa",
        "street": "Rua dos Cedros",
        "zipcode": "83327-117"
    },
    {
        "city": "Pinhais",
        "state": "PR",
        "district": "Alphaville Graciosa",
        "street": "Rua das Bétulas",
        "zipcode": "83327-126"
    },
    {
        "city": "Pinhais",
        "state": "PR",
        "district": "Alphaville Graciosa",
        "street": "Rua Tefé",
        "zipcode": "83327-080"
    },
    {
        "city": "Pinhais",
        "state": "PR",
        "district": "Alphaville Graciosa",
        "street": "Rua Ipê Roxo",
        "zipcode": "83327-210"
    },
    {
        "city": "Pinhais",
        "state": "PR",
        "district": "Alphaville Graciosa",
        "street": "Rua das Macieiras",
        "zipcode": "83327-200"
    },
    {
        "city": "Pinhais",
        "state": "PR",
        "district": "Alphaville Graciosa",
        "street": "Rua Mamoré",
        "zipcode": "83327-086"
    },
    {
        "city": "Pinhais",
        "state": "PR",
        "district": "Alphaville Graciosa",
        "street": "Rua das Carpas",
        "zipcode": "83327-100"
    },
    {
        "city": "Pinhais",
        "state": "PR",
        "district": "Alphaville Graciosa",
        "street": "Rua Jaú",
        "zipcode": "83327-108"
    },
    {
        "city": "Pinhais",
        "state": "PR",
        "district": "Alphaville Graciosa",
        "street": "Rua das Paineiras",
        "zipcode": "83327-120"
    },
    {
        "city": "Pinhais",
        "state": "PR",
        "district": "Alphaville Graciosa",
        "street": "Rua dos Jaborandis",
        "zipcode": "83327-125"
    },
    {
        "city": "Pinhais",
        "state": "PR",
        "district": "Alphaville Graciosa",
        "street": "Rua dos Monjoleiros",
        "zipcode": "83327-127"
    },
    {
        "city": "Pinhais",
        "state": "PR",
        "district": "Alphaville Graciosa",
        "street": "Rua dos Butiás",
        "zipcode": "83327-136"
    },
    {
        "city": "Pinhais",
        "state": "PR",
        "district": "Alphaville Graciosa",
        "street": "Rua dos Pintassilgos",
        "zipcode": "83327-140"
    },
    {
        "city": "Pinhais",
        "state": "PR",
        "district": "Alphaville Graciosa",
        "street": "Rua dos Flamingos",
        "zipcode": "83327-146"
    },
    {
        "city": "Pinhais",
        "state": "PR",
        "district": "Alphaville Graciosa",
        "street": "Rua dos Araçaris",
        "zipcode": "83327-148"
    },
    {
        "city": "Pinhais",
        "state": "PR",
        "district": "Alphaville Graciosa",
        "street": "Rua dos Beija",
        "zipcode": "83327-157"
    },
    {
        "city": "Pinhais",
        "state": "PR",
        "district": "Alphaville Graciosa",
        "street": "Rua Curiangos",
        "zipcode": "83327-158"
    },
    {
        "city": "Pinhais",
        "state": "PR",
        "district": "Alphaville Graciosa",
        "street": "Rua Aruanã",
        "zipcode": "83327-097"
    },
    {
        "city": "Pinhais",
        "state": "PR",
        "district": "Alphaville Graciosa",
        "street": "Rua Pirapitinga",
        "zipcode": "83327-105"
    },
    {
        "city": "Pinhais",
        "state": "PR",
        "district": "Jardim Cláudia",
        "street": "Rua Pixoxó",
        "zipcode": "83326-512"
    },
    {
        "city": "Pinhais",
        "state": "PR",
        "district": "Jardim Cláudia",
        "street": "Rua Mônica Brososki Mareziuzek",
        "zipcode": "83326-538"
    },
    {
        "city": "Pinhais",
        "state": "PR",
        "district": "Atuba",
        "street": "Rua Maria Borssuk",
        "zipcode": "83326-707"
    },
    {
        "city": "Pinhais",
        "state": "PR",
        "district": "Alphaville Graciosa",
        "street": "Rua Iapó",
        "zipcode": "83327-075"
    },
    {
        "city": "Pinhais",
        "state": "PR",
        "district": "Alphaville Graciosa",
        "street": "Rua Araguaia",
        "zipcode": "83327-078"
    },
    {
        "city": "Pinhais",
        "state": "PR",
        "district": "Alphaville Graciosa",
        "street": "Rua Taquari",
        "zipcode": "83327-070"
    },
    {
        "city": "Pinhais",
        "state": "PR",
        "district": "Jardim Cláudia",
        "street": "Rua Adolpho Muhlmann",
        "zipcode": "83326-550"
    },
    {
        "city": "Pinhais",
        "state": "PR",
        "district": "Parque das Nascentes",
        "street": "Rua Manoel Pereira da Silva",
        "zipcode": "83327-020"
    },
    {
        "city": "Pinhais",
        "state": "PR",
        "district": "Alphaville Graciosa",
        "street": "Rua Jaguariaíva",
        "zipcode": "83327-076"
    },
    {
        "city": "Pinhais",
        "state": "PR",
        "district": "Alphaville Graciosa",
        "street": "Rua Antídio Batista de Souza",
        "zipcode": "83327-067"
    },
    {
        "city": "Pinhais",
        "state": "PR",
        "district": "Alphaville Graciosa",
        "street": "Rua dos Colibris",
        "zipcode": "83327-150"
    },
    {
        "city": "Pinhais",
        "state": "PR",
        "district": "Alphaville Graciosa",
        "street": "Rua Siriema",
        "zipcode": "83327-159"
    },
    {
        "city": "Pinhais",
        "state": "PR",
        "district": "Alphaville Graciosa",
        "street": "Avenida Tomaz Edison de Andrade Vieira",
        "zipcode": "83327-160"
    },
    {
        "city": "Pinhais",
        "state": "PR",
        "district": "Alphaville Graciosa",
        "street": "Rua dos Acauãs",
        "zipcode": "83327-156"
    },
    {
        "city": "Pinhais",
        "state": "PR",
        "district": "Alphaville Graciosa",
        "street": "Rua das Gaivotas",
        "zipcode": "83327-155"
    },
    {
        "city": "Pinhais",
        "state": "PR",
        "district": "Jardim Cláudia",
        "street": "Rua Andorinha",
        "zipcode": "83326-460"
    },
    {
        "city": "Pinhais",
        "state": "PR",
        "district": "Jardim Cláudia",
        "street": "Rua Azulão",
        "zipcode": "83326-330"
    },
    {
        "city": "Pinhais",
        "state": "PR",
        "district": "Atuba",
        "street": "Rua Alexandre Alves de Farias",
        "zipcode": "83326-215"
    },
    {
        "city": "Pinhais",
        "state": "PR",
        "district": "Atuba",
        "street": "Travessa Antônio Gonçalves dos Santos",
        "zipcode": "83326-300"
    },
    {
        "city": "Pinhais",
        "state": "PR",
        "district": "Atuba",
        "street": "Rua Baptista Ramos",
        "zipcode": "83326-230"
    },
    {
        "city": "Pinhais",
        "state": "PR",
        "district": "Jardim Cláudia",
        "street": "Rua Corrupião",
        "zipcode": "83326-380"
    },
    {
        "city": "Pinhais",
        "state": "PR",
        "district": "Jardim Cláudia",
        "street": "Avenida Cotinga",
        "zipcode": "83326-350"
    },
    {
        "city": "Pinhais",
        "state": "PR",
        "district": "Jardim Cláudia",
        "street": "Rua Cotovia",
        "zipcode": "83326-320"
    },
    {
        "city": "Pinhais",
        "state": "PR",
        "district": "Jardim Cláudia",
        "street": "Rua Graúna",
        "zipcode": "83326-390"
    },
    {
        "city": "Pinhais",
        "state": "PR",
        "district": "Atuba",
        "street": "Rua Hélio Barroso",
        "zipcode": "83326-240"
    },
    {
        "city": "Pinhais",
        "state": "PR",
        "district": "Atuba",
        "street": "Rua Doutor Waldemar da Costa Lima",
        "zipcode": "83326-220"
    },
    {
        "city": "Pinhais",
        "state": "PR",
        "district": "Centro",
        "street": "Rua Gaspar Zeni",
        "zipcode": "83324-130"
    },
    {
        "city": "Pinhais",
        "state": "PR",
        "district": "Atuba",
        "street": "Travessa Cláudio Mehl",
        "zipcode": "83326-255"
    },
    {
        "city": "Pinhais",
        "state": "PR",
        "district": "Atuba",
        "street": "Rua Jacob Mehl (Armelino de Oliveira)",
        "zipcode": "83326-250"
    },
    {
        "city": "Pinhais",
        "state": "PR",
        "district": "Jardim Cláudia",
        "street": "Rua Japim",
        "zipcode": "83326-420"
    },
    {
        "city": "Pinhais",
        "state": "PR",
        "district": "Atuba",
        "street": "Rua José Carlotto",
        "zipcode": "83326-270"
    },
    {
        "city": "Pinhais",
        "state": "PR",
        "district": "Atuba",
        "street": "Rua José Waltemyr Costa Lima",
        "zipcode": "83326-260"
    },
    {
        "city": "Pinhais",
        "state": "PR",
        "district": "Jardim Cláudia",
        "street": "Rua João",
        "zipcode": "83326-470"
    },
    {
        "city": "Pinhais",
        "state": "PR",
        "district": "Atuba",
        "street": "Rua Maria Melk Cordeiro",
        "zipcode": "83326-190"
    },
    {
        "city": "Pinhais",
        "state": "PR",
        "district": "Atuba",
        "street": "Rua Eutália Maria dos Santos",
        "zipcode": "83326-280"
    },
    {
        "city": "Pinhais",
        "state": "PR",
        "district": "Jardim Cláudia",
        "street": "Rua Pardal",
        "zipcode": "83326-410"
    },
    {
        "city": "Pinhais",
        "state": "PR",
        "district": "Jardim Cláudia",
        "street": "Avenida dos Pássaros",
        "zipcode": "83326-310"
    },
    {
        "city": "Pinhais",
        "state": "PR",
        "district": "Atuba",
        "street": "Rua Reynaldo Crozetta",
        "zipcode": "83326-180"
    },
    {
        "city": "Pinhais",
        "state": "PR",
        "district": "Atuba",
        "street": "Rua Porto Rico",
        "zipcode": "83326-175"
    },
    {
        "city": "Pinhais",
        "state": "PR",
        "district": "Jardim Cláudia",
        "street": "Rua Sanhaço",
        "zipcode": "83326-440"
    },
    {
        "city": "Pinhais",
        "state": "PR",
        "district": "Jardim Cláudia",
        "street": "Rua Tesourinha",
        "zipcode": "83326-490"
    },
    {
        "city": "Pinhais",
        "state": "PR",
        "district": "Atuba",
        "street": "Rua Rio Azul",
        "zipcode": "83326-185"
    },
    {
        "city": "Pinhais",
        "state": "PR",
        "district": "Jardim Cláudia",
        "street": "Rua Rouxinol",
        "zipcode": "83326-340"
    },
    {
        "city": "Pinhais",
        "state": "PR",
        "district": "Jardim Cláudia",
        "street": "Avenida Uirapuru",
        "zipcode": "83326-430"
    },
    {
        "city": "Pinhais",
        "state": "PR",
        "district": "Atuba",
        "street": "Rua Tibúrcio G. de Oliveira",
        "zipcode": "83326-195"
    },
    {
        "city": "Pinhais",
        "state": "PR",
        "district": "Jardim Cláudia",
        "street": "Rua Tico",
        "zipcode": "83326-450"
    },
    {
        "city": "Pinhais",
        "state": "PR",
        "district": "Jardim Cláudia",
        "street": "Rua Tiriva",
        "zipcode": "83326-360"
    },
    {
        "city": "Pinhais",
        "state": "PR",
        "district": "Atuba",
        "street": "Rua Isaac Victor Pereira",
        "zipcode": "83326-200"
    },
    {
        "city": "Pinhais",
        "state": "PR",
        "district": "Jardim Cláudia",
        "street": "Rua Calhandra",
        "zipcode": "83326-370"
    },
    {
        "city": "Pinhais",
        "state": "PR",
        "district": "Jardim Cláudia",
        "street": "Rua Tanagra",
        "zipcode": "83326-400"
    },
    {
        "city": "Pinhais",
        "state": "PR",
        "district": "Jardim Cláudia",
        "street": "Rua José Ambrósio de Araújo",
        "zipcode": "83326-580"
    },
    {
        "city": "Pinhais",
        "state": "PR",
        "district": "Jardim Cláudia",
        "street": "Rua João Sprada",
        "zipcode": "83326-590"
    },
    {
        "city": "Pinhais",
        "state": "PR",
        "district": "Estância Pinhais",
        "street": "Rua Helvino Muhlmann",
        "zipcode": "83326-610"
    },
    {
        "city": "Pinhais",
        "state": "PR",
        "district": "Jardim Cláudia",
        "street": "Rua Clemente Itsyo Horikoshi",
        "zipcode": "83326-650"
    },
    {
        "city": "Pinhais",
        "state": "PR",
        "district": "Alto Tarumã",
        "street": "Rua Lino Jacomel",
        "zipcode": "83326-660"
    },
    {
        "city": "Pinhais",
        "state": "PR",
        "district": "Atuba",
        "street": "Rua José Leite de Souza",
        "zipcode": "83326-706"
    },
    {
        "city": "Pinhais",
        "state": "PR",
        "district": "Atuba",
        "street": "Rua Lourdes Rodrigues",
        "zipcode": "83326-710"
    },
    {
        "city": "Pinhais",
        "state": "PR",
        "district": "Atuba",
        "street": "Rua Joaquim Borges",
        "zipcode": "83326-714"
    },
    {
        "city": "Pinhais",
        "state": "PR",
        "district": "Alphaville Graciosa",
        "street": "Rua João Cezario da Silva",
        "zipcode": "83327-066"
    },
    {
        "city": "Pinhais",
        "state": "PR",
        "district": "Alphaville Graciosa",
        "street": "Rua Itararé",
        "zipcode": "83327-077"
    },
    {
        "city": "Pinhais",
        "state": "PR",
        "district": "Atuba",
        "street": "Rua Crescêncio Batista",
        "zipcode": "83326-630"
    },
    {
        "city": "Pinhais",
        "state": "PR",
        "district": "Jardim Cláudia",
        "street": "Rua Norberto Ribeiro da Motta",
        "zipcode": "83326-544"
    },
    {
        "city": "Pinhais",
        "state": "PR",
        "district": "Atuba",
        "street": "Rua Artur Nehring",
        "zipcode": "83326-680"
    },
    {
        "city": "Pinhais",
        "state": "PR",
        "district": "Atuba",
        "street": "Rua Eloy Hermann Bach",
        "zipcode": "83326-700"
    },
    {
        "city": "Pinhais",
        "state": "PR",
        "district": "Atuba",
        "street": "Rua Max Oleksissiyn",
        "zipcode": "83326-716"
    },
    {
        "city": "Pinhais",
        "state": "PR",
        "district": "Atuba",
        "street": "Rua José Rocha",
        "zipcode": "83326-718"
    },
    {
        "city": "Pinhais",
        "state": "PR",
        "district": "Alto Tarumã",
        "street": "Rua Aparecida Barbarini",
        "zipcode": "83325-564"
    },
    {
        "city": "Pinhais",
        "state": "PR",
        "district": "Alto Tarumã",
        "street": "Rua Joaquim Cordeiro de Oliveira",
        "zipcode": "83325-562"
    },
    {
        "city": "Pinhais",
        "state": "PR",
        "district": "Alto Tarumã",
        "street": "Rua Danilo Pitol",
        "zipcode": "83325-545"
    },
    {
        "city": "Pinhais",
        "state": "PR",
        "district": "Alto Tarumã",
        "street": "Rua Floral",
        "zipcode": "83325-380"
    },
    {
        "city": "Pinhais",
        "state": "PR",
        "district": "Emiliano Perneta",
        "street": "Avenida Jacob Macanhan",
        "zipcode": "83325-390"
    },
    {
        "city": "Pinhais",
        "state": "PR",
        "district": "Emiliano Perneta",
        "street": "Avenida Maringá",
        "zipcode": "83325-360"
    },
    {
        "city": "Pinhais",
        "state": "PR",
        "district": "Alto Tarumã",
        "street": "Rua Tenente Wandick Pottier Becker",
        "zipcode": "83325-420"
    },
    {
        "city": "Pinhais",
        "state": "PR",
        "district": "Atuba",
        "street": "Rua Aristides de Oliveira",
        "zipcode": "83326-160"
    },
    {
        "city": "Pinhais",
        "state": "PR",
        "district": "Atuba",
        "street": "Rua Nova Esperança",
        "zipcode": "83326-155"
    },
    {
        "city": "Pinhais",
        "state": "PR",
        "district": "Alto Tarumã",
        "street": "Rua Boa Vista",
        "zipcode": "83325-450"
    },
    {
        "city": "Pinhais",
        "state": "PR",
        "district": "Alto Tarumã",
        "street": "Rua Tanagra",
        "zipcode": "83325-490"
    },
    {
        "city": "Pinhais",
        "state": "PR",
        "district": "Alto Tarumã",
        "street": "Rua Recife",
        "zipcode": "83325-510"
    },
    {
        "city": "Pinhais",
        "state": "PR",
        "district": "Alto Tarumã",
        "street": "Rua Belém",
        "zipcode": "83325-520"
    },
    {
        "city": "Pinhais",
        "state": "PR",
        "district": "Alto Tarumã",
        "street": "Rua Agnella Oleniki dos Santos",
        "zipcode": "83325-570"
    },
    {
        "city": "Pinhais",
        "state": "PR",
        "district": "Alto Tarumã",
        "street": "Rua Divino Sala",
        "zipcode": "83325-575"
    },
    {
        "city": "Pinhais",
        "state": "PR",
        "district": "Alto Tarumã",
        "street": "Rua Selvino Gomes Nogueira",
        "zipcode": "83325-578"
    },
    {
        "city": "Pinhais",
        "state": "PR",
        "district": "Pineville",
        "street": "Rua Adolfo Sora",
        "zipcode": "83325-580"
    },
    {
        "city": "Pinhais",
        "state": "PR",
        "district": "Alto Tarumã",
        "street": "Rua Fortaleza",
        "zipcode": "83325-480"
    },
    {
        "city": "Pinhais",
        "state": "PR",
        "district": "Alto Tarumã",
        "street": "Rua Calhandra",
        "zipcode": "83325-500"
    },
    {
        "city": "Pinhais",
        "state": "PR",
        "district": "Alto Tarumã",
        "street": "Rua Cuiabá",
        "zipcode": "83325-560"
    },
    {
        "city": "Pinhais",
        "state": "PR",
        "district": "Alto Tarumã",
        "street": "Rua Michel Romaniow",
        "zipcode": "83325-576"
    },
    {
        "city": "Pinhais",
        "state": "PR",
        "district": "Alto Tarumã",
        "street": "Rua Ruth Ferreira Amend",
        "zipcode": "83325-577"
    },
    {
        "city": "Pinhais",
        "state": "PR",
        "district": "Emiliano Perneta",
        "street": "Rua Marilândia",
        "zipcode": "83325-430"
    },
    {
        "city": "Pinhais",
        "state": "PR",
        "district": "Alto Tarumã",
        "street": "Avenida Porto Velho",
        "zipcode": "83325-460"
    },
    {
        "city": "Pinhais",
        "state": "PR",
        "district": "Alto Tarumã",
        "street": "Rua Macapá",
        "zipcode": "83325-540"
    },
    {
        "city": "Pinhais",
        "state": "PR",
        "district": "Alto Tarumã",
        "street": "Rua Jeanete Peixoto Vott",
        "zipcode": "83325-574"
    },
    {
        "city": "Pinhais",
        "state": "PR",
        "district": "Alto Tarumã",
        "street": "Rua Enedina Irael da Rosa",
        "zipcode": "83325-579"
    },
    {
        "city": "Pinhais",
        "state": "PR",
        "district": "Alto Tarumã",
        "street": "Rua Belo Horizonte",
        "zipcode": "83325-440"
    },
    {
        "city": "Pinhais",
        "state": "PR",
        "district": "Alto Tarumã",
        "street": "Rua Jacarezinho",
        "zipcode": "83325-342"
    },
    {
        "city": "Pinhais",
        "state": "PR",
        "district": "Alto Tarumã",
        "street": "Rua Cambará",
        "zipcode": "83325-350"
    },
    {
        "city": "Pinhais",
        "state": "PR",
        "district": "Alto Tarumã",
        "street": "Rua Elizabete Alves Martins",
        "zipcode": "83325-382"
    },
    {
        "city": "Pinhais",
        "state": "PR",
        "district": "Alto Tarumã",
        "street": "Rua Félix Ribeiro",
        "zipcode": "83325-606"
    },
    {
        "city": "Pinhais",
        "state": "PR",
        "district": "Alto Tarumã",
        "street": "Rua Henrique José Pojda",
        "zipcode": "83325-607"
    },
    {
        "city": "Pinhais",
        "state": "PR",
        "district": "Alto Tarumã",
        "street": "Rua Miguel Ostrufka",
        "zipcode": "83325-615"
    },
    {
        "city": "Pinhais",
        "state": "PR",
        "district": "Alto Tarumã",
        "street": "Rua Morlei Manoel da Rosa",
        "zipcode": "83325-616"
    },
    {
        "city": "Pinhais",
        "state": "PR",
        "district": "Emiliano Perneta",
        "street": "Rua Domingos Maceno",
        "zipcode": "83325-630"
    },
    {
        "city": "Pinhais",
        "state": "PR",
        "district": "Atuba",
        "street": "Avenida Maringá",
        "zipcode": "83326-010"
    },
    {
        "city": "Pinhais",
        "state": "PR",
        "district": "Atuba",
        "street": "Rua Álvaro Muhlenhoff",
        "zipcode": "83326-030"
    },
    {
        "city": "Pinhais",
        "state": "PR",
        "district": "Atuba",
        "street": "Rua José Kuss",
        "zipcode": "83326-050"
    },
    {
        "city": "Pinhais",
        "state": "PR",
        "district": "Atuba",
        "street": "Rua Natal Fabri",
        "zipcode": "83326-055"
    },
    {
        "city": "Pinhais",
        "state": "PR",
        "district": "Atuba",
        "street": "Rua Custódio Ribas",
        "zipcode": "83326-060"
    },
    {
        "city": "Pinhais",
        "state": "PR",
        "district": "Pineville",
        "street": "Avenida Jacob Macanhan",
        "zipcode": "83325-582"
    },
    {
        "city": "Pinhais",
        "state": "PR",
        "district": "Pineville",
        "street": "Avenida Pineville",
        "zipcode": "83325-585"
    },
    {
        "city": "Pinhais",
        "state": "PR",
        "district": "Pineville",
        "street": "Rua Marta Rodrigues",
        "zipcode": "83325-590"
    },
    {
        "city": "Pinhais",
        "state": "PR",
        "district": "Atuba",
        "street": "Rua Alfredo Saliba Smaka",
        "zipcode": "83326-125"
    },
    {
        "city": "Pinhais",
        "state": "PR",
        "district": "Atuba",
        "street": "Rua João Cláudio Mehl",
        "zipcode": "83326-132"
    },
    {
        "city": "Pinhais",
        "state": "PR",
        "district": "Atuba",
        "street": "Rua Francisco Eugênio Gomes Pereira",
        "zipcode": "83326-150"
    },
    {
        "city": "Pinhais",
        "state": "PR",
        "district": "Alto Tarumã",
        "street": "Rua Daniel Schulz",
        "zipcode": "83325-604"
    },
    {
        "city": "Pinhais",
        "state": "PR",
        "district": "Atuba",
        "street": "Rua Eurípedes Morais e Silva",
        "zipcode": "83326-130"
    },
    {
        "city": "Pinhais",
        "state": "PR",
        "district": "Atuba",
        "street": "Rua Paranavaí",
        "zipcode": "83326-145"
    },
    {
        "city": "Pinhais",
        "state": "PR",
        "district": "Atuba",
        "street": "Rua Alcides Jazar",
        "zipcode": "83326-070"
    },
    {
        "city": "Pinhais",
        "state": "PR",
        "district": "Atuba",
        "street": "Rua Ermínio Azevedo Costa",
        "zipcode": "83326-080"
    },
    {
        "city": "Pinhais",
        "state": "PR",
        "district": "Atuba",
        "street": "Rua Reinaldo Ribas",
        "zipcode": "83326-110"
    },
    {
        "city": "Pinhais",
        "state": "PR",
        "district": "Atuba",
        "street": "Rua Alzira de Araújo Souza",
        "zipcode": "83326-140"
    },
    {
        "city": "Pinhais",
        "state": "PR",
        "district": "Atuba",
        "street": "Rua Arnildo Fabro",
        "zipcode": "83326-120"
    },
    {
        "city": "Pinhais",
        "state": "PR",
        "district": "Alto Tarumã",
        "street": "Rua Pedro Fernandes dos Santos",
        "zipcode": "83325-542"
    },
    {
        "city": "Pinhais",
        "state": "PR",
        "district": "Emiliano Perneta",
        "street": "Rua Paula Freitas",
        "zipcode": "83325-180"
    },
    {
        "city": "Pinhais",
        "state": "PR",
        "district": "Emiliano Perneta",
        "street": "Rua Castro",
        "zipcode": "83325-210"
    },
    {
        "city": "Pinhais",
        "state": "PR",
        "district": "Emiliano Perneta",
        "street": "Rua Pérola",
        "zipcode": "83325-200"
    },
    {
        "city": "Pinhais",
        "state": "PR",
        "district": "Emiliano Perneta",
        "street": "Rua Abatiá",
        "zipcode": "83325-190"
    },
    {
        "city": "Pinhais",
        "state": "PR",
        "district": "Alto Tarumã",
        "street": "Rua Arapongas",
        "zipcode": "83325-320"
    },
    {
        "city": "Pinhais",
        "state": "PR",
        "district": "Alto Tarumã",
        "street": "Rua Cambé",
        "zipcode": "83325-280"
    },
    {
        "city": "Pinhais",
        "state": "PR",
        "district": "Alto Tarumã",
        "street": "Rua Céu Azul",
        "zipcode": "83325-230"
    },
    {
        "city": "Pinhais",
        "state": "PR",
        "district": "Alto Tarumã",
        "street": "Rua Corbélia",
        "zipcode": "83325-260"
    },
    {
        "city": "Pinhais",
        "state": "PR",
        "district": "Alto Tarumã",
        "street": "Rua Ernesto Pacheco Bello",
        "zipcode": "83325-300"
    },
    {
        "city": "Pinhais",
        "state": "PR",
        "district": "Alto Tarumã",
        "street": "Rua Eugênia Ribas",
        "zipcode": "83325-290"
    },
    {
        "city": "Pinhais",
        "state": "PR",
        "district": "Emiliano Perneta",
        "street": "Rua Formosa",
        "zipcode": "83325-070"
    },
    {
        "city": "Pinhais",
        "state": "PR",
        "district": "Emiliano Perneta",
        "street": "Rua Ibaiti",
        "zipcode": "83325-060"
    },
    {
        "city": "Pinhais",
        "state": "PR",
        "district": "Emiliano Perneta",
        "street": "Rua Izaira Monteiro",
        "zipcode": "83324-540"
    },
    {
        "city": "Pinhais",
        "state": "PR",
        "district": "Alto Tarumã",
        "street": "Rua Loanda",
        "zipcode": "83325-020"
    },
    {
        "city": "Pinhais",
        "state": "PR",
        "district": "Alto Tarumã",
        "street": "Rua Medianeira",
        "zipcode": "83325-220"
    },
    {
        "city": "Pinhais",
        "state": "PR",
        "district": "Alto Tarumã",
        "street": "Rua Ortigueira",
        "zipcode": "83325-340"
    },
    {
        "city": "Pinhais",
        "state": "PR",
        "district": "Emiliano Perneta",
        "street": "Rua Londrina",
        "zipcode": "83325-160"
    },
    {
        "city": "Pinhais",
        "state": "PR",
        "district": "Alto Tarumã",
        "street": "Rua Pato Branco",
        "zipcode": "83325-270"
    },
    {
        "city": "Pinhais",
        "state": "PR",
        "district": "Emiliano Perneta",
        "street": "Rua Píen",
        "zipcode": "83325-120"
    },
    {
        "city": "Pinhais",
        "state": "PR",
        "district": "Emiliano Perneta",
        "street": "Rua Paranavaí",
        "zipcode": "83325-035"
    },
    {
        "city": "Pinhais",
        "state": "PR",
        "district": "Emiliano Perneta",
        "street": "Rua Rondon",
        "zipcode": "83325-100"
    },
    {
        "city": "Pinhais",
        "state": "PR",
        "district": "Emiliano Perneta",
        "street": "Rua Santa Alves Petra",
        "zipcode": "83325-170"
    },
    {
        "city": "Pinhais",
        "state": "PR",
        "district": "Emiliano Perneta",
        "street": "Rua São Tomé",
        "zipcode": "83325-130"
    },
    {
        "city": "Pinhais",
        "state": "PR",
        "district": "Emiliano Perneta",
        "street": "Rua Terra Roxa",
        "zipcode": "83325-050"
    },
    {
        "city": "Pinhais",
        "state": "PR",
        "district": "Emiliano Perneta",
        "street": "Rua Umuarama",
        "zipcode": "83325-000"
    },
    {
        "city": "Pinhais",
        "state": "PR",
        "district": "Alto Tarumã",
        "street": "Rua Toledo",
        "zipcode": "83325-250"
    },
    {
        "city": "Pinhais",
        "state": "PR",
        "district": "Emiliano Perneta",
        "street": "Rua Tomazina",
        "zipcode": "83325-040"
    },
    {
        "city": "Pinhais",
        "state": "PR",
        "district": "Emiliano Perneta",
        "street": "Rua Mandaguari",
        "zipcode": "83325-015"
    },
    {
        "city": "Pinhais",
        "state": "PR",
        "district": "Emiliano Perneta",
        "street": "Rua Palmas",
        "zipcode": "83325-140"
    },
    {
        "city": "Pinhais",
        "state": "PR",
        "district": "Emiliano Perneta",
        "street": "Rua Alto Paraná",
        "zipcode": "83325-045"
    },
    {
        "city": "Pinhais",
        "state": "PR",
        "district": "Emiliano Perneta",
        "street": "Rua Caratuval",
        "zipcode": "83325-030"
    },
    {
        "city": "Pinhais",
        "state": "PR",
        "district": "Emiliano Perneta",
        "street": "Rua Rio Azul",
        "zipcode": "83325-110"
    },
    {
        "city": "Pinhais",
        "state": "PR",
        "district": "Emiliano Perneta",
        "street": "Rua das Esmeraldas",
        "zipcode": "83325-205"
    },
    {
        "city": "Pinhais",
        "state": "PR",
        "district": "Emiliano Perneta",
        "street": "Rua Porecatu",
        "zipcode": "83325-150"
    },
    {
        "city": "Pinhais",
        "state": "PR",
        "district": "Emiliano Perneta",
        "street": "Rua Anésia Correia Evangelista",
        "zipcode": "83325-185"
    },
    {
        "city": "Pinhais",
        "state": "PR",
        "district": "Emiliano Perneta",
        "street": "Rua Porto Belo",
        "zipcode": "83325-194"
    },
    {
        "city": "Pinhais",
        "state": "PR",
        "district": "Alto Tarumã",
        "street": "Avenida Jacob Macanhan",
        "zipcode": "83325-282"
    },
    {
        "city": "Pinhais",
        "state": "PR",
        "district": "Emiliano Perneta",
        "street": "Rua Porto Rico",
        "zipcode": "83325-196"
    },
    {
        "city": "Pinhais",
        "state": "PR",
        "district": "Emiliano Perneta",
        "street": "Avenida Maringá",
        "zipcode": "83324-432"
    },
    {
        "city": "Pinhais",
        "state": "PR",
        "district": "Emiliano Perneta",
        "street": "Avenida Maringá",
        "zipcode": "83324-442"
    },
    {
        "city": "Pinhais",
        "state": "PR",
        "district": "Emiliano Perneta",
        "street": "Avenida Maringá",
        "zipcode": "83325-212"
    },
    {
        "city": "Pinhais",
        "state": "PR",
        "district": "Pineville",
        "street": "Rua Rolândia",
        "zipcode": "83325-310"
    },
    {
        "city": "Pinhais",
        "state": "PR",
        "district": "Alto Tarumã",
        "street": "Rua Rolândia",
        "zipcode": "83325-323"
    },
    {
        "city": "Pinhais",
        "state": "PR",
        "district": "Centro",
        "street": "Rua Terra Rica",
        "zipcode": "83324-090"
    },
    {
        "city": "Pinhais",
        "state": "PR",
        "district": "Centro",
        "street": "Rua Uniflor",
        "zipcode": "83324-070"
    },
    {
        "city": "Pinhais",
        "state": "PR",
        "district": "Pineville",
        "street": "Rua Jacarezinho",
        "zipcode": "83325-330"
    },
    {
        "city": "Pinhais",
        "state": "PR",
        "district": "Centro",
        "street": "Rua Santo Inácio",
        "zipcode": "83324-080"
    },
    {
        "city": "Pinhais",
        "state": "PR",
        "district": "Atuba",
        "street": "Rua Palotina",
        "zipcode": "83325-195"
    },
    {
        "city": "Pinhais",
        "state": "PR",
        "district": "Emiliano Perneta",
        "street": "Rua Inajá",
        "zipcode": "83324-225"
    },
    {
        "city": "Pinhais",
        "state": "PR",
        "district": "Emiliano Perneta",
        "street": "Rua Uniflor",
        "zipcode": "83324-227"
    },
    {
        "city": "Pinhais",
        "state": "PR",
        "district": "Alto Tarumã",
        "street": "Rua Waldemar Cador",
        "zipcode": "83325-610"
    },
    {
        "city": "Pinhais",
        "state": "PR",
        "district": "Alto Tarumã",
        "street": "Rua Rodrigo Silvério Ieger",
        "zipcode": "83325-617"
    },
    {
        "city": "Pinhais",
        "state": "PR",
        "district": "Alto Tarumã",
        "street": "Rua Rogério Gomes",
        "zipcode": "83325-626"
    },
    {
        "city": "Pinhais",
        "state": "PR",
        "district": "Atuba",
        "street": "Rua Valdir Oneda",
        "zipcode": "83326-045"
    },
    {
        "city": "Pinhais",
        "state": "PR",
        "district": "Emiliano Perneta",
        "street": "Rua Alcides José Silveira",
        "zipcode": "83324-530"
    },
    {
        "city": "Pinhais",
        "state": "PR",
        "district": "Emiliano Perneta",
        "street": "Rua Apucarana",
        "zipcode": "83324-450"
    },
    {
        "city": "Pinhais",
        "state": "PR",
        "district": "Centro",
        "street": "Rua Carlos Bernardo Michel",
        "zipcode": "83324-100"
    },
    {
        "city": "Pinhais",
        "state": "PR",
        "district": "Centro",
        "street": "Rua Cianorte",
        "zipcode": "83324-020"
    },
    {
        "city": "Pinhais",
        "state": "PR",
        "district": "Emiliano Perneta",
        "street": "Rua Foz do Iguaçu",
        "zipcode": "83324-500"
    },
    {
        "city": "Pinhais",
        "state": "PR",
        "district": "Centro",
        "street": "Rua Francisco Alves Cordeiro",
        "zipcode": "83324-110"
    },
    {
        "city": "Pinhais",
        "state": "PR",
        "district": "Centro",
        "street": "Avenida Jacob Macanhan",
        "zipcode": "83324-510"
    },
    {
        "city": "Pinhais",
        "state": "PR",
        "district": "Emiliano Perneta",
        "street": "Rua Jandaia do Sul",
        "zipcode": "83324-440"
    },
    {
        "city": "Pinhais",
        "state": "PR",
        "district": "Emiliano Perneta",
        "street": "Rua Ibiporã",
        "zipcode": "83324-460"
    },
    {
        "city": "Pinhais",
        "state": "PR",
        "district": "Emiliano Perneta",
        "street": "Rua Mandaguaçu",
        "zipcode": "83324-430"
    },
    {
        "city": "Pinhais",
        "state": "PR",
        "district": "Centro",
        "street": "Rua Manoel Pereira",
        "zipcode": "83324-120"
    },
    {
        "city": "Pinhais",
        "state": "PR",
        "district": "Centro",
        "street": "Rua Pastor Eurípedes Souza de Oliveira",
        "zipcode": "83324-140"
    },
    {
        "city": "Pinhais",
        "state": "PR",
        "district": "Emiliano Perneta",
        "street": "Rua Peabiru",
        "zipcode": "83324-480"
    },
    {
        "city": "Pinhais",
        "state": "PR",
        "district": "Emiliano Perneta",
        "street": "Rua Pitanga",
        "zipcode": "83324-470"
    },
    {
        "city": "Pinhais",
        "state": "PR",
        "district": "Emiliano Perneta",
        "street": "Rua Uraí",
        "zipcode": "83324-490"
    },
    {
        "city": "Pinhais",
        "state": "PR",
        "district": "Centro",
        "street": "Rua São Salvador",
        "zipcode": "83320-200"
    },
    {
        "city": "Pinhais",
        "state": "PR",
        "district": "Emiliano Perneta",
        "street": "Rua Waldemar Robison",
        "zipcode": "83324-520"
    },
    {
        "city": "Pinhais",
        "state": "PR",
        "district": "Centro",
        "street": "Avenida Maringá",
        "zipcode": "83324-000"
    },
    {
        "city": "Pinhais",
        "state": "PR",
        "district": "Centro",
        "street": "Rua Wanda dos Santos Mallmann",
        "zipcode": "83323-400"
    },
    {
        "city": "Pinhais",
        "state": "PR",
        "district": "Centro",
        "street": "Rua Vinte e Dois de Abril",
        "zipcode": "83323-240"
    },
    {
        "city": "Pinhais",
        "state": "PR",
        "district": "Estância Pinhais",
        "street": "Rua Vinte e Dois de Abril",
        "zipcode": "83323-205"
    },
    {
        "city": "Pinhais",
        "state": "PR",
        "district": "Centro",
        "street": "Rua Paraíso do Norte",
        "zipcode": "83324-030"
    },
    {
        "city": "Pinhais",
        "state": "PR",
        "district": "Centro",
        "street": "Rua Quinze de Novembro",
        "zipcode": "83323-250"
    },
    {
        "city": "Pinhais",
        "state": "PR",
        "district": "Centro",
        "street": "Rua Sete de Setembro",
        "zipcode": "83323-270"
    },
    {
        "city": "Pinhais",
        "state": "PR",
        "district": "Weissópolis",
        "street": "Rua Rio Tibagi",
        "zipcode": "83322-200"
    },
    {
        "city": "Pinhais",
        "state": "PR",
        "district": "Estância Pinhais",
        "street": "Rua Sete de Setembro",
        "zipcode": "83323-172"
    },
    {
        "city": "Pinhais",
        "state": "PR",
        "district": "Centro",
        "street": "Rua Terra Boa",
        "zipcode": "83324-040"
    },
    {
        "city": "Pinhais",
        "state": "PR",
        "district": "Centro",
        "street": "Rua Cruzeiro do Sul",
        "zipcode": "83324-060"
    },
    {
        "city": "Pinhais",
        "state": "PR",
        "district": "Centro",
        "street": "Rua Dezenove de Novembro",
        "zipcode": "83323-260"
    },
    {
        "city": "Pinhais",
        "state": "PR",
        "district": "Estância Pinhais",
        "street": "Rua Dezenove de Novembro",
        "zipcode": "83323-223"
    },
    {
        "city": "Pinhais",
        "state": "PR",
        "district": "Centro",
        "street": "Rua Inajá",
        "zipcode": "83324-050"
    },
    {
        "city": "Pinhais",
        "state": "PR",
        "district": "Estância Pinhais",
        "street": "Avenida Camilo di Lellis",
        "zipcode": "83323-980"
    },
    {
        "city": "Pinhais",
        "state": "PR",
        "district": "Centro",
        "street": "Avenida Camilo di Lellis",
        "zipcode": "83323-981"
    },
    {
        "city": "Pinhais",
        "state": "PR",
        "district": "Centro",
        "street": "Rua Benevenuto Rattmann",
        "zipcode": "83324-242"
    },
    {
        "city": "Pinhais",
        "state": "PR",
        "district": "Emiliano Perneta",
        "street": "Rua Maria José Soares",
        "zipcode": "83324-287"
    },
    {
        "city": "Pinhais",
        "state": "PR",
        "district": "Emiliano Perneta",
        "street": "Rua Fênix",
        "zipcode": "83324-300"
    },
    {
        "city": "Pinhais",
        "state": "PR",
        "district": "Emiliano Perneta",
        "street": "Rua Alvorada do Sul",
        "zipcode": "83324-340"
    },
    {
        "city": "Pinhais",
        "state": "PR",
        "district": "Emiliano Perneta",
        "street": "Rua Alto Paraná",
        "zipcode": "83324-380"
    },
    {
        "city": "Pinhais",
        "state": "PR",
        "district": "Emiliano Perneta",
        "street": "Rua Nova Esperança",
        "zipcode": "83324-400"
    },
    {
        "city": "Pinhais",
        "state": "PR",
        "district": "Alto Tarumã",
        "street": "Rua Ivanira Nardini Pereira",
        "zipcode": "83325-612"
    },
    {
        "city": "Pinhais",
        "state": "PR",
        "district": "Emiliano Perneta",
        "street": "Rua Altônia",
        "zipcode": "83324-350"
    },
    {
        "city": "Pinhais",
        "state": "PR",
        "district": "Emiliano Perneta",
        "street": "Rua Salgado Filho",
        "zipcode": "83324-252"
    },
    {
        "city": "Pinhais",
        "state": "PR",
        "district": "Emiliano Perneta",
        "street": "Rua Benevenuto Rattmann",
        "zipcode": "83324-270"
    },
    {
        "city": "Pinhais",
        "state": "PR",
        "district": "Emiliano Perneta",
        "street": "Rua Santa Helena",
        "zipcode": "83324-325"
    },
    {
        "city": "Pinhais",
        "state": "PR",
        "district": "Emiliano Perneta",
        "street": "Rua Ribeirão Claro",
        "zipcode": "83324-332"
    },
    {
        "city": "Pinhais",
        "state": "PR",
        "district": "Centro",
        "street": "Rua João Zaitter",
        "zipcode": "83324-210"
    },
    {
        "city": "Pinhais",
        "state": "PR",
        "district": "Centro",
        "street": "Rua Ribeirão Claro",
        "zipcode": "83324-240"
    },
    {
        "city": "Pinhais",
        "state": "PR",
        "district": "Emiliano Perneta",
        "street": "Rua Renascença",
        "zipcode": "83324-334"
    },
    {
        "city": "Pinhais",
        "state": "PR",
        "district": "Emiliano Perneta",
        "street": "Rua Paranavaí",
        "zipcode": "83324-390"
    },
    {
        "city": "Pinhais",
        "state": "PR",
        "district": "Emiliano Perneta",
        "street": "Rua Rosa Macarini",
        "zipcode": "83324-420"
    },
    {
        "city": "Pinhais",
        "state": "PR",
        "district": "Emiliano Perneta",
        "street": "Rua Quatiguá",
        "zipcode": "83324-280"
    },
    {
        "city": "Pinhais",
        "state": "PR",
        "district": "Pineville",
        "street": "Rua João Maria da Silva",
        "zipcode": "83325-589"
    },
    {
        "city": "Pinhais",
        "state": "PR",
        "district": "Alto Tarumã",
        "street": "Rua José Pedro Porto",
        "zipcode": "83325-609"
    },
    {
        "city": "Pinhais",
        "state": "PR",
        "district": "Emiliano Perneta",
        "street": "Rua Cruzeiro do Sul",
        "zipcode": "83324-423"
    },
    {
        "city": "Pinhais",
        "state": "PR",
        "district": "Centro",
        "street": "Rua América do Norte",
        "zipcode": "83323-310"
    },
    {
        "city": "Pinhais",
        "state": "PR",
        "district": "Centro",
        "street": "Rua Antártida",
        "zipcode": "83323-360"
    },
    {
        "city": "Pinhais",
        "state": "PR",
        "district": "Centro",
        "street": "Rua Ásia",
        "zipcode": "83323-350"
    },
    {
        "city": "Pinhais",
        "state": "PR",
        "district": "Estância Pinhais",
        "street": "Rua Antônio Zielonka",
        "zipcode": "83323-210"
    },
    {
        "city": "Pinhais",
        "state": "PR",
        "district": "Centro",
        "street": "Rua Austrália",
        "zipcode": "83323-340"
    },
    {
        "city": "Pinhais",
        "state": "PR",
        "district": "Centro",
        "street": "Avenida Ayrton Senna da Silva",
        "zipcode": "83323-290"
    },
    {
        "city": "Pinhais",
        "state": "PR",
        "district": "Estância Pinhais",
        "street": "Rua Guilherme Weiss",
        "zipcode": "83323-200"
    },
    {
        "city": "Pinhais",
        "state": "PR",
        "district": "Estância Pinhais",
        "street": "Rua Iolanda Túlio Borba",
        "zipcode": "83323-380"
    },
    {
        "city": "Pinhais",
        "state": "PR",
        "district": "Centro",
        "street": "Rua Frei Egídio Carlotto",
        "zipcode": "83323-230"
    },
    {
        "city": "Pinhais",
        "state": "PR",
        "district": "Estância Pinhais",
        "street": "Rua General Lucas de Almeida Guimarães",
        "zipcode": "83323-130"
    },
    {
        "city": "Pinhais",
        "state": "PR",
        "district": "Estância Pinhais",
        "street": "Rua Jacob Fedalto",
        "zipcode": "83323-100"
    },
    {
        "city": "Pinhais",
        "state": "PR",
        "district": "Estância Pinhais",
        "street": "Rua Jerônimo Busato Filho",
        "zipcode": "83323-090"
    },
    {
        "city": "Pinhais",
        "state": "PR",
        "district": "Centro",
        "street": "Rodovia João Leopoldo Jacomel",
        "zipcode": "83323-410"
    },
    {
        "city": "Pinhais",
        "state": "PR",
        "district": "Estância Pinhais",
        "street": "Rua Laura Lopes dos Santos",
        "zipcode": "83323-150"
    },
    {
        "city": "Pinhais",
        "state": "PR",
        "district": "Estância Pinhais",
        "street": "Rua Maria Luíza Borba",
        "zipcode": "83323-160"
    },
    {
        "city": "Pinhais",
        "state": "PR",
        "district": "Estância Pinhais",
        "street": "Rua Matheus Pereira Carvalho",
        "zipcode": "83323-220"
    },
    {
        "city": "Pinhais",
        "state": "PR",
        "district": "Estância Pinhais",
        "street": "Rua Miguel Victor da Silva Pinto",
        "zipcode": "83323-080"
    },
    {
        "city": "Pinhais",
        "state": "PR",
        "district": "Estância Pinhais",
        "street": "Rua José Mariano dos Santos",
        "zipcode": "83323-120"
    },
    {
        "city": "Pinhais",
        "state": "PR",
        "district": "Centro",
        "street": "Rua Pólo Sul",
        "zipcode": "83323-330"
    },
    {
        "city": "Pinhais",
        "state": "PR",
        "district": "Centro",
        "street": "Rua Onze de Junho",
        "zipcode": "83323-050"
    },
    {
        "city": "Pinhais",
        "state": "PR",
        "district": "Estância Pinhais",
        "street": "Rua Rodolfo Xavier",
        "zipcode": "83323-070"
    },
    {
        "city": "Pinhais",
        "state": "PR",
        "district": "Centro",
        "street": "Rua Somália",
        "zipcode": "83323-280"
    },
    {
        "city": "Pinhais",
        "state": "PR",
        "district": "Estância Pinhais",
        "street": "Rua Valdemar de Siqueira",
        "zipcode": "83323-110"
    },
    {
        "city": "Pinhais",
        "state": "PR",
        "district": "Estância Pinhais",
        "street": "Rua Vicente dAndrea",
        "zipcode": "83323-190"
    },
    {
        "city": "Pinhais",
        "state": "PR",
        "district": "Centro",
        "street": "Rua Vinte e Quatro de Maio",
        "zipcode": "83323-060"
    },
    {
        "city": "Pinhais",
        "state": "PR",
        "district": "Pineville",
        "street": "Rua Líbia",
        "zipcode": "83320-020"
    },
    {
        "city": "Pinhais",
        "state": "PR",
        "district": "Estância Pinhais",
        "street": "Rua Vinte e Cinco de Dezembro",
        "zipcode": "83323-140"
    },
    {
        "city": "Pinhais",
        "state": "PR",
        "district": "Centro",
        "street": "Rua América do Sul",
        "zipcode": "83323-370"
    },
    {
        "city": "Pinhais",
        "state": "PR",
        "district": "Centro",
        "street": "Rua Renato Nunes Ribas",
        "zipcode": "83323-390"
    },
    {
        "city": "Pinhais",
        "state": "PR",
        "district": "Estância Pinhais",
        "street": "Rua Treze de Maio",
        "zipcode": "83323-170"
    },
    {
        "city": "Pinhais",
        "state": "PR",
        "district": "Centro",
        "street": "Rua Europa",
        "zipcode": "83323-300"
    },
    {
        "city": "Pinhais",
        "state": "PR",
        "district": "Estância Pinhais",
        "street": "Rua Max S. Aichener",
        "zipcode": "83323-180"
    },
    {
        "city": "Pinhais",
        "state": "PR",
        "district": "Weissópolis",
        "street": "Rua Brasholanda",
        "zipcode": "83322-070"
    },
    {
        "city": "Pinhais",
        "state": "PR",
        "district": "Weissópolis",
        "street": "Rua Bom Jesus",
        "zipcode": "83322-050"
    },
    {
        "city": "Pinhais",
        "state": "PR",
        "district": "Centro",
        "street": "Rua Primeiro de Maio",
        "zipcode": "83323-020"
    },
    {
        "city": "Pinhais",
        "state": "PR",
        "district": "Centro",
        "street": "Rua Quinze de Outubro",
        "zipcode": "83323-040"
    },
    {
        "city": "Pinhais",
        "state": "PR",
        "district": "Weissópolis",
        "street": "Rua Rio Araguari",
        "zipcode": "83322-460"
    },
    {
        "city": "Pinhais",
        "state": "PR",
        "district": "Weissópolis",
        "street": "Rua Rio Cachoeira",
        "zipcode": "83322-260"
    },
    {
        "city": "Pinhais",
        "state": "PR",
        "district": "Weissópolis",
        "street": "Rua Rio Canguiri",
        "zipcode": "83322-470"
    },
    {
        "city": "Pinhais",
        "state": "PR",
        "district": "Weissópolis",
        "street": "Rua Rio Catas Altas",
        "zipcode": "83322-480"
    },
    {
        "city": "Pinhais",
        "state": "PR",
        "district": "Weissópolis",
        "street": "Rua Rio Cubatão",
        "zipcode": "83322-210"
    },
    {
        "city": "Pinhais",
        "state": "PR",
        "district": "Weissópolis",
        "street": "Rua Rio das Pedras",
        "zipcode": "83322-360"
    },
    {
        "city": "Pinhais",
        "state": "PR",
        "district": "Weissópolis",
        "street": "Rua Rio Itaqui",
        "zipcode": "83322-270"
    },
    {
        "city": "Pinhais",
        "state": "PR",
        "district": "Weissópolis",
        "street": "Rua Rio Ivaí",
        "zipcode": "83322-370"
    },
    {
        "city": "Pinhais",
        "state": "PR",
        "district": "Weissópolis",
        "street": "Rua Rio Jari",
        "zipcode": "83322-500"
    },
    {
        "city": "Pinhais",
        "state": "PR",
        "district": "Weissópolis",
        "street": "Rua Rio Negro",
        "zipcode": "83322-030"
    },
    {
        "city": "Pinhais",
        "state": "PR",
        "district": "Weissópolis",
        "street": "Rua Rio Paranapanema",
        "zipcode": "83322-180"
    },
    {
        "city": "Pinhais",
        "state": "PR",
        "district": "Estância Pinhais",
        "street": "Rodovia Deputado João Leopoldo Jacomel",
        "zipcode": "83323-125"
    },
    {
        "city": "Pinhais",
        "state": "PR",
        "district": "Centro",
        "street": "Rua Apolônia Jacomel de Andrade",
        "zipcode": "83324-160"
    },
    {
        "city": "Pinhais",
        "state": "PR",
        "district": "Centro",
        "street": "Rua Genoveva Lanoski Biss",
        "zipcode": "83324-170"
    },
    {
        "city": "Pinhais",
        "state": "PR",
        "district": "Emiliano Perneta",
        "street": "Rua Maximiliano Rohrsetzer",
        "zipcode": "83324-200"
    },
    {
        "city": "Pinhais",
        "state": "PR",
        "district": "Emiliano Perneta",
        "street": "Rua Itambé",
        "zipcode": "83324-310"
    },
    {
        "city": "Pinhais",
        "state": "PR",
        "district": "Emiliano Perneta",
        "street": "Rua Arapoti",
        "zipcode": "83324-330"
    },
    {
        "city": "Pinhais",
        "state": "PR",
        "district": "Emiliano Perneta",
        "street": "Rua Terra Rica",
        "zipcode": "83324-195"
    },
    {
        "city": "Pinhais",
        "state": "PR",
        "district": "Centro",
        "street": "Rua Marialva",
        "zipcode": "83324-180"
    },
    {
        "city": "Pinhais",
        "state": "PR",
        "district": "Emiliano Perneta",
        "street": "Rua Marialva",
        "zipcode": "83324-197"
    },
    {
        "city": "Pinhais",
        "state": "PR",
        "district": "Weissópolis",
        "street": "Rua Rio Parnaíba",
        "zipcode": "83322-400"
    },
    {
        "city": "Pinhais",
        "state": "PR",
        "district": "Weissópolis",
        "street": "Rua Rio Passaúna",
        "zipcode": "83322-380"
    },
    {
        "city": "Pinhais",
        "state": "PR",
        "district": "Weissópolis",
        "street": "Rua Rio Pelotas",
        "zipcode": "83322-330"
    },
    {
        "city": "Pinhais",
        "state": "PR",
        "district": "Weissópolis",
        "street": "Rua Rio Pequeno",
        "zipcode": "83322-240"
    },
    {
        "city": "Pinhais",
        "state": "PR",
        "district": "Weissópolis",
        "street": "Rua Rio Piquiri",
        "zipcode": "83322-010"
    },
    {
        "city": "Pinhais",
        "state": "PR",
        "district": "Weissópolis",
        "street": "Rua Rio Piraquara",
        "zipcode": "83322-140"
    },
    {
        "city": "Pinhais",
        "state": "PR",
        "district": "Weissópolis",
        "street": "Rua Rio Purus",
        "zipcode": "83322-250"
    },
    {
        "city": "Pinhais",
        "state": "PR",
        "district": "Weissópolis",
        "street": "Rua Rio São Francisco",
        "zipcode": "83322-020"
    },
    {
        "city": "Pinhais",
        "state": "PR",
        "district": "Weissópolis",
        "street": "Rua Rio Solimões",
        "zipcode": "83322-150"
    },
    {
        "city": "Pinhais",
        "state": "PR",
        "district": "Weissópolis",
        "street": "Rua Rio Tapajós",
        "zipcode": "83322-420"
    },
    {
        "city": "Pinhais",
        "state": "PR",
        "district": "Weissópolis",
        "street": "Rua Rio Amazonas",
        "zipcode": "83322-040"
    },
    {
        "city": "Pinhais",
        "state": "PR",
        "district": "Weissópolis",
        "street": "Rua Rio do Cedro",
        "zipcode": "83322-300"
    },
    {
        "city": "Pinhais",
        "state": "PR",
        "district": "Weissópolis",
        "street": "Rua Rio Japurá",
        "zipcode": "83322-410"
    },
    {
        "city": "Pinhais",
        "state": "PR",
        "district": "Weissópolis",
        "street": "Rua Rio Madeira",
        "zipcode": "83322-340"
    },
    {
        "city": "Pinhais",
        "state": "PR",
        "district": "Weissópolis",
        "street": "Rua Rio São João",
        "zipcode": "83322-390"
    },
    {
        "city": "Pinhais",
        "state": "PR",
        "district": "Weissópolis",
        "street": "Rua Rio Tietê",
        "zipcode": "83322-230"
    },
    {
        "city": "Pinhais",
        "state": "PR",
        "district": "Weissópolis",
        "street": "Rua Rio Tingui",
        "zipcode": "83322-290"
    },
    {
        "city": "Pinhais",
        "state": "PR",
        "district": "Weissópolis",
        "street": "Rua Rio Tocantins",
        "zipcode": "83322-170"
    },
    {
        "city": "Pinhais",
        "state": "PR",
        "district": "Weissópolis",
        "street": "Rua Santa Ana",
        "zipcode": "83322-110"
    },
    {
        "city": "Pinhais",
        "state": "PR",
        "district": "Weissópolis",
        "street": "Rua Santa Maria",
        "zipcode": "83322-100"
    },
    {
        "city": "Pinhais",
        "state": "PR",
        "district": "Weissópolis",
        "street": "Rua São Judas Tadeu",
        "zipcode": "83322-090"
    },
    {
        "city": "Pinhais",
        "state": "PR",
        "district": "Weissópolis",
        "street": "Rua São Marcos",
        "zipcode": "83322-130"
    },
    {
        "city": "Pinhais",
        "state": "PR",
        "district": "Weissópolis",
        "street": "Rua São Vicente",
        "zipcode": "83322-120"
    },
    {
        "city": "Pinhais",
        "state": "PR",
        "district": "Weissópolis",
        "street": "Rua Severino Massignan",
        "zipcode": "83322-060"
    },
    {
        "city": "Pinhais",
        "state": "PR",
        "district": "Weissópolis",
        "street": "Rua Rio Marumbi",
        "zipcode": "83322-350"
    },
    {
        "city": "Pinhais",
        "state": "PR",
        "district": "Weissópolis",
        "street": "Rua Rio Trombetas",
        "zipcode": "83322-280"
    },
    {
        "city": "Pinhais",
        "state": "PR",
        "district": "Centro",
        "street": "Rua Vinte e Cinco de Agosto",
        "zipcode": "83323-010"
    },
    {
        "city": "Pinhais",
        "state": "PR",
        "district": "Weissópolis",
        "street": "Rua Rio Uruguai",
        "zipcode": "83322-220"
    },
    {
        "city": "Pinhais",
        "state": "PR",
        "district": "Weissópolis",
        "street": "Rua Rio Ipiranga",
        "zipcode": "83322-320"
    },
    {
        "city": "Pinhais",
        "state": "PR",
        "district": "Weissópolis",
        "street": "Rua Rio Javari",
        "zipcode": "83322-310"
    },
    {
        "city": "Pinhais",
        "state": "PR",
        "district": "Weissópolis",
        "street": "Rua Rio Xingu",
        "zipcode": "83322-490"
    },
    {
        "city": "Pinhais",
        "state": "PR",
        "district": "Weissópolis",
        "street": "Rua Rio Sagrado",
        "zipcode": "83322-440"
    },
    {
        "city": "Pinhais",
        "state": "PR",
        "district": "Weissópolis",
        "street": "Rua Todos os Santos",
        "zipcode": "83322-450"
    },
    {
        "city": "Pinhais",
        "state": "PR",
        "district": "Weissópolis",
        "street": "Rua Rio da Prata",
        "zipcode": "83322-286"
    },
    {
        "city": "Pinhais",
        "state": "PR",
        "district": "Centro",
        "street": "Rua Vinte e Um de Abril",
        "zipcode": "83323-030"
    },
    {
        "city": "Pinhais",
        "state": "PR",
        "district": "Weissópolis",
        "street": "Rua Rio de Janeiro",
        "zipcode": "83322-315"
    },
    {
        "city": "Pinhais",
        "state": "PR",
        "district": "Vargem Grande",
        "street": "Avenida Iraí",
        "zipcode": "83321-008"
    },
    {
        "city": "Pinhais",
        "state": "PR",
        "district": "Vargem Grande",
        "street": "Avenida Iraí",
        "zipcode": "83321-007"
    },
    {
        "city": "Pinhais",
        "state": "PR",
        "district": "Weissópolis",
        "street": "Avenida Iraí",
        "zipcode": "83321-004"
    },
    {
        "city": "Pinhais",
        "state": "PR",
        "district": "Weissópolis",
        "street": "Avenida Iraí",
        "zipcode": "83321-002"
    },
    {
        "city": "Pinhais",
        "state": "PR",
        "district": "Vargem Grande",
        "street": "Rua Andrade Muricy",
        "zipcode": "83321-290"
    },
    {
        "city": "Pinhais",
        "state": "PR",
        "district": "Vargem Grande",
        "street": "Rua Antônio de Castro Alves",
        "zipcode": "83321-250"
    },
    {
        "city": "Pinhais",
        "state": "PR",
        "district": "Vargem Grande",
        "street": "Rua Carlos Pereira Canani",
        "zipcode": "83321-280"
    },
    {
        "city": "Pinhais",
        "state": "PR",
        "district": "Vargem Grande",
        "street": "Travessa Antônio Braga",
        "zipcode": "83321-400"
    },
    {
        "city": "Pinhais",
        "state": "PR",
        "district": "Vargem Grande",
        "street": "Rua Antônio Gonçalves Dias",
        "zipcode": "83321-070"
    },
    {
        "city": "Pinhais",
        "state": "PR",
        "district": "Vargem Grande",
        "street": "Rua Casimiro de Abreu",
        "zipcode": "83321-210"
    },
    {
        "city": "Pinhais",
        "state": "PR",
        "district": "Vargem Grande",
        "street": "Rua Carlos Drummond de Andrade",
        "zipcode": "83321-300"
    },
    {
        "city": "Pinhais",
        "state": "PR",
        "district": "Vargem Grande",
        "street": "Rua Cassiano Ricardo",
        "zipcode": "83321-090"
    },
    {
        "city": "Pinhais",
        "state": "PR",
        "district": "Vargem Grande",
        "street": "Travessa Dario Veloso",
        "zipcode": "83321-310"
    },
    {
        "city": "Pinhais",
        "state": "PR",
        "district": "Vargem Grande",
        "street": "Rua Euclides Bandeira",
        "zipcode": "83321-040"
    },
    {
        "city": "Pinhais",
        "state": "PR",
        "district": "Pineville",
        "street": "Rua Jair Luvizotto",
        "zipcode": "83320-614"
    },
    {
        "city": "Pinhais",
        "state": "PR",
        "district": "Pineville",
        "street": "Rua Jair Martins de Souza",
        "zipcode": "83320-617"
    },
    {
        "city": "Pinhais",
        "state": "PR",
        "district": "Vila Palmital",
        "street": "Rodovia Deputado João Leopoldo Jacomel",
        "zipcode": "83320-970"
    },
    {
        "city": "Pinhais",
        "state": "PR",
        "district": "Emiliano Perneta",
        "street": "Avenida Jacob Macanhan",
        "zipcode": "83321-970"
    },
    {
        "city": "Pinhais",
        "state": "PR",
        "district": "Vargem Grande",
        "street": "Rua Euclides da Cunha",
        "zipcode": "83321-050"
    },
    {
        "city": "Pinhais",
        "state": "PR",
        "district": "Pineville",
        "street": "Rua Eugênio Rodrigues",
        "zipcode": "83320-620"
    },
    {
        "city": "Pinhais",
        "state": "PR",
        "district": "Vargem Grande",
        "street": "Rua Fagundes Varela",
        "zipcode": "83321-180"
    },
    {
        "city": "Pinhais",
        "state": "PR",
        "district": "Vargem Grande",
        "street": "Rua Clóvis Bevilaqua",
        "zipcode": "83321-110"
    },
    {
        "city": "Pinhais",
        "state": "PR",
        "district": "Vargem Grande",
        "street": "Rua Guilherme Ceolin",
        "zipcode": "83321-220"
    },
    {
        "city": "Pinhais",
        "state": "PR",
        "district": "Vargem Grande",
        "street": "Rua Graça Aranha",
        "zipcode": "83321-020"
    },
    {
        "city": "Pinhais",
        "state": "PR",
        "district": "Vargem Grande",
        "street": "Rua Henrique Coelho Neto",
        "zipcode": "83321-030"
    },
    {
        "city": "Pinhais",
        "state": "PR",
        "district": "Vargem Grande",
        "street": "Rua José de Alencar",
        "zipcode": "83321-230"
    },
    {
        "city": "Pinhais",
        "state": "PR",
        "district": "Vargem Grande",
        "street": "Rua Júlio Perneta",
        "zipcode": "83321-330"
    },
    {
        "city": "Pinhais",
        "state": "PR",
        "district": "Vargem Grande",
        "street": "Rua Luís de Camões",
        "zipcode": "83321-140"
    },
    {
        "city": "Pinhais",
        "state": "PR",
        "district": "Vargem Grande",
        "street": "Rua Luis Murat",
        "zipcode": "83321-010"
    },
    {
        "city": "Pinhais",
        "state": "PR",
        "district": "Vargem Grande",
        "street": "Rua Joaquim Nabuco",
        "zipcode": "83321-120"
    },
    {
        "city": "Pinhais",
        "state": "PR",
        "district": "Vargem Grande",
        "street": "Rua Monteiro Lobato",
        "zipcode": "83321-260"
    },
    {
        "city": "Pinhais",
        "state": "PR",
        "district": "Vargem Grande",
        "street": "Rua Olavo Bilac",
        "zipcode": "83321-100"
    },
    {
        "city": "Pinhais",
        "state": "PR",
        "district": "Vargem Grande",
        "street": "Rua Leo Vaz",
        "zipcode": "83321-170"
    },
    {
        "city": "Pinhais",
        "state": "PR",
        "district": "Vargem Grande",
        "street": "Rua Machado de Assis",
        "zipcode": "83321-190"
    },
    {
        "city": "Pinhais",
        "state": "PR",
        "district": "Vargem Grande",
        "street": "Rua Osório Duque",
        "zipcode": "83321-060"
    },
    {
        "city": "Pinhais",
        "state": "PR",
        "district": "Vargem Grande",
        "street": "Rua Paulo Leminski",
        "zipcode": "83321-350"
    },
    {
        "city": "Pinhais",
        "state": "PR",
        "district": "Vargem Grande",
        "street": "Rua Raul Pompéia",
        "zipcode": "83321-360"
    },
    {
        "city": "Pinhais",
        "state": "PR",
        "district": "Vargem Grande",
        "street": "Rua Pasteur",
        "zipcode": "83321-080"
    },
    {
        "city": "Pinhais",
        "state": "PR",
        "district": "Weissópolis",
        "street": "Rua Rio Paraná",
        "zipcode": "83322-000"
    },
    {
        "city": "Pinhais",
        "state": "PR",
        "district": "Vargem Grande",
        "street": "Rua Rui Barbosa",
        "zipcode": "83321-240"
    },
    {
        "city": "Pinhais",
        "state": "PR",
        "district": "Vargem Grande",
        "street": "Travessa Tasso da Silveira",
        "zipcode": "83321-380"
    },
    {
        "city": "Pinhais",
        "state": "PR",
        "district": "Vargem Grande",
        "street": "Rua Rachel de Queiroz",
        "zipcode": "83321-160"
    },
    {
        "city": "Pinhais",
        "state": "PR",
        "district": "Vargem Grande",
        "street": "Rua Vinicius de Moraes",
        "zipcode": "83321-390"
    },
    {
        "city": "Pinhais",
        "state": "PR",
        "district": "Vargem Grande",
        "street": "Rua Manoel Bandeira",
        "zipcode": "83321-200"
    },
    {
        "city": "Pinhais",
        "state": "PR",
        "district": "Vargem Grande",
        "street": "Travessa Silveira Neto",
        "zipcode": "83321-370"
    },
    {
        "city": "Pinhais",
        "state": "PR",
        "district": "Vargem Grande",
        "street": "Rua Aluísio Azevedo",
        "zipcode": "83321-270"
    },
    {
        "city": "Pinhais",
        "state": "PR",
        "district": "Pineville",
        "street": "Rua Antônio Alves Santos",
        "zipcode": "83320-615"
    },
    {
        "city": "Pinhais",
        "state": "PR",
        "district": "Vargem Grande",
        "street": "Rua Viana Moog",
        "zipcode": "83321-150"
    },
    {
        "city": "Pinhais",
        "state": "PR",
        "district": "Vargem Grande",
        "street": "Rua Fernando Pessoa",
        "zipcode": "83321-320"
    },
    {
        "city": "Pinhais",
        "state": "PR",
        "district": "Vargem Grande",
        "street": "Rua José Bonifácio",
        "zipcode": "83321-130"
    },
    {
        "city": "Pinhais",
        "state": "PR",
        "district": "Vargem Grande",
        "street": "Rua Maria Ziloá Dipp",
        "zipcode": "83321-375"
    },
    {
        "city": "Pinhais",
        "state": "PR",
        "district": "Pineville",
        "street": "Rua Bernardo Ozinski",
        "zipcode": "83320-570"
    },
    {
        "city": "Pinhais",
        "state": "PR",
        "district": "Pineville",
        "street": "Rua Angola",
        "zipcode": "83320-330"
    },
    {
        "city": "Pinhais",
        "state": "PR",
        "district": "Pineville",
        "street": "Rua Bolsão das Arapongas",
        "zipcode": "83320-500"
    },
    {
        "city": "Pinhais",
        "state": "PR",
        "district": "Pineville",
        "street": "Rua Bolsão das Araras",
        "zipcode": "83320-420"
    },
    {
        "city": "Pinhais",
        "state": "PR",
        "district": "Pineville",
        "street": "Rua Bolsão das gralhas",
        "zipcode": "83320-490"
    },
    {
        "city": "Pinhais",
        "state": "PR",
        "district": "Pineville",
        "street": "Rua Bolsão das Patativas",
        "zipcode": "83320-470"
    },
    {
        "city": "Pinhais",
        "state": "PR",
        "district": "Pineville",
        "street": "Rua Bolsão do Melros",
        "zipcode": "83320-460"
    },
    {
        "city": "Pinhais",
        "state": "PR",
        "district": "Pineville",
        "street": "Rua Bolsão dos Canários",
        "zipcode": "83320-450"
    },
    {
        "city": "Pinhais",
        "state": "PR",
        "district": "Pineville",
        "street": "Rua Bolsão dos Cardeais",
        "zipcode": "83320-410"
    },
    {
        "city": "Pinhais",
        "state": "PR",
        "district": "Pineville",
        "street": "Rua Bolsão dos Curiós",
        "zipcode": "83320-480"
    },
    {
        "city": "Pinhais",
        "state": "PR",
        "district": "Centro",
        "street": "Rua Bolsão dos Papagaios",
        "zipcode": "83320-360"
    },
    {
        "city": "Pinhais",
        "state": "PR",
        "district": "Pineville",
        "street": "Rua Camarões",
        "zipcode": "83320-540"
    },
    {
        "city": "Pinhais",
        "state": "PR",
        "district": "Pineville",
        "street": "Rua Bolsão dos Sabiás",
        "zipcode": "83320-400"
    },
    {
        "city": "Pinhais",
        "state": "PR",
        "district": "Pineville",
        "street": "Rua Congo",
        "zipcode": "83320-320"
    },
    {
        "city": "Pinhais",
        "state": "PR",
        "district": "Centro",
        "street": "Avenida Jacob Macanhan",
        "zipcode": "83320-352"
    },
    {
        "city": "Pinhais",
        "state": "PR",
        "district": "Pineville",
        "street": "Avenida Jacob Macanhan",
        "zipcode": "83320-392"
    },
    {
        "city": "Pinhais",
        "state": "PR",
        "district": "Centro",
        "street": "Rodovia Deputado João Leopoldo Jacomel",
        "zipcode": "83320-382"
    },
    {
        "city": "Pinhais",
        "state": "PR",
        "district": "Pineville",
        "street": "Rua Salgado Filho",
        "zipcode": "83320-332"
    },
    {
        "city": "Pinhais",
        "state": "PR",
        "district": "Centro",
        "street": "Rua Salgado Filho",
        "zipcode": "83320-354"
    },
    {
        "city": "Pinhais",
        "state": "PR",
        "district": "Centro",
        "street": "Rua Aruba",
        "zipcode": "83320-302"
    },
    {
        "city": "Pinhais",
        "state": "PR",
        "district": "Pineville",
        "street": "Rua Marian Kozmiej",
        "zipcode": "83320-092"
    },
    {
        "city": "Pinhais",
        "state": "PR",
        "district": "Pineville",
        "street": "Rua Etiópia",
        "zipcode": "83320-280"
    },
    {
        "city": "Pinhais",
        "state": "PR",
        "district": "Pineville",
        "street": "Rua Genoveva Forlepa Kopka",
        "zipcode": "83320-560"
    },
    {
        "city": "Pinhais",
        "state": "PR",
        "district": "Centro",
        "street": "Rua Guatemala",
        "zipcode": "83320-220"
    },
    {
        "city": "Pinhais",
        "state": "PR",
        "district": "Centro",
        "street": "Rua das Guianas",
        "zipcode": "83320-210"
    },
    {
        "city": "Pinhais",
        "state": "PR",
        "district": "Centro",
        "street": "Rua Haiti",
        "zipcode": "83320-160"
    },
    {
        "city": "Pinhais",
        "state": "PR",
        "district": "Centro",
        "street": "Rua Honduras",
        "zipcode": "83320-170"
    },
    {
        "city": "Pinhais",
        "state": "PR",
        "district": "Centro",
        "street": "Rua Jamaica",
        "zipcode": "83320-520"
    },
    {
        "city": "Pinhais",
        "state": "PR",
        "district": "Pineville",
        "street": "Rua Libéria",
        "zipcode": "83320-310"
    },
    {
        "city": "Pinhais",
        "state": "PR",
        "district": "Pineville",
        "street": "Rua Mauritânia",
        "zipcode": "83320-140"
    },
    {
        "city": "Pinhais",
        "state": "PR",
        "district": "Centro",
        "street": "Rua México",
        "zipcode": "83320-300"
    },
    {
        "city": "Pinhais",
        "state": "PR",
        "district": "Centro",
        "street": "Rua Moçambique",
        "zipcode": "83320-190"
    },
    {
        "city": "Pinhais",
        "state": "PR",
        "district": "Pineville",
        "street": "Rua Madagascar",
        "zipcode": "83320-550"
    },
    {
        "city": "Pinhais",
        "state": "PR",
        "district": "Centro",
        "street": "Rua Manágua",
        "zipcode": "83320-350"
    },
    {
        "city": "Pinhais",
        "state": "PR",
        "district": "Pineville",
        "street": "Rua Malásia",
        "zipcode": "83320-270"
    },
    {
        "city": "Pinhais",
        "state": "PR",
        "district": "Centro",
        "street": "Rua Nicarágua",
        "zipcode": "83320-380"
    },
    {
        "city": "Pinhais",
        "state": "PR",
        "district": "Pineville",
        "street": "Rua Orlando Santander Francisco",
        "zipcode": "83320-580"
    },
    {
        "city": "Pinhais",
        "state": "PR",
        "district": "Centro",
        "street": "Rua Panamá",
        "zipcode": "83320-370"
    },
    {
        "city": "Pinhais",
        "state": "PR",
        "district": "Centro",
        "street": "Rua Pedro Elias Graciano",
        "zipcode": "83320-510"
    },
    {
        "city": "Pinhais",
        "state": "PR",
        "district": "Centro",
        "street": "Rua Quênia",
        "zipcode": "83320-150"
    },
    {
        "city": "Pinhais",
        "state": "PR",
        "district": "Pineville",
        "street": "Rua Edinei de Lima Godoy",
        "zipcode": "83320-590"
    },
    {
        "city": "Pinhais",
        "state": "PR",
        "district": "Centro",
        "street": "Rua República Dominicana",
        "zipcode": "83320-180"
    },
    {
        "city": "Pinhais",
        "state": "PR",
        "district": "Pineville",
        "street": "Rua Saara",
        "zipcode": "83320-100"
    },
    {
        "city": "Pinhais",
        "state": "PR",
        "district": "Pineville",
        "street": "Rua Senegal",
        "zipcode": "83320-090"
    },
    {
        "city": "Pinhais",
        "state": "PR",
        "district": "Pineville",
        "street": "Rua Salgado Filho",
        "zipcode": "83320-340"
    },
    {
        "city": "Pinhais",
        "state": "PR",
        "district": "Pineville",
        "street": "Rua Transpalmital",
        "zipcode": "83320-390"
    },
    {
        "city": "Pinhais",
        "state": "PR",
        "district": "Centro",
        "street": "Rua Trinidad e Tobago",
        "zipcode": "83320-230"
    },
    {
        "city": "Pinhais",
        "state": "PR",
        "district": "Pineville",
        "street": "Rua Tunísia",
        "zipcode": "83320-250"
    },
    {
        "city": "Pinhais",
        "state": "PR",
        "district": "Centro",
        "street": "Rua Zâmbia",
        "zipcode": "83320-290"
    },
    {
        "city": "Pinhais",
        "state": "PR",
        "district": "Centro",
        "street": "Rua Cuba",
        "zipcode": "83320-530"
    },
    {
        "city": "Pinhais",
        "state": "PR",
        "district": "Pineville",
        "street": "Rua Paulo Roberto Cordeiro",
        "zipcode": "83320-610"
    },
    {
        "city": "Pinhais",
        "state": "PR",
        "district": "Pineville",
        "street": "Rua Costa Rica",
        "zipcode": "83320-080"
    },
    {
        "city": "Pinhais",
        "state": "PR",
        "district": "Pineville",
        "street": "Rua Egito",
        "zipcode": "83320-010"
    },
    {
        "city": "Pinhais",
        "state": "PR",
        "district": "Alto Tarumã",
        "street": "Rua Colorado",
        "zipcode": "83325-400"
    },
    {
        "city": "Pinhais",
        "state": "PR",
        "district": "Jardim Karla",
        "street": "Rua Álamo",
        "zipcode": "83328-100"
    },
    {
        "city": "Pinhais",
        "state": "PR",
        "district": "Pineville",
        "street": "Rodovia João Leopoldo Jacomel",
        "zipcode": "83320-005"
    },
    {
        "city": "Pinhais",
        "state": "PR",
        "district": "Pineville",
        "street": "Rua Marrocos",
        "zipcode": "83320-060"
    },
    {
        "city": "Pinhais",
        "state": "PR",
        "district": "Pineville",
        "street": "Rua Nagib Moussi Fatouch",
        "zipcode": "83320-240"
    },
    {
        "city": "Pinhais",
        "state": "PR",
        "district": "Pineville",
        "street": "Rua Nigéria",
        "zipcode": "83320-050"
    },
    {
        "city": "Pinhais",
        "state": "PR",
        "district": "Centro",
        "street": "Rua Tanzânia",
        "zipcode": "83323-420"
    },
    {
        "city": "Pinhais",
        "state": "PR",
        "district": "Pineville",
        "street": "Rua Sudão",
        "zipcode": "83320-030"
    },
    {
        "city": "Pinhais",
        "state": "PR",
        "district": "Pineville",
        "street": "Rua Uganda",
        "zipcode": "83320-120"
    },
    {
        "city": "Pinhais",
        "state": "PR",
        "district": "Weissópolis",
        "street": "Rua Rio Guaratuba",
        "zipcode": "83322-430"
    },
    {
        "city": "Pinhais",
        "state": "PR",
        "district": "Pineville",
        "street": "Rua Guiné",
        "zipcode": "83320-040"
    },
    {
        "city": "Pinhais",
        "state": "PR",
        "district": "Jardim Amélia",
        "street": "Rua Epitácio Pessoa",
        "zipcode": "83330-090"
    },
    {
        "city": "Pinhais",
        "state": "PR",
        "district": "Jardim Karla",
        "street": "Rua Crisciúma",
        "zipcode": "83328-180"
    },
    {
        "city": "Pinhais",
        "state": "PR",
        "district": "Atuba",
        "street": "Rua Silvino Sala",
        "zipcode": "83326-713"
    },
    {
        "city": "Pinhais",
        "state": "PR",
        "district": "Centro",
        "street": "Rua João Rodrigues de Oliveira",
        "zipcode": "83324-150"
    },
    {
        "city": "Pinhais",
        "state": "PR",
        "district": "Emiliano Perneta",
        "street": "Rua Santo Inácio",
        "zipcode": "83324-193"
    },
    {
        "city": "Pinhais",
        "state": "PR",
        "district": "Centro",
        "street": "Rua Santa Helena",
        "zipcode": "83324-220"
    },
    {
        "city": "Pinhais",
        "state": "PR",
        "district": "Emiliano Perneta",
        "street": "Rua Terra Boa",
        "zipcode": "83324-223"
    },
    {
        "city": "Pinhais",
        "state": "PR",
        "district": "Centro",
        "street": "Rua Santa Fé",
        "zipcode": "83324-230"
    },
    {
        "city": "Pinhais",
        "state": "PR",
        "district": "Emiliano Perneta",
        "street": "Rua Realeza",
        "zipcode": "83324-260"
    },
    {
        "city": "Pinhais",
        "state": "PR",
        "district": "Emiliano Perneta",
        "street": "Rua Santa Inês",
        "zipcode": "83324-290"
    },
    {
        "city": "Pinhais",
        "state": "PR",
        "district": "Emiliano Perneta",
        "street": "Rua Santa Fé",
        "zipcode": "83324-327"
    },
    {
        "city": "Pinhais",
        "state": "PR",
        "district": "Emiliano Perneta",
        "street": "Rua Paranacity",
        "zipcode": "83324-370"
    },
    {
        "city": "Pinhais",
        "state": "PR",
        "district": "Emiliano Perneta",
        "street": "Rua Sertaneja",
        "zipcode": "83324-360"
    },
    {
        "city": "Pinhais",
        "state": "PR",
        "district": "Emiliano Perneta",
        "street": "Rua Mandaguari",
        "zipcode": "83324-410"
    },
    {
        "city": "Pinhais",
        "state": "PR",
        "district": "Pineville",
        "street": "Rua Ary Lopes",
        "zipcode": "83325-587"
    },
    {
        "city": "Pinhais",
        "state": "PR",
        "district": "Pineville",
        "street": "Rua Esmalta Isabel de Camargo",
        "zipcode": "83325-588"
    },
    {
        "city": "Pinhais",
        "state": "PR",
        "district": "Alto Tarumã",
        "street": "Rua Clementino Martins",
        "zipcode": "83325-605"
    },
    {
        "city": "Pinhais",
        "state": "PR",
        "district": "Alto Tarumã",
        "street": "Rua José Barros da Rocha",
        "zipcode": "83325-608"
    },
    {
        "city": "Pinhais",
        "state": "PR",
        "district": "Alto Tarumã",
        "street": "Rua Maria Gonçalves Garcia",
        "zipcode": "83325-620"
    },
    {
        "city": "Pinhais",
        "state": "PR",
        "district": "Alto Tarumã",
        "street": "Rua Durval Bordignon",
        "zipcode": "83325-635"
    },
    {
        "city": "Pinhais",
        "state": "PR",
        "district": "Emiliano Perneta",
        "street": "Rua Palotina",
        "zipcode": "83326-040"
    },
    {
        "city": "Pinhais",
        "state": "PR",
        "district": "Atuba",
        "street": "Rua Antônio Kowalczuck",
        "zipcode": "83326-090"
    },
    {
        "city": "Pinhais",
        "state": "PR",
        "district": "Emiliano Perneta",
        "street": "Avenida Jacob Macanhan",
        "zipcode": "83324-192"
    },
    {
        "city": "Pinhais",
        "state": "PR",
        "district": "Emiliano Perneta",
        "street": "Rua Paraíso do Norte",
        "zipcode": "83324-221"
    },
    {
        "city": "Pinhais",
        "state": "PR",
        "district": "Pineville",
        "street": "Rua Antônio Cordeiro",
        "zipcode": "83325-586"
    },
    {
        "city": "Pinhais",
        "state": "PR",
        "district": "Alto Tarumã",
        "street": "Rua Justina Marques dos Santos",
        "zipcode": "83325-618"
    },
    {
        "city": "Pinhais",
        "state": "PR",
        "district": "Atuba",
        "street": "Rua Alto Paraná",
        "zipcode": "83326-135"
    },
    {
        "city": "Pinhais",
        "state": "PR",
        "district": "Jardim Cláudia",
        "street": "Rua Alzira Rodrigues da Silva",
        "zipcode": "83326-546"
    },
    {
        "city": "Pinhais",
        "state": "PR",
        "district": "Jardim Cláudia",
        "street": "Rua Gélcio Gonçalves",
        "zipcode": "83326-548"
    },
    {
        "city": "Pinhais",
        "state": "PR",
        "district": "Jardim Cláudia",
        "street": "Rua Henrique Muhlmann",
        "zipcode": "83326-600"
    },
    {
        "city": "Pinhais",
        "state": "PR",
        "district": "Jardim Cláudia",
        "street": "Rua Aroldo Camargo de Araújo",
        "zipcode": "83326-640"
    },
    {
        "city": "Pinhais",
        "state": "PR",
        "district": "Pineville",
        "street": "Rua Wenceslau Forlepa",
        "zipcode": "83325-597"
    },
    {
        "city": "Pinhais",
        "state": "PR",
        "district": "Alto Tarumã",
        "street": "Rua Reinaldo José Miranda",
        "zipcode": "83325-625"
    },
    {
        "city": "Pinhais",
        "state": "PR",
        "district": "Emiliano Perneta",
        "street": "Rua Vanderlei Amaral Alves",
        "zipcode": "83324-284"
    },
    {
        "city": "Pinhais",
        "state": "PR",
        "district": "Jardim Cláudia",
        "street": "Rua Sebastiana Camargo de Araújo",
        "zipcode": "83326-570"
    },
    {
        "city": "Pinhais",
        "state": "PR",
        "district": "Atuba",
        "street": "Estrada da Graciosa",
        "zipcode": "83326-670"
    },
    {
        "city": "Pinhais",
        "state": "PR",
        "district": "Atuba",
        "street": "Rua Manoel Lucas Evangelista Neto",
        "zipcode": "83326-690"
    },
    {
        "city": "Pinhais",
        "state": "PR",
        "district": "Atuba",
        "street": "Rua Manoel Gonçalves Pires",
        "zipcode": "83326-712"
    },
    {
        "city": "Pinhais",
        "state": "PR",
        "district": "Parque das Nascentes",
        "street": "Rua Henrique Moreira da Luz",
        "zipcode": "83327-030"
    },
    {
        "city": "Pinhais",
        "state": "PR",
        "district": "Parque das Nascentes",
        "street": "Rua Ademilson Neves de Abreu",
        "zipcode": "83327-050"
    },
    {
        "city": "Pinhais",
        "state": "PR",
        "district": "Jardim Karla",
        "street": "Rua Leandro Cipriani",
        "zipcode": "83328-490"
    },
    {
        "city": "Pinhais",
        "state": "PR",
        "district": "Jardim Amélia",
        "street": "Rua Juscelino Kubitschek",
        "zipcode": "83330-020"
    },
    {
        "city": "Pinhais",
        "state": "PR",
        "district": "Jardim Amélia",
        "street": "Rua Gaspar Dutra",
        "zipcode": "83330-050"
    },
    {
        "city": "Pinhais",
        "state": "PR",
        "district": "Jardim Amélia",
        "street": "Rua Arthur Bernardes",
        "zipcode": "83330-080"
    },
    {
        "city": "Pinhais",
        "state": "PR",
        "district": "Jardim Amélia",
        "street": "Rua Marechal Deodoro",
        "zipcode": "83330-140"
    },
    {
        "city": "Pinhais",
        "state": "PR",
        "district": "Jardim Amélia",
        "street": "Rua Nilo Peçanha",
        "zipcode": "83330-170"
    },
    {
        "city": "Pinhais",
        "state": "PR",
        "district": "Jardim Amélia",
        "street": "Rua Humberto de Alencar Castello Branco",
        "zipcode": "83330-200"
    },
    {
        "city": "Pinhais",
        "state": "PR",
        "district": "Jardim Amélia",
        "street": "Rua Antônio Manoel Martins",
        "zipcode": "83330-320"
    },
    {
        "city": "Pinhais",
        "state": "PR",
        "district": "Alto Tarumã",
        "street": "Rua Cascavel",
        "zipcode": "83325-240"
    },
    {
        "city": "Pinhais",
        "state": "PR",
        "district": "Emiliano Perneta",
        "street": "Rua Emma Rohrsetzer",
        "zipcode": "83324-190"
    },
    {
        "city": "Pinhais",
        "state": "PR",
        "district": "Centro",
        "street": "Rua Renascença",
        "zipcode": "83324-250"
    },
    {
        "city": "Pinhais",
        "state": "PR",
        "district": "Pineville",
        "street": "Rua Vereador Claudinez Reginaldo",
        "zipcode": "83325-592"
    },
    {
        "city": "Pinhais",
        "state": "PR",
        "district": "Pineville",
        "street": "Rua Sérgio Dubinski",
        "zipcode": "83325-595"
    },
    {
        "city": "Pinhais",
        "state": "PR",
        "district": "Alto Tarumã",
        "street": "Rua Arcelino Ferreira",
        "zipcode": "83325-600"
    },
    {
        "city": "Pinhais",
        "state": "PR",
        "district": "Atuba",
        "street": "Rua João Tissot",
        "zipcode": "83326-100"
    },
    {
        "city": "Pinhais",
        "state": "PR",
        "district": "Jardim Cláudia",
        "street": "Rua Crescêncio Batista",
        "zipcode": "83326-552"
    },
    {
        "city": "Pinhais",
        "state": "PR",
        "district": "Jardim Cláudia",
        "street": "Rua Alois Ervino Krelling",
        "zipcode": "83326-620"
    },
    {
        "city": "Pinhais",
        "state": "PR",
        "district": "Parque das Nascentes",
        "street": "Estrada da Graciosa",
        "zipcode": "83327-055"
    },
    {
        "city": "Pinhais",
        "state": "PR",
        "district": "Alphaville Graciosa",
        "street": "Rua Rio Cristal",
        "zipcode": "83327-065"
    },
    {
        "city": "Pinhais",
        "state": "PR",
        "district": "Parque das Nascentes",
        "street": "Rua Fábio Vicente de Moura",
        "zipcode": "83329-064"
    },
    {
        "city": "Pinhais",
        "state": "PR",
        "district": "Jardim Amélia",
        "street": "Rua João Arantes Neto",
        "zipcode": "83330-240"
    },
    {
        "city": "Pinhais",
        "state": "PR",
        "district": "Jardim Amélia",
        "street": "Rua Manoel Alher",
        "zipcode": "83330-290"
    },
    {
        "city": "Pinhais",
        "state": "PR",
        "district": "Jardim Amélia",
        "street": "Rua José de Oliveira",
        "zipcode": "83330-340"
    },
    {
        "city": "Pinhais",
        "state": "PR",
        "district": "Atuba",
        "street": "Rua Antônio Taborda Ribas",
        "zipcode": "83326-705"
    },
    {
        "city": "Pinhais",
        "state": "PR",
        "district": "Atuba",
        "street": "Rua Júlio Colaço",
        "zipcode": "83326-717"
    },
    {
        "city": "Pinhais",
        "state": "PR",
        "district": "Parque das Nascentes",
        "street": "Rua Ulda Pereira da Silva",
        "zipcode": "83327-010"
    },
    {
        "city": "Pinhais",
        "state": "PR",
        "district": "Parque das Nascentes",
        "street": "Estrada Ecológica de Pinhais",
        "zipcode": "83327-060"
    },
    {
        "city": "Pinhais",
        "state": "PR",
        "district": "Jardim Amélia",
        "street": "Rua João Goulart",
        "zipcode": "83330-165"
    },
    {
        "city": "Pinhais",
        "state": "PR",
        "district": "Jardim Amélia",
        "street": "Rodovia João Leopoldo Jacomel",
        "zipcode": "83330-167"
    },
    {
        "city": "Pinhais",
        "state": "PR",
        "district": "Jardim Amélia",
        "street": "Rua Vereador Antônio Romeu Simoni",
        "zipcode": "83330-210"
    },
    {
        "city": "Pinhais",
        "state": "PR",
        "district": "Jardim Amélia",
        "street": "Rua Aristides Evangelista",
        "zipcode": "83330-235"
    },
    {
        "city": "Pinhais",
        "state": "PR",
        "district": "Pineville",
        "street": "Rua Hermes Barvik",
        "zipcode": "83320-138"
    },
    {
        "city": "Pinhais",
        "state": "PR",
        "district": "Jardim Amélia",
        "street": "Rua Salgado Filho",
        "zipcode": "83330-972"
    },
    {
        "city": "Pinhais",
        "state": "PR",
        "district": "",
        "street": "Rua Ruth Ferreira Amend",
        "zipcode": "83325-991"
    },
    {
        "city": "Pinhais",
        "state": "PR",
        "district": "Alto Tarumã",
        "street": "Rua Otto Fridolin Baumle",
        "zipcode": "83325-544"
    },
    {
        "city": "Pinhais",
        "state": "PR",
        "district": "Vargem Grande",
        "street": "Avenida Iraí",
        "zipcode": "83321-009"
    },
    {
        "city": "Pinhais",
        "state": "PR",
        "district": "Emiliano Perneta",
        "street": "Rua Carlos Cândido de Oliveira",
        "zipcode": "83324-434"
    },
    {
        "city": "Pinhais",
        "state": "PR",
        "district": "Jardim Karla",
        "street": "Rua Açucena",
        "zipcode": "83328-120"
    },
    {
        "city": "Pinhais",
        "state": "PR",
        "district": "Jardim Cláudia",
        "street": "Rua Afonso Muhlmann",
        "zipcode": "83326-520"
    },
    {
        "city": "Pinhais",
        "state": "PR",
        "district": "Centro",
        "street": "Rua África",
        "zipcode": "83323-320"
    },
    {
        "city": "Pinhais",
        "state": "PR",
        "district": "Jardim Karla",
        "street": "Rua Alamanda",
        "zipcode": "83328-130"
    },
    {
        "city": "Pinhais",
        "state": "PR",
        "district": "Emiliano Perneta",
        "street": "Rua Andirá",
        "zipcode": "83325-065"
    },
    {
        "city": "Pinhais",
        "state": "PR",
        "district": "Pineville",
        "street": "Rua Argélia",
        "zipcode": "83320-110"
    },
    {
        "city": "Pinhais",
        "state": "PR",
        "district": "Estância Pinhais",
        "street": "Avenida Ayrton Senna da Silva",
        "zipcode": "83323-092"
    },
    {
        "city": "Pinhais",
        "state": "PR",
        "district": "Maria Antonieta",
        "street": "Rua Augusta Santos Andrade",
        "zipcode": "83331-060"
    },
    {
        "city": "Pinhais",
        "state": "PR",
        "district": "Pineville",
        "street": "Rua Bolsão dos bem",
        "zipcode": "83320-430"
    },
    {
        "city": "Pinhais",
        "state": "PR",
        "district": "Centro",
        "street": "Avenida Camilo di Lellis",
        "zipcode": "83323-000"
    },
    {
        "city": "Pinhais",
        "state": "PR",
        "district": "Jardim Karla",
        "street": "Rua das Avencas",
        "zipcode": "83328-000"
    },
    {
        "city": "Pinhais",
        "state": "PR",
        "district": "Pineville",
        "street": "Avenida Ayrton Senna da Silva",
        "zipcode": "83320-070"
    },
    {
        "city": "Pinhais",
        "state": "PR",
        "district": "Atuba",
        "street": "Rua Engenheiro Silvio Teixeira Pinto",
        "zipcode": "83326-210"
    },
    {
        "city": "Pinhais",
        "state": "PR",
        "district": "Atuba",
        "street": "Rua Euclides da Cunha Ribas",
        "zipcode": "83326-170"
    },
    {
        "city": "Pinhais",
        "state": "PR",
        "district": "Pineville",
        "street": "Rua Bolsão dos Tucanos",
        "zipcode": "83320-440"
    },
    {
        "city": "Pinhais",
        "state": "PR",
        "district": "Jardim Karla",
        "street": "Rua Caliandra",
        "zipcode": "83328-150"
    },
    {
        "city": "Pinhais",
        "state": "PR",
        "district": "Maria Antonieta",
        "street": "Rua Dona Hermínia Lupion",
        "zipcode": "83331-230"
    },
    {
        "city": "Pinhais",
        "state": "PR",
        "district": "Pineville",
        "street": "Rua Mário Marques Guimarães",
        "zipcode": "83320-600"
    },
    {
        "city": "Pinhais",
        "state": "PR",
        "district": "Emiliano Perneta",
        "street": "Rua Moreira Sales",
        "zipcode": "83325-010"
    },
    {
        "city": "Pinhais",
        "state": "PR",
        "district": "Jardim Karla",
        "street": "Rua dos Pinheiros",
        "zipcode": "83328-370"
    },
    {
        "city": "Pinhais",
        "state": "PR",
        "district": "Weissópolis",
        "street": "Rua Rio Iguaçu",
        "zipcode": "83322-160"
    },
    {
        "city": "Pinhais",
        "state": "PR",
        "district": "Maria Antonieta",
        "street": "Rua Rafael Percicotti",
        "zipcode": "83331-250"
    },
    {
        "city": "Pinhais",
        "state": "PR",
        "district": "Weissópolis",
        "street": "Rua Rio São Luiz",
        "zipcode": "83322-190"
    },
    {
        "city": "Pinhais",
        "state": "PR",
        "district": "Centro",
        "street": "Rua Salgado Filho",
        "zipcode": "83324-010"
    },
    {
        "city": "Pinhais",
        "state": "PR",
        "district": "Jardim Karla",
        "street": "Rua das Seringueiras",
        "zipcode": "83328-080"
    },
    {
        "city": "Pinhais",
        "state": "PR",
        "district": "Jardim Cláudia",
        "street": "Rua Tiziu",
        "zipcode": "83326-480"
    },
    {
        "city": "Pinhais",
        "state": "PR",
        "district": "Emiliano Perneta",
        "street": "Rua Nova Esperança",
        "zipcode": "83325-025"
    },
    {
        "city": "Pinhais",
        "state": "PR",
        "district": "Weissópolis",
        "street": "Rua Rio Pinhão",
        "zipcode": "83322-025"
    },
    {
        "city": "Pinhais",
        "state": "PR",
        "district": "Alto Tarumã",
        "street": "Avenida Porto Alegre",
        "zipcode": "83325-470"
    },
    {
        "city": "Pinhais",
        "state": "PR",
        "district": "Alphaville Graciosa",
        "street": "Rua Grajaú",
        "zipcode": "83327-088"
    },
    {
        "city": "Pinhais",
        "state": "PR",
        "district": "Alphaville Graciosa",
        "street": "Rua das Tilápias",
        "zipcode": "83327-096"
    },
    {
        "city": "Pinhais",
        "state": "PR",
        "district": "Alphaville Graciosa",
        "street": "Rua Tambaquis",
        "zipcode": "83327-109"
    },
    {
        "city": "Pinhais",
        "state": "PR",
        "district": "Alphaville Graciosa",
        "street": "Rua dos Carvalhos",
        "zipcode": "83327-119"
    },
    {
        "city": "Pinhais",
        "state": "PR",
        "district": "Weissópolis",
        "street": "Rua Idalina dos Anjos Santos",
        "zipcode": "83322-095"
    },
    {
        "city": "Pinhais",
        "state": "PR",
        "district": "Alphaville Graciosa",
        "street": "Rua dos Araças",
        "zipcode": "83327-118"
    },
    {
        "city": "Pinhais",
        "state": "PR",
        "district": "Alphaville Graciosa",
        "street": "Rua dos Jacarandás",
        "zipcode": "83327-130"
    },
    {
        "city": "Pinhais",
        "state": "PR",
        "district": "Alphaville Graciosa",
        "street": "Rua das Garças",
        "zipcode": "83327-149"
    },
    {
        "city": "Pinhais",
        "state": "PR",
        "district": "Alphaville Graciosa",
        "street": "Avenida Alphaville",
        "zipcode": "83327-170"
    },
    {
        "city": "Pinhais",
        "state": "PR",
        "district": "Alphaville Graciosa",
        "street": "Avenida Bandeirantes",
        "zipcode": "83327-180"
    },
    {
        "city": "Pinhais",
        "state": "PR",
        "district": "Alphaville Graciosa",
        "street": "Rua das Perdizes",
        "zipcode": "83327-147"
    },
    {
        "city": "Pinhais",
        "state": "PR",
        "district": "Jardim Amélia",
        "street": "Rua Olintho Fernandes",
        "zipcode": "83330-350"
    },
    {
        "city": "Pinhais",
        "state": "PR",
        "district": "Weissópolis",
        "street": "Avenida Iraí",
        "zipcode": "83321-000"
    },
    {
        "city": "Pinhais",
        "state": "PR",
        "district": "Centro",
        "street": "Rua Frei Egídio Carloto",
        "zipcode": "83323-235"
    },
    {
        "city": "Pinhais",
        "state": "PR",
        "district": "Capoeira Grande",
        "street": "Rua Particular",
        "zipcode": "83329-010"
    },
    {
        "city": "Pinhais",
        "state": "PR",
        "district": "Guilherme Weiss",
        "street": "Rua Sao Jose",
        "zipcode": "83322-080"
    },
    {
        "city": "Pinhais",
        "state": "PR",
        "district": "Planta Karla",
        "street": "Rua Ipe",
        "zipcode": "83328-590"
    },
    {
        "city": "Pinhais",
        "state": "PR",
        "district": "Chacaras Atuba",
        "street": "Rua Porto Rico",
        "zipcode": "83325-090"
    },
    {
        "city": "Pinhais",
        "state": "PR",
        "district": "Chacaras Atuba",
        "street": "Rua Palotina",
        "zipcode": "83325-080"
    },
    {
        "city": "Pinhais",
        "state": "PR",
        "district": "Planta Walde Rosi Galvao",
        "street": "Rua Azaleias",
        "zipcode": "83328-570"
    },
    {
        "city": "Pinhais",
        "state": "PR",
        "district": "Jardim Dona Joaquina Ii",
        "street": "Rua Assai",
        "zipcode": "83325-410"
    },
    {
        "city": "Pinhais",
        "state": "PR",
        "district": "Planta Karla",
        "street": "Rua Das Laranjeiras",
        "zipcode": "83328-620"
    },
    {
        "city": "Pinhais",
        "state": "PR",
        "district": "Capoeira Grande",
        "street": "Alameda Dos Bosques",
        "zipcode": "83329-000"
    },
    {
        "city": "Pinhais",
        "state": "PR",
        "district": "Planta Walde Rosi Galvao",
        "street": "Rua Gramona",
        "zipcode": "83328-560"
    },
    {
        "city": "Pinhais",
        "state": "PR",
        "district": "Planta Karla",
        "street": "Rua Flor",
        "zipcode": "83328-630"
    },
    {
        "city": "Pinhais",
        "state": "PR",
        "district": "Planta Karla",
        "street": "Avenida Das Flores",
        "zipcode": "83328-580"
    },
    {
        "city": "Pinhais",
        "state": "PR",
        "district": "Weissópolis",
        "street": "Travessa Rio Doce",
        "zipcode": "83322-343"
    },
    {
        "city": "Pinhais",
        "state": "PR",
        "district": "Emiliano Perneta",
        "street": "Rua das Palmeiras",
        "zipcode": "83325-165"
    },
    {
        "city": "Pinhais",
        "state": "PR",
        "district": "Pineville",
        "street": "Rua José Chaves de Andrade",
        "zipcode": "83320-612"
    },
    {
        "city": "Pinhais",
        "state": "PR",
        "district": "Estância Pinhais",
        "street": "Rua Wanda dos Santos Mallmann",
        "zipcode": "83323-123"
    },
    {
        "city": "Pinhais",
        "state": "PR",
        "district": "Centro",
        "street": "Avenida Ayrton Senna da Silva",
        "zipcode": "83320-162"
    },
    {
        "city": "Pinhais",
        "state": "PR",
        "district": "Jardim Cláudia",
        "street": "Estrada da Graciosa",
        "zipcode": "83326-532"
    },
    {
        "city": "Pinhais",
        "state": "PR",
        "district": "Atuba",
        "street": "Avenida Jacob Macanhan",
        "zipcode": "83326-152"
    },
    {
        "city": "Pinhais",
        "state": "PR",
        "district": "Estância Pinhais",
        "street": "Rua Quinze de Novembro",
        "zipcode": "83323-212"
    },
    {
        "city": "Pinhais",
        "state": "PR",
        "district": "Centro",
        "street": "Avenida Nossa Senhora da Boa Esperança",
        "zipcode": "83323-232"
    },
    {
        "city": "Pinhais",
        "state": "PR",
        "district": "Emiliano Perneta",
        "street": "Rodovia João Leopoldo Jacomel",
        "zipcode": "83324-292"
    },
    {
        "city": "Pinhais",
        "state": "PR",
        "district": "Jardim Cláudia",
        "street": "Rua Luiz Vasselai",
        "zipcode": "83326-560"
    },
    {
        "city": "Pinhais",
        "state": "PR",
        "district": "Alphaville Graciosa",
        "street": "Estrada Ecológica de Pinhais",
        "zipcode": "83327-069"
    },
    {
        "city": "Pinhais",
        "state": "PR",
        "district": "Parque das Nascentes",
        "street": "Rua Fábio Vicente de Moura",
        "zipcode": "83329-032"
    },
    {
        "city": "Pinhais",
        "state": "PR",
        "district": "Jardim Amélia",
        "street": "Rua Eliza Mendes Saraiva",
        "zipcode": "83330-280"
    },
    {
        "city": "Pinhais",
        "state": "PR",
        "district": "Jardim Karla",
        "street": "Estrada Ecológica de Pinhais",
        "zipcode": "83328-500"
    },
    {
        "city": "Pinhais",
        "state": "PR",
        "district": "Pineville",
        "street": "Rua Salgado Filho",
        "zipcode": "83320-971"
    },
    {
        "city": "Pinhais",
        "state": "PR",
        "district": "Área Rural de Pinhais",
        "street": "Área Rural",
        "zipcode": "83349-899"
    },
    {
        "city": "Pinhais",
        "state": "PR",
        "district": "Planta Walde Rosi Galvao",
        "street": "Rua Das Hortensias",
        "zipcode": "83328-550"
    },
    {
        "city": "Pinhais",
        "state": "PR",
        "district": "Planta Karla",
        "street": "Rua Pau",
        "zipcode": "83328-660"
    },
    {
        "city": "Pinhais",
        "state": "PR",
        "district": "Vila Amelia",
        "street": "Conjunto Prive Bois De Boulogne",
        "zipcode": "83330-205"
    },
    {
        "city": "Pinhais",
        "state": "PR",
        "district": "Vale Da Boa Esperanca",
        "street": "Rua Paulo Roberto Cordeiro",
        "zipcode": "83320-601"
    },
    {
        "city": "Pinhais",
        "state": "PR",
        "district": "Vila Amelia",
        "street": "Rua Rodrigues Alves",
        "zipcode": "83331-300"
    },
    {
        "city": "Pinhais",
        "state": "PR",
        "district": "Jardim Boa Vista",
        "street": "Estrada Ecologica",
        "zipcode": "83329-020"
    },
    {
        "city": "Pinhais",
        "state": "PR",
        "district": "Planta Karla",
        "street": "Rua Pau",
        "zipcode": "83328-650"
    },
    {
        "city": "Pinhais",
        "state": "PR",
        "district": "Vila Maria Antonieta",
        "street": "Avenida Ayrton Senna Da Silva",
        "zipcode": "83331-390"
    },
    {
        "city": "Pinhais",
        "state": "PR",
        "district": "Jardim Karla",
        "street": "Rua Osvaldina Camargo Grescki",
        "zipcode": "83328-472"
    },
    {
        "city": "Pinhais",
        "state": "PR",
        "district": "Conj Residencial Graciosa",
        "street": "Rua Flor",
        "zipcode": "83328-050"
    },
    {
        "city": "Pinhais",
        "state": "PR",
        "district": "Jardim Pio Xii",
        "street": "Estrada Ecologica",
        "zipcode": "83328-700"
    },
    {
        "city": "Pinhais",
        "state": "PR",
        "district": "Planta Karla",
        "street": "Rua Das Rosas",
        "zipcode": "83328-610"
    },
    {
        "city": "Pinhais",
        "state": "PR",
        "district": "Conj Residencial Graciosa",
        "street": "Rua Dos Lirios",
        "zipcode": "83328-040"
    },
    {
        "city": "Pinhais",
        "state": "PR",
        "district": "Jardim Karla",
        "street": "Rua Irlandino Pereira Benevides",
        "zipcode": "83328-470"
    },
    {
        "city": "Pinhais",
        "state": "PR",
        "district": "Planta Claudio Mehl",
        "street": "Rua Henrique Mehl",
        "zipcode": "83326-290"
    },
    {
        "city": "Pinhais",
        "state": "PR",
        "district": "Planta Karla",
        "street": "Rua Das Acacias",
        "zipcode": "83328-680"
    },
    {
        "city": "Pinhais",
        "state": "PR",
        "district": "Vila Indiacui",
        "street": "Rua Jaguari",
        "zipcode": "83330-190"
    },
    {
        "city": "Pinhais",
        "state": "PR",
        "district": "Planta Walde Rosi Galvao",
        "street": "Rua Alecrim",
        "zipcode": "83328-520"
    },
    {
        "city": "Pinhais",
        "state": "PR",
        "district": "Planta Karla",
        "street": "Rua Palmital",
        "zipcode": "83328-600"
    },
    {
        "city": "Pinhais",
        "state": "PR",
        "district": "Weissópolis",
        "street": "Travessa Rio Nilo",
        "zipcode": "83322-345"
    },
    {
        "city": "Pinhais",
        "state": "PR",
        "district": "Jardim Nossa Senhora Do Sion",
        "street": "Rua Gustavo Gorcao",
        "zipcode": "83328-690"
    }
]