[
    {
        "city": "Piraquara",
        "state": "PR",
        "district": "Parque das Araucárias",
        "street": "Rua Albary da Silva França",
        "zipcode": "83311-704"
    },
    {
        "city": "Piraquara",
        "state": "PR",
        "district": "Guarituba",
        "street": "Rua Joaquim Pereira",
        "zipcode": "83310-496"
    },
    {
        "city": "Piraquara",
        "state": "PR",
        "district": "Vila Militar I",
        "street": "Rua Manoel Pereira Soares Maciel",
        "zipcode": "83303-208"
    },
    {
        "city": "Piraquara",
        "state": "PR",
        "district": "Vila Militar I",
        "street": "Rua Pascoaflor Exaltação de Oliveira",
        "zipcode": "83303-192"
    },
    {
        "city": "Piraquara",
        "state": "PR",
        "district": "Colônia Santa Maria",
        "street": "Rua Nova Tirol",
        "zipcode": "83307-440"
    },
    {
        "city": "Piraquara",
        "state": "PR",
        "district": "Planta Deodoro",
        "street": "Rua Gercino Proença de Lima",
        "zipcode": "83304-352"
    },
    {
        "city": "Piraquara",
        "state": "PR",
        "district": "Jardim Maria Alice",
        "street": "Rua Camilo Barcelos",
        "zipcode": "83306-442"
    },
    {
        "city": "Piraquara",
        "state": "PR",
        "district": "Planta Vila Iraí",
        "street": "Rua Jean Pierre Nazorek",
        "zipcode": "83302-328"
    },
    {
        "city": "Piraquara",
        "state": "PR",
        "district": "Vila Fuck",
        "street": "Rua Hilton Ribeiro Dos Santos",
        "zipcode": "83305-248"
    },
    {
        "city": "Piraquara",
        "state": "PR",
        "district": "Guarituba",
        "street": "Rua Estelina Nunes de Campos",
        "zipcode": "83311-151"
    },
    {
        "city": "Piraquara",
        "state": "PR",
        "district": "Jardim Santa Helena",
        "street": "Rua Aracy Richter Cavalheiro",
        "zipcode": "83308-491"
    },
    {
        "city": "Piraquara",
        "state": "PR",
        "district": "Marmeleiro",
        "street": "Rua Francisco Alves Cordeiro Filho",
        "zipcode": "83304-500"
    },
    {
        "city": "Piraquara",
        "state": "PR",
        "district": "Jardim Santa Helena",
        "street": "Rua Dorival Wandembruck",
        "zipcode": "83308-493"
    },
    {
        "city": "Piraquara",
        "state": "PR",
        "district": "Guarituba",
        "street": "Rua Ângelo Prigol",
        "zipcode": "83310-508"
    },
    {
        "city": "Piraquara",
        "state": "PR",
        "district": "Parque das Araucárias",
        "street": "Rua Generosa de Souza Correia",
        "zipcode": "83311-706"
    },
    {
        "city": "Piraquara",
        "state": "PR",
        "district": "Guarituba",
        "street": "Rua Esthel da Silva Dovhepoly",
        "zipcode": "83310-480"
    },
    {
        "city": "Piraquara",
        "state": "PR",
        "district": "Planta Laranjeiras",
        "street": "Rua Anselmo Jonas Valenga Pissaia",
        "zipcode": "83307-284"
    },
    {
        "city": "Piraquara",
        "state": "PR",
        "district": "Guarituba",
        "street": "Rua das Violetas",
        "zipcode": "83310-206"
    },
    {
        "city": "Piraquara",
        "state": "PR",
        "district": "Jardim Maria Alice",
        "street": "Rua Oscar Werner Beller",
        "zipcode": "83306-444"
    },
    {
        "city": "Piraquara",
        "state": "PR",
        "district": "Cayva",
        "street": "Rua José Erasmo Storniolo",
        "zipcode": "83304-450"
    },
    {
        "city": "Piraquara",
        "state": "PR",
        "district": "Guarituba",
        "street": "Rua Panamá",
        "zipcode": "83311-458"
    },
    {
        "city": "Piraquara",
        "state": "PR",
        "district": "Guarituba",
        "street": "Rua Guatemala",
        "zipcode": "83311-452"
    },
    {
        "city": "Piraquara",
        "state": "PR",
        "district": "Vila Dalila",
        "street": "Rua Guarani",
        "zipcode": "83303-090"
    },
    {
        "city": "Piraquara",
        "state": "PR",
        "district": "Jardim dos Estados 2",
        "street": "Rua Paraná",
        "zipcode": "83308-030"
    },
    {
        "city": "Piraquara",
        "state": "PR",
        "district": "Vila Franca",
        "street": "Rua Elpídio Scheved",
        "zipcode": "83305-070"
    },
    {
        "city": "Piraquara",
        "state": "PR",
        "district": "Guarituba",
        "street": "Rua Armandus Otto Grosch",
        "zipcode": "83311-156"
    },
    {
        "city": "Piraquara",
        "state": "PR",
        "district": "Vila Rosa",
        "street": "Rua Bernardo Michel",
        "zipcode": "83304-000"
    },
    {
        "city": "Piraquara",
        "state": "PR",
        "district": "Guarituba",
        "street": "Rua Costa Rica",
        "zipcode": "83311-512"
    },
    {
        "city": "Piraquara",
        "state": "PR",
        "district": "Guarituba",
        "street": "Rua Paraguai",
        "zipcode": "83311-503"
    },
    {
        "city": "Piraquara",
        "state": "PR",
        "district": "Jardim Santa Helena",
        "street": "Rua Benedita Maria Antônio de Souza",
        "zipcode": "83308-496"
    },
    {
        "city": "Piraquara",
        "state": "PR",
        "district": "Guarituba",
        "street": "Rua Peru",
        "zipcode": "83311-506"
    },
    {
        "city": "Piraquara",
        "state": "PR",
        "district": "Guarituba",
        "street": "Rua Alto Paraíba",
        "zipcode": "83314-090"
    },
    {
        "city": "Piraquara",
        "state": "PR",
        "district": "Guarituba",
        "street": "Rua André Struginski",
        "zipcode": "83312-102"
    },
    {
        "city": "Piraquara",
        "state": "PR",
        "district": "Centro",
        "street": "Rua Ângelo Gali",
        "zipcode": "83301-015"
    },
    {
        "city": "Piraquara",
        "state": "PR",
        "district": "Guarituba",
        "street": "Rua Aracati",
        "zipcode": "83314-140"
    },
    {
        "city": "Piraquara",
        "state": "PR",
        "district": "Guarituba",
        "street": "Rua Aurélia da Silveira",
        "zipcode": "83312-110"
    },
    {
        "city": "Piraquara",
        "state": "PR",
        "district": "Guarituba",
        "street": "Rua Balsas",
        "zipcode": "83314-050"
    },
    {
        "city": "Piraquara",
        "state": "PR",
        "district": "Guarituba",
        "street": "Rua Betonex",
        "zipcode": "83314-180"
    },
    {
        "city": "Piraquara",
        "state": "PR",
        "district": "Jardim Itiberê",
        "street": "Rua Braz Serapião da Silva",
        "zipcode": "83314-230"
    },
    {
        "city": "Piraquara",
        "state": "PR",
        "district": "Centro",
        "street": "Praça Chafi Boazar",
        "zipcode": "83301-005"
    },
    {
        "city": "Piraquara",
        "state": "PR",
        "district": "Guarituba",
        "street": "Rua Ademir Cordeiro de Oliveira",
        "zipcode": "83314-340"
    },
    {
        "city": "Piraquara",
        "state": "PR",
        "district": "Guarituba",
        "street": "Rua Lindaura Maria Trindade Santos",
        "zipcode": "83314-342"
    },
    {
        "city": "Piraquara",
        "state": "PR",
        "district": "Guarituba",
        "street": "Rua Sebastião Vaz de Oliveira",
        "zipcode": "83312-120"
    },
    {
        "city": "Piraquara",
        "state": "PR",
        "district": "Guarituba",
        "street": "Rua Augusto Lúcio",
        "zipcode": "83312-130"
    },
    {
        "city": "Piraquara",
        "state": "PR",
        "district": "Planta Vera Cruz",
        "street": "Rua Maria José Ferreira",
        "zipcode": "83314-322"
    },
    {
        "city": "Piraquara",
        "state": "PR",
        "district": "Guarituba",
        "street": "Rua Maria Ignácia Nogueira Grassi",
        "zipcode": "83314-345"
    },
    {
        "city": "Piraquara",
        "state": "PR",
        "district": "Guarituba",
        "street": "Rua Brimael Rodrigues",
        "zipcode": "83314-182"
    },
    {
        "city": "Piraquara",
        "state": "PR",
        "district": "Jardim Caiçara",
        "street": "Rua Dorico Martins dos Santos",
        "zipcode": "83314-260"
    },
    {
        "city": "Piraquara",
        "state": "PR",
        "district": "Guarituba",
        "street": "Rua Euclides Miguel",
        "zipcode": "83314-190"
    },
    {
        "city": "Piraquara",
        "state": "PR",
        "district": "Guarituba",
        "street": "Rua Iguatu",
        "zipcode": "83314-080"
    },
    {
        "city": "Piraquara",
        "state": "PR",
        "district": "Planta Pontoni Filho",
        "street": "Rua Jani Rengel",
        "zipcode": "83314-300"
    },
    {
        "city": "Piraquara",
        "state": "PR",
        "district": "Vila São Cristóvão",
        "street": "Rua Alexandre Beetz",
        "zipcode": "83305-102"
    },
    {
        "city": "Piraquara",
        "state": "PR",
        "district": "Guarituba",
        "street": "Rua Governador Valadares",
        "zipcode": "83314-000"
    },
    {
        "city": "Piraquara",
        "state": "PR",
        "district": "Jardim Caiçara",
        "street": "Rua José Cordeiro da Silva",
        "zipcode": "83314-250"
    },
    {
        "city": "Piraquara",
        "state": "PR",
        "district": "Jardim Itiberê",
        "street": "Rua Lauro Müller",
        "zipcode": "83314-240"
    },
    {
        "city": "Piraquara",
        "state": "PR",
        "district": "Guarituba",
        "street": "Rua Linhares",
        "zipcode": "83314-030"
    },
    {
        "city": "Piraquara",
        "state": "PR",
        "district": "Guarituba",
        "street": "Rua Maranhão",
        "zipcode": "83314-070"
    },
    {
        "city": "Piraquara",
        "state": "PR",
        "district": "Guarituba",
        "street": "Rua Joaquim Simões",
        "zipcode": "83314-010"
    },
    {
        "city": "Piraquara",
        "state": "PR",
        "district": "Jardim Caiçara",
        "street": "Rua Olívia Palhares da Silva",
        "zipcode": "83314-200"
    },
    {
        "city": "Piraquara",
        "state": "PR",
        "district": "Guarituba",
        "street": "Rua Parati",
        "zipcode": "83314-130"
    },
    {
        "city": "Piraquara",
        "state": "PR",
        "district": "Guarituba",
        "street": "Rua Petrópolis",
        "zipcode": "83314-160"
    },
    {
        "city": "Piraquara",
        "state": "PR",
        "district": "Jardim Alterosa",
        "street": "Rua Rosalvo Silva",
        "zipcode": "83314-220"
    },
    {
        "city": "Piraquara",
        "state": "PR",
        "district": "Guarituba",
        "street": "Rua São Leopoldo",
        "zipcode": "83314-120"
    },
    {
        "city": "Piraquara",
        "state": "PR",
        "district": "Guarituba",
        "street": "Rua São Borja",
        "zipcode": "83314-110"
    },
    {
        "city": "Piraquara",
        "state": "PR",
        "district": "Guarituba",
        "street": "Rua Terezina",
        "zipcode": "83314-060"
    },
    {
        "city": "Piraquara",
        "state": "PR",
        "district": "Guarituba",
        "street": "Rua Uruguaiana",
        "zipcode": "83314-100"
    },
    {
        "city": "Piraquara",
        "state": "PR",
        "district": "Planta Vila Nova",
        "street": "Rua Emídio Xavier Duarte",
        "zipcode": "83314-280"
    },
    {
        "city": "Piraquara",
        "state": "PR",
        "district": "Guarituba",
        "street": "Rua Carlos Chagas",
        "zipcode": "83314-020"
    },
    {
        "city": "Piraquara",
        "state": "PR",
        "district": "Planta Concórdia",
        "street": "Rua Fritz Haase",
        "zipcode": "83314-210"
    },
    {
        "city": "Piraquara",
        "state": "PR",
        "district": "Jardim Caiçara",
        "street": "Rua Luís Carlos Oliveira",
        "zipcode": "83314-270"
    },
    {
        "city": "Piraquara",
        "state": "PR",
        "district": "Jardim Esmeralda",
        "street": "Travessa Aimoré",
        "zipcode": "83301-375"
    },
    {
        "city": "Piraquara",
        "state": "PR",
        "district": "Jardim Itiberê",
        "street": "Rua Domingos Colaço",
        "zipcode": "83314-245"
    },
    {
        "city": "Piraquara",
        "state": "PR",
        "district": "Jardim Itiberê",
        "street": "Rua Maria Moreira da Silva",
        "zipcode": "83314-246"
    },
    {
        "city": "Piraquara",
        "state": "PR",
        "district": "Planta Wagner",
        "street": "Rua Benedito Teixeira da Luz",
        "zipcode": "83314-335"
    },
    {
        "city": "Piraquara",
        "state": "PR",
        "district": "Planta Pontoni Filho",
        "street": "Rua Felício Godoy Bueno",
        "zipcode": "83314-305"
    },
    {
        "city": "Piraquara",
        "state": "PR",
        "district": "Planta Vera Cruz",
        "street": "Rua Tereza Liberato Ricardo",
        "zipcode": "83314-326"
    },
    {
        "city": "Piraquara",
        "state": "PR",
        "district": "Planta Wagner",
        "street": "Rua José Carreiro Lima",
        "zipcode": "83314-330"
    },
    {
        "city": "Piraquara",
        "state": "PR",
        "district": "Planta Vera Cruz",
        "street": "Rua João Lambaret",
        "zipcode": "83314-320"
    },
    {
        "city": "Piraquara",
        "state": "PR",
        "district": "Guarituba",
        "street": "Rua Jacira Procopio dos Santos",
        "zipcode": "83312-150"
    },
    {
        "city": "Piraquara",
        "state": "PR",
        "district": "Jardim Curitiba",
        "street": "Rua Zeldo Toni",
        "zipcode": "83308-485"
    },
    {
        "city": "Piraquara",
        "state": "PR",
        "district": "Guarituba",
        "street": "Rua Bernardino Graciano Brito",
        "zipcode": "83314-346"
    },
    {
        "city": "Piraquara",
        "state": "PR",
        "district": "Santa Helena 3",
        "street": "Rua Amadeu Santos",
        "zipcode": "83307-410"
    },
    {
        "city": "Piraquara",
        "state": "PR",
        "district": "Planta Vera Cruz",
        "street": "Rua Joaquim Soares Barbosa",
        "zipcode": "83314-325"
    },
    {
        "city": "Piraquara",
        "state": "PR",
        "district": "Guarituba",
        "street": "Rua São Vicente",
        "zipcode": "83311-509"
    },
    {
        "city": "Piraquara",
        "state": "PR",
        "district": "Guarituba",
        "street": "Rua Trinidade Tobago",
        "zipcode": "83311-500"
    },
    {
        "city": "Piraquara",
        "state": "PR",
        "district": "Guarituba",
        "street": "Rua México",
        "zipcode": "83311-491"
    },
    {
        "city": "Piraquara",
        "state": "PR",
        "district": "Guarituba",
        "street": "Rua Santa Lúcia",
        "zipcode": "83311-476"
    },
    {
        "city": "Piraquara",
        "state": "PR",
        "district": "Guarituba",
        "street": "Rua Nicarágua",
        "zipcode": "83311-461"
    },
    {
        "city": "Piraquara",
        "state": "PR",
        "district": "Guarituba",
        "street": "Rua República Dominicana",
        "zipcode": "83311-443"
    },
    {
        "city": "Piraquara",
        "state": "PR",
        "district": "Guarituba",
        "street": "Rua Honduras",
        "zipcode": "83311-437"
    },
    {
        "city": "Piraquara",
        "state": "PR",
        "district": "Guarituba",
        "street": "Rua Antônio Rodrigues",
        "zipcode": "83311-410"
    },
    {
        "city": "Piraquara",
        "state": "PR",
        "district": "Guarituba",
        "street": "Rua Theodoro Coelho Neto",
        "zipcode": "83311-390"
    },
    {
        "city": "Piraquara",
        "state": "PR",
        "district": "Guarituba",
        "street": "Rua Olímpio da Silveira",
        "zipcode": "83311-392"
    },
    {
        "city": "Piraquara",
        "state": "PR",
        "district": "Guarituba",
        "street": "Rua Antônio de Paula",
        "zipcode": "83311-420"
    },
    {
        "city": "Piraquara",
        "state": "PR",
        "district": "Guarituba",
        "street": "Rua José Pereira Ferro",
        "zipcode": "83312-092"
    },
    {
        "city": "Piraquara",
        "state": "PR",
        "district": "Guarituba",
        "street": "Rua Christiano Rose",
        "zipcode": "83311-394"
    },
    {
        "city": "Piraquara",
        "state": "PR",
        "district": "Guarituba",
        "street": "Rua São Cristóvão",
        "zipcode": "83311-497"
    },
    {
        "city": "Piraquara",
        "state": "PR",
        "district": "Guarituba",
        "street": "Rua Suriname",
        "zipcode": "83311-488"
    },
    {
        "city": "Piraquara",
        "state": "PR",
        "district": "Guarituba",
        "street": "Rua Colômbia",
        "zipcode": "83311-485"
    },
    {
        "city": "Piraquara",
        "state": "PR",
        "district": "Guarituba",
        "street": "Rua Uruguai",
        "zipcode": "83311-482"
    },
    {
        "city": "Piraquara",
        "state": "PR",
        "district": "Guarituba",
        "street": "Rua Bolívia",
        "zipcode": "83311-479"
    },
    {
        "city": "Piraquara",
        "state": "PR",
        "district": "Guarituba",
        "street": "Rua Chile",
        "zipcode": "83311-470"
    },
    {
        "city": "Piraquara",
        "state": "PR",
        "district": "Guarituba",
        "street": "Rua Granada",
        "zipcode": "83311-467"
    },
    {
        "city": "Piraquara",
        "state": "PR",
        "district": "Guarituba",
        "street": "Rua Equador",
        "zipcode": "83311-446"
    },
    {
        "city": "Piraquara",
        "state": "PR",
        "district": "Guarituba",
        "street": "Rua Estados Unidos",
        "zipcode": "83311-434"
    },
    {
        "city": "Piraquara",
        "state": "PR",
        "district": "Guarituba",
        "street": "Rua Canadá",
        "zipcode": "83311-455"
    },
    {
        "city": "Piraquara",
        "state": "PR",
        "district": "Guarituba",
        "street": "Avenida Itália",
        "zipcode": "83311-431"
    },
    {
        "city": "Piraquara",
        "state": "PR",
        "district": "Guarituba",
        "street": "Rua Arnhem",
        "zipcode": "83312-020"
    },
    {
        "city": "Piraquara",
        "state": "PR",
        "district": "Guarituba",
        "street": "Rua Joaquim Camargo",
        "zipcode": "83312-070"
    },
    {
        "city": "Piraquara",
        "state": "PR",
        "district": "Guarituba",
        "street": "Rua Januário Rodrigues Rocha",
        "zipcode": "83312-080"
    },
    {
        "city": "Piraquara",
        "state": "PR",
        "district": "Guarituba",
        "street": "Rua Mararupá",
        "zipcode": "83312-090"
    },
    {
        "city": "Piraquara",
        "state": "PR",
        "district": "Guarituba",
        "street": "Rua Pastor Adolfo Weidmann",
        "zipcode": "83312-000"
    },
    {
        "city": "Piraquara",
        "state": "PR",
        "district": "Águas Claras",
        "street": "Rua Um (Vila Militar)",
        "zipcode": "83309-130"
    },
    {
        "city": "Piraquara",
        "state": "PR",
        "district": "Guarituba",
        "street": "Rua Tilburg",
        "zipcode": "83312-030"
    },
    {
        "city": "Piraquara",
        "state": "PR",
        "district": "Guarituba",
        "street": "Rua Rotterdam",
        "zipcode": "83312-040"
    },
    {
        "city": "Piraquara",
        "state": "PR",
        "district": "Guarituba",
        "street": "Rua Utrecht",
        "zipcode": "83312-050"
    },
    {
        "city": "Piraquara",
        "state": "PR",
        "district": "Guarituba",
        "street": "Rua Irlandino Pereira Benevides",
        "zipcode": "83311-350"
    },
    {
        "city": "Piraquara",
        "state": "PR",
        "district": "Guarituba",
        "street": "Rua Bernardino Campos Filho",
        "zipcode": "83311-360"
    },
    {
        "city": "Piraquara",
        "state": "PR",
        "district": "Guarituba",
        "street": "Rua Miguel Bischibich",
        "zipcode": "83312-095"
    },
    {
        "city": "Piraquara",
        "state": "PR",
        "district": "Planta Amazonas",
        "street": "Rua Gercindo Marins",
        "zipcode": "83311-375"
    },
    {
        "city": "Piraquara",
        "state": "PR",
        "district": "Guarituba",
        "street": "Rua Richard Lickfeld",
        "zipcode": "83312-096"
    },
    {
        "city": "Piraquara",
        "state": "PR",
        "district": "Guarituba",
        "street": "Rua Olegário de Araújo Ferreira",
        "zipcode": "83312-045"
    },
    {
        "city": "Piraquara",
        "state": "PR",
        "district": "Guarituba",
        "street": "Rua Paulo Filus",
        "zipcode": "83312-005"
    },
    {
        "city": "Piraquara",
        "state": "PR",
        "district": "Planta Parque das Andorinhas",
        "street": "Rua Peter Heirichs",
        "zipcode": "83311-385"
    },
    {
        "city": "Piraquara",
        "state": "PR",
        "district": "Parque das Araucárias",
        "street": "Avenida Clemente Ferreira da Costa",
        "zipcode": "83311-702"
    },
    {
        "city": "Piraquara",
        "state": "PR",
        "district": "Parque das Araucárias",
        "street": "Rua Angelino Pereira da Silva",
        "zipcode": "83311-710"
    },
    {
        "city": "Piraquara",
        "state": "PR",
        "district": "Vila Mariana",
        "street": "Rua Alfredo Müller",
        "zipcode": "83311-180"
    },
    {
        "city": "Piraquara",
        "state": "PR",
        "district": "Jardim dos Eucaliptos",
        "street": "Rua Argemiro Rodrigues de Paula",
        "zipcode": "83311-080"
    },
    {
        "city": "Piraquara",
        "state": "PR",
        "district": "Planta Santa Lúcia",
        "street": "Rua Agisse Santa Rosa",
        "zipcode": "83311-100"
    },
    {
        "city": "Piraquara",
        "state": "PR",
        "district": "Guarituba",
        "street": "Rua Elli Butzke",
        "zipcode": "83311-150"
    },
    {
        "city": "Piraquara",
        "state": "PR",
        "district": "Planta Jardim Tarumã",
        "street": "Rua Egon Laschewitz",
        "zipcode": "83311-250"
    },
    {
        "city": "Piraquara",
        "state": "PR",
        "district": "Vila Mariana",
        "street": "Rua Gustavo Wachols",
        "zipcode": "83311-190"
    },
    {
        "city": "Piraquara",
        "state": "PR",
        "district": "Guarituba",
        "street": "Rua Odair Coelho Polidoro",
        "zipcode": "83311-400"
    },
    {
        "city": "Piraquara",
        "state": "PR",
        "district": "Guarituba",
        "street": "Rua Sarita Bertassoni",
        "zipcode": "83312-072"
    },
    {
        "city": "Piraquara",
        "state": "PR",
        "district": "Guarituba",
        "street": "Rua Herbert Trap",
        "zipcode": "83311-970"
    },
    {
        "city": "Piraquara",
        "state": "PR",
        "district": "Guarituba",
        "street": "Rua Herbert Trap",
        "zipcode": "83311-170"
    },
    {
        "city": "Piraquara",
        "state": "PR",
        "district": "Guarituba",
        "street": "Rua Ismael Duarte Viante",
        "zipcode": "83311-140"
    },
    {
        "city": "Piraquara",
        "state": "PR",
        "district": "Planta Santa Lúcia",
        "street": "Rua Jandira Alves dos Santos",
        "zipcode": "83311-130"
    },
    {
        "city": "Piraquara",
        "state": "PR",
        "district": "Planta Santa Lúcia",
        "street": "Rua Juri Danilenko",
        "zipcode": "83311-090"
    },
    {
        "city": "Piraquara",
        "state": "PR",
        "district": "Planta Terezinha",
        "street": "Rua Leonardo Gluczkowski",
        "zipcode": "83311-260"
    },
    {
        "city": "Piraquara",
        "state": "PR",
        "district": "Planta Urucanga",
        "street": "Rua Marina Camargo",
        "zipcode": "83311-270"
    },
    {
        "city": "Piraquara",
        "state": "PR",
        "district": "Planta Santa Lúcia",
        "street": "Rua Maria Conceição da Cruz",
        "zipcode": "83311-110"
    },
    {
        "city": "Piraquara",
        "state": "PR",
        "district": "Guarituba",
        "street": "Rua Matheus Moscatelli",
        "zipcode": "83311-160"
    },
    {
        "city": "Piraquara",
        "state": "PR",
        "district": "Planta Belvedere",
        "street": "Rua Rio Carajá",
        "zipcode": "83311-200"
    },
    {
        "city": "Piraquara",
        "state": "PR",
        "district": "Jardim dos Eucaliptos",
        "street": "Rua Tereza Moreira",
        "zipcode": "83311-240"
    },
    {
        "city": "Piraquara",
        "state": "PR",
        "district": "Guarituba",
        "street": "Rua Kleber Pinto de Oliveira",
        "zipcode": "83311-332"
    },
    {
        "city": "Piraquara",
        "state": "PR",
        "district": "Planta Belvedere",
        "street": "Rua Ubiratã",
        "zipcode": "83311-220"
    },
    {
        "city": "Piraquara",
        "state": "PR",
        "district": "Jardim Monte Líbano",
        "street": "Rua Tereza Priscim",
        "zipcode": "83311-230"
    },
    {
        "city": "Piraquara",
        "state": "PR",
        "district": "Planta Urucanga",
        "street": "Rua Urucanga",
        "zipcode": "83311-280"
    },
    {
        "city": "Piraquara",
        "state": "PR",
        "district": "Jardim Monte Líbano",
        "street": "Rua Walter de Jesus dos Santos",
        "zipcode": "83311-235"
    },
    {
        "city": "Piraquara",
        "state": "PR",
        "district": "Guarituba",
        "street": "Rua Augusto Carlos Raposo",
        "zipcode": "83311-295"
    },
    {
        "city": "Piraquara",
        "state": "PR",
        "district": "Vila Mariana",
        "street": "Rua Angélica Gomes das Neves da Silva",
        "zipcode": "83311-185"
    },
    {
        "city": "Piraquara",
        "state": "PR",
        "district": "Guarituba",
        "street": "Rua Agostinho Ferreira Araújo",
        "zipcode": "83311-290"
    },
    {
        "city": "Piraquara",
        "state": "PR",
        "district": "Guarituba",
        "street": "Rua João André Trinck",
        "zipcode": "83311-296"
    },
    {
        "city": "Piraquara",
        "state": "PR",
        "district": "Guarituba",
        "street": "Rua Octacílio Rodrigues",
        "zipcode": "83311-300"
    },
    {
        "city": "Piraquara",
        "state": "PR",
        "district": "Guarituba",
        "street": "Rua Alfredo de Souza",
        "zipcode": "83311-306"
    },
    {
        "city": "Piraquara",
        "state": "PR",
        "district": "Guarituba",
        "street": "Rua Antônio Gabardo",
        "zipcode": "83311-320"
    },
    {
        "city": "Piraquara",
        "state": "PR",
        "district": "Guarituba",
        "street": "Rua Arquisse Jacob Testa",
        "zipcode": "83311-325"
    },
    {
        "city": "Piraquara",
        "state": "PR",
        "district": "Guarituba",
        "street": "Rua Maria Rodrigues Assumpção",
        "zipcode": "83311-327"
    },
    {
        "city": "Piraquara",
        "state": "PR",
        "district": "Guarituba",
        "street": "Rua Hartwig Müller",
        "zipcode": "83311-310"
    },
    {
        "city": "Piraquara",
        "state": "PR",
        "district": "Guarituba",
        "street": "Rua Anderson Schadlich",
        "zipcode": "83311-317"
    },
    {
        "city": "Piraquara",
        "state": "PR",
        "district": "Parque das Araucárias",
        "street": "Rua Erico Butzke",
        "zipcode": "83311-708"
    },
    {
        "city": "Piraquara",
        "state": "PR",
        "district": "Guarituba",
        "street": "Rua Nair Taborda Mendes",
        "zipcode": "83312-091"
    },
    {
        "city": "Piraquara",
        "state": "PR",
        "district": "Guarituba",
        "street": "Rua Jorge Gelinski",
        "zipcode": "83311-326"
    },
    {
        "city": "Piraquara",
        "state": "PR",
        "district": "Guarituba",
        "street": "Rua Mário Domingues",
        "zipcode": "83311-330"
    },
    {
        "city": "Piraquara",
        "state": "PR",
        "district": "Vila Mariana",
        "street": "Rua Reinhold Müller",
        "zipcode": "83311-195"
    },
    {
        "city": "Piraquara",
        "state": "PR",
        "district": "Guarituba",
        "street": "Rua Severino Vieira da Silva",
        "zipcode": "83311-335"
    },
    {
        "city": "Piraquara",
        "state": "PR",
        "district": "Guarituba",
        "street": "Rua Aparício Torres Marins",
        "zipcode": "83311-145"
    },
    {
        "city": "Piraquara",
        "state": "PR",
        "district": "Guarituba",
        "street": "Rua Rosalina de Oliveira Abreu",
        "zipcode": "83311-315"
    },
    {
        "city": "Piraquara",
        "state": "PR",
        "district": "Guarituba",
        "street": "Rua Gerhard Von Scheidt",
        "zipcode": "83311-307"
    },
    {
        "city": "Piraquara",
        "state": "PR",
        "district": "Vila Mariana",
        "street": "Rua Pedro Minoli",
        "zipcode": "83311-196"
    },
    {
        "city": "Piraquara",
        "state": "PR",
        "district": "Guarituba",
        "street": "Rua Olleotti Mário",
        "zipcode": "83310-505"
    },
    {
        "city": "Piraquara",
        "state": "PR",
        "district": "Jardim dos Eucaliptos",
        "street": "Rua Salvador Paulino das Neves",
        "zipcode": "83311-072"
    },
    {
        "city": "Piraquara",
        "state": "PR",
        "district": "Guarituba",
        "street": "Rua Antônio Celso Darienzo",
        "zipcode": "83310-292"
    },
    {
        "city": "Piraquara",
        "state": "PR",
        "district": "Guarituba",
        "street": "Rua Terezinha Alves Gaspar",
        "zipcode": "83310-477"
    },
    {
        "city": "Piraquara",
        "state": "PR",
        "district": "Guarituba",
        "street": "Rua das Andorinhas",
        "zipcode": "83310-290"
    },
    {
        "city": "Piraquara",
        "state": "PR",
        "district": "Planta Bosque Centenário",
        "street": "Rua Auristela Bilro Tinoco",
        "zipcode": "83311-050"
    },
    {
        "city": "Piraquara",
        "state": "PR",
        "district": "Planta Bosque Centenário",
        "street": "Rua Boa Terra",
        "zipcode": "83311-060"
    },
    {
        "city": "Piraquara",
        "state": "PR",
        "district": "Planta Bosque Centenário",
        "street": "Rua dos Canarinhos",
        "zipcode": "83311-030"
    },
    {
        "city": "Piraquara",
        "state": "PR",
        "district": "Guarituba",
        "street": "Rua das Camélias",
        "zipcode": "83310-320"
    },
    {
        "city": "Piraquara",
        "state": "PR",
        "district": "Planta Bosque Centenário",
        "street": "Rua Bosque Centenário",
        "zipcode": "83311-000"
    },
    {
        "city": "Piraquara",
        "state": "PR",
        "district": "Planta Bosque Centenário",
        "street": "Rua Emília Stecko",
        "zipcode": "83311-010"
    },
    {
        "city": "Piraquara",
        "state": "PR",
        "district": "Jardim Veneza",
        "street": "Avenida Gardênia",
        "zipcode": "83310-400"
    },
    {
        "city": "Piraquara",
        "state": "PR",
        "district": "Guarituba",
        "street": "Rua José Geraldo Ribeiro",
        "zipcode": "83310-452"
    },
    {
        "city": "Piraquara",
        "state": "PR",
        "district": "Jardim Monte Líbano",
        "street": "Rua Irene Gaspar Marins",
        "zipcode": "83311-232"
    },
    {
        "city": "Piraquara",
        "state": "PR",
        "district": "Jardim Monte Líbano",
        "street": "Rua Lourival Moreira dos Santos",
        "zipcode": "83311-234"
    },
    {
        "city": "Piraquara",
        "state": "PR",
        "district": "Guarituba",
        "street": "Rua Aristeu dos Santos",
        "zipcode": "83310-454"
    },
    {
        "city": "Piraquara",
        "state": "PR",
        "district": "Guarituba",
        "street": "Rua Sebastião de Siqueira Cezar",
        "zipcode": "83311-152"
    },
    {
        "city": "Piraquara",
        "state": "PR",
        "district": "Guarituba",
        "street": "Rua Vicente Ferreira da Silva",
        "zipcode": "83311-153"
    },
    {
        "city": "Piraquara",
        "state": "PR",
        "district": "Jardim Monte Líbano",
        "street": "Rua Manoel Izidoro de Araújo",
        "zipcode": "83311-233"
    },
    {
        "city": "Piraquara",
        "state": "PR",
        "district": "Guarituba",
        "street": "Rua Anália Martins da Silva",
        "zipcode": "83310-486"
    },
    {
        "city": "Piraquara",
        "state": "PR",
        "district": "Guarituba",
        "street": "Rua Waldomiro Gonçalves da Silva",
        "zipcode": "83310-488"
    },
    {
        "city": "Piraquara",
        "state": "PR",
        "district": "Guarituba",
        "street": "Rua Júlia Xavier Martins",
        "zipcode": "83310-490"
    },
    {
        "city": "Piraquara",
        "state": "PR",
        "district": "Guarituba",
        "street": "Rua Eleonir da Silva Dovhepoly",
        "zipcode": "83310-492"
    },
    {
        "city": "Piraquara",
        "state": "PR",
        "district": "Guarituba",
        "street": "Rua Francisco Ferreira de Araújo",
        "zipcode": "83310-498"
    },
    {
        "city": "Piraquara",
        "state": "PR",
        "district": "Guarituba",
        "street": "Rua Ondina Soares Luz",
        "zipcode": "83310-502"
    },
    {
        "city": "Piraquara",
        "state": "PR",
        "district": "Guarituba",
        "street": "Rua Jaime Bezerra dos Santos",
        "zipcode": "83310-504"
    },
    {
        "city": "Piraquara",
        "state": "PR",
        "district": "Guarituba",
        "street": "Rua Pedro Ferreira Góis",
        "zipcode": "83310-506"
    },
    {
        "city": "Piraquara",
        "state": "PR",
        "district": "Guarituba",
        "street": "Rua Martin Tominc",
        "zipcode": "83310-510"
    },
    {
        "city": "Piraquara",
        "state": "PR",
        "district": "Guarituba",
        "street": "Rua das Hortênsias",
        "zipcode": "83310-340"
    },
    {
        "city": "Piraquara",
        "state": "PR",
        "district": "Planta Bosque Centenário",
        "street": "Rua Jacarandá",
        "zipcode": "83311-020"
    },
    {
        "city": "Piraquara",
        "state": "PR",
        "district": "Guarituba",
        "street": "Rua do Jasmim",
        "zipcode": "83310-370"
    },
    {
        "city": "Piraquara",
        "state": "PR",
        "district": "Guarituba",
        "street": "Rua do Jatobá",
        "zipcode": "83310-300"
    },
    {
        "city": "Piraquara",
        "state": "PR",
        "district": "Jardim Veneza",
        "street": "Rua José Zippim",
        "zipcode": "83310-410"
    },
    {
        "city": "Piraquara",
        "state": "PR",
        "district": "Guarituba",
        "street": "Rua dos Lírios",
        "zipcode": "83310-380"
    },
    {
        "city": "Piraquara",
        "state": "PR",
        "district": "Jardim Veneza",
        "street": "Rua Maria Luiza",
        "zipcode": "83310-420"
    },
    {
        "city": "Piraquara",
        "state": "PR",
        "district": "Águas Claras",
        "street": "Rua Agnel Evangelista Duarte",
        "zipcode": "83309-120"
    },
    {
        "city": "Piraquara",
        "state": "PR",
        "district": "Planta Bosque Centenário",
        "street": "Rua dos Pinheiros",
        "zipcode": "83311-040"
    },
    {
        "city": "Piraquara",
        "state": "PR",
        "district": "Guarituba",
        "street": "Rua das Rosas",
        "zipcode": "83310-330"
    },
    {
        "city": "Piraquara",
        "state": "PR",
        "district": "Guarituba",
        "street": "Rua Vinte e Cinco de Março",
        "zipcode": "83310-270"
    },
    {
        "city": "Piraquara",
        "state": "PR",
        "district": "Guarituba",
        "street": "Rua Vitória",
        "zipcode": "83310-350"
    },
    {
        "city": "Piraquara",
        "state": "PR",
        "district": "Guarituba",
        "street": "Rua Vergínio Batista de Souza",
        "zipcode": "83310-280"
    },
    {
        "city": "Piraquara",
        "state": "PR",
        "district": "Guarituba",
        "street": "Rua Mariana Montoya Saes",
        "zipcode": "83310-455"
    },
    {
        "city": "Piraquara",
        "state": "PR",
        "district": "Guarituba",
        "street": "Rua Sebastião Leonel",
        "zipcode": "83310-470"
    },
    {
        "city": "Piraquara",
        "state": "PR",
        "district": "Guarituba",
        "street": "Rua Adela Withoef de Souza",
        "zipcode": "83310-445"
    },
    {
        "city": "Piraquara",
        "state": "PR",
        "district": "Guarituba",
        "street": "Rua Maria Lobato Amaral",
        "zipcode": "83310-450"
    },
    {
        "city": "Piraquara",
        "state": "PR",
        "district": "Guarituba",
        "street": "Rua Sueli Terezinha Taborda de Oliveira",
        "zipcode": "83311-154"
    },
    {
        "city": "Piraquara",
        "state": "PR",
        "district": "Guarituba",
        "street": "Rua Benedito Casimiro da Silva",
        "zipcode": "83310-476"
    },
    {
        "city": "Piraquara",
        "state": "PR",
        "district": "Guarituba",
        "street": "Rua Francisco de Assis Ricardo",
        "zipcode": "83310-460"
    },
    {
        "city": "Piraquara",
        "state": "PR",
        "district": "Guarituba",
        "street": "Rua Doutor Hugo Hary Marquart",
        "zipcode": "83310-440"
    },
    {
        "city": "Piraquara",
        "state": "PR",
        "district": "Guarituba",
        "street": "Rua Ivo Alves da Silva",
        "zipcode": "83310-456"
    },
    {
        "city": "Piraquara",
        "state": "PR",
        "district": "Jardim Veneza",
        "street": "Rua André Luiz",
        "zipcode": "83310-020"
    },
    {
        "city": "Piraquara",
        "state": "PR",
        "district": "Jardim Veneza",
        "street": "Rua Bernardo Melmann",
        "zipcode": "83310-050"
    },
    {
        "city": "Piraquara",
        "state": "PR",
        "district": "Nemari V",
        "street": "Rua Lourdes Zaramella Gabardo",
        "zipcode": "83309-230"
    },
    {
        "city": "Piraquara",
        "state": "PR",
        "district": "Nemari V",
        "street": "Rua Marcelina Bembem Andreola",
        "zipcode": "83309-220"
    },
    {
        "city": "Piraquara",
        "state": "PR",
        "district": "Jardim Veneza",
        "street": "Rua Chico Xavier",
        "zipcode": "83310-010"
    },
    {
        "city": "Piraquara",
        "state": "PR",
        "district": "Nemari V",
        "street": "Rua Nossa Senhora da Conceição",
        "zipcode": "83309-295"
    },
    {
        "city": "Piraquara",
        "state": "PR",
        "district": null,
        "street": "Estrada do Botiatuva",
        "zipcode": "83309-990"
    },
    {
        "city": "Piraquara",
        "state": "PR",
        "district": "Águas Claras",
        "street": "Rua Ervino Albrecht",
        "zipcode": "83309-080"
    },
    {
        "city": "Piraquara",
        "state": "PR",
        "district": "Nemari V",
        "street": "Rua Lúcio Alves Carvalho",
        "zipcode": "83309-250"
    },
    {
        "city": "Piraquara",
        "state": "PR",
        "district": "Águas Claras",
        "street": "Rua Dois (Vila Militar)",
        "zipcode": "83309-140"
    },
    {
        "city": "Piraquara",
        "state": "PR",
        "district": "Jardim Veneza",
        "street": "Rua Doutor Fajardo",
        "zipcode": "83310-160"
    },
    {
        "city": "Piraquara",
        "state": "PR",
        "district": "Guarituba",
        "street": "Rua Doutor Ulysses Guimarães",
        "zipcode": "83310-240"
    },
    {
        "city": "Piraquara",
        "state": "PR",
        "district": "Jardim Veneza",
        "street": "Rua Elpídio Natal",
        "zipcode": "83310-060"
    },
    {
        "city": "Piraquara",
        "state": "PR",
        "district": "Jardim Veneza",
        "street": "Rua Emanuel",
        "zipcode": "83310-030"
    },
    {
        "city": "Piraquara",
        "state": "PR",
        "district": "Jardim Veneza",
        "street": "Rua Ercílio Guimarães",
        "zipcode": "83310-090"
    },
    {
        "city": "Piraquara",
        "state": "PR",
        "district": "Jardim Veneza",
        "street": "Rua Fany Paciornik",
        "zipcode": "83310-120"
    },
    {
        "city": "Piraquara",
        "state": "PR",
        "district": "Jardim Veneza",
        "street": "Rua Humberto de Campos",
        "zipcode": "83310-140"
    },
    {
        "city": "Piraquara",
        "state": "PR",
        "district": "Jardim Veneza",
        "street": "Rua Hernany Paciornik",
        "zipcode": "83310-100"
    },
    {
        "city": "Piraquara",
        "state": "PR",
        "district": "Guarituba",
        "street": "Rua Pedro Francisco Ramos",
        "zipcode": "83310-453"
    },
    {
        "city": "Piraquara",
        "state": "PR",
        "district": "Guarituba",
        "street": "Rua João Dovhepoly",
        "zipcode": "83310-484"
    },
    {
        "city": "Piraquara",
        "state": "PR",
        "district": "Guarituba",
        "street": "Rua Thamara Francynnie dos Santos Weiss",
        "zipcode": "83310-494"
    },
    {
        "city": "Piraquara",
        "state": "PR",
        "district": "Guarituba",
        "street": "Rua Esthel Alves da Silva",
        "zipcode": "83310-482"
    },
    {
        "city": "Piraquara",
        "state": "PR",
        "district": "Guarituba",
        "street": "Rua Francisca Alves de Jesus",
        "zipcode": "83310-472"
    },
    {
        "city": "Piraquara",
        "state": "PR",
        "district": "Nemari",
        "street": "Rua do Botiatuva",
        "zipcode": "83309-450"
    },
    {
        "city": "Piraquara",
        "state": "PR",
        "district": "Guarituba",
        "street": "Rua João Pereira Godói",
        "zipcode": "83310-250"
    },
    {
        "city": "Piraquara",
        "state": "PR",
        "district": "Guarituba",
        "street": "Avenida dos Eucaliptos",
        "zipcode": "83310-210"
    },
    {
        "city": "Piraquara",
        "state": "PR",
        "district": "Planta Campo Largo",
        "street": "Rua Miguel Lucas Barbetta",
        "zipcode": "83310-190"
    },
    {
        "city": "Piraquara",
        "state": "PR",
        "district": "Guarituba",
        "street": "Avenida das Orquídeas",
        "zipcode": "83310-200"
    },
    {
        "city": "Piraquara",
        "state": "PR",
        "district": "Jardim Veneza",
        "street": "Rua Pedra Preta",
        "zipcode": "83310-150"
    },
    {
        "city": "Piraquara",
        "state": "PR",
        "district": "Águas Claras",
        "street": "Rua Oito (Vila Militar)",
        "zipcode": "83309-200"
    },
    {
        "city": "Piraquara",
        "state": "PR",
        "district": "Jardim Veneza",
        "street": "Rua Preto",
        "zipcode": "83310-040"
    },
    {
        "city": "Piraquara",
        "state": "PR",
        "district": "Nemari V",
        "street": "Rua Johann Schroeder Filho",
        "zipcode": "83309-270"
    },
    {
        "city": "Piraquara",
        "state": "PR",
        "district": "Jardim Veneza",
        "street": "Rua Reinaldo Machado",
        "zipcode": "83310-070"
    },
    {
        "city": "Piraquara",
        "state": "PR",
        "district": "Planta Campo Largo",
        "street": "Avenida Philadelphia",
        "zipcode": "83310-180"
    },
    {
        "city": "Piraquara",
        "state": "PR",
        "district": "Águas Claras",
        "street": "Rua Quatro (Vila Militar)",
        "zipcode": "83309-160"
    },
    {
        "city": "Piraquara",
        "state": "PR",
        "district": "Guarituba",
        "street": "Rua São Francisco",
        "zipcode": "83310-230"
    },
    {
        "city": "Piraquara",
        "state": "PR",
        "district": "Guarituba",
        "street": "Rua São José",
        "zipcode": "83310-220"
    },
    {
        "city": "Piraquara",
        "state": "PR",
        "district": "Nemari V",
        "street": "Rua Antônio Padilha",
        "zipcode": "83309-290"
    },
    {
        "city": "Piraquara",
        "state": "PR",
        "district": "Guarituba",
        "street": "Rua Sílvio José Pereira",
        "zipcode": "83310-260"
    },
    {
        "city": "Piraquara",
        "state": "PR",
        "district": "Nemari V",
        "street": "Rua José Roberto Scrobot",
        "zipcode": "83309-240"
    },
    {
        "city": "Piraquara",
        "state": "PR",
        "district": "Águas Claras",
        "street": "Rua Sete (Vila Santa Helena)",
        "zipcode": "83309-100"
    },
    {
        "city": "Piraquara",
        "state": "PR",
        "district": "Jardim Veneza",
        "street": "Rua Azaléia Schulmann",
        "zipcode": "83310-000"
    },
    {
        "city": "Piraquara",
        "state": "PR",
        "district": "Jardim Veneza",
        "street": "Rua Peri Jacob",
        "zipcode": "83310-110"
    },
    {
        "city": "Piraquara",
        "state": "PR",
        "district": "Águas Claras",
        "street": "Rua Três (Vila Militar)",
        "zipcode": "83309-150"
    },
    {
        "city": "Piraquara",
        "state": "PR",
        "district": "Águas Claras",
        "street": "Rua Um (Vila Santa Helena)",
        "zipcode": "83309-040"
    },
    {
        "city": "Piraquara",
        "state": "PR",
        "district": "Jardim Veneza",
        "street": "Rua Anita Zeppin",
        "zipcode": "83310-130"
    },
    {
        "city": "Piraquara",
        "state": "PR",
        "district": "Planta Granjas Eldorado",
        "street": "Rua Francisco Ribeiro de Oliveira",
        "zipcode": "83309-330"
    },
    {
        "city": "Piraquara",
        "state": "PR",
        "district": "Planta Granjas Eldorado",
        "street": "Rua José Martinez Cano",
        "zipcode": "83309-340"
    },
    {
        "city": "Piraquara",
        "state": "PR",
        "district": "Planta Granjas Eldorado",
        "street": "Rua Júlia Alves de Almeida",
        "zipcode": "83309-350"
    },
    {
        "city": "Piraquara",
        "state": "PR",
        "district": "Planta Granjas Eldorado",
        "street": "Rua Pedro Franco da Silva",
        "zipcode": "83309-360"
    },
    {
        "city": "Piraquara",
        "state": "PR",
        "district": "Nemari V",
        "street": "Rua Gerson Almeida da Silva",
        "zipcode": "83309-260"
    },
    {
        "city": "Piraquara",
        "state": "PR",
        "district": "Planta Granjas Eldorado",
        "street": "Rua Eduardo Luiz Piana",
        "zipcode": "83309-320"
    },
    {
        "city": "Piraquara",
        "state": "PR",
        "district": "Jardim Santa Helena",
        "street": "Rua Valério Lopes de Souza",
        "zipcode": "83308-497"
    },
    {
        "city": "Piraquara",
        "state": "PR",
        "district": "Jardim dos Estados 2",
        "street": "Rua Acre",
        "zipcode": "83308-320"
    },
    {
        "city": "Piraquara",
        "state": "PR",
        "district": "Jardim dos Estados 2",
        "street": "Rua Amazonas",
        "zipcode": "83308-270"
    },
    {
        "city": "Piraquara",
        "state": "PR",
        "district": "Jardim dos Estados 1",
        "street": "Rua Amazonas",
        "zipcode": "83308-450"
    },
    {
        "city": "Piraquara",
        "state": "PR",
        "district": "Chácara Águas Claras",
        "street": "Avenida Águas Claras",
        "zipcode": "83308-140"
    },
    {
        "city": "Piraquara",
        "state": "PR",
        "district": "Jardim dos Estados 2",
        "street": "Rua Alagoas",
        "zipcode": "83308-110"
    },
    {
        "city": "Piraquara",
        "state": "PR",
        "district": "Jardim dos Estados 2",
        "street": "Rua Amapá",
        "zipcode": "83308-310"
    },
    {
        "city": "Piraquara",
        "state": "PR",
        "district": "Águas Claras",
        "street": "Rua Dois (Vila Santa Helena)",
        "zipcode": "83309-050"
    },
    {
        "city": "Piraquara",
        "state": "PR",
        "district": "Jardim Curitiba",
        "street": "Rua Erna Ratke",
        "zipcode": "83308-480"
    },
    {
        "city": "Piraquara",
        "state": "PR",
        "district": "Jardim dos Estados 1",
        "street": "Rua Eduardo Agustinho Carvalho",
        "zipcode": "83308-352"
    },
    {
        "city": "Piraquara",
        "state": "PR",
        "district": "Jardim dos Estados 1",
        "street": "Rua Margarida Carvalho Weigert",
        "zipcode": "83308-354"
    },
    {
        "city": "Piraquara",
        "state": "PR",
        "district": null,
        "street": "Estrada da Roseira",
        "zipcode": "83308-990"
    },
    {
        "city": "Piraquara",
        "state": "PR",
        "district": "Jardim dos Estados 1",
        "street": "Avenida Espírito Santo",
        "zipcode": "83308-350"
    },
    {
        "city": "Piraquara",
        "state": "PR",
        "district": "Jardim dos Estados 2",
        "street": "Rua Fernando de Noronha",
        "zipcode": "83308-330"
    },
    {
        "city": "Piraquara",
        "state": "PR",
        "district": "Jardim Curitiba",
        "street": "Rua Henrique Toni",
        "zipcode": "83308-470"
    },
    {
        "city": "Piraquara",
        "state": "PR",
        "district": "Jardim dos Estados 2",
        "street": "Rua Guaporé",
        "zipcode": "83308-300"
    },
    {
        "city": "Piraquara",
        "state": "PR",
        "district": "Chácara Águas Claras",
        "street": "Rua Mathias Jacomel",
        "zipcode": "83308-190"
    },
    {
        "city": "Piraquara",
        "state": "PR",
        "district": "Jardim dos Estados 1",
        "street": "Avenida Minas Gerais",
        "zipcode": "83308-360"
    },
    {
        "city": "Piraquara",
        "state": "PR",
        "district": "Águas Claras",
        "street": "Rua Oito (Vila Santa Helena)",
        "zipcode": "83309-110"
    },
    {
        "city": "Piraquara",
        "state": "PR",
        "district": "Jardim dos Estados 1",
        "street": "Avenida Paraná",
        "zipcode": "83308-410"
    },
    {
        "city": "Piraquara",
        "state": "PR",
        "district": "Jardim dos Estados 1",
        "street": "Rua Pernambuco",
        "zipcode": "83308-440"
    },
    {
        "city": "Piraquara",
        "state": "PR",
        "district": "Chácara Águas Claras",
        "street": "Rua Pinus Silvestre",
        "zipcode": "83308-150"
    },
    {
        "city": "Piraquara",
        "state": "PR",
        "district": "Águas Claras",
        "street": "Rua Belmiro Moreira",
        "zipcode": "83309-070"
    },
    {
        "city": "Piraquara",
        "state": "PR",
        "district": "Jardim dos Estados 2",
        "street": "Rua Pará",
        "zipcode": "83308-290"
    },
    {
        "city": "Piraquara",
        "state": "PR",
        "district": "Chácara Águas Claras",
        "street": "Rua dos Pinheiros",
        "zipcode": "83308-160"
    },
    {
        "city": "Piraquara",
        "state": "PR",
        "district": "Jardim dos Estados 1",
        "street": "Avenida Rio Grande do Sul",
        "zipcode": "83308-430"
    },
    {
        "city": "Piraquara",
        "state": "PR",
        "district": "Chácara Águas Claras",
        "street": "Rua das Roseiras",
        "zipcode": "83308-170"
    },
    {
        "city": "Piraquara",
        "state": "PR",
        "district": "Jardim dos Estados 1",
        "street": "Avenida São Paulo",
        "zipcode": "83308-400"
    },
    {
        "city": "Piraquara",
        "state": "PR",
        "district": "Jardim dos Estados 1",
        "street": "Avenida Piauí",
        "zipcode": "83308-340"
    },
    {
        "city": "Piraquara",
        "state": "PR",
        "district": "Jardim dos Estados 2",
        "street": "Rua Piauí",
        "zipcode": "83308-130"
    },
    {
        "city": "Piraquara",
        "state": "PR",
        "district": "Jardim dos Estados 1",
        "street": "Avenida Santa Catarina",
        "zipcode": "83308-420"
    },
    {
        "city": "Piraquara",
        "state": "PR",
        "district": "Chácara Águas Claras",
        "street": "Rua Telêmaco Borba",
        "zipcode": "83308-200"
    },
    {
        "city": "Piraquara",
        "state": "PR",
        "district": "Águas Claras",
        "street": "Rua Edson Evangelista Duarte",
        "zipcode": "83309-060"
    },
    {
        "city": "Piraquara",
        "state": "PR",
        "district": "Águas Claras",
        "street": "Rua Seis (Vila Santa Helena)",
        "zipcode": "83309-090"
    },
    {
        "city": "Piraquara",
        "state": "PR",
        "district": "Guarituba",
        "street": "Rua Heitor Pallú",
        "zipcode": "83308-460"
    },
    {
        "city": "Piraquara",
        "state": "PR",
        "district": "Jardim dos Estados 1",
        "street": "Avenida Rio de Janeiro",
        "zipcode": "83308-370"
    },
    {
        "city": "Piraquara",
        "state": "PR",
        "district": "Águas Claras",
        "street": "Rua Cinco (Vila Militar)",
        "zipcode": "83309-170"
    },
    {
        "city": "Piraquara",
        "state": "PR",
        "district": "Jardim dos Estados 2",
        "street": "Rua Pernambuco",
        "zipcode": "83308-260"
    },
    {
        "city": "Piraquara",
        "state": "PR",
        "district": "Chácara Águas Claras",
        "street": "Rua Piraquara",
        "zipcode": "83308-180"
    },
    {
        "city": "Piraquara",
        "state": "PR",
        "district": "Jardim dos Estados 2",
        "street": "Rua Moisés Marcondes de Albuquerque",
        "zipcode": "83308-240"
    },
    {
        "city": "Piraquara",
        "state": "PR",
        "district": "Jardim Curitiba",
        "street": "Rua João Barbick Filho",
        "zipcode": "83308-475"
    },
    {
        "city": "Piraquara",
        "state": "PR",
        "district": "Jardim Santa Helena",
        "street": "Rua Matilde Montibeller",
        "zipcode": "83308-505"
    },
    {
        "city": "Piraquara",
        "state": "PR",
        "district": "Jardim Santa Helena",
        "street": "Rua Benjamim Andersen",
        "zipcode": "83308-490"
    },
    {
        "city": "Piraquara",
        "state": "PR",
        "district": "Jardim Santa Helena",
        "street": "Rua Professor Evaristo Carlini",
        "zipcode": "83308-495"
    },
    {
        "city": "Piraquara",
        "state": "PR",
        "district": "Jardim Santa Helena",
        "street": "Rua Isidoro Canestraro",
        "zipcode": "83308-500"
    },
    {
        "city": "Piraquara",
        "state": "PR",
        "district": "Jardim dos Estados 3",
        "street": "Rua Amazonas",
        "zipcode": "83307-140"
    },
    {
        "city": "Piraquara",
        "state": "PR",
        "district": "Planta York",
        "street": "Rua das Américas",
        "zipcode": "83307-270"
    },
    {
        "city": "Piraquara",
        "state": "PR",
        "district": "Planta Laranjeiras",
        "street": "Rua Arthur Portela de Oliveira",
        "zipcode": "83307-330"
    },
    {
        "city": "Piraquara",
        "state": "PR",
        "district": "Jardim dos Estados 3",
        "street": "Rua Bahia",
        "zipcode": "83307-080"
    },
    {
        "city": "Piraquara",
        "state": "PR",
        "district": "Planta York",
        "street": "Rua Brasil",
        "zipcode": "83307-260"
    },
    {
        "city": "Piraquara",
        "state": "PR",
        "district": "Jardim dos Estados 3",
        "street": "Rua Ceará",
        "zipcode": "83307-160"
    },
    {
        "city": "Piraquara",
        "state": "PR",
        "district": "Vila São Tiago",
        "street": "Travessa Chapecó",
        "zipcode": "83307-190"
    },
    {
        "city": "Piraquara",
        "state": "PR",
        "district": "Jardim Santa Helena",
        "street": "Rua Angela Jantsch",
        "zipcode": "83308-502"
    },
    {
        "city": "Piraquara",
        "state": "PR",
        "district": "Jardim dos Estados 2",
        "street": "Rua Espírito Santo",
        "zipcode": "83308-100"
    },
    {
        "city": "Piraquara",
        "state": "PR",
        "district": "Planta Laranjeiras",
        "street": "Rua Gaspar Gaio",
        "zipcode": "83307-280"
    },
    {
        "city": "Piraquara",
        "state": "PR",
        "district": "Jardim Diguimabri",
        "street": "Rua dos Guimarães",
        "zipcode": "83307-210"
    },
    {
        "city": "Piraquara",
        "state": "PR",
        "district": "Roça Nova",
        "street": "Rua Antônio Brudeck",
        "zipcode": "83307-500"
    },
    {
        "city": "Piraquara",
        "state": "PR",
        "district": "Jardim dos Estados 1",
        "street": "Avenida Goiás",
        "zipcode": "83308-380"
    },
    {
        "city": "Piraquara",
        "state": "PR",
        "district": null,
        "street": "Estrada Pará",
        "zipcode": "83307-990"
    },
    {
        "city": "Piraquara",
        "state": "PR",
        "district": "Chácara Águas Claras",
        "street": "Rua Hostílio César de Souza",
        "zipcode": "83308-220"
    },
    {
        "city": "Piraquara",
        "state": "PR",
        "district": "Planta Laranjeiras",
        "street": "Rua KS",
        "zipcode": "83307-320"
    },
    {
        "city": "Piraquara",
        "state": "PR",
        "district": "Planta Laranjeiras",
        "street": "Rua KS",
        "zipcode": "83307-340"
    },
    {
        "city": "Piraquara",
        "state": "PR",
        "district": "Jardim Ísis",
        "street": "Rua Estéfano Kavetski",
        "zipcode": "83307-370"
    },
    {
        "city": "Piraquara",
        "state": "PR",
        "district": "Jardim Diguimabri",
        "street": "Rua Major Dirceu Mendes",
        "zipcode": "83307-200"
    },
    {
        "city": "Piraquara",
        "state": "PR",
        "district": "Jardim dos Estados 2",
        "street": "Rua Minas Gerais",
        "zipcode": "83308-080"
    },
    {
        "city": "Piraquara",
        "state": "PR",
        "district": "Jardim dos Estados 2",
        "street": "Rua Mato Grosso",
        "zipcode": "83308-040"
    },
    {
        "city": "Piraquara",
        "state": "PR",
        "district": "Jardim dos Estados 3",
        "street": "Rua Pernambuco",
        "zipcode": "83307-090"
    },
    {
        "city": "Piraquara",
        "state": "PR",
        "district": "Planta Laranjeiras",
        "street": "Rua Padre Phelippe Ledet",
        "zipcode": "83307-310"
    },
    {
        "city": "Piraquara",
        "state": "PR",
        "district": "Planta York",
        "street": "Rua Piraquara",
        "zipcode": "83307-250"
    },
    {
        "city": "Piraquara",
        "state": "PR",
        "district": "Planta York",
        "street": "Avenida Primo Lattes",
        "zipcode": "83307-230"
    },
    {
        "city": "Piraquara",
        "state": "PR",
        "district": "Jardim dos Estados 2",
        "street": "Rua Rio Branco",
        "zipcode": "83308-010"
    },
    {
        "city": "Piraquara",
        "state": "PR",
        "district": "Jardim dos Estados 2",
        "street": "Rua Rio de Janeiro",
        "zipcode": "83308-020"
    },
    {
        "city": "Piraquara",
        "state": "PR",
        "district": "Planta Entremar",
        "street": "Rua Eduardo Rocha",
        "zipcode": "83307-700"
    },
    {
        "city": "Piraquara",
        "state": "PR",
        "district": "Colônia Santa Maria",
        "street": "Rua Nazir Zaitter",
        "zipcode": "83307-450"
    },
    {
        "city": "Piraquara",
        "state": "PR",
        "district": "Planta Laranjeiras",
        "street": "Rua Alfredo Valenga",
        "zipcode": "83307-282"
    },
    {
        "city": "Piraquara",
        "state": "PR",
        "district": "Planta Laranjeiras",
        "street": "Rua Clotilde Zambão Jess",
        "zipcode": "83307-335"
    },
    {
        "city": "Piraquara",
        "state": "PR",
        "district": "Jardim dos Estados 2",
        "street": "Rua Rio Grande do Sul",
        "zipcode": "83308-060"
    },
    {
        "city": "Piraquara",
        "state": "PR",
        "district": "Jardim dos Estados 3",
        "street": "Rua Minas Gerais",
        "zipcode": "83307-120"
    },
    {
        "city": "Piraquara",
        "state": "PR",
        "district": "Jardim dos Estados 2",
        "street": "Rua Paraíba",
        "zipcode": "83308-000"
    },
    {
        "city": "Piraquara",
        "state": "PR",
        "district": "Jardim dos Estados 2",
        "street": "Rua Santa Catarina",
        "zipcode": "83308-070"
    },
    {
        "city": "Piraquara",
        "state": "PR",
        "district": "Jardim dos Estados 3",
        "street": "Rua Santa Catarina",
        "zipcode": "83307-100"
    },
    {
        "city": "Piraquara",
        "state": "PR",
        "district": "Jardim dos Estados 3",
        "street": "Rua São Paulo",
        "zipcode": "83307-150"
    },
    {
        "city": "Piraquara",
        "state": "PR",
        "district": "Jardim Diguimabri",
        "street": "Travessa da Saúde",
        "zipcode": "83307-220"
    },
    {
        "city": "Piraquara",
        "state": "PR",
        "district": "Planta York",
        "street": "Avenida York",
        "zipcode": "83307-240"
    },
    {
        "city": "Piraquara",
        "state": "PR",
        "district": "Jardim dos Estados 3",
        "street": "Rua Guanabara",
        "zipcode": "83307-110"
    },
    {
        "city": "Piraquara",
        "state": "PR",
        "district": "Jardim Ísis",
        "street": "Rua Faustino Reggis Filho",
        "zipcode": "83307-360"
    },
    {
        "city": "Piraquara",
        "state": "PR",
        "district": "Jardim dos Estados 2",
        "street": "Rua São Paulo",
        "zipcode": "83308-050"
    },
    {
        "city": "Piraquara",
        "state": "PR",
        "district": "Capoeira dos Dinos",
        "street": "Rua Walfrido Belão",
        "zipcode": "83307-300"
    },
    {
        "city": "Piraquara",
        "state": "PR",
        "district": "Planta Laranjeiras",
        "street": "Rua Trajano Batista Bueno",
        "zipcode": "83307-285"
    },
    {
        "city": "Piraquara",
        "state": "PR",
        "district": "Planta Laranjeiras",
        "street": "Rua Vagner Luís Boscardin",
        "zipcode": "83307-286"
    },
    {
        "city": "Piraquara",
        "state": "PR",
        "district": "Chácara Águas Claras",
        "street": "Rua Brasílio Lecheta",
        "zipcode": "83308-165"
    },
    {
        "city": "Piraquara",
        "state": "PR",
        "district": "Vila Santa Maria",
        "street": "Rua Arnica",
        "zipcode": "83306-320"
    },
    {
        "city": "Piraquara",
        "state": "PR",
        "district": "Vila Santa Maria",
        "street": "Rua Angico",
        "zipcode": "83306-310"
    },
    {
        "city": "Piraquara",
        "state": "PR",
        "district": "Vila Santa Maria",
        "street": "Rua Boldo",
        "zipcode": "83306-330"
    },
    {
        "city": "Piraquara",
        "state": "PR",
        "district": "Vila Santa Maria",
        "street": "Rua Bracatinga",
        "zipcode": "83306-340"
    },
    {
        "city": "Piraquara",
        "state": "PR",
        "district": "Vila Santa Maria",
        "street": "Rua Canela",
        "zipcode": "83306-360"
    },
    {
        "city": "Piraquara",
        "state": "PR",
        "district": "Vila Santa Maria",
        "street": "Rua Cedro",
        "zipcode": "83306-370"
    },
    {
        "city": "Piraquara",
        "state": "PR",
        "district": "Vila São Tiago",
        "street": "Avenida Camboriú",
        "zipcode": "83306-210"
    },
    {
        "city": "Piraquara",
        "state": "PR",
        "district": "Vila Juliana",
        "street": "Rua Clemente Simião",
        "zipcode": "83306-140"
    },
    {
        "city": "Piraquara",
        "state": "PR",
        "district": "Vila São Tiago",
        "street": "Travessa Concórdia",
        "zipcode": "83307-040"
    },
    {
        "city": "Piraquara",
        "state": "PR",
        "district": "Vila Juliana",
        "street": "Rua Estanislau Mazepa",
        "zipcode": "83306-060"
    },
    {
        "city": "Piraquara",
        "state": "PR",
        "district": "Vila Juliana",
        "street": "Rua Carlos Belão",
        "zipcode": "83306-120"
    },
    {
        "city": "Piraquara",
        "state": "PR",
        "district": "Vila São Tiago",
        "street": "Travessa Criciúma",
        "zipcode": "83306-250"
    },
    {
        "city": "Piraquara",
        "state": "PR",
        "district": "Vila São Tiago",
        "street": "Rua Fernando Teixeira Nogueira",
        "zipcode": "83306-240"
    },
    {
        "city": "Piraquara",
        "state": "PR",
        "district": "Vila São Tiago",
        "street": "Rua Florianópolis",
        "zipcode": "83306-180"
    },
    {
        "city": "Piraquara",
        "state": "PR",
        "district": "Vila São Tiago",
        "street": "Rua Imbituba",
        "zipcode": "83307-020"
    },
    {
        "city": "Piraquara",
        "state": "PR",
        "district": "Vila Santa Maria",
        "street": "Rua Ipê",
        "zipcode": "83306-380"
    },
    {
        "city": "Piraquara",
        "state": "PR",
        "district": "Planta Laranjeiras",
        "street": "Rua Ivette Cardozo Gasparin",
        "zipcode": "83307-283"
    },
    {
        "city": "Piraquara",
        "state": "PR",
        "district": "Vila São Tiago",
        "street": "Rua Hercílio Luz",
        "zipcode": "83307-010"
    },
    {
        "city": "Piraquara",
        "state": "PR",
        "district": "Vila Juliana",
        "street": "Rua Francisca Úrsula Simião",
        "zipcode": "83306-150"
    },
    {
        "city": "Piraquara",
        "state": "PR",
        "district": "Vila São Tiago",
        "street": "Rua Joinville",
        "zipcode": "83307-070"
    },
    {
        "city": "Piraquara",
        "state": "PR",
        "district": "Vila São Tiago",
        "street": "Rua Laguna",
        "zipcode": "83307-060"
    },
    {
        "city": "Piraquara",
        "state": "PR",
        "district": "Vila São Tiago",
        "street": "Rua Itajaí",
        "zipcode": "83306-200"
    },
    {
        "city": "Piraquara",
        "state": "PR",
        "district": "Vila Santa Maria",
        "street": "Rua Malva",
        "zipcode": "83306-390"
    },
    {
        "city": "Piraquara",
        "state": "PR",
        "district": "Vila Santa Maria",
        "street": "Rua Manacá",
        "zipcode": "83306-400"
    },
    {
        "city": "Piraquara",
        "state": "PR",
        "district": "Vila Juliana",
        "street": "Rua Maria Carolina Wilk",
        "zipcode": "83306-070"
    },
    {
        "city": "Piraquara",
        "state": "PR",
        "district": "Vila Santa Maria",
        "street": "Rua Olávio de Souza",
        "zipcode": "83306-300"
    },
    {
        "city": "Piraquara",
        "state": "PR",
        "district": "Vila São Tiago",
        "street": "Avenida Maria Bevervanso",
        "zipcode": "83306-280"
    },
    {
        "city": "Piraquara",
        "state": "PR",
        "district": "Vila Santa Maria",
        "street": "Rua Papa Paulo VI",
        "zipcode": "83306-410"
    },
    {
        "city": "Piraquara",
        "state": "PR",
        "district": "Vila São Tiago",
        "street": "Rua Rio do Sul",
        "zipcode": "83306-170"
    },
    {
        "city": "Piraquara",
        "state": "PR",
        "district": "Planta Chaune",
        "street": "Rua Santa Rita de Cássia",
        "zipcode": "83306-040"
    },
    {
        "city": "Piraquara",
        "state": "PR",
        "district": "Vila Santa Maria",
        "street": "Rua Tarumã",
        "zipcode": "83306-430"
    },
    {
        "city": "Piraquara",
        "state": "PR",
        "district": "Vila Juliana",
        "street": "Rua Tenente Celso Soares",
        "zipcode": "83306-100"
    },
    {
        "city": "Piraquara",
        "state": "PR",
        "district": "Vila São Tiago",
        "street": "Rua Tijucas",
        "zipcode": "83307-030"
    },
    {
        "city": "Piraquara",
        "state": "PR",
        "district": "Vila São Tiago",
        "street": "Rua Tubarão",
        "zipcode": "83307-050"
    },
    {
        "city": "Piraquara",
        "state": "PR",
        "district": "Vila Santa Maria",
        "street": "Rua Victório Bevervanso",
        "zipcode": "83306-270"
    },
    {
        "city": "Piraquara",
        "state": "PR",
        "district": "Vila São Tiago",
        "street": "Avenida Vidal Ramos",
        "zipcode": "83307-000"
    },
    {
        "city": "Piraquara",
        "state": "PR",
        "district": "Planta Chaune",
        "street": "Rua Francisco Chaunne",
        "zipcode": "83306-050"
    },
    {
        "city": "Piraquara",
        "state": "PR",
        "district": "Vila Santa Maria",
        "street": "Rua Calondela",
        "zipcode": "83306-350"
    },
    {
        "city": "Piraquara",
        "state": "PR",
        "district": "Vila Juliana",
        "street": "Rua Wilson Nóbrega de Franca",
        "zipcode": "83306-260"
    },
    {
        "city": "Piraquara",
        "state": "PR",
        "district": "Planta Santa Clara",
        "street": "Rua Manoel Pedro dos Santos",
        "zipcode": "83306-290"
    },
    {
        "city": "Piraquara",
        "state": "PR",
        "district": "Vila São Tiago",
        "street": "Avenida Xanxerê",
        "zipcode": "83306-190"
    },
    {
        "city": "Piraquara",
        "state": "PR",
        "district": "Planta Santa Clara",
        "street": "Rua Álvaro Muhlenhoff",
        "zipcode": "83306-295"
    },
    {
        "city": "Piraquara",
        "state": "PR",
        "district": "Planta Santa Clara",
        "street": "Rua Tereza Maria Miara",
        "zipcode": "83306-297"
    },
    {
        "city": "Piraquara",
        "state": "PR",
        "district": "Vila Santa Maria",
        "street": "Rua Monjoleiro",
        "zipcode": "83306-316"
    },
    {
        "city": "Piraquara",
        "state": "PR",
        "district": "Jardim dos Estados 3",
        "street": "Rua Ernesto Bueno do Nascimento",
        "zipcode": "83307-115"
    },
    {
        "city": "Piraquara",
        "state": "PR",
        "district": "Jardim dos Estados 3",
        "street": "Rua Walfrido Cordeiro da Silva",
        "zipcode": "83307-116"
    },
    {
        "city": "Piraquara",
        "state": "PR",
        "district": "Vila Juliana",
        "street": "Rua Sebastião Santo Gaio",
        "zipcode": "83306-080"
    },
    {
        "city": "Piraquara",
        "state": "PR",
        "district": "Planta Santa Clara",
        "street": "Rua José Cruzetta",
        "zipcode": "83306-298"
    },
    {
        "city": "Piraquara",
        "state": "PR",
        "district": "Vila Santa Maria",
        "street": "Rua Araçá",
        "zipcode": "83306-315"
    },
    {
        "city": "Piraquara",
        "state": "PR",
        "district": "Vila Juliana",
        "street": "Rua Albino Sizanoski",
        "zipcode": "83306-125"
    },
    {
        "city": "Piraquara",
        "state": "PR",
        "district": "Vila Fuck",
        "street": "Rua Alberto Ribeiro",
        "zipcode": "83305-310"
    },
    {
        "city": "Piraquara",
        "state": "PR",
        "district": "Vila Fuck",
        "street": "Rua Ângela da Costa Lima",
        "zipcode": "83305-290"
    },
    {
        "city": "Piraquara",
        "state": "PR",
        "district": "Recreio da Serra",
        "street": "Rua dos Beija",
        "zipcode": "83305-590"
    },
    {
        "city": "Piraquara",
        "state": "PR",
        "district": "Centro",
        "street": "Rua Cândido Portinari",
        "zipcode": "83306-030"
    },
    {
        "city": "Piraquara",
        "state": "PR",
        "district": "Vila Franca",
        "street": "Rua Bronislau Schved",
        "zipcode": "83305-450"
    },
    {
        "city": "Piraquara",
        "state": "PR",
        "district": "Recreio da Serra",
        "street": "Alameda dos Cardeais",
        "zipcode": "83305-510"
    },
    {
        "city": "Piraquara",
        "state": "PR",
        "district": "Recreio da Serra",
        "street": "Rua dos Curiós",
        "zipcode": "83305-530"
    },
    {
        "city": "Piraquara",
        "state": "PR",
        "district": "Recreio da Serra",
        "street": "Alameda dos Colibris",
        "zipcode": "83305-520"
    },
    {
        "city": "Piraquara",
        "state": "PR",
        "district": "Vila São Cristóvão",
        "street": "Rua Domingas Gubert Zeni",
        "zipcode": "83305-200"
    },
    {
        "city": "Piraquara",
        "state": "PR",
        "district": "Recreio da Serra",
        "street": "Rua Estéfano Uberna",
        "zipcode": "83305-490"
    },
    {
        "city": "Piraquara",
        "state": "PR",
        "district": "Vila São Cristóvão",
        "street": "Rua Felipe Gubert",
        "zipcode": "83305-340"
    },
    {
        "city": "Piraquara",
        "state": "PR",
        "district": "Vila São Cristóvão",
        "street": "Rua Francisco José de Souza",
        "zipcode": "83305-220"
    },
    {
        "city": "Piraquara",
        "state": "PR",
        "district": "Vila Fuck",
        "street": "Rua Francisco Ribeiro Júnior",
        "zipcode": "83305-280"
    },
    {
        "city": "Piraquara",
        "state": "PR",
        "district": "Recreio da Serra",
        "street": "Alameda dos Coloreiros",
        "zipcode": "83305-500"
    },
    {
        "city": "Piraquara",
        "state": "PR",
        "district": "Vila São Cristóvão",
        "street": "Rua Guilherme Afonso Martins",
        "zipcode": "83305-440"
    },
    {
        "city": "Piraquara",
        "state": "PR",
        "district": "Vila São Cristóvão",
        "street": "Rua Guilherme Ribeiro",
        "zipcode": "83305-410"
    },
    {
        "city": "Piraquara",
        "state": "PR",
        "district": "Vila São Cristóvão",
        "street": "Rua Henrique Brudeck",
        "zipcode": "83305-345"
    },
    {
        "city": "Piraquara",
        "state": "PR",
        "district": "Vila Fuck",
        "street": "Rua Graciosa Jacomel DalCol",
        "zipcode": "83305-285"
    },
    {
        "city": "Piraquara",
        "state": "PR",
        "district": "Vila São Cristóvão",
        "street": "Rua Isolina Cordeiro de Souza",
        "zipcode": "83305-390"
    },
    {
        "city": "Piraquara",
        "state": "PR",
        "district": "Vila São Cristóvão",
        "street": "Rua Jorge Berberi",
        "zipcode": "83305-350"
    },
    {
        "city": "Piraquara",
        "state": "PR",
        "district": "Vila Fuck",
        "street": "Rua Júlio Biss",
        "zipcode": "83305-330"
    },
    {
        "city": "Piraquara",
        "state": "PR",
        "district": "Vila São Cristóvão",
        "street": "Rua Júlio Ribeiro de Barros",
        "zipcode": "83305-430"
    },
    {
        "city": "Piraquara",
        "state": "PR",
        "district": "Vila Fuck",
        "street": "Rua Leocádia Cordeiro Siqueira",
        "zipcode": "83305-470"
    },
    {
        "city": "Piraquara",
        "state": "PR",
        "district": "Centro",
        "street": "Rua Leônidas Alves Cordeiro",
        "zipcode": "83306-000"
    },
    {
        "city": "Piraquara",
        "state": "PR",
        "district": "Vila Fuck",
        "street": "Rua Kullian Fuck",
        "zipcode": "83305-295"
    },
    {
        "city": "Piraquara",
        "state": "PR",
        "district": "Vila Fuck",
        "street": "Rua Laurinda Ribeiro Vieira",
        "zipcode": "83305-300"
    },
    {
        "city": "Piraquara",
        "state": "PR",
        "district": "Recreio da Serra",
        "street": "Rua das Margaridas",
        "zipcode": "83305-550"
    },
    {
        "city": "Piraquara",
        "state": "PR",
        "district": "Vila São Cristóvão",
        "street": "Rua Martimiano Sabino da Silva",
        "zipcode": "83305-210"
    },
    {
        "city": "Piraquara",
        "state": "PR",
        "district": "Vila Fuck",
        "street": "Rua Mathias Jacomel Júnior",
        "zipcode": "83305-480"
    },
    {
        "city": "Piraquara",
        "state": "PR",
        "district": "Recreio da Serra",
        "street": "Rua dos Miosótis",
        "zipcode": "83305-560"
    },
    {
        "city": "Piraquara",
        "state": "PR",
        "district": "Recreio da Serra",
        "street": "Alameda das Orquídeas",
        "zipcode": "83305-580"
    },
    {
        "city": "Piraquara",
        "state": "PR",
        "district": "Recreio da Serra",
        "street": "Rua Ney Leprevost",
        "zipcode": "83305-570"
    },
    {
        "city": "Piraquara",
        "state": "PR",
        "district": "Vila Fuck",
        "street": "Rua Padre Mariano",
        "zipcode": "83305-270"
    },
    {
        "city": "Piraquara",
        "state": "PR",
        "district": "Recreio da Serra",
        "street": "Rua das Patativas",
        "zipcode": "83305-610"
    },
    {
        "city": "Piraquara",
        "state": "PR",
        "district": "Recreio da Serra",
        "street": "Rua dos Pintassilgos",
        "zipcode": "83305-620"
    },
    {
        "city": "Piraquara",
        "state": "PR",
        "district": "Vila Fuck",
        "street": "Rua Rosa Alves Pereira",
        "zipcode": "83305-320"
    },
    {
        "city": "Piraquara",
        "state": "PR",
        "district": "Recreio da Serra",
        "street": "Rua dos Sabiás",
        "zipcode": "83305-630"
    },
    {
        "city": "Piraquara",
        "state": "PR",
        "district": "Vila São Cristóvão",
        "street": "Rua Satorino Alves da Rocha",
        "zipcode": "83305-400"
    },
    {
        "city": "Piraquara",
        "state": "PR",
        "district": "Vila São Cristóvão",
        "street": "Rua Tenente Newton Lima",
        "zipcode": "83305-420"
    },
    {
        "city": "Piraquara",
        "state": "PR",
        "district": "Recreio da Serra",
        "street": "Rua das Tilápias",
        "zipcode": "83305-460"
    },
    {
        "city": "Piraquara",
        "state": "PR",
        "district": "Centro",
        "street": "Rua Vitório Scarante",
        "zipcode": "83306-020"
    },
    {
        "city": "Piraquara",
        "state": "PR",
        "district": "Vila São Cristóvão",
        "street": "Rua Voadete Smaka Ivanoski",
        "zipcode": "83305-360"
    },
    {
        "city": "Piraquara",
        "state": "PR",
        "district": "Vila Fuck",
        "street": "Rua Wismar da Costa Lima",
        "zipcode": "83305-250"
    },
    {
        "city": "Piraquara",
        "state": "PR",
        "district": "Recreio da Serra",
        "street": "Travessa José Leprevost",
        "zipcode": "83305-575"
    },
    {
        "city": "Piraquara",
        "state": "PR",
        "district": "Recreio da Serra",
        "street": "Rua das Araras",
        "zipcode": "83305-600"
    },
    {
        "city": "Piraquara",
        "state": "PR",
        "district": "Vila São Cristóvão",
        "street": "Rua João Meira",
        "zipcode": "83305-370"
    },
    {
        "city": "Piraquara",
        "state": "PR",
        "district": "Recreio da Serra",
        "street": "Rua dos Girassóis",
        "zipcode": "83305-540"
    },
    {
        "city": "Piraquara",
        "state": "PR",
        "district": "Recreio da Serra",
        "street": "Rua dos Tangarás",
        "zipcode": "83305-640"
    },
    {
        "city": "Piraquara",
        "state": "PR",
        "district": "Recreio da Serra",
        "street": "Rua dos Coleiros",
        "zipcode": "83305-650"
    },
    {
        "city": "Piraquara",
        "state": "PR",
        "district": "Planta Deodoro",
        "street": "Rua Antônio Valenga",
        "zipcode": "83304-330"
    },
    {
        "city": "Piraquara",
        "state": "PR",
        "district": "Vila Franca",
        "street": "Rua Antônio Vaz de Siqueira",
        "zipcode": "83305-050"
    },
    {
        "city": "Piraquara",
        "state": "PR",
        "district": "Vila Marumbi",
        "street": "Rua Antônio Zapchan",
        "zipcode": "83304-390"
    },
    {
        "city": "Piraquara",
        "state": "PR",
        "district": "Vila São Cristóvão",
        "street": "Rua Elias Alves Ferreira",
        "zipcode": "83305-090"
    },
    {
        "city": "Piraquara",
        "state": "PR",
        "district": "Borda do Campo",
        "street": "Rua Elisira Teodora Pereira",
        "zipcode": "83304-420"
    },
    {
        "city": "Piraquara",
        "state": "PR",
        "district": "Planta Deodoro",
        "street": "Rua Estanislau Iachinski",
        "zipcode": "83304-310"
    },
    {
        "city": "Piraquara",
        "state": "PR",
        "district": "Planta Deodoro",
        "street": "Rua Emiliano Gonçalves da Silva",
        "zipcode": "83304-340"
    },
    {
        "city": "Piraquara",
        "state": "PR",
        "district": "Borda do Campo",
        "street": "Rua Francisca Leal de Oliveira",
        "zipcode": "83304-425"
    },
    {
        "city": "Piraquara",
        "state": "PR",
        "district": "Planta Deodoro",
        "street": "Rua Gerdal Ribeiro",
        "zipcode": "83304-320"
    },
    {
        "city": "Piraquara",
        "state": "PR",
        "district": "Planta Irmãos Michel",
        "street": "Rua Eugênio Mazzarotto",
        "zipcode": "83304-360"
    },
    {
        "city": "Piraquara",
        "state": "PR",
        "district": "Vila São Cristóvão",
        "street": "Rua Francisco Leal",
        "zipcode": "83305-120"
    },
    {
        "city": "Piraquara",
        "state": "PR",
        "district": "Vila Izabel",
        "street": "Rua Francisco Pereira",
        "zipcode": "83305-140"
    },
    {
        "city": "Piraquara",
        "state": "PR",
        "district": "Planta Deodoro",
        "street": "Rua João Baron",
        "zipcode": "83304-300"
    },
    {
        "city": "Piraquara",
        "state": "PR",
        "district": "Planta Deodoro",
        "street": "Rua João Biss",
        "zipcode": "83304-355"
    },
    {
        "city": "Piraquara",
        "state": "PR",
        "district": "Vila Franca",
        "street": "Rua Joaquim Artigas",
        "zipcode": "83305-040"
    },
    {
        "city": "Piraquara",
        "state": "PR",
        "district": "Vila Izabel",
        "street": "Rua Francisco Correia Soares",
        "zipcode": "83305-130"
    },
    {
        "city": "Piraquara",
        "state": "PR",
        "district": "Vila Izabel",
        "street": "Rua Izabel Correia Soares",
        "zipcode": "83305-150"
    },
    {
        "city": "Piraquara",
        "state": "PR",
        "district": "Vila Franca",
        "street": "Rua José da Luz Cavalcanti",
        "zipcode": "83305-010"
    },
    {
        "city": "Piraquara",
        "state": "PR",
        "district": "Borda do Campo",
        "street": "Rua José Fernandes Ribeiro",
        "zipcode": "83304-427"
    },
    {
        "city": "Piraquara",
        "state": "PR",
        "district": "Planta Deodoro",
        "street": "Avenida Lírio Jacomel",
        "zipcode": "83304-290"
    },
    {
        "city": "Piraquara",
        "state": "PR",
        "district": "Vila São Cristóvão",
        "street": "Rua João Gugelmin",
        "zipcode": "83305-190"
    },
    {
        "city": "Piraquara",
        "state": "PR",
        "district": "Vila Franca",
        "street": "Rua Maria Valenga",
        "zipcode": "83305-085"
    },
    {
        "city": "Piraquara",
        "state": "PR",
        "district": "Vila São Cristóvão",
        "street": "Travessa Ondina de Souza",
        "zipcode": "83305-110"
    },
    {
        "city": "Piraquara",
        "state": "PR",
        "district": "Planta Deodoro",
        "street": "Rua da Paz",
        "zipcode": "83304-270"
    },
    {
        "city": "Piraquara",
        "state": "PR",
        "district": "Vila Marumbi",
        "street": "Rua Pedro Polati",
        "zipcode": "83304-380"
    },
    {
        "city": "Piraquara",
        "state": "PR",
        "district": "Planta Deodoro",
        "street": "Avenida Nilza Gelinsky de Faria",
        "zipcode": "83304-280"
    },
    {
        "city": "Piraquara",
        "state": "PR",
        "district": "Vila São Cristóvão",
        "street": "Rua Reinaldo Meira",
        "zipcode": "83305-100"
    },
    {
        "city": "Piraquara",
        "state": "PR",
        "district": "Vila Izabel",
        "street": "Travessa Raul Gomes",
        "zipcode": "83305-170"
    },
    {
        "city": "Piraquara",
        "state": "PR",
        "district": "Vila São Cristóvão",
        "street": "Rua Rodozindo Mazon",
        "zipcode": "83305-180"
    },
    {
        "city": "Piraquara",
        "state": "PR",
        "district": "Vila Franca",
        "street": "Rua Sandro Pereira da Silva",
        "zipcode": "83305-060"
    },
    {
        "city": "Piraquara",
        "state": "PR",
        "district": "Vila Izabel",
        "street": "Rua Valério Kovalczuck",
        "zipcode": "83305-160"
    },
    {
        "city": "Piraquara",
        "state": "PR",
        "district": "Planta Meireles",
        "street": "Rua Isídio Alves Ribeiro",
        "zipcode": "83304-240"
    },
    {
        "city": "Piraquara",
        "state": "PR",
        "district": "Vila Franca",
        "street": "Rua Alcy Dombroski",
        "zipcode": "83305-020"
    },
    {
        "city": "Piraquara",
        "state": "PR",
        "district": "Borda do Campo",
        "street": "Rua Minervino de Oliveira e Souza",
        "zipcode": "83304-426"
    },
    {
        "city": "Piraquara",
        "state": "PR",
        "district": "Planta Deodoro",
        "street": "Rua Shalon",
        "zipcode": "83304-260"
    },
    {
        "city": "Piraquara",
        "state": "PR",
        "district": "Vila Fuck",
        "street": "Rua Osmário de Oliveira Bastos",
        "zipcode": "83305-095"
    },
    {
        "city": "Piraquara",
        "state": "PR",
        "district": "Vila Franca",
        "street": "Rua Santim Bertassoni",
        "zipcode": "83305-030"
    },
    {
        "city": "Piraquara",
        "state": "PR",
        "district": "Vila Marumbi",
        "street": "Rua Carmem Santander",
        "zipcode": "83304-385"
    },
    {
        "city": "Piraquara",
        "state": "PR",
        "district": "Planta Suburbana",
        "street": "Rua Helena Cordeiro Favoretto",
        "zipcode": "83304-400"
    },
    {
        "city": "Piraquara",
        "state": "PR",
        "district": "Vila Izabel",
        "street": "Rua Luiza Milk Rodrigues",
        "zipcode": "83305-135"
    },
    {
        "city": "Piraquara",
        "state": "PR",
        "district": "Planta Cruzeiro",
        "street": "Rua Albertina Primo Schmitz",
        "zipcode": "83304-220"
    },
    {
        "city": "Piraquara",
        "state": "PR",
        "district": "Planta Cruzeiro",
        "street": "Rua Albino José de Souza",
        "zipcode": "83304-190"
    },
    {
        "city": "Piraquara",
        "state": "PR",
        "district": "Planta Suburbana",
        "street": "Rua José Lemos",
        "zipcode": "83304-407"
    },
    {
        "city": "Piraquara",
        "state": "PR",
        "district": "Planta Suburbana",
        "street": "Rua Olinda de Almeida Santos",
        "zipcode": "83304-402"
    },
    {
        "city": "Piraquara",
        "state": "PR",
        "district": "Planta Deodoro",
        "street": "Rua Mário de Jesus Simeão",
        "zipcode": "83304-342"
    },
    {
        "city": "Piraquara",
        "state": "PR",
        "district": "Planta Cruzeiro",
        "street": "Rua Alexandre Alves de Farias",
        "zipcode": "83304-200"
    },
    {
        "city": "Piraquara",
        "state": "PR",
        "district": "Vila Susi",
        "street": "Rua Alexandre Brasil",
        "zipcode": "83304-150"
    },
    {
        "city": "Piraquara",
        "state": "PR",
        "district": "Vila Rosa",
        "street": "Rua Altivir Schuli de Aguiar",
        "zipcode": "83304-010"
    },
    {
        "city": "Piraquara",
        "state": "PR",
        "district": "Vila Vicente Macedo",
        "street": "Avenida Brasília",
        "zipcode": "83303-320"
    },
    {
        "city": "Piraquara",
        "state": "PR",
        "district": "Vila Militar I",
        "street": "Rua Capitão Carlos Henrique de Castro",
        "zipcode": "83303-270"
    },
    {
        "city": "Piraquara",
        "state": "PR",
        "district": "Vila Militar I",
        "street": "Rua Capitão Tenente Maris de Barros",
        "zipcode": "83303-310"
    },
    {
        "city": "Piraquara",
        "state": "PR",
        "district": "Vila Susi",
        "street": "Rua Cícero Brasil",
        "zipcode": "83304-110"
    },
    {
        "city": "Piraquara",
        "state": "PR",
        "district": "Vila Militar I",
        "street": "Rua Coronel Adyr Guimarães",
        "zipcode": "83303-210"
    },
    {
        "city": "Piraquara",
        "state": "PR",
        "district": "Vila Militar I",
        "street": "Rua Coronel Benedito Tertuliano Cordeiro",
        "zipcode": "83303-190"
    },
    {
        "city": "Piraquara",
        "state": "PR",
        "district": "Vila Militar I",
        "street": "Rua Coronel Dulcídio",
        "zipcode": "83303-180"
    },
    {
        "city": "Piraquara",
        "state": "PR",
        "district": "Vila Militar I",
        "street": "Rua Coronel Eneas",
        "zipcode": "83303-170"
    },
    {
        "city": "Piraquara",
        "state": "PR",
        "district": "Vila Militar I",
        "street": "Rua Coronel Francisco de Paula Moura",
        "zipcode": "83303-260"
    },
    {
        "city": "Piraquara",
        "state": "PR",
        "district": "Vila Militar I",
        "street": "Rua Coronel Herculano de Araújo",
        "zipcode": "83303-290"
    },
    {
        "city": "Piraquara",
        "state": "PR",
        "district": "Vila Militar I",
        "street": "Rua Coronel Muniz de Aragão",
        "zipcode": "83303-280"
    },
    {
        "city": "Piraquara",
        "state": "PR",
        "district": "Vila Marumbi",
        "street": "Rua Dez de Novembro",
        "zipcode": "83304-085"
    },
    {
        "city": "Piraquara",
        "state": "PR",
        "district": "Vila Militar I",
        "street": "Rua Coronel Nicolau Bley Neto",
        "zipcode": "83303-230"
    },
    {
        "city": "Piraquara",
        "state": "PR",
        "district": "Vila Militar I",
        "street": "Rua Engenheiro José Gilberto Higino da Costa",
        "zipcode": "83303-340"
    },
    {
        "city": "Piraquara",
        "state": "PR",
        "district": "Planta Cruzeiro",
        "street": "Rua dos Funcionários",
        "zipcode": "83304-210"
    },
    {
        "city": "Piraquara",
        "state": "PR",
        "district": "Planta Cruzeiro",
        "street": "Rua Genésio Alves Pereira",
        "zipcode": "83304-170"
    },
    {
        "city": "Piraquara",
        "state": "PR",
        "district": "Vila Susi",
        "street": "Rua João Schmitz",
        "zipcode": "83304-100"
    },
    {
        "city": "Piraquara",
        "state": "PR",
        "district": "Vila Rosa",
        "street": "Rua José Leal Júnior",
        "zipcode": "83304-020"
    },
    {
        "city": "Piraquara",
        "state": "PR",
        "district": "Vila Militar I",
        "street": "Rua Major Bernardino Bormann",
        "zipcode": "83303-240"
    },
    {
        "city": "Piraquara",
        "state": "PR",
        "district": "Vila Militar I",
        "street": "Rua Major Fabriciano do Rego Barros",
        "zipcode": "83303-300"
    },
    {
        "city": "Piraquara",
        "state": "PR",
        "district": "Vila Militar I",
        "street": "Rua Major Inácio Gomes da Costa",
        "zipcode": "83303-220"
    },
    {
        "city": "Piraquara",
        "state": "PR",
        "district": "Vila Militar I",
        "street": "Rua Major Vicente de Castro",
        "zipcode": "83303-200"
    },
    {
        "city": "Piraquara",
        "state": "PR",
        "district": "Vila Susi",
        "street": "Rua José Nestor de Campos",
        "zipcode": "83304-130"
    },
    {
        "city": "Piraquara",
        "state": "PR",
        "district": "Vila Rosa",
        "street": "Rua Joan Elln Nowel",
        "zipcode": "83304-040"
    },
    {
        "city": "Piraquara",
        "state": "PR",
        "district": "Vila Vicente Macedo",
        "street": "Rua Natal",
        "zipcode": "83303-140"
    },
    {
        "city": "Piraquara",
        "state": "PR",
        "district": "Vila Militar I",
        "street": "Rua Perimetral",
        "zipcode": "83303-330"
    },
    {
        "city": "Piraquara",
        "state": "PR",
        "district": "Vila Rosa",
        "street": "Rua Richard Nowel",
        "zipcode": "83304-230"
    },
    {
        "city": "Piraquara",
        "state": "PR",
        "district": "Vila Rosa",
        "street": "Rua Ozir Schuli de Aguiar",
        "zipcode": "83304-060"
    },
    {
        "city": "Piraquara",
        "state": "PR",
        "district": "Vila Rosa",
        "street": "Rua Rômulo Polatti",
        "zipcode": "83304-030"
    },
    {
        "city": "Piraquara",
        "state": "PR",
        "district": "Vila Susi",
        "street": "Rua Rosa Probst Brasil",
        "zipcode": "83304-140"
    },
    {
        "city": "Piraquara",
        "state": "PR",
        "district": "Vila Militar I",
        "street": "Rua Engenheiro Max Antônio Rahm",
        "zipcode": "83303-174"
    },
    {
        "city": "Piraquara",
        "state": "PR",
        "district": "Vila Vicente Macedo",
        "street": "Rua São Luis",
        "zipcode": "83303-122"
    },
    {
        "city": "Piraquara",
        "state": "PR",
        "district": "Vila Vicente Macedo",
        "street": "Rua Vitória",
        "zipcode": "83303-160"
    },
    {
        "city": "Piraquara",
        "state": "PR",
        "district": "Planta Meireles",
        "street": "Rua Reinaldo Michel",
        "zipcode": "83304-250"
    },
    {
        "city": "Piraquara",
        "state": "PR",
        "district": "Vila Vicente Macedo",
        "street": "Rua Belo Horizonte",
        "zipcode": "83303-130"
    },
    {
        "city": "Piraquara",
        "state": "PR",
        "district": "Vila Marumbi",
        "street": "Rua Coronel Manoel Alves Cordeiro",
        "zipcode": "83304-080"
    },
    {
        "city": "Piraquara",
        "state": "PR",
        "district": "Vila Susi",
        "street": "Rua João Meyer",
        "zipcode": "83304-160"
    },
    {
        "city": "Piraquara",
        "state": "PR",
        "district": "Planta Meireles Sobrinho",
        "street": "Avenida Antônio Meireles Sobrinho",
        "zipcode": "83304-090"
    },
    {
        "city": "Piraquara",
        "state": "PR",
        "district": "Planta Cruzeiro",
        "street": "Rua Henrique Romrich",
        "zipcode": "83304-180"
    },
    {
        "city": "Piraquara",
        "state": "PR",
        "district": "Planta Suburbana",
        "street": "Rua Maximiliano Favoretto",
        "zipcode": "83304-405"
    },
    {
        "city": "Piraquara",
        "state": "PR",
        "district": "Planta O Recanto",
        "street": "Avenida Adhmar Vieira de Araújo",
        "zipcode": "83302-310"
    },
    {
        "city": "Piraquara",
        "state": "PR",
        "district": "Vila Dalila",
        "street": "Rua Aimorés",
        "zipcode": "83303-080"
    },
    {
        "city": "Piraquara",
        "state": "PR",
        "district": "Jardim Primavera",
        "street": "Rua Alexandre Fleming",
        "zipcode": "83302-130"
    },
    {
        "city": "Piraquara",
        "state": "PR",
        "district": "Vila Vicente Macedo",
        "street": "Rua Aracaju",
        "zipcode": "83303-100"
    },
    {
        "city": "Piraquara",
        "state": "PR",
        "district": "Vila Vicente Macedo",
        "street": "Rua Belém",
        "zipcode": "83303-020"
    },
    {
        "city": "Piraquara",
        "state": "PR",
        "district": "Jardim Santa Mônica",
        "street": "Rua Bom Sucesso",
        "zipcode": "83302-100"
    },
    {
        "city": "Piraquara",
        "state": "PR",
        "district": "Vila Dalila",
        "street": "Rua dos Caiapós",
        "zipcode": "83303-070"
    },
    {
        "city": "Piraquara",
        "state": "PR",
        "district": "Vila Vicente Macedo",
        "street": "Rua Cuiabá",
        "zipcode": "83303-120"
    },
    {
        "city": "Piraquara",
        "state": "PR",
        "district": "Jardim Primavera",
        "street": "Rua Engenheiro Pontoni",
        "zipcode": "83302-180"
    },
    {
        "city": "Piraquara",
        "state": "PR",
        "district": "Jardim Santa Mônica",
        "street": "Avenida Ferroviários",
        "zipcode": "83302-110"
    },
    {
        "city": "Piraquara",
        "state": "PR",
        "district": "Planta Meireles",
        "street": "Rua José Gomes",
        "zipcode": "83304-242"
    },
    {
        "city": "Piraquara",
        "state": "PR",
        "district": "Planta Deodoro",
        "street": "Rua Avenor de Souza Costa",
        "zipcode": "83304-302"
    },
    {
        "city": "Piraquara",
        "state": "PR",
        "district": "Jardim Santa Mônica",
        "street": "Rua Francisco de Assis",
        "zipcode": "83302-220"
    },
    {
        "city": "Piraquara",
        "state": "PR",
        "district": "Planta O Recanto",
        "street": "Avenida Francisco Vieira de Araújo",
        "zipcode": "83302-290"
    },
    {
        "city": "Piraquara",
        "state": "PR",
        "district": "Jardim Santa Mônica",
        "street": "Rua Glória",
        "zipcode": "83302-090"
    },
    {
        "city": "Piraquara",
        "state": "PR",
        "district": "Vila Vicente Macedo",
        "street": "Rua João Pessoa",
        "zipcode": "83303-050"
    },
    {
        "city": "Piraquara",
        "state": "PR",
        "district": "Vila Vicente Macedo",
        "street": "Rua Goiânia",
        "zipcode": "83303-030"
    },
    {
        "city": "Piraquara",
        "state": "PR",
        "district": "Jardim Primavera",
        "street": "Rua Ivaí",
        "zipcode": "83302-030"
    },
    {
        "city": "Piraquara",
        "state": "PR",
        "district": "Jardim Primavera",
        "street": "Rua João Batista Vera",
        "zipcode": "83302-190"
    },
    {
        "city": "Piraquara",
        "state": "PR",
        "district": "Jardim Primavera",
        "street": "Rodovia João Leopoldo Jacomel",
        "zipcode": "83302-000"
    },
    {
        "city": "Piraquara",
        "state": "PR",
        "district": "Jardim Primavera",
        "street": "Rua Laranjeira",
        "zipcode": "83302-020"
    },
    {
        "city": "Piraquara",
        "state": "PR",
        "district": "Jardim Primavera",
        "street": "Rua João Simbalista",
        "zipcode": "83302-010"
    },
    {
        "city": "Piraquara",
        "state": "PR",
        "district": "Jardim Primavera",
        "street": "Rua Mossoró",
        "zipcode": "83302-120"
    },
    {
        "city": "Piraquara",
        "state": "PR",
        "district": "Jardim Santa Mônica",
        "street": "Rua Maestro Wassilio Zebulski",
        "zipcode": "83302-300"
    },
    {
        "city": "Piraquara",
        "state": "PR",
        "district": "Jardim Santa Mônica",
        "street": "Rua Ouro Verde",
        "zipcode": "83302-080"
    },
    {
        "city": "Piraquara",
        "state": "PR",
        "district": "Jardim Santa Mônica",
        "street": "Avenida das Palmeiras",
        "zipcode": "83302-240"
    },
    {
        "city": "Piraquara",
        "state": "PR",
        "district": "Vila Vicente Macedo",
        "street": "Rua Maceió",
        "zipcode": "83303-000"
    },
    {
        "city": "Piraquara",
        "state": "PR",
        "district": "Vila Vicente Macedo",
        "street": "Rua Porto Alegre",
        "zipcode": "83303-040"
    },
    {
        "city": "Piraquara",
        "state": "PR",
        "district": "Jardim Santa Mônica",
        "street": "Travessa Real",
        "zipcode": "83302-050"
    },
    {
        "city": "Piraquara",
        "state": "PR",
        "district": "Jardim Primavera",
        "street": "Rua Salgueiro",
        "zipcode": "83302-150"
    },
    {
        "city": "Piraquara",
        "state": "PR",
        "district": "Jardim Santa Mônica",
        "street": "Rua Santa Clara",
        "zipcode": "83302-210"
    },
    {
        "city": "Piraquara",
        "state": "PR",
        "district": "Jardim Santa Mônica",
        "street": "Rua Santo Antônio",
        "zipcode": "83302-270"
    },
    {
        "city": "Piraquara",
        "state": "PR",
        "district": "Jardim Santa Mônica",
        "street": "Avenida São Roque",
        "zipcode": "83302-200"
    },
    {
        "city": "Piraquara",
        "state": "PR",
        "district": "Vila Vicente Macedo",
        "street": "Rua Recife",
        "zipcode": "83303-110"
    },
    {
        "city": "Piraquara",
        "state": "PR",
        "district": "Jardim Primavera",
        "street": "Rua Targino da Silva",
        "zipcode": "83302-160"
    },
    {
        "city": "Piraquara",
        "state": "PR",
        "district": "Jardim Santa Mônica",
        "street": "Rua Teixeira Soares",
        "zipcode": "83302-260"
    },
    {
        "city": "Piraquara",
        "state": "PR",
        "district": "Jardim Santa Mônica",
        "street": "Rua São Gabriel",
        "zipcode": "83302-280"
    },
    {
        "city": "Piraquara",
        "state": "PR",
        "district": "Vila Dalila",
        "street": "Rua Tupinambá",
        "zipcode": "83303-060"
    },
    {
        "city": "Piraquara",
        "state": "PR",
        "district": "Jardim Santa Mônica",
        "street": "Rua das Américas",
        "zipcode": "83302-070"
    },
    {
        "city": "Piraquara",
        "state": "PR",
        "district": "Jardim Primavera",
        "street": "Rua Oswaldo Cruz",
        "zipcode": "83302-140"
    },
    {
        "city": "Piraquara",
        "state": "PR",
        "district": "Vila Vicente Macedo",
        "street": "Rua Fortaleza",
        "zipcode": "83303-010"
    },
    {
        "city": "Piraquara",
        "state": "PR",
        "district": "Jardim Santa Mônica",
        "street": "Rua Paulina Pereira da Luz Sobrinho",
        "zipcode": "83302-060"
    },
    {
        "city": "Piraquara",
        "state": "PR",
        "district": "Jardim Santa Mônica",
        "street": "Rua Coronel Machado Lopes",
        "zipcode": "83302-250"
    },
    {
        "city": "Piraquara",
        "state": "PR",
        "district": "Planta Vila Iraí",
        "street": "Rua Professor Índio Corrêa",
        "zipcode": "83302-320"
    },
    {
        "city": "Piraquara",
        "state": "PR",
        "district": "Vila Vicente Macedo",
        "street": "Rua Boa Vista",
        "zipcode": "83303-032"
    },
    {
        "city": "Piraquara",
        "state": "PR",
        "district": "Vila Vicente Macedo",
        "street": "Rua Salvador",
        "zipcode": "83303-034"
    },
    {
        "city": "Piraquara",
        "state": "PR",
        "district": "Planta Vila Iraí",
        "street": "Rua José Komadowski",
        "zipcode": "83302-330"
    },
    {
        "city": "Piraquara",
        "state": "PR",
        "district": "Planta Vila Iraí",
        "street": "Rua Lilian de Carvalho Neme Kenski",
        "zipcode": "83302-335"
    },
    {
        "city": "Piraquara",
        "state": "PR",
        "district": "Planta Vila Iraí",
        "street": "Rua Eduardo Corrêa Lima",
        "zipcode": "83302-326"
    },
    {
        "city": "Piraquara",
        "state": "PR",
        "district": "Vila San Remo I",
        "street": "Rua Alberto Guerra",
        "zipcode": "83301-730"
    },
    {
        "city": "Piraquara",
        "state": "PR",
        "district": "Vila San Remo I",
        "street": "Rua Alceu Gonçalves Muhnlenhoff",
        "zipcode": "83301-720"
    },
    {
        "city": "Piraquara",
        "state": "PR",
        "district": "Planta Araçatuba",
        "street": "Rua Araçatuba",
        "zipcode": "83301-550"
    },
    {
        "city": "Piraquara",
        "state": "PR",
        "district": "Planta Araçatuba",
        "street": "Rua Araucária",
        "zipcode": "83301-420"
    },
    {
        "city": "Piraquara",
        "state": "PR",
        "district": "Jardim Esmeralda",
        "street": "Travessa dos Batistas",
        "zipcode": "83301-370"
    },
    {
        "city": "Piraquara",
        "state": "PR",
        "district": "Vila San Remo I",
        "street": "Rua Antônio Baptista Salgueiro",
        "zipcode": "83301-740"
    },
    {
        "city": "Piraquara",
        "state": "PR",
        "district": "Centro",
        "street": "Rua Armando Romani",
        "zipcode": "83301-680"
    },
    {
        "city": "Piraquara",
        "state": "PR",
        "district": "Centro",
        "street": "Rua Carlos Reichmann",
        "zipcode": "83301-510"
    },
    {
        "city": "Piraquara",
        "state": "PR",
        "district": "Planta Araçatuba",
        "street": "Rua Curitiba",
        "zipcode": "83301-660"
    },
    {
        "city": "Piraquara",
        "state": "PR",
        "district": "Jardim Esmeralda",
        "street": "Rua Dante Aligheri",
        "zipcode": "83301-395"
    },
    {
        "city": "Piraquara",
        "state": "PR",
        "district": "Jardim Esmeralda",
        "street": "Avenida Brasília",
        "zipcode": "83301-390"
    },
    {
        "city": "Piraquara",
        "state": "PR",
        "district": "Centro",
        "street": "Rua Eziquiel Pinto",
        "zipcode": "83301-630"
    },
    {
        "city": "Piraquara",
        "state": "PR",
        "district": "Centro",
        "street": "Rua Francisco Leal",
        "zipcode": "83301-700"
    },
    {
        "city": "Piraquara",
        "state": "PR",
        "district": "Planta Araçatuba",
        "street": "Rua Francisco Schuartz",
        "zipcode": "83301-560"
    },
    {
        "city": "Piraquara",
        "state": "PR",
        "district": "Centro",
        "street": "Rua Francisco de Souza",
        "zipcode": "83301-615"
    },
    {
        "city": "Piraquara",
        "state": "PR",
        "district": "Planta Araçatuba",
        "street": "Rua Gilberto Nascimento",
        "zipcode": "83301-480"
    },
    {
        "city": "Piraquara",
        "state": "PR",
        "district": "Jardim Bom Jesus dos Passos",
        "street": "Rua Guilherme Beetz",
        "zipcode": "83301-570"
    },
    {
        "city": "Piraquara",
        "state": "PR",
        "district": "Centro",
        "street": "Rua Guilhermina Clippel Gaio",
        "zipcode": "83301-535"
    },
    {
        "city": "Piraquara",
        "state": "PR",
        "district": "Planta Araçatuba",
        "street": "Rua Irati",
        "zipcode": "83301-400"
    },
    {
        "city": "Piraquara",
        "state": "PR",
        "district": "Planta Araçatuba",
        "street": "Rua José Clenck",
        "zipcode": "83301-425"
    },
    {
        "city": "Piraquara",
        "state": "PR",
        "district": "Centro",
        "street": "Rua Eliseu José Hipólito",
        "zipcode": "83301-610"
    },
    {
        "city": "Piraquara",
        "state": "PR",
        "district": "Planta Araçatuba",
        "street": "Rua José Jardelino de Brito",
        "zipcode": "83301-490"
    },
    {
        "city": "Piraquara",
        "state": "PR",
        "district": "Planta Araçatuba",
        "street": "Rua Lapa",
        "zipcode": "83301-665"
    },
    {
        "city": "Piraquara",
        "state": "PR",
        "district": "Planta Araçatuba",
        "street": "Rua Júlio Keques",
        "zipcode": "83301-485"
    },
    {
        "city": "Piraquara",
        "state": "PR",
        "district": "Planta Araçatuba",
        "street": "Rua Londrina",
        "zipcode": "83301-600"
    },
    {
        "city": "Piraquara",
        "state": "PR",
        "district": "Centro",
        "street": "Rua Major José Luciano",
        "zipcode": "83301-540"
    },
    {
        "city": "Piraquara",
        "state": "PR",
        "district": "Planta Araçatuba",
        "street": "Rua Malet",
        "zipcode": "83301-515"
    },
    {
        "city": "Piraquara",
        "state": "PR",
        "district": "Planta Araçatuba",
        "street": "Rua Maringá",
        "zipcode": "83301-590"
    },
    {
        "city": "Piraquara",
        "state": "PR",
        "district": "Jardim Esmeralda",
        "street": "Rua Mathias Jacomel",
        "zipcode": "83301-380"
    },
    {
        "city": "Piraquara",
        "state": "PR",
        "district": "Vila San Remo I",
        "street": "Rua Miguel Vítor da Silva Pinto",
        "zipcode": "83301-750"
    },
    {
        "city": "Piraquara",
        "state": "PR",
        "district": "Planta Araçatuba",
        "street": "Rua Morretes",
        "zipcode": "83301-430"
    },
    {
        "city": "Piraquara",
        "state": "PR",
        "district": "Centro",
        "street": "Rua Nossa Senhora de Fátima",
        "zipcode": "83301-640"
    },
    {
        "city": "Piraquara",
        "state": "PR",
        "district": "Centro",
        "street": "Rua Padre João Leconte",
        "zipcode": "83301-710"
    },
    {
        "city": "Piraquara",
        "state": "PR",
        "district": "Planta Araçatuba",
        "street": "Rua Paranaguá",
        "zipcode": "83301-450"
    },
    {
        "city": "Piraquara",
        "state": "PR",
        "district": "Planta Araçatuba",
        "street": "Rua Ponta Grossa",
        "zipcode": "83301-460"
    },
    {
        "city": "Piraquara",
        "state": "PR",
        "district": "Planta Araçatuba",
        "street": "Rua Rosa Baldassari Corradi",
        "zipcode": "83301-426"
    },
    {
        "city": "Piraquara",
        "state": "PR",
        "district": "Centro",
        "street": "Rua Tenente Antônio Cardona de Aguiar",
        "zipcode": "83301-620"
    },
    {
        "city": "Piraquara",
        "state": "PR",
        "district": "Planta Araçatuba",
        "street": "Rua Tibagi",
        "zipcode": "83301-410"
    },
    {
        "city": "Piraquara",
        "state": "PR",
        "district": "Planta Araçatuba",
        "street": "Rua Campo Mourão",
        "zipcode": "83301-470"
    },
    {
        "city": "Piraquara",
        "state": "PR",
        "district": "Centro",
        "street": "Rua Francisco Alves de Oliveira",
        "zipcode": "83301-625"
    },
    {
        "city": "Piraquara",
        "state": "PR",
        "district": "Centro",
        "street": "Rua Roque Vernalha",
        "zipcode": "83301-690"
    },
    {
        "city": "Piraquara",
        "state": "PR",
        "district": "Centro",
        "street": "Rua Vitório Scarante",
        "zipcode": "83301-530"
    },
    {
        "city": "Piraquara",
        "state": "PR",
        "district": "Planta Araçatuba",
        "street": "Rua Xambrê",
        "zipcode": "83301-495"
    },
    {
        "city": "Piraquara",
        "state": "PR",
        "district": "Vila Ipanema",
        "street": "Rua Acyr Gonçalves Martins",
        "zipcode": "83301-020"
    },
    {
        "city": "Piraquara",
        "state": "PR",
        "district": "Jardim Esmeralda",
        "street": "Rua Hercília C. Rodrigues",
        "zipcode": "83301-360"
    },
    {
        "city": "Piraquara",
        "state": "PR",
        "district": "Planta Araçatuba",
        "street": "Rua Elvira Lorusso do Nascimento",
        "zipcode": "83301-500"
    },
    {
        "city": "Piraquara",
        "state": "PR",
        "district": "Planta Araçatuba",
        "street": "Rua Guaratuba",
        "zipcode": "83301-435"
    },
    {
        "city": "Piraquara",
        "state": "PR",
        "district": "Planta Araçatuba",
        "street": "Rua Palmas",
        "zipcode": "83301-445"
    },
    {
        "city": "Piraquara",
        "state": "PR",
        "district": "Planta Araçatuba",
        "street": "Avenida Rebouças",
        "zipcode": "83301-670"
    },
    {
        "city": "Piraquara",
        "state": "PR",
        "district": "Centro",
        "street": "Avenida Getúlio Vargas",
        "zipcode": "83301-970"
    },
    {
        "city": "Piraquara",
        "state": "PR",
        "district": "Vila Ipanema",
        "street": "Rua Arthur Martins",
        "zipcode": "83301-030"
    },
    {
        "city": "Piraquara",
        "state": "PR",
        "district": "Centro",
        "street": "Rua Barão do Cerro Azul",
        "zipcode": "83301-000"
    },
    {
        "city": "Piraquara",
        "state": "PR",
        "district": "Jardim Bela Vista",
        "street": "Rua Barão do Rio Branco",
        "zipcode": "83301-080"
    },
    {
        "city": "Piraquara",
        "state": "PR",
        "district": "Vila Ipanema",
        "street": "Rua Antônio Aparecido Esteves",
        "zipcode": "83301-059"
    },
    {
        "city": "Piraquara",
        "state": "PR",
        "district": "Vila Ipanema",
        "street": "Rua Antônio da Silva Pinto",
        "zipcode": "83301-055"
    },
    {
        "city": "Piraquara",
        "state": "PR",
        "district": "Vila Ipanema",
        "street": "Rua Carlos Petersen",
        "zipcode": "83301-046"
    },
    {
        "city": "Piraquara",
        "state": "PR",
        "district": "Vila Ipanema",
        "street": "Rua Ataíde Alves da Costa",
        "zipcode": "83301-056"
    },
    {
        "city": "Piraquara",
        "state": "PR",
        "district": "Jardim Bela Vista",
        "street": "Rua Dom João VI",
        "zipcode": "83301-280"
    },
    {
        "city": "Piraquara",
        "state": "PR",
        "district": "Jardim Esmeralda",
        "street": "Rua Doutor José de Dominicis",
        "zipcode": "83301-350"
    },
    {
        "city": "Piraquara",
        "state": "PR",
        "district": "Jardim Bela Vista",
        "street": "Rua Dom Pedro I",
        "zipcode": "83301-270"
    },
    {
        "city": "Piraquara",
        "state": "PR",
        "district": "Vila Ipanema",
        "street": "Rua Cristóvão Colombo",
        "zipcode": "83301-310"
    },
    {
        "city": "Piraquara",
        "state": "PR",
        "district": "Planta Santo Antônio",
        "street": "Travessa Deodoro",
        "zipcode": "83301-505"
    },
    {
        "city": "Piraquara",
        "state": "PR",
        "district": "Vila Ipanema",
        "street": "Avenida Engenheiro Jairo Sebastião Ferrari",
        "zipcode": "83301-045"
    },
    {
        "city": "Piraquara",
        "state": "PR",
        "district": "Jardim Bela Vista",
        "street": "Rua Duarte da Costa",
        "zipcode": "83301-070"
    },
    {
        "city": "Piraquara",
        "state": "PR",
        "district": "Jardim Bela Vista",
        "street": "Rua Duque de Caxias",
        "zipcode": "83301-230"
    },
    {
        "city": "Piraquara",
        "state": "PR",
        "district": "Vila Ipanema",
        "street": "Rua Expedicionário Carlos Alberto Frederico Bahr",
        "zipcode": "83301-057"
    },
    {
        "city": "Piraquara",
        "state": "PR",
        "district": "Centro",
        "street": "Avenida Getúlio Vargas",
        "zipcode": "83301-010"
    },
    {
        "city": "Piraquara",
        "state": "PR",
        "district": "Jardim Bela Vista",
        "street": "Rua Estácio de Sá",
        "zipcode": "83301-050"
    },
    {
        "city": "Piraquara",
        "state": "PR",
        "district": "Vila Ipanema",
        "street": "Rua Francisca Assis Center",
        "zipcode": "83301-036"
    },
    {
        "city": "Piraquara",
        "state": "PR",
        "district": "Jardim Esmeralda",
        "street": "Rua Frei Nicodemus Grundhoff",
        "zipcode": "83301-320"
    },
    {
        "city": "Piraquara",
        "state": "PR",
        "district": "Jardim Bela Vista",
        "street": "Rua Guttemberg",
        "zipcode": "83301-100"
    },
    {
        "city": "Piraquara",
        "state": "PR",
        "district": "Vila Ipanema",
        "street": "Rua Horácio de Oliveira",
        "zipcode": "83301-047"
    },
    {
        "city": "Piraquara",
        "state": "PR",
        "district": "Jardim Bela Vista",
        "street": "Avenida Independência",
        "zipcode": "83301-220"
    },
    {
        "city": "Piraquara",
        "state": "PR",
        "district": "Jardim Bela Vista",
        "street": "Travessa do Café",
        "zipcode": "83301-065"
    },
    {
        "city": "Piraquara",
        "state": "PR",
        "district": "Jardim Bela Vista",
        "street": "Rua Graciosa",
        "zipcode": "83301-140"
    },
    {
        "city": "Piraquara",
        "state": "PR",
        "district": "Vila Ipanema",
        "street": "Rua Ipanema",
        "zipcode": "83301-040"
    },
    {
        "city": "Piraquara",
        "state": "PR",
        "district": "Jardim Esmeralda",
        "street": "Rua João Gonçalves Cordeiro",
        "zipcode": "83301-365"
    },
    {
        "city": "Piraquara",
        "state": "PR",
        "district": "Jardim Esmeralda",
        "street": "Avenida Josemael Alberti",
        "zipcode": "83301-330"
    },
    {
        "city": "Piraquara",
        "state": "PR",
        "district": "Jardim Bela Vista",
        "street": "Rua Júlia da Silva",
        "zipcode": "83301-200"
    },
    {
        "city": "Piraquara",
        "state": "PR",
        "district": "Vila Ipanema",
        "street": "Rua Manoel Alves Teixeira",
        "zipcode": "83301-035"
    },
    {
        "city": "Piraquara",
        "state": "PR",
        "district": "Jardim Bela Vista",
        "street": "Rua Martim Afonso",
        "zipcode": "83301-190"
    },
    {
        "city": "Piraquara",
        "state": "PR",
        "district": "Jardim Bela Vista",
        "street": "Rua Marechal Hermes",
        "zipcode": "83301-210"
    },
    {
        "city": "Piraquara",
        "state": "PR",
        "district": "Jardim Bela Vista",
        "street": "Rua Miguel Couto",
        "zipcode": "83301-130"
    },
    {
        "city": "Piraquara",
        "state": "PR",
        "district": "Jardim Bela Vista",
        "street": "Rua Monte Castelo",
        "zipcode": "83301-110"
    },
    {
        "city": "Piraquara",
        "state": "PR",
        "district": "Jardim Bela Vista",
        "street": "Rua Olavo Bilac",
        "zipcode": "83301-135"
    },
    {
        "city": "Piraquara",
        "state": "PR",
        "district": "Jardim Bela Vista",
        "street": "Rua Mem de Sá",
        "zipcode": "83301-290"
    },
    {
        "city": "Piraquara",
        "state": "PR",
        "district": "Jardim Bela Vista",
        "street": "Rua Padre Anchieta",
        "zipcode": "83301-160"
    },
    {
        "city": "Piraquara",
        "state": "PR",
        "district": "Vila Ipanema",
        "street": "Rua Pedro Álvares Cabral",
        "zipcode": "83301-300"
    },
    {
        "city": "Piraquara",
        "state": "PR",
        "district": "Jardim Bela Vista",
        "street": "Avenida Nações Unidas",
        "zipcode": "83301-170"
    },
    {
        "city": "Piraquara",
        "state": "PR",
        "district": "Jardim Bela Vista",
        "street": "Rua Padre Agostinho",
        "zipcode": "83301-180"
    },
    {
        "city": "Piraquara",
        "state": "PR",
        "district": "Jardim Bela Vista",
        "street": "Rua Tiradentes",
        "zipcode": "83301-260"
    },
    {
        "city": "Piraquara",
        "state": "PR",
        "district": "Vila Ipanema",
        "street": "Rua Vergínio Senter",
        "zipcode": "83301-215"
    },
    {
        "city": "Piraquara",
        "state": "PR",
        "district": "Jardim Bela Vista",
        "street": "Rua Visconde de Cairu",
        "zipcode": "83301-120"
    },
    {
        "city": "Piraquara",
        "state": "PR",
        "district": "Jardim Bela Vista",
        "street": "Rua Princesa Isabel",
        "zipcode": "83301-150"
    },
    {
        "city": "Piraquara",
        "state": "PR",
        "district": "Vila Ipanema",
        "street": "Avenida Vereador Orlando Santander Francisco",
        "zipcode": "83301-048"
    },
    {
        "city": "Piraquara",
        "state": "PR",
        "district": "Jardim Bela Vista",
        "street": "Rua Carlos Gomes",
        "zipcode": "83301-240"
    },
    {
        "city": "Piraquara",
        "state": "PR",
        "district": "Vila Ipanema",
        "street": "Travessa Tenente Adolfo Schuartz",
        "zipcode": "83301-025"
    },
    {
        "city": "Piraquara",
        "state": "PR",
        "district": "Jardim Bela Vista",
        "street": "Rua Júlia da Costa",
        "zipcode": "83301-155"
    },
    {
        "city": "Piraquara",
        "state": "PR",
        "district": "Centro",
        "street": "Rua Nova Tirol",
        "zipcode": "83301-644"
    },
    {
        "city": "Piraquara",
        "state": "PR",
        "district": "Vila São Tiago",
        "street": "Rua Indaial",
        "zipcode": "83307-180"
    },
    {
        "city": "Piraquara",
        "state": "PR",
        "district": "Guarituba",
        "street": "Rua Cassiano de Lima",
        "zipcode": "83312-140"
    },
    {
        "city": "Piraquara",
        "state": "PR",
        "district": "Guarituba",
        "street": "Rua Armindo Braun",
        "zipcode": "83312-093"
    },
    {
        "city": "Piraquara",
        "state": "PR",
        "district": "Guarituba",
        "street": "Rua Attílio Pedão",
        "zipcode": "83310-430"
    },
    {
        "city": "Piraquara",
        "state": "PR",
        "district": "Planta Santa Lúcia",
        "street": "Rua Dorvalina dos Santos",
        "zipcode": "83311-120"
    },
    {
        "city": "Piraquara",
        "state": "PR",
        "district": "Planta Chaune",
        "street": "Rua Ângelo Jacomel",
        "zipcode": "83306-054"
    },
    {
        "city": "Piraquara",
        "state": "PR",
        "district": "Jardim Esmeralda",
        "street": "Rua Mira Haluch",
        "zipcode": "83301-322"
    },
    {
        "city": "Piraquara",
        "state": "PR",
        "district": "Borda do Campo",
        "street": "Rua Engenheiro José Gilberto Higino da Costa",
        "zipcode": "83304-410"
    },
    {
        "city": "Piraquara",
        "state": "PR",
        "district": "Vila Franca",
        "street": "Rua Ignes Zaramella Mulhenhoff",
        "zipcode": "83305-080"
    },
    {
        "city": "Piraquara",
        "state": "PR",
        "district": "Vila Franca",
        "street": "Avenida Jacob Valenga",
        "zipcode": "83305-000"
    },
    {
        "city": "Piraquara",
        "state": "PR",
        "district": "Vila Rosa",
        "street": "Rua João Meireles",
        "zipcode": "83304-050"
    },
    {
        "city": "Piraquara",
        "state": "PR",
        "district": "Águas Claras",
        "street": "Rua KS",
        "zipcode": "83309-020"
    },
    {
        "city": "Piraquara",
        "state": "PR",
        "district": "Vila Ipanema",
        "street": "Rua Luiz Gonçalves de Araújo",
        "zipcode": "83301-058"
    },
    {
        "city": "Piraquara",
        "state": "PR",
        "district": "Vila Juliana",
        "street": "Rua Pio XII",
        "zipcode": "83306-160"
    },
    {
        "city": "Piraquara",
        "state": "PR",
        "district": "Guarituba",
        "street": "Rua das Tulipas",
        "zipcode": "83310-310"
    },
    {
        "city": "Piraquara",
        "state": "PR",
        "district": "Águas Claras",
        "street": "Rua Seis (Vila Militar)",
        "zipcode": "83309-180"
    },
    {
        "city": "Piraquara",
        "state": "PR",
        "district": "Jardim Bela Vista",
        "street": "Rua do Café",
        "zipcode": "83301-085"
    },
    {
        "city": "Piraquara",
        "state": "PR",
        "district": "Planta Araçatuba",
        "street": "Rua Francisco Soares de Souza",
        "zipcode": "83301-566"
    },
    {
        "city": "Piraquara",
        "state": "PR",
        "district": "Vila Ipanema",
        "street": "Rua Carlos Alberto Frederico",
        "zipcode": "83301-037"
    },
    {
        "city": "Piraquara",
        "state": "PR",
        "district": "Recreio da Serra",
        "street": "Rua Samambaias",
        "zipcode": "83305-670"
    },
    {
        "city": "Piraquara",
        "state": "PR",
        "district": "Vila Juliana",
        "street": "Travessa Antônio Simião",
        "zipcode": "83306-095"
    },
    {
        "city": "Piraquara",
        "state": "PR",
        "district": "Planta Granjas Eldorado",
        "street": "Rua Nivaldo Rodrigues",
        "zipcode": "83309-380"
    },
    {
        "city": "Piraquara",
        "state": "PR",
        "district": "Planta Amazonas",
        "street": "Rua Célia Regina do Nascimento Goinski",
        "zipcode": "83311-370"
    },
    {
        "city": "Piraquara",
        "state": "PR",
        "district": "Guarituba",
        "street": "Rua Pedro Goinski",
        "zipcode": "83311-305"
    },
    {
        "city": "Piraquara",
        "state": "PR",
        "district": "Guarituba",
        "street": "Rua Fridolino Grabner",
        "zipcode": "83310-288"
    },
    {
        "city": "Piraquara",
        "state": "PR",
        "district": "Guarituba",
        "street": "Rua União da Vitória",
        "zipcode": "83314-170"
    },
    {
        "city": "Piraquara",
        "state": "PR",
        "district": "Planta Araçatuba",
        "street": "Rua Guarapuava",
        "zipcode": "83301-440"
    },
    {
        "city": "Piraquara",
        "state": "PR",
        "district": "Jardim dos Estados 2",
        "street": "Rua Goiás",
        "zipcode": "83308-250"
    },
    {
        "city": "Piraquara",
        "state": "PR",
        "district": "Jardim dos Estados 2",
        "street": "Rua Rondônia",
        "zipcode": "83308-280"
    },
    {
        "city": "Piraquara",
        "state": "PR",
        "district": "Guarituba",
        "street": "Rua Argentina",
        "zipcode": "83311-515"
    },
    {
        "city": "Piraquara",
        "state": "PR",
        "district": "Guarituba",
        "street": "Avenida Amsterdã",
        "zipcode": "83312-010"
    },
    {
        "city": "Piraquara",
        "state": "PR",
        "district": "Vila Vicente Macedo",
        "street": "Rua Manaus",
        "zipcode": "83303-150"
    },
    {
        "city": "Piraquara",
        "state": "PR",
        "district": "Centro",
        "street": "Rua Nova Londrina",
        "zipcode": "83301-520"
    },
    {
        "city": "Piraquara",
        "state": "PR",
        "district": "Recreio da Serra",
        "street": "Alameda das Petúnias",
        "zipcode": "83305-660"
    },
    {
        "city": "Piraquara",
        "state": "PR",
        "district": "Vila Santa Maria",
        "street": "Praça Osmário Gaio",
        "zipcode": "83306-345"
    },
    {
        "city": "Piraquara",
        "state": "PR",
        "district": "Planta Pontoni Filho",
        "street": "Rua Júlio César Dutra",
        "zipcode": "83314-306"
    },
    {
        "city": "Piraquara",
        "state": "PR",
        "district": "Águas Claras",
        "street": "Rua do Botiatuva",
        "zipcode": "83309-010"
    },
    {
        "city": "Piraquara",
        "state": "PR",
        "district": "Vila São Tiago",
        "street": "Rua Blumenau",
        "zipcode": "83306-220"
    },
    {
        "city": "Piraquara",
        "state": "PR",
        "district": "Jardim Bela Vista",
        "street": "Avenida Centenário do Paraná",
        "zipcode": "83301-060"
    },
    {
        "city": "Piraquara",
        "state": "PR",
        "district": null,
        "street": "Rua Graciosa",
        "zipcode": "83301-990"
    },
    {
        "city": "Piraquara",
        "state": "PR",
        "district": null,
        "street": "Estrada da Barragem",
        "zipcode": "83307-992"
    },
    {
        "city": "Piraquara",
        "state": "PR",
        "district": "Planta Araçatuba",
        "street": "Rua Antônio Schuartz",
        "zipcode": "83301-565"
    },
    {
        "city": "Piraquara",
        "state": "PR",
        "district": "Jardim Bela Vista",
        "street": "Rua Dom Pedro II",
        "zipcode": "83301-250"
    },
    {
        "city": "Piraquara",
        "state": "PR",
        "district": "Guarituba",
        "street": "Rua Penha",
        "zipcode": "83314-150"
    },
    {
        "city": "Piraquara",
        "state": "PR",
        "district": "Planta Araçatuba",
        "street": "Travessa Pinheirinho",
        "zipcode": "83301-427"
    },
    {
        "city": "Piraquara",
        "state": "PR",
        "district": "Jardim Santa Helena",
        "street": "Rua Rodrigo Wandembruck",
        "zipcode": "83308-488"
    },
    {
        "city": "Piraquara",
        "state": "PR",
        "district": "Centro",
        "street": "Avenida Getúlio Vargas",
        "zipcode": "83301-971"
    },
    {
        "city": "Piraquara",
        "state": "PR",
        "district": "Guarituba",
        "street": "Rua José Rodrigues dos Santos",
        "zipcode": "83311-298"
    },
    {
        "city": "Piraquara",
        "state": "PR",
        "district": "Guarituba",
        "street": "Rua Guiana Francesa",
        "zipcode": "83311-494"
    },
    {
        "city": "Piraquara",
        "state": "PR",
        "district": "Guarituba",
        "street": "Rua El Salvador",
        "zipcode": "83311-473"
    },
    {
        "city": "Piraquara",
        "state": "PR",
        "district": "Guarituba",
        "street": "Rua Jamaica",
        "zipcode": "83311-440"
    },
    {
        "city": "Piraquara",
        "state": "PR",
        "district": "Guarituba",
        "street": "Rua Haiti",
        "zipcode": "83311-449"
    },
    {
        "city": "Piraquara",
        "state": "PR",
        "district": "Guarituba",
        "street": "Avenida Venezuela",
        "zipcode": "83311-518"
    },
    {
        "city": "Piraquara",
        "state": "PR",
        "district": "Guarituba",
        "street": "Avenida Projetada Guatupê",
        "zipcode": "83311-464"
    },
    {
        "city": "Piraquara",
        "state": "PR",
        "district": "Vila Rosa",
        "street": "Rua Adelaide Schuli de Aguiar",
        "zipcode": "83304-070"
    },
    {
        "city": "Piraquara",
        "state": "PR",
        "district": "Planta Vila Nova",
        "street": "Rua Adelaide Teixeira Goes",
        "zipcode": "83314-290"
    },
    {
        "city": "Piraquara",
        "state": "PR",
        "district": "Nemari V",
        "street": "Rua Diego Roberto de Barros Biss",
        "zipcode": "83309-210"
    },
    {
        "city": "Piraquara",
        "state": "PR",
        "district": "Guarituba",
        "street": "Rua do Abacateiro",
        "zipcode": "83310-360"
    },
    {
        "city": "Piraquara",
        "state": "PR",
        "district": "Jardim Bom Jesus dos Passos",
        "street": "Rua Adélio Gomes de Aguiar",
        "zipcode": "83301-580"
    },
    {
        "city": "Piraquara",
        "state": "PR",
        "district": "Planta Belvedere",
        "street": "Rua Adivino Pereira do Nascimento",
        "zipcode": "83311-210"
    },
    {
        "city": "Piraquara",
        "state": "PR",
        "district": "Planta Laranjeiras",
        "street": "Praça Affonso Marcos Favoretto",
        "zipcode": "83307-290"
    },
    {
        "city": "Piraquara",
        "state": "PR",
        "district": "Vila Fuck",
        "street": "Rua Affonso Favoretto",
        "zipcode": "83305-260"
    },
    {
        "city": "Piraquara",
        "state": "PR",
        "district": "Vila Juliana",
        "street": "Rua Alexandre Gugelmim",
        "zipcode": "83306-090"
    },
    {
        "city": "Piraquara",
        "state": "PR",
        "district": "Jardim Bela Vista",
        "street": "Rua Almirante Barroso",
        "zipcode": "83301-090"
    },
    {
        "city": "Piraquara",
        "state": "PR",
        "district": "Vila San Remo I",
        "street": "Rua Amadeu Chimim",
        "zipcode": "83301-760"
    },
    {
        "city": "Piraquara",
        "state": "PR",
        "district": "Planta Deodoro",
        "street": "Rua Antônio Alceu Zielonca",
        "zipcode": "83304-305"
    },
    {
        "city": "Piraquara",
        "state": "PR",
        "district": "Centro",
        "street": "Praça Antônio Kowalczuk",
        "zipcode": "83301-695"
    },
    {
        "city": "Piraquara",
        "state": "PR",
        "district": "Vila Juliana",
        "street": "Rua Apolônia Bruneti Gugelmim",
        "zipcode": "83306-130"
    },
    {
        "city": "Piraquara",
        "state": "PR",
        "district": "Jardim dos Estados 2",
        "street": "Rua Aristides Merhi",
        "zipcode": "83308-230"
    },
    {
        "city": "Piraquara",
        "state": "PR",
        "district": "Chácara Águas Claras",
        "street": "Avenida Avelino Vieira",
        "zipcode": "83308-210"
    },
    {
        "city": "Piraquara",
        "state": "PR",
        "district": "Planta Irmãos Michel",
        "street": "Rua Agassis Ribeiro Batista",
        "zipcode": "83304-370"
    },
    {
        "city": "Piraquara",
        "state": "PR",
        "district": "Vila Fuck",
        "street": "Rua Carlito Gomes",
        "zipcode": "83305-240"
    },
    {
        "city": "Piraquara",
        "state": "PR",
        "district": "Guarituba",
        "street": "Rua Caxias",
        "zipcode": "83314-040"
    },
    {
        "city": "Piraquara",
        "state": "PR",
        "district": "Jardim dos Estados 2",
        "street": "Rua Ceará",
        "zipcode": "83308-090"
    },
    {
        "city": "Piraquara",
        "state": "PR",
        "district": "Nemari V",
        "street": "Rua Sebastiana Maria da Silva",
        "zipcode": "83309-280"
    },
    {
        "city": "Piraquara",
        "state": "PR",
        "district": "Vila Militar I",
        "street": "Rua Coronel Romão Rodrigues de Oliveira",
        "zipcode": "83303-250"
    },
    {
        "city": "Piraquara",
        "state": "PR",
        "district": "Guarituba",
        "street": "Rua Luiz Teles de Souza",
        "zipcode": "83310-500"
    },
    {
        "city": "Piraquara",
        "state": "PR",
        "district": "Vila São Tiago",
        "street": "Rua Nova Tirol",
        "zipcode": "83306-230"
    },
    {
        "city": "Piraquara",
        "state": "PR",
        "district": "Jardim Veneza",
        "street": "Rua Doutor Leocádio",
        "zipcode": "83310-080"
    },
    {
        "city": "Piraquara",
        "state": "PR",
        "district": "Guarituba",
        "street": "Rua Elizabeth de Souza",
        "zipcode": "83312-100"
    },
    {
        "city": "Piraquara",
        "state": "PR",
        "district": "Jardim Santa Mônica",
        "street": "Rua Engenheiro Djalma Maciel",
        "zipcode": "83302-230"
    },
    {
        "city": "Piraquara",
        "state": "PR",
        "district": "Águas Claras",
        "street": "Rua Fernandes Carlos Beetz",
        "zipcode": "83309-000"
    },
    {
        "city": "Piraquara",
        "state": "PR",
        "district": "Vila São Cristóvão",
        "street": "Rua Francisco Sbrissia",
        "zipcode": "83305-230"
    },
    {
        "city": "Piraquara",
        "state": "PR",
        "district": "Guarituba",
        "street": "Rua Herbert Trap",
        "zipcode": "83310-390"
    },
    {
        "city": "Piraquara",
        "state": "PR",
        "district": "Vila Ipanema",
        "street": "Rua Francisca Nunes Gaio",
        "zipcode": "83301-049"
    },
    {
        "city": "Piraquara",
        "state": "PR",
        "district": "Jardim Esmeralda",
        "street": "Travessa João Aristides Adão",
        "zipcode": "83301-366"
    },
    {
        "city": "Piraquara",
        "state": "PR",
        "district": "Jardim Veneza",
        "street": "Rodovia João Leopoldo Jacomel",
        "zipcode": "83310-170"
    },
    {
        "city": "Piraquara",
        "state": "PR",
        "district": "Vila Juliana",
        "street": "Rua José Marcelino Artigas",
        "zipcode": "83306-110"
    },
    {
        "city": "Piraquara",
        "state": "PR",
        "district": "Planta Pontoni Filho",
        "street": "Rua Mariano Oliveira da Silva",
        "zipcode": "83314-310"
    },
    {
        "city": "Piraquara",
        "state": "PR",
        "district": "Planta Deodoro",
        "street": "Rua Nova Jerusalém",
        "zipcode": "83304-350"
    },
    {
        "city": "Piraquara",
        "state": "PR",
        "district": "Jardim dos Estados 1",
        "street": "Avenida Mato Grosso",
        "zipcode": "83308-390"
    },
    {
        "city": "Piraquara",
        "state": "PR",
        "district": "Vila São Cristóvão",
        "street": "Rua Narciso Gomes",
        "zipcode": "83305-380"
    },
    {
        "city": "Piraquara",
        "state": "PR",
        "district": "Jardim dos Estados 3",
        "street": "Rua Mato Grosso",
        "zipcode": "83307-130"
    },
    {
        "city": "Piraquara",
        "state": "PR",
        "district": "Jardim Primavera",
        "street": "Travessa São José",
        "zipcode": "83302-040"
    },
    {
        "city": "Piraquara",
        "state": "PR",
        "district": "Jardim Esmeralda",
        "street": "Avenida Severino Alberti",
        "zipcode": "83301-340"
    },
    {
        "city": "Piraquara",
        "state": "PR",
        "district": "Vila São Tiago",
        "street": "Rua Victório Luiz Zambão",
        "zipcode": "83307-170"
    },
    {
        "city": "Piraquara",
        "state": "PR",
        "district": "Jardim Primavera",
        "street": "Rua Padre Hubert Alfred Roebig",
        "zipcode": "83302-170"
    },
    {
        "city": "Piraquara",
        "state": "PR",
        "district": "Jardim dos Estados 2",
        "street": "Rua Sergipe",
        "zipcode": "83308-120"
    },
    {
        "city": "Piraquara",
        "state": "PR",
        "district": "Vila Susi",
        "street": "Rua Mathias Gaio",
        "zipcode": "83304-120"
    },
    {
        "city": "Piraquara",
        "state": "PR",
        "district": "Planta Araçatuba",
        "street": "Rua Marechal Deodoro da Fonseca",
        "zipcode": "83301-650"
    },
    {
        "city": "Piraquara",
        "state": "PR",
        "district": "Vila Santa Maria",
        "street": "Rua Peroba",
        "zipcode": "83306-420"
    },
    {
        "city": "Piraquara",
        "state": "PR",
        "district": "Jardim dos Eucaliptos",
        "street": "Rua Jorge Faustino da Silva",
        "zipcode": "83311-070"
    },
    {
        "city": "Piraquara",
        "state": "PR",
        "district": "Planta Laranjeiras",
        "street": "Rua KS",
        "zipcode": "83307-350"
    },
    {
        "city": "Piraquara",
        "state": "PR",
        "district": "Jardim Bom Jesus dos Passos",
        "street": "Rua Amim Rieche",
        "zipcode": "83301-585"
    },
    {
        "city": "Piraquara",
        "state": "PR",
        "district": "Planta Chaune",
        "street": "Rua Vinte e Nove de Janeiro",
        "zipcode": "83306-010"
    },
    {
        "city": "Piraquara",
        "state": "PR",
        "district": "Vila Fuck",
        "street": "Praça Professor Basílio Fuck",
        "zipcode": "83305-265"
    },
    {
        "city": "Piraquara",
        "state": "PR",
        "district": "Planta Granjas Eldorado",
        "street": "Rua Aristides Tiller",
        "zipcode": "83309-310"
    },
    {
        "city": "Piraquara",
        "state": "PR",
        "district": "Águas Claras",
        "street": "Rua Sete (Vila Militar)",
        "zipcode": "83309-190"
    },
    {
        "city": "Piraquara",
        "state": "PR",
        "district": "Borda do Campo",
        "street": "Rua José Vitorino de Almeida",
        "zipcode": "83304-428"
    },
    {
        "city": "Piraquara",
        "state": "PR",
        "district": "Guarituba",
        "street": "Rua Ilma Morona Ferreira",
        "zipcode": "83311-340"
    },
    {
        "city": "Piraquara",
        "state": "PR",
        "district": "Planta Santa Clara",
        "street": "Rua José Boganiko Sobrinho",
        "zipcode": "83306-296"
    },
    {
        "city": "Piraquara",
        "state": "PR",
        "district": "Planta Bosque Centenário",
        "street": "Rua Bosque Tarumã",
        "zipcode": "83311-015"
    },
    {
        "city": "Piraquara",
        "state": "PR",
        "district": "Guarituba",
        "street": "Rua Sandra da Cruz Bressan",
        "zipcode": "83311-316"
    },
    {
        "city": "Piraquara",
        "state": "PR",
        "district": "Planta Parque das Andorinhas",
        "street": "Rua Gerhard Schroeder",
        "zipcode": "83311-380"
    },
    {
        "city": "Piraquara",
        "state": "PR",
        "district": "Jardim Alterosa",
        "street": "Rua Tereziano Esteves da Silva",
        "zipcode": "83314-225"
    },
    {
        "city": "Piraquara",
        "state": "PR",
        "district": "Águas Claras",
        "street": "Rua Vagner Luís Boscardin",
        "zipcode": "83309-030"
    },
    {
        "city": "Piraquara",
        "state": "PR",
        "district": "Planta Granjas Eldorado",
        "street": "Rua Dallila Miranda Chiquetto",
        "zipcode": "83309-370"
    },
    {
        "city": "Piraquara",
        "state": "PR",
        "district": "Planta Vila Iraí",
        "street": "Rua Rosy de Carvalho Neme",
        "zipcode": "83302-325"
    },
    {
        "city": "Piraquara",
        "state": "PR",
        "district": "Vila Fuck",
        "street": "Rua Velmundes Kluppell",
        "zipcode": "83305-258"
    },
    {
        "city": "Piraquara",
        "state": "PR",
        "district": "Área Rural de Piraquara",
        "street": "Área Rural",
        "zipcode": "83318-899"
    },
    {
        "city": "Piraquara",
        "state": "PR",
        "district": "Guarituba",
        "street": "Rua Luiz Florentino",
        "zipcode": "83312-025"
    },
    {
        "city": "Piraquara",
        "state": "PR",
        "district": "Guarituba",
        "street": "Rua Bernardina Stuginsky Valechi",
        "zipcode": "83312-106"
    },
    {
        "city": "Piraquara",
        "state": "PR",
        "district": "Vila Fuck",
        "street": "Rua Gertrudes do Amaral Lourenco",
        "zipcode": "83305-246"
    },
    {
        "city": "Piraquara",
        "state": "PR",
        "district": "Jardim Primavera",
        "street": "Rua Antonio Haluch",
        "zipcode": "83302-135"
    },
    {
        "city": "Piraquara",
        "state": "PR",
        "district": "Recreio da Serra",
        "street": "Rua Monte Sião",
        "zipcode": "83305-495"
    },
    {
        "city": "Piraquara",
        "state": "PR",
        "district": "Planta Suburbana",
        "street": "Rua Antônio Soares de Oliveira",
        "zipcode": "83304-406"
    },
    {
        "city": "Piraquara",
        "state": "PR",
        "district": "Vila São Cristóvão",
        "street": "Praça José de Freitas",
        "zipcode": "83305-105"
    },
    {
        "city": "Piraquara",
        "state": "PR",
        "district": "Guarituba",
        "street": "Rua Sebastião Vítor dos Santos",
        "zipcode": "83310-451"
    },
    {
        "city": "Piraquara",
        "state": "PR",
        "district": "Guarituba",
        "street": "Rua Otávio Ignácio da Silva",
        "zipcode": "83310-474"
    },
    {
        "city": "Piraquara",
        "state": "PR",
        "district": "Guarituba",
        "street": "Rua Hilda Braun",
        "zipcode": "83311-352"
    },
    {
        "city": "Piraquara",
        "state": "PR",
        "district": "Guarituba",
        "street": "Rua Natalício Barbosa Neto",
        "zipcode": "83314-192"
    },
    {
        "city": "Piraquara",
        "state": "PR",
        "district": "Guarituba",
        "street": "Rua Heitor Pallú",
        "zipcode": "83309-300"
    },
    {
        "city": "Piraquara",
        "state": "PR",
        "district": "Jardim Ísis",
        "street": "Rua Georgina Nunes dos Santos Andrade",
        "zipcode": "83307-375"
    },
    {
        "city": "Piraquara",
        "state": "PR",
        "district": "Planta Suburbana",
        "street": "Rua Joaquim Moreira da Silva",
        "zipcode": "83304-404"
    },
    {
        "city": "Piraquara",
        "state": "PR",
        "district": "Guarituba",
        "street": "Rua Milton Tiedt",
        "zipcode": "83312-104"
    },
    {
        "city": "Piraquara",
        "state": "PR",
        "district": "Planta Deodoro",
        "street": "Rua Takami Tano",
        "zipcode": "83304-292"
    },
    {
        "city": "Piraquara",
        "state": "PR",
        "district": "Vila Militar I",
        "street": "Rua Lindaura Ribeiro Lucas",
        "zipcode": "83303-212"
    },
    {
        "city": "Piraquara",
        "state": "PR",
        "district": "Jardim Santa Helena",
        "street": "Rua Emílio Augusto Raizer",
        "zipcode": "83308-492"
    },
    {
        "city": "Piraquara",
        "state": "PR",
        "district": "Guarituba",
        "street": "Rua Francisco Evaristo Rosa",
        "zipcode": "83310-294"
    },
    {
        "city": "Piraquara",
        "state": "PR",
        "district": "Jardim dos Eucaliptos",
        "street": "Rua Cecília Eugênia Vieira de Souza",
        "zipcode": "83311-071"
    },
    {
        "city": "Piraquara",
        "state": "PR",
        "district": "Jardim Ísis",
        "street": "Rua Alcides Régis",
        "zipcode": "83307-372"
    },
    {
        "city": "Piraquara",
        "state": "PR",
        "district": "Parque das Araucárias",
        "street": "Rua João de Almeida",
        "zipcode": "83311-700"
    },
    {
        "city": "Piraquara",
        "state": "PR",
        "district": "Guarituba",
        "street": "Rua Cedro do Campo",
        "zipcode": "83310-204"
    },
    {
        "city": "Piraquara",
        "state": "PR",
        "district": "Guarituba",
        "street": "Rua Luiz Carlos Guimarães",
        "zipcode": "83310-475"
    },
    {
        "city": "Piraquara",
        "state": "PR",
        "district": "Planta Vila Iraí",
        "street": "Rua Doralina Machado de Godói",
        "zipcode": "83302-332"
    },
    {
        "city": "Piraquara",
        "state": "PR",
        "district": "Guarituba",
        "street": "Rua Augusto Doin Cordeiro",
        "zipcode": "83312-125"
    },
    {
        "city": "Piraquara",
        "state": "PR",
        "district": "Vila Fuck",
        "street": "Rua Virmonde Alberti",
        "zipcode": "83305-254"
    },
    {
        "city": "Piraquara",
        "state": "PR",
        "district": "Guarituba",
        "street": "Rua Joaquina Maria de Souza",
        "zipcode": "83310-478"
    },
    {
        "city": "Piraquara",
        "state": "PR",
        "district": "Vila Fuck",
        "street": "Rua Antonio Santos",
        "zipcode": "83305-244"
    },
    {
        "city": "Piraquara",
        "state": "PR",
        "district": "Planta Laranjeiras",
        "street": "Rua Engenheiro Uahib Abrahão Tanus",
        "zipcode": "83307-288"
    },
    {
        "city": "Piraquara",
        "state": "PR",
        "district": "Vila Fuck",
        "street": "Rua Sebastião Casimiro Ribeiro",
        "zipcode": "83305-256"
    },
    {
        "city": "Piraquara",
        "state": "PR",
        "district": "Vila Fuck",
        "street": "Rua Padre Dirceu Rudnik",
        "zipcode": "83305-242"
    },
    {
        "city": "Piraquara",
        "state": "PR",
        "district": "Planta Borda Do Campo",
        "street": "Rua Elisira Teodora Pereira",
        "zipcode": "83303-350"
    },
    {
        "city": "Piraquara",
        "state": "PR",
        "district": "Vila São Cristóvão",
        "street": "Rua Francisco Lourenço",
        "zipcode": "83305-402"
    },
    {
        "city": "Piraquara",
        "state": "PR",
        "district": "Vila Fuck",
        "street": "Rua Dejanira da Silveira Soares",
        "zipcode": "83305-252"
    },
    {
        "city": "Piraquara",
        "state": "PR",
        "district": "Planta Borda Do Campo",
        "street": "Rua Jose Fernandes Ribeiro",
        "zipcode": "83303-380"
    },
    {
        "city": "Piraquara",
        "state": "PR",
        "district": "Planta Araçatuba",
        "street": "Rua Alberto Antônio Costa",
        "zipcode": "83301-422"
    },
    {
        "city": "Piraquara",
        "state": "PR",
        "district": "Planta Borda Do Campo",
        "street": "Rua Francisca Leal De Oliveira",
        "zipcode": "83303-360"
    },
    {
        "city": "Piraquara",
        "state": "PR",
        "district": "Jardim Monte Líbano",
        "street": "Rua Rafael Chalcoski",
        "zipcode": "83311-236"
    },
    {
        "city": "Piraquara",
        "state": "PR",
        "district": "Planta Borda Do Campo",
        "street": "Rua Minervino De Oliveira E Souza",
        "zipcode": "83303-370"
    },
    {
        "city": "Piraquara",
        "state": "PR",
        "district": "Jardim Maria Alice",
        "street": "Rua Arnaldo Deschermayer",
        "zipcode": "83306-440"
    },
    {
        "city": "Piraquara",
        "state": "PR",
        "district": "Guarituba",
        "street": "Rua Ladislau Szczepanik",
        "zipcode": "83308-462"
    },
    {
        "city": "Piraquara",
        "state": "PR",
        "district": "Planta Granjas Eldorado",
        "street": "Rua José Rodrigues de Oliveira",
        "zipcode": "83309-322"
    },
    {
        "city": "Piraquara",
        "state": "PR",
        "district": "Recreio da Serra",
        "street": "Rua das Baitacas",
        "zipcode": "83305-555"
    },
    {
        "city": "Piraquara",
        "state": "PR",
        "district": "Jardim Guarituba",
        "street": "Rua Andre Struginski",
        "zipcode": "83312-060"
    }
]