[
    {
        "city": "Pontal do Paraná",
        "state": "PR",
        "district": "",
        "street": "",
        "zipcode": "83255-000"
    },
    {
        "city": "Pontal do Paraná",
        "state": "PR",
        "district": "Centro",
        "street": "Rua Baronesa do Cerro Azul",
        "zipcode": "83255-970"
    },
    {
        "city": "Pontal do Paraná",
        "state": "PR",
        "district": "Ipanema",
        "street": "Rua Bahia 80",
        "zipcode": "83255-972"
    },
    {
        "city": "Pontal do Paraná",
        "state": "PR",
        "district": "Guaraguaçu",
        "street": "Rua Principal s/n",
        "zipcode": "83255-974"
    },
    {
        "city": "Pontal do Paraná",
        "state": "PR",
        "district": "Pontal do Sul",
        "street": "Rua Pau Brasil s/n",
        "zipcode": "83255-971"
    },
    {
        "city": "Pontal do Paraná",
        "state": "PR",
        "district": "Colônia Pereira",
        "street": "Rua Principal s/n",
        "zipcode": "83255-975"
    },
    {
        "city": "Pontal do Paraná",
        "state": "PR",
        "district": "Pontal do Sul",
        "street": "Avenida Atlântica 532",
        "zipcode": "83255-976"
    },
    {
        "city": "Pontal do Paraná",
        "state": "PR",
        "district": null,
        "street": "Avenida Beira Mar",
        "zipcode": "83255-993"
    },
    {
        "city": "Pontal do Paraná",
        "state": "PR",
        "district": null,
        "street": "Rodovia Engenheiro Darci Gomes de Morais",
        "zipcode": "83255-990"
    },
    {
        "city": "Pontal do Paraná",
        "state": "PR",
        "district": null,
        "street": "Rodovia Engenheiro Darci Gomes de Morais",
        "zipcode": "83255-994"
    },
    {
        "city": "Pontal do Paraná",
        "state": "PR",
        "district": null,
        "street": "Rodovia Engenheiro Darci Gomes de Morais",
        "zipcode": "83255-995"
    },
    {
        "city": "Pontal do Paraná",
        "state": "PR",
        "district": null,
        "street": "Rua Alba de Souza",
        "zipcode": "83255-996"
    },
    {
        "city": "Pontal do Paraná",
        "state": "PR",
        "district": null,
        "street": "Rodovia PR",
        "zipcode": "83255-997"
    },
    {
        "city": "Pontal do Paraná",
        "state": "PR",
        "district": "Shangri",
        "street": "Rua Flórida",
        "zipcode": "83255-973"
    },
    {
        "city": "Pontal do Paraná",
        "state": "PR",
        "district": null,
        "street": "Rua Principal",
        "zipcode": "83255-992"
    },
    {
        "city": "Pontal do Paraná",
        "state": "PR",
        "district": null,
        "street": "Estrada Alexandra",
        "zipcode": "83255-998"
    }
]