[
    {
        "city": "Prudentópolis",
        "state": "PR",
        "district": "Centro",
        "street": "Rua Marechal Deodoro 1015",
        "zipcode": "84400-970"
    },
    {
        "city": "Prudentópolis",
        "state": "PR",
        "district": "Centro",
        "street": "Rua Principal",
        "zipcode": "84400-972"
    },
    {
        "city": "Prudentópolis",
        "state": "PR",
        "district": "Centro",
        "street": "Rua Principal",
        "zipcode": "84400-973"
    },
    {
        "city": "Prudentópolis",
        "state": "PR",
        "district": "Centro",
        "street": "Rua Principal",
        "zipcode": "84400-974"
    },
    {
        "city": "Prudentópolis",
        "state": "PR",
        "district": "Centro",
        "street": "Rua Principal",
        "zipcode": "84400-975"
    },
    {
        "city": "Prudentópolis",
        "state": "PR",
        "district": "Centro",
        "street": "Rua Principal",
        "zipcode": "84400-976"
    },
    {
        "city": "Prudentópolis",
        "state": "PR",
        "district": "Centro",
        "street": "Rua Principal",
        "zipcode": "84400-977"
    },
    {
        "city": "Prudentópolis",
        "state": "PR",
        "district": "Centro",
        "street": "Rua Principal",
        "zipcode": "84410-970"
    },
    {
        "city": "Prudentópolis",
        "state": "PR",
        "district": "Centro",
        "street": "Rua Principal",
        "zipcode": "84415-970"
    },
    {
        "city": "Prudentópolis",
        "state": "PR",
        "district": "Centro",
        "street": "Rua Principal",
        "zipcode": "84400-971"
    },
    {
        "city": "Prudentópolis",
        "state": "PR",
        "district": "",
        "street": "",
        "zipcode": "84400-000"
    }
]