[
    {
        "city": "Quitandinha",
        "state": "PR",
        "district": "",
        "street": "",
        "zipcode": "83840-000"
    },
    {
        "city": "Quitandinha",
        "state": "PR",
        "district": "Centro",
        "street": "Rua José de Sá Ribas 37",
        "zipcode": "83840-970"
    },
    {
        "city": "Quitandinha",
        "state": "PR",
        "district": null,
        "street": "Rua Principal",
        "zipcode": "83843-990"
    },
    {
        "city": "Quitandinha",
        "state": "PR",
        "district": null,
        "street": "Rua Principal",
        "zipcode": "83845-990"
    },
    {
        "city": "Quitandinha",
        "state": "PR",
        "district": "Turvo",
        "street": "Rua Principal",
        "zipcode": "83840-973"
    },
    {
        "city": "Quitandinha",
        "state": "PR",
        "district": "Campina de Quitandinha",
        "street": "Rua Principal",
        "zipcode": "83840-971"
    },
    {
        "city": "Quitandinha",
        "state": "PR",
        "district": "Cerro Verde",
        "street": "Rua Principal",
        "zipcode": "83845-971"
    },
    {
        "city": "Quitandinha",
        "state": "PR",
        "district": "Ribeirão Vermelho",
        "street": "Rua Principal",
        "zipcode": "83840-972"
    },
    {
        "city": "Quitandinha",
        "state": "PR",
        "district": "Doce Fino",
        "street": "Rua Principal",
        "zipcode": "83843-971"
    }
]