[
    {
        "city": "Rio Branco do Sul",
        "state": "PR",
        "district": null,
        "street": "Rua Rosa Zonato",
        "zipcode": "83540-990"
    },
    {
        "city": "Rio Branco do Sul",
        "state": "PR",
        "district": "Centro",
        "street": "Rua Coronel Carlos Piolli",
        "zipcode": "83540-970"
    },
    {
        "city": "Rio Branco do Sul",
        "state": "PR",
        "district": "Centro",
        "street": "Rua Generoso Marques 795",
        "zipcode": "83540-973"
    },
    {
        "city": "Rio Branco do Sul",
        "state": "PR",
        "district": null,
        "street": "Rodovia dos Minérios",
        "zipcode": "83540-993"
    },
    {
        "city": "Rio Branco do Sul",
        "state": "PR",
        "district": null,
        "street": "Rua Principal",
        "zipcode": "83540-991"
    },
    {
        "city": "Rio Branco do Sul",
        "state": "PR",
        "district": "Ribeirinha",
        "street": "Estrada Principal",
        "zipcode": "83540-971"
    },
    {
        "city": "Rio Branco do Sul",
        "state": "PR",
        "district": null,
        "street": "Estrada Capiruzinho",
        "zipcode": "83540-995"
    },
    {
        "city": "Rio Branco do Sul",
        "state": "PR",
        "district": "",
        "street": "",
        "zipcode": "83540-000"
    },
    {
        "city": "Rio Branco do Sul",
        "state": "PR",
        "district": "Centro",
        "street": "Rodovia dos Minérios",
        "zipcode": "83540-974"
    },
    {
        "city": "Rio Branco do Sul",
        "state": "PR",
        "district": "Centro",
        "street": "Avenida Manoel Müller de Siqueira",
        "zipcode": "83540-972"
    },
    {
        "city": "Rio Branco do Sul",
        "state": "PR",
        "district": null,
        "street": "Avenida Principal",
        "zipcode": "83540-994"
    },
    {
        "city": "Rio Branco do Sul",
        "state": "PR",
        "district": null,
        "street": "Rua Principal",
        "zipcode": "83540-992"
    },
    {
        "city": "Rio Branco do Sul",
        "state": "PR",
        "district": null,
        "street": "Avenida Principal",
        "zipcode": "83550-990"
    }
]