[
    {
        "city": "Rio Negro",
        "state": "PR",
        "district": "Bom Jesus do Rio Negro",
        "street": "Rua Plínio Tourinho 3319",
        "zipcode": "83880-973"
    },
    {
        "city": "Rio Negro",
        "state": "PR",
        "district": "",
        "street": "",
        "zipcode": "83880-000"
    },
    {
        "city": "Rio Negro",
        "state": "PR",
        "district": "Centro",
        "street": "Estrada Principal",
        "zipcode": "83880-975"
    },
    {
        "city": "Rio Negro",
        "state": "PR",
        "district": null,
        "street": "Rua Principal",
        "zipcode": "83880-990"
    },
    {
        "city": "Rio Negro",
        "state": "PR",
        "district": "Centro",
        "street": "Rua Juvenal Ferreira Pinto",
        "zipcode": "83880-972"
    },
    {
        "city": "Rio Negro",
        "state": "PR",
        "district": "Centro",
        "street": "Rua Juvenal Ferreira Pinto",
        "zipcode": "83880-971"
    },
    {
        "city": "Rio Negro",
        "state": "PR",
        "district": "Fazendinha de Rio Negro",
        "street": "Rua Principal",
        "zipcode": "83880-974"
    },
    {
        "city": "Rio Negro",
        "state": "PR",
        "district": "Centro",
        "street": "Praça Max Wolf",
        "zipcode": "83880-970"
    }
]