[
    {
        "city": "Rolândia",
        "state": "PR",
        "district": "Jardim Nobre",
        "street": "Rua Oldaquis Augusto Seleger",
        "zipcode": "86602-574"
    },
    {
        "city": "Rolândia",
        "state": "PR",
        "district": "Jardim Novo Horizonte",
        "street": "Rua Flamboyant",
        "zipcode": "86604-578"
    },
    {
        "city": "Rolândia",
        "state": "PR",
        "district": "Conjunto Habitacional San Fernando",
        "street": "Rua Salvador Sílvio Gorla",
        "zipcode": "86605-636"
    },
    {
        "city": "Rolândia",
        "state": "PR",
        "district": "Jardim Rosângelo",
        "street": "Rua Armandina Lav Bettin",
        "zipcode": "86602-370"
    },
    {
        "city": "Rolândia",
        "state": "PR",
        "district": "Conjunto Habitacional San Fernando",
        "street": "Rua Milão",
        "zipcode": "86605-790"
    },
    {
        "city": "Rolândia",
        "state": "PR",
        "district": "Conjunto Habitacional Santiago",
        "street": "Avenida Lago de Itaipu",
        "zipcode": "86606-638"
    },
    {
        "city": "Rolândia",
        "state": "PR",
        "district": "Jardim Caviúna",
        "street": "Rua Abílio Eufrásio da Silva",
        "zipcode": "86605-002"
    },
    {
        "city": "Rolândia",
        "state": "PR",
        "district": "Conjunto Habitacional Santiago",
        "street": "Rua Rolf Dietrich",
        "zipcode": "86606-039"
    },
    {
        "city": "Rolândia",
        "state": "PR",
        "district": "Jardim Novo Horizonte",
        "street": "Rua Sílvio Cavequia",
        "zipcode": "86604-644"
    },
    {
        "city": "Rolândia",
        "state": "PR",
        "district": "Jardim Nobre",
        "street": "Avenida José Antônio Santis",
        "zipcode": "86602-810"
    },
    {
        "city": "Rolândia",
        "state": "PR",
        "district": "Manoel Müller",
        "street": "Rua Alberto Androvicis",
        "zipcode": "86601-004"
    },
    {
        "city": "Rolândia",
        "state": "PR",
        "district": "Conjunto Habitacional Santiago",
        "street": "Rua Alice Rocha",
        "zipcode": "86606-046"
    },
    {
        "city": "Rolândia",
        "state": "PR",
        "district": "Jardim Novo Horizonte",
        "street": "Rua Sumatra",
        "zipcode": "86604-338"
    },
    {
        "city": "Rolândia",
        "state": "PR",
        "district": "Parque Industrial Cafezal",
        "street": "Rua Campo Belo",
        "zipcode": "86600-496"
    },
    {
        "city": "Rolândia",
        "state": "PR",
        "district": "Conjunto Habitacional San Fernando",
        "street": "Avenida Wanderley Massuci",
        "zipcode": "86605-746"
    },
    {
        "city": "Rolândia",
        "state": "PR",
        "district": "Conjunto Habitacional San Fernando",
        "street": "Rua Sezefredo Marques da Silveira",
        "zipcode": "86605-742"
    },
    {
        "city": "Rolândia",
        "state": "PR",
        "district": "Jardim Novo Horizonte",
        "street": "Rua José Cristiano Pires",
        "zipcode": "86604-426"
    },
    {
        "city": "Rolândia",
        "state": "PR",
        "district": "Parque Industrial Cafezal",
        "street": "Avenida Itamarati",
        "zipcode": "86600-475"
    },
    {
        "city": "Rolândia",
        "state": "PR",
        "district": "Parque Industrial Cafezal",
        "street": "Rua Poços de Calda",
        "zipcode": "86600-490"
    },
    {
        "city": "Rolândia",
        "state": "PR",
        "district": "Manoel Müller",
        "street": "Avenida Sadashige Shimada",
        "zipcode": "86601-192"
    },
    {
        "city": "Rolândia",
        "state": "PR",
        "district": "Conjunto Habitacional Santiago",
        "street": "Rua Olga Giordani",
        "zipcode": "86606-616"
    },
    {
        "city": "Rolândia",
        "state": "PR",
        "district": "Jardim Nobre",
        "street": "Avenida Prefeito Primo Lepre",
        "zipcode": "86602-546"
    },
    {
        "city": "Rolândia",
        "state": "PR",
        "district": "Jardim Novo Horizonte",
        "street": "Rua Maximiliano Perazolo",
        "zipcode": "86604-646"
    },
    {
        "city": "Rolândia",
        "state": "PR",
        "district": "Jardim Nobre",
        "street": "Rua Vereador Antônio de Aquino Pinheiro",
        "zipcode": "86602-544"
    },
    {
        "city": "Rolândia",
        "state": "PR",
        "district": "Vila Oliveira",
        "street": "Rua Yutaka Yoshimatsu",
        "zipcode": "86604-251"
    },
    {
        "city": "Rolândia",
        "state": "PR",
        "district": "Manoel Müller",
        "street": "Avenida Amélia Paganoto",
        "zipcode": "86601-538"
    },
    {
        "city": "Rolândia",
        "state": "PR",
        "district": "Vila Oliveira",
        "street": "Rua Interventor Carvalho Chaves",
        "zipcode": "86604-016"
    },
    {
        "city": "Rolândia",
        "state": "PR",
        "district": "Manoel Müller",
        "street": "Rua Aristides de Andrade",
        "zipcode": "86601-018"
    },
    {
        "city": "Rolândia",
        "state": "PR",
        "district": "Conjunto Habitacional San Fernando",
        "street": "Rua Abigail Raio Xavier",
        "zipcode": "86605-666"
    },
    {
        "city": "Rolândia",
        "state": "PR",
        "district": "Conjunto Habitacional San Fernando",
        "street": "Rua Antônio José de Andrade",
        "zipcode": "86605-592"
    },
    {
        "city": "Rolândia",
        "state": "PR",
        "district": "Conjunto Habitacional Santiago",
        "street": "Rua Estéfano Erdei",
        "zipcode": "86606-094"
    },
    {
        "city": "Rolândia",
        "state": "PR",
        "district": "Manoel Müller",
        "street": "Rua José Jorge Maricato",
        "zipcode": "86601-040"
    },
    {
        "city": "Rolândia",
        "state": "PR",
        "district": "Manoel Müller",
        "street": "Rua Figueira Branca",
        "zipcode": "86601-022"
    },
    {
        "city": "Rolândia",
        "state": "PR",
        "district": "Jardim Nobre",
        "street": "Rua Vereador Antônio Cecílio Gonçalves",
        "zipcode": "86602-562"
    },
    {
        "city": "Rolândia",
        "state": "PR",
        "district": "Conjunto Habitacional Santiago",
        "street": "Rua Waldemar Seifert",
        "zipcode": "86606-047"
    },
    {
        "city": "Rolândia",
        "state": "PR",
        "district": "Jardim Nobre",
        "street": "Avenida Iguaçu",
        "zipcode": "86602-500"
    },
    {
        "city": "Rolândia",
        "state": "PR",
        "district": "Parque Industrial Cafezal",
        "street": "Avenida Itamarati",
        "zipcode": "86600-580"
    },
    {
        "city": "Rolândia",
        "state": "PR",
        "district": "Conjunto Habitacional San Fernando",
        "street": "Rua Nilde Zorzetti",
        "zipcode": "86605-602"
    },
    {
        "city": "Rolândia",
        "state": "PR",
        "district": "Jardim Nobre",
        "street": "Avenida Iguaçu",
        "zipcode": "86602-506"
    },
    {
        "city": "Rolândia",
        "state": "PR",
        "district": "Jardim Novo Horizonte",
        "street": "Rua Franklin Umbehaunn",
        "zipcode": "86604-608"
    },
    {
        "city": "Rolândia",
        "state": "PR",
        "district": "Jardim Novo Horizonte",
        "street": "Rua Acesso ao IBC",
        "zipcode": "86604-610"
    },
    {
        "city": "Rolândia",
        "state": "PR",
        "district": "Jardim Rosângelo",
        "street": "Rua Shoshichi Sassaki",
        "zipcode": "86602-336"
    },
    {
        "city": "Rolândia",
        "state": "PR",
        "district": "Jardim Nobre",
        "street": "Rua Antônio Olinto Miranda",
        "zipcode": "86602-602"
    },
    {
        "city": "Rolândia",
        "state": "PR",
        "district": "Jardim Alto da Boa Vista",
        "street": "Rua Sebastião Alves de Assis",
        "zipcode": "86600-214"
    },
    {
        "city": "Rolândia",
        "state": "PR",
        "district": "Parque Industrial Cafezal",
        "street": "Avenida Itamarati",
        "zipcode": "86600-463"
    },
    {
        "city": "Rolândia",
        "state": "PR",
        "district": "Centro",
        "street": "Rua Willie Davids",
        "zipcode": "86600-129"
    },
    {
        "city": "Rolândia",
        "state": "PR",
        "district": "Conjunto Habitacional San Fernando",
        "street": "Rua Antonio Pedro dos Santos Filho",
        "zipcode": "86605-731"
    },
    {
        "city": "Rolândia",
        "state": "PR",
        "district": "Jardim Novo Horizonte",
        "street": "Rua Caviuna",
        "zipcode": "86604-452"
    },
    {
        "city": "Rolândia",
        "state": "PR",
        "district": "Jardim Caviúna",
        "street": "Rua Ernesto Campaner",
        "zipcode": "86605-196"
    },
    {
        "city": "Rolândia",
        "state": "PR",
        "district": "Centro",
        "street": "Avenida Castro Alves",
        "zipcode": "86600-069"
    },
    {
        "city": "Rolândia",
        "state": "PR",
        "district": "Centro",
        "street": "Rua Nilo Peçanha",
        "zipcode": "86600-037"
    },
    {
        "city": "Rolândia",
        "state": "PR",
        "district": "Vila Oliveira",
        "street": "Rua Topázio",
        "zipcode": "86604-094"
    },
    {
        "city": "Rolândia",
        "state": "PR",
        "district": "Centro",
        "street": "Rua Miguel Liogi",
        "zipcode": "86600-043"
    },
    {
        "city": "Rolândia",
        "state": "PR",
        "district": "Jardim Novo Horizonte",
        "street": "Rua Francisco Correa Moreno",
        "zipcode": "86604-440"
    },
    {
        "city": "Rolândia",
        "state": "PR",
        "district": "Jardim Nobre",
        "street": "Rua Tóquio",
        "zipcode": "86602-550"
    },
    {
        "city": "Rolândia",
        "state": "PR",
        "district": "Jardim Novo Horizonte",
        "street": "Rua Willibald Kienen",
        "zipcode": "86604-540"
    },
    {
        "city": "Rolândia",
        "state": "PR",
        "district": "Centro",
        "street": "Rua Quirino Lemos",
        "zipcode": "86600-085"
    },
    {
        "city": "Rolândia",
        "state": "PR",
        "district": "Jardim Nobre",
        "street": "Rua Onofre Edmundo Tavares",
        "zipcode": "86602-812"
    },
    {
        "city": "Rolândia",
        "state": "PR",
        "district": "Jardim Nobre",
        "street": "Rua Salvador Francisco",
        "zipcode": "86602-590"
    },
    {
        "city": "Rolândia",
        "state": "PR",
        "district": "Centro",
        "street": "Rua César Albertotti",
        "zipcode": "86600-047"
    },
    {
        "city": "Rolândia",
        "state": "PR",
        "district": "Conjunto Habitacional San Fernando",
        "street": "Rua Antônio Vanzela",
        "zipcode": "86605-594"
    },
    {
        "city": "Rolândia",
        "state": "PR",
        "district": "Conjunto Habitacional San Fernando",
        "street": "Rua Uruguai",
        "zipcode": "86605-782"
    },
    {
        "city": "Rolândia",
        "state": "PR",
        "district": "Jardim Nobre",
        "street": "Rua José Huss",
        "zipcode": "86602-600"
    },
    {
        "city": "Rolândia",
        "state": "PR",
        "district": "Conjunto Habitacional Santiago",
        "street": "Avenida Lagoa Itapera",
        "zipcode": "86606-650"
    },
    {
        "city": "Rolândia",
        "state": "PR",
        "district": "Conjunto Habitacional Santiago",
        "street": "Rua Lagoa Dourada",
        "zipcode": "86606-648"
    },
    {
        "city": "Rolândia",
        "state": "PR",
        "district": "Parque Industrial Cafezal",
        "street": "Rua Projetada A",
        "zipcode": "86600-481"
    },
    {
        "city": "Rolândia",
        "state": "PR",
        "district": "Manoel Müller",
        "street": "Avenida José Quinhone",
        "zipcode": "86601-230"
    },
    {
        "city": "Rolândia",
        "state": "PR",
        "district": "Manoel Müller",
        "street": "Rua Quero",
        "zipcode": "86601-140"
    },
    {
        "city": "Rolândia",
        "state": "PR",
        "district": "Conjunto Habitacional San Fernando",
        "street": "Rua Chile",
        "zipcode": "86605-780"
    },
    {
        "city": "Rolândia",
        "state": "PR",
        "district": "Jardim Nobre",
        "street": "Rua Theodoro José Altino",
        "zipcode": "86602-576"
    },
    {
        "city": "Rolândia",
        "state": "PR",
        "district": "Jardim Caviúna",
        "street": "Rua Gérbera",
        "zipcode": "86605-244"
    },
    {
        "city": "Rolândia",
        "state": "PR",
        "district": "Jardim Alto da Boa Vista",
        "street": "Rua Guimarães Rosa",
        "zipcode": "86600-284"
    },
    {
        "city": "Rolândia",
        "state": "PR",
        "district": "Lotes da Rodovia Hermínio Antônio Pennacchi",
        "street": "Rodovia Hermínio Antônio Pennacchi",
        "zipcode": "86606-850"
    },
    {
        "city": "Rolândia",
        "state": "PR",
        "district": "Conjunto Habitacional San Fernando",
        "street": "Rua Ângelo Sartori",
        "zipcode": "86605-570"
    },
    {
        "city": "Rolândia",
        "state": "PR",
        "district": "Jardim Caviúna",
        "street": "Rua Lázaro Teixeira Dorta",
        "zipcode": "86605-344"
    },
    {
        "city": "Rolândia",
        "state": "PR",
        "district": "Jardim Caviúna",
        "street": "Rua Leonardo Ferelle",
        "zipcode": "86605-038"
    },
    {
        "city": "Rolândia",
        "state": "PR",
        "district": "Vila Oliveira",
        "street": "Rua Heizaburo Tsuchida",
        "zipcode": "86604-250"
    },
    {
        "city": "Rolândia",
        "state": "PR",
        "district": "Jardim Caviúna",
        "street": "Rua Corina Filgueiras Chaves",
        "zipcode": "86605-154"
    },
    {
        "city": "Rolândia",
        "state": "PR",
        "district": "Jardim Novo Horizonte",
        "street": "Avenida das Hortências",
        "zipcode": "86604-444"
    },
    {
        "city": "Rolândia",
        "state": "PR",
        "district": "Jardim Caviúna",
        "street": "Rua Wladimir Gatti",
        "zipcode": "86605-268"
    },
    {
        "city": "Rolândia",
        "state": "PR",
        "district": "Conjunto Habitacional San Fernando",
        "street": "Avenida Professor Vitório Messiano",
        "zipcode": "86605-574"
    },
    {
        "city": "Rolândia",
        "state": "PR",
        "district": "Vila Oliveira",
        "street": "Rua Seiji Watanabe",
        "zipcode": "86604-258"
    },
    {
        "city": "Rolândia",
        "state": "PR",
        "district": "Jardim Novo Horizonte",
        "street": "Avenida Mundo Novo",
        "zipcode": "86604-342"
    },
    {
        "city": "Rolândia",
        "state": "PR",
        "district": "Jardim Novo Horizonte",
        "street": "Avenida Mundo Novo",
        "zipcode": "86604-312"
    },
    {
        "city": "Rolândia",
        "state": "PR",
        "district": "Vila Oliveira",
        "street": "Praça Bovis",
        "zipcode": "86604-042"
    },
    {
        "city": "Rolândia",
        "state": "PR",
        "district": "Vila Oliveira",
        "street": "Rua Esmeralda",
        "zipcode": "86604-022"
    },
    {
        "city": "Rolândia",
        "state": "PR",
        "district": "Jardim Caviúna",
        "street": "Rua Joaquim da Silva",
        "zipcode": "86605-014"
    },
    {
        "city": "Rolândia",
        "state": "PR",
        "district": "Jardim Caviúna",
        "street": "Rua França",
        "zipcode": "86605-242"
    },
    {
        "city": "Rolândia",
        "state": "PR",
        "district": "Jardim Caviúna",
        "street": "Rua Francisco Rodrigues Alves",
        "zipcode": "86605-274"
    },
    {
        "city": "Rolândia",
        "state": "PR",
        "district": "Jardim Novo Horizonte",
        "street": "Rua Hans Lehmann",
        "zipcode": "86604-550"
    },
    {
        "city": "Rolândia",
        "state": "PR",
        "district": "Jardim Caviúna",
        "street": "Rua Arnaldo Mantovani",
        "zipcode": "86605-160"
    },
    {
        "city": "Rolândia",
        "state": "PR",
        "district": "Jardim Novo Horizonte",
        "street": "Rua Projetada 1",
        "zipcode": "86604-424"
    },
    {
        "city": "Rolândia",
        "state": "PR",
        "district": "Conjunto Habitacional Santiago",
        "street": "Avenida Adelaide Farina",
        "zipcode": "86606-082"
    },
    {
        "city": "Rolândia",
        "state": "PR",
        "district": "Conjunto Habitacional Santiago",
        "street": "Rua Domingos Bertoncello",
        "zipcode": "86606-614"
    },
    {
        "city": "Rolândia",
        "state": "PR",
        "district": "Conjunto Habitacional San Fernando",
        "street": "Rua Sebastião Canônico",
        "zipcode": "86605-658"
    },
    {
        "city": "Rolândia",
        "state": "PR",
        "district": "Jardim Rosângelo",
        "street": "Rua Avaí",
        "zipcode": "86602-092"
    },
    {
        "city": "Rolândia",
        "state": "PR",
        "district": "Conjunto Habitacional Santiago",
        "street": "Rua Vereador Olavo Serpeloni",
        "zipcode": "86606-282"
    },
    {
        "city": "Rolândia",
        "state": "PR",
        "district": "Jardim Nobre",
        "street": "Rua Pedro Zorzetti",
        "zipcode": "86602-588"
    },
    {
        "city": "Rolândia",
        "state": "PR",
        "district": "Conjunto Habitacional San Fernando",
        "street": "Rua Antônio Pessenti",
        "zipcode": "86605-624"
    },
    {
        "city": "Rolândia",
        "state": "PR",
        "district": "Jardim Rosângelo",
        "street": "Rua Shoshichi Sassaki",
        "zipcode": "86602-348"
    },
    {
        "city": "Rolândia",
        "state": "PR",
        "district": "Jardim Nobre",
        "street": "Rua José Martins",
        "zipcode": "86602-578"
    },
    {
        "city": "Rolândia",
        "state": "PR",
        "district": "Jardim Novo Horizonte",
        "street": "Rua Doutor Rubens de Oliveira Neves",
        "zipcode": "86604-428"
    },
    {
        "city": "Rolândia",
        "state": "PR",
        "district": "Conjunto Habitacional Santiago",
        "street": "Rua Julião Fajardo",
        "zipcode": "86606-006"
    },
    {
        "city": "Rolândia",
        "state": "PR",
        "district": "Conjunto Habitacional Santiago",
        "street": "Rua Francisco Gatti",
        "zipcode": "86606-068"
    },
    {
        "city": "Rolândia",
        "state": "PR",
        "district": "Jardim Nobre",
        "street": "Rua Fabiano Brunozi",
        "zipcode": "86602-592"
    },
    {
        "city": "Rolândia",
        "state": "PR",
        "district": "Jardim Nobre",
        "street": "Avenida Japão",
        "zipcode": "86602-509"
    },
    {
        "city": "Rolândia",
        "state": "PR",
        "district": "Jardim Nobre",
        "street": "Rua Guerino de Longui",
        "zipcode": "86602-582"
    },
    {
        "city": "Rolândia",
        "state": "PR",
        "district": "Centro",
        "street": "Rua Pátio Ferroviário",
        "zipcode": "86600-097"
    },
    {
        "city": "Rolândia",
        "state": "PR",
        "district": "Jardim Novo Horizonte",
        "street": "Rua José Constantino Torres",
        "zipcode": "86604-598"
    },
    {
        "city": "Rolândia",
        "state": "PR",
        "district": "Conjunto Habitacional Santiago",
        "street": "Rua João Ramos Linfante",
        "zipcode": "86606-042"
    },
    {
        "city": "Rolândia",
        "state": "PR",
        "district": "Jardim Caviúna",
        "street": "Rua Zeney Sakiyama",
        "zipcode": "86605-202"
    },
    {
        "city": "Rolândia",
        "state": "PR",
        "district": "Manoel Müller",
        "street": "Rua Mico",
        "zipcode": "86601-272"
    },
    {
        "city": "Rolândia",
        "state": "PR",
        "district": "Jardim Caviúna",
        "street": "Rua Professor João Cândido",
        "zipcode": "86605-296"
    },
    {
        "city": "Rolândia",
        "state": "PR",
        "district": "Conjunto Habitacional San Fernando",
        "street": "Rua Edwaldo Catai",
        "zipcode": "86605-596"
    },
    {
        "city": "Rolândia",
        "state": "PR",
        "district": "Manoel Müller",
        "street": "Rua Hungria",
        "zipcode": "86601-770"
    },
    {
        "city": "Rolândia",
        "state": "PR",
        "district": "Conjunto Habitacional San Fernando",
        "street": "Rua Edson Sbróglia",
        "zipcode": "86605-772"
    },
    {
        "city": "Rolândia",
        "state": "PR",
        "district": "Conjunto Habitacional San Fernando",
        "street": "Rua José Valdevino da Siva",
        "zipcode": "86605-784"
    },
    {
        "city": "Rolândia",
        "state": "PR",
        "district": "Jardim Nobre",
        "street": "Rua Doraci Liberatti",
        "zipcode": "86602-594"
    },
    {
        "city": "Rolândia",
        "state": "PR",
        "district": "Jardim Novo Horizonte",
        "street": "Rua Bunroku Yoshikama",
        "zipcode": "86604-552"
    },
    {
        "city": "Rolândia",
        "state": "PR",
        "district": "Jardim Nobre",
        "street": "Rua Richard Schneider Jr.",
        "zipcode": "86602-608"
    },
    {
        "city": "Rolândia",
        "state": "PR",
        "district": "Jardim Caviúna",
        "street": "Rua Gastão Vidigal",
        "zipcode": "86605-292"
    },
    {
        "city": "Rolândia",
        "state": "PR",
        "district": "Jardim Nobre",
        "street": "Rua Verno Frederico Junchen",
        "zipcode": "86602-770"
    },
    {
        "city": "Rolândia",
        "state": "PR",
        "district": "Manoel Müller",
        "street": "Rua Valdemiro Amaral",
        "zipcode": "86601-530"
    },
    {
        "city": "Rolândia",
        "state": "PR",
        "district": null,
        "street": "Rua Guarani",
        "zipcode": "86607-990"
    },
    {
        "city": "Rolândia",
        "state": "PR",
        "district": "Centro",
        "street": "Avenida Presidente Getúlio Vargas",
        "zipcode": "86600-099"
    },
    {
        "city": "Rolândia",
        "state": "PR",
        "district": "Conjunto Habitacional Santiago",
        "street": "Avenida Mathias Frings",
        "zipcode": "86606-280"
    },
    {
        "city": "Rolândia",
        "state": "PR",
        "district": "Jardim Alto da Boa Vista",
        "street": "Rua Willie Davids",
        "zipcode": "86600-304"
    },
    {
        "city": "Rolândia",
        "state": "PR",
        "district": "Jardim Alto da Boa Vista",
        "street": "Rua Ribeirão Laranjeiras",
        "zipcode": "86600-244"
    },
    {
        "city": "Rolândia",
        "state": "PR",
        "district": "Vila Oliveira",
        "street": "Rua Saguaragí",
        "zipcode": "86604-104"
    },
    {
        "city": "Rolândia",
        "state": "PR",
        "district": "Centro",
        "street": "Rua Manoel Carreira Bernardino",
        "zipcode": "86600-111"
    },
    {
        "city": "Rolândia",
        "state": "PR",
        "district": "Centro",
        "street": "Avenida Salgado Filho",
        "zipcode": "86600-980"
    },
    {
        "city": "Rolândia",
        "state": "PR",
        "district": "Conjunto Habitacional Santiago",
        "street": "Rua Francisco Gatti",
        "zipcode": "86606-618"
    },
    {
        "city": "Rolândia",
        "state": "PR",
        "district": "Conjunto Habitacional Santiago",
        "street": "Rua Domingos Bertoncello",
        "zipcode": "86606-076"
    },
    {
        "city": "Rolândia",
        "state": "PR",
        "district": "Conjunto Habitacional Santiago",
        "street": "Rua José Farina Filho",
        "zipcode": "86606-294"
    },
    {
        "city": "Rolândia",
        "state": "PR",
        "district": "Jardim Novo Horizonte",
        "street": "Rua Attilio Sorpresi",
        "zipcode": "86604-314"
    },
    {
        "city": "Rolândia",
        "state": "PR",
        "district": "Conjunto Habitacional Santiago",
        "street": "Rua Primo Salviato",
        "zipcode": "86606-052"
    },
    {
        "city": "Rolândia",
        "state": "PR",
        "district": "Conjunto Habitacional Santiago",
        "street": "Viela Paulina Erdei",
        "zipcode": "86606-096"
    },
    {
        "city": "Rolândia",
        "state": "PR",
        "district": "Conjunto Habitacional San Fernando",
        "street": "Rua Angelina Campaner",
        "zipcode": "86605-670"
    },
    {
        "city": "Rolândia",
        "state": "PR",
        "district": "Conjunto Habitacional Santiago",
        "street": "Rua Tereza Makocsi",
        "zipcode": "86606-086"
    },
    {
        "city": "Rolândia",
        "state": "PR",
        "district": "Conjunto Habitacional Santiago",
        "street": "Rua José Neiva",
        "zipcode": "86606-062"
    },
    {
        "city": "Rolândia",
        "state": "PR",
        "district": "Conjunto Habitacional Santiago",
        "street": "Rua Lago Titicaca",
        "zipcode": "86606-632"
    },
    {
        "city": "Rolândia",
        "state": "PR",
        "district": "Conjunto Habitacional Santiago",
        "street": "Rua Antônio Canônico Filho",
        "zipcode": "86606-064"
    },
    {
        "city": "Rolândia",
        "state": "PR",
        "district": "Conjunto Habitacional Santiago",
        "street": "Rua Hans Kopp",
        "zipcode": "86606-056"
    },
    {
        "city": "Rolândia",
        "state": "PR",
        "district": "Conjunto Habitacional Santiago",
        "street": "Avenida José Erdei",
        "zipcode": "86606-300"
    },
    {
        "city": "Rolândia",
        "state": "PR",
        "district": "Conjunto Habitacional Santiago",
        "street": "Rua Durcelina Panhan Grezlak",
        "zipcode": "86606-612"
    },
    {
        "city": "Rolândia",
        "state": "PR",
        "district": "Conjunto Habitacional Santiago",
        "street": "Rua Lagoa dos Patos",
        "zipcode": "86606-630"
    },
    {
        "city": "Rolândia",
        "state": "PR",
        "district": "Conjunto Habitacional Santiago",
        "street": "Rua Elizabeth Erdei",
        "zipcode": "86606-084"
    },
    {
        "city": "Rolândia",
        "state": "PR",
        "district": "Conjunto Habitacional Santiago",
        "street": "Rua Ângelo Mantovani",
        "zipcode": "86606-296"
    },
    {
        "city": "Rolândia",
        "state": "PR",
        "district": "Conjunto Habitacional Santiago",
        "street": "Rua Luciano Tribulato",
        "zipcode": "86606-610"
    },
    {
        "city": "Rolândia",
        "state": "PR",
        "district": "Conjunto Habitacional Santiago",
        "street": "Rua Lagoa Rodrigo de Freitas",
        "zipcode": "86606-634"
    },
    {
        "city": "Rolândia",
        "state": "PR",
        "district": "Conjunto Habitacional Santiago",
        "street": "Rua Victor Kretschmar",
        "zipcode": "86606-624"
    },
    {
        "city": "Rolândia",
        "state": "PR",
        "district": "Conjunto Habitacional Santiago",
        "street": "Rua Benevenuto Perazolo",
        "zipcode": "86606-284"
    },
    {
        "city": "Rolândia",
        "state": "PR",
        "district": "Conjunto Habitacional Santiago",
        "street": "Avenida José Erdei",
        "zipcode": "86606-092"
    },
    {
        "city": "Rolândia",
        "state": "PR",
        "district": "Jardim Rosângelo",
        "street": "Rua Maria Dorotéia Oliveira",
        "zipcode": "86602-384"
    },
    {
        "city": "Rolândia",
        "state": "PR",
        "district": "Conjunto Habitacional Santiago",
        "street": "Rua Horácio Fernandes Negrão",
        "zipcode": "86606-620"
    },
    {
        "city": "Rolândia",
        "state": "PR",
        "district": "Jardim Nobre",
        "street": "Rua Vereador Antônio Cecílio Gonçalves",
        "zipcode": "86602-542"
    },
    {
        "city": "Rolândia",
        "state": "PR",
        "district": "Conjunto Habitacional Santiago",
        "street": "Rua Wandir Martins",
        "zipcode": "86606-302"
    },
    {
        "city": "Rolândia",
        "state": "PR",
        "district": "Conjunto Habitacional Santiago",
        "street": "Rua Luciano Tribulato",
        "zipcode": "86606-080"
    },
    {
        "city": "Rolândia",
        "state": "PR",
        "district": "Conjunto Habitacional Santiago",
        "street": "Rua Esther Erdei",
        "zipcode": "86606-090"
    },
    {
        "city": "Rolândia",
        "state": "PR",
        "district": "Conjunto Habitacional Santiago",
        "street": "Avenida Domingos Bertoncello",
        "zipcode": "86606-636"
    },
    {
        "city": "Rolândia",
        "state": "PR",
        "district": "Conjunto Habitacional Santiago",
        "street": "Rua Nilo Brun",
        "zipcode": "86606-060"
    },
    {
        "city": "Rolândia",
        "state": "PR",
        "district": "Manoel Müller",
        "street": "Rua Margarida F Tribulato",
        "zipcode": "86601-014"
    },
    {
        "city": "Rolândia",
        "state": "PR",
        "district": "Conjunto Habitacional Santiago",
        "street": "Rua Ernesto Juliani",
        "zipcode": "86606-622"
    },
    {
        "city": "Rolândia",
        "state": "PR",
        "district": "Conjunto Habitacional Santiago",
        "street": "Rua Olga Giordani",
        "zipcode": "86606-070"
    },
    {
        "city": "Rolândia",
        "state": "PR",
        "district": "Conjunto Habitacional Santiago",
        "street": "Rua Antônio de Menezes",
        "zipcode": "86606-050"
    },
    {
        "city": "Rolândia",
        "state": "PR",
        "district": "Conjunto Habitacional Santiago",
        "street": "Rua Nicolau Cotting",
        "zipcode": "86606-074"
    },
    {
        "city": "Rolândia",
        "state": "PR",
        "district": "Conjunto Habitacional Santiago",
        "street": "Rua Rosa Cucchi Armacolo",
        "zipcode": "86606-288"
    },
    {
        "city": "Rolândia",
        "state": "PR",
        "district": "Conjunto Habitacional Santiago",
        "street": "Rua Horácio Fernandes Negrão",
        "zipcode": "86606-066"
    },
    {
        "city": "Rolândia",
        "state": "PR",
        "district": "Conjunto Habitacional Santiago",
        "street": "Rua José Makocsi",
        "zipcode": "86606-088"
    },
    {
        "city": "Rolândia",
        "state": "PR",
        "district": "Conjunto Habitacional Santiago",
        "street": "Avenida João Ulinski",
        "zipcode": "86606-072"
    },
    {
        "city": "Rolândia",
        "state": "PR",
        "district": "Conjunto Habitacional Santiago",
        "street": "Rua Professor Dozsa Geza",
        "zipcode": "86606-298"
    },
    {
        "city": "Rolândia",
        "state": "PR",
        "district": "Conjunto Habitacional Santiago",
        "street": "Rua Oswald Nixdorf",
        "zipcode": "86606-286"
    },
    {
        "city": "Rolândia",
        "state": "PR",
        "district": "Conjunto Habitacional Santiago",
        "street": "Rua Luiz Salmazo",
        "zipcode": "86606-292"
    },
    {
        "city": "Rolândia",
        "state": "PR",
        "district": "Conjunto Habitacional Santiago",
        "street": "Rua Domingos Antônio de Souza",
        "zipcode": "86606-290"
    },
    {
        "city": "Rolândia",
        "state": "PR",
        "district": "Centro",
        "street": "Travessa Primeiro de Maio",
        "zipcode": "86600-181"
    },
    {
        "city": "Rolândia",
        "state": "PR",
        "district": "Conjunto Habitacional San Fernando",
        "street": "Rua Maria Chaves",
        "zipcode": "86605-662"
    },
    {
        "city": "Rolândia",
        "state": "PR",
        "district": "Conjunto Habitacional San Fernando",
        "street": "Rua Pompílio dos Santos",
        "zipcode": "86605-654"
    },
    {
        "city": "Rolândia",
        "state": "PR",
        "district": "Jardim Caviúna",
        "street": "Rua Ana Ximenes Niza",
        "zipcode": "86605-332"
    },
    {
        "city": "Rolândia",
        "state": "PR",
        "district": "Conjunto Habitacional San Fernando",
        "street": "Rua Keiko Nakano Alves",
        "zipcode": "86605-678"
    },
    {
        "city": "Rolândia",
        "state": "PR",
        "district": "Conjunto Habitacional San Fernando",
        "street": "Rua Nápoles",
        "zipcode": "86605-794"
    },
    {
        "city": "Rolândia",
        "state": "PR",
        "district": "Conjunto Habitacional Santiago",
        "street": "Rua Calil Melem",
        "zipcode": "86606-004"
    },
    {
        "city": "Rolândia",
        "state": "PR",
        "district": "Conjunto Habitacional San Fernando",
        "street": "Rua Colômbia",
        "zipcode": "86605-734"
    },
    {
        "city": "Rolândia",
        "state": "PR",
        "district": "Conjunto Habitacional Santiago",
        "street": "Rua Gabriel Filiput",
        "zipcode": "86606-000"
    },
    {
        "city": "Rolândia",
        "state": "PR",
        "district": "Conjunto Habitacional San Fernando",
        "street": "Rua Venezuela",
        "zipcode": "86605-778"
    },
    {
        "city": "Rolândia",
        "state": "PR",
        "district": "Conjunto Habitacional San Fernando",
        "street": "Rua Maria da Conceição Vieira Neves",
        "zipcode": "86605-758"
    },
    {
        "city": "Rolândia",
        "state": "PR",
        "district": "Conjunto Habitacional San Fernando",
        "street": "Rua Turim",
        "zipcode": "86605-796"
    },
    {
        "city": "Rolândia",
        "state": "PR",
        "district": "Conjunto Habitacional San Fernando",
        "street": "Rua Peru",
        "zipcode": "86605-768"
    },
    {
        "city": "Rolândia",
        "state": "PR",
        "district": "Conjunto Habitacional San Fernando",
        "street": "Rua Bolívia",
        "zipcode": "86605-732"
    },
    {
        "city": "Rolândia",
        "state": "PR",
        "district": "Conjunto Habitacional San Fernando",
        "street": "Rua Guatemala",
        "zipcode": "86605-764"
    },
    {
        "city": "Rolândia",
        "state": "PR",
        "district": "Conjunto Habitacional Santiago",
        "street": "Rua Argentino Gonçalves",
        "zipcode": "86606-036"
    },
    {
        "city": "Rolândia",
        "state": "PR",
        "district": "Conjunto Habitacional San Fernando",
        "street": "Rua Maria do Carmo Campos",
        "zipcode": "86605-664"
    },
    {
        "city": "Rolândia",
        "state": "PR",
        "district": "Conjunto Habitacional Santiago",
        "street": "Rua Cícero Alves Tete",
        "zipcode": "86606-032"
    },
    {
        "city": "Rolândia",
        "state": "PR",
        "district": "Conjunto Habitacional San Fernando",
        "street": "Rua Pioneira Lúcia Paiole",
        "zipcode": "86605-744"
    },
    {
        "city": "Rolândia",
        "state": "PR",
        "district": "Conjunto Habitacional San Fernando",
        "street": "Rua João Maurício",
        "zipcode": "86605-800"
    },
    {
        "city": "Rolândia",
        "state": "PR",
        "district": "Conjunto Habitacional Santiago",
        "street": "Rua Angelina Tete",
        "zipcode": "86606-030"
    },
    {
        "city": "Rolândia",
        "state": "PR",
        "district": "Conjunto Habitacional Santiago",
        "street": "Rua Santo Segatel",
        "zipcode": "86606-002"
    },
    {
        "city": "Rolândia",
        "state": "PR",
        "district": "Conjunto Habitacional San Fernando",
        "street": "Avenida Francisco Serpeloni",
        "zipcode": "86605-730"
    },
    {
        "city": "Rolândia",
        "state": "PR",
        "district": "Conjunto Habitacional San Fernando",
        "street": "Rua Aparecido Vanzela de Souza",
        "zipcode": "86605-788"
    },
    {
        "city": "Rolândia",
        "state": "PR",
        "district": "Conjunto Habitacional San Fernando",
        "street": "Rua Equador",
        "zipcode": "86605-766"
    },
    {
        "city": "Rolândia",
        "state": "PR",
        "district": "Conjunto Habitacional San Fernando",
        "street": "Rua Antônio de Aro Dias",
        "zipcode": "86605-588"
    },
    {
        "city": "Rolândia",
        "state": "PR",
        "district": "Conjunto Habitacional San Fernando",
        "street": "Rua Jair José da Silva",
        "zipcode": "86605-802"
    },
    {
        "city": "Rolândia",
        "state": "PR",
        "district": "Conjunto Habitacional San Fernando",
        "street": "Rua Gênova",
        "zipcode": "86605-792"
    },
    {
        "city": "Rolândia",
        "state": "PR",
        "district": "Conjunto Habitacional San Fernando",
        "street": "Rua Marli Cortez Perazollo",
        "zipcode": "86605-674"
    },
    {
        "city": "Rolândia",
        "state": "PR",
        "district": "Conjunto Habitacional San Fernando",
        "street": "Rua Vereador Silas Neves de Souza",
        "zipcode": "86605-762"
    },
    {
        "city": "Rolândia",
        "state": "PR",
        "district": "Conjunto Habitacional San Fernando",
        "street": "Rua Veneza",
        "zipcode": "86605-798"
    },
    {
        "city": "Rolândia",
        "state": "PR",
        "district": "Conjunto Habitacional San Fernando",
        "street": "Rua Ana Ximenes Niza",
        "zipcode": "86605-582"
    },
    {
        "city": "Rolândia",
        "state": "PR",
        "district": "Conjunto Habitacional San Fernando",
        "street": "Rua Vereador Toninho da Farmácia",
        "zipcode": "86605-740"
    },
    {
        "city": "Rolândia",
        "state": "PR",
        "district": "Conjunto Habitacional San Fernando",
        "street": "Rua Feliciano Guedes de Carvalho",
        "zipcode": "86605-756"
    },
    {
        "city": "Rolândia",
        "state": "PR",
        "district": "Conjunto Habitacional San Fernando",
        "street": "Rua Manoel Pereira de Freitas",
        "zipcode": "86605-770"
    },
    {
        "city": "Rolândia",
        "state": "PR",
        "district": "Conjunto Habitacional Santiago",
        "street": "Avenida Atlanta",
        "zipcode": "86606-008"
    },
    {
        "city": "Rolândia",
        "state": "PR",
        "district": "Conjunto Habitacional Santiago",
        "street": "Rua Gines Ponce Alarcon",
        "zipcode": "86606-034"
    },
    {
        "city": "Rolândia",
        "state": "PR",
        "district": "Conjunto Habitacional Santiago",
        "street": "Rua Pedro Vicente Ribeiro",
        "zipcode": "86606-048"
    },
    {
        "city": "Rolândia",
        "state": "PR",
        "district": "Conjunto Habitacional San Fernando",
        "street": "Rua João Rosolen",
        "zipcode": "86605-754"
    },
    {
        "city": "Rolândia",
        "state": "PR",
        "district": "Conjunto Habitacional San Fernando",
        "street": "Rua Pioneiro Francisco Vicente Andreato",
        "zipcode": "86605-738"
    },
    {
        "city": "Rolândia",
        "state": "PR",
        "district": "Conjunto Habitacional Santiago",
        "street": "Rua Maria Ponce Linfante",
        "zipcode": "86606-040"
    },
    {
        "city": "Rolândia",
        "state": "PR",
        "district": "Conjunto Habitacional San Fernando",
        "street": "Rua José Tadeu Mota",
        "zipcode": "86605-672"
    },
    {
        "city": "Rolândia",
        "state": "PR",
        "district": "Conjunto Habitacional Santiago",
        "street": "Rua Domingos Maringonda",
        "zipcode": "86606-038"
    },
    {
        "city": "Rolândia",
        "state": "PR",
        "district": "Conjunto Habitacional San Fernando",
        "street": "Rua Cezira Jacon",
        "zipcode": "86605-748"
    },
    {
        "city": "Rolândia",
        "state": "PR",
        "district": "Conjunto Habitacional San Fernando",
        "street": "Rua Yukimassa Nakano",
        "zipcode": "86605-650"
    },
    {
        "city": "Rolândia",
        "state": "PR",
        "district": "Conjunto Habitacional San Fernando",
        "street": "Rua Pedro Martinelli",
        "zipcode": "86605-656"
    },
    {
        "city": "Rolândia",
        "state": "PR",
        "district": "Conjunto Habitacional San Fernando",
        "street": "Rua Vicente Anesi",
        "zipcode": "86605-774"
    },
    {
        "city": "Rolândia",
        "state": "PR",
        "district": "Conjunto Habitacional San Fernando",
        "street": "Rua Gaston Leon Kuck",
        "zipcode": "86605-750"
    },
    {
        "city": "Rolândia",
        "state": "PR",
        "district": "Conjunto Habitacional San Fernando",
        "street": "Rua Emílio Pincelli",
        "zipcode": "86605-668"
    },
    {
        "city": "Rolândia",
        "state": "PR",
        "district": "Conjunto Habitacional Santiago",
        "street": "Avenida Maracanã",
        "zipcode": "86606-044"
    },
    {
        "city": "Rolândia",
        "state": "PR",
        "district": "Conjunto Habitacional San Fernando",
        "street": "Rua Angelina Gargalo",
        "zipcode": "86605-752"
    },
    {
        "city": "Rolândia",
        "state": "PR",
        "district": "Conjunto Habitacional San Fernando",
        "street": "Rua Pioneiro Domingos Sorprezo",
        "zipcode": "86605-760"
    },
    {
        "city": "Rolândia",
        "state": "PR",
        "district": "Conjunto Habitacional San Fernando",
        "street": "Rua Hélio Marran",
        "zipcode": "86605-568"
    },
    {
        "city": "Rolândia",
        "state": "PR",
        "district": "Jardim Caviúna",
        "street": "Rua Marechal Hermes da Fonseca",
        "zipcode": "86605-282"
    },
    {
        "city": "Rolândia",
        "state": "PR",
        "district": "Jardim Caviúna",
        "street": "Avenida Júlio Conte",
        "zipcode": "86605-334"
    },
    {
        "city": "Rolândia",
        "state": "PR",
        "district": "Jardim Caviúna",
        "street": "Rua Wladimir Gatti",
        "zipcode": "86605-280"
    },
    {
        "city": "Rolândia",
        "state": "PR",
        "district": "Conjunto Habitacional San Fernando",
        "street": "Rua Eduardo Grezlak",
        "zipcode": "86605-632"
    },
    {
        "city": "Rolândia",
        "state": "PR",
        "district": "Jardim Caviúna",
        "street": "Rua Antônio Franzão",
        "zipcode": "86605-346"
    },
    {
        "city": "Rolândia",
        "state": "PR",
        "district": "Jardim Caviúna",
        "street": "Rua Antônio Vanzela",
        "zipcode": "86605-336"
    },
    {
        "city": "Rolândia",
        "state": "PR",
        "district": "Jardim Caviúna",
        "street": "Rua Antúrios",
        "zipcode": "86605-260"
    },
    {
        "city": "Rolândia",
        "state": "PR",
        "district": "Jardim Caviúna",
        "street": "Rua Seei Higa",
        "zipcode": "86605-338"
    },
    {
        "city": "Rolândia",
        "state": "PR",
        "district": "Jardim Caviúna",
        "street": "Rua Arlindo Locatelli",
        "zipcode": "86605-342"
    },
    {
        "city": "Rolândia",
        "state": "PR",
        "district": "Jardim Caviúna",
        "street": "Rua Adão Schuller",
        "zipcode": "86605-272"
    },
    {
        "city": "Rolândia",
        "state": "PR",
        "district": "Jardim Caviúna",
        "street": "Rua Afonso Camargo",
        "zipcode": "86605-298"
    },
    {
        "city": "Rolândia",
        "state": "PR",
        "district": "Jardim Caviúna",
        "street": "Rua Afonso Pena",
        "zipcode": "86605-276"
    },
    {
        "city": "Rolândia",
        "state": "PR",
        "district": "Conjunto Habitacional San Fernando",
        "street": "Rua Lúcio Pinto",
        "zipcode": "86605-640"
    },
    {
        "city": "Rolândia",
        "state": "PR",
        "district": "Conjunto Habitacional San Fernando",
        "street": "Rua Luiz Andrade",
        "zipcode": "86605-630"
    },
    {
        "city": "Rolândia",
        "state": "PR",
        "district": "Jardim Caviúna",
        "street": "Rua Doutor Ferreira Braga",
        "zipcode": "86605-286"
    },
    {
        "city": "Rolândia",
        "state": "PR",
        "district": "Jardim Caviúna",
        "street": "Rua Maria Mariz Sato",
        "zipcode": "86605-330"
    },
    {
        "city": "Rolândia",
        "state": "PR",
        "district": "Jardim Caviúna",
        "street": "Rua Doutor Mário Tourinho",
        "zipcode": "86605-304"
    },
    {
        "city": "Rolândia",
        "state": "PR",
        "district": "Conjunto Habitacional San Fernando",
        "street": "Rua Maximiliano Sandri",
        "zipcode": "86605-626"
    },
    {
        "city": "Rolândia",
        "state": "PR",
        "district": "Conjunto Habitacional San Fernando",
        "street": "Rua João Henriques",
        "zipcode": "86605-564"
    },
    {
        "city": "Rolândia",
        "state": "PR",
        "district": "Jardim Caviúna",
        "street": "Rua Francisco Garcia Netto",
        "zipcode": "86605-264"
    },
    {
        "city": "Rolândia",
        "state": "PR",
        "district": "Conjunto Habitacional San Fernando",
        "street": "Rua Francisco Ramos Pereira",
        "zipcode": "86605-622"
    },
    {
        "city": "Rolândia",
        "state": "PR",
        "district": "Conjunto Habitacional San Fernando",
        "street": "Rua Francisco Ramos Pereira",
        "zipcode": "86605-638"
    },
    {
        "city": "Rolândia",
        "state": "PR",
        "district": "Jardim Caviúna",
        "street": "Rua Joaquim Monteiro",
        "zipcode": "86605-294"
    },
    {
        "city": "Rolândia",
        "state": "PR",
        "district": "Jardim Caviúna",
        "street": "Rua José Faccione",
        "zipcode": "86605-266"
    },
    {
        "city": "Rolândia",
        "state": "PR",
        "district": "Jardim Caviúna",
        "street": "Rua Guaíra",
        "zipcode": "86605-278"
    },
    {
        "city": "Rolândia",
        "state": "PR",
        "district": "Jardim Novo Horizonte",
        "street": "Rua Antônio Canônico",
        "zipcode": "86604-632"
    },
    {
        "city": "Rolândia",
        "state": "PR",
        "district": "Jardim Caviúna",
        "street": "Rua Lauro Faccione",
        "zipcode": "86605-166"
    },
    {
        "city": "Rolândia",
        "state": "PR",
        "district": "Jardim Caviúna",
        "street": "Rua Duque de Caxias",
        "zipcode": "86605-180"
    },
    {
        "city": "Rolândia",
        "state": "PR",
        "district": "Jardim Novo Horizonte",
        "street": "Rua Dionísio Marino",
        "zipcode": "86604-636"
    },
    {
        "city": "Rolândia",
        "state": "PR",
        "district": "Conjunto Habitacional San Fernando",
        "street": "Rua Joaquim Pereira",
        "zipcode": "86605-642"
    },
    {
        "city": "Rolândia",
        "state": "PR",
        "district": "Conjunto Habitacional San Fernando",
        "street": "Rua Odair Casado",
        "zipcode": "86605-560"
    },
    {
        "city": "Rolândia",
        "state": "PR",
        "district": "Conjunto Habitacional San Fernando",
        "street": "Rua Ivahy Martins",
        "zipcode": "86605-532"
    },
    {
        "city": "Rolândia",
        "state": "PR",
        "district": "Conjunto Habitacional San Fernando",
        "street": "Rua Cristina Schurmann",
        "zipcode": "86605-646"
    },
    {
        "city": "Rolândia",
        "state": "PR",
        "district": "Jardim Caviúna",
        "street": "Rua Interventor Macedo Portugal",
        "zipcode": "86605-302"
    },
    {
        "city": "Rolândia",
        "state": "PR",
        "district": "Conjunto Habitacional San Fernando",
        "street": "Rua Lauro Silvério Muller",
        "zipcode": "86605-634"
    },
    {
        "city": "Rolândia",
        "state": "PR",
        "district": "Conjunto Habitacional San Fernando",
        "street": "Rua Maria Mariz Sato",
        "zipcode": "86605-562"
    },
    {
        "city": "Rolândia",
        "state": "PR",
        "district": "Conjunto Habitacional San Fernando",
        "street": "Rua Seei Higa",
        "zipcode": "86605-600"
    },
    {
        "city": "Rolândia",
        "state": "PR",
        "district": "Conjunto Habitacional San Fernando",
        "street": "Rua Robério Rodrigues",
        "zipcode": "86605-572"
    },
    {
        "city": "Rolândia",
        "state": "PR",
        "district": "Jardim Caviúna",
        "street": "Rua João Batista",
        "zipcode": "86605-270"
    },
    {
        "city": "Rolândia",
        "state": "PR",
        "district": "Conjunto Habitacional San Fernando",
        "street": "Rua Sabine Kenpf",
        "zipcode": "86605-586"
    },
    {
        "city": "Rolândia",
        "state": "PR",
        "district": "Conjunto Habitacional San Fernando",
        "street": "Rua José Gomes Júnior",
        "zipcode": "86605-648"
    },
    {
        "city": "Rolândia",
        "state": "PR",
        "district": "Conjunto Habitacional San Fernando",
        "street": "Rua Daniel Biondo",
        "zipcode": "86605-598"
    },
    {
        "city": "Rolândia",
        "state": "PR",
        "district": "Conjunto Habitacional San Fernando",
        "street": "Rua Arlete Pinto Liberatti",
        "zipcode": "86605-620"
    },
    {
        "city": "Rolândia",
        "state": "PR",
        "district": "Jardim Caviúna",
        "street": "Rua José Fortunato Chiaratti",
        "zipcode": "86605-290"
    },
    {
        "city": "Rolândia",
        "state": "PR",
        "district": "Conjunto Habitacional San Fernando",
        "street": "Rua Pedro Burhoff",
        "zipcode": "86605-590"
    },
    {
        "city": "Rolândia",
        "state": "PR",
        "district": "Conjunto Habitacional San Fernando",
        "street": "Rua Prefeito Alberto Matheus",
        "zipcode": "86605-536"
    },
    {
        "city": "Rolândia",
        "state": "PR",
        "district": "Jardim Caviúna",
        "street": "Rua Catarina Gerolin",
        "zipcode": "86605-042"
    },
    {
        "city": "Rolândia",
        "state": "PR",
        "district": "Conjunto Habitacional San Fernando",
        "street": "Rua Deputado Pedro Liberti",
        "zipcode": "86605-530"
    },
    {
        "city": "Rolândia",
        "state": "PR",
        "district": "Jardim Nobre",
        "street": "Rua Hugo Marchezini",
        "zipcode": "86602-606"
    },
    {
        "city": "Rolândia",
        "state": "PR",
        "district": "Conjunto Habitacional San Fernando",
        "street": "Rua José Maria Garcia",
        "zipcode": "86605-580"
    },
    {
        "city": "Rolândia",
        "state": "PR",
        "district": "Conjunto Habitacional San Fernando",
        "street": "Rua Prefeito Ary Correia de Lima",
        "zipcode": "86605-534"
    },
    {
        "city": "Rolândia",
        "state": "PR",
        "district": "Jardim Caviúna",
        "street": "Avenida Antônio Puzzi",
        "zipcode": "86605-040"
    },
    {
        "city": "Rolândia",
        "state": "PR",
        "district": "Jardim Caviúna",
        "street": "Travessa Palmira Marques",
        "zipcode": "86605-018"
    },
    {
        "city": "Rolândia",
        "state": "PR",
        "district": "Jardim Caviúna",
        "street": "Rua Sebastião Lucatto",
        "zipcode": "86605-030"
    },
    {
        "city": "Rolândia",
        "state": "PR",
        "district": "Jardim Novo Horizonte",
        "street": "Rua Shoei Igarashi",
        "zipcode": "86604-634"
    },
    {
        "city": "Rolândia",
        "state": "PR",
        "district": "Jardim Caviúna",
        "street": "Avenida Valdecir Gibim",
        "zipcode": "86605-046"
    },
    {
        "city": "Rolândia",
        "state": "PR",
        "district": "Jardim Caviúna",
        "street": "Avenida Waldemiro Moreira",
        "zipcode": "86605-178"
    },
    {
        "city": "Rolândia",
        "state": "PR",
        "district": "Jardim Caviúna",
        "street": "Avenida Waldemiro Moreira",
        "zipcode": "86605-256"
    },
    {
        "city": "Rolândia",
        "state": "PR",
        "district": "Jardim Caviúna",
        "street": "Rua Adolfo Schaeffer",
        "zipcode": "86605-162"
    },
    {
        "city": "Rolândia",
        "state": "PR",
        "district": "Jardim Caviúna",
        "street": "Rua Aguiar de Lima",
        "zipcode": "86605-000"
    },
    {
        "city": "Rolândia",
        "state": "PR",
        "district": "Jardim Caviúna",
        "street": "Rua Alberto Conte",
        "zipcode": "86605-188"
    },
    {
        "city": "Rolândia",
        "state": "PR",
        "district": "Jardim Caviúna",
        "street": "Rua Lírios",
        "zipcode": "86605-250"
    },
    {
        "city": "Rolândia",
        "state": "PR",
        "district": "Jardim Caviúna",
        "street": "Rua Palmira Marques",
        "zipcode": "86605-020"
    },
    {
        "city": "Rolândia",
        "state": "PR",
        "district": "Jardim Caviúna",
        "street": "Rua Paulo Guimarães",
        "zipcode": "86605-164"
    },
    {
        "city": "Rolândia",
        "state": "PR",
        "district": "Jardim Caviúna",
        "street": "Rua Monteiro Lobato",
        "zipcode": "86605-022"
    },
    {
        "city": "Rolândia",
        "state": "PR",
        "district": "Jardim Caviúna",
        "street": "Rua Nicolaus Kempf",
        "zipcode": "86605-032"
    },
    {
        "city": "Rolândia",
        "state": "PR",
        "district": "Jardim Caviúna",
        "street": "Rua Estilac Leal",
        "zipcode": "86605-006"
    },
    {
        "city": "Rolândia",
        "state": "PR",
        "district": "Jardim Caviúna",
        "street": "Rua Estilac Leal",
        "zipcode": "86605-026"
    },
    {
        "city": "Rolândia",
        "state": "PR",
        "district": "Jardim Caviúna",
        "street": "Rua Suiça",
        "zipcode": "86605-240"
    },
    {
        "city": "Rolândia",
        "state": "PR",
        "district": "Jardim Caviúna",
        "street": "Rua Takeo Teshima",
        "zipcode": "86605-176"
    },
    {
        "city": "Rolândia",
        "state": "PR",
        "district": "Jardim Caviúna",
        "street": "Rua Teixeira de Freitas",
        "zipcode": "86605-184"
    },
    {
        "city": "Rolândia",
        "state": "PR",
        "district": "Jardim Caviúna",
        "street": "Rua das Rosas",
        "zipcode": "86605-246"
    },
    {
        "city": "Rolândia",
        "state": "PR",
        "district": "Jardim Caviúna",
        "street": "Rua Inglaterra",
        "zipcode": "86605-204"
    },
    {
        "city": "Rolândia",
        "state": "PR",
        "district": "Jardim Caviúna",
        "street": "Rua Santa Izabel",
        "zipcode": "86605-028"
    },
    {
        "city": "Rolândia",
        "state": "PR",
        "district": "Vila Oliveira",
        "street": "Rua Marfim",
        "zipcode": "86604-032"
    },
    {
        "city": "Rolândia",
        "state": "PR",
        "district": "Jardim Novo Horizonte",
        "street": "Rua João Maria Galvão",
        "zipcode": "86604-640"
    },
    {
        "city": "Rolândia",
        "state": "PR",
        "district": "Jardim Caviúna",
        "street": "Rua das Flores",
        "zipcode": "86605-254"
    },
    {
        "city": "Rolândia",
        "state": "PR",
        "district": "Jardim Caviúna",
        "street": "Rua Francisco de Paula",
        "zipcode": "86605-174"
    },
    {
        "city": "Rolândia",
        "state": "PR",
        "district": "Jardim Caviúna",
        "street": "Rua Francisco Tonsic",
        "zipcode": "86605-150"
    },
    {
        "city": "Rolândia",
        "state": "PR",
        "district": "Jardim Caviúna",
        "street": "Rua Francisco Xavier",
        "zipcode": "86605-008"
    },
    {
        "city": "Rolândia",
        "state": "PR",
        "district": "Jardim Caviúna",
        "street": "Rua General Cardoso Júnior",
        "zipcode": "86605-186"
    },
    {
        "city": "Rolândia",
        "state": "PR",
        "district": "Jardim Caviúna",
        "street": "Rua General Cardoso Júnior",
        "zipcode": "86605-198"
    },
    {
        "city": "Rolândia",
        "state": "PR",
        "district": "Jardim Caviúna",
        "street": "Rua Carlos George",
        "zipcode": "86605-192"
    },
    {
        "city": "Rolândia",
        "state": "PR",
        "district": "Jardim Caviúna",
        "street": "Rua Manoel Lemos",
        "zipcode": "86605-172"
    },
    {
        "city": "Rolândia",
        "state": "PR",
        "district": "Jardim Caviúna",
        "street": "Rua Manoel Martins Portelinha",
        "zipcode": "86605-034"
    },
    {
        "city": "Rolândia",
        "state": "PR",
        "district": "Jardim Caviúna",
        "street": "Rua José Gonçalves",
        "zipcode": "86605-156"
    },
    {
        "city": "Rolândia",
        "state": "PR",
        "district": "Jardim Caviúna",
        "street": "Rua Gerânios",
        "zipcode": "86605-252"
    },
    {
        "city": "Rolândia",
        "state": "PR",
        "district": "Jardim Caviúna",
        "street": "Rua Hans Seckles",
        "zipcode": "86605-168"
    },
    {
        "city": "Rolândia",
        "state": "PR",
        "district": "Jardim Novo Horizonte",
        "street": "Rua Antônio Campaner",
        "zipcode": "86604-600"
    },
    {
        "city": "Rolândia",
        "state": "PR",
        "district": "Jardim Novo Horizonte",
        "street": "Rua Antônio Campaner",
        "zipcode": "86604-546"
    },
    {
        "city": "Rolândia",
        "state": "PR",
        "district": "Jardim Novo Horizonte",
        "street": "Rua dos Cedrinhos",
        "zipcode": "86604-458"
    },
    {
        "city": "Rolândia",
        "state": "PR",
        "district": "Jardim Novo Horizonte",
        "street": "Rua Cerejeiras",
        "zipcode": "86604-474"
    },
    {
        "city": "Rolândia",
        "state": "PR",
        "district": "Manoel Müller",
        "street": "Rua José Antônio de Souza",
        "zipcode": "86601-536"
    },
    {
        "city": "Rolândia",
        "state": "PR",
        "district": "Jardim Novo Horizonte",
        "street": "Rua Arnulfo Bender",
        "zipcode": "86604-648"
    },
    {
        "city": "Rolândia",
        "state": "PR",
        "district": "Jardim Caviúna",
        "street": "Rua Dulcídio Demarchi",
        "zipcode": "86605-200"
    },
    {
        "city": "Rolândia",
        "state": "PR",
        "district": "Jardim Novo Horizonte",
        "street": "Rua José Kolarovic",
        "zipcode": "86604-628"
    },
    {
        "city": "Rolândia",
        "state": "PR",
        "district": "Jardim Novo Horizonte",
        "street": "Rua Wilson Carvalho de Oliveira",
        "zipcode": "86604-506"
    },
    {
        "city": "Rolândia",
        "state": "PR",
        "district": "Jardim Caviúna",
        "street": "Rua Urias Lopes Müller",
        "zipcode": "86605-036"
    },
    {
        "city": "Rolândia",
        "state": "PR",
        "district": "Jardim Novo Horizonte",
        "street": "Rua dos Coqueiros",
        "zipcode": "86604-574"
    },
    {
        "city": "Rolândia",
        "state": "PR",
        "district": "Jardim Novo Horizonte",
        "street": "Rua Crisântemos",
        "zipcode": "86604-490"
    },
    {
        "city": "Rolândia",
        "state": "PR",
        "district": "Jardim Caviúna",
        "street": "Rua Antônio Marino",
        "zipcode": "86605-044"
    },
    {
        "city": "Rolândia",
        "state": "PR",
        "district": "Jardim Nobre",
        "street": "Rua Geraldo Tarzan Violim",
        "zipcode": "86602-566"
    },
    {
        "city": "Rolândia",
        "state": "PR",
        "district": "Jardim Caviúna",
        "street": "Avenida Max Dietz",
        "zipcode": "86605-258"
    },
    {
        "city": "Rolândia",
        "state": "PR",
        "district": "Jardim Novo Horizonte",
        "street": "Rua Fussataro Sassaya",
        "zipcode": "86604-630"
    },
    {
        "city": "Rolândia",
        "state": "PR",
        "district": "Jardim Novo Horizonte",
        "street": "Rua Croton",
        "zipcode": "86604-586"
    },
    {
        "city": "Rolândia",
        "state": "PR",
        "district": "Jardim Novo Horizonte",
        "street": "Rua Dálias",
        "zipcode": "86604-562"
    },
    {
        "city": "Rolândia",
        "state": "PR",
        "district": "Jardim Novo Horizonte",
        "street": "Avenida Atlanta",
        "zipcode": "86604-616"
    },
    {
        "city": "Rolândia",
        "state": "PR",
        "district": "Jardim Novo Horizonte",
        "street": "Rua das Hortências",
        "zipcode": "86604-468"
    },
    {
        "city": "Rolândia",
        "state": "PR",
        "district": "Jardim Novo Horizonte",
        "street": "Rua Edy Reis Gomes",
        "zipcode": "86604-498"
    },
    {
        "city": "Rolândia",
        "state": "PR",
        "district": "Jardim Novo Horizonte",
        "street": "Rua Antônio Lovato",
        "zipcode": "86604-594"
    },
    {
        "city": "Rolândia",
        "state": "PR",
        "district": "Jardim Novo Horizonte",
        "street": "Rua Sibiruna",
        "zipcode": "86604-492"
    },
    {
        "city": "Rolândia",
        "state": "PR",
        "district": "Jardim Novo Horizonte",
        "street": "Rua das Acácias",
        "zipcode": "86604-572"
    },
    {
        "city": "Rolândia",
        "state": "PR",
        "district": "Jardim Novo Horizonte",
        "street": "Rua das Paineiras",
        "zipcode": "86604-560"
    },
    {
        "city": "Rolândia",
        "state": "PR",
        "district": "Jardim Novo Horizonte",
        "street": "Rua das Palmas",
        "zipcode": "86604-464"
    },
    {
        "city": "Rolândia",
        "state": "PR",
        "district": "Jardim Novo Horizonte",
        "street": "Rua Nastúrcio",
        "zipcode": "86604-486"
    },
    {
        "city": "Rolândia",
        "state": "PR",
        "district": "Jardim Novo Horizonte",
        "street": "Rua Etore Martini",
        "zipcode": "86604-624"
    },
    {
        "city": "Rolândia",
        "state": "PR",
        "district": "Jardim Novo Horizonte",
        "street": "Rua Azaléias",
        "zipcode": "86604-466"
    },
    {
        "city": "Rolândia",
        "state": "PR",
        "district": "Jardim Novo Horizonte",
        "street": "Rua Bellis",
        "zipcode": "86604-576"
    },
    {
        "city": "Rolândia",
        "state": "PR",
        "district": "Jardim Novo Horizonte",
        "street": "Rua Reinaldo Massi",
        "zipcode": "86604-602"
    },
    {
        "city": "Rolândia",
        "state": "PR",
        "district": "Jardim Novo Horizonte",
        "street": "Rua Tulipas",
        "zipcode": "86604-496"
    },
    {
        "city": "Rolândia",
        "state": "PR",
        "district": "Jardim Novo Horizonte",
        "street": "Rua dos Ipês",
        "zipcode": "86604-470"
    },
    {
        "city": "Rolândia",
        "state": "PR",
        "district": "Jardim Novo Horizonte",
        "street": "Rua dos Jacarandás",
        "zipcode": "86604-580"
    },
    {
        "city": "Rolândia",
        "state": "PR",
        "district": "Jardim Novo Horizonte",
        "street": "Rua Jasmim",
        "zipcode": "86604-564"
    },
    {
        "city": "Rolândia",
        "state": "PR",
        "district": "Jardim Novo Horizonte",
        "street": "Rua Jequitibás",
        "zipcode": "86604-482"
    },
    {
        "city": "Rolândia",
        "state": "PR",
        "district": "Jardim Novo Horizonte",
        "street": "Rua das Orquídeas",
        "zipcode": "86604-484"
    },
    {
        "city": "Rolândia",
        "state": "PR",
        "district": "Jardim Novo Horizonte",
        "street": "Rua das Quaresmeiras",
        "zipcode": "86604-460"
    },
    {
        "city": "Rolândia",
        "state": "PR",
        "district": "Jardim Novo Horizonte",
        "street": "Rua das Margaridas",
        "zipcode": "86604-566"
    },
    {
        "city": "Rolândia",
        "state": "PR",
        "district": "Jardim Novo Horizonte",
        "street": "Rua das Margaridas",
        "zipcode": "86604-556"
    },
    {
        "city": "Rolândia",
        "state": "PR",
        "district": "Jardim Novo Horizonte",
        "street": "Rua Mário Colussi",
        "zipcode": "86604-620"
    },
    {
        "city": "Rolândia",
        "state": "PR",
        "district": "Jardim Novo Horizonte",
        "street": "Rua Magnólias",
        "zipcode": "86604-592"
    },
    {
        "city": "Rolândia",
        "state": "PR",
        "district": "Jardim Novo Horizonte",
        "street": "Rua Maracanã",
        "zipcode": "86604-542"
    },
    {
        "city": "Rolândia",
        "state": "PR",
        "district": "Jardim Novo Horizonte",
        "street": "Rua Petúnias",
        "zipcode": "86604-494"
    },
    {
        "city": "Rolândia",
        "state": "PR",
        "district": "Jardim Novo Horizonte",
        "street": "Rua Primavera",
        "zipcode": "86604-480"
    },
    {
        "city": "Rolândia",
        "state": "PR",
        "district": "Jardim Novo Horizonte",
        "street": "Rua José Farina",
        "zipcode": "86604-606"
    },
    {
        "city": "Rolândia",
        "state": "PR",
        "district": "Jardim Novo Horizonte",
        "street": "Rua Girassol",
        "zipcode": "86604-478"
    },
    {
        "city": "Rolândia",
        "state": "PR",
        "district": "Jardim Novo Horizonte",
        "street": "Rua Grevilha",
        "zipcode": "86604-584"
    },
    {
        "city": "Rolândia",
        "state": "PR",
        "district": "Vila Oliveira",
        "street": "Rua Doutor Leônidas Noronha",
        "zipcode": "86604-162"
    },
    {
        "city": "Rolândia",
        "state": "PR",
        "district": "Vila Oliveira",
        "street": "Rua Jurema",
        "zipcode": "86604-108"
    },
    {
        "city": "Rolândia",
        "state": "PR",
        "district": "Jardim Novo Horizonte",
        "street": "Rua Caturra",
        "zipcode": "86604-308"
    },
    {
        "city": "Rolândia",
        "state": "PR",
        "district": "Jardim Novo Horizonte",
        "street": "Rua Chico Mendes",
        "zipcode": "86604-290"
    },
    {
        "city": "Rolândia",
        "state": "PR",
        "district": "Jardim Novo Horizonte",
        "street": "Avenida das Araras",
        "zipcode": "86604-318"
    },
    {
        "city": "Rolândia",
        "state": "PR",
        "district": "Jardim Novo Horizonte",
        "street": "Avenida das Hortências",
        "zipcode": "86604-344"
    },
    {
        "city": "Rolândia",
        "state": "PR",
        "district": "Jardim Novo Horizonte",
        "street": "Rua Icatu",
        "zipcode": "86604-340"
    },
    {
        "city": "Rolândia",
        "state": "PR",
        "district": "Jardim Novo Horizonte",
        "street": "Travessa Cedrinho",
        "zipcode": "86604-456"
    },
    {
        "city": "Rolândia",
        "state": "PR",
        "district": "Jardim Novo Horizonte",
        "street": "Avenida Darci Pozzobom",
        "zipcode": "86604-500"
    },
    {
        "city": "Rolândia",
        "state": "PR",
        "district": "Jardim Novo Horizonte",
        "street": "Rua Damasco",
        "zipcode": "86604-310"
    },
    {
        "city": "Rolândia",
        "state": "PR",
        "district": "Jardim Novo Horizonte",
        "street": "Rua Ernesto Bizeto",
        "zipcode": "86604-626"
    },
    {
        "city": "Rolândia",
        "state": "PR",
        "district": "Jardim Novo Horizonte",
        "street": "Avenida José Faion",
        "zipcode": "86604-508"
    },
    {
        "city": "Rolândia",
        "state": "PR",
        "district": "Jardim Novo Horizonte",
        "street": "Rua Antônio Henrique Baú",
        "zipcode": "86604-502"
    },
    {
        "city": "Rolândia",
        "state": "PR",
        "district": "Jardim Novo Horizonte",
        "street": "Rua José Constantino Torres",
        "zipcode": "86604-548"
    },
    {
        "city": "Rolândia",
        "state": "PR",
        "district": "Jardim Novo Horizonte",
        "street": "Rua Projetada",
        "zipcode": "86604-614"
    },
    {
        "city": "Rolândia",
        "state": "PR",
        "district": "Vila Oliveira",
        "street": "Rua Kizaburo Hirai",
        "zipcode": "86604-254"
    },
    {
        "city": "Rolândia",
        "state": "PR",
        "district": "Vila Oliveira",
        "street": "Rua Yoshinari Aoki",
        "zipcode": "86604-244"
    },
    {
        "city": "Rolândia",
        "state": "PR",
        "district": "Jardim Novo Horizonte",
        "street": "Avenida José Luiz Sacca",
        "zipcode": "86604-420"
    },
    {
        "city": "Rolândia",
        "state": "PR",
        "district": "Jardim Novo Horizonte",
        "street": "Rua Darci Pozzobom",
        "zipcode": "86604-442"
    },
    {
        "city": "Rolândia",
        "state": "PR",
        "district": "Jardim Novo Horizonte",
        "street": "Rua Izidoro Rodrigues",
        "zipcode": "86604-504"
    },
    {
        "city": "Rolândia",
        "state": "PR",
        "district": "Vila Oliveira",
        "street": "Rua Tasujiro Taguchi",
        "zipcode": "86604-240"
    },
    {
        "city": "Rolândia",
        "state": "PR",
        "district": "Jardim Novo Horizonte",
        "street": "Rua Reginaldo de Carvalho",
        "zipcode": "86604-618"
    },
    {
        "city": "Rolândia",
        "state": "PR",
        "district": "Jardim Novo Horizonte",
        "street": "Rua Dracenas",
        "zipcode": "86604-438"
    },
    {
        "city": "Rolândia",
        "state": "PR",
        "district": "Jardim Novo Horizonte",
        "street": "Travessa Caviúna",
        "zipcode": "86604-450"
    },
    {
        "city": "Rolândia",
        "state": "PR",
        "district": "Jardim Novo Horizonte",
        "street": "Travessa Jequitibás",
        "zipcode": "86604-446"
    },
    {
        "city": "Rolândia",
        "state": "PR",
        "district": "Vila Oliveira",
        "street": "Rua Antônio Gonçalves Teixeira",
        "zipcode": "86604-168"
    },
    {
        "city": "Rolândia",
        "state": "PR",
        "district": "Jardim Novo Horizonte",
        "street": "Rua Sibiruna",
        "zipcode": "86604-434"
    },
    {
        "city": "Rolândia",
        "state": "PR",
        "district": "Vila Oliveira",
        "street": "Avenida das Palmeiras",
        "zipcode": "86604-118"
    },
    {
        "city": "Rolândia",
        "state": "PR",
        "district": "Vila Oliveira",
        "street": "Rua das Araras",
        "zipcode": "86604-248"
    },
    {
        "city": "Rolândia",
        "state": "PR",
        "district": "Vila Oliveira",
        "street": "Avenida Yassuo Kai",
        "zipcode": "86604-256"
    },
    {
        "city": "Rolândia",
        "state": "PR",
        "district": "Vila Oliveira",
        "street": "Rua Ouro",
        "zipcode": "86604-090"
    },
    {
        "city": "Rolândia",
        "state": "PR",
        "district": "Vila Oliveira",
        "street": "Rua Ouro",
        "zipcode": "86604-112"
    },
    {
        "city": "Rolândia",
        "state": "PR",
        "district": "Jardim Novo Horizonte",
        "street": "Rua dos Papagaios",
        "zipcode": "86604-334"
    },
    {
        "city": "Rolândia",
        "state": "PR",
        "district": "Vila Oliveira",
        "street": "Rua Urânio",
        "zipcode": "86604-098"
    },
    {
        "city": "Rolândia",
        "state": "PR",
        "district": "Jardim Novo Horizonte",
        "street": "Rua dos Pardais",
        "zipcode": "86604-306"
    },
    {
        "city": "Rolândia",
        "state": "PR",
        "district": "Jardim Novo Horizonte",
        "street": "Rua dos Pardais",
        "zipcode": "86604-336"
    },
    {
        "city": "Rolândia",
        "state": "PR",
        "district": "Vila Oliveira",
        "street": "Rua Jaguaré",
        "zipcode": "86604-050"
    },
    {
        "city": "Rolândia",
        "state": "PR",
        "district": "Vila Oliveira",
        "street": "Rua Paulo Setubal",
        "zipcode": "86604-174"
    },
    {
        "city": "Rolândia",
        "state": "PR",
        "district": "Vila Oliveira",
        "street": "Rua Dom Pedro II",
        "zipcode": "86604-160"
    },
    {
        "city": "Rolândia",
        "state": "PR",
        "district": "Jardim Novo Horizonte",
        "street": "Rua Nastúrcio",
        "zipcode": "86604-454"
    },
    {
        "city": "Rolândia",
        "state": "PR",
        "district": "Jardim Novo Horizonte",
        "street": "Rua Beija",
        "zipcode": "86604-332"
    },
    {
        "city": "Rolândia",
        "state": "PR",
        "district": "Jardim Novo Horizonte",
        "street": "Rua Bem",
        "zipcode": "86604-328"
    },
    {
        "city": "Rolândia",
        "state": "PR",
        "district": "Jardim Novo Horizonte",
        "street": "Rua dos Canários",
        "zipcode": "86604-322"
    },
    {
        "city": "Rolândia",
        "state": "PR",
        "district": "Vila Oliveira",
        "street": "Rua Tupi",
        "zipcode": "86604-096"
    },
    {
        "city": "Rolândia",
        "state": "PR",
        "district": "Jardim Novo Horizonte",
        "street": "Rua das Rolinhas",
        "zipcode": "86604-326"
    },
    {
        "city": "Rolândia",
        "state": "PR",
        "district": "Vila Oliveira",
        "street": "Rua Saguaragí",
        "zipcode": "86604-092"
    },
    {
        "city": "Rolândia",
        "state": "PR",
        "district": "Vila Oliveira",
        "street": "Rua Iracema",
        "zipcode": "86604-102"
    },
    {
        "city": "Rolândia",
        "state": "PR",
        "district": "Jardim Novo Horizonte",
        "street": "Rua Marcílio Domiciano de Andrade",
        "zipcode": "86604-294"
    },
    {
        "city": "Rolândia",
        "state": "PR",
        "district": "Jardim Novo Horizonte",
        "street": "Rua João",
        "zipcode": "86604-296"
    },
    {
        "city": "Rolândia",
        "state": "PR",
        "district": "Vila Oliveira",
        "street": "Rua Franklin Negrão",
        "zipcode": "86604-178"
    },
    {
        "city": "Rolândia",
        "state": "PR",
        "district": "Vila Oliveira",
        "street": "Rua Viriato Correa",
        "zipcode": "86604-164"
    },
    {
        "city": "Rolândia",
        "state": "PR",
        "district": "Vila Oliveira",
        "street": "Rua Casimiro de Abreu",
        "zipcode": "86604-176"
    },
    {
        "city": "Rolândia",
        "state": "PR",
        "district": "Jardim Novo Horizonte",
        "street": "Rua Petúnias",
        "zipcode": "86604-432"
    },
    {
        "city": "Rolândia",
        "state": "PR",
        "district": "Vila Oliveira",
        "street": "Rua Piracema",
        "zipcode": "86604-110"
    },
    {
        "city": "Rolândia",
        "state": "PR",
        "district": "Jardim Novo Horizonte",
        "street": "Rua dos Piriquitos",
        "zipcode": "86604-300"
    },
    {
        "city": "Rolândia",
        "state": "PR",
        "district": "Vila Oliveira",
        "street": "Rua José Lannes",
        "zipcode": "86604-172"
    },
    {
        "city": "Rolândia",
        "state": "PR",
        "district": "Jardim Novo Horizonte",
        "street": "Rua das Garças",
        "zipcode": "86604-304"
    },
    {
        "city": "Rolândia",
        "state": "PR",
        "district": "Vila Oliveira",
        "street": "Rua Almeida Porto",
        "zipcode": "86604-056"
    },
    {
        "city": "Rolândia",
        "state": "PR",
        "district": "Vila Oliveira",
        "street": "Rua Ametista",
        "zipcode": "86604-034"
    },
    {
        "city": "Rolândia",
        "state": "PR",
        "district": "Vila Oliveira",
        "street": "Rua André Pesenti",
        "zipcode": "86604-020"
    },
    {
        "city": "Rolândia",
        "state": "PR",
        "district": "Vila Oliveira",
        "street": "Rua Anita Garibaldi",
        "zipcode": "86604-074"
    },
    {
        "city": "Rolândia",
        "state": "PR",
        "district": "Vila Oliveira",
        "street": "Rua Presidente Kennedy",
        "zipcode": "86604-072"
    },
    {
        "city": "Rolândia",
        "state": "PR",
        "district": "Vila Oliveira",
        "street": "Rua Yushimassa Demura",
        "zipcode": "86604-064"
    },
    {
        "city": "Rolândia",
        "state": "PR",
        "district": "Jardim Nobre",
        "street": "Rua Vereador Antônio de Aquino Pinheiro",
        "zipcode": "86602-564"
    },
    {
        "city": "Rolândia",
        "state": "PR",
        "district": "Vila Oliveira",
        "street": "Rua Tatsunojo Suzuki",
        "zipcode": "86604-246"
    },
    {
        "city": "Rolândia",
        "state": "PR",
        "district": "Vila Oliveira",
        "street": "Rua Sílvio Romero",
        "zipcode": "86604-170"
    },
    {
        "city": "Rolândia",
        "state": "PR",
        "district": "Vila Oliveira",
        "street": "Rua Taneo Egashira",
        "zipcode": "86604-252"
    },
    {
        "city": "Rolândia",
        "state": "PR",
        "district": "Jardim Nobre",
        "street": "Rua Juracy Marques Gentil Silveira Brum",
        "zipcode": "86602-846"
    },
    {
        "city": "Rolândia",
        "state": "PR",
        "district": "Jardim Nobre",
        "street": "Avenida Japão",
        "zipcode": "86602-568"
    },
    {
        "city": "Rolândia",
        "state": "PR",
        "district": "Jardim Nobre",
        "street": "Avenida Mauri Salles",
        "zipcode": "86602-850"
    },
    {
        "city": "Rolândia",
        "state": "PR",
        "district": "Vila Oliveira",
        "street": "Rua Luís Miranda Gomes",
        "zipcode": "86604-116"
    },
    {
        "city": "Rolândia",
        "state": "PR",
        "district": "Jardim Nobre",
        "street": "Avenida João Galamba Filho",
        "zipcode": "86602-856"
    },
    {
        "city": "Rolândia",
        "state": "PR",
        "district": "Jardim Novo Horizonte",
        "street": "Rua Projetada 2",
        "zipcode": "86604-422"
    },
    {
        "city": "Rolândia",
        "state": "PR",
        "district": "Jardim Nobre",
        "street": "Avenida Oriente",
        "zipcode": "86602-586"
    },
    {
        "city": "Rolândia",
        "state": "PR",
        "district": "Jardim Nobre",
        "street": "Rua Humberto Bernardi",
        "zipcode": "86602-830"
    },
    {
        "city": "Rolândia",
        "state": "PR",
        "district": "Vila Oliveira",
        "street": "Rua Cassiano Ricardo",
        "zipcode": "86604-180"
    },
    {
        "city": "Rolândia",
        "state": "PR",
        "district": "Vila Oliveira",
        "street": "Rua Ulisses Guimarães",
        "zipcode": "86604-080"
    },
    {
        "city": "Rolândia",
        "state": "PR",
        "district": "Vila Oliveira",
        "street": "Rua Paraguaçu",
        "zipcode": "86604-046"
    },
    {
        "city": "Rolândia",
        "state": "PR",
        "district": "Vila Oliveira",
        "street": "Rua Dom Pedro I",
        "zipcode": "86604-054"
    },
    {
        "city": "Rolândia",
        "state": "PR",
        "district": "Vila Oliveira",
        "street": "Rua Tapajós",
        "zipcode": "86604-068"
    },
    {
        "city": "Rolândia",
        "state": "PR",
        "district": "Vila Oliveira",
        "street": "Rua Topázio",
        "zipcode": "86604-036"
    },
    {
        "city": "Rolândia",
        "state": "PR",
        "district": "Vila Oliveira",
        "street": "Rua Safira",
        "zipcode": "86604-028"
    },
    {
        "city": "Rolândia",
        "state": "PR",
        "district": "Vila Oliveira",
        "street": "Rua Jade",
        "zipcode": "86604-030"
    },
    {
        "city": "Rolândia",
        "state": "PR",
        "district": "Vila Oliveira",
        "street": "Rua Matão",
        "zipcode": "86604-044"
    },
    {
        "city": "Rolândia",
        "state": "PR",
        "district": "Vila Oliveira",
        "street": "Rua Floresta",
        "zipcode": "86604-018"
    },
    {
        "city": "Rolândia",
        "state": "PR",
        "district": "Vila Oliveira",
        "street": "Rua Francisco Pacheco Cunha",
        "zipcode": "86604-010"
    },
    {
        "city": "Rolândia",
        "state": "PR",
        "district": "Vila Oliveira",
        "street": "Rua Pérola",
        "zipcode": "86604-040"
    },
    {
        "city": "Rolândia",
        "state": "PR",
        "district": "Vila Oliveira",
        "street": "Rua Maragogipe",
        "zipcode": "86604-082"
    },
    {
        "city": "Rolândia",
        "state": "PR",
        "district": "Vila Oliveira",
        "street": "Rua Pinheiro Machado",
        "zipcode": "86604-014"
    },
    {
        "city": "Rolândia",
        "state": "PR",
        "district": "Vila Oliveira",
        "street": "Rua Platina",
        "zipcode": "86604-026"
    },
    {
        "city": "Rolândia",
        "state": "PR",
        "district": "Jardim Rosângelo",
        "street": "Rua Antônio Lonardoni",
        "zipcode": "86602-114"
    },
    {
        "city": "Rolândia",
        "state": "PR",
        "district": "Jardim Rosângelo",
        "street": "Rua Apucarana",
        "zipcode": "86602-104"
    },
    {
        "city": "Rolândia",
        "state": "PR",
        "district": "Jardim Rosângelo",
        "street": "Rua Arapongas",
        "zipcode": "86602-102"
    },
    {
        "city": "Rolândia",
        "state": "PR",
        "district": "Jardim Nobre",
        "street": "Rua Waldir Francesquini",
        "zipcode": "86602-852"
    },
    {
        "city": "Rolândia",
        "state": "PR",
        "district": "Jardim Nobre",
        "street": "Rua Água Marinha",
        "zipcode": "86602-558"
    },
    {
        "city": "Rolândia",
        "state": "PR",
        "district": "Jardim Rosângelo",
        "street": "Rua Clodoaldo Barão Sanches",
        "zipcode": "86602-382"
    },
    {
        "city": "Rolândia",
        "state": "PR",
        "district": "Jardim Nobre",
        "street": "Rua Bonones Barbosa",
        "zipcode": "86602-840"
    },
    {
        "city": "Rolândia",
        "state": "PR",
        "district": "Jardim Nobre",
        "street": "Rua Pedro Melges",
        "zipcode": "86602-814"
    },
    {
        "city": "Rolândia",
        "state": "PR",
        "district": "Jardim Nobre",
        "street": "Rua Francisco Pereira de Moura",
        "zipcode": "86602-844"
    },
    {
        "city": "Rolândia",
        "state": "PR",
        "district": "Jardim Nobre",
        "street": "Rua Pedro Zorzetti",
        "zipcode": "86602-584"
    },
    {
        "city": "Rolândia",
        "state": "PR",
        "district": "Jardim Nobre",
        "street": "Rua Carminha Barbosa Sofia",
        "zipcode": "86602-836"
    },
    {
        "city": "Rolândia",
        "state": "PR",
        "district": "Jardim Nobre",
        "street": "Avenida Japão",
        "zipcode": "86602-552"
    },
    {
        "city": "Rolândia",
        "state": "PR",
        "district": "Jardim Rosângelo",
        "street": "Rua Antônio Gulart",
        "zipcode": "86602-440"
    },
    {
        "city": "Rolândia",
        "state": "PR",
        "district": "Jardim Nobre",
        "street": "Rua Monte Fuji",
        "zipcode": "86602-560"
    },
    {
        "city": "Rolândia",
        "state": "PR",
        "district": "Jardim Rosângelo",
        "street": "Rua Antônio Moraes Almeida",
        "zipcode": "86602-450"
    },
    {
        "city": "Rolândia",
        "state": "PR",
        "district": "Jardim Nobre",
        "street": "Rua Valdir Barbosa",
        "zipcode": "86602-848"
    },
    {
        "city": "Rolândia",
        "state": "PR",
        "district": "Jardim Rosângelo",
        "street": "Rua Leandro Rodrigues de Mello",
        "zipcode": "86602-390"
    },
    {
        "city": "Rolândia",
        "state": "PR",
        "district": "Jardim Nobre",
        "street": "Rua Lybna Keren da Silva",
        "zipcode": "86602-838"
    },
    {
        "city": "Rolândia",
        "state": "PR",
        "district": "Jardim Rosângelo",
        "street": "Rua Ângelo Faccione",
        "zipcode": "86602-100"
    },
    {
        "city": "Rolândia",
        "state": "PR",
        "district": "Jardim Nobre",
        "street": "Rua Pierina Sartori",
        "zipcode": "86602-854"
    },
    {
        "city": "Rolândia",
        "state": "PR",
        "district": "Jardim Nobre",
        "street": "Rua José Scarate",
        "zipcode": "86602-824"
    },
    {
        "city": "Rolândia",
        "state": "PR",
        "district": "Jardim Rosângelo",
        "street": "Rua Cornélio Procópio",
        "zipcode": "86602-106"
    },
    {
        "city": "Rolândia",
        "state": "PR",
        "district": "Jardim Nobre",
        "street": "Rua Waldemar Sartori",
        "zipcode": "86602-828"
    },
    {
        "city": "Rolândia",
        "state": "PR",
        "district": "Jardim Nobre",
        "street": "Rua Romana Santos Pizzaia",
        "zipcode": "86602-580"
    },
    {
        "city": "Rolândia",
        "state": "PR",
        "district": "Jardim Nobre",
        "street": "Rua Joaquim Santiago",
        "zipcode": "86602-820"
    },
    {
        "city": "Rolândia",
        "state": "PR",
        "district": "Jardim Rosângelo",
        "street": "Rua Projetada",
        "zipcode": "86602-436"
    },
    {
        "city": "Rolândia",
        "state": "PR",
        "district": "Vila Oliveira",
        "street": "Rua João Cavalaro",
        "zipcode": "86604-060"
    },
    {
        "city": "Rolândia",
        "state": "PR",
        "district": "Jardim Nobre",
        "street": "Rua José Policarpo de Gouveia",
        "zipcode": "86602-596"
    },
    {
        "city": "Rolândia",
        "state": "PR",
        "district": "Jardim Rosângelo",
        "street": "Avenida Maria Biazzi Verri",
        "zipcode": "86602-372"
    },
    {
        "city": "Rolândia",
        "state": "PR",
        "district": "Jardim Nobre",
        "street": "Rua José Dias Paiva",
        "zipcode": "86602-598"
    },
    {
        "city": "Rolândia",
        "state": "PR",
        "district": "Jardim Nobre",
        "street": "Rua Nelson Zorzela",
        "zipcode": "86602-826"
    },
    {
        "city": "Rolândia",
        "state": "PR",
        "district": "Jardim Rosângelo",
        "street": "Rua Elias Gomes Dorta",
        "zipcode": "86602-454"
    },
    {
        "city": "Rolândia",
        "state": "PR",
        "district": "Jardim Nobre",
        "street": "Avenida Prefeito Primo Lepre",
        "zipcode": "86602-570"
    },
    {
        "city": "Rolândia",
        "state": "PR",
        "district": "Jardim Rosângelo",
        "street": "Rua Araponguinhas",
        "zipcode": "86602-456"
    },
    {
        "city": "Rolândia",
        "state": "PR",
        "district": "Jardim Nobre",
        "street": "Rua Lucas Lavor Almeida Guimarães",
        "zipcode": "86602-842"
    },
    {
        "city": "Rolândia",
        "state": "PR",
        "district": "Jardim Nobre",
        "street": "Rua Milton Ferrari",
        "zipcode": "86602-816"
    },
    {
        "city": "Rolândia",
        "state": "PR",
        "district": "Jardim Nobre",
        "street": "Rua Luiz Campaner",
        "zipcode": "86602-818"
    },
    {
        "city": "Rolândia",
        "state": "PR",
        "district": "Jardim Nobre",
        "street": "Rua Ailton Tivanello",
        "zipcode": "86602-834"
    },
    {
        "city": "Rolândia",
        "state": "PR",
        "district": "Jardim Nobre",
        "street": "Rua José Traczuk",
        "zipcode": "86602-604"
    },
    {
        "city": "Rolândia",
        "state": "PR",
        "district": "Jardim Rosângelo",
        "street": "Rua Helena Maria Tasifano Foderari",
        "zipcode": "86602-452"
    },
    {
        "city": "Rolândia",
        "state": "PR",
        "district": "Jardim Rosângelo",
        "street": "Avenida Jardim Rosângelo",
        "zipcode": "86602-330"
    },
    {
        "city": "Rolândia",
        "state": "PR",
        "district": "Jardim Rosângelo",
        "street": "Rua Sebastião Pereira Batista",
        "zipcode": "86602-388"
    },
    {
        "city": "Rolândia",
        "state": "PR",
        "district": "Jardim Rosângelo",
        "street": "Avenida Paranapanema",
        "zipcode": "86602-333"
    },
    {
        "city": "Rolândia",
        "state": "PR",
        "district": "Jardim Rosângelo",
        "street": "Rodovia Contorno Norte",
        "zipcode": "86602-110"
    },
    {
        "city": "Rolândia",
        "state": "PR",
        "district": "Jardim Rosângelo",
        "street": "Rua Urda",
        "zipcode": "86602-042"
    },
    {
        "city": "Rolândia",
        "state": "PR",
        "district": "Jardim Rosângelo",
        "street": "Rua Londrina",
        "zipcode": "86602-096"
    },
    {
        "city": "Rolândia",
        "state": "PR",
        "district": "Jardim Rosângelo",
        "street": "Rua Erwin Giesen",
        "zipcode": "86602-345"
    },
    {
        "city": "Rolândia",
        "state": "PR",
        "district": "Jardim Rosângelo",
        "street": "Rua Atalipo Brikmann",
        "zipcode": "86602-046"
    },
    {
        "city": "Rolândia",
        "state": "PR",
        "district": "Jardim Rosângelo",
        "street": "Rua Olivaldo Moreno Pereira",
        "zipcode": "86602-339"
    },
    {
        "city": "Rolândia",
        "state": "PR",
        "district": "Jardim Rosângelo",
        "street": "Rua Ribeirão Vermelho",
        "zipcode": "86602-048"
    },
    {
        "city": "Rolândia",
        "state": "PR",
        "district": "Jardim Rosângelo",
        "street": "Rua Ribeiro do Valle",
        "zipcode": "86602-044"
    },
    {
        "city": "Rolândia",
        "state": "PR",
        "district": "Jardim Rosângelo",
        "street": "Rua João Ferrari",
        "zipcode": "86602-118"
    },
    {
        "city": "Rolândia",
        "state": "PR",
        "district": "Jardim Rosângelo",
        "street": "Rua Porecatu",
        "zipcode": "86602-108"
    },
    {
        "city": "Rolândia",
        "state": "PR",
        "district": "Jardim Rosângelo",
        "street": "Avenida Ailton Rodrigues Alves",
        "zipcode": "86602-040"
    },
    {
        "city": "Rolândia",
        "state": "PR",
        "district": "Jardim Nobre",
        "street": "Rua Tibagi",
        "zipcode": "86602-521"
    },
    {
        "city": "Rolândia",
        "state": "PR",
        "district": "Jardim Nobre",
        "street": "Rua Piquiri",
        "zipcode": "86602-503"
    },
    {
        "city": "Rolândia",
        "state": "PR",
        "district": "Manoel Müller",
        "street": "Rua Lobo Guará",
        "zipcode": "86601-268"
    },
    {
        "city": "Rolândia",
        "state": "PR",
        "district": "Jardim Rosângelo",
        "street": "Rua Rita Gomes",
        "zipcode": "86602-446"
    },
    {
        "city": "Rolândia",
        "state": "PR",
        "district": "Jardim Rosângelo",
        "street": "Rua Maria Benedita da Silva",
        "zipcode": "86602-430"
    },
    {
        "city": "Rolândia",
        "state": "PR",
        "district": "Manoel Müller",
        "street": "Rua Armando Leonardi",
        "zipcode": "86601-228"
    },
    {
        "city": "Rolândia",
        "state": "PR",
        "district": "Manoel Müller",
        "street": "Rua Zebras",
        "zipcode": "86601-270"
    },
    {
        "city": "Rolândia",
        "state": "PR",
        "district": "Jardim Rosângelo",
        "street": "Rua José Antônio Gomes",
        "zipcode": "86602-434"
    },
    {
        "city": "Rolândia",
        "state": "PR",
        "district": "Jardim Rosângelo",
        "street": "Rua Catarina E dos Santos",
        "zipcode": "86602-376"
    },
    {
        "city": "Rolândia",
        "state": "PR",
        "district": "Jardim Nobre",
        "street": "Estrada para Pitangueiras",
        "zipcode": "86602-530"
    },
    {
        "city": "Rolândia",
        "state": "PR",
        "district": "Manoel Müller",
        "street": "Rua Projetada",
        "zipcode": "86601-186"
    },
    {
        "city": "Rolândia",
        "state": "PR",
        "district": "Manoel Müller",
        "street": "Rua Juraci Soares de Souza",
        "zipcode": "86601-564"
    },
    {
        "city": "Rolândia",
        "state": "PR",
        "district": "Manoel Müller",
        "street": "Rua Coelhos",
        "zipcode": "86601-264"
    },
    {
        "city": "Rolândia",
        "state": "PR",
        "district": "Jardim Rosângelo",
        "street": "Rua 15 de Novembro",
        "zipcode": "86602-054"
    },
    {
        "city": "Rolândia",
        "state": "PR",
        "district": "Manoel Müller",
        "street": "Avenida Stefan Egregi",
        "zipcode": "86601-222"
    },
    {
        "city": "Rolândia",
        "state": "PR",
        "district": "Manoel Müller",
        "street": "Rua Victorino Abrunhosa",
        "zipcode": "86601-136"
    },
    {
        "city": "Rolândia",
        "state": "PR",
        "district": "Jardim Nobre",
        "street": "Rua Pirapó",
        "zipcode": "86602-515"
    },
    {
        "city": "Rolândia",
        "state": "PR",
        "district": "Jardim Rosângelo",
        "street": "Rua 7 de Setembro",
        "zipcode": "86602-056"
    },
    {
        "city": "Rolândia",
        "state": "PR",
        "district": "Jardim Nobre",
        "street": "Rua Verdes Mares",
        "zipcode": "86602-556"
    },
    {
        "city": "Rolândia",
        "state": "PR",
        "district": "Jardim Rosângelo",
        "street": "Rua Luiz Rob Pavoni",
        "zipcode": "86602-392"
    },
    {
        "city": "Rolândia",
        "state": "PR",
        "district": "Jardim Rosângelo",
        "street": "Rua Graciano Marques Correia",
        "zipcode": "86602-442"
    },
    {
        "city": "Rolândia",
        "state": "PR",
        "district": "Jardim Rosângelo",
        "street": "Rua Greyskon Rogério Correia",
        "zipcode": "86602-488"
    },
    {
        "city": "Rolândia",
        "state": "PR",
        "district": "Manoel Müller",
        "street": "Rua Elefantes",
        "zipcode": "86601-276"
    },
    {
        "city": "Rolândia",
        "state": "PR",
        "district": "Jardim Rosângelo",
        "street": "Rua Josuilson Pacola",
        "zipcode": "86602-380"
    },
    {
        "city": "Rolândia",
        "state": "PR",
        "district": "Jardim Nobre",
        "street": "Rua Monte Fuji",
        "zipcode": "86602-540"
    },
    {
        "city": "Rolândia",
        "state": "PR",
        "district": "Jardim Nobre",
        "street": "Rua Sol Nascente",
        "zipcode": "86602-534"
    },
    {
        "city": "Rolândia",
        "state": "PR",
        "district": "Jardim Rosângelo",
        "street": "Rua João Justiniano da Silva",
        "zipcode": "86602-374"
    },
    {
        "city": "Rolândia",
        "state": "PR",
        "district": "Jardim Nobre",
        "street": "Rua Água Marinha",
        "zipcode": "86602-538"
    },
    {
        "city": "Rolândia",
        "state": "PR",
        "district": "Manoel Müller",
        "street": "Rua Ângelo Galindo",
        "zipcode": "86601-224"
    },
    {
        "city": "Rolândia",
        "state": "PR",
        "district": "Manoel Müller",
        "street": "Avenida José Matheus Gonçalves",
        "zipcode": "86601-562"
    },
    {
        "city": "Rolândia",
        "state": "PR",
        "district": "Manoel Müller",
        "street": "Rua Salvador Poliquesi",
        "zipcode": "86601-518"
    },
    {
        "city": "Rolândia",
        "state": "PR",
        "district": "Manoel Müller",
        "street": "Rua Panteras",
        "zipcode": "86601-262"
    },
    {
        "city": "Rolândia",
        "state": "PR",
        "district": "Manoel Müller",
        "street": "Avenida Erich Koch Weser",
        "zipcode": "86601-512"
    },
    {
        "city": "Rolândia",
        "state": "PR",
        "district": "Jardim Nobre",
        "street": "Rua Sol Nascente",
        "zipcode": "86602-554"
    },
    {
        "city": "Rolândia",
        "state": "PR",
        "district": "Manoel Müller",
        "street": "Avenida Leopardos",
        "zipcode": "86601-260"
    },
    {
        "city": "Rolândia",
        "state": "PR",
        "district": "Manoel Müller",
        "street": "Rua Oswaldo Pereira Costa",
        "zipcode": "86601-180"
    },
    {
        "city": "Rolândia",
        "state": "PR",
        "district": "Manoel Müller",
        "street": "Avenida Jaguatirica",
        "zipcode": "86601-248"
    },
    {
        "city": "Rolândia",
        "state": "PR",
        "district": "Jardim Rosângelo",
        "street": "Rua Inês Lopes",
        "zipcode": "86602-386"
    },
    {
        "city": "Rolândia",
        "state": "PR",
        "district": "Manoel Müller",
        "street": "Rua Henrique Gorla",
        "zipcode": "86601-532"
    },
    {
        "city": "Rolândia",
        "state": "PR",
        "district": "Manoel Müller",
        "street": "Rua Estelo Avelino",
        "zipcode": "86601-554"
    },
    {
        "city": "Rolândia",
        "state": "PR",
        "district": "Jardim Rosângelo",
        "street": "Rua Maria Antoneli de Lima",
        "zipcode": "86602-444"
    },
    {
        "city": "Rolândia",
        "state": "PR",
        "district": "Manoel Müller",
        "street": "Rua Ursos",
        "zipcode": "86601-246"
    },
    {
        "city": "Rolândia",
        "state": "PR",
        "district": "Jardim Nobre",
        "street": "Rua Verdes Mares",
        "zipcode": "86602-536"
    },
    {
        "city": "Rolândia",
        "state": "PR",
        "district": "Jardim Rosângelo",
        "street": "Rua Walter Moreno Garrido",
        "zipcode": "86602-432"
    },
    {
        "city": "Rolândia",
        "state": "PR",
        "district": "Manoel Müller",
        "street": "Rua Ângelo Giovani Ventura",
        "zipcode": "86601-522"
    },
    {
        "city": "Rolândia",
        "state": "PR",
        "district": "Jardim Nobre",
        "street": "Rua Ivaí",
        "zipcode": "86602-518"
    },
    {
        "city": "Rolândia",
        "state": "PR",
        "district": "Manoel Müller",
        "street": "Rua Herta Mewes",
        "zipcode": "86601-190"
    },
    {
        "city": "Rolândia",
        "state": "PR",
        "district": "Jardim Rosângelo",
        "street": "Rua Carlos Luz",
        "zipcode": "86602-000"
    },
    {
        "city": "Rolândia",
        "state": "PR",
        "district": "Manoel Müller",
        "street": "Rua José Costa Fontes",
        "zipcode": "86601-028"
    },
    {
        "city": "Rolândia",
        "state": "PR",
        "district": "Jardim Alto da Boa Vista",
        "street": "Rua Professora Laura Garcia",
        "zipcode": "86600-294"
    },
    {
        "city": "Rolândia",
        "state": "PR",
        "district": "Jardim Alto da Boa Vista",
        "street": "Rua Honório de Oliveira",
        "zipcode": "86600-302"
    },
    {
        "city": "Rolândia",
        "state": "PR",
        "district": "Jardim Alto da Boa Vista",
        "street": "Avenida das Amoreiras",
        "zipcode": "86600-240"
    },
    {
        "city": "Rolândia",
        "state": "PR",
        "district": "Jardim Alto da Boa Vista",
        "street": "Rua Érico Veríssimo",
        "zipcode": "86600-286"
    },
    {
        "city": "Rolândia",
        "state": "PR",
        "district": "Jardim Alto da Boa Vista",
        "street": "Rua Antônio Huss",
        "zipcode": "86600-298"
    },
    {
        "city": "Rolândia",
        "state": "PR",
        "district": "Jardim Alto da Boa Vista",
        "street": "Rua Prudente de Moraes",
        "zipcode": "86600-260"
    },
    {
        "city": "Rolândia",
        "state": "PR",
        "district": "Jardim Alto da Boa Vista",
        "street": "Avenida Ribeirão Barra Grande",
        "zipcode": "86600-238"
    },
    {
        "city": "Rolândia",
        "state": "PR",
        "district": "Jardim Alto da Boa Vista",
        "street": "Avenida Ribeirão Bartira",
        "zipcode": "86600-252"
    },
    {
        "city": "Rolândia",
        "state": "PR",
        "district": "Manoel Müller",
        "street": "Rua José Brunozzi",
        "zipcode": "86601-528"
    },
    {
        "city": "Rolândia",
        "state": "PR",
        "district": "Manoel Müller",
        "street": "Rua Pedro Massera",
        "zipcode": "86601-038"
    },
    {
        "city": "Rolândia",
        "state": "PR",
        "district": "Jardim Alto da Boa Vista",
        "street": "Rua Doutor Albanir Manfredini",
        "zipcode": "86600-292"
    },
    {
        "city": "Rolândia",
        "state": "PR",
        "district": "Manoel Müller",
        "street": "Rua Joaquim Francisco",
        "zipcode": "86601-024"
    },
    {
        "city": "Rolândia",
        "state": "PR",
        "district": "Manoel Müller",
        "street": "Rua Joaquim Riehmer",
        "zipcode": "86601-166"
    },
    {
        "city": "Rolândia",
        "state": "PR",
        "district": "Parque Industrial Cafezal",
        "street": "Avenida Itamarati",
        "zipcode": "86600-460"
    },
    {
        "city": "Rolândia",
        "state": "PR",
        "district": "Manoel Müller",
        "street": "Rua Luiza Ferreira de Alvarenga Massei",
        "zipcode": "86601-526"
    },
    {
        "city": "Rolândia",
        "state": "PR",
        "district": "Manoel Müller",
        "street": "Rua Robson Walter Moreno",
        "zipcode": "86601-178"
    },
    {
        "city": "Rolândia",
        "state": "PR",
        "district": "Manoel Müller",
        "street": "Rua Canguru",
        "zipcode": "86601-274"
    },
    {
        "city": "Rolândia",
        "state": "PR",
        "district": "Manoel Müller",
        "street": "Rua Altino Bertelli",
        "zipcode": "86601-048"
    },
    {
        "city": "Rolândia",
        "state": "PR",
        "district": "Manoel Müller",
        "street": "Rua Avani Durski Poletto",
        "zipcode": "86601-258"
    },
    {
        "city": "Rolândia",
        "state": "PR",
        "district": "Manoel Müller",
        "street": "Rua Rinocerontes",
        "zipcode": "86601-252"
    },
    {
        "city": "Rolândia",
        "state": "PR",
        "district": "Parque Industrial Cafezal",
        "street": "Avenida Esplanada",
        "zipcode": "86600-585"
    },
    {
        "city": "Rolândia",
        "state": "PR",
        "district": "Manoel Müller",
        "street": "Rua Camelos",
        "zipcode": "86601-256"
    },
    {
        "city": "Rolândia",
        "state": "PR",
        "district": "Manoel Müller",
        "street": "Rua Evangelista Alves",
        "zipcode": "86601-550"
    },
    {
        "city": "Rolândia",
        "state": "PR",
        "district": "Manoel Müller",
        "street": "Rua Peter Troost",
        "zipcode": "86601-534"
    },
    {
        "city": "Rolândia",
        "state": "PR",
        "district": "Manoel Müller",
        "street": "Avenida Orlando Metzger",
        "zipcode": "86601-034"
    },
    {
        "city": "Rolândia",
        "state": "PR",
        "district": "Manoel Müller",
        "street": "Avenida Tamanduá Bandeira",
        "zipcode": "86601-174"
    },
    {
        "city": "Rolândia",
        "state": "PR",
        "district": "Manoel Müller",
        "street": "Rua Frederico Kopke",
        "zipcode": "86601-032"
    },
    {
        "city": "Rolândia",
        "state": "PR",
        "district": "Manoel Müller",
        "street": "Rua Maria Cecília Botelho Schauff",
        "zipcode": "86601-540"
    },
    {
        "city": "Rolândia",
        "state": "PR",
        "district": "Manoel Müller",
        "street": "Rua José Gonçalves Ruiz",
        "zipcode": "86601-182"
    },
    {
        "city": "Rolândia",
        "state": "PR",
        "district": "Manoel Müller",
        "street": "Rua Maria Antilha Conte",
        "zipcode": "86601-548"
    },
    {
        "city": "Rolândia",
        "state": "PR",
        "district": "Manoel Müller",
        "street": "Rua Sigfried Appel",
        "zipcode": "86601-170"
    },
    {
        "city": "Rolândia",
        "state": "PR",
        "district": "Manoel Müller",
        "street": "Rua Girafas",
        "zipcode": "86601-250"
    },
    {
        "city": "Rolândia",
        "state": "PR",
        "district": "Manoel Müller",
        "street": "Rua Normando Berti",
        "zipcode": "86601-546"
    },
    {
        "city": "Rolândia",
        "state": "PR",
        "district": "Parque Industrial Cafezal",
        "street": "Rua Armando Roque Mungo",
        "zipcode": "86600-466"
    },
    {
        "city": "Rolândia",
        "state": "PR",
        "district": "Manoel Müller",
        "street": "Rua Euclyir Paganini",
        "zipcode": "86601-168"
    },
    {
        "city": "Rolândia",
        "state": "PR",
        "district": "Manoel Müller",
        "street": "Rua João Antônio Colussi (Res Água Verde)",
        "zipcode": "86601-556"
    },
    {
        "city": "Rolândia",
        "state": "PR",
        "district": "Manoel Müller",
        "street": "Rua Santos",
        "zipcode": "86601-164"
    },
    {
        "city": "Rolândia",
        "state": "PR",
        "district": "Manoel Müller",
        "street": "Rua Domingos Rambanholo",
        "zipcode": "86601-160"
    },
    {
        "city": "Rolândia",
        "state": "PR",
        "district": "Manoel Müller",
        "street": "Rua dos Alces",
        "zipcode": "86601-242"
    },
    {
        "city": "Rolândia",
        "state": "PR",
        "district": "Manoel Müller",
        "street": "Rua João Zavitoski",
        "zipcode": "86601-030"
    },
    {
        "city": "Rolândia",
        "state": "PR",
        "district": "Manoel Müller",
        "street": "Rua Frederico Kopke",
        "zipcode": "86601-044"
    },
    {
        "city": "Rolândia",
        "state": "PR",
        "district": "Manoel Müller",
        "street": "Rua João Antônio Colussi (Jd Panamá)",
        "zipcode": "86601-036"
    },
    {
        "city": "Rolândia",
        "state": "PR",
        "district": "Manoel Müller",
        "street": "Rua João Calizotti",
        "zipcode": "86601-558"
    },
    {
        "city": "Rolândia",
        "state": "PR",
        "district": "Centro",
        "street": "Rua Paranaguá",
        "zipcode": "86600-167"
    },
    {
        "city": "Rolândia",
        "state": "PR",
        "district": "Jardim Alto da Boa Vista",
        "street": "Rua Pedro Dequech",
        "zipcode": "86600-300"
    },
    {
        "city": "Rolândia",
        "state": "PR",
        "district": "Manoel Müller",
        "street": "Rua Gralha Azul",
        "zipcode": "86601-134"
    },
    {
        "city": "Rolândia",
        "state": "PR",
        "district": "Vila Oliveira",
        "street": "Rua Yazu Lizuka",
        "zipcode": "86604-242"
    },
    {
        "city": "Rolândia",
        "state": "PR",
        "district": "Manoel Müller",
        "street": "Rua Aquiles Ferreira",
        "zipcode": "86601-026"
    },
    {
        "city": "Rolândia",
        "state": "PR",
        "district": "Manoel Müller",
        "street": "Rua Maria Ignacio Juliani",
        "zipcode": "86601-226"
    },
    {
        "city": "Rolândia",
        "state": "PR",
        "district": "Manoel Müller",
        "street": "Rua Augusto Polvani",
        "zipcode": "86601-552"
    },
    {
        "city": "Rolândia",
        "state": "PR",
        "district": "Manoel Müller",
        "street": "Rua José de Oliveira Rezende",
        "zipcode": "86601-516"
    },
    {
        "city": "Rolândia",
        "state": "PR",
        "district": "Manoel Müller",
        "street": "Rua Onças",
        "zipcode": "86601-254"
    },
    {
        "city": "Rolândia",
        "state": "PR",
        "district": "Manoel Müller",
        "street": "Rua José Antônio Ambrósio Berbel",
        "zipcode": "86601-544"
    },
    {
        "city": "Rolândia",
        "state": "PR",
        "district": "Manoel Müller",
        "street": "Rua José Correa",
        "zipcode": "86601-524"
    },
    {
        "city": "Rolândia",
        "state": "PR",
        "district": "Manoel Müller",
        "street": "Rua das Gazelas",
        "zipcode": "86601-138"
    },
    {
        "city": "Rolândia",
        "state": "PR",
        "district": "Manoel Müller",
        "street": "Rua Panamá",
        "zipcode": "86601-016"
    },
    {
        "city": "Rolândia",
        "state": "PR",
        "district": "Jardim Alto da Boa Vista",
        "street": "Rua Willie Davids",
        "zipcode": "86600-276"
    },
    {
        "city": "Rolândia",
        "state": "PR",
        "district": "Jardim Alto da Boa Vista",
        "street": "Rua Ribeirão Cafezal",
        "zipcode": "86600-232"
    },
    {
        "city": "Rolândia",
        "state": "PR",
        "district": "Jardim Alto da Boa Vista",
        "street": "Rua Ribeirão Canário",
        "zipcode": "86600-258"
    },
    {
        "city": "Rolândia",
        "state": "PR",
        "district": "Jardim Alto da Boa Vista",
        "street": "Rua Ribeirão Caramuru",
        "zipcode": "86600-256"
    },
    {
        "city": "Rolândia",
        "state": "PR",
        "district": "Jardim Alto da Boa Vista",
        "street": "Rua Ribeirão Colibri",
        "zipcode": "86600-228"
    },
    {
        "city": "Rolândia",
        "state": "PR",
        "district": "Jardim Alto da Boa Vista",
        "street": "Rua Ribeirão Ema",
        "zipcode": "86600-250"
    },
    {
        "city": "Rolândia",
        "state": "PR",
        "district": "Jardim Alto da Boa Vista",
        "street": "Rua Ribeirão Jaborandy",
        "zipcode": "86600-236"
    },
    {
        "city": "Rolândia",
        "state": "PR",
        "district": "Jardim Alto da Boa Vista",
        "street": "Rua Ribeirão Marabu",
        "zipcode": "86600-246"
    },
    {
        "city": "Rolândia",
        "state": "PR",
        "district": "Jardim Alto da Boa Vista",
        "street": "Rua Ribeirão Pimpinela",
        "zipcode": "86600-254"
    },
    {
        "city": "Rolândia",
        "state": "PR",
        "district": "Jardim Alto da Boa Vista",
        "street": "Rua Ribeirão Pitangueiras",
        "zipcode": "86600-230"
    },
    {
        "city": "Rolândia",
        "state": "PR",
        "district": "Jardim Alto da Boa Vista",
        "street": "Rua Izidoro Armacolo",
        "zipcode": "86600-288"
    },
    {
        "city": "Rolândia",
        "state": "PR",
        "district": "Jardim Alto da Boa Vista",
        "street": "Rua Machado de Assis",
        "zipcode": "86600-264"
    },
    {
        "city": "Rolândia",
        "state": "PR",
        "district": "Jardim Alto da Boa Vista",
        "street": "Rua Pedro Peres Barrionueva",
        "zipcode": "86600-290"
    },
    {
        "city": "Rolândia",
        "state": "PR",
        "district": "Jardim Alto da Boa Vista",
        "street": "Rua Caramuru",
        "zipcode": "86600-274"
    },
    {
        "city": "Rolândia",
        "state": "PR",
        "district": "Jardim Alto da Boa Vista",
        "street": "Rua Osman Lins",
        "zipcode": "86600-266"
    },
    {
        "city": "Rolândia",
        "state": "PR",
        "district": "Jardim Alto da Boa Vista",
        "street": "Rua Eurico Fernandes",
        "zipcode": "86600-280"
    },
    {
        "city": "Rolândia",
        "state": "PR",
        "district": "Centro",
        "street": "Avenida Interventor Manoel Ribas",
        "zipcode": "86600-105"
    },
    {
        "city": "Rolândia",
        "state": "PR",
        "district": "Centro",
        "street": "Rua Antenor Ferri",
        "zipcode": "86600-175"
    },
    {
        "city": "Rolândia",
        "state": "PR",
        "district": "Jardim Alto da Boa Vista",
        "street": "Rua Antenor Ferri",
        "zipcode": "86600-212"
    },
    {
        "city": "Rolândia",
        "state": "PR",
        "district": "Centro",
        "street": "Rua Santa Catarina",
        "zipcode": "86600-169"
    },
    {
        "city": "Rolândia",
        "state": "PR",
        "district": "Centro",
        "street": "Rua Santa Catarina",
        "zipcode": "86600-157"
    },
    {
        "city": "Rolândia",
        "state": "PR",
        "district": "Centro",
        "street": "Rua Santa Catarina",
        "zipcode": "86600-119"
    },
    {
        "city": "Rolândia",
        "state": "PR",
        "district": "Jardim Alto da Boa Vista",
        "street": "Rua Juscelino Kubitschek",
        "zipcode": "86600-208"
    },
    {
        "city": "Rolândia",
        "state": "PR",
        "district": "Jardim Alto da Boa Vista",
        "street": "Rua Marechal Deodoro da Fonseca",
        "zipcode": "86600-218"
    },
    {
        "city": "Rolândia",
        "state": "PR",
        "district": "Centro",
        "street": "Avenida Presidente Bernardes",
        "zipcode": "86600-153"
    },
    {
        "city": "Rolândia",
        "state": "PR",
        "district": "Centro",
        "street": "Avenida Presidente Bernardes",
        "zipcode": "86600-117"
    },
    {
        "city": "Rolândia",
        "state": "PR",
        "district": "Jardim Alto da Boa Vista",
        "street": "Avenida Brasília",
        "zipcode": "86600-224"
    },
    {
        "city": "Rolândia",
        "state": "PR",
        "district": "Jardim Alto da Boa Vista",
        "street": "Avenida Presidente Castelo Branco",
        "zipcode": "86600-216"
    },
    {
        "city": "Rolândia",
        "state": "PR",
        "district": "Centro",
        "street": "Avenida dos Expedicionários",
        "zipcode": "86600-093"
    },
    {
        "city": "Rolândia",
        "state": "PR",
        "district": "Centro",
        "street": "Avenida dos Expedicionários",
        "zipcode": "86600-091"
    },
    {
        "city": "Rolândia",
        "state": "PR",
        "district": "Centro",
        "street": "Avenida Presidente Getúlio Vargas",
        "zipcode": "86600-183"
    },
    {
        "city": "Rolândia",
        "state": "PR",
        "district": "Parque Industrial Cafezal",
        "street": "Rua Palmiro Trevisan",
        "zipcode": "86600-478"
    },
    {
        "city": "Rolândia",
        "state": "PR",
        "district": "Parque Industrial Cafezal",
        "street": "Rua Luiz Jordão",
        "zipcode": "86600-590"
    },
    {
        "city": "Rolândia",
        "state": "PR",
        "district": "Manoel Müller",
        "street": "Rua Tomoyuki Nassu",
        "zipcode": "86601-006"
    },
    {
        "city": "Rolândia",
        "state": "PR",
        "district": "Manoel Müller",
        "street": "Rua Maringá",
        "zipcode": "86601-000"
    },
    {
        "city": "Rolândia",
        "state": "PR",
        "district": "Jardim Alto da Boa Vista",
        "street": "Rua Ribeirão Bandeirantes do Norte",
        "zipcode": "86600-242"
    },
    {
        "city": "Rolândia",
        "state": "PR",
        "district": "Jardim Alto da Boa Vista",
        "street": "Rua Pedro Nava",
        "zipcode": "86600-268"
    },
    {
        "city": "Rolândia",
        "state": "PR",
        "district": "Parque Industrial Cafezal",
        "street": "Rua Campos do Jordão",
        "zipcode": "86600-493"
    },
    {
        "city": "Rolândia",
        "state": "PR",
        "district": "Parque Industrial Cafezal",
        "street": "Rua Belo Horizonte",
        "zipcode": "86600-472"
    },
    {
        "city": "Rolândia",
        "state": "PR",
        "district": "Parque Industrial Cafezal",
        "street": "Rua Graciosa",
        "zipcode": "86600-502"
    },
    {
        "city": "Rolândia",
        "state": "PR",
        "district": "Manoel Müller",
        "street": "Rua Barão do Rio Branco",
        "zipcode": "86601-002"
    },
    {
        "city": "Rolândia",
        "state": "PR",
        "district": "Jardim Alto da Boa Vista",
        "street": "Rua Ribeirão Jaú",
        "zipcode": "86600-226"
    },
    {
        "city": "Rolândia",
        "state": "PR",
        "district": "Centro",
        "street": "Avenida Presidente Getúlio Vargas",
        "zipcode": "86600-135"
    },
    {
        "city": "Rolândia",
        "state": "PR",
        "district": "Jardim Alto da Boa Vista",
        "street": "Avenida Itamarati",
        "zipcode": "86600-190"
    },
    {
        "city": "Rolândia",
        "state": "PR",
        "district": "Centro",
        "street": "Avenida Castro Alves",
        "zipcode": "86600-145"
    },
    {
        "city": "Rolândia",
        "state": "PR",
        "district": "Centro",
        "street": "Avenida Castro Alves",
        "zipcode": "86600-161"
    },
    {
        "city": "Rolândia",
        "state": "PR",
        "district": "Parque Industrial Cafezal",
        "street": "Rua Olívio Campaner",
        "zipcode": "86600-570"
    },
    {
        "city": "Rolândia",
        "state": "PR",
        "district": "Parque Industrial Cafezal",
        "street": "Rua Gramados",
        "zipcode": "86600-499"
    },
    {
        "city": "Rolândia",
        "state": "PR",
        "district": "Manoel Müller",
        "street": "Rua César Alencar Escarati",
        "zipcode": "86601-046"
    },
    {
        "city": "Rolândia",
        "state": "PR",
        "district": "Manoel Müller",
        "street": "Rua José Canônico",
        "zipcode": "86601-008"
    },
    {
        "city": "Rolândia",
        "state": "PR",
        "district": "Jardim Alto da Boa Vista",
        "street": "Rua Silveira Barbosa",
        "zipcode": "86600-272"
    },
    {
        "city": "Rolândia",
        "state": "PR",
        "district": "Manoel Müller",
        "street": "Rua Miguel Casado",
        "zipcode": "86601-020"
    },
    {
        "city": "Rolândia",
        "state": "PR",
        "district": "Jardim Alto da Boa Vista",
        "street": "Rua Presidente Costa e Silva",
        "zipcode": "86600-210"
    },
    {
        "city": "Rolândia",
        "state": "PR",
        "district": "Centro",
        "street": "Avenida Castro Alves",
        "zipcode": "86600-123"
    },
    {
        "city": "Rolândia",
        "state": "PR",
        "district": "Centro",
        "street": "Rua Prudente de Moraes",
        "zipcode": "86600-163"
    },
    {
        "city": "Rolândia",
        "state": "PR",
        "district": "Centro",
        "street": "Rua Arthur Thomas",
        "zipcode": "86600-179"
    },
    {
        "city": "Rolândia",
        "state": "PR",
        "district": "Centro",
        "street": "Rua Arthur Thomas",
        "zipcode": "86600-159"
    },
    {
        "city": "Rolândia",
        "state": "PR",
        "district": "Centro",
        "street": "Avenida Romário Martins",
        "zipcode": "86600-103"
    },
    {
        "city": "Rolândia",
        "state": "PR",
        "district": "Centro",
        "street": "Avenida Romário Martins",
        "zipcode": "86600-149"
    },
    {
        "city": "Rolândia",
        "state": "PR",
        "district": "Centro",
        "street": "Avenida Tiradentes",
        "zipcode": "86600-101"
    },
    {
        "city": "Rolândia",
        "state": "PR",
        "district": "Centro",
        "street": "Rua Oswaldo Cruz",
        "zipcode": "86600-177"
    },
    {
        "city": "Rolândia",
        "state": "PR",
        "district": "Centro",
        "street": "Rua Monteiro Lobato",
        "zipcode": "86600-095"
    },
    {
        "city": "Rolândia",
        "state": "PR",
        "district": "Centro",
        "street": "Rua Monteiro Lobato",
        "zipcode": "86600-113"
    },
    {
        "city": "Rolândia",
        "state": "PR",
        "district": "Centro",
        "street": "Rua Monteiro Lobato",
        "zipcode": "86600-125"
    },
    {
        "city": "Rolândia",
        "state": "PR",
        "district": "Centro",
        "street": "Rua Estilac Leal",
        "zipcode": "86600-107"
    },
    {
        "city": "Rolândia",
        "state": "PR",
        "district": "Centro",
        "street": "Rua Estilac Leal",
        "zipcode": "86600-115"
    },
    {
        "city": "Rolândia",
        "state": "PR",
        "district": "Centro",
        "street": "Rua Estilac Leal",
        "zipcode": "86600-127"
    },
    {
        "city": "Rolândia",
        "state": "PR",
        "district": "Centro",
        "street": "Rua Willie Davids",
        "zipcode": "86600-133"
    },
    {
        "city": "Rolândia",
        "state": "PR",
        "district": "Centro",
        "street": "Rua Campos Sales",
        "zipcode": "86600-073"
    },
    {
        "city": "Rolândia",
        "state": "PR",
        "district": "Jardim Alto da Boa Vista",
        "street": "Rua das Indústrias",
        "zipcode": "86600-204"
    },
    {
        "city": "Rolândia",
        "state": "PR",
        "district": "Centro",
        "street": "Rua Vitorino Pereira",
        "zipcode": "86600-075"
    },
    {
        "city": "Rolândia",
        "state": "PR",
        "district": "Centro",
        "street": "Rua Manoel Carreira Bernardino",
        "zipcode": "86600-151"
    },
    {
        "city": "Rolândia",
        "state": "PR",
        "district": "Centro",
        "street": "Rua Deputado Waldomiro Pedroso",
        "zipcode": "86600-143"
    },
    {
        "city": "Rolândia",
        "state": "PR",
        "district": "Jardim Alto da Boa Vista",
        "street": "Rua Padre José Herions",
        "zipcode": "86600-198"
    },
    {
        "city": "Rolândia",
        "state": "PR",
        "district": "Jardim Alto da Boa Vista",
        "street": "Rua Presidente Gaspar Dutra",
        "zipcode": "86600-222"
    },
    {
        "city": "Rolândia",
        "state": "PR",
        "district": "Jardim Alto da Boa Vista",
        "street": "Rua Genésio Proni",
        "zipcode": "86600-194"
    },
    {
        "city": "Rolândia",
        "state": "PR",
        "district": "Centro",
        "street": "Rua Goiás",
        "zipcode": "86600-141"
    },
    {
        "city": "Rolândia",
        "state": "PR",
        "district": "Jardim Alto da Boa Vista",
        "street": "Rua Grécia",
        "zipcode": "86600-196"
    },
    {
        "city": "Rolândia",
        "state": "PR",
        "district": "Centro",
        "street": "Avenida Interventor Manoel Ribas",
        "zipcode": "86600-970"
    },
    {
        "city": "Rolândia",
        "state": "PR",
        "district": "Jardim Caviúna",
        "street": "Rua Willie Davids",
        "zipcode": "86600-971"
    },
    {
        "city": "Rolândia",
        "state": "PR",
        "district": "Centro",
        "street": "Avenida Salgado Filho",
        "zipcode": "86600-051"
    },
    {
        "city": "Rolândia",
        "state": "PR",
        "district": "Centro",
        "street": "Avenida Salgado Filho",
        "zipcode": "86600-053"
    },
    {
        "city": "Rolândia",
        "state": "PR",
        "district": "Centro",
        "street": "Rua Alfredo Moreira Filho",
        "zipcode": "86600-025"
    },
    {
        "city": "Rolândia",
        "state": "PR",
        "district": "Centro",
        "street": "Rua Álvaro Brolio",
        "zipcode": "86600-011"
    },
    {
        "city": "Rolândia",
        "state": "PR",
        "district": "Jardim Caviúna",
        "street": "Rua Antônio Barbosa",
        "zipcode": "86605-024"
    },
    {
        "city": "Rolândia",
        "state": "PR",
        "district": "Jardim Novo Horizonte",
        "street": "Rua Antônio de Paula",
        "zipcode": "86604-622"
    },
    {
        "city": "Rolândia",
        "state": "PR",
        "district": "Jardim Novo Horizonte",
        "street": "Rua Antônio de Paula",
        "zipcode": "86604-650"
    },
    {
        "city": "Rolândia",
        "state": "PR",
        "district": "Conjunto Habitacional San Fernando",
        "street": "Rua Júlio Conte",
        "zipcode": "86605-576"
    },
    {
        "city": "Rolândia",
        "state": "PR",
        "district": "Centro",
        "street": "Rua Wenceslau Braz",
        "zipcode": "86600-023"
    },
    {
        "city": "Rolândia",
        "state": "PR",
        "district": "Centro",
        "street": "Rua Marechal Hermes da Fonseca",
        "zipcode": "86600-039"
    },
    {
        "city": "Rolândia",
        "state": "PR",
        "district": "Jardim Caviúna",
        "street": "Rua Catuaí",
        "zipcode": "86605-170"
    },
    {
        "city": "Rolândia",
        "state": "PR",
        "district": "Centro",
        "street": "Rua Duque de Caxias",
        "zipcode": "86600-079"
    },
    {
        "city": "Rolândia",
        "state": "PR",
        "district": "Centro",
        "street": "Rua Ciro Bolivar Araujo Moreira",
        "zipcode": "86600-049"
    },
    {
        "city": "Rolândia",
        "state": "PR",
        "district": "Centro",
        "street": "Rua Europa",
        "zipcode": "86600-017"
    },
    {
        "city": "Rolândia",
        "state": "PR",
        "district": "Centro",
        "street": "Avenida Presidente Bernardes",
        "zipcode": "86600-067"
    },
    {
        "city": "Rolândia",
        "state": "PR",
        "district": "Conjunto Habitacional San Fernando",
        "street": "Avenida Brasil",
        "zipcode": "86605-776"
    },
    {
        "city": "Rolândia",
        "state": "PR",
        "district": "Centro",
        "street": "Avenida dos Expedicionários",
        "zipcode": "86600-089"
    },
    {
        "city": "Rolândia",
        "state": "PR",
        "district": "Jardim Caviúna",
        "street": "Avenida dos Expedicionários",
        "zipcode": "86605-016"
    },
    {
        "city": "Rolândia",
        "state": "PR",
        "district": "Jardim Caviúna",
        "street": "Avenida dos Expedicionários",
        "zipcode": "86605-152"
    },
    {
        "city": "Rolândia",
        "state": "PR",
        "district": "Jardim Caviúna",
        "street": "Avenida Francisco Serpeloni",
        "zipcode": "86605-340"
    },
    {
        "city": "Rolândia",
        "state": "PR",
        "district": "Centro",
        "street": "Avenida Presidente Getúlio Vargas",
        "zipcode": "86600-027"
    },
    {
        "city": "Rolândia",
        "state": "PR",
        "district": "Jardim Caviúna",
        "street": "Avenida Presidente Getúlio Vargas",
        "zipcode": "86605-306"
    },
    {
        "city": "Rolândia",
        "state": "PR",
        "district": "Centro",
        "street": "Rua Hugo Maria do Valle",
        "zipcode": "86600-055"
    },
    {
        "city": "Rolândia",
        "state": "PR",
        "district": "Centro",
        "street": "Rua Hugo Maria do Valle",
        "zipcode": "86600-077"
    },
    {
        "city": "Rolândia",
        "state": "PR",
        "district": "Jardim Novo Horizonte",
        "street": "Rua Dracenas",
        "zipcode": "86604-488"
    },
    {
        "city": "Rolândia",
        "state": "PR",
        "district": "Centro",
        "street": "Avenida Castro Alves",
        "zipcode": "86600-087"
    },
    {
        "city": "Rolândia",
        "state": "PR",
        "district": "Centro",
        "street": "Rua Santos Dumont",
        "zipcode": "86600-063"
    },
    {
        "city": "Rolândia",
        "state": "PR",
        "district": "Centro",
        "street": "Rua Arthur Thomas",
        "zipcode": "86600-083"
    },
    {
        "city": "Rolândia",
        "state": "PR",
        "district": "Centro",
        "street": "Rua Arthur Thomas",
        "zipcode": "86600-071"
    },
    {
        "city": "Rolândia",
        "state": "PR",
        "district": "Centro",
        "street": "Rua Arthur Thomas",
        "zipcode": "86600-031"
    },
    {
        "city": "Rolândia",
        "state": "PR",
        "district": "Centro",
        "street": "Avenida Tiradentes",
        "zipcode": "86600-059"
    },
    {
        "city": "Rolândia",
        "state": "PR",
        "district": "Jardim Caviúna",
        "street": "Avenida Vicente Machado",
        "zipcode": "86605-284"
    },
    {
        "city": "Rolândia",
        "state": "PR",
        "district": "Centro",
        "street": "Rua Afonso Pena",
        "zipcode": "86600-035"
    },
    {
        "city": "Rolândia",
        "state": "PR",
        "district": "Jardim Novo Horizonte",
        "street": "Rua Mogno",
        "zipcode": "86604-588"
    },
    {
        "city": "Rolândia",
        "state": "PR",
        "district": "Centro",
        "street": "Rua Nereu Ramos",
        "zipcode": "86600-005"
    },
    {
        "city": "Rolândia",
        "state": "PR",
        "district": "Jardim Caviúna",
        "street": "Rua Desembargador Aurélio Feijó",
        "zipcode": "86605-262"
    },
    {
        "city": "Rolândia",
        "state": "PR",
        "district": "Centro",
        "street": "Rua Café Filho",
        "zipcode": "86600-009"
    },
    {
        "city": "Rolândia",
        "state": "PR",
        "district": "Jardim Novo Horizonte",
        "street": "Rua Camélias",
        "zipcode": "86604-582"
    },
    {
        "city": "Rolândia",
        "state": "PR",
        "district": "Jardim Caviúna",
        "street": "Rua Takeo Teshima",
        "zipcode": "86605-194"
    },
    {
        "city": "Rolândia",
        "state": "PR",
        "district": "Jardim Caviúna",
        "street": "Rua Doutor João de Menezes",
        "zipcode": "86605-182"
    },
    {
        "city": "Rolândia",
        "state": "PR",
        "district": "Jardim Novo Horizonte",
        "street": "Rua Francisco Bertoncello",
        "zipcode": "86604-604"
    },
    {
        "city": "Rolândia",
        "state": "PR",
        "district": "Jardim Novo Horizonte",
        "street": "Rua Francisco Bertoncello",
        "zipcode": "86604-544"
    },
    {
        "city": "Rolândia",
        "state": "PR",
        "district": "Jardim Caviúna",
        "street": "Rua Violetas",
        "zipcode": "86605-248"
    },
    {
        "city": "Rolândia",
        "state": "PR",
        "district": "Centro",
        "street": "Rua Manoel Carreira Bernardino",
        "zipcode": "86600-065"
    },
    {
        "city": "Rolândia",
        "state": "PR",
        "district": "Jardim Novo Horizonte",
        "street": "Rua Goivos",
        "zipcode": "86604-590"
    },
    {
        "city": "Rolândia",
        "state": "PR",
        "district": "Vila Oliveira",
        "street": "Rua Aliança",
        "zipcode": "86604-048"
    },
    {
        "city": "Rolândia",
        "state": "PR",
        "district": "Centro",
        "street": "Rua Alzira Tiburski",
        "zipcode": "86600-045"
    },
    {
        "city": "Rolândia",
        "state": "PR",
        "district": "Centro",
        "street": "Rua Amazonas",
        "zipcode": "86600-185"
    },
    {
        "city": "Rolândia",
        "state": "PR",
        "district": "Vila Oliveira",
        "street": "Rua Ângelo Colussi",
        "zipcode": "86604-114"
    },
    {
        "city": "Rolândia",
        "state": "PR",
        "district": "Jardim Novo Horizonte",
        "street": "Rua Crisântemos",
        "zipcode": "86604-436"
    },
    {
        "city": "Rolândia",
        "state": "PR",
        "district": "Centro",
        "street": "Rua Europa",
        "zipcode": "86600-001"
    },
    {
        "city": "Rolândia",
        "state": "PR",
        "district": "Jardim Rosângelo",
        "street": "Avenida Ailton Rodrigues Alves",
        "zipcode": "86602-052"
    },
    {
        "city": "Rolândia",
        "state": "PR",
        "district": "Parque Industrial Cafezal",
        "street": "Avenida Brasília",
        "zipcode": "86600-469"
    },
    {
        "city": "Rolândia",
        "state": "PR",
        "district": "Jardim Alto da Boa Vista",
        "street": "Avenida Presidente Castelo Branco",
        "zipcode": "86600-192"
    },
    {
        "city": "Rolândia",
        "state": "PR",
        "district": "Jardim Novo Horizonte",
        "street": "Avenida dos Jatobás",
        "zipcode": "86604-476"
    },
    {
        "city": "Rolândia",
        "state": "PR",
        "district": "Jardim Alto da Boa Vista",
        "street": "Rua Prudente de Moraes",
        "zipcode": "86600-262"
    },
    {
        "city": "Rolândia",
        "state": "PR",
        "district": "Jardim Novo Horizonte",
        "street": "Rua dos Sanhaços",
        "zipcode": "86604-302"
    },
    {
        "city": "Rolândia",
        "state": "PR",
        "district": "Centro",
        "street": "Rua Santos Dumont",
        "zipcode": "86600-147"
    },
    {
        "city": "Rolândia",
        "state": "PR",
        "district": "Vila Oliveira",
        "street": "Avenida das Palmeiras",
        "zipcode": "86604-078"
    },
    {
        "city": "Rolândia",
        "state": "PR",
        "district": "Vila Oliveira",
        "street": "Avenida das Palmeiras",
        "zipcode": "86604-100"
    },
    {
        "city": "Rolândia",
        "state": "PR",
        "district": "Jardim Novo Horizonte",
        "street": "Rua das Araras",
        "zipcode": "86604-320"
    },
    {
        "city": "Rolândia",
        "state": "PR",
        "district": "Vila Oliveira",
        "street": "Rua Armando do Lago Albuquerque",
        "zipcode": "86604-182"
    },
    {
        "city": "Rolândia",
        "state": "PR",
        "district": "Jardim Nobre",
        "street": "Rua Lázaro Teixeira Bastos",
        "zipcode": "86602-822"
    },
    {
        "city": "Rolândia",
        "state": "PR",
        "district": "Conjunto Habitacional Santiago",
        "street": "Rua Antônio Farina",
        "zipcode": "86606-058"
    },
    {
        "city": "Rolândia",
        "state": "PR",
        "district": "Jardim Rosângelo",
        "street": "Rua Sebastião Barreto",
        "zipcode": "86602-438"
    },
    {
        "city": "Rolândia",
        "state": "PR",
        "district": "Conjunto Habitacional San Fernando",
        "street": "Rua Maria Melem Adas",
        "zipcode": "86605-628"
    },
    {
        "city": "Rolândia",
        "state": "PR",
        "district": "Conjunto Habitacional Santiago",
        "street": "Rua Durcelina Panhan Grezlak",
        "zipcode": "86606-078"
    },
    {
        "city": "Rolândia",
        "state": "PR",
        "district": "Conjunto Habitacional Santiago",
        "street": "Rua Odorico Vieira de Camargo",
        "zipcode": "86606-626"
    },
    {
        "city": "Rolândia",
        "state": "PR",
        "district": "Jardim Alto da Boa Vista",
        "street": "Avenida Ribeirão Vermelho",
        "zipcode": "86600-248"
    },
    {
        "city": "Rolândia",
        "state": "PR",
        "district": "Centro",
        "street": "Avenida Romário Martins",
        "zipcode": "86600-165"
    },
    {
        "city": "Rolândia",
        "state": "PR",
        "district": "Vila Oliveira",
        "street": "Rua Ouro",
        "zipcode": "86604-106"
    },
    {
        "city": "Rolândia",
        "state": "PR",
        "district": "Vila Oliveira",
        "street": "Rua Urânio",
        "zipcode": "86604-058"
    },
    {
        "city": "Rolândia",
        "state": "PR",
        "district": "Jardim Alto da Boa Vista",
        "street": "Rua Willie Davids",
        "zipcode": "86600-278"
    },
    {
        "city": "Rolândia",
        "state": "PR",
        "district": "Conjunto Habitacional Santiago",
        "street": "Rua Miquilina Souza",
        "zipcode": "86606-054"
    },
    {
        "city": "Rolândia",
        "state": "PR",
        "district": "Manoel Müller",
        "street": "Avenida Joaquim Bueno Júnior",
        "zipcode": "86601-176"
    },
    {
        "city": "Rolândia",
        "state": "PR",
        "district": "Conjunto Habitacional San Fernando",
        "street": "Rua Maria Mariz Micheletti Tonon",
        "zipcode": "86605-676"
    },
    {
        "city": "Rolândia",
        "state": "PR",
        "district": "Conjunto Habitacional San Fernando",
        "street": "Rua Frederico Augusto Schurmann",
        "zipcode": "86605-652"
    },
    {
        "city": "Rolândia",
        "state": "PR",
        "district": "Jardim Rosângelo",
        "street": "Rua Otacílio Francisco",
        "zipcode": "86602-378"
    },
    {
        "city": "Rolândia",
        "state": "PR",
        "district": "Jardim Alto da Boa Vista",
        "street": "Rua dos Arvoredos",
        "zipcode": "86600-202"
    },
    {
        "city": "Rolândia",
        "state": "PR",
        "district": "Vila Oliveira",
        "street": "Rua Reinaldo Massi",
        "zipcode": "86604-038"
    },
    {
        "city": "Rolândia",
        "state": "PR",
        "district": "Vila Oliveira",
        "street": "Rua Tapajós",
        "zipcode": "86604-088"
    },
    {
        "city": "Rolândia",
        "state": "PR",
        "district": "Jardim Novo Horizonte",
        "street": "Rua dos Tucanos",
        "zipcode": "86604-330"
    },
    {
        "city": "Rolândia",
        "state": "PR",
        "district": "Jardim Alto da Boa Vista",
        "street": "Rua Ribeirão Três Bocas",
        "zipcode": "86600-234"
    },
    {
        "city": "Rolândia",
        "state": "PR",
        "district": "Vila Oliveira",
        "street": "Rua Rubi",
        "zipcode": "86604-024"
    },
    {
        "city": "Rolândia",
        "state": "PR",
        "district": "Jardim Novo Horizonte",
        "street": "Rua Jequitibás",
        "zipcode": "86604-448"
    },
    {
        "city": "Rolândia",
        "state": "PR",
        "district": "Jardim Novo Horizonte",
        "street": "Rua das Orquídeas",
        "zipcode": "86604-462"
    },
    {
        "city": "Rolândia",
        "state": "PR",
        "district": "Jardim Alto da Boa Vista",
        "street": "Rua João Venturini",
        "zipcode": "86600-296"
    },
    {
        "city": "Rolândia",
        "state": "PR",
        "district": "Centro",
        "street": "Rua Francisco Rodrigues Alves",
        "zipcode": "86600-033"
    },
    {
        "city": "Rolândia",
        "state": "PR",
        "district": "Vila Oliveira",
        "street": "Rua José Bonifácio",
        "zipcode": "86604-012"
    },
    {
        "city": "Rolândia",
        "state": "PR",
        "district": "Jardim Rosângelo",
        "street": "Rua José Coloni",
        "zipcode": "86602-098"
    },
    {
        "city": "Rolândia",
        "state": "PR",
        "district": "Jardim Rosângelo",
        "street": "Rua José Gonçalves Figueiredo",
        "zipcode": "86602-116"
    },
    {
        "city": "Rolândia",
        "state": "PR",
        "district": "Centro",
        "street": "Rua José Linhares",
        "zipcode": "86600-013"
    },
    {
        "city": "Rolândia",
        "state": "PR",
        "district": "Jardim Alto da Boa Vista",
        "street": "Rua Doutor José Marques",
        "zipcode": "86600-270"
    },
    {
        "city": "Rolândia",
        "state": "PR",
        "district": "Centro",
        "street": "Rua Goiás",
        "zipcode": "86600-155"
    },
    {
        "city": "Rolândia",
        "state": "PR",
        "district": "Centro",
        "street": "Rua Santa Catarina",
        "zipcode": "86600-081"
    },
    {
        "city": "Rolândia",
        "state": "PR",
        "district": "Vila Oliveira",
        "street": "Rua Kimiko Demura",
        "zipcode": "86604-066"
    },
    {
        "city": "Rolândia",
        "state": "PR",
        "district": "Centro",
        "street": "Rua Capitão Chagas",
        "zipcode": "86600-139"
    },
    {
        "city": "Rolândia",
        "state": "PR",
        "district": "Centro",
        "street": "Rua Costa Ribeiro",
        "zipcode": "86600-021"
    },
    {
        "city": "Rolândia",
        "state": "PR",
        "district": "Centro",
        "street": "Avenida Presidente Getúlio Vargas",
        "zipcode": "86600-029"
    },
    {
        "city": "Rolândia",
        "state": "PR",
        "district": "Centro",
        "street": "Avenida Castro Alves",
        "zipcode": "86600-041"
    },
    {
        "city": "Rolândia",
        "state": "PR",
        "district": "Centro",
        "street": "Rua Santos Dumont",
        "zipcode": "86600-109"
    },
    {
        "city": "Rolândia",
        "state": "PR",
        "district": "Conjunto Habitacional Santiago",
        "street": "Rua Lagoa da Reserva",
        "zipcode": "86606-644"
    },
    {
        "city": "Rolândia",
        "state": "PR",
        "district": "Jardim Caviúna",
        "street": "Rua Zeney Sakiyama",
        "zipcode": "86605-190"
    },
    {
        "city": "Rolândia",
        "state": "PR",
        "district": "Jardim Alto da Boa Vista",
        "street": "Rua Marechal Floriano Peixoto",
        "zipcode": "86600-220"
    },
    {
        "city": "Rolândia",
        "state": "PR",
        "district": "Vila Oliveira",
        "street": "Rua Adalberto Junqueira e Silva",
        "zipcode": "86604-166"
    },
    {
        "city": "Rolândia",
        "state": "PR",
        "district": "Conjunto Habitacional Santiago",
        "street": "Rua Lago Paranoá",
        "zipcode": "86606-640"
    },
    {
        "city": "Rolândia",
        "state": "PR",
        "district": "Manoel Müller",
        "street": "Rua Nilde Zorzetti",
        "zipcode": "86601-012"
    },
    {
        "city": "Rolândia",
        "state": "PR",
        "district": "Manoel Müller",
        "street": "Rua Erich Gottfried Mewes",
        "zipcode": "86601-188"
    },
    {
        "city": "Rolândia",
        "state": "PR",
        "district": "Jardim Rosângelo",
        "street": "Rua Doutor Júlio Braz Damasceno",
        "zipcode": "86602-351"
    },
    {
        "city": "Rolândia",
        "state": "PR",
        "district": "Parque Industrial Cafezal",
        "street": "Rua Portal do Sol",
        "zipcode": "86600-484"
    },
    {
        "city": "Rolândia",
        "state": "PR",
        "district": "Centro",
        "street": "Rua Arthur Thomas",
        "zipcode": "86600-121"
    },
    {
        "city": "Rolândia",
        "state": "PR",
        "district": "Jardim Novo Horizonte",
        "street": "Rua Luiz Picinin",
        "zipcode": "86604-316"
    },
    {
        "city": "Rolândia",
        "state": "PR",
        "district": "Jardim Alto da Boa Vista",
        "street": "Rua do Parquinho",
        "zipcode": "86600-200"
    },
    {
        "city": "Rolândia",
        "state": "PR",
        "district": "Centro",
        "street": "Rua Willie Davids",
        "zipcode": "86600-131"
    },
    {
        "city": "Rolândia",
        "state": "PR",
        "district": "Vila Oliveira",
        "street": "Rua Francisco Beraldo Neto",
        "zipcode": "86604-062"
    },
    {
        "city": "Rolândia",
        "state": "PR",
        "district": "Centro",
        "street": "Rua Carlos Luz",
        "zipcode": "86600-007"
    },
    {
        "city": "Rolândia",
        "state": "PR",
        "district": "Centro",
        "street": "Avenida Salgado Filho",
        "zipcode": "86600-981"
    },
    {
        "city": "Rolândia",
        "state": "PR",
        "district": "Conjunto Habitacional San Fernando",
        "street": "Rua Lauro Maissen",
        "zipcode": "86605-578"
    },
    {
        "city": "Rolândia",
        "state": "PR",
        "district": "Manoel Müller",
        "street": "Rua Peter Erick Rietzen",
        "zipcode": "86601-172"
    },
    {
        "city": "Rolândia",
        "state": "PR",
        "district": "Jardim Nobre",
        "street": "Avenida Luiz Aparecido Paganini",
        "zipcode": "86602-572"
    },
    {
        "city": "Rolândia",
        "state": "PR",
        "district": "Conjunto Habitacional Santiago",
        "street": "Rua Lagoa Negra",
        "zipcode": "86606-642"
    },
    {
        "city": "Rolândia",
        "state": "PR",
        "district": "Jardim Nobre",
        "street": "Avenida Júlio Braz Damasceno",
        "zipcode": "86602-832"
    },
    {
        "city": "Rolândia",
        "state": "PR",
        "district": "Manoel Müller",
        "street": "Rua Carlos Bernardino Cardoso",
        "zipcode": "86601-542"
    },
    {
        "city": "Rolândia",
        "state": "PR",
        "district": "Jardim Novo Horizonte",
        "street": "Rua Hildegard Kemph",
        "zipcode": "86604-554"
    },
    {
        "city": "Rolândia",
        "state": "PR",
        "district": "Manoel Müller",
        "street": "Rua Juvenal de Oliveira",
        "zipcode": "86601-010"
    },
    {
        "city": "Rolândia",
        "state": "PR",
        "district": "Manoel Müller",
        "street": "Rua Domingos Rambanholo",
        "zipcode": "86601-266"
    },
    {
        "city": "Rolândia",
        "state": "PR",
        "district": "Conjunto Habitacional Santiago",
        "street": "Rua Lagoa do Casamento",
        "zipcode": "86606-646"
    },
    {
        "city": "Rolândia",
        "state": "PR",
        "district": "Parque Industrial Cafezal",
        "street": "Rua Projetada 1",
        "zipcode": "86600-487"
    },
    {
        "city": "Rolândia",
        "state": "PR",
        "district": "Manoel Müller",
        "street": "Avenida Leopardos",
        "zipcode": "86601-240"
    },
    {
        "city": "Rolândia",
        "state": "PR",
        "district": "Manoel Müller",
        "street": "Avenida Antônio Picelli",
        "zipcode": "86601-566"
    },
    {
        "city": "Rolândia",
        "state": "PR",
        "district": "Conjunto Habitacional San Fernando",
        "street": "Rua Oswaldo de Castro e Souza",
        "zipcode": "86605-660"
    },
    {
        "city": "Rolândia",
        "state": "PR",
        "district": "Jardim Nobre",
        "street": "Rua Yoshimatsu",
        "zipcode": "86602-532"
    },
    {
        "city": "Rolândia",
        "state": "PR",
        "district": "Jardim Rosângelo",
        "street": "Rua José Nicola Caliento",
        "zipcode": "86602-342"
    },
    {
        "city": "Rolândia",
        "state": "PR",
        "district": "Vila Oliveira",
        "street": "Rua Farroupilha",
        "zipcode": "86604-070"
    },
    {
        "city": "Rolândia",
        "state": "PR",
        "district": "Vila Oliveira",
        "street": "Rua Granada",
        "zipcode": "86604-084"
    },
    {
        "city": "Rolândia",
        "state": "PR",
        "district": "Centro",
        "street": "Rua Epitácio Pessoa",
        "zipcode": "86600-019"
    },
    {
        "city": "Rolândia",
        "state": "PR",
        "district": "Parque Industrial Cafezal",
        "street": "Avenida Antonieta Balan (Residencial Belmonte)",
        "zipcode": "86600-520"
    },
    {
        "city": "Rolândia",
        "state": "PR",
        "district": "Conjunto Habitacional San Fernando",
        "street": "Rua Vereador Benedito Ferreira",
        "zipcode": "86605-745"
    },
    {
        "city": "Rolândia",
        "state": "PR",
        "district": "Área Rural de Rolândia",
        "street": "Área Rural",
        "zipcode": "86609-899"
    },
    {
        "city": "Rolândia",
        "state": "PR",
        "district": "Lotes da Rodovia Hermínio Antônio Pennacchi",
        "street": "Rodovia PR",
        "zipcode": "86606-870"
    },
    {
        "city": "Rolândia",
        "state": "PR",
        "district": "Jardim Alto da Boa Vista",
        "street": "Rua Atenas",
        "zipcode": "86600-201"
    },
    {
        "city": "Rolândia",
        "state": "PR",
        "district": "Centro",
        "street": "Avenida Interventor Manoel Ribas",
        "zipcode": "86600-137"
    },
    {
        "city": "Rolândia",
        "state": "PR",
        "district": "Centro",
        "street": "Avenida Interventor Manoel Ribas",
        "zipcode": "86600-061"
    },
    {
        "city": "Rolândia",
        "state": "PR",
        "district": "Jardim Caviúna",
        "street": "Rua Alfredo Cordeiro Filho",
        "zipcode": "86605-158"
    },
    {
        "city": "Rolândia",
        "state": "PR",
        "district": "Centro",
        "street": "Rua Alfredo Moreira Filho",
        "zipcode": "86600-003"
    },
    {
        "city": "Rolândia",
        "state": "PR",
        "district": "Vila Oliveira",
        "street": "Rua Almeida Porto",
        "zipcode": "86604-052"
    },
    {
        "city": "Rolândia",
        "state": "PR",
        "district": "Jardim Caviúna",
        "street": "Rua Américo Lobo",
        "zipcode": "86605-012"
    },
    {
        "city": "Rolândia",
        "state": "PR",
        "district": "Jardim Novo Horizonte",
        "street": "Rua das Andorinhas",
        "zipcode": "86604-298"
    },
    {
        "city": "Rolândia",
        "state": "PR",
        "district": "Jardim Novo Horizonte",
        "street": "Rua Ângelo Armacolo",
        "zipcode": "86604-612"
    },
    {
        "city": "Rolândia",
        "state": "PR",
        "district": "Jardim Novo Horizonte",
        "street": "Rua Ângelo Armacolo",
        "zipcode": "86604-642"
    },
    {
        "city": "Rolândia",
        "state": "PR",
        "district": "Jardim Rosângelo",
        "street": "Rua Laurindo Alves de Oliveira",
        "zipcode": "86602-112"
    },
    {
        "city": "Rolândia",
        "state": "PR",
        "district": "Jardim Novo Horizonte",
        "street": "Rua Lázaro Luis Zamenhof",
        "zipcode": "86604-292"
    },
    {
        "city": "Rolândia",
        "state": "PR",
        "district": "Manoel Müller",
        "street": "Rua Martin Friedrich Mewes",
        "zipcode": "86601-510"
    },
    {
        "city": "Rolândia",
        "state": "PR",
        "district": "Jardim Caviúna",
        "street": "Rua Caetano Munhoz da Rocha",
        "zipcode": "86605-300"
    },
    {
        "city": "Rolândia",
        "state": "PR",
        "district": "Jardim Novo Horizonte",
        "street": "Rua Flamboyant",
        "zipcode": "86604-472"
    },
    {
        "city": "Rolândia",
        "state": "PR",
        "district": "Parque Industrial Cafezal",
        "street": "Rua Ana Maria Salles da Silva",
        "zipcode": "86600-575"
    },
    {
        "city": "Rolândia",
        "state": "PR",
        "district": "Conjunto Habitacional San Fernando",
        "street": "Rua Soldado Paulo Vicente Ribeiro",
        "zipcode": "86605-786"
    },
    {
        "city": "Rolândia",
        "state": "PR",
        "district": "Jardim Caviúna",
        "street": "Rua Alfredo Lachner",
        "zipcode": "86605-288"
    },
    {
        "city": "Rolândia",
        "state": "PR",
        "district": "Manoel Müller",
        "street": "Rua das Gazelas",
        "zipcode": "86601-244"
    },
    {
        "city": "Rolândia",
        "state": "PR",
        "district": "Centro",
        "street": "Rua Marechal Floriano Peixoto",
        "zipcode": "86600-171"
    },
    {
        "city": "Rolândia",
        "state": "PR",
        "district": "Vila Oliveira",
        "street": "Rua Dom João VI",
        "zipcode": "86604-076"
    },
    {
        "city": "Rolândia",
        "state": "PR",
        "district": "Jardim Nobre",
        "street": "Rua Ivaí",
        "zipcode": "86602-512"
    },
    {
        "city": "Rolândia",
        "state": "PR",
        "district": "Manoel Müller",
        "street": "Rua Maria de Nazaré",
        "zipcode": "86601-162"
    },
    {
        "city": "Rolândia",
        "state": "PR",
        "district": "Manoel Müller",
        "street": "Rua Noradyr Florentino",
        "zipcode": "86601-220"
    },
    {
        "city": "Rolândia",
        "state": "PR",
        "district": "Conjunto Habitacional San Fernando",
        "street": "Rua Altina Primon",
        "zipcode": "86605-736"
    },
    {
        "city": "Rolândia",
        "state": "PR",
        "district": "Jardim Rosângelo",
        "street": "Rua Alexandre Brunetti",
        "zipcode": "86602-050"
    },
    {
        "city": "Rolândia",
        "state": "PR",
        "district": "Manoel Müller",
        "street": "Rua José Pantarotto Neto",
        "zipcode": "86601-184"
    },
    {
        "city": "Rolândia",
        "state": "PR",
        "district": "Conjunto Habitacional Santiago",
        "street": "Rua Agenor Antônio Zorzetti",
        "zipcode": "86606-041"
    },
    {
        "city": "Rolândia",
        "state": "PR",
        "district": "Conjunto Habitacional San Fernando",
        "street": "Rua Antônio Alves",
        "zipcode": "86605-584"
    },
    {
        "city": "Rolândia",
        "state": "PR",
        "district": "Conjunto Habitacional Santiago",
        "street": "Avenida Antônio Roberto Pinguelli",
        "zipcode": "86606-043"
    },
    {
        "city": "Rolândia",
        "state": "PR",
        "district": "Manoel Müller",
        "street": "Rua Renato Leite",
        "zipcode": "86601-514"
    },
    {
        "city": "Rolândia",
        "state": "PR",
        "district": "Manoel Müller",
        "street": "Rua Pedro Zabeu",
        "zipcode": "86601-560"
    },
    {
        "city": "Rolândia",
        "state": "PR",
        "district": "Jardim Caviúna",
        "street": "Rua Coronel Teófilo Soares Barbosa",
        "zipcode": "86605-004"
    },
    {
        "city": "Rolândia",
        "state": "PR",
        "district": "Centro",
        "street": "Rua Duque de Caxias",
        "zipcode": "86600-057"
    },
    {
        "city": "Rolândia",
        "state": "PR",
        "district": "Centro",
        "street": "Rua Marechal Deodoro da Fonseca",
        "zipcode": "86600-173"
    },
    {
        "city": "Rolândia",
        "state": "PR",
        "district": "Jardim Rosângelo",
        "street": "Avenida Ailton Rodrigues Alves",
        "zipcode": "86602-090"
    },
    {
        "city": "Rolândia",
        "state": "PR",
        "district": "Jardim Novo Horizonte",
        "street": "Avenida das Araucárias",
        "zipcode": "86604-570"
    },
    {
        "city": "Rolândia",
        "state": "PR",
        "district": "Conjunto Habitacional San Fernando",
        "street": "Rua Antônio Sella",
        "zipcode": "86605-644"
    },
    {
        "city": "Rolândia",
        "state": "PR",
        "district": "Jardim Novo Horizonte",
        "street": "Rua dos Saveiros",
        "zipcode": "86604-568"
    },
    {
        "city": "Rolândia",
        "state": "PR",
        "district": "Manoel Müller",
        "street": "Rua Juvenal de Oliveira",
        "zipcode": "86601-130"
    },
    {
        "city": "Rolândia",
        "state": "PR",
        "district": "Conjunto Habitacional Santiago",
        "street": "Rua Sandra Regina Pereira Chequin",
        "zipcode": "86606-049"
    },
    {
        "city": "Rolândia",
        "state": "PR",
        "district": "Parque Industrial Cafezal",
        "street": "Avenida Esplanada",
        "zipcode": "86600-595"
    },
    {
        "city": "Rolândia",
        "state": "PR",
        "district": "Manoel Müller",
        "street": "Rua José Longhin",
        "zipcode": "86601-042"
    },
    {
        "city": "Rolândia",
        "state": "PR",
        "district": "Jardim Nobre",
        "street": "Avenida Oriente",
        "zipcode": "86602-548"
    },
    {
        "city": "Rolândia",
        "state": "PR",
        "district": "Centro",
        "street": "Rua Washington Luiz",
        "zipcode": "86600-015"
    },
    {
        "city": "Rolândia",
        "state": "PR",
        "district": "Conjunto Habitacional Santiago",
        "street": "Rua Lago Constança",
        "zipcode": "86606-628"
    },
    {
        "city": "Rolândia",
        "state": "PR",
        "district": "Jardim Caviúna",
        "street": "Rua Monteiro Lobato",
        "zipcode": "86605-010"
    },
    {
        "city": "Rolândia",
        "state": "PR",
        "district": "Vila Oliveira",
        "street": "Rua Reinaldo Massi",
        "zipcode": "86604-086"
    },
    {
        "city": "Rolândia",
        "state": "PR",
        "district": "Jardim Novo Horizonte",
        "street": "Rua dos Tico",
        "zipcode": "86604-324"
    },
    {
        "city": "Rolândia",
        "state": "PR",
        "district": "Jardim Novo Horizonte",
        "street": "Rua Tulipas",
        "zipcode": "86604-430"
    },
    {
        "city": "Rolândia",
        "state": "PR",
        "district": "Jardim Rosângelo",
        "street": "Rua Jacarezinho",
        "zipcode": "86602-094"
    },
    {
        "city": "Rolândia",
        "state": "PR",
        "district": "Conjunto Habitacional San Fernando",
        "street": "Rua João de Paula",
        "zipcode": "86605-566"
    },
    {
        "city": "Rolândia",
        "state": "PR",
        "district": "Jardim Alto da Boa Vista",
        "street": "Rua Presidente João Goulart",
        "zipcode": "86600-206"
    },
    {
        "city": "Rolândia",
        "state": "PR",
        "district": "Jardim Novo Horizonte",
        "street": "Rua Magnólias",
        "zipcode": "86604-558"
    },
    {
        "city": "Rolândia",
        "state": "PR",
        "district": "Jardim Alto da Boa Vista",
        "street": "Rua José Fernandes",
        "zipcode": "86600-282"
    },
    {
        "city": "Rolândia",
        "state": "PR",
        "district": "Jardim Novo Horizonte",
        "street": "Rua Hans Lehmann",
        "zipcode": "86604-596"
    },
    {
        "city": "Rolândia",
        "state": "PR",
        "district": "Manoel Müller",
        "street": "Rua Edgar Martins Rocha",
        "zipcode": "86601-132"
    },
    {
        "city": "Rolândia",
        "state": "PR",
        "district": "Manoel Müller",
        "street": "Rua Ettore Antônio Micheletti",
        "zipcode": "86601-520"
    },
    {
        "city": "Rolândia",
        "state": "PR",
        "district": "Jardim Novo Horizonte",
        "street": "Rua Manoel Lourenço dos Santos",
        "zipcode": "86604-638"
    }
]