[
    {
        "city": "São Mateus do Sul",
        "state": "PR",
        "district": "Pontilhão",
        "street": "Estrada Principal",
        "zipcode": "83930-971"
    },
    {
        "city": "São Mateus do Sul",
        "state": "PR",
        "district": "",
        "street": "",
        "zipcode": "83900-000"
    },
    {
        "city": "São Mateus do Sul",
        "state": "PR",
        "district": "Centro",
        "street": "Rua Barão do Rio Branco 409",
        "zipcode": "83900-970"
    },
    {
        "city": "São Mateus do Sul",
        "state": "PR",
        "district": null,
        "street": "Rua Professor Bernardo do Amaral Wolff",
        "zipcode": "83930-991"
    },
    {
        "city": "São Mateus do Sul",
        "state": "PR",
        "district": null,
        "street": "Rua João Toporowicz",
        "zipcode": "83930-990"
    },
    {
        "city": "São Mateus do Sul",
        "state": "PR",
        "district": "Estiva dos Vidal",
        "street": "Estrada Principal",
        "zipcode": "83920-971"
    },
    {
        "city": "São Mateus do Sul",
        "state": "PR",
        "district": "Dois Irmãos",
        "street": "Estrada Principal",
        "zipcode": "83900-973"
    },
    {
        "city": "São Mateus do Sul",
        "state": "PR",
        "district": null,
        "street": "Rua Principal",
        "zipcode": "83920-990"
    },
    {
        "city": "São Mateus do Sul",
        "state": "PR",
        "district": "Faxinal dos Ilhéus",
        "street": "Estrada Principal",
        "zipcode": "83900-972"
    },
    {
        "city": "São Mateus do Sul",
        "state": "PR",
        "district": "Água Branca",
        "street": "Estrada Principal",
        "zipcode": "83900-971"
    },
    {
        "city": "São Mateus do Sul",
        "state": "PR",
        "district": "Cambará",
        "street": "Estrada Principal",
        "zipcode": "83910-973"
    },
    {
        "city": "São Mateus do Sul",
        "state": "PR",
        "district": null,
        "street": "Rua Principal",
        "zipcode": "83910-990"
    },
    {
        "city": "São Mateus do Sul",
        "state": "PR",
        "district": "Vargem Grande",
        "street": "Estrada Principal",
        "zipcode": "83910-972"
    },
    {
        "city": "São Mateus do Sul",
        "state": "PR",
        "district": "Turvo de Baixo",
        "street": "Estrada Principal",
        "zipcode": "83920-972"
    },
    {
        "city": "São Mateus do Sul",
        "state": "PR",
        "district": "Lajeadinho",
        "street": "Estrada Principal",
        "zipcode": "83910-971"
    },
    {
        "city": "São Mateus do Sul",
        "state": "PR",
        "district": "Fartura do Potinga",
        "street": "Estrada Principal",
        "zipcode": "83930-972"
    }
]