[
    {
        "city": "Sarandi",
        "state": "PR",
        "district": "Residencial Governador Jose Richa",
        "street": "Avenida Mafalda Guise Negri",
        "zipcode": "87117-080"
    },
    {
        "city": "Sarandi",
        "state": "PR",
        "district": "Jardim São Paulo",
        "street": "Rua Projetada A",
        "zipcode": "87114-075"
    },
    {
        "city": "Sarandi",
        "state": "PR",
        "district": "Conjunto Residencial Mauá",
        "street": "Rua José Giacomasse",
        "zipcode": "87118-524"
    },
    {
        "city": "Sarandi",
        "state": "PR",
        "district": "Jardim Kusumoto",
        "street": "Rua Alfredo Schwarz",
        "zipcode": "87112-885"
    },
    {
        "city": "Sarandi",
        "state": "PR",
        "district": "Jardim São Paulo II",
        "street": "Rua Projetada K",
        "zipcode": "87114-478"
    },
    {
        "city": "Sarandi",
        "state": "PR",
        "district": "Parque Alvamar",
        "street": "Estrada Zauna",
        "zipcode": "87113-322"
    },
    {
        "city": "Sarandi",
        "state": "PR",
        "district": "Jardim Real II",
        "street": "Rua Tapajós",
        "zipcode": "87111-776"
    },
    {
        "city": "Sarandi",
        "state": "PR",
        "district": "Residencial Jalmar",
        "street": "Rua 1",
        "zipcode": "87114-221"
    },
    {
        "city": "Sarandi",
        "state": "PR",
        "district": "Conjunto Residencial Mauá",
        "street": "Rua Carlos Roberto Sibim",
        "zipcode": "87118-537"
    },
    {
        "city": "Sarandi",
        "state": "PR",
        "district": "Jardim das Torres",
        "street": "Estrada Jaguaruna",
        "zipcode": "87117-205"
    },
    {
        "city": "Sarandi",
        "state": "PR",
        "district": "Área Rural de Sarandi",
        "street": "Área Rural",
        "zipcode": "87119-899"
    },
    {
        "city": "Sarandi",
        "state": "PR",
        "district": "Jardim das Torres",
        "street": "Rua Pioneiro Francisco Brogio",
        "zipcode": "87117-210"
    },
    {
        "city": "Sarandi",
        "state": "PR",
        "district": "Parque Industrial",
        "street": "Rua Pioneiro Valdomiro Medici",
        "zipcode": "87111-661"
    },
    {
        "city": "Sarandi",
        "state": "PR",
        "district": "Jardim Kusumoto",
        "street": "Rua Luiz Buzzo",
        "zipcode": "87112-874"
    },
    {
        "city": "Sarandi",
        "state": "PR",
        "district": "Jardim São Paulo",
        "street": "Rua Projetada G",
        "zipcode": "87114-077"
    },
    {
        "city": "Sarandi",
        "state": "PR",
        "district": "Jardim Oriental",
        "street": "Rua Dallas",
        "zipcode": "87112-846"
    },
    {
        "city": "Sarandi",
        "state": "PR",
        "district": "Ecovalley Ecologic City",
        "street": "Rua 9320",
        "zipcode": "87115-083"
    },
    {
        "city": "Sarandi",
        "state": "PR",
        "district": "Jardim São Paulo II",
        "street": "Rua Manoel Aureliano Filho",
        "zipcode": "87114-477"
    },
    {
        "city": "Sarandi",
        "state": "PR",
        "district": "Jardim das Torres",
        "street": "Rua Porto Seguro",
        "zipcode": "87117-230"
    },
    {
        "city": "Sarandi",
        "state": "PR",
        "district": "Jardim São Paulo II",
        "street": "Rua Emilia Celestino de Souza",
        "zipcode": "87114-468"
    },
    {
        "city": "Sarandi",
        "state": "PR",
        "district": "Ecovalley Ecologic City",
        "street": "Rua 9354",
        "zipcode": "87115-053"
    },
    {
        "city": "Sarandi",
        "state": "PR",
        "district": "Jardim Esperança II",
        "street": "Avenida Pioneiro Israel Souza Moraes",
        "zipcode": "87112-291"
    },
    {
        "city": "Sarandi",
        "state": "PR",
        "district": "Jardim Rio de Janeiro",
        "street": "Rua 137",
        "zipcode": "87113-506"
    },
    {
        "city": "Sarandi",
        "state": "PR",
        "district": "Jardim Oriental",
        "street": "Rua Pioneiro Pedro Izidoro do Carmo",
        "zipcode": "87112-840"
    },
    {
        "city": "Sarandi",
        "state": "PR",
        "district": "Centro",
        "street": "Rua Taí",
        "zipcode": "87111-130"
    },
    {
        "city": "Sarandi",
        "state": "PR",
        "district": "Jardim Tropical",
        "street": "Rua Geraldina Izidia da Silva",
        "zipcode": "87113-816"
    },
    {
        "city": "Sarandi",
        "state": "PR",
        "district": "Jardim Dom Bosco",
        "street": "Rua Cascavel",
        "zipcode": "87111-360"
    },
    {
        "city": "Sarandi",
        "state": "PR",
        "district": "Conjunto Vale Azul",
        "street": "Rua Minas Gerais",
        "zipcode": "87115-015"
    },
    {
        "city": "Sarandi",
        "state": "PR",
        "district": "Jardim São Paulo",
        "street": "Rua Almir Peron",
        "zipcode": "87114-071"
    },
    {
        "city": "Sarandi",
        "state": "PR",
        "district": "Parque Residencial Novo Centro",
        "street": "Rua Dálias",
        "zipcode": "87111-391"
    },
    {
        "city": "Sarandi",
        "state": "PR",
        "district": "Jardim Nova Sarandi II",
        "street": "Rua Diamantino",
        "zipcode": "87112-254"
    },
    {
        "city": "Sarandi",
        "state": "PR",
        "district": "Jardim Ibirapuera",
        "street": "Rua Ana Néri",
        "zipcode": "87112-302"
    },
    {
        "city": "Sarandi",
        "state": "PR",
        "district": "Jardim Independência II",
        "street": "Rua Américo Brasiliense",
        "zipcode": "87113-244"
    },
    {
        "city": "Sarandi",
        "state": "PR",
        "district": "Vera Cruz",
        "street": "Rua Adolfo Candiani",
        "zipcode": "87111-767"
    },
    {
        "city": "Sarandi",
        "state": "PR",
        "district": "Jardim Universal",
        "street": "Rua Galileu",
        "zipcode": "87114-518"
    },
    {
        "city": "Sarandi",
        "state": "PR",
        "district": "Jardim Perimetral",
        "street": "Rua Norte",
        "zipcode": "87111-040"
    },
    {
        "city": "Sarandi",
        "state": "PR",
        "district": "Vera Cruz",
        "street": "Rua Ernesto Ferro",
        "zipcode": "87111-769"
    },
    {
        "city": "Sarandi",
        "state": "PR",
        "district": "Jardim Nova Independência",
        "street": "Estrada Eldorado",
        "zipcode": "87114-636"
    },
    {
        "city": "Sarandi",
        "state": "PR",
        "district": "Jardim Monte Libano",
        "street": "Rua dos Motoristas",
        "zipcode": "87112-227"
    },
    {
        "city": "Sarandi",
        "state": "PR",
        "district": "Ecovalley Ecologic City",
        "street": "Rua 9331",
        "zipcode": "87115-089"
    },
    {
        "city": "Sarandi",
        "state": "PR",
        "district": "Conjunto Vale Azul",
        "street": "Rua Mato Grosso",
        "zipcode": "87115-025"
    },
    {
        "city": "Sarandi",
        "state": "PR",
        "district": "Jardim das Torres",
        "street": "Rua Piauí",
        "zipcode": "87117-225"
    },
    {
        "city": "Sarandi",
        "state": "PR",
        "district": "Conjunto Residencial Mauá",
        "street": "Praça Clemente Zobol",
        "zipcode": "87118-539"
    },
    {
        "city": "Sarandi",
        "state": "PR",
        "district": "Parque da Gávea",
        "street": "Rua Projetada F",
        "zipcode": "87115-114"
    },
    {
        "city": "Sarandi",
        "state": "PR",
        "district": "Ecovalley Ecologic City",
        "street": "Rua 9329",
        "zipcode": "87115-093"
    },
    {
        "city": "Sarandi",
        "state": "PR",
        "district": "Ecovalley Ecologic City",
        "street": "Rua 9308",
        "zipcode": "87115-081"
    },
    {
        "city": "Sarandi",
        "state": "PR",
        "district": "Ecovalley Ecologic City",
        "street": "Rua 9322",
        "zipcode": "87115-085"
    },
    {
        "city": "Sarandi",
        "state": "PR",
        "district": "Jardim Monte Libano",
        "street": "Rua José Vitor da Rocha",
        "zipcode": "87112-223"
    },
    {
        "city": "Sarandi",
        "state": "PR",
        "district": "Jardim Monte Libano",
        "street": "Rua Kiozo Andó",
        "zipcode": "87112-222"
    },
    {
        "city": "Sarandi",
        "state": "PR",
        "district": "Jardim Ipanema",
        "street": "Rua Coxim",
        "zipcode": "87112-006"
    },
    {
        "city": "Sarandi",
        "state": "PR",
        "district": "Ecovalley Ecologic City",
        "street": "Rua 9343",
        "zipcode": "87115-104"
    },
    {
        "city": "Sarandi",
        "state": "PR",
        "district": "Ecovalley Ecologic City",
        "street": "Rua 9353",
        "zipcode": "87115-102"
    },
    {
        "city": "Sarandi",
        "state": "PR",
        "district": "Ecovalley Ecologic City",
        "street": "Rua 9351",
        "zipcode": "87115-101"
    },
    {
        "city": "Sarandi",
        "state": "PR",
        "district": "Ecovalley Ecologic City",
        "street": "Rua 9334",
        "zipcode": "87115-096"
    },
    {
        "city": "Sarandi",
        "state": "PR",
        "district": "Jardim Monte Libano",
        "street": "Rua dos Funcionários",
        "zipcode": "87112-226"
    },
    {
        "city": "Sarandi",
        "state": "PR",
        "district": "Jardim Monte Libano",
        "street": "Rua Domingos Pilegi",
        "zipcode": "87112-225"
    },
    {
        "city": "Sarandi",
        "state": "PR",
        "district": "Conjunto Residencial Mauá",
        "street": "Rua F",
        "zipcode": "87118-530"
    },
    {
        "city": "Sarandi",
        "state": "PR",
        "district": "Conjunto Residencial Mauá",
        "street": "Rua H",
        "zipcode": "87118-534"
    },
    {
        "city": "Sarandi",
        "state": "PR",
        "district": "Residencial São José III",
        "street": "Rua 116",
        "zipcode": "87114-876"
    },
    {
        "city": "Sarandi",
        "state": "PR",
        "district": "Residencial São José III",
        "street": "Rua 117",
        "zipcode": "87114-877"
    },
    {
        "city": "Sarandi",
        "state": "PR",
        "district": "Residencial São José III",
        "street": "Rua 118",
        "zipcode": "87114-878"
    },
    {
        "city": "Sarandi",
        "state": "PR",
        "district": "Residencial São José III",
        "street": "Rua 119",
        "zipcode": "87114-879"
    },
    {
        "city": "Sarandi",
        "state": "PR",
        "district": "Residencial São José III",
        "street": "Rua 120",
        "zipcode": "87114-880"
    },
    {
        "city": "Sarandi",
        "state": "PR",
        "district": "Conjunto Vale Azul",
        "street": "Rua Rio Grande do Sul",
        "zipcode": "87115-035"
    },
    {
        "city": "Sarandi",
        "state": "PR",
        "district": "Conjunto Vale Azul",
        "street": "Rua Paraná",
        "zipcode": "87115-030"
    },
    {
        "city": "Sarandi",
        "state": "PR",
        "district": "Conjunto Vale Azul",
        "street": "Rua Cinco",
        "zipcode": "87115-010"
    },
    {
        "city": "Sarandi",
        "state": "PR",
        "district": "Conjunto Vale Azul",
        "street": "Rua Dois",
        "zipcode": "87115-008"
    },
    {
        "city": "Sarandi",
        "state": "PR",
        "district": "Conjunto Vale Azul",
        "street": "Rua Santa Catarina",
        "zipcode": "87115-022"
    },
    {
        "city": "Sarandi",
        "state": "PR",
        "district": "Ecovalley Ecologic City",
        "street": "Rua 9330",
        "zipcode": "87115-094"
    },
    {
        "city": "Sarandi",
        "state": "PR",
        "district": "Ecovalley Ecologic City",
        "street": "Rua 9327",
        "zipcode": "87115-091"
    },
    {
        "city": "Sarandi",
        "state": "PR",
        "district": "Ecovalley Ecologic City",
        "street": "Rua 9317",
        "zipcode": "87115-080"
    },
    {
        "city": "Sarandi",
        "state": "PR",
        "district": "Ecovalley Ecologic City",
        "street": "Rua 9302",
        "zipcode": "87115-077"
    },
    {
        "city": "Sarandi",
        "state": "PR",
        "district": "Conjunto Vale Azul",
        "street": "Rua Amazonas",
        "zipcode": "87115-000"
    },
    {
        "city": "Sarandi",
        "state": "PR",
        "district": "Ecovalley Ecologic City",
        "street": "Rua 9319",
        "zipcode": "87115-082"
    },
    {
        "city": "Sarandi",
        "state": "PR",
        "district": "Conjunto Vale Azul",
        "street": "Rua Vale Azul",
        "zipcode": "87115-040"
    },
    {
        "city": "Sarandi",
        "state": "PR",
        "district": "Ecovalley Ecologic City",
        "street": "Avenida 9314",
        "zipcode": "87115-095"
    },
    {
        "city": "Sarandi",
        "state": "PR",
        "district": "Conjunto Vale Azul",
        "street": "Rua São Paulo",
        "zipcode": "87115-032"
    },
    {
        "city": "Sarandi",
        "state": "PR",
        "district": "Ecovalley Ecologic City",
        "street": "Rua 9323",
        "zipcode": "87115-086"
    },
    {
        "city": "Sarandi",
        "state": "PR",
        "district": "Ecovalley Ecologic City",
        "street": "Rua 9326",
        "zipcode": "87115-090"
    },
    {
        "city": "Sarandi",
        "state": "PR",
        "district": "Conjunto Residencial Mauá",
        "street": "Rua Laércio Manchini",
        "zipcode": "87118-532"
    },
    {
        "city": "Sarandi",
        "state": "PR",
        "district": "Conjunto Residencial Mauá",
        "street": "Rua Antenor Rufino de Souza",
        "zipcode": "87118-536"
    },
    {
        "city": "Sarandi",
        "state": "PR",
        "district": "Ecovalley Ecologic City",
        "street": "Rua 9349",
        "zipcode": "87115-100"
    },
    {
        "city": "Sarandi",
        "state": "PR",
        "district": "Jardim Sarandi I",
        "street": "Rua Itiquira",
        "zipcode": "87112-261"
    },
    {
        "city": "Sarandi",
        "state": "PR",
        "district": "Jardim Monte Libano",
        "street": "Rua Miriam Satimi Ilda",
        "zipcode": "87112-224"
    },
    {
        "city": "Sarandi",
        "state": "PR",
        "district": "Jardim Ibirapuera",
        "street": "Rua Imperador",
        "zipcode": "87112-306"
    },
    {
        "city": "Sarandi",
        "state": "PR",
        "district": "Novo Panorama",
        "street": "Avenida Júlio Limonta",
        "zipcode": "87113-200"
    },
    {
        "city": "Sarandi",
        "state": "PR",
        "district": "Jardim Verão",
        "street": "Rua das Rosas",
        "zipcode": "87111-590"
    },
    {
        "city": "Sarandi",
        "state": "PR",
        "district": "Jardim Perimetral",
        "street": "Rua Sul",
        "zipcode": "87111-030"
    },
    {
        "city": "Sarandi",
        "state": "PR",
        "district": "Jardim Nova Independência",
        "street": "Rua Carlos Mugica",
        "zipcode": "87114-755"
    },
    {
        "city": "Sarandi",
        "state": "PR",
        "district": "Jardim Nova Independência I",
        "street": "Rua Vinte e Nove",
        "zipcode": "87114-760"
    },
    {
        "city": "Sarandi",
        "state": "PR",
        "district": "Jardim Nova Independência I",
        "street": "Rua Antônio Affonso Agnibeni",
        "zipcode": "87114-690"
    },
    {
        "city": "Sarandi",
        "state": "PR",
        "district": "Jardim Universal",
        "street": "Rua Apolo",
        "zipcode": "87114-440"
    },
    {
        "city": "Sarandi",
        "state": "PR",
        "district": "Jardim Universal",
        "street": "Rua Cabo Kennedy",
        "zipcode": "87114-420"
    },
    {
        "city": "Sarandi",
        "state": "PR",
        "district": "Jardim Universal",
        "street": "Rua Capricórnio",
        "zipcode": "87114-320"
    },
    {
        "city": "Sarandi",
        "state": "PR",
        "district": "Conjunto Vale Azul",
        "street": "Rua Piaui",
        "zipcode": "87115-020"
    },
    {
        "city": "Sarandi",
        "state": "PR",
        "district": "Conjunto Vale Azul",
        "street": "Rua Goiás",
        "zipcode": "87115-005"
    },
    {
        "city": "Sarandi",
        "state": "PR",
        "district": "Conjunto Vale Azul",
        "street": "Rua Pará",
        "zipcode": "87115-028"
    },
    {
        "city": "Sarandi",
        "state": "PR",
        "district": "Ecovalley Ecologic City",
        "street": "Rua 9303",
        "zipcode": "87115-076"
    },
    {
        "city": "Sarandi",
        "state": "PR",
        "district": "Ecovalley Ecologic City",
        "street": "Rua 9357",
        "zipcode": "87115-051"
    },
    {
        "city": "Sarandi",
        "state": "PR",
        "district": "Ecovalley Ecologic City",
        "street": "Rua 9321",
        "zipcode": "87115-084"
    },
    {
        "city": "Sarandi",
        "state": "PR",
        "district": "Ecovalley Ecologic City",
        "street": "Rua 9315",
        "zipcode": "87115-078"
    },
    {
        "city": "Sarandi",
        "state": "PR",
        "district": "Ecovalley Ecologic City",
        "street": "Rua 9356",
        "zipcode": "87115-052"
    },
    {
        "city": "Sarandi",
        "state": "PR",
        "district": "Ecovalley Ecologic City",
        "street": "Rua 9325",
        "zipcode": "87115-088"
    },
    {
        "city": "Sarandi",
        "state": "PR",
        "district": "Conjunto Vale Azul",
        "street": "Praça Santo Antonio",
        "zipcode": "87115-042"
    },
    {
        "city": "Sarandi",
        "state": "PR",
        "district": "Ecovalley Ecologic City",
        "street": "Rua 9324",
        "zipcode": "87115-087"
    },
    {
        "city": "Sarandi",
        "state": "PR",
        "district": "Conjunto Residencial Mauá",
        "street": "Rua Joaquim Cezário Leite",
        "zipcode": "87118-528"
    },
    {
        "city": "Sarandi",
        "state": "PR",
        "district": "Ecovalley Ecologic City",
        "street": "Rua 9328",
        "zipcode": "87115-092"
    },
    {
        "city": "Sarandi",
        "state": "PR",
        "district": "Jardim Universal",
        "street": "Rua Cometa",
        "zipcode": "87114-380"
    },
    {
        "city": "Sarandi",
        "state": "PR",
        "district": "Jardim Universal",
        "street": "Rua das Contelações",
        "zipcode": "87114-390"
    },
    {
        "city": "Sarandi",
        "state": "PR",
        "district": "Jardim Nova Independência I",
        "street": "Rua José Marti",
        "zipcode": "87114-710"
    },
    {
        "city": "Sarandi",
        "state": "PR",
        "district": "Jardim Universal",
        "street": "Rua Estrela Dalva",
        "zipcode": "87114-340"
    },
    {
        "city": "Sarandi",
        "state": "PR",
        "district": "Jardim Universal",
        "street": "Rua das Galáxias",
        "zipcode": "87114-400"
    },
    {
        "city": "Sarandi",
        "state": "PR",
        "district": "Jardim Universal",
        "street": "Rua Júpiter",
        "zipcode": "87114-500"
    },
    {
        "city": "Sarandi",
        "state": "PR",
        "district": "Jardim Universal",
        "street": "Rua New Armstrong",
        "zipcode": "87114-430"
    },
    {
        "city": "Sarandi",
        "state": "PR",
        "district": "Jardim Universal",
        "street": "Rua Pionner",
        "zipcode": "87114-330"
    },
    {
        "city": "Sarandi",
        "state": "PR",
        "district": "Parque Alvamar II",
        "street": "Rua Rio Azul",
        "zipcode": "87113-730"
    },
    {
        "city": "Sarandi",
        "state": "PR",
        "district": "Parque Alvamar II",
        "street": "Rua Rio Bom",
        "zipcode": "87113-740"
    },
    {
        "city": "Sarandi",
        "state": "PR",
        "district": "Parque Alvamar II",
        "street": "Rua Rio Claro",
        "zipcode": "87113-750"
    },
    {
        "city": "Sarandi",
        "state": "PR",
        "district": "Parque Alvamar II",
        "street": "Rua Rio das Cinzas",
        "zipcode": "87113-780"
    },
    {
        "city": "Sarandi",
        "state": "PR",
        "district": "Parque Alvamar II",
        "street": "Rua Rio da Areia",
        "zipcode": "87113-790"
    },
    {
        "city": "Sarandi",
        "state": "PR",
        "district": "Parque Alvamar II",
        "street": "Rua Rio dos Patos",
        "zipcode": "87113-770"
    },
    {
        "city": "Sarandi",
        "state": "PR",
        "district": "Parque Alvamar II",
        "street": "Rua Rio Negrinho",
        "zipcode": "87113-800"
    },
    {
        "city": "Sarandi",
        "state": "PR",
        "district": "Parque Alvamar II",
        "street": "Rua Rio Novo",
        "zipcode": "87113-710"
    },
    {
        "city": "Sarandi",
        "state": "PR",
        "district": "Parque Alvamar II",
        "street": "Rua Rio Paraná",
        "zipcode": "87113-760"
    },
    {
        "city": "Sarandi",
        "state": "PR",
        "district": "Jardim Nova Independência I",
        "street": "Rua Salvador Martins",
        "zipcode": "87114-695"
    },
    {
        "city": "Sarandi",
        "state": "PR",
        "district": "Jardim Universal",
        "street": "Rua Satélite",
        "zipcode": "87114-410"
    },
    {
        "city": "Sarandi",
        "state": "PR",
        "district": "Jardim Universal",
        "street": "Rua Terra",
        "zipcode": "87114-460"
    },
    {
        "city": "Sarandi",
        "state": "PR",
        "district": "Jardim Universal",
        "street": "Rua Vênus",
        "zipcode": "87114-490"
    },
    {
        "city": "Sarandi",
        "state": "PR",
        "district": "Jardim Universal",
        "street": "Rua Via Láctea",
        "zipcode": "87114-360"
    },
    {
        "city": "Sarandi",
        "state": "PR",
        "district": "Jardim Nova Independência I",
        "street": "Rua Chico Mendes",
        "zipcode": "87114-715"
    },
    {
        "city": "Sarandi",
        "state": "PR",
        "district": "Jardim Nova Independência",
        "street": "Rua Geraldo Polbet",
        "zipcode": "87114-740"
    },
    {
        "city": "Sarandi",
        "state": "PR",
        "district": "Jardim Nova Independência",
        "street": "Rua Luis Espinol",
        "zipcode": "87114-725"
    },
    {
        "city": "Sarandi",
        "state": "PR",
        "district": "Jardim Nova Independência",
        "street": "Rua Santos Dias",
        "zipcode": "87114-750"
    },
    {
        "city": "Sarandi",
        "state": "PR",
        "district": "Jardim Nova Independência",
        "street": "Rua José Otamaro",
        "zipcode": "87114-730"
    },
    {
        "city": "Sarandi",
        "state": "PR",
        "district": "Jardim Nova Independência",
        "street": "Rua Gaspar Vivi",
        "zipcode": "87114-745"
    },
    {
        "city": "Sarandi",
        "state": "PR",
        "district": "Jardim Universal",
        "street": "Rua Cruzeiro do Sul",
        "zipcode": "87114-370"
    },
    {
        "city": "Sarandi",
        "state": "PR",
        "district": "Parque Alvamar",
        "street": "Estrada Zauna",
        "zipcode": "87113-902"
    },
    {
        "city": "Sarandi",
        "state": "PR",
        "district": "Ecovalley Ecologic City",
        "street": "Avenida 9301",
        "zipcode": "87115-050"
    },
    {
        "city": "Sarandi",
        "state": "PR",
        "district": "Jardim Nova Independência I",
        "street": "Rua Rodolfo Lukembein",
        "zipcode": "87114-735"
    },
    {
        "city": "Sarandi",
        "state": "PR",
        "district": "Jardim Independência",
        "street": "Rua André Kovacs",
        "zipcode": "87114-700"
    },
    {
        "city": "Sarandi",
        "state": "PR",
        "district": "Jardim Universal",
        "street": "Rua Mercúrio",
        "zipcode": "87114-480"
    },
    {
        "city": "Sarandi",
        "state": "PR",
        "district": "Jardim Nova Independência",
        "street": "Rua Rei Zumbi dos Palmares",
        "zipcode": "87114-705"
    },
    {
        "city": "Sarandi",
        "state": "PR",
        "district": "Jardim Universal",
        "street": "Rua das Estrelas",
        "zipcode": "87114-450"
    },
    {
        "city": "Sarandi",
        "state": "PR",
        "district": "Jardim Tropical",
        "street": "Rua Aparecida Mendes Meira",
        "zipcode": "87113-814"
    },
    {
        "city": "Sarandi",
        "state": "PR",
        "district": "Jardim Tropical",
        "street": "Rua Vinte e Nove",
        "zipcode": "87113-811"
    },
    {
        "city": "Sarandi",
        "state": "PR",
        "district": "Jardim Tropical",
        "street": "Rua Izidoro Pessini",
        "zipcode": "87113-815"
    },
    {
        "city": "Sarandi",
        "state": "PR",
        "district": "Jardim Tropical",
        "street": "Rua Dez",
        "zipcode": "87113-819"
    },
    {
        "city": "Sarandi",
        "state": "PR",
        "district": "Jardim Tropical",
        "street": "Rua Leonildo Lopes",
        "zipcode": "87113-820"
    },
    {
        "city": "Sarandi",
        "state": "PR",
        "district": "Jardim Gralha Azul",
        "street": "Rua Rio da Garça",
        "zipcode": "87112-107"
    },
    {
        "city": "Sarandi",
        "state": "PR",
        "district": "Jardim Tropical",
        "street": "Avenida Belo Horizonte",
        "zipcode": "87113-810"
    },
    {
        "city": "Sarandi",
        "state": "PR",
        "district": "Jardim Tropical",
        "street": "Rua Eugênio Dvoranen",
        "zipcode": "87113-818"
    },
    {
        "city": "Sarandi",
        "state": "PR",
        "district": "Jardim Tropical",
        "street": "Rua Professor José Rezende",
        "zipcode": "87113-817"
    },
    {
        "city": "Sarandi",
        "state": "PR",
        "district": "Jardim Nova Independência",
        "street": "Rua Simão Bolivar",
        "zipcode": "87114-720"
    },
    {
        "city": "Sarandi",
        "state": "PR",
        "district": "Jardim Ana Elisa",
        "street": "Rua Imperatriz Leopoldina",
        "zipcode": "87112-421"
    },
    {
        "city": "Sarandi",
        "state": "PR",
        "district": "Jardim Imperial",
        "street": "Avenida Cuiabá",
        "zipcode": "87112-311"
    },
    {
        "city": "Sarandi",
        "state": "PR",
        "district": "Jardim Ana Elisa",
        "street": "Rua Barão do Rio Branco",
        "zipcode": "87112-299"
    },
    {
        "city": "Sarandi",
        "state": "PR",
        "district": "Jardim Ibirapuera",
        "street": "Rua Luiz Francalin Feitosa",
        "zipcode": "87112-305"
    },
    {
        "city": "Sarandi",
        "state": "PR",
        "district": "Jardim Ibirapuera",
        "street": "Rua Barão do Rio Branco",
        "zipcode": "87112-304"
    },
    {
        "city": "Sarandi",
        "state": "PR",
        "district": "Jardim Ibirapuera",
        "street": "Rua Barão de Mauá",
        "zipcode": "87112-303"
    },
    {
        "city": "Sarandi",
        "state": "PR",
        "district": "Parque Alvamar",
        "street": "Avenida Amílcar Vecchi",
        "zipcode": "87113-330"
    },
    {
        "city": "Sarandi",
        "state": "PR",
        "district": "Parque Alvamar",
        "street": "Rua Ana Martha Faltin",
        "zipcode": "87113-410"
    },
    {
        "city": "Sarandi",
        "state": "PR",
        "district": "Parque São Pedro",
        "street": "Praça Kane Andó",
        "zipcode": "87112-507"
    },
    {
        "city": "Sarandi",
        "state": "PR",
        "district": "Parque Alvamar",
        "street": "Rua Ângelo Vinha",
        "zipcode": "87113-440"
    },
    {
        "city": "Sarandi",
        "state": "PR",
        "district": "Parque Alvamar",
        "street": "Rua Arnaldo Martins",
        "zipcode": "87113-380"
    },
    {
        "city": "Sarandi",
        "state": "PR",
        "district": "Jardim Cruzeiro",
        "street": "Rua Boa Vista",
        "zipcode": "87112-310"
    },
    {
        "city": "Sarandi",
        "state": "PR",
        "district": "Jardim Califórnia",
        "street": "Avenida Califórnia",
        "zipcode": "87112-515"
    },
    {
        "city": "Sarandi",
        "state": "PR",
        "district": "Conjunto Floresta",
        "street": "Rua dos Canários",
        "zipcode": "87112-720"
    },
    {
        "city": "Sarandi",
        "state": "PR",
        "district": "Jardim Esperança III",
        "street": "Rua Cezário Mancine",
        "zipcode": "87112-300"
    },
    {
        "city": "Sarandi",
        "state": "PR",
        "district": "Jardim Independência",
        "street": "Avenida Deputado Borsari Neto",
        "zipcode": "87113-300"
    },
    {
        "city": "Sarandi",
        "state": "PR",
        "district": "Parque Alvamar",
        "street": "Rua Encarnação Castilho",
        "zipcode": "87113-420"
    },
    {
        "city": "Sarandi",
        "state": "PR",
        "district": "Parque Alvamar",
        "street": "Rua Francisco Fernandes Cara",
        "zipcode": "87113-370"
    },
    {
        "city": "Sarandi",
        "state": "PR",
        "district": "Parque Alvamar",
        "street": "Rua Francisco Silveira da Rocha",
        "zipcode": "87113-350"
    },
    {
        "city": "Sarandi",
        "state": "PR",
        "district": "Conjunto Floresta",
        "street": "Rua Gralha",
        "zipcode": "87112-700"
    },
    {
        "city": "Sarandi",
        "state": "PR",
        "district": "Jardim Tropical",
        "street": "Rua Quinze",
        "zipcode": "87113-822"
    },
    {
        "city": "Sarandi",
        "state": "PR",
        "district": "Parque Alvamar",
        "street": "Avenida João Gomes Redondo",
        "zipcode": "87113-320"
    },
    {
        "city": "Sarandi",
        "state": "PR",
        "district": "Novo Panorama",
        "street": "Avenida João Marangoni",
        "zipcode": "87113-310"
    },
    {
        "city": "Sarandi",
        "state": "PR",
        "district": "Conjunto Floresta",
        "street": "Avenida João",
        "zipcode": "87112-690"
    },
    {
        "city": "Sarandi",
        "state": "PR",
        "district": "Parque Alvamar",
        "street": "Rua José Volpato",
        "zipcode": "87113-360"
    },
    {
        "city": "Sarandi",
        "state": "PR",
        "district": "Parque Alvamar",
        "street": "Rua Manoel da Luz",
        "zipcode": "87113-390"
    },
    {
        "city": "Sarandi",
        "state": "PR",
        "district": "Parque São Pedro",
        "street": "Travessa do Mar",
        "zipcode": "87112-506"
    },
    {
        "city": "Sarandi",
        "state": "PR",
        "district": "Parque Alvamar",
        "street": "Rua Odila Toriani Lemuchi",
        "zipcode": "87113-430"
    },
    {
        "city": "Sarandi",
        "state": "PR",
        "district": "Conjunto Floresta",
        "street": "Rua dos Pardais",
        "zipcode": "87112-750"
    },
    {
        "city": "Sarandi",
        "state": "PR",
        "district": "Conjunto Floresta",
        "street": "Rua do Pica",
        "zipcode": "87112-740"
    },
    {
        "city": "Sarandi",
        "state": "PR",
        "district": "Parque Alvamar",
        "street": "Avenida Professora Anna Saddi Barros da Cunha",
        "zipcode": "87113-400"
    },
    {
        "city": "Sarandi",
        "state": "PR",
        "district": "Parque Alvamar",
        "street": "Rua Ramom Carrasco",
        "zipcode": "87113-340"
    },
    {
        "city": "Sarandi",
        "state": "PR",
        "district": "Parque Alvamar II",
        "street": "Rua Rio Bonito",
        "zipcode": "87113-700"
    },
    {
        "city": "Sarandi",
        "state": "PR",
        "district": "Parque Alvamar II",
        "street": "Rua Rio Goioerê",
        "zipcode": "87113-690"
    },
    {
        "city": "Sarandi",
        "state": "PR",
        "district": "Parque Alvamar II",
        "street": "Rua Rio Ribeira",
        "zipcode": "87113-680"
    },
    {
        "city": "Sarandi",
        "state": "PR",
        "district": "Conjunto Floresta",
        "street": "Avenida Rouxinol",
        "zipcode": "87112-710"
    },
    {
        "city": "Sarandi",
        "state": "PR",
        "district": "Jardim Independência II",
        "street": "Avenida Santos Dumont",
        "zipcode": "87113-290"
    },
    {
        "city": "Sarandi",
        "state": "PR",
        "district": "Jardim Califórnia",
        "street": "Avenida São Francisco",
        "zipcode": "87112-505"
    },
    {
        "city": "Sarandi",
        "state": "PR",
        "district": "Conjunto Floresta",
        "street": "Rua das Garças",
        "zipcode": "87112-730"
    },
    {
        "city": "Sarandi",
        "state": "PR",
        "district": "Parque Alvamar",
        "street": "Praça Pioneiro José Reggiano",
        "zipcode": "87113-325"
    },
    {
        "city": "Sarandi",
        "state": "PR",
        "district": "Conjunto Floresta",
        "street": "Avenida Beija",
        "zipcode": "87112-680"
    },
    {
        "city": "Sarandi",
        "state": "PR",
        "district": "Jardim Ana Elisa",
        "street": "Rua Ana Néri",
        "zipcode": "87112-297"
    },
    {
        "city": "Sarandi",
        "state": "PR",
        "district": "Jardim Ana Elisa",
        "street": "Rua Luiz Francalin Feitosa",
        "zipcode": "87112-289"
    },
    {
        "city": "Sarandi",
        "state": "PR",
        "district": "Jardim Monte Libano",
        "street": "Rua Kane Andó",
        "zipcode": "87112-282"
    },
    {
        "city": "Sarandi",
        "state": "PR",
        "district": "Jardim Novo Bertioga",
        "street": "Rua Oito",
        "zipcode": "87118-337"
    },
    {
        "city": "Sarandi",
        "state": "PR",
        "district": "Jardim Esperança II",
        "street": "Rua João Martinez",
        "zipcode": "87112-292"
    },
    {
        "city": "Sarandi",
        "state": "PR",
        "district": "Conjunto Residencial Mauá",
        "street": "Rua K",
        "zipcode": "87118-538"
    },
    {
        "city": "Sarandi",
        "state": "PR",
        "district": "Jardim Monte Libano",
        "street": "Rua Nerio Broglia",
        "zipcode": "87112-281"
    },
    {
        "city": "Sarandi",
        "state": "PR",
        "district": "Jardim Nova Sarandi II",
        "street": "Rua Três Lagoas",
        "zipcode": "87112-268"
    },
    {
        "city": "Sarandi",
        "state": "PR",
        "district": "Jardim Nova Sarandi II",
        "street": "Rua Naviraí",
        "zipcode": "87112-267"
    },
    {
        "city": "Sarandi",
        "state": "PR",
        "district": "Parque Residencial Novo Centro",
        "street": "Rua José Galindo Garcia",
        "zipcode": "87111-397"
    },
    {
        "city": "Sarandi",
        "state": "PR",
        "district": "Parque Residencial Novo Centro",
        "street": "Rua dos Cravos",
        "zipcode": "87111-396"
    },
    {
        "city": "Sarandi",
        "state": "PR",
        "district": "Parque Residencial Novo Centro",
        "street": "Rua das Tulipas",
        "zipcode": "87111-393"
    },
    {
        "city": "Sarandi",
        "state": "PR",
        "district": "Jardim Ibirapuera",
        "street": "Avenida Cuiabá",
        "zipcode": "87112-301"
    },
    {
        "city": "Sarandi",
        "state": "PR",
        "district": "Jardim Ana Elisa",
        "street": "Avenida Cuiabá",
        "zipcode": "87112-296"
    },
    {
        "city": "Sarandi",
        "state": "PR",
        "district": "Parque Residencial Novo Centro",
        "street": "Rua dos Lírios",
        "zipcode": "87111-395"
    },
    {
        "city": "Sarandi",
        "state": "PR",
        "district": "Parque Residencial Novo Centro",
        "street": "Rua Camélias",
        "zipcode": "87111-394"
    },
    {
        "city": "Sarandi",
        "state": "PR",
        "district": "Jardim Nova Paulista",
        "street": "Rua Aclimação",
        "zipcode": "87111-430"
    },
    {
        "city": "Sarandi",
        "state": "PR",
        "district": "Jardim Ana Elisa",
        "street": "Rua América",
        "zipcode": "87111-440"
    },
    {
        "city": "Sarandi",
        "state": "PR",
        "district": "Jardim Nova Paulista",
        "street": "Rua Antônia Garrido Stevanelli",
        "zipcode": "87111-450"
    },
    {
        "city": "Sarandi",
        "state": "PR",
        "district": "Jardim Monterey",
        "street": "Avenida Araucária",
        "zipcode": "87112-295"
    },
    {
        "city": "Sarandi",
        "state": "PR",
        "district": "Conjunto Residencial Mauá",
        "street": "Rua Sebastião Ferreira Melo",
        "zipcode": "87118-522"
    },
    {
        "city": "Sarandi",
        "state": "PR",
        "district": "Conjunto Residencial Mauá",
        "street": "Rua Heides Batista",
        "zipcode": "87118-526"
    },
    {
        "city": "Sarandi",
        "state": "PR",
        "district": "Jardim Verão",
        "street": "Rua das Avencas",
        "zipcode": "87111-575"
    },
    {
        "city": "Sarandi",
        "state": "PR",
        "district": "Jardim Verão",
        "street": "Rua David Pavão",
        "zipcode": "87111-570"
    },
    {
        "city": "Sarandi",
        "state": "PR",
        "district": "Jardim Nova Paulista",
        "street": "Rua Guilherme Sônego",
        "zipcode": "87111-420"
    },
    {
        "city": "Sarandi",
        "state": "PR",
        "district": "Jardim Nova Paulista",
        "street": "Rua Jabaquara",
        "zipcode": "87111-410"
    },
    {
        "city": "Sarandi",
        "state": "PR",
        "district": "Jardim Monterey",
        "street": "Avenida Jacarandá",
        "zipcode": "87112-285"
    },
    {
        "city": "Sarandi",
        "state": "PR",
        "district": "Jardim Esperança I",
        "street": "Rua Mário Consentino",
        "zipcode": "87112-270"
    },
    {
        "city": "Sarandi",
        "state": "PR",
        "district": "Jardim Universal",
        "street": "Rua Marte",
        "zipcode": "87114-470"
    },
    {
        "city": "Sarandi",
        "state": "PR",
        "district": "Parque Residencial Nova Aliança",
        "street": "Rua Martim Afonso",
        "zipcode": "87111-710"
    },
    {
        "city": "Sarandi",
        "state": "PR",
        "district": "Jardim Dom Bosco",
        "street": "Rua das Nações",
        "zipcode": "87111-390"
    },
    {
        "city": "Sarandi",
        "state": "PR",
        "district": "Jardim Esperança IV",
        "street": "Rua Nova Londrina",
        "zipcode": "87112-280"
    },
    {
        "city": "Sarandi",
        "state": "PR",
        "district": "Jardim Esperança II",
        "street": "Rua Santarém",
        "zipcode": "87112-290"
    },
    {
        "city": "Sarandi",
        "state": "PR",
        "district": "Jardim Nova Paulista",
        "street": "Rua Roberto Cavalari Sobrinho",
        "zipcode": "87111-400"
    },
    {
        "city": "Sarandi",
        "state": "PR",
        "district": "Jardim Verão",
        "street": "Rua das Violetas",
        "zipcode": "87111-470"
    },
    {
        "city": "Sarandi",
        "state": "PR",
        "district": "Jardim Verão",
        "street": "Rua Vitória",
        "zipcode": "87111-550"
    },
    {
        "city": "Sarandi",
        "state": "PR",
        "district": "Parque Residencial Nova Aliança",
        "street": "Travessa Universitária",
        "zipcode": "87111-485"
    },
    {
        "city": "Sarandi",
        "state": "PR",
        "district": "Jardim Verão",
        "street": "Rua das Palmas",
        "zipcode": "87111-540"
    },
    {
        "city": "Sarandi",
        "state": "PR",
        "district": "Jardim Nova Paulista",
        "street": "Rua Universo",
        "zipcode": "87111-460"
    },
    {
        "city": "Sarandi",
        "state": "PR",
        "district": "Parque Industrial IV",
        "street": "Rua Vinte e Um de Abril",
        "zipcode": "87111-705"
    },
    {
        "city": "Sarandi",
        "state": "PR",
        "district": "Parque Industrial IV",
        "street": "Rua Sete de Setembro",
        "zipcode": "87111-706"
    },
    {
        "city": "Sarandi",
        "state": "PR",
        "district": "Parque Industrial IV",
        "street": "Rua Quinze de Novembro",
        "zipcode": "87111-707"
    },
    {
        "city": "Sarandi",
        "state": "PR",
        "district": "Jardim Novo Bertioga",
        "street": "Rua Doze",
        "zipcode": "87118-310"
    },
    {
        "city": "Sarandi",
        "state": "PR",
        "district": "Jardim Novo Bertioga",
        "street": "Rua Onze",
        "zipcode": "87118-315"
    },
    {
        "city": "Sarandi",
        "state": "PR",
        "district": "Jardim Novo Bertioga",
        "street": "Rua Dez",
        "zipcode": "87118-320"
    },
    {
        "city": "Sarandi",
        "state": "PR",
        "district": "Jardim Novo Bertioga",
        "street": "Rua Nove",
        "zipcode": "87118-325"
    },
    {
        "city": "Sarandi",
        "state": "PR",
        "district": "Jardim Novo Bertioga",
        "street": "Rua Seis",
        "zipcode": "87118-330"
    },
    {
        "city": "Sarandi",
        "state": "PR",
        "district": "Jardim Novo Bertioga",
        "street": "Rua Quatro",
        "zipcode": "87118-332"
    },
    {
        "city": "Sarandi",
        "state": "PR",
        "district": "Jardim Novo Bertioga",
        "street": "Rua Sete",
        "zipcode": "87118-335"
    },
    {
        "city": "Sarandi",
        "state": "PR",
        "district": "Jardim Nova Sarandi III",
        "street": "Rua E",
        "zipcode": "87117-046"
    },
    {
        "city": "Sarandi",
        "state": "PR",
        "district": "Jardim Nova Sarandi III",
        "street": "Rua F",
        "zipcode": "87117-048"
    },
    {
        "city": "Sarandi",
        "state": "PR",
        "district": "Jardim Nova Sarandi III",
        "street": "Rua G",
        "zipcode": "87117-050"
    },
    {
        "city": "Sarandi",
        "state": "PR",
        "district": "Jardim Nova Sarandi III",
        "street": "Rua H",
        "zipcode": "87117-052"
    },
    {
        "city": "Sarandi",
        "state": "PR",
        "district": "Jardim Nova Sarandi III",
        "street": "Rua I",
        "zipcode": "87117-054"
    },
    {
        "city": "Sarandi",
        "state": "PR",
        "district": "Jardim Nova Sarandi III",
        "street": "Rua J",
        "zipcode": "87117-056"
    },
    {
        "city": "Sarandi",
        "state": "PR",
        "district": "Jardim Nova Sarandi III",
        "street": "Rua K",
        "zipcode": "87117-058"
    },
    {
        "city": "Sarandi",
        "state": "PR",
        "district": "Jardim Nova Sarandi III",
        "street": "Rua B",
        "zipcode": "87117-042"
    },
    {
        "city": "Sarandi",
        "state": "PR",
        "district": "Jardim Nova Sarandi III",
        "street": "Rua C",
        "zipcode": "87117-041"
    },
    {
        "city": "Sarandi",
        "state": "PR",
        "district": "Jardim Nova Sarandi III",
        "street": "Rua D",
        "zipcode": "87117-044"
    },
    {
        "city": "Sarandi",
        "state": "PR",
        "district": "Jardim Novo Bertioga",
        "street": "Rua Rua Um",
        "zipcode": "87118-322"
    },
    {
        "city": "Sarandi",
        "state": "PR",
        "district": "Jardim Novo Bertioga",
        "street": "Rua Rua Dois",
        "zipcode": "87118-312"
    },
    {
        "city": "Sarandi",
        "state": "PR",
        "district": "Jardim Novo Bertioga",
        "street": "Rua Rua Três",
        "zipcode": "87118-326"
    },
    {
        "city": "Sarandi",
        "state": "PR",
        "district": "Jardim Novo Bertioga",
        "street": "Rua Rua Cinco",
        "zipcode": "87118-336"
    },
    {
        "city": "Sarandi",
        "state": "PR",
        "district": "Residencial Governador Jose Richa",
        "street": "Rua Governador Ney Braga",
        "zipcode": "87117-070"
    },
    {
        "city": "Sarandi",
        "state": "PR",
        "district": "Residencial Governador Jose Richa",
        "street": "Rua Governador Carlos Cavalcante de Albuquerque",
        "zipcode": "87117-079"
    },
    {
        "city": "Sarandi",
        "state": "PR",
        "district": "Residencial Governador Jose Richa",
        "street": "Rua Governador Francisco Xavier da Silva",
        "zipcode": "87117-078"
    },
    {
        "city": "Sarandi",
        "state": "PR",
        "district": "Residencial Governador Jose Richa",
        "street": "Rua Governador Caetano Munhoz de Rocha",
        "zipcode": "87117-077"
    },
    {
        "city": "Sarandi",
        "state": "PR",
        "district": "Residencial Governador Jose Richa",
        "street": "Rua Governador Afonso Camargo",
        "zipcode": "87117-076"
    },
    {
        "city": "Sarandi",
        "state": "PR",
        "district": "Ecovalley Ecologic City",
        "street": "Rua 9359",
        "zipcode": "87115-106"
    },
    {
        "city": "Sarandi",
        "state": "PR",
        "district": "Residencial Governador Jose Richa",
        "street": "Rua Governador Bento Munhoz da Rocha Neto",
        "zipcode": "87117-074"
    },
    {
        "city": "Sarandi",
        "state": "PR",
        "district": "Residencial Governador Jose Richa",
        "street": "Rua Governador Moisés Lupion",
        "zipcode": "87117-073"
    },
    {
        "city": "Sarandi",
        "state": "PR",
        "district": "Residencial Governador Jose Richa",
        "street": "Rua Governador Pedro Viriato Parigot de Souza",
        "zipcode": "87117-072"
    },
    {
        "city": "Sarandi",
        "state": "PR",
        "district": "Jardim Aurora",
        "street": "Avenida Aurora Rinck Vignoto",
        "zipcode": "87116-000"
    },
    {
        "city": "Sarandi",
        "state": "PR",
        "district": "Ecovalley Ecologic City",
        "street": "Rua 9342",
        "zipcode": "87115-105"
    },
    {
        "city": "Sarandi",
        "state": "PR",
        "district": "Jardim Nova Independência",
        "street": "Rua Ignácio Pelchibeski",
        "zipcode": "87114-665"
    },
    {
        "city": "Sarandi",
        "state": "PR",
        "district": "Jardim Nova Independência",
        "street": "Rua C",
        "zipcode": "87114-657"
    },
    {
        "city": "Sarandi",
        "state": "PR",
        "district": "Jardim Nova Independência",
        "street": "Rua Dezesseis",
        "zipcode": "87114-666"
    },
    {
        "city": "Sarandi",
        "state": "PR",
        "district": "Jardim Nova Independência",
        "street": "Rua B",
        "zipcode": "87114-668"
    },
    {
        "city": "Sarandi",
        "state": "PR",
        "district": "Jardim Nova Independência",
        "street": "Rua Dezessete",
        "zipcode": "87114-669"
    },
    {
        "city": "Sarandi",
        "state": "PR",
        "district": "Residencial São José III",
        "street": "Rua 100",
        "zipcode": "87114-850"
    },
    {
        "city": "Sarandi",
        "state": "PR",
        "district": "Residencial São José III",
        "street": "Rua 101",
        "zipcode": "87114-854"
    },
    {
        "city": "Sarandi",
        "state": "PR",
        "district": "Residencial São José III",
        "street": "Rua 102",
        "zipcode": "87114-852"
    },
    {
        "city": "Sarandi",
        "state": "PR",
        "district": "Residencial São José III",
        "street": "Rua 103",
        "zipcode": "87114-856"
    },
    {
        "city": "Sarandi",
        "state": "PR",
        "district": "Residencial São José III",
        "street": "Rua 104",
        "zipcode": "87114-858"
    },
    {
        "city": "Sarandi",
        "state": "PR",
        "district": "Residencial São José III",
        "street": "Rua 105",
        "zipcode": "87114-860"
    },
    {
        "city": "Sarandi",
        "state": "PR",
        "district": "Residencial São José III",
        "street": "Rua 106",
        "zipcode": "87114-862"
    },
    {
        "city": "Sarandi",
        "state": "PR",
        "district": "Residencial São José III",
        "street": "Rua 107",
        "zipcode": "87114-864"
    },
    {
        "city": "Sarandi",
        "state": "PR",
        "district": "Residencial São José III",
        "street": "Rua 108",
        "zipcode": "87114-866"
    },
    {
        "city": "Sarandi",
        "state": "PR",
        "district": "Residencial São José III",
        "street": "Rua 109",
        "zipcode": "87114-868"
    },
    {
        "city": "Sarandi",
        "state": "PR",
        "district": "Residencial São José III",
        "street": "Rua 110",
        "zipcode": "87114-870"
    },
    {
        "city": "Sarandi",
        "state": "PR",
        "district": "Jardim Nova Sarandi III",
        "street": "Rua A",
        "zipcode": "87117-040"
    },
    {
        "city": "Sarandi",
        "state": "PR",
        "district": "Residencial São José III",
        "street": "Rua 111",
        "zipcode": "87114-871"
    },
    {
        "city": "Sarandi",
        "state": "PR",
        "district": "Residencial São José III",
        "street": "Rua 112",
        "zipcode": "87114-872"
    },
    {
        "city": "Sarandi",
        "state": "PR",
        "district": "Residencial São José III",
        "street": "Rua 113",
        "zipcode": "87114-873"
    },
    {
        "city": "Sarandi",
        "state": "PR",
        "district": "Residencial São José III",
        "street": "Rua 114",
        "zipcode": "87114-874"
    },
    {
        "city": "Sarandi",
        "state": "PR",
        "district": "Residencial São José III",
        "street": "Rua 115",
        "zipcode": "87114-875"
    },
    {
        "city": "Sarandi",
        "state": "PR",
        "district": null,
        "street": "Avenida Vale Azul",
        "zipcode": "87115-990"
    },
    {
        "city": "Sarandi",
        "state": "PR",
        "district": "Jardim Nova Independência I",
        "street": "Rua Joaquim Antônio da Silva",
        "zipcode": "87114-670"
    },
    {
        "city": "Sarandi",
        "state": "PR",
        "district": "Jardim Independência",
        "street": "Rua João de Magalhães Moço Filho",
        "zipcode": "87114-660"
    },
    {
        "city": "Sarandi",
        "state": "PR",
        "district": "Ecovalley Ecologic City",
        "street": "Rua 9333",
        "zipcode": "87115-066"
    },
    {
        "city": "Sarandi",
        "state": "PR",
        "district": "Ecovalley Ecologic City",
        "street": "Rua 9304",
        "zipcode": "87115-075"
    },
    {
        "city": "Sarandi",
        "state": "PR",
        "district": "Ecovalley Ecologic City",
        "street": "Rua 9348",
        "zipcode": "87115-056"
    },
    {
        "city": "Sarandi",
        "state": "PR",
        "district": "Ecovalley Ecologic City",
        "street": "Rua 9341",
        "zipcode": "87115-060"
    },
    {
        "city": "Sarandi",
        "state": "PR",
        "district": "Ecovalley Ecologic City",
        "street": "Rua 9313",
        "zipcode": "87115-057"
    },
    {
        "city": "Sarandi",
        "state": "PR",
        "district": "Ecovalley Ecologic City",
        "street": "Rua 9310",
        "zipcode": "87115-071"
    },
    {
        "city": "Sarandi",
        "state": "PR",
        "district": "Ecovalley Ecologic City",
        "street": "Rua 9340",
        "zipcode": "87115-061"
    },
    {
        "city": "Sarandi",
        "state": "PR",
        "district": "Ecovalley Ecologic City",
        "street": "Rua 9337",
        "zipcode": "87115-064"
    },
    {
        "city": "Sarandi",
        "state": "PR",
        "district": "Ecovalley Ecologic City",
        "street": "Rua 9346",
        "zipcode": "87115-058"
    },
    {
        "city": "Sarandi",
        "state": "PR",
        "district": "Ecovalley Ecologic City",
        "street": "Rua 9309",
        "zipcode": "87115-070"
    },
    {
        "city": "Sarandi",
        "state": "PR",
        "district": "Jardim Nova Independência I",
        "street": "Rua Laura Pepi Lovato",
        "zipcode": "87114-655"
    },
    {
        "city": "Sarandi",
        "state": "PR",
        "district": "Jardim Nova Independência I",
        "street": "Rua Paul Harris",
        "zipcode": "87114-685"
    },
    {
        "city": "Sarandi",
        "state": "PR",
        "district": "Jardim Nova Independência I",
        "street": "Rua Projetada A",
        "zipcode": "87114-815"
    },
    {
        "city": "Sarandi",
        "state": "PR",
        "district": "Jardim Independência III",
        "street": "Rua João Martins Garcia",
        "zipcode": "87114-830"
    },
    {
        "city": "Sarandi",
        "state": "PR",
        "district": "Jardim Nova Independência I",
        "street": "Rua Projetada B",
        "zipcode": "87114-820"
    },
    {
        "city": "Sarandi",
        "state": "PR",
        "district": "Jardim Independência III",
        "street": "Rua Projetada B",
        "zipcode": "87114-835"
    },
    {
        "city": "Sarandi",
        "state": "PR",
        "district": "Jardim Nova Independência I",
        "street": "Rua Projetada C",
        "zipcode": "87114-825"
    },
    {
        "city": "Sarandi",
        "state": "PR",
        "district": "Jardim Nova Independência I",
        "street": "Rua Quatro",
        "zipcode": "87114-635"
    },
    {
        "city": "Sarandi",
        "state": "PR",
        "district": "Jardim Independência",
        "street": "Rua Rotary",
        "zipcode": "87114-680"
    },
    {
        "city": "Sarandi",
        "state": "PR",
        "district": "Jardim Nova Independência",
        "street": "Rua Trinta e Cinco",
        "zipcode": "87114-790"
    },
    {
        "city": "Sarandi",
        "state": "PR",
        "district": "Jardim Nova Independência",
        "street": "Rua Manoel Marques da Silva",
        "zipcode": "87114-775"
    },
    {
        "city": "Sarandi",
        "state": "PR",
        "district": "Jardim Nova Independência I",
        "street": "Rua Trinta e Oito",
        "zipcode": "87114-805"
    },
    {
        "city": "Sarandi",
        "state": "PR",
        "district": "Jardim Nova Independência I",
        "street": "Rua Trinta e Quatro",
        "zipcode": "87114-785"
    },
    {
        "city": "Sarandi",
        "state": "PR",
        "district": "Jardim Nova Independência I",
        "street": "Rua Trinta e Sete",
        "zipcode": "87114-800"
    },
    {
        "city": "Sarandi",
        "state": "PR",
        "district": "Jardim Nova Independência",
        "street": "Rua Trinta e Três",
        "zipcode": "87114-780"
    },
    {
        "city": "Sarandi",
        "state": "PR",
        "district": "Jardim Nova Independência",
        "street": "Rua Aparecido Onicio Dom Bosco",
        "zipcode": "87114-770"
    },
    {
        "city": "Sarandi",
        "state": "PR",
        "district": "Ecovalley Ecologic City",
        "street": "Rua 9305",
        "zipcode": "87115-074"
    },
    {
        "city": "Sarandi",
        "state": "PR",
        "district": "Ecovalley Ecologic City",
        "street": "Rua 9311",
        "zipcode": "87115-068"
    },
    {
        "city": "Sarandi",
        "state": "PR",
        "district": "Ecovalley Ecologic City",
        "street": "Rua 9339",
        "zipcode": "87115-062"
    },
    {
        "city": "Sarandi",
        "state": "PR",
        "district": "Ecovalley Ecologic City",
        "street": "Rua 9307",
        "zipcode": "87115-072"
    },
    {
        "city": "Sarandi",
        "state": "PR",
        "district": "Jardim das Torres",
        "street": "Rua Campo Belo",
        "zipcode": "87117-215"
    },
    {
        "city": "Sarandi",
        "state": "PR",
        "district": "Ecovalley Ecologic City",
        "street": "Rua 9344",
        "zipcode": "87115-059"
    },
    {
        "city": "Sarandi",
        "state": "PR",
        "district": "Ecovalley Ecologic City",
        "street": "Rua 9336",
        "zipcode": "87115-065"
    },
    {
        "city": "Sarandi",
        "state": "PR",
        "district": "Jardim Independência III",
        "street": "Rua Jaime Ezidio dos Santos",
        "zipcode": "87114-840"
    },
    {
        "city": "Sarandi",
        "state": "PR",
        "district": "Jardim Nova Independência I",
        "street": "Rua Trinta e Nove",
        "zipcode": "87114-810"
    },
    {
        "city": "Sarandi",
        "state": "PR",
        "district": "Jardim Independência",
        "street": "Rua Ângelo Lopes da Silva",
        "zipcode": "87114-640"
    },
    {
        "city": "Sarandi",
        "state": "PR",
        "district": "Jardim Nova Independência I",
        "street": "Rua Seis",
        "zipcode": "87114-645"
    },
    {
        "city": "Sarandi",
        "state": "PR",
        "district": "Jardim Nova Independência I",
        "street": "Rua José Luiz Pereira",
        "zipcode": "87114-675"
    },
    {
        "city": "Sarandi",
        "state": "PR",
        "district": "Jardim Nova Independência I",
        "street": "Rua Trinta e Seis",
        "zipcode": "87114-795"
    },
    {
        "city": "Sarandi",
        "state": "PR",
        "district": "Residencial São José",
        "street": "Rua Geraldo Teixeira Batista",
        "zipcode": "87114-646"
    },
    {
        "city": "Sarandi",
        "state": "PR",
        "district": "Parque Residencial Bom Pastor",
        "street": "Rua Santo Estêvão",
        "zipcode": "87114-528"
    },
    {
        "city": "Sarandi",
        "state": "PR",
        "district": "Parque Residencial Bom Pastor",
        "street": "Rua Estrela de Belém",
        "zipcode": "87114-544"
    },
    {
        "city": "Sarandi",
        "state": "PR",
        "district": "Jardim Independência",
        "street": "Rua Dois",
        "zipcode": "87114-610"
    },
    {
        "city": "Sarandi",
        "state": "PR",
        "district": "Parque Residencial Bom Pastor",
        "street": "Rua Discípulos de Emaus",
        "zipcode": "87114-548"
    },
    {
        "city": "Sarandi",
        "state": "PR",
        "district": "Jardim Nova Independência",
        "street": "Avenida Felício Turquino",
        "zipcode": "87114-622"
    },
    {
        "city": "Sarandi",
        "state": "PR",
        "district": "Jardim Nova Independência",
        "street": "Avenida Giro Watanabe",
        "zipcode": "87114-621"
    },
    {
        "city": "Sarandi",
        "state": "PR",
        "district": "Parque Pioneiros",
        "street": "Avenida João Marangoni",
        "zipcode": "87114-630"
    },
    {
        "city": "Sarandi",
        "state": "PR",
        "district": "Jardim Nova Independência",
        "street": "Estrada Mauro Trindade",
        "zipcode": "87114-624"
    },
    {
        "city": "Sarandi",
        "state": "PR",
        "district": "Jardim Nova Independência",
        "street": "Avenida Nova Aurora",
        "zipcode": "87114-623"
    },
    {
        "city": "Sarandi",
        "state": "PR",
        "district": "Parque Residencial Bom Pastor",
        "street": "Rua da Santa Ceia",
        "zipcode": "87114-540"
    },
    {
        "city": "Sarandi",
        "state": "PR",
        "district": "Parque Residencial Bom Pastor",
        "street": "Rua Santíssima Trindade",
        "zipcode": "87114-547"
    },
    {
        "city": "Sarandi",
        "state": "PR",
        "district": "Parque Residencial Bom Pastor",
        "street": "Rua Jesus Filho do Homem",
        "zipcode": "87114-524"
    },
    {
        "city": "Sarandi",
        "state": "PR",
        "district": "Parque Residencial Bom Pastor",
        "street": "Rua da Ascensão",
        "zipcode": "87114-532"
    },
    {
        "city": "Sarandi",
        "state": "PR",
        "district": "Parque Residencial Bom Pastor",
        "street": "Rua Bom Samaritano",
        "zipcode": "87114-535"
    },
    {
        "city": "Sarandi",
        "state": "PR",
        "district": "Jardim Nova Independência",
        "street": "Rua Três",
        "zipcode": "87114-620"
    },
    {
        "city": "Sarandi",
        "state": "PR",
        "district": "Parque Residencial Bom Pastor",
        "street": "Rua da Transfiguração",
        "zipcode": "87114-534"
    },
    {
        "city": "Sarandi",
        "state": "PR",
        "district": "Jardim Nova Independência I",
        "street": "Rua Um",
        "zipcode": "87114-600"
    },
    {
        "city": "Sarandi",
        "state": "PR",
        "district": "Parque Residencial Bom Pastor",
        "street": "Avenida São Paulo Apóstolo",
        "zipcode": "87114-551"
    },
    {
        "city": "Sarandi",
        "state": "PR",
        "district": "Parque Residencial Bom Pastor",
        "street": "Rua das Profecias",
        "zipcode": "87114-533"
    },
    {
        "city": "Sarandi",
        "state": "PR",
        "district": "Parque Residencial Bom Pastor",
        "street": "Rua Jesus Pão da Vida",
        "zipcode": "87114-523"
    },
    {
        "city": "Sarandi",
        "state": "PR",
        "district": "Parque Residencial Bom Pastor",
        "street": "Rua Cristo Libertador",
        "zipcode": "87114-526"
    },
    {
        "city": "Sarandi",
        "state": "PR",
        "district": "Parque Residencial Bom Pastor",
        "street": "Rua Verbo Divino",
        "zipcode": "87114-529"
    },
    {
        "city": "Sarandi",
        "state": "PR",
        "district": "Parque Residencial Bom Pastor",
        "street": "Rua 12",
        "zipcode": "87114-553"
    },
    {
        "city": "Sarandi",
        "state": "PR",
        "district": "Parque Residencial Bom Pastor",
        "street": "Rua 29",
        "zipcode": "87114-555"
    },
    {
        "city": "Sarandi",
        "state": "PR",
        "district": "Parque Residencial Bom Pastor",
        "street": "Rua da Providência",
        "zipcode": "87114-530"
    },
    {
        "city": "Sarandi",
        "state": "PR",
        "district": "Parque Residencial Bom Pastor",
        "street": "Rua da Ressurreição",
        "zipcode": "87114-531"
    },
    {
        "city": "Sarandi",
        "state": "PR",
        "district": "Parque Residencial Bom Pastor",
        "street": "Rua da Misericórdia",
        "zipcode": "87114-536"
    },
    {
        "city": "Sarandi",
        "state": "PR",
        "district": "Parque Residencial Bom Pastor",
        "street": "Rua da Multiplicação",
        "zipcode": "87114-537"
    },
    {
        "city": "Sarandi",
        "state": "PR",
        "district": "Parque Residencial Bom Pastor",
        "street": "Rua Menino Jesus",
        "zipcode": "87114-541"
    },
    {
        "city": "Sarandi",
        "state": "PR",
        "district": "Parque Residencial Bom Pastor",
        "street": "Rua Monte das Oliveiras",
        "zipcode": "87114-542"
    },
    {
        "city": "Sarandi",
        "state": "PR",
        "district": "Parque Residencial Bom Pastor",
        "street": "Rua da Samaritana",
        "zipcode": "87114-543"
    },
    {
        "city": "Sarandi",
        "state": "PR",
        "district": "Parque Residencial Bom Pastor",
        "street": "Rua Caminho de Damasco",
        "zipcode": "87114-545"
    },
    {
        "city": "Sarandi",
        "state": "PR",
        "district": "Parque Residencial Bom Pastor",
        "street": "Rua Espírito Santo",
        "zipcode": "87114-546"
    },
    {
        "city": "Sarandi",
        "state": "PR",
        "district": "Parque Residencial Bom Pastor",
        "street": "Avenida Bom Pastor",
        "zipcode": "87114-552"
    },
    {
        "city": "Sarandi",
        "state": "PR",
        "district": "Parque Residencial Bom Pastor",
        "street": "Rua Mestre da Justiça",
        "zipcode": "87114-560"
    },
    {
        "city": "Sarandi",
        "state": "PR",
        "district": "Jardim Alphaville",
        "street": "Rua São João Batista",
        "zipcode": "87114-565"
    },
    {
        "city": "Sarandi",
        "state": "PR",
        "district": "Jardim Alphaville",
        "street": "Rua São José Operário",
        "zipcode": "87114-566"
    },
    {
        "city": "Sarandi",
        "state": "PR",
        "district": "Jardim Alphaville",
        "street": "Rua Santa Marta",
        "zipcode": "87114-568"
    },
    {
        "city": "Sarandi",
        "state": "PR",
        "district": "Jardim Alphaville",
        "street": "Rua Maria de Nazaré",
        "zipcode": "87114-570"
    },
    {
        "city": "Sarandi",
        "state": "PR",
        "district": "Jardim Alphaville",
        "street": "Rua São Felipe",
        "zipcode": "87114-575"
    },
    {
        "city": "Sarandi",
        "state": "PR",
        "district": "Jardim Alphaville",
        "street": "Rua São Thiago",
        "zipcode": "87114-576"
    },
    {
        "city": "Sarandi",
        "state": "PR",
        "district": "Parque Residencial Bom Pastor",
        "street": "Rua da Galiléia",
        "zipcode": "87114-538"
    },
    {
        "city": "Sarandi",
        "state": "PR",
        "district": "Jardim Alphaville",
        "street": "Rua São Dimas",
        "zipcode": "87114-590"
    },
    {
        "city": "Sarandi",
        "state": "PR",
        "district": "Jardim Alphaville",
        "street": "Rua São Lázaro",
        "zipcode": "87114-567"
    },
    {
        "city": "Sarandi",
        "state": "PR",
        "district": "Jardim Alphaville",
        "street": "Rua São Judas Tadeu",
        "zipcode": "87114-585"
    },
    {
        "city": "Sarandi",
        "state": "PR",
        "district": "Jardim Ouro Verde III",
        "street": "Rua Projetada B",
        "zipcode": "87114-188"
    },
    {
        "city": "Sarandi",
        "state": "PR",
        "district": "Jardim Ouro Verde III",
        "street": "Rua Projetada C",
        "zipcode": "87114-187"
    },
    {
        "city": "Sarandi",
        "state": "PR",
        "district": "Jardim Ouro Verde III",
        "street": "Rua Projetada D",
        "zipcode": "87114-186"
    },
    {
        "city": "Sarandi",
        "state": "PR",
        "district": "Jardim Ouro Verde III",
        "street": "Rua Jamil Padovani",
        "zipcode": "87114-185"
    },
    {
        "city": "Sarandi",
        "state": "PR",
        "district": "Jardim Ouro Verde III",
        "street": "Rua Projetada F",
        "zipcode": "87114-184"
    },
    {
        "city": "Sarandi",
        "state": "PR",
        "district": "Jardim Ouro Verde III",
        "street": "Rua Projetada G",
        "zipcode": "87114-183"
    },
    {
        "city": "Sarandi",
        "state": "PR",
        "district": "Jardim Ouro Verde III",
        "street": "Rua Projetada H",
        "zipcode": "87114-182"
    },
    {
        "city": "Sarandi",
        "state": "PR",
        "district": "Jardim Ouro Verde III",
        "street": "Rua Projetada I",
        "zipcode": "87114-181"
    },
    {
        "city": "Sarandi",
        "state": "PR",
        "district": "Jardim Ouro Verde III",
        "street": "Rua Projetada K",
        "zipcode": "87114-178"
    },
    {
        "city": "Sarandi",
        "state": "PR",
        "district": "Jardim Ouro Verde III",
        "street": "Rua Projetada N",
        "zipcode": "87114-175"
    },
    {
        "city": "Sarandi",
        "state": "PR",
        "district": "Jardim Ouro Verde III",
        "street": "Rua Projetada P",
        "zipcode": "87114-173"
    },
    {
        "city": "Sarandi",
        "state": "PR",
        "district": "Jardim Ouro Verde III",
        "street": "Rua Q",
        "zipcode": "87114-172"
    },
    {
        "city": "Sarandi",
        "state": "PR",
        "district": "Jardim Ouro Verde III",
        "street": "Rua Projetada R",
        "zipcode": "87114-194"
    },
    {
        "city": "Sarandi",
        "state": "PR",
        "district": "Jardim Ouro Verde III",
        "street": "Rua Projetada S",
        "zipcode": "87114-191"
    },
    {
        "city": "Sarandi",
        "state": "PR",
        "district": "Jardim Ouro Verde III",
        "street": "Rua Pioneiro Vitório Volpato",
        "zipcode": "87114-189"
    },
    {
        "city": "Sarandi",
        "state": "PR",
        "district": "Jardim Ouro Verde III",
        "street": "Rua Projetada J",
        "zipcode": "87114-179"
    },
    {
        "city": "Sarandi",
        "state": "PR",
        "district": "Jardim Ouro Verde III",
        "street": "Rua Projetada M",
        "zipcode": "87114-176"
    },
    {
        "city": "Sarandi",
        "state": "PR",
        "district": "Jardim Ouro Verde III",
        "street": "Rua Projetada O",
        "zipcode": "87114-174"
    },
    {
        "city": "Sarandi",
        "state": "PR",
        "district": "Jardim Escala",
        "street": "Avenida Atlântica",
        "zipcode": "87114-170"
    },
    {
        "city": "Sarandi",
        "state": "PR",
        "district": "Jardim Universal",
        "street": "Rua Céu Azul",
        "zipcode": "87114-310"
    },
    {
        "city": "Sarandi",
        "state": "PR",
        "district": "Jardim Escala",
        "street": "Rua Florianópolis",
        "zipcode": "87114-220"
    },
    {
        "city": "Sarandi",
        "state": "PR",
        "district": "Jardim Universal",
        "street": "Rua Galáxia",
        "zipcode": "87114-505"
    },
    {
        "city": "Sarandi",
        "state": "PR",
        "district": "Jardim Escala",
        "street": "Rua Geraldo Xavier",
        "zipcode": "87114-180"
    },
    {
        "city": "Sarandi",
        "state": "PR",
        "district": "Jardim Independência III",
        "street": "Avenida Independência",
        "zipcode": "87114-260"
    },
    {
        "city": "Sarandi",
        "state": "PR",
        "district": "Jardim Independência III",
        "street": "Avenida Itororó",
        "zipcode": "87114-270"
    },
    {
        "city": "Sarandi",
        "state": "PR",
        "district": "Jardim Universal",
        "street": "Rua Júlio Verner",
        "zipcode": "87114-300"
    },
    {
        "city": "Sarandi",
        "state": "PR",
        "district": "Jardim Independência III",
        "street": "Avenida da Laguna",
        "zipcode": "87114-250"
    },
    {
        "city": "Sarandi",
        "state": "PR",
        "district": "Jardim Escala",
        "street": "Rua Luiz Rezzini",
        "zipcode": "87114-210"
    },
    {
        "city": "Sarandi",
        "state": "PR",
        "district": "Jardim Escala",
        "street": "Avenida Major Afonso Delambert de Oliveira",
        "zipcode": "87114-160"
    },
    {
        "city": "Sarandi",
        "state": "PR",
        "district": "Jardim Ouro Verde II",
        "street": "Rua Antonio Sanchez",
        "zipcode": "87114-162"
    },
    {
        "city": "Sarandi",
        "state": "PR",
        "district": "Jardim Ouro Verde II",
        "street": "Rua Arnaldo Posso",
        "zipcode": "87114-164"
    },
    {
        "city": "Sarandi",
        "state": "PR",
        "district": "Jardim Ouro Verde II",
        "street": "Rua Alcides Nunes Ita Jorente",
        "zipcode": "87114-166"
    },
    {
        "city": "Sarandi",
        "state": "PR",
        "district": "Jardim Universal",
        "street": "Avenida Morangueira",
        "zipcode": "87114-290"
    },
    {
        "city": "Sarandi",
        "state": "PR",
        "district": "Jardim Universal",
        "street": "Rua Plutão",
        "zipcode": "87114-510"
    },
    {
        "city": "Sarandi",
        "state": "PR",
        "district": "Jardim Universal",
        "street": "Rua Netuno",
        "zipcode": "87114-515"
    },
    {
        "city": "Sarandi",
        "state": "PR",
        "district": "Jardim Escala",
        "street": "Rua Porto Alegre",
        "zipcode": "87114-200"
    },
    {
        "city": "Sarandi",
        "state": "PR",
        "district": "Jardim Independência III",
        "street": "Avenida Riachuelo",
        "zipcode": "87114-240"
    },
    {
        "city": "Sarandi",
        "state": "PR",
        "district": "Jardim Escala",
        "street": "Rua Recife",
        "zipcode": "87114-190"
    },
    {
        "city": "Sarandi",
        "state": "PR",
        "district": "Jardim Independência III",
        "street": "Avenida Rio Branco",
        "zipcode": "87114-230"
    },
    {
        "city": "Sarandi",
        "state": "PR",
        "district": "Jardim Universal",
        "street": "Rua Saturno",
        "zipcode": "87114-516"
    },
    {
        "city": "Sarandi",
        "state": "PR",
        "district": "Parque Residencial Bom Pastor",
        "street": "Rua Jesus Retirante",
        "zipcode": "87114-520"
    },
    {
        "city": "Sarandi",
        "state": "PR",
        "district": "Jardim Universal",
        "street": "Avenida Universal",
        "zipcode": "87114-280"
    },
    {
        "city": "Sarandi",
        "state": "PR",
        "district": "Jardim Universal",
        "street": "Travessa Xavantes",
        "zipcode": "87114-285"
    },
    {
        "city": "Sarandi",
        "state": "PR",
        "district": "Jardim Universal",
        "street": "Rua Ursa Maior",
        "zipcode": "87114-517"
    },
    {
        "city": "Sarandi",
        "state": "PR",
        "district": "Jardim Independência III",
        "street": "Viela 2",
        "zipcode": "87114-266"
    },
    {
        "city": "Sarandi",
        "state": "PR",
        "district": "Jardim Independência III",
        "street": "Viela 1",
        "zipcode": "87114-265"
    },
    {
        "city": "Sarandi",
        "state": "PR",
        "district": "Jardim Independência III",
        "street": "Viela 3",
        "zipcode": "87114-267"
    },
    {
        "city": "Sarandi",
        "state": "PR",
        "district": "Parque Residencial Bom Pastor",
        "street": "Rua Jesus de Nazaré",
        "zipcode": "87114-521"
    },
    {
        "city": "Sarandi",
        "state": "PR",
        "district": "Parque Residencial Bom Pastor",
        "street": "Rua Jesus Eucarístico",
        "zipcode": "87114-522"
    },
    {
        "city": "Sarandi",
        "state": "PR",
        "district": "Parque Residencial Bom Pastor",
        "street": "Rua Mestre da Vida",
        "zipcode": "87114-525"
    },
    {
        "city": "Sarandi",
        "state": "PR",
        "district": "Jardim Ouro Verde II",
        "street": "Praça João Alberto Cardoso",
        "zipcode": "87114-149"
    },
    {
        "city": "Sarandi",
        "state": "PR",
        "district": "Jardim Sarandi I",
        "street": "Rua Rio Brilhante",
        "zipcode": "87112-052"
    },
    {
        "city": "Sarandi",
        "state": "PR",
        "district": "Parque Alvamar II",
        "street": "Rua Alexandre Rudolf Vas",
        "zipcode": "87113-560"
    },
    {
        "city": "Sarandi",
        "state": "PR",
        "district": "Jardim Independência",
        "street": "Rua Carlos Gomes",
        "zipcode": "87114-110"
    },
    {
        "city": "Sarandi",
        "state": "PR",
        "district": "Jardim Independência",
        "street": "Rua Castro Alves",
        "zipcode": "87114-090"
    },
    {
        "city": "Sarandi",
        "state": "PR",
        "district": "Jardim Independência",
        "street": "Avenida Danilo Massuia",
        "zipcode": "87114-030"
    },
    {
        "city": "Sarandi",
        "state": "PR",
        "district": "Jardim Independência III",
        "street": "Rua Dom João VI",
        "zipcode": "87114-060"
    },
    {
        "city": "Sarandi",
        "state": "PR",
        "district": "Parque Pioneiros",
        "street": "Rua Duque de Caxias",
        "zipcode": "87114-130"
    },
    {
        "city": "Sarandi",
        "state": "PR",
        "district": "Parque Pioneiros",
        "street": "Rua Euclides da Cunha",
        "zipcode": "87114-140"
    },
    {
        "city": "Sarandi",
        "state": "PR",
        "district": "Jardim Independência",
        "street": "Rua José Bonifácio",
        "zipcode": "87114-050"
    },
    {
        "city": "Sarandi",
        "state": "PR",
        "district": "Jardim Independência",
        "street": "Avenida Londrina",
        "zipcode": "87114-010"
    },
    {
        "city": "Sarandi",
        "state": "PR",
        "district": "Jardim Independência",
        "street": "Rua Machado de Assis",
        "zipcode": "87114-100"
    },
    {
        "city": "Sarandi",
        "state": "PR",
        "district": "Parque Pioneiros",
        "street": "Rua Pedro Álvares Cabral",
        "zipcode": "87114-120"
    },
    {
        "city": "Sarandi",
        "state": "PR",
        "district": "Jardim Independência",
        "street": "Rua Princesa Isabel",
        "zipcode": "87114-040"
    },
    {
        "city": "Sarandi",
        "state": "PR",
        "district": "Parque Alvamar II",
        "street": "Rua Rio Alonso",
        "zipcode": "87113-640"
    },
    {
        "city": "Sarandi",
        "state": "PR",
        "district": "Jardim Tropical",
        "street": "Rua Dezesseis",
        "zipcode": "87113-823"
    },
    {
        "city": "Sarandi",
        "state": "PR",
        "district": "Jardim Tropical",
        "street": "Rua Teodora Elias de Oliveira",
        "zipcode": "87113-824"
    },
    {
        "city": "Sarandi",
        "state": "PR",
        "district": "Jardim Tropical",
        "street": "Rua Dezoito",
        "zipcode": "87113-825"
    },
    {
        "city": "Sarandi",
        "state": "PR",
        "district": "Jardim Tropical",
        "street": "Rua Vinte",
        "zipcode": "87113-826"
    },
    {
        "city": "Sarandi",
        "state": "PR",
        "district": "Jardim Tropical",
        "street": "Rua Vinte e Um",
        "zipcode": "87113-827"
    },
    {
        "city": "Sarandi",
        "state": "PR",
        "district": "Jardim Tropical",
        "street": "Rua Vinte e Dois",
        "zipcode": "87113-828"
    },
    {
        "city": "Sarandi",
        "state": "PR",
        "district": "Jardim Tropical",
        "street": "Rua Vinte e Quatro",
        "zipcode": "87113-829"
    },
    {
        "city": "Sarandi",
        "state": "PR",
        "district": "Jardim Tropical",
        "street": "Rua Vinte e Sete",
        "zipcode": "87113-830"
    },
    {
        "city": "Sarandi",
        "state": "PR",
        "district": "Jardim Tropical",
        "street": "Rua Vinte e Oito",
        "zipcode": "87113-831"
    },
    {
        "city": "Sarandi",
        "state": "PR",
        "district": "Jardim Ouro Verde II",
        "street": "Rua 1",
        "zipcode": "87114-142"
    },
    {
        "city": "Sarandi",
        "state": "PR",
        "district": "Jardim Ouro Verde II",
        "street": "Rua Pioneiro João Francalin",
        "zipcode": "87114-144"
    },
    {
        "city": "Sarandi",
        "state": "PR",
        "district": "Jardim Ouro Verde II",
        "street": "Rua José Machado",
        "zipcode": "87114-146"
    },
    {
        "city": "Sarandi",
        "state": "PR",
        "district": "Jardim Ouro Verde II",
        "street": "Rua Wilson Sinésio Signorini",
        "zipcode": "87114-148"
    },
    {
        "city": "Sarandi",
        "state": "PR",
        "district": "Jardim Ouro Verde II",
        "street": "Rua João Batista Rezende",
        "zipcode": "87114-152"
    },
    {
        "city": "Sarandi",
        "state": "PR",
        "district": "Jardim Ouro Verde II",
        "street": "Rua 6",
        "zipcode": "87114-154"
    },
    {
        "city": "Sarandi",
        "state": "PR",
        "district": "Jardim Ouro Verde II",
        "street": "Avenida Pioneiro Antonio Ferreira Filho",
        "zipcode": "87114-155"
    },
    {
        "city": "Sarandi",
        "state": "PR",
        "district": "Jardim Ouro Verde II",
        "street": "Avenida Rio Branco",
        "zipcode": "87114-156"
    },
    {
        "city": "Sarandi",
        "state": "PR",
        "district": "Parque Pioneiros",
        "street": "Rua Vaz Caminha",
        "zipcode": "87114-138"
    },
    {
        "city": "Sarandi",
        "state": "PR",
        "district": "Parque Alvamar II",
        "street": "Rua Rio Cantu",
        "zipcode": "87113-610"
    },
    {
        "city": "Sarandi",
        "state": "PR",
        "district": "Parque Alvamar II",
        "street": "Rua Rio Capivari",
        "zipcode": "87113-660"
    },
    {
        "city": "Sarandi",
        "state": "PR",
        "district": "Parque Alvamar II",
        "street": "Rua Rio Chopim",
        "zipcode": "87113-630"
    },
    {
        "city": "Sarandi",
        "state": "PR",
        "district": "Parque Alvamar II",
        "street": "Rua Rio Corumbataí",
        "zipcode": "87113-670"
    },
    {
        "city": "Sarandi",
        "state": "PR",
        "district": "Parque Alvamar II",
        "street": "Rua Rio Iguaçu",
        "zipcode": "87113-600"
    },
    {
        "city": "Sarandi",
        "state": "PR",
        "district": "Parque Alvamar II",
        "street": "Rua Rio Itararé",
        "zipcode": "87113-650"
    },
    {
        "city": "Sarandi",
        "state": "PR",
        "district": "Parque Alvamar II",
        "street": "Rua Rio Negro",
        "zipcode": "87113-620"
    },
    {
        "city": "Sarandi",
        "state": "PR",
        "district": "Parque Alvamar II",
        "street": "Rua Rio Tibagi",
        "zipcode": "87113-570"
    },
    {
        "city": "Sarandi",
        "state": "PR",
        "district": "Jardim Independência",
        "street": "Rua Tiradentes",
        "zipcode": "87114-070"
    },
    {
        "city": "Sarandi",
        "state": "PR",
        "district": "Parque Alvamar II",
        "street": "Rua Rio Pirapó",
        "zipcode": "87113-590"
    },
    {
        "city": "Sarandi",
        "state": "PR",
        "district": "Jardim Independência",
        "street": "Rua Marechal Deodoro",
        "zipcode": "87114-080"
    },
    {
        "city": "Sarandi",
        "state": "PR",
        "district": "Jardim Independência",
        "street": "Avenida Rui Barbosa",
        "zipcode": "87114-020"
    },
    {
        "city": "Sarandi",
        "state": "PR",
        "district": "Parque Alvamar II",
        "street": "Rua Rio Paranapanema",
        "zipcode": "87113-580"
    },
    {
        "city": "Sarandi",
        "state": "PR",
        "district": "Jardim Independência",
        "street": "Rua Josefina Maria de Jesus",
        "zipcode": "87114-065"
    },
    {
        "city": "Sarandi",
        "state": "PR",
        "district": "Parque Alvamar II",
        "street": "Avenida Mário Antônio Farkas",
        "zipcode": "87113-510"
    },
    {
        "city": "Sarandi",
        "state": "PR",
        "district": "Parque Alvamar",
        "street": "Rua Aglacir Binda Albert",
        "zipcode": "87113-460"
    },
    {
        "city": "Sarandi",
        "state": "PR",
        "district": "Parque Alvamar",
        "street": "Rua Alexandra Dziuba",
        "zipcode": "87113-480"
    },
    {
        "city": "Sarandi",
        "state": "PR",
        "district": "Jardim Europa",
        "street": "Avenida Ademar Bornia",
        "zipcode": "87113-000"
    },
    {
        "city": "Sarandi",
        "state": "PR",
        "district": "Jardim Independência II",
        "street": "Avenida Anchieta",
        "zipcode": "87113-270"
    },
    {
        "city": "Sarandi",
        "state": "PR",
        "district": "Jardim Panorama",
        "street": "Avenida Barcelona",
        "zipcode": "87113-230"
    },
    {
        "city": "Sarandi",
        "state": "PR",
        "district": "Jardim Independência II",
        "street": "Avenida Brasil",
        "zipcode": "87113-260"
    },
    {
        "city": "Sarandi",
        "state": "PR",
        "district": "Jardim Panorama",
        "street": "Rua Carlos Gomes",
        "zipcode": "87113-100"
    },
    {
        "city": "Sarandi",
        "state": "PR",
        "district": "Jardim Panorama",
        "street": "Rua Castro Alves",
        "zipcode": "87113-080"
    },
    {
        "city": "Sarandi",
        "state": "PR",
        "district": "Parque Alvamar II",
        "street": "Rua Conceição Aparecida de Magalhães",
        "zipcode": "87113-520"
    },
    {
        "city": "Sarandi",
        "state": "PR",
        "district": "Novo Panorama",
        "street": "Rua Cristóvão Colombo",
        "zipcode": "87113-180"
    },
    {
        "city": "Sarandi",
        "state": "PR",
        "district": "Jardim Independência II",
        "street": "Avenida Dom Pedro I",
        "zipcode": "87113-280"
    },
    {
        "city": "Sarandi",
        "state": "PR",
        "district": "Jardim Panorama",
        "street": "Rua Duque de Caxias",
        "zipcode": "87113-120"
    },
    {
        "city": "Sarandi",
        "state": "PR",
        "district": "Jardim Panorama",
        "street": "Rua Euclides da Cunha",
        "zipcode": "87113-130"
    },
    {
        "city": "Sarandi",
        "state": "PR",
        "district": "Novo Panorama",
        "street": "Rua Fernando Bressa",
        "zipcode": "87113-190"
    },
    {
        "city": "Sarandi",
        "state": "PR",
        "district": "Jardim Monterey",
        "street": "Rua Flamboyant",
        "zipcode": "87112-815"
    },
    {
        "city": "Sarandi",
        "state": "PR",
        "district": "Jardim Monterey",
        "street": "Rua das Grevíleas",
        "zipcode": "87112-809"
    },
    {
        "city": "Sarandi",
        "state": "PR",
        "district": "Novo Panorama",
        "street": "Travessa Jandaia do Sul",
        "zipcode": "87113-198"
    },
    {
        "city": "Sarandi",
        "state": "PR",
        "district": "Jardim Panorama",
        "street": "Rua Dom João VI",
        "zipcode": "87113-050"
    },
    {
        "city": "Sarandi",
        "state": "PR",
        "district": "Jardim Panorama",
        "street": "Rua José Bonifácio",
        "zipcode": "87113-040"
    },
    {
        "city": "Sarandi",
        "state": "PR",
        "district": "Jardim Panorama",
        "street": "Rua Juraci Terra Guelfi",
        "zipcode": "87113-210"
    },
    {
        "city": "Sarandi",
        "state": "PR",
        "district": "Jardim Panorama",
        "street": "Rua Machado de Assis",
        "zipcode": "87113-090"
    },
    {
        "city": "Sarandi",
        "state": "PR",
        "district": "Novo Panorama",
        "street": "Travessa Mandaguaçu",
        "zipcode": "87113-195"
    },
    {
        "city": "Sarandi",
        "state": "PR",
        "district": "Novo Panorama",
        "street": "Travessa Mandaguari",
        "zipcode": "87113-197"
    },
    {
        "city": "Sarandi",
        "state": "PR",
        "district": "Novo Panorama",
        "street": "Travessa Maringá",
        "zipcode": "87113-196"
    },
    {
        "city": "Sarandi",
        "state": "PR",
        "district": "Parque Alvamar",
        "street": "Rua Milton Tavares Paes",
        "zipcode": "87113-450"
    },
    {
        "city": "Sarandi",
        "state": "PR",
        "district": "Jardim Panorama",
        "street": "Avenida Montreal",
        "zipcode": "87113-220"
    },
    {
        "city": "Sarandi",
        "state": "PR",
        "district": "Parque Alvamar",
        "street": "Travessa da Paz",
        "zipcode": "87113-500"
    },
    {
        "city": "Sarandi",
        "state": "PR",
        "district": "Jardim Panorama",
        "street": "Rua Pedro Álvares Cabral",
        "zipcode": "87113-110"
    },
    {
        "city": "Sarandi",
        "state": "PR",
        "district": "Jardim Monterey",
        "street": "Rua dos Pinheiros",
        "zipcode": "87112-808"
    },
    {
        "city": "Sarandi",
        "state": "PR",
        "district": "Jardim Panorama",
        "street": "Rua Princesa Isabel",
        "zipcode": "87113-030"
    },
    {
        "city": "Sarandi",
        "state": "PR",
        "district": "Jardim Triângulo",
        "street": "Rua Projetada Cinco",
        "zipcode": "87112-830"
    },
    {
        "city": "Sarandi",
        "state": "PR",
        "district": "Jardim Triângulo",
        "street": "Rua Projetada Quatro",
        "zipcode": "87112-820"
    },
    {
        "city": "Sarandi",
        "state": "PR",
        "district": "Jardim Triângulo",
        "street": "Rua Projetada Seis",
        "zipcode": "87112-835"
    },
    {
        "city": "Sarandi",
        "state": "PR",
        "district": "Parque Alvamar II",
        "street": "Rua Rio da Prata",
        "zipcode": "87113-540"
    },
    {
        "city": "Sarandi",
        "state": "PR",
        "district": "Parque Alvamar II",
        "street": "Rua Rio Pardinho",
        "zipcode": "87113-550"
    },
    {
        "city": "Sarandi",
        "state": "PR",
        "district": "Jardim Panorama",
        "street": "Rua Tiradentes",
        "zipcode": "87113-060"
    },
    {
        "city": "Sarandi",
        "state": "PR",
        "district": "Jardim Monterey",
        "street": "Avenida das Torres",
        "zipcode": "87112-816"
    },
    {
        "city": "Sarandi",
        "state": "PR",
        "district": "Parque Alvamar",
        "street": "Rua Romualdo Eschholz",
        "zipcode": "87113-470"
    },
    {
        "city": "Sarandi",
        "state": "PR",
        "district": "Parque Alvamar II",
        "street": "Rua Trinta",
        "zipcode": "87113-530"
    },
    {
        "city": "Sarandi",
        "state": "PR",
        "district": "Jardim Panorama",
        "street": "Rua Vereador José Fernandes",
        "zipcode": "87113-010"
    },
    {
        "city": "Sarandi",
        "state": "PR",
        "district": "Novo Panorama",
        "street": "Travessa Apucarana",
        "zipcode": "87113-199"
    },
    {
        "city": "Sarandi",
        "state": "PR",
        "district": "Jardim Panorama",
        "street": "Rua Santos Andrade",
        "zipcode": "87113-020"
    },
    {
        "city": "Sarandi",
        "state": "PR",
        "district": "Parque Alvamar",
        "street": "Travessa Harmonia",
        "zipcode": "87113-490"
    },
    {
        "city": "Sarandi",
        "state": "PR",
        "district": "Jardim Panorama",
        "street": "Rua Marechal Deodoro",
        "zipcode": "87113-070"
    },
    {
        "city": "Sarandi",
        "state": "PR",
        "district": "Jardim Triângulo",
        "street": "Rua Projetada Três",
        "zipcode": "87112-810"
    },
    {
        "city": "Sarandi",
        "state": "PR",
        "district": "Jardim Independência II",
        "street": "Avenida Belo Horizonte",
        "zipcode": "87113-240"
    },
    {
        "city": "Sarandi",
        "state": "PR",
        "district": "Parque São Pedro",
        "street": "Avenida Ângelo Perine",
        "zipcode": "87112-400"
    },
    {
        "city": "Sarandi",
        "state": "PR",
        "district": "Parque São Pedro",
        "street": "Rua Antônio Pérola",
        "zipcode": "87112-410"
    },
    {
        "city": "Sarandi",
        "state": "PR",
        "district": "Jardim Esplanada",
        "street": "Rua Aquidauana",
        "zipcode": "87112-380"
    },
    {
        "city": "Sarandi",
        "state": "PR",
        "district": "Conjunto Floresta",
        "street": "Rua Arapongas",
        "zipcode": "87112-620"
    },
    {
        "city": "Sarandi",
        "state": "PR",
        "district": "Conjunto Floresta",
        "street": "Rua das Araras",
        "zipcode": "87112-650"
    },
    {
        "city": "Sarandi",
        "state": "PR",
        "district": "Parque Residencial Santana",
        "street": "Rua Arco",
        "zipcode": "87112-577"
    },
    {
        "city": "Sarandi",
        "state": "PR",
        "district": "Jardim Monterey",
        "street": "Rua Azaléias",
        "zipcode": "87112-789"
    },
    {
        "city": "Sarandi",
        "state": "PR",
        "district": "Conjunto Floresta",
        "street": "Estrada Baptista Bossato",
        "zipcode": "87112-780"
    },
    {
        "city": "Sarandi",
        "state": "PR",
        "district": "Conjunto Floresta",
        "street": "Avenida das Andorinhas",
        "zipcode": "87112-660"
    },
    {
        "city": "Sarandi",
        "state": "PR",
        "district": "Parque São Pedro",
        "street": "Rua Bogotá",
        "zipcode": "87112-540"
    },
    {
        "city": "Sarandi",
        "state": "PR",
        "district": "Conjunto Floresta",
        "street": "Rua Bem",
        "zipcode": "87112-670"
    },
    {
        "city": "Sarandi",
        "state": "PR",
        "district": "Jardim Castelo",
        "street": "Rua Brasília",
        "zipcode": "87112-530"
    },
    {
        "city": "Sarandi",
        "state": "PR",
        "district": "Jardim Monterey",
        "street": "Rua Campos Gerais",
        "zipcode": "87112-788"
    },
    {
        "city": "Sarandi",
        "state": "PR",
        "district": "Jardim Castelo",
        "street": "Rua Canadá",
        "zipcode": "87112-560"
    },
    {
        "city": "Sarandi",
        "state": "PR",
        "district": "Jardim Castelo",
        "street": "Rua Caracas",
        "zipcode": "87112-550"
    },
    {
        "city": "Sarandi",
        "state": "PR",
        "district": "Jardim Monterey",
        "street": "Rua Carvalho",
        "zipcode": "87112-807"
    },
    {
        "city": "Sarandi",
        "state": "PR",
        "district": "Jardim Monterey",
        "street": "Rua dos Cedros",
        "zipcode": "87112-797"
    },
    {
        "city": "Sarandi",
        "state": "PR",
        "district": "Jardim Monterey",
        "street": "Rua das Cerejeiras",
        "zipcode": "87112-786"
    },
    {
        "city": "Sarandi",
        "state": "PR",
        "district": "Parque Residencial Santana",
        "street": "Travessa Canção",
        "zipcode": "87112-595"
    },
    {
        "city": "Sarandi",
        "state": "PR",
        "district": "Conjunto Floresta",
        "street": "Rua Curió",
        "zipcode": "87112-630"
    },
    {
        "city": "Sarandi",
        "state": "PR",
        "district": "Jardim Monterey",
        "street": "Travessa Floral",
        "zipcode": "87112-787"
    },
    {
        "city": "Sarandi",
        "state": "PR",
        "district": "Jardim Monterey",
        "street": "Rua Ipês",
        "zipcode": "87112-806"
    },
    {
        "city": "Sarandi",
        "state": "PR",
        "district": "Jardim Castelo",
        "street": "Rua José Munhoz",
        "zipcode": "87112-610"
    },
    {
        "city": "Sarandi",
        "state": "PR",
        "district": "Parque Residencial Santana",
        "street": "Rua dos Livramentos",
        "zipcode": "87112-579"
    },
    {
        "city": "Sarandi",
        "state": "PR",
        "district": "Jardim Esplanada",
        "street": "Estrada Mara",
        "zipcode": "87112-390"
    },
    {
        "city": "Sarandi",
        "state": "PR",
        "district": "Jardim Monterey",
        "street": "Rua dos Mógnos",
        "zipcode": "87112-805"
    },
    {
        "city": "Sarandi",
        "state": "PR",
        "district": "Jardim Castelo",
        "street": "Avenida Montevidéu",
        "zipcode": "87112-580"
    },
    {
        "city": "Sarandi",
        "state": "PR",
        "district": "Parque São Pedro",
        "street": "Rua da Nave",
        "zipcode": "87112-520"
    },
    {
        "city": "Sarandi",
        "state": "PR",
        "district": "Parque Residencial Santana",
        "street": "Travessa Nova Iguaçu",
        "zipcode": "87112-575"
    },
    {
        "city": "Sarandi",
        "state": "PR",
        "district": "Conjunto Floresta",
        "street": "Rua Octávio Colli",
        "zipcode": "87112-600"
    },
    {
        "city": "Sarandi",
        "state": "PR",
        "district": "Jardim Monterey",
        "street": "Rua Pau",
        "zipcode": "87112-798"
    },
    {
        "city": "Sarandi",
        "state": "PR",
        "district": "Jardim Monterey",
        "street": "Rua Pau",
        "zipcode": "87112-799"
    },
    {
        "city": "Sarandi",
        "state": "PR",
        "district": "Jardim Monterey",
        "street": "Avenida Projetada A",
        "zipcode": "87112-795"
    },
    {
        "city": "Sarandi",
        "state": "PR",
        "district": "Jardim Triângulo",
        "street": "Rua Projetada Dois",
        "zipcode": "87112-800"
    },
    {
        "city": "Sarandi",
        "state": "PR",
        "district": "Jardim Triângulo",
        "street": "Avenida Projetada 1",
        "zipcode": "87112-785"
    },
    {
        "city": "Sarandi",
        "state": "PR",
        "district": "Jardim Triângulo",
        "street": "Rua Projetada Um",
        "zipcode": "87112-790"
    },
    {
        "city": "Sarandi",
        "state": "PR",
        "district": "Conjunto Floresta",
        "street": "Rua Sabiá",
        "zipcode": "87112-760"
    },
    {
        "city": "Sarandi",
        "state": "PR",
        "district": "Parque Residencial Santana",
        "street": "Travessa São João",
        "zipcode": "87112-578"
    },
    {
        "city": "Sarandi",
        "state": "PR",
        "district": "Conjunto Floresta",
        "street": "Rua dos Tucanos",
        "zipcode": "87112-640"
    },
    {
        "city": "Sarandi",
        "state": "PR",
        "district": "Jardim Castelo",
        "street": "Rua Bolívia",
        "zipcode": "87112-570"
    },
    {
        "city": "Sarandi",
        "state": "PR",
        "district": "Jardim Castelo",
        "street": "Avenida das Américas",
        "zipcode": "87112-566"
    },
    {
        "city": "Sarandi",
        "state": "PR",
        "district": "Jardim Castelo",
        "street": "Rua dos Estados",
        "zipcode": "87112-567"
    },
    {
        "city": "Sarandi",
        "state": "PR",
        "district": "Parque São Pedro",
        "street": "Rua Ângelo Perine",
        "zipcode": "87112-405"
    },
    {
        "city": "Sarandi",
        "state": "PR",
        "district": "Parque Residencial Santana",
        "street": "Rua Santana",
        "zipcode": "87112-576"
    },
    {
        "city": "Sarandi",
        "state": "PR",
        "district": "Jardim Imperial",
        "street": "Rua Imperador",
        "zipcode": "87112-317"
    },
    {
        "city": "Sarandi",
        "state": "PR",
        "district": "Jardim Imperial",
        "street": "Rua Luiz Francalin Feitosa",
        "zipcode": "87112-316"
    },
    {
        "city": "Sarandi",
        "state": "PR",
        "district": "Jardim Esplanada",
        "street": "Rua Pioneiro Francisco Brogio",
        "zipcode": "87112-375"
    },
    {
        "city": "Sarandi",
        "state": "PR",
        "district": "Jardim Imperial",
        "street": "Rua Barão do Rio Branco",
        "zipcode": "87112-314"
    },
    {
        "city": "Sarandi",
        "state": "PR",
        "district": "Jardim Imperial",
        "street": "Rua Barão de Mauá",
        "zipcode": "87112-313"
    },
    {
        "city": "Sarandi",
        "state": "PR",
        "district": "Jardim Higienópolis",
        "street": "Rua Barão do Rio Branco",
        "zipcode": "87112-194"
    },
    {
        "city": "Sarandi",
        "state": "PR",
        "district": "Jardim Cometa",
        "street": "Rua Barão do Rio Branco",
        "zipcode": "87112-134"
    },
    {
        "city": "Sarandi",
        "state": "PR",
        "district": "Jardim Nova Sarandi II",
        "street": "Rua Campo Grande",
        "zipcode": "87112-251"
    },
    {
        "city": "Sarandi",
        "state": "PR",
        "district": "Jardim Monte Libano",
        "street": "Avenida João Fragall",
        "zipcode": "87112-229"
    },
    {
        "city": "Sarandi",
        "state": "PR",
        "district": "Jardim Higienópolis",
        "street": "Rua Imperatriz Leopoldina",
        "zipcode": "87112-197"
    },
    {
        "city": "Sarandi",
        "state": "PR",
        "district": "Jardim Higienópolis",
        "street": "Rua Luiz Francalin Feitosa",
        "zipcode": "87112-195"
    },
    {
        "city": "Sarandi",
        "state": "PR",
        "district": "Jardim Higienópolis",
        "street": "Avenida Cuiabá",
        "zipcode": "87112-191"
    },
    {
        "city": "Sarandi",
        "state": "PR",
        "district": "Jardim Mercúrio",
        "street": "Rua Ana Néri",
        "zipcode": "87112-189"
    },
    {
        "city": "Sarandi",
        "state": "PR",
        "district": "Jardim Mercúrio",
        "street": "Rua Imperatriz Leopoldina",
        "zipcode": "87112-181"
    },
    {
        "city": "Sarandi",
        "state": "PR",
        "district": "Jardim Cometa",
        "street": "Avenida Cuiabá",
        "zipcode": "87112-131"
    },
    {
        "city": "Sarandi",
        "state": "PR",
        "district": "Jardim Esperança I",
        "street": "Rua Diamantino",
        "zipcode": "87112-127"
    },
    {
        "city": "Sarandi",
        "state": "PR",
        "district": "Jardim Esperança I",
        "street": "Rua Três Lagoas",
        "zipcode": "87112-126"
    },
    {
        "city": "Sarandi",
        "state": "PR",
        "district": "Jardim Esperança I",
        "street": "Rua Nova Andradina",
        "zipcode": "87112-124"
    },
    {
        "city": "Sarandi",
        "state": "PR",
        "district": "Jardim Esperança I",
        "street": "Rua Dourados",
        "zipcode": "87112-123"
    },
    {
        "city": "Sarandi",
        "state": "PR",
        "district": "Jardim Cometa",
        "street": "Rua Luiz Francalin Feitosa",
        "zipcode": "87112-135"
    },
    {
        "city": "Sarandi",
        "state": "PR",
        "district": "Jardim Nova Sarandi II",
        "street": "Rua Dourados",
        "zipcode": "87112-253"
    },
    {
        "city": "Sarandi",
        "state": "PR",
        "district": "Jardim Higienópolis",
        "street": "Rua Imperador",
        "zipcode": "87112-196"
    },
    {
        "city": "Sarandi",
        "state": "PR",
        "district": "Jardim Mercúrio",
        "street": "Rua Barão de Mauá",
        "zipcode": "87112-188"
    },
    {
        "city": "Sarandi",
        "state": "PR",
        "district": "Jardim Mercúrio",
        "street": "Rua Imperador",
        "zipcode": "87112-186"
    },
    {
        "city": "Sarandi",
        "state": "PR",
        "district": "Jardim Mercúrio",
        "street": "Rua Barão do Rio Branco",
        "zipcode": "87112-185"
    },
    {
        "city": "Sarandi",
        "state": "PR",
        "district": "Jardim Esperança I",
        "street": "Rua Ponta Porã",
        "zipcode": "87112-122"
    },
    {
        "city": "Sarandi",
        "state": "PR",
        "district": "Jardim Cometa",
        "street": "Rua Ana Néri",
        "zipcode": "87112-132"
    },
    {
        "city": "Sarandi",
        "state": "PR",
        "district": "Jardim Esperança I",
        "street": "Rua Campo Grande",
        "zipcode": "87112-121"
    },
    {
        "city": "Sarandi",
        "state": "PR",
        "district": "Parque Residencial Bela Vista",
        "street": "Rua Araxá",
        "zipcode": "87112-258"
    },
    {
        "city": "Sarandi",
        "state": "PR",
        "district": "Jardim Cometa",
        "street": "Avenida Cerro Azul",
        "zipcode": "87112-170"
    },
    {
        "city": "Sarandi",
        "state": "PR",
        "district": "Jardim Cometa",
        "street": "Rua Curitiba",
        "zipcode": "87112-160"
    },
    {
        "city": "Sarandi",
        "state": "PR",
        "district": "Parque Residencial Bela Vista",
        "street": "Rua Eldorado",
        "zipcode": "87112-256"
    },
    {
        "city": "Sarandi",
        "state": "PR",
        "district": "Jardim Cometa",
        "street": "Avenida Higienópolis",
        "zipcode": "87112-140"
    },
    {
        "city": "Sarandi",
        "state": "PR",
        "district": "Jardim Cometa",
        "street": "Avenida Ipanema",
        "zipcode": "87112-130"
    },
    {
        "city": "Sarandi",
        "state": "PR",
        "district": "Jardim Imperial",
        "street": "Avenida Imperial",
        "zipcode": "87112-190"
    },
    {
        "city": "Sarandi",
        "state": "PR",
        "district": "Jardim Perimetral",
        "street": "Rua Leste",
        "zipcode": "87111-020"
    },
    {
        "city": "Sarandi",
        "state": "PR",
        "district": "Jardim Monterey",
        "street": "Avenida Pioneira Maria Leibantti Brogio",
        "zipcode": "87112-315"
    },
    {
        "city": "Sarandi",
        "state": "PR",
        "district": "Parque Residencial Bela Vista",
        "street": "Rua Taquari",
        "zipcode": "87112-255"
    },
    {
        "city": "Sarandi",
        "state": "PR",
        "district": "Jardim Ana Elisa",
        "street": "Rua Wenceslau Braz",
        "zipcode": "87112-180"
    },
    {
        "city": "Sarandi",
        "state": "PR",
        "district": "Jardim Gralha Azul",
        "street": "Rua Luiz Amaral de Souza",
        "zipcode": "87112-110"
    },
    {
        "city": "Sarandi",
        "state": "PR",
        "district": "Parque Residencial Bela Vista",
        "street": "Avenida Amambai",
        "zipcode": "87112-257"
    },
    {
        "city": "Sarandi",
        "state": "PR",
        "district": "Jardim Itamarati",
        "street": "Rua Três Lagoas",
        "zipcode": "87112-087"
    },
    {
        "city": "Sarandi",
        "state": "PR",
        "district": "Jardim Gralha Azul",
        "street": "Rua Dourados",
        "zipcode": "87112-093"
    },
    {
        "city": "Sarandi",
        "state": "PR",
        "district": "Jardim Gralha Azul",
        "street": "Rua Campo Grande",
        "zipcode": "87112-091"
    },
    {
        "city": "Sarandi",
        "state": "PR",
        "district": "Jardim Itamarati",
        "street": "Rua Dourados",
        "zipcode": "87112-083"
    },
    {
        "city": "Sarandi",
        "state": "PR",
        "district": "Jardim Cruzeiro",
        "street": "Rua Naviraí",
        "zipcode": "87112-048"
    },
    {
        "city": "Sarandi",
        "state": "PR",
        "district": "Jardim Cruzeiro",
        "street": "Rua Três Lagoas",
        "zipcode": "87112-047"
    },
    {
        "city": "Sarandi",
        "state": "PR",
        "district": "Jardim Cruzeiro",
        "street": "Rua Diamantino",
        "zipcode": "87112-044"
    },
    {
        "city": "Sarandi",
        "state": "PR",
        "district": "Jardim Cruzeiro",
        "street": "Rua Dourados",
        "zipcode": "87112-043"
    },
    {
        "city": "Sarandi",
        "state": "PR",
        "district": "Parque Residencial Bela Vista II",
        "street": "Rua Coxim",
        "zipcode": "87112-036"
    },
    {
        "city": "Sarandi",
        "state": "PR",
        "district": "Parque Residencial Bela Vista II",
        "street": "Rua Xavantino",
        "zipcode": "87112-034"
    },
    {
        "city": "Sarandi",
        "state": "PR",
        "district": "Parque Residencial Bela Vista II",
        "street": "Rua Rio Brilhante",
        "zipcode": "87112-032"
    },
    {
        "city": "Sarandi",
        "state": "PR",
        "district": "Parque Residencial Bela Vista I",
        "street": "Rua Coxim",
        "zipcode": "87112-015"
    },
    {
        "city": "Sarandi",
        "state": "PR",
        "district": "Parque Residencial Bela Vista I",
        "street": "Rua Itiquira",
        "zipcode": "87112-014"
    },
    {
        "city": "Sarandi",
        "state": "PR",
        "district": "Centro",
        "street": "Praça Ipiranga",
        "zipcode": "87111-970"
    },
    {
        "city": "Sarandi",
        "state": "PR",
        "district": "Jardim Europa",
        "street": "Avenida Antônio Volpato",
        "zipcode": "87111-902"
    },
    {
        "city": "Sarandi",
        "state": "PR",
        "district": "Jardim Nova Paulista",
        "street": "Avenida Maringá",
        "zipcode": "87111-904"
    },
    {
        "city": "Sarandi",
        "state": "PR",
        "district": "Parque Residencial Bela Vista I",
        "street": "Rua Xavantino",
        "zipcode": "87112-013"
    },
    {
        "city": "Sarandi",
        "state": "PR",
        "district": "Parque Residencial Bela Vista I",
        "street": "Rua Rio Brilhante",
        "zipcode": "87112-012"
    },
    {
        "city": "Sarandi",
        "state": "PR",
        "district": "Parque Residencial Bela Vista I",
        "street": "Rua Camapuã",
        "zipcode": "87112-011"
    },
    {
        "city": "Sarandi",
        "state": "PR",
        "district": "Jardim Sarandi I",
        "street": "Rua Xavantino",
        "zipcode": "87112-054"
    },
    {
        "city": "Sarandi",
        "state": "PR",
        "district": "Jardim Ipanema",
        "street": "Rua Rio Brilhante",
        "zipcode": "87112-003"
    },
    {
        "city": "Sarandi",
        "state": "PR",
        "district": "Jardim Cruzeiro",
        "street": "Rua Nova Andradina",
        "zipcode": "87112-045"
    },
    {
        "city": "Sarandi",
        "state": "PR",
        "district": "Jardim Cruzeiro",
        "street": "Rua Ponta Porã",
        "zipcode": "87112-042"
    },
    {
        "city": "Sarandi",
        "state": "PR",
        "district": "Jardim Cruzeiro",
        "street": "Rua Campo Grande",
        "zipcode": "87112-041"
    },
    {
        "city": "Sarandi",
        "state": "PR",
        "district": "Parque Residencial Bela Vista II",
        "street": "Rua Camapuã",
        "zipcode": "87112-031"
    },
    {
        "city": "Sarandi",
        "state": "PR",
        "district": "Parque Residencial Bela Vista I",
        "street": "Rua Ladário",
        "zipcode": "87112-016"
    },
    {
        "city": "Sarandi",
        "state": "PR",
        "district": "Jardim Sarandi I",
        "street": "Rua Coxim",
        "zipcode": "87112-055"
    },
    {
        "city": "Sarandi",
        "state": "PR",
        "district": "Jardim Sarandi I",
        "street": "Rua Camapuã",
        "zipcode": "87112-051"
    },
    {
        "city": "Sarandi",
        "state": "PR",
        "district": "Jardim Ipanema",
        "street": "Rua Xavantino",
        "zipcode": "87112-005"
    },
    {
        "city": "Sarandi",
        "state": "PR",
        "district": "Jardim Gralha Azul",
        "street": "Rua Ponta Porã",
        "zipcode": "87112-092"
    },
    {
        "city": "Sarandi",
        "state": "PR",
        "district": "Jardim Ipanema",
        "street": "Rua Camapuã",
        "zipcode": "87112-002"
    },
    {
        "city": "Sarandi",
        "state": "PR",
        "district": "Vera Cruz",
        "street": "Rua Caetano Senhorini",
        "zipcode": "87111-766"
    },
    {
        "city": "Sarandi",
        "state": "PR",
        "district": "Parque Residencial Nova Aliança",
        "street": "Rua Cafezal",
        "zipcode": "87111-749"
    },
    {
        "city": "Sarandi",
        "state": "PR",
        "district": "Parque Residencial Nova Aliança",
        "street": "Rua Caramuru",
        "zipcode": "87111-750"
    },
    {
        "city": "Sarandi",
        "state": "PR",
        "district": "Vera Cruz",
        "street": "Avenida Castelo Branco",
        "zipcode": "87111-760"
    },
    {
        "city": "Sarandi",
        "state": "PR",
        "district": "Parque Residencial Nova Aliança",
        "street": "Rua Caxambu",
        "zipcode": "87111-755"
    },
    {
        "city": "Sarandi",
        "state": "PR",
        "district": "Jardim Gralha Azul",
        "street": "Rua Corumbá",
        "zipcode": "87112-100"
    },
    {
        "city": "Sarandi",
        "state": "PR",
        "district": "Vera Cruz",
        "street": "Rua João Saran",
        "zipcode": "87111-756"
    },
    {
        "city": "Sarandi",
        "state": "PR",
        "district": "Vera Cruz",
        "street": "Rua José Neves",
        "zipcode": "87111-768"
    },
    {
        "city": "Sarandi",
        "state": "PR",
        "district": "Vera Cruz",
        "street": "Rua José Senhorini",
        "zipcode": "87111-757"
    },
    {
        "city": "Sarandi",
        "state": "PR",
        "district": "Jardim Gralha Azul",
        "street": "Rua Paranaiba",
        "zipcode": "87112-050"
    },
    {
        "city": "Sarandi",
        "state": "PR",
        "district": "Jardim Gralha Azul",
        "street": "Rua Rio Negro",
        "zipcode": "87112-090"
    },
    {
        "city": "Sarandi",
        "state": "PR",
        "district": "Jardim Jaqueline",
        "street": "Rua Antonio Rodrigues de Oliveira",
        "zipcode": "87112-020"
    },
    {
        "city": "Sarandi",
        "state": "PR",
        "district": "Vera Cruz",
        "street": "Rua Adelaide Baldo Zanin",
        "zipcode": "87111-765"
    },
    {
        "city": "Sarandi",
        "state": "PR",
        "district": "Parque Residencial Nova Aliança",
        "street": "Rua dos Cravos",
        "zipcode": "87111-286"
    },
    {
        "city": "Sarandi",
        "state": "PR",
        "district": "Parque Residencial Nova Aliança",
        "street": "Rua dos Lírios",
        "zipcode": "87111-285"
    },
    {
        "city": "Sarandi",
        "state": "PR",
        "district": "Parque Residencial Nova Aliança",
        "street": "Avenida Amazonas",
        "zipcode": "87111-720"
    },
    {
        "city": "Sarandi",
        "state": "PR",
        "district": "Vera Cruz",
        "street": "Rua Ana Dvoranen",
        "zipcode": "87111-736"
    },
    {
        "city": "Sarandi",
        "state": "PR",
        "district": "Parque Residencial Nova Aliança",
        "street": "Rua Araguaia",
        "zipcode": "87111-737"
    },
    {
        "city": "Sarandi",
        "state": "PR",
        "district": "Parque Residencial Nova Aliança",
        "street": "Rua Bela Vista",
        "zipcode": "87111-739"
    },
    {
        "city": "Sarandi",
        "state": "PR",
        "district": "Parque Residencial Nova Aliança",
        "street": "Rua Bertioga",
        "zipcode": "87111-745"
    },
    {
        "city": "Sarandi",
        "state": "PR",
        "district": "Jardim Dom Bosco",
        "street": "Rua Brasilândia",
        "zipcode": "87111-370"
    },
    {
        "city": "Sarandi",
        "state": "PR",
        "district": "Parque Residencial Nova Aliança",
        "street": "Rua Buriti",
        "zipcode": "87111-747"
    },
    {
        "city": "Sarandi",
        "state": "PR",
        "district": "Jardim Verão",
        "street": "Rua dos Eucaliptos",
        "zipcode": "87111-580"
    },
    {
        "city": "Sarandi",
        "state": "PR",
        "district": "Jardim Verão",
        "street": "Rua Francisco de Almeida",
        "zipcode": "87111-650"
    },
    {
        "city": "Sarandi",
        "state": "PR",
        "district": "Jardim Verão",
        "street": "Avenida dos Girassóis",
        "zipcode": "87111-630"
    },
    {
        "city": "Sarandi",
        "state": "PR",
        "district": "Parque Residencial Nova Aliança",
        "street": "Rua Guaporé",
        "zipcode": "87111-656"
    },
    {
        "city": "Sarandi",
        "state": "PR",
        "district": "Parque Residencial Nova Aliança",
        "street": "Rua Frei Caneca",
        "zipcode": "87111-716"
    },
    {
        "city": "Sarandi",
        "state": "PR",
        "district": "Parque Residencial Nova Aliança",
        "street": "Rua Goiânia",
        "zipcode": "87111-655"
    },
    {
        "city": "Sarandi",
        "state": "PR",
        "district": "Parque Residencial Nova Aliança",
        "street": "Rua Graciosa",
        "zipcode": "87111-728"
    },
    {
        "city": "Sarandi",
        "state": "PR",
        "district": "Jardim Primaverão",
        "street": "Rua das Hortênsias",
        "zipcode": "87111-330"
    },
    {
        "city": "Sarandi",
        "state": "PR",
        "district": "Jardim Novo Mundo",
        "street": "Rua dos Imigrantes",
        "zipcode": "87111-640"
    },
    {
        "city": "Sarandi",
        "state": "PR",
        "district": "Jardim Primaverão",
        "street": "Rua Inverno",
        "zipcode": "87111-300"
    },
    {
        "city": "Sarandi",
        "state": "PR",
        "district": "Parque Residencial Nova Aliança",
        "street": "Rua Itaipu",
        "zipcode": "87111-715"
    },
    {
        "city": "Sarandi",
        "state": "PR",
        "district": "Parque Residencial Nova Aliança",
        "street": "Rua Jatobá",
        "zipcode": "87111-717"
    },
    {
        "city": "Sarandi",
        "state": "PR",
        "district": "Parque Industrial",
        "street": "Rua Papa João Paulo I",
        "zipcode": "87111-660"
    },
    {
        "city": "Sarandi",
        "state": "PR",
        "district": "Parque Residencial Nova Aliança",
        "street": "Rua Manaus",
        "zipcode": "87111-735"
    },
    {
        "city": "Sarandi",
        "state": "PR",
        "district": "Jardim Primaverão",
        "street": "Rua das Margaridas",
        "zipcode": "87111-340"
    },
    {
        "city": "Sarandi",
        "state": "PR",
        "district": "Parque Residencial Nova Aliança",
        "street": "Rua Moóca",
        "zipcode": "87111-718"
    },
    {
        "city": "Sarandi",
        "state": "PR",
        "district": "Parque Industrial",
        "street": "Rodovia BR",
        "zipcode": "87111-695"
    },
    {
        "city": "Sarandi",
        "state": "PR",
        "district": "Jardim Verão",
        "street": "Avenida das Orquídeas",
        "zipcode": "87111-620"
    },
    {
        "city": "Sarandi",
        "state": "PR",
        "district": "Parque Residencial Nova Aliança",
        "street": "Rua Ouro Preto",
        "zipcode": "87111-725"
    },
    {
        "city": "Sarandi",
        "state": "PR",
        "district": "Parque Residencial Nova Aliança",
        "street": "Rua Paraíso",
        "zipcode": "87111-726"
    },
    {
        "city": "Sarandi",
        "state": "PR",
        "district": "Jardim Dom Bosco",
        "street": "Rua Petrópolis",
        "zipcode": "87111-380"
    },
    {
        "city": "Sarandi",
        "state": "PR",
        "district": "Jardim Primaverão",
        "street": "Rua Outono",
        "zipcode": "87111-320"
    },
    {
        "city": "Sarandi",
        "state": "PR",
        "district": "Jardim Verão",
        "street": "Rua das Palmeiras",
        "zipcode": "87111-600"
    },
    {
        "city": "Sarandi",
        "state": "PR",
        "district": "Jardim Primaverão",
        "street": "Rua Primavera",
        "zipcode": "87111-290"
    },
    {
        "city": "Sarandi",
        "state": "PR",
        "district": "Parque Industrial",
        "street": "Rua Quatorze de Outubro",
        "zipcode": "87111-680"
    },
    {
        "city": "Sarandi",
        "state": "PR",
        "district": "Jardim Verão",
        "street": "Rua das Samambaias",
        "zipcode": "87111-610"
    },
    {
        "city": "Sarandi",
        "state": "PR",
        "district": "Jardim Primaverão",
        "street": "Rua Soldado Ivo",
        "zipcode": "87111-350"
    },
    {
        "city": "Sarandi",
        "state": "PR",
        "district": "Parque Residencial Nova Aliança",
        "street": "Rua Tuiuti",
        "zipcode": "87111-748"
    },
    {
        "city": "Sarandi",
        "state": "PR",
        "district": "Jardim Primaverão",
        "street": "Rua Verão",
        "zipcode": "87111-310"
    },
    {
        "city": "Sarandi",
        "state": "PR",
        "district": "Parque Industrial",
        "street": "Rua Vinte e Cinco de Dezembro",
        "zipcode": "87111-700"
    },
    {
        "city": "Sarandi",
        "state": "PR",
        "district": "Parque Residencial Nova Aliança",
        "street": "Rua Natal",
        "zipcode": "87111-719"
    },
    {
        "city": "Sarandi",
        "state": "PR",
        "district": "Parque Residencial Nova Aliança",
        "street": "Rua Astorga",
        "zipcode": "87111-738"
    },
    {
        "city": "Sarandi",
        "state": "PR",
        "district": "Parque Residencial Nova Aliança",
        "street": "Avenida Ceará",
        "zipcode": "87111-730"
    },
    {
        "city": "Sarandi",
        "state": "PR",
        "district": "Vera Cruz",
        "street": "Rua Florindo Neves",
        "zipcode": "87111-740"
    },
    {
        "city": "Sarandi",
        "state": "PR",
        "district": "Parque Residencial Nova Aliança",
        "street": "Rua Ivaí",
        "zipcode": "87111-727"
    },
    {
        "city": "Sarandi",
        "state": "PR",
        "district": "Parque Residencial Nova Aliança",
        "street": "Rua Botafogo",
        "zipcode": "87111-746"
    },
    {
        "city": "Sarandi",
        "state": "PR",
        "district": "Parque Industrial IV",
        "street": "Rua Robson Rufino Muniz",
        "zipcode": "87111-676"
    },
    {
        "city": "Sarandi",
        "state": "PR",
        "district": "Parque Industrial IV",
        "street": "Rua José Martins Valente",
        "zipcode": "87111-677"
    },
    {
        "city": "Sarandi",
        "state": "PR",
        "district": "Parque Industrial IV",
        "street": "Rua José Martins Mochi",
        "zipcode": "87111-678"
    },
    {
        "city": "Sarandi",
        "state": "PR",
        "district": "Parque Industrial IV",
        "street": "Rua Gilson Carlos Mantelo",
        "zipcode": "87111-675"
    },
    {
        "city": "Sarandi",
        "state": "PR",
        "district": "Parque Residencial Nova Aliança",
        "street": "Rua das Tulipas",
        "zipcode": "87111-283"
    },
    {
        "city": "Sarandi",
        "state": "PR",
        "district": "Parque Residencial Nova Aliança",
        "street": "Rua dos Jasmins",
        "zipcode": "87111-282"
    },
    {
        "city": "Sarandi",
        "state": "PR",
        "district": "Parque Residencial Nova Aliança",
        "street": "Rua Dálias",
        "zipcode": "87111-281"
    },
    {
        "city": "Sarandi",
        "state": "PR",
        "district": "Jardim Ouro Verde IV",
        "street": "Avenida B",
        "zipcode": "87114-031"
    },
    {
        "city": "Sarandi",
        "state": "PR",
        "district": "Jardim Ouro Verde III",
        "street": "Rua 31",
        "zipcode": "87114-193"
    },
    {
        "city": "Sarandi",
        "state": "PR",
        "district": "Jardim São Paulo",
        "street": "Rua Projetada J",
        "zipcode": "87114-081"
    },
    {
        "city": "Sarandi",
        "state": "PR",
        "district": "Jardim São Paulo",
        "street": "Rua Projetada I",
        "zipcode": "87114-079"
    },
    {
        "city": "Sarandi",
        "state": "PR",
        "district": "Jardim Ouro Verde IV",
        "street": "Rua 6",
        "zipcode": "87114-029"
    },
    {
        "city": "Sarandi",
        "state": "PR",
        "district": "Jardim Rio de Janeiro",
        "street": "Rua Vereador Adércio Marques da Silva",
        "zipcode": "87113-531"
    },
    {
        "city": "Sarandi",
        "state": "PR",
        "district": "Jardim Rio de Janeiro",
        "street": "Rua 134",
        "zipcode": "87113-509"
    },
    {
        "city": "Sarandi",
        "state": "PR",
        "district": "Jardim Monte Libano",
        "street": "Rua Albino Zanchim",
        "zipcode": "87112-221"
    },
    {
        "city": "Sarandi",
        "state": "PR",
        "district": "Jardim Itamarati",
        "street": "Rua Naviraí",
        "zipcode": "87112-086"
    },
    {
        "city": "Sarandi",
        "state": "PR",
        "district": "Jardim Ibirapuera",
        "street": "Rua Imperatriz Leopoldina",
        "zipcode": "87112-307"
    },
    {
        "city": "Sarandi",
        "state": "PR",
        "district": "Ecovalley Ecologic City",
        "street": "Rua 9335",
        "zipcode": "87115-097"
    },
    {
        "city": "Sarandi",
        "state": "PR",
        "district": "Centro",
        "street": "Avenida Antônio Volpato",
        "zipcode": "87111-011"
    },
    {
        "city": "Sarandi",
        "state": "PR",
        "district": "Centro",
        "street": "Rua Atílio Salvalagio",
        "zipcode": "87111-200"
    },
    {
        "city": "Sarandi",
        "state": "PR",
        "district": "Centro",
        "street": "Rua Augusto Birches Terrão",
        "zipcode": "87111-160"
    },
    {
        "city": "Sarandi",
        "state": "PR",
        "district": "Jardim Nova Paulista",
        "street": "Rua Augusto Birches Terrão",
        "zipcode": "87111-161"
    },
    {
        "city": "Sarandi",
        "state": "PR",
        "district": "Jardim Europa",
        "street": "Rua Bélgica",
        "zipcode": "87111-110"
    },
    {
        "city": "Sarandi",
        "state": "PR",
        "district": "Jardim Dom Bosco",
        "street": "Rua Delegado Luiz Amaro",
        "zipcode": "87111-260"
    },
    {
        "city": "Sarandi",
        "state": "PR",
        "district": "Centro",
        "street": "Rua Emílio Ângelo Panasol",
        "zipcode": "87111-170"
    },
    {
        "city": "Sarandi",
        "state": "PR",
        "district": "Jardim Europa",
        "street": "Rua Espanha",
        "zipcode": "87111-080"
    },
    {
        "city": "Sarandi",
        "state": "PR",
        "district": "Jardim Europa",
        "street": "Rua França",
        "zipcode": "87111-100"
    },
    {
        "city": "Sarandi",
        "state": "PR",
        "district": "Centro",
        "street": "Rua Guiapó",
        "zipcode": "87111-120"
    },
    {
        "city": "Sarandi",
        "state": "PR",
        "district": "Jardim Europa",
        "street": "Rua Inglaterra",
        "zipcode": "87111-090"
    },
    {
        "city": "Sarandi",
        "state": "PR",
        "district": "Centro",
        "street": "Praça Ipiranga",
        "zipcode": "87111-005"
    },
    {
        "city": "Sarandi",
        "state": "PR",
        "district": "Jardim Primavera",
        "street": "Rua Ivaí",
        "zipcode": "87111-270"
    },
    {
        "city": "Sarandi",
        "state": "PR",
        "district": "Centro",
        "street": "Rua Jaçanã",
        "zipcode": "87111-140"
    },
    {
        "city": "Sarandi",
        "state": "PR",
        "district": "Centro",
        "street": "Travessa João de Sá",
        "zipcode": "87111-225"
    },
    {
        "city": "Sarandi",
        "state": "PR",
        "district": "Centro",
        "street": "Rua Joaquim Ferlini",
        "zipcode": "87111-190"
    },
    {
        "city": "Sarandi",
        "state": "PR",
        "district": "Centro",
        "street": "Rua José Emiliano de Gusmão",
        "zipcode": "87111-230"
    },
    {
        "city": "Sarandi",
        "state": "PR",
        "district": "Centro",
        "street": "Rua José Munhoz",
        "zipcode": "87111-240"
    },
    {
        "city": "Sarandi",
        "state": "PR",
        "district": "Jardim Europa",
        "street": "Rua José Raimundo de Magalhães",
        "zipcode": "87111-070"
    },
    {
        "city": "Sarandi",
        "state": "PR",
        "district": "Centro",
        "street": "Rua Júlio Dvoranen",
        "zipcode": "87111-180"
    },
    {
        "city": "Sarandi",
        "state": "PR",
        "district": "Centro",
        "street": "Avenida Londrina",
        "zipcode": "87111-220"
    },
    {
        "city": "Sarandi",
        "state": "PR",
        "district": "Jardim Europa",
        "street": "Avenida Maringá",
        "zipcode": "87111-000"
    },
    {
        "city": "Sarandi",
        "state": "PR",
        "district": "Jardim Nova Paulista",
        "street": "Avenida Maringá",
        "zipcode": "87111-001"
    },
    {
        "city": "Sarandi",
        "state": "PR",
        "district": "Jardim Primavera",
        "street": "Rua Piquiri",
        "zipcode": "87111-280"
    },
    {
        "city": "Sarandi",
        "state": "PR",
        "district": "Jardim Europa",
        "street": "Rua Portugal",
        "zipcode": "87111-050"
    },
    {
        "city": "Sarandi",
        "state": "PR",
        "district": "Parque Industrial",
        "street": "Rua Projetada",
        "zipcode": "87111-015"
    },
    {
        "city": "Sarandi",
        "state": "PR",
        "district": "Centro",
        "street": "Rua Salvador Jordano",
        "zipcode": "87111-150"
    },
    {
        "city": "Sarandi",
        "state": "PR",
        "district": "Jardim Nova Paulista",
        "street": "Rua Salvador Jordano",
        "zipcode": "87111-151"
    },
    {
        "city": "Sarandi",
        "state": "PR",
        "district": "Centro",
        "street": "Travessa Santa Izabel",
        "zipcode": "87111-115"
    },
    {
        "city": "Sarandi",
        "state": "PR",
        "district": "Jardim Europa",
        "street": "Rua Itália",
        "zipcode": "87111-060"
    },
    {
        "city": "Sarandi",
        "state": "PR",
        "district": "Centro",
        "street": "Rua Pedro Galindo Garcia",
        "zipcode": "87111-210"
    },
    {
        "city": "Sarandi",
        "state": "PR",
        "district": "Jardim Itamarati",
        "street": "Rua Nova Andradina",
        "zipcode": "87112-085"
    },
    {
        "city": "Sarandi",
        "state": "PR",
        "district": "Jardim Itamarati",
        "street": "Rua Campo Grande",
        "zipcode": "87112-081"
    },
    {
        "city": "Sarandi",
        "state": "PR",
        "district": "Jardim Rio de Janeiro",
        "street": "Avenida Rio de Janeiro",
        "zipcode": "87113-501"
    },
    {
        "city": "Sarandi",
        "state": "PR",
        "district": "Jardim Rio de Janeiro",
        "street": "Rua 133",
        "zipcode": "87113-521"
    },
    {
        "city": "Sarandi",
        "state": "PR",
        "district": "Jardim Primavera",
        "street": "Rua Júlio Paviano",
        "zipcode": "87111-250"
    },
    {
        "city": "Sarandi",
        "state": "PR",
        "district": "Jardim Alphaville",
        "street": "Rua Nossa Senhora das Graças",
        "zipcode": "87114-577"
    },
    {
        "city": "Sarandi",
        "state": "PR",
        "district": "Parque Residencial Bom Pastor",
        "street": "Rua Cristo Redentor",
        "zipcode": "87114-527"
    },
    {
        "city": "Sarandi",
        "state": "PR",
        "district": "Jardim Cometa",
        "street": "Avenida Blumenau",
        "zipcode": "87112-150"
    },
    {
        "city": "Sarandi",
        "state": "PR",
        "district": "Residencial Jalmar",
        "street": "Travessa das Acácias",
        "zipcode": "87114-222"
    },
    {
        "city": "Sarandi",
        "state": "PR",
        "district": "Ecovalley Ecologic City",
        "street": "Rua 9350",
        "zipcode": "87115-055"
    },
    {
        "city": "Sarandi",
        "state": "PR",
        "district": "Ecovalley Ecologic City",
        "street": "Rua 9352",
        "zipcode": "87115-054"
    },
    {
        "city": "Sarandi",
        "state": "PR",
        "district": "Conjunto Residencial Mauá",
        "street": "Rua Silvério Boian",
        "zipcode": "87118-520"
    },
    {
        "city": "Sarandi",
        "state": "PR",
        "district": "Ecovalley Ecologic City",
        "street": "Rua 9338",
        "zipcode": "87115-063"
    },
    {
        "city": "Sarandi",
        "state": "PR",
        "district": "Jardim Alphaville",
        "street": "Rua Santa Terezinha",
        "zipcode": "87114-578"
    },
    {
        "city": "Sarandi",
        "state": "PR",
        "district": "Jardim Monte Libano",
        "street": "Rua dos Profissionais",
        "zipcode": "87112-228"
    },
    {
        "city": "Sarandi",
        "state": "PR",
        "district": "Jardim Itamarati",
        "street": "Rua Ponta Porã",
        "zipcode": "87112-082"
    },
    {
        "city": "Sarandi",
        "state": "PR",
        "district": "Jardim Oriental",
        "street": "Rua Pioneiro José Chiarato",
        "zipcode": "87112-836"
    },
    {
        "city": "Sarandi",
        "state": "PR",
        "district": "Jardim Itamarati",
        "street": "Rua Diamantino",
        "zipcode": "87112-084"
    },
    {
        "city": "Sarandi",
        "state": "PR",
        "district": "Ecovalley Ecologic City",
        "street": "Rua 9347",
        "zipcode": "87115-099"
    },
    {
        "city": "Sarandi",
        "state": "PR",
        "district": "Ecovalley Ecologic City",
        "street": "Rua 9345",
        "zipcode": "87115-098"
    },
    {
        "city": "Sarandi",
        "state": "PR",
        "district": "Jardim Ana Elisa",
        "street": "Rua Imperador",
        "zipcode": "87112-422"
    },
    {
        "city": "Sarandi",
        "state": "PR",
        "district": "Jardim Ana Elisa",
        "street": "Rua Barão de Mauá",
        "zipcode": "87112-298"
    },
    {
        "city": "Sarandi",
        "state": "PR",
        "district": "Jardim Nova Sarandi II",
        "street": "Rua Nova Andradina",
        "zipcode": "87112-266"
    },
    {
        "city": "Sarandi",
        "state": "PR",
        "district": "Parque Residencial Novo Centro",
        "street": "Rua dos Jasmins",
        "zipcode": "87111-392"
    },
    {
        "city": "Sarandi",
        "state": "PR",
        "district": "Residencial Governador Jose Richa",
        "street": "Rua Presidente Tancredo Neves",
        "zipcode": "87117-071"
    },
    {
        "city": "Sarandi",
        "state": "PR",
        "district": "Residencial Governador Jose Richa",
        "street": "Rua Governador Manoel Ribas",
        "zipcode": "87117-075"
    },
    {
        "city": "Sarandi",
        "state": "PR",
        "district": "Ecovalley Ecologic City",
        "street": "Rua 9332",
        "zipcode": "87115-069"
    },
    {
        "city": "Sarandi",
        "state": "PR",
        "district": "Jardim Higienópolis",
        "street": "Rua Ana Néri",
        "zipcode": "87112-192"
    },
    {
        "city": "Sarandi",
        "state": "PR",
        "district": "Jardim Ouro Verde III",
        "street": "Rua Projetada L",
        "zipcode": "87114-177"
    },
    {
        "city": "Sarandi",
        "state": "PR",
        "district": "Jardim Imperial",
        "street": "Rua Ana Néri",
        "zipcode": "87112-312"
    },
    {
        "city": "Sarandi",
        "state": "PR",
        "district": "Jardim Ipanema",
        "street": "Rua Ladário",
        "zipcode": "87112-004"
    },
    {
        "city": "Sarandi",
        "state": "PR",
        "district": "Jardim Mercúrio",
        "street": "Rua Luiz Francalin Feitosa",
        "zipcode": "87112-187"
    },
    {
        "city": "Sarandi",
        "state": "PR",
        "district": "Jardim Imperial",
        "street": "Rua Imperatriz Leopoldina",
        "zipcode": "87112-318"
    },
    {
        "city": "Sarandi",
        "state": "PR",
        "district": "Jardim Cometa",
        "street": "Rua Imperatriz Leopoldina",
        "zipcode": "87112-137"
    },
    {
        "city": "Sarandi",
        "state": "PR",
        "district": "Jardim Higienópolis",
        "street": "Rua Barão de Mauá",
        "zipcode": "87112-193"
    },
    {
        "city": "Sarandi",
        "state": "PR",
        "district": "Jardim Gralha Azul",
        "street": "Rua Diamantino",
        "zipcode": "87112-094"
    },
    {
        "city": "Sarandi",
        "state": "PR",
        "district": "Jardim Nova Sarandi II",
        "street": "Rua Ponta Porã",
        "zipcode": "87112-252"
    },
    {
        "city": "Sarandi",
        "state": "PR",
        "district": "Jardim Cometa",
        "street": "Rua Barão de Mauá",
        "zipcode": "87112-133"
    },
    {
        "city": "Sarandi",
        "state": "PR",
        "district": "Parque Residencial Bela Vista II",
        "street": "Rua Ladário",
        "zipcode": "87112-033"
    },
    {
        "city": "Sarandi",
        "state": "PR",
        "district": "Parque Residencial Nova Aliança",
        "street": "Rua José Galindo Garcia",
        "zipcode": "87111-287"
    },
    {
        "city": "Sarandi",
        "state": "PR",
        "district": "Parque Residencial Nova Aliança",
        "street": "Rua Camélias",
        "zipcode": "87111-284"
    },
    {
        "city": "Sarandi",
        "state": "PR",
        "district": "Jardim Sarandi I",
        "street": "Rua Ladário",
        "zipcode": "87112-053"
    },
    {
        "city": "Sarandi",
        "state": "PR",
        "district": "Jardim Rio de Janeiro",
        "street": "Rua Clóvis Francisco",
        "zipcode": "87113-529"
    },
    {
        "city": "Sarandi",
        "state": "PR",
        "district": "Parque Residencial Bela Vista II",
        "street": "Rua Itiquira",
        "zipcode": "87112-431"
    },
    {
        "city": "Sarandi",
        "state": "PR",
        "district": "Ecovalley Ecologic City",
        "street": "Rua 9355",
        "zipcode": "87115-103"
    },
    {
        "city": "Sarandi",
        "state": "PR",
        "district": "Jardim Independência",
        "street": "Avenida Ademar Bornia",
        "zipcode": "87114-000"
    },
    {
        "city": "Sarandi",
        "state": "PR",
        "district": "Conjunto Floresta",
        "street": "Rua das Águias",
        "zipcode": "87112-770"
    },
    {
        "city": "Sarandi",
        "state": "PR",
        "district": "Jardim Castelo",
        "street": "Rua Alexandra Alves Pereira",
        "zipcode": "87112-590"
    },
    {
        "city": "Sarandi",
        "state": "PR",
        "district": "Residencial São José",
        "street": "Avenida Anchieta",
        "zipcode": "87114-595"
    },
    {
        "city": "Sarandi",
        "state": "PR",
        "district": "Jardim Universal",
        "street": "Rua Andrômeda",
        "zipcode": "87114-350"
    },
    {
        "city": "Sarandi",
        "state": "PR",
        "district": "Jardim Europa",
        "street": "Avenida Antônio Volpato",
        "zipcode": "87111-010"
    },
    {
        "city": "Sarandi",
        "state": "PR",
        "district": "Parque Residencial Bela Vista",
        "street": "Avenida Bela Vista",
        "zipcode": "87112-265"
    },
    {
        "city": "Sarandi",
        "state": "PR",
        "district": "Parque Industrial",
        "street": "Rua Doutor José Olímpio Franco",
        "zipcode": "87111-670"
    },
    {
        "city": "Sarandi",
        "state": "PR",
        "district": "Parque Industrial",
        "street": "Rua Primeiro de Maio",
        "zipcode": "87111-690"
    },
    {
        "city": "Sarandi",
        "state": "PR",
        "district": "Jardim Nova Independência",
        "street": "Rua Eracides Martins de Oliveira",
        "zipcode": "87114-650"
    },
    {
        "city": "Sarandi",
        "state": "PR",
        "district": "Parque Residencial Bom Pastor",
        "street": "Rua Santa Maria Madalena",
        "zipcode": "87114-550"
    },
    {
        "city": "Sarandi",
        "state": "PR",
        "district": "Jardim Nova Independência",
        "street": "Rua Trinta",
        "zipcode": "87114-765"
    },
    {
        "city": "Sarandi",
        "state": "PR",
        "district": "Parque Residencial Bela Vista",
        "street": "Praça Quatorze de Outubro",
        "zipcode": "87112-335"
    },
    {
        "city": "Sarandi",
        "state": "PR",
        "district": "Jardim Alphaville",
        "street": "Rua São Francisco de Assis",
        "zipcode": "87114-580"
    },
    {
        "city": "Sarandi",
        "state": "PR",
        "district": "Jardim Ouro Verde III",
        "street": "Rua 12",
        "zipcode": "87114-192"
    },
    {
        "city": "Sarandi",
        "state": "PR",
        "district": "Parque Alvamar II",
        "street": "Rua Rio Branco",
        "zipcode": "87113-720"
    },
    {
        "city": "Sarandi",
        "state": "PR",
        "district": "Parque São Pedro",
        "street": "Avenida João Fragall",
        "zipcode": "87112-500"
    },
    {
        "city": "Sarandi",
        "state": "PR",
        "district": "Jardim Califórnia",
        "street": "Rua Miamy",
        "zipcode": "87112-495"
    },
    {
        "city": "Sarandi",
        "state": "PR",
        "district": "Parque São Pedro",
        "street": "Rua Kiozo Andó",
        "zipcode": "87112-490"
    },
    {
        "city": "Sarandi",
        "state": "PR",
        "district": "Parque São Pedro",
        "street": "Rua Kane Andó",
        "zipcode": "87112-480"
    },
    {
        "city": "Sarandi",
        "state": "PR",
        "district": "Jardim Califórnia",
        "street": "Rua Los Angeles",
        "zipcode": "87112-475"
    },
    {
        "city": "Sarandi",
        "state": "PR",
        "district": "Parque São Pedro",
        "street": "Rua Miriam Satimi Ilda",
        "zipcode": "87112-470"
    },
    {
        "city": "Sarandi",
        "state": "PR",
        "district": "Parque São Pedro",
        "street": "Rua Domingos Pilegi",
        "zipcode": "87112-460"
    },
    {
        "city": "Sarandi",
        "state": "PR",
        "district": "Parque São Pedro",
        "street": "Rua dos Funcionários",
        "zipcode": "87112-450"
    },
    {
        "city": "Sarandi",
        "state": "PR",
        "district": "Parque São Pedro",
        "street": "Rua dos Motoristas",
        "zipcode": "87112-440"
    },
    {
        "city": "Sarandi",
        "state": "PR",
        "district": "Parque São Pedro",
        "street": "Rua dos Profissionais",
        "zipcode": "87112-430"
    },
    {
        "city": "Sarandi",
        "state": "PR",
        "district": "Jardim Califórnia",
        "street": "Rua Malboro",
        "zipcode": "87112-425"
    },
    {
        "city": "Sarandi",
        "state": "PR",
        "district": "Parque São Pedro",
        "street": "Rua Nerio Broglia",
        "zipcode": "87112-420"
    },
    {
        "city": "Sarandi",
        "state": "PR",
        "district": "Jardim Verão",
        "street": "Rua José Galindo Garcia",
        "zipcode": "87111-560"
    },
    {
        "city": "Sarandi",
        "state": "PR",
        "district": "Jardim Verão",
        "street": "Rua dos Cravos",
        "zipcode": "87111-530"
    },
    {
        "city": "Sarandi",
        "state": "PR",
        "district": "Jardim Verão",
        "street": "Rua dos Lírios",
        "zipcode": "87111-520"
    },
    {
        "city": "Sarandi",
        "state": "PR",
        "district": "Jardim Verão",
        "street": "Rua Camélias",
        "zipcode": "87111-510"
    },
    {
        "city": "Sarandi",
        "state": "PR",
        "district": "Jardim Verão",
        "street": "Rua das Tulipas",
        "zipcode": "87111-500"
    },
    {
        "city": "Sarandi",
        "state": "PR",
        "district": "Jardim Verão",
        "street": "Rua dos Jasmins",
        "zipcode": "87111-490"
    },
    {
        "city": "Sarandi",
        "state": "PR",
        "district": "Jardim Verão",
        "street": "Rua Dálias",
        "zipcode": "87111-480"
    },
    {
        "city": "Sarandi",
        "state": "PR",
        "district": "Jardim Ouro Verde III",
        "street": "Avenida Riachuelo",
        "zipcode": "87114-171"
    },
    {
        "city": "Sarandi",
        "state": "PR",
        "district": "Jardim Independência II",
        "street": "Avenida Rio de Janeiro",
        "zipcode": "87113-250"
    },
    {
        "city": "Sarandi",
        "state": "PR",
        "district": "Novo Panorama",
        "street": "Rua Joaquim Nabuco",
        "zipcode": "87113-170"
    },
    {
        "city": "Sarandi",
        "state": "PR",
        "district": "Novo Panorama",
        "street": "Rua Américo Brasiliense",
        "zipcode": "87113-160"
    },
    {
        "city": "Sarandi",
        "state": "PR",
        "district": "Novo Panorama",
        "street": "Rua José de Alencar",
        "zipcode": "87113-150"
    },
    {
        "city": "Sarandi",
        "state": "PR",
        "district": "Jardim Castelo",
        "street": "Avenida Henrique Augusto da Silva",
        "zipcode": "87112-585"
    },
    {
        "city": "Sarandi",
        "state": "PR",
        "district": "Jardim Califórnia",
        "street": "Rua Tampa",
        "zipcode": "87112-519"
    },
    {
        "city": "Sarandi",
        "state": "PR",
        "district": "Jardim Califórnia",
        "street": "Rua Dallas",
        "zipcode": "87112-518"
    },
    {
        "city": "Sarandi",
        "state": "PR",
        "district": "Jardim Califórnia",
        "street": "Rua Quebec",
        "zipcode": "87112-517"
    },
    {
        "city": "Sarandi",
        "state": "PR",
        "district": "Jardim Califórnia",
        "street": "Rua Daytona",
        "zipcode": "87112-516"
    },
    {
        "city": "Sarandi",
        "state": "PR",
        "district": "Jardim Califórnia",
        "street": "Rua Texas",
        "zipcode": "87112-415"
    },
    {
        "city": "Sarandi",
        "state": "PR",
        "district": "Jardim Esplanada",
        "street": "Rua Camapuã",
        "zipcode": "87112-370"
    },
    {
        "city": "Sarandi",
        "state": "PR",
        "district": "Jardim Esplanada",
        "street": "Rua Rio Brilhante",
        "zipcode": "87112-360"
    },
    {
        "city": "Sarandi",
        "state": "PR",
        "district": "Jardim Esplanada",
        "street": "Rua Ladário",
        "zipcode": "87112-350"
    },
    {
        "city": "Sarandi",
        "state": "PR",
        "district": "Jardim Esplanada",
        "street": "Rua Xavantino",
        "zipcode": "87112-340"
    },
    {
        "city": "Sarandi",
        "state": "PR",
        "district": "Jardim Esplanada",
        "street": "Rua Itiquira",
        "zipcode": "87112-330"
    },
    {
        "city": "Sarandi",
        "state": "PR",
        "district": "Jardim Esplanada",
        "street": "Rua Coxim",
        "zipcode": "87112-320"
    },
    {
        "city": "Sarandi",
        "state": "PR",
        "district": "Conjunto Floresta",
        "street": "Rua Ponta Porã",
        "zipcode": "87112-260"
    },
    {
        "city": "Sarandi",
        "state": "PR",
        "district": "Conjunto Floresta",
        "street": "Rua Campo Grande",
        "zipcode": "87112-250"
    },
    {
        "city": "Sarandi",
        "state": "PR",
        "district": "Conjunto Floresta",
        "street": "Rua Dourados",
        "zipcode": "87112-240"
    },
    {
        "city": "Sarandi",
        "state": "PR",
        "district": "Conjunto Floresta",
        "street": "Rua Diamantino",
        "zipcode": "87112-230"
    },
    {
        "city": "Sarandi",
        "state": "PR",
        "district": "Jardim Gralha Azul",
        "street": "Rua Nova Andradina",
        "zipcode": "87112-220"
    },
    {
        "city": "Sarandi",
        "state": "PR",
        "district": "Jardim Gralha Azul",
        "street": "Rua Naviraí",
        "zipcode": "87112-210"
    },
    {
        "city": "Sarandi",
        "state": "PR",
        "district": "Jardim Gralha Azul",
        "street": "Rua Três Lagoas",
        "zipcode": "87112-200"
    },
    {
        "city": "Sarandi",
        "state": "PR",
        "district": "Santa Tereza",
        "street": "Rua Ana Néri",
        "zipcode": "87112-080"
    },
    {
        "city": "Sarandi",
        "state": "PR",
        "district": "Santa Tereza",
        "street": "Rua Barão de Mauá",
        "zipcode": "87112-070"
    },
    {
        "city": "Sarandi",
        "state": "PR",
        "district": "Santa Tereza",
        "street": "Rua Barão do Rio Branco",
        "zipcode": "87112-060"
    },
    {
        "city": "Sarandi",
        "state": "PR",
        "district": "Santa Tereza",
        "street": "Rua Imperatriz Leopoldina",
        "zipcode": "87112-040"
    },
    {
        "city": "Sarandi",
        "state": "PR",
        "district": "Jardim Jaqueline",
        "street": "Rua Luiz Francalin Feitosa",
        "zipcode": "87112-030"
    },
    {
        "city": "Sarandi",
        "state": "PR",
        "district": "Jardim Cometa",
        "street": "Rua Imperador",
        "zipcode": "87112-010"
    },
    {
        "city": "Sarandi",
        "state": "PR",
        "district": "Jardim Gralha Azul",
        "street": "Avenida Cuiabá",
        "zipcode": "87112-000"
    },
    {
        "city": "Sarandi",
        "state": "PR",
        "district": "Jardim Castelo",
        "street": "Rua Alfredo Schwarz",
        "zipcode": "87112-565"
    },
    {
        "city": "Sarandi",
        "state": "PR",
        "district": "Jardim dos Ipês",
        "street": "Rua Projetada F",
        "zipcode": "87111-788"
    },
    {
        "city": "Sarandi",
        "state": "PR",
        "district": "Jardim dos Ipês",
        "street": "Rua Projetada A",
        "zipcode": "87111-781"
    },
    {
        "city": "Sarandi",
        "state": "PR",
        "district": "Jardim dos Ipês",
        "street": "Avenida Projetada D",
        "zipcode": "87111-784"
    },
    {
        "city": "Sarandi",
        "state": "PR",
        "district": "Jardim Rio de Janeiro",
        "street": "Rua 142",
        "zipcode": "87113-502"
    },
    {
        "city": "Sarandi",
        "state": "PR",
        "district": "Jardim Oriental",
        "street": "Rua Tampa",
        "zipcode": "87112-850"
    },
    {
        "city": "Sarandi",
        "state": "PR",
        "district": "Jardim Ouro Verde IV",
        "street": "Rua 9",
        "zipcode": "87114-033"
    },
    {
        "city": "Sarandi",
        "state": "PR",
        "district": "Jardim Ouro Verde IV",
        "street": "Rua Rio Branco",
        "zipcode": "87114-025"
    },
    {
        "city": "Sarandi",
        "state": "PR",
        "district": "Jardim Rio de Janeiro",
        "street": "Rua 136",
        "zipcode": "87113-507"
    },
    {
        "city": "Sarandi",
        "state": "PR",
        "district": "Jardim Rio de Janeiro",
        "street": "Rua 126",
        "zipcode": "87113-528"
    },
    {
        "city": "Sarandi",
        "state": "PR",
        "district": "Jardim dos Ipês",
        "street": "Avenida Projetada B",
        "zipcode": "87111-799"
    },
    {
        "city": "Sarandi",
        "state": "PR",
        "district": "Jardim Oriental",
        "street": "Rua Quebec",
        "zipcode": "87112-844"
    },
    {
        "city": "Sarandi",
        "state": "PR",
        "district": "Jardim Rio de Janeiro",
        "street": "Rua 130",
        "zipcode": "87113-524"
    },
    {
        "city": "Sarandi",
        "state": "PR",
        "district": "Jardim dos Ipês",
        "street": "Rua Projetada I",
        "zipcode": "87111-791"
    },
    {
        "city": "Sarandi",
        "state": "PR",
        "district": "Jardim Rio de Janeiro",
        "street": "Rua 135",
        "zipcode": "87113-508"
    },
    {
        "city": "Sarandi",
        "state": "PR",
        "district": "Jardim São Paulo",
        "street": "Rua Projetada K",
        "zipcode": "87114-082"
    },
    {
        "city": "Sarandi",
        "state": "PR",
        "district": "Jardim Panorama",
        "street": "Rua Vaz Caminha",
        "zipcode": "87113-215"
    },
    {
        "city": "Sarandi",
        "state": "PR",
        "district": "Jardim Kusumoto",
        "street": "Rua João Maria Coplas",
        "zipcode": "87112-879"
    },
    {
        "city": "Sarandi",
        "state": "PR",
        "district": "Jardim Ouro Verde IV",
        "street": "Rua 12",
        "zipcode": "87114-035"
    },
    {
        "city": "Sarandi",
        "state": "PR",
        "district": "Jardim dos Ipês",
        "street": "Rua Projetada U",
        "zipcode": "87111-803"
    },
    {
        "city": "Sarandi",
        "state": "PR",
        "district": "Jardim Rio de Janeiro",
        "street": "Rua Maria Marta Marques Oliveira",
        "zipcode": "87113-526"
    },
    {
        "city": "Sarandi",
        "state": "PR",
        "district": "Parque Alvamar II",
        "street": "Rua Rio da Prata",
        "zipcode": "87113-534"
    },
    {
        "city": "Sarandi",
        "state": "PR",
        "district": "Jardim Independência II",
        "street": "Rua Vaz Caminha",
        "zipcode": "87113-246"
    },
    {
        "city": "Sarandi",
        "state": "PR",
        "district": "Jardim Ouro Verde IV",
        "street": "Rua 4",
        "zipcode": "87114-027"
    },
    {
        "city": "Sarandi",
        "state": "PR",
        "district": "Jardim dos Ipês",
        "street": "Rua Projetada K",
        "zipcode": "87111-793"
    },
    {
        "city": "Sarandi",
        "state": "PR",
        "district": "Jardim dos Ipês",
        "street": "Rua Projetada J",
        "zipcode": "87111-792"
    },
    {
        "city": "Sarandi",
        "state": "PR",
        "district": "Jardim Monte Carmelo",
        "street": "Rua Projetada 01",
        "zipcode": "87112-888"
    },
    {
        "city": "Sarandi",
        "state": "PR",
        "district": "Jardim dos Ipês",
        "street": "Rua Projetada E",
        "zipcode": "87111-797"
    },
    {
        "city": "Sarandi",
        "state": "PR",
        "district": "Jardim dos Ipês",
        "street": "Rua Projetada P",
        "zipcode": "87111-798"
    },
    {
        "city": "Sarandi",
        "state": "PR",
        "district": "Jardim Kusumoto",
        "street": "Rua Antonio José dos Reis",
        "zipcode": "87112-870"
    },
    {
        "city": "Sarandi",
        "state": "PR",
        "district": "Jardim Rio de Janeiro",
        "street": "Rua 129",
        "zipcode": "87113-525"
    },
    {
        "city": "Sarandi",
        "state": "PR",
        "district": "Jardim Ouro Verde IV",
        "street": "Rua 8",
        "zipcode": "87114-032"
    },
    {
        "city": "Sarandi",
        "state": "PR",
        "district": "Jardim Kusumoto",
        "street": "Avenida Henrique Augusto da Silva",
        "zipcode": "87112-881"
    },
    {
        "city": "Sarandi",
        "state": "PR",
        "district": "Jardim dos Ipês",
        "street": "Rua Projetada T",
        "zipcode": "87111-802"
    },
    {
        "city": "Sarandi",
        "state": "PR",
        "district": "Jardim Real II",
        "street": "Rua Izeu Volpato",
        "zipcode": "87111-778"
    },
    {
        "city": "Sarandi",
        "state": "PR",
        "district": "Jardim São Paulo II",
        "street": "Rua Antonio Quintino Ferreira",
        "zipcode": "87114-463"
    },
    {
        "city": "Sarandi",
        "state": "PR",
        "district": "Jardim Independência II",
        "street": "Rua Joaquim Nabuco",
        "zipcode": "87113-243"
    },
    {
        "city": "Sarandi",
        "state": "PR",
        "district": "Jardim Kusumoto",
        "street": "Avenida Bruno de Faveri",
        "zipcode": "87112-875"
    },
    {
        "city": "Sarandi",
        "state": "PR",
        "district": "Jardim São Paulo",
        "street": "Rua Projetada E",
        "zipcode": "87114-074"
    },
    {
        "city": "Sarandi",
        "state": "PR",
        "district": "Jardim dos Ipês",
        "street": "Avenida Projetada A",
        "zipcode": "87111-782"
    },
    {
        "city": "Sarandi",
        "state": "PR",
        "district": "Jardim dos Ipês",
        "street": "Rua Projetada D",
        "zipcode": "87111-786"
    },
    {
        "city": "Sarandi",
        "state": "PR",
        "district": "Jardim Real II",
        "street": "Rua Xingu",
        "zipcode": "87111-775"
    },
    {
        "city": "Sarandi",
        "state": "PR",
        "district": "Jardim Monte Carmelo",
        "street": "Travessa 03",
        "zipcode": "87112-890"
    },
    {
        "city": "Sarandi",
        "state": "PR",
        "district": "Jardim Rio de Janeiro",
        "street": "Rua 131",
        "zipcode": "87113-523"
    },
    {
        "city": "Sarandi",
        "state": "PR",
        "district": "Jardim São Paulo",
        "street": "Rua Projetada H",
        "zipcode": "87114-078"
    },
    {
        "city": "Sarandi",
        "state": "PR",
        "district": "Jardim dos Ipês",
        "street": "Rua Projetada G",
        "zipcode": "87111-789"
    },
    {
        "city": "Sarandi",
        "state": "PR",
        "district": "Jardim dos Ipês",
        "street": "Rua Projetada B",
        "zipcode": "87111-783"
    },
    {
        "city": "Sarandi",
        "state": "PR",
        "district": "Jardim dos Ipês",
        "street": "Rua Projetada O",
        "zipcode": "87111-787"
    },
    {
        "city": "Sarandi",
        "state": "PR",
        "district": "Jardim Real II",
        "street": "Rua Mamoré",
        "zipcode": "87111-777"
    },
    {
        "city": "Sarandi",
        "state": "PR",
        "district": "Jardim Ouro Verde IV",
        "street": "Rua 2",
        "zipcode": "87114-023"
    },
    {
        "city": "Sarandi",
        "state": "PR",
        "district": "Jardim Panorama",
        "street": "Rua Joaquim Nabuco",
        "zipcode": "87113-213"
    },
    {
        "city": "Sarandi",
        "state": "PR",
        "district": "Jardim Oriental",
        "street": "Rua Los Angeles",
        "zipcode": "87112-852"
    },
    {
        "city": "Sarandi",
        "state": "PR",
        "district": "Jardim dos Ipês",
        "street": "Rua José Pereira Sander",
        "zipcode": "87111-795"
    },
    {
        "city": "Sarandi",
        "state": "PR",
        "district": "Jardim Oriental",
        "street": "Rua Miamy",
        "zipcode": "87112-856"
    },
    {
        "city": "Sarandi",
        "state": "PR",
        "district": "Jardim Rio de Janeiro",
        "street": "Rua 122",
        "zipcode": "87113-533"
    },
    {
        "city": "Sarandi",
        "state": "PR",
        "district": "Jardim São Paulo",
        "street": "Rua Projetada C",
        "zipcode": "87114-073"
    },
    {
        "city": "Sarandi",
        "state": "PR",
        "district": "Jardim Ouro Verde IV",
        "street": "Rua 1",
        "zipcode": "87114-022"
    },
    {
        "city": "Sarandi",
        "state": "PR",
        "district": "Jardim Ouro Verde IV",
        "street": "Rua 5",
        "zipcode": "87114-028"
    },
    {
        "city": "Sarandi",
        "state": "PR",
        "district": "Jardim Independência II",
        "street": "Rua José de Alencar",
        "zipcode": "87113-245"
    },
    {
        "city": "Sarandi",
        "state": "PR",
        "district": "Jardim Monte Carmelo",
        "street": "Travessa 06",
        "zipcode": "87112-893"
    },
    {
        "city": "Sarandi",
        "state": "PR",
        "district": "Jardim Monte Carmelo",
        "street": "Travessa 04",
        "zipcode": "87112-891"
    },
    {
        "city": "Sarandi",
        "state": "PR",
        "district": "Jardim dos Ipês",
        "street": "Rua Projetada S",
        "zipcode": "87111-801"
    },
    {
        "city": "Sarandi",
        "state": "PR",
        "district": "Jardim Monte Carmelo",
        "street": "Travessa 05",
        "zipcode": "87112-892"
    },
    {
        "city": "Sarandi",
        "state": "PR",
        "district": "Jardim Monte Carmelo",
        "street": "Rua Ponta Porã",
        "zipcode": "87112-886"
    },
    {
        "city": "Sarandi",
        "state": "PR",
        "district": "Jardim Rio de Janeiro",
        "street": "Rua 138",
        "zipcode": "87113-505"
    },
    {
        "city": "Sarandi",
        "state": "PR",
        "district": "Jardim Oriental",
        "street": "Rua Texas",
        "zipcode": "87112-838"
    },
    {
        "city": "Sarandi",
        "state": "PR",
        "district": "Jardim Oriental",
        "street": "Rua Dallas",
        "zipcode": "87112-848"
    },
    {
        "city": "Sarandi",
        "state": "PR",
        "district": "Jardim Rio de Janeiro",
        "street": "Rua 140",
        "zipcode": "87113-503"
    },
    {
        "city": "Sarandi",
        "state": "PR",
        "district": "Jardim Ouro Verde IV",
        "street": "Rua 3",
        "zipcode": "87114-024"
    },
    {
        "city": "Sarandi",
        "state": "PR",
        "district": "Jardim Panorama",
        "street": "Rua José de Alencar",
        "zipcode": "87113-212"
    },
    {
        "city": "Sarandi",
        "state": "PR",
        "district": "Jardim São Paulo",
        "street": "Rua Projetada L",
        "zipcode": "87114-083"
    },
    {
        "city": "Sarandi",
        "state": "PR",
        "district": "Jardim Oriental",
        "street": "Avenida Henrique Augusto da Silva",
        "zipcode": "87112-858"
    },
    {
        "city": "Sarandi",
        "state": "PR",
        "district": "Jardim Rio de Janeiro",
        "street": "Rua Adolpho Bondezan",
        "zipcode": "87113-527"
    },
    {
        "city": "Sarandi",
        "state": "PR",
        "district": "Jardim Tropical",
        "street": "Rua Conceição Ferreira de Oliveira",
        "zipcode": "87113-821"
    },
    {
        "city": "Sarandi",
        "state": "PR",
        "district": "Jardim Independência III",
        "street": "Rua Francisco de Almeida",
        "zipcode": "87114-125"
    },
    {
        "city": "Sarandi",
        "state": "PR",
        "district": "Jardim Nova Independência",
        "street": "Rua A",
        "zipcode": "87114-656"
    },
    {
        "city": "Sarandi",
        "state": "PR",
        "district": "Jardim Tropical",
        "street": "Rua Soldado Nadir Pereira de Souza",
        "zipcode": "87113-813"
    },
    {
        "city": "Sarandi",
        "state": "PR",
        "district": "Jardim Novo Bertioga",
        "street": "Rua Pioneira Maria Lopes",
        "zipcode": "87118-300"
    },
    {
        "city": "Sarandi",
        "state": "PR",
        "district": "Jardim Novo Bertioga",
        "street": "Avenida Henrique Augusto da Silva",
        "zipcode": "87118-305"
    },
    {
        "city": "Sarandi",
        "state": "PR",
        "district": "Parque Residencial Bom Pastor",
        "street": "Rua Trinta e Um",
        "zipcode": "87114-554"
    },
    {
        "city": "Sarandi",
        "state": "PR",
        "district": "Jardim Gralha Azul",
        "street": "Rua Santa Clara",
        "zipcode": "87112-105"
    },
    {
        "city": "Sarandi",
        "state": "PR",
        "district": "Parque Industrial",
        "street": "Rua Mário Martinucci",
        "zipcode": "87111-685"
    },
    {
        "city": "Sarandi",
        "state": "PR",
        "district": "Jardim Ouro Verde II",
        "street": "Rua Vanderlei Giacomini",
        "zipcode": "87114-158"
    },
    {
        "city": "Sarandi",
        "state": "PR",
        "district": "Vera Cruz",
        "street": "Rua José Sabatine",
        "zipcode": "87111-764"
    },
    {
        "city": "Sarandi",
        "state": "PR",
        "district": "Jardim Nova Sarandi III",
        "street": "Rua L",
        "zipcode": "87117-060"
    },
    {
        "city": "Sarandi",
        "state": "PR",
        "district": "Jardim Independência",
        "street": "Avenida Londrina",
        "zipcode": "87112-981"
    },
    {
        "city": "Sarandi",
        "state": "PR",
        "district": "Centro",
        "street": "Praça Ipiranga",
        "zipcode": "87111-971"
    },
    {
        "city": "Sarandi",
        "state": "PR",
        "district": "Jardim Ouro Verde III",
        "street": "Avenida Projetada A",
        "zipcode": "87114-195"
    },
    {
        "city": "Sarandi",
        "state": "PR",
        "district": "Jardim Califórnia",
        "street": "Rua Las Vegas",
        "zipcode": "87112-525"
    },
    {
        "city": "Sarandi",
        "state": "PR",
        "district": "Jardim dos Ipês",
        "street": "Rua Onofre Rodolfo",
        "zipcode": "87111-790"
    },
    {
        "city": "Sarandi",
        "state": "PR",
        "district": "Jardim São Paulo II",
        "street": "Rua Antonia Thomaz Ferreira",
        "zipcode": "87114-483"
    },
    {
        "city": "Sarandi",
        "state": "PR",
        "district": "Jardim das Torres",
        "street": "Rua Assaí",
        "zipcode": "87117-217"
    },
    {
        "city": "Sarandi",
        "state": "PR",
        "district": "Jardim São Paulo II",
        "street": "Rua Projetada H",
        "zipcode": "87114-482"
    },
    {
        "city": "Sarandi",
        "state": "PR",
        "district": "Jardim França",
        "street": "Rua Projetada 202",
        "zipcode": "87115-235"
    },
    {
        "city": "Sarandi",
        "state": "PR",
        "district": "Jardim França",
        "street": "Rua Projetada 201",
        "zipcode": "87115-236"
    },
    {
        "city": "Sarandi",
        "state": "PR",
        "district": "Ecovalley Ecologic City",
        "street": "Rua 9306",
        "zipcode": "87115-073"
    },
    {
        "city": "Sarandi",
        "state": "PR",
        "district": "Jardim São Paulo II",
        "street": "Rua Projetada A",
        "zipcode": "87114-475"
    },
    {
        "city": "Sarandi",
        "state": "PR",
        "district": "Jardim das Torres",
        "street": "Rua das Torres",
        "zipcode": "87117-200"
    },
    {
        "city": "Sarandi",
        "state": "PR",
        "district": "Jardim São Paulo II",
        "street": "Avenida Riachuelo",
        "zipcode": "87114-484"
    },
    {
        "city": "Sarandi",
        "state": "PR",
        "district": "Jardim Ouro Verde IV",
        "street": "Avenida Riachuelo",
        "zipcode": "87114-034"
    },
    {
        "city": "Sarandi",
        "state": "PR",
        "district": "Jardim França",
        "street": "Rua Projetada 203",
        "zipcode": "87115-233"
    },
    {
        "city": "Sarandi",
        "state": "PR",
        "district": "Jardim São Paulo II",
        "street": "Rua Projetada P",
        "zipcode": "87114-465"
    },
    {
        "city": "Sarandi",
        "state": "PR",
        "district": "Jardim São Paulo II",
        "street": "Rua Projetada Q",
        "zipcode": "87114-464"
    },
    {
        "city": "Sarandi",
        "state": "PR",
        "district": "Jardim dos Ipês",
        "street": "Rua Projetada C",
        "zipcode": "87111-785"
    },
    {
        "city": "Sarandi",
        "state": "PR",
        "district": "Jardim São Paulo II",
        "street": "Rua Projetada F",
        "zipcode": "87114-466"
    },
    {
        "city": "Sarandi",
        "state": "PR",
        "district": "Jardim das Torres",
        "street": "Rua Monte Alto",
        "zipcode": "87117-235"
    },
    {
        "city": "Sarandi",
        "state": "PR",
        "district": "Jardim dos Ipês",
        "street": "Avenida Projetada E",
        "zipcode": "87111-780"
    },
    {
        "city": "Sarandi",
        "state": "PR",
        "district": "Jardim São Paulo II",
        "street": "Rua João Pedreiro Beltran",
        "zipcode": "87114-471"
    },
    {
        "city": "Sarandi",
        "state": "PR",
        "district": "Jardim França",
        "street": "Rua Projetada 205",
        "zipcode": "87115-228"
    },
    {
        "city": "Sarandi",
        "state": "PR",
        "district": "Parque da Gávea",
        "street": "Rua Projetada E",
        "zipcode": "87115-116"
    },
    {
        "city": "Sarandi",
        "state": "PR",
        "district": "Ecovalley Ecologic City",
        "street": "Rua 9312",
        "zipcode": "87115-067"
    },
    {
        "city": "Sarandi",
        "state": "PR",
        "district": "Jardim São Paulo II",
        "street": "Rua José Alcindo Barrinovo",
        "zipcode": "87114-479"
    },
    {
        "city": "Sarandi",
        "state": "PR",
        "district": "Jardim França",
        "street": "Rua Projetada 101",
        "zipcode": "87115-227"
    },
    {
        "city": "Sarandi",
        "state": "PR",
        "district": "Ecovalley Ecologic City",
        "street": "Rua 9316",
        "zipcode": "87115-079"
    },
    {
        "city": "Sarandi",
        "state": "PR",
        "district": "Jardim Oriental",
        "street": "Rua Las Vegas",
        "zipcode": "87112-854"
    },
    {
        "city": "Sarandi",
        "state": "PR",
        "district": "Jardim Tropical",
        "street": "Rua Celestino Gorini Netto",
        "zipcode": "87113-812"
    },
    {
        "city": "Sarandi",
        "state": "PR",
        "district": "Jardim São Paulo II",
        "street": "Rua Projetada D",
        "zipcode": "87114-472"
    },
    {
        "city": "Sarandi",
        "state": "PR",
        "district": "Parque da Gávea",
        "street": "Rua Projetada A",
        "zipcode": "87115-122"
    },
    {
        "city": "Sarandi",
        "state": "PR",
        "district": "Jardim das Torres",
        "street": "Rua Fortaleza",
        "zipcode": "87117-220"
    },
    {
        "city": "Sarandi",
        "state": "PR",
        "district": "Parque da Gávea",
        "street": "Rua Projetada C",
        "zipcode": "87115-120"
    },
    {
        "city": "Sarandi",
        "state": "PR",
        "district": "Jardim França",
        "street": "Avenida Projetada 202",
        "zipcode": "87115-226"
    },
    {
        "city": "Sarandi",
        "state": "PR",
        "district": "Jardim França",
        "street": "Rua Projetada 204",
        "zipcode": "87115-230"
    },
    {
        "city": "Sarandi",
        "state": "PR",
        "district": "Jardim França",
        "street": "Avenida Projetada 201",
        "zipcode": "87115-237"
    },
    {
        "city": "Sarandi",
        "state": "PR",
        "district": "Parque da Gávea",
        "street": "Rua Projetada B",
        "zipcode": "87115-121"
    },
    {
        "city": "Sarandi",
        "state": "PR",
        "district": "Parque Pioneiros",
        "street": "Rua Vaz Caminha",
        "zipcode": "87114-150"
    },
    {
        "city": "Sarandi",
        "state": "PR",
        "district": "Jardim São Paulo II",
        "street": "Rua Pioneiro Constante Ghiraldi",
        "zipcode": "87114-474"
    },
    {
        "city": "Sarandi",
        "state": "PR",
        "district": "Novo Panorama",
        "street": "Rua Vaz Caminha",
        "zipcode": "87113-140"
    },
    {
        "city": "Sarandi",
        "state": "PR",
        "district": "Jardim Panorama",
        "street": "Rua Américo Brasiliense",
        "zipcode": "87113-122"
    },
    {
        "city": "Sarandi",
        "state": "PR",
        "district": "Jardim São Paulo II",
        "street": "Avenida João Marangoni",
        "zipcode": "87114-485"
    },
    {
        "city": "Sarandi",
        "state": "PR",
        "district": "Santa Tereza",
        "street": "Avenida Santa Terezinha",
        "zipcode": "87112-120"
    },
    {
        "city": "Sarandi",
        "state": "PR",
        "district": "Jardim São Paulo II",
        "street": "Rua Leonilda Schiavon Gouvêa",
        "zipcode": "87114-481"
    },
    {
        "city": "Sarandi",
        "state": "PR",
        "district": "Jardim Rio de Janeiro",
        "street": "Rua José Pereira da Silva",
        "zipcode": "87113-522"
    },
    {
        "city": "Sarandi",
        "state": "PR",
        "district": "Jardim São Paulo II",
        "street": "Rua Projetada M",
        "zipcode": "87114-476"
    },
    {
        "city": "Sarandi",
        "state": "PR",
        "district": "Jardim Rio de Janeiro",
        "street": "Rua Pioneiro Benedito da Silva",
        "zipcode": "87113-532"
    },
    {
        "city": "Sarandi",
        "state": "PR",
        "district": "Jardim São Paulo II",
        "street": "Rua Projetada R",
        "zipcode": "87114-462"
    },
    {
        "city": "Sarandi",
        "state": "PR",
        "district": "Jardim dos Ipês",
        "street": "Rua Projetada V",
        "zipcode": "87111-804"
    },
    {
        "city": "Sarandi",
        "state": "PR",
        "district": "Jardim São Paulo",
        "street": "Rua Projetada F",
        "zipcode": "87114-072"
    },
    {
        "city": "Sarandi",
        "state": "PR",
        "district": "Jardim dos Ipês",
        "street": "Rua Projetada R",
        "zipcode": "87111-800"
    },
    {
        "city": "Sarandi",
        "state": "PR",
        "district": "Jardim França",
        "street": "Rua Projetada 102",
        "zipcode": "87115-225"
    },
    {
        "city": "Sarandi",
        "state": "PR",
        "district": "Jardim Castelo",
        "street": "Avenida Henrique Augusto Da Silva",
        "zipcode": "87112-510"
    },
    {
        "city": "Sarandi",
        "state": "PR",
        "district": "Novo Panorama",
        "street": "Rua Vaz Caminha",
        "zipcode": "87113-144"
    },
    {
        "city": "Sarandi",
        "state": "PR",
        "district": "Jardim Monte Carmelo",
        "street": "Rua Projetada 02",
        "zipcode": "87112-889"
    },
    {
        "city": "Sarandi",
        "state": "PR",
        "district": "Jardim França",
        "street": "Avenida Projetada 204",
        "zipcode": "87115-231"
    },
    {
        "city": "Sarandi",
        "state": "PR",
        "district": "Jardim Oriental",
        "street": "Rua Malboro",
        "zipcode": "87112-842"
    },
    {
        "city": "Sarandi",
        "state": "PR",
        "district": "Parque da Gávea",
        "street": "Rua Projetada D",
        "zipcode": "87115-118"
    },
    {
        "city": "Sarandi",
        "state": "PR",
        "district": "Jardim Nova Sarandi III",
        "street": "Rua 164 B",
        "zipcode": "87117-061"
    },
    {
        "city": "Sarandi",
        "state": "PR",
        "district": "Jardim dos Ipês",
        "street": "Rua Projetada N",
        "zipcode": "87111-796"
    },
    {
        "city": "Sarandi",
        "state": "PR",
        "district": "Jardim Rio de Janeiro",
        "street": "Rua José Teixeira Espindas",
        "zipcode": "87113-504"
    },
    {
        "city": "Sarandi",
        "state": "PR",
        "district": "Jardim São Paulo II",
        "street": "Rua Projetada E",
        "zipcode": "87114-467"
    },
    {
        "city": "Sarandi",
        "state": "PR",
        "district": "Jardim São Paulo",
        "street": "Rua Projetada B",
        "zipcode": "87114-076"
    },
    {
        "city": "Sarandi",
        "state": "PR",
        "district": "Jardim Ouro Verde IV",
        "street": "Avenida Pioneiro José Laurindo da Silva",
        "zipcode": "87114-026"
    },
    {
        "city": "Sarandi",
        "state": "PR",
        "district": "Jardim dos Ipês",
        "street": "Rua Projetada L",
        "zipcode": "87111-794"
    }
]