[
    {
        "city": "Tijucas do Sul",
        "state": "PR",
        "district": "Campina",
        "street": "Rodovia BR",
        "zipcode": "83190-971"
    },
    {
        "city": "Tijucas do Sul",
        "state": "PR",
        "district": "Lagoinha",
        "street": "Rodovia PR",
        "zipcode": "83190-972"
    },
    {
        "city": "Tijucas do Sul",
        "state": "PR",
        "district": null,
        "street": "Rodovia PR",
        "zipcode": "83190-990"
    },
    {
        "city": "Tijucas do Sul",
        "state": "PR",
        "district": null,
        "street": "Rodovia PR",
        "zipcode": "83190-991"
    },
    {
        "city": "Tijucas do Sul",
        "state": "PR",
        "district": null,
        "street": "Rodovia PR",
        "zipcode": "83190-993"
    },
    {
        "city": "Tijucas do Sul",
        "state": "PR",
        "district": null,
        "street": "Rodovia BR",
        "zipcode": "83190-994"
    },
    {
        "city": "Tijucas do Sul",
        "state": "PR",
        "district": "",
        "street": "Rua Principal do Postinho  CPC Postinho",
        "zipcode": "83190-996"
    },
    {
        "city": "Tijucas do Sul",
        "state": "PR",
        "district": "Centro",
        "street": "Rua Quinze de Novembro 1180 Sala B",
        "zipcode": "83190-970"
    },
    {
        "city": "Tijucas do Sul",
        "state": "PR",
        "district": "",
        "street": "",
        "zipcode": "83190-000"
    },
    {
        "city": "Tijucas do Sul",
        "state": "PR",
        "district": "",
        "street": "Rua Principal do Fagundes  CPC Fagundes",
        "zipcode": "83190-995"
    },
    {
        "city": "Tijucas do Sul",
        "state": "PR",
        "district": null,
        "street": "Rua Principal",
        "zipcode": "83190-992"
    }
]