[
    {
        "city": "Toledo",
        "state": "PR",
        "district": "Tocantins",
        "street": "Rua Dalhia Schumacher",
        "zipcode": "85904-478"
    },
    {
        "city": "Toledo",
        "state": "PR",
        "district": "Jardim Pancera",
        "street": "Rua Anibal Hofstater",
        "zipcode": "85902-241"
    },
    {
        "city": "Toledo",
        "state": "PR",
        "district": "São Francisco",
        "street": "Rua Hercílio Cividini",
        "zipcode": "85915-034"
    },
    {
        "city": "Toledo",
        "state": "PR",
        "district": "Vila Pioneiro",
        "street": "Rua Benjamin Constant",
        "zipcode": "85909-730"
    },
    {
        "city": "Toledo",
        "state": "PR",
        "district": "Vila Pioneiro",
        "street": "Rua Constante Fiametti",
        "zipcode": "85910-326"
    },
    {
        "city": "Toledo",
        "state": "PR",
        "district": "Jardim Coopagro",
        "street": "Rua Henrique Berticelli",
        "zipcode": "85903-778"
    },
    {
        "city": "Toledo",
        "state": "PR",
        "district": "Jardim Panorama",
        "street": "Rua Darci Merquides Adam",
        "zipcode": "85911-116"
    },
    {
        "city": "Toledo",
        "state": "PR",
        "district": "Vila Industrial",
        "street": "Rua Clerbes José Bolson",
        "zipcode": "85904-421"
    },
    {
        "city": "Toledo",
        "state": "PR",
        "district": "Pinheirinho",
        "street": "Rua Antônio Vicente de Araújo",
        "zipcode": "85907-435"
    },
    {
        "city": "Toledo",
        "state": "PR",
        "district": "Jardim Pancera",
        "street": "Rua Antônio Wilhelm",
        "zipcode": "85902-296"
    },
    {
        "city": "Toledo",
        "state": "PR",
        "district": "Jardim Coopagro",
        "street": "Rua Iraldo Antes",
        "zipcode": "85903-779"
    },
    {
        "city": "Toledo",
        "state": "PR",
        "district": "Vila Pioneiro",
        "street": "Rua Orlando Grebinski",
        "zipcode": "85910-382"
    },
    {
        "city": "Toledo",
        "state": "PR",
        "district": "Jardim Europa",
        "street": "Rua Hilário Duarte",
        "zipcode": "85907-022"
    },
    {
        "city": "Toledo",
        "state": "PR",
        "district": "Jardim Coopagro",
        "street": "Rua Jacinto Domingos Parizotto",
        "zipcode": "85903-760"
    },
    {
        "city": "Toledo",
        "state": "PR",
        "district": "Jardim Concórdia",
        "street": "Rua Sebastião Joel Fogaça",
        "zipcode": "85906-612"
    },
    {
        "city": "Toledo",
        "state": "PR",
        "district": "Jardim Coopagro",
        "street": "Rua Pedro Marcon",
        "zipcode": "85903-776"
    },
    {
        "city": "Toledo",
        "state": "PR",
        "district": "Vila Pioneiro",
        "street": "Rua Sebastião Taborda",
        "zipcode": "85910-316"
    },
    {
        "city": "Toledo",
        "state": "PR",
        "district": "São Francisco",
        "street": "Rua Alécio Pedro Teodoro de Souza",
        "zipcode": "85915-212"
    },
    {
        "city": "Toledo",
        "state": "PR",
        "district": "Jardim Coopagro",
        "street": "Rua Luiz Henry Perin",
        "zipcode": "85903-747"
    },
    {
        "city": "Toledo",
        "state": "PR",
        "district": "Jardim Porto Alegre",
        "street": "Travessa Ernesto Sperotto",
        "zipcode": "85906-320"
    },
    {
        "city": "Toledo",
        "state": "PR",
        "district": "Jardim Bressan",
        "street": "Rua Antônio Nunes da Costa",
        "zipcode": "85913-114"
    },
    {
        "city": "Toledo",
        "state": "PR",
        "district": "Jardim Pancera",
        "street": "Rua Tranquilo Modesto Pizzatto",
        "zipcode": "85902-305"
    },
    {
        "city": "Toledo",
        "state": "PR",
        "district": "São Francisco",
        "street": "Rua João Campagnollo",
        "zipcode": "85915-264"
    },
    {
        "city": "Toledo",
        "state": "PR",
        "district": "Pinheirinho",
        "street": "Rua Ervino Wessel",
        "zipcode": "85907-438"
    },
    {
        "city": "Toledo",
        "state": "PR",
        "district": "Vila Operária",
        "street": "Rua Rute Lemucch Castilho",
        "zipcode": "85909-708"
    },
    {
        "city": "Toledo",
        "state": "PR",
        "district": "Jardim Bressan",
        "street": "Rua Rosália Dartora",
        "zipcode": "85913-115"
    },
    {
        "city": "Toledo",
        "state": "PR",
        "district": "Jardim Concórdia",
        "street": "Rua Guilherme Leyser",
        "zipcode": "85906-732"
    },
    {
        "city": "Toledo",
        "state": "PR",
        "district": "Vila Pioneiro",
        "street": "Rua Ipiranga",
        "zipcode": "85909-250"
    },
    {
        "city": "Toledo",
        "state": "PR",
        "district": "Jardim Gisela",
        "street": "Rua Primo Facchin",
        "zipcode": "85905-560"
    },
    {
        "city": "Toledo",
        "state": "PR",
        "district": "Vila Becker",
        "street": "Rua Ida Becker",
        "zipcode": "85902-550"
    },
    {
        "city": "Toledo",
        "state": "PR",
        "district": "Vila Pioneiro",
        "street": "Rua Naipi",
        "zipcode": "85909-240"
    },
    {
        "city": "Toledo",
        "state": "PR",
        "district": "Centro",
        "street": "Rua Epitácio",
        "zipcode": "85901-055"
    },
    {
        "city": "Toledo",
        "state": "PR",
        "district": "Vila Becker",
        "street": "Rua Padre José Gaertner",
        "zipcode": "85902-517"
    },
    {
        "city": "Toledo",
        "state": "PR",
        "district": "Independência",
        "street": "Rodovia BR",
        "zipcode": "85906-569"
    },
    {
        "city": "Toledo",
        "state": "PR",
        "district": "São Francisco",
        "street": "Rua Antônio Bressan",
        "zipcode": "85915-165"
    },
    {
        "city": "Toledo",
        "state": "PR",
        "district": "Jardim Gisela",
        "street": "Rua Aloísio Anschau",
        "zipcode": "85905-050"
    },
    {
        "city": "Toledo",
        "state": "PR",
        "district": "Vila Industrial",
        "street": "Rua Antônio Comarella",
        "zipcode": "85905-500"
    },
    {
        "city": "Toledo",
        "state": "PR",
        "district": "São Francisco",
        "street": "Rua Augusto Kurschner",
        "zipcode": "85915-160"
    },
    {
        "city": "Toledo",
        "state": "PR",
        "district": "Vila Pioneiro",
        "street": "Rua Britânia",
        "zipcode": "85910-090"
    },
    {
        "city": "Toledo",
        "state": "PR",
        "district": "São Francisco",
        "street": "Rua Bruno Welter",
        "zipcode": "85915-230"
    },
    {
        "city": "Toledo",
        "state": "PR",
        "district": "Jardim La Salle",
        "street": "Rua das Camélias",
        "zipcode": "85902-460"
    },
    {
        "city": "Toledo",
        "state": "PR",
        "district": "Tocantins",
        "street": "Rua Carlos DallAgnolo",
        "zipcode": "85903-600"
    },
    {
        "city": "Toledo",
        "state": "PR",
        "district": "Jardim Coopagro",
        "street": "Rua Doutor Jorge Nunes",
        "zipcode": "85903-520"
    },
    {
        "city": "Toledo",
        "state": "PR",
        "district": "Centro Industrial Meinolfo H Heiss",
        "street": "Rua Edwino Frank",
        "zipcode": "85915-170"
    },
    {
        "city": "Toledo",
        "state": "PR",
        "district": "César Park",
        "street": "Avenida Egydio Geronymo Munaretto",
        "zipcode": "85915-175"
    },
    {
        "city": "Toledo",
        "state": "PR",
        "district": "Centro",
        "street": "Rua Goiás",
        "zipcode": "85901-250"
    },
    {
        "city": "Toledo",
        "state": "PR",
        "district": "Maracanã",
        "street": "Rua do Herval",
        "zipcode": "85910-000"
    },
    {
        "city": "Toledo",
        "state": "PR",
        "district": "Vila Industrial",
        "street": "Rua Joana dArc",
        "zipcode": "85904-320"
    },
    {
        "city": "Toledo",
        "state": "PR",
        "district": "São Francisco",
        "street": "Rua José Gobbi",
        "zipcode": "85915-140"
    },
    {
        "city": "Toledo",
        "state": "PR",
        "district": "Vila Pioneiro",
        "street": "Rua Cambuí",
        "zipcode": "85910-280"
    },
    {
        "city": "Toledo",
        "state": "PR",
        "district": "Centro",
        "street": "Rua Marechal Floriano",
        "zipcode": "85900-080"
    },
    {
        "city": "Toledo",
        "state": "PR",
        "district": "Vila Industrial",
        "street": "Rua Mônaco",
        "zipcode": "85904-110"
    },
    {
        "city": "Toledo",
        "state": "PR",
        "district": "São Francisco",
        "street": "Rua Américo Ângelo Sartori",
        "zipcode": "85915-215"
    },
    {
        "city": "Toledo",
        "state": "PR",
        "district": "São Francisco",
        "street": "Rua José Ângelo Bombardelli",
        "zipcode": "85915-217"
    },
    {
        "city": "Toledo",
        "state": "PR",
        "district": "São Francisco",
        "street": "Rua Ângelo Copetti",
        "zipcode": "85915-237"
    },
    {
        "city": "Toledo",
        "state": "PR",
        "district": "São Francisco",
        "street": "Rua Normélio Michelon",
        "zipcode": "85915-242"
    },
    {
        "city": "Toledo",
        "state": "PR",
        "district": "São Francisco",
        "street": "Rua Regina Colla",
        "zipcode": "85915-246"
    },
    {
        "city": "Toledo",
        "state": "PR",
        "district": "Jardim La Salle",
        "street": "Rua Norberto Nesello",
        "zipcode": "85903-012"
    },
    {
        "city": "Toledo",
        "state": "PR",
        "district": "Jardim Pancera",
        "street": "Rua Luiz Gazzoni",
        "zipcode": "85902-622"
    },
    {
        "city": "Toledo",
        "state": "PR",
        "district": "Tocantins",
        "street": "Rua Denio Georgette",
        "zipcode": "85904-485"
    },
    {
        "city": "Toledo",
        "state": "PR",
        "district": "Tocantins",
        "street": "Rua Cézar Augusto Frasson",
        "zipcode": "85903-343"
    },
    {
        "city": "Toledo",
        "state": "PR",
        "district": "Jardim Panorama",
        "street": "Rua Ernesto Rayser Ramos",
        "zipcode": "85912-146"
    },
    {
        "city": "Toledo",
        "state": "PR",
        "district": "Jardim Panorama",
        "street": "Rua Albertino Samuel Nogueira",
        "zipcode": "85911-109"
    },
    {
        "city": "Toledo",
        "state": "PR",
        "district": "Vila Becker",
        "street": "Rua Padre José Ernani Seimetz",
        "zipcode": "85902-514"
    },
    {
        "city": "Toledo",
        "state": "PR",
        "district": "São Francisco",
        "street": "Rua Vitória",
        "zipcode": "85915-222"
    },
    {
        "city": "Toledo",
        "state": "PR",
        "district": "São Francisco",
        "street": "Rua Tangará",
        "zipcode": "85915-224"
    },
    {
        "city": "Toledo",
        "state": "PR",
        "district": "São Francisco",
        "street": "Rua Hanni Clajus",
        "zipcode": "85915-226"
    },
    {
        "city": "Toledo",
        "state": "PR",
        "district": "Tocantins",
        "street": "Rua Aliança",
        "zipcode": "85904-515"
    },
    {
        "city": "Toledo",
        "state": "PR",
        "district": "Jardim Coopagro",
        "street": "Rua Fernando Tonin",
        "zipcode": "85903-773"
    },
    {
        "city": "Toledo",
        "state": "PR",
        "district": "São Francisco",
        "street": "Rua Mathias Fuhr",
        "zipcode": "85915-228"
    },
    {
        "city": "Toledo",
        "state": "PR",
        "district": "São Francisco",
        "street": "Rua Jacob Alfredo Kaeffer",
        "zipcode": "85915-235"
    },
    {
        "city": "Toledo",
        "state": "PR",
        "district": "Vila Pioneiro",
        "street": "Rua Santa Gema",
        "zipcode": "85909-199"
    },
    {
        "city": "Toledo",
        "state": "PR",
        "district": "São Francisco",
        "street": "Rua São Matheus",
        "zipcode": "85915-260"
    },
    {
        "city": "Toledo",
        "state": "PR",
        "district": "São Francisco",
        "street": "Rua Sestílio Parizotto",
        "zipcode": "85915-150"
    },
    {
        "city": "Toledo",
        "state": "PR",
        "district": "São Francisco",
        "street": "Rua Waldemar Schorr",
        "zipcode": "85915-250"
    },
    {
        "city": "Toledo",
        "state": "PR",
        "district": "Jardim Gisela",
        "street": "Rua Albert Hubner",
        "zipcode": "85905-340"
    },
    {
        "city": "Toledo",
        "state": "PR",
        "district": "São Francisco",
        "street": "Rua Liberata Pedrini",
        "zipcode": "85915-200"
    },
    {
        "city": "Toledo",
        "state": "PR",
        "district": "São Francisco",
        "street": "Rua Pedrini Primo Begin",
        "zipcode": "85915-195"
    },
    {
        "city": "Toledo",
        "state": "PR",
        "district": "Jardim Gisela",
        "street": "Rua Alfredo Fornazari",
        "zipcode": "85905-630"
    },
    {
        "city": "Toledo",
        "state": "PR",
        "district": "Vila Pioneiro",
        "street": "Rua Santa Eliza",
        "zipcode": "85909-325"
    },
    {
        "city": "Toledo",
        "state": "PR",
        "district": "São Francisco",
        "street": "Rua Adelino Formighieri",
        "zipcode": "85915-060"
    },
    {
        "city": "Toledo",
        "state": "PR",
        "district": "Jardim Parizzotto",
        "street": "Rua Alfredo Zibetti",
        "zipcode": "85914-030"
    },
    {
        "city": "Toledo",
        "state": "PR",
        "district": "São Francisco",
        "street": "Rua Amanda Schoennel",
        "zipcode": "85915-120"
    },
    {
        "city": "Toledo",
        "state": "PR",
        "district": "São Francisco",
        "street": "Rua Amélia Tomé",
        "zipcode": "85915-080"
    },
    {
        "city": "Toledo",
        "state": "PR",
        "district": "Jardim Pancera",
        "street": "Rua Anibaldo Hoffmann",
        "zipcode": "85914-140"
    },
    {
        "city": "Toledo",
        "state": "PR",
        "district": "São Francisco",
        "street": "Rua Ângelo Micheletto",
        "zipcode": "85915-210"
    },
    {
        "city": "Toledo",
        "state": "PR",
        "district": "Jardim Pancera",
        "street": "Rua Bom Pastor",
        "zipcode": "85914-100"
    },
    {
        "city": "Toledo",
        "state": "PR",
        "district": "Jardim Parizzotto",
        "street": "Rua Bonifácio Dewes",
        "zipcode": "85914-010"
    },
    {
        "city": "Toledo",
        "state": "PR",
        "district": "Jardim Bressan",
        "street": "Rua David Arcari",
        "zipcode": "85913-200"
    },
    {
        "city": "Toledo",
        "state": "PR",
        "district": "Jardim Parizzotto",
        "street": "Rua Dom Pedro II",
        "zipcode": "85914-000"
    },
    {
        "city": "Toledo",
        "state": "PR",
        "district": "Jardim Pancera",
        "street": "Rua Ervino Hutt",
        "zipcode": "85914-130"
    },
    {
        "city": "Toledo",
        "state": "PR",
        "district": "Jardim Bressan",
        "street": "Rua Gertrudes Ringwald Pedrini",
        "zipcode": "85913-150"
    },
    {
        "city": "Toledo",
        "state": "PR",
        "district": "Jardim Parizzotto",
        "street": "Rua Guido Friedrich",
        "zipcode": "85914-040"
    },
    {
        "city": "Toledo",
        "state": "PR",
        "district": "Jardim Parizzotto",
        "street": "Rua Hilberto Peiter",
        "zipcode": "85914-020"
    },
    {
        "city": "Toledo",
        "state": "PR",
        "district": "Jardim Pancera",
        "street": "Rua Itacorá",
        "zipcode": "85914-080"
    },
    {
        "city": "Toledo",
        "state": "PR",
        "district": "Jardim Bressan",
        "street": "Rua João Arcângelo Rupolo",
        "zipcode": "85913-170"
    },
    {
        "city": "Toledo",
        "state": "PR",
        "district": "Jardim Panorama",
        "street": "Rua Josefina Reffatti",
        "zipcode": "85915-110"
    },
    {
        "city": "Toledo",
        "state": "PR",
        "district": "Jardim Parizzotto",
        "street": "Rua Lúcia Lorenzetti Malacarne",
        "zipcode": "85914-200"
    },
    {
        "city": "Toledo",
        "state": "PR",
        "district": "Jardim Parizzotto",
        "street": "Rua Luigia Olympia Genari Bottin",
        "zipcode": "85914-210"
    },
    {
        "city": "Toledo",
        "state": "PR",
        "district": "Jardim Parizzotto",
        "street": "Rua Luiz de Conto",
        "zipcode": "85914-045"
    },
    {
        "city": "Toledo",
        "state": "PR",
        "district": "São Francisco",
        "street": "Rua Otávio Escremim",
        "zipcode": "85915-040"
    },
    {
        "city": "Toledo",
        "state": "PR",
        "district": "São Francisco",
        "street": "Rua Otília Giaretta",
        "zipcode": "85915-050"
    },
    {
        "city": "Toledo",
        "state": "PR",
        "district": "Jardim Parizzotto",
        "street": "Rua Pedro Inácio Bracht",
        "zipcode": "85914-180"
    },
    {
        "city": "Toledo",
        "state": "PR",
        "district": "Jardim Pancera",
        "street": "Rua Peru",
        "zipcode": "85914-090"
    },
    {
        "city": "Toledo",
        "state": "PR",
        "district": "Fogotti",
        "street": "Rua dos Pioneiros",
        "zipcode": "85914-120"
    },
    {
        "city": "Toledo",
        "state": "PR",
        "district": "São Francisco",
        "street": "Rua Reinaldo Barilli",
        "zipcode": "85915-010"
    },
    {
        "city": "Toledo",
        "state": "PR",
        "district": "São Francisco",
        "street": "Rua Ricardo Otto Schmidt",
        "zipcode": "85915-030"
    },
    {
        "city": "Toledo",
        "state": "PR",
        "district": "Jardim Pancera",
        "street": "Rua Roberto Berwanger",
        "zipcode": "85914-150"
    },
    {
        "city": "Toledo",
        "state": "PR",
        "district": "Jardim Pancera",
        "street": "Rua Romano Feldkircher",
        "zipcode": "85914-170"
    },
    {
        "city": "Toledo",
        "state": "PR",
        "district": "Jardim Recanto",
        "street": "Rodovia PR",
        "zipcode": "85915-090"
    },
    {
        "city": "Toledo",
        "state": "PR",
        "district": "Jardim Parizzotto",
        "street": "Rua Maranhão",
        "zipcode": "85914-060"
    },
    {
        "city": "Toledo",
        "state": "PR",
        "district": "Jardim Pancera",
        "street": "Rua Maranhão",
        "zipcode": "85914-153"
    },
    {
        "city": "Toledo",
        "state": "PR",
        "district": "São Francisco",
        "street": "Rua Otacilio de Lima",
        "zipcode": "85915-192"
    },
    {
        "city": "Toledo",
        "state": "PR",
        "district": "São Francisco",
        "street": "Rua Ambrósio Giaretta",
        "zipcode": "85915-191"
    },
    {
        "city": "Toledo",
        "state": "PR",
        "district": "São Francisco",
        "street": "Rua Avelino Niedermeier",
        "zipcode": "85915-227"
    },
    {
        "city": "Toledo",
        "state": "PR",
        "district": "São Francisco",
        "street": "Avenida Erny Schneider",
        "zipcode": "85915-225"
    },
    {
        "city": "Toledo",
        "state": "PR",
        "district": "São Francisco",
        "street": "Rua Lores Benvenutti",
        "zipcode": "85915-211"
    },
    {
        "city": "Toledo",
        "state": "PR",
        "district": "Conjunto Barão do Rio Branco II",
        "street": "Rua Vereador Waldomiro Franco de Souza",
        "zipcode": "85915-100"
    },
    {
        "city": "Toledo",
        "state": "PR",
        "district": "São Francisco",
        "street": "Rua Victoriano Garico IX",
        "zipcode": "85915-190"
    },
    {
        "city": "Toledo",
        "state": "PR",
        "district": "São Francisco",
        "street": "Rua Wilmar Ribeiro",
        "zipcode": "85915-020"
    },
    {
        "city": "Toledo",
        "state": "PR",
        "district": "Jardim Coopagro",
        "street": "Rua Izaira Tonin",
        "zipcode": "85903-774"
    },
    {
        "city": "Toledo",
        "state": "PR",
        "district": "São Francisco",
        "street": "Rua Oreste Marcondes",
        "zipcode": "85915-132"
    },
    {
        "city": "Toledo",
        "state": "PR",
        "district": "São Francisco",
        "street": "Rua Adelaide Barcellos",
        "zipcode": "85915-131"
    },
    {
        "city": "Toledo",
        "state": "PR",
        "district": "São Francisco",
        "street": "Rua Liberal Bottin",
        "zipcode": "85915-070"
    },
    {
        "city": "Toledo",
        "state": "PR",
        "district": "Jardim Parizzotto",
        "street": "Rua Ernesto Malacarne",
        "zipcode": "85914-190"
    },
    {
        "city": "Toledo",
        "state": "PR",
        "district": "Jardim Bressan",
        "street": "Rua Anor Normélio Dei Svaldi",
        "zipcode": "85913-190"
    },
    {
        "city": "Toledo",
        "state": "PR",
        "district": "São Francisco",
        "street": "Rua Ana Lamchombeck",
        "zipcode": "85915-130"
    },
    {
        "city": "Toledo",
        "state": "PR",
        "district": "Jardim Panorama",
        "street": "Rua Carlos Sbaraini",
        "zipcode": "85915-000"
    },
    {
        "city": "Toledo",
        "state": "PR",
        "district": "Jardim Bressan",
        "street": "Avenida Senador Attilio Fontana",
        "zipcode": "85913-180"
    },
    {
        "city": "Toledo",
        "state": "PR",
        "district": "Jardim Panorama",
        "street": "Rua Adão Alves",
        "zipcode": "85911-240"
    },
    {
        "city": "Toledo",
        "state": "PR",
        "district": "Jardim Panorama",
        "street": "Rua Adolfo Adams",
        "zipcode": "85912-030"
    },
    {
        "city": "Toledo",
        "state": "PR",
        "district": "Jardim Panorama",
        "street": "Rua Alfredo Leite",
        "zipcode": "85911-230"
    },
    {
        "city": "Toledo",
        "state": "PR",
        "district": "Jardim Panorama",
        "street": "Rua Ângelo Fabris",
        "zipcode": "85912-170"
    },
    {
        "city": "Toledo",
        "state": "PR",
        "district": "Jardim Bressan",
        "street": "Rua Antonina",
        "zipcode": "85913-050"
    },
    {
        "city": "Toledo",
        "state": "PR",
        "district": "Jardim Panorama",
        "street": "Rua Augustinho Donin",
        "zipcode": "85912-130"
    },
    {
        "city": "Toledo",
        "state": "PR",
        "district": "Jardim Panorama",
        "street": "Rua Augusto Voss",
        "zipcode": "85912-160"
    },
    {
        "city": "Toledo",
        "state": "PR",
        "district": "Jardim Panorama",
        "street": "Rua Avelino Preto",
        "zipcode": "85911-250"
    },
    {
        "city": "Toledo",
        "state": "PR",
        "district": "Jardim Panorama",
        "street": "Rua Antônio Foiato",
        "zipcode": "85912-120"
    },
    {
        "city": "Toledo",
        "state": "PR",
        "district": "Jardim Bressan",
        "street": "Rua Castro",
        "zipcode": "85913-070"
    },
    {
        "city": "Toledo",
        "state": "PR",
        "district": "Jardim Panorama",
        "street": "Rua Célia Mazzaferro",
        "zipcode": "85912-110"
    },
    {
        "city": "Toledo",
        "state": "PR",
        "district": "Jardim Bressan",
        "street": "Rua Cezar Pedrini",
        "zipcode": "85913-110"
    },
    {
        "city": "Toledo",
        "state": "PR",
        "district": "Jardim Panorama",
        "street": "Rua Edmundo Timm",
        "zipcode": "85912-010"
    },
    {
        "city": "Toledo",
        "state": "PR",
        "district": "Jardim Panorama",
        "street": "Rua Ernesto Dalla Costa",
        "zipcode": "85912-050"
    },
    {
        "city": "Toledo",
        "state": "PR",
        "district": "Jardim Bressan",
        "street": "Rua Eugênio Comin",
        "zipcode": "85913-100"
    },
    {
        "city": "Toledo",
        "state": "PR",
        "district": "Jardim Panorama",
        "street": "Rua Fioravante Campagnolo",
        "zipcode": "85912-070"
    },
    {
        "city": "Toledo",
        "state": "PR",
        "district": "Jardim Panorama",
        "street": "Rua Henrique Mass",
        "zipcode": "85912-200"
    },
    {
        "city": "Toledo",
        "state": "PR",
        "district": "Jardim Panorama",
        "street": "Rua Humberto de Campos",
        "zipcode": "85911-160"
    },
    {
        "city": "Toledo",
        "state": "PR",
        "district": "Jardim Bressan",
        "street": "Rua Joana Presotto Perin",
        "zipcode": "85913-140"
    },
    {
        "city": "Toledo",
        "state": "PR",
        "district": "Jardim Panorama",
        "street": "Rua José Cazzanatto",
        "zipcode": "85911-210"
    },
    {
        "city": "Toledo",
        "state": "PR",
        "district": "Jardim Panorama",
        "street": "Rua José Langer",
        "zipcode": "85912-040"
    },
    {
        "city": "Toledo",
        "state": "PR",
        "district": "Jardim Panorama",
        "street": "Rua Josefina C. Cazzanatto",
        "zipcode": "85911-220"
    },
    {
        "city": "Toledo",
        "state": "PR",
        "district": "Jardim Bressan",
        "street": "Rua Lírio Pedro Belenzier",
        "zipcode": "85913-120"
    },
    {
        "city": "Toledo",
        "state": "PR",
        "district": "Jardim Bressan",
        "street": "Rua Londrina",
        "zipcode": "85913-010"
    },
    {
        "city": "Toledo",
        "state": "PR",
        "district": "Jardim Panorama",
        "street": "Rua Luiz Matielo",
        "zipcode": "85912-190"
    },
    {
        "city": "Toledo",
        "state": "PR",
        "district": "Jardim Panorama",
        "street": "Rua Luiz Pavan",
        "zipcode": "85912-080"
    },
    {
        "city": "Toledo",
        "state": "PR",
        "district": "Jardim Bressan",
        "street": "Rua Morretes",
        "zipcode": "85913-060"
    },
    {
        "city": "Toledo",
        "state": "PR",
        "district": "Jardim Bressan",
        "street": "Rua Pato Branco",
        "zipcode": "85913-030"
    },
    {
        "city": "Toledo",
        "state": "PR",
        "district": "Jardim Bressan",
        "street": "Rua dos Pioneiros",
        "zipcode": "85913-000"
    },
    {
        "city": "Toledo",
        "state": "PR",
        "district": "Jardim Panorama",
        "street": "Rua Senador Accioly Filho",
        "zipcode": "85911-190"
    },
    {
        "city": "Toledo",
        "state": "PR",
        "district": "Jardim Panorama",
        "street": "Rua Senador Rubens de Mello Braga",
        "zipcode": "85911-170"
    },
    {
        "city": "Toledo",
        "state": "PR",
        "district": "Jardim Bressan",
        "street": "Rua Tibagi",
        "zipcode": "85913-080"
    },
    {
        "city": "Toledo",
        "state": "PR",
        "district": "Jardim Panorama",
        "street": "Rua Ulisses Toldo",
        "zipcode": "85912-020"
    },
    {
        "city": "Toledo",
        "state": "PR",
        "district": "Jardim Panorama",
        "street": "Rua Willy Tesch",
        "zipcode": "85912-000"
    },
    {
        "city": "Toledo",
        "state": "PR",
        "district": "Jardim Panorama",
        "street": "Rua Willy Barth",
        "zipcode": "85911-150"
    },
    {
        "city": "Toledo",
        "state": "PR",
        "district": "Jardim Panorama",
        "street": "Rua Arlindo Dreier",
        "zipcode": "85912-150"
    },
    {
        "city": "Toledo",
        "state": "PR",
        "district": "Jardim Panorama",
        "street": "Rua Bolívar José Ruaro",
        "zipcode": "85912-100"
    },
    {
        "city": "Toledo",
        "state": "PR",
        "district": "Jardim Panorama",
        "street": "Rua Luiz Dalcanale Filho",
        "zipcode": "85911-180"
    },
    {
        "city": "Toledo",
        "state": "PR",
        "district": "Jardim Bressan",
        "street": "Rua Dervil Michelin",
        "zipcode": "85913-130"
    },
    {
        "city": "Toledo",
        "state": "PR",
        "district": "Jardim Panorama",
        "street": "Rua Fridolino Tiel",
        "zipcode": "85912-090"
    },
    {
        "city": "Toledo",
        "state": "PR",
        "district": "Jardim Panorama",
        "street": "Rua Henrique Possan",
        "zipcode": "85912-180"
    },
    {
        "city": "Toledo",
        "state": "PR",
        "district": "Jardim Bressan",
        "street": "Rua Paranavaí",
        "zipcode": "85913-040"
    },
    {
        "city": "Toledo",
        "state": "PR",
        "district": "Jardim Bressan",
        "street": "Rua Tranquilo Modesto Pizzatto",
        "zipcode": "85913-118"
    },
    {
        "city": "Toledo",
        "state": "PR",
        "district": "Jardim Bressan",
        "street": "Rua Genovefa Pizzato",
        "zipcode": "85913-116"
    },
    {
        "city": "Toledo",
        "state": "PR",
        "district": "Jardim Panorama",
        "street": "Rua Carlos Sbaraini",
        "zipcode": "85911-200"
    },
    {
        "city": "Toledo",
        "state": "PR",
        "district": "Jardim Panorama",
        "street": "Rua Gustavo Barroso",
        "zipcode": "85911-140"
    },
    {
        "city": "Toledo",
        "state": "PR",
        "district": "Jardim Panorama",
        "street": "Avenida Senador Attilio Fontana",
        "zipcode": "85911-260"
    },
    {
        "city": "Toledo",
        "state": "PR",
        "district": "Jardim Panorama",
        "street": "Avenida Senador Attilio Fontana",
        "zipcode": "85912-140"
    },
    {
        "city": "Toledo",
        "state": "PR",
        "district": "Jardim Panorama",
        "street": "Rua José Clineu Angoneze",
        "zipcode": "85911-111"
    },
    {
        "city": "Toledo",
        "state": "PR",
        "district": "Jardim Panorama",
        "street": "Rua João Roland Lentsch",
        "zipcode": "85911-113"
    },
    {
        "city": "Toledo",
        "state": "PR",
        "district": "Vila Pioneiro",
        "street": "Rua Capitão Leônidas Marques",
        "zipcode": "85910-315"
    },
    {
        "city": "Toledo",
        "state": "PR",
        "district": "Vila Pioneiro",
        "street": "Rua Navílio Donassolo",
        "zipcode": "85910-310"
    },
    {
        "city": "Toledo",
        "state": "PR",
        "district": "Vila Pioneiro",
        "street": "Rua Ângela Fornari",
        "zipcode": "85910-120"
    },
    {
        "city": "Toledo",
        "state": "PR",
        "district": "Vila Pioneiro",
        "street": "Rua Arlei Leonardi",
        "zipcode": "85910-270"
    },
    {
        "city": "Toledo",
        "state": "PR",
        "district": "Jardim Paulista",
        "street": "Rua dos Bandeirantes",
        "zipcode": "85910-200"
    },
    {
        "city": "Toledo",
        "state": "PR",
        "district": "Jardim Panorama",
        "street": "Rua Batista Luzardo",
        "zipcode": "85911-050"
    },
    {
        "city": "Toledo",
        "state": "PR",
        "district": "Vila Pioneiro",
        "street": "Rua Capitão Índio Bandeira",
        "zipcode": "85910-330"
    },
    {
        "city": "Toledo",
        "state": "PR",
        "district": "Jardim Panorama",
        "street": "Rua Carlos Abel Munaretto",
        "zipcode": "85911-100"
    },
    {
        "city": "Toledo",
        "state": "PR",
        "district": "Jardim Panorama",
        "street": "Rua Doutor Cid Marcondes de Albuquerque",
        "zipcode": "85911-070"
    },
    {
        "city": "Toledo",
        "state": "PR",
        "district": "Jardim Panorama",
        "street": "Rua Doutor Olavo Secco Rigon",
        "zipcode": "85911-080"
    },
    {
        "city": "Toledo",
        "state": "PR",
        "district": "Jardim Panorama",
        "street": "Avenida Egydio Geronymo Munaretto",
        "zipcode": "85911-000"
    },
    {
        "city": "Toledo",
        "state": "PR",
        "district": "Vila Pioneiro",
        "street": "Avenida Egydio Geronymo Munaretto",
        "zipcode": "85910-320"
    },
    {
        "city": "Toledo",
        "state": "PR",
        "district": "Vila Pioneiro",
        "street": "Rua Alcebíades Formighieri",
        "zipcode": "85910-130"
    },
    {
        "city": "Toledo",
        "state": "PR",
        "district": "Jardim Panorama",
        "street": "Rua General Flores da Cunha",
        "zipcode": "85911-030"
    },
    {
        "city": "Toledo",
        "state": "PR",
        "district": "Vila Pioneiro",
        "street": "Rua Gonçalves Ledo",
        "zipcode": "85910-160"
    },
    {
        "city": "Toledo",
        "state": "PR",
        "district": "Jardim Panorama",
        "street": "Rua Governador Irineu Bornhausen",
        "zipcode": "85911-090"
    },
    {
        "city": "Toledo",
        "state": "PR",
        "district": "Vila Pioneiro",
        "street": "Rua Hermínio Nichetti",
        "zipcode": "85910-290"
    },
    {
        "city": "Toledo",
        "state": "PR",
        "district": "Jardim Panorama",
        "street": "Rua Honório Lemos",
        "zipcode": "85911-060"
    },
    {
        "city": "Toledo",
        "state": "PR",
        "district": "Jardim Paulista",
        "street": "Rua dos Imigrantes",
        "zipcode": "85910-210"
    },
    {
        "city": "Toledo",
        "state": "PR",
        "district": "Vila Pioneiro",
        "street": "Rua Inácio Lustosa",
        "zipcode": "85910-180"
    },
    {
        "city": "Toledo",
        "state": "PR",
        "district": "Jardim Panorama",
        "street": "Travessa Itararé",
        "zipcode": "85911-040"
    },
    {
        "city": "Toledo",
        "state": "PR",
        "district": "Vila Pioneiro",
        "street": "Rua José Venâncio Heiss",
        "zipcode": "85910-135"
    },
    {
        "city": "Toledo",
        "state": "PR",
        "district": "Vila Pioneiro",
        "street": "Rua Lopei",
        "zipcode": "85910-230"
    },
    {
        "city": "Toledo",
        "state": "PR",
        "district": "Jardim Paulista",
        "street": "Rua Manoel da Nóbrega",
        "zipcode": "85910-215"
    },
    {
        "city": "Toledo",
        "state": "PR",
        "district": "Jardim Panorama",
        "street": "Rua Ministro Petrônio Portela",
        "zipcode": "85911-020"
    },
    {
        "city": "Toledo",
        "state": "PR",
        "district": "Vila Pioneiro",
        "street": "Rua Nilo Cairo",
        "zipcode": "85910-140"
    },
    {
        "city": "Toledo",
        "state": "PR",
        "district": "Vila Pioneiro",
        "street": "Rua Noel Rosa",
        "zipcode": "85910-250"
    },
    {
        "city": "Toledo",
        "state": "PR",
        "district": "Vila Pioneiro",
        "street": "Rua Oscar Pedrini",
        "zipcode": "85910-170"
    },
    {
        "city": "Toledo",
        "state": "PR",
        "district": "Jardim Panorama",
        "street": "Rua Oswaldo Aranha",
        "zipcode": "85911-010"
    },
    {
        "city": "Toledo",
        "state": "PR",
        "district": "Vila Pioneiro",
        "street": "Rua Padre Francisco",
        "zipcode": "85910-265"
    },
    {
        "city": "Toledo",
        "state": "PR",
        "district": "Vila Pioneiro",
        "street": "Rua Mário Fontana",
        "zipcode": "85910-190"
    },
    {
        "city": "Toledo",
        "state": "PR",
        "district": "Jardim Panorama",
        "street": "Rua Mário Fontana",
        "zipcode": "85911-110"
    },
    {
        "city": "Toledo",
        "state": "PR",
        "district": "Vila Pioneiro",
        "street": "Rua Tomaz Edson",
        "zipcode": "85910-240"
    },
    {
        "city": "Toledo",
        "state": "PR",
        "district": "Vila Pioneiro",
        "street": "Rua Triunfo",
        "zipcode": "85910-136"
    },
    {
        "city": "Toledo",
        "state": "PR",
        "district": "Vila Pioneiro",
        "street": "Rua Vereador José Pedro Brum",
        "zipcode": "85910-105"
    },
    {
        "city": "Toledo",
        "state": "PR",
        "district": "Vila Pioneiro",
        "street": "Rua Capitão Leônidas Marques",
        "zipcode": "85910-300"
    },
    {
        "city": "Toledo",
        "state": "PR",
        "district": "Vila Pioneiro",
        "street": "Rua João Negrão",
        "zipcode": "85910-150"
    },
    {
        "city": "Toledo",
        "state": "PR",
        "district": "Jardim Panorama",
        "street": "Rua Tereza Barbieri",
        "zipcode": "85911-105"
    },
    {
        "city": "Toledo",
        "state": "PR",
        "district": "Jardim Panorama",
        "street": "Rua Alvina Rosa Medeiros",
        "zipcode": "85911-106"
    },
    {
        "city": "Toledo",
        "state": "PR",
        "district": "Jardim Panorama",
        "street": "Rua Lourdes Pereira Fedre",
        "zipcode": "85911-108"
    },
    {
        "city": "Toledo",
        "state": "PR",
        "district": "Vila Pioneiro",
        "street": "Rua Dilezia Doni Maschio",
        "zipcode": "85910-329"
    },
    {
        "city": "Toledo",
        "state": "PR",
        "district": "Vila Pioneiro",
        "street": "Rua Hilda Angela de Marchi",
        "zipcode": "85910-327"
    },
    {
        "city": "Toledo",
        "state": "PR",
        "district": "Vila Pioneiro",
        "street": "Rua Ariel Leonardi",
        "zipcode": "85910-328"
    },
    {
        "city": "Toledo",
        "state": "PR",
        "district": "Vila Pioneiro",
        "street": "Rua Cristiano Dezanetti",
        "zipcode": "85910-325"
    },
    {
        "city": "Toledo",
        "state": "PR",
        "district": "Vila Pioneiro",
        "street": "Rua Primeiro de Maio",
        "zipcode": "85910-981"
    },
    {
        "city": "Toledo",
        "state": "PR",
        "district": "Vila Pioneiro",
        "street": "Rua Vereador Francisco Galdino de Lima",
        "zipcode": "85910-110"
    },
    {
        "city": "Toledo",
        "state": "PR",
        "district": "Vila Pioneiro",
        "street": "Rua Amélia Bianca",
        "zipcode": "85909-650"
    },
    {
        "city": "Toledo",
        "state": "PR",
        "district": "Vila Pioneiro",
        "street": "Rua Anita Garibaldi",
        "zipcode": "85909-590"
    },
    {
        "city": "Toledo",
        "state": "PR",
        "district": "Vila Pioneiro",
        "street": "Rua Antenor Pavan",
        "zipcode": "85909-745"
    },
    {
        "city": "Toledo",
        "state": "PR",
        "district": "Vila Operária",
        "street": "Rua Antônio Benevides Soares",
        "zipcode": "85909-720"
    },
    {
        "city": "Toledo",
        "state": "PR",
        "district": "Vila Pioneiro",
        "street": "Rua Antônio Humberto Guimarães",
        "zipcode": "85909-610"
    },
    {
        "city": "Toledo",
        "state": "PR",
        "district": "Vila Pioneiro",
        "street": "Rua Arroio Toledo",
        "zipcode": "85909-660"
    },
    {
        "city": "Toledo",
        "state": "PR",
        "district": "Vila Pioneiro",
        "street": "Rua Capitão Tisiano",
        "zipcode": "85910-100"
    },
    {
        "city": "Toledo",
        "state": "PR",
        "district": "Vila Pioneiro",
        "street": "Rua Carlos João Treis",
        "zipcode": "85909-600"
    },
    {
        "city": "Toledo",
        "state": "PR",
        "district": "Jardim Paulista",
        "street": "Rua do Cedro",
        "zipcode": "85909-625"
    },
    {
        "city": "Toledo",
        "state": "PR",
        "district": "Vila Pioneiro",
        "street": "Rua Desembargador Hugo Simas",
        "zipcode": "85909-500"
    },
    {
        "city": "Toledo",
        "state": "PR",
        "district": "Vila Pioneiro",
        "street": "Rua Emma Hubner",
        "zipcode": "85909-747"
    },
    {
        "city": "Toledo",
        "state": "PR",
        "district": "Vila Pioneiro",
        "street": "Travessa Felipe Camarão",
        "zipcode": "85910-055"
    },
    {
        "city": "Toledo",
        "state": "PR",
        "district": "Vila Pioneiro",
        "street": "Rua Fernandes Vieira",
        "zipcode": "85909-560"
    },
    {
        "city": "Toledo",
        "state": "PR",
        "district": "Vila Pioneiro",
        "street": "Rua Gonçalves Dias",
        "zipcode": "85909-540"
    },
    {
        "city": "Toledo",
        "state": "PR",
        "district": "Vila Brasil",
        "street": "Rua Guiné",
        "zipcode": "85909-626"
    },
    {
        "city": "Toledo",
        "state": "PR",
        "district": "Jardim Cassandra",
        "street": "Rua Itajubá",
        "zipcode": "85909-627"
    },
    {
        "city": "Toledo",
        "state": "PR",
        "district": "Vila Pioneiro",
        "street": "Rua Itapuã",
        "zipcode": "85909-520"
    },
    {
        "city": "Toledo",
        "state": "PR",
        "district": "Centro",
        "street": "Rua João Riscarolli",
        "zipcode": "85909-685"
    },
    {
        "city": "Toledo",
        "state": "PR",
        "district": "Vila Pioneiro",
        "street": "Rua Joaquim Nabuco",
        "zipcode": "85910-010"
    },
    {
        "city": "Toledo",
        "state": "PR",
        "district": "Vila Pioneiro",
        "street": "Rua José do Patrocínio",
        "zipcode": "85910-060"
    },
    {
        "city": "Toledo",
        "state": "PR",
        "district": "Vila Pioneiro",
        "street": "Rua Lisboa",
        "zipcode": "85909-670"
    },
    {
        "city": "Toledo",
        "state": "PR",
        "district": "Vila Pioneiro",
        "street": "Rua Maceió",
        "zipcode": "85909-530"
    },
    {
        "city": "Toledo",
        "state": "PR",
        "district": "Vila Pioneiro",
        "street": "Rua Manoel Ribas",
        "zipcode": "85909-550"
    },
    {
        "city": "Toledo",
        "state": "PR",
        "district": "Vila Pioneiro",
        "street": "Rua Marcílio Dias",
        "zipcode": "85909-580"
    },
    {
        "city": "Toledo",
        "state": "PR",
        "district": "Vila Pioneiro",
        "street": "Rua Maria José Mendes",
        "zipcode": "85910-056"
    },
    {
        "city": "Toledo",
        "state": "PR",
        "district": "Vila Pioneiro",
        "street": "Rua Marília",
        "zipcode": "85909-630"
    },
    {
        "city": "Toledo",
        "state": "PR",
        "district": "Vila Operária",
        "street": "Rua Martin Heck",
        "zipcode": "85909-710"
    },
    {
        "city": "Toledo",
        "state": "PR",
        "district": "Vila Brasil",
        "street": "Rua Olívia Leonardi",
        "zipcode": "85909-628"
    },
    {
        "city": "Toledo",
        "state": "PR",
        "district": "Vila Pioneiro",
        "street": "Rua Paraíba",
        "zipcode": "85909-510"
    },
    {
        "city": "Toledo",
        "state": "PR",
        "district": "Vila Pioneiro",
        "street": "Rua Paulista",
        "zipcode": "85909-655"
    },
    {
        "city": "Toledo",
        "state": "PR",
        "district": "Vila Brasil",
        "street": "Rua Piratini",
        "zipcode": "85909-629"
    },
    {
        "city": "Toledo",
        "state": "PR",
        "district": "Vila Pioneiro",
        "street": "Rua Ricardo Refatti",
        "zipcode": "85909-746"
    },
    {
        "city": "Toledo",
        "state": "PR",
        "district": "Vila Pioneiro",
        "street": "Rua Santa Cecília",
        "zipcode": "85909-635"
    },
    {
        "city": "Toledo",
        "state": "PR",
        "district": "Centro",
        "street": "Rua Santa Cruz",
        "zipcode": "85909-680"
    },
    {
        "city": "Toledo",
        "state": "PR",
        "district": "Vila Pioneiro",
        "street": "Rua dos Santos",
        "zipcode": "85909-645"
    },
    {
        "city": "Toledo",
        "state": "PR",
        "district": "Vila Pioneiro",
        "street": "Rua Treze de Maio",
        "zipcode": "85909-637"
    },
    {
        "city": "Toledo",
        "state": "PR",
        "district": "Vila Pioneiro",
        "street": "Rua Vasco da Gama",
        "zipcode": "85910-030"
    },
    {
        "city": "Toledo",
        "state": "PR",
        "district": "Centro",
        "street": "Rua Vitória",
        "zipcode": "85909-690"
    },
    {
        "city": "Toledo",
        "state": "PR",
        "district": "Vila Pioneiro",
        "street": "Rua Cristóvão Colombo",
        "zipcode": "85909-570"
    },
    {
        "city": "Toledo",
        "state": "PR",
        "district": "Vila Pioneiro",
        "street": "Rua Santa Tereza",
        "zipcode": "85909-636"
    },
    {
        "city": "Toledo",
        "state": "PR",
        "district": "Vila Pioneiro",
        "street": "Rua Chalé de Minas",
        "zipcode": "85910-050"
    },
    {
        "city": "Toledo",
        "state": "PR",
        "district": "Vila Pioneiro",
        "street": "Rua Doutor Cyro Fernandes do Lago",
        "zipcode": "85910-020"
    },
    {
        "city": "Toledo",
        "state": "PR",
        "district": "Vila Pioneiro",
        "street": "Rua Rita Leduc Maschio",
        "zipcode": "85909-700"
    },
    {
        "city": "Toledo",
        "state": "PR",
        "district": "Vila Pioneiro",
        "street": "Rua Alcides Paraíba dos Santos",
        "zipcode": "85909-490"
    },
    {
        "city": "Toledo",
        "state": "PR",
        "district": "Vila Operária",
        "street": "Rua Natal Pedro Zibetti",
        "zipcode": "85909-707"
    },
    {
        "city": "Toledo",
        "state": "PR",
        "district": "Vila Pioneiro",
        "street": "Rua Santa Clara",
        "zipcode": "85909-193"
    },
    {
        "city": "Toledo",
        "state": "PR",
        "district": "Vila Operária",
        "street": "Rua da Igreja",
        "zipcode": "85909-723"
    },
    {
        "city": "Toledo",
        "state": "PR",
        "district": "Vila Becker",
        "street": "Rua Padre Henrique Helling",
        "zipcode": "85902-512"
    },
    {
        "city": "Toledo",
        "state": "PR",
        "district": "Vila Pioneiro",
        "street": "Rua Domingos Miotto",
        "zipcode": "85910-322"
    },
    {
        "city": "Toledo",
        "state": "PR",
        "district": "Vila Pioneiro",
        "street": "Rua Leonório José Zini",
        "zipcode": "85910-318"
    },
    {
        "city": "Toledo",
        "state": "PR",
        "district": "Vila Pioneiro",
        "street": "Marginal Donassolo",
        "zipcode": "85910-321"
    },
    {
        "city": "Toledo",
        "state": "PR",
        "district": "Vila Pioneiro",
        "street": "Rua Maria Simonatto Slongo",
        "zipcode": "85910-319"
    },
    {
        "city": "Toledo",
        "state": "PR",
        "district": "Vila Pioneiro",
        "street": "Rua Odir Paulo Cereja",
        "zipcode": "85910-317"
    },
    {
        "city": "Toledo",
        "state": "PR",
        "district": "Vila Pioneiro",
        "street": "Rua Ângela Tonial",
        "zipcode": "85909-340"
    },
    {
        "city": "Toledo",
        "state": "PR",
        "district": "Vila Pioneiro",
        "street": "Rua Antônio Zanela",
        "zipcode": "85909-345"
    },
    {
        "city": "Toledo",
        "state": "PR",
        "district": "Vila Pioneiro",
        "street": "Rua Coronel Aparício Borges",
        "zipcode": "85909-360"
    },
    {
        "city": "Toledo",
        "state": "PR",
        "district": "Vila Pioneiro",
        "street": "Rua Cruzeiro",
        "zipcode": "85909-440"
    },
    {
        "city": "Toledo",
        "state": "PR",
        "district": "Vila Pioneiro",
        "street": "Rua Diamantina",
        "zipcode": "85909-300"
    },
    {
        "city": "Toledo",
        "state": "PR",
        "district": "Vila Pioneiro",
        "street": "Rua Eldorado",
        "zipcode": "85909-260"
    },
    {
        "city": "Toledo",
        "state": "PR",
        "district": "Vila Pioneiro",
        "street": "Rua Engenheiro Beltrão",
        "zipcode": "85909-200"
    },
    {
        "city": "Toledo",
        "state": "PR",
        "district": "Vila Pioneiro",
        "street": "Rua Engenheiro Rebouças",
        "zipcode": "85909-445"
    },
    {
        "city": "Toledo",
        "state": "PR",
        "district": "Vila Pioneiro",
        "street": "Rua dos Eucaliptos",
        "zipcode": "85909-470"
    },
    {
        "city": "Toledo",
        "state": "PR",
        "district": "Vila Pioneiro",
        "street": "Rua Fortaleza",
        "zipcode": "85909-390"
    },
    {
        "city": "Toledo",
        "state": "PR",
        "district": "Vila Pioneiro",
        "street": "Rua Garibaldi",
        "zipcode": "85909-640"
    },
    {
        "city": "Toledo",
        "state": "PR",
        "district": "Vila Pioneiro",
        "street": "Rua Itacolomi",
        "zipcode": "85909-380"
    },
    {
        "city": "Toledo",
        "state": "PR",
        "district": "Vila Pioneiro",
        "street": "Rua do Jardineiro",
        "zipcode": "85909-236"
    },
    {
        "city": "Toledo",
        "state": "PR",
        "district": "Vila Pioneiro",
        "street": "Rua Laguna",
        "zipcode": "85909-430"
    },
    {
        "city": "Toledo",
        "state": "PR",
        "district": "Vila Pioneiro",
        "street": "Rua Machado de Assis",
        "zipcode": "85909-350"
    },
    {
        "city": "Toledo",
        "state": "PR",
        "district": "Vila Pioneiro",
        "street": "Rua Mário Pudell",
        "zipcode": "85909-446"
    },
    {
        "city": "Toledo",
        "state": "PR",
        "district": "Vila Brasil",
        "street": "Avenida Maripá",
        "zipcode": "85909-220"
    },
    {
        "city": "Toledo",
        "state": "PR",
        "district": "Vila Pioneiro",
        "street": "Rua Monte Alegre",
        "zipcode": "85909-270"
    },
    {
        "city": "Toledo",
        "state": "PR",
        "district": "Vila Pioneiro",
        "street": "Rua Monte Castelo",
        "zipcode": "85909-196"
    },
    {
        "city": "Toledo",
        "state": "PR",
        "district": "Vila Pioneiro",
        "street": "Rua Moreira Salles",
        "zipcode": "85909-225"
    },
    {
        "city": "Toledo",
        "state": "PR",
        "district": "Vila Pioneiro",
        "street": "Rua Paranaguá",
        "zipcode": "85909-480"
    },
    {
        "city": "Toledo",
        "state": "PR",
        "district": "Vila Pioneiro",
        "street": "Rua Paulo Kipper",
        "zipcode": "85909-320"
    },
    {
        "city": "Toledo",
        "state": "PR",
        "district": "Vila Pioneiro",
        "street": "Rua da Piscina",
        "zipcode": "85909-410"
    },
    {
        "city": "Toledo",
        "state": "PR",
        "district": "Vila Pioneiro",
        "street": "Rua Pontal",
        "zipcode": "85909-305"
    },
    {
        "city": "Toledo",
        "state": "PR",
        "district": "Vila Pioneiro",
        "street": "Rua Primeiro de Janeiro",
        "zipcode": "85909-420"
    },
    {
        "city": "Toledo",
        "state": "PR",
        "district": "Vila Operária",
        "street": "Rua Riachuelo",
        "zipcode": "85909-226"
    },
    {
        "city": "Toledo",
        "state": "PR",
        "district": "Vila Pioneiro",
        "street": "Rua Ribeirinho",
        "zipcode": "85909-197"
    },
    {
        "city": "Toledo",
        "state": "PR",
        "district": "Vila Pioneiro",
        "street": "Rua Rubelite Salinas",
        "zipcode": "85909-198"
    },
    {
        "city": "Toledo",
        "state": "PR",
        "district": "Vila Operária",
        "street": "Rua Sagrada Família",
        "zipcode": "85909-227"
    },
    {
        "city": "Toledo",
        "state": "PR",
        "district": "Vila Operária",
        "street": "Rua Santa Clara",
        "zipcode": "85909-228"
    },
    {
        "city": "Toledo",
        "state": "PR",
        "district": "Vila Pioneiro",
        "street": "Rua Santo Amaro",
        "zipcode": "85909-330"
    },
    {
        "city": "Toledo",
        "state": "PR",
        "district": "Vila Pioneiro",
        "street": "Rua São Jorge",
        "zipcode": "85909-370"
    },
    {
        "city": "Toledo",
        "state": "PR",
        "district": "Vila Pioneiro",
        "street": "Rua São Miguel",
        "zipcode": "85909-255"
    },
    {
        "city": "Toledo",
        "state": "PR",
        "district": "Vila Pioneiro",
        "street": "Rua Sapucaia",
        "zipcode": "85909-447"
    },
    {
        "city": "Toledo",
        "state": "PR",
        "district": "Vila Pioneiro",
        "street": "Rua Silva Jardim",
        "zipcode": "85909-405"
    },
    {
        "city": "Toledo",
        "state": "PR",
        "district": "Vila Pioneiro",
        "street": "Rua Tarobá",
        "zipcode": "85909-448"
    },
    {
        "city": "Toledo",
        "state": "PR",
        "district": "Vila Pioneiro",
        "street": "Rua Tarumã",
        "zipcode": "85909-460"
    },
    {
        "city": "Toledo",
        "state": "PR",
        "district": "Vila Pioneiro",
        "street": "Travessa Tomaz Gonzaga",
        "zipcode": "85909-285"
    },
    {
        "city": "Toledo",
        "state": "PR",
        "district": "Vila Pioneiro",
        "street": "Rua Vicente Carvalho",
        "zipcode": "85909-416"
    },
    {
        "city": "Toledo",
        "state": "PR",
        "district": "Vila Pioneiro",
        "street": "Rua Vinte e Cinco de Julho",
        "zipcode": "85909-295"
    },
    {
        "city": "Toledo",
        "state": "PR",
        "district": "Vila Pioneiro",
        "street": "Rua Vinte e Um de Abril",
        "zipcode": "85909-475"
    },
    {
        "city": "Toledo",
        "state": "PR",
        "district": "Vila Pioneiro",
        "street": "Rua Xavantes",
        "zipcode": "85909-450"
    },
    {
        "city": "Toledo",
        "state": "PR",
        "district": "Vila Pioneiro",
        "street": "Rua Germano Pizetta",
        "zipcode": "85909-400"
    },
    {
        "city": "Toledo",
        "state": "PR",
        "district": "Vila Pioneiro",
        "street": "Rua Monte Carlo",
        "zipcode": "85909-310"
    },
    {
        "city": "Toledo",
        "state": "PR",
        "district": "Vila Pioneiro",
        "street": "Rua da Felicidade",
        "zipcode": "85909-195"
    },
    {
        "city": "Toledo",
        "state": "PR",
        "district": "Vila Pioneiro",
        "street": "Rua Padre Luciano Ambrosini",
        "zipcode": "85909-210"
    },
    {
        "city": "Toledo",
        "state": "PR",
        "district": "Vila Pioneiro",
        "street": "Rua Francisco Alves",
        "zipcode": "85909-230"
    },
    {
        "city": "Toledo",
        "state": "PR",
        "district": "Jardim Europa",
        "street": "Rua Atílio de Bona",
        "zipcode": "85908-270"
    },
    {
        "city": "Toledo",
        "state": "PR",
        "district": "Jardim Europa",
        "street": "Rua Augusto Negri",
        "zipcode": "85908-300"
    },
    {
        "city": "Toledo",
        "state": "PR",
        "district": "Jardim Europa",
        "street": "Rua Balduíno Felicetti",
        "zipcode": "85908-274"
    },
    {
        "city": "Toledo",
        "state": "PR",
        "district": "Vila Pioneiro",
        "street": "Rua Boa Esperança",
        "zipcode": "85909-100"
    },
    {
        "city": "Toledo",
        "state": "PR",
        "district": "Vila Pioneiro",
        "street": "Rua Bom Jardim",
        "zipcode": "85909-140"
    },
    {
        "city": "Toledo",
        "state": "PR",
        "district": "Vila Pioneiro",
        "street": "Rua Caldas Júnior",
        "zipcode": "85909-120"
    },
    {
        "city": "Toledo",
        "state": "PR",
        "district": "Jardim Europa",
        "street": "Rua Castro Alves",
        "zipcode": "85908-140"
    },
    {
        "city": "Toledo",
        "state": "PR",
        "district": "Vila Pioneiro",
        "street": "Rua Cianorte",
        "zipcode": "85909-040"
    },
    {
        "city": "Toledo",
        "state": "PR",
        "district": "Jardim Europa",
        "street": "Rua Coraldino Severo Vaz",
        "zipcode": "85908-230"
    },
    {
        "city": "Toledo",
        "state": "PR",
        "district": "Vila Pioneiro",
        "street": "Rua Curitiba",
        "zipcode": "85909-150"
    },
    {
        "city": "Toledo",
        "state": "PR",
        "district": "Jardim Europa",
        "street": "Rua Dionísio Veronese",
        "zipcode": "85908-350"
    },
    {
        "city": "Toledo",
        "state": "PR",
        "district": "Jardim Europa",
        "street": "Rua Eduardo Domaradski",
        "zipcode": "85908-250"
    },
    {
        "city": "Toledo",
        "state": "PR",
        "district": "Vila Pioneiro",
        "street": "Rua Edvino Grahl",
        "zipcode": "85909-115"
    },
    {
        "city": "Toledo",
        "state": "PR",
        "district": "Jardim Europa",
        "street": "Rua Félix da Cunha",
        "zipcode": "85908-340"
    },
    {
        "city": "Toledo",
        "state": "PR",
        "district": "Vila Pioneiro",
        "street": "Rua Frei Orlando",
        "zipcode": "85909-090"
    },
    {
        "city": "Toledo",
        "state": "PR",
        "district": "Vila Pioneiro",
        "street": "Rua Frei Teófilo",
        "zipcode": "85909-095"
    },
    {
        "city": "Toledo",
        "state": "PR",
        "district": "Vila Pioneiro",
        "street": "Rua Frei Timóteo",
        "zipcode": "85909-096"
    },
    {
        "city": "Toledo",
        "state": "PR",
        "district": "Jardim Europa",
        "street": "Rua General Câmara",
        "zipcode": "85908-180"
    },
    {
        "city": "Toledo",
        "state": "PR",
        "district": "Vila Pioneiro",
        "street": "Rua Guarati",
        "zipcode": "85909-080"
    },
    {
        "city": "Toledo",
        "state": "PR",
        "district": "Vila Operária",
        "street": "Rua dos Ipês",
        "zipcode": "85909-060"
    },
    {
        "city": "Toledo",
        "state": "PR",
        "district": "Jardim Europa",
        "street": "Rua Isidoro Vera",
        "zipcode": "85908-360"
    },
    {
        "city": "Toledo",
        "state": "PR",
        "district": "Vila Pioneiro",
        "street": "Rua Itaperuna",
        "zipcode": "85909-020"
    },
    {
        "city": "Toledo",
        "state": "PR",
        "district": "Jardim Europa",
        "street": "Rua João Pessoa",
        "zipcode": "85908-160"
    },
    {
        "city": "Toledo",
        "state": "PR",
        "district": "Jardim Europa",
        "street": "Rua João Zanolla",
        "zipcode": "85908-280"
    },
    {
        "city": "Toledo",
        "state": "PR",
        "district": "Jardim Europa",
        "street": "Rua José de Alencar",
        "zipcode": "85908-120"
    },
    {
        "city": "Toledo",
        "state": "PR",
        "district": "Jardim Europa",
        "street": "Rua José do Patrocínio",
        "zipcode": "85908-130"
    },
    {
        "city": "Toledo",
        "state": "PR",
        "district": "Vila Operária",
        "street": "Rua das Laranjeiras",
        "zipcode": "85909-070"
    },
    {
        "city": "Toledo",
        "state": "PR",
        "district": "Vila Pioneiro",
        "street": "Rua Leopoldo Rambo",
        "zipcode": "85909-045"
    },
    {
        "city": "Toledo",
        "state": "PR",
        "district": "Jardim Europa",
        "street": "Rua Manoel Bandeira",
        "zipcode": "85908-110"
    },
    {
        "city": "Toledo",
        "state": "PR",
        "district": "Jardim Europa",
        "street": "Avenida Maripá",
        "zipcode": "85908-220"
    },
    {
        "city": "Toledo",
        "state": "PR",
        "district": "Jardim Europa",
        "street": "Rua Marquês de Pombal",
        "zipcode": "85908-170"
    },
    {
        "city": "Toledo",
        "state": "PR",
        "district": "Jardim Europa",
        "street": "Rua Osvaldo Cruz",
        "zipcode": "85908-190"
    },
    {
        "city": "Toledo",
        "state": "PR",
        "district": "Jardim Europa",
        "street": "Rua Pedro Álvares Cabral",
        "zipcode": "85908-150"
    },
    {
        "city": "Toledo",
        "state": "PR",
        "district": "Vila Pioneiro",
        "street": "Rua do Pinhal",
        "zipcode": "85909-030"
    },
    {
        "city": "Toledo",
        "state": "PR",
        "district": "Vila Pioneiro",
        "street": "Rua Pitanga",
        "zipcode": "85909-086"
    },
    {
        "city": "Toledo",
        "state": "PR",
        "district": "Vila Pioneiro",
        "street": "Rua Getúlio Vargas",
        "zipcode": "85909-110"
    },
    {
        "city": "Toledo",
        "state": "PR",
        "district": "Vila Pioneiro",
        "street": "Rua Primeiro de Maio",
        "zipcode": "85909-010"
    },
    {
        "city": "Toledo",
        "state": "PR",
        "district": "Jardim Europa",
        "street": "Rua Prudente de Morais",
        "zipcode": "85908-200"
    },
    {
        "city": "Toledo",
        "state": "PR",
        "district": "Jardim Europa",
        "street": "Rua Quintino Bocaiúva",
        "zipcode": "85908-210"
    },
    {
        "city": "Toledo",
        "state": "PR",
        "district": "Vila Becker",
        "street": "Rua Redentor",
        "zipcode": "85902-510"
    },
    {
        "city": "Toledo",
        "state": "PR",
        "district": "Jardim Europa",
        "street": "Rua Ricardo Maccari",
        "zipcode": "85908-290"
    },
    {
        "city": "Toledo",
        "state": "PR",
        "district": "Vila Pioneiro",
        "street": "Rua Santa Fé",
        "zipcode": "85909-046"
    },
    {
        "city": "Toledo",
        "state": "PR",
        "district": "Vila Pioneiro",
        "street": "Rua São Pedro",
        "zipcode": "85909-170"
    },
    {
        "city": "Toledo",
        "state": "PR",
        "district": "Jardim Europa",
        "street": "Rua Servílio Boldrini",
        "zipcode": "85908-240"
    },
    {
        "city": "Toledo",
        "state": "PR",
        "district": "Jardim Europa",
        "street": "Rua Valério Lambare",
        "zipcode": "85908-370"
    },
    {
        "city": "Toledo",
        "state": "PR",
        "district": "Vila Pioneiro",
        "street": "Rua Primeiro de Outubro",
        "zipcode": "85909-025"
    },
    {
        "city": "Toledo",
        "state": "PR",
        "district": "Jardim Europa",
        "street": "Rua Alfredo Schneider",
        "zipcode": "85908-310"
    },
    {
        "city": "Toledo",
        "state": "PR",
        "district": "Vila Pioneiro",
        "street": "Rua Capitão Leônidas Marques",
        "zipcode": "85909-190"
    },
    {
        "city": "Toledo",
        "state": "PR",
        "district": "Vila Pioneiro",
        "street": "Rua Santo Antônio",
        "zipcode": "85909-180"
    },
    {
        "city": "Toledo",
        "state": "PR",
        "district": "Vila Pioneiro",
        "street": "Rua São José",
        "zipcode": "85909-160"
    },
    {
        "city": "Toledo",
        "state": "PR",
        "district": "Vila Pioneiro",
        "street": "Rua Tomás de Aquino",
        "zipcode": "85909-097"
    },
    {
        "city": "Toledo",
        "state": "PR",
        "district": "Jardim Europa",
        "street": "Rua Albino Franz",
        "zipcode": "85907-210"
    },
    {
        "city": "Toledo",
        "state": "PR",
        "district": "Jardim Europa",
        "street": "Rua Alceu Correia Pinto",
        "zipcode": "85907-240"
    },
    {
        "city": "Toledo",
        "state": "PR",
        "district": "Jardim Concórdia",
        "street": "Rua Alemanha",
        "zipcode": "85906-735"
    },
    {
        "city": "Toledo",
        "state": "PR",
        "district": "Jardim Europa",
        "street": "Rua Amélia Gasperim Longni",
        "zipcode": "85907-180"
    },
    {
        "city": "Toledo",
        "state": "PR",
        "district": "Jardim Europa",
        "street": "Rua Ari Barroso",
        "zipcode": "85908-070"
    },
    {
        "city": "Toledo",
        "state": "PR",
        "district": "Jardim Europa",
        "street": "Rua Artur Mazzaferro",
        "zipcode": "85907-170"
    },
    {
        "city": "Toledo",
        "state": "PR",
        "district": "Jardim Europa",
        "street": "Rua Benjamin Constant",
        "zipcode": "85908-090"
    },
    {
        "city": "Toledo",
        "state": "PR",
        "district": "Pinheirinho",
        "street": "Rua Israel Ribeiro",
        "zipcode": "85907-434"
    },
    {
        "city": "Toledo",
        "state": "PR",
        "district": "Jardim Europa",
        "street": "Rua Ledi Fischer Maas",
        "zipcode": "85907-140"
    },
    {
        "city": "Toledo",
        "state": "PR",
        "district": "Pinheirinho",
        "street": "Rua Ledi Fischer Maas",
        "zipcode": "85907-358"
    },
    {
        "city": "Toledo",
        "state": "PR",
        "district": "Jardim Europa",
        "street": "Rua General Canabarro",
        "zipcode": "85908-060"
    },
    {
        "city": "Toledo",
        "state": "PR",
        "district": "Pinheirinho",
        "street": "Rua General Canabarro",
        "zipcode": "85907-296"
    },
    {
        "city": "Toledo",
        "state": "PR",
        "district": "Jardim Europa",
        "street": "Rua Bento Gonçalves",
        "zipcode": "85908-100"
    },
    {
        "city": "Toledo",
        "state": "PR",
        "district": "Jardim Europa",
        "street": "Rua Bruno Dante Palma",
        "zipcode": "85907-000"
    },
    {
        "city": "Toledo",
        "state": "PR",
        "district": "Jardim Concórdia",
        "street": "Rua Canadá",
        "zipcode": "85906-740"
    },
    {
        "city": "Toledo",
        "state": "PR",
        "district": "Jardim Europa",
        "street": "Rua Carlos Gomes",
        "zipcode": "85908-010"
    },
    {
        "city": "Toledo",
        "state": "PR",
        "district": "Pinheirinho",
        "street": "Rua Clemente Angeli",
        "zipcode": "85907-292"
    },
    {
        "city": "Toledo",
        "state": "PR",
        "district": "Jardim Europa",
        "street": "Rua Carlos Drummond de Andrade",
        "zipcode": "85908-050"
    },
    {
        "city": "Toledo",
        "state": "PR",
        "district": "Jardim Europa",
        "street": "Rua Élio Gaboardi",
        "zipcode": "85907-230"
    },
    {
        "city": "Toledo",
        "state": "PR",
        "district": "Pinheirinho",
        "street": "Rua Elvira Bombonatto",
        "zipcode": "85907-300"
    },
    {
        "city": "Toledo",
        "state": "PR",
        "district": "Jardim Europa",
        "street": "Rua Elvira Rosa Piazza",
        "zipcode": "85907-070"
    },
    {
        "city": "Toledo",
        "state": "PR",
        "district": "Pinheirinho",
        "street": "Rua Ermindo Holzbach",
        "zipcode": "85907-290"
    },
    {
        "city": "Toledo",
        "state": "PR",
        "district": "Jardim Europa",
        "street": "Rua Flávio Dal Pra",
        "zipcode": "85907-050"
    },
    {
        "city": "Toledo",
        "state": "PR",
        "district": "Jardim Concórdia",
        "street": "Rua França",
        "zipcode": "85906-739"
    },
    {
        "city": "Toledo",
        "state": "PR",
        "district": "Jardim Europa",
        "street": "Rua Francisco Saffanoff",
        "zipcode": "85907-190"
    },
    {
        "city": "Toledo",
        "state": "PR",
        "district": "Jardim Concórdia",
        "street": "Rua General Flores da Cunha",
        "zipcode": "85906-760"
    },
    {
        "city": "Toledo",
        "state": "PR",
        "district": "Jardim Europa",
        "street": "Rua Glaurimar Rogério Mondardo",
        "zipcode": "85907-040"
    },
    {
        "city": "Toledo",
        "state": "PR",
        "district": "Jardim Europa",
        "street": "Rua Guerino Antônio Viccari",
        "zipcode": "85907-130"
    },
    {
        "city": "Toledo",
        "state": "PR",
        "district": "Jardim Europa",
        "street": "Rua Guimarães Rosa",
        "zipcode": "85908-030"
    },
    {
        "city": "Toledo",
        "state": "PR",
        "district": "Jardim Concórdia",
        "street": "Rua Itália",
        "zipcode": "85906-738"
    },
    {
        "city": "Toledo",
        "state": "PR",
        "district": "Jardim Concórdia",
        "street": "Rua Japão",
        "zipcode": "85906-737"
    },
    {
        "city": "Toledo",
        "state": "PR",
        "district": "Jardim Europa",
        "street": "Rua João Sartori",
        "zipcode": "85907-220"
    },
    {
        "city": "Toledo",
        "state": "PR",
        "district": "Jardim Concórdia",
        "street": "Rua José Ângelo Borges",
        "zipcode": "85906-727"
    },
    {
        "city": "Toledo",
        "state": "PR",
        "district": "Jardim Concórdia",
        "street": "Rua Lothario Aloísio Anschau",
        "zipcode": "85906-736"
    },
    {
        "city": "Toledo",
        "state": "PR",
        "district": "Pinheirinho",
        "street": "Rua Mate Laranjeira",
        "zipcode": "85907-298"
    },
    {
        "city": "Toledo",
        "state": "PR",
        "district": "Jardim Concórdia",
        "street": "Rua Medianeira",
        "zipcode": "85906-725"
    },
    {
        "city": "Toledo",
        "state": "PR",
        "district": "Jardim Europa",
        "street": "Rua Monteiro Lobato",
        "zipcode": "85908-020"
    },
    {
        "city": "Toledo",
        "state": "PR",
        "district": "Jardim Concórdia",
        "street": "Rua Nadir Somenzi",
        "zipcode": "85906-719"
    },
    {
        "city": "Toledo",
        "state": "PR",
        "district": "Jardim Europa",
        "street": "Rua Pedro Nardi",
        "zipcode": "85907-010"
    },
    {
        "city": "Toledo",
        "state": "PR",
        "district": "Vila Becker",
        "street": "Rua Prata",
        "zipcode": "85902-500"
    },
    {
        "city": "Toledo",
        "state": "PR",
        "district": "Jardim Europa",
        "street": "Rua Presidente Vargas",
        "zipcode": "85908-080"
    },
    {
        "city": "Toledo",
        "state": "PR",
        "district": "Pinheirinho",
        "street": "Rua Romualdo Paiter",
        "zipcode": "85907-302"
    },
    {
        "city": "Toledo",
        "state": "PR",
        "district": "Jardim Europa",
        "street": "Rua Sílvia Manica",
        "zipcode": "85907-020"
    },
    {
        "city": "Toledo",
        "state": "PR",
        "district": "Jardim Europa",
        "street": "Rua Waldemar Turatti",
        "zipcode": "85907-200"
    },
    {
        "city": "Toledo",
        "state": "PR",
        "district": "Pinheirinho",
        "street": "Rua Werner Schiller",
        "zipcode": "85907-294"
    },
    {
        "city": "Toledo",
        "state": "PR",
        "district": "Jardim Europa",
        "street": "Rua Rodolfo Becker",
        "zipcode": "85907-030"
    },
    {
        "city": "Toledo",
        "state": "PR",
        "district": "Jardim Concórdia",
        "street": "Rua Eroni Becker",
        "zipcode": "85906-728"
    },
    {
        "city": "Toledo",
        "state": "PR",
        "district": "Jardim Europa",
        "street": "Rua Emílio Dietrichkeit",
        "zipcode": "85908-000"
    },
    {
        "city": "Toledo",
        "state": "PR",
        "district": "Jardim Concórdia",
        "street": "Rua Ponta Grossa",
        "zipcode": "85906-720"
    },
    {
        "city": "Toledo",
        "state": "PR",
        "district": "Jardim Concórdia",
        "street": "Rua Ângelo Donin",
        "zipcode": "85906-714"
    },
    {
        "city": "Toledo",
        "state": "PR",
        "district": "Jardim Concórdia",
        "street": "Rua Adelmiro Comarella",
        "zipcode": "85906-707"
    },
    {
        "city": "Toledo",
        "state": "PR",
        "district": "Jardim Porto Alegre",
        "street": "Rua Amazonas",
        "zipcode": "85906-280"
    },
    {
        "city": "Toledo",
        "state": "PR",
        "district": "Jardim Concórdia",
        "street": "Rua Ângelo Massola",
        "zipcode": "85906-490"
    },
    {
        "city": "Toledo",
        "state": "PR",
        "district": "Jardim Concórdia",
        "street": "Rua Antônio Heiss",
        "zipcode": "85906-500"
    },
    {
        "city": "Toledo",
        "state": "PR",
        "district": "Jardim Concórdia",
        "street": "Rua Avelino Dalla Costa",
        "zipcode": "85906-600"
    },
    {
        "city": "Toledo",
        "state": "PR",
        "district": "Jardim Concórdia",
        "street": "Rua Dom Armando Círio",
        "zipcode": "85906-450"
    },
    {
        "city": "Toledo",
        "state": "PR",
        "district": "Jardim Porto Alegre",
        "street": "Rua Dona Lúcia",
        "zipcode": "85906-270"
    },
    {
        "city": "Toledo",
        "state": "PR",
        "district": "Jardim Concórdia",
        "street": "Rua Presidente Ernesto Geisel",
        "zipcode": "85906-705"
    },
    {
        "city": "Toledo",
        "state": "PR",
        "district": "Independência",
        "street": "Rua Ernesto Wezzer",
        "zipcode": "85906-520"
    },
    {
        "city": "Toledo",
        "state": "PR",
        "district": "Independência",
        "street": "Rua Evaldo Schroder",
        "zipcode": "85906-420"
    },
    {
        "city": "Toledo",
        "state": "PR",
        "district": "Jardim Concórdia",
        "street": "Rua Foz do Iguaçu",
        "zipcode": "85906-718"
    },
    {
        "city": "Toledo",
        "state": "PR",
        "district": "Jardim Concórdia",
        "street": "Rua General Henrique Teixeira Lott",
        "zipcode": "85906-690"
    },
    {
        "city": "Toledo",
        "state": "PR",
        "district": "Jardim Europa",
        "street": "Rua Capitão Rui",
        "zipcode": "85907-232"
    },
    {
        "city": "Toledo",
        "state": "PR",
        "district": "Jardim Porto Alegre",
        "street": "Rua Alberto Dalcanale",
        "zipcode": "85906-402"
    },
    {
        "city": "Toledo",
        "state": "PR",
        "district": "Jardim Concórdia",
        "street": "Rua Marino Comarella",
        "zipcode": "85906-684"
    },
    {
        "city": "Toledo",
        "state": "PR",
        "district": "Jardim Concórdia",
        "street": "Rua Gentila Soave",
        "zipcode": "85906-710"
    },
    {
        "city": "Toledo",
        "state": "PR",
        "district": "Jardim Concórdia",
        "street": "Rua Guerino Maschio",
        "zipcode": "85906-610"
    },
    {
        "city": "Toledo",
        "state": "PR",
        "district": "Independência",
        "street": "Rua Gustav Isernhagen",
        "zipcode": "85906-550"
    },
    {
        "city": "Toledo",
        "state": "PR",
        "district": "Jardim Concórdia",
        "street": "Rua Henrique Bombardelli",
        "zipcode": "85906-480"
    },
    {
        "city": "Toledo",
        "state": "PR",
        "district": "Jardim Concórdia",
        "street": "Rua Jacinto João Sartori",
        "zipcode": "85906-715"
    },
    {
        "city": "Toledo",
        "state": "PR",
        "district": "Independência",
        "street": "Rua João Bombardelli",
        "zipcode": "85906-560"
    },
    {
        "city": "Toledo",
        "state": "PR",
        "district": "Jardim Concórdia",
        "street": "Rua João Paulo I",
        "zipcode": "85906-630"
    },
    {
        "city": "Toledo",
        "state": "PR",
        "district": "Jardim Concórdia",
        "street": "Rua João XXIII",
        "zipcode": "85906-460"
    },
    {
        "city": "Toledo",
        "state": "PR",
        "district": "Jardim Porto Alegre",
        "street": "Avenida José João Muraro",
        "zipcode": "85906-370"
    },
    {
        "city": "Toledo",
        "state": "PR",
        "district": "Jardim Porto Alegre",
        "street": "Rua Josefina Passarini",
        "zipcode": "85906-390"
    },
    {
        "city": "Toledo",
        "state": "PR",
        "district": "Jardim Porto Alegre",
        "street": "Rua Leonardo Bracht",
        "zipcode": "85906-400"
    },
    {
        "city": "Toledo",
        "state": "PR",
        "district": "Jardim Concórdia",
        "street": "Rua Leopoldo Schmidt",
        "zipcode": "85906-510"
    },
    {
        "city": "Toledo",
        "state": "PR",
        "district": "Independência",
        "street": "Rua Luiz Pierozan",
        "zipcode": "85906-430"
    },
    {
        "city": "Toledo",
        "state": "PR",
        "district": "Jardim Concórdia",
        "street": "Rua Nelson Lorenz",
        "zipcode": "85906-660"
    },
    {
        "city": "Toledo",
        "state": "PR",
        "district": "Jardim Concórdia",
        "street": "Rua Olivo Beal",
        "zipcode": "85906-650"
    },
    {
        "city": "Toledo",
        "state": "PR",
        "district": "Jardim Concórdia",
        "street": "Rua Palotina",
        "zipcode": "85906-717"
    },
    {
        "city": "Toledo",
        "state": "PR",
        "district": "Jardim Concórdia",
        "street": "Rua Paulo VI",
        "zipcode": "85906-470"
    },
    {
        "city": "Toledo",
        "state": "PR",
        "district": "Jardim Concórdia",
        "street": "Rua Pedro Álvares Cabral",
        "zipcode": "85906-680"
    },
    {
        "city": "Toledo",
        "state": "PR",
        "district": "Jardim Concórdia",
        "street": "Rua Pedro Rosseto",
        "zipcode": "85906-640"
    },
    {
        "city": "Toledo",
        "state": "PR",
        "district": "Jardim Porto Alegre",
        "street": "Rodovia Perimetral Norte",
        "zipcode": "85906-290"
    },
    {
        "city": "Toledo",
        "state": "PR",
        "district": "Jardim Porto Alegre",
        "street": "Rodovia PR",
        "zipcode": "85906-300"
    },
    {
        "city": "Toledo",
        "state": "PR",
        "district": "Jardim Concórdia",
        "street": "Rua Presidente Emílio Médici",
        "zipcode": "85906-695"
    },
    {
        "city": "Toledo",
        "state": "PR",
        "district": "Jardim Concórdia",
        "street": "Rua Presidente Jânio Quadros",
        "zipcode": "85906-410"
    },
    {
        "city": "Toledo",
        "state": "PR",
        "district": "Jardim Porto Alegre",
        "street": "Rua Rui Oliveira",
        "zipcode": "85906-360"
    },
    {
        "city": "Toledo",
        "state": "PR",
        "district": "Jardim Porto Alegre",
        "street": "Rua Santa Justina Sartori",
        "zipcode": "85906-310"
    },
    {
        "city": "Toledo",
        "state": "PR",
        "district": "Independência",
        "street": "Rua Severino Barbieri",
        "zipcode": "85906-570"
    },
    {
        "city": "Toledo",
        "state": "PR",
        "district": "Jardim Concórdia",
        "street": "Rua Vergílio Comerlatto",
        "zipcode": "85906-620"
    },
    {
        "city": "Toledo",
        "state": "PR",
        "district": "Jardim Concórdia",
        "street": "Rua Vergílio Diel",
        "zipcode": "85906-670"
    },
    {
        "city": "Toledo",
        "state": "PR",
        "district": "Independência",
        "street": "Rua Victório Leduc",
        "zipcode": "85906-590"
    },
    {
        "city": "Toledo",
        "state": "PR",
        "district": "Independência",
        "street": "Avenida dos Pioneiros",
        "zipcode": "85906-530"
    },
    {
        "city": "Toledo",
        "state": "PR",
        "district": "Jardim Concórdia",
        "street": "Rua Maria do Carmo Gozzo",
        "zipcode": "85906-706"
    },
    {
        "city": "Toledo",
        "state": "PR",
        "district": "Independência",
        "street": "Rua Severino Manosso",
        "zipcode": "85906-580"
    },
    {
        "city": "Toledo",
        "state": "PR",
        "district": "Jardim Concórdia",
        "street": "Rua Vitorino Sartori",
        "zipcode": "85906-708"
    },
    {
        "city": "Toledo",
        "state": "PR",
        "district": "Jardim Porto Alegre",
        "street": "Rua General Estilac Leal",
        "zipcode": "85906-205"
    },
    {
        "city": "Toledo",
        "state": "PR",
        "district": "Jardim Gisela",
        "street": "Rua Barão do Rio Branco",
        "zipcode": "85905-625"
    },
    {
        "city": "Toledo",
        "state": "PR",
        "district": "Jardim Gisela",
        "street": "Rua Saturno",
        "zipcode": "85905-565"
    },
    {
        "city": "Toledo",
        "state": "PR",
        "district": "Jardim Gisela",
        "street": "Rua Uruguai",
        "zipcode": "85905-561"
    },
    {
        "city": "Toledo",
        "state": "PR",
        "district": "Jardim Porto Alegre",
        "street": "Rua Adilson Bier",
        "zipcode": "85906-250"
    },
    {
        "city": "Toledo",
        "state": "PR",
        "district": "Jardim Gisela",
        "street": "Rua Aida Scremin",
        "zipcode": "85905-640"
    },
    {
        "city": "Toledo",
        "state": "PR",
        "district": "Jardim Gisela",
        "street": "Rua Ana Pasquali",
        "zipcode": "85905-580"
    },
    {
        "city": "Toledo",
        "state": "PR",
        "district": "Jardim Gisela",
        "street": "Rua Ângela Bortoncelo Pasqualli",
        "zipcode": "85905-600"
    },
    {
        "city": "Toledo",
        "state": "PR",
        "district": "Jardim Porto Alegre",
        "street": "Rua Bahia",
        "zipcode": "85906-240"
    },
    {
        "city": "Toledo",
        "state": "PR",
        "district": "Jardim Porto Alegre",
        "street": "Rua Belo Horizonte",
        "zipcode": "85906-160"
    },
    {
        "city": "Toledo",
        "state": "PR",
        "district": "Jardim Porto Alegre",
        "street": "Rua Argentina",
        "zipcode": "85906-100"
    },
    {
        "city": "Toledo",
        "state": "PR",
        "district": "Jardim Porto Alegre",
        "street": "Rua Cerro Largo",
        "zipcode": "85906-080"
    },
    {
        "city": "Toledo",
        "state": "PR",
        "district": "Jardim Porto Alegre",
        "street": "Rua Curt Bercht",
        "zipcode": "85906-340"
    },
    {
        "city": "Toledo",
        "state": "PR",
        "district": "Jardim Gisela",
        "street": "Rua Décia Terezinha do Prado",
        "zipcode": "85905-660"
    },
    {
        "city": "Toledo",
        "state": "PR",
        "district": "Jardim Porto Alegre",
        "street": "Rua Deputado Ivo Rocha",
        "zipcode": "85906-330"
    },
    {
        "city": "Toledo",
        "state": "PR",
        "district": "Jardim Gisela",
        "street": "Rua Fidélis Garcia",
        "zipcode": "85905-582"
    },
    {
        "city": "Toledo",
        "state": "PR",
        "district": "Jardim Gisela",
        "street": "Rua Pedro Celante",
        "zipcode": "85905-586"
    },
    {
        "city": "Toledo",
        "state": "PR",
        "district": "Jardim Gisela",
        "street": "Rua Antonio Gaffuri",
        "zipcode": "85905-584"
    },
    {
        "city": "Toledo",
        "state": "PR",
        "district": "Jardim Concórdia",
        "street": "Rua José Salles",
        "zipcode": "85906-681"
    },
    {
        "city": "Toledo",
        "state": "PR",
        "district": "Jardim Concórdia",
        "street": "Rua Orestes Locatelli",
        "zipcode": "85906-682"
    },
    {
        "city": "Toledo",
        "state": "PR",
        "district": "Jardim Gisela",
        "street": "Rua Domingos Pasqualli",
        "zipcode": "85905-570"
    },
    {
        "city": "Toledo",
        "state": "PR",
        "district": "Jardim Gisela",
        "street": "Rua Engrácia Heiss",
        "zipcode": "85905-590"
    },
    {
        "city": "Toledo",
        "state": "PR",
        "district": "Jardim Porto Alegre",
        "street": "Rua Erechim",
        "zipcode": "85906-090"
    },
    {
        "city": "Toledo",
        "state": "PR",
        "district": "Independência",
        "street": "Rua Erich Poniewas",
        "zipcode": "85906-540"
    },
    {
        "city": "Toledo",
        "state": "PR",
        "district": "Jardim Porto Alegre",
        "street": "Rua Frei Celso Quisini",
        "zipcode": "85906-020"
    },
    {
        "city": "Toledo",
        "state": "PR",
        "district": "Jardim Porto Alegre",
        "street": "Rua Ivaí",
        "zipcode": "85906-050"
    },
    {
        "city": "Toledo",
        "state": "PR",
        "district": "Jardim Gisela",
        "street": "Rua José Pasqualli",
        "zipcode": "85905-550"
    },
    {
        "city": "Toledo",
        "state": "PR",
        "district": "Jardim Porto Alegre",
        "street": "Rua Minas Gerais",
        "zipcode": "85906-170"
    },
    {
        "city": "Toledo",
        "state": "PR",
        "district": "Jardim Porto Alegre",
        "street": "Rua Orlando Savaris",
        "zipcode": "85905-670"
    },
    {
        "city": "Toledo",
        "state": "PR",
        "district": "Jardim Porto Alegre",
        "street": "Rua Paraguai",
        "zipcode": "85906-220"
    },
    {
        "city": "Toledo",
        "state": "PR",
        "district": "Jardim Porto Alegre",
        "street": "Rua Paraná",
        "zipcode": "85906-120"
    },
    {
        "city": "Toledo",
        "state": "PR",
        "district": "Jardim Porto Alegre",
        "street": "Rua Porto Alegre",
        "zipcode": "85906-000"
    },
    {
        "city": "Toledo",
        "state": "PR",
        "district": "Jardim Porto Alegre",
        "street": "Rua Porto União",
        "zipcode": "85906-060"
    },
    {
        "city": "Toledo",
        "state": "PR",
        "district": "Jardim Porto Alegre",
        "street": "Rua Ramiro Zibetti",
        "zipcode": "85906-025"
    },
    {
        "city": "Toledo",
        "state": "PR",
        "district": "Jardim Porto Alegre",
        "street": "Rua Rio Grande do Sul",
        "zipcode": "85906-140"
    },
    {
        "city": "Toledo",
        "state": "PR",
        "district": "Jardim Porto Alegre",
        "street": "Rua Santa Catarina",
        "zipcode": "85906-130"
    },
    {
        "city": "Toledo",
        "state": "PR",
        "district": "Jardim Porto Alegre",
        "street": "Rua São Francisco",
        "zipcode": "85906-110"
    },
    {
        "city": "Toledo",
        "state": "PR",
        "district": "Jardim Gisela",
        "street": "Rua São João",
        "zipcode": "85905-620"
    },
    {
        "city": "Toledo",
        "state": "PR",
        "district": "Jardim Porto Alegre",
        "street": "Rua São Paulo",
        "zipcode": "85906-150"
    },
    {
        "city": "Toledo",
        "state": "PR",
        "district": "Jardim Porto Alegre",
        "street": "Rua Suíça",
        "zipcode": "85906-200"
    },
    {
        "city": "Toledo",
        "state": "PR",
        "district": "Jardim Porto Alegre",
        "street": "Rua Theobaldo Dreier",
        "zipcode": "85906-260"
    },
    {
        "city": "Toledo",
        "state": "PR",
        "district": "Jardim Porto Alegre",
        "street": "Rua Victor Hugo",
        "zipcode": "85906-030"
    },
    {
        "city": "Toledo",
        "state": "PR",
        "district": "Jardim Gisela",
        "street": "Rua João Cordeiro Gomes",
        "zipcode": "85905-650"
    },
    {
        "city": "Toledo",
        "state": "PR",
        "district": "Jardim Porto Alegre",
        "street": "Rua Beata Angelina",
        "zipcode": "85906-010"
    },
    {
        "city": "Toledo",
        "state": "PR",
        "district": "Jardim Porto Alegre",
        "street": "Rua Orlando dos Santos",
        "zipcode": "85906-190"
    },
    {
        "city": "Toledo",
        "state": "PR",
        "district": "Jardim Porto Alegre",
        "street": "Rua Cuiabá",
        "zipcode": "85906-180"
    },
    {
        "city": "Toledo",
        "state": "PR",
        "district": "Jardim Gisela",
        "street": "Rua Itália Piovesan Pasqualli",
        "zipcode": "85905-610"
    },
    {
        "city": "Toledo",
        "state": "PR",
        "district": "Jardim Gisela",
        "street": "Rua São João",
        "zipcode": "85905-055"
    },
    {
        "city": "Toledo",
        "state": "PR",
        "district": "Jardim Gisela",
        "street": "Avenida Nossa Senhora de Fátima",
        "zipcode": "85905-225"
    },
    {
        "city": "Toledo",
        "state": "PR",
        "district": "Jardim Gisela",
        "street": "Rua Adoniran Barbosa",
        "zipcode": "85905-270"
    },
    {
        "city": "Toledo",
        "state": "PR",
        "district": "Jardim Planalto",
        "street": "Rua Almirante Barroso",
        "zipcode": "85905-010"
    },
    {
        "city": "Toledo",
        "state": "PR",
        "district": "Jardim Anápolis",
        "street": "Rua Anápolis",
        "zipcode": "85905-400"
    },
    {
        "city": "Toledo",
        "state": "PR",
        "district": "Jardim Anápolis",
        "street": "Rua Ângelo Cornelli",
        "zipcode": "85905-430"
    },
    {
        "city": "Toledo",
        "state": "PR",
        "district": "Jardim Anápolis",
        "street": "Rua Ângelo Luiz Parizzotto",
        "zipcode": "85905-480"
    },
    {
        "city": "Toledo",
        "state": "PR",
        "district": "Jardim Gisela",
        "street": "Rua Augusto Passarini",
        "zipcode": "85905-240"
    },
    {
        "city": "Toledo",
        "state": "PR",
        "district": "Vila Industrial",
        "street": "Rua Barão do Rio Branco",
        "zipcode": "85905-040"
    },
    {
        "city": "Toledo",
        "state": "PR",
        "district": "Jardim Gisela",
        "street": "Rua Caetano Severino Perin",
        "zipcode": "85905-150"
    },
    {
        "city": "Toledo",
        "state": "PR",
        "district": "Jardim Gisela",
        "street": "Rua Carlos Barbosa",
        "zipcode": "85905-280"
    },
    {
        "city": "Toledo",
        "state": "PR",
        "district": "Jardim Gisela",
        "street": "Rua Colômbia",
        "zipcode": "85905-330"
    },
    {
        "city": "Toledo",
        "state": "PR",
        "district": "Jardim Gisela",
        "street": "Rua Coronel Ângelo Mello",
        "zipcode": "85905-110"
    },
    {
        "city": "Toledo",
        "state": "PR",
        "district": "Jardim Gisela",
        "street": "Rua Doutor Basílio Rambo",
        "zipcode": "85905-140"
    },
    {
        "city": "Toledo",
        "state": "PR",
        "district": "Vila Industrial",
        "street": "Rua Doutor Mário Totta",
        "zipcode": "85905-020"
    },
    {
        "city": "Toledo",
        "state": "PR",
        "district": "Jardim Gisela",
        "street": "Rua Doutor Percimo Chiaretto",
        "zipcode": "85905-130"
    },
    {
        "city": "Toledo",
        "state": "PR",
        "district": "Jardim Gisela",
        "street": "Rua Equador",
        "zipcode": "85905-350"
    },
    {
        "city": "Toledo",
        "state": "PR",
        "district": "Jardim Gisela",
        "street": "Rua Felício Callai",
        "zipcode": "85905-210"
    },
    {
        "city": "Toledo",
        "state": "PR",
        "district": "Jardim Gisela",
        "street": "Rua Francisco Basso",
        "zipcode": "85905-540"
    },
    {
        "city": "Toledo",
        "state": "PR",
        "district": "Jardim Gisela",
        "street": "Rua Gilberto Gutierrez Beltrão",
        "zipcode": "85905-200"
    },
    {
        "city": "Toledo",
        "state": "PR",
        "district": "Jardim Gisela",
        "street": "Rua Gisela Merlin Leduc",
        "zipcode": "85905-190"
    },
    {
        "city": "Toledo",
        "state": "PR",
        "district": "Jardim Anápolis",
        "street": "Rua Gregório Barrios",
        "zipcode": "85905-420"
    },
    {
        "city": "Toledo",
        "state": "PR",
        "district": "Centro",
        "street": "Rua Haroldo Hamilton",
        "zipcode": "85905-390"
    },
    {
        "city": "Toledo",
        "state": "PR",
        "district": "Jardim Gisela",
        "street": "Rua Carlos Aldino Rippel",
        "zipcode": "85905-094"
    },
    {
        "city": "Toledo",
        "state": "PR",
        "district": "Jardim Gisela",
        "street": "Rua Arnaldo Aldino Dullius",
        "zipcode": "85905-544"
    },
    {
        "city": "Toledo",
        "state": "PR",
        "district": "Jardim Gisela",
        "street": "Rua Eduardo Romero",
        "zipcode": "85905-182"
    },
    {
        "city": "Toledo",
        "state": "PR",
        "district": "Jardim La Salle",
        "street": "Rua Hugo Zeni",
        "zipcode": "85905-530"
    },
    {
        "city": "Toledo",
        "state": "PR",
        "district": "Jardim Anápolis",
        "street": "Rua Itamarati",
        "zipcode": "85905-410"
    },
    {
        "city": "Toledo",
        "state": "PR",
        "district": "Jardim Anápolis",
        "street": "Rua Ivan Antes",
        "zipcode": "85905-440"
    },
    {
        "city": "Toledo",
        "state": "PR",
        "district": "Jardim Anápolis",
        "street": "Rua João Antônio Gasperin",
        "zipcode": "85905-460"
    },
    {
        "city": "Toledo",
        "state": "PR",
        "district": "Jardim Anápolis",
        "street": "Rua Joaquim Piazza",
        "zipcode": "85905-470"
    },
    {
        "city": "Toledo",
        "state": "PR",
        "district": "Jardim Gisela",
        "street": "Rua Luiz Genari",
        "zipcode": "85905-220"
    },
    {
        "city": "Toledo",
        "state": "PR",
        "district": "Conjunto Barão do Rio Branco II",
        "street": "Rua Luiz Pedro Londero",
        "zipcode": "85905-520"
    },
    {
        "city": "Toledo",
        "state": "PR",
        "district": "Jardim Anápolis",
        "street": "Rua Luiz Pedro Heck",
        "zipcode": "85905-450"
    },
    {
        "city": "Toledo",
        "state": "PR",
        "district": "Jardim Anápolis",
        "street": "Rua Mário Marchiori",
        "zipcode": "85905-490"
    },
    {
        "city": "Toledo",
        "state": "PR",
        "district": "Jardim Gisela",
        "street": "Rua Marumbi",
        "zipcode": "85905-160"
    },
    {
        "city": "Toledo",
        "state": "PR",
        "district": "Jardim Gisela",
        "street": "Rua México",
        "zipcode": "85905-370"
    },
    {
        "city": "Toledo",
        "state": "PR",
        "district": "Jardim Gisela",
        "street": "Rua Padre Anchieta",
        "zipcode": "85905-100"
    },
    {
        "city": "Toledo",
        "state": "PR",
        "district": "Centro",
        "street": "Avenida Parigot de Souza",
        "zipcode": "85905-380"
    },
    {
        "city": "Toledo",
        "state": "PR",
        "district": "Vila Industrial",
        "street": "Rua Pinheiro Machado",
        "zipcode": "85905-300"
    },
    {
        "city": "Toledo",
        "state": "PR",
        "district": "Jardim Gisela",
        "street": "Rua Princesa Isabel",
        "zipcode": "85905-090"
    },
    {
        "city": "Toledo",
        "state": "PR",
        "district": "Jardim Gisela",
        "street": "Rua Santo Ângelo",
        "zipcode": "85905-080"
    },
    {
        "city": "Toledo",
        "state": "PR",
        "district": "Vila Industrial",
        "street": "Rua Santo Campagnolo",
        "zipcode": "85905-030"
    },
    {
        "city": "Toledo",
        "state": "PR",
        "district": "Jardim Gisela",
        "street": "Rua Verílio Nazzarri",
        "zipcode": "85905-230"
    },
    {
        "city": "Toledo",
        "state": "PR",
        "district": "Jardim Gisela",
        "street": "Rua Waldemar Rossoni",
        "zipcode": "85905-250"
    },
    {
        "city": "Toledo",
        "state": "PR",
        "district": "Jardim Gisela",
        "street": "Rua Valmir Zanetti",
        "zipcode": "85905-120"
    },
    {
        "city": "Toledo",
        "state": "PR",
        "district": "Vila Industrial",
        "street": "Rua Ledoíno José Biavatti",
        "zipcode": "85905-360"
    },
    {
        "city": "Toledo",
        "state": "PR",
        "district": "Tocantins",
        "street": "Rua Santo Ângelo",
        "zipcode": "85904-540"
    },
    {
        "city": "Toledo",
        "state": "PR",
        "district": "Vila Industrial",
        "street": "Rua Acapulco",
        "zipcode": "85904-120"
    },
    {
        "city": "Toledo",
        "state": "PR",
        "district": "Vila Industrial",
        "street": "Rua Borges de Medeiros",
        "zipcode": "85904-230"
    },
    {
        "city": "Toledo",
        "state": "PR",
        "district": "Vila Industrial",
        "street": "Rua Califórnia",
        "zipcode": "85904-390"
    },
    {
        "city": "Toledo",
        "state": "PR",
        "district": "Vila Industrial",
        "street": "Rua Cantídio Sampaio",
        "zipcode": "85904-100"
    },
    {
        "city": "Toledo",
        "state": "PR",
        "district": "Tocantins",
        "street": "Rua Carlos Antônio Bolson",
        "zipcode": "85904-500"
    },
    {
        "city": "Toledo",
        "state": "PR",
        "district": "Vila Industrial",
        "street": "Rua Carlos Barbosa",
        "zipcode": "85904-210"
    },
    {
        "city": "Toledo",
        "state": "PR",
        "district": "Vila Industrial",
        "street": "Rua Casemiro de Abreu",
        "zipcode": "85904-140"
    },
    {
        "city": "Toledo",
        "state": "PR",
        "district": "Vila Industrial",
        "street": "Rua Daniel Nardi",
        "zipcode": "85904-170"
    },
    {
        "city": "Toledo",
        "state": "PR",
        "district": "Vila Industrial",
        "street": "Rua Dilermando Reis",
        "zipcode": "85904-370"
    },
    {
        "city": "Toledo",
        "state": "PR",
        "district": "Vila Industrial",
        "street": "Rua Doutor Osvaldo Silveira",
        "zipcode": "85904-310"
    },
    {
        "city": "Toledo",
        "state": "PR",
        "district": "Tocantins",
        "street": "Rua Estéfano Secchi",
        "zipcode": "85904-530"
    },
    {
        "city": "Toledo",
        "state": "PR",
        "district": "Vila Industrial",
        "street": "Rua General Daltro Filho",
        "zipcode": "85904-240"
    },
    {
        "city": "Toledo",
        "state": "PR",
        "district": "Tocantins",
        "street": "Rua Giustina Genari",
        "zipcode": "85904-480"
    },
    {
        "city": "Toledo",
        "state": "PR",
        "district": "Vila Industrial",
        "street": "Rua Graciliano Ramos",
        "zipcode": "85904-130"
    },
    {
        "city": "Toledo",
        "state": "PR",
        "district": "Vila Industrial",
        "street": "Rua Iratema",
        "zipcode": "85904-360"
    },
    {
        "city": "Toledo",
        "state": "PR",
        "district": "Tocantins",
        "street": "Rua João Orestes Ruaro",
        "zipcode": "85904-520"
    },
    {
        "city": "Toledo",
        "state": "PR",
        "district": "Tocantins",
        "street": "Rua Julci Luiz Strieder",
        "zipcode": "85904-470"
    },
    {
        "city": "Toledo",
        "state": "PR",
        "district": "Vila Industrial",
        "street": "Rua Júlio de Castilhos",
        "zipcode": "85904-175"
    },
    {
        "city": "Toledo",
        "state": "PR",
        "district": "Vila Industrial",
        "street": "Rua Mané Garrincha",
        "zipcode": "85904-330"
    },
    {
        "city": "Toledo",
        "state": "PR",
        "district": "Vila Industrial",
        "street": "Rua Noel Rosa",
        "zipcode": "85904-380"
    },
    {
        "city": "Toledo",
        "state": "PR",
        "district": "Vila Industrial",
        "street": "Rua Palmital",
        "zipcode": "85904-400"
    },
    {
        "city": "Toledo",
        "state": "PR",
        "district": "Vila Industrial",
        "street": "Avenida Parigot de Souza",
        "zipcode": "85904-270"
    },
    {
        "city": "Toledo",
        "state": "PR",
        "district": "Vila Industrial",
        "street": "Rua Pinheiro Machado",
        "zipcode": "85904-220"
    },
    {
        "city": "Toledo",
        "state": "PR",
        "district": "Vila Industrial",
        "street": "Rua Primeiro de Julho",
        "zipcode": "85904-200"
    },
    {
        "city": "Toledo",
        "state": "PR",
        "district": "Jardim Parigot",
        "street": "Rua Protásio Alves",
        "zipcode": "85904-250"
    },
    {
        "city": "Toledo",
        "state": "PR",
        "district": "Vila Industrial",
        "street": "Rua Salgado Filho",
        "zipcode": "85904-290"
    },
    {
        "city": "Toledo",
        "state": "PR",
        "district": "Tocantins",
        "street": "Rua Romeu Alfredo Markus",
        "zipcode": "85904-484"
    },
    {
        "city": "Toledo",
        "state": "PR",
        "district": "Jardim Gisela",
        "street": "Rua José Bortolotto",
        "zipcode": "85905-222"
    },
    {
        "city": "Toledo",
        "state": "PR",
        "district": "Jardim Gisela",
        "street": "Rua Domingos Smaniotto",
        "zipcode": "85905-242"
    },
    {
        "city": "Toledo",
        "state": "PR",
        "district": "Jardim Gisela",
        "street": "Rua Rosalino João Dallagnol",
        "zipcode": "85905-244"
    },
    {
        "city": "Toledo",
        "state": "PR",
        "district": "Jardim Gisela",
        "street": "Rua Antenor Pedro Rios",
        "zipcode": "85905-091"
    },
    {
        "city": "Toledo",
        "state": "PR",
        "district": "Vila Industrial",
        "street": "Rua SantAna",
        "zipcode": "85904-440"
    },
    {
        "city": "Toledo",
        "state": "PR",
        "district": "Vila Industrial",
        "street": "Rua Santa Lúcia",
        "zipcode": "85904-430"
    },
    {
        "city": "Toledo",
        "state": "PR",
        "district": "Jardim Gisela",
        "street": "Rua Santina Binda Donassolo",
        "zipcode": "85905-260"
    },
    {
        "city": "Toledo",
        "state": "PR",
        "district": "Vila Industrial",
        "street": "Rua Santo Ângelo",
        "zipcode": "85904-150"
    },
    {
        "city": "Toledo",
        "state": "PR",
        "district": "Centro",
        "street": "Rua Santos Dumont",
        "zipcode": "85905-000"
    },
    {
        "city": "Toledo",
        "state": "PR",
        "district": "Vila Industrial",
        "street": "Rua Santos Dumont",
        "zipcode": "85904-450"
    },
    {
        "city": "Toledo",
        "state": "PR",
        "district": "Vila Industrial",
        "street": "Rua São Judas Tadeu",
        "zipcode": "85904-420"
    },
    {
        "city": "Toledo",
        "state": "PR",
        "district": "Tocantins",
        "street": "Rua Shirley Maria Lorandi Saurin",
        "zipcode": "85904-510"
    },
    {
        "city": "Toledo",
        "state": "PR",
        "district": "Vila Industrial",
        "street": "Rua Siqueira Campos",
        "zipcode": "85904-350"
    },
    {
        "city": "Toledo",
        "state": "PR",
        "district": "Vila Industrial",
        "street": "Rua Três de Outubro",
        "zipcode": "85904-180"
    },
    {
        "city": "Toledo",
        "state": "PR",
        "district": "Vila Industrial",
        "street": "Rua Ledoíno José Biavatti",
        "zipcode": "85904-260"
    },
    {
        "city": "Toledo",
        "state": "PR",
        "district": "Vila Industrial",
        "street": "Rua Videira",
        "zipcode": "85904-340"
    },
    {
        "city": "Toledo",
        "state": "PR",
        "district": "Vila Industrial",
        "street": "Rua Astorga",
        "zipcode": "85904-410"
    },
    {
        "city": "Toledo",
        "state": "PR",
        "district": "Tocantins",
        "street": "Avenida Ministro Cirne Lima",
        "zipcode": "85904-460"
    },
    {
        "city": "Toledo",
        "state": "PR",
        "district": "Vila Industrial",
        "street": "Rua Cerro Corá",
        "zipcode": "85904-300"
    },
    {
        "city": "Toledo",
        "state": "PR",
        "district": "Tocantins",
        "street": "Rua Francisco Rigo",
        "zipcode": "85904-490"
    },
    {
        "city": "Toledo",
        "state": "PR",
        "district": "Jardim Coopagro",
        "street": "Rua Adolfo Grepner",
        "zipcode": "85903-727"
    },
    {
        "city": "Toledo",
        "state": "PR",
        "district": "Jardim Coopagro",
        "street": "Rua Alperico Donin",
        "zipcode": "85903-650"
    },
    {
        "city": "Toledo",
        "state": "PR",
        "district": "Jardim Coopagro",
        "street": "Rua Américo Schio",
        "zipcode": "85903-540"
    },
    {
        "city": "Toledo",
        "state": "PR",
        "district": "Jardim Coopagro",
        "street": "Rua Avelino Hofstaetter",
        "zipcode": "85903-660"
    },
    {
        "city": "Toledo",
        "state": "PR",
        "district": "Vila Industrial",
        "street": "Rua Carlos de Carvalho",
        "zipcode": "85904-080"
    },
    {
        "city": "Toledo",
        "state": "PR",
        "district": "Jardim Coopagro",
        "street": "Rua Cláudio Areco",
        "zipcode": "85903-707"
    },
    {
        "city": "Toledo",
        "state": "PR",
        "district": "Vila Industrial",
        "street": "Rua Cruz Machado",
        "zipcode": "85904-280"
    },
    {
        "city": "Toledo",
        "state": "PR",
        "district": "Jardim Coopagro",
        "street": "Rua Doutor Adelfino Pancotto",
        "zipcode": "85903-560"
    },
    {
        "city": "Toledo",
        "state": "PR",
        "district": "Vila Industrial",
        "street": "Rua Emiliano Perneta",
        "zipcode": "85904-050"
    },
    {
        "city": "Toledo",
        "state": "PR",
        "district": "Vila Industrial",
        "street": "Rua Emílio de Menezes",
        "zipcode": "85904-040"
    },
    {
        "city": "Toledo",
        "state": "PR",
        "district": "Vila Industrial",
        "street": "Rua Érico Veríssimo",
        "zipcode": "85904-020"
    },
    {
        "city": "Toledo",
        "state": "PR",
        "district": "Jardim Coopagro",
        "street": "Rua das Flores",
        "zipcode": "85903-570"
    },
    {
        "city": "Toledo",
        "state": "PR",
        "district": "Jardim Coopagro",
        "street": "Rua Francisco Fath",
        "zipcode": "85903-726"
    },
    {
        "city": "Toledo",
        "state": "PR",
        "district": "Jardim Coopagro",
        "street": "Rua Ivo Heiss",
        "zipcode": "85903-680"
    },
    {
        "city": "Toledo",
        "state": "PR",
        "district": "Jardim Coopagro",
        "street": "Rua João Orestes Ruaro",
        "zipcode": "85903-716"
    },
    {
        "city": "Toledo",
        "state": "PR",
        "district": "Jardim Coopagro",
        "street": "Rua João Pedro Bordignon",
        "zipcode": "85903-550"
    },
    {
        "city": "Toledo",
        "state": "PR",
        "district": "Jardim Coopagro",
        "street": "Rua Julcimar Coppini",
        "zipcode": "85903-580"
    },
    {
        "city": "Toledo",
        "state": "PR",
        "district": "Jardim Coopagro",
        "street": "Rua Leopoldo Angeli",
        "zipcode": "85903-705"
    },
    {
        "city": "Toledo",
        "state": "PR",
        "district": "Jardim Coopagro",
        "street": "Rua Luiz Woiski",
        "zipcode": "85903-718"
    },
    {
        "city": "Toledo",
        "state": "PR",
        "district": "Jardim La Salle",
        "street": "Rua Maringá",
        "zipcode": "85903-620"
    },
    {
        "city": "Toledo",
        "state": "PR",
        "district": "Jardim Coopagro",
        "street": "Rua Mário Lenz",
        "zipcode": "85903-717"
    },
    {
        "city": "Toledo",
        "state": "PR",
        "district": "Vila Industrial",
        "street": "Rua Mauá",
        "zipcode": "85904-010"
    },
    {
        "city": "Toledo",
        "state": "PR",
        "district": "Jardim Coopagro",
        "street": "Rua Mitsugoro Tanaka",
        "zipcode": "85903-630"
    },
    {
        "city": "Toledo",
        "state": "PR",
        "district": "Jardim Coopagro",
        "street": "Rua Nayoro",
        "zipcode": "85903-697"
    },
    {
        "city": "Toledo",
        "state": "PR",
        "district": "Jardim Coopagro",
        "street": "Rua Nicolau Finkler",
        "zipcode": "85903-730"
    },
    {
        "city": "Toledo",
        "state": "PR",
        "district": "Jardim Coopagro",
        "street": "Rua Ocelino Arrosi",
        "zipcode": "85903-706"
    },
    {
        "city": "Toledo",
        "state": "PR",
        "district": "Jardim Coopagro",
        "street": "Rua Octaviano Angeli",
        "zipcode": "85903-708"
    },
    {
        "city": "Toledo",
        "state": "PR",
        "district": "Vila Industrial",
        "street": "Rua Olavo Bilac",
        "zipcode": "85904-060"
    },
    {
        "city": "Toledo",
        "state": "PR",
        "district": "Jardim Coopagro",
        "street": "Rua Orlando Dezem",
        "zipcode": "85903-715"
    },
    {
        "city": "Toledo",
        "state": "PR",
        "district": "Jardim Coopagro",
        "street": "Rua Pacífico Dezem",
        "zipcode": "85903-710"
    },
    {
        "city": "Toledo",
        "state": "PR",
        "district": "Jardim Coopagro",
        "street": "Rua Padre Lino Beal",
        "zipcode": "85903-530"
    },
    {
        "city": "Toledo",
        "state": "PR",
        "district": "Jardim Coopagro",
        "street": "Rua Pedro Lodi",
        "zipcode": "85903-510"
    },
    {
        "city": "Toledo",
        "state": "PR",
        "district": "Jardim Coopagro",
        "street": "Rua Pindotiporã",
        "zipcode": "85903-729"
    },
    {
        "city": "Toledo",
        "state": "PR",
        "district": "Jardim Coopagro",
        "street": "Rua Protásio Alves",
        "zipcode": "85903-698"
    },
    {
        "city": "Toledo",
        "state": "PR",
        "district": "Jardim Coopagro",
        "street": "Rua Ricardo Galante",
        "zipcode": "85903-696"
    },
    {
        "city": "Toledo",
        "state": "PR",
        "district": "Jardim Coopagro",
        "street": "Avenida Roberto Fachini",
        "zipcode": "85903-728"
    },
    {
        "city": "Toledo",
        "state": "PR",
        "district": "Jardim Coopagro",
        "street": "Rua Amândio Teté Pereira",
        "zipcode": "85903-763"
    },
    {
        "city": "Toledo",
        "state": "PR",
        "district": "Vila Industrial",
        "street": "Rua Rocha Pombo",
        "zipcode": "85904-030"
    },
    {
        "city": "Toledo",
        "state": "PR",
        "district": "Jardim Coopagro",
        "street": "Rua Rosalino Barbieri",
        "zipcode": "85903-700"
    },
    {
        "city": "Toledo",
        "state": "PR",
        "district": "Jardim Coopagro",
        "street": "Rua Rudolf Russ",
        "zipcode": "85903-690"
    },
    {
        "city": "Toledo",
        "state": "PR",
        "district": "Jardim Coopagro",
        "street": "Rua Rudolfo Thielke",
        "zipcode": "85903-725"
    },
    {
        "city": "Toledo",
        "state": "PR",
        "district": "Vila Industrial",
        "street": "Rua São Damião",
        "zipcode": "85904-070"
    },
    {
        "city": "Toledo",
        "state": "PR",
        "district": "Jardim Coopagro",
        "street": "Rua Silvio Bresolin",
        "zipcode": "85903-720"
    },
    {
        "city": "Toledo",
        "state": "PR",
        "district": "Vila Industrial",
        "street": "Rua Treze de Abril",
        "zipcode": "85904-000"
    },
    {
        "city": "Toledo",
        "state": "PR",
        "district": "Vila Industrial",
        "street": "Rua Santa Marta",
        "zipcode": "85904-090"
    },
    {
        "city": "Toledo",
        "state": "PR",
        "district": "Jardim Coopagro",
        "street": "Rua José Ayres da Silva",
        "zipcode": "85903-670"
    },
    {
        "city": "Toledo",
        "state": "PR",
        "district": "Jardim Coopagro",
        "street": "Rua Anne Russ",
        "zipcode": "85903-695"
    },
    {
        "city": "Toledo",
        "state": "PR",
        "district": "Jardim Coopagro",
        "street": "Rua Adelino João DalBosco",
        "zipcode": "85903-490"
    },
    {
        "city": "Toledo",
        "state": "PR",
        "district": "Jardim Coopagro",
        "street": "Rua Albino Scariot",
        "zipcode": "85903-420"
    },
    {
        "city": "Toledo",
        "state": "PR",
        "district": "Jardim La Salle",
        "street": "Rua Ângelo Giachini",
        "zipcode": "85903-230"
    },
    {
        "city": "Toledo",
        "state": "PR",
        "district": "Tocantins",
        "street": "Rua Arnaldo Manica",
        "zipcode": "85903-360"
    },
    {
        "city": "Toledo",
        "state": "PR",
        "district": "Jardim Santa Maria",
        "street": "Rua Beija",
        "zipcode": "85903-210"
    },
    {
        "city": "Toledo",
        "state": "PR",
        "district": "Jardim La Salle",
        "street": "Largo Chico Mendes",
        "zipcode": "85903-260"
    },
    {
        "city": "Toledo",
        "state": "PR",
        "district": "Jardim La Salle",
        "street": "Rua Crissiumal",
        "zipcode": "85903-290"
    },
    {
        "city": "Toledo",
        "state": "PR",
        "district": "Tocantins",
        "street": "Rua Eduardo Becker",
        "zipcode": "85903-350"
    },
    {
        "city": "Toledo",
        "state": "PR",
        "district": "Jardim Coopagro",
        "street": "Rua Eduardo Gatto",
        "zipcode": "85903-370"
    },
    {
        "city": "Toledo",
        "state": "PR",
        "district": "Jardim Coopagro",
        "street": "Rua Eugênio Gustavo Keller",
        "zipcode": "85903-450"
    },
    {
        "city": "Toledo",
        "state": "PR",
        "district": "Tocantins",
        "street": "Rua Euzébio Roque Garcia",
        "zipcode": "85903-365"
    },
    {
        "city": "Toledo",
        "state": "PR",
        "district": "Jardim Coopagro",
        "street": "Rua Fioravante Cielo",
        "zipcode": "85903-470"
    },
    {
        "city": "Toledo",
        "state": "PR",
        "district": "Jardim Coopagro",
        "street": "Rua Frutuoso Pereira dos Santos",
        "zipcode": "85903-410"
    },
    {
        "city": "Toledo",
        "state": "PR",
        "district": "Jardim La Salle",
        "street": "Rua Guaíra",
        "zipcode": "85903-220"
    },
    {
        "city": "Toledo",
        "state": "PR",
        "district": "Tocantins",
        "street": "Rua Helmuth Prienitz",
        "zipcode": "85903-355"
    },
    {
        "city": "Toledo",
        "state": "PR",
        "district": "Jardim Santa Maria",
        "street": "Rua Itaipu",
        "zipcode": "85903-200"
    },
    {
        "city": "Toledo",
        "state": "PR",
        "district": "Jardim Coopagro",
        "street": "Rua João Agnes Filho",
        "zipcode": "85903-425"
    },
    {
        "city": "Toledo",
        "state": "PR",
        "district": "Jardim Coopagro",
        "street": "Rua José Carlos Basso",
        "zipcode": "85903-440"
    },
    {
        "city": "Toledo",
        "state": "PR",
        "district": "Jardim Coopagro",
        "street": "Rua Laurindo Moterle",
        "zipcode": "85903-380"
    },
    {
        "city": "Toledo",
        "state": "PR",
        "district": "Jardim Coopagro",
        "street": "Rua Leonardo Francisco Nogueira",
        "zipcode": "85903-400"
    },
    {
        "city": "Toledo",
        "state": "PR",
        "district": "Jardim La Salle",
        "street": "Rua Líbano",
        "zipcode": "85903-270"
    },
    {
        "city": "Toledo",
        "state": "PR",
        "district": "Jardim Coopagro",
        "street": "Rua Manoel Nogueira",
        "zipcode": "85903-415"
    },
    {
        "city": "Toledo",
        "state": "PR",
        "district": "Jardim Coopagro",
        "street": "Rua Maria José Nogueira",
        "zipcode": "85903-430"
    },
    {
        "city": "Toledo",
        "state": "PR",
        "district": "Tocantins",
        "street": "Rua Ministro Marcos Freire",
        "zipcode": "85903-366"
    },
    {
        "city": "Toledo",
        "state": "PR",
        "district": "Jardim Santa Maria",
        "street": "Rua Miraldo Pedro Zibetti",
        "zipcode": "85903-160"
    },
    {
        "city": "Toledo",
        "state": "PR",
        "district": "Tocantins",
        "street": "Rua Padre Luiz Luise",
        "zipcode": "85903-340"
    },
    {
        "city": "Toledo",
        "state": "PR",
        "district": "Jardim La Salle",
        "street": "Rua Pedro dos Santos Ramos",
        "zipcode": "85903-265"
    },
    {
        "city": "Toledo",
        "state": "PR",
        "district": "Jardim La Salle",
        "street": "Rua Raimundo Leonardi",
        "zipcode": "85903-300"
    },
    {
        "city": "Toledo",
        "state": "PR",
        "district": "Jardim Coopagro",
        "street": "Rua Rodrigues Alves",
        "zipcode": "85903-500"
    },
    {
        "city": "Toledo",
        "state": "PR",
        "district": "Jardim La Salle",
        "street": "Rua São Rafael",
        "zipcode": "85903-275"
    },
    {
        "city": "Toledo",
        "state": "PR",
        "district": "Jardim La Salle",
        "street": "Rua Serafina Corrêa",
        "zipcode": "85903-320"
    },
    {
        "city": "Toledo",
        "state": "PR",
        "district": "Jardim La Salle",
        "street": "Rua Tupã",
        "zipcode": "85903-276"
    },
    {
        "city": "Toledo",
        "state": "PR",
        "district": "Tocantins",
        "street": "Rua Valternei Ramos Zaleski",
        "zipcode": "85903-330"
    },
    {
        "city": "Toledo",
        "state": "PR",
        "district": "Jardim Coopagro",
        "street": "Rua Vicente Roos",
        "zipcode": "85903-390"
    },
    {
        "city": "Toledo",
        "state": "PR",
        "district": "Jardim Coopagro",
        "street": "Rua Willy Wey",
        "zipcode": "85903-460"
    },
    {
        "city": "Toledo",
        "state": "PR",
        "district": "Jardim La Salle",
        "street": "Rua Wilson Albuquerque",
        "zipcode": "85903-280"
    },
    {
        "city": "Toledo",
        "state": "PR",
        "district": "Centro",
        "street": "Rua Zulmir Longhi",
        "zipcode": "85903-180"
    },
    {
        "city": "Toledo",
        "state": "PR",
        "district": "Jardim Coopagro",
        "street": "Rua Alzira Diel",
        "zipcode": "85903-423"
    },
    {
        "city": "Toledo",
        "state": "PR",
        "district": "Jardim Coopagro",
        "street": "Rua Otávio Magalhães",
        "zipcode": "85903-427"
    },
    {
        "city": "Toledo",
        "state": "PR",
        "district": "Jardim Coopagro",
        "street": "Rua Ernesto Sperotto",
        "zipcode": "85903-750"
    },
    {
        "city": "Toledo",
        "state": "PR",
        "district": "Jardim Coopagro",
        "street": "Rua João Venturelli",
        "zipcode": "85903-754"
    },
    {
        "city": "Toledo",
        "state": "PR",
        "district": "Jardim Coopagro",
        "street": "Rua Marco Antônio Ochoa Filho",
        "zipcode": "85903-756"
    },
    {
        "city": "Toledo",
        "state": "PR",
        "district": "Jardim Coopagro",
        "street": "Rua David Galante",
        "zipcode": "85903-758"
    },
    {
        "city": "Toledo",
        "state": "PR",
        "district": "Jardim Coopagro",
        "street": "Rua Jandira Basso Sartor",
        "zipcode": "85903-762"
    },
    {
        "city": "Toledo",
        "state": "PR",
        "district": "Jardim Coopagro",
        "street": "Rua Edith Langer",
        "zipcode": "85903-502"
    },
    {
        "city": "Toledo",
        "state": "PR",
        "district": "Jardim Coopagro",
        "street": "Rua Paulina Scain",
        "zipcode": "85903-504"
    },
    {
        "city": "Toledo",
        "state": "PR",
        "district": "Jardim La Salle",
        "street": "Rua Irmão Nicolau",
        "zipcode": "85903-250"
    },
    {
        "city": "Toledo",
        "state": "PR",
        "district": "Tocantins",
        "street": "Rua Jaime Zeni",
        "zipcode": "85903-356"
    },
    {
        "city": "Toledo",
        "state": "PR",
        "district": "Jardim Coopagro",
        "street": "Rua José Geremias",
        "zipcode": "85903-480"
    },
    {
        "city": "Toledo",
        "state": "PR",
        "district": "Vila Becker",
        "street": "Avenida Maripá",
        "zipcode": "85902-495"
    },
    {
        "city": "Toledo",
        "state": "PR",
        "district": "Vila Becker",
        "street": "Rua Alcides Pan",
        "zipcode": "85902-410"
    },
    {
        "city": "Toledo",
        "state": "PR",
        "district": "Jardim Pancera",
        "street": "Rua Arthur Bernardes",
        "zipcode": "85902-330"
    },
    {
        "city": "Toledo",
        "state": "PR",
        "district": "Jardim Santa Maria",
        "street": "Rua Augusto Formighieri",
        "zipcode": "85903-150"
    },
    {
        "city": "Toledo",
        "state": "PR",
        "district": "Vila Becker",
        "street": "Rua Britânia",
        "zipcode": "85902-480"
    },
    {
        "city": "Toledo",
        "state": "PR",
        "district": "Vila Becker",
        "street": "Rua Carlos Matias Becker",
        "zipcode": "85902-560"
    },
    {
        "city": "Toledo",
        "state": "PR",
        "district": "Jardim Santa Maria",
        "street": "Rua Carmem Miranda",
        "zipcode": "85903-120"
    },
    {
        "city": "Toledo",
        "state": "PR",
        "district": "Jardim Santa Maria",
        "street": "Rua Céu Azul",
        "zipcode": "85903-060"
    },
    {
        "city": "Toledo",
        "state": "PR",
        "district": "Jardim La Salle",
        "street": "Rua Corbélia",
        "zipcode": "85902-590"
    },
    {
        "city": "Toledo",
        "state": "PR",
        "district": "Jardim Santa Maria",
        "street": "Rua Corbélia",
        "zipcode": "85903-050"
    },
    {
        "city": "Toledo",
        "state": "PR",
        "district": "Vila Becker",
        "street": "Rua Cristo Rei",
        "zipcode": "85902-490"
    },
    {
        "city": "Toledo",
        "state": "PR",
        "district": "Vila Becker",
        "street": "Rua Dionísio Falbota",
        "zipcode": "85902-420"
    },
    {
        "city": "Toledo",
        "state": "PR",
        "district": "Jardim La Salle",
        "street": "Rua da Faculdade",
        "zipcode": "85903-000"
    },
    {
        "city": "Toledo",
        "state": "PR",
        "district": "Vila Becker",
        "street": "Rua Gilmar Pastre",
        "zipcode": "85902-430"
    },
    {
        "city": "Toledo",
        "state": "PR",
        "district": "Jardim La Salle",
        "street": "Rua Guanabara",
        "zipcode": "85902-580"
    },
    {
        "city": "Toledo",
        "state": "PR",
        "district": "Jardim Santa Maria",
        "street": "Rua Guanabara",
        "zipcode": "85903-040"
    },
    {
        "city": "Toledo",
        "state": "PR",
        "district": "Jardim Pancera",
        "street": "Rua Hermes da Fonseca",
        "zipcode": "85902-320"
    },
    {
        "city": "Toledo",
        "state": "PR",
        "district": "Centro",
        "street": "Rua Independência",
        "zipcode": "85902-015"
    },
    {
        "city": "Toledo",
        "state": "PR",
        "district": "Vila Becker",
        "street": "Rua Jurandir dalPra",
        "zipcode": "85902-530"
    },
    {
        "city": "Toledo",
        "state": "PR",
        "district": "Vila Becker",
        "street": "Rua Leonir Giareta",
        "zipcode": "85902-540"
    },
    {
        "city": "Toledo",
        "state": "PR",
        "district": "Jardim Santa Maria",
        "street": "Rua Maria José",
        "zipcode": "85903-130"
    },
    {
        "city": "Toledo",
        "state": "PR",
        "district": "Jardim Santa Maria",
        "street": "Rua Matelândia",
        "zipcode": "85903-070"
    },
    {
        "city": "Toledo",
        "state": "PR",
        "district": "Jardim Santa Maria",
        "street": "Rua Nossa Senhora da Luz",
        "zipcode": "85903-080"
    },
    {
        "city": "Toledo",
        "state": "PR",
        "district": "Jardim La Salle",
        "street": "Rua das Orquídeas",
        "zipcode": "85902-465"
    },
    {
        "city": "Toledo",
        "state": "PR",
        "district": "Jardim Santa Maria",
        "street": "Rua Padre Antônio Patui",
        "zipcode": "85903-090"
    },
    {
        "city": "Toledo",
        "state": "PR",
        "district": "Jardim La Salle",
        "street": "Rua Panambi",
        "zipcode": "85902-640"
    },
    {
        "city": "Toledo",
        "state": "PR",
        "district": "Jardim Santa Maria",
        "street": "Rua Pio X",
        "zipcode": "85903-100"
    },
    {
        "city": "Toledo",
        "state": "PR",
        "district": "Jardim Pancera",
        "street": "Rua Presidente Carlos Luz",
        "zipcode": "85902-380"
    },
    {
        "city": "Toledo",
        "state": "PR",
        "district": "Jardim Pancera",
        "street": "Rua Presidente João Goulart",
        "zipcode": "85902-390"
    },
    {
        "city": "Toledo",
        "state": "PR",
        "district": "Jardim Pancera",
        "street": "Rua Presidente José Linhares",
        "zipcode": "85902-350"
    },
    {
        "city": "Toledo",
        "state": "PR",
        "district": "Jardim Pancera",
        "street": "Rua Presidente Ranieri Mazzili",
        "zipcode": "85902-370"
    },
    {
        "city": "Toledo",
        "state": "PR",
        "district": "Vila Becker",
        "street": "Rua Professor Queirolo",
        "zipcode": "85902-440"
    },
    {
        "city": "Toledo",
        "state": "PR",
        "district": "Jardim La Salle",
        "street": "Rua Santa Maria",
        "zipcode": "85902-570"
    },
    {
        "city": "Toledo",
        "state": "PR",
        "district": "Vila Becker",
        "street": "Rua Salvador",
        "zipcode": "85902-520"
    },
    {
        "city": "Toledo",
        "state": "PR",
        "district": "Jardim Pancera",
        "street": "Rua Sirlei Maria Lorandi",
        "zipcode": "85902-610"
    },
    {
        "city": "Toledo",
        "state": "PR",
        "district": "Jardim La Salle",
        "street": "Rua Terra Roxa",
        "zipcode": "85903-020"
    },
    {
        "city": "Toledo",
        "state": "PR",
        "district": "Vila Becker",
        "street": "Rua Tibúrcio Antunes",
        "zipcode": "85902-470"
    },
    {
        "city": "Toledo",
        "state": "PR",
        "district": "Jardim Santa Maria",
        "street": "Rua Villa",
        "zipcode": "85903-110"
    },
    {
        "city": "Toledo",
        "state": "PR",
        "district": "Jardim Santa Maria",
        "street": "Rua Verbo Divino",
        "zipcode": "85903-140"
    },
    {
        "city": "Toledo",
        "state": "PR",
        "district": "Jardim Pancera",
        "street": "Rua Virgínia Deparis",
        "zipcode": "85902-620"
    },
    {
        "city": "Toledo",
        "state": "PR",
        "district": "Vila Becker",
        "street": "Rua Waldemar Grahl",
        "zipcode": "85902-450"
    },
    {
        "city": "Toledo",
        "state": "PR",
        "district": "Jardim Pancera",
        "street": "Rua Washington Luiz",
        "zipcode": "85902-340"
    },
    {
        "city": "Toledo",
        "state": "PR",
        "district": "Jardim Pancera",
        "street": "Rua Presidente Café Filho",
        "zipcode": "85902-360"
    },
    {
        "city": "Toledo",
        "state": "PR",
        "district": "Jardim Pancera",
        "street": "Avenida Ministro Cirne Lima",
        "zipcode": "85902-400"
    },
    {
        "city": "Toledo",
        "state": "PR",
        "district": "Jardim La Salle",
        "street": "Rua das Rosas",
        "zipcode": "85902-466"
    },
    {
        "city": "Toledo",
        "state": "PR",
        "district": "Jardim Pancera",
        "street": "Rua Presidente Tancredo Neves",
        "zipcode": "85902-312"
    },
    {
        "city": "Toledo",
        "state": "PR",
        "district": "Vila Becker",
        "street": "Rua Padre Bernardo Wolters",
        "zipcode": "85902-516"
    },
    {
        "city": "Toledo",
        "state": "PR",
        "district": "Jardim Coopagro",
        "street": "Avenida Ministro Cirne Lima",
        "zipcode": "85902-900"
    },
    {
        "city": "Toledo",
        "state": "PR",
        "district": "Jardim Pancera",
        "street": "Rua Vinicius de Moraes",
        "zipcode": "85902-311"
    },
    {
        "city": "Toledo",
        "state": "PR",
        "district": "Jardim Pancera",
        "street": "Rua Guaíra",
        "zipcode": "85902-192"
    },
    {
        "city": "Toledo",
        "state": "PR",
        "district": "Jardim Pancera",
        "street": "Rua Allan Kardec",
        "zipcode": "85902-210"
    },
    {
        "city": "Toledo",
        "state": "PR",
        "district": "Centro",
        "street": "Rua Alvorada",
        "zipcode": "85901-240"
    },
    {
        "city": "Toledo",
        "state": "PR",
        "district": "Jardim La Salle",
        "street": "Rua Bento Munhoz da Rocha Neto",
        "zipcode": "85902-000"
    },
    {
        "city": "Toledo",
        "state": "PR",
        "district": "Jardim Pancera",
        "street": "Rua Bezerra de Menezes",
        "zipcode": "85902-200"
    },
    {
        "city": "Toledo",
        "state": "PR",
        "district": "Jardim Pancera",
        "street": "Rua Bom Pastor",
        "zipcode": "85902-280"
    },
    {
        "city": "Toledo",
        "state": "PR",
        "district": "Jardim Pancera",
        "street": "Rua Claudete Dal Bosco",
        "zipcode": "85902-190"
    },
    {
        "city": "Toledo",
        "state": "PR",
        "district": "Jardim La Salle",
        "street": "Rua Coronel Vicente",
        "zipcode": "85902-100"
    },
    {
        "city": "Toledo",
        "state": "PR",
        "district": "Jardim La Salle",
        "street": "Rua Crissiumal",
        "zipcode": "85902-120"
    },
    {
        "city": "Toledo",
        "state": "PR",
        "district": "Jardim Pancera",
        "street": "Rua Dom Carmine Rocco",
        "zipcode": "85902-270"
    },
    {
        "city": "Toledo",
        "state": "PR",
        "district": "Centro",
        "street": "Rua Dom Pedro II",
        "zipcode": "85902-010"
    },
    {
        "city": "Toledo",
        "state": "PR",
        "district": "Centro",
        "street": "Rua Doutor Flores",
        "zipcode": "85901-230"
    },
    {
        "city": "Toledo",
        "state": "PR",
        "district": "Centro",
        "street": "Rua Dom Pedro II",
        "zipcode": "85901-270"
    },
    {
        "city": "Toledo",
        "state": "PR",
        "district": "Jardim La Salle",
        "street": "Rua Formosa",
        "zipcode": "85902-160"
    },
    {
        "city": "Toledo",
        "state": "PR",
        "district": "Jardim Pancera",
        "street": "Rua Francisco Ferrer",
        "zipcode": "85902-230"
    },
    {
        "city": "Toledo",
        "state": "PR",
        "district": "Jardim Pancera",
        "street": "Rua Gabriel Delane",
        "zipcode": "85902-220"
    },
    {
        "city": "Toledo",
        "state": "PR",
        "district": "Centro",
        "street": "Rua Garibaldi",
        "zipcode": "85901-260"
    },
    {
        "city": "Toledo",
        "state": "PR",
        "district": "Jardim Pancera",
        "street": "Rua Gaspar Dutra",
        "zipcode": "85902-310"
    },
    {
        "city": "Toledo",
        "state": "PR",
        "district": "Jardim La Salle",
        "street": "Rua General Rondon",
        "zipcode": "85902-090"
    },
    {
        "city": "Toledo",
        "state": "PR",
        "district": "Jardim La Salle",
        "street": "Rua das Hortênsias",
        "zipcode": "85902-170"
    },
    {
        "city": "Toledo",
        "state": "PR",
        "district": "Centro",
        "street": "Rua Independência",
        "zipcode": "85901-300"
    },
    {
        "city": "Toledo",
        "state": "PR",
        "district": "Jardim Pancera",
        "street": "Rua José Dal Bosco",
        "zipcode": "85902-195"
    },
    {
        "city": "Toledo",
        "state": "PR",
        "district": "Jardim Pancera",
        "street": "Rua Léon Denis",
        "zipcode": "85902-290"
    },
    {
        "city": "Toledo",
        "state": "PR",
        "district": "Centro",
        "street": "Rua Marechal Floriano",
        "zipcode": "85901-220"
    },
    {
        "city": "Toledo",
        "state": "PR",
        "district": "Jardim La Salle",
        "street": "Rua Maringá",
        "zipcode": "85902-110"
    },
    {
        "city": "Toledo",
        "state": "PR",
        "district": "Jardim La Salle",
        "street": "Avenida Maripá",
        "zipcode": "85902-060"
    },
    {
        "city": "Toledo",
        "state": "PR",
        "district": "Jardim La Salle",
        "street": "Rua Nossa Senhora do Rocio",
        "zipcode": "85902-020"
    },
    {
        "city": "Toledo",
        "state": "PR",
        "district": "Centro",
        "street": "Rua Padre Aloísio Baumeister",
        "zipcode": "85901-245"
    },
    {
        "city": "Toledo",
        "state": "PR",
        "district": "Jardim La Salle",
        "street": "Rua das Papoulas",
        "zipcode": "85902-180"
    },
    {
        "city": "Toledo",
        "state": "PR",
        "district": "Jardim Pancera",
        "street": "Rua Pinto Bandeira",
        "zipcode": "85902-240"
    },
    {
        "city": "Toledo",
        "state": "PR",
        "district": "Jardim Pancera",
        "street": "Rua do Rosário",
        "zipcode": "85902-250"
    },
    {
        "city": "Toledo",
        "state": "PR",
        "district": "Centro",
        "street": "Rua Rui Barbosa",
        "zipcode": "85901-190"
    },
    {
        "city": "Toledo",
        "state": "PR",
        "district": "Jardim Pancera",
        "street": "Rua Santa Edwiges",
        "zipcode": "85902-260"
    },
    {
        "city": "Toledo",
        "state": "PR",
        "district": "Jardim Pancera",
        "street": "Rua Senhor dos Passos",
        "zipcode": "85902-196"
    },
    {
        "city": "Toledo",
        "state": "PR",
        "district": "Jardim La Salle",
        "street": "Rua Serafina Corrêa",
        "zipcode": "85902-130"
    },
    {
        "city": "Toledo",
        "state": "PR",
        "district": "Jardim La Salle",
        "street": "Rua Sete de Setembro",
        "zipcode": "85902-050"
    },
    {
        "city": "Toledo",
        "state": "PR",
        "district": "Jardim La Salle",
        "street": "Rua Terra Roxa",
        "zipcode": "85902-150"
    },
    {
        "city": "Toledo",
        "state": "PR",
        "district": "Jardim Pancera",
        "street": "Rua Pastor Uwe Greggersen",
        "zipcode": "85902-295"
    },
    {
        "city": "Toledo",
        "state": "PR",
        "district": "Centro",
        "street": "Rua Quinze de Novembro",
        "zipcode": "85902-040"
    },
    {
        "city": "Toledo",
        "state": "PR",
        "district": "Jardim La Salle",
        "street": "Rua Bonfim",
        "zipcode": "85902-080"
    },
    {
        "city": "Toledo",
        "state": "PR",
        "district": "Centro",
        "street": "Travessa Piratini",
        "zipcode": "85901-280"
    },
    {
        "city": "Toledo",
        "state": "PR",
        "district": "Centro",
        "street": "Avenida Senador Attilio Fontana",
        "zipcode": "85901-200"
    },
    {
        "city": "Toledo",
        "state": "PR",
        "district": "Jardim La Salle",
        "street": "Rua Guarani",
        "zipcode": "85902-030"
    },
    {
        "city": "Toledo",
        "state": "PR",
        "district": "Centro",
        "street": "Rua Alfredo Colla",
        "zipcode": "85901-047"
    },
    {
        "city": "Toledo",
        "state": "PR",
        "district": "Jardim La Salle",
        "street": "Rua Santa Mônica",
        "zipcode": "85902-032"
    },
    {
        "city": "Toledo",
        "state": "PR",
        "district": "Jardim Pancera",
        "street": "Rua Pietro Giovani Bilato",
        "zipcode": "85902-242"
    },
    {
        "city": "Toledo",
        "state": "PR",
        "district": "Centro",
        "street": "Rua Leonardo Júlio Perna",
        "zipcode": "85900-970"
    },
    {
        "city": "Toledo",
        "state": "PR",
        "district": "Centro",
        "street": "Largo São Vicente de Paulo",
        "zipcode": "85901-980"
    },
    {
        "city": "Toledo",
        "state": "PR",
        "district": "Centro",
        "street": "Rua Nossa Senhora do Rocio",
        "zipcode": "85900-971"
    },
    {
        "city": "Toledo",
        "state": "PR",
        "district": "Centro",
        "street": "Rua Barão do Rio Branco",
        "zipcode": "85900-981"
    },
    {
        "city": "Toledo",
        "state": "PR",
        "district": "Centro",
        "street": "Avenida Senador Attilio Fontana",
        "zipcode": "85900-900"
    },
    {
        "city": "Toledo",
        "state": "PR",
        "district": "Centro",
        "street": "Rua Marechal Floriano",
        "zipcode": "85900-275"
    },
    {
        "city": "Toledo",
        "state": "PR",
        "district": "Centro",
        "street": "Rua Suécia",
        "zipcode": "85900-121"
    },
    {
        "city": "Toledo",
        "state": "PR",
        "district": "Centro",
        "street": "Rua Almirante Tamandaré",
        "zipcode": "85900-270"
    },
    {
        "city": "Toledo",
        "state": "PR",
        "district": "Centro",
        "street": "Rua da Amizade",
        "zipcode": "85901-050"
    },
    {
        "city": "Toledo",
        "state": "PR",
        "district": "Centro",
        "street": "Rua Armando Luiz Arrosi",
        "zipcode": "85901-020"
    },
    {
        "city": "Toledo",
        "state": "PR",
        "district": "Centro",
        "street": "Rua Atílio Formighieri",
        "zipcode": "85901-030"
    },
    {
        "city": "Toledo",
        "state": "PR",
        "district": "Centro",
        "street": "Rua Augusto Zorzo",
        "zipcode": "85901-100"
    },
    {
        "city": "Toledo",
        "state": "PR",
        "district": "Centro",
        "street": "Rua Áurea",
        "zipcode": "85900-140"
    },
    {
        "city": "Toledo",
        "state": "PR",
        "district": "Centro",
        "street": "Rua Antônio Scain",
        "zipcode": "85901-095"
    },
    {
        "city": "Toledo",
        "state": "PR",
        "district": "Centro",
        "street": "Rua Ceará",
        "zipcode": "85901-060"
    },
    {
        "city": "Toledo",
        "state": "PR",
        "district": "Centro",
        "street": "Rua Dom Manoel da Silveira dElboux",
        "zipcode": "85900-250"
    },
    {
        "city": "Toledo",
        "state": "PR",
        "district": "Centro",
        "street": "Rua Doze de Outubro",
        "zipcode": "85900-210"
    },
    {
        "city": "Toledo",
        "state": "PR",
        "district": "Centro",
        "street": "Rua Florença",
        "zipcode": "85901-040"
    },
    {
        "city": "Toledo",
        "state": "PR",
        "district": "Centro",
        "street": "Rua Garibaldi",
        "zipcode": "85900-290"
    },
    {
        "city": "Toledo",
        "state": "PR",
        "district": "Centro",
        "street": "Rua General Canrobert Pereira da Costa",
        "zipcode": "85900-150"
    },
    {
        "city": "Toledo",
        "state": "PR",
        "district": "Centro",
        "street": "Rua General Rondon",
        "zipcode": "85901-160"
    },
    {
        "city": "Toledo",
        "state": "PR",
        "district": "Jardim Panorama",
        "street": "Rua Amabile Savaris",
        "zipcode": "85911-103"
    },
    {
        "city": "Toledo",
        "state": "PR",
        "district": "Centro",
        "street": "Rua João Alberto",
        "zipcode": "85901-080"
    },
    {
        "city": "Toledo",
        "state": "PR",
        "district": "Centro",
        "street": "Avenida José João Muraro",
        "zipcode": "85900-260"
    },
    {
        "city": "Toledo",
        "state": "PR",
        "district": "Centro",
        "street": "Rua Leonardo Júlio Perna",
        "zipcode": "85900-240"
    },
    {
        "city": "Toledo",
        "state": "PR",
        "district": "Centro",
        "street": "Rua da Liberdade",
        "zipcode": "85900-130"
    },
    {
        "city": "Toledo",
        "state": "PR",
        "district": "Centro",
        "street": "Rua Londres",
        "zipcode": "85900-090"
    },
    {
        "city": "Toledo",
        "state": "PR",
        "district": "Centro",
        "street": "Rua Luiz Segundo Rossoni",
        "zipcode": "85901-170"
    },
    {
        "city": "Toledo",
        "state": "PR",
        "district": "Centro",
        "street": "Rua das Margaridas",
        "zipcode": "85901-045"
    },
    {
        "city": "Toledo",
        "state": "PR",
        "district": "Centro",
        "street": "Avenida Maripá",
        "zipcode": "85901-000"
    },
    {
        "city": "Toledo",
        "state": "PR",
        "district": "Centro",
        "street": "Rua Nossa Senhora do Rocio",
        "zipcode": "85900-180"
    },
    {
        "city": "Toledo",
        "state": "PR",
        "district": "Centro",
        "street": "Rua Orlando Gomes Pereira",
        "zipcode": "85901-070"
    },
    {
        "city": "Toledo",
        "state": "PR",
        "district": "Centro",
        "street": "Rua Padre Aloys Mann",
        "zipcode": "85901-110"
    },
    {
        "city": "Toledo",
        "state": "PR",
        "district": "Centro",
        "street": "Rua Paris",
        "zipcode": "85900-060"
    },
    {
        "city": "Toledo",
        "state": "PR",
        "district": "Centro",
        "street": "Rua Pedro Rosa dos Santos",
        "zipcode": "85901-075"
    },
    {
        "city": "Toledo",
        "state": "PR",
        "district": "Centro",
        "street": "Rua Piratini",
        "zipcode": "85901-010"
    },
    {
        "city": "Toledo",
        "state": "PR",
        "district": "Centro",
        "street": "Rua Polenice Genari",
        "zipcode": "85901-130"
    },
    {
        "city": "Toledo",
        "state": "PR",
        "district": "Centro",
        "street": "Rua Raimundo Leonardi",
        "zipcode": "85900-110"
    },
    {
        "city": "Toledo",
        "state": "PR",
        "district": "Centro",
        "street": "Rua Rui Barbosa",
        "zipcode": "85900-040"
    },
    {
        "city": "Toledo",
        "state": "PR",
        "district": "Centro",
        "street": "Rua São João",
        "zipcode": "85900-050"
    },
    {
        "city": "Toledo",
        "state": "PR",
        "district": "Centro",
        "street": "Largo São Vicente de Paulo",
        "zipcode": "85900-215"
    },
    {
        "city": "Toledo",
        "state": "PR",
        "district": "Centro",
        "street": "Rua Souza Naves",
        "zipcode": "85900-160"
    },
    {
        "city": "Toledo",
        "state": "PR",
        "district": "Centro",
        "street": "Avenida Tiradentes",
        "zipcode": "85900-230"
    },
    {
        "city": "Toledo",
        "state": "PR",
        "district": "Centro",
        "street": "Rua Vinte de Setembro",
        "zipcode": "85900-170"
    },
    {
        "city": "Toledo",
        "state": "PR",
        "district": "Centro",
        "street": "Rua Vergílio Toretta",
        "zipcode": "85901-155"
    },
    {
        "city": "Toledo",
        "state": "PR",
        "district": "Centro",
        "street": "Rua Quinze de Novembro",
        "zipcode": "85900-200"
    },
    {
        "city": "Toledo",
        "state": "PR",
        "district": "Centro",
        "street": "Rua Travessa",
        "zipcode": "85901-046"
    },
    {
        "city": "Toledo",
        "state": "PR",
        "district": "Centro",
        "street": "Rua Bonfim",
        "zipcode": "85901-150"
    },
    {
        "city": "Toledo",
        "state": "PR",
        "district": "Centro",
        "street": "Rua Jovenildo Lorandi",
        "zipcode": "85901-120"
    },
    {
        "city": "Toledo",
        "state": "PR",
        "district": "Centro",
        "street": "Rua Madrid",
        "zipcode": "85900-100"
    },
    {
        "city": "Toledo",
        "state": "PR",
        "district": "Centro",
        "street": "Rua Guarani",
        "zipcode": "85900-190"
    },
    {
        "city": "Toledo",
        "state": "PR",
        "district": "Jardim Coopagro",
        "street": "Rua Augusto Maas",
        "zipcode": "85903-702"
    },
    {
        "city": "Toledo",
        "state": "PR",
        "district": "Tocantins",
        "street": "Rua Carlota Ringwaldt",
        "zipcode": "85903-344"
    },
    {
        "city": "Toledo",
        "state": "PR",
        "district": "Jardim Gisela",
        "street": "Rua Domingos Conti",
        "zipcode": "85905-245"
    },
    {
        "city": "Toledo",
        "state": "PR",
        "district": "Jardim Panorama",
        "street": "Rua José Meneguetti",
        "zipcode": "85911-104"
    },
    {
        "city": "Toledo",
        "state": "PR",
        "district": "São Francisco",
        "street": "Rua Albino Bernardo Jukinheski",
        "zipcode": "85915-036"
    },
    {
        "city": "Toledo",
        "state": "PR",
        "district": "Jardim Europa",
        "street": "Rua Daniel Vivan",
        "zipcode": "85907-021"
    },
    {
        "city": "Toledo",
        "state": "PR",
        "district": "Jardim Coopagro",
        "street": "Rua Maria Adelina Colla",
        "zipcode": "85903-761"
    },
    {
        "city": "Toledo",
        "state": "PR",
        "district": "Jardim Panorama",
        "street": "Rua Attilio Donassolo",
        "zipcode": "85911-115"
    },
    {
        "city": "Toledo",
        "state": "PR",
        "district": "Vila Operária",
        "street": "Avenida Egon Pudell",
        "zipcode": "85909-727"
    },
    {
        "city": "Toledo",
        "state": "PR",
        "district": "Pinheirinho",
        "street": "Rua Avelino Tomazoni",
        "zipcode": "85907-450"
    },
    {
        "city": "Toledo",
        "state": "PR",
        "district": "Jardim Concórdia",
        "street": "Rua Angela Donin",
        "zipcode": "85906-509"
    },
    {
        "city": "Toledo",
        "state": "PR",
        "district": "Centro",
        "street": "Rua General Alcides Etchegoyen",
        "zipcode": "85900-165"
    },
    {
        "city": "Toledo",
        "state": "PR",
        "district": "Centro",
        "street": "Rua Almirante Barroso",
        "zipcode": "85900-020"
    },
    {
        "city": "Toledo",
        "state": "PR",
        "district": "Jardim La Salle",
        "street": "Rua Almir Gasperin",
        "zipcode": "85903-240"
    },
    {
        "city": "Toledo",
        "state": "PR",
        "district": "Centro",
        "street": "Rua Barão do Rio Branco",
        "zipcode": "85901-180"
    },
    {
        "city": "Toledo",
        "state": "PR",
        "district": "Centro",
        "street": "Rua Barão do Rio Branco",
        "zipcode": "85900-005"
    },
    {
        "city": "Toledo",
        "state": "PR",
        "district": "São Francisco",
        "street": "Rua Benedito Gonçalves do Nascimento",
        "zipcode": "85915-240"
    },
    {
        "city": "Toledo",
        "state": "PR",
        "district": "Centro",
        "street": "Rua Caetano Severino Perin",
        "zipcode": "85900-070"
    },
    {
        "city": "Toledo",
        "state": "PR",
        "district": "Vila Pioneiro",
        "street": "Rua Castro Alves",
        "zipcode": "85910-070"
    },
    {
        "city": "Toledo",
        "state": "PR",
        "district": "Centro",
        "street": "Rua Chile",
        "zipcode": "85901-090"
    },
    {
        "city": "Toledo",
        "state": "PR",
        "district": "Jardim Pancera",
        "street": "Rua Ênio Zorzo",
        "zipcode": "85914-160"
    },
    {
        "city": "Toledo",
        "state": "PR",
        "district": "Jardim Coopagro",
        "street": "Rua Estela Donin",
        "zipcode": "85903-595"
    },
    {
        "city": "Toledo",
        "state": "PR",
        "district": "São Francisco",
        "street": "Rua Alípio Holzbach",
        "zipcode": "85915-270"
    },
    {
        "city": "Toledo",
        "state": "PR",
        "district": "São Francisco",
        "street": "Rua Adelina Cividini",
        "zipcode": "85915-035"
    },
    {
        "city": "Toledo",
        "state": "PR",
        "district": "Vila Pioneiro",
        "street": "Rua Frei Manoel",
        "zipcode": "85909-235"
    },
    {
        "city": "Toledo",
        "state": "PR",
        "district": "Vila Pioneiro",
        "street": "Rua Henrique Dias",
        "zipcode": "85910-040"
    },
    {
        "city": "Toledo",
        "state": "PR",
        "district": "São Francisco",
        "street": "Rua Judite Bedendo",
        "zipcode": "85915-180"
    },
    {
        "city": "Toledo",
        "state": "PR",
        "district": "Jardim Bressan",
        "street": "Rua Lapa",
        "zipcode": "85913-020"
    },
    {
        "city": "Toledo",
        "state": "PR",
        "district": "Jardim Santa Maria",
        "street": "Rua das Palmeiras",
        "zipcode": "85903-190"
    },
    {
        "city": "Toledo",
        "state": "PR",
        "district": "Vila Operária",
        "street": "Rua Pedro Belotto Sobrinho",
        "zipcode": "85909-725"
    },
    {
        "city": "Toledo",
        "state": "PR",
        "district": "Jardim Pancera",
        "street": "Rua Presidente Deodoro da Fonseca",
        "zipcode": "85902-300"
    },
    {
        "city": "Toledo",
        "state": "PR",
        "district": "Jardim La Salle",
        "street": "Rua Primavera",
        "zipcode": "85903-310"
    },
    {
        "city": "Toledo",
        "state": "PR",
        "district": "Jardim Parizzotto",
        "street": "Rua Primo Argenton",
        "zipcode": "85914-035"
    },
    {
        "city": "Toledo",
        "state": "PR",
        "district": "Jardim Gisela",
        "street": "Rua Rui Barbosa",
        "zipcode": "85905-060"
    },
    {
        "city": "Toledo",
        "state": "PR",
        "district": "Jardim Coopagro",
        "street": "Rua Heriberto Beutler de Cecco",
        "zipcode": "85903-755"
    },
    {
        "city": "Toledo",
        "state": "PR",
        "district": "Centro",
        "street": "Rua Santos Dumont",
        "zipcode": "85900-010"
    },
    {
        "city": "Toledo",
        "state": "PR",
        "district": "Centro",
        "street": "Rua Sarandi",
        "zipcode": "85900-030"
    },
    {
        "city": "Toledo",
        "state": "PR",
        "district": "Centro",
        "street": "Rua Sete de Setembro",
        "zipcode": "85900-220"
    },
    {
        "city": "Toledo",
        "state": "PR",
        "district": "Jardim Europa",
        "street": "Rua Oleita Rosa Meneghini Donassolo",
        "zipcode": "85907-234"
    },
    {
        "city": "Toledo",
        "state": "PR",
        "district": "Vila Industrial",
        "street": "Rua Doutor Jorge Nisiide",
        "zipcode": "85904-442"
    },
    {
        "city": "Toledo",
        "state": "PR",
        "district": "Pinheirinho",
        "street": "Rua Alfeo Sartoretto",
        "zipcode": "85907-436"
    },
    {
        "city": "Toledo",
        "state": "PR",
        "district": "Jardim Pancera",
        "street": "Rua Pierina Marcon Berticelli",
        "zipcode": "85914-143"
    },
    {
        "city": "Toledo",
        "state": "PR",
        "district": "Jardim Pancera",
        "street": "Rua Emílio Toigo",
        "zipcode": "85914-146"
    },
    {
        "city": "Toledo",
        "state": "PR",
        "district": "Jardim Pancera",
        "street": "Rua Amélia Dessordi Toigo",
        "zipcode": "85914-148"
    },
    {
        "city": "Toledo",
        "state": "PR",
        "district": "Jardim Panorama",
        "street": "Rua Ignes Josefina Aimi Barbieri",
        "zipcode": "85911-102"
    },
    {
        "city": "Toledo",
        "state": "PR",
        "district": "Vila Becker",
        "street": "Rua Padre João Werner",
        "zipcode": "85902-518"
    },
    {
        "city": "Toledo",
        "state": "PR",
        "district": "Jardim Coopagro",
        "street": "Rua Ângela Zanella",
        "zipcode": "85903-748"
    },
    {
        "city": "Toledo",
        "state": "PR",
        "district": "Vila Becker",
        "street": "Rua Papa João Paulo II",
        "zipcode": "85902-513"
    },
    {
        "city": "Toledo",
        "state": "PR",
        "district": "Jardim Concórdia",
        "street": "Rua Armando Avanci",
        "zipcode": "85906-683"
    },
    {
        "city": "Toledo",
        "state": "PR",
        "district": "São Francisco",
        "street": "Rua Leonir Francisco Bettega",
        "zipcode": "85915-229"
    },
    {
        "city": "Toledo",
        "state": "PR",
        "district": "Vila Pioneiro",
        "street": "Rua Catarina Gonçalves",
        "zipcode": "85910-323"
    },
    {
        "city": "Toledo",
        "state": "PR",
        "district": "Vila Pioneiro",
        "street": "Rua Dalmes Fernando Pastorio",
        "zipcode": "85910-324"
    },
    {
        "city": "Toledo",
        "state": "PR",
        "district": "Vila Industrial",
        "street": "Rua Riqueza",
        "zipcode": "85904-361"
    },
    {
        "city": "Toledo",
        "state": "PR",
        "district": "Jardim Coopagro",
        "street": "Rua Elisa Rodrighiero Galante",
        "zipcode": "85903-757"
    },
    {
        "city": "Toledo",
        "state": "PR",
        "district": "Jardim Coopagro",
        "street": "Rua Orestes Fiorentin",
        "zipcode": "85903-759"
    },
    {
        "city": "Toledo",
        "state": "PR",
        "district": "Centro",
        "street": "Rua Felipe Leopoldo Friedrich",
        "zipcode": "85901-140"
    },
    {
        "city": "Toledo",
        "state": "PR",
        "district": "Jardim Pancera",
        "street": "Rua Marechal Costa e Silva",
        "zipcode": "85902-215"
    },
    {
        "city": "Toledo",
        "state": "PR",
        "district": "Vila Pioneiro",
        "street": "Rua Cuba",
        "zipcode": "85910-260"
    },
    {
        "city": "Toledo",
        "state": "PR",
        "district": "Jardim Coopagro",
        "street": "Rua Isolde Timm",
        "zipcode": "85903-735"
    },
    {
        "city": "Toledo",
        "state": "PR",
        "district": "Jardim Porto Alegre",
        "street": "Rua Júlio Verne",
        "zipcode": "85906-040"
    },
    {
        "city": "Toledo",
        "state": "PR",
        "district": "Vila Industrial",
        "street": "Rua Protásio Alves",
        "zipcode": "85905-325"
    },
    {
        "city": "Toledo",
        "state": "PR",
        "district": "Jardim La Salle",
        "street": "Rua das Violetas",
        "zipcode": "85902-467"
    },
    {
        "city": "Toledo",
        "state": "PR",
        "district": "Jardim Gisela",
        "street": "Rua Waldemar Gnass",
        "zipcode": "85905-564"
    },
    {
        "city": "Toledo",
        "state": "PR",
        "district": "Jardim Recanto",
        "street": "Rua Yara",
        "zipcode": "85902-070"
    },
    {
        "city": "Toledo",
        "state": "PR",
        "district": "Jardim Bressan",
        "street": "Rua Guarapuava",
        "zipcode": "85913-090"
    },
    {
        "city": "Toledo",
        "state": "PR",
        "district": "Jardim Concórdia",
        "street": "Rua Cascavel",
        "zipcode": "85906-726"
    },
    {
        "city": "Toledo",
        "state": "PR",
        "district": "Jardim Concórdia",
        "street": "Rua Visconde de Guarapuava",
        "zipcode": "85906-701"
    },
    {
        "city": "Toledo",
        "state": "PR",
        "district": "Tocantins",
        "street": "Rua Uria Piardi (Loteamento Rossetto)",
        "zipcode": "85904-653"
    },
    {
        "city": "Toledo",
        "state": "PR",
        "district": "Tocantins",
        "street": "Rua Arnildo Linke (Loteamento Rossetto)",
        "zipcode": "85904-650"
    },
    {
        "city": "Toledo",
        "state": "PR",
        "district": "Tocantins",
        "street": "Rua José Rossetto (Loteamento Rossetto)",
        "zipcode": "85904-647"
    },
    {
        "city": "Toledo",
        "state": "PR",
        "district": "Tocantins",
        "street": "Rua Odilla Rossetto (Loteamento Campo Belo)",
        "zipcode": "85904-640"
    },
    {
        "city": "Toledo",
        "state": "PR",
        "district": "Tocantins",
        "street": "Rua Lucimara Zorzo",
        "zipcode": "85904-635"
    },
    {
        "city": "Toledo",
        "state": "PR",
        "district": "Tocantins",
        "street": "Rua Irmã Jacobi (Loteamento Mirante do Lago)",
        "zipcode": "85904-595"
    },
    {
        "city": "Toledo",
        "state": "PR",
        "district": "Jardim Santa Maria",
        "street": "Rua Walter Ponden",
        "zipcode": "85903-145"
    },
    {
        "city": "Toledo",
        "state": "PR",
        "district": "Sadia",
        "street": "Avenida Senador Attilio Fontana",
        "zipcode": "85910-500"
    },
    {
        "city": "Toledo",
        "state": "PR",
        "district": "Independência",
        "street": "Rua Victório Schroeder",
        "zipcode": "85906-582"
    },
    {
        "city": "Toledo",
        "state": "PR",
        "district": "Jardim Panorama",
        "street": "Rua Ignácius Theobald",
        "zipcode": "85911-197"
    },
    {
        "city": "Toledo",
        "state": "PR",
        "district": "Jardim Europa",
        "street": "Rua Antonio Salla",
        "zipcode": "85907-191"
    },
    {
        "city": "Toledo",
        "state": "PR",
        "district": "Jardim Panorama",
        "street": "Estrada Adroaldo José Bombardelli",
        "zipcode": "85911-380"
    },
    {
        "city": "Toledo",
        "state": "PR",
        "district": "Jardim Pancera",
        "street": "Rua Bom Pastor",
        "zipcode": "85902-317"
    },
    {
        "city": "Toledo",
        "state": "PR",
        "district": "Centro",
        "street": "Rua Joaquim Mascarello",
        "zipcode": "85901-031"
    },
    {
        "city": "Toledo",
        "state": "PR",
        "district": "Jardim Panorama",
        "street": "Rua Rudolfo Zorzo",
        "zipcode": "85911-114"
    },
    {
        "city": "Toledo",
        "state": "PR",
        "district": "Pinheirinho",
        "street": "Rua Gasparina Tomazoni",
        "zipcode": "85907-439"
    },
    {
        "city": "Toledo",
        "state": "PR",
        "district": "Jardim Europa",
        "street": "Rua Lauro Eckstein",
        "zipcode": "85907-192"
    },
    {
        "city": "Toledo",
        "state": "PR",
        "district": "Tocantins",
        "street": "Rua Lucena Welter (Loteamento Mirante do Lago)",
        "zipcode": "85904-495"
    },
    {
        "city": "Toledo",
        "state": "PR",
        "district": "Tocantins",
        "street": "Avenida Doutora Zilda Arns Neumann",
        "zipcode": "85904-472"
    },
    {
        "city": "Toledo",
        "state": "PR",
        "district": "Jardim Panorama",
        "street": "Rua Francisco Finkler",
        "zipcode": "85912-147"
    },
    {
        "city": "Toledo",
        "state": "PR",
        "district": "Jardim Panorama",
        "street": "Rua Cezário de Oliveira Cardoso",
        "zipcode": "85911-112"
    },
    {
        "city": "Toledo",
        "state": "PR",
        "district": "Jardim Coopagro",
        "street": "Rua Modesto Domingos Sartor",
        "zipcode": "85903-764"
    },
    {
        "city": "Toledo",
        "state": "PR",
        "district": "Jardim Bressan",
        "street": "Rua João Fornazari",
        "zipcode": "85913-117"
    },
    {
        "city": "Toledo",
        "state": "PR",
        "district": "Vila Operária",
        "street": "Rua Portugal",
        "zipcode": "85909-724"
    },
    {
        "city": "Toledo",
        "state": "PR",
        "district": "Vila Pioneiro",
        "street": "Rua Tomaz Gonzaga",
        "zipcode": "85909-483"
    },
    {
        "city": "Toledo",
        "state": "PR",
        "district": "Jardim Concórdia",
        "street": "Rua Ijuí",
        "zipcode": "85906-722"
    },
    {
        "city": "Toledo",
        "state": "PR",
        "district": "Jardim Concórdia",
        "street": "Alameda Primo Francescon",
        "zipcode": "85906-741"
    },
    {
        "city": "Toledo",
        "state": "PR",
        "district": "Jardim Concórdia",
        "street": "Rua Arduino Eugenio Donin",
        "zipcode": "85906-508"
    },
    {
        "city": "Toledo",
        "state": "PR",
        "district": "Jardim Gisela",
        "street": "Rua Uruguai",
        "zipcode": "85905-145"
    },
    {
        "city": "Toledo",
        "state": "PR",
        "district": "Tocantins",
        "street": "Rua Carlos Barbosa",
        "zipcode": "85904-550"
    },
    {
        "city": "Toledo",
        "state": "PR",
        "district": "Jardim Santa Maria",
        "street": "Avenida Ministro Cirne Lima",
        "zipcode": "85903-175"
    },
    {
        "city": "Toledo",
        "state": "PR",
        "district": "Vila Becker",
        "street": "Rua Guarani",
        "zipcode": "85902-525"
    },
    {
        "city": "Toledo",
        "state": "PR",
        "district": "Tocantins",
        "street": "Rua Joana Maria Pelizzer Piardi (Loteamento Rossetto)",
        "zipcode": "85904-655"
    },
    {
        "city": "Toledo",
        "state": "PR",
        "district": "Tocantins",
        "street": "Avenida Attilio Donato Dalla Costa (Loteamento Rossetto)",
        "zipcode": "85904-645"
    },
    {
        "city": "Toledo",
        "state": "PR",
        "district": "Jardim Pancera",
        "street": "Rua Abramo Rottava",
        "zipcode": "85914-070"
    },
    {
        "city": "Toledo",
        "state": "PR",
        "district": "Jardim Coopagro",
        "street": "Rua Adelino Prada",
        "zipcode": "85903-640"
    },
    {
        "city": "Toledo",
        "state": "PR",
        "district": "Centro",
        "street": "Rua Almirante Tamandaré",
        "zipcode": "85901-210"
    },
    {
        "city": "Toledo",
        "state": "PR",
        "district": "Jardim Europa",
        "street": "Rua Alzira Gonçalves Arruda",
        "zipcode": "85908-320"
    },
    {
        "city": "Toledo",
        "state": "PR",
        "district": "Jardim Gisela",
        "street": "Rua Borges de Medeiros",
        "zipcode": "85905-290"
    },
    {
        "city": "Toledo",
        "state": "PR",
        "district": "Vila Operária",
        "street": "Rua dos Butias",
        "zipcode": "85909-050"
    },
    {
        "city": "Toledo",
        "state": "PR",
        "district": "Jardim Europa",
        "street": "Rua Cassiano Ricardo",
        "zipcode": "85908-040"
    },
    {
        "city": "Toledo",
        "state": "PR",
        "district": "Jardim Concórdia",
        "street": "Rua Coroa do Norte",
        "zipcode": "85906-440"
    },
    {
        "city": "Toledo",
        "state": "PR",
        "district": "Jardim La Salle",
        "street": "Rua Coronel Vicente",
        "zipcode": "85903-610"
    },
    {
        "city": "Toledo",
        "state": "PR",
        "district": "Jardim Pancera",
        "street": "Rua Dom Carmine Rocco",
        "zipcode": "85914-110"
    },
    {
        "city": "Toledo",
        "state": "PR",
        "district": "Centro",
        "street": "Rua Doutor Flores",
        "zipcode": "85900-280"
    },
    {
        "city": "Toledo",
        "state": "PR",
        "district": "Jardim La Salle",
        "street": "Rua Formosa",
        "zipcode": "85903-030"
    },
    {
        "city": "Toledo",
        "state": "PR",
        "district": "Vila Industrial",
        "street": "Rua General Carneiro",
        "zipcode": "85904-190"
    },
    {
        "city": "Toledo",
        "state": "PR",
        "district": "Jardim Gisela",
        "street": "Rua General Daltro Filho",
        "zipcode": "85905-320"
    },
    {
        "city": "Toledo",
        "state": "PR",
        "district": "Jardim La Salle",
        "street": "Rua Guaíra",
        "zipcode": "85902-140"
    },
    {
        "city": "Toledo",
        "state": "PR",
        "district": "Vila Pioneiro",
        "street": "Rua Henrique Ramisch",
        "zipcode": "85909-740"
    },
    {
        "city": "Toledo",
        "state": "PR",
        "district": "Vila Operária",
        "street": "Rua dos Jacarandás",
        "zipcode": "85909-085"
    },
    {
        "city": "Toledo",
        "state": "PR",
        "district": "Jardim Concórdia",
        "street": "Travessa Jardim Bandeirantes",
        "zipcode": "85906-750"
    },
    {
        "city": "Toledo",
        "state": "PR",
        "district": "Vila Operária",
        "street": "Rua Leopoldo José Prebianca",
        "zipcode": "85909-726"
    },
    {
        "city": "Toledo",
        "state": "PR",
        "district": "Vila Pioneiro",
        "street": "Rua Laurindo Salvador",
        "zipcode": "85909-290"
    },
    {
        "city": "Toledo",
        "state": "PR",
        "district": "Jardim Paulista",
        "street": "Rua Mem de Sá",
        "zipcode": "85910-216"
    },
    {
        "city": "Toledo",
        "state": "PR",
        "district": "Jardim Porto Alegre",
        "street": "Avenida Parigot de Souza",
        "zipcode": "85906-070"
    },
    {
        "city": "Toledo",
        "state": "PR",
        "district": "Jardim Santa Maria",
        "street": "Avenida Parigot de Souza",
        "zipcode": "85903-170"
    },
    {
        "city": "Toledo",
        "state": "PR",
        "district": "Vila Pioneiro",
        "street": "Rua dos Pioneiros",
        "zipcode": "85910-080"
    },
    {
        "city": "Toledo",
        "state": "PR",
        "district": "Jardim Paulista",
        "street": "Rua Primeiro de Maio",
        "zipcode": "85910-220"
    },
    {
        "city": "Toledo",
        "state": "PR",
        "district": "Jardim Coopagro",
        "street": "Rua Primo Arrosi",
        "zipcode": "85903-709"
    },
    {
        "city": "Toledo",
        "state": "PR",
        "district": "Vila Pioneiro",
        "street": "Rua Santa Laura",
        "zipcode": "85909-415"
    },
    {
        "city": "Toledo",
        "state": "PR",
        "district": "Vila Pioneiro",
        "street": "Rua Santa Luzia",
        "zipcode": "85909-130"
    },
    {
        "city": "Toledo",
        "state": "PR",
        "district": "Jardim Arinela Grahl",
        "street": "Rua Santa Rosa",
        "zipcode": "85905-510"
    },
    {
        "city": "Toledo",
        "state": "PR",
        "district": "Vila Industrial",
        "street": "Rua Santa Rosa",
        "zipcode": "85904-160"
    },
    {
        "city": "Toledo",
        "state": "PR",
        "district": "Jardim Bressan",
        "street": "Rua Senador Teotônio Vilela",
        "zipcode": "85913-160"
    },
    {
        "city": "Toledo",
        "state": "PR",
        "district": "Centro",
        "street": "Rua Vinte e Cinco de Julho",
        "zipcode": "85901-290"
    },
    {
        "city": "Toledo",
        "state": "PR",
        "district": "Jardim Coopagro",
        "street": "Avenida Ministro Cirne Lima",
        "zipcode": "85903-590"
    },
    {
        "city": "Toledo",
        "state": "PR",
        "district": "Jardim Europa",
        "street": "Rua Alberto Limberger",
        "zipcode": "85908-260"
    },
    {
        "city": "Toledo",
        "state": "PR",
        "district": "Jardim Porto Alegre",
        "street": "Rua Avelino Vieira",
        "zipcode": "85906-350"
    },
    {
        "city": "Toledo",
        "state": "PR",
        "district": "São Francisco",
        "street": "Rua Francisco Finkler",
        "zipcode": "85915-220"
    },
    {
        "city": "Toledo",
        "state": "PR",
        "district": "Jardim Panorama",
        "street": "Rua Antônio Bressan",
        "zipcode": "85912-060"
    },
    {
        "city": "Toledo",
        "state": "PR",
        "district": "Jardim Panorama",
        "street": "Rua Mariana Zanetti",
        "zipcode": "85911-130"
    },
    {
        "city": "Toledo",
        "state": "PR",
        "district": "Vila Pioneiro",
        "street": "Rua Tomaz Gonzaga",
        "zipcode": "85909-280"
    },
    {
        "city": "Toledo",
        "state": "PR",
        "district": "Jardim Concórdia",
        "street": "Rua Portugal",
        "zipcode": "85906-730"
    },
    {
        "city": "Toledo",
        "state": "PR",
        "district": "Jardim Concórdia",
        "street": "Rua Ângelo Donin",
        "zipcode": "85906-716"
    },
    {
        "city": "Toledo",
        "state": "PR",
        "district": "Jardim Porto Alegre",
        "street": "Avenida Nossa Senhora de Fátima",
        "zipcode": "85906-230"
    },
    {
        "city": "Toledo",
        "state": "PR",
        "district": "Jardim Porto Alegre",
        "street": "Rua Suécia",
        "zipcode": "85906-210"
    },
    {
        "city": "Toledo",
        "state": "PR",
        "district": "Jardim Gisela",
        "street": "Rua Saturno",
        "zipcode": "85905-180"
    },
    {
        "city": "Toledo",
        "state": "PR",
        "district": "Jardim Gisela",
        "street": "Rua Uruguai",
        "zipcode": "85905-170"
    },
    {
        "city": "Toledo",
        "state": "PR",
        "district": "Jardim Pancera",
        "street": "Rua Vinicius de Moraes",
        "zipcode": "85902-630"
    },
    {
        "city": "Toledo",
        "state": "PR",
        "district": "Centro",
        "street": "Rua General Estilac Leal",
        "zipcode": "85900-120"
    },
    {
        "city": "Toledo",
        "state": "PR",
        "district": "Vila Pioneiro",
        "street": "Rua Odilio Barbieri",
        "zipcode": "85910-380"
    },
    {
        "city": "Toledo",
        "state": "PR",
        "district": "Coopagro",
        "street": "Rua Abel Batista De Freitas",
        "zipcode": "85903-426"
    },
    {
        "city": "Toledo",
        "state": "PR",
        "district": "São Francisco",
        "street": "Rua Mariana Zanetti",
        "zipcode": "85915-037"
    },
    {
        "city": "Toledo",
        "state": "PR",
        "district": "Área Rural de Toledo",
        "street": "Área Rural",
        "zipcode": "85919-899"
    },
    {
        "city": "Toledo",
        "state": "PR",
        "district": "Vila Becker",
        "street": "Rua Padre Paulo Bubniak",
        "zipcode": "85902-509"
    },
    {
        "city": "Toledo",
        "state": "PR",
        "district": "Jardim Santa Maria",
        "street": "Rua General Martin",
        "zipcode": "85903-155"
    },
    {
        "city": "Toledo",
        "state": "PR",
        "district": "Jardim Coopagro",
        "street": "Rua Beneditto Cittadin",
        "zipcode": "85903-753"
    },
    {
        "city": "Toledo",
        "state": "PR",
        "district": "Jardim Porto Alegre",
        "street": "Rua Ermindo Holzbach",
        "zipcode": "85907-080"
    },
    {
        "city": "Toledo",
        "state": "PR",
        "district": "Jardim Coopagro",
        "street": "Rua Ines Tonin Citadin",
        "zipcode": "85903-767"
    },
    {
        "city": "Toledo",
        "state": "PR",
        "district": "Vila Industrial",
        "street": "Rua Gisela Boaretto",
        "zipcode": "85904-422"
    },
    {
        "city": "Toledo",
        "state": "PR",
        "district": "Vila Pioneiro",
        "street": "Rua Joaquim Braga",
        "zipcode": "85910-384"
    },
    {
        "city": "Toledo",
        "state": "PR",
        "district": "Vila Pioneiro",
        "street": "Rua Humberto da Luz Arcanjo",
        "zipcode": "85910-386"
    },
    {
        "city": "Toledo",
        "state": "PR",
        "district": "Jardim Panorama",
        "street": "Rua Valdir Veroneze",
        "zipcode": "85912-115"
    },
    {
        "city": "Toledo",
        "state": "PR",
        "district": "Pinheirinho",
        "street": "Rua Osório de Oliveira",
        "zipcode": "85907-448"
    },
    {
        "city": "Toledo",
        "state": "PR",
        "district": "Jardim Bressan",
        "street": "Rua Erasmo Ribeiro de Morais",
        "zipcode": "85913-113"
    },
    {
        "city": "Toledo",
        "state": "PR",
        "district": "São Francisco",
        "street": "Rua Sunta Nezello Pizzatto",
        "zipcode": "85915-231"
    },
    {
        "city": "Toledo",
        "state": "PR",
        "district": "Jardim Panorama",
        "street": "Rua Olivio Finatto",
        "zipcode": "85911-117"
    },
    {
        "city": "Toledo",
        "state": "PR",
        "district": "Jardim Bressan",
        "street": "Rua Antonio Dal Pozzo",
        "zipcode": "85913-112"
    },
    {
        "city": "Toledo",
        "state": "PR",
        "district": "Jardim Panorama",
        "street": "Rua Dalvino comarella",
        "zipcode": "85911-101"
    },
    {
        "city": "Toledo",
        "state": "PR",
        "district": "São Francisco",
        "street": "Rua Vitor Matheus Gonchoroski da Silva",
        "zipcode": "85915-233"
    },
    {
        "city": "Toledo",
        "state": "PR",
        "district": "Jardim Europa",
        "street": "Rua Elvira Bombonatto",
        "zipcode": "85907-120"
    },
    {
        "city": "Toledo",
        "state": "PR",
        "district": "Jardim Concordia",
        "street": "Rua Coroa Do Norte",
        "zipcode": "85906-445"
    },
    {
        "city": "Toledo",
        "state": "PR",
        "district": "Centro",
        "street": "Rua Balduíno Thilke",
        "zipcode": "85900-122"
    },
    {
        "city": "Toledo",
        "state": "PR",
        "district": "Vila Becker",
        "street": "Rua da União",
        "zipcode": "85902-532"
    },
    {
        "city": "Toledo",
        "state": "PR",
        "district": "Tocantins",
        "street": "Rua Nelson Dellavecchia",
        "zipcode": "85903-332"
    },
    {
        "city": "Toledo",
        "state": "PR",
        "district": "Jardim Coopagro",
        "street": "Rua Abel Batista de Freitas",
        "zipcode": "85903-421"
    },
    {
        "city": "Toledo",
        "state": "PR",
        "district": "Jardim Coopagro",
        "street": "Rua Fortunato Grisa",
        "zipcode": "85903-506"
    },
    {
        "city": "Toledo",
        "state": "PR",
        "district": "Jardim Coopagro",
        "street": "Rua Luiz Antônio Basso",
        "zipcode": "85903-508"
    },
    {
        "city": "Toledo",
        "state": "PR",
        "district": "Jardim Gisela",
        "street": "Rua Ricieri Vanzella",
        "zipcode": "85905-172"
    },
    {
        "city": "Toledo",
        "state": "PR",
        "district": "Vila Pioneiro",
        "street": "Rua Felipe Camarão",
        "zipcode": "85909-741"
    },
    {
        "city": "Toledo",
        "state": "PR",
        "district": "Jardim Panorama",
        "street": "Rua Jacob Francisco Recalcatti",
        "zipcode": "85911-195"
    },
    {
        "city": "Toledo",
        "state": "PR",
        "district": "São Francisco",
        "street": "Rua Guerino Pagnussatti",
        "zipcode": "85915-236"
    },
    {
        "city": "Toledo",
        "state": "PR",
        "district": "Jardim Coopagro",
        "street": "Rua Maria Cristina Souza Souto",
        "zipcode": "85903-780"
    },
    {
        "city": "Toledo",
        "state": "PR",
        "district": "Vila Becker",
        "street": "Rua Hussein Ali Mohd Rabah",
        "zipcode": "85902-508"
    },
    {
        "city": "Toledo",
        "state": "PR",
        "district": "Jardim Europa",
        "street": "Rua Clemente Angeli",
        "zipcode": "85907-110"
    },
    {
        "city": "Toledo",
        "state": "PR",
        "district": "Jardim Parizzotto",
        "street": "Rua Mario Emilio Franceschetto",
        "zipcode": "85914-015"
    },
    {
        "city": "Toledo",
        "state": "PR",
        "district": "Pinheirinho",
        "street": "Rua Daniel Berg",
        "zipcode": "85907-445"
    },
    {
        "city": "Toledo",
        "state": "PR",
        "district": "Parque Residencial Gisela",
        "street": "Rua Bolivia",
        "zipcode": "85905-310"
    },
    {
        "city": "Toledo",
        "state": "PR",
        "district": "Jardim Coopagro",
        "street": "Rua Leonila Altmann Antes",
        "zipcode": "85903-777"
    },
    {
        "city": "Toledo",
        "state": "PR",
        "district": "São Francisco",
        "street": "Rua Luiz Pizzatto",
        "zipcode": "85915-232"
    },
    {
        "city": "Toledo",
        "state": "PR",
        "district": "Jardim Panorama",
        "street": "Rua Walmor Cristiano Lody",
        "zipcode": "85911-107"
    },
    {
        "city": "Toledo",
        "state": "PR",
        "district": "Jardim Coopagro",
        "street": "Rua Angelo Citadin",
        "zipcode": "85903-768"
    },
    {
        "city": "Toledo",
        "state": "PR",
        "district": "Jardim Coopagro",
        "street": "Rua Antonio de Oliveira",
        "zipcode": "85903-724"
    },
    {
        "city": "Toledo",
        "state": "PR",
        "district": "Jardim La Salle",
        "street": "Rua Quatorze De Julho",
        "zipcode": "85902-005"
    },
    {
        "city": "Toledo",
        "state": "PR",
        "district": "Coopagro",
        "street": "Rua Otavio Magalhaes",
        "zipcode": "85903-428"
    },
    {
        "city": "Toledo",
        "state": "PR",
        "district": "Tocantins",
        "street": "Rua Rudi Miguel Welter",
        "zipcode": "85904-474"
    },
    {
        "city": "Toledo",
        "state": "PR",
        "district": "Residencial Santa Clara",
        "street": "Rua General Ducio L. Peliceti",
        "zipcode": "85908-330"
    },
    {
        "city": "Toledo",
        "state": "PR",
        "district": "Tocantins",
        "street": "Rua Estevão Lino Rockenbach",
        "zipcode": "85904-476"
    },
    {
        "city": "Toledo",
        "state": "PR",
        "district": "Jardim Coopagro",
        "street": "Rua José Gervásio Filho",
        "zipcode": "85903-769"
    },
    {
        "city": "Toledo",
        "state": "PR",
        "district": "Jardim Panorama",
        "street": "Rua Sebastião Lotero",
        "zipcode": "85911-118"
    },
    {
        "city": "Toledo",
        "state": "PR",
        "district": "Jardim Coopagro",
        "street": "Rua Olga Bordignon",
        "zipcode": "85903-766"
    },
    {
        "city": "Toledo",
        "state": "PR",
        "district": "Jardim Gisela",
        "street": "Rua Carmelita Nodari",
        "zipcode": "85905-562"
    },
    {
        "city": "Toledo",
        "state": "PR",
        "district": "São Francisco",
        "street": "Rua Joana Dal Bó Copetti",
        "zipcode": "85915-239"
    },
    {
        "city": "Toledo",
        "state": "PR",
        "district": "São Francisco",
        "street": "Rua Henrique Basso",
        "zipcode": "85915-244"
    },
    {
        "city": "Toledo",
        "state": "PR",
        "district": "Jardim Gisela",
        "street": "Rua Lourenço Pagliarini",
        "zipcode": "85905-092"
    },
    {
        "city": "Toledo",
        "state": "PR",
        "district": "Jardim Gisela",
        "street": "Rua Antônio Liduino Perin",
        "zipcode": "85905-546"
    },
    {
        "city": "Toledo",
        "state": "PR",
        "district": "Jardim Gisela",
        "street": "Rua Luzerna",
        "zipcode": "85905-202"
    },
    {
        "city": "Toledo",
        "state": "PR",
        "district": "Jardim Europa",
        "street": "Rua Jandir Domingos Bazei",
        "zipcode": "85907-044"
    },
    {
        "city": "Toledo",
        "state": "PR",
        "district": "Tocantins",
        "street": "Rua Generoso Tibes de Barros",
        "zipcode": "85904-482"
    },
    {
        "city": "Toledo",
        "state": "PR",
        "district": "Tocantins",
        "street": "Avenida Celeste Muraro",
        "zipcode": "85903-342"
    },
    {
        "city": "Toledo",
        "state": "PR",
        "district": "Jardim La Salle",
        "street": "Rodovia PR",
        "zipcode": "85902-600"
    },
    {
        "city": "Toledo",
        "state": "PR",
        "district": "Jardim Europa",
        "street": "Rodovia BR",
        "zipcode": "85907-060"
    },
    {
        "city": "Toledo",
        "state": "PR",
        "district": "Jardim Coopagro",
        "street": "Rua Werner Zielasko",
        "zipcode": "85903-752"
    },
    {
        "city": "Toledo",
        "state": "PR",
        "district": "Vila Pioneiro",
        "street": "Rua São Francisco Falso",
        "zipcode": "85909-554"
    },
    {
        "city": "Toledo",
        "state": "PR",
        "district": "Jardim Panorama",
        "street": "Rua Olegário Mariano",
        "zipcode": "85911-120"
    },
    {
        "city": "Toledo",
        "state": "PR",
        "district": "São Francisco",
        "street": "Rua Olegário Mariano",
        "zipcode": "85915-038"
    },
    {
        "city": "Toledo",
        "state": "PR",
        "district": "Vila Pioneiro",
        "street": "Rua da Igreja",
        "zipcode": "85909-000"
    },
    {
        "city": "Toledo",
        "state": "PR",
        "district": "Jardim Pancera",
        "street": "Rua Governador Ney Braga",
        "zipcode": "85902-316"
    },
    {
        "city": "Toledo",
        "state": "PR",
        "district": "Independência",
        "street": "Rua Presidente Juscelino Kubitschek de Oliveira",
        "zipcode": "85906-568"
    },
    {
        "city": "Toledo",
        "state": "PR",
        "district": "Jardim Concórdia",
        "street": "Rua Ijuí",
        "zipcode": "85906-700"
    },
    {
        "city": "Toledo",
        "state": "PR",
        "district": "Jardim La Salle",
        "street": "Rua General Alcides Etchegoyen",
        "zipcode": "85903-010"
    },
    {
        "city": "Toledo",
        "state": "PR",
        "district": "Jardim Europa",
        "street": "Rua Mate Laranjeira",
        "zipcode": "85907-150"
    },
    {
        "city": "Toledo",
        "state": "PR",
        "district": "Vila Pioneiro",
        "street": "Rua Luiz Bezerra",
        "zipcode": "85910-388"
    },
    {
        "city": "Toledo",
        "state": "PR",
        "district": "Boa Esperanca",
        "street": "Rua Vinte E Dois",
        "zipcode": "85909-256"
    },
    {
        "city": "Toledo",
        "state": "PR",
        "district": "Jardim Panorama",
        "street": "Rua Sebastião Lotero",
        "zipcode": "85911-119"
    },
    {
        "city": "Toledo",
        "state": "PR",
        "district": "Jardim Porto Alegre",
        "street": "Rua Waldemar Gnass",
        "zipcode": "85907-090"
    },
    {
        "city": "Toledo",
        "state": "PR",
        "district": "Jardim Canaa",
        "street": "Rua Balduino Felicetti",
        "zipcode": "85914-050"
    },
    {
        "city": "Toledo",
        "state": "PR",
        "district": "Pinheirinho",
        "street": "Rua José Severino Medeiros",
        "zipcode": "85907-442"
    },
    {
        "city": "Toledo",
        "state": "PR",
        "district": "Jardim Europa",
        "street": "Rua Romualdo Paiter",
        "zipcode": "85907-160"
    },
    {
        "city": "Toledo",
        "state": "PR",
        "district": "Jardim Porto Alegre",
        "street": "Rua Guilherme Leyser",
        "zipcode": "85906-729"
    },
    {
        "city": "Toledo",
        "state": "PR",
        "district": "Jardim Coopagro",
        "street": "Rua Luiza Gheno Fiorentin",
        "zipcode": "85903-765"
    },
    {
        "city": "Toledo",
        "state": "PR",
        "district": "Jardim Coopagro",
        "street": "Rua Wilmor Luiz Citadin",
        "zipcode": "85903-772"
    },
    {
        "city": "Toledo",
        "state": "PR",
        "district": "Jardim Panorama",
        "street": "Estrada Narciso Antônio Casarotto",
        "zipcode": "85911-340"
    },
    {
        "city": "Toledo",
        "state": "PR",
        "district": "Jardim Maria Do Carmo",
        "street": "Rua Visconde De Guarapuava",
        "zipcode": "85906-709"
    },
    {
        "city": "Toledo",
        "state": "PR",
        "district": "Jardim Taioba",
        "street": "Rua Leopoldo Rodhe",
        "zipcode": "85909-620"
    },
    {
        "city": "Toledo",
        "state": "PR",
        "district": "Vila Operária",
        "street": "Rua Willibald Lahm",
        "zipcode": "85909-709"
    },
    {
        "city": "Toledo",
        "state": "PR",
        "district": "Jardim Europa",
        "street": "Rua Felix Da Cunha",
        "zipcode": "85908-380"
    },
    {
        "city": "Toledo",
        "state": "PR",
        "district": "São Francisco",
        "street": "Rua Emília Pertile Pagnussatti",
        "zipcode": "85915-234"
    },
    {
        "city": "Toledo",
        "state": "PR",
        "district": "Vila Industrial",
        "street": "Rua Assis Brasil",
        "zipcode": "85905-070"
    },
    {
        "city": "Toledo",
        "state": "PR",
        "district": "Jardim Bressan",
        "street": "Rua Tranquilo Modesto Pizzatto",
        "zipcode": "85913-119"
    },
    {
        "city": "Toledo",
        "state": "PR",
        "district": "Vila Industrial",
        "street": "Rua Rayson Caetano do Carmo",
        "zipcode": "85904-425"
    },
    {
        "city": "Toledo",
        "state": "PR",
        "district": "Jardim Pancera",
        "street": "Rua Gentília Maria Dallagnol",
        "zipcode": "85902-314"
    },
    {
        "city": "Toledo",
        "state": "PR",
        "district": "Vila Becker",
        "street": "Rua Padre Henrique Perbeche",
        "zipcode": "85902-511"
    },
    {
        "city": "Toledo",
        "state": "PR",
        "district": "Jardim Europa",
        "street": "Rua Werner Schiller",
        "zipcode": "85907-100"
    }
]