[
    {
        "city": "União da Vitória",
        "state": "PR",
        "district": "Cristo Rei",
        "street": "Rua Mario Renê Sibut",
        "zipcode": "84605-342"
    },
    {
        "city": "União da Vitória",
        "state": "PR",
        "district": "Sagrada Família",
        "street": "Rua Chackel Ruthenberg",
        "zipcode": "84603-009"
    },
    {
        "city": "União da Vitória",
        "state": "PR",
        "district": "Cristo Rei",
        "street": "Rua Florinda Muzzolon",
        "zipcode": "84605-338"
    },
    {
        "city": "União da Vitória",
        "state": "PR",
        "district": "Ouro Verde",
        "street": "Rua Mario Ludovico Bazzo",
        "zipcode": "84608-117"
    },
    {
        "city": "União da Vitória",
        "state": "PR",
        "district": "Nossa Senhora do Rocio",
        "street": "Rua Marechal Deodoro da Fonseca",
        "zipcode": "84600-906"
    },
    {
        "city": "União da Vitória",
        "state": "PR",
        "district": "Cristo Rei",
        "street": "Rua Ernani Durek",
        "zipcode": "84605-725"
    },
    {
        "city": "União da Vitória",
        "state": "PR",
        "district": "São Sebastião",
        "street": "Rua R",
        "zipcode": "84604-045"
    },
    {
        "city": "União da Vitória",
        "state": "PR",
        "district": "Cristo Rei",
        "street": "Rua das Primaveras",
        "zipcode": "84605-466"
    },
    {
        "city": "União da Vitória",
        "state": "PR",
        "district": "Bom Jesus",
        "street": "Rua Rio Vermelho",
        "zipcode": "84607-290"
    },
    {
        "city": "União da Vitória",
        "state": "PR",
        "district": "São Braz",
        "street": "Rua Maurício Schultz",
        "zipcode": "84603-272"
    },
    {
        "city": "União da Vitória",
        "state": "PR",
        "district": "São Basilio Magno",
        "street": "Rua Prudente de Morais",
        "zipcode": "84600-905"
    },
    {
        "city": "União da Vitória",
        "state": "PR",
        "district": "São Sebastião",
        "street": "Avenida Paula Freitas",
        "zipcode": "84604-210"
    },
    {
        "city": "União da Vitória",
        "state": "PR",
        "district": "São Joaquim",
        "street": "Rodovia BR 153",
        "zipcode": "84605-295"
    },
    {
        "city": "União da Vitória",
        "state": "PR",
        "district": "São Basilio Magno",
        "street": "Rua Godofredo Groumann",
        "zipcode": "84600-518"
    },
    {
        "city": "União da Vitória",
        "state": "PR",
        "district": "Nossa Senhora da Salete",
        "street": "Rua Adail Candido da Silva",
        "zipcode": "84603-170"
    },
    {
        "city": "União da Vitória",
        "state": "PR",
        "district": "São Sebastião",
        "street": "Rua Aleixo Jacinto Nunes",
        "zipcode": "84604-100"
    },
    {
        "city": "União da Vitória",
        "state": "PR",
        "district": "São Sebastião",
        "street": "Rua Danúncio Varnier",
        "zipcode": "84604-755"
    },
    {
        "city": "União da Vitória",
        "state": "PR",
        "district": "São Joaquim",
        "street": "Rua B",
        "zipcode": "84605-164"
    },
    {
        "city": "União da Vitória",
        "state": "PR",
        "district": "São Braz",
        "street": "Rua Capitão Romano Vieira Kulmann",
        "zipcode": "84603-400"
    },
    {
        "city": "União da Vitória",
        "state": "PR",
        "district": "Ponte Nova",
        "street": "Rua Salgado Filho",
        "zipcode": "84600-049"
    },
    {
        "city": "União da Vitória",
        "state": "PR",
        "district": "São Braz",
        "street": "Rua Fernando Moecke",
        "zipcode": "84603-750"
    },
    {
        "city": "União da Vitória",
        "state": "PR",
        "district": "São Sebastião",
        "street": "Rua Onofre Baninski",
        "zipcode": "84604-025"
    },
    {
        "city": "União da Vitória",
        "state": "PR",
        "district": "São Sebastião",
        "street": "Rua João Antônio de Farias",
        "zipcode": "84604-035"
    },
    {
        "city": "União da Vitória",
        "state": "PR",
        "district": "São Sebastião",
        "street": "Rua Domingos Camargo",
        "zipcode": "84604-075"
    },
    {
        "city": "União da Vitória",
        "state": "PR",
        "district": "Cristo Rei",
        "street": "Rua Dezesseis B",
        "zipcode": "84605-350"
    },
    {
        "city": "União da Vitória",
        "state": "PR",
        "district": "Cristo Rei",
        "street": "Rua Modestina Bordignon Thiel",
        "zipcode": "84605-422"
    },
    {
        "city": "União da Vitória",
        "state": "PR",
        "district": "Bento Munhoz da Rocha",
        "street": "Rua José Piolli",
        "zipcode": "84607-690"
    },
    {
        "city": "União da Vitória",
        "state": "PR",
        "district": "São Bernardo",
        "street": "Rua Zacarias Góes Vasconcelos",
        "zipcode": "84600-384"
    },
    {
        "city": "União da Vitória",
        "state": "PR",
        "district": "Sagrada Família",
        "street": "Rua José Moreira",
        "zipcode": "84603-048"
    },
    {
        "city": "União da Vitória",
        "state": "PR",
        "district": "Nossa Senhora da Salete",
        "street": "Rua Rigoleto Conti",
        "zipcode": "84603-134"
    },
    {
        "city": "União da Vitória",
        "state": "PR",
        "district": "Sagrada Família",
        "street": "Rua Santos Dumont",
        "zipcode": "84603-033"
    },
    {
        "city": "União da Vitória",
        "state": "PR",
        "district": "Bento Munhoz da Rocha",
        "street": "Rua Desembargador Joaquim Penido Monteiro",
        "zipcode": "84607-680"
    },
    {
        "city": "União da Vitória",
        "state": "PR",
        "district": "Limeira",
        "street": "Rua Estefano Berejuk",
        "zipcode": "84601-245"
    },
    {
        "city": "União da Vitória",
        "state": "PR",
        "district": "Limeira",
        "street": "Rua Arnaldo dos Passos",
        "zipcode": "84601-254"
    },
    {
        "city": "União da Vitória",
        "state": "PR",
        "district": "Bela Vista",
        "street": "Rua Laranjeiras do Sul",
        "zipcode": "84601-570"
    },
    {
        "city": "União da Vitória",
        "state": "PR",
        "district": "Nossa Senhora da Salete",
        "street": "Rua Hermínio Millis",
        "zipcode": "84603-125"
    },
    {
        "city": "União da Vitória",
        "state": "PR",
        "district": "Nossa Senhora da Salete",
        "street": "Travessa Aeroporto",
        "zipcode": "84603-137"
    },
    {
        "city": "União da Vitória",
        "state": "PR",
        "district": "São Sebastião",
        "street": "Rua Wanildo Batista da Silva Junior",
        "zipcode": "84604-740"
    },
    {
        "city": "União da Vitória",
        "state": "PR",
        "district": "Rio DAreia",
        "street": "Rua Quatro",
        "zipcode": "84601-063"
    },
    {
        "city": "União da Vitória",
        "state": "PR",
        "district": "Rio DAreia",
        "street": "Rua Cinco",
        "zipcode": "84601-066"
    },
    {
        "city": "União da Vitória",
        "state": "PR",
        "district": "Limeira",
        "street": "Rua Jaime Ernesto Bertaso",
        "zipcode": "84601-203"
    },
    {
        "city": "União da Vitória",
        "state": "PR",
        "district": "São Braz",
        "street": "Rua Manoel Santana de Morais",
        "zipcode": "84603-392"
    },
    {
        "city": "União da Vitória",
        "state": "PR",
        "district": "São Basilio Magno",
        "street": "Rua Alexandre Schlemm",
        "zipcode": "84600-594"
    },
    {
        "city": "União da Vitória",
        "state": "PR",
        "district": "São Basilio Magno",
        "street": "Rua José Julio Cleto da Silva",
        "zipcode": "84600-634"
    },
    {
        "city": "União da Vitória",
        "state": "PR",
        "district": "Nossa Senhora do Rocio",
        "street": "Rua Ezequiel de Souza Portela",
        "zipcode": "84600-708"
    },
    {
        "city": "União da Vitória",
        "state": "PR",
        "district": "Nossa Senhora do Rocio",
        "street": "Rua União da Vitória",
        "zipcode": "84600-742"
    },
    {
        "city": "União da Vitória",
        "state": "PR",
        "district": "Centro",
        "street": "Avenida Manoel Ribas",
        "zipcode": "84600-981"
    },
    {
        "city": "União da Vitória",
        "state": "PR",
        "district": "São Basilio Magno",
        "street": "Avenida Bento Munhoz da Rocha Neto",
        "zipcode": "84600-530"
    },
    {
        "city": "União da Vitória",
        "state": "PR",
        "district": "Nossa Senhora do Rocio",
        "street": "Rua Maria Josefa Amazonas Lima",
        "zipcode": "84600-700"
    },
    {
        "city": "União da Vitória",
        "state": "PR",
        "district": "São Bernardo",
        "street": "Rua Joaquim Távora",
        "zipcode": "84600-376"
    },
    {
        "city": "União da Vitória",
        "state": "PR",
        "district": "Rio DAreia",
        "street": "Rodovia João Paulo Reolon",
        "zipcode": "84601-000"
    },
    {
        "city": "União da Vitória",
        "state": "PR",
        "district": "Centro",
        "street": "Praça Coronel Amazonas",
        "zipcode": "84600-185"
    },
    {
        "city": "União da Vitória",
        "state": "PR",
        "district": "Centro",
        "street": "Avenida Bento Munhoz da Rocha Neto",
        "zipcode": "84600-245"
    },
    {
        "city": "União da Vitória",
        "state": "PR",
        "district": "São Gabriel",
        "street": "Rua João Estácio de Paula",
        "zipcode": "84602-030"
    },
    {
        "city": "União da Vitória",
        "state": "PR",
        "district": "São Braz",
        "street": "Avenida Paula Freitas",
        "zipcode": "84603-580"
    },
    {
        "city": "União da Vitória",
        "state": "PR",
        "district": "São Sebastião",
        "street": "Avenida Paula Freitas",
        "zipcode": "84604-000"
    },
    {
        "city": "União da Vitória",
        "state": "PR",
        "district": "São Sebastião",
        "street": "Rua José Pacheco",
        "zipcode": "84604-420"
    },
    {
        "city": "União da Vitória",
        "state": "PR",
        "district": "São Joaquim",
        "street": "Rua Industrial Joaquim Fernandes Luiz",
        "zipcode": "84605-234"
    },
    {
        "city": "União da Vitória",
        "state": "PR",
        "district": "Bela Vista",
        "street": "Rua Paranaguá",
        "zipcode": "84601-580"
    },
    {
        "city": "União da Vitória",
        "state": "PR",
        "district": "São Sebastião",
        "street": "Rua Professora Maria Parise",
        "zipcode": "84604-110"
    },
    {
        "city": "União da Vitória",
        "state": "PR",
        "district": "Cristo Rei",
        "street": "Rua dos Papagaios",
        "zipcode": "84605-374"
    },
    {
        "city": "União da Vitória",
        "state": "PR",
        "district": "Centro",
        "street": "Rua Benjamim Constant",
        "zipcode": "84600-290"
    },
    {
        "city": "União da Vitória",
        "state": "PR",
        "district": "São Bernardo",
        "street": "Rua Antonio Umberto Gaspari",
        "zipcode": "84600-424"
    },
    {
        "city": "União da Vitória",
        "state": "PR",
        "district": "São Bernardo",
        "street": "Rua Carlos Cavalcante",
        "zipcode": "84600-460"
    },
    {
        "city": "União da Vitória",
        "state": "PR",
        "district": "Navegantes",
        "street": "Avenida Coronel Amazonas de Araújo Marcondes",
        "zipcode": "84600-081"
    },
    {
        "city": "União da Vitória",
        "state": "PR",
        "district": "São Bernardo",
        "street": "Avenida Manoel Ribas",
        "zipcode": "84600-320"
    },
    {
        "city": "União da Vitória",
        "state": "PR",
        "district": "Cidade Jardim",
        "street": "Avenida Abilon de Souza Naves",
        "zipcode": "84607-010"
    },
    {
        "city": "União da Vitória",
        "state": "PR",
        "district": "Cidade Jardim",
        "street": "Rua Antonio Gonzaga",
        "zipcode": "84607-086"
    },
    {
        "city": "União da Vitória",
        "state": "PR",
        "district": "Ouro Verde",
        "street": "Rodovia BR 476",
        "zipcode": "84608-000"
    },
    {
        "city": "União da Vitória",
        "state": "PR",
        "district": "Ouro Verde",
        "street": "Rua Curitiba",
        "zipcode": "84608-090"
    },
    {
        "city": "União da Vitória",
        "state": "PR",
        "district": "Cidade Jardim",
        "street": "Rua Darci Capriglione",
        "zipcode": "84607-054"
    },
    {
        "city": "União da Vitória",
        "state": "PR",
        "district": "Centro",
        "street": "Rua Ipiranga",
        "zipcode": "84600-275"
    },
    {
        "city": "União da Vitória",
        "state": "PR",
        "district": "Cristo Rei",
        "street": "Rua Expedicionário Waldomiro Sliwinski",
        "zipcode": "84605-565"
    },
    {
        "city": "União da Vitória",
        "state": "PR",
        "district": "Bom Jesus",
        "street": "Rua João Leonardi",
        "zipcode": "84607-300"
    },
    {
        "city": "União da Vitória",
        "state": "PR",
        "district": "São Gabriel",
        "street": "Rua Castor Gomes",
        "zipcode": "84602-035"
    },
    {
        "city": "União da Vitória",
        "state": "PR",
        "district": "Cristo Rei",
        "street": "Rua Delcio Gasparoto",
        "zipcode": "84605-414"
    },
    {
        "city": "União da Vitória",
        "state": "PR",
        "district": "Cidade Jardim",
        "street": "Rua Joaquim José da Silva Xavier",
        "zipcode": "84607-020"
    },
    {
        "city": "União da Vitória",
        "state": "PR",
        "district": "Ouro Verde",
        "street": "Rua Nestor Lubi",
        "zipcode": "84608-040"
    },
    {
        "city": "União da Vitória",
        "state": "PR",
        "district": "Cristo Rei",
        "street": "Rua 22 de Abril",
        "zipcode": "84605-560"
    },
    {
        "city": "União da Vitória",
        "state": "PR",
        "district": "Bom Jesus",
        "street": "Rua 15 de Novembro",
        "zipcode": "84607-330"
    },
    {
        "city": "União da Vitória",
        "state": "PR",
        "district": "Cidade Jardim",
        "street": "Rua Doutor Francisco Fernandes Luiz",
        "zipcode": "84607-000"
    },
    {
        "city": "União da Vitória",
        "state": "PR",
        "district": "Nossa Senhora das Graças",
        "street": "Rua João Pattes",
        "zipcode": "84609-145"
    },
    {
        "city": "União da Vitória",
        "state": "PR",
        "district": "Nossa Senhora das Graças",
        "street": "Rua Bacharel Jaime Jacob",
        "zipcode": "84609-151"
    },
    {
        "city": "União da Vitória",
        "state": "PR",
        "district": "Bom Jesus",
        "street": "Rua Ney Braga",
        "zipcode": "84607-480"
    },
    {
        "city": "União da Vitória",
        "state": "PR",
        "district": "São Gabriel",
        "street": "Rua Pacífico José da Silva",
        "zipcode": "84602-155"
    },
    {
        "city": "União da Vitória",
        "state": "PR",
        "district": "Sagrada Família",
        "street": "Rua Palmeiras",
        "zipcode": "84603-054"
    },
    {
        "city": "União da Vitória",
        "state": "PR",
        "district": "Centro",
        "street": "Rua Barão do Rio Branco",
        "zipcode": "84600-903"
    },
    {
        "city": "União da Vitória",
        "state": "PR",
        "district": "Nossa Senhora do Rocio",
        "street": "Rua Padre Saporitti",
        "zipcode": "84600-904"
    },
    {
        "city": "União da Vitória",
        "state": "PR",
        "district": "Nossa Senhora do Rocio",
        "street": "Rua Ângelo Pascoalin",
        "zipcode": "84600-908"
    },
    {
        "city": "União da Vitória",
        "state": "PR",
        "district": "Centro",
        "street": "Rua Coronel João Gualberto",
        "zipcode": "84600-210"
    },
    {
        "city": "União da Vitória",
        "state": "PR",
        "district": "Limeira",
        "street": "Rua Ferusio Presendo",
        "zipcode": "84601-236"
    },
    {
        "city": "União da Vitória",
        "state": "PR",
        "district": "Navegantes",
        "street": "Rua Marechal Floriano Peixoto",
        "zipcode": "84600-105"
    },
    {
        "city": "União da Vitória",
        "state": "PR",
        "district": "Bento Munhoz da Rocha",
        "street": "Rua Arthur de Paula E Souza",
        "zipcode": "84607-585"
    },
    {
        "city": "União da Vitória",
        "state": "PR",
        "district": "Bom Jesus",
        "street": "Rua Emília Silveira",
        "zipcode": "84607-365"
    },
    {
        "city": "União da Vitória",
        "state": "PR",
        "district": "Nossa Senhora das Graças",
        "street": "Rua dos Guararapes",
        "zipcode": "84609-163"
    },
    {
        "city": "União da Vitória",
        "state": "PR",
        "district": "Cristo Rei",
        "street": "Rua das Azaléias",
        "zipcode": "84605-645"
    },
    {
        "city": "União da Vitória",
        "state": "PR",
        "district": "Bento Munhoz da Rocha",
        "street": "Rua Maestro Felício Junqueira Domit",
        "zipcode": "84607-665"
    },
    {
        "city": "União da Vitória",
        "state": "PR",
        "district": "Centro",
        "street": "Rua Paraná",
        "zipcode": "84600-300"
    },
    {
        "city": "União da Vitória",
        "state": "PR",
        "district": "Centro",
        "street": "Rua Joaquim Távora",
        "zipcode": "84600-310"
    },
    {
        "city": "União da Vitória",
        "state": "PR",
        "district": "São Bernardo",
        "street": "Rua Professora Amazília",
        "zipcode": "84600-324"
    },
    {
        "city": "União da Vitória",
        "state": "PR",
        "district": "São Bernardo",
        "street": "Rua Professor Cleto",
        "zipcode": "84600-456"
    },
    {
        "city": "União da Vitória",
        "state": "PR",
        "district": "São Bernardo",
        "street": "Rua Prefeito José Cleto",
        "zipcode": "84600-464"
    },
    {
        "city": "União da Vitória",
        "state": "PR",
        "district": "São Bernardo",
        "street": "Rua Prudente de Morais",
        "zipcode": "84600-468"
    },
    {
        "city": "União da Vitória",
        "state": "PR",
        "district": "Nossa Senhora do Rocio",
        "street": "Rua Professor Didio Augusto",
        "zipcode": "84600-697"
    },
    {
        "city": "União da Vitória",
        "state": "PR",
        "district": "Navegantes",
        "street": "Rua Duarte Catta Preta",
        "zipcode": "84600-087"
    },
    {
        "city": "União da Vitória",
        "state": "PR",
        "district": "Centro",
        "street": "Praça Alvir Riesemberg",
        "zipcode": "84600-150"
    },
    {
        "city": "União da Vitória",
        "state": "PR",
        "district": "São Bernardo",
        "street": "Rua Dom Pedro I",
        "zipcode": "84600-476"
    },
    {
        "city": "União da Vitória",
        "state": "PR",
        "district": "Nossa Senhora da Salete",
        "street": "Rua Princesa Isabel",
        "zipcode": "84603-173"
    },
    {
        "city": "União da Vitória",
        "state": "PR",
        "district": "São Sebastião",
        "street": "Alameda 2",
        "zipcode": "84604-020"
    },
    {
        "city": "União da Vitória",
        "state": "PR",
        "district": "Rio DAreia",
        "street": "Rua Projetada B",
        "zipcode": "84601-048"
    },
    {
        "city": "União da Vitória",
        "state": "PR",
        "district": "São Gabriel",
        "street": "Rua Antonio Paulo Pirizzolo",
        "zipcode": "84602-140"
    },
    {
        "city": "União da Vitória",
        "state": "PR",
        "district": "Nossa Senhora da Salete",
        "street": "Avenida Paula Freitas",
        "zipcode": "84603-110"
    },
    {
        "city": "União da Vitória",
        "state": "PR",
        "district": "Nossa Senhora da Salete",
        "street": "Rua Papa João XXIII",
        "zipcode": "84603-179"
    },
    {
        "city": "União da Vitória",
        "state": "PR",
        "district": "São Braz",
        "street": "Rua Francisco Valdir Pavoski",
        "zipcode": "84603-404"
    },
    {
        "city": "União da Vitória",
        "state": "PR",
        "district": "São Joaquim",
        "street": "Rua Virgulina de Paula Xavier",
        "zipcode": "84605-224"
    },
    {
        "city": "União da Vitória",
        "state": "PR",
        "district": "Cristo Rei",
        "street": "Rua Paulo Frontin",
        "zipcode": "84605-615"
    },
    {
        "city": "União da Vitória",
        "state": "PR",
        "district": "Cristo Rei",
        "street": "Rua Francisco de Paula",
        "zipcode": "84605-685"
    },
    {
        "city": "União da Vitória",
        "state": "PR",
        "district": "Bento Munhoz da Rocha",
        "street": "Rua Boris Ivan Prechlhak",
        "zipcode": "84607-776"
    },
    {
        "city": "União da Vitória",
        "state": "PR",
        "district": "Sagrada Família",
        "street": "Rua Alberto Pascoalin",
        "zipcode": "84603-078"
    },
    {
        "city": "União da Vitória",
        "state": "PR",
        "district": "São Sebastião",
        "street": "Rua Amadeu Pacheco",
        "zipcode": "84604-225"
    },
    {
        "city": "União da Vitória",
        "state": "PR",
        "district": "Cristo Rei",
        "street": "Rua das Palmeiras",
        "zipcode": "84605-314"
    },
    {
        "city": "União da Vitória",
        "state": "PR",
        "district": "Cristo Rei",
        "street": "Rua Palmas",
        "zipcode": "84605-600"
    },
    {
        "city": "União da Vitória",
        "state": "PR",
        "district": "Cidade Jardim",
        "street": "Rua Aurélio Fontana de Paulli",
        "zipcode": "84607-145"
    },
    {
        "city": "União da Vitória",
        "state": "PR",
        "district": "São Bernardo",
        "street": "Avenida Bento Munhoz da Rocha Neto",
        "zipcode": "84600-348"
    },
    {
        "city": "União da Vitória",
        "state": "PR",
        "district": "São Bernardo",
        "street": "Avenida Bento Munhoz da Rocha Neto",
        "zipcode": "84600-420"
    },
    {
        "city": "União da Vitória",
        "state": "PR",
        "district": "São Gabriel",
        "street": "Estrada Antonio Zortes",
        "zipcode": "84602-005"
    },
    {
        "city": "União da Vitória",
        "state": "PR",
        "district": "Sagrada Família",
        "street": "Avenida Julia Amazonas",
        "zipcode": "84603-021"
    },
    {
        "city": "União da Vitória",
        "state": "PR",
        "district": "Nossa Senhora da Salete",
        "street": "Avenida Wilkys Amazonas Correia",
        "zipcode": "84603-128"
    },
    {
        "city": "União da Vitória",
        "state": "PR",
        "district": "Cristo Rei",
        "street": "Rua Miguel Paulena",
        "zipcode": "84605-745"
    },
    {
        "city": "União da Vitória",
        "state": "PR",
        "district": "Bom Jesus",
        "street": "Rua São Paulo",
        "zipcode": "84607-310"
    },
    {
        "city": "União da Vitória",
        "state": "PR",
        "district": "Sagrada Família",
        "street": "Avenida São Cristóvão",
        "zipcode": "84603-012"
    },
    {
        "city": "União da Vitória",
        "state": "PR",
        "district": "Nossa Senhora da Salete",
        "street": "Avenida São Cristóvão",
        "zipcode": "84603-149"
    },
    {
        "city": "União da Vitória",
        "state": "PR",
        "district": "São Braz",
        "street": "Avenida São Cristóvão",
        "zipcode": "84603-384"
    },
    {
        "city": "União da Vitória",
        "state": "PR",
        "district": "São Sebastião",
        "street": "Alameda 1",
        "zipcode": "84604-010"
    },
    {
        "city": "União da Vitória",
        "state": "PR",
        "district": "São Sebastião",
        "street": "Rua Professora Jalile Bichara Machado",
        "zipcode": "84604-015"
    },
    {
        "city": "União da Vitória",
        "state": "PR",
        "district": "Cristo Rei",
        "street": "Rua das Palmas",
        "zipcode": "84605-462"
    },
    {
        "city": "União da Vitória",
        "state": "PR",
        "district": "São Gabriel",
        "street": "Rua Paulo Fernandes",
        "zipcode": "84602-015"
    },
    {
        "city": "União da Vitória",
        "state": "PR",
        "district": "São Braz",
        "street": "Rua Padre Francisco Amos Connor",
        "zipcode": "84603-766"
    },
    {
        "city": "União da Vitória",
        "state": "PR",
        "district": "São Basilio Magno",
        "street": "Rua Presidente João Café Filho",
        "zipcode": "84600-658"
    },
    {
        "city": "União da Vitória",
        "state": "PR",
        "district": "Nossa Senhora do Rocio",
        "street": "Rua Padre Saporitti",
        "zipcode": "84600-718"
    },
    {
        "city": "União da Vitória",
        "state": "PR",
        "district": "Nossa Senhora do Rocio",
        "street": "Rua Prudente de Brito",
        "zipcode": "84600-724"
    },
    {
        "city": "União da Vitória",
        "state": "PR",
        "district": "Nossa Senhora do Rocio",
        "street": "Rua Presidente João Café Filho",
        "zipcode": "84600-688"
    },
    {
        "city": "União da Vitória",
        "state": "PR",
        "district": "São Bernardo",
        "street": "Rua Padre Ladislau Maibuk",
        "zipcode": "84600-380"
    },
    {
        "city": "União da Vitória",
        "state": "PR",
        "district": "Centro",
        "street": "Rua Primeiro de Maio",
        "zipcode": "84600-250"
    },
    {
        "city": "União da Vitória",
        "state": "PR",
        "district": "Navegantes",
        "street": "Rua Primeiro de Maio",
        "zipcode": "84600-099"
    },
    {
        "city": "União da Vitória",
        "state": "PR",
        "district": "Centro",
        "street": "Rua Prudente de Morais",
        "zipcode": "84600-125"
    },
    {
        "city": "União da Vitória",
        "state": "PR",
        "district": "Centro",
        "street": "Rua Professor Cleto",
        "zipcode": "84600-140"
    },
    {
        "city": "União da Vitória",
        "state": "PR",
        "district": "Cidade Jardim",
        "street": "Rua Professora Francisca Maria Wainand",
        "zipcode": "84607-164"
    },
    {
        "city": "União da Vitória",
        "state": "PR",
        "district": "Centro",
        "street": "Praça João de Lima",
        "zipcode": "84600-205"
    },
    {
        "city": "União da Vitória",
        "state": "PR",
        "district": "São Gabriel",
        "street": "Rua Projetada Chácaras Furlan",
        "zipcode": "84602-020"
    },
    {
        "city": "União da Vitória",
        "state": "PR",
        "district": "São Bernardo",
        "street": "Rua Paraná",
        "zipcode": "84600-336"
    },
    {
        "city": "União da Vitória",
        "state": "PR",
        "district": "Nossa Senhora do Rocio",
        "street": "Rua Ângelo Pascoalin",
        "zipcode": "84600-733"
    },
    {
        "city": "União da Vitória",
        "state": "PR",
        "district": "Ponte Nova",
        "street": "Avenida Bento Munhoz da Rocha Neto",
        "zipcode": "84600-040"
    },
    {
        "city": "União da Vitória",
        "state": "PR",
        "district": "Navegantes",
        "street": "Avenida Bento Munhoz da Rocha Neto",
        "zipcode": "84600-066"
    },
    {
        "city": "União da Vitória",
        "state": "PR",
        "district": "Centro",
        "street": "Avenida Manoel Ribas",
        "zipcode": "84600-280"
    },
    {
        "city": "União da Vitória",
        "state": "PR",
        "district": "Navegantes",
        "street": "Avenida Iguaçu",
        "zipcode": "84600-090"
    },
    {
        "city": "União da Vitória",
        "state": "PR",
        "district": "São Joaquim",
        "street": "Rodovia BR 476",
        "zipcode": "84605-250"
    },
    {
        "city": "União da Vitória",
        "state": "PR",
        "district": "São Joaquim",
        "street": "Rodovia BR 153",
        "zipcode": "84605-300"
    },
    {
        "city": "União da Vitória",
        "state": "PR",
        "district": "Cristo Rei",
        "street": "Avenida Ivan Benghi",
        "zipcode": "84605-430"
    },
    {
        "city": "União da Vitória",
        "state": "PR",
        "district": "Cristo Rei",
        "street": "Rodovia BR 153",
        "zipcode": "84605-543"
    },
    {
        "city": "União da Vitória",
        "state": "PR",
        "district": "Cristo Rei",
        "street": "Rua André Moraz",
        "zipcode": "84605-735"
    },
    {
        "city": "União da Vitória",
        "state": "PR",
        "district": "Cristo Rei",
        "street": "Avenida Irati",
        "zipcode": "84605-765"
    },
    {
        "city": "União da Vitória",
        "state": "PR",
        "district": "Dona Mercedes",
        "street": "Avenida Joaquim Manoel Ribeiro",
        "zipcode": "84606-000"
    },
    {
        "city": "União da Vitória",
        "state": "PR",
        "district": "Dona Mercedes",
        "street": "Rodovia BR 153",
        "zipcode": "84606-415"
    },
    {
        "city": "União da Vitória",
        "state": "PR",
        "district": "Cidade Jardim",
        "street": "Rua Ângelo F Martins",
        "zipcode": "84607-073"
    },
    {
        "city": "União da Vitória",
        "state": "PR",
        "district": "Bom Jesus",
        "street": "Rua Alcebíades E Santana",
        "zipcode": "84607-350"
    },
    {
        "city": "União da Vitória",
        "state": "PR",
        "district": "Bom Jesus",
        "street": "Rua Agrimensor Mario Slomski",
        "zipcode": "84607-360"
    },
    {
        "city": "União da Vitória",
        "state": "PR",
        "district": "Bento Munhoz da Rocha",
        "street": "Rua Alberto Waldraff",
        "zipcode": "84607-580"
    },
    {
        "city": "União da Vitória",
        "state": "PR",
        "district": "Bento Munhoz da Rocha",
        "street": "Rua Alcebíades Berthier",
        "zipcode": "84607-675"
    },
    {
        "city": "União da Vitória",
        "state": "PR",
        "district": "Ouro Verde",
        "street": "Rodovia BR 476",
        "zipcode": "84608-140"
    },
    {
        "city": "União da Vitória",
        "state": "PR",
        "district": "Nossa Senhora das Graças",
        "street": "Avenida Capitão Arthur Canfield",
        "zipcode": "84609-133"
    },
    {
        "city": "União da Vitória",
        "state": "PR",
        "district": "Cristo Rei",
        "street": "Estrada Andre Balardini",
        "zipcode": "84605-424"
    },
    {
        "city": "União da Vitória",
        "state": "PR",
        "district": "São Gabriel",
        "street": "Rodovia BR 153",
        "zipcode": "84602-450"
    },
    {
        "city": "União da Vitória",
        "state": "PR",
        "district": "Nossa Senhora da Salete",
        "street": "Rua Afonso Correia",
        "zipcode": "84603-155"
    },
    {
        "city": "União da Vitória",
        "state": "PR",
        "district": "Nossa Senhora da Salete",
        "street": "Rua Antonio Baby",
        "zipcode": "84603-176"
    },
    {
        "city": "União da Vitória",
        "state": "PR",
        "district": "Nossa Senhora da Salete",
        "street": "Rua Alcídes Silva",
        "zipcode": "84603-185"
    },
    {
        "city": "União da Vitória",
        "state": "PR",
        "district": "São Sebastião",
        "street": "Rua Alfonso Francisco Ulrich",
        "zipcode": "84604-055"
    },
    {
        "city": "União da Vitória",
        "state": "PR",
        "district": "São Braz",
        "street": "Rua Albano Drumond dos Reis",
        "zipcode": "84603-380"
    },
    {
        "city": "União da Vitória",
        "state": "PR",
        "district": "São Braz",
        "street": "Rua Alcebíades Tavares",
        "zipcode": "84603-782"
    },
    {
        "city": "União da Vitória",
        "state": "PR",
        "district": "São Sebastião",
        "street": "Rua Aniz Domingos",
        "zipcode": "84604-400"
    },
    {
        "city": "União da Vitória",
        "state": "PR",
        "district": "São Joaquim",
        "street": "Rodovia BR 476",
        "zipcode": "84605-222"
    },
    {
        "city": "União da Vitória",
        "state": "PR",
        "district": "Cidade Jardim",
        "street": "Rua Professor Francisco José Cleto",
        "zipcode": "84607-015"
    },
    {
        "city": "União da Vitória",
        "state": "PR",
        "district": "Ouro Verde",
        "street": "Rua Acirema Riesemberg Abrão",
        "zipcode": "84608-125"
    },
    {
        "city": "União da Vitória",
        "state": "PR",
        "district": "Cidade Jardim",
        "street": "Rua Professora Bernardina Souza Schleder",
        "zipcode": "84607-041"
    },
    {
        "city": "União da Vitória",
        "state": "PR",
        "district": "Bento Munhoz da Rocha",
        "street": "Rua Projetada",
        "zipcode": "84607-655"
    },
    {
        "city": "União da Vitória",
        "state": "PR",
        "district": "Limeira",
        "street": "Avenida André Juck",
        "zipcode": "84601-215"
    },
    {
        "city": "União da Vitória",
        "state": "PR",
        "district": "São Sebastião",
        "street": "Estrada Braulina Pigatto",
        "zipcode": "84604-800"
    },
    {
        "city": "União da Vitória",
        "state": "PR",
        "district": "São Braz",
        "street": "Rua Adolfo Alves dos Santos",
        "zipcode": "84603-424"
    },
    {
        "city": "União da Vitória",
        "state": "PR",
        "district": "Centro",
        "street": "Avenida Presidente Getúlio Vargas",
        "zipcode": "84600-170"
    },
    {
        "city": "União da Vitória",
        "state": "PR",
        "district": "São Bernardo",
        "street": "Rua Barão do Rio Branco",
        "zipcode": "84600-400"
    },
    {
        "city": "União da Vitória",
        "state": "PR",
        "district": "São Bernardo",
        "street": "Rua Afonso Schwartz",
        "zipcode": "84600-404"
    },
    {
        "city": "União da Vitória",
        "state": "PR",
        "district": "São Bernardo",
        "street": "Rua Bohemia Saldanha",
        "zipcode": "84600-428"
    },
    {
        "city": "União da Vitória",
        "state": "PR",
        "district": "São Bernardo",
        "street": "Rua Antonio Cordeiro",
        "zipcode": "84600-360"
    },
    {
        "city": "União da Vitória",
        "state": "PR",
        "district": "Cristo Rei",
        "street": "Rua Bituruna",
        "zipcode": "84605-595"
    },
    {
        "city": "União da Vitória",
        "state": "PR",
        "district": "Cristo Rei",
        "street": "Rua Augustinho da Silva",
        "zipcode": "84605-705"
    },
    {
        "city": "União da Vitória",
        "state": "PR",
        "district": "Bom Jesus",
        "street": "Rua Barão de Mesquita",
        "zipcode": "84607-320"
    },
    {
        "city": "União da Vitória",
        "state": "PR",
        "district": "Cristo Rei",
        "street": "Rua B",
        "zipcode": "84605-398"
    },
    {
        "city": "União da Vitória",
        "state": "PR",
        "district": "Cristo Rei",
        "street": "Rodovia BR 476",
        "zipcode": "84605-692"
    },
    {
        "city": "União da Vitória",
        "state": "PR",
        "district": "Cristo Rei",
        "street": "Rua Alfredo Spautz",
        "zipcode": "84605-775"
    },
    {
        "city": "União da Vitória",
        "state": "PR",
        "district": "Cidade Jardim",
        "street": "Rua Abilio Santos Carvalho",
        "zipcode": "84607-151"
    },
    {
        "city": "União da Vitória",
        "state": "PR",
        "district": "Bom Jesus",
        "street": "Rua Bahia",
        "zipcode": "84607-305"
    },
    {
        "city": "União da Vitória",
        "state": "PR",
        "district": "Bom Jesus",
        "street": "Rua Barão de Antonina",
        "zipcode": "84607-375"
    },
    {
        "city": "União da Vitória",
        "state": "PR",
        "district": "Ouro Verde",
        "street": "Rodovia BR 476",
        "zipcode": "84608-145"
    },
    {
        "city": "União da Vitória",
        "state": "PR",
        "district": "Ouro Verde",
        "street": "Rodovia BR 476",
        "zipcode": "84608-150"
    },
    {
        "city": "União da Vitória",
        "state": "PR",
        "district": "São Bernardo",
        "street": "Rua A",
        "zipcode": "84600-436"
    },
    {
        "city": "União da Vitória",
        "state": "PR",
        "district": "Cristo Rei",
        "street": "Rua Antonio Olinto",
        "zipcode": "84605-680"
    },
    {
        "city": "União da Vitória",
        "state": "PR",
        "district": "Bento Munhoz da Rocha",
        "street": "Rua Alcídes Vodonos",
        "zipcode": "84607-685"
    },
    {
        "city": "União da Vitória",
        "state": "PR",
        "district": "Cristo Rei",
        "street": "Rua Basílio Horbatiuk",
        "zipcode": "84605-695"
    },
    {
        "city": "União da Vitória",
        "state": "PR",
        "district": "Cristo Rei",
        "street": "Rua Alceu José",
        "zipcode": "84605-730"
    },
    {
        "city": "União da Vitória",
        "state": "PR",
        "district": "Sagrada Família",
        "street": "Rua Campolin Ramos",
        "zipcode": "84603-084"
    },
    {
        "city": "União da Vitória",
        "state": "PR",
        "district": "São Sebastião",
        "street": "Rua Ari Olavio Delfino",
        "zipcode": "84604-395"
    },
    {
        "city": "União da Vitória",
        "state": "PR",
        "district": "São Braz",
        "street": "Rua Augusto Riesemberg",
        "zipcode": "84603-412"
    },
    {
        "city": "União da Vitória",
        "state": "PR",
        "district": "São Sebastião",
        "street": "Rua Arício Guérios",
        "zipcode": "84604-095"
    },
    {
        "city": "União da Vitória",
        "state": "PR",
        "district": "São Sebastião",
        "street": "Rua Ariovaldo Huergo",
        "zipcode": "84604-065"
    },
    {
        "city": "União da Vitória",
        "state": "PR",
        "district": "São Joaquim",
        "street": "Rua C",
        "zipcode": "84605-160"
    },
    {
        "city": "União da Vitória",
        "state": "PR",
        "district": "Cidade Jardim",
        "street": "Rua Afonso Nadolny",
        "zipcode": "84607-158"
    },
    {
        "city": "União da Vitória",
        "state": "PR",
        "district": "Rio DAreia",
        "street": "Rua Boleslau Iwanko",
        "zipcode": "84601-057"
    },
    {
        "city": "União da Vitória",
        "state": "PR",
        "district": "Limeira",
        "street": "Rua Ari Alves",
        "zipcode": "84601-221"
    },
    {
        "city": "União da Vitória",
        "state": "PR",
        "district": "Limeira",
        "street": "Rua Antonio Dorvalino Bordignon",
        "zipcode": "84601-239"
    },
    {
        "city": "União da Vitória",
        "state": "PR",
        "district": "Rio DAreia",
        "street": "Rua Anibal Manfroni",
        "zipcode": "84601-033"
    },
    {
        "city": "União da Vitória",
        "state": "PR",
        "district": "Limeira",
        "street": "Rua Alice Domingos",
        "zipcode": "84601-230"
    },
    {
        "city": "União da Vitória",
        "state": "PR",
        "district": "São Basilio Magno",
        "street": "Rua Bernardino Saldanha Muniz",
        "zipcode": "84600-626"
    },
    {
        "city": "União da Vitória",
        "state": "PR",
        "district": "São Basilio Magno",
        "street": "Rua Armelindo Thomazi",
        "zipcode": "84600-642"
    },
    {
        "city": "União da Vitória",
        "state": "PR",
        "district": "São Basilio Magno",
        "street": "Rua Balduíno Bohrer",
        "zipcode": "84600-646"
    },
    {
        "city": "União da Vitória",
        "state": "PR",
        "district": "Nossa Senhora do Rocio",
        "street": "Rua Bernardo Hobi",
        "zipcode": "84600-676"
    },
    {
        "city": "União da Vitória",
        "state": "PR",
        "district": "Nossa Senhora do Rocio",
        "street": "Rua Camarista Carlos Crema",
        "zipcode": "84600-694"
    },
    {
        "city": "União da Vitória",
        "state": "PR",
        "district": "Nossa Senhora do Rocio",
        "street": "Rua Antonia Glomb Massignan",
        "zipcode": "84600-729"
    },
    {
        "city": "União da Vitória",
        "state": "PR",
        "district": "São Basilio Magno",
        "street": "Rua Ampelio Romanzini",
        "zipcode": "84600-554"
    },
    {
        "city": "União da Vitória",
        "state": "PR",
        "district": "São Basilio Magno",
        "street": "Rua Antonio Iglesias de Lima",
        "zipcode": "84600-622"
    },
    {
        "city": "União da Vitória",
        "state": "PR",
        "district": "Nossa Senhora da Salete",
        "street": "Rua Antonio Gomes",
        "zipcode": "84603-167"
    },
    {
        "city": "União da Vitória",
        "state": "PR",
        "district": "Rio DAreia",
        "street": "Rua Alipio Nascimento Ribas",
        "zipcode": "84601-051"
    },
    {
        "city": "União da Vitória",
        "state": "PR",
        "district": "Cristo Rei",
        "street": "Rua Basílio Sucharski",
        "zipcode": "84605-550"
    },
    {
        "city": "União da Vitória",
        "state": "PR",
        "district": "Cidade Jardim",
        "street": "Rua Capitão Irineu de Araújo",
        "zipcode": "84607-112"
    },
    {
        "city": "União da Vitória",
        "state": "PR",
        "district": "Ouro Verde",
        "street": "Rua Bolivar da Silva",
        "zipcode": "84608-050"
    },
    {
        "city": "União da Vitória",
        "state": "PR",
        "district": "São Sebastião",
        "street": "Rua Alfredo Stahlschmidt",
        "zipcode": "84604-380"
    },
    {
        "city": "União da Vitória",
        "state": "PR",
        "district": "Cristo Rei",
        "street": "Rua Alberto Ferreira Lima",
        "zipcode": "84605-620"
    },
    {
        "city": "União da Vitória",
        "state": "PR",
        "district": "Cidade Jardim",
        "street": "Rua Alberto Waldraff",
        "zipcode": "84607-177"
    },
    {
        "city": "União da Vitória",
        "state": "PR",
        "district": "Cidade Jardim",
        "street": "Rua Bernardo Stamm",
        "zipcode": "84607-093"
    },
    {
        "city": "União da Vitória",
        "state": "PR",
        "district": "Ponte Nova",
        "street": "Rua Barão do Cerro Azul",
        "zipcode": "84600-016"
    },
    {
        "city": "União da Vitória",
        "state": "PR",
        "district": "Centro",
        "street": "Rua Dário Antonio Bordin",
        "zipcode": "84600-180"
    },
    {
        "city": "União da Vitória",
        "state": "PR",
        "district": "Centro",
        "street": "Rua Clotário Portugal",
        "zipcode": "84600-220"
    },
    {
        "city": "União da Vitória",
        "state": "PR",
        "district": "Centro",
        "street": "Rua Astolfo Macedo de Souza",
        "zipcode": "84600-240"
    },
    {
        "city": "União da Vitória",
        "state": "PR",
        "district": "Centro",
        "street": "Rua Barão do Cerro Azul",
        "zipcode": "84600-260"
    },
    {
        "city": "União da Vitória",
        "state": "PR",
        "district": "Centro",
        "street": "Rua Castro Alves",
        "zipcode": "84600-270"
    },
    {
        "city": "União da Vitória",
        "state": "PR",
        "district": "São Bernardo",
        "street": "Rua Coronel João Gualberto",
        "zipcode": "84600-396"
    },
    {
        "city": "União da Vitória",
        "state": "PR",
        "district": "São Bernardo",
        "street": "Rua Cruz Machado",
        "zipcode": "84600-440"
    },
    {
        "city": "União da Vitória",
        "state": "PR",
        "district": "Navegantes",
        "street": "Rua Clotário Portugal",
        "zipcode": "84600-075"
    },
    {
        "city": "União da Vitória",
        "state": "PR",
        "district": "Centro",
        "street": "Rua Carlos Cavalcante",
        "zipcode": "84600-130"
    },
    {
        "city": "União da Vitória",
        "state": "PR",
        "district": "Centro",
        "street": "Rua Cruz Machado",
        "zipcode": "84600-175"
    },
    {
        "city": "União da Vitória",
        "state": "PR",
        "district": "Centro",
        "street": "Rua Barão do Rio Branco",
        "zipcode": "84600-190"
    },
    {
        "city": "União da Vitória",
        "state": "PR",
        "district": "São Joaquim",
        "street": "Rua Cesar Cerri",
        "zipcode": "84605-228"
    },
    {
        "city": "União da Vitória",
        "state": "PR",
        "district": "Bom Jesus",
        "street": "Rua Comendador Araújo",
        "zipcode": "84607-520"
    },
    {
        "city": "União da Vitória",
        "state": "PR",
        "district": "São Bernardo",
        "street": "Rua Clotário Portugal",
        "zipcode": "84600-388"
    },
    {
        "city": "União da Vitória",
        "state": "PR",
        "district": "Navegantes",
        "street": "Rua Dário Antonio Bordin",
        "zipcode": "84600-102"
    },
    {
        "city": "União da Vitória",
        "state": "PR",
        "district": "Bela Vista",
        "street": "Rua Corbélia",
        "zipcode": "84601-565"
    },
    {
        "city": "União da Vitória",
        "state": "PR",
        "district": "Sagrada Família",
        "street": "Rua Cecy",
        "zipcode": "84603-066"
    },
    {
        "city": "União da Vitória",
        "state": "PR",
        "district": "Sagrada Família",
        "street": "Rua Cícero Franca",
        "zipcode": "84603-069"
    },
    {
        "city": "União da Vitória",
        "state": "PR",
        "district": "Sagrada Família",
        "street": "Rua Brasília",
        "zipcode": "84603-093"
    },
    {
        "city": "União da Vitória",
        "state": "PR",
        "district": "Sagrada Família",
        "street": "Rua Bertholdo Hey",
        "zipcode": "84603-099"
    },
    {
        "city": "União da Vitória",
        "state": "PR",
        "district": "Cristo Rei",
        "street": "Rua das Garças",
        "zipcode": "84605-386"
    },
    {
        "city": "União da Vitória",
        "state": "PR",
        "district": "Cristo Rei",
        "street": "Rua das Andorinhas",
        "zipcode": "84605-402"
    },
    {
        "city": "União da Vitória",
        "state": "PR",
        "district": "Cristo Rei",
        "street": "Rua das Indústrias III",
        "zipcode": "84605-418"
    },
    {
        "city": "União da Vitória",
        "state": "PR",
        "district": "São Gabriel",
        "street": "Rua Assis Nicolao Abrão",
        "zipcode": "84602-045"
    },
    {
        "city": "União da Vitória",
        "state": "PR",
        "district": "Sagrada Família",
        "street": "Rua Bartolomeu de Gusmao",
        "zipcode": "84603-018"
    },
    {
        "city": "União da Vitória",
        "state": "PR",
        "district": "São Sebastião",
        "street": "Rua Carlos Ihlenfeld",
        "zipcode": "84604-390"
    },
    {
        "city": "União da Vitória",
        "state": "PR",
        "district": "Cristo Rei",
        "street": "Rua das Gaivotas",
        "zipcode": "84605-406"
    },
    {
        "city": "União da Vitória",
        "state": "PR",
        "district": "Cristo Rei",
        "street": "Rua das Dálias",
        "zipcode": "84605-438"
    },
    {
        "city": "União da Vitória",
        "state": "PR",
        "district": "Cristo Rei",
        "street": "Rua das Araucárias",
        "zipcode": "84605-322"
    },
    {
        "city": "União da Vitória",
        "state": "PR",
        "district": "Cristo Rei",
        "street": "Rua Carlos Homero Cortellini",
        "zipcode": "84605-800"
    },
    {
        "city": "União da Vitória",
        "state": "PR",
        "district": "Bento Munhoz da Rocha",
        "street": "Rua Dagni Caesar da Costa",
        "zipcode": "84607-600"
    },
    {
        "city": "União da Vitória",
        "state": "PR",
        "district": "Limeira",
        "street": "Rua Carlos Evaldo Unterstell",
        "zipcode": "84601-257"
    },
    {
        "city": "União da Vitória",
        "state": "PR",
        "district": "Rio DAreia",
        "street": "Rua Carlos da Silva",
        "zipcode": "84601-060"
    },
    {
        "city": "União da Vitória",
        "state": "PR",
        "district": "Limeira",
        "street": "Rua Celso Araújo de Souza",
        "zipcode": "84601-200"
    },
    {
        "city": "União da Vitória",
        "state": "PR",
        "district": "Limeira",
        "street": "Rua Carlos Saraiva",
        "zipcode": "84601-227"
    },
    {
        "city": "União da Vitória",
        "state": "PR",
        "district": "Limeira",
        "street": "Rua Araci dos Santos Soares",
        "zipcode": "84601-233"
    },
    {
        "city": "União da Vitória",
        "state": "PR",
        "district": "São Basilio Magno",
        "street": "Rua Dante Cortelini",
        "zipcode": "84600-590"
    },
    {
        "city": "União da Vitória",
        "state": "PR",
        "district": "Centro",
        "street": "Rua Cruz Machado",
        "zipcode": "84600-902"
    },
    {
        "city": "União da Vitória",
        "state": "PR",
        "district": "Nossa Senhora do Rocio",
        "street": "Rua Bernardino Saldanha Muniz",
        "zipcode": "84600-685"
    },
    {
        "city": "União da Vitória",
        "state": "PR",
        "district": "São Joaquim",
        "street": "Rua Catarina Ulrich",
        "zipcode": "84605-240"
    },
    {
        "city": "União da Vitória",
        "state": "PR",
        "district": "Cristo Rei",
        "street": "Rua das Barbosas",
        "zipcode": "84605-426"
    },
    {
        "city": "União da Vitória",
        "state": "PR",
        "district": "Cristo Rei",
        "street": "Rua das Araras",
        "zipcode": "84605-366"
    },
    {
        "city": "União da Vitória",
        "state": "PR",
        "district": "Cristo Rei",
        "street": "Rua das Corujas",
        "zipcode": "84605-382"
    },
    {
        "city": "União da Vitória",
        "state": "PR",
        "district": "São Sebastião",
        "street": "Rua Carlos Millezi",
        "zipcode": "84604-090"
    },
    {
        "city": "União da Vitória",
        "state": "PR",
        "district": "Cristo Rei",
        "street": "Rua das Acácias",
        "zipcode": "84605-655"
    },
    {
        "city": "União da Vitória",
        "state": "PR",
        "district": "Cristo Rei",
        "street": "Rua das Hortências",
        "zipcode": "84605-660"
    },
    {
        "city": "União da Vitória",
        "state": "PR",
        "district": "Cristo Rei",
        "street": "Rua das Camélias",
        "zipcode": "84605-665"
    },
    {
        "city": "União da Vitória",
        "state": "PR",
        "district": "Cristo Rei",
        "street": "Rua Dalci Aldo Ferrari",
        "zipcode": "84605-670"
    },
    {
        "city": "União da Vitória",
        "state": "PR",
        "district": "Centro",
        "street": "Rua Dom Pedro II",
        "zipcode": "84600-295"
    },
    {
        "city": "União da Vitória",
        "state": "PR",
        "district": "São Basilio Magno",
        "street": "Rua Elkys",
        "zipcode": "84600-498"
    },
    {
        "city": "União da Vitória",
        "state": "PR",
        "district": "Centro",
        "street": "Rua Demétrio Sokolowskei",
        "zipcode": "84600-120"
    },
    {
        "city": "União da Vitória",
        "state": "PR",
        "district": "Centro",
        "street": "Rua Elkys",
        "zipcode": "84600-317"
    },
    {
        "city": "União da Vitória",
        "state": "PR",
        "district": "Cristo Rei",
        "street": "Rua dos Periquitos",
        "zipcode": "84605-370"
    },
    {
        "city": "União da Vitória",
        "state": "PR",
        "district": "Cristo Rei",
        "street": "Rua dos Bem",
        "zipcode": "84605-378"
    },
    {
        "city": "União da Vitória",
        "state": "PR",
        "district": "Cristo Rei",
        "street": "Rua dos Jasmins",
        "zipcode": "84605-442"
    },
    {
        "city": "União da Vitória",
        "state": "PR",
        "district": "Cristo Rei",
        "street": "Rua dos Girassóis",
        "zipcode": "84605-446"
    },
    {
        "city": "União da Vitória",
        "state": "PR",
        "district": "Cristo Rei",
        "street": "Rua das Orquídeas",
        "zipcode": "84605-540"
    },
    {
        "city": "União da Vitória",
        "state": "PR",
        "district": "Cidade Jardim",
        "street": "Rua Doutor Raul Vaz da Silva",
        "zipcode": "84607-080"
    },
    {
        "city": "União da Vitória",
        "state": "PR",
        "district": "Bom Jesus",
        "street": "Rua Duque de Caxias",
        "zipcode": "84607-385"
    },
    {
        "city": "União da Vitória",
        "state": "PR",
        "district": "Bom Jesus",
        "street": "Rua Dona Odete",
        "zipcode": "84607-460"
    },
    {
        "city": "União da Vitória",
        "state": "PR",
        "district": "Navegantes",
        "street": "Rua Desembargador Costa Carvalho",
        "zipcode": "84600-084"
    },
    {
        "city": "União da Vitória",
        "state": "PR",
        "district": "Cristo Rei",
        "street": "Rua dos Tucanos",
        "zipcode": "84605-390"
    },
    {
        "city": "União da Vitória",
        "state": "PR",
        "district": "Cristo Rei",
        "street": "Rua dos Gerânios",
        "zipcode": "84605-434"
    },
    {
        "city": "União da Vitória",
        "state": "PR",
        "district": "Cristo Rei",
        "street": "Rua dos Lírios",
        "zipcode": "84605-454"
    },
    {
        "city": "União da Vitória",
        "state": "PR",
        "district": "Cidade Jardim",
        "street": "Rua Doutor Ivaldo Thomazi",
        "zipcode": "84607-125"
    },
    {
        "city": "União da Vitória",
        "state": "PR",
        "district": "São Braz",
        "street": "Rua Estanislau Kaminski",
        "zipcode": "84603-762"
    },
    {
        "city": "União da Vitória",
        "state": "PR",
        "district": "São Sebastião",
        "street": "Rua Expedicionário Ivo Strozzi",
        "zipcode": "84604-050"
    },
    {
        "city": "União da Vitória",
        "state": "PR",
        "district": "São Sebastião",
        "street": "Rua Francisco Caus",
        "zipcode": "84604-435"
    },
    {
        "city": "União da Vitória",
        "state": "PR",
        "district": "São Sebastião",
        "street": "Rua Doutor José Jorge",
        "zipcode": "84604-700"
    },
    {
        "city": "União da Vitória",
        "state": "PR",
        "district": "Cristo Rei",
        "street": "Rua dos Cedros",
        "zipcode": "84605-318"
    },
    {
        "city": "União da Vitória",
        "state": "PR",
        "district": "São Sebastião",
        "street": "Rua Domingos Celli",
        "zipcode": "84604-385"
    },
    {
        "city": "União da Vitória",
        "state": "PR",
        "district": "São Joaquim",
        "street": "Rua Durvalino A dos Santos",
        "zipcode": "84605-200"
    },
    {
        "city": "União da Vitória",
        "state": "PR",
        "district": "São Joaquim",
        "street": "Rua Doutor Francisco Fernandes Luiz",
        "zipcode": "84605-220"
    },
    {
        "city": "União da Vitória",
        "state": "PR",
        "district": "Cristo Rei",
        "street": "Rua dos Canários",
        "zipcode": "84605-354"
    },
    {
        "city": "União da Vitória",
        "state": "PR",
        "district": "Cristo Rei",
        "street": "Rua dos Beija",
        "zipcode": "84605-358"
    },
    {
        "city": "União da Vitória",
        "state": "PR",
        "district": "Bela Vista",
        "street": "Rua Cascavel",
        "zipcode": "84601-595"
    },
    {
        "city": "União da Vitória",
        "state": "PR",
        "district": "Limeira",
        "street": "Rua Dyonisio Keskoski",
        "zipcode": "84601-209"
    },
    {
        "city": "União da Vitória",
        "state": "PR",
        "district": "Limeira",
        "street": "Rua Eduardo Guérios",
        "zipcode": "84601-251"
    },
    {
        "city": "União da Vitória",
        "state": "PR",
        "district": "Bela Vista",
        "street": "Rua Egon Frederico Bieberbach",
        "zipcode": "84601-310"
    },
    {
        "city": "União da Vitória",
        "state": "PR",
        "district": "São Braz",
        "street": "Rua Doutor João Augusto Barbosa",
        "zipcode": "84603-312"
    },
    {
        "city": "União da Vitória",
        "state": "PR",
        "district": "São Joaquim",
        "street": "Rua Francisco Machado",
        "zipcode": "84605-180"
    },
    {
        "city": "União da Vitória",
        "state": "PR",
        "district": "Cristo Rei",
        "street": "Rua das Violetas",
        "zipcode": "84605-450"
    },
    {
        "city": "União da Vitória",
        "state": "PR",
        "district": "São Gabriel",
        "street": "Rua Eduardo M Minikowski",
        "zipcode": "84602-185"
    },
    {
        "city": "União da Vitória",
        "state": "PR",
        "district": "Sagrada Família",
        "street": "Rua Elias Domit",
        "zipcode": "84603-072"
    },
    {
        "city": "União da Vitória",
        "state": "PR",
        "district": "Sagrada Família",
        "street": "Rua Dona Maria Marques",
        "zipcode": "84603-096"
    },
    {
        "city": "União da Vitória",
        "state": "PR",
        "district": "São Basilio Magno",
        "street": "Rua Elias Niemann",
        "zipcode": "84600-638"
    },
    {
        "city": "União da Vitória",
        "state": "PR",
        "district": "São Basilio Magno",
        "street": "Rua Domingos Rasera Junior",
        "zipcode": "84600-582"
    },
    {
        "city": "União da Vitória",
        "state": "PR",
        "district": "Rio DAreia",
        "street": "Rua Eduardo de Carvalho",
        "zipcode": "84601-012"
    },
    {
        "city": "União da Vitória",
        "state": "PR",
        "district": "Cristo Rei",
        "street": "Rua das Rosas",
        "zipcode": "84605-630"
    },
    {
        "city": "União da Vitória",
        "state": "PR",
        "district": "Cristo Rei",
        "street": "Rua dos Fênix",
        "zipcode": "84605-362"
    },
    {
        "city": "União da Vitória",
        "state": "PR",
        "district": "Cristo Rei",
        "street": "Rua dos Sabiás",
        "zipcode": "84605-394"
    },
    {
        "city": "União da Vitória",
        "state": "PR",
        "district": "Cidade Jardim",
        "street": "Rua Desembargador Joaquim Penido Monteiro",
        "zipcode": "84607-132"
    },
    {
        "city": "União da Vitória",
        "state": "PR",
        "district": "Nossa Senhora das Graças",
        "street": "Rua dos Dominicanos",
        "zipcode": "84609-154"
    },
    {
        "city": "União da Vitória",
        "state": "PR",
        "district": "São Bernardo",
        "street": "Rua Dom Pedro II",
        "zipcode": "84600-332"
    },
    {
        "city": "União da Vitória",
        "state": "PR",
        "district": "São Basilio Magno",
        "street": "Rua Domício Scaramella",
        "zipcode": "84600-574"
    },
    {
        "city": "União da Vitória",
        "state": "PR",
        "district": "Cristo Rei",
        "street": "Rua Desembargador Braune",
        "zipcode": "84605-410"
    },
    {
        "city": "União da Vitória",
        "state": "PR",
        "district": "Centro",
        "street": "Rua Eurico Cleto da Silva",
        "zipcode": "84600-160"
    },
    {
        "city": "União da Vitória",
        "state": "PR",
        "district": "Centro",
        "street": "Rua Frei Policarpo",
        "zipcode": "84600-315"
    },
    {
        "city": "União da Vitória",
        "state": "PR",
        "district": "São Basilio Magno",
        "street": "Rua Expedicionários",
        "zipcode": "84600-506"
    },
    {
        "city": "União da Vitória",
        "state": "PR",
        "district": "Cristo Rei",
        "street": "Rua General Carneiro",
        "zipcode": "84605-610"
    },
    {
        "city": "União da Vitória",
        "state": "PR",
        "district": "Cristo Rei",
        "street": "Rua Emanoel de Teixeira Freitas",
        "zipcode": "84605-785"
    },
    {
        "city": "União da Vitória",
        "state": "PR",
        "district": "Cristo Rei",
        "street": "Rua Félix Durdyn",
        "zipcode": "84605-790"
    },
    {
        "city": "União da Vitória",
        "state": "PR",
        "district": "Dona Mercedes",
        "street": "Rua Evaldo Neubauer",
        "zipcode": "84606-020"
    },
    {
        "city": "União da Vitória",
        "state": "PR",
        "district": "Cidade Jardim",
        "street": "Rua Eurico Cleto da Silva",
        "zipcode": "84607-184"
    },
    {
        "city": "União da Vitória",
        "state": "PR",
        "district": "Ouro Verde",
        "street": "Rua Eróclito Tesseroli",
        "zipcode": "84608-060"
    },
    {
        "city": "União da Vitória",
        "state": "PR",
        "district": "Ouro Verde",
        "street": "Rua Jaime Strozzi",
        "zipcode": "84608-100"
    },
    {
        "city": "União da Vitória",
        "state": "PR",
        "district": "Ouro Verde",
        "street": "Rua Emílio João Augusto Nietzke",
        "zipcode": "84608-105"
    },
    {
        "city": "União da Vitória",
        "state": "PR",
        "district": "Ouro Verde",
        "street": "Rua Estanislau Glomb",
        "zipcode": "84608-110"
    },
    {
        "city": "União da Vitória",
        "state": "PR",
        "district": "Nossa Senhora das Graças",
        "street": "Rua João Batista Dissenha",
        "zipcode": "84609-148"
    },
    {
        "city": "União da Vitória",
        "state": "PR",
        "district": "São Braz",
        "street": "Rua Industrial Lauro Fernandes",
        "zipcode": "84603-316"
    },
    {
        "city": "União da Vitória",
        "state": "PR",
        "district": "São Braz",
        "street": "Rua João Marinhuk",
        "zipcode": "84603-416"
    },
    {
        "city": "União da Vitória",
        "state": "PR",
        "district": "São Sebastião",
        "street": "Rua Irena Sokolowskei",
        "zipcode": "84604-695"
    },
    {
        "city": "União da Vitória",
        "state": "PR",
        "district": "São Sebastião",
        "street": "Rua Gregório Szpak",
        "zipcode": "84604-745"
    },
    {
        "city": "União da Vitória",
        "state": "PR",
        "district": "São Sebastião",
        "street": "Rua Horácio Ribeiro",
        "zipcode": "84604-765"
    },
    {
        "city": "União da Vitória",
        "state": "PR",
        "district": "São Braz",
        "street": "Rua Ferdinando Miguel Sass",
        "zipcode": "84603-396"
    },
    {
        "city": "União da Vitória",
        "state": "PR",
        "district": "São Braz",
        "street": "Rua Expedicionário Pedro Cruz",
        "zipcode": "84603-420"
    },
    {
        "city": "União da Vitória",
        "state": "PR",
        "district": "São Joaquim",
        "street": "Rua Estefano Makiak",
        "zipcode": "84605-184"
    },
    {
        "city": "União da Vitória",
        "state": "PR",
        "district": "Bom Jesus",
        "street": "Rua Estado de Santa Catarina",
        "zipcode": "84607-345"
    },
    {
        "city": "União da Vitória",
        "state": "PR",
        "district": "Nossa Senhora das Graças",
        "street": "Rua Jair Antônio Zanoni",
        "zipcode": "84609-139"
    },
    {
        "city": "União da Vitória",
        "state": "PR",
        "district": "Rio DAreia",
        "street": "Rua Eurico Ammann",
        "zipcode": "84601-030"
    },
    {
        "city": "União da Vitória",
        "state": "PR",
        "district": "Rio DAreia",
        "street": "Rua Emília Conçalves",
        "zipcode": "84601-065"
    },
    {
        "city": "União da Vitória",
        "state": "PR",
        "district": "Bela Vista",
        "street": "Rua Foz do Iguaçu",
        "zipcode": "84601-590"
    },
    {
        "city": "União da Vitória",
        "state": "PR",
        "district": "Sagrada Família",
        "street": "Rua Florestal",
        "zipcode": "84603-045"
    },
    {
        "city": "União da Vitória",
        "state": "PR",
        "district": "São Braz",
        "street": "Rua Irmãos Gonçalves de Andrade",
        "zipcode": "84603-280"
    },
    {
        "city": "União da Vitória",
        "state": "PR",
        "district": "São Braz",
        "street": "Rua Hermínio Millis",
        "zipcode": "84603-284"
    },
    {
        "city": "União da Vitória",
        "state": "PR",
        "district": "São Sebastião",
        "street": "Rua Hermes de Carvalho",
        "zipcode": "84604-070"
    },
    {
        "city": "União da Vitória",
        "state": "PR",
        "district": "São Gabriel",
        "street": "Rua Estanislau Myszka",
        "zipcode": "84602-145"
    },
    {
        "city": "União da Vitória",
        "state": "PR",
        "district": "Sagrada Família",
        "street": "Rua Ferdinando Miguel Sass",
        "zipcode": "84603-102"
    },
    {
        "city": "União da Vitória",
        "state": "PR",
        "district": "Nossa Senhora do Rocio",
        "street": "Rua Expedicionários",
        "zipcode": "84600-670"
    },
    {
        "city": "União da Vitória",
        "state": "PR",
        "district": "Nossa Senhora do Rocio",
        "street": "Rua Germano Kurten",
        "zipcode": "84600-712"
    },
    {
        "city": "União da Vitória",
        "state": "PR",
        "district": "Nossa Senhora do Rocio",
        "street": "Rua Frei Domingos Rigon",
        "zipcode": "84600-730"
    },
    {
        "city": "União da Vitória",
        "state": "PR",
        "district": "Nossa Senhora do Rocio",
        "street": "Rua Eugenio Tereska",
        "zipcode": "84600-735"
    },
    {
        "city": "União da Vitória",
        "state": "PR",
        "district": "Nossa Senhora do Rocio",
        "street": "Rua Emílio Kroni",
        "zipcode": "84600-703"
    },
    {
        "city": "União da Vitória",
        "state": "PR",
        "district": "Nossa Senhora do Rocio",
        "street": "Rua Frei Dionísio Veroneze",
        "zipcode": "84600-707"
    },
    {
        "city": "União da Vitória",
        "state": "PR",
        "district": "Nossa Senhora do Rocio",
        "street": "Rua Francisco Feijó",
        "zipcode": "84600-739"
    },
    {
        "city": "União da Vitória",
        "state": "PR",
        "district": "Bom Jesus",
        "street": "Rua Francisco Luiz",
        "zipcode": "84607-295"
    },
    {
        "city": "União da Vitória",
        "state": "PR",
        "district": "Ouro Verde",
        "street": "Rua Francisco Sakolik",
        "zipcode": "84608-130"
    },
    {
        "city": "União da Vitória",
        "state": "PR",
        "district": "São Braz",
        "street": "Rua Expedicionário Leão Bartoski",
        "zipcode": "84603-758"
    },
    {
        "city": "União da Vitória",
        "state": "PR",
        "district": "Bento Munhoz da Rocha",
        "street": "Rua Francisco Xavier da Costa",
        "zipcode": "84607-620"
    },
    {
        "city": "União da Vitória",
        "state": "PR",
        "district": "Bento Munhoz da Rocha",
        "street": "Rua João Iskierski",
        "zipcode": "84607-785"
    },
    {
        "city": "União da Vitória",
        "state": "PR",
        "district": "Ouro Verde",
        "street": "Rua Industrial Antonio Ilson Piggato",
        "zipcode": "84608-120"
    },
    {
        "city": "União da Vitória",
        "state": "PR",
        "district": "Bento Munhoz da Rocha",
        "street": "Rua Eurico Cleto da Silva",
        "zipcode": "84607-660"
    },
    {
        "city": "União da Vitória",
        "state": "PR",
        "district": "Navegantes",
        "street": "Rua Inocêncio de Oliveira",
        "zipcode": "84600-078"
    },
    {
        "city": "União da Vitória",
        "state": "PR",
        "district": "Cristo Rei",
        "street": "Rua Industrial Joaquim Fernandes Luiz",
        "zipcode": "84605-545"
    },
    {
        "city": "União da Vitória",
        "state": "PR",
        "district": "Cristo Rei",
        "street": "Rua Inácio Martins",
        "zipcode": "84605-605"
    },
    {
        "city": "União da Vitória",
        "state": "PR",
        "district": "Cristo Rei",
        "street": "Rua Hilda Pol Sass",
        "zipcode": "84605-625"
    },
    {
        "city": "União da Vitória",
        "state": "PR",
        "district": "Cristo Rei",
        "street": "Rua João Rodrigues da Silva",
        "zipcode": "84605-770"
    },
    {
        "city": "União da Vitória",
        "state": "PR",
        "district": "Cristo Rei",
        "street": "Rua João Geraldo Luciano",
        "zipcode": "84605-795"
    },
    {
        "city": "União da Vitória",
        "state": "PR",
        "district": "Cidade Jardim",
        "street": "Rua João Ihlenfeld",
        "zipcode": "84607-034"
    },
    {
        "city": "União da Vitória",
        "state": "PR",
        "district": "Cidade Jardim",
        "street": "Rua H",
        "zipcode": "84607-067"
    },
    {
        "city": "União da Vitória",
        "state": "PR",
        "district": "Cidade Jardim",
        "street": "Rua João Marquevis",
        "zipcode": "84607-106"
    },
    {
        "city": "União da Vitória",
        "state": "PR",
        "district": "São Bernardo",
        "street": "Rua Luiz Ferrari",
        "zipcode": "84600-444"
    },
    {
        "city": "União da Vitória",
        "state": "PR",
        "district": "São Bernardo",
        "street": "Rua Joaquim Távora",
        "zipcode": "84600-472"
    },
    {
        "city": "União da Vitória",
        "state": "PR",
        "district": "Cristo Rei",
        "street": "Rua Imbuia",
        "zipcode": "84605-326"
    },
    {
        "city": "União da Vitória",
        "state": "PR",
        "district": "Cristo Rei",
        "street": "Rua Jacarandá",
        "zipcode": "84605-334"
    },
    {
        "city": "União da Vitória",
        "state": "PR",
        "district": "São Joaquim",
        "street": "Rua Ivamar Valmor Scaramella",
        "zipcode": "84605-196"
    },
    {
        "city": "União da Vitória",
        "state": "PR",
        "district": "Cristo Rei",
        "street": "Rua Guabiroba",
        "zipcode": "84605-330"
    },
    {
        "city": "União da Vitória",
        "state": "PR",
        "district": "Cristo Rei",
        "street": "Rua Lauro G de Oliveira",
        "zipcode": "84605-760"
    },
    {
        "city": "União da Vitória",
        "state": "PR",
        "district": "Cidade Jardim",
        "street": "Rua Luis Batista Cordeiro",
        "zipcode": "84607-028"
    },
    {
        "city": "União da Vitória",
        "state": "PR",
        "district": "Bom Jesus",
        "street": "Rua Luiz Capriglione",
        "zipcode": "84607-380"
    },
    {
        "city": "União da Vitória",
        "state": "PR",
        "district": "Bom Jesus",
        "street": "Rua José PEdro Lazier",
        "zipcode": "84607-470"
    },
    {
        "city": "União da Vitória",
        "state": "PR",
        "district": "Bento Munhoz da Rocha",
        "street": "Rua João Schroh",
        "zipcode": "84607-788"
    },
    {
        "city": "União da Vitória",
        "state": "PR",
        "district": "Limeira",
        "street": "Rua João Bageski",
        "zipcode": "84601-218"
    },
    {
        "city": "União da Vitória",
        "state": "PR",
        "district": "Limeira",
        "street": "Rua José Cechin",
        "zipcode": "84601-248"
    },
    {
        "city": "União da Vitória",
        "state": "PR",
        "district": "Limeira",
        "street": "Rua Irineu Alcântara Filho",
        "zipcode": "84601-263"
    },
    {
        "city": "União da Vitória",
        "state": "PR",
        "district": "Bela Vista",
        "street": "Rua Jaime Ernesto Bertaso",
        "zipcode": "84601-315"
    },
    {
        "city": "União da Vitória",
        "state": "PR",
        "district": "Monte Castelo",
        "street": "Rua Laranjeiras do Sul",
        "zipcode": "84601-320"
    },
    {
        "city": "União da Vitória",
        "state": "PR",
        "district": "Bela Vista",
        "street": "Rua Guaratuba",
        "zipcode": "84601-560"
    },
    {
        "city": "União da Vitória",
        "state": "PR",
        "district": "Bela Vista",
        "street": "Rua Guaíra",
        "zipcode": "84601-600"
    },
    {
        "city": "União da Vitória",
        "state": "PR",
        "district": "São Gabriel",
        "street": "Rua Laurindo Furlan",
        "zipcode": "84602-010"
    },
    {
        "city": "União da Vitória",
        "state": "PR",
        "district": "São Gabriel",
        "street": "Rua José Nunes de Lima",
        "zipcode": "84602-165"
    },
    {
        "city": "União da Vitória",
        "state": "PR",
        "district": "São Gabriel",
        "street": "Rua João Ribeiro Filho",
        "zipcode": "84602-175"
    },
    {
        "city": "União da Vitória",
        "state": "PR",
        "district": "Sagrada Família",
        "street": "Rua João Borba Carvalho",
        "zipcode": "84603-081"
    },
    {
        "city": "União da Vitória",
        "state": "PR",
        "district": "São Basilio Magno",
        "street": "Rua Leopoldo Sass",
        "zipcode": "84600-550"
    },
    {
        "city": "União da Vitória",
        "state": "PR",
        "district": "São Basilio Magno",
        "street": "Rua Leônidas Andrade Vieira",
        "zipcode": "84600-606"
    },
    {
        "city": "União da Vitória",
        "state": "PR",
        "district": "Nossa Senhora do Rocio",
        "street": "Rua José Maria Gomes",
        "zipcode": "84600-679"
    },
    {
        "city": "União da Vitória",
        "state": "PR",
        "district": "São Basilio Magno",
        "street": "Rua Jacob Bogus",
        "zipcode": "84600-610"
    },
    {
        "city": "União da Vitória",
        "state": "PR",
        "district": "Nossa Senhora do Rocio",
        "street": "Rua José Julio Cleto da Silva",
        "zipcode": "84600-682"
    },
    {
        "city": "União da Vitória",
        "state": "PR",
        "district": "Nossa Senhora do Rocio",
        "street": "Rua Jacobe Tereska",
        "zipcode": "84600-709"
    },
    {
        "city": "União da Vitória",
        "state": "PR",
        "district": "Nossa Senhora do Rocio",
        "street": "Rua Jefferson Tomczyk",
        "zipcode": "84600-710"
    },
    {
        "city": "União da Vitória",
        "state": "PR",
        "district": "São Basilio Magno",
        "street": "Rua João Romanzini Filho",
        "zipcode": "84600-562"
    },
    {
        "city": "União da Vitória",
        "state": "PR",
        "district": "Bom Jesus",
        "street": "Rua Gonçalves Dias",
        "zipcode": "84607-335"
    },
    {
        "city": "União da Vitória",
        "state": "PR",
        "district": "Bento Munhoz da Rocha",
        "street": "Rua Joaquim Didek",
        "zipcode": "84607-650"
    },
    {
        "city": "União da Vitória",
        "state": "PR",
        "district": "São Gabriel",
        "street": "Rua Herminio Furlan",
        "zipcode": "84602-043"
    },
    {
        "city": "União da Vitória",
        "state": "PR",
        "district": "São Sebastião",
        "street": "Rua João Mitzko",
        "zipcode": "84604-085"
    },
    {
        "city": "União da Vitória",
        "state": "PR",
        "district": "Cristo Rei",
        "street": "Rua José Vanderlei Savi",
        "zipcode": "84605-640"
    },
    {
        "city": "União da Vitória",
        "state": "PR",
        "district": "Cidade Jardim",
        "street": "Rua Joaquim Didek",
        "zipcode": "84607-190"
    },
    {
        "city": "União da Vitória",
        "state": "PR",
        "district": "Bom Jesus",
        "street": "Rua José Maria Batista Silva",
        "zipcode": "84607-355"
    },
    {
        "city": "União da Vitória",
        "state": "PR",
        "district": "Bom Jesus",
        "street": "Rua Júlio S Cesar",
        "zipcode": "84607-370"
    },
    {
        "city": "União da Vitória",
        "state": "PR",
        "district": "Bento Munhoz da Rocha",
        "street": "Rua Herberto João Carlsson",
        "zipcode": "84607-610"
    },
    {
        "city": "União da Vitória",
        "state": "PR",
        "district": "Cristo Rei",
        "street": "Rua Hugo Canfield",
        "zipcode": "84605-755"
    },
    {
        "city": "União da Vitória",
        "state": "PR",
        "district": "Centro",
        "street": "Rua Manoel Estevão",
        "zipcode": "84600-235"
    },
    {
        "city": "União da Vitória",
        "state": "PR",
        "district": "São Bernardo",
        "street": "Rua Maria Luiza Tonial",
        "zipcode": "84600-352"
    },
    {
        "city": "União da Vitória",
        "state": "PR",
        "district": "São Bernardo",
        "street": "Rua Max Schwartz",
        "zipcode": "84600-448"
    },
    {
        "city": "União da Vitória",
        "state": "PR",
        "district": "São Bernardo",
        "street": "Rua Manoel Estevão",
        "zipcode": "84600-364"
    },
    {
        "city": "União da Vitória",
        "state": "PR",
        "district": "São Braz",
        "street": "Rua José Serafine",
        "zipcode": "84603-292"
    },
    {
        "city": "União da Vitória",
        "state": "PR",
        "district": "São Braz",
        "street": "Rua José Rudniki",
        "zipcode": "84603-428"
    },
    {
        "city": "União da Vitória",
        "state": "PR",
        "district": "São Braz",
        "street": "Rua Mario Muzzolon",
        "zipcode": "84603-770"
    },
    {
        "city": "União da Vitória",
        "state": "PR",
        "district": "São Braz",
        "street": "Rua Luiz Antoniutti",
        "zipcode": "84603-774"
    },
    {
        "city": "União da Vitória",
        "state": "PR",
        "district": "São Braz",
        "street": "Rua José Tavares",
        "zipcode": "84603-794"
    },
    {
        "city": "União da Vitória",
        "state": "PR",
        "district": "São Sebastião",
        "street": "Rua Luiz Chacaroski",
        "zipcode": "84604-105"
    },
    {
        "city": "União da Vitória",
        "state": "PR",
        "district": "São Sebastião",
        "street": "Rua Mauro de Oliveira Cavalin",
        "zipcode": "84604-430"
    },
    {
        "city": "União da Vitória",
        "state": "PR",
        "district": "São Braz",
        "street": "Rua Marechal João Batista Mascarenhas de Morais",
        "zipcode": "84603-388"
    },
    {
        "city": "União da Vitória",
        "state": "PR",
        "district": "São Sebastião",
        "street": "Rua Leoni Teresa Ulrich Contin",
        "zipcode": "84604-405"
    },
    {
        "city": "União da Vitória",
        "state": "PR",
        "district": "São Joaquim",
        "street": "Rua Mario de Pol",
        "zipcode": "84605-144"
    },
    {
        "city": "União da Vitória",
        "state": "PR",
        "district": "São Joaquim",
        "street": "Rua Leonardo Ossak",
        "zipcode": "84605-152"
    },
    {
        "city": "União da Vitória",
        "state": "PR",
        "district": "São Joaquim",
        "street": "Rua José Vodonos",
        "zipcode": "84605-208"
    },
    {
        "city": "União da Vitória",
        "state": "PR",
        "district": "São Joaquim",
        "street": "Rua José Pedro Costa",
        "zipcode": "84605-216"
    },
    {
        "city": "União da Vitória",
        "state": "PR",
        "district": "Cristo Rei",
        "street": "Rua Leonzir de Lima",
        "zipcode": "84605-470"
    },
    {
        "city": "União da Vitória",
        "state": "PR",
        "district": "Cristo Rei",
        "street": "Rua Mallet",
        "zipcode": "84605-580"
    },
    {
        "city": "União da Vitória",
        "state": "PR",
        "district": "Bom Jesus",
        "street": "Rua Machado de Assis",
        "zipcode": "84607-325"
    },
    {
        "city": "União da Vitória",
        "state": "PR",
        "district": "Bom Jesus",
        "street": "Rua Mascarenhas de Moraes",
        "zipcode": "84607-510"
    },
    {
        "city": "União da Vitória",
        "state": "PR",
        "district": "Sagrada Família",
        "street": "Rua José Barbosa",
        "zipcode": "84603-042"
    },
    {
        "city": "União da Vitória",
        "state": "PR",
        "district": "Sagrada Família",
        "street": "Rua Lúcio Willuweit",
        "zipcode": "84603-060"
    },
    {
        "city": "União da Vitória",
        "state": "PR",
        "district": "Sagrada Família",
        "street": "Rua Ladislau Kowalewski",
        "zipcode": "84603-030"
    },
    {
        "city": "União da Vitória",
        "state": "PR",
        "district": "Rio DAreia",
        "street": "Rua Marechal Deodoro da Fonseca",
        "zipcode": "84601-015"
    },
    {
        "city": "União da Vitória",
        "state": "PR",
        "district": "Limeira",
        "street": "Rua Maria Koch Schwartz",
        "zipcode": "84601-224"
    },
    {
        "city": "União da Vitória",
        "state": "PR",
        "district": "Limeira",
        "street": "Rua Marechal Deodoro da Fonseca",
        "zipcode": "84601-266"
    },
    {
        "city": "União da Vitória",
        "state": "PR",
        "district": "São Gabriel",
        "street": "Rua Leofredo Tavares",
        "zipcode": "84602-170"
    },
    {
        "city": "União da Vitória",
        "state": "PR",
        "district": "Rio DAreia",
        "street": "Rua Longuini Topolski",
        "zipcode": "84601-062"
    },
    {
        "city": "União da Vitória",
        "state": "PR",
        "district": "Bela Vista",
        "street": "Rua Londrina",
        "zipcode": "84601-605"
    },
    {
        "city": "União da Vitória",
        "state": "PR",
        "district": "São Gabriel",
        "street": "Rua João Visinoni",
        "zipcode": "84602-040"
    },
    {
        "city": "União da Vitória",
        "state": "PR",
        "district": "Sagrada Família",
        "street": "Rua José Maria dos Santos Carvalho",
        "zipcode": "84603-087"
    },
    {
        "city": "União da Vitória",
        "state": "PR",
        "district": "Centro",
        "street": "Rua Marechal Floriano Peixoto",
        "zipcode": "84600-901"
    },
    {
        "city": "União da Vitória",
        "state": "PR",
        "district": "Rio DAreia",
        "street": "Rua Max Frederico Stenzingher",
        "zipcode": "84601-009"
    },
    {
        "city": "União da Vitória",
        "state": "PR",
        "district": "Nossa Senhora do Rocio",
        "street": "Rua Miguel Forte",
        "zipcode": "84600-715"
    },
    {
        "city": "União da Vitória",
        "state": "PR",
        "district": "Nossa Senhora do Rocio",
        "street": "Rua Mário Jevouski",
        "zipcode": "84600-728"
    },
    {
        "city": "União da Vitória",
        "state": "PR",
        "district": "Nossa Senhora do Rocio",
        "street": "Rua Marechal Deodoro da Fonseca",
        "zipcode": "84600-907"
    },
    {
        "city": "União da Vitória",
        "state": "PR",
        "district": "São Sebastião",
        "street": "Rua José Calliari",
        "zipcode": "84604-790"
    },
    {
        "city": "União da Vitória",
        "state": "PR",
        "district": "Limeira",
        "street": "Rua José Doopiati",
        "zipcode": "84601-255"
    },
    {
        "city": "União da Vitória",
        "state": "PR",
        "district": "São Sebastião",
        "street": "Rua Judith Goss de Lima",
        "zipcode": "84604-030"
    },
    {
        "city": "União da Vitória",
        "state": "PR",
        "district": "São Joaquim",
        "street": "Rua João Scaramella",
        "zipcode": "84605-212"
    },
    {
        "city": "União da Vitória",
        "state": "PR",
        "district": "Cristo Rei",
        "street": "Rua Malvino Lorenzini",
        "zipcode": "84605-700"
    },
    {
        "city": "União da Vitória",
        "state": "PR",
        "district": "Cidade Jardim",
        "street": "Rua Marechal Floriano Peixoto",
        "zipcode": "84607-119"
    },
    {
        "city": "União da Vitória",
        "state": "PR",
        "district": "Cidade Jardim",
        "street": "Rua Modestia A Marcondes",
        "zipcode": "84607-171"
    },
    {
        "city": "União da Vitória",
        "state": "PR",
        "district": "São Bernardo",
        "street": "Rua Lício do Amaral",
        "zipcode": "84600-452"
    },
    {
        "city": "União da Vitória",
        "state": "PR",
        "district": "Cristo Rei",
        "street": "Rua Leandro Muzzolon",
        "zipcode": "84605-310"
    },
    {
        "city": "União da Vitória",
        "state": "PR",
        "district": "São Braz",
        "street": "Rua Mello",
        "zipcode": "84603-364"
    },
    {
        "city": "União da Vitória",
        "state": "PR",
        "district": "São Sebastião",
        "street": "Rua Pedro Kravicz Filho",
        "zipcode": "84604-080"
    },
    {
        "city": "União da Vitória",
        "state": "PR",
        "district": "São Sebastião",
        "street": "Rua Nossa Senhora das Vitórias",
        "zipcode": "84604-690"
    },
    {
        "city": "União da Vitória",
        "state": "PR",
        "district": "São Sebastião",
        "street": "Rua Pedro Alberto Bohrer",
        "zipcode": "84604-760"
    },
    {
        "city": "União da Vitória",
        "state": "PR",
        "district": "São Sebastião",
        "street": "Rua Nelson Stradiotto",
        "zipcode": "84604-770"
    },
    {
        "city": "União da Vitória",
        "state": "PR",
        "district": "São Joaquim",
        "street": "Rua Natálio Pereira de Souza",
        "zipcode": "84605-176"
    },
    {
        "city": "União da Vitória",
        "state": "PR",
        "district": "São Joaquim",
        "street": "Rua Onildo Achi Castelli",
        "zipcode": "84605-244"
    },
    {
        "city": "União da Vitória",
        "state": "PR",
        "district": "Centro",
        "street": "Rua Marechal Deodoro da Fonseca",
        "zipcode": "84600-115"
    },
    {
        "city": "União da Vitória",
        "state": "PR",
        "district": "São Braz",
        "street": "Rua Luiz Moreti",
        "zipcode": "84603-300"
    },
    {
        "city": "União da Vitória",
        "state": "PR",
        "district": "São Braz",
        "street": "Rua Marechal Candido Mariano da Silva Rondon",
        "zipcode": "84603-372"
    },
    {
        "city": "União da Vitória",
        "state": "PR",
        "district": "São Braz",
        "street": "Rua Noêmia Fonseca",
        "zipcode": "84603-786"
    },
    {
        "city": "União da Vitória",
        "state": "PR",
        "district": "São Joaquim",
        "street": "Rua Rio Vermelho",
        "zipcode": "84605-156"
    },
    {
        "city": "União da Vitória",
        "state": "PR",
        "district": "São Joaquim",
        "street": "Rua Ovando Kusma",
        "zipcode": "84605-172"
    },
    {
        "city": "União da Vitória",
        "state": "PR",
        "district": "Cristo Rei",
        "street": "Rua Porto Vitória",
        "zipcode": "84605-575"
    },
    {
        "city": "União da Vitória",
        "state": "PR",
        "district": "Cristo Rei",
        "street": "Rua Rio Azul",
        "zipcode": "84605-585"
    },
    {
        "city": "União da Vitória",
        "state": "PR",
        "district": "Cristo Rei",
        "street": "Rua Rebouças",
        "zipcode": "84605-590"
    },
    {
        "city": "União da Vitória",
        "state": "PR",
        "district": "Bom Jesus",
        "street": "Rua Odair Bettega",
        "zipcode": "84607-505"
    },
    {
        "city": "União da Vitória",
        "state": "PR",
        "district": "Bento Munhoz da Rocha",
        "street": "Rua Remi Haroldo Gleich",
        "zipcode": "84607-770"
    },
    {
        "city": "União da Vitória",
        "state": "PR",
        "district": "Sagrada Família",
        "street": "Rua Ranulfo Silva Lell",
        "zipcode": "84603-003"
    },
    {
        "city": "União da Vitória",
        "state": "PR",
        "district": "Sagrada Família",
        "street": "Rua Nereu Ramos",
        "zipcode": "84603-024"
    },
    {
        "city": "União da Vitória",
        "state": "PR",
        "district": "Sagrada Família",
        "street": "Rua Oscar Teixeira Soares",
        "zipcode": "84603-036"
    },
    {
        "city": "União da Vitória",
        "state": "PR",
        "district": "Nossa Senhora da Salete",
        "street": "Rua Luiz Wolski",
        "zipcode": "84603-143"
    },
    {
        "city": "União da Vitória",
        "state": "PR",
        "district": "Nossa Senhora da Salete",
        "street": "Rua Nossa Senhora da Salete",
        "zipcode": "84603-182"
    },
    {
        "city": "União da Vitória",
        "state": "PR",
        "district": "Nossa Senhora da Salete",
        "street": "Rua Mariano Osvaldo Polzin",
        "zipcode": "84603-188"
    },
    {
        "city": "União da Vitória",
        "state": "PR",
        "district": "São Braz",
        "street": "Rua Nilo Eugênio dos Reis",
        "zipcode": "84603-268"
    },
    {
        "city": "União da Vitória",
        "state": "PR",
        "district": "São Braz",
        "street": "Rua Osmar Rômulo Frederico Coradin",
        "zipcode": "84603-276"
    },
    {
        "city": "União da Vitória",
        "state": "PR",
        "district": "Nossa Senhora da Salete",
        "street": "Rua Nilo Eugênio dos Reis",
        "zipcode": "84603-113"
    },
    {
        "city": "União da Vitória",
        "state": "PR",
        "district": "Nossa Senhora da Salete",
        "street": "Rua Maurício Schultz",
        "zipcode": "84603-116"
    },
    {
        "city": "União da Vitória",
        "state": "PR",
        "district": "Sagrada Família",
        "street": "Rua Marechal Castelo Branco",
        "zipcode": "84603-090"
    },
    {
        "city": "União da Vitória",
        "state": "PR",
        "district": "Sagrada Família",
        "street": "Rua Manoel Santana de Morais",
        "zipcode": "84603-105"
    },
    {
        "city": "União da Vitória",
        "state": "PR",
        "district": "Rio DAreia",
        "street": "Rua Orlando Mussi Farah",
        "zipcode": "84601-027"
    },
    {
        "city": "União da Vitória",
        "state": "PR",
        "district": "São Braz",
        "street": "Rua Mariano Osvaldo Polzin",
        "zipcode": "84603-260"
    },
    {
        "city": "União da Vitória",
        "state": "PR",
        "district": "São Gabriel",
        "street": "Rua Melchiades Emanuelli",
        "zipcode": "84602-025"
    },
    {
        "city": "União da Vitória",
        "state": "PR",
        "district": "Bela Vista",
        "street": "Rua Ponta Grossa",
        "zipcode": "84601-610"
    },
    {
        "city": "União da Vitória",
        "state": "PR",
        "district": "Sagrada Família",
        "street": "Rua Riachuelo",
        "zipcode": "84603-000"
    },
    {
        "city": "União da Vitória",
        "state": "PR",
        "district": "São Basilio Magno",
        "street": "Rua Quarta",
        "zipcode": "84600-566"
    },
    {
        "city": "União da Vitória",
        "state": "PR",
        "district": "São Basilio Magno",
        "street": "Rua Moisés Malheiros de Araújo",
        "zipcode": "84600-534"
    },
    {
        "city": "União da Vitória",
        "state": "PR",
        "district": "São Basilio Magno",
        "street": "Rua Orlando Carvalho",
        "zipcode": "84600-578"
    },
    {
        "city": "União da Vitória",
        "state": "PR",
        "district": "Nossa Senhora do Rocio",
        "street": "Rua Miguel Schastalo",
        "zipcode": "84600-721"
    },
    {
        "city": "União da Vitória",
        "state": "PR",
        "district": "São Joaquim",
        "street": "Rua Olindo Della Barba",
        "zipcode": "84605-148"
    },
    {
        "city": "União da Vitória",
        "state": "PR",
        "district": "Cristo Rei",
        "street": "Rua Narciso Menegatti",
        "zipcode": "84605-740"
    },
    {
        "city": "União da Vitória",
        "state": "PR",
        "district": "São Braz",
        "street": "Rua Luiz Wolski",
        "zipcode": "84603-376"
    },
    {
        "city": "União da Vitória",
        "state": "PR",
        "district": "Cristo Rei",
        "street": "Rua Pedro Luiz de Andrade",
        "zipcode": "84605-635"
    },
    {
        "city": "União da Vitória",
        "state": "PR",
        "district": "Cristo Rei",
        "street": "Rua Olga Dolini de Souza",
        "zipcode": "84605-720"
    },
    {
        "city": "União da Vitória",
        "state": "PR",
        "district": "Bom Jesus",
        "street": "Rua Rio de Janeiro",
        "zipcode": "84607-485"
    },
    {
        "city": "União da Vitória",
        "state": "PR",
        "district": "Bom Jesus",
        "street": "Rua Pedro Stelmachuk",
        "zipcode": "84607-515"
    },
    {
        "city": "União da Vitória",
        "state": "PR",
        "district": "Centro",
        "street": "Rua Pedro Siqueira Cortez",
        "zipcode": "84600-282"
    },
    {
        "city": "União da Vitória",
        "state": "PR",
        "district": "Centro",
        "street": "Rua Santos Dumont",
        "zipcode": "84600-305"
    },
    {
        "city": "União da Vitória",
        "state": "PR",
        "district": "Centro",
        "street": "Rua Nipton Curi",
        "zipcode": "84600-145"
    },
    {
        "city": "União da Vitória",
        "state": "PR",
        "district": "São Bernardo",
        "street": "Rua Santos Dumont",
        "zipcode": "84600-340"
    },
    {
        "city": "União da Vitória",
        "state": "PR",
        "district": "São Braz",
        "street": "Rua Rosa Borille",
        "zipcode": "84603-778"
    },
    {
        "city": "União da Vitória",
        "state": "PR",
        "district": "São Sebastião",
        "street": "Rua Roberto Konfidera",
        "zipcode": "84604-780"
    },
    {
        "city": "União da Vitória",
        "state": "PR",
        "district": "Cristo Rei",
        "street": "Rua São João do Triunfo",
        "zipcode": "84605-675"
    },
    {
        "city": "União da Vitória",
        "state": "PR",
        "district": "Ouro Verde",
        "street": "Rua Salvador Teixeira",
        "zipcode": "84608-095"
    },
    {
        "city": "União da Vitória",
        "state": "PR",
        "district": "São Bernardo",
        "street": "Rua Rafael Benghi",
        "zipcode": "84600-432"
    },
    {
        "city": "União da Vitória",
        "state": "PR",
        "district": "Ponte Nova",
        "street": "Rua Serafim Schaeffer",
        "zipcode": "84600-043"
    },
    {
        "city": "União da Vitória",
        "state": "PR",
        "district": "Navegantes",
        "street": "Rua Serafim Schaeffer",
        "zipcode": "84600-060"
    },
    {
        "city": "União da Vitória",
        "state": "PR",
        "district": "Navegantes",
        "street": "Rua Tabelião Cordeiro",
        "zipcode": "84600-072"
    },
    {
        "city": "União da Vitória",
        "state": "PR",
        "district": "Centro",
        "street": "Rua Teixeira Soares",
        "zipcode": "84600-200"
    },
    {
        "city": "União da Vitória",
        "state": "PR",
        "district": "Centro",
        "street": "Rua Valentin Varacoski",
        "zipcode": "84600-110"
    },
    {
        "city": "União da Vitória",
        "state": "PR",
        "district": "São Joaquim",
        "street": "Rua Suzana Schiel",
        "zipcode": "84605-232"
    },
    {
        "city": "União da Vitória",
        "state": "PR",
        "district": "Cristo Rei",
        "street": "Rua Valdomiro Sydol",
        "zipcode": "84605-555"
    },
    {
        "city": "União da Vitória",
        "state": "PR",
        "district": "Dona Mercedes",
        "street": "Rua Wanceslau Vaz",
        "zipcode": "84606-050"
    },
    {
        "city": "União da Vitória",
        "state": "PR",
        "district": "Bom Jesus",
        "street": "Rua Virginia Leonardi",
        "zipcode": "84607-455"
    },
    {
        "city": "União da Vitória",
        "state": "PR",
        "district": "Ouro Verde",
        "street": "Rua Teodoro Tomczyk",
        "zipcode": "84608-070"
    },
    {
        "city": "União da Vitória",
        "state": "PR",
        "district": "Ouro Verde",
        "street": "Rua Sete",
        "zipcode": "84608-080"
    },
    {
        "city": "União da Vitória",
        "state": "PR",
        "district": "Bom Jesus",
        "street": "Rua Solano Lopes",
        "zipcode": "84607-490"
    },
    {
        "city": "União da Vitória",
        "state": "PR",
        "district": "Cidade Jardim",
        "street": "Rua Sérgio Ribeiro",
        "zipcode": "84607-047"
    },
    {
        "city": "União da Vitória",
        "state": "PR",
        "district": "Rio DAreia",
        "street": "Rua Valfredo Brunquell",
        "zipcode": "84601-024"
    },
    {
        "city": "União da Vitória",
        "state": "PR",
        "district": "Limeira",
        "street": "Rua Vitória",
        "zipcode": "84601-242"
    },
    {
        "city": "União da Vitória",
        "state": "PR",
        "district": "Bela Vista",
        "street": "Rua Rolândia",
        "zipcode": "84601-585"
    },
    {
        "city": "União da Vitória",
        "state": "PR",
        "district": "Sagrada Família",
        "street": "Rua Três de Maio",
        "zipcode": "84603-051"
    },
    {
        "city": "União da Vitória",
        "state": "PR",
        "district": "Sagrada Família",
        "street": "Travessa das Missões",
        "zipcode": "84603-057"
    },
    {
        "city": "União da Vitória",
        "state": "PR",
        "district": "Sagrada Família",
        "street": "Rua 4 de Maio",
        "zipcode": "84603-063"
    },
    {
        "city": "União da Vitória",
        "state": "PR",
        "district": "Nossa Senhora da Salete",
        "street": "Rua Stella Amazonas",
        "zipcode": "84603-161"
    },
    {
        "city": "União da Vitória",
        "state": "PR",
        "district": "Nossa Senhora da Salete",
        "street": "Rua Valdomiro Tratchuk",
        "zipcode": "84603-164"
    },
    {
        "city": "União da Vitória",
        "state": "PR",
        "district": "São Braz",
        "street": "Rua Tenente José Baniski",
        "zipcode": "84603-296"
    },
    {
        "city": "União da Vitória",
        "state": "PR",
        "district": "São Braz",
        "street": "Rua 07",
        "zipcode": "84603-790"
    },
    {
        "city": "União da Vitória",
        "state": "PR",
        "district": "São Sebastião",
        "street": "Rua Waldir João Zanetti",
        "zipcode": "84604-060"
    },
    {
        "city": "União da Vitória",
        "state": "PR",
        "district": "São Sebastião",
        "street": "Rua 04 A",
        "zipcode": "84604-245"
    },
    {
        "city": "União da Vitória",
        "state": "PR",
        "district": "São Sebastião",
        "street": "Rua 09",
        "zipcode": "84604-270"
    },
    {
        "city": "União da Vitória",
        "state": "PR",
        "district": "São Sebastião",
        "street": "Rua Waldemiro Holowka",
        "zipcode": "84604-775"
    },
    {
        "city": "União da Vitória",
        "state": "PR",
        "district": "Rio DAreia",
        "street": "Rua Seis",
        "zipcode": "84601-069"
    },
    {
        "city": "União da Vitória",
        "state": "PR",
        "district": "São Sebastião",
        "street": "Rua Vereador Napoleão Feijó",
        "zipcode": "84604-415"
    },
    {
        "city": "União da Vitória",
        "state": "PR",
        "district": "São Basilio Magno",
        "street": "Rua Waldemar Schwartz",
        "zipcode": "84600-558"
    },
    {
        "city": "União da Vitória",
        "state": "PR",
        "district": "São Basilio Magno",
        "street": "Rua Tancredo Bengui",
        "zipcode": "84600-630"
    },
    {
        "city": "União da Vitória",
        "state": "PR",
        "district": "Nossa Senhora do Rocio",
        "street": "Rua Ucrânia",
        "zipcode": "84600-691"
    },
    {
        "city": "União da Vitória",
        "state": "PR",
        "district": "Nossa Senhora do Rocio",
        "street": "Rua São Roque",
        "zipcode": "84600-706"
    },
    {
        "city": "União da Vitória",
        "state": "PR",
        "district": "Rio DAreia",
        "street": "Rua Silveira Peichoto",
        "zipcode": "84601-006"
    },
    {
        "city": "União da Vitória",
        "state": "PR",
        "district": "São Basilio Magno",
        "street": "Rua Vitória Fernandes",
        "zipcode": "84600-538"
    },
    {
        "city": "União da Vitória",
        "state": "PR",
        "district": "São Basilio Magno",
        "street": "Rua Severino Massignan",
        "zipcode": "84600-618"
    },
    {
        "city": "União da Vitória",
        "state": "PR",
        "district": "São Sebastião",
        "street": "Rua 05 A",
        "zipcode": "84604-250"
    },
    {
        "city": "União da Vitória",
        "state": "PR",
        "district": "Bom Jesus",
        "street": "Rua Tupy",
        "zipcode": "84607-525"
    },
    {
        "city": "União da Vitória",
        "state": "PR",
        "district": "São Sebastião",
        "street": "Rua Pedro Kravicz",
        "zipcode": "84604-240"
    },
    {
        "city": "União da Vitória",
        "state": "PR",
        "district": "Cristo Rei",
        "street": "Rua São Mateus do Sul",
        "zipcode": "84605-650"
    },
    {
        "city": "União da Vitória",
        "state": "PR",
        "district": "Cristo Rei",
        "street": "Rua Romeu Lino",
        "zipcode": "84605-715"
    },
    {
        "city": "União da Vitória",
        "state": "PR",
        "district": "Centro",
        "street": "Rua Primeiro de Maio",
        "zipcode": "84600-255"
    },
    {
        "city": "União da Vitória",
        "state": "PR",
        "district": "Centro",
        "street": "Rua Almirante Barroso",
        "zipcode": "84600-165"
    },
    {
        "city": "União da Vitória",
        "state": "PR",
        "district": "Ponte Nova",
        "street": "Rua Nossa Senhora do Rocio",
        "zipcode": "84600-037"
    },
    {
        "city": "União da Vitória",
        "state": "PR",
        "district": "Centro",
        "street": "Rua Marechal Floriano Peixoto",
        "zipcode": "84600-155"
    },
    {
        "city": "União da Vitória",
        "state": "PR",
        "district": "Centro",
        "street": "Rua Salgado Filho",
        "zipcode": "84600-230"
    },
    {
        "city": "União da Vitória",
        "state": "PR",
        "district": "Navegantes",
        "street": "Travessa 3",
        "zipcode": "84600-063"
    },
    {
        "city": "União da Vitória",
        "state": "PR",
        "district": "Navegantes",
        "street": "Rua Zacarias Góes Vasconcelos",
        "zipcode": "84600-069"
    },
    {
        "city": "União da Vitória",
        "state": "PR",
        "district": "Centro",
        "street": "Rua Zacarias Góes Vasconcelos",
        "zipcode": "84600-225"
    },
    {
        "city": "União da Vitória",
        "state": "PR",
        "district": "São Bernardo",
        "street": "Travessa Godofredo Groumann II",
        "zipcode": "84600-412"
    },
    {
        "city": "União da Vitória",
        "state": "PR",
        "district": "Ponte Nova",
        "street": "Rua Três de Outubro",
        "zipcode": "84600-025"
    },
    {
        "city": "União da Vitória",
        "state": "PR",
        "district": "Navegantes",
        "street": "Rua Teixeira Soares",
        "zipcode": "84600-093"
    },
    {
        "city": "União da Vitória",
        "state": "PR",
        "district": "Cristo Rei",
        "street": "Rua Zeno Otto Filho",
        "zipcode": "84605-570"
    },
    {
        "city": "União da Vitória",
        "state": "PR",
        "district": "Bom Jesus",
        "street": "Rua 7 de Setembro",
        "zipcode": "84607-315"
    },
    {
        "city": "União da Vitória",
        "state": "PR",
        "district": "Bom Jesus",
        "street": "Rua 25 de Julho",
        "zipcode": "84607-445"
    },
    {
        "city": "União da Vitória",
        "state": "PR",
        "district": "Bom Jesus",
        "street": "Rua 19 de Novembro",
        "zipcode": "84607-450"
    },
    {
        "city": "União da Vitória",
        "state": "PR",
        "district": "Bento Munhoz da Rocha",
        "street": "Rua 20",
        "zipcode": "84607-700"
    },
    {
        "city": "União da Vitória",
        "state": "PR",
        "district": "Cristo Rei",
        "street": "Rua 21 de Abril",
        "zipcode": "84605-780"
    },
    {
        "city": "União da Vitória",
        "state": "PR",
        "district": "Bom Jesus",
        "street": "Rua 13 de Maio",
        "zipcode": "84607-340"
    },
    {
        "city": "União da Vitória",
        "state": "PR",
        "district": "Bento Munhoz da Rocha",
        "street": "Rua 27",
        "zipcode": "84607-625"
    },
    {
        "city": "União da Vitória",
        "state": "PR",
        "district": "Bento Munhoz da Rocha",
        "street": "Rua 19",
        "zipcode": "84607-640"
    },
    {
        "city": "União da Vitória",
        "state": "PR",
        "district": "Cristo Rei",
        "street": "Rua 1 A",
        "zipcode": "84605-710"
    },
    {
        "city": "União da Vitória",
        "state": "PR",
        "district": "Bento Munhoz da Rocha",
        "street": "Rua 26",
        "zipcode": "84607-705"
    },
    {
        "city": "União da Vitória",
        "state": "PR",
        "district": "Nossa Senhora das Graças",
        "street": "Rua Salomão J Khury",
        "zipcode": "84609-160"
    },
    {
        "city": "União da Vitória",
        "state": "PR",
        "district": "Cidade Jardim",
        "street": "Rua 24 de Agosto",
        "zipcode": "84607-099"
    },
    {
        "city": "União da Vitória",
        "state": "PR",
        "district": "Bento Munhoz da Rocha",
        "street": "Rua Ralf Siegfried Waldreaf",
        "zipcode": "84607-779"
    },
    {
        "city": "União da Vitória",
        "state": "PR",
        "district": "Rio DAreia",
        "street": "Travessa Eduardo de Carvalho II",
        "zipcode": "84601-018"
    },
    {
        "city": "União da Vitória",
        "state": "PR",
        "district": "Rio DAreia",
        "street": "Travessa Eduardo de Carvalho",
        "zipcode": "84601-021"
    },
    {
        "city": "União da Vitória",
        "state": "PR",
        "district": "São Sebastião",
        "street": "Rua 12 A",
        "zipcode": "84604-280"
    },
    {
        "city": "União da Vitória",
        "state": "PR",
        "district": "São Braz",
        "street": "Rua Wilson Alves",
        "zipcode": "84603-304"
    },
    {
        "city": "União da Vitória",
        "state": "PR",
        "district": "São Sebastião",
        "street": "Rua 03 A",
        "zipcode": "84604-230"
    },
    {
        "city": "União da Vitória",
        "state": "PR",
        "district": "São Joaquim",
        "street": "Rua 5",
        "zipcode": "84605-188"
    },
    {
        "city": "União da Vitória",
        "state": "PR",
        "district": "Rio DAreia",
        "street": "Rua Willy Neubauer",
        "zipcode": "84601-042"
    },
    {
        "city": "União da Vitória",
        "state": "PR",
        "district": "Rio DAreia",
        "street": "Rua Zemiro Guidini",
        "zipcode": "84601-045"
    },
    {
        "city": "União da Vitória",
        "state": "PR",
        "district": "Sagrada Família",
        "street": "Rua Willy Reiche",
        "zipcode": "84603-075"
    },
    {
        "city": "União da Vitória",
        "state": "PR",
        "district": "São Basilio Magno",
        "street": "Travessa Graciliano Chagas",
        "zipcode": "84600-650"
    },
    {
        "city": "União da Vitória",
        "state": "PR",
        "district": "Nossa Senhora do Rocio",
        "street": "Rua Waschington Luiz Pereira de Souza",
        "zipcode": "84600-727"
    },
    {
        "city": "União da Vitória",
        "state": "PR",
        "district": "Centro",
        "street": "Rua Clotário Portugal",
        "zipcode": "84600-971"
    },
    {
        "city": "União da Vitória",
        "state": "PR",
        "district": "São Basilio Magno",
        "street": "Travessa Ranulpho Costa Pinto I",
        "zipcode": "84600-542"
    },
    {
        "city": "União da Vitória",
        "state": "PR",
        "district": "Nossa Senhora do Rocio",
        "street": "Rua Waldemar Schwartz",
        "zipcode": "84600-673"
    },
    {
        "city": "União da Vitória",
        "state": "PR",
        "district": "Nossa Senhora do Rocio",
        "street": "Travessa Arnaldo Eigler Schimidt",
        "zipcode": "84600-745"
    },
    {
        "city": "União da Vitória",
        "state": "PR",
        "district": "Ponte Nova",
        "street": "Rua Sete de Setembro",
        "zipcode": "84600-019"
    },
    {
        "city": "União da Vitória",
        "state": "PR",
        "district": "São Basilio Magno",
        "street": "Travessa Ranulpho Costa Pinto II",
        "zipcode": "84600-546"
    },
    {
        "city": "União da Vitória",
        "state": "PR",
        "district": "São Sebastião",
        "street": "Rua 10",
        "zipcode": "84604-275"
    },
    {
        "city": "União da Vitória",
        "state": "PR",
        "district": "São Joaquim",
        "street": "Rua 6",
        "zipcode": "84605-192"
    },
    {
        "city": "União da Vitória",
        "state": "PR",
        "district": "São Sebastião",
        "street": "Rua 01 B",
        "zipcode": "84604-215"
    },
    {
        "city": "União da Vitória",
        "state": "PR",
        "district": "São Sebastião",
        "street": "Rua 03 B",
        "zipcode": "84604-235"
    },
    {
        "city": "União da Vitória",
        "state": "PR",
        "district": "São Sebastião",
        "street": "Rua 06 A",
        "zipcode": "84604-255"
    },
    {
        "city": "União da Vitória",
        "state": "PR",
        "district": "São Sebastião",
        "street": "Rua 07",
        "zipcode": "84604-260"
    },
    {
        "city": "União da Vitória",
        "state": "PR",
        "district": "São Sebastião",
        "street": "Rua 08",
        "zipcode": "84604-265"
    },
    {
        "city": "União da Vitória",
        "state": "PR",
        "district": "Ouro Verde",
        "street": "Rua Pedro Paulo Koslowski",
        "zipcode": "84608-075"
    },
    {
        "city": "União da Vitória",
        "state": "PR",
        "district": "São Gabriel",
        "street": "Rodovia João Paulo Reolon",
        "zipcode": "84602-000"
    },
    {
        "city": "União da Vitória",
        "state": "PR",
        "district": "Bento Munhoz da Rocha",
        "street": "Rua Albertina Brauchner",
        "zipcode": "84607-645"
    },
    {
        "city": "União da Vitória",
        "state": "PR",
        "district": "Bento Munhoz da Rocha",
        "street": "Rua Cristiano Clausen",
        "zipcode": "84607-773"
    },
    {
        "city": "União da Vitória",
        "state": "PR",
        "district": "Ouro Verde",
        "street": "Rua Basilio Covalchuk",
        "zipcode": "84608-035"
    },
    {
        "city": "União da Vitória",
        "state": "PR",
        "district": "Bom Jesus",
        "street": "Estrada Braulina Pigatto",
        "zipcode": "84607-303"
    },
    {
        "city": "União da Vitória",
        "state": "PR",
        "district": "Bento Munhoz da Rocha",
        "street": "Rua Cordovan Frederico de Melo",
        "zipcode": "84607-605"
    },
    {
        "city": "União da Vitória",
        "state": "PR",
        "district": "Ouro Verde",
        "street": "Rua Antonio Felix Coradin",
        "zipcode": "84608-085"
    },
    {
        "city": "União da Vitória",
        "state": "PR",
        "district": "Ouro Verde",
        "street": "Rodovia BR 153",
        "zipcode": "84608-200"
    },
    {
        "city": "União da Vitória",
        "state": "PR",
        "district": "São Bernardo",
        "street": "Rua Frei Policarpo",
        "zipcode": "84600-408"
    },
    {
        "city": "União da Vitória",
        "state": "PR",
        "district": "São Bernardo",
        "street": "Rua Godofredo Groumann",
        "zipcode": "84600-416"
    },
    {
        "city": "União da Vitória",
        "state": "PR",
        "district": "São Gabriel",
        "street": "Rua Capitão Domingos Pimpão",
        "zipcode": "84602-150"
    },
    {
        "city": "União da Vitória",
        "state": "PR",
        "district": "Nossa Senhora da Salete",
        "street": "Rua Albano Drumond dos Reis",
        "zipcode": "84603-146"
    },
    {
        "city": "União da Vitória",
        "state": "PR",
        "district": "São Braz",
        "street": "Avenida Paula Freitas",
        "zipcode": "84603-264"
    },
    {
        "city": "União da Vitória",
        "state": "PR",
        "district": "São Braz",
        "street": "Avenida Wilkys Amazonas Correia",
        "zipcode": "84603-288"
    },
    {
        "city": "União da Vitória",
        "state": "PR",
        "district": "São Braz",
        "street": "Rua Arcebispo Dom Manuel Silveira DElboux",
        "zipcode": "84603-308"
    },
    {
        "city": "União da Vitória",
        "state": "PR",
        "district": "Bento Munhoz da Rocha",
        "street": "Rua Durval Lorensini",
        "zipcode": "84607-782"
    },
    {
        "city": "União da Vitória",
        "state": "PR",
        "district": "Nossa Senhora das Graças",
        "street": "Rua Emidio Santana de Moraes",
        "zipcode": "84609-169"
    },
    {
        "city": "União da Vitória",
        "state": "PR",
        "district": "São Basilio Magno",
        "street": "Rua Expedicionários",
        "zipcode": "84600-507"
    },
    {
        "city": "União da Vitória",
        "state": "PR",
        "district": "São Bernardo",
        "street": "Rua Salgado Filho",
        "zipcode": "84600-368"
    },
    {
        "city": "União da Vitória",
        "state": "PR",
        "district": "São Bernardo",
        "street": "Rua Leopoldo Sass",
        "zipcode": "84600-484"
    },
    {
        "city": "União da Vitória",
        "state": "PR",
        "district": "São Basilio Magno",
        "street": "Rua Ranulpho Costa Pinto",
        "zipcode": "84600-502"
    },
    {
        "city": "União da Vitória",
        "state": "PR",
        "district": "São Braz",
        "street": "Rua Rigoleto Conti",
        "zipcode": "84603-368"
    },
    {
        "city": "União da Vitória",
        "state": "PR",
        "district": "São Sebastião",
        "street": "Rua Mario Ângelo Balardini",
        "zipcode": "84604-410"
    },
    {
        "city": "União da Vitória",
        "state": "PR",
        "district": "São Joaquim",
        "street": "Rua Francisco Fernandes Luiz",
        "zipcode": "84605-168"
    },
    {
        "city": "União da Vitória",
        "state": "PR",
        "district": "Ouro Verde",
        "street": "Rua João Wladeka",
        "zipcode": "84608-123"
    },
    {
        "city": "União da Vitória",
        "state": "PR",
        "district": "Ouro Verde",
        "street": "Rua 10",
        "zipcode": "84608-065"
    },
    {
        "city": "União da Vitória",
        "state": "PR",
        "district": "Nossa Senhora das Graças",
        "street": "Rua Projetada 09",
        "zipcode": "84609-157"
    },
    {
        "city": "União da Vitória",
        "state": "PR",
        "district": "Nossa Senhora das Graças",
        "street": "Rua Frederico T Guimarães",
        "zipcode": "84609-175"
    },
    {
        "city": "União da Vitória",
        "state": "PR",
        "district": "Cidade Jardim",
        "street": "Rua Manoel Amazonas Marcondes",
        "zipcode": "84607-060"
    },
    {
        "city": "União da Vitória",
        "state": "PR",
        "district": "Limeira",
        "street": "Rua Sadala Aziz Domingos",
        "zipcode": "84601-260"
    },
    {
        "city": "União da Vitória",
        "state": "PR",
        "district": "Nossa Senhora da Salete",
        "street": "Rua João Ricardo Kirke",
        "zipcode": "84603-158"
    },
    {
        "city": "União da Vitória",
        "state": "PR",
        "district": "São Sebastião",
        "street": "Rua 30 de Janeiro",
        "zipcode": "84604-750"
    },
    {
        "city": "União da Vitória",
        "state": "PR",
        "district": "São Sebastião",
        "street": "Rua Polônia",
        "zipcode": "84604-785"
    },
    {
        "city": "União da Vitória",
        "state": "PR",
        "district": "Rio DAreia",
        "street": "Rua Carlota Pioli",
        "zipcode": "84601-036"
    },
    {
        "city": "União da Vitória",
        "state": "PR",
        "district": "São Basilio Magno",
        "street": "Rua Vereador Lari Bogus",
        "zipcode": "84600-598"
    },
    {
        "city": "União da Vitória",
        "state": "PR",
        "district": "São Basilio Magno",
        "street": "Travessa Casemiro Beluski",
        "zipcode": "84600-654"
    },
    {
        "city": "União da Vitória",
        "state": "PR",
        "district": "Centro",
        "street": "Rua Professor Cleto",
        "zipcode": "84600-970"
    },
    {
        "city": "União da Vitória",
        "state": "PR",
        "district": "São Basilio Magno",
        "street": "Rua Eloi Vaz de Almeida",
        "zipcode": "84600-602"
    },
    {
        "city": "União da Vitória",
        "state": "PR",
        "district": "Rio DAreia",
        "street": "Rua Egon Frederico Bieberbach",
        "zipcode": "84601-003"
    },
    {
        "city": "União da Vitória",
        "state": "PR",
        "district": "Bento Munhoz da Rocha",
        "street": "Rua 29",
        "zipcode": "84607-635"
    },
    {
        "city": "União da Vitória",
        "state": "PR",
        "district": "Nossa Senhora das Graças",
        "street": "Rua Domingos Massignan",
        "zipcode": "84609-142"
    },
    {
        "city": "União da Vitória",
        "state": "PR",
        "district": "Bento Munhoz da Rocha",
        "street": "Rua Pedro Stelmachuk",
        "zipcode": "84607-595"
    },
    {
        "city": "União da Vitória",
        "state": "PR",
        "district": "Nossa Senhora das Graças",
        "street": "Rua Henrique Reinbald",
        "zipcode": "84609-166"
    },
    {
        "city": "União da Vitória",
        "state": "PR",
        "district": "São Bernardo",
        "street": "Rua Nossa Senhora do Rocio",
        "zipcode": "84600-344"
    },
    {
        "city": "União da Vitória",
        "state": "PR",
        "district": null,
        "street": null,
        "zipcode": "84600-000"
    },
    {
        "city": "União da Vitória",
        "state": "PR",
        "district": "Ponte Nova",
        "street": "Rua Paulo Turkot",
        "zipcode": "84600-034"
    },
    {
        "city": "União da Vitória",
        "state": "PR",
        "district": "Centro",
        "street": "Rua Cruz Machado",
        "zipcode": "84600-900"
    },
    {
        "city": "União da Vitória",
        "state": "PR",
        "district": "Ouro Verde",
        "street": "Rua Padre Estevão Hubert",
        "zipcode": "84608-055"
    },
    {
        "city": "União da Vitória",
        "state": "PR",
        "district": "Ponte Nova",
        "street": "Avenida Manoel Ribas",
        "zipcode": "84600-010"
    },
    {
        "city": "União da Vitória",
        "state": "PR",
        "district": "Ponte Nova",
        "street": "Rua Castro Alves",
        "zipcode": "84600-013"
    },
    {
        "city": "União da Vitória",
        "state": "PR",
        "district": "Dona Mercedes",
        "street": "Rodovia BR 153",
        "zipcode": "84606-410"
    },
    {
        "city": "União da Vitória",
        "state": "PR",
        "district": "Bom Jesus",
        "street": "Rua Carmélia Dutra",
        "zipcode": "84607-500"
    },
    {
        "city": "União da Vitória",
        "state": "PR",
        "district": "Cristo Rei",
        "street": "Rua Industrial Joaquim Fernandes Luiz",
        "zipcode": "84605-548"
    },
    {
        "city": "União da Vitória",
        "state": "PR",
        "district": "Bom Jesus",
        "street": "Rua Ibiraporã",
        "zipcode": "84607-465"
    },
    {
        "city": "União da Vitória",
        "state": "PR",
        "district": "Bom Jesus",
        "street": "Rua Francisco Beltrão",
        "zipcode": "84607-495"
    },
    {
        "city": "União da Vitória",
        "state": "PR",
        "district": "São Joaquim",
        "street": "Rua Lauro Quadros Silva",
        "zipcode": "84605-204"
    },
    {
        "city": "União da Vitória",
        "state": "PR",
        "district": "Bom Jesus",
        "street": "Rua Juvêncio Santana",
        "zipcode": "84607-475"
    },
    {
        "city": "União da Vitória",
        "state": "PR",
        "district": "Bento Munhoz da Rocha",
        "street": "Rua Luiza Maria Waldraff",
        "zipcode": "84607-590"
    },
    {
        "city": "União da Vitória",
        "state": "PR",
        "district": "Nossa Senhora da Salete",
        "street": "Rua Marechal Candido Mariano da Silva Rondon",
        "zipcode": "84603-140"
    },
    {
        "city": "União da Vitória",
        "state": "PR",
        "district": "Bom Jesus",
        "street": "Rua 27 de Março",
        "zipcode": "84607-440"
    },
    {
        "city": "União da Vitória",
        "state": "PR",
        "district": "Rio DAreia",
        "street": "Rua Professor Isael Pastuch",
        "zipcode": "84601-054"
    },
    {
        "city": "União da Vitória",
        "state": "PR",
        "district": "Nossa Senhora da Salete",
        "street": "Rua Virgílio de Andrade",
        "zipcode": "84603-131"
    },
    {
        "city": "União da Vitória",
        "state": "PR",
        "district": "Ponte Nova",
        "street": "Rua Joaquim César de Oliveira",
        "zipcode": "84600-031"
    },
    {
        "city": "União da Vitória",
        "state": "PR",
        "district": "São Joaquim",
        "street": "Rua Hugo Ulrich",
        "zipcode": "84605-236"
    },
    {
        "city": "União da Vitória",
        "state": "PR",
        "district": "São Bernardo",
        "street": "Rua Desembargador Costa Carvalho",
        "zipcode": "84600-392"
    },
    {
        "city": "União da Vitória",
        "state": "PR",
        "district": "São Sebastião",
        "street": "Rua 02 B",
        "zipcode": "84604-220"
    },
    {
        "city": "União da Vitória",
        "state": "PR",
        "district": "Bento Munhoz da Rocha",
        "street": "Rua Francisco Moreira de Castilho",
        "zipcode": "84607-615"
    },
    {
        "city": "União da Vitória",
        "state": "PR",
        "district": "Bento Munhoz da Rocha",
        "street": "Rua Doutor Ivaldo Thomazi",
        "zipcode": "84607-670"
    },
    {
        "city": "União da Vitória",
        "state": "PR",
        "district": "Ouro Verde",
        "street": "Rua Mario Riesemberg",
        "zipcode": "84608-115"
    },
    {
        "city": "União da Vitória",
        "state": "PR",
        "district": "Centro",
        "street": "Rua Visconde de Guarapuava",
        "zipcode": "84600-195"
    },
    {
        "city": "União da Vitória",
        "state": "PR",
        "district": "Nossa Senhora das Graças",
        "street": "Rua João Dissenha",
        "zipcode": "84609-172"
    },
    {
        "city": "União da Vitória",
        "state": "PR",
        "district": "Sagrada Família",
        "street": "Avenida Paula Freitas",
        "zipcode": "84603-006"
    },
    {
        "city": "União da Vitória",
        "state": "PR",
        "district": "Sagrada Família",
        "street": "Rua Padre João Piamarta",
        "zipcode": "84603-039"
    },
    {
        "city": "União da Vitória",
        "state": "PR",
        "district": "Ouro Verde",
        "street": "Estrada Braulina Pigatto",
        "zipcode": "84608-600"
    },
    {
        "city": "União da Vitória",
        "state": "PR",
        "district": "Nossa Senhora das Graças",
        "street": "Rodovia BR 476",
        "zipcode": "84609-000"
    },
    {
        "city": "União da Vitória",
        "state": "PR",
        "district": "Sagrada Família",
        "street": "Rua Augusto Lima",
        "zipcode": "84603-015"
    },
    {
        "city": "União da Vitória",
        "state": "PR",
        "district": "Nossa Senhora das Graças",
        "street": "Rua João Ruaro",
        "zipcode": "84609-136"
    },
    {
        "city": "União da Vitória",
        "state": "PR",
        "district": "Sagrada Família",
        "street": "Rua Mimi Amazonas",
        "zipcode": "84603-027"
    },
    {
        "city": "União da Vitória",
        "state": "PR",
        "district": "Nossa Senhora das Graças",
        "street": "Rua Valdomiro Nesteruk",
        "zipcode": "84609-178"
    },
    {
        "city": "União da Vitória",
        "state": "PR",
        "district": "Cristo Rei",
        "street": "Rua Valter de Oliveira",
        "zipcode": "84605-690"
    },
    {
        "city": "União da Vitória",
        "state": "PR",
        "district": "Área Rural de União da Vitória",
        "street": "Área Rural",
        "zipcode": "84612-899"
    },
    {
        "city": "União da Vitória",
        "state": "PR",
        "district": "Bento Munhoz da Rocha",
        "street": "Rua Silvestre Cieslak",
        "zipcode": "84607-630"
    },
    {
        "city": "União da Vitória",
        "state": "PR",
        "district": "Limeira",
        "street": "Rua Doutor Roberto Ciro Corrêa",
        "zipcode": "84601-212"
    },
    {
        "city": "União da Vitória",
        "state": "PR",
        "district": "Nossa Senhora das Graças",
        "street": "Rua Geni Maria Taborda Be",
        "zipcode": "84609-130"
    },
    {
        "city": "União da Vitória",
        "state": "PR",
        "district": "Cristo Rei",
        "street": "Rua Arapongas",
        "zipcode": "84605-346"
    },
    {
        "city": "União da Vitória",
        "state": "PR",
        "district": "Cristo Rei",
        "street": "Rua Clarisse Cesar de Souza",
        "zipcode": "84605-750"
    },
    {
        "city": "União da Vitória",
        "state": "PR",
        "district": "Limeira",
        "street": "Rua 4",
        "zipcode": "84601-206"
    },
    {
        "city": "União da Vitória",
        "state": "PR",
        "district": "Ponte Nova",
        "street": "Rua João Fonseca",
        "zipcode": "84600-028"
    },
    {
        "city": "União da Vitória",
        "state": "PR",
        "district": "São Basilio Magno",
        "street": "Rua Dom Pedro I",
        "zipcode": "84600-522"
    },
    {
        "city": "União da Vitória",
        "state": "PR",
        "district": "São Basilio Magno",
        "street": "Travessa Ernestina de Oliveira",
        "zipcode": "84600-494"
    },
    {
        "city": "União da Vitória",
        "state": "PR",
        "district": "São Basilio Magno",
        "street": "Rua Ceci de Oliveira Vargas",
        "zipcode": "84600-526"
    },
    {
        "city": "União da Vitória",
        "state": "PR",
        "district": "São Basilio Magno",
        "street": "Rua Joaquim Távora",
        "zipcode": "84600-510"
    },
    {
        "city": "União da Vitória",
        "state": "PR",
        "district": "Ponte Nova",
        "street": "Rua Primeiro de Maio",
        "zipcode": "84600-022"
    },
    {
        "city": "União da Vitória",
        "state": "PR",
        "district": "Centro",
        "street": "Rua Professora Amazília",
        "zipcode": "84600-285"
    },
    {
        "city": "União da Vitória",
        "state": "PR",
        "district": "São Basilio Magno",
        "street": "Rua Prudente de Morais",
        "zipcode": "84600-490"
    },
    {
        "city": "União da Vitória",
        "state": "PR",
        "district": "Centro",
        "street": "Praça Visconde de Nacar",
        "zipcode": "84600-135"
    },
    {
        "city": "União da Vitória",
        "state": "PR",
        "district": "São Gabriel",
        "street": "Rua Ovídio Luiz Presendo",
        "zipcode": "84602-180"
    },
    {
        "city": "União da Vitória",
        "state": "PR",
        "district": "São Bernardo",
        "street": "Rua Benjamim Constant",
        "zipcode": "84600-328"
    },
    {
        "city": "União da Vitória",
        "state": "PR",
        "district": "São Bernardo",
        "street": "Rua Astolfo Macedo de Souza",
        "zipcode": "84600-356"
    },
    {
        "city": "União da Vitória",
        "state": "PR",
        "district": "Bela Vista",
        "street": "Rua Céu Azul",
        "zipcode": "84601-575"
    },
    {
        "city": "União da Vitória",
        "state": "PR",
        "district": "Ponte Nova",
        "street": "Rua Jamil Domit",
        "zipcode": "84600-046"
    },
    {
        "city": "União da Vitória",
        "state": "PR",
        "district": "Centro",
        "street": "Rua Desembargador Costa Carvalho",
        "zipcode": "84600-215"
    },
    {
        "city": "União da Vitória",
        "state": "PR",
        "district": "São Bernardo",
        "street": "Rua Hugo Strozzi",
        "zipcode": "84600-372"
    },
    {
        "city": "União da Vitória",
        "state": "PR",
        "district": "Navegantes",
        "street": "Rua Gabriel Bughay",
        "zipcode": "84600-096"
    },
    {
        "city": "União da Vitória",
        "state": "PR",
        "district": "São Joaquim",
        "street": "Rodovia BR 476",
        "zipcode": "84605-000"
    },
    {
        "city": "União da Vitória",
        "state": "PR",
        "district": "Nossa Senhora da Salete",
        "street": "Avenida Coronel Amazonas de Araújo Marcondes",
        "zipcode": "84603-152"
    },
    {
        "city": "União da Vitória",
        "state": "PR",
        "district": "São Sebastião",
        "street": "Rua Célia Ochove Neumann",
        "zipcode": "84604-005"
    },
    {
        "city": "União da Vitória",
        "state": "PR",
        "district": "Cristo Rei",
        "street": "Rua das Margaridas",
        "zipcode": "84605-458"
    },
    {
        "city": "União da Vitória",
        "state": "PR",
        "district": "Ouro Verde",
        "street": "Rua Ezequiel de Souza Portela",
        "zipcode": "84608-045"
    },
    {
        "city": "União da Vitória",
        "state": "PR",
        "district": "Centro",
        "street": "Rua Quintino Bocaiúva",
        "zipcode": "84600-265"
    },
    {
        "city": "União da Vitória",
        "state": "PR",
        "district": "São Bernardo",
        "street": "Rua Moisés Malheiros de Araújo",
        "zipcode": "84600-480"
    },
    {
        "city": "União da Vitória",
        "state": "PR",
        "district": "São Braz",
        "street": "Rua Orlando Savi Sobrinho",
        "zipcode": "84603-754"
    },
    {
        "city": "União da Vitória",
        "state": "PR",
        "district": "São Sebastião",
        "street": "Rua Milton Teixeira",
        "zipcode": "84604-040"
    },
    {
        "city": "União da Vitória",
        "state": "PR",
        "district": "São Joaquim",
        "street": "Rua Juscelino Kubischek de Oliveira",
        "zipcode": "84605-140"
    },
    {
        "city": "União da Vitória",
        "state": "PR",
        "district": "Nossa Senhora da Salete",
        "street": "Rua Osmar Rômulo Frederico Coradin",
        "zipcode": "84603-119"
    },
    {
        "city": "União da Vitória",
        "state": "PR",
        "district": "Nossa Senhora da Salete",
        "street": "Rua Irmãos Gonçalves de Andrade",
        "zipcode": "84603-122"
    },
    {
        "city": "União da Vitória",
        "state": "PR",
        "district": "São Gabriel",
        "street": "Rua Olivio Valentin Tagliari",
        "zipcode": "84602-160"
    },
    {
        "city": "União da Vitória",
        "state": "PR",
        "district": "São Basilio Magno",
        "street": "Rua Basílio Polygacz",
        "zipcode": "84600-586"
    },
    {
        "city": "União da Vitória",
        "state": "PR",
        "district": "São Basilio Magno",
        "street": "Rua Marechal Deodoro da Fonseca",
        "zipcode": "84600-614"
    },
    {
        "city": "União da Vitória",
        "state": "PR",
        "district": "Nossa Senhora do Rocio",
        "street": "Rua Marechal Deodoro da Fonseca",
        "zipcode": "84600-736"
    },
    {
        "city": "União da Vitória",
        "state": "PR",
        "district": "São Sebastião",
        "street": "Rua Esmaldo Della Barba Kurten",
        "zipcode": "84604-425"
    }
]