[
    {
        "city": "Parnaiba",
        "state": "PI",
        "district": "Piaui",
        "street": "Rua Samuel Santos",
        "zipcode": "64208-200"
    },
    {
        "city": "Parnaiba",
        "state": "PI",
        "district": "Piaui",
        "street": "Rua Frei Higino",
        "zipcode": "64216-390"
    },
    {
        "city": "Parnaiba",
        "state": "PI",
        "district": "Rodoviaria",
        "street": "Rua Projetada 37",
        "zipcode": "64210-271"
    },
    {
        "city": "Parnaiba",
        "state": "PI",
        "district": "Piaui",
        "street": "Avenida Sao Sebastiao",
        "zipcode": "64208-020"
    },
    {
        "city": "Parnaiba",
        "state": "PI",
        "district": "Cantagalo",
        "street": "Avenida Nacoes Unidas",
        "zipcode": "64202-600"
    },
    {
        "city": "Parnaiba",
        "state": "PI",
        "district": "Sao Benedito",
        "street": "Avenida Deputado Pinheiro Machado",
        "zipcode": "64202-590"
    },
    {
        "city": "Parnaiba",
        "state": "PI",
        "district": "Piaui",
        "street": "Rua Prudente De Moraes",
        "zipcode": "64208-160"
    },
    {
        "city": "Parnaiba",
        "state": "PI",
        "district": "Piaui",
        "street": "Rua Guapore",
        "zipcode": "64208-280"
    },
    {
        "city": "Parnaiba",
        "state": "PI",
        "district": "Nossa Senhora De Fatima",
        "street": "Rua Tabajara",
        "zipcode": "64202-210"
    },
    {
        "city": "Parnaiba",
        "state": "PI",
        "district": "Piaui",
        "street": "Avenida Deputado Pinheiro Machado",
        "zipcode": "64208-010"
    },
    {
        "city": "Parnaiba",
        "state": "PI",
        "district": "Rodoviaria",
        "street": "Avenida Deputado Pinheiro Machado",
        "zipcode": "64210-010"
    }
]