[
    {
        "city": "Picos",
        "state": "PI",
        "district": "Parque Industrial",
        "street": "Rua Maria Raimunda da Conceição (Lot. Flamboyant)",
        "zipcode": "64605-515"
    },
    {
        "city": "Picos",
        "state": "PI",
        "district": "Boa Vista",
        "street": "Rua José Pereira Bezerra",
        "zipcode": "64600-571"
    },
    {
        "city": "Picos",
        "state": "PI",
        "district": "Passagem das Pedras",
        "street": "Rua José Pereira Bezerra",
        "zipcode": "64600-421"
    },
    {
        "city": "Picos",
        "state": "PI",
        "district": "Paraibinha",
        "street": "Rua São João Batista",
        "zipcode": "64606-370"
    },
    {
        "city": "Picos",
        "state": "PI",
        "district": "DNER",
        "street": "Rua Maria Martins Neiva",
        "zipcode": "64607-510"
    },
    {
        "city": "Picos",
        "state": "PI",
        "district": "Pedrinhas",
        "street": "Rua José Batinga de Sousa",
        "zipcode": "64605-125"
    },
    {
        "city": "Picos",
        "state": "PI",
        "district": "Passagem das Pedras",
        "street": "Rua Francisco Rodrigues Leônidas",
        "zipcode": "64600-415"
    },
    {
        "city": "Picos",
        "state": "PI",
        "district": "Ipueiras",
        "street": "Rua João Martins da Luz",
        "zipcode": "64604-390"
    },
    {
        "city": "Picos",
        "state": "PI",
        "district": "Conduru",
        "street": "Rua Leônidas Melo",
        "zipcode": "64608-340"
    },
    {
        "city": "Picos",
        "state": "PI",
        "district": "Ipueiras",
        "street": "Rua Maria de Sousa Moura",
        "zipcode": "64604-110"
    },
    {
        "city": "Picos",
        "state": "PI",
        "district": null,
        "street": "BR",
        "zipcode": "64602-990"
    },
    {
        "city": "Picos",
        "state": "PI",
        "district": "Parque Industrial",
        "street": "Quadra 02 (Conj Waldemar M Santos)",
        "zipcode": "64605-450"
    },
    {
        "city": "Picos",
        "state": "PI",
        "district": "Conduru",
        "street": "Rua Padre Ermírio Pegorare",
        "zipcode": "64608-425"
    },
    {
        "city": "Picos",
        "state": "PI",
        "district": "São José",
        "street": "Travessa São Francisco de Assis",
        "zipcode": "64601-279"
    },
    {
        "city": "Picos",
        "state": "PI",
        "district": "Parque de Exposição",
        "street": "Rua Leonice Benigno Campos",
        "zipcode": "64608-027"
    },
    {
        "city": "Picos",
        "state": "PI",
        "district": "Centro",
        "street": "Praça João de Deus Filho",
        "zipcode": "64600-102"
    },
    {
        "city": "Picos",
        "state": "PI",
        "district": "Samambaia",
        "street": "Rua São Francisco",
        "zipcode": "64608-675"
    },
    {
        "city": "Picos",
        "state": "PI",
        "district": "Belo Norte",
        "street": "Rua Francisca Gonçalves da Silva",
        "zipcode": "64603-180"
    },
    {
        "city": "Picos",
        "state": "PI",
        "district": "Paraibinha",
        "street": "Rua São Judas Tadeu",
        "zipcode": "64606-485"
    },
    {
        "city": "Picos",
        "state": "PI",
        "district": "Passagem das Pedras",
        "street": "Rua Elísio Gonçalves de Moura (Lot. Alberto Leopoldo 2)",
        "zipcode": "64600-418"
    },
    {
        "city": "Picos",
        "state": "PI",
        "district": "São José",
        "street": "Avenida Deputado Raimundo de Sá Urtiga",
        "zipcode": "64601-225"
    },
    {
        "city": "Picos",
        "state": "PI",
        "district": "Paraibinha",
        "street": "Rua Francisco Ferreira Pimentel",
        "zipcode": "64606-385"
    },
    {
        "city": "Picos",
        "state": "PI",
        "district": "Centro",
        "street": "Praça Raimundo Leandro",
        "zipcode": "64600-006"
    },
    {
        "city": "Picos",
        "state": "PI",
        "district": "Pedrinhas",
        "street": "Quadra 07 (Conj Picos II)",
        "zipcode": "64605-110"
    },
    {
        "city": "Picos",
        "state": "PI",
        "district": "Centro",
        "street": "Rua Francisco da Costa Araújo",
        "zipcode": "64600-076"
    },
    {
        "city": "Picos",
        "state": "PI",
        "district": "Centro",
        "street": "Rua Santa Isabel II",
        "zipcode": "64600-044"
    },
    {
        "city": "Picos",
        "state": "PI",
        "district": "São José",
        "street": "Rua Vereador Francisco Antonio da Luz",
        "zipcode": "64601-261"
    },
    {
        "city": "Picos",
        "state": "PI",
        "district": "Ipueiras",
        "street": "Rua Antonio Claro da Luz",
        "zipcode": "64604-580"
    },
    {
        "city": "Picos",
        "state": "PI",
        "district": "Samambaia",
        "street": "Rua Eduardo Teixeira",
        "zipcode": "64608-630"
    },
    {
        "city": "Picos",
        "state": "PI",
        "district": "Ipueiras",
        "street": "Unidade Quinze de Agosto",
        "zipcode": "64604-150"
    },
    {
        "city": "Picos",
        "state": "PI",
        "district": "Passagem das Pedras",
        "street": "Rua Elpídio Pereira Bezerra",
        "zipcode": "64600-394"
    },
    {
        "city": "Picos",
        "state": "PI",
        "district": "Boa Vista",
        "street": "Rua Jesus de Moura Fé",
        "zipcode": "64600-619"
    },
    {
        "city": "Picos",
        "state": "PI",
        "district": "Parque de Exposição",
        "street": "Loteamento Quadra 7",
        "zipcode": "64608-054"
    },
    {
        "city": "Picos",
        "state": "PI",
        "district": "Pedrinhas",
        "street": "Quadra 03 (Conj Picos II)",
        "zipcode": "64605-090"
    },
    {
        "city": "Picos",
        "state": "PI",
        "district": "Centro",
        "street": "Rua Veneza",
        "zipcode": "64600-016"
    },
    {
        "city": "Picos",
        "state": "PI",
        "district": "Paraibinha",
        "street": "Rua das Palmeiras",
        "zipcode": "64606-255"
    },
    {
        "city": "Picos",
        "state": "PI",
        "district": "Morada do Sol",
        "street": "Rua Bom Jesus",
        "zipcode": "64601-572"
    },
    {
        "city": "Picos",
        "state": "PI",
        "district": "Morada do Sol",
        "street": "Loteamento Morada do Sol",
        "zipcode": "64601-600"
    },
    {
        "city": "Picos",
        "state": "PI",
        "district": "Morada do Sol",
        "street": "Quadra 40 (Cj Luiza G Medeiros)",
        "zipcode": "64601-626"
    },
    {
        "city": "Picos",
        "state": "PI",
        "district": "Morada do Sol",
        "street": "Quadra 44 (Cj Luiza G Medeiros)",
        "zipcode": "64601-630"
    },
    {
        "city": "Picos",
        "state": "PI",
        "district": "Morada do Sol",
        "street": "Quadra 48 (Cj Luiza G Medeiros)",
        "zipcode": "64601-634"
    },
    {
        "city": "Picos",
        "state": "PI",
        "district": "Morada do Sol",
        "street": "Quadra 49 (Cj Luiza G Medeiros)",
        "zipcode": "64601-636"
    },
    {
        "city": "Picos",
        "state": "PI",
        "district": "Morada do Sol",
        "street": "Quadra 51 (Cj Luiza G Medeiros)",
        "zipcode": "64601-638"
    },
    {
        "city": "Picos",
        "state": "PI",
        "district": "Morada do Sol",
        "street": "Quadra 53 (Cj Luiza G Medeiros)",
        "zipcode": "64601-642"
    },
    {
        "city": "Picos",
        "state": "PI",
        "district": "Morada do Sol",
        "street": "Quadra 55 (Cj Luiza G Medeiros)",
        "zipcode": "64601-646"
    },
    {
        "city": "Picos",
        "state": "PI",
        "district": "Morada do Sol",
        "street": "Quadra 59 (Cj Luiza G Medeiros)",
        "zipcode": "64601-654"
    },
    {
        "city": "Picos",
        "state": "PI",
        "district": "Morada do Sol",
        "street": "Quadra 72 (Cj Luiza G Medeiros)",
        "zipcode": "64601-664"
    },
    {
        "city": "Picos",
        "state": "PI",
        "district": "Morada do Sol",
        "street": "Quadra 73 (Cj Luiza G Medeiros)",
        "zipcode": "64601-666"
    },
    {
        "city": "Picos",
        "state": "PI",
        "district": "Morada do Sol",
        "street": "Quadra 76 (Cj Luiza G Medeiros)",
        "zipcode": "64601-670"
    },
    {
        "city": "Picos",
        "state": "PI",
        "district": "Morada do Sol",
        "street": "Quadra 80 (Cj Luiza G Medeiros)",
        "zipcode": "64601-672"
    },
    {
        "city": "Picos",
        "state": "PI",
        "district": "Morada do Sol",
        "street": "Quadra 81 (Cj Luiza G Medeiros)",
        "zipcode": "64601-673"
    },
    {
        "city": "Picos",
        "state": "PI",
        "district": "Morada do Sol",
        "street": "Quadra 82 (Cj Luiza G Medeiros)",
        "zipcode": "64601-674"
    },
    {
        "city": "Picos",
        "state": "PI",
        "district": "Morada do Sol",
        "street": "Quadra 38 (Cj Luiza G Medeiros)",
        "zipcode": "64601-622"
    },
    {
        "city": "Picos",
        "state": "PI",
        "district": "Morada do Sol",
        "street": "Quadra 43 (Cj Luiza G Medeiros)",
        "zipcode": "64601-628"
    },
    {
        "city": "Picos",
        "state": "PI",
        "district": "Morada do Sol",
        "street": "Quadra 57 (Cj Luiza G Medeiros)",
        "zipcode": "64601-650"
    },
    {
        "city": "Picos",
        "state": "PI",
        "district": "Morada do Sol",
        "street": "Quadra 67 (Cj Luiza G Medeiros)",
        "zipcode": "64601-660"
    },
    {
        "city": "Picos",
        "state": "PI",
        "district": "Morada do Sol",
        "street": "Quadra 39 (Cj Luiza G Medeiros)",
        "zipcode": "64601-624"
    },
    {
        "city": "Picos",
        "state": "PI",
        "district": "Morada do Sol",
        "street": "Quadra 64 (Cj Luiza G Medeiros)",
        "zipcode": "64601-656"
    },
    {
        "city": "Picos",
        "state": "PI",
        "district": "Morada do Sol",
        "street": "Quadra 68 (Cj Luiza G Medeiros)",
        "zipcode": "64601-662"
    },
    {
        "city": "Picos",
        "state": "PI",
        "district": "Junco",
        "street": "Rua Lírio Balduíno",
        "zipcode": "64607-685"
    },
    {
        "city": "Picos",
        "state": "PI",
        "district": "Bela Vista",
        "street": "Rua Projetada 140",
        "zipcode": "64601-130"
    },
    {
        "city": "Picos",
        "state": "PI",
        "district": "Área Rural de Picos",
        "street": "Área Rural",
        "zipcode": "64608-899"
    },
    {
        "city": "Picos",
        "state": "PI",
        "district": "Samambaia",
        "street": "Travessa Joaquim Paulo de Holanda",
        "zipcode": "64608-695"
    },
    {
        "city": "Picos",
        "state": "PI",
        "district": "Junco",
        "street": "Rua Coelho Neto",
        "zipcode": "64607-785"
    },
    {
        "city": "Picos",
        "state": "PI",
        "district": "Samambaia",
        "street": "Travessa da Paz",
        "zipcode": "64608-690"
    },
    {
        "city": "Picos",
        "state": "PI",
        "district": "Conduru",
        "street": "Rua Antonelyana Vieira",
        "zipcode": "64608-485"
    },
    {
        "city": "Picos",
        "state": "PI",
        "district": "Conduru",
        "street": "Loteamento Teixeira",
        "zipcode": "64608-480"
    },
    {
        "city": "Picos",
        "state": "PI",
        "district": "Junco",
        "street": "Rua Doze de Dezembro",
        "zipcode": "64607-875"
    },
    {
        "city": "Picos",
        "state": "PI",
        "district": "Jardim Natal",
        "street": "Rua Goiás (Loteamento Residencial Eldorado)",
        "zipcode": "64606-045"
    },
    {
        "city": "Picos",
        "state": "PI",
        "district": "Junco",
        "street": "Rua José Tibúrcio",
        "zipcode": "64607-655"
    },
    {
        "city": "Picos",
        "state": "PI",
        "district": "Aroeiras",
        "street": "Loteamento Jardim Piauí",
        "zipcode": "64603-720"
    },
    {
        "city": "Picos",
        "state": "PI",
        "district": "Ipueiras",
        "street": "Rua Marilene Luz",
        "zipcode": "64604-275"
    },
    {
        "city": "Picos",
        "state": "PI",
        "district": "Conduru",
        "street": "Rua Projetada 181",
        "zipcode": "64608-390"
    },
    {
        "city": "Picos",
        "state": "PI",
        "district": "Conduru",
        "street": "Rua Sete de Janeiro",
        "zipcode": "64608-395"
    },
    {
        "city": "Picos",
        "state": "PI",
        "district": "Conduru",
        "street": "Rua Monteiro Lobato",
        "zipcode": "64608-405"
    },
    {
        "city": "Picos",
        "state": "PI",
        "district": "Conduru",
        "street": "Rua Projetada 245",
        "zipcode": "64608-410"
    },
    {
        "city": "Picos",
        "state": "PI",
        "district": "Conduru",
        "street": "Rua Projetada 27",
        "zipcode": "64608-415"
    },
    {
        "city": "Picos",
        "state": "PI",
        "district": "Conduru",
        "street": "Rua Projetada 89",
        "zipcode": "64608-365"
    },
    {
        "city": "Picos",
        "state": "PI",
        "district": "Conduru",
        "street": "Rua Projetada 84",
        "zipcode": "64608-370"
    },
    {
        "city": "Picos",
        "state": "PI",
        "district": "Conduru",
        "street": "Rua Projetada 180",
        "zipcode": "64608-380"
    },
    {
        "city": "Picos",
        "state": "PI",
        "district": "Conduru",
        "street": "Rua Projetada 85",
        "zipcode": "64608-385"
    },
    {
        "city": "Picos",
        "state": "PI",
        "district": "Conduru",
        "street": "Rua Jacó Maria",
        "zipcode": "64608-355"
    },
    {
        "city": "Picos",
        "state": "PI",
        "district": "Conduru",
        "street": "Rua São Joaquim",
        "zipcode": "64608-360"
    },
    {
        "city": "Picos",
        "state": "PI",
        "district": "DNER",
        "street": "Rua Projetada 68",
        "zipcode": "64607-485"
    },
    {
        "city": "Picos",
        "state": "PI",
        "district": "Junco",
        "street": "Rua Hélio Leitão",
        "zipcode": "64607-635"
    },
    {
        "city": "Picos",
        "state": "PI",
        "district": "Junco",
        "street": "Rua Antonio Bonfim",
        "zipcode": "64607-665"
    },
    {
        "city": "Picos",
        "state": "PI",
        "district": "Junco",
        "street": "Rua da Paz",
        "zipcode": "64607-730"
    },
    {
        "city": "Picos",
        "state": "PI",
        "district": "Bomba",
        "street": "Rua Frei Ibiapina",
        "zipcode": "64601-325"
    },
    {
        "city": "Picos",
        "state": "PI",
        "district": "Junco",
        "street": "Avenida Piauí",
        "zipcode": "64607-840"
    },
    {
        "city": "Picos",
        "state": "PI",
        "district": "Bomba",
        "street": "Rua do Cruzeiro",
        "zipcode": "64601-349"
    },
    {
        "city": "Picos",
        "state": "PI",
        "district": "Parque de Exposição",
        "street": "Rua Projetada 309",
        "zipcode": "64608-066"
    },
    {
        "city": "Picos",
        "state": "PI",
        "district": "Parque de Exposição",
        "street": "Rua Itainópolis",
        "zipcode": "64608-072"
    },
    {
        "city": "Picos",
        "state": "PI",
        "district": "Parque de Exposição",
        "street": "Rua Bocaina",
        "zipcode": "64608-075"
    },
    {
        "city": "Picos",
        "state": "PI",
        "district": "Parque de Exposição",
        "street": "Rua Santo Antonio de Lisboa",
        "zipcode": "64608-081"
    },
    {
        "city": "Picos",
        "state": "PI",
        "district": "Parque de Exposição",
        "street": "Rua Jaicós",
        "zipcode": "64608-084"
    },
    {
        "city": "Picos",
        "state": "PI",
        "district": "Parque de Exposição",
        "street": "Rua Pimenteiras",
        "zipcode": "64608-090"
    },
    {
        "city": "Picos",
        "state": "PI",
        "district": "Parque de Exposição",
        "street": "Rua Recife",
        "zipcode": "64608-120"
    },
    {
        "city": "Picos",
        "state": "PI",
        "district": "Bomba",
        "street": "Rua Landri Sales",
        "zipcode": "64601-328"
    },
    {
        "city": "Picos",
        "state": "PI",
        "district": "Bomba",
        "street": "Rua Armínio Rocha",
        "zipcode": "64601-340"
    },
    {
        "city": "Picos",
        "state": "PI",
        "district": "Bela Vista",
        "street": "Rua Seis",
        "zipcode": "64601-125"
    },
    {
        "city": "Picos",
        "state": "PI",
        "district": "Belo Norte",
        "street": "Rua XVII",
        "zipcode": "64603-095"
    },
    {
        "city": "Picos",
        "state": "PI",
        "district": "Junco",
        "street": "Rua Raimundo Eulálio",
        "zipcode": "64607-700"
    },
    {
        "city": "Picos",
        "state": "PI",
        "district": "Junco",
        "street": "Travessa Cícero Duarte",
        "zipcode": "64607-705"
    },
    {
        "city": "Picos",
        "state": "PI",
        "district": "Junco",
        "street": "Rua Pedro Claro",
        "zipcode": "64607-710"
    },
    {
        "city": "Picos",
        "state": "PI",
        "district": "Junco",
        "street": "Rua Justino Luz",
        "zipcode": "64607-720"
    },
    {
        "city": "Picos",
        "state": "PI",
        "district": "Junco",
        "street": "Rua Nossa Senhora Aparecida",
        "zipcode": "64607-735"
    },
    {
        "city": "Picos",
        "state": "PI",
        "district": "Junco",
        "street": "Rua Armínio Rocha",
        "zipcode": "64607-745"
    },
    {
        "city": "Picos",
        "state": "PI",
        "district": "Parque de Exposição",
        "street": "Rua Ipiranga",
        "zipcode": "64608-093"
    },
    {
        "city": "Picos",
        "state": "PI",
        "district": "Catavento",
        "street": "Loteamento Nossa Senhora dos Remédios",
        "zipcode": "64607-195"
    },
    {
        "city": "Picos",
        "state": "PI",
        "district": "Conduru",
        "street": "Rua João Martírio",
        "zipcode": "64608-420"
    },
    {
        "city": "Picos",
        "state": "PI",
        "district": "Conduru",
        "street": "Rua Antonia Sivone da Silva",
        "zipcode": "64608-345"
    },
    {
        "city": "Picos",
        "state": "PI",
        "district": "Parque de Exposição",
        "street": "Rua David Cipriano",
        "zipcode": "64608-063"
    },
    {
        "city": "Picos",
        "state": "PI",
        "district": "Parque de Exposição",
        "street": "Rua Dom Severino",
        "zipcode": "64608-102"
    },
    {
        "city": "Picos",
        "state": "PI",
        "district": "Parque de Exposição",
        "street": "Rua São Luis",
        "zipcode": "64608-105"
    },
    {
        "city": "Picos",
        "state": "PI",
        "district": "Parque de Exposição",
        "street": "Rua Vitória",
        "zipcode": "64608-111"
    },
    {
        "city": "Picos",
        "state": "PI",
        "district": "Ipueiras",
        "street": "Rua da Amizade",
        "zipcode": "64604-160"
    },
    {
        "city": "Picos",
        "state": "PI",
        "district": "Junco",
        "street": "Rua Joaquim Monteiro",
        "zipcode": "64607-790"
    },
    {
        "city": "Picos",
        "state": "PI",
        "district": "Conduru",
        "street": "Rua Pedro Freitas de Oliveira",
        "zipcode": "64608-335"
    },
    {
        "city": "Picos",
        "state": "PI",
        "district": "Junco",
        "street": "Rua Marlene",
        "zipcode": "64607-740"
    },
    {
        "city": "Picos",
        "state": "PI",
        "district": "Bomba",
        "street": "Rua Fontes Ibiapina",
        "zipcode": "64601-337"
    },
    {
        "city": "Picos",
        "state": "PI",
        "district": "Bela Vista",
        "street": "Rua Guarani II",
        "zipcode": "64601-110"
    },
    {
        "city": "Picos",
        "state": "PI",
        "district": "Ipueiras",
        "street": "Rua Cloves Avelino de Sousa",
        "zipcode": "64604-170"
    },
    {
        "city": "Picos",
        "state": "PI",
        "district": "Paroquial",
        "street": "Rua Bahia IV",
        "zipcode": "64601-018"
    },
    {
        "city": "Picos",
        "state": "PI",
        "district": "Centro",
        "street": "Travessa Joaquim Paraíba de Oliveira",
        "zipcode": "64600-074"
    },
    {
        "city": "Picos",
        "state": "PI",
        "district": "Parque de Exposição",
        "street": "Loteamento Quadra 6",
        "zipcode": "64608-057"
    },
    {
        "city": "Picos",
        "state": "PI",
        "district": "Jardim Natal",
        "street": "Rua Benvinda Nunes",
        "zipcode": "64606-080"
    },
    {
        "city": "Picos",
        "state": "PI",
        "district": "Parque de Exposição",
        "street": "Rua Natal",
        "zipcode": "64608-117"
    },
    {
        "city": "Picos",
        "state": "PI",
        "district": "Centro",
        "street": "Praça Justino Luz",
        "zipcode": "64600-088"
    },
    {
        "city": "Picos",
        "state": "PI",
        "district": "Catavento",
        "street": "Rua Lourival Ramos",
        "zipcode": "64607-230"
    },
    {
        "city": "Picos",
        "state": "PI",
        "district": "Morada do Sol",
        "street": "Avenida Deputada Francisca Trindade",
        "zipcode": "64601-533"
    },
    {
        "city": "Picos",
        "state": "PI",
        "district": "Junco",
        "street": "Travessa Joaquim Monteiro",
        "zipcode": "64607-795"
    },
    {
        "city": "Picos",
        "state": "PI",
        "district": "Junco",
        "street": "Travessa Presidente Castelo Branco",
        "zipcode": "64607-800"
    },
    {
        "city": "Picos",
        "state": "PI",
        "district": "Junco",
        "street": "Travessa São Francisco",
        "zipcode": "64607-810"
    },
    {
        "city": "Picos",
        "state": "PI",
        "district": "Junco",
        "street": "Rua Presidente Castelo Branco",
        "zipcode": "64607-825"
    },
    {
        "city": "Picos",
        "state": "PI",
        "district": "Parque de Exposição",
        "street": "Travessa Coelho Neto",
        "zipcode": "64608-003"
    },
    {
        "city": "Picos",
        "state": "PI",
        "district": "Parque de Exposição",
        "street": "Rua Belo Horizonte",
        "zipcode": "64608-006"
    },
    {
        "city": "Picos",
        "state": "PI",
        "district": "Parque de Exposição",
        "street": "Rua Brasília",
        "zipcode": "64608-009"
    },
    {
        "city": "Picos",
        "state": "PI",
        "district": "Parque de Exposição",
        "street": "Rua Manaus",
        "zipcode": "64608-012"
    },
    {
        "city": "Picos",
        "state": "PI",
        "district": "Parque de Exposição",
        "street": "Rua Walter Vieira",
        "zipcode": "64608-024"
    },
    {
        "city": "Picos",
        "state": "PI",
        "district": "Parque de Exposição",
        "street": "Rua Francisco José Fernandes",
        "zipcode": "64608-030"
    },
    {
        "city": "Picos",
        "state": "PI",
        "district": "Parque de Exposição",
        "street": "Rua João Cruz",
        "zipcode": "64608-033"
    },
    {
        "city": "Picos",
        "state": "PI",
        "district": "Parque de Exposição",
        "street": "Rua Severino Lima da Silva",
        "zipcode": "64608-036"
    },
    {
        "city": "Picos",
        "state": "PI",
        "district": "Parque de Exposição",
        "street": "Rua Damião Leite Lacerda",
        "zipcode": "64608-045"
    },
    {
        "city": "Picos",
        "state": "PI",
        "district": "Parque de Exposição",
        "street": "Rua Urbano Eulálio",
        "zipcode": "64608-108"
    },
    {
        "city": "Picos",
        "state": "PI",
        "district": "Junco",
        "street": "Rua Adalgisa Francisca de Brito",
        "zipcode": "64607-725"
    },
    {
        "city": "Picos",
        "state": "PI",
        "district": "Junco",
        "street": "Rua Doutor Antenor Neiva",
        "zipcode": "64607-830"
    },
    {
        "city": "Picos",
        "state": "PI",
        "district": "DNER",
        "street": "Avenida Senador Helvídio Nunes",
        "zipcode": "64607-515"
    },
    {
        "city": "Picos",
        "state": "PI",
        "district": "Boa Sorte",
        "street": "Conjunto Sá Urtiga",
        "zipcode": "64607-080"
    },
    {
        "city": "Picos",
        "state": "PI",
        "district": "Boa Sorte",
        "street": "Travessa José Marinheiro",
        "zipcode": "64607-095"
    },
    {
        "city": "Picos",
        "state": "PI",
        "district": "Boa Sorte",
        "street": "Travessa Brasil",
        "zipcode": "64607-100"
    },
    {
        "city": "Picos",
        "state": "PI",
        "district": "Catavento",
        "street": "Rua Ana Isabel da Conceição",
        "zipcode": "64607-180"
    },
    {
        "city": "Picos",
        "state": "PI",
        "district": "Catavento",
        "street": "Rua Projetada 02",
        "zipcode": "64607-185"
    },
    {
        "city": "Picos",
        "state": "PI",
        "district": "Catavento",
        "street": "Rua Manoel de Sousa Santos",
        "zipcode": "64607-205"
    },
    {
        "city": "Picos",
        "state": "PI",
        "district": "Catavento",
        "street": "Rua Projetada 148",
        "zipcode": "64607-225"
    },
    {
        "city": "Picos",
        "state": "PI",
        "district": "Catavento",
        "street": "Travessa Jorge Leopoldo",
        "zipcode": "64607-235"
    },
    {
        "city": "Picos",
        "state": "PI",
        "district": "Catavento",
        "street": "Travessa Joaquim Jovino",
        "zipcode": "64607-245"
    },
    {
        "city": "Picos",
        "state": "PI",
        "district": "Catavento",
        "street": "Rua Projetada 60",
        "zipcode": "64607-260"
    },
    {
        "city": "Picos",
        "state": "PI",
        "district": "Catavento",
        "street": "Rua Projetada 04",
        "zipcode": "64607-265"
    },
    {
        "city": "Picos",
        "state": "PI",
        "district": "Catavento",
        "street": "Rua Jardim Paris",
        "zipcode": "64607-270"
    },
    {
        "city": "Picos",
        "state": "PI",
        "district": "Catavento",
        "street": "Rua Francisco Pereira",
        "zipcode": "64607-275"
    },
    {
        "city": "Picos",
        "state": "PI",
        "district": "Catavento",
        "street": "Rua Nossa Senhora Aparecida",
        "zipcode": "64607-285"
    },
    {
        "city": "Picos",
        "state": "PI",
        "district": "Catavento",
        "street": "Rua São Cristóvão",
        "zipcode": "64607-290"
    },
    {
        "city": "Picos",
        "state": "PI",
        "district": "DNER",
        "street": "Rua Professor Porfírio Bispo de Sousa",
        "zipcode": "64607-470"
    },
    {
        "city": "Picos",
        "state": "PI",
        "district": "DNER",
        "street": "Rua José Vicente",
        "zipcode": "64607-505"
    },
    {
        "city": "Picos",
        "state": "PI",
        "district": "DNER",
        "street": "Rua Projetada 154",
        "zipcode": "64607-535"
    },
    {
        "city": "Picos",
        "state": "PI",
        "district": "DNER",
        "street": "Rua Projetada 70",
        "zipcode": "64607-550"
    },
    {
        "city": "Picos",
        "state": "PI",
        "district": "DNER",
        "street": "Rua João Pessoa",
        "zipcode": "64607-460"
    },
    {
        "city": "Picos",
        "state": "PI",
        "district": "DNER",
        "street": "Rua Antonio Amâncio da Silva",
        "zipcode": "64607-500"
    },
    {
        "city": "Picos",
        "state": "PI",
        "district": "DNER",
        "street": "Rua João de Deus Carvalho",
        "zipcode": "64607-545"
    },
    {
        "city": "Picos",
        "state": "PI",
        "district": "Catavento",
        "street": "Rua Antonio Joaquim da Luz",
        "zipcode": "64607-190"
    },
    {
        "city": "Picos",
        "state": "PI",
        "district": "DNER",
        "street": "Rua João Custódio",
        "zipcode": "64607-465"
    },
    {
        "city": "Picos",
        "state": "PI",
        "district": "Boa Sorte",
        "street": "Rua Torquato Neto",
        "zipcode": "64607-073"
    },
    {
        "city": "Picos",
        "state": "PI",
        "district": "DNER",
        "street": "Rua Santa Isabel",
        "zipcode": "64607-560"
    },
    {
        "city": "Picos",
        "state": "PI",
        "district": "DNER",
        "street": "Rua Nossa Senhora das Dores",
        "zipcode": "64607-570"
    },
    {
        "city": "Picos",
        "state": "PI",
        "district": "Junco",
        "street": "Rua Projetada 375",
        "zipcode": "64607-640"
    },
    {
        "city": "Picos",
        "state": "PI",
        "district": "Junco",
        "street": "Rua da Independência",
        "zipcode": "64607-645"
    },
    {
        "city": "Picos",
        "state": "PI",
        "district": "Junco",
        "street": "Rua Cícero Duarte",
        "zipcode": "64607-670"
    },
    {
        "city": "Picos",
        "state": "PI",
        "district": "Paraibinha",
        "street": "Rua Projetada 195",
        "zipcode": "64606-465"
    },
    {
        "city": "Picos",
        "state": "PI",
        "district": "Paraibinha",
        "street": "Rua Projetada 198",
        "zipcode": "64606-480"
    },
    {
        "city": "Picos",
        "state": "PI",
        "district": "Paraibinha",
        "street": "Rua Projetada 199",
        "zipcode": "64606-490"
    },
    {
        "city": "Picos",
        "state": "PI",
        "district": "Bomba",
        "street": "Rua Hercílio Rocha",
        "zipcode": "64601-331"
    },
    {
        "city": "Picos",
        "state": "PI",
        "district": "Catavento",
        "street": "Rua Raimundo Castro Neiva",
        "zipcode": "64607-215"
    },
    {
        "city": "Picos",
        "state": "PI",
        "district": "Bomba",
        "street": "Rua Isidro Bezerra",
        "zipcode": "64601-334"
    },
    {
        "city": "Picos",
        "state": "PI",
        "district": "Catavento",
        "street": "Rua Anísio Balduíno",
        "zipcode": "64607-200"
    },
    {
        "city": "Picos",
        "state": "PI",
        "district": "DNER",
        "street": "Travessa Luis Pires",
        "zipcode": "64607-480"
    },
    {
        "city": "Picos",
        "state": "PI",
        "district": "DNER",
        "street": "Rua João Romão de Moura",
        "zipcode": "64607-475"
    },
    {
        "city": "Picos",
        "state": "PI",
        "district": "DNER",
        "street": "Rua das Oliveiras",
        "zipcode": "64607-540"
    },
    {
        "city": "Picos",
        "state": "PI",
        "district": "Parque de Exposição",
        "street": "Avenida Cícero Eduardo",
        "zipcode": "64608-042"
    },
    {
        "city": "Picos",
        "state": "PI",
        "district": "Parque de Exposição",
        "street": "Rua São João da Canabrava II",
        "zipcode": "64608-018"
    },
    {
        "city": "Picos",
        "state": "PI",
        "district": "Boa Sorte",
        "street": "Rua do Conceito",
        "zipcode": "64607-005"
    },
    {
        "city": "Picos",
        "state": "PI",
        "district": "Boa Sorte",
        "street": "Rua Boa Sorte",
        "zipcode": "64607-010"
    },
    {
        "city": "Picos",
        "state": "PI",
        "district": "Boa Sorte",
        "street": "Travessa José Armínio Fialho",
        "zipcode": "64607-020"
    },
    {
        "city": "Picos",
        "state": "PI",
        "district": "Boa Sorte",
        "street": "Travessa Afonso Aureliano Ferreira",
        "zipcode": "64607-035"
    },
    {
        "city": "Picos",
        "state": "PI",
        "district": "Boa Sorte",
        "street": "Rua Afonso Aureliano Ferreira",
        "zipcode": "64607-040"
    },
    {
        "city": "Picos",
        "state": "PI",
        "district": "Boa Sorte",
        "street": "Rua Ricardo Cassiano Dantas",
        "zipcode": "64607-050"
    },
    {
        "city": "Picos",
        "state": "PI",
        "district": "Boa Sorte",
        "street": "Travessa Piau",
        "zipcode": "64607-065"
    },
    {
        "city": "Picos",
        "state": "PI",
        "district": "Boa Sorte",
        "street": "Rua Projetada 01",
        "zipcode": "64607-070"
    },
    {
        "city": "Picos",
        "state": "PI",
        "district": "Boa Sorte",
        "street": "Rua Projetada 02",
        "zipcode": "64607-075"
    },
    {
        "city": "Picos",
        "state": "PI",
        "district": "Catavento",
        "street": "Rua Joaquim Jovino",
        "zipcode": "64607-240"
    },
    {
        "city": "Picos",
        "state": "PI",
        "district": "DNER",
        "street": "Rua Joaquim Jovino",
        "zipcode": "64607-495"
    },
    {
        "city": "Picos",
        "state": "PI",
        "district": "Catavento",
        "street": "Rua Ricardino Neiva",
        "zipcode": "64607-210"
    },
    {
        "city": "Picos",
        "state": "PI",
        "district": "DNER",
        "street": "Rua Ricardino Neiva",
        "zipcode": "64607-450"
    },
    {
        "city": "Picos",
        "state": "PI",
        "district": "Boa Sorte",
        "street": "Rua Marcos Parente",
        "zipcode": "64607-015"
    },
    {
        "city": "Picos",
        "state": "PI",
        "district": "DNER",
        "street": "Travessa Santo Antonio",
        "zipcode": "64607-525"
    },
    {
        "city": "Picos",
        "state": "PI",
        "district": "Catavento",
        "street": "Rua José Joaquim da Luz",
        "zipcode": "64607-315"
    },
    {
        "city": "Picos",
        "state": "PI",
        "district": "Paraibinha",
        "street": "Avenida Senador Helvídio Nunes",
        "zipcode": "64606-245"
    },
    {
        "city": "Picos",
        "state": "PI",
        "district": "Jardim Natal",
        "street": "Avenida Senador Helvídio Nunes",
        "zipcode": "64606-000"
    },
    {
        "city": "Picos",
        "state": "PI",
        "district": "Paraibinha",
        "street": "Avenida Piauí",
        "zipcode": "64606-410"
    },
    {
        "city": "Picos",
        "state": "PI",
        "district": "Parque Industrial",
        "street": "Rua Projetada 241",
        "zipcode": "64605-495"
    },
    {
        "city": "Picos",
        "state": "PI",
        "district": "Parque Industrial",
        "street": "Rua Cinco",
        "zipcode": "64605-435"
    },
    {
        "city": "Picos",
        "state": "PI",
        "district": "Parque Industrial",
        "street": "Rua do Distrito",
        "zipcode": "64605-440"
    },
    {
        "city": "Picos",
        "state": "PI",
        "district": "Jardim Natal",
        "street": "Rua Tenente Domerval Alves Moreno",
        "zipcode": "64606-030"
    },
    {
        "city": "Picos",
        "state": "PI",
        "district": "Jardim Natal",
        "street": "Rua Major Dirceu Batista de Sousa",
        "zipcode": "64606-040"
    },
    {
        "city": "Picos",
        "state": "PI",
        "district": "Jardim Natal",
        "street": "Rua José de Moura Monteiro",
        "zipcode": "64606-050"
    },
    {
        "city": "Picos",
        "state": "PI",
        "district": "Jardim Natal",
        "street": "Rua Projetada 101",
        "zipcode": "64606-110"
    },
    {
        "city": "Picos",
        "state": "PI",
        "district": "Jardim Natal",
        "street": "Avenida Major Pedro Rodrigues de Sousa Martins",
        "zipcode": "64606-150"
    },
    {
        "city": "Picos",
        "state": "PI",
        "district": "Paraibinha",
        "street": "Rua do Conjunto",
        "zipcode": "64606-275"
    },
    {
        "city": "Picos",
        "state": "PI",
        "district": "Paraibinha",
        "street": "Rua Manoel Silva",
        "zipcode": "64606-300"
    },
    {
        "city": "Picos",
        "state": "PI",
        "district": "Pedrinhas",
        "street": "Rua Luis de Sousa Aragão",
        "zipcode": "64605-130"
    },
    {
        "city": "Picos",
        "state": "PI",
        "district": "Pedrinhas",
        "street": "Rua Projetada 177",
        "zipcode": "64605-140"
    },
    {
        "city": "Picos",
        "state": "PI",
        "district": "Paraibinha",
        "street": "Quadra 03 (Conj Petrônio Portela)",
        "zipcode": "64606-320"
    },
    {
        "city": "Picos",
        "state": "PI",
        "district": "Paraibinha",
        "street": "Quadra 10 (Conj Petrônio Portela)",
        "zipcode": "64606-355"
    },
    {
        "city": "Picos",
        "state": "PI",
        "district": "Paraibinha",
        "street": "Rua Antonio Joaquim da Costa",
        "zipcode": "64606-305"
    },
    {
        "city": "Picos",
        "state": "PI",
        "district": "Paraibinha",
        "street": "Quadra 05 (Conj Petrônio Portela)",
        "zipcode": "64606-330"
    },
    {
        "city": "Picos",
        "state": "PI",
        "district": "Junco",
        "street": "Avenida Cícero Eduardo",
        "zipcode": "64607-675"
    },
    {
        "city": "Picos",
        "state": "PI",
        "district": "Paraibinha",
        "street": "Quadra 02 (Conj Petrônio Portela)",
        "zipcode": "64606-315"
    },
    {
        "city": "Picos",
        "state": "PI",
        "district": "Jardim Natal",
        "street": "Ramal Coronel Raimundo Alberto de Sousa Borges",
        "zipcode": "64606-060"
    },
    {
        "city": "Picos",
        "state": "PI",
        "district": "Jardim Natal",
        "street": "Rua Laurindo Rodrigues Neto",
        "zipcode": "64606-090"
    },
    {
        "city": "Picos",
        "state": "PI",
        "district": "Jardim Natal",
        "street": "Rua Dinorah Nunes Medeiros",
        "zipcode": "64606-070"
    },
    {
        "city": "Picos",
        "state": "PI",
        "district": "Paraibinha",
        "street": "Rua Joaquim Cesário",
        "zipcode": "64606-390"
    },
    {
        "city": "Picos",
        "state": "PI",
        "district": "Paraibinha",
        "street": "Quadra 04 (Conj Petrônio Portela)",
        "zipcode": "64606-325"
    },
    {
        "city": "Picos",
        "state": "PI",
        "district": "Paraibinha",
        "street": "Quadra 11 (Conj Petrônio Portela)",
        "zipcode": "64606-360"
    },
    {
        "city": "Picos",
        "state": "PI",
        "district": "Paraibinha",
        "street": "Rua Marcos Antonio Saraiva Varão",
        "zipcode": "64606-295"
    },
    {
        "city": "Picos",
        "state": "PI",
        "district": "Catavento",
        "street": "Rua José Antonio da Luz",
        "zipcode": "64607-305"
    },
    {
        "city": "Picos",
        "state": "PI",
        "district": "Paraibinha",
        "street": "Quadra 01 (Conj Petrônio Portela)",
        "zipcode": "64606-310"
    },
    {
        "city": "Picos",
        "state": "PI",
        "district": "Parque Industrial",
        "street": "Quadra 10 (Conj Waldemar M Santos)",
        "zipcode": "64605-490"
    },
    {
        "city": "Picos",
        "state": "PI",
        "district": "Parque Industrial",
        "street": "Quadra 09 (Conj Waldemar M Santos)",
        "zipcode": "64605-485"
    },
    {
        "city": "Picos",
        "state": "PI",
        "district": "Paraibinha",
        "street": "Rua Custódio Mendes de Sá",
        "zipcode": "64606-265"
    },
    {
        "city": "Picos",
        "state": "PI",
        "district": "Paraibinha",
        "street": "Quadra 12 (Conj Petrônio Portela)",
        "zipcode": "64606-365"
    },
    {
        "city": "Picos",
        "state": "PI",
        "district": "Paraibinha",
        "street": "Quadra 09 (Conj Petrônio Portela)",
        "zipcode": "64606-350"
    },
    {
        "city": "Picos",
        "state": "PI",
        "district": "DNER",
        "street": "Rua Joana Francisca de Sousa",
        "zipcode": "64607-490"
    },
    {
        "city": "Picos",
        "state": "PI",
        "district": "Catavento",
        "street": "Rua Francisco João dos Santos",
        "zipcode": "64607-295"
    },
    {
        "city": "Picos",
        "state": "PI",
        "district": "Paraibinha",
        "street": "Quadra 06 (Conj Petrônio Portela)",
        "zipcode": "64606-335"
    },
    {
        "city": "Picos",
        "state": "PI",
        "district": "Paraibinha",
        "street": "Rua Joaquim Evangelista",
        "zipcode": "64606-280"
    },
    {
        "city": "Picos",
        "state": "PI",
        "district": "Jardim Natal",
        "street": "Rua Carlos Alberto Pereira",
        "zipcode": "64606-020"
    },
    {
        "city": "Picos",
        "state": "PI",
        "district": "Paraibinha",
        "street": "Rua Torquato Neto",
        "zipcode": "64606-375"
    },
    {
        "city": "Picos",
        "state": "PI",
        "district": "Paraibinha",
        "street": "Quadra 07 (Conj Petrônio Portela)",
        "zipcode": "64606-340"
    },
    {
        "city": "Picos",
        "state": "PI",
        "district": "Parque Industrial",
        "street": "Rua Projetada 243",
        "zipcode": "64605-410"
    },
    {
        "city": "Picos",
        "state": "PI",
        "district": "Parque Industrial",
        "street": "Rua Projetada 242",
        "zipcode": "64605-415"
    },
    {
        "city": "Picos",
        "state": "PI",
        "district": "Parque Industrial",
        "street": "Rua Projetada 245",
        "zipcode": "64605-425"
    },
    {
        "city": "Picos",
        "state": "PI",
        "district": "Paraibinha",
        "street": "Avenida Doroteu Neres",
        "zipcode": "64606-405"
    },
    {
        "city": "Picos",
        "state": "PI",
        "district": "Paraibinha",
        "street": "Quadra 01 (Conj São João)",
        "zipcode": "64606-420"
    },
    {
        "city": "Picos",
        "state": "PI",
        "district": "Paraibinha",
        "street": "Quadra 02 (Conj São João)",
        "zipcode": "64606-425"
    },
    {
        "city": "Picos",
        "state": "PI",
        "district": "Paraibinha",
        "street": "Quadra 04 (Conj São João)",
        "zipcode": "64606-435"
    },
    {
        "city": "Picos",
        "state": "PI",
        "district": "Paraibinha",
        "street": "Rua Projetada 194",
        "zipcode": "64606-445"
    },
    {
        "city": "Picos",
        "state": "PI",
        "district": "Paraibinha",
        "street": "Rua Janduí Carneiro",
        "zipcode": "64606-450"
    },
    {
        "city": "Picos",
        "state": "PI",
        "district": "Paraibinha",
        "street": "Rua Mariano Nicolau",
        "zipcode": "64606-460"
    },
    {
        "city": "Picos",
        "state": "PI",
        "district": "Junco",
        "street": "Travessa Rui Barbosa",
        "zipcode": "64607-805"
    },
    {
        "city": "Picos",
        "state": "PI",
        "district": "Ipueiras",
        "street": "Conjunto Belo Horizonte",
        "zipcode": "64604-190"
    },
    {
        "city": "Picos",
        "state": "PI",
        "district": "Ipueiras",
        "street": "Rua Novo Horizonte",
        "zipcode": "64604-200"
    },
    {
        "city": "Picos",
        "state": "PI",
        "district": "Ipueiras",
        "street": "Travessa João Paulo II",
        "zipcode": "64604-220"
    },
    {
        "city": "Picos",
        "state": "PI",
        "district": "Ipueiras",
        "street": "Rua Projetada 129",
        "zipcode": "64604-250"
    },
    {
        "city": "Picos",
        "state": "PI",
        "district": "Ipueiras",
        "street": "Rua Projetada",
        "zipcode": "64604-260"
    },
    {
        "city": "Picos",
        "state": "PI",
        "district": "Ipueiras",
        "street": "Rua Projetada 49",
        "zipcode": "64604-300"
    },
    {
        "city": "Picos",
        "state": "PI",
        "district": "Ipueiras",
        "street": "Rua Projetada 50",
        "zipcode": "64604-310"
    },
    {
        "city": "Picos",
        "state": "PI",
        "district": "Ipueiras",
        "street": "Rua Beira Rio",
        "zipcode": "64604-320"
    },
    {
        "city": "Picos",
        "state": "PI",
        "district": "Ipueiras",
        "street": "Rua Projetada 257",
        "zipcode": "64604-330"
    },
    {
        "city": "Picos",
        "state": "PI",
        "district": "Ipueiras",
        "street": "Rua Josino Araújo",
        "zipcode": "64604-370"
    },
    {
        "city": "Picos",
        "state": "PI",
        "district": "Ipueiras",
        "street": "Rua Francisco José de Araújo",
        "zipcode": "64604-400"
    },
    {
        "city": "Picos",
        "state": "PI",
        "district": "Ipueiras",
        "street": "Rua Nossa Senhora Aparecida",
        "zipcode": "64604-420"
    },
    {
        "city": "Picos",
        "state": "PI",
        "district": "Ipueiras",
        "street": "Rua Projetada 212",
        "zipcode": "64604-450"
    },
    {
        "city": "Picos",
        "state": "PI",
        "district": "Ipueiras",
        "street": "Rua Juscelino Araújo",
        "zipcode": "64604-470"
    },
    {
        "city": "Picos",
        "state": "PI",
        "district": "Ipueiras",
        "street": "Travessa Beira Rio",
        "zipcode": "64604-480"
    },
    {
        "city": "Picos",
        "state": "PI",
        "district": "Ipueiras",
        "street": "Rua Joaquim Olegário",
        "zipcode": "64604-510"
    },
    {
        "city": "Picos",
        "state": "PI",
        "district": "Ipueiras",
        "street": "Rua Antonio Egídio",
        "zipcode": "64604-520"
    },
    {
        "city": "Picos",
        "state": "PI",
        "district": "Ipueiras",
        "street": "Travessa Antonio Egídio",
        "zipcode": "64604-530"
    },
    {
        "city": "Picos",
        "state": "PI",
        "district": "Ipueiras",
        "street": "Avenida Joaquim Evêncio",
        "zipcode": "64604-540"
    },
    {
        "city": "Picos",
        "state": "PI",
        "district": "Ipueiras",
        "street": "Rua Egídio Francisco da Luz",
        "zipcode": "64604-550"
    },
    {
        "city": "Picos",
        "state": "PI",
        "district": "Ipueiras",
        "street": "Vila Simão",
        "zipcode": "64604-560"
    },
    {
        "city": "Picos",
        "state": "PI",
        "district": "Pedrinhas",
        "street": "Rua Projetada 19",
        "zipcode": "64605-005"
    },
    {
        "city": "Picos",
        "state": "PI",
        "district": "Pedrinhas",
        "street": "Rua Ulisses Rocha",
        "zipcode": "64605-010"
    },
    {
        "city": "Picos",
        "state": "PI",
        "district": "Belo Norte",
        "street": "Rua XXXIII",
        "zipcode": "64603-140"
    },
    {
        "city": "Picos",
        "state": "PI",
        "district": "Belo Norte",
        "street": "Rua XXVII",
        "zipcode": "64603-150"
    },
    {
        "city": "Picos",
        "state": "PI",
        "district": "Belo Norte",
        "street": "Rua XXIX",
        "zipcode": "64603-160"
    },
    {
        "city": "Picos",
        "state": "PI",
        "district": "Boa Sorte",
        "street": "Rua José de Arimatéia Rocha",
        "zipcode": "64607-087"
    },
    {
        "city": "Picos",
        "state": "PI",
        "district": "Parque Industrial",
        "street": "Quadra 04 (Conj Waldemar M Santos)",
        "zipcode": "64605-460"
    },
    {
        "city": "Picos",
        "state": "PI",
        "district": "Ipueiras",
        "street": "Rua Cláudio Antonio da Luz",
        "zipcode": "64604-460"
    },
    {
        "city": "Picos",
        "state": "PI",
        "district": "Parque Industrial",
        "street": "Quadra 03 (Conj Waldemar M Santos)",
        "zipcode": "64605-455"
    },
    {
        "city": "Picos",
        "state": "PI",
        "district": "Paraibinha",
        "street": "Rua Maranhão",
        "zipcode": "64606-440"
    },
    {
        "city": "Picos",
        "state": "PI",
        "district": "Parque Industrial",
        "street": "Quadra 05 (Conj Waldemar M Santos)",
        "zipcode": "64605-465"
    },
    {
        "city": "Picos",
        "state": "PI",
        "district": "Paraibinha",
        "street": "Rua Marquês de Olinda",
        "zipcode": "64606-470"
    },
    {
        "city": "Picos",
        "state": "PI",
        "district": "Ipueiras",
        "street": "Rua João Claro",
        "zipcode": "64604-610"
    },
    {
        "city": "Picos",
        "state": "PI",
        "district": "Pedrinhas",
        "street": "Rua Vicente Galdino",
        "zipcode": "64605-000"
    },
    {
        "city": "Picos",
        "state": "PI",
        "district": "Belo Norte",
        "street": "Rua XXXII",
        "zipcode": "64603-175"
    },
    {
        "city": "Picos",
        "state": "PI",
        "district": "Ipueiras",
        "street": "Rua Projetada 56",
        "zipcode": "64604-030"
    },
    {
        "city": "Picos",
        "state": "PI",
        "district": "Ipueiras",
        "street": "Travessa Josino Araújo",
        "zipcode": "64604-060"
    },
    {
        "city": "Picos",
        "state": "PI",
        "district": "Pedrinhas",
        "street": "Rua José Gabriel",
        "zipcode": "64605-030"
    },
    {
        "city": "Picos",
        "state": "PI",
        "district": "Pedrinhas",
        "street": "Travessa Jorge Leopoldo",
        "zipcode": "64605-035"
    },
    {
        "city": "Picos",
        "state": "PI",
        "district": "Parque Industrial",
        "street": "Quadra 06 (Conj Waldemar M Santos)",
        "zipcode": "64605-470"
    },
    {
        "city": "Picos",
        "state": "PI",
        "district": "Paraibinha",
        "street": "Rua Joaquim Pedro Gonçalves",
        "zipcode": "64606-400"
    },
    {
        "city": "Picos",
        "state": "PI",
        "district": "Pedrinhas",
        "street": "Rua Olímpio Rodrigues",
        "zipcode": "64605-015"
    },
    {
        "city": "Picos",
        "state": "PI",
        "district": "Boa Sorte",
        "street": "Rua Eudóxia Dantas",
        "zipcode": "64607-025"
    },
    {
        "city": "Picos",
        "state": "PI",
        "district": "Ipueiras",
        "street": "Rua Manoel Pedro Almondes",
        "zipcode": "64604-620"
    },
    {
        "city": "Picos",
        "state": "PI",
        "district": "Paraibinha",
        "street": "Rua Cândido Nobre",
        "zipcode": "64606-475"
    },
    {
        "city": "Picos",
        "state": "PI",
        "district": "Parque Industrial",
        "street": "Quadra 01 (Conj Waldemar M Santos)",
        "zipcode": "64605-445"
    },
    {
        "city": "Picos",
        "state": "PI",
        "district": "Ipueiras",
        "street": "Travessa Manoel Pedro da Luz",
        "zipcode": "64604-600"
    },
    {
        "city": "Picos",
        "state": "PI",
        "district": "Ipueiras",
        "street": "Rua Pedro Reinério da Luz",
        "zipcode": "64604-590"
    },
    {
        "city": "Picos",
        "state": "PI",
        "district": "Pedrinhas",
        "street": "Beco Jorge Leopoldo",
        "zipcode": "64605-040"
    },
    {
        "city": "Picos",
        "state": "PI",
        "district": "Pedrinhas",
        "street": "Rua Jorge Leopoldo",
        "zipcode": "64605-060"
    },
    {
        "city": "Picos",
        "state": "PI",
        "district": "Pedrinhas",
        "street": "Rua São José",
        "zipcode": "64605-070"
    },
    {
        "city": "Picos",
        "state": "PI",
        "district": "Ipueiras",
        "street": "Rua Domingos da Rocha Soares",
        "zipcode": "64604-080"
    },
    {
        "city": "Picos",
        "state": "PI",
        "district": "Pedrinhas",
        "street": "Rua Adalgisa Francisca de Brito",
        "zipcode": "64605-045"
    },
    {
        "city": "Picos",
        "state": "PI",
        "district": "Bomba",
        "street": "Rua Projetada 335",
        "zipcode": "64601-403"
    },
    {
        "city": "Picos",
        "state": "PI",
        "district": "Bomba",
        "street": "Rua Dom Expedito Lopes",
        "zipcode": "64601-397"
    },
    {
        "city": "Picos",
        "state": "PI",
        "district": "São José",
        "street": "Rua Vital Brasil",
        "zipcode": "64601-297"
    },
    {
        "city": "Picos",
        "state": "PI",
        "district": "São José",
        "street": "Rua Santa Rosa",
        "zipcode": "64601-300"
    },
    {
        "city": "Picos",
        "state": "PI",
        "district": "São José",
        "street": "Travessa Petrônio Portela",
        "zipcode": "64601-303"
    },
    {
        "city": "Picos",
        "state": "PI",
        "district": "Bomba",
        "street": "Rua Tiradentes",
        "zipcode": "64601-316"
    },
    {
        "city": "Picos",
        "state": "PI",
        "district": "Bomba",
        "street": "Rua Dom Avelar",
        "zipcode": "64601-319"
    },
    {
        "city": "Picos",
        "state": "PI",
        "district": "Bomba",
        "street": "Rua São Benedito",
        "zipcode": "64601-343"
    },
    {
        "city": "Picos",
        "state": "PI",
        "district": "Bomba",
        "street": "Rua Estrada de Santos",
        "zipcode": "64601-361"
    },
    {
        "city": "Picos",
        "state": "PI",
        "district": "Bomba",
        "street": "Rua Vicente Baldoíno",
        "zipcode": "64601-364"
    },
    {
        "city": "Picos",
        "state": "PI",
        "district": "Bomba",
        "street": "Travessa Paulo Ferreira",
        "zipcode": "64601-379"
    },
    {
        "city": "Picos",
        "state": "PI",
        "district": "Bomba",
        "street": "Rua João Paulo II",
        "zipcode": "64601-388"
    },
    {
        "city": "Picos",
        "state": "PI",
        "district": "Bomba",
        "street": "Rua Projetada 06",
        "zipcode": "64601-415"
    },
    {
        "city": "Picos",
        "state": "PI",
        "district": "Morada do Sol",
        "street": "Rua Projetada 299",
        "zipcode": "64601-545"
    },
    {
        "city": "Picos",
        "state": "PI",
        "district": "Morada do Sol",
        "street": "Rua Projetada 289",
        "zipcode": "64601-548"
    },
    {
        "city": "Picos",
        "state": "PI",
        "district": "Belo Norte",
        "street": "Rua XII",
        "zipcode": "64603-005"
    },
    {
        "city": "Picos",
        "state": "PI",
        "district": "Belo Norte",
        "street": "Rua VIII",
        "zipcode": "64603-025"
    },
    {
        "city": "Picos",
        "state": "PI",
        "district": "Belo Norte",
        "street": "Rua V",
        "zipcode": "64603-040"
    },
    {
        "city": "Picos",
        "state": "PI",
        "district": "Belo Norte",
        "street": "Rua VI",
        "zipcode": "64603-045"
    },
    {
        "city": "Picos",
        "state": "PI",
        "district": "Belo Norte",
        "street": "Rua IV",
        "zipcode": "64603-050"
    },
    {
        "city": "Picos",
        "state": "PI",
        "district": "Belo Norte",
        "street": "Rua II",
        "zipcode": "64603-060"
    },
    {
        "city": "Picos",
        "state": "PI",
        "district": "Belo Norte",
        "street": "Rua XIII",
        "zipcode": "64603-070"
    },
    {
        "city": "Picos",
        "state": "PI",
        "district": "Belo Norte",
        "street": "Rua Nilza Azevedo Pereira",
        "zipcode": "64603-075"
    },
    {
        "city": "Picos",
        "state": "PI",
        "district": "Belo Norte",
        "street": "Rua XV",
        "zipcode": "64603-080"
    },
    {
        "city": "Picos",
        "state": "PI",
        "district": "Belo Norte",
        "street": "Rua XVI",
        "zipcode": "64603-085"
    },
    {
        "city": "Picos",
        "state": "PI",
        "district": "Belo Norte",
        "street": "Rua XX",
        "zipcode": "64603-110"
    },
    {
        "city": "Picos",
        "state": "PI",
        "district": "Belo Norte",
        "street": "Rua XXI",
        "zipcode": "64603-115"
    },
    {
        "city": "Picos",
        "state": "PI",
        "district": "Belo Norte",
        "street": "Rua XXII",
        "zipcode": "64603-120"
    },
    {
        "city": "Picos",
        "state": "PI",
        "district": "Belo Norte",
        "street": "Rua XXIII",
        "zipcode": "64603-125"
    },
    {
        "city": "Picos",
        "state": "PI",
        "district": "Bomba",
        "street": "Rua Coronel Raimundo Macedo",
        "zipcode": "64601-346"
    },
    {
        "city": "Picos",
        "state": "PI",
        "district": "Ipueiras",
        "street": "Alameda dos Pássaros",
        "zipcode": "64604-240"
    },
    {
        "city": "Picos",
        "state": "PI",
        "district": null,
        "street": "Av Cap Felipe Araujo Rocha",
        "zipcode": "64604-990"
    },
    {
        "city": "Picos",
        "state": "PI",
        "district": "Ipueiras",
        "street": "Rua Ducarmo Nunes",
        "zipcode": "64604-270"
    },
    {
        "city": "Picos",
        "state": "PI",
        "district": "Ipueiras",
        "street": "Rua Adalto Josino de Araújo",
        "zipcode": "64604-130"
    },
    {
        "city": "Picos",
        "state": "PI",
        "district": "Ipueiras",
        "street": "Rua José Matias da Silva",
        "zipcode": "64604-020"
    },
    {
        "city": "Picos",
        "state": "PI",
        "district": "Belo Norte",
        "street": "Rua Sinhazinha Nunes",
        "zipcode": "64603-055"
    },
    {
        "city": "Picos",
        "state": "PI",
        "district": "Pedrinhas",
        "street": "Quadra 05 (Conj Picos II)",
        "zipcode": "64605-100"
    },
    {
        "city": "Picos",
        "state": "PI",
        "district": "Belo Norte",
        "street": "Rua João Borges Leal",
        "zipcode": "64603-090"
    },
    {
        "city": "Picos",
        "state": "PI",
        "district": "Belo Norte",
        "street": "Rua Belo Horizonte",
        "zipcode": "64603-145"
    },
    {
        "city": "Picos",
        "state": "PI",
        "district": "Ipueiras",
        "street": "Rua Maria Alvina",
        "zipcode": "64604-290"
    },
    {
        "city": "Picos",
        "state": "PI",
        "district": "Pedrinhas",
        "street": "Rua José de Sousa Moura",
        "zipcode": "64605-150"
    },
    {
        "city": "Picos",
        "state": "PI",
        "district": "Ipueiras",
        "street": "Rua José Martins da Luz",
        "zipcode": "64604-350"
    },
    {
        "city": "Picos",
        "state": "PI",
        "district": "Ipueiras",
        "street": "Travessa Manoel Araújo",
        "zipcode": "64604-360"
    },
    {
        "city": "Picos",
        "state": "PI",
        "district": "Ipueiras",
        "street": "Rua Antonio Amâncio da Silva",
        "zipcode": "64604-050"
    },
    {
        "city": "Picos",
        "state": "PI",
        "district": "Pedrinhas",
        "street": "Rua Ursulino Cândido",
        "zipcode": "64605-055"
    },
    {
        "city": "Picos",
        "state": "PI",
        "district": "Ipueiras",
        "street": "Rua Manoel Batista de Sousa",
        "zipcode": "64604-180"
    },
    {
        "city": "Picos",
        "state": "PI",
        "district": "Belo Norte",
        "street": "Rua Joaquim Barbosa da Silva",
        "zipcode": "64603-170"
    },
    {
        "city": "Picos",
        "state": "PI",
        "district": "Pedrinhas",
        "street": "Rua General Licínio",
        "zipcode": "64605-065"
    },
    {
        "city": "Picos",
        "state": "PI",
        "district": "Belo Norte",
        "street": "Avenida Frei Damião",
        "zipcode": "64603-030"
    },
    {
        "city": "Picos",
        "state": "PI",
        "district": "Ipueiras",
        "street": "Avenida Anísio da Luz",
        "zipcode": "64604-090"
    },
    {
        "city": "Picos",
        "state": "PI",
        "district": "Pedrinhas",
        "street": "Quadra 04 (Conj Picos II)",
        "zipcode": "64605-095"
    },
    {
        "city": "Picos",
        "state": "PI",
        "district": "Belo Norte",
        "street": "Rua Manoel Casimiro Leal",
        "zipcode": "64603-020"
    },
    {
        "city": "Picos",
        "state": "PI",
        "district": "Parque Industrial",
        "street": "Rua Simão Sirineu Sousa Lima",
        "zipcode": "64605-400"
    },
    {
        "city": "Picos",
        "state": "PI",
        "district": "Pedrinhas",
        "street": "Quadra 06 (Conj Picos II)",
        "zipcode": "64605-105"
    },
    {
        "city": "Picos",
        "state": "PI",
        "district": "Ipueiras",
        "street": "Rua Professor Eliomar da Luz Moura",
        "zipcode": "64604-040"
    },
    {
        "city": "Picos",
        "state": "PI",
        "district": "Pedrinhas",
        "street": "Quadra 01 (Conj Picos II)",
        "zipcode": "64605-080"
    },
    {
        "city": "Picos",
        "state": "PI",
        "district": "Ipueiras",
        "street": "Rua Francisco de Araújo Moura",
        "zipcode": "64604-070"
    },
    {
        "city": "Picos",
        "state": "PI",
        "district": "Bomba",
        "street": "Rua José Carlos Pereira",
        "zipcode": "64601-310"
    },
    {
        "city": "Picos",
        "state": "PI",
        "district": "Bomba",
        "street": "Rua Dom Severino",
        "zipcode": "64601-406"
    },
    {
        "city": "Picos",
        "state": "PI",
        "district": "Bomba",
        "street": "Rua São Vicente",
        "zipcode": "64601-370"
    },
    {
        "city": "Picos",
        "state": "PI",
        "district": "Ipueiras",
        "street": "Rua Araújo Moura",
        "zipcode": "64604-120"
    },
    {
        "city": "Picos",
        "state": "PI",
        "district": "Altamira",
        "street": "Rodovia BR",
        "zipcode": "64602-000"
    },
    {
        "city": "Picos",
        "state": "PI",
        "district": "Morada do Sol",
        "street": "Rua São Jorge",
        "zipcode": "64601-566"
    },
    {
        "city": "Picos",
        "state": "PI",
        "district": "Morada do Sol",
        "street": "Rua Santa Helena",
        "zipcode": "64601-581"
    },
    {
        "city": "Picos",
        "state": "PI",
        "district": "Morada do Sol",
        "street": "Rua Cristo Rei",
        "zipcode": "64601-593"
    },
    {
        "city": "Picos",
        "state": "PI",
        "district": "São José",
        "street": "Rua Santo Inácio",
        "zipcode": "64601-222"
    },
    {
        "city": "Picos",
        "state": "PI",
        "district": "São José",
        "street": "Rua Jerusalém",
        "zipcode": "64601-252"
    },
    {
        "city": "Picos",
        "state": "PI",
        "district": "Bela Vista",
        "street": "Rua Pedro Evangelista",
        "zipcode": "64601-100"
    },
    {
        "city": "Picos",
        "state": "PI",
        "district": "Aerolândia",
        "street": "Rua Perimetral",
        "zipcode": "64601-206"
    },
    {
        "city": "Picos",
        "state": "PI",
        "district": "São José",
        "street": "Rua Perimetral",
        "zipcode": "64601-210"
    },
    {
        "city": "Picos",
        "state": "PI",
        "district": "São José",
        "street": "Rua Cristo Rei",
        "zipcode": "64601-249"
    },
    {
        "city": "Picos",
        "state": "PI",
        "district": "Bela Vista",
        "street": "Rua Elda Barbosa",
        "zipcode": "64601-160"
    },
    {
        "city": "Picos",
        "state": "PI",
        "district": "Aerolândia",
        "street": "Rua Elda Barbosa",
        "zipcode": "64601-173"
    },
    {
        "city": "Picos",
        "state": "PI",
        "district": "São José",
        "street": "Rua Eliseu Nunes",
        "zipcode": "64601-273"
    },
    {
        "city": "Picos",
        "state": "PI",
        "district": "Bela Vista",
        "street": "Rua Emir Maia Martins",
        "zipcode": "64601-075"
    },
    {
        "city": "Picos",
        "state": "PI",
        "district": "São José",
        "street": "Rua Dom Expedito Lopes",
        "zipcode": "64601-243"
    },
    {
        "city": "Picos",
        "state": "PI",
        "district": "Bela Vista",
        "street": "Rua Santa Filomena",
        "zipcode": "64601-090"
    },
    {
        "city": "Picos",
        "state": "PI",
        "district": "Paroquial",
        "street": "Rua Bahia II",
        "zipcode": "64601-012"
    },
    {
        "city": "Picos",
        "state": "PI",
        "district": "Paroquial",
        "street": "Rua Bahia III",
        "zipcode": "64601-014"
    },
    {
        "city": "Picos",
        "state": "PI",
        "district": "Paroquial",
        "street": "Rua da Cruz",
        "zipcode": "64601-016"
    },
    {
        "city": "Picos",
        "state": "PI",
        "district": "Paroquial",
        "street": "Rua Parnaíba",
        "zipcode": "64601-030"
    },
    {
        "city": "Picos",
        "state": "PI",
        "district": "São José",
        "street": "Rua Boa Vista",
        "zipcode": "64601-213"
    },
    {
        "city": "Picos",
        "state": "PI",
        "district": "São José",
        "street": "Rua Bela Vista",
        "zipcode": "64601-216"
    },
    {
        "city": "Picos",
        "state": "PI",
        "district": "São José",
        "street": "Travessa São João",
        "zipcode": "64601-231"
    },
    {
        "city": "Picos",
        "state": "PI",
        "district": "São José",
        "street": "Rua Petrônio Portela",
        "zipcode": "64601-240"
    },
    {
        "city": "Picos",
        "state": "PI",
        "district": "São José",
        "street": "Rua Nilo Araújo",
        "zipcode": "64601-270"
    },
    {
        "city": "Picos",
        "state": "PI",
        "district": "São José",
        "street": "Rua Deolino Rocha",
        "zipcode": "64601-285"
    },
    {
        "city": "Picos",
        "state": "PI",
        "district": "São José",
        "street": "Rua Pelé",
        "zipcode": "64601-291"
    },
    {
        "city": "Picos",
        "state": "PI",
        "district": "São José",
        "street": "Rua São João",
        "zipcode": "64601-294"
    },
    {
        "city": "Picos",
        "state": "PI",
        "district": "Bomba",
        "street": "Rua Coronel Joaquim Balduíno",
        "zipcode": "64601-352"
    },
    {
        "city": "Picos",
        "state": "PI",
        "district": "Bomba",
        "street": "Praça João Leopoldo",
        "zipcode": "64601-355"
    },
    {
        "city": "Picos",
        "state": "PI",
        "district": "Bomba",
        "street": "Rua Marcelino Mendes da Silva",
        "zipcode": "64601-412"
    },
    {
        "city": "Picos",
        "state": "PI",
        "district": "Bela Vista",
        "street": "Rua Projetada 270",
        "zipcode": "64601-085"
    },
    {
        "city": "Picos",
        "state": "PI",
        "district": "Bela Vista",
        "street": "Rua Cinco",
        "zipcode": "64601-135"
    },
    {
        "city": "Picos",
        "state": "PI",
        "district": "Bela Vista",
        "street": "Rua Projetada 201",
        "zipcode": "64601-155"
    },
    {
        "city": "Picos",
        "state": "PI",
        "district": "Aerolândia",
        "street": "Avenida Aerolândia",
        "zipcode": "64601-197"
    },
    {
        "city": "Picos",
        "state": "PI",
        "district": "Aerolândia",
        "street": "Avenida Diametral",
        "zipcode": "64601-200"
    },
    {
        "city": "Picos",
        "state": "PI",
        "district": "Boa Sorte",
        "street": "Rua Pascoal Gomes",
        "zipcode": "64607-060"
    },
    {
        "city": "Picos",
        "state": "PI",
        "district": "Fátima",
        "street": "Rua João Nunes",
        "zipcode": "64600-128"
    },
    {
        "city": "Picos",
        "state": "PI",
        "district": "Paroquial",
        "street": "Rua João XXIII",
        "zipcode": "64601-028"
    },
    {
        "city": "Picos",
        "state": "PI",
        "district": "Aerolândia",
        "street": "Rua São Jorge",
        "zipcode": "64601-170"
    },
    {
        "city": "Picos",
        "state": "PI",
        "district": "Bomba",
        "street": "Rua Osildo Albano",
        "zipcode": "64601-424"
    },
    {
        "city": "Picos",
        "state": "PI",
        "district": "Bomba",
        "street": "Rua Paulo de Tarso",
        "zipcode": "64601-427"
    },
    {
        "city": "Picos",
        "state": "PI",
        "district": "Bomba",
        "street": "Rua Adalto Holanda",
        "zipcode": "64601-418"
    },
    {
        "city": "Picos",
        "state": "PI",
        "district": "Bomba",
        "street": "Rua Cloves Avelino de Sousa",
        "zipcode": "64601-409"
    },
    {
        "city": "Picos",
        "state": "PI",
        "district": "Bela Vista",
        "street": "Rua José Rodrigues dos Santos",
        "zipcode": "64601-145"
    },
    {
        "city": "Picos",
        "state": "PI",
        "district": "Aerolândia",
        "street": "Rua José Rodrigues dos Santos",
        "zipcode": "64601-194"
    },
    {
        "city": "Picos",
        "state": "PI",
        "district": "Bomba",
        "street": "Rua José Antonio Veloso",
        "zipcode": "64601-421"
    },
    {
        "city": "Picos",
        "state": "PI",
        "district": "Ipueiras",
        "street": "Rua Alto da Boa Vista",
        "zipcode": "64604-327"
    },
    {
        "city": "Picos",
        "state": "PI",
        "district": "Bomba",
        "street": "Avenida Deputado Raimundo de Sá Urtiga",
        "zipcode": "64601-382"
    },
    {
        "city": "Picos",
        "state": "PI",
        "district": "Ipueiras",
        "street": "Rua Edilberto Araújo",
        "zipcode": "64604-142"
    },
    {
        "city": "Picos",
        "state": "PI",
        "district": "Morada do Sol",
        "street": "Rua João de Deus Filho",
        "zipcode": "64601-557"
    },
    {
        "city": "Picos",
        "state": "PI",
        "district": "Morada do Sol",
        "street": "Rua Lindo Johnson Alves Carneiro",
        "zipcode": "64601-539"
    },
    {
        "city": "Picos",
        "state": "PI",
        "district": "Bomba",
        "street": "Praça Doutor Antenor Neiva",
        "zipcode": "64601-391"
    },
    {
        "city": "Picos",
        "state": "PI",
        "district": "São José",
        "street": "Rua João de Deus Filho",
        "zipcode": "64601-282"
    },
    {
        "city": "Picos",
        "state": "PI",
        "district": "São José",
        "street": "Rua José Antonio Veloso",
        "zipcode": "64601-234"
    },
    {
        "city": "Picos",
        "state": "PI",
        "district": "São José",
        "street": "Rua Raimundo Paulino da Silva",
        "zipcode": "64601-264"
    },
    {
        "city": "Picos",
        "state": "PI",
        "district": "Bela Vista",
        "street": "Rua Rocha Furtado",
        "zipcode": "64601-065"
    },
    {
        "city": "Picos",
        "state": "PI",
        "district": "Paroquial",
        "street": "Rua Sobradinho I",
        "zipcode": "64601-032"
    },
    {
        "city": "Picos",
        "state": "PI",
        "district": "Bela Vista",
        "street": "Rua Sobradinho I",
        "zipcode": "64601-040"
    },
    {
        "city": "Picos",
        "state": "PI",
        "district": "São José",
        "street": "Rua São Vicente",
        "zipcode": "64601-219"
    },
    {
        "city": "Picos",
        "state": "PI",
        "district": "São José",
        "street": "Rua Coronel Luis Nunes",
        "zipcode": "64601-237"
    },
    {
        "city": "Picos",
        "state": "PI",
        "district": "Bela Vista",
        "street": "Rua Moacir Luz",
        "zipcode": "64601-060"
    },
    {
        "city": "Picos",
        "state": "PI",
        "district": "Bomba",
        "street": "Rua Araújo Moura",
        "zipcode": "64601-400"
    },
    {
        "city": "Picos",
        "state": "PI",
        "district": "São José",
        "street": "Rua Cassimiro Martins",
        "zipcode": "64601-276"
    },
    {
        "city": "Picos",
        "state": "PI",
        "district": "Morada do Sol",
        "street": "Rua Manoel Vieira da Silva",
        "zipcode": "64601-587"
    },
    {
        "city": "Picos",
        "state": "PI",
        "district": "Passagem das Pedras",
        "street": "Rua Joaquim Timóteo",
        "zipcode": "64600-379"
    },
    {
        "city": "Picos",
        "state": "PI",
        "district": "Passagem das Pedras",
        "street": "Rua Ernestino Bezerra Neto",
        "zipcode": "64600-388"
    },
    {
        "city": "Picos",
        "state": "PI",
        "district": "Passagem das Pedras",
        "street": "Rua Antonia Viana",
        "zipcode": "64600-406"
    },
    {
        "city": "Picos",
        "state": "PI",
        "district": "Passagem das Pedras",
        "street": "Rua José Viana",
        "zipcode": "64600-427"
    },
    {
        "city": "Picos",
        "state": "PI",
        "district": "Passagem das Pedras",
        "street": "Rua São José",
        "zipcode": "64600-436"
    },
    {
        "city": "Picos",
        "state": "PI",
        "district": "Passagem das Pedras",
        "street": "Travessa Joaquim Viana",
        "zipcode": "64600-439"
    },
    {
        "city": "Picos",
        "state": "PI",
        "district": "Boa Vista",
        "street": "Rua Projetada 270",
        "zipcode": "64600-526"
    },
    {
        "city": "Picos",
        "state": "PI",
        "district": "Boa Vista",
        "street": "Travessa Montreal",
        "zipcode": "64600-529"
    },
    {
        "city": "Picos",
        "state": "PI",
        "district": "São Sebastião",
        "street": "Rua Padre Madeira",
        "zipcode": "64600-352"
    },
    {
        "city": "Picos",
        "state": "PI",
        "district": "Passagem das Pedras",
        "street": "Travessa Pascoal",
        "zipcode": "64600-457"
    },
    {
        "city": "Picos",
        "state": "PI",
        "district": "Boa Vista",
        "street": "Travessa Pascoal",
        "zipcode": "64600-607"
    },
    {
        "city": "Picos",
        "state": "PI",
        "district": "Passagem das Pedras",
        "street": "Rua da Divisão",
        "zipcode": "64600-412"
    },
    {
        "city": "Picos",
        "state": "PI",
        "district": "Boa Vista",
        "street": "Rua da Divisão",
        "zipcode": "64600-520"
    },
    {
        "city": "Picos",
        "state": "PI",
        "district": "São Sebastião",
        "street": "Rua Francisco Prota",
        "zipcode": "64600-346"
    },
    {
        "city": "Picos",
        "state": "PI",
        "district": "São Sebastião",
        "street": "Rua Nossa Senhora dos Milagres",
        "zipcode": "64600-362"
    },
    {
        "city": "Picos",
        "state": "PI",
        "district": "Boa Vista",
        "street": "Rua Belo Horizonte",
        "zipcode": "64600-544"
    },
    {
        "city": "Picos",
        "state": "PI",
        "district": "Boa Vista",
        "street": "Rua São Raimundo",
        "zipcode": "64600-550"
    },
    {
        "city": "Picos",
        "state": "PI",
        "district": "Boa Vista",
        "street": "Rua Sebastião Francisco Nascimento",
        "zipcode": "64600-553"
    },
    {
        "city": "Picos",
        "state": "PI",
        "district": "Boa Vista",
        "street": "Rua Projetada 266",
        "zipcode": "64600-562"
    },
    {
        "city": "Picos",
        "state": "PI",
        "district": "Boa Vista",
        "street": "Rua Projetada 267",
        "zipcode": "64600-565"
    },
    {
        "city": "Picos",
        "state": "PI",
        "district": "Boa Vista",
        "street": "Rua Projetada 269",
        "zipcode": "64600-568"
    },
    {
        "city": "Picos",
        "state": "PI",
        "district": "Boa Vista",
        "street": "Rua João Martinho Leal",
        "zipcode": "64600-595"
    },
    {
        "city": "Picos",
        "state": "PI",
        "district": "Boa Vista",
        "street": "Rua Projetada 272",
        "zipcode": "64600-604"
    },
    {
        "city": "Picos",
        "state": "PI",
        "district": "Boa Vista",
        "street": "Rua Prajetada 05",
        "zipcode": "64600-616"
    },
    {
        "city": "Picos",
        "state": "PI",
        "district": "Paroquial",
        "street": "Rua da Romana",
        "zipcode": "64601-002"
    },
    {
        "city": "Picos",
        "state": "PI",
        "district": "Paroquial",
        "street": "Rua Piauí",
        "zipcode": "64601-004"
    },
    {
        "city": "Picos",
        "state": "PI",
        "district": "Paroquial",
        "street": "Rua Paraíba",
        "zipcode": "64601-008"
    },
    {
        "city": "Picos",
        "state": "PI",
        "district": "Bela Vista",
        "street": "Rua José Gomes Leal",
        "zipcode": "64601-070"
    },
    {
        "city": "Picos",
        "state": "PI",
        "district": "Boa Vista",
        "street": "Rua Projetada 273",
        "zipcode": "64600-532"
    },
    {
        "city": "Picos",
        "state": "PI",
        "district": "Boa Vista",
        "street": "Rua Castro Alves",
        "zipcode": "64600-538"
    },
    {
        "city": "Picos",
        "state": "PI",
        "district": "Passagem das Pedras",
        "street": "Conjunto Cidade de Deus",
        "zipcode": "64600-370"
    },
    {
        "city": "Picos",
        "state": "PI",
        "district": "Passagem das Pedras",
        "street": "Rua José Costa",
        "zipcode": "64600-445"
    },
    {
        "city": "Picos",
        "state": "PI",
        "district": "Boa Vista",
        "street": "Rua José Costa",
        "zipcode": "64600-586"
    },
    {
        "city": "Picos",
        "state": "PI",
        "district": "Passagem das Pedras",
        "street": "Rua São Luis",
        "zipcode": "64600-451"
    },
    {
        "city": "Picos",
        "state": "PI",
        "district": "Boa Vista",
        "street": "Rua São Luis",
        "zipcode": "64600-592"
    },
    {
        "city": "Picos",
        "state": "PI",
        "district": "Passagem das Pedras",
        "street": "Rua Zeca Timóteo",
        "zipcode": "64600-442"
    },
    {
        "city": "Picos",
        "state": "PI",
        "district": "Bela Vista",
        "street": "Rua Francisco Rodrigues de Sales",
        "zipcode": "64601-140"
    },
    {
        "city": "Picos",
        "state": "PI",
        "district": "Boa Vista",
        "street": "Rua Quatro de Julho",
        "zipcode": "64600-601"
    },
    {
        "city": "Picos",
        "state": "PI",
        "district": "Boa Vista",
        "street": "Rua Zeca Timóteo",
        "zipcode": "64600-583"
    },
    {
        "city": "Picos",
        "state": "PI",
        "district": "Malva",
        "street": "Rua Zuza Lino",
        "zipcode": "64600-330"
    },
    {
        "city": "Picos",
        "state": "PI",
        "district": "São Sebastião",
        "street": "Rua Zuza Lino",
        "zipcode": "64600-360"
    },
    {
        "city": "Picos",
        "state": "PI",
        "district": "São Sebastião",
        "street": "Rua Abílio Coelho",
        "zipcode": "64600-350"
    },
    {
        "city": "Picos",
        "state": "PI",
        "district": "Boa Vista",
        "street": "Rua Santa Edwiges",
        "zipcode": "64600-556"
    },
    {
        "city": "Picos",
        "state": "PI",
        "district": "Aerolândia",
        "street": "Rua Otacílio Antonio de Moura",
        "zipcode": "64601-179"
    },
    {
        "city": "Picos",
        "state": "PI",
        "district": "Bela Vista",
        "street": "Rua Sobradinho II",
        "zipcode": "64601-120"
    },
    {
        "city": "Picos",
        "state": "PI",
        "district": "Boa Vista",
        "street": "Travessa Dona Mundica",
        "zipcode": "64600-613"
    },
    {
        "city": "Picos",
        "state": "PI",
        "district": "Boa Vista",
        "street": "Rua Maria das Graças Costa",
        "zipcode": "64600-541"
    },
    {
        "city": "Picos",
        "state": "PI",
        "district": "Bela Vista",
        "street": "Rua José Avelino Bezerra",
        "zipcode": "64601-045"
    },
    {
        "city": "Picos",
        "state": "PI",
        "district": "Passagem das Pedras",
        "street": "Rua Antonio Costa",
        "zipcode": "64600-454"
    },
    {
        "city": "Picos",
        "state": "PI",
        "district": "São Sebastião",
        "street": "Rua Coronel Antonio Rodrigues",
        "zipcode": "64600-340"
    },
    {
        "city": "Picos",
        "state": "PI",
        "district": "Passagem das Pedras",
        "street": "Rua Antonio Viana",
        "zipcode": "64600-433"
    },
    {
        "city": "Picos",
        "state": "PI",
        "district": "Boa Vista",
        "street": "Rua Antonio Viana",
        "zipcode": "64600-574"
    },
    {
        "city": "Picos",
        "state": "PI",
        "district": "Malva",
        "street": "Avenida Beira Rio",
        "zipcode": "64600-332"
    },
    {
        "city": "Picos",
        "state": "PI",
        "district": "São Sebastião",
        "street": "Avenida Beira Rio",
        "zipcode": "64600-364"
    },
    {
        "city": "Picos",
        "state": "PI",
        "district": "Malva",
        "street": "Rua Carlos Marcílio",
        "zipcode": "64600-328"
    },
    {
        "city": "Picos",
        "state": "PI",
        "district": "São Sebastião",
        "street": "Rua Carlos Marcílio",
        "zipcode": "64600-358"
    },
    {
        "city": "Picos",
        "state": "PI",
        "district": "Centro",
        "street": "Travessa José de Sousa Moura",
        "zipcode": "64600-062"
    },
    {
        "city": "Picos",
        "state": "PI",
        "district": "Centro",
        "street": "Travessa Zuza Nunes",
        "zipcode": "64600-066"
    },
    {
        "city": "Picos",
        "state": "PI",
        "district": "Centro",
        "street": "Rua Joaquim Leitão",
        "zipcode": "64600-072"
    },
    {
        "city": "Picos",
        "state": "PI",
        "district": "Centro",
        "street": "Rua Firmino Rodrigues",
        "zipcode": "64600-078"
    },
    {
        "city": "Picos",
        "state": "PI",
        "district": "Centro",
        "street": "Travessa Urbano Eulálio",
        "zipcode": "64600-090"
    },
    {
        "city": "Picos",
        "state": "PI",
        "district": "Centro",
        "street": "Rua Santa Teresinha",
        "zipcode": "64600-092"
    },
    {
        "city": "Picos",
        "state": "PI",
        "district": "Centro",
        "street": "Rua Coronel Luiz dos Santos",
        "zipcode": "64600-094"
    },
    {
        "city": "Picos",
        "state": "PI",
        "district": "Fátima",
        "street": "Rua Francisco Pereira",
        "zipcode": "64600-132"
    },
    {
        "city": "Picos",
        "state": "PI",
        "district": "Fátima",
        "street": "Travessa Benedito Portela",
        "zipcode": "64600-136"
    },
    {
        "city": "Picos",
        "state": "PI",
        "district": "Passagem das Pedras",
        "street": "Praça Alberto Leopoldo",
        "zipcode": "64600-382"
    },
    {
        "city": "Picos",
        "state": "PI",
        "district": "Passagem das Pedras",
        "street": "Rua Expedito Cortez",
        "zipcode": "64600-400"
    },
    {
        "city": "Picos",
        "state": "PI",
        "district": "Centro",
        "street": "Rua Monsenhor Hipólito",
        "zipcode": "64600-104"
    },
    {
        "city": "Picos",
        "state": "PI",
        "district": "Canto da Varzea",
        "street": "Rua Monsenhor Hipólito",
        "zipcode": "64600-152"
    },
    {
        "city": "Picos",
        "state": "PI",
        "district": "Malva",
        "street": "Rua Monsenhor Hipólito",
        "zipcode": "64600-322"
    },
    {
        "city": "Picos",
        "state": "PI",
        "district": "Centro",
        "street": "Rua Frei Ibiapina",
        "zipcode": "64600-046"
    },
    {
        "city": "Picos",
        "state": "PI",
        "district": "Fátima",
        "street": "Rua Osvaldo Cruz",
        "zipcode": "64600-124"
    },
    {
        "city": "Picos",
        "state": "PI",
        "district": "Canto da Varzea",
        "street": "Rua Pedro Evangelista",
        "zipcode": "64600-140"
    },
    {
        "city": "Picos",
        "state": "PI",
        "district": "Centro",
        "street": "Rua do Cruzeiro",
        "zipcode": "64600-056"
    },
    {
        "city": "Picos",
        "state": "PI",
        "district": "Canto da Varzea",
        "street": "Rua Emir Maia Martins",
        "zipcode": "64600-174"
    },
    {
        "city": "Picos",
        "state": "PI",
        "district": "Fátima",
        "street": "Avenida Nossa Senhora de Fátima",
        "zipcode": "64600-138"
    },
    {
        "city": "Picos",
        "state": "PI",
        "district": "Malva",
        "street": "Avenida Nossa Senhora de Fátima",
        "zipcode": "64600-320"
    },
    {
        "city": "Picos",
        "state": "PI",
        "district": "Canto da Varzea",
        "street": "Rua Santa Filomena",
        "zipcode": "64600-172"
    },
    {
        "city": "Picos",
        "state": "PI",
        "district": "Centro",
        "street": "Rua Três de Maio",
        "zipcode": "64600-048"
    },
    {
        "city": "Picos",
        "state": "PI",
        "district": "Centro",
        "street": "Rua São Pedro",
        "zipcode": "64600-050"
    },
    {
        "city": "Picos",
        "state": "PI",
        "district": "Centro",
        "street": "Rua Coelho Rodrigues",
        "zipcode": "64600-054"
    },
    {
        "city": "Picos",
        "state": "PI",
        "district": "Canto da Varzea",
        "street": "Rua Celso Eulálio",
        "zipcode": "64600-150"
    },
    {
        "city": "Picos",
        "state": "PI",
        "district": "Canto da Varzea",
        "street": "Rua Joana Alves da Costa",
        "zipcode": "64600-164"
    },
    {
        "city": "Picos",
        "state": "PI",
        "district": "Canto da Varzea",
        "street": "Avenida Urbano Eulálio Filho",
        "zipcode": "64600-168"
    },
    {
        "city": "Picos",
        "state": "PI",
        "district": "Centro",
        "street": "Rua Nova Descoberta",
        "zipcode": "64600-034"
    },
    {
        "city": "Picos",
        "state": "PI",
        "district": "Centro",
        "street": "Rua Alto do Morro",
        "zipcode": "64600-036"
    },
    {
        "city": "Picos",
        "state": "PI",
        "district": "Centro",
        "street": "Rua Santiago",
        "zipcode": "64600-038"
    },
    {
        "city": "Picos",
        "state": "PI",
        "district": "Fátima",
        "street": "Rua Olavo Bilac",
        "zipcode": "64600-122"
    },
    {
        "city": "Picos",
        "state": "PI",
        "district": "Malva",
        "street": "Rua Olavo Bilac",
        "zipcode": "64600-316"
    },
    {
        "city": "Picos",
        "state": "PI",
        "district": "Canto da Varzea",
        "street": "Rua João Nunes",
        "zipcode": "64600-184"
    },
    {
        "city": "Picos",
        "state": "PI",
        "district": "Malva",
        "street": "Rua João Nunes",
        "zipcode": "64600-310"
    },
    {
        "city": "Picos",
        "state": "PI",
        "district": "Fátima",
        "street": "Rua João XXIII",
        "zipcode": "64600-126"
    },
    {
        "city": "Picos",
        "state": "PI",
        "district": "Malva",
        "street": "Rua João XXIII",
        "zipcode": "64600-312"
    },
    {
        "city": "Picos",
        "state": "PI",
        "district": "Canto da Varzea",
        "street": "Rua Rocha Furtado",
        "zipcode": "64600-176"
    },
    {
        "city": "Picos",
        "state": "PI",
        "district": "Centro",
        "street": "Rua São Sebastião",
        "zipcode": "64600-108"
    },
    {
        "city": "Picos",
        "state": "PI",
        "district": "Malva",
        "street": "Rua São Sebastião",
        "zipcode": "64600-326"
    },
    {
        "city": "Picos",
        "state": "PI",
        "district": "São Sebastião",
        "street": "Rua José de Barros Araújo",
        "zipcode": "64600-344"
    },
    {
        "city": "Picos",
        "state": "PI",
        "district": "Centro",
        "street": "Travessa São Vicente",
        "zipcode": "64600-040"
    },
    {
        "city": "Picos",
        "state": "PI",
        "district": "Centro",
        "street": "Rua São Vicente",
        "zipcode": "64600-058"
    },
    {
        "city": "Picos",
        "state": "PI",
        "district": "Canto da Varzea",
        "street": "Rua Zuza Lino",
        "zipcode": "64600-160"
    },
    {
        "city": "Picos",
        "state": "PI",
        "district": "Centro",
        "street": "Rua Marcos Parente",
        "zipcode": "64600-106"
    },
    {
        "city": "Picos",
        "state": "PI",
        "district": "Canto da Varzea",
        "street": "Rua Marcos Parente",
        "zipcode": "64600-154"
    },
    {
        "city": "Picos",
        "state": "PI",
        "district": "Canto da Varzea",
        "street": "Rua Moacir Luz",
        "zipcode": "64600-178"
    },
    {
        "city": "Picos",
        "state": "PI",
        "district": "Malva",
        "street": "Rua Coronel Antonio Rodrigues",
        "zipcode": "64600-318"
    },
    {
        "city": "Picos",
        "state": "PI",
        "district": "Passagem das Pedras",
        "street": "Rua Ernestina Sousa Vieira",
        "zipcode": "64600-385"
    },
    {
        "city": "Picos",
        "state": "PI",
        "district": "Canto da Varzea",
        "street": "Avenida Beira Rio",
        "zipcode": "64600-162"
    },
    {
        "city": "Picos",
        "state": "PI",
        "district": "Canto da Varzea",
        "street": "Rua Benedito Portela",
        "zipcode": "64600-182"
    },
    {
        "city": "Picos",
        "state": "PI",
        "district": "Centro",
        "street": "Rua Carlos Marcílio",
        "zipcode": "64600-110"
    },
    {
        "city": "Picos",
        "state": "PI",
        "district": "Canto da Varzea",
        "street": "Rua Carlos Marcílio",
        "zipcode": "64600-158"
    },
    {
        "city": "Picos",
        "state": "PI",
        "district": "Centro",
        "street": "Praça Félix Pachêco",
        "zipcode": "64600-082"
    },
    {
        "city": "Picos",
        "state": "PI",
        "district": "Boa Sorte",
        "street": "Avenida Senador Helvídio Nunes",
        "zipcode": "64607-085"
    },
    {
        "city": "Picos",
        "state": "PI",
        "district": "Catavento",
        "street": "Avenida Senador Helvídio Nunes",
        "zipcode": "64607-165"
    },
    {
        "city": "Picos",
        "state": "PI",
        "district": "DNER",
        "street": "Avenida Senador Helvídio Nunes",
        "zipcode": "64607-520"
    },
    {
        "city": "Picos",
        "state": "PI",
        "district": "Junco",
        "street": "Avenida Senador Helvídio Nunes",
        "zipcode": "64607-760"
    },
    {
        "city": "Picos",
        "state": "PI",
        "district": "Centro",
        "street": "Rua Padre Madeira",
        "zipcode": "64600-018"
    },
    {
        "city": "Picos",
        "state": "PI",
        "district": "Malva",
        "street": "Rua Osvaldo Cruz",
        "zipcode": "64600-314"
    },
    {
        "city": "Picos",
        "state": "PI",
        "district": "Parque de Exposição",
        "street": "Rua Coelho Neto",
        "zipcode": "64608-099"
    },
    {
        "city": "Picos",
        "state": "PI",
        "district": "Centro",
        "street": "Rua Francisco Prota",
        "zipcode": "64600-026"
    },
    {
        "city": "Picos",
        "state": "PI",
        "district": "Jardim Natal",
        "street": "Rua Capitão José Brito Freire",
        "zipcode": "64606-010"
    },
    {
        "city": "Picos",
        "state": "PI",
        "district": "Centro",
        "street": "Avenida Getúlio Vargas",
        "zipcode": "64600-002"
    },
    {
        "city": "Picos",
        "state": "PI",
        "district": "Centro",
        "street": "Rua Santo Antonio",
        "zipcode": "64600-004"
    },
    {
        "city": "Picos",
        "state": "PI",
        "district": "Centro",
        "street": "Rua São José",
        "zipcode": "64600-008"
    },
    {
        "city": "Picos",
        "state": "PI",
        "district": "Centro",
        "street": "Travessa Josino Araújo",
        "zipcode": "64600-020"
    },
    {
        "city": "Picos",
        "state": "PI",
        "district": "Centro",
        "street": "Rua São Conrado",
        "zipcode": "64600-030"
    },
    {
        "city": "Picos",
        "state": "PI",
        "district": "Catavento",
        "street": "Rua Antonio Tibúrcio",
        "zipcode": "64607-220"
    },
    {
        "city": "Picos",
        "state": "PI",
        "district": "Catavento",
        "street": "Rua Projetada 06",
        "zipcode": "64607-255"
    },
    {
        "city": "Picos",
        "state": "PI",
        "district": "Catavento",
        "street": "Rua Jardim da Infância",
        "zipcode": "64607-280"
    },
    {
        "city": "Picos",
        "state": "PI",
        "district": "DNER",
        "street": "Rua Antonio Carvalho",
        "zipcode": "64607-455"
    },
    {
        "city": "Picos",
        "state": "PI",
        "district": "Jardim Natal",
        "street": "Rua Projetada 102",
        "zipcode": "64606-100"
    },
    {
        "city": "Picos",
        "state": "PI",
        "district": "Jardim Natal",
        "street": "Avenida General Licinho Pereira Nunes",
        "zipcode": "64606-130"
    },
    {
        "city": "Picos",
        "state": "PI",
        "district": "Jardim Natal",
        "street": "Rua Coronel Joaquim Monteiro de Carvalho",
        "zipcode": "64606-140"
    },
    {
        "city": "Picos",
        "state": "PI",
        "district": "Paraibinha",
        "street": "Rua Projetada 222",
        "zipcode": "64606-250"
    },
    {
        "city": "Picos",
        "state": "PI",
        "district": "Conduru",
        "street": "Rua Projetada 88",
        "zipcode": "64608-375"
    },
    {
        "city": "Picos",
        "state": "PI",
        "district": "Parque de Exposição",
        "street": "Rua Santa Cruz do Piauí",
        "zipcode": "64608-087"
    },
    {
        "city": "Picos",
        "state": "PI",
        "district": "Ipueiras",
        "street": "Rua Joaquina Mendes",
        "zipcode": "64604-500"
    },
    {
        "city": "Picos",
        "state": "PI",
        "district": "Paraibinha",
        "street": "Rua Costa e Silva",
        "zipcode": "64606-285"
    },
    {
        "city": "Picos",
        "state": "PI",
        "district": "Paraibinha",
        "street": "Rua Projetada 183",
        "zipcode": "64606-380"
    },
    {
        "city": "Picos",
        "state": "PI",
        "district": "DNER",
        "street": "Rua Projetada 64",
        "zipcode": "64607-555"
    },
    {
        "city": "Picos",
        "state": "PI",
        "district": "Junco",
        "street": "Rua Salustiano Ferreira",
        "zipcode": "64607-650"
    },
    {
        "city": "Picos",
        "state": "PI",
        "district": "Junco",
        "street": "Rua Mário Martins",
        "zipcode": "64607-680"
    },
    {
        "city": "Picos",
        "state": "PI",
        "district": "Junco",
        "street": "Rua Miguel Lidiano",
        "zipcode": "64607-715"
    },
    {
        "city": "Picos",
        "state": "PI",
        "district": "Pedrinhas",
        "street": "Travessa São José",
        "zipcode": "64605-025"
    },
    {
        "city": "Picos",
        "state": "PI",
        "district": "Pedrinhas",
        "street": "Rua Projetada 163",
        "zipcode": "64605-050"
    },
    {
        "city": "Picos",
        "state": "PI",
        "district": "Pedrinhas",
        "street": "Rua Santa Rosa",
        "zipcode": "64605-075"
    },
    {
        "city": "Picos",
        "state": "PI",
        "district": "Parque Industrial",
        "street": "Rua Projetada 244",
        "zipcode": "64605-405"
    },
    {
        "city": "Picos",
        "state": "PI",
        "district": "Paraibinha",
        "street": "Quadra 03 (Conj São João)",
        "zipcode": "64606-430"
    },
    {
        "city": "Picos",
        "state": "PI",
        "district": "Paraibinha",
        "street": "Rua Projetada 197",
        "zipcode": "64606-455"
    },
    {
        "city": "Picos",
        "state": "PI",
        "district": "Boa Sorte",
        "street": "Avenida Tininha de Sá Urtiga",
        "zipcode": "64607-000"
    },
    {
        "city": "Picos",
        "state": "PI",
        "district": "Boa Sorte",
        "street": "Rua Francisco Dantas",
        "zipcode": "64607-030"
    },
    {
        "city": "Picos",
        "state": "PI",
        "district": "Junco",
        "street": "Rua Castro Alves",
        "zipcode": "64607-780"
    },
    {
        "city": "Picos",
        "state": "PI",
        "district": "Parque de Exposição",
        "street": "Avenida Piauí",
        "zipcode": "64608-000"
    },
    {
        "city": "Picos",
        "state": "PI",
        "district": "Parque de Exposição",
        "street": "Rua Salvador",
        "zipcode": "64608-015"
    },
    {
        "city": "Picos",
        "state": "PI",
        "district": "Parque de Exposição",
        "street": "Rua Francisco Maciel",
        "zipcode": "64608-039"
    },
    {
        "city": "Picos",
        "state": "PI",
        "district": "Junco",
        "street": "Rua Urbano Eulálio",
        "zipcode": "64607-815"
    },
    {
        "city": "Picos",
        "state": "PI",
        "district": "Centro",
        "street": "Rua Raimundo Duarte",
        "zipcode": "64600-086"
    },
    {
        "city": "Picos",
        "state": "PI",
        "district": "Centro",
        "street": "Praça Matias Olímpio",
        "zipcode": "64600-010"
    },
    {
        "city": "Picos",
        "state": "PI",
        "district": "Conduru",
        "street": "Rua Urbano Eulálio",
        "zipcode": "64608-400"
    },
    {
        "city": "Picos",
        "state": "PI",
        "district": "Centro",
        "street": "Rua Abílio Coelho",
        "zipcode": "64600-022"
    },
    {
        "city": "Picos",
        "state": "PI",
        "district": "Junco",
        "street": "Travessa Santo Antonio",
        "zipcode": "64607-765"
    },
    {
        "city": "Picos",
        "state": "PI",
        "district": "Parque Industrial",
        "street": "Rua Emídio Vieira da Silva",
        "zipcode": "64605-430"
    },
    {
        "city": "Picos",
        "state": "PI",
        "district": "Passagem das Pedras",
        "street": "Rua José Antonio Piau",
        "zipcode": "64600-405"
    },
    {
        "city": "Picos",
        "state": "PI",
        "district": "Centro",
        "street": "Praça Josino Ferreira",
        "zipcode": "64600-096"
    },
    {
        "city": "Picos",
        "state": "PI",
        "district": "Canto da Varzea",
        "street": "Rua Leôncio Barbosa da Silva",
        "zipcode": "64600-142"
    },
    {
        "city": "Picos",
        "state": "PI",
        "district": "Centro",
        "street": "Rua Coronel Antonio Rodrigues",
        "zipcode": "64600-028"
    },
    {
        "city": "Picos",
        "state": "PI",
        "district": "Centro",
        "street": "Travessa Antonio da Costa Moura",
        "zipcode": "64600-007"
    },
    {
        "city": "Picos",
        "state": "PI",
        "district": "Jardim Natal",
        "street": "Avenida Fernando Wilson Monteiro (Loteamento Residencial Eldorado)",
        "zipcode": "64606-065"
    },
    {
        "city": "Picos",
        "state": "PI",
        "district": "Jardim Natal",
        "street": "Avenida Manaira (Loteamento Residencial Eldorado)",
        "zipcode": "64606-062"
    },
    {
        "city": "Picos",
        "state": "PI",
        "district": "Jardim Natal",
        "street": "Rua Vale da Montanha (Loteamento Residencial Eldorado)",
        "zipcode": "64606-058"
    },
    {
        "city": "Picos",
        "state": "PI",
        "district": "Jardim Natal",
        "street": "Rua Pombal (Loteamento Residencial Eldorado)",
        "zipcode": "64606-055"
    },
    {
        "city": "Picos",
        "state": "PI",
        "district": "Jardim Natal",
        "street": "Rua Vista Serrana (Loteamento Residencial Eldorado)",
        "zipcode": "64606-048"
    },
    {
        "city": "Picos",
        "state": "PI",
        "district": "Jardim Natal",
        "street": "Rua Maringá (Loteamento Residencial Eldorado)",
        "zipcode": "64606-042"
    },
    {
        "city": "Picos",
        "state": "PI",
        "district": "Jardim Natal",
        "street": "Rua Guaribas (Loteamento Residencial Eldorado)",
        "zipcode": "64606-038"
    },
    {
        "city": "Picos",
        "state": "PI",
        "district": "Jardim Natal",
        "street": "Rua Gurgueia (Loteamento Residencial Eldorado)",
        "zipcode": "64606-035"
    },
    {
        "city": "Picos",
        "state": "PI",
        "district": "Jardim Natal",
        "street": "Rua Jequitibá (Loteamento Residencial Eldorado)",
        "zipcode": "64606-032"
    },
    {
        "city": "Picos",
        "state": "PI",
        "district": "Jardim Natal",
        "street": "Rua Maria de Jesus Moura (Loteamento Residencial Eldorado)",
        "zipcode": "64606-025"
    },
    {
        "city": "Picos",
        "state": "PI",
        "district": "Jardim Natal",
        "street": "Rua Jaboticabeira (Loteamento Residencial Eldorado)",
        "zipcode": "64606-018"
    },
    {
        "city": "Picos",
        "state": "PI",
        "district": "Jardim Natal",
        "street": "Rua Manoel Medeiros (Loteamento Residencial Eldorado)",
        "zipcode": "64606-015"
    },
    {
        "city": "Picos",
        "state": "PI",
        "district": "Jardim Natal",
        "street": "Rua Araguaia (Loteamento Residencial Eldorado)",
        "zipcode": "64606-012"
    },
    {
        "city": "Picos",
        "state": "PI",
        "district": "Jardim Natal",
        "street": "Rua Caiçara (Loteamento Residencial Eldorado)",
        "zipcode": "64606-008"
    },
    {
        "city": "Picos",
        "state": "PI",
        "district": "Ipueiras",
        "street": "Rua Maria Valzenir Leal Alves",
        "zipcode": "64604-640"
    },
    {
        "city": "Picos",
        "state": "PI",
        "district": "Ipueiras",
        "street": "Rua João Pereira Neto",
        "zipcode": "64604-630"
    },
    {
        "city": "Picos",
        "state": "PI",
        "district": "Ipueiras",
        "street": "Rua Pedro Anisio da Luz",
        "zipcode": "64604-265"
    },
    {
        "city": "Picos",
        "state": "PI",
        "district": "Ipueiras",
        "street": "Rua Expedita Luz",
        "zipcode": "64604-255"
    },
    {
        "city": "Picos",
        "state": "PI",
        "district": "Belo Norte",
        "street": "Rua Santa Ana",
        "zipcode": "64603-200"
    },
    {
        "city": "Picos",
        "state": "PI",
        "district": "Belo Norte",
        "street": "Rua Eloi Francisco",
        "zipcode": "64603-195"
    },
    {
        "city": "Picos",
        "state": "PI",
        "district": "Belo Norte",
        "street": "Rua São Francisco",
        "zipcode": "64603-215"
    },
    {
        "city": "Picos",
        "state": "PI",
        "district": "São José",
        "street": "Rua Santa Helena",
        "zipcode": "64601-258"
    },
    {
        "city": "Picos",
        "state": "PI",
        "district": "Paroquial",
        "street": "Rua Osvaldo Cruz",
        "zipcode": "64601-026"
    },
    {
        "city": "Picos",
        "state": "PI",
        "district": "Boa Vista",
        "street": "Rua Bárbara Leopoldo",
        "zipcode": "64600-559"
    },
    {
        "city": "Picos",
        "state": "PI",
        "district": "Boa Vista",
        "street": "Rua Eustáquio Lelis",
        "zipcode": "64600-577"
    },
    {
        "city": "Picos",
        "state": "PI",
        "district": "Paroquial",
        "street": "Rua Bahia I",
        "zipcode": "64601-010"
    },
    {
        "city": "Picos",
        "state": "PI",
        "district": "Boa Vista",
        "street": "Rua Projetada 271",
        "zipcode": "64600-535"
    },
    {
        "city": "Picos",
        "state": "PI",
        "district": "São José",
        "street": "Rua Moura Barbosa",
        "zipcode": "64601-288"
    },
    {
        "city": "Picos",
        "state": "PI",
        "district": "Ipueiras",
        "street": "Rua Projetada 202",
        "zipcode": "64604-280"
    },
    {
        "city": "Picos",
        "state": "PI",
        "district": "Ipueiras",
        "street": "Rua Antonio Carvalho",
        "zipcode": "64604-340"
    },
    {
        "city": "Picos",
        "state": "PI",
        "district": "Ipueiras",
        "street": "Rua Santa Helena",
        "zipcode": "64604-430"
    },
    {
        "city": "Picos",
        "state": "PI",
        "district": "Bela Vista",
        "street": "Rua Projetada 271",
        "zipcode": "64601-080"
    },
    {
        "city": "Picos",
        "state": "PI",
        "district": "Bela Vista",
        "street": "Rua Guarani I",
        "zipcode": "64601-105"
    },
    {
        "city": "Picos",
        "state": "PI",
        "district": "Bela Vista",
        "street": "Rua Projetada 304",
        "zipcode": "64601-115"
    },
    {
        "city": "Picos",
        "state": "PI",
        "district": "Aerolândia",
        "street": "Rua da Chesf",
        "zipcode": "64601-176"
    },
    {
        "city": "Picos",
        "state": "PI",
        "district": "Belo Norte",
        "street": "Rua VII",
        "zipcode": "64603-035"
    },
    {
        "city": "Picos",
        "state": "PI",
        "district": "Belo Norte",
        "street": "Rua I",
        "zipcode": "64603-065"
    },
    {
        "city": "Picos",
        "state": "PI",
        "district": "Belo Norte",
        "street": "Rua XVIII",
        "zipcode": "64603-100"
    },
    {
        "city": "Picos",
        "state": "PI",
        "district": "Belo Norte",
        "street": "Rua XIX",
        "zipcode": "64603-105"
    },
    {
        "city": "Picos",
        "state": "PI",
        "district": "Belo Norte",
        "street": "Rua XXV",
        "zipcode": "64603-135"
    },
    {
        "city": "Picos",
        "state": "PI",
        "district": "Belo Norte",
        "street": "Rua XXVIII",
        "zipcode": "64603-155"
    },
    {
        "city": "Picos",
        "state": "PI",
        "district": "Bela Vista",
        "street": "Rua São Jorge",
        "zipcode": "64601-150"
    },
    {
        "city": "Picos",
        "state": "PI",
        "district": "São José",
        "street": "Rua São Jorge",
        "zipcode": "64601-267"
    },
    {
        "city": "Picos",
        "state": "PI",
        "district": "São José",
        "street": "Rua José Carlos Pereira",
        "zipcode": "64601-306"
    },
    {
        "city": "Picos",
        "state": "PI",
        "district": "São José",
        "street": "Rua Dom Severino",
        "zipcode": "64601-246"
    },
    {
        "city": "Picos",
        "state": "PI",
        "district": "Morada do Sol",
        "street": "Rua Dom Severino",
        "zipcode": "64601-530"
    },
    {
        "city": "Picos",
        "state": "PI",
        "district": "São José",
        "street": "Rua Socorro Veloso",
        "zipcode": "64601-255"
    },
    {
        "city": "Picos",
        "state": "PI",
        "district": "Bomba",
        "street": "Travessa São Vicente",
        "zipcode": "64601-322"
    },
    {
        "city": "Picos",
        "state": "PI",
        "district": "Bomba",
        "street": "Rua Coronel Luis Nunes",
        "zipcode": "64601-394"
    },
    {
        "city": "Picos",
        "state": "PI",
        "district": "Ipueiras",
        "street": "Rua Coronel Luis Nunes",
        "zipcode": "64604-100"
    },
    {
        "city": "Picos",
        "state": "PI",
        "district": "Bomba",
        "street": "Rua Professora Marieta Nunes",
        "zipcode": "64601-367"
    },
    {
        "city": "Picos",
        "state": "PI",
        "district": "Ipueiras",
        "street": "Rua Professora Marieta Nunes",
        "zipcode": "64604-230"
    },
    {
        "city": "Picos",
        "state": "PI",
        "district": "Boa Vista",
        "street": "Rua Antonio Costa",
        "zipcode": "64600-598"
    },
    {
        "city": "Picos",
        "state": "PI",
        "district": "Bela Vista",
        "street": "Rua Benedito Portela",
        "zipcode": "64601-050"
    },
    {
        "city": "Picos",
        "state": "PI",
        "district": "Belo Norte",
        "street": "Rodovia BR",
        "zipcode": "64603-000"
    },
    {
        "city": "Picos",
        "state": "PI",
        "district": "Aerolândia",
        "street": "Rua Maria José Rodrigues Martins",
        "zipcode": "64601-190"
    },
    {
        "city": "Picos",
        "state": "PI",
        "district": "Aerolândia",
        "street": "Rua Evangelina Maria Martins",
        "zipcode": "64601-186"
    },
    {
        "city": "Picos",
        "state": "PI",
        "district": "Aerolândia",
        "street": "Rua Alcides Rodrigues Martins",
        "zipcode": "64601-180"
    },
    {
        "city": "Picos",
        "state": "PI",
        "district": "Samambaia",
        "street": "Rua São Pedro",
        "zipcode": "64608-685"
    },
    {
        "city": "Picos",
        "state": "PI",
        "district": "Centro",
        "street": "Travessa Joaquim Santos",
        "zipcode": "64600-080"
    },
    {
        "city": "Picos",
        "state": "PI",
        "district": "Centro",
        "street": "Rua Coronel Francisco Santos",
        "zipcode": "64600-098"
    },
    {
        "city": "Picos",
        "state": "PI",
        "district": "Passagem das Pedras",
        "street": "Rua Joaquim Viana",
        "zipcode": "64600-403"
    },
    {
        "city": "Picos",
        "state": "PI",
        "district": "Passagem das Pedras",
        "street": "Travessa Joaquim Timóteo",
        "zipcode": "64600-448"
    },
    {
        "city": "Picos",
        "state": "PI",
        "district": "Junco",
        "street": "Avenida Senador Helvídio Nunes",
        "zipcode": "64607-755"
    },
    {
        "city": "Picos",
        "state": "PI",
        "district": "Canto da Varzea",
        "street": "Rua Hilda Policarpo",
        "zipcode": "64600-180"
    },
    {
        "city": "Picos",
        "state": "PI",
        "district": "Centro",
        "street": "Rua São Francisco",
        "zipcode": "64600-012"
    },
    {
        "city": "Picos",
        "state": "PI",
        "district": "São Sebastião",
        "street": "Rua São Francisco",
        "zipcode": "64600-354"
    },
    {
        "city": "Picos",
        "state": "PI",
        "district": "Conduru",
        "street": "Avenida Piauí",
        "zipcode": "64608-440"
    },
    {
        "city": "Picos",
        "state": "PI",
        "district": "Marcos de Sousa",
        "street": "Avenida Piauí",
        "zipcode": "64608-600"
    },
    {
        "city": "Picos",
        "state": "PI",
        "district": "Canto da Varzea",
        "street": "Avenida Nossa Senhora de Fátima",
        "zipcode": "64600-146"
    },
    {
        "city": "Picos",
        "state": "PI",
        "district": "Canto da Varzea",
        "street": "Avenida Nossa Senhora de Fátima",
        "zipcode": "64600-148"
    },
    {
        "city": "Picos",
        "state": "PI",
        "district": "Centro",
        "street": "Rua Santa Isabel I",
        "zipcode": "64600-042"
    },
    {
        "city": "Picos",
        "state": "PI",
        "district": "Canto da Varzea",
        "street": "Avenida Severo Eulálio",
        "zipcode": "64600-170"
    },
    {
        "city": "Picos",
        "state": "PI",
        "district": "Boa Vista",
        "street": "Rua Joaquim Holanda",
        "zipcode": "64600-547"
    },
    {
        "city": "Picos",
        "state": "PI",
        "district": "Centro",
        "street": "Rua Beira Rio",
        "zipcode": "64600-014"
    },
    {
        "city": "Picos",
        "state": "PI",
        "district": "Centro",
        "street": "Travessa Benedito Reinaldo",
        "zipcode": "64600-024"
    },
    {
        "city": "Picos",
        "state": "PI",
        "district": "Centro",
        "street": "Rua São Cristóvão",
        "zipcode": "64600-032"
    },
    {
        "city": "Picos",
        "state": "PI",
        "district": "Passagem das Pedras",
        "street": "Rua João Paulo II",
        "zipcode": "64600-373"
    },
    {
        "city": "Picos",
        "state": "PI",
        "district": "Parque de Exposição",
        "street": "Rua Fortaleza",
        "zipcode": "64608-114"
    },
    {
        "city": "Picos",
        "state": "PI",
        "district": "Paraibinha",
        "street": "Rua Mariano Costa",
        "zipcode": "64606-290"
    },
    {
        "city": "Picos",
        "state": "PI",
        "district": "Centro",
        "street": "Rua Coronel Raimundo Macedo",
        "zipcode": "64600-052"
    },
    {
        "city": "Picos",
        "state": "PI",
        "district": "Canto da Varzea",
        "street": "Rua Santa Rita",
        "zipcode": "64600-144"
    },
    {
        "city": "Picos",
        "state": "PI",
        "district": "Canto da Varzea",
        "street": "Rua São Sebastião",
        "zipcode": "64600-156"
    },
    {
        "city": "Picos",
        "state": "PI",
        "district": "Fátima",
        "street": "Rua Sete de Setembro",
        "zipcode": "64600-130"
    },
    {
        "city": "Picos",
        "state": "PI",
        "district": "Malva",
        "street": "Rua Marcos Parente",
        "zipcode": "64600-324"
    },
    {
        "city": "Picos",
        "state": "PI",
        "district": "Fátima",
        "street": "Rua Coronel Antonio Rodrigues",
        "zipcode": "64600-120"
    },
    {
        "city": "Picos",
        "state": "PI",
        "district": "Catavento",
        "street": "Rua Antônio Rodrigues de Sousa Nartins",
        "zipcode": "64607-300"
    },
    {
        "city": "Picos",
        "state": "PI",
        "district": "Catavento",
        "street": "Rua João de Moura Fé",
        "zipcode": "64607-310"
    },
    {
        "city": "Picos",
        "state": "PI",
        "district": "Samambaia",
        "street": "Rua São João Batista",
        "zipcode": "64608-680"
    },
    {
        "city": "Picos",
        "state": "PI",
        "district": "Samambaia",
        "street": "Rua Santa Clara",
        "zipcode": "64608-655"
    },
    {
        "city": "Picos",
        "state": "PI",
        "district": "Morada do Sol",
        "street": "Rua Luis Marcos da Costa",
        "zipcode": "64601-542"
    },
    {
        "city": "Picos",
        "state": "PI",
        "district": "Conduru",
        "street": "Rua Raimundo Nonato",
        "zipcode": "64608-350"
    },
    {
        "city": "Picos",
        "state": "PI",
        "district": "Centro",
        "street": "Praça Josino Ferreira",
        "zipcode": "64600-972"
    },
    {
        "city": "Picos",
        "state": "PI",
        "district": "Junco",
        "street": "Rua Isaías Coelho",
        "zipcode": "64607-775"
    },
    {
        "city": "Picos",
        "state": "PI",
        "district": "São Sebastião",
        "street": "Rua Raimundo Barros de Araújo",
        "zipcode": "64600-342"
    },
    {
        "city": "Picos",
        "state": "PI",
        "district": "Boa Sorte",
        "street": "Rua Primeiro de Maio",
        "zipcode": "64607-055"
    },
    {
        "city": "Picos",
        "state": "PI",
        "district": "Centro",
        "street": "Praça Josino Ferreira",
        "zipcode": "64600-970"
    },
    {
        "city": "Picos",
        "state": "PI",
        "district": "Parque de Exposição",
        "street": "Rua Francisco Bruno",
        "zipcode": "64608-021"
    },
    {
        "city": "Picos",
        "state": "PI",
        "district": "Ipueiras",
        "street": "Rua Passarela",
        "zipcode": "64604-000"
    },
    {
        "city": "Picos",
        "state": "PI",
        "district": "Paraibinha",
        "street": "Rua Maurílio Gomes Ibiapina",
        "zipcode": "64606-395"
    },
    {
        "city": "Picos",
        "state": "PI",
        "district": "Junco",
        "street": "Praça Matias Olímpio",
        "zipcode": "64607-770"
    },
    {
        "city": "Picos",
        "state": "PI",
        "district": "Bomba",
        "street": "Avenida Deputado Raimundo de Sá Urtiga",
        "zipcode": "64601-385"
    },
    {
        "city": "Picos",
        "state": "PI",
        "district": "Aerolândia",
        "street": "Rua Francisco Rodrigues de Sales",
        "zipcode": "64601-191"
    },
    {
        "city": "Picos",
        "state": "PI",
        "district": "Boa Vista",
        "street": "Travessa Horácio Antonio de Oliveira",
        "zipcode": "64600-610"
    },
    {
        "city": "Picos",
        "state": "PI",
        "district": "Ipueiras",
        "street": "Rua Professor Minoel Moreira Silva",
        "zipcode": "64604-175"
    },
    {
        "city": "Picos",
        "state": "PI",
        "district": "Jardim Natal",
        "street": "Rua José Batinga de Sousa",
        "zipcode": "64606-120"
    },
    {
        "city": "Picos",
        "state": "PI",
        "district": "Pedrinhas",
        "street": "Conjunto Sambaíba",
        "zipcode": "64605-145"
    },
    {
        "city": "Picos",
        "state": "PI",
        "district": "Belo Norte",
        "street": "Rua Cecília de Sousa Neri",
        "zipcode": "64603-130"
    },
    {
        "city": "Picos",
        "state": "PI",
        "district": "Parque de Exposição",
        "street": "Rua João Pessoa",
        "zipcode": "64608-123"
    },
    {
        "city": "Picos",
        "state": "PI",
        "district": null,
        "street": "BR",
        "zipcode": "64602-991"
    },
    {
        "city": "Picos",
        "state": "PI",
        "district": "Junco",
        "street": "Rua Joana Francisca de Sousa",
        "zipcode": "64607-630"
    },
    {
        "city": "Picos",
        "state": "PI",
        "district": "Passagem das Pedras",
        "street": "Rua Eliseu Pereira Bezerra",
        "zipcode": "64600-430"
    },
    {
        "city": "Picos",
        "state": "PI",
        "district": "Bomba",
        "street": "Rua Santa Luzia",
        "zipcode": "64601-373"
    },
    {
        "city": "Picos",
        "state": "PI",
        "district": "Samambaia",
        "street": "Rua João Alves",
        "zipcode": "64608-645"
    },
    {
        "city": "Picos",
        "state": "PI",
        "district": "Samambaia",
        "street": "Rua Ivonete Costa",
        "zipcode": "64608-640"
    },
    {
        "city": "Picos",
        "state": "PI",
        "district": "Samambaia",
        "street": "Rua Egídio de Oliveira",
        "zipcode": "64608-635"
    },
    {
        "city": "Picos",
        "state": "PI",
        "district": "Samambaia",
        "street": "Avenida Manoel Costa",
        "zipcode": "64608-620"
    },
    {
        "city": "Picos",
        "state": "PI",
        "district": "Samambaia",
        "street": "Avenida João Veloso",
        "zipcode": "64608-610"
    },
    {
        "city": "Picos",
        "state": "PI",
        "district": "Catavento",
        "street": "Loteamento Neiva",
        "zipcode": "64607-360"
    },
    {
        "city": "Picos",
        "state": "PI",
        "district": "Jardim Natal",
        "street": "Loteamento Jardim Natal",
        "zipcode": "64606-153"
    },
    {
        "city": "Picos",
        "state": "PI",
        "district": "Conduru",
        "street": "Loteamento São Judas Tadeu",
        "zipcode": "64608-475"
    },
    {
        "city": "Picos",
        "state": "PI",
        "district": "Conduru",
        "street": "Loteamento Parque Teresinha",
        "zipcode": "64608-470"
    },
    {
        "city": "Picos",
        "state": "PI",
        "district": "Conduru",
        "street": "Loteamento Oliveira",
        "zipcode": "64608-465"
    },
    {
        "city": "Picos",
        "state": "PI",
        "district": "Conduru",
        "street": "Loteamento Condurú",
        "zipcode": "64608-460"
    },
    {
        "city": "Picos",
        "state": "PI",
        "district": "Conduru",
        "street": "Loteamento Colinas",
        "zipcode": "64608-455"
    },
    {
        "city": "Picos",
        "state": "PI",
        "district": "Conduru",
        "street": "Loteamento Brasil",
        "zipcode": "64608-450"
    },
    {
        "city": "Picos",
        "state": "PI",
        "district": "Conduru",
        "street": "Loteamento Bom Sucesso",
        "zipcode": "64608-445"
    },
    {
        "city": "Picos",
        "state": "PI",
        "district": "Junco",
        "street": "Loteamento Raimundo Sá",
        "zipcode": "64607-854"
    },
    {
        "city": "Picos",
        "state": "PI",
        "district": "Junco",
        "street": "Loteamento Moura Fé",
        "zipcode": "64607-852"
    },
    {
        "city": "Picos",
        "state": "PI",
        "district": "Junco",
        "street": "Loteamento Justiniano Macêdo",
        "zipcode": "64607-848"
    },
    {
        "city": "Picos",
        "state": "PI",
        "district": "Junco",
        "street": "Loteamento João Gomes",
        "zipcode": "64607-846"
    },
    {
        "city": "Picos",
        "state": "PI",
        "district": "Junco",
        "street": "Loteamento Abraão Conrado Costa",
        "zipcode": "64607-842"
    },
    {
        "city": "Picos",
        "state": "PI",
        "district": "Samambaia",
        "street": "Avenida Manoel Cardoso da Silva",
        "zipcode": "64608-615"
    },
    {
        "city": "Picos",
        "state": "PI",
        "district": "Canto da Varzea",
        "street": "Rua Antônio Osmar de Deus",
        "zipcode": "64600-190"
    },
    {
        "city": "Picos",
        "state": "PI",
        "district": "Junco",
        "street": "Loteamento Kellyne",
        "zipcode": "64607-850"
    },
    {
        "city": "Picos",
        "state": "PI",
        "district": "DNER",
        "street": "Loteamento Jardim Itália",
        "zipcode": "64607-575"
    },
    {
        "city": "Picos",
        "state": "PI",
        "district": "Catavento",
        "street": "Loteamento Catavento",
        "zipcode": "64607-345"
    },
    {
        "city": "Picos",
        "state": "PI",
        "district": "Catavento",
        "street": "Loteamento Anderson Reis",
        "zipcode": "64607-340"
    },
    {
        "city": "Picos",
        "state": "PI",
        "district": "Catavento",
        "street": "Rua Zuza Baldoino (Morro da AABB)",
        "zipcode": "64607-335"
    },
    {
        "city": "Picos",
        "state": "PI",
        "district": "Catavento",
        "street": "Rua Sitonho Dantas (Morro da AABB)",
        "zipcode": "64607-330"
    },
    {
        "city": "Picos",
        "state": "PI",
        "district": "Boa Sorte",
        "street": "Loteamento Moura Barbosa",
        "zipcode": "64607-130"
    },
    {
        "city": "Picos",
        "state": "PI",
        "district": "Boa Sorte",
        "street": "Loteamento Bibio",
        "zipcode": "64607-120"
    },
    {
        "city": "Picos",
        "state": "PI",
        "district": "Boa Sorte",
        "street": "Loteamento Beira Rio",
        "zipcode": "64607-115"
    },
    {
        "city": "Picos",
        "state": "PI",
        "district": "Paraibinha",
        "street": "Loteamento Torres Formiga",
        "zipcode": "64606-580"
    },
    {
        "city": "Picos",
        "state": "PI",
        "district": "Paraibinha",
        "street": "Loteamento Sousa Martins",
        "zipcode": "64606-575"
    },
    {
        "city": "Picos",
        "state": "PI",
        "district": "Catavento",
        "street": "Loteamento Jardim Esperança",
        "zipcode": "64607-355"
    },
    {
        "city": "Picos",
        "state": "PI",
        "district": "Catavento",
        "street": "Rua Inácio Pereira de Sousa (Vila Jurani)",
        "zipcode": "64607-325"
    },
    {
        "city": "Picos",
        "state": "PI",
        "district": "Paraibinha",
        "street": "Loteamento Santo Antônio",
        "zipcode": "64606-565"
    },
    {
        "city": "Picos",
        "state": "PI",
        "district": "Paraibinha",
        "street": "Loteamento Panorama",
        "zipcode": "64606-560"
    },
    {
        "city": "Picos",
        "state": "PI",
        "district": "Paraibinha",
        "street": "Loteamento José Vicente",
        "zipcode": "64606-550"
    },
    {
        "city": "Picos",
        "state": "PI",
        "district": "Paraibinha",
        "street": "Loteamento José Costa",
        "zipcode": "64606-545"
    },
    {
        "city": "Picos",
        "state": "PI",
        "district": "Paraibinha",
        "street": "Loteamento Joaquim José da Costa",
        "zipcode": "64606-535"
    },
    {
        "city": "Picos",
        "state": "PI",
        "district": "Paraibinha",
        "street": "Loteamento Francisca Joaquina",
        "zipcode": "64606-525"
    },
    {
        "city": "Picos",
        "state": "PI",
        "district": "Paraibinha",
        "street": "Loteamento Elísio Barroso Carvalho",
        "zipcode": "64606-520"
    },
    {
        "city": "Picos",
        "state": "PI",
        "district": "Paraibinha",
        "street": "Loteamento Dona Iza",
        "zipcode": "64606-515"
    },
    {
        "city": "Picos",
        "state": "PI",
        "district": "Paraibinha",
        "street": "Loteamento Belo Jardim",
        "zipcode": "64606-505"
    },
    {
        "city": "Picos",
        "state": "PI",
        "district": "Alto da Boa Vista",
        "street": "Loteamento Joana Paula de Sousa",
        "zipcode": "64606-190"
    },
    {
        "city": "Picos",
        "state": "PI",
        "district": "Alto da Boa Vista",
        "street": "Loteamento Deputado Sá Urtiga",
        "zipcode": "64606-180"
    },
    {
        "city": "Picos",
        "state": "PI",
        "district": "Alto da Boa Vista",
        "street": "Loteamento Boa Vista",
        "zipcode": "64606-170"
    },
    {
        "city": "Picos",
        "state": "PI",
        "district": "Ipueiras",
        "street": "Avenida Beira Rio",
        "zipcode": "64604-010"
    },
    {
        "city": "Picos",
        "state": "PI",
        "district": "Pedrinhas",
        "street": "Rua São Francisco",
        "zipcode": "64605-135"
    },
    {
        "city": "Picos",
        "state": "PI",
        "district": "Alto da Boa Vista",
        "street": "Loteamento Bárbara Leopoldo",
        "zipcode": "64606-160"
    },
    {
        "city": "Picos",
        "state": "PI",
        "district": "Jardim Natal",
        "street": "Loteamento Potiguar",
        "zipcode": "64606-135"
    },
    {
        "city": "Picos",
        "state": "PI",
        "district": "Boa Sorte",
        "street": "Rua Filomeno Portela Richard",
        "zipcode": "64607-045"
    },
    {
        "city": "Picos",
        "state": "PI",
        "district": "Ipueiras",
        "street": "Rua Santo Agostinho",
        "zipcode": "64604-720"
    },
    {
        "city": "Picos",
        "state": "PI",
        "district": "Samambaia",
        "street": "Rua Maria Borges da Cruz",
        "zipcode": "64608-650"
    },
    {
        "city": "Picos",
        "state": "PI",
        "district": "Boa Sorte",
        "street": "Rua Francisca Santos Martins",
        "zipcode": "64607-105"
    },
    {
        "city": "Picos",
        "state": "PI",
        "district": "Catavento",
        "street": "Rua Maria Martins Neiva",
        "zipcode": "64607-175"
    },
    {
        "city": "Picos",
        "state": "PI",
        "district": "Boa Sorte",
        "street": "Mercado Odilon Monteiro de Carvalho",
        "zipcode": "64607-110"
    },
    {
        "city": "Picos",
        "state": "PI",
        "district": "Belo Norte",
        "street": "Rua Urbano Eulálio",
        "zipcode": "64603-320"
    },
    {
        "city": "Picos",
        "state": "PI",
        "district": "Belo Norte",
        "street": "Rua Zuza Lino",
        "zipcode": "64603-310"
    },
    {
        "city": "Picos",
        "state": "PI",
        "district": "Belo Norte",
        "street": "Rua Marcos Parente",
        "zipcode": "64603-290"
    },
    {
        "city": "Picos",
        "state": "PI",
        "district": "Belo Norte",
        "street": "Avenida Nossa Senhora de Fátima",
        "zipcode": "64603-260"
    },
    {
        "city": "Picos",
        "state": "PI",
        "district": "Belo Norte",
        "street": "Rua Santa Rita",
        "zipcode": "64603-250"
    },
    {
        "city": "Picos",
        "state": "PI",
        "district": "Jardim Natal",
        "street": "Avenida Pedro Marques de Medeiros",
        "zipcode": "64606-115"
    },
    {
        "city": "Picos",
        "state": "PI",
        "district": "Parque Industrial",
        "street": "Rua Olívia Morais Gomes (Lot. Flamboyant)",
        "zipcode": "64605-540"
    },
    {
        "city": "Picos",
        "state": "PI",
        "district": "Parque Industrial",
        "street": "Rua Maria Gil de Medeiros (Lot. Flamboyant)",
        "zipcode": "64605-535"
    },
    {
        "city": "Picos",
        "state": "PI",
        "district": "Parque Industrial",
        "street": "Rua Luis Gomes Araújo (Lot. Flamboyant)",
        "zipcode": "64605-530"
    },
    {
        "city": "Picos",
        "state": "PI",
        "district": "Parque Industrial",
        "street": "Rua Antônio Marques de Medeiros (Lot. Flamboyant)",
        "zipcode": "64605-525"
    },
    {
        "city": "Picos",
        "state": "PI",
        "district": "Parque Industrial",
        "street": "Rua Madeiros (Lot. Flamboyant)",
        "zipcode": "64605-520"
    },
    {
        "city": "Picos",
        "state": "PI",
        "district": "Paraibinha",
        "street": "Loteamento Cristo Rei",
        "zipcode": "64606-510"
    },
    {
        "city": "Picos",
        "state": "PI",
        "district": "Alto da Boa Vista",
        "street": "Loteamento João Martinho Leal",
        "zipcode": "64606-200"
    },
    {
        "city": "Picos",
        "state": "PI",
        "district": "Belo Norte",
        "street": "Rua São Sebastião",
        "zipcode": "64603-300"
    },
    {
        "city": "Picos",
        "state": "PI",
        "district": "Belo Norte",
        "street": "Rua Monsenhor Hipólito",
        "zipcode": "64603-280"
    },
    {
        "city": "Picos",
        "state": "PI",
        "district": "Pedrinhas",
        "street": "Loteamento Anísio João de Moura",
        "zipcode": "64605-155"
    },
    {
        "city": "Picos",
        "state": "PI",
        "district": "Ipueiras",
        "street": "Rua Expedito Luz (Lot. Samira)",
        "zipcode": "64604-705"
    },
    {
        "city": "Picos",
        "state": "PI",
        "district": "Ipueiras",
        "street": "Loteamento Ulisses Antônio da Luz",
        "zipcode": "64604-695"
    },
    {
        "city": "Picos",
        "state": "PI",
        "district": "Pedrinhas",
        "street": "Loteamento Ponta Dágua",
        "zipcode": "64605-165"
    },
    {
        "city": "Picos",
        "state": "PI",
        "district": "Ipueiras",
        "street": "Loteamento São Cristóvão",
        "zipcode": "64604-690"
    },
    {
        "city": "Picos",
        "state": "PI",
        "district": "Ipueiras",
        "street": "Loteamento Josino Araújo",
        "zipcode": "64604-685"
    },
    {
        "city": "Picos",
        "state": "PI",
        "district": "Ipueiras",
        "street": "Loteamento Jardim Fagueiro",
        "zipcode": "64604-670"
    },
    {
        "city": "Picos",
        "state": "PI",
        "district": "Ipueiras",
        "street": "Loteamento Francisca Maria",
        "zipcode": "64604-665"
    },
    {
        "city": "Picos",
        "state": "PI",
        "district": "Ipueiras",
        "street": "Loteamento Felipe Araújo",
        "zipcode": "64604-660"
    },
    {
        "city": "Picos",
        "state": "PI",
        "district": "Ipueiras",
        "street": "Loteamento Bela Vista",
        "zipcode": "64604-655"
    },
    {
        "city": "Picos",
        "state": "PI",
        "district": "Aroeiras",
        "street": "Residencial Chicuta",
        "zipcode": "64603-750"
    },
    {
        "city": "Picos",
        "state": "PI",
        "district": "Aroeiras",
        "street": "Loteamento Zeca Aprígio",
        "zipcode": "64603-740"
    },
    {
        "city": "Picos",
        "state": "PI",
        "district": "Aroeiras",
        "street": "Loteamento Tapera",
        "zipcode": "64603-730"
    },
    {
        "city": "Picos",
        "state": "PI",
        "district": "Aroeiras",
        "street": "Loteamento Borges",
        "zipcode": "64603-700"
    },
    {
        "city": "Picos",
        "state": "PI",
        "district": "Belo Norte",
        "street": "Loteamento Rui Barbosa II",
        "zipcode": "64603-360"
    },
    {
        "city": "Picos",
        "state": "PI",
        "district": "Belo Norte",
        "street": "Loteamento Belo Norte",
        "zipcode": "64603-350"
    },
    {
        "city": "Picos",
        "state": "PI",
        "district": "Belo Norte",
        "street": "Loteamento Antonieta Araújo",
        "zipcode": "64603-340"
    },
    {
        "city": "Picos",
        "state": "PI",
        "district": "São Sebastião",
        "street": "Rua Veneza",
        "zipcode": "64600-356"
    },
    {
        "city": "Picos",
        "state": "PI",
        "district": "Canto da Varzea",
        "street": "Rua Inês Santos",
        "zipcode": "64600-166"
    },
    {
        "city": "Picos",
        "state": "PI",
        "district": "Bomba",
        "street": "Rua São Cristóvão",
        "zipcode": "64601-313"
    },
    {
        "city": "Picos",
        "state": "PI",
        "district": "Morada do Sol",
        "street": "Rua Projetada 305",
        "zipcode": "64601-551"
    },
    {
        "city": "Picos",
        "state": "PI",
        "district": "DNER",
        "street": "Rua Projetada 153",
        "zipcode": "64607-530"
    },
    {
        "city": "Picos",
        "state": "PI",
        "district": "Paroquial",
        "street": "Rua Sete de Setembro",
        "zipcode": "64601-000"
    },
    {
        "city": "Picos",
        "state": "PI",
        "district": "Belo Norte",
        "street": "Travessa Emaús",
        "zipcode": "64603-240"
    },
    {
        "city": "Picos",
        "state": "PI",
        "district": "Belo Norte",
        "street": "Rua Maria Raimunda da Conceição",
        "zipcode": "64603-230"
    },
    {
        "city": "Picos",
        "state": "PI",
        "district": "Altamira",
        "street": "Loteamento Santa Amélia",
        "zipcode": "64602-004"
    },
    {
        "city": "Picos",
        "state": "PI",
        "district": "Altamira",
        "street": "Loteamento Manoel Casimiro",
        "zipcode": "64602-003"
    },
    {
        "city": "Picos",
        "state": "PI",
        "district": "Parque Industrial",
        "street": "Avenida Pedro Marques de Medeiros (cnj waldemar m santos)",
        "zipcode": "64605-500"
    },
    {
        "city": "Picos",
        "state": "PI",
        "district": "Aerolândia",
        "street": "Rua Maria Portela Costa",
        "zipcode": "64601-182"
    },
    {
        "city": "Picos",
        "state": "PI",
        "district": "Parque Industrial",
        "street": "Rua Amaro José Ribeiro (Lot. Flamboyant)",
        "zipcode": "64605-505"
    },
    {
        "city": "Picos",
        "state": "PI",
        "district": "Ipueiras",
        "street": "Rua Antonio Jacob da Luz",
        "zipcode": "64604-490"
    },
    {
        "city": "Picos",
        "state": "PI",
        "district": "Bela Vista",
        "street": "Rua Leôncio Barbosa da Silva",
        "zipcode": "64601-095"
    },
    {
        "city": "Picos",
        "state": "PI",
        "district": "Catavento",
        "street": "Travessa Luis Ramos",
        "zipcode": "64607-250"
    },
    {
        "city": "Picos",
        "state": "PI",
        "district": "Belo Norte",
        "street": "Rua Elizeu de Moura Rêgo",
        "zipcode": "64603-015"
    },
    {
        "city": "Picos",
        "state": "PI",
        "district": "São José",
        "street": "Avenida Deputado Raimundo de Sá Urtiga",
        "zipcode": "64601-228"
    },
    {
        "city": "Picos",
        "state": "PI",
        "district": "Boa Vista",
        "street": "Rua Airton Senna",
        "zipcode": "64600-580"
    },
    {
        "city": "Picos",
        "state": "PI",
        "district": "Paraibinha",
        "street": "Rua Presidente Kennedy",
        "zipcode": "64606-260"
    },
    {
        "city": "Picos",
        "state": "PI",
        "district": "Pedrinhas",
        "street": "Rua Justino Macedo",
        "zipcode": "64605-020"
    },
    {
        "city": "Picos",
        "state": "PI",
        "district": "Bomba",
        "street": "Praça Coração de Jesus",
        "zipcode": "64601-358"
    },
    {
        "city": "Picos",
        "state": "PI",
        "district": "Ipueiras",
        "street": "Avenida Capitão Felipe Araújo Rocha",
        "zipcode": "64604-380"
    },
    {
        "city": "Picos",
        "state": "PI",
        "district": "Junco",
        "street": "Rua Isidoro Araújo",
        "zipcode": "64607-690"
    },
    {
        "city": "Picos",
        "state": "PI",
        "district": "Altamira",
        "street": "Loteamento Flor da Terra",
        "zipcode": "64602-002"
    },
    {
        "city": "Picos",
        "state": "PI",
        "district": "Bomba",
        "street": "Travessa Bela Vista II",
        "zipcode": "64601-435"
    },
    {
        "city": "Picos",
        "state": "PI",
        "district": "Canto da Varzea",
        "street": "Rua Projetada 281",
        "zipcode": "64600-290"
    },
    {
        "city": "Picos",
        "state": "PI",
        "district": "Centro",
        "street": "Rua São Cosme",
        "zipcode": "64600-031"
    },
    {
        "city": "Picos",
        "state": "PI",
        "district": "Belo Norte",
        "street": "Rua Santa Luzia",
        "zipcode": "64603-270"
    },
    {
        "city": "Picos",
        "state": "PI",
        "district": "São José",
        "street": "Loteamento Jerusalém",
        "zipcode": "64601-308"
    },
    {
        "city": "Picos",
        "state": "PI",
        "district": "Aerolândia",
        "street": "Loteamento Jerusalém",
        "zipcode": "64601-208"
    },
    {
        "city": "Picos",
        "state": "PI",
        "district": "Aerolândia",
        "street": "Loteamento Aerolândia",
        "zipcode": "64601-207"
    },
    {
        "city": "Picos",
        "state": "PI",
        "district": "Passagem das Pedras",
        "street": "Loteamento Monteiro",
        "zipcode": "64600-486"
    },
    {
        "city": "Picos",
        "state": "PI",
        "district": "Passagem das Pedras",
        "street": "Loteamento Jesuíno Borges",
        "zipcode": "64600-483"
    },
    {
        "city": "Picos",
        "state": "PI",
        "district": "Passagem das Pedras",
        "street": "Loteamento Elizeu Pereira Bezerra",
        "zipcode": "64600-475"
    },
    {
        "city": "Picos",
        "state": "PI",
        "district": "Passagem das Pedras",
        "street": "Loteamento Claro Borges de Oliveira",
        "zipcode": "64600-472"
    },
    {
        "city": "Picos",
        "state": "PI",
        "district": "Ipueiras",
        "street": "Loteamento Jardim Primavera",
        "zipcode": "64604-680"
    },
    {
        "city": "Picos",
        "state": "PI",
        "district": "Aroeiras",
        "street": "Loteamento Capitão de Campos",
        "zipcode": "64603-710"
    },
    {
        "city": "Picos",
        "state": "PI",
        "district": "Aerolândia",
        "street": "Loteamento Sobradinho",
        "zipcode": "64601-209"
    },
    {
        "city": "Picos",
        "state": "PI",
        "district": "Passagem das Pedras",
        "street": "Loteamento Belo Sul",
        "zipcode": "64600-466"
    },
    {
        "city": "Picos",
        "state": "PI",
        "district": "Canto da Varzea",
        "street": "Rua João Barroso de Carvalho",
        "zipcode": "64600-285"
    },
    {
        "city": "Picos",
        "state": "PI",
        "district": "Canto da Varzea",
        "street": "Loteamento José Odilon",
        "zipcode": "64600-280"
    },
    {
        "city": "Picos",
        "state": "PI",
        "district": "Passagem das Pedras",
        "street": "Loteamento Alto Alegre",
        "zipcode": "64600-463"
    },
    {
        "city": "Picos",
        "state": "PI",
        "district": "Canto da Varzea",
        "street": "Loteamento São Miguel",
        "zipcode": "64600-275"
    },
    {
        "city": "Picos",
        "state": "PI",
        "district": "Canto da Varzea",
        "street": "Loteamento Raimundo Santos",
        "zipcode": "64600-270"
    },
    {
        "city": "Picos",
        "state": "PI",
        "district": "Canto da Varzea",
        "street": "Loteamento Paraíso",
        "zipcode": "64600-260"
    },
    {
        "city": "Picos",
        "state": "PI",
        "district": "Canto da Varzea",
        "street": "Loteamento Malvinas",
        "zipcode": "64600-255"
    },
    {
        "city": "Picos",
        "state": "PI",
        "district": "Canto da Varzea",
        "street": "Loteamento Josefa Ana de Sousa",
        "zipcode": "64600-250"
    },
    {
        "city": "Picos",
        "state": "PI",
        "district": "Canto da Varzea",
        "street": "Loteamento José Cipriano",
        "zipcode": "64600-245"
    },
    {
        "city": "Picos",
        "state": "PI",
        "district": "Canto da Varzea",
        "street": "Loteamento Ingazeira",
        "zipcode": "64600-235"
    },
    {
        "city": "Picos",
        "state": "PI",
        "district": "Canto da Varzea",
        "street": "Loteamento Guarany",
        "zipcode": "64600-230"
    },
    {
        "city": "Picos",
        "state": "PI",
        "district": "Canto da Varzea",
        "street": "Loteamento Francisco Sousa Santos",
        "zipcode": "64600-225"
    },
    {
        "city": "Picos",
        "state": "PI",
        "district": "Canto da Varzea",
        "street": "Loteamento Francisco Costa Araújo",
        "zipcode": "64600-220"
    },
    {
        "city": "Picos",
        "state": "PI",
        "district": "Canto da Varzea",
        "street": "Loteamento Edvaldo dos Santos Reinaldo",
        "zipcode": "64600-215"
    },
    {
        "city": "Picos",
        "state": "PI",
        "district": "Passagem das Pedras",
        "street": "Rua Ana Maria Bezerra",
        "zipcode": "64600-397"
    },
    {
        "city": "Picos",
        "state": "PI",
        "district": "Marcos de Sousa",
        "street": "Travessa Nicolau",
        "zipcode": "64608-605"
    },
    {
        "city": "Picos",
        "state": "PI",
        "district": "Parque de Exposição",
        "street": "Rua Inhuma",
        "zipcode": "64608-069"
    },
    {
        "city": "Picos",
        "state": "PI",
        "district": "Parque de Exposição",
        "street": "Avenida Manoel de Sousa Santos Neto",
        "zipcode": "64608-078"
    },
    {
        "city": "Picos",
        "state": "PI",
        "district": "Ipueiras",
        "street": "Rua da Paz",
        "zipcode": "64604-440"
    },
    {
        "city": "Picos",
        "state": "PI",
        "district": "Bomba",
        "street": "Rua Pascoal Santos",
        "zipcode": "64601-430"
    },
    {
        "city": "Picos",
        "state": "PI",
        "district": "Paraibinha",
        "street": "Rua Padre Cícero",
        "zipcode": "64606-270"
    },
    {
        "city": "Picos",
        "state": "PI",
        "district": "Junco",
        "street": "Rua Arão José Ferreira",
        "zipcode": "64607-750"
    },
    {
        "city": "Picos",
        "state": "PI",
        "district": "Parque de Exposição",
        "street": "Rua São João da Canabrava I",
        "zipcode": "64608-051"
    },
    {
        "city": "Picos",
        "state": "PI",
        "district": "Conduru",
        "street": "Rua Doutor Antenor Neiva",
        "zipcode": "64608-435"
    },
    {
        "city": "Picos",
        "state": "PI",
        "district": null,
        "street": "Av Piauí",
        "zipcode": "64608-990"
    },
    {
        "city": "Picos",
        "state": "PI",
        "district": "Canto da Varzea",
        "street": "Loteamento Corcovado",
        "zipcode": "64600-210"
    },
    {
        "city": "Picos",
        "state": "PI",
        "district": "Canto da Varzea",
        "street": "Loteamento Celso Eulálio",
        "zipcode": "64600-205"
    },
    {
        "city": "Picos",
        "state": "PI",
        "district": "Canto da Varzea",
        "street": "Loteamento Boa Esperança",
        "zipcode": "64600-200"
    },
    {
        "city": "Picos",
        "state": "PI",
        "district": "Canto da Varzea",
        "street": "Loteamento Antônio Borges",
        "zipcode": "64600-195"
    },
    {
        "city": "Picos",
        "state": "PI",
        "district": "Samambaia",
        "street": "Travessa Marcos de Sousa",
        "zipcode": "64608-700"
    },
    {
        "city": "Picos",
        "state": "PI",
        "district": "Catavento",
        "street": "Loteamento Parque Catavento",
        "zipcode": "64607-170"
    },
    {
        "city": "Picos",
        "state": "PI",
        "district": "Passagem das Pedras",
        "street": "Rua Salustiano Roberto de Sousa",
        "zipcode": "64600-409"
    },
    {
        "city": "Picos",
        "state": "PI",
        "district": "Conduru",
        "street": "Rua Pedro Evêncio",
        "zipcode": "64608-430"
    },
    {
        "city": "Picos",
        "state": "PI",
        "district": "São Sebastião",
        "street": "Rua São Raimundo",
        "zipcode": "64600-348"
    },
    {
        "city": "Picos",
        "state": "PI",
        "district": "Junco",
        "street": "Rua Pedro Evêncio",
        "zipcode": "64607-820"
    },
    {
        "city": "Picos",
        "state": "PI",
        "district": "Pedrinhas",
        "street": "Rua Gerson Guimarães",
        "zipcode": "64605-120"
    },
    {
        "city": "Picos",
        "state": "PI",
        "district": "Catavento",
        "street": "Travessa Elias Jeremias de Barros",
        "zipcode": "64607-320"
    },
    {
        "city": "Picos",
        "state": "PI",
        "district": "DNER",
        "street": "Rua Josefa Maria de Jesus",
        "zipcode": "64607-565"
    },
    {
        "city": "Picos",
        "state": "PI",
        "district": "Parque de Exposição",
        "street": "Rua Maceió",
        "zipcode": "64608-126"
    },
    {
        "city": "Picos",
        "state": "PI",
        "district": "Pedrinhas",
        "street": "Quadra 08 (Conj Picos II)",
        "zipcode": "64605-115"
    },
    {
        "city": "Picos",
        "state": "PI",
        "district": "Paraibinha",
        "street": "Rua Antonio Marques",
        "zipcode": "64606-495"
    },
    {
        "city": "Picos",
        "state": "PI",
        "district": "Pedrinhas",
        "street": "Rua do Juazeiro",
        "zipcode": "64605-170"
    },
    {
        "city": "Picos",
        "state": "PI",
        "district": "Belo Norte",
        "street": "Rua Maria Madalena",
        "zipcode": "64603-225"
    },
    {
        "city": "Picos",
        "state": "PI",
        "district": "Belo Norte",
        "street": "Rua João Gomes Lelis",
        "zipcode": "64603-190"
    },
    {
        "city": "Picos",
        "state": "PI",
        "district": "Passagem das Pedras",
        "street": "Loteamento Ernestino Bezerra",
        "zipcode": "64600-478"
    },
    {
        "city": "Picos",
        "state": "PI",
        "district": "Junco",
        "street": "Rua Isabel Antônia de Sousa",
        "zipcode": "64607-870"
    },
    {
        "city": "Picos",
        "state": "PI",
        "district": "Junco",
        "street": "Rua São Francisco de Assis",
        "zipcode": "64607-865"
    },
    {
        "city": "Picos",
        "state": "PI",
        "district": "Junco",
        "street": "Rua Luzia de Oliveira Santos",
        "zipcode": "64607-860"
    },
    {
        "city": "Picos",
        "state": "PI",
        "district": "Junco",
        "street": "Praça José Florêncio Fontes",
        "zipcode": "64607-856"
    },
    {
        "city": "Picos",
        "state": "PI",
        "district": "Catavento",
        "street": "Loteamento Padre Madeira",
        "zipcode": "64607-365"
    },
    {
        "city": "Picos",
        "state": "PI",
        "district": "Boa Sorte",
        "street": "Rua Osvania Barros",
        "zipcode": "64607-150"
    },
    {
        "city": "Picos",
        "state": "PI",
        "district": "Boa Sorte",
        "street": "Rua Bezerra do Mel",
        "zipcode": "64607-140"
    },
    {
        "city": "Picos",
        "state": "PI",
        "district": "Paraibinha",
        "street": "Loteamento José Carlos Teixeira",
        "zipcode": "64606-540"
    },
    {
        "city": "Picos",
        "state": "PI",
        "district": "Paraibinha",
        "street": "Rua Clementino Coêlho",
        "zipcode": "64606-500"
    },
    {
        "city": "Picos",
        "state": "PI",
        "district": "Jardim Natal",
        "street": "Loteamento Montevideu",
        "zipcode": "64606-145"
    },
    {
        "city": "Picos",
        "state": "PI",
        "district": "Jardim Natal",
        "street": "Loteamento Professor Chico Sá",
        "zipcode": "64606-125"
    },
    {
        "city": "Picos",
        "state": "PI",
        "district": "Jardim Natal",
        "street": "Rua Ceará",
        "zipcode": "64606-085"
    },
    {
        "city": "Picos",
        "state": "PI",
        "district": "Ipueiras",
        "street": "Rua Bentivi",
        "zipcode": "64604-760"
    },
    {
        "city": "Picos",
        "state": "PI",
        "district": "Ipueiras",
        "street": "Rua Canário",
        "zipcode": "64604-750"
    },
    {
        "city": "Picos",
        "state": "PI",
        "district": "Jardim Natal",
        "street": "Rua Maria Francisca da Conceição (Loteamento Residencial Eldorado)",
        "zipcode": "64606-022"
    },
    {
        "city": "Picos",
        "state": "PI",
        "district": "Ipueiras",
        "street": "Rua Antônio Felipe da Luz",
        "zipcode": "64604-210"
    },
    {
        "city": "Picos",
        "state": "PI",
        "district": "Boa Vista",
        "street": "Rua Geraldo Lelis",
        "zipcode": "64600-589"
    },
    {
        "city": "Picos",
        "state": "PI",
        "district": "Morada do Sol",
        "street": "Loteamento Louzinho Monteiro",
        "zipcode": "64601-615"
    },
    {
        "city": "Picos",
        "state": "PI",
        "district": "Ipueiras",
        "street": "Rua Sabiá",
        "zipcode": "64604-740"
    },
    {
        "city": "Picos",
        "state": "PI",
        "district": "Ipueiras",
        "street": "Rua Beija Flor",
        "zipcode": "64604-730"
    },
    {
        "city": "Picos",
        "state": "PI",
        "district": "Ipueiras",
        "street": "Rua Amariles (Lot. Santo Agostinho)",
        "zipcode": "64604-725"
    },
    {
        "city": "Picos",
        "state": "PI",
        "district": "Ipueiras",
        "street": "Rua Sagrado Coração de Jesus",
        "zipcode": "64604-710"
    },
    {
        "city": "Picos",
        "state": "PI",
        "district": "Ipueiras",
        "street": "Rua Nossa Senhora Aparecida (Lot. Santo Agostinho)",
        "zipcode": "64604-617"
    },
    {
        "city": "Picos",
        "state": "PI",
        "district": "Ipueiras",
        "street": "Rua Maria Jovina",
        "zipcode": "64604-555"
    },
    {
        "city": "Picos",
        "state": "PI",
        "district": "Ipueiras",
        "street": "Rua Fernando Henrique de Araújo de Sousa",
        "zipcode": "64604-375"
    },
    {
        "city": "Picos",
        "state": "PI",
        "district": "Ipueiras",
        "street": "Rua Isabel de Jesus Luz",
        "zipcode": "64604-365"
    },
    {
        "city": "Picos",
        "state": "PI",
        "district": "Ipueiras",
        "street": "Rua Martinho José de Araújo",
        "zipcode": "64604-225"
    },
    {
        "city": "Picos",
        "state": "PI",
        "district": "Belo Norte",
        "street": "Rua Professora Amélia de Lima Barros Silva",
        "zipcode": "64603-370"
    },
    {
        "city": "Picos",
        "state": "PI",
        "district": "Aerolândia",
        "street": "Rua Maria Luiza Fernandes",
        "zipcode": "64601-205"
    },
    {
        "city": "Picos",
        "state": "PI",
        "district": "Morada do Sol",
        "street": "Rua Agostinho José Pereira",
        "zipcode": "64601-596"
    },
    {
        "city": "Picos",
        "state": "PI",
        "district": "Paraibinha",
        "street": "Rua Presidente Epitácio Pessoa",
        "zipcode": "64606-415"
    },
    {
        "city": "Picos",
        "state": "PI",
        "district": "Belo Norte",
        "street": "Rua José Borges Leal",
        "zipcode": "64603-220"
    },
    {
        "city": "Picos",
        "state": "PI",
        "district": "Ipueiras",
        "street": "Loteamento Araújo Luz",
        "zipcode": "64604-650"
    },
    {
        "city": "Picos",
        "state": "PI",
        "district": "Morada do Sol",
        "street": "Rua Cassimiro Martins",
        "zipcode": "64601-560"
    },
    {
        "city": "Picos",
        "state": "PI",
        "district": "Morada do Sol",
        "street": "Rua Vereador Francisco Antonio da Luz",
        "zipcode": "64601-575"
    },
    {
        "city": "Picos",
        "state": "PI",
        "district": "Morada do Sol",
        "street": "Rua Socorro Veloso",
        "zipcode": "64601-584"
    },
    {
        "city": "Picos",
        "state": "PI",
        "district": "Morada do Sol",
        "street": "Rua Jerusalém",
        "zipcode": "64601-590"
    },
    {
        "city": "Picos",
        "state": "PI",
        "district": "Morada do Sol",
        "street": "Loteamento Luíza Gomes de Medeiros",
        "zipcode": "64601-620"
    },
    {
        "city": "Picos",
        "state": "PI",
        "district": "Parque Industrial",
        "street": "Quadra 07 (Conj Waldemar M Santos)",
        "zipcode": "64605-475"
    },
    {
        "city": "Picos",
        "state": "PI",
        "district": "Morada do Sol",
        "street": "Rua Francisca Maria de Moura",
        "zipcode": "64601-554"
    },
    {
        "city": "Picos",
        "state": "PI",
        "district": "Morada do Sol",
        "street": "Travessa Lindo Johnson Alves Carneiro",
        "zipcode": "64601-536"
    },
    {
        "city": "Picos",
        "state": "PI",
        "district": "Pedrinhas",
        "street": "Quadra 02 (Conj Picos II)",
        "zipcode": "64605-085"
    },
    {
        "city": "Picos",
        "state": "PI",
        "district": "Ipueiras",
        "street": "Rua João Francisco da Luz",
        "zipcode": "64604-570"
    },
    {
        "city": "Picos",
        "state": "PI",
        "district": "Passagem das Pedras",
        "street": "Travessa Francelina Maria Pereira Bezerra",
        "zipcode": "64600-424"
    },
    {
        "city": "Picos",
        "state": "PI",
        "district": "Aerolândia",
        "street": "Rua Professora Benvinda Nunes Santos",
        "zipcode": "64601-185"
    },
    {
        "city": "Picos",
        "state": "PI",
        "district": "Boa Sorte",
        "street": "Rua Doutora Zilda Arns",
        "zipcode": "64607-077"
    },
    {
        "city": "Picos",
        "state": "PI",
        "district": "Ipueiras",
        "street": "Rua Fernando Wilson Araújo Monteiro",
        "zipcode": "64604-144"
    },
    {
        "city": "Picos",
        "state": "PI",
        "district": "Ipueiras",
        "street": "Rua Hermínia Moura",
        "zipcode": "64604-410"
    },
    {
        "city": "Picos",
        "state": "PI",
        "district": "Paraibinha",
        "street": "Quadra 08 (Conj Petrônio Portela)",
        "zipcode": "64606-345"
    },
    {
        "city": "Picos",
        "state": "PI",
        "district": "Parque Industrial",
        "street": "Rua Vitalino Raimundo Florentino",
        "zipcode": "64605-545"
    },
    {
        "city": "Picos",
        "state": "PI",
        "district": "Morada do Sol",
        "street": "Quadra 45 (Cj Luiza G Medeiros)",
        "zipcode": "64601-632"
    },
    {
        "city": "Picos",
        "state": "PI",
        "district": "Morada do Sol",
        "street": "Quadra 52 (Cj Luiza G Medeiros)",
        "zipcode": "64601-640"
    },
    {
        "city": "Picos",
        "state": "PI",
        "district": "Morada do Sol",
        "street": "Quadra 74 (Cj Luiza G Medeiros)",
        "zipcode": "64601-668"
    },
    {
        "city": "Picos",
        "state": "PI",
        "district": "Morada do Sol",
        "street": "Quadra 78 (Cj Luiza G Medeiros)",
        "zipcode": "64601-671"
    },
    {
        "city": "Picos",
        "state": "PI",
        "district": "Morada do Sol",
        "street": "Rua Eliseu Nunes",
        "zipcode": "64601-563"
    },
    {
        "city": "Picos",
        "state": "PI",
        "district": "Morada do Sol",
        "street": "Loteamento José Carlos Pereira da Silva",
        "zipcode": "64601-610"
    },
    {
        "city": "Picos",
        "state": "PI",
        "district": "Morada do Sol",
        "street": "Quadra 56 (Cj Luiza G Medeiros)",
        "zipcode": "64601-648"
    },
    {
        "city": "Picos",
        "state": "PI",
        "district": "Junco",
        "street": "Rua José Batinga de Sousa",
        "zipcode": "64607-695"
    },
    {
        "city": "Picos",
        "state": "PI",
        "district": "Junco",
        "street": "Rua Maria dos Remédios Nogueira Barros",
        "zipcode": "64607-767"
    },
    {
        "city": "Picos",
        "state": "PI",
        "district": "Junco",
        "street": "Rua Rui Barbosa",
        "zipcode": "64607-835"
    },
    {
        "city": "Picos",
        "state": "PI",
        "district": "Morada do Sol",
        "street": "Rua Gilvani Borges Leal Gomes",
        "zipcode": "64601-578"
    },
    {
        "city": "Picos",
        "state": "PI",
        "district": "Morada do Sol",
        "street": "Quadra 54 (Cj Luiza G Medeiros)",
        "zipcode": "64601-644"
    },
    {
        "city": "Picos",
        "state": "PI",
        "district": "Morada do Sol",
        "street": "Conjunto Luiza Gomes de Medeiros",
        "zipcode": "64601-605"
    },
    {
        "city": "Picos",
        "state": "PI",
        "district": "Morada do Sol",
        "street": "Quadra 66 (Cj Luiza G Medeiros)",
        "zipcode": "64601-658"
    },
    {
        "city": "Picos",
        "state": "PI",
        "district": "Morada do Sol",
        "street": "Quadra 58 (Cj Luiza G Medeiros)",
        "zipcode": "64601-652"
    },
    {
        "city": "Picos",
        "state": "PI",
        "district": "Belo Norte",
        "street": "Rua Nilo Peçanha",
        "zipcode": "64603-210"
    },
    {
        "city": "Picos",
        "state": "PI",
        "district": "Belo Norte",
        "street": "Rua Rita Bonfim",
        "zipcode": "64603-185"
    },
    {
        "city": "Picos",
        "state": "PI",
        "district": "São José",
        "street": "Loteamento São José",
        "zipcode": "64601-309"
    },
    {
        "city": "Picos",
        "state": "PI",
        "district": "DNER",
        "street": "Rua Antonio de Carvalho",
        "zipcode": "64607-467"
    },
    {
        "city": "Picos",
        "state": "PI",
        "district": "Jardim Natal",
        "street": "Rua Coração de Jesus (Loteamento Residencial Eldorado)",
        "zipcode": "64606-072"
    },
    {
        "city": "Picos",
        "state": "PI",
        "district": "Jardim Natal",
        "street": "Rua Lagoa Seca (Loteamento Residencial Eldorado)",
        "zipcode": "64606-052"
    },
    {
        "city": "Picos",
        "state": "PI",
        "district": "Jardim Natal",
        "street": "Rua Joaquim Gomes (Loteamento Residencial Eldorado)",
        "zipcode": "64606-028"
    },
    {
        "city": "Picos",
        "state": "PI",
        "district": "Jardim Natal",
        "street": "Rua João Paulo II (Loteamento Residencial Eldorado)",
        "zipcode": "64606-005"
    },
    {
        "city": "Picos",
        "state": "PI",
        "district": "Belo Norte",
        "street": "Rua Albertino Isidório dos Santos",
        "zipcode": "64603-205"
    },
    {
        "city": "Picos",
        "state": "PI",
        "district": "Samambaia",
        "street": "Rua Santa Rita",
        "zipcode": "64608-670"
    },
    {
        "city": "Picos",
        "state": "PI",
        "district": "Samambaia",
        "street": "Rua Assembleia de Deus",
        "zipcode": "64608-625"
    },
    {
        "city": "Picos",
        "state": "PI",
        "district": "Jardim Natal",
        "street": "Avenida Marques de Medeiros (Loteamento Residencial Eldorado)",
        "zipcode": "64606-068"
    },
    {
        "city": "Picos",
        "state": "PI",
        "district": "Parque de Exposição",
        "street": "Loteamento Parque de Exposição",
        "zipcode": "64608-129"
    },
    {
        "city": "Picos",
        "state": "PI",
        "district": "Junco",
        "street": "Loteamento Januária Moura",
        "zipcode": "64607-844"
    },
    {
        "city": "Picos",
        "state": "PI",
        "district": "DNER",
        "street": "Loteamento Jardim Paris",
        "zipcode": "64607-580"
    },
    {
        "city": "Picos",
        "state": "PI",
        "district": "Catavento",
        "street": "Loteamento Francisco João dos Santos",
        "zipcode": "64607-350"
    },
    {
        "city": "Picos",
        "state": "PI",
        "district": "Boa Sorte",
        "street": "Loteamento Dantas",
        "zipcode": "64607-125"
    },
    {
        "city": "Picos",
        "state": "PI",
        "district": "Paraibinha",
        "street": "Loteamento São João",
        "zipcode": "64606-570"
    },
    {
        "city": "Picos",
        "state": "PI",
        "district": "Paraibinha",
        "street": "Loteamento Liberalino",
        "zipcode": "64606-555"
    },
    {
        "city": "Picos",
        "state": "PI",
        "district": "Paraibinha",
        "street": "Loteamento Guadalajara",
        "zipcode": "64606-530"
    },
    {
        "city": "Picos",
        "state": "PI",
        "district": "Alto da Boa Vista",
        "street": "Loteamento Salustiano Roberto de Sousa",
        "zipcode": "64606-210"
    },
    {
        "city": "Picos",
        "state": "PI",
        "district": "Jardim Natal",
        "street": "Loteamento Duas Barras",
        "zipcode": "64606-155"
    },
    {
        "city": "Picos",
        "state": "PI",
        "district": "Jardim Natal",
        "street": "Rua Desterro de Malta (Loteamento Residencial Eldorado)",
        "zipcode": "64606-078"
    },
    {
        "city": "Picos",
        "state": "PI",
        "district": "Parque Industrial",
        "street": "Rua Aquilino Marques de Medeiros (Lot. Flamboyant)",
        "zipcode": "64605-510"
    },
    {
        "city": "Picos",
        "state": "PI",
        "district": "Pedrinhas",
        "street": "Loteamento Pedrinhas",
        "zipcode": "64605-160"
    },
    {
        "city": "Picos",
        "state": "PI",
        "district": "Ipueiras",
        "street": "Loteamento Guaribas",
        "zipcode": "64604-700"
    },
    {
        "city": "Picos",
        "state": "PI",
        "district": "Ipueiras",
        "street": "Loteamento Jardim Ipueiras",
        "zipcode": "64604-675"
    },
    {
        "city": "Picos",
        "state": "PI",
        "district": "Ipueiras",
        "street": "Loteamento Almeida Guimarães",
        "zipcode": "64604-645"
    },
    {
        "city": "Picos",
        "state": "PI",
        "district": "Belo Norte",
        "street": "Travessa São Paulo",
        "zipcode": "64603-365"
    },
    {
        "city": "Picos",
        "state": "PI",
        "district": "Belo Norte",
        "street": "Rua Martim Germano dos Santos",
        "zipcode": "64603-330"
    },
    {
        "city": "Picos",
        "state": "PI",
        "district": "Altamira",
        "street": "Loteamento Altamira",
        "zipcode": "64602-001"
    },
    {
        "city": "Picos",
        "state": "PI",
        "district": "São José",
        "street": "Loteamento Eulálio Neto",
        "zipcode": "64601-307"
    },
    {
        "city": "Picos",
        "state": "PI",
        "district": "Passagem das Pedras",
        "street": "Loteamento Fortes",
        "zipcode": "64600-481"
    },
    {
        "city": "Picos",
        "state": "PI",
        "district": "Passagem das Pedras",
        "street": "Loteamento Central",
        "zipcode": "64600-469"
    },
    {
        "city": "Picos",
        "state": "PI",
        "district": "Passagem das Pedras",
        "street": "Loteamento Alberto Leopoldo",
        "zipcode": "64600-460"
    },
    {
        "city": "Picos",
        "state": "PI",
        "district": "Canto da Varzea",
        "street": "Loteamento Parque das Orquídeas",
        "zipcode": "64600-265"
    },
    {
        "city": "Picos",
        "state": "PI",
        "district": "Canto da Varzea",
        "street": "Loteamento Jerusa Neiva Eulálio",
        "zipcode": "64600-240"
    },
    {
        "city": "Picos",
        "state": "PI",
        "district": "Ipueiras",
        "street": "Rua Teotônio Luz (Lot. Santo Agostinho)",
        "zipcode": "64604-715"
    },
    {
        "city": "Picos",
        "state": "PI",
        "district": "Canto da Varzea",
        "street": "Rua Antonieta Rodrigues de Araújo (Lot. Francisco da Costa Araújo)",
        "zipcode": "64600-171"
    },
    {
        "city": "Picos",
        "state": "PI",
        "district": "Parque de Exposição",
        "street": "Loteamento São Francisco",
        "zipcode": "64608-132"
    },
    {
        "city": "Picos",
        "state": "PI",
        "district": "Catavento",
        "street": "Rua Marinalva Maria de Moura",
        "zipcode": "64607-370"
    },
    {
        "city": "Picos",
        "state": "PI",
        "district": "Boa Sorte",
        "street": "Rua Aureliano Ferreira",
        "zipcode": "64607-145"
    },
    {
        "city": "Picos",
        "state": "PI",
        "district": "Jardim Natal",
        "street": "Rua Antônio de Júlio",
        "zipcode": "64606-095"
    },
    {
        "city": "Picos",
        "state": "PI",
        "district": "Jardim Natal",
        "street": "Rua Maria José Marques (Loteamento Residencial Eldorado)",
        "zipcode": "64606-075"
    },
    {
        "city": "Picos",
        "state": "PI",
        "district": "Ipueiras",
        "street": "Rua Joana Araújo",
        "zipcode": "64604-545"
    },
    {
        "city": "Picos",
        "state": "PI",
        "district": "Ipueiras",
        "street": "Rua Zuza Araújo (Lot Jardim Primavera)",
        "zipcode": "64604-165"
    },
    {
        "city": "Picos",
        "state": "PI",
        "district": "Centro",
        "street": "Travessa Frei Ibiapina",
        "zipcode": "64600-060"
    },
    {
        "city": "Picos",
        "state": "PI",
        "district": "Centro",
        "street": "Travessa Quinze de Novembro",
        "zipcode": "64600-064"
    },
    {
        "city": "Picos",
        "state": "PI",
        "district": "Centro",
        "street": "Travessa Joaquim da Luz",
        "zipcode": "64600-070"
    },
    {
        "city": "Picos",
        "state": "PI",
        "district": "Centro",
        "street": "Travessa Lourenço Pereira",
        "zipcode": "64600-084"
    },
    {
        "city": "Picos",
        "state": "PI",
        "district": "Centro",
        "street": "Rua Padre Cícero Santos",
        "zipcode": "64600-100"
    },
    {
        "city": "Picos",
        "state": "PI",
        "district": "Passagem das Pedras",
        "street": "Rua Projetada 09",
        "zipcode": "64600-376"
    },
    {
        "city": "Picos",
        "state": "PI",
        "district": "Boa Vista",
        "street": "Avenida Isabel Carvalho",
        "zipcode": "64600-523"
    },
    {
        "city": "Picos",
        "state": "PI",
        "district": "Paraibinha",
        "street": "Avenida Senador Helvídio Nunes",
        "zipcode": "64606-240"
    },
    {
        "city": "Picos",
        "state": "PI",
        "district": "Boa Sorte",
        "street": "Avenida Senador Helvídio Nunes",
        "zipcode": "64607-090"
    },
    {
        "city": "Picos",
        "state": "PI",
        "district": "Catavento",
        "street": "Avenida Senador Helvídio Nunes",
        "zipcode": "64607-160"
    },
    {
        "city": "Picos",
        "state": "PI",
        "district": "Conduru",
        "street": "Avenida Senador Helvídio Nunes",
        "zipcode": "64608-330"
    },
    {
        "city": "Picos",
        "state": "PI",
        "district": "Bela Vista",
        "street": "Rua Hilda Policarpo",
        "zipcode": "64601-055"
    },
    {
        "city": "Picos",
        "state": "PI",
        "district": "Bomba",
        "street": "Rua Santo Inácio",
        "zipcode": "64601-376"
    },
    {
        "city": "Picos",
        "state": "PI",
        "district": "Ipueiras",
        "street": "Rua Projetada 335",
        "zipcode": "64604-140"
    },
    {
        "city": "Picos",
        "state": "PI",
        "district": "Paroquial",
        "street": "Rua da Caixa Dágua",
        "zipcode": "64601-006"
    },
    {
        "city": "Picos",
        "state": "PI",
        "district": "Parque de Exposição",
        "street": "Rua Alberto de Deus Nunes",
        "zipcode": "64608-060"
    },
    {
        "city": "Picos",
        "state": "PI",
        "district": "Aerolândia",
        "street": "Rua Dina Nobre Guimarães",
        "zipcode": "64601-188"
    },
    {
        "city": "Picos",
        "state": "PI",
        "district": "Aerolândia",
        "street": "Rua Projetada 28",
        "zipcode": "64601-203"
    },
    {
        "city": "Picos",
        "state": "PI",
        "district": "Belo Norte",
        "street": "Rua Ananias Vicente de Lima",
        "zipcode": "64603-010"
    },
    {
        "city": "Picos",
        "state": "PI",
        "district": "Belo Norte",
        "street": "Rua XXX",
        "zipcode": "64603-165"
    },
    {
        "city": "Picos",
        "state": "PI",
        "district": "Junco",
        "street": "Travessa Pedro Claro",
        "zipcode": "64607-660"
    },
    {
        "city": "Picos",
        "state": "PI",
        "district": "Parque Industrial",
        "street": "Rua Projetada 100",
        "zipcode": "64605-420"
    },
    {
        "city": "Picos",
        "state": "PI",
        "district": "Parque de Exposição",
        "street": "Rua Francisco Matías dos Santos",
        "zipcode": "64608-048"
    },
    {
        "city": "Picos",
        "state": "PI",
        "district": "Fátima",
        "street": "Rua Santa Rita",
        "zipcode": "64600-134"
    },
    {
        "city": "Picos",
        "state": "PI",
        "district": "Morada do Sol",
        "street": "Rua Raimundo Paulino da Silva",
        "zipcode": "64601-569"
    },
    {
        "city": "Picos",
        "state": "PI",
        "district": "Morada do Sol",
        "street": "Quadra 75 (Cj Luiza G Medeiros)",
        "zipcode": "64601-669"
    },
    {
        "city": "Picos",
        "state": "PI",
        "district": "Parque Industrial",
        "street": "Quadra 08 (Conj Waldemar M Santos)",
        "zipcode": "64605-480"
    },
    {
        "city": "Picos",
        "state": "PI",
        "district": "Passagem das Pedras",
        "street": "Rua Emília Ernestina Bezerra",
        "zipcode": "64600-391"
    },
    {
        "city": "Picos",
        "state": "PI",
        "district": "Centro",
        "street": "Praça São Pedro",
        "zipcode": "64600-068"
    },
    {
        "city": "Picos",
        "state": "PI",
        "district": "Parque de Exposição",
        "street": "Travessa do Cemitério",
        "zipcode": "64608-096"
    },
    {
        "city": "Picos",
        "state": "PI",
        "district": "Paraibinha",
        "street": "Rua João Zeca Valdir",
        "zipcode": "64606-377"
    },
    {
        "city": "Picos",
        "state": "PI",
        "district": "Belo Norte",
        "street": "Avenida João de Moura Santos",
        "zipcode": "64603-003"
    }
]