[
    {
        "city": "Palmeira dos Índios",
        "state": "AL",
        "district": "Sonho Verde",
        "street": "Rua Engenheiro Carlos Eduardo Sarmento",
        "zipcode": "57606-254"
    },
    {
        "city": "Palmeira dos Índios",
        "state": "AL",
        "district": "São Cristóvão",
        "street": "Rua Tabelião Luiz Vieira de Barros",
        "zipcode": "57601-322"
    },
    {
        "city": "Palmeira dos Índios",
        "state": "AL",
        "district": "Graciliano Ramos",
        "street": "Rua Wellington Oliveira da Silva",
        "zipcode": "57604-060"
    },
    {
        "city": "Palmeira dos Índios",
        "state": "AL",
        "district": "Vila Maria",
        "street": "Rua Zezinho Queiroz",
        "zipcode": "57607-710"
    },
    {
        "city": "Palmeira dos Índios",
        "state": "AL",
        "district": "Vila Maria",
        "street": "Rua Nossa Senhora do Amparo",
        "zipcode": "57607-700"
    },
    {
        "city": "Palmeira dos Índios",
        "state": "AL",
        "district": "São Cristóvão",
        "street": "Rua Antônio Vieira Peixoto",
        "zipcode": "57601-324"
    },
    {
        "city": "Palmeira dos Índios",
        "state": "AL",
        "district": "Sonho Verde",
        "street": "Rua Wilson Vitório",
        "zipcode": "57606-260"
    },
    {
        "city": "Palmeira dos Índios",
        "state": "AL",
        "district": "Graciliano Ramos",
        "street": "Rua Doutor José Marques do Nascimento",
        "zipcode": "57604-130"
    },
    {
        "city": "Palmeira dos Índios",
        "state": "AL",
        "district": "Sonho Verde",
        "street": "Rua Doutor Ivan Tavares Santos",
        "zipcode": "57606-080"
    },
    {
        "city": "Palmeira dos Índios",
        "state": "AL",
        "district": "Vila Maria",
        "street": "Rua Armando Soares",
        "zipcode": "57607-430"
    },
    {
        "city": "Palmeira dos Índios",
        "state": "AL",
        "district": "Palmeira de Fora",
        "street": "Rua Canaã",
        "zipcode": "57608-405"
    },
    {
        "city": "Palmeira dos Índios",
        "state": "AL",
        "district": "Sonho Verde",
        "street": "Rua Zé Peão",
        "zipcode": "57606-286"
    },
    {
        "city": "Palmeira dos Índios",
        "state": "AL",
        "district": "Alto do Cruzeiro",
        "street": "Rua Leopoldo Duarte",
        "zipcode": "57600-726"
    },
    {
        "city": "Palmeira dos Índios",
        "state": "AL",
        "district": "Alto do Cruzeiro",
        "street": "Rua Dom Armando Lombardi",
        "zipcode": "57600-727"
    },
    {
        "city": "Palmeira dos Índios",
        "state": "AL",
        "district": "Alto do Cruzeiro",
        "street": "Rua Gabino Besouro",
        "zipcode": "57600-728"
    },
    {
        "city": "Palmeira dos Índios",
        "state": "AL",
        "district": "São Luiz",
        "street": "Avenida Graciliano Ramos",
        "zipcode": "57602-195"
    },
    {
        "city": "Palmeira dos Índios",
        "state": "AL",
        "district": "Juca Sampaio",
        "street": "Rua Cariolando Ferreira de Alencar",
        "zipcode": "57603-128"
    },
    {
        "city": "Palmeira dos Índios",
        "state": "AL",
        "district": "Graciliano Ramos",
        "street": "Rua Vereador Luiz Alberto de Barros",
        "zipcode": "57604-042"
    },
    {
        "city": "Palmeira dos Índios",
        "state": "AL",
        "district": "Graciliano Ramos",
        "street": "Rua Vereador José Tenório de Albuquerque",
        "zipcode": "57604-258"
    },
    {
        "city": "Palmeira dos Índios",
        "state": "AL",
        "district": "Alto do Cruzeiro",
        "street": "Travessa Dezesseis de Setembro",
        "zipcode": "57600-665"
    },
    {
        "city": "Palmeira dos Índios",
        "state": "AL",
        "district": "Graciliano Ramos",
        "street": "Rua Leonardo Inácio de Albuquerque",
        "zipcode": "57604-064"
    },
    {
        "city": "Palmeira dos Índios",
        "state": "AL",
        "district": "Graciliano Ramos",
        "street": "Avenida Aurélia Alves Brasileiro",
        "zipcode": "57604-272"
    },
    {
        "city": "Palmeira dos Índios",
        "state": "AL",
        "district": "Jardim Brasil",
        "street": "Rua Vereador José Tobias de Almeida (Loteamento Valdeci Mota)",
        "zipcode": "57607-205"
    },
    {
        "city": "Palmeira dos Índios",
        "state": "AL",
        "district": "Vila Maria",
        "street": "Rua Doutora Aline Ana Leal",
        "zipcode": "57607-302"
    },
    {
        "city": "Palmeira dos Índios",
        "state": "AL",
        "district": "Vila Maria",
        "street": "Rua José Alves Bezerra",
        "zipcode": "57607-375"
    },
    {
        "city": "Palmeira dos Índios",
        "state": "AL",
        "district": "Vila Maria",
        "street": "Rua Alvino Correia Gama",
        "zipcode": "57607-410"
    },
    {
        "city": "Palmeira dos Índios",
        "state": "AL",
        "district": "Palmeira de Fora",
        "street": "Rua Atendente Luiz Alves da Silva",
        "zipcode": "57608-382"
    },
    {
        "city": "Palmeira dos Índios",
        "state": "AL",
        "district": "Sonho Verde",
        "street": "Avenida Tabeliã Ivonete Gaia Duarte",
        "zipcode": "57606-284"
    },
    {
        "city": "Palmeira dos Índios",
        "state": "AL",
        "district": "Palmeira de Fora",
        "street": "Rua João Donato de Almeida (Cj Santa Helena)",
        "zipcode": "57608-540"
    },
    {
        "city": "Palmeira dos Índios",
        "state": "AL",
        "district": "Graciliano Ramos",
        "street": "Rua Antônio Correia Nunes",
        "zipcode": "57604-044"
    },
    {
        "city": "Palmeira dos Índios",
        "state": "AL",
        "district": "Graciliano Ramos",
        "street": "Rua Antonio Basílio da Costa (Lot Pq das Palmeiras)",
        "zipcode": "57604-116"
    },
    {
        "city": "Palmeira dos Índios",
        "state": "AL",
        "district": "Sonho Verde",
        "street": "Rua Antônio Costa Ferro",
        "zipcode": "57606-013"
    },
    {
        "city": "Palmeira dos Índios",
        "state": "AL",
        "district": "Sonho Verde",
        "street": "Rua Antonio Barbosa da Silva",
        "zipcode": "57606-007"
    },
    {
        "city": "Palmeira dos Índios",
        "state": "AL",
        "district": "São Cristóvão",
        "street": "Avenida Alagoas",
        "zipcode": "57601-220"
    },
    {
        "city": "Palmeira dos Índios",
        "state": "AL",
        "district": "Vila Maria",
        "street": "Travessa José Alves Bezerra",
        "zipcode": "57607-376"
    },
    {
        "city": "Palmeira dos Índios",
        "state": "AL",
        "district": "Vila Maria",
        "street": "Rua Amapá",
        "zipcode": "57607-683"
    },
    {
        "city": "Palmeira dos Índios",
        "state": "AL",
        "district": "São Francisco",
        "street": "Rua Caracioly Soares",
        "zipcode": "57602-405"
    },
    {
        "city": "Palmeira dos Índios",
        "state": "AL",
        "district": "Graciliano Ramos",
        "street": "Rua Belmiro Pereira do Nascimento",
        "zipcode": "57604-052"
    },
    {
        "city": "Palmeira dos Índios",
        "state": "AL",
        "district": "Graciliano Ramos",
        "street": "Rua Bernadete Bezerra de Araújo",
        "zipcode": "57604-072"
    },
    {
        "city": "Palmeira dos Índios",
        "state": "AL",
        "district": "Graciliano Ramos",
        "street": "Rua Dom Fernando Iório Rodrigues",
        "zipcode": "57604-098"
    },
    {
        "city": "Palmeira dos Índios",
        "state": "AL",
        "district": "Graciliano Ramos",
        "street": "Rua Expedito Reinaldo Barros de Oliveira",
        "zipcode": "57604-106"
    },
    {
        "city": "Palmeira dos Índios",
        "state": "AL",
        "district": "Graciliano Ramos",
        "street": "Rua Engenheiro Carlos Eduardo Sarmento",
        "zipcode": "57604-252"
    },
    {
        "city": "Palmeira dos Índios",
        "state": "AL",
        "district": "Xucurus",
        "street": "Rua Clodoaldo da Fonseca",
        "zipcode": "57605-013"
    },
    {
        "city": "Palmeira dos Índios",
        "state": "AL",
        "district": "Xucurus",
        "street": "Rua Engenheiro José da Rocha Leite",
        "zipcode": "57605-047"
    },
    {
        "city": "Palmeira dos Índios",
        "state": "AL",
        "district": "Sonho Verde",
        "street": "Rua Castelo Branco",
        "zipcode": "57606-003"
    },
    {
        "city": "Palmeira dos Índios",
        "state": "AL",
        "district": "Ribeira",
        "street": "Rua Clodoaldo da Fonseca",
        "zipcode": "57602-645"
    },
    {
        "city": "Palmeira dos Índios",
        "state": "AL",
        "district": "Graciliano Ramos",
        "street": "Rua Cicero Serafim Gomes",
        "zipcode": "57604-074"
    },
    {
        "city": "Palmeira dos Índios",
        "state": "AL",
        "district": "Graciliano Ramos",
        "street": "Rua Doutora Maria Betania Teixeira Bezerra",
        "zipcode": "57604-256"
    },
    {
        "city": "Palmeira dos Índios",
        "state": "AL",
        "district": "Sonho Verde",
        "street": "Rua Antônio M. Freitas",
        "zipcode": "57606-012"
    },
    {
        "city": "Palmeira dos Índios",
        "state": "AL",
        "district": "Sonho Verde",
        "street": "Rua Eugênio Rodrigues de Oliveira",
        "zipcode": "57606-016"
    },
    {
        "city": "Palmeira dos Índios",
        "state": "AL",
        "district": "Centro",
        "street": "Rua Idalino Araújo",
        "zipcode": "57600-465"
    },
    {
        "city": "Palmeira dos Índios",
        "state": "AL",
        "district": "José Maia Costa",
        "street": "Rua Francisco Tenório Cavalcante",
        "zipcode": "57602-491"
    },
    {
        "city": "Palmeira dos Índios",
        "state": "AL",
        "district": "Graciliano Ramos",
        "street": "Rua José Ferreira da Costa",
        "zipcode": "57604-024"
    },
    {
        "city": "Palmeira dos Índios",
        "state": "AL",
        "district": "Graciliano Ramos",
        "street": "Rua Iracema Carolina da Rocha",
        "zipcode": "57604-048"
    },
    {
        "city": "Palmeira dos Índios",
        "state": "AL",
        "district": "Graciliano Ramos",
        "street": "Rua Gilvan Gomes da Silva",
        "zipcode": "57604-056"
    },
    {
        "city": "Palmeira dos Índios",
        "state": "AL",
        "district": "Graciliano Ramos",
        "street": "Rua José Calheiros Sobrinho",
        "zipcode": "57604-068"
    },
    {
        "city": "Palmeira dos Índios",
        "state": "AL",
        "district": "Graciliano Ramos",
        "street": "Rua José Calixto de Oliveira",
        "zipcode": "57604-095"
    },
    {
        "city": "Palmeira dos Índios",
        "state": "AL",
        "district": "Sonho Verde",
        "street": "Rua João Farias",
        "zipcode": "57606-025"
    },
    {
        "city": "Palmeira dos Índios",
        "state": "AL",
        "district": "Sonho Verde",
        "street": "Rua José Luiz da Silva",
        "zipcode": "57606-282"
    },
    {
        "city": "Palmeira dos Índios",
        "state": "AL",
        "district": "Sonho Verde",
        "street": "Rua Florianópolis",
        "zipcode": "57606-309"
    },
    {
        "city": "Palmeira dos Índios",
        "state": "AL",
        "district": "Juca Sampaio",
        "street": "Rua Francisco Ferreira Barbosa",
        "zipcode": "57603-112"
    },
    {
        "city": "Palmeira dos Índios",
        "state": "AL",
        "district": "Graciliano Ramos",
        "street": "Rua Gilma Ferreira da Silva",
        "zipcode": "57604-092"
    },
    {
        "city": "Palmeira dos Índios",
        "state": "AL",
        "district": "Graciliano Ramos",
        "street": "Rua Eraldo dos Santos",
        "zipcode": "57604-118"
    },
    {
        "city": "Palmeira dos Índios",
        "state": "AL",
        "district": "Sonho Verde",
        "street": "Rua Domázio Valério de Souza",
        "zipcode": "57606-106"
    },
    {
        "city": "Palmeira dos Índios",
        "state": "AL",
        "district": "Sonho Verde",
        "street": "Rua Elísio Tenório Cavalcante",
        "zipcode": "57606-296"
    },
    {
        "city": "Palmeira dos Índios",
        "state": "AL",
        "district": "Sonho Verde",
        "street": "Rua Davi Muniz",
        "zipcode": "57606-298"
    },
    {
        "city": "Palmeira dos Índios",
        "state": "AL",
        "district": "Vila Maria",
        "street": "Rua Fernando de Noronha",
        "zipcode": "57607-373"
    },
    {
        "city": "Palmeira dos Índios",
        "state": "AL",
        "district": "Vila Maria",
        "street": "Rua Joaquim Ferreira de Queiroz",
        "zipcode": "57607-378"
    },
    {
        "city": "Palmeira dos Índios",
        "state": "AL",
        "district": "Vila Maria",
        "street": "Rua José Soares Vilarins",
        "zipcode": "57607-564"
    },
    {
        "city": "Palmeira dos Índios",
        "state": "AL",
        "district": "Vila Maria",
        "street": "Rua Dinamarca",
        "zipcode": "57607-658"
    },
    {
        "city": "Palmeira dos Índios",
        "state": "AL",
        "district": "São Francisco",
        "street": "Rua Francisco Moura",
        "zipcode": "57602-345"
    },
    {
        "city": "Palmeira dos Índios",
        "state": "AL",
        "district": "Xucurus",
        "street": "Rua Clarindo Amorim",
        "zipcode": "57605-002"
    },
    {
        "city": "Palmeira dos Índios",
        "state": "AL",
        "district": "Sonho Verde",
        "street": "Rua José Firmino",
        "zipcode": "57606-011"
    },
    {
        "city": "Palmeira dos Índios",
        "state": "AL",
        "district": "Vila Maria",
        "street": "Rua Jerusalém",
        "zipcode": "57607-477"
    },
    {
        "city": "Palmeira dos Índios",
        "state": "AL",
        "district": "Vila Maria",
        "street": "Rua Brasil Novo",
        "zipcode": "57607-485"
    },
    {
        "city": "Palmeira dos Índios",
        "state": "AL",
        "district": "Sonho Verde",
        "street": "Rua Fernando Costa Barros",
        "zipcode": "57606-009"
    },
    {
        "city": "Palmeira dos Índios",
        "state": "AL",
        "district": "Vila Maria",
        "street": "Rua Europa",
        "zipcode": "57607-659"
    },
    {
        "city": "Palmeira dos Índios",
        "state": "AL",
        "district": "Graciliano Ramos",
        "street": "Rua Marcos de Moura Pereira",
        "zipcode": "57604-026"
    },
    {
        "city": "Palmeira dos Índios",
        "state": "AL",
        "district": "Graciliano Ramos",
        "street": "Rua Maria Mozarina Rodrigues Brasileiro",
        "zipcode": "57604-028"
    },
    {
        "city": "Palmeira dos Índios",
        "state": "AL",
        "district": "Graciliano Ramos",
        "street": "Rua Lindoarte Soares Costa",
        "zipcode": "57604-076"
    },
    {
        "city": "Palmeira dos Índios",
        "state": "AL",
        "district": "Graciliano Ramos",
        "street": "Rua Maria Bezerra da Silva",
        "zipcode": "57604-096"
    },
    {
        "city": "Palmeira dos Índios",
        "state": "AL",
        "district": "Graciliano Ramos",
        "street": "Rua Manoel Pereira da Fonseca",
        "zipcode": "57604-268"
    },
    {
        "city": "Palmeira dos Índios",
        "state": "AL",
        "district": "Sonho Verde",
        "street": "Rua Manoel Leandro da Silva",
        "zipcode": "57606-005"
    },
    {
        "city": "Palmeira dos Índios",
        "state": "AL",
        "district": "Sonho Verde",
        "street": "Rua Manoel Armeira",
        "zipcode": "57606-006"
    },
    {
        "city": "Palmeira dos Índios",
        "state": "AL",
        "district": "Graciliano Ramos",
        "street": "Rua Maria Aparecida Ramos da Silva",
        "zipcode": "57604-090"
    },
    {
        "city": "Palmeira dos Índios",
        "state": "AL",
        "district": "Xucurus",
        "street": "Rua Leobino Mota",
        "zipcode": "57605-006"
    },
    {
        "city": "Palmeira dos Índios",
        "state": "AL",
        "district": "Sonho Verde",
        "street": "Rua Lenira Soares Leite",
        "zipcode": "57606-280"
    },
    {
        "city": "Palmeira dos Índios",
        "state": "AL",
        "district": "Sonho Verde",
        "street": "Rua Juarez Madruga",
        "zipcode": "57606-300"
    },
    {
        "city": "Palmeira dos Índios",
        "state": "AL",
        "district": "Graciliano Ramos",
        "street": "Rua Marinita Oliveira Barbosa",
        "zipcode": "57604-034"
    },
    {
        "city": "Palmeira dos Índios",
        "state": "AL",
        "district": "São Francisco",
        "street": "Rua Mestre Jaú",
        "zipcode": "57602-325"
    },
    {
        "city": "Palmeira dos Índios",
        "state": "AL",
        "district": "Sonho Verde",
        "street": "Rua Napoleão Ferro",
        "zipcode": "57606-292"
    },
    {
        "city": "Palmeira dos Índios",
        "state": "AL",
        "district": "Palmeira de Fora",
        "street": "Rua Liberato Oliveira Matos",
        "zipcode": "57608-504"
    },
    {
        "city": "Palmeira dos Índios",
        "state": "AL",
        "district": "Palmeira de Fora",
        "street": "Rua Luiz Maia e Silva",
        "zipcode": "57608-514"
    },
    {
        "city": "Palmeira dos Índios",
        "state": "AL",
        "district": "Palmeira de Fora",
        "street": "Rua Maria Siqueira",
        "zipcode": "57608-508"
    },
    {
        "city": "Palmeira dos Índios",
        "state": "AL",
        "district": "Sonho Verde",
        "street": "Rua Maria José de França",
        "zipcode": "57606-304"
    },
    {
        "city": "Palmeira dos Índios",
        "state": "AL",
        "district": "Centro",
        "street": "Rua Sebastião Ramos",
        "zipcode": "57600-325"
    },
    {
        "city": "Palmeira dos Índios",
        "state": "AL",
        "district": "São Luiz",
        "street": "Rua Sebastião Ramos",
        "zipcode": "57602-185"
    },
    {
        "city": "Palmeira dos Índios",
        "state": "AL",
        "district": "São Francisco",
        "street": "Rua Osório Horácio",
        "zipcode": "57602-334"
    },
    {
        "city": "Palmeira dos Índios",
        "state": "AL",
        "district": "São Francisco",
        "street": "Rua Tabelião Luiz F de Barros",
        "zipcode": "57602-465"
    },
    {
        "city": "Palmeira dos Índios",
        "state": "AL",
        "district": "Graciliano Ramos",
        "street": "Rua Patrícia Gisele da Silva Paulo",
        "zipcode": "57604-036"
    },
    {
        "city": "Palmeira dos Índios",
        "state": "AL",
        "district": "Graciliano Ramos",
        "street": "Rua Nazaré Francisca da Costa Santos",
        "zipcode": "57604-058"
    },
    {
        "city": "Palmeira dos Índios",
        "state": "AL",
        "district": "Graciliano Ramos",
        "street": "Rua Romero Sousa da Silva",
        "zipcode": "57604-070"
    },
    {
        "city": "Palmeira dos Índios",
        "state": "AL",
        "district": "Graciliano Ramos",
        "street": "Rua Tadeu Fonseca da Silva",
        "zipcode": "57604-078"
    },
    {
        "city": "Palmeira dos Índios",
        "state": "AL",
        "district": "Graciliano Ramos",
        "street": "Rua Santino Martiniano da Silva",
        "zipcode": "57604-082"
    },
    {
        "city": "Palmeira dos Índios",
        "state": "AL",
        "district": "Graciliano Ramos",
        "street": "Rua Severino Evangelista de Santana",
        "zipcode": "57604-086"
    },
    {
        "city": "Palmeira dos Índios",
        "state": "AL",
        "district": "Graciliano Ramos",
        "street": "Rua Pedro Limeira",
        "zipcode": "57604-250"
    },
    {
        "city": "Palmeira dos Índios",
        "state": "AL",
        "district": "Xucurus",
        "street": "Rua Sebastião Medeiros",
        "zipcode": "57605-004"
    },
    {
        "city": "Palmeira dos Índios",
        "state": "AL",
        "district": "Sonho Verde",
        "street": "Rua Tenente Júlio Amorim",
        "zipcode": "57606-002"
    },
    {
        "city": "Palmeira dos Índios",
        "state": "AL",
        "district": "Sonho Verde",
        "street": "Rua Pedro Bispo Dantas",
        "zipcode": "57606-104"
    },
    {
        "city": "Palmeira dos Índios",
        "state": "AL",
        "district": "Vila Maria",
        "street": "Travessa Nova Jerusalem",
        "zipcode": "57607-495"
    },
    {
        "city": "Palmeira dos Índios",
        "state": "AL",
        "district": "Palmeira de Fora",
        "street": "Travessa São Vicente",
        "zipcode": "57608-485"
    },
    {
        "city": "Palmeira dos Índios",
        "state": "AL",
        "district": "Graciliano Ramos",
        "street": "Rua Senhorinha Targino Costa",
        "zipcode": "57604-040"
    },
    {
        "city": "Palmeira dos Índios",
        "state": "AL",
        "district": "Graciliano Ramos",
        "street": "Rua Wilson Vitório",
        "zipcode": "57604-260"
    },
    {
        "city": "Palmeira dos Índios",
        "state": "AL",
        "district": "Paraíso",
        "street": "Travessa Graciliano Ramos",
        "zipcode": "57602-135"
    },
    {
        "city": "Palmeira dos Índios",
        "state": "AL",
        "district": "Sonho Verde",
        "street": "Rua Reinery Canales",
        "zipcode": "57606-288"
    },
    {
        "city": "Palmeira dos Índios",
        "state": "AL",
        "district": "Sonho Verde",
        "street": "Rua Paulo Duarte Pinto",
        "zipcode": "57606-302"
    },
    {
        "city": "Palmeira dos Índios",
        "state": "AL",
        "district": "Vila Maria",
        "street": "Travessa Julio Amorim",
        "zipcode": "57607-562"
    },
    {
        "city": "Palmeira dos Índios",
        "state": "AL",
        "district": "Vila Maria",
        "street": "Rua Rondônia",
        "zipcode": "57607-685"
    },
    {
        "city": "Palmeira dos Índios",
        "state": "AL",
        "district": "Vila Maria",
        "street": "Rua Tocantins",
        "zipcode": "57607-687"
    },
    {
        "city": "Palmeira dos Índios",
        "state": "AL",
        "district": "Sonho Verde",
        "street": "Rua Pastor José Deodato da Silveira",
        "zipcode": "57606-008"
    },
    {
        "city": "Palmeira dos Índios",
        "state": "AL",
        "district": "Sonho Verde",
        "street": "Travessa Antônio Gaudino dos Santos",
        "zipcode": "57606-067"
    },
    {
        "city": "Palmeira dos Índios",
        "state": "AL",
        "district": "Jardim Brasil",
        "street": "Rua Quinze de Novembro",
        "zipcode": "57607-243"
    },
    {
        "city": "Palmeira dos Índios",
        "state": "AL",
        "district": "Jardim Brasil",
        "street": "Travessa Ezequiel Pereira",
        "zipcode": "57607-265"
    },
    {
        "city": "Palmeira dos Índios",
        "state": "AL",
        "district": "Goití",
        "street": "Rua Pedro Soares da Mota",
        "zipcode": "57608-720"
    },
    {
        "city": "Palmeira dos Índios",
        "state": "AL",
        "district": "São Luiz",
        "street": "Travessa Sebastião Ramos",
        "zipcode": "57602-175"
    },
    {
        "city": "Palmeira dos Índios",
        "state": "AL",
        "district": "Vila Maria",
        "street": "2ª Travessa Zuleide Gaia",
        "zipcode": "57607-654"
    },
    {
        "city": "Palmeira dos Índios",
        "state": "AL",
        "district": "Vila Maria",
        "street": "Travessa Vereador Pajeú",
        "zipcode": "57607-675"
    },
    {
        "city": "Palmeira dos Índios",
        "state": "AL",
        "district": "Sonho Verde",
        "street": "2ª Travessa Direita",
        "zipcode": "57606-092"
    },
    {
        "city": "Palmeira dos Índios",
        "state": "AL",
        "district": "Alto do Cruzeiro",
        "street": "Rua Pio XII",
        "zipcode": "57600-550"
    },
    {
        "city": "Palmeira dos Índios",
        "state": "AL",
        "district": "Centro",
        "street": "Rua Lauro de Almeida",
        "zipcode": "57600-220"
    },
    {
        "city": "Palmeira dos Índios",
        "state": "AL",
        "district": "Centro",
        "street": "Rua Correia Paes",
        "zipcode": "57600-090"
    },
    {
        "city": "Palmeira dos Índios",
        "state": "AL",
        "district": "Centro",
        "street": "Praça Nilo Torres",
        "zipcode": "57600-095"
    },
    {
        "city": "Palmeira dos Índios",
        "state": "AL",
        "district": "Centro",
        "street": "Praça Francisco Cavalcante",
        "zipcode": "57600-170"
    },
    {
        "city": "Palmeira dos Índios",
        "state": "AL",
        "district": "Centro",
        "street": "Praça São Pedro",
        "zipcode": "57600-290"
    },
    {
        "city": "Palmeira dos Índios",
        "state": "AL",
        "district": "Centro",
        "street": "Rua Chico Pinto",
        "zipcode": "57600-150"
    },
    {
        "city": "Palmeira dos Índios",
        "state": "AL",
        "district": "São Cristóvão",
        "street": "Largo São Cristovão",
        "zipcode": "57601-120"
    },
    {
        "city": "Palmeira dos Índios",
        "state": "AL",
        "district": "São Francisco",
        "street": "Rua Dondon Tobias",
        "zipcode": "57602-282"
    },
    {
        "city": "Palmeira dos Índios",
        "state": "AL",
        "district": "São Francisco",
        "street": "Rua Antero Amorim",
        "zipcode": "57602-350"
    },
    {
        "city": "Palmeira dos Índios",
        "state": "AL",
        "district": "São Francisco",
        "street": "Rua Clarindo Amorim",
        "zipcode": "57602-320"
    },
    {
        "city": "Palmeira dos Índios",
        "state": "AL",
        "district": "Centro",
        "street": "Rua João Valério",
        "zipcode": "57600-160"
    },
    {
        "city": "Palmeira dos Índios",
        "state": "AL",
        "district": "Centro",
        "street": "Rua João XXIII",
        "zipcode": "57600-270"
    },
    {
        "city": "Palmeira dos Índios",
        "state": "AL",
        "district": "Centro",
        "street": "Rua José Pinto de Barros",
        "zipcode": "57600-310"
    },
    {
        "city": "Palmeira dos Índios",
        "state": "AL",
        "district": "Centro",
        "street": "Rua Padre Dimas",
        "zipcode": "57600-250"
    },
    {
        "city": "Palmeira dos Índios",
        "state": "AL",
        "district": "Centro",
        "street": "Rua Miguel Monteiro",
        "zipcode": "57600-320"
    },
    {
        "city": "Palmeira dos Índios",
        "state": "AL",
        "district": "São Francisco",
        "street": "Rua Francisco Tenório Cavalcante",
        "zipcode": "57602-360"
    },
    {
        "city": "Palmeira dos Índios",
        "state": "AL",
        "district": "Juca Sampaio",
        "street": "Praça Abdon Granja",
        "zipcode": "57603-230"
    },
    {
        "city": "Palmeira dos Índios",
        "state": "AL",
        "district": "São Cristóvão",
        "street": "Rua Maria Auxiliadora",
        "zipcode": "57601-110"
    },
    {
        "city": "Palmeira dos Índios",
        "state": "AL",
        "district": "Juca Sampaio",
        "street": "Rua Gastão Leão",
        "zipcode": "57603-190"
    },
    {
        "city": "Palmeira dos Índios",
        "state": "AL",
        "district": "Alto do Cruzeiro",
        "street": "Travessa Zeca Paulo",
        "zipcode": "57600-580"
    },
    {
        "city": "Palmeira dos Índios",
        "state": "AL",
        "district": "Alto do Cruzeiro",
        "street": "Travessa Dom Bôsco",
        "zipcode": "57600-595"
    },
    {
        "city": "Palmeira dos Índios",
        "state": "AL",
        "district": "Alto do Cruzeiro",
        "street": "Rua Santo Antônio",
        "zipcode": "57600-620"
    },
    {
        "city": "Palmeira dos Índios",
        "state": "AL",
        "district": "Alto do Cruzeiro",
        "street": "Travessa Boa Vista",
        "zipcode": "57600-645"
    },
    {
        "city": "Palmeira dos Índios",
        "state": "AL",
        "district": "Alto do Cruzeiro",
        "street": "Rua Dezesseis de Setembro",
        "zipcode": "57600-660"
    },
    {
        "city": "Palmeira dos Índios",
        "state": "AL",
        "district": "Alto do Cruzeiro",
        "street": "Rua José Caetano de Morais",
        "zipcode": "57600-700"
    },
    {
        "city": "Palmeira dos Índios",
        "state": "AL",
        "district": "Alto do Cruzeiro",
        "street": "Rua São Miguel",
        "zipcode": "57600-710"
    },
    {
        "city": "Palmeira dos Índios",
        "state": "AL",
        "district": "Alto do Cruzeiro",
        "street": "Rua Solidão",
        "zipcode": "57600-690"
    },
    {
        "city": "Palmeira dos Índios",
        "state": "AL",
        "district": "Tenório Cavalcante",
        "street": "Rua Doutor Fernandes de Barros",
        "zipcode": "57600-820"
    },
    {
        "city": "Palmeira dos Índios",
        "state": "AL",
        "district": "Tenório Cavalcante",
        "street": "Rua Coronel Antônio Pantaleão",
        "zipcode": "57600-830"
    },
    {
        "city": "Palmeira dos Índios",
        "state": "AL",
        "district": "São Cristóvão",
        "street": "Rua Antônio Ribeiro",
        "zipcode": "57601-020"
    },
    {
        "city": "Palmeira dos Índios",
        "state": "AL",
        "district": "São Cristóvão",
        "street": "Rua Estudante Márcio Emmanoel Gomes da Silva",
        "zipcode": "57601-210"
    },
    {
        "city": "Palmeira dos Índios",
        "state": "AL",
        "district": "São Cristóvão",
        "street": "Rua Aristido Roque",
        "zipcode": "57601-334"
    },
    {
        "city": "Palmeira dos Índios",
        "state": "AL",
        "district": "Paraíso",
        "street": "Rua Dondon Tobias",
        "zipcode": "57602-160"
    },
    {
        "city": "Palmeira dos Índios",
        "state": "AL",
        "district": "São Luiz",
        "street": "Rua Antônio Marques Amorim",
        "zipcode": "57602-190"
    },
    {
        "city": "Palmeira dos Índios",
        "state": "AL",
        "district": "Juca Sampaio",
        "street": "Rua Antônio Francisco",
        "zipcode": "57603-085"
    },
    {
        "city": "Palmeira dos Índios",
        "state": "AL",
        "district": "Juca Sampaio",
        "street": "Rua Ademir Ferreira",
        "zipcode": "57603-110"
    },
    {
        "city": "Palmeira dos Índios",
        "state": "AL",
        "district": "Juca Sampaio",
        "street": "Rodovia BR 316",
        "zipcode": "57603-282"
    },
    {
        "city": "Palmeira dos Índios",
        "state": "AL",
        "district": "Centro",
        "street": "Rua Frei Domingos",
        "zipcode": "57600-210"
    },
    {
        "city": "Palmeira dos Índios",
        "state": "AL",
        "district": "Tenório Cavalcante",
        "street": "Rua Gabino Besouro",
        "zipcode": "57600-800"
    },
    {
        "city": "Palmeira dos Índios",
        "state": "AL",
        "district": "São Cristóvão",
        "street": "Rua Getúlio Vargas",
        "zipcode": "57601-250"
    },
    {
        "city": "Palmeira dos Índios",
        "state": "AL",
        "district": "Paraíso",
        "street": "Rua José Evaristo",
        "zipcode": "57602-150"
    },
    {
        "city": "Palmeira dos Índios",
        "state": "AL",
        "district": "São Luiz",
        "street": "Rua João Tavares Silva",
        "zipcode": "57602-200"
    },
    {
        "city": "Palmeira dos Índios",
        "state": "AL",
        "district": "São Francisco",
        "street": "Rua Genésio Moreira",
        "zipcode": "57602-270"
    },
    {
        "city": "Palmeira dos Índios",
        "state": "AL",
        "district": "São Francisco",
        "street": "Rua Leu Wanderley",
        "zipcode": "57602-300"
    },
    {
        "city": "Palmeira dos Índios",
        "state": "AL",
        "district": "Juca Sampaio",
        "street": "Rua João Herculino Filho",
        "zipcode": "57603-133"
    },
    {
        "city": "Palmeira dos Índios",
        "state": "AL",
        "district": "Graciliano Ramos",
        "street": "Rua Hilda Honório de A. Melo",
        "zipcode": "57604-100"
    },
    {
        "city": "Palmeira dos Índios",
        "state": "AL",
        "district": "Sonho Verde",
        "street": "Rua Manoel Pereira da Fonseca",
        "zipcode": "57606-268"
    },
    {
        "city": "Palmeira dos Índios",
        "state": "AL",
        "district": "São Cristóvão",
        "street": "Rua José Joaquim de Oliveira",
        "zipcode": "57601-240"
    },
    {
        "city": "Palmeira dos Índios",
        "state": "AL",
        "district": "Juca Sampaio",
        "street": "Rua Heloisa Costa Sampaio",
        "zipcode": "57603-124"
    },
    {
        "city": "Palmeira dos Índios",
        "state": "AL",
        "district": "Centro",
        "street": "Rua São Vicente",
        "zipcode": "57600-110"
    },
    {
        "city": "Palmeira dos Índios",
        "state": "AL",
        "district": "Centro",
        "street": "Rua Vigário Maia",
        "zipcode": "57600-140"
    },
    {
        "city": "Palmeira dos Índios",
        "state": "AL",
        "district": "São Cristóvão",
        "street": "Rua Quinze de Novembro",
        "zipcode": "57601-090"
    },
    {
        "city": "Palmeira dos Índios",
        "state": "AL",
        "district": "São Cristóvão",
        "street": "Rua Vinte de Agosto",
        "zipcode": "57601-150"
    },
    {
        "city": "Palmeira dos Índios",
        "state": "AL",
        "district": "São Luiz",
        "street": "Rua Mestre Jaú",
        "zipcode": "57602-220"
    },
    {
        "city": "Palmeira dos Índios",
        "state": "AL",
        "district": "São Luiz",
        "street": "Rua Raimundo Roque da Costa",
        "zipcode": "57602-250"
    },
    {
        "city": "Palmeira dos Índios",
        "state": "AL",
        "district": "São Francisco",
        "street": "Rua Sebastião Medeiros",
        "zipcode": "57602-280"
    },
    {
        "city": "Palmeira dos Índios",
        "state": "AL",
        "district": "São Francisco",
        "street": "Rua Tertuliano Canuto",
        "zipcode": "57602-340"
    },
    {
        "city": "Palmeira dos Índios",
        "state": "AL",
        "district": "São Cristóvão",
        "street": "Vila Nossa Senhora de Lourdes",
        "zipcode": "57601-050"
    },
    {
        "city": "Palmeira dos Índios",
        "state": "AL",
        "district": "São Cristóvão",
        "street": "Vila do Ferreira",
        "zipcode": "57601-060"
    },
    {
        "city": "Palmeira dos Índios",
        "state": "AL",
        "district": "São Cristóvão",
        "street": "Vila Ney",
        "zipcode": "57601-410"
    },
    {
        "city": "Palmeira dos Índios",
        "state": "AL",
        "district": "São Francisco",
        "street": "1ª Travessa Genésio Moreira",
        "zipcode": "57602-275"
    },
    {
        "city": "Palmeira dos Índios",
        "state": "AL",
        "district": "Centro",
        "street": "Vila Santo Inácio",
        "zipcode": "57600-205"
    },
    {
        "city": "Palmeira dos Índios",
        "state": "AL",
        "district": "Centro",
        "street": "Praça do Rosário",
        "zipcode": "57600-470"
    },
    {
        "city": "Palmeira dos Índios",
        "state": "AL",
        "district": "Jardim Brasil",
        "street": "Rua Sergipe",
        "zipcode": "57607-120"
    },
    {
        "city": "Palmeira dos Índios",
        "state": "AL",
        "district": "Centro",
        "street": "Rua José Maria Passos",
        "zipcode": "57600-030"
    },
    {
        "city": "Palmeira dos Índios",
        "state": "AL",
        "district": "São Francisco",
        "street": "Rua Leobino Mota",
        "zipcode": "57602-410"
    },
    {
        "city": "Palmeira dos Índios",
        "state": "AL",
        "district": "Centro",
        "street": "Rua Costa Rêgo",
        "zipcode": "57600-130"
    },
    {
        "city": "Palmeira dos Índios",
        "state": "AL",
        "district": "São Cristóvão",
        "street": "Avenida Deputado Medeiros Neto",
        "zipcode": "57601-370"
    },
    {
        "city": "Palmeira dos Índios",
        "state": "AL",
        "district": "Alto do Cruzeiro",
        "street": "Rua Santa Isabel",
        "zipcode": "57600-630"
    },
    {
        "city": "Palmeira dos Índios",
        "state": "AL",
        "district": "Palmeira de Fora",
        "street": "Avenida Alagoas",
        "zipcode": "57608-180"
    },
    {
        "city": "Palmeira dos Índios",
        "state": "AL",
        "district": "Alto do Cruzeiro",
        "street": "Rua Dom Bôsco",
        "zipcode": "57600-590"
    },
    {
        "city": "Palmeira dos Índios",
        "state": "AL",
        "district": "Jardim Brasil",
        "street": "Rua Doutora Aline Ana Leal",
        "zipcode": "57607-220"
    },
    {
        "city": "Palmeira dos Índios",
        "state": "AL",
        "district": "Centro",
        "street": "Rua Antônio Capitulino Vasconcelos",
        "zipcode": "57600-430"
    },
    {
        "city": "Palmeira dos Índios",
        "state": "AL",
        "district": "Paraíso",
        "street": "Rua Clodoaldo da Fonseca",
        "zipcode": "57602-010"
    },
    {
        "city": "Palmeira dos Índios",
        "state": "AL",
        "district": "São Francisco",
        "street": "Rua Emerentino Costa",
        "zipcode": "57602-480"
    },
    {
        "city": "Palmeira dos Índios",
        "state": "AL",
        "district": "José Maia Costa",
        "street": "Rua Aristeu Cavalcante",
        "zipcode": "57602-497"
    },
    {
        "city": "Palmeira dos Índios",
        "state": "AL",
        "district": "Ribeira",
        "street": "Rua Abílio Balbino",
        "zipcode": "57602-640"
    },
    {
        "city": "Palmeira dos Índios",
        "state": "AL",
        "district": "Ribeira",
        "street": "Rua Fiscal Horácio Bezerra",
        "zipcode": "57602-730"
    },
    {
        "city": "Palmeira dos Índios",
        "state": "AL",
        "district": "Juca Sampaio",
        "street": "Rua Doutor Rubens Cavalcante Amorim",
        "zipcode": "57603-030"
    },
    {
        "city": "Palmeira dos Índios",
        "state": "AL",
        "district": "Juca Sampaio",
        "street": "Rua Deputado Francisco Pimentel",
        "zipcode": "57603-080"
    },
    {
        "city": "Palmeira dos Índios",
        "state": "AL",
        "district": "Xucurus",
        "street": "Rua Ananete Lima de Macêdo",
        "zipcode": "57605-080"
    },
    {
        "city": "Palmeira dos Índios",
        "state": "AL",
        "district": "Centro",
        "street": "Rua José Mendes Ferreira",
        "zipcode": "57600-440"
    },
    {
        "city": "Palmeira dos Índios",
        "state": "AL",
        "district": "São Cristóvão",
        "street": "Rua Manoel Rodrigues de Queiroz",
        "zipcode": "57601-350"
    },
    {
        "city": "Palmeira dos Índios",
        "state": "AL",
        "district": "Ribeira",
        "street": "Rua Luiz Duarte",
        "zipcode": "57602-530"
    },
    {
        "city": "Palmeira dos Índios",
        "state": "AL",
        "district": "Ribeira",
        "street": "Rua Luiza Marques Luz",
        "zipcode": "57602-710"
    },
    {
        "city": "Palmeira dos Índios",
        "state": "AL",
        "district": "Ribeira",
        "street": "Rua Francisco Manoel Pinto",
        "zipcode": "57602-740"
    },
    {
        "city": "Palmeira dos Índios",
        "state": "AL",
        "district": "Juca Sampaio",
        "street": "Rua José Sampaio",
        "zipcode": "57603-020"
    },
    {
        "city": "Palmeira dos Índios",
        "state": "AL",
        "district": "Paraíso",
        "street": "Rua Manoel Origenes de Oliveira",
        "zipcode": "57602-050"
    },
    {
        "city": "Palmeira dos Índios",
        "state": "AL",
        "district": "Ribeira",
        "street": "Rua Maria Edilia Santos",
        "zipcode": "57602-531"
    },
    {
        "city": "Palmeira dos Índios",
        "state": "AL",
        "district": "Juca Sampaio",
        "street": "Rua Manoel Sampaio Luz",
        "zipcode": "57603-122"
    },
    {
        "city": "Palmeira dos Índios",
        "state": "AL",
        "district": "São Cristóvão",
        "street": "Rua Oseas Eliziário Rodrigues",
        "zipcode": "57601-330"
    },
    {
        "city": "Palmeira dos Índios",
        "state": "AL",
        "district": "Paraíso",
        "street": "Rua Prefeito Miguel Lopes",
        "zipcode": "57602-030"
    },
    {
        "city": "Palmeira dos Índios",
        "state": "AL",
        "district": "Paraíso",
        "street": "Rua Oscar Lins",
        "zipcode": "57602-100"
    },
    {
        "city": "Palmeira dos Índios",
        "state": "AL",
        "district": "José Maia Costa",
        "street": "Rua Valdemar Holanda Cavalcante",
        "zipcode": "57602-500"
    },
    {
        "city": "Palmeira dos Índios",
        "state": "AL",
        "district": "Ribeira",
        "street": "Rua Radialista Valdemar Correia",
        "zipcode": "57602-532"
    },
    {
        "city": "Palmeira dos Índios",
        "state": "AL",
        "district": "Ribeira",
        "street": "Rua Vinícius de Morais",
        "zipcode": "57602-533"
    },
    {
        "city": "Palmeira dos Índios",
        "state": "AL",
        "district": "Ribeira",
        "street": "Rua Ulisses Tenório Cavalcante",
        "zipcode": "57602-670"
    },
    {
        "city": "Palmeira dos Índios",
        "state": "AL",
        "district": "Graciliano Ramos",
        "street": "Rua Tereza Maria de Jesus",
        "zipcode": "57604-120"
    },
    {
        "city": "Palmeira dos Índios",
        "state": "AL",
        "district": "Xucurus",
        "street": "Rua Santa Izabel",
        "zipcode": "57605-020"
    },
    {
        "city": "Palmeira dos Índios",
        "state": "AL",
        "district": "Paraíso",
        "street": "Rua Rosalvo Damião",
        "zipcode": "57602-090"
    },
    {
        "city": "Palmeira dos Índios",
        "state": "AL",
        "district": "São Cristóvão",
        "street": "Vila dos Milagres",
        "zipcode": "57601-400"
    },
    {
        "city": "Palmeira dos Índios",
        "state": "AL",
        "district": "Jardim Brasil",
        "street": "Rua Paraíba",
        "zipcode": "57607-100"
    },
    {
        "city": "Palmeira dos Índios",
        "state": "AL",
        "district": "Jardim Brasil",
        "street": "Rua Espírito Santo",
        "zipcode": "57607-140"
    },
    {
        "city": "Palmeira dos Índios",
        "state": "AL",
        "district": "Jardim Brasil",
        "street": "Rua Santa Catarina",
        "zipcode": "57607-160"
    },
    {
        "city": "Palmeira dos Índios",
        "state": "AL",
        "district": "Jardim Brasil",
        "street": "Rua Rio Grande do Sul",
        "zipcode": "57607-190"
    },
    {
        "city": "Palmeira dos Índios",
        "state": "AL",
        "district": "Jardim Brasil",
        "street": "Rua Narciso Torres",
        "zipcode": "57607-202"
    },
    {
        "city": "Palmeira dos Índios",
        "state": "AL",
        "district": "Jardim Brasil",
        "street": "Rua Leonardo Pinto",
        "zipcode": "57607-207"
    },
    {
        "city": "Palmeira dos Índios",
        "state": "AL",
        "district": "Jardim Brasil",
        "street": "Rua Israel Teixeira",
        "zipcode": "57607-250"
    },
    {
        "city": "Palmeira dos Índios",
        "state": "AL",
        "district": "Vila Maria",
        "street": "Rua Jardim das Flores",
        "zipcode": "57607-300"
    },
    {
        "city": "Palmeira dos Índios",
        "state": "AL",
        "district": "Vila Maria",
        "street": "Rua Pedro Neto",
        "zipcode": "57607-320"
    },
    {
        "city": "Palmeira dos Índios",
        "state": "AL",
        "district": "Vila Maria",
        "street": "Rua Luiz Amorim",
        "zipcode": "57607-340"
    },
    {
        "city": "Palmeira dos Índios",
        "state": "AL",
        "district": "Jardim Brasil",
        "street": "Travessa Israel Teixeira",
        "zipcode": "57607-255"
    },
    {
        "city": "Palmeira dos Índios",
        "state": "AL",
        "district": "Vila Maria",
        "street": "Travessa Jardim das Flores",
        "zipcode": "57607-305"
    },
    {
        "city": "Palmeira dos Índios",
        "state": "AL",
        "district": "Jardim Brasil",
        "street": "Condomínio Narciso Torres",
        "zipcode": "57607-240"
    },
    {
        "city": "Palmeira dos Índios",
        "state": "AL",
        "district": "Vila Maria",
        "street": "Rua José Pereira",
        "zipcode": "57607-590"
    },
    {
        "city": "Palmeira dos Índios",
        "state": "AL",
        "district": "Vila Maria",
        "street": "4ª Travessa Padre Cícero",
        "zipcode": "57607-604"
    },
    {
        "city": "Palmeira dos Índios",
        "state": "AL",
        "district": "Ribeira",
        "street": "Rua Moacir Alfredo da Silva",
        "zipcode": "57602-536"
    },
    {
        "city": "Palmeira dos Índios",
        "state": "AL",
        "district": "Xucurus",
        "street": "Rua Adélia de Souza Góes",
        "zipcode": "57605-130"
    },
    {
        "city": "Palmeira dos Índios",
        "state": "AL",
        "district": "Sonho Verde",
        "street": "Rua da Paz",
        "zipcode": "57606-010"
    },
    {
        "city": "Palmeira dos Índios",
        "state": "AL",
        "district": "Sonho Verde",
        "street": "Rodovia BR 316",
        "zipcode": "57606-045"
    },
    {
        "city": "Palmeira dos Índios",
        "state": "AL",
        "district": "São Francisco",
        "street": "Rua José Leite Costa",
        "zipcode": "57602-460"
    },
    {
        "city": "Palmeira dos Índios",
        "state": "AL",
        "district": "São Francisco",
        "street": "Rua Vereador Elói Barbosa",
        "zipcode": "57602-470"
    },
    {
        "city": "Palmeira dos Índios",
        "state": "AL",
        "district": "Xucurus",
        "street": "Rua Sebastião Gonçalves",
        "zipcode": "57605-040"
    },
    {
        "city": "Palmeira dos Índios",
        "state": "AL",
        "district": "Xucurus",
        "street": "Rua Maximila Joaquina de Araujo",
        "zipcode": "57605-060"
    },
    {
        "city": "Palmeira dos Índios",
        "state": "AL",
        "district": "Xucurus",
        "street": "Travessa José Porfírio da Silva",
        "zipcode": "57605-070"
    },
    {
        "city": "Palmeira dos Índios",
        "state": "AL",
        "district": "Ribeira",
        "street": "Rua Marujo Ferreira de Castro",
        "zipcode": "57602-650"
    },
    {
        "city": "Palmeira dos Índios",
        "state": "AL",
        "district": "Ribeira",
        "street": "Rua Vila Nova",
        "zipcode": "57602-660"
    },
    {
        "city": "Palmeira dos Índios",
        "state": "AL",
        "district": "Sonho Verde",
        "street": "Travessa João do Né",
        "zipcode": "57606-040"
    },
    {
        "city": "Palmeira dos Índios",
        "state": "AL",
        "district": "Sonho Verde",
        "street": "Rua São José",
        "zipcode": "57606-060"
    },
    {
        "city": "Palmeira dos Índios",
        "state": "AL",
        "district": "Sonho Verde",
        "street": "Travessa Direita",
        "zipcode": "57606-090"
    },
    {
        "city": "Palmeira dos Índios",
        "state": "AL",
        "district": "Sonho Verde",
        "street": "Rua Sonho Verde",
        "zipcode": "57606-100"
    },
    {
        "city": "Palmeira dos Índios",
        "state": "AL",
        "district": "Xucurus",
        "street": "Rua Nossa Senhora do Rosário",
        "zipcode": "57605-025"
    },
    {
        "city": "Palmeira dos Índios",
        "state": "AL",
        "district": "Sonho Verde",
        "street": "Rua Antônio Teixeira de Lima",
        "zipcode": "57606-110"
    },
    {
        "city": "Palmeira dos Índios",
        "state": "AL",
        "district": "Jardim Brasil",
        "street": "Rua Amazonas",
        "zipcode": "57607-030"
    },
    {
        "city": "Palmeira dos Índios",
        "state": "AL",
        "district": "Jardim Brasil",
        "street": "Rua Acre",
        "zipcode": "57607-050"
    },
    {
        "city": "Palmeira dos Índios",
        "state": "AL",
        "district": "Jardim Brasil",
        "street": "Rua Maranhão",
        "zipcode": "57607-060"
    },
    {
        "city": "Palmeira dos Índios",
        "state": "AL",
        "district": "Jardim Brasil",
        "street": "Rua Piauí",
        "zipcode": "57607-070"
    },
    {
        "city": "Palmeira dos Índios",
        "state": "AL",
        "district": "Jardim Brasil",
        "street": "Rua Bahia",
        "zipcode": "57607-130"
    },
    {
        "city": "Palmeira dos Índios",
        "state": "AL",
        "district": "Jardim Brasil",
        "street": "Rua Goiás",
        "zipcode": "57607-170"
    },
    {
        "city": "Palmeira dos Índios",
        "state": "AL",
        "district": "Jardim Brasil",
        "street": "Rua Antônio Eliziário",
        "zipcode": "57607-230"
    },
    {
        "city": "Palmeira dos Índios",
        "state": "AL",
        "district": "Vila Maria",
        "street": "Rua Rosendo Rodrigues de Oliveira",
        "zipcode": "57607-330"
    },
    {
        "city": "Palmeira dos Índios",
        "state": "AL",
        "district": "Vila Maria",
        "street": "Rua José Leite Filho",
        "zipcode": "57607-415"
    },
    {
        "city": "Palmeira dos Índios",
        "state": "AL",
        "district": "Vila Maria",
        "street": "Rua Padre Antônio Dimas",
        "zipcode": "57607-450"
    },
    {
        "city": "Palmeira dos Índios",
        "state": "AL",
        "district": "Vila Maria",
        "street": "Rua José Barbosa da Silva",
        "zipcode": "57607-490"
    },
    {
        "city": "Palmeira dos Índios",
        "state": "AL",
        "district": "Vila Maria",
        "street": "Rua Getúlio Vargas",
        "zipcode": "57607-500"
    },
    {
        "city": "Palmeira dos Índios",
        "state": "AL",
        "district": "Vila Maria",
        "street": "Rua Bom Jesus dos Passos",
        "zipcode": "57607-510"
    },
    {
        "city": "Palmeira dos Índios",
        "state": "AL",
        "district": "Vila Maria",
        "street": "Rua Bráulio Montenegro",
        "zipcode": "57607-520"
    },
    {
        "city": "Palmeira dos Índios",
        "state": "AL",
        "district": "Vila Maria",
        "street": "Rua Castelo Branco",
        "zipcode": "57607-550"
    },
    {
        "city": "Palmeira dos Índios",
        "state": "AL",
        "district": "Vila Maria",
        "street": "Rua Severino Cordeiro de Souza",
        "zipcode": "57607-620"
    },
    {
        "city": "Palmeira dos Índios",
        "state": "AL",
        "district": "Vila Maria",
        "street": "Rua Paulo Silas",
        "zipcode": "57607-680"
    },
    {
        "city": "Palmeira dos Índios",
        "state": "AL",
        "district": "Vila Maria",
        "street": "Rua Dona Moça",
        "zipcode": "57607-740"
    },
    {
        "city": "Palmeira dos Índios",
        "state": "AL",
        "district": "Palmeira de Fora",
        "street": "Rua João Elói",
        "zipcode": "57608-060"
    },
    {
        "city": "Palmeira dos Índios",
        "state": "AL",
        "district": "Palmeira de Fora",
        "street": "Rua Marcelino Tavares",
        "zipcode": "57608-120"
    },
    {
        "city": "Palmeira dos Índios",
        "state": "AL",
        "district": "Palmeira de Fora",
        "street": "Rua José Caboclo",
        "zipcode": "57608-200"
    },
    {
        "city": "Palmeira dos Índios",
        "state": "AL",
        "district": "Palmeira de Fora",
        "street": "Rua José Luiz",
        "zipcode": "57608-250"
    },
    {
        "city": "Palmeira dos Índios",
        "state": "AL",
        "district": "Palmeira de Fora",
        "street": "Rua do Campo",
        "zipcode": "57608-390"
    },
    {
        "city": "Palmeira dos Índios",
        "state": "AL",
        "district": "Centro",
        "street": "Travessa José Dias de Oliveira",
        "zipcode": "57600-450"
    },
    {
        "city": "Palmeira dos Índios",
        "state": "AL",
        "district": "Vila Maria",
        "street": "Rodovia BR 316",
        "zipcode": "57607-665"
    },
    {
        "city": "Palmeira dos Índios",
        "state": "AL",
        "district": "Palmeira de Fora",
        "street": "Rua Fernando Calixto",
        "zipcode": "57608-010"
    },
    {
        "city": "Palmeira dos Índios",
        "state": "AL",
        "district": "Palmeira de Fora",
        "street": "Rua José Franca",
        "zipcode": "57608-230"
    },
    {
        "city": "Palmeira dos Índios",
        "state": "AL",
        "district": "Palmeira de Fora",
        "street": "Rua José Queiroz",
        "zipcode": "57608-240"
    },
    {
        "city": "Palmeira dos Índios",
        "state": "AL",
        "district": "Palmeira de Fora",
        "street": "Rua Canuto Pinto",
        "zipcode": "57608-370"
    },
    {
        "city": "Palmeira dos Índios",
        "state": "AL",
        "district": "Palmeira de Fora",
        "street": "Rua José Firmino",
        "zipcode": "57608-220"
    },
    {
        "city": "Palmeira dos Índios",
        "state": "AL",
        "district": "São Cristóvão",
        "street": "Rua Manuel Rosa da Silva",
        "zipcode": "57601-270"
    },
    {
        "city": "Palmeira dos Índios",
        "state": "AL",
        "district": "Sonho Verde",
        "street": "Rua Professor Raimundo Lopes",
        "zipcode": "57606-276"
    },
    {
        "city": "Palmeira dos Índios",
        "state": "AL",
        "district": "Graciliano Ramos",
        "street": "Rodovia AL 115",
        "zipcode": "57604-595"
    },
    {
        "city": "Palmeira dos Índios",
        "state": "AL",
        "district": "Graciliano Ramos",
        "street": "Avenida Sabiá (Lot Recanto do Sabiá)",
        "zipcode": "57604-650"
    },
    {
        "city": "Palmeira dos Índios",
        "state": "AL",
        "district": "Graciliano Ramos",
        "street": "Alameda Sabiá",
        "zipcode": "57604-654"
    },
    {
        "city": "Palmeira dos Índios",
        "state": "AL",
        "district": "Vila Maria",
        "street": "Avenida Vieira de Brito",
        "zipcode": "57607-570"
    },
    {
        "city": "Palmeira dos Índios",
        "state": "AL",
        "district": "Palmeira de Fora",
        "street": "Avenida Rotary",
        "zipcode": "57608-400"
    },
    {
        "city": "Palmeira dos Índios",
        "state": "AL",
        "district": "Palmeira de Fora",
        "street": "Rua Milton Alvino (Cj Santa Helena)",
        "zipcode": "57608-495"
    },
    {
        "city": "Palmeira dos Índios",
        "state": "AL",
        "district": "Graciliano Ramos",
        "street": "Rua Carteiro Olegario Tertulino da Silva",
        "zipcode": "57604-518"
    },
    {
        "city": "Palmeira dos Índios",
        "state": "AL",
        "district": "Graciliano Ramos",
        "street": "Rua Carteiro José Cícero Costa",
        "zipcode": "57604-526"
    },
    {
        "city": "Palmeira dos Índios",
        "state": "AL",
        "district": "Graciliano Ramos",
        "street": "Rua Antônia Cabral da Silva (Lot Recanto do Sabiá)",
        "zipcode": "57604-662"
    },
    {
        "city": "Palmeira dos Índios",
        "state": "AL",
        "district": "Graciliano Ramos",
        "street": "Rua Arnobio Belarmino Barros",
        "zipcode": "57604-682"
    },
    {
        "city": "Palmeira dos Índios",
        "state": "AL",
        "district": "Graciliano Ramos",
        "street": "Rua Everaldo Garrote da Silva",
        "zipcode": "57604-692"
    },
    {
        "city": "Palmeira dos Índios",
        "state": "AL",
        "district": "Graciliano Ramos",
        "street": "Rua Evangelista Antonio Duarte",
        "zipcode": "57604-700"
    },
    {
        "city": "Palmeira dos Índios",
        "state": "AL",
        "district": "Graciliano Ramos",
        "street": "Rua Maria Eugênia Henrique da Silva (Lot Recanto do Sabiá)",
        "zipcode": "57604-660"
    },
    {
        "city": "Palmeira dos Índios",
        "state": "AL",
        "district": "Graciliano Ramos",
        "street": "Rua José Maria Melo da Costa",
        "zipcode": "57604-678"
    },
    {
        "city": "Palmeira dos Índios",
        "state": "AL",
        "district": "Graciliano Ramos",
        "street": "Rua João Demor",
        "zipcode": "57604-694"
    },
    {
        "city": "Palmeira dos Índios",
        "state": "AL",
        "district": "Paraíso",
        "street": "Travessa José Amaral",
        "zipcode": "57602-145"
    },
    {
        "city": "Palmeira dos Índios",
        "state": "AL",
        "district": "Palmeira de Fora",
        "street": "1ª Travessa Santo Antônio",
        "zipcode": "57608-530"
    },
    {
        "city": "Palmeira dos Índios",
        "state": "AL",
        "district": "Sonho Verde",
        "street": "Rua Vereador José Tenório de Albuquerque",
        "zipcode": "57606-258"
    },
    {
        "city": "Palmeira dos Índios",
        "state": "AL",
        "district": "Sonho Verde",
        "street": "Rua Jair Gomes de Oliveira",
        "zipcode": "57606-274"
    },
    {
        "city": "Palmeira dos Índios",
        "state": "AL",
        "district": "Sonho Verde",
        "street": "Rua José Raimundo Lopes Filho",
        "zipcode": "57606-272"
    },
    {
        "city": "Palmeira dos Índios",
        "state": "AL",
        "district": "Graciliano Ramos",
        "street": "Rua José Delfim da Mota Branco (Lot Recanto do Sabiá)",
        "zipcode": "57604-664"
    },
    {
        "city": "Palmeira dos Índios",
        "state": "AL",
        "district": "Graciliano Ramos",
        "street": "Rua Bayron Torres",
        "zipcode": "57604-690"
    },
    {
        "city": "Palmeira dos Índios",
        "state": "AL",
        "district": "Vila Maria",
        "street": "Rua Manoel Simões",
        "zipcode": "57607-535"
    },
    {
        "city": "Palmeira dos Índios",
        "state": "AL",
        "district": "Vila Maria",
        "street": "Rua Silvano Araújo",
        "zipcode": "57607-540"
    },
    {
        "city": "Palmeira dos Índios",
        "state": "AL",
        "district": "Vila Maria",
        "street": "Rua Isidoro Maia Barros",
        "zipcode": "57607-556"
    },
    {
        "city": "Palmeira dos Índios",
        "state": "AL",
        "district": "Vila Maria",
        "street": "Travessa João de Barros",
        "zipcode": "57607-565"
    },
    {
        "city": "Palmeira dos Índios",
        "state": "AL",
        "district": "Vila Maria",
        "street": "Rua Otávio Barbosa",
        "zipcode": "57607-640"
    },
    {
        "city": "Palmeira dos Índios",
        "state": "AL",
        "district": "Palmeira de Fora",
        "street": "Rua José Palmeira (Loteamento Guarani)",
        "zipcode": "57608-040"
    },
    {
        "city": "Palmeira dos Índios",
        "state": "AL",
        "district": "Palmeira de Fora",
        "street": "Rua Martiniano Correia",
        "zipcode": "57608-210"
    },
    {
        "city": "Palmeira dos Índios",
        "state": "AL",
        "district": "Palmeira de Fora",
        "street": "Rua José Correia",
        "zipcode": "57608-310"
    },
    {
        "city": "Palmeira dos Índios",
        "state": "AL",
        "district": "Palmeira de Fora",
        "street": "Rua Lagoa Nova",
        "zipcode": "57608-375"
    },
    {
        "city": "Palmeira dos Índios",
        "state": "AL",
        "district": "Palmeira de Fora",
        "street": "Rua Carteiro Pedro dos Santos",
        "zipcode": "57608-415"
    },
    {
        "city": "Palmeira dos Índios",
        "state": "AL",
        "district": "Sonho Verde",
        "street": "Rua Antônio Vitório",
        "zipcode": "57606-262"
    },
    {
        "city": "Palmeira dos Índios",
        "state": "AL",
        "district": "Sonho Verde",
        "street": "Rua Promotor Altamir Monteiro",
        "zipcode": "57606-264"
    },
    {
        "city": "Palmeira dos Índios",
        "state": "AL",
        "district": "Palmeira de Fora",
        "street": "Rua Irmã Marcela",
        "zipcode": "57608-440"
    },
    {
        "city": "Palmeira dos Índios",
        "state": "AL",
        "district": "Palmeira de Fora",
        "street": "Rua Irmã Bernadete",
        "zipcode": "57608-450"
    },
    {
        "city": "Palmeira dos Índios",
        "state": "AL",
        "district": "Palmeira de Fora",
        "street": "Rua São Vicente de Paula",
        "zipcode": "57608-480"
    },
    {
        "city": "Palmeira dos Índios",
        "state": "AL",
        "district": "Palmeira de Fora",
        "street": "Rua São José",
        "zipcode": "57608-510"
    },
    {
        "city": "Palmeira dos Índios",
        "state": "AL",
        "district": "Vila Maria",
        "street": "Rua Nova Jerusalém",
        "zipcode": "57607-470"
    },
    {
        "city": "Palmeira dos Índios",
        "state": "AL",
        "district": "Palmeira de Fora",
        "street": "Rua Anita Ferreira",
        "zipcode": "57608-080"
    },
    {
        "city": "Palmeira dos Índios",
        "state": "AL",
        "district": "Palmeira de Fora",
        "street": "Rua Francisco Gomes",
        "zipcode": "57608-320"
    },
    {
        "city": "Palmeira dos Índios",
        "state": "AL",
        "district": "Palmeira de Fora",
        "street": "Rua José Quirino",
        "zipcode": "57608-330"
    },
    {
        "city": "Palmeira dos Índios",
        "state": "AL",
        "district": "Palmeira de Fora",
        "street": "Travessa Baixa Fria",
        "zipcode": "57608-380"
    },
    {
        "city": "Palmeira dos Índios",
        "state": "AL",
        "district": "Palmeira de Fora",
        "street": "Rua Santo Antônio",
        "zipcode": "57608-520"
    },
    {
        "city": "Palmeira dos Índios",
        "state": "AL",
        "district": "Palmeira de Fora",
        "street": "Rua Domingo Clarindo da Silva (Cj Santa Helena)",
        "zipcode": "57608-515"
    },
    {
        "city": "Palmeira dos Índios",
        "state": "AL",
        "district": "Alto do Cruzeiro",
        "street": "Travessa Professor Guedes de Miranda",
        "zipcode": "57600-575"
    },
    {
        "city": "Palmeira dos Índios",
        "state": "AL",
        "district": "Alto do Cruzeiro",
        "street": "3ª Travessa José Caetano de Moraes",
        "zipcode": "57600-703"
    },
    {
        "city": "Palmeira dos Índios",
        "state": "AL",
        "district": "Paraíso",
        "street": "Avenida Hermelinda Barbosa",
        "zipcode": "57602-020"
    },
    {
        "city": "Palmeira dos Índios",
        "state": "AL",
        "district": "Xucurus",
        "street": "Alameda Manoel Simplício Nascimento",
        "zipcode": "57605-050"
    },
    {
        "city": "Palmeira dos Índios",
        "state": "AL",
        "district": "Palmeira de Fora",
        "street": "Travessa Luiz Alves",
        "zipcode": "57608-383"
    },
    {
        "city": "Palmeira dos Índios",
        "state": "AL",
        "district": "José Maia Costa",
        "street": "Rua Engenheiro José da Rocha Leite",
        "zipcode": "57602-493"
    },
    {
        "city": "Palmeira dos Índios",
        "state": "AL",
        "district": "Juca Sampaio",
        "street": "Rua Dona Lourdes Galindo Pimentel",
        "zipcode": "57603-050"
    },
    {
        "city": "Palmeira dos Índios",
        "state": "AL",
        "district": "Juca Sampaio",
        "street": "Rua Ataide Amaral",
        "zipcode": "57603-142"
    },
    {
        "city": "Palmeira dos Índios",
        "state": "AL",
        "district": "Juca Sampaio",
        "street": "Rua Deputado Jota Duarte",
        "zipcode": "57603-280"
    },
    {
        "city": "Palmeira dos Índios",
        "state": "AL",
        "district": "Graciliano Ramos",
        "street": "Rua Aurilio Barbosa da Silva (Lot Recanto do Sabiá)",
        "zipcode": "57604-672"
    },
    {
        "city": "Palmeira dos Índios",
        "state": "AL",
        "district": "São Francisco",
        "street": "Rua Fiscal Pedro Leitão",
        "zipcode": "57602-420"
    },
    {
        "city": "Palmeira dos Índios",
        "state": "AL",
        "district": "Ribeira",
        "street": "Rua Maria Cícera Lourenço Barbosa",
        "zipcode": "57602-750"
    },
    {
        "city": "Palmeira dos Índios",
        "state": "AL",
        "district": "Juca Sampaio",
        "street": "Rua Hamilton Didier",
        "zipcode": "57603-016"
    },
    {
        "city": "Palmeira dos Índios",
        "state": "AL",
        "district": "Juca Sampaio",
        "street": "Rua João Medeiros Neto",
        "zipcode": "57603-123"
    },
    {
        "city": "Palmeira dos Índios",
        "state": "AL",
        "district": "Juca Sampaio",
        "street": "Rua Luiz Paciência Torres",
        "zipcode": "57603-292"
    },
    {
        "city": "Palmeira dos Índios",
        "state": "AL",
        "district": "Graciliano Ramos",
        "street": "Rua José Martins Ferreira",
        "zipcode": "57604-125"
    },
    {
        "city": "Palmeira dos Índios",
        "state": "AL",
        "district": "Graciliano Ramos",
        "street": "Rua Francisco Farias da Silva (Lot Recanto do Sabiá)",
        "zipcode": "57604-800"
    },
    {
        "city": "Palmeira dos Índios",
        "state": "AL",
        "district": "Graciliano Ramos",
        "street": "Rua Manoel Barbosa dos Santos (Lot Recanto do Sabiá)",
        "zipcode": "57604-808"
    },
    {
        "city": "Palmeira dos Índios",
        "state": "AL",
        "district": "Graciliano Ramos",
        "street": "Rua Joventino Ferreira",
        "zipcode": "57604-680"
    },
    {
        "city": "Palmeira dos Índios",
        "state": "AL",
        "district": "Sonho Verde",
        "street": "Rua José Pereira da Silva",
        "zipcode": "57606-055"
    },
    {
        "city": "Palmeira dos Índios",
        "state": "AL",
        "district": "São Luiz",
        "street": "Rua Mestre Antônio dos Santos",
        "zipcode": "57602-210"
    },
    {
        "city": "Palmeira dos Índios",
        "state": "AL",
        "district": "Juca Sampaio",
        "street": "Rua Tabelião Fernandes de Barros",
        "zipcode": "57603-075"
    },
    {
        "city": "Palmeira dos Índios",
        "state": "AL",
        "district": "Juca Sampaio",
        "street": "Rua Professora Maria de Lourdes Monteiro",
        "zipcode": "57603-135"
    },
    {
        "city": "Palmeira dos Índios",
        "state": "AL",
        "district": "Alto do Cruzeiro",
        "street": "Rua Monte Bela Vista",
        "zipcode": "57600-730"
    },
    {
        "city": "Palmeira dos Índios",
        "state": "AL",
        "district": "Sonho Verde",
        "street": "Rua Pedro Limeira",
        "zipcode": "57606-252"
    },
    {
        "city": "Palmeira dos Índios",
        "state": "AL",
        "district": "Juca Sampaio",
        "street": "Rua Soldado Júlio Ferro",
        "zipcode": "57603-270"
    },
    {
        "city": "Palmeira dos Índios",
        "state": "AL",
        "district": "Graciliano Ramos",
        "street": "Rua Matilde Rodrigues de Lima (Lot Recanto do Sabiá)",
        "zipcode": "57604-804"
    },
    {
        "city": "Palmeira dos Índios",
        "state": "AL",
        "district": "Graciliano Ramos",
        "street": "Rua Sara Ferro de Oliveira (Lot Recanto do Sabiá)",
        "zipcode": "57604-806"
    },
    {
        "city": "Palmeira dos Índios",
        "state": "AL",
        "district": "Graciliano Ramos",
        "street": "Rua Vereador Manoel Marques Luz",
        "zipcode": "57604-818"
    },
    {
        "city": "Palmeira dos Índios",
        "state": "AL",
        "district": "Xucurus",
        "street": "Travessa José Hilário de Oliveira",
        "zipcode": "57605-125"
    },
    {
        "city": "Palmeira dos Índios",
        "state": "AL",
        "district": "Xucurus",
        "street": "Travessa Avelino Balbino da Silva",
        "zipcode": "57605-035"
    },
    {
        "city": "Palmeira dos Índios",
        "state": "AL",
        "district": "Sonho Verde",
        "street": "Travessa da Paz",
        "zipcode": "57606-020"
    },
    {
        "city": "Palmeira dos Índios",
        "state": "AL",
        "district": "Ribeira",
        "street": "Travessa Maria Tenório Cavalcante",
        "zipcode": "57602-685"
    },
    {
        "city": "Palmeira dos Índios",
        "state": "AL",
        "district": "Centro",
        "street": "4ª Travessa Antônio Matias",
        "zipcode": "57600-390"
    },
    {
        "city": "Palmeira dos Índios",
        "state": "AL",
        "district": "Vila Maria",
        "street": "Travessa Sebastiana Mendes",
        "zipcode": "57607-405"
    },
    {
        "city": "Palmeira dos Índios",
        "state": "AL",
        "district": "Alto do Cruzeiro",
        "street": "Rua Treze de Maio",
        "zipcode": "57600-670"
    },
    {
        "city": "Palmeira dos Índios",
        "state": "AL",
        "district": "São Cristóvão",
        "street": "Avenida Sete de Setembro",
        "zipcode": "57601-140"
    },
    {
        "city": "Palmeira dos Índios",
        "state": "AL",
        "district": "Vila Maria",
        "street": "Praça Tabelião Margarida Leite",
        "zipcode": "57607-440"
    },
    {
        "city": "Palmeira dos Índios",
        "state": "AL",
        "district": "Vila Maria",
        "street": "Travessa Manoel Leandro da Silva",
        "zipcode": "57607-725"
    },
    {
        "city": "Palmeira dos Índios",
        "state": "AL",
        "district": "Palmeira de Fora",
        "street": "Rua João José de Moraes",
        "zipcode": "57608-385"
    },
    {
        "city": "Palmeira dos Índios",
        "state": "AL",
        "district": "Palmeira de Fora",
        "street": "Travessa Lili Barros",
        "zipcode": "57608-470"
    },
    {
        "city": "Palmeira dos Índios",
        "state": "AL",
        "district": "Sonho Verde",
        "street": "Rua Maria de Lourdes Ribeiro Monteiro",
        "zipcode": "57606-278"
    },
    {
        "city": "Palmeira dos Índios",
        "state": "AL",
        "district": "Vila Maria",
        "street": "Travessa Francisco Barbosa",
        "zipcode": "57607-465"
    },
    {
        "city": "Palmeira dos Índios",
        "state": "AL",
        "district": "Vila Maria",
        "street": "Rua Antônio Gaudino dos Santos",
        "zipcode": "57607-610"
    },
    {
        "city": "Palmeira dos Índios",
        "state": "AL",
        "district": "Vila Maria",
        "street": "Travessa Manoel Albuquerque",
        "zipcode": "57607-390"
    },
    {
        "city": "Palmeira dos Índios",
        "state": "AL",
        "district": "São Francisco",
        "street": "Travessa Vereador Zeca Paulo",
        "zipcode": "57602-335"
    },
    {
        "city": "Palmeira dos Índios",
        "state": "AL",
        "district": "São Luiz",
        "street": "Avenida Conselheiro Sebastião Lima",
        "zipcode": "57602-240"
    },
    {
        "city": "Palmeira dos Índios",
        "state": "AL",
        "district": "Alto do Cruzeiro",
        "street": "Rua Santos Dumont",
        "zipcode": "57600-688"
    },
    {
        "city": "Palmeira dos Índios",
        "state": "AL",
        "district": "Paraíso",
        "street": "Avenida Conselheiro Sebastião Lima",
        "zipcode": "57602-080"
    },
    {
        "city": "Palmeira dos Índios",
        "state": "AL",
        "district": "Vila Maria",
        "street": "Travessa Manoel Tenório de Albuquerque",
        "zipcode": "57607-385"
    },
    {
        "city": "Palmeira dos Índios",
        "state": "AL",
        "district": "Centro",
        "street": "Rua Bráulio Cavalcante",
        "zipcode": "57600-420"
    },
    {
        "city": "Palmeira dos Índios",
        "state": "AL",
        "district": "Centro",
        "street": "Rua Chico Nunes",
        "zipcode": "57600-460"
    },
    {
        "city": "Palmeira dos Índios",
        "state": "AL",
        "district": "Centro",
        "street": "Rua Duque de Caxias",
        "zipcode": "57600-970"
    },
    {
        "city": "Palmeira dos Índios",
        "state": "AL",
        "district": "Juca Sampaio",
        "street": "Rua Elói Soares da Costa",
        "zipcode": "57603-120"
    },
    {
        "city": "Palmeira dos Índios",
        "state": "AL",
        "district": "Juca Sampaio",
        "street": "Rua Cacilda Sampaio",
        "zipcode": "57603-140"
    },
    {
        "city": "Palmeira dos Índios",
        "state": "AL",
        "district": "Juca Sampaio",
        "street": "Rua Coronel Petrucio de Melo",
        "zipcode": "57603-152"
    },
    {
        "city": "Palmeira dos Índios",
        "state": "AL",
        "district": "Graciliano Ramos",
        "street": "Rua Dorotheu Marques Luz",
        "zipcode": "57604-115"
    },
    {
        "city": "Palmeira dos Índios",
        "state": "AL",
        "district": "Graciliano Ramos",
        "street": "Rua Carteiro Sebastião Paranhos Ferro",
        "zipcode": "57604-522"
    },
    {
        "city": "Palmeira dos Índios",
        "state": "AL",
        "district": "Graciliano Ramos",
        "street": "Rua Desportista Francisco Bernardo",
        "zipcode": "57604-698"
    },
    {
        "city": "Palmeira dos Índios",
        "state": "AL",
        "district": "Xucurus",
        "street": "Rua Avelino Balbino da Silva",
        "zipcode": "57605-030"
    },
    {
        "city": "Palmeira dos Índios",
        "state": "AL",
        "district": "Paraíso",
        "street": "Rua Doutor Aristeu Arruda",
        "zipcode": "57602-000"
    },
    {
        "city": "Palmeira dos Índios",
        "state": "AL",
        "district": "Sonho Verde",
        "street": "Rua da Direita",
        "zipcode": "57606-095"
    },
    {
        "city": "Palmeira dos Índios",
        "state": "AL",
        "district": "Centro",
        "street": "Rua Manoel Gomes da Silva",
        "zipcode": "57600-240"
    },
    {
        "city": "Palmeira dos Índios",
        "state": "AL",
        "district": "São Cristóvão",
        "street": "Rua José Elias Neves",
        "zipcode": "57601-332"
    },
    {
        "city": "Palmeira dos Índios",
        "state": "AL",
        "district": "São Cristóvão",
        "street": "Rua Francisco Ferreira Barbosa",
        "zipcode": "57601-380"
    },
    {
        "city": "Palmeira dos Índios",
        "state": "AL",
        "district": "Paraíso",
        "street": "Rua José Amaral",
        "zipcode": "57602-140"
    },
    {
        "city": "Palmeira dos Índios",
        "state": "AL",
        "district": "Juca Sampaio",
        "street": "Rua José Sineyde",
        "zipcode": "57603-014"
    },
    {
        "city": "Palmeira dos Índios",
        "state": "AL",
        "district": "São Cristóvão",
        "street": "Rua Luiz Mota dos Santos",
        "zipcode": "57601-230"
    },
    {
        "city": "Palmeira dos Índios",
        "state": "AL",
        "district": "São Cristóvão",
        "street": "Rua José Miguel Pereira",
        "zipcode": "57601-260"
    },
    {
        "city": "Palmeira dos Índios",
        "state": "AL",
        "district": "Ribeira",
        "street": "Rua João Pinheiro Cavalcante",
        "zipcode": "57602-537"
    },
    {
        "city": "Palmeira dos Índios",
        "state": "AL",
        "district": "Juca Sampaio",
        "street": "Rua Gerson Raimundo dos Santos",
        "zipcode": "57603-012"
    },
    {
        "city": "Palmeira dos Índios",
        "state": "AL",
        "district": "Graciliano Ramos",
        "street": "Rua Hortencia Targino Eliziário",
        "zipcode": "57604-684"
    },
    {
        "city": "Palmeira dos Índios",
        "state": "AL",
        "district": "Sonho Verde",
        "street": "Rua Irmãos Barbosa",
        "zipcode": "57606-050"
    },
    {
        "city": "Palmeira dos Índios",
        "state": "AL",
        "district": "Centro",
        "street": "Rua Otávio Cavalcante",
        "zipcode": "57600-070"
    },
    {
        "city": "Palmeira dos Índios",
        "state": "AL",
        "district": "São Cristóvão",
        "street": "Travessa Manoel Rodrigues de Queiroz",
        "zipcode": "57601-315"
    },
    {
        "city": "Palmeira dos Índios",
        "state": "AL",
        "district": "São Cristóvão",
        "street": "Rua Vera Cruz",
        "zipcode": "57601-326"
    },
    {
        "city": "Palmeira dos Índios",
        "state": "AL",
        "district": "São Cristóvão",
        "street": "Rua Mariana Rodrigues de Melo",
        "zipcode": "57601-422"
    },
    {
        "city": "Palmeira dos Índios",
        "state": "AL",
        "district": "Juca Sampaio",
        "street": "Rua Radialista Josmário Silva",
        "zipcode": "57603-294"
    },
    {
        "city": "Palmeira dos Índios",
        "state": "AL",
        "district": "Xucurus",
        "street": "Travessa José Vitório Cavalcante",
        "zipcode": "57605-075"
    },
    {
        "city": "Palmeira dos Índios",
        "state": "AL",
        "district": "São Cristóvão",
        "street": "Rua Vinte e Sete de Julho",
        "zipcode": "57601-175"
    },
    {
        "city": "Palmeira dos Índios",
        "state": "AL",
        "district": "Juca Sampaio",
        "street": "Travessa Manoel Sampaio Luz",
        "zipcode": "57603-126"
    },
    {
        "city": "Palmeira dos Índios",
        "state": "AL",
        "district": "São Cristóvão",
        "street": "Vila Rejane",
        "zipcode": "57601-040"
    },
    {
        "city": "Palmeira dos Índios",
        "state": "AL",
        "district": "Centro",
        "street": "Rua Leopoldo Duarte",
        "zipcode": "57600-280"
    },
    {
        "city": "Palmeira dos Índios",
        "state": "AL",
        "district": "São Cristóvão",
        "street": "Rua Manoel Augusto dos Santos",
        "zipcode": "57601-160"
    },
    {
        "city": "Palmeira dos Índios",
        "state": "AL",
        "district": "Juca Sampaio",
        "street": "Rua Expedicionário José Viana da Silva",
        "zipcode": "57603-100"
    },
    {
        "city": "Palmeira dos Índios",
        "state": "AL",
        "district": "Palmeira de Fora",
        "street": "Rua Francisco Pinto",
        "zipcode": "57608-300"
    },
    {
        "city": "Palmeira dos Índios",
        "state": "AL",
        "district": "Palmeira de Fora",
        "street": "Rua Irmã Ana",
        "zipcode": "57608-430"
    },
    {
        "city": "Palmeira dos Índios",
        "state": "AL",
        "district": "São Francisco",
        "street": "Rua Fredovino Maia",
        "zipcode": "57602-450"
    },
    {
        "city": "Palmeira dos Índios",
        "state": "AL",
        "district": "José Maia Costa",
        "street": "Rua Luiz Vieira de Barros",
        "zipcode": "57602-498"
    },
    {
        "city": "Palmeira dos Índios",
        "state": "AL",
        "district": "Juca Sampaio",
        "street": "Rua Doutor Denicio Calixto",
        "zipcode": "57603-134"
    },
    {
        "city": "Palmeira dos Índios",
        "state": "AL",
        "district": "Graciliano Ramos",
        "street": "Rua Carteiro Gilberto Duarte de Amorim",
        "zipcode": "57604-514"
    },
    {
        "city": "Palmeira dos Índios",
        "state": "AL",
        "district": "Xucurus",
        "street": "Travessa Julita Machado",
        "zipcode": "57605-105"
    },
    {
        "city": "Palmeira dos Índios",
        "state": "AL",
        "district": "Jardim Brasil",
        "street": "Rua Frederico Osana",
        "zipcode": "57607-210"
    },
    {
        "city": "Palmeira dos Índios",
        "state": "AL",
        "district": "Alto do Cruzeiro",
        "street": "Rua São Geraldo",
        "zipcode": "57600-600"
    },
    {
        "city": "Palmeira dos Índios",
        "state": "AL",
        "district": "Alto do Cruzeiro",
        "street": "Rua Camara Junior",
        "zipcode": "57600-725"
    },
    {
        "city": "Palmeira dos Índios",
        "state": "AL",
        "district": "São Cristóvão",
        "street": "Avenida Holanda",
        "zipcode": "57601-280"
    },
    {
        "city": "Palmeira dos Índios",
        "state": "AL",
        "district": "José Maia Costa",
        "street": "Avenida Muniz Falcão",
        "zipcode": "57602-490"
    },
    {
        "city": "Palmeira dos Índios",
        "state": "AL",
        "district": "Alto do Cruzeiro",
        "street": "Rua Dez de Abril",
        "zipcode": "57600-680"
    },
    {
        "city": "Palmeira dos Índios",
        "state": "AL",
        "district": "Alto do Cruzeiro",
        "street": "Rua Vereador Mário Leite",
        "zipcode": "57600-720"
    },
    {
        "city": "Palmeira dos Índios",
        "state": "AL",
        "district": "Centro",
        "street": "Rua Fernandes Lima",
        "zipcode": "57600-120"
    },
    {
        "city": "Palmeira dos Índios",
        "state": "AL",
        "district": "Centro",
        "street": "Rua Antônio Matias",
        "zipcode": "57600-350"
    },
    {
        "city": "Palmeira dos Índios",
        "state": "AL",
        "district": "São Cristóvão",
        "street": "Rua Bráulio Montenegro",
        "zipcode": "57601-440"
    },
    {
        "city": "Palmeira dos Índios",
        "state": "AL",
        "district": "Centro",
        "street": "Rua Marçal de Oliveira",
        "zipcode": "57600-260"
    },
    {
        "city": "Palmeira dos Índios",
        "state": "AL",
        "district": "Paraíso",
        "street": "Rua Maria José Maia",
        "zipcode": "57602-070"
    },
    {
        "city": "Palmeira dos Índios",
        "state": "AL",
        "district": "São Francisco",
        "street": "Rua José Amaral",
        "zipcode": "57602-315"
    },
    {
        "city": "Palmeira dos Índios",
        "state": "AL",
        "district": "Ribeira",
        "street": "Rua Manoel Nicácio",
        "zipcode": "57602-520"
    },
    {
        "city": "Palmeira dos Índios",
        "state": "AL",
        "district": "Graciliano Ramos",
        "street": "Rua Gracindo Félix da Silva (Lot Recanto do Sabiá)",
        "zipcode": "57604-676"
    },
    {
        "city": "Palmeira dos Índios",
        "state": "AL",
        "district": "Graciliano Ramos",
        "street": "Rua Luiz Rodrigues de Araújo",
        "zipcode": "57604-686"
    },
    {
        "city": "Palmeira dos Índios",
        "state": "AL",
        "district": "São Cristóvão",
        "street": "Rua Pedro Soares da Mota",
        "zipcode": "57601-010"
    },
    {
        "city": "Palmeira dos Índios",
        "state": "AL",
        "district": "José Maia Costa",
        "street": "Rua Vereador Antônio Balbino",
        "zipcode": "57602-494"
    },
    {
        "city": "Palmeira dos Índios",
        "state": "AL",
        "district": "Juca Sampaio",
        "street": "Rua Valdemar Otávio Torres",
        "zipcode": "57603-296"
    },
    {
        "city": "Palmeira dos Índios",
        "state": "AL",
        "district": "Xucurus",
        "street": "Rua Terezinha Constancia",
        "zipcode": "57605-090"
    },
    {
        "city": "Palmeira dos Índios",
        "state": "AL",
        "district": "São Cristóvão",
        "street": "Rua Professora Lourdes Barreto",
        "zipcode": "57601-130"
    },
    {
        "city": "Palmeira dos Índios",
        "state": "AL",
        "district": "São Francisco",
        "street": "Rua Vigário Lessa",
        "zipcode": "57602-430"
    },
    {
        "city": "Palmeira dos Índios",
        "state": "AL",
        "district": "Xucurus",
        "street": "Rua Osório Horácio",
        "zipcode": "57605-010"
    },
    {
        "city": "Palmeira dos Índios",
        "state": "AL",
        "district": "Centro",
        "street": "Vila Vitória",
        "zipcode": "57600-400"
    },
    {
        "city": "Palmeira dos Índios",
        "state": "AL",
        "district": "Centro",
        "street": "3ª Travessa Antônio Matias",
        "zipcode": "57600-380"
    },
    {
        "city": "Palmeira dos Índios",
        "state": "AL",
        "district": "Palmeira de Fora",
        "street": "2ª Travessa Santo Antônio",
        "zipcode": "57608-535"
    },
    {
        "city": "Palmeira dos Índios",
        "state": "AL",
        "district": "Centro",
        "street": "Rua Doutor Moreira e Silva",
        "zipcode": "57600-100"
    },
    {
        "city": "Palmeira dos Índios",
        "state": "AL",
        "district": "São Cristóvão",
        "street": "Travessa Fiscal José Passos",
        "zipcode": "57601-275"
    },
    {
        "city": "Palmeira dos Índios",
        "state": "AL",
        "district": "Juca Sampaio",
        "street": "Rua Sebastião Barbosa",
        "zipcode": "57603-040"
    },
    {
        "city": "Palmeira dos Índios",
        "state": "AL",
        "district": "Sonho Verde",
        "street": "Rua João do Né",
        "zipcode": "57606-030"
    },
    {
        "city": "Palmeira dos Índios",
        "state": "AL",
        "district": "Jardim Brasil",
        "street": "Rua Getúlio Vargas",
        "zipcode": "57607-055"
    },
    {
        "city": "Palmeira dos Índios",
        "state": "AL",
        "district": "Jardim Brasil",
        "street": "Rua Mato Grosso",
        "zipcode": "57607-180"
    },
    {
        "city": "Palmeira dos Índios",
        "state": "AL",
        "district": "Vila Maria",
        "street": "Rua Cláudio Barbosa de Lima",
        "zipcode": "57607-360"
    },
    {
        "city": "Palmeira dos Índios",
        "state": "AL",
        "district": "Vila Maria",
        "street": "Rua Raimundo de Assis Maia",
        "zipcode": "57607-370"
    },
    {
        "city": "Palmeira dos Índios",
        "state": "AL",
        "district": "Vila Maria",
        "street": "Travessa Bráulio Montenegro",
        "zipcode": "57607-525"
    },
    {
        "city": "Palmeira dos Índios",
        "state": "AL",
        "district": "Vila Maria",
        "street": "Rua São Jorge",
        "zipcode": "57607-630"
    },
    {
        "city": "Palmeira dos Índios",
        "state": "AL",
        "district": "Vila Maria",
        "street": "Rua Manoel Leandro da Silva",
        "zipcode": "57607-720"
    },
    {
        "city": "Palmeira dos Índios",
        "state": "AL",
        "district": "Palmeira de Fora",
        "street": "Rua José Tobias Duarte",
        "zipcode": "57608-090"
    },
    {
        "city": "Palmeira dos Índios",
        "state": "AL",
        "district": "Palmeira de Fora",
        "street": "Rua Maria Júlia",
        "zipcode": "57608-190"
    },
    {
        "city": "Palmeira dos Índios",
        "state": "AL",
        "district": "Palmeira de Fora",
        "street": "Rua José Jupí",
        "zipcode": "57608-270"
    },
    {
        "city": "Palmeira dos Índios",
        "state": "AL",
        "district": "Palmeira de Fora",
        "street": "Rua Fiscal Antônio Cirino",
        "zipcode": "57608-410"
    },
    {
        "city": "Palmeira dos Índios",
        "state": "AL",
        "district": "Palmeira de Fora",
        "street": "Rua Paulo Duarte Pinto",
        "zipcode": "57608-477"
    },
    {
        "city": "Palmeira dos Índios",
        "state": "AL",
        "district": "São Cristóvão",
        "street": "Praça Doutor José Valdomiro Mota",
        "zipcode": "57601-185"
    },
    {
        "city": "Palmeira dos Índios",
        "state": "AL",
        "district": "São Luiz",
        "street": "Rua Domingos Roque Costa",
        "zipcode": "57602-170"
    },
    {
        "city": "Palmeira dos Índios",
        "state": "AL",
        "district": "Jardim Brasil",
        "street": "Rua Estudante Eraldo Malta",
        "zipcode": "57607-200"
    },
    {
        "city": "Palmeira dos Índios",
        "state": "AL",
        "district": "Jardim Brasil",
        "street": "Rua Brasil Novo",
        "zipcode": "57607-280"
    },
    {
        "city": "Palmeira dos Índios",
        "state": "AL",
        "district": "Vila Maria",
        "street": "Rua Francisco Barbosa",
        "zipcode": "57607-460"
    },
    {
        "city": "Palmeira dos Índios",
        "state": "AL",
        "district": "São Cristóvão",
        "street": "Travessa Pedro Barbosa",
        "zipcode": "57601-085"
    },
    {
        "city": "Palmeira dos Índios",
        "state": "AL",
        "district": "Juca Sampaio",
        "street": "Rua Coronel José Martins Pereira",
        "zipcode": "57603-180"
    },
    {
        "city": "Palmeira dos Índios",
        "state": "AL",
        "district": "Vila Maria",
        "street": "1ª Travessa Padre Cícero",
        "zipcode": "57607-601"
    },
    {
        "city": "Palmeira dos Índios",
        "state": "AL",
        "district": "Palmeira de Fora",
        "street": "Rua Dornião",
        "zipcode": "57608-185"
    },
    {
        "city": "Palmeira dos Índios",
        "state": "AL",
        "district": "Ribeira",
        "street": "Rua Maria Tenório Cavalcante",
        "zipcode": "57602-680"
    },
    {
        "city": "Palmeira dos Índios",
        "state": "AL",
        "district": "Vila Maria",
        "street": "Rua Vereador Pajeu",
        "zipcode": "57607-660"
    },
    {
        "city": "Palmeira dos Índios",
        "state": "AL",
        "district": "Palmeira de Fora",
        "street": "Rua Julião de Aquino (Cj Santa Helena)",
        "zipcode": "57608-545"
    },
    {
        "city": "Palmeira dos Índios",
        "state": "AL",
        "district": "Palmeira de Fora",
        "street": "Rua Miguel Jerônimo da Rocha (Cj Santa Helena)",
        "zipcode": "57608-560"
    },
    {
        "city": "Palmeira dos Índios",
        "state": "AL",
        "district": "Palmeira de Fora",
        "street": "Rua Atendente José Ailton da Silva",
        "zipcode": "57608-376"
    },
    {
        "city": "Palmeira dos Índios",
        "state": "AL",
        "district": "Palmeira de Fora",
        "street": "Rua Carteiro Francisco Pessoa de Araújo",
        "zipcode": "57608-388"
    },
    {
        "city": "Palmeira dos Índios",
        "state": "AL",
        "district": "Palmeira de Fora",
        "street": "Rua João Fabiano",
        "zipcode": "57608-260"
    },
    {
        "city": "Palmeira dos Índios",
        "state": "AL",
        "district": "Alto do Cruzeiro",
        "street": "1ª Travessa Pio XII",
        "zipcode": "57600-555"
    },
    {
        "city": "Palmeira dos Índios",
        "state": "AL",
        "district": "Alto do Cruzeiro",
        "street": "Rua Manoel Gomes da Silva",
        "zipcode": "57600-565"
    },
    {
        "city": "Palmeira dos Índios",
        "state": "AL",
        "district": "Centro",
        "street": "Rua Dom Bôsco",
        "zipcode": "57600-055"
    },
    {
        "city": "Palmeira dos Índios",
        "state": "AL",
        "district": "Centro",
        "street": "Praça Hélio Teixeira",
        "zipcode": "57600-145"
    },
    {
        "city": "Palmeira dos Índios",
        "state": "AL",
        "district": "Centro",
        "street": "Rua Duque de Caxias",
        "zipcode": "57600-040"
    },
    {
        "city": "Palmeira dos Índios",
        "state": "AL",
        "district": "Centro",
        "street": "Rua Esperidião Sampaio",
        "zipcode": "57600-180"
    },
    {
        "city": "Palmeira dos Índios",
        "state": "AL",
        "district": "Centro",
        "street": "Rua Clodoaldo da Fonseca",
        "zipcode": "57600-215"
    },
    {
        "city": "Palmeira dos Índios",
        "state": "AL",
        "district": "Centro",
        "street": "Rua Adolfo Pinto",
        "zipcode": "57600-340"
    },
    {
        "city": "Palmeira dos Índios",
        "state": "AL",
        "district": "Centro",
        "street": "Praça Moreno Brandão",
        "zipcode": "57600-410"
    },
    {
        "city": "Palmeira dos Índios",
        "state": "AL",
        "district": "Centro",
        "street": "Praça Monsenhor Macêdo",
        "zipcode": "57600-480"
    },
    {
        "city": "Palmeira dos Índios",
        "state": "AL",
        "district": "Centro",
        "street": "Rua Luiz Silveira",
        "zipcode": "57600-025"
    },
    {
        "city": "Palmeira dos Índios",
        "state": "AL",
        "district": "Centro",
        "street": "Rua Major Cícero de Góis Monteiro",
        "zipcode": "57600-050"
    },
    {
        "city": "Palmeira dos Índios",
        "state": "AL",
        "district": "Centro",
        "street": "Rua José de Freitas Silva",
        "zipcode": "57600-230"
    },
    {
        "city": "Palmeira dos Índios",
        "state": "AL",
        "district": "Centro",
        "street": "Rua Julião Paulo Silva",
        "zipcode": "57600-300"
    },
    {
        "city": "Palmeira dos Índios",
        "state": "AL",
        "district": "Centro",
        "street": "Rua Marechal Deodoro da Fonseca",
        "zipcode": "57600-060"
    },
    {
        "city": "Palmeira dos Índios",
        "state": "AL",
        "district": "Centro",
        "street": "Rua Luiz Pinto de Andrade",
        "zipcode": "57600-200"
    },
    {
        "city": "Palmeira dos Índios",
        "state": "AL",
        "district": "Centro",
        "street": "Rua Vereador Nilo Barros",
        "zipcode": "57600-080"
    },
    {
        "city": "Palmeira dos Índios",
        "state": "AL",
        "district": "Centro",
        "street": "Rua Professor Guedes de Miranda",
        "zipcode": "57600-105"
    },
    {
        "city": "Palmeira dos Índios",
        "state": "AL",
        "district": "Centro",
        "street": "Rua Marujo Ferreira de Castro",
        "zipcode": "57600-225"
    },
    {
        "city": "Palmeira dos Índios",
        "state": "AL",
        "district": "Centro",
        "street": "Rua Mariano de Freitas",
        "zipcode": "57600-395"
    },
    {
        "city": "Palmeira dos Índios",
        "state": "AL",
        "district": "Centro",
        "street": "Rua Pedro Barbosa",
        "zipcode": "57600-405"
    },
    {
        "city": "Palmeira dos Índios",
        "state": "AL",
        "district": "Centro",
        "street": "Travessa Miguel Monteiro",
        "zipcode": "57600-330"
    },
    {
        "city": "Palmeira dos Índios",
        "state": "AL",
        "district": "Centro",
        "street": "2ª Travessa Antônio Matias",
        "zipcode": "57600-370"
    },
    {
        "city": "Palmeira dos Índios",
        "state": "AL",
        "district": "Centro",
        "street": "Rua Floriano Peixoto",
        "zipcode": "57600-005"
    },
    {
        "city": "Palmeira dos Índios",
        "state": "AL",
        "district": "Centro",
        "street": "Praça da Independência",
        "zipcode": "57600-010"
    },
    {
        "city": "Palmeira dos Índios",
        "state": "AL",
        "district": "Centro",
        "street": "Rua Tobias Costa",
        "zipcode": "57600-020"
    },
    {
        "city": "Palmeira dos Índios",
        "state": "AL",
        "district": "Alto do Cruzeiro",
        "street": "Rua São Sebastião",
        "zipcode": "57600-610"
    },
    {
        "city": "Palmeira dos Índios",
        "state": "AL",
        "district": "Alto do Cruzeiro",
        "street": "Rua Vereador Emídio Tenório",
        "zipcode": "57600-640"
    },
    {
        "city": "Palmeira dos Índios",
        "state": "AL",
        "district": "Alto do Cruzeiro",
        "street": "Rua Idalino Araújo",
        "zipcode": "57600-650"
    },
    {
        "city": "Palmeira dos Índios",
        "state": "AL",
        "district": "Alto do Cruzeiro",
        "street": "Travessa José Caetano de Morais",
        "zipcode": "57600-705"
    },
    {
        "city": "Palmeira dos Índios",
        "state": "AL",
        "district": "Alto do Cruzeiro",
        "street": "1ª Travessa São Miguel",
        "zipcode": "57600-715"
    },
    {
        "city": "Palmeira dos Índios",
        "state": "AL",
        "district": "São Cristóvão",
        "street": "Avenida Muniz Falcão",
        "zipcode": "57601-123"
    },
    {
        "city": "Palmeira dos Índios",
        "state": "AL",
        "district": "São Cristóvão",
        "street": "Rua Ary Alves dos Santos",
        "zipcode": "57601-190"
    },
    {
        "city": "Palmeira dos Índios",
        "state": "AL",
        "district": "Paraíso",
        "street": "Avenida Graciliano Ramos",
        "zipcode": "57602-130"
    },
    {
        "city": "Palmeira dos Índios",
        "state": "AL",
        "district": "Tenório Cavalcante",
        "street": "Rua Dom Armando Lombardi",
        "zipcode": "57600-810"
    },
    {
        "city": "Palmeira dos Índios",
        "state": "AL",
        "district": "São Luiz",
        "street": "Rua Ana Adelaide Duarte",
        "zipcode": "57602-180"
    },
    {
        "city": "Palmeira dos Índios",
        "state": "AL",
        "district": "Sonho Verde",
        "street": "Rua Sebastião Alexandre Soares",
        "zipcode": "57606-270"
    },
    {
        "city": "Palmeira dos Índios",
        "state": "AL",
        "district": "São Francisco",
        "street": "Rua Doutor Miguel Lopes",
        "zipcode": "57602-380"
    },
    {
        "city": "Palmeira dos Índios",
        "state": "AL",
        "district": "José Maia Costa",
        "street": "Rua Arconço Teixeira de Assunção",
        "zipcode": "57602-499"
    },
    {
        "city": "Palmeira dos Índios",
        "state": "AL",
        "district": "Ribeira",
        "street": "Rua Fiscal José Evaristo",
        "zipcode": "57602-690"
    },
    {
        "city": "Palmeira dos Índios",
        "state": "AL",
        "district": "Tenório Cavalcante",
        "street": "Rua Manoel Gomes da Silva",
        "zipcode": "57600-806"
    },
    {
        "city": "Palmeira dos Índios",
        "state": "AL",
        "district": "São Cristóvão",
        "street": "Rua Luiza Tereza da Conceição",
        "zipcode": "57601-030"
    },
    {
        "city": "Palmeira dos Índios",
        "state": "AL",
        "district": "São Cristóvão",
        "street": "Rua Major Azarias",
        "zipcode": "57601-430"
    },
    {
        "city": "Palmeira dos Índios",
        "state": "AL",
        "district": "Paraíso",
        "street": "Rua José Tobias da Costa Filho",
        "zipcode": "57602-120"
    },
    {
        "city": "Palmeira dos Índios",
        "state": "AL",
        "district": "São Francisco",
        "street": "Rua Gaudêncio Moura",
        "zipcode": "57602-390"
    },
    {
        "city": "Palmeira dos Índios",
        "state": "AL",
        "district": "José Maia Costa",
        "street": "Rua Giselma Maia Costa",
        "zipcode": "57602-495"
    },
    {
        "city": "Palmeira dos Índios",
        "state": "AL",
        "district": "José Maia Costa",
        "street": "Rua Genésio Moreira",
        "zipcode": "57602-501"
    },
    {
        "city": "Palmeira dos Índios",
        "state": "AL",
        "district": "Juca Sampaio",
        "street": "Rua George Moraes",
        "zipcode": "57603-008"
    },
    {
        "city": "Palmeira dos Índios",
        "state": "AL",
        "district": "Juca Sampaio",
        "street": "Rua George Costa Sampaio",
        "zipcode": "57603-010"
    },
    {
        "city": "Palmeira dos Índios",
        "state": "AL",
        "district": "Juca Sampaio",
        "street": "Rua José Canuto da Gama",
        "zipcode": "57603-060"
    },
    {
        "city": "Palmeira dos Índios",
        "state": "AL",
        "district": "Tenório Cavalcante",
        "street": "Rua Vicente e Zenaide Marques",
        "zipcode": "57600-840"
    },
    {
        "city": "Palmeira dos Índios",
        "state": "AL",
        "district": "São Cristóvão",
        "street": "Rua Mariano de Freitas",
        "zipcode": "57601-070"
    },
    {
        "city": "Palmeira dos Índios",
        "state": "AL",
        "district": "São Cristóvão",
        "street": "Rua Pedro Barbosa",
        "zipcode": "57601-080"
    },
    {
        "city": "Palmeira dos Índios",
        "state": "AL",
        "district": "São Cristóvão",
        "street": "Rua Sebastião Ramos",
        "zipcode": "57601-200"
    },
    {
        "city": "Palmeira dos Índios",
        "state": "AL",
        "district": "São Cristóvão",
        "street": "Rua Neco Barbosa",
        "zipcode": "57601-290"
    },
    {
        "city": "Palmeira dos Índios",
        "state": "AL",
        "district": "São Cristóvão",
        "street": "Rua Prefeito Minervo Fernando Pimentel",
        "zipcode": "57601-320"
    },
    {
        "city": "Palmeira dos Índios",
        "state": "AL",
        "district": "São Cristóvão",
        "street": "Rua Prefeito Enéas Simplício do Nascimento",
        "zipcode": "57601-328"
    },
    {
        "city": "Palmeira dos Índios",
        "state": "AL",
        "district": "São Cristóvão",
        "street": "Travessa Francisco Ferreira Barbosa",
        "zipcode": "57601-390"
    },
    {
        "city": "Palmeira dos Índios",
        "state": "AL",
        "district": "Paraíso",
        "street": "Rua Professor José Limeira",
        "zipcode": "57602-110"
    },
    {
        "city": "Palmeira dos Índios",
        "state": "AL",
        "district": "Ribeira",
        "street": "Rua Napoleão Ricardo da Silva",
        "zipcode": "57602-534"
    },
    {
        "city": "Palmeira dos Índios",
        "state": "AL",
        "district": "Ribeira",
        "street": "Rua São João",
        "zipcode": "57602-540"
    },
    {
        "city": "Palmeira dos Índios",
        "state": "AL",
        "district": "São Luiz",
        "street": "Travessa Raimundo Roque da Costa",
        "zipcode": "57602-255"
    },
    {
        "city": "Palmeira dos Índios",
        "state": "AL",
        "district": "São Francisco",
        "street": "2ª Travessa Genésio Moreira",
        "zipcode": "57602-290"
    },
    {
        "city": "Palmeira dos Índios",
        "state": "AL",
        "district": "Alto do Cruzeiro",
        "street": "Rua Professor Guedes de Miranda",
        "zipcode": "57600-570"
    },
    {
        "city": "Palmeira dos Índios",
        "state": "AL",
        "district": "São Cristóvão",
        "street": "Rua Fiscal José Miguel Pereira",
        "zipcode": "57601-340"
    },
    {
        "city": "Palmeira dos Índios",
        "state": "AL",
        "district": "Paraíso",
        "street": "Rua Pedro Carnaúba",
        "zipcode": "57602-060"
    },
    {
        "city": "Palmeira dos Índios",
        "state": "AL",
        "district": "São Luiz",
        "street": "Rua Francisco Moura",
        "zipcode": "57602-230"
    },
    {
        "city": "Palmeira dos Índios",
        "state": "AL",
        "district": "São Francisco",
        "street": "Rua Pedro Gaia",
        "zipcode": "57602-440"
    },
    {
        "city": "Palmeira dos Índios",
        "state": "AL",
        "district": "José Maia Costa",
        "street": "Rua Caracioly Soares",
        "zipcode": "57602-492"
    },
    {
        "city": "Palmeira dos Índios",
        "state": "AL",
        "district": "Ribeira",
        "street": "Rua José Roberto Cavalcante",
        "zipcode": "57602-525"
    },
    {
        "city": "Palmeira dos Índios",
        "state": "AL",
        "district": "Juca Sampaio",
        "street": "Rua Desportista Aloísio Guimarães de Albuquerque",
        "zipcode": "57603-070"
    },
    {
        "city": "Palmeira dos Índios",
        "state": "AL",
        "district": "Juca Sampaio",
        "street": "Rua Manoel Alves Cardoso",
        "zipcode": "57603-150"
    },
    {
        "city": "Palmeira dos Índios",
        "state": "AL",
        "district": "Juca Sampaio",
        "street": "Avenida Professor Raimundo Lopes",
        "zipcode": "57603-298"
    },
    {
        "city": "Palmeira dos Índios",
        "state": "AL",
        "district": "Graciliano Ramos",
        "street": "Rua Promotor Altamir Monteiro",
        "zipcode": "57604-264"
    },
    {
        "city": "Palmeira dos Índios",
        "state": "AL",
        "district": "Alto do Cruzeiro",
        "street": "2ª Travessa José Caetano de Moraes",
        "zipcode": "57600-704"
    },
    {
        "city": "Palmeira dos Índios",
        "state": "AL",
        "district": "São Cristóvão",
        "street": "Avenida Vieira de Brito",
        "zipcode": "57601-100"
    },
    {
        "city": "Palmeira dos Índios",
        "state": "AL",
        "district": "São Cristóvão",
        "street": "Avenida Salú Branco",
        "zipcode": "57601-360"
    },
    {
        "city": "Palmeira dos Índios",
        "state": "AL",
        "district": "Juca Sampaio",
        "street": "Rua Doutora Remilda Caparica Maia Sarmento",
        "zipcode": "57603-131"
    },
    {
        "city": "Palmeira dos Índios",
        "state": "AL",
        "district": "Juca Sampaio",
        "street": "Rua Estudante Robério Luiz Fernandes Barros",
        "zipcode": "57603-290"
    },
    {
        "city": "Palmeira dos Índios",
        "state": "AL",
        "district": "Graciliano Ramos",
        "street": "Rua Antonio Barbosa da Costa",
        "zipcode": "57604-054"
    },
    {
        "city": "Palmeira dos Índios",
        "state": "AL",
        "district": "Graciliano Ramos",
        "street": "Rua Edilene Torres de Melo",
        "zipcode": "57604-062"
    },
    {
        "city": "Palmeira dos Índios",
        "state": "AL",
        "district": "Graciliano Ramos",
        "street": "Rua Diego de Santana Florêncio",
        "zipcode": "57604-084"
    },
    {
        "city": "Palmeira dos Índios",
        "state": "AL",
        "district": "Graciliano Ramos",
        "street": "Rua António Barbosa da Fonseca",
        "zipcode": "57604-110"
    },
    {
        "city": "Palmeira dos Índios",
        "state": "AL",
        "district": "Graciliano Ramos",
        "street": "Rua Carteiro João Martins da Silva Júnior",
        "zipcode": "57604-510"
    },
    {
        "city": "Palmeira dos Índios",
        "state": "AL",
        "district": "Graciliano Ramos",
        "street": "Rua Carteiro José Petrucio dos Santos",
        "zipcode": "57604-530"
    },
    {
        "city": "Palmeira dos Índios",
        "state": "AL",
        "district": "Graciliano Ramos",
        "street": "Rua Augusto Bezerra Leite",
        "zipcode": "57604-688"
    },
    {
        "city": "Palmeira dos Índios",
        "state": "AL",
        "district": "Xucurus",
        "street": "Praça das Cinco Chagas",
        "zipcode": "57605-110"
    },
    {
        "city": "Palmeira dos Índios",
        "state": "AL",
        "district": "São Cristóvão",
        "street": "Rua Cacique Francelino",
        "zipcode": "57601-310"
    },
    {
        "city": "Palmeira dos Índios",
        "state": "AL",
        "district": "Graciliano Ramos",
        "street": "Rua Maria José Calheiros",
        "zipcode": "57604-097"
    },
    {
        "city": "Palmeira dos Índios",
        "state": "AL",
        "district": "Graciliano Ramos",
        "street": "Rua Gastão Leão",
        "zipcode": "57604-104"
    },
    {
        "city": "Palmeira dos Índios",
        "state": "AL",
        "district": "Graciliano Ramos",
        "street": "Rua José Bezerra de França",
        "zipcode": "57604-105"
    },
    {
        "city": "Palmeira dos Índios",
        "state": "AL",
        "district": "Graciliano Ramos",
        "street": "Rua João José da Silva",
        "zipcode": "57604-122"
    },
    {
        "city": "Palmeira dos Índios",
        "state": "AL",
        "district": "Graciliano Ramos",
        "street": "Rua Josué Luiz da Silva",
        "zipcode": "57604-696"
    },
    {
        "city": "Palmeira dos Índios",
        "state": "AL",
        "district": "Graciliano Ramos",
        "street": "Rua Márcio Tavares Duarte (Lot Recanto do Sabiá)",
        "zipcode": "57604-802"
    },
    {
        "city": "Palmeira dos Índios",
        "state": "AL",
        "district": "Graciliano Ramos",
        "street": "Rua José de Barros Moura (Lot Recanto do Sabiá)",
        "zipcode": "57604-812"
    },
    {
        "city": "Palmeira dos Índios",
        "state": "AL",
        "district": "São Cristóvão",
        "street": "Rua José Tavares Rocha",
        "zipcode": "57601-180"
    },
    {
        "city": "Palmeira dos Índios",
        "state": "AL",
        "district": "São Cristóvão",
        "street": "Rua Fiscal Muritiba",
        "zipcode": "57601-420"
    },
    {
        "city": "Palmeira dos Índios",
        "state": "AL",
        "district": "Paraíso",
        "street": "Rua Luiz Pinto de Andrade",
        "zipcode": "57602-055"
    },
    {
        "city": "Palmeira dos Índios",
        "state": "AL",
        "district": "Juca Sampaio",
        "street": "Rua Tabelião Luiz Vieira de Barros",
        "zipcode": "57603-090"
    },
    {
        "city": "Palmeira dos Índios",
        "state": "AL",
        "district": "Juca Sampaio",
        "street": "Rua Sebastião Ramos",
        "zipcode": "57603-138"
    },
    {
        "city": "Palmeira dos Índios",
        "state": "AL",
        "district": "Graciliano Ramos",
        "street": "Rua Miguel Domingos da Silva",
        "zipcode": "57604-032"
    },
    {
        "city": "Palmeira dos Índios",
        "state": "AL",
        "district": "Graciliano Ramos",
        "street": "Rua Valter de Brito Cavalcante",
        "zipcode": "57604-050"
    },
    {
        "city": "Palmeira dos Índios",
        "state": "AL",
        "district": "Graciliano Ramos",
        "street": "Rua Oswaldo Pedro Pereira de Moraes",
        "zipcode": "57604-080"
    },
    {
        "city": "Palmeira dos Índios",
        "state": "AL",
        "district": "Graciliano Ramos",
        "street": "Rua Olimpio José de Barros",
        "zipcode": "57604-088"
    },
    {
        "city": "Palmeira dos Índios",
        "state": "AL",
        "district": "Graciliano Ramos",
        "street": "Rua Shirle Maria Ferreira (Lot Recanto do Sabiá)",
        "zipcode": "57604-658"
    },
    {
        "city": "Palmeira dos Índios",
        "state": "AL",
        "district": "Graciliano Ramos",
        "street": "Rua Odilon Minga da Rocha (Lot Recanto do Sabiá)",
        "zipcode": "57604-819"
    },
    {
        "city": "Palmeira dos Índios",
        "state": "AL",
        "district": "Xucurus",
        "street": "Rua Santa Ana",
        "zipcode": "57605-015"
    },
    {
        "city": "Palmeira dos Índios",
        "state": "AL",
        "district": "São Francisco",
        "street": "Rua Vereador Zeca Paulo",
        "zipcode": "57602-330"
    },
    {
        "city": "Palmeira dos Índios",
        "state": "AL",
        "district": "Juca Sampaio",
        "street": "Rua Radialista Antônio Martins Filho",
        "zipcode": "57603-130"
    },
    {
        "city": "Palmeira dos Índios",
        "state": "AL",
        "district": "Xucurus",
        "street": "Travessa Sebastião Gonçalves",
        "zipcode": "57605-045"
    },
    {
        "city": "Palmeira dos Índios",
        "state": "AL",
        "district": "Centro",
        "street": "1ª Travessa Antônio Matias",
        "zipcode": "57600-360"
    },
    {
        "city": "Palmeira dos Índios",
        "state": "AL",
        "district": "Graciliano Ramos",
        "street": "Rua Doutor Victor Medeiros",
        "zipcode": "57604-046"
    },
    {
        "city": "Palmeira dos Índios",
        "state": "AL",
        "district": "Graciliano Ramos",
        "street": "Rua Alfredo Antônio dos Santos (Lot Recanto do Sabiá)",
        "zipcode": "57604-668"
    },
    {
        "city": "Palmeira dos Índios",
        "state": "AL",
        "district": "Xucurus",
        "street": "Rua Santa Bernadete",
        "zipcode": "57605-021"
    },
    {
        "city": "Palmeira dos Índios",
        "state": "AL",
        "district": "Xucurus",
        "street": "Rua João Roque",
        "zipcode": "57605-055"
    },
    {
        "city": "Palmeira dos Índios",
        "state": "AL",
        "district": "São Francisco",
        "street": "Rua Manoel Higino da Costa",
        "zipcode": "57602-370"
    },
    {
        "city": "Palmeira dos Índios",
        "state": "AL",
        "district": "Juca Sampaio",
        "street": "Rua Doutor Alexandre Magno Gaia Duarte",
        "zipcode": "57603-132"
    },
    {
        "city": "Palmeira dos Índios",
        "state": "AL",
        "district": "Jardim Brasil",
        "street": "Avenida Brasília",
        "zipcode": "57607-010"
    },
    {
        "city": "Palmeira dos Índios",
        "state": "AL",
        "district": "Vila Maria",
        "street": "Rua Manoel Tenório de Albuquerque",
        "zipcode": "57607-380"
    },
    {
        "city": "Palmeira dos Índios",
        "state": "AL",
        "district": "Vila Maria",
        "street": "Rua Claudina J. Almeida",
        "zipcode": "57607-655"
    },
    {
        "city": "Palmeira dos Índios",
        "state": "AL",
        "district": "Graciliano Ramos",
        "street": "Rua Antonio Salustiano da Silva",
        "zipcode": "57604-066"
    },
    {
        "city": "Palmeira dos Índios",
        "state": "AL",
        "district": "Graciliano Ramos",
        "street": "Rua Antônio Vitório",
        "zipcode": "57604-262"
    },
    {
        "city": "Palmeira dos Índios",
        "state": "AL",
        "district": "Graciliano Ramos",
        "street": "Rua Domingos Pereira Lima (Lot Recanto do Sabiá)",
        "zipcode": "57604-656"
    },
    {
        "city": "Palmeira dos Índios",
        "state": "AL",
        "district": "Xucurus",
        "street": "Rua Adelaide Carvalho do Nascimento",
        "zipcode": "57605-120"
    },
    {
        "city": "Palmeira dos Índios",
        "state": "AL",
        "district": "Sonho Verde",
        "street": "Rua Antônio Gaudino dos Santos",
        "zipcode": "57606-065"
    },
    {
        "city": "Palmeira dos Índios",
        "state": "AL",
        "district": "Sonho Verde",
        "street": "Avenida Vieira de Brito",
        "zipcode": "57606-085"
    },
    {
        "city": "Palmeira dos Índios",
        "state": "AL",
        "district": "Sonho Verde",
        "street": "Rua José Ferreira do Nascimento",
        "zipcode": "57606-070"
    },
    {
        "city": "Palmeira dos Índios",
        "state": "AL",
        "district": "Sonho Verde",
        "street": "Rua Francisco Padilha de Souza",
        "zipcode": "57606-102"
    },
    {
        "city": "Palmeira dos Índios",
        "state": "AL",
        "district": "Sonho Verde",
        "street": "Rua Maria do Socorro Barbosa",
        "zipcode": "57606-294"
    },
    {
        "city": "Palmeira dos Índios",
        "state": "AL",
        "district": "Graciliano Ramos",
        "street": "Rua Napolião Oliveira Ferro",
        "zipcode": "57604-266"
    },
    {
        "city": "Palmeira dos Índios",
        "state": "AL",
        "district": "Xucurus",
        "street": "Rua Vereador Jaime Guimarães",
        "zipcode": "57605-100"
    },
    {
        "city": "Palmeira dos Índios",
        "state": "AL",
        "district": "Sonho Verde",
        "street": "Travessa José Pereira da Silva",
        "zipcode": "57606-056"
    },
    {
        "city": "Palmeira dos Índios",
        "state": "AL",
        "district": "Vila Maria",
        "street": "Travessa Otávio Barbosa",
        "zipcode": "57607-645"
    },
    {
        "city": "Palmeira dos Índios",
        "state": "AL",
        "district": "Vila Maria",
        "street": "3ª Travessa Zuleide Gaia",
        "zipcode": "57607-656"
    },
    {
        "city": "Palmeira dos Índios",
        "state": "AL",
        "district": "Graciliano Ramos",
        "street": "Rua Antônio Basílio da Costa (Lot Recanto do Sabiá)",
        "zipcode": "57604-810"
    },
    {
        "city": "Palmeira dos Índios",
        "state": "AL",
        "district": "Sonho Verde",
        "street": "Rua Fiscal Amabílio Menezes Damião",
        "zipcode": "57606-290"
    },
    {
        "city": "Palmeira dos Índios",
        "state": "AL",
        "district": "Jardim Brasil",
        "street": "Rua Pará",
        "zipcode": "57607-040"
    },
    {
        "city": "Palmeira dos Índios",
        "state": "AL",
        "district": "Jardim Brasil",
        "street": "Rua Ceará",
        "zipcode": "57607-080"
    },
    {
        "city": "Palmeira dos Índios",
        "state": "AL",
        "district": "Jardim Brasil",
        "street": "Rua Rio Grande do Norte",
        "zipcode": "57607-090"
    },
    {
        "city": "Palmeira dos Índios",
        "state": "AL",
        "district": "Jardim Brasil",
        "street": "Rua Pernambuco",
        "zipcode": "57607-110"
    },
    {
        "city": "Palmeira dos Índios",
        "state": "AL",
        "district": "Jardim Brasil",
        "street": "Rua Rio de Janeiro",
        "zipcode": "57607-150"
    },
    {
        "city": "Palmeira dos Índios",
        "state": "AL",
        "district": "Jardim Brasil",
        "street": "Rua Padre Luiz Farias Torres",
        "zipcode": "57607-203"
    },
    {
        "city": "Palmeira dos Índios",
        "state": "AL",
        "district": "Jardim Brasil",
        "street": "Rua Belarmino José da Silva",
        "zipcode": "57607-206"
    },
    {
        "city": "Palmeira dos Índios",
        "state": "AL",
        "district": "Jardim Brasil",
        "street": "Rua da Fraternidade",
        "zipcode": "57607-290"
    },
    {
        "city": "Palmeira dos Índios",
        "state": "AL",
        "district": "Vila Maria",
        "street": "Rua Nair Rodrigues",
        "zipcode": "57607-350"
    },
    {
        "city": "Palmeira dos Índios",
        "state": "AL",
        "district": "Vila Maria",
        "street": "Travessa Joaquim Ferreira de Queiroz",
        "zipcode": "57607-371"
    },
    {
        "city": "Palmeira dos Índios",
        "state": "AL",
        "district": "Vila Maria",
        "street": "Rua Emílio Tenório",
        "zipcode": "57607-372"
    },
    {
        "city": "Palmeira dos Índios",
        "state": "AL",
        "district": "Vila Maria",
        "street": "Rua Antonio Aufrásio",
        "zipcode": "57607-374"
    },
    {
        "city": "Palmeira dos Índios",
        "state": "AL",
        "district": "Vila Maria",
        "street": "Rua Sebastiana Mendes",
        "zipcode": "57607-400"
    },
    {
        "city": "Palmeira dos Índios",
        "state": "AL",
        "district": "Vila Maria",
        "street": "Rua Cleto Marques Luz",
        "zipcode": "57607-420"
    },
    {
        "city": "Palmeira dos Índios",
        "state": "AL",
        "district": "Vila Maria",
        "street": "Rua Irmãs Holandesas",
        "zipcode": "57607-480"
    },
    {
        "city": "Palmeira dos Índios",
        "state": "AL",
        "district": "Vila Maria",
        "street": "Travessa Bom Jesus dos Passos",
        "zipcode": "57607-515"
    },
    {
        "city": "Palmeira dos Índios",
        "state": "AL",
        "district": "Vila Maria",
        "street": "Rua Armando Soares Vilarins",
        "zipcode": "57607-530"
    },
    {
        "city": "Palmeira dos Índios",
        "state": "AL",
        "district": "Vila Maria",
        "street": "Rua Anita Simões",
        "zipcode": "57607-545"
    },
    {
        "city": "Palmeira dos Índios",
        "state": "AL",
        "district": "Vila Maria",
        "street": "Rua Dionizio José das Neves",
        "zipcode": "57607-558"
    },
    {
        "city": "Palmeira dos Índios",
        "state": "AL",
        "district": "Vila Maria",
        "street": "Rua Tenente Júlio Amorim",
        "zipcode": "57607-560"
    },
    {
        "city": "Palmeira dos Índios",
        "state": "AL",
        "district": "Vila Maria",
        "street": "Rua Francisco Ferreira Barbosa",
        "zipcode": "57607-580"
    },
    {
        "city": "Palmeira dos Índios",
        "state": "AL",
        "district": "Vila Maria",
        "street": "Rua Padre Cícero",
        "zipcode": "57607-600"
    },
    {
        "city": "Palmeira dos Índios",
        "state": "AL",
        "district": "Palmeira de Fora",
        "street": "Rua Guarani",
        "zipcode": "57608-045"
    },
    {
        "city": "Palmeira dos Índios",
        "state": "AL",
        "district": "Palmeira de Fora",
        "street": "Rua Antônio Pau Ferro",
        "zipcode": "57608-070"
    },
    {
        "city": "Palmeira dos Índios",
        "state": "AL",
        "district": "Palmeira de Fora",
        "street": "Rua José Duarte",
        "zipcode": "57608-150"
    },
    {
        "city": "Palmeira dos Índios",
        "state": "AL",
        "district": "Palmeira de Fora",
        "street": "Rua Zafira Menezes",
        "zipcode": "57608-170"
    },
    {
        "city": "Palmeira dos Índios",
        "state": "AL",
        "district": "Palmeira de Fora",
        "street": "Rua Ernesto Soares",
        "zipcode": "57608-290"
    },
    {
        "city": "Palmeira dos Índios",
        "state": "AL",
        "district": "Área Rural de Palmeira dos Índios",
        "street": "Área Rural",
        "zipcode": "57609-899"
    },
    {
        "city": "Palmeira dos Índios",
        "state": "AL",
        "district": "Graciliano Ramos",
        "street": "Alameda Noé Simplicio",
        "zipcode": "57604-816"
    },
    {
        "city": "Palmeira dos Índios",
        "state": "AL",
        "district": "Vila Maria",
        "street": "1ª Travessa Castelo Branco",
        "zipcode": "57607-555"
    },
    {
        "city": "Palmeira dos Índios",
        "state": "AL",
        "district": "Palmeira de Fora",
        "street": "Rua Manoel Timóteo",
        "zipcode": "57608-360"
    },
    {
        "city": "Palmeira dos Índios",
        "state": "AL",
        "district": "Palmeira de Fora",
        "street": "Rua Carteiro Genivaldo dos Santos",
        "zipcode": "57608-372"
    },
    {
        "city": "Palmeira dos Índios",
        "state": "AL",
        "district": "Palmeira de Fora",
        "street": "Rua Jesus de Nazaré",
        "zipcode": "57608-420"
    },
    {
        "city": "Palmeira dos Índios",
        "state": "AL",
        "district": "Palmeira de Fora",
        "street": "Praça Lili Barros",
        "zipcode": "57608-460"
    },
    {
        "city": "Palmeira dos Índios",
        "state": "AL",
        "district": "Palmeira de Fora",
        "street": "Rua Neilson Costa Barros",
        "zipcode": "57608-473"
    },
    {
        "city": "Palmeira dos Índios",
        "state": "AL",
        "district": "Palmeira de Fora",
        "street": "Rua José Aguiar",
        "zipcode": "57608-475"
    },
    {
        "city": "Palmeira dos Índios",
        "state": "AL",
        "district": "Palmeira de Fora",
        "street": "Rua Heleno Nonato de Sá",
        "zipcode": "57608-490"
    },
    {
        "city": "Palmeira dos Índios",
        "state": "AL",
        "district": "Palmeira de Fora",
        "street": "Rua Santa Quitéria",
        "zipcode": "57608-500"
    },
    {
        "city": "Palmeira dos Índios",
        "state": "AL",
        "district": "Palmeira de Fora",
        "street": "Rua Antônio Oliveira de Souza (Cj Santa Helena)",
        "zipcode": "57608-505"
    },
    {
        "city": "Palmeira dos Índios",
        "state": "AL",
        "district": "Palmeira de Fora",
        "street": "Rua José Duarte Neto",
        "zipcode": "57608-506"
    },
    {
        "city": "Palmeira dos Índios",
        "state": "AL",
        "district": "Palmeira de Fora",
        "street": "Rua Tiago da Silva",
        "zipcode": "57608-512"
    },
    {
        "city": "Palmeira dos Índios",
        "state": "AL",
        "district": "Centro",
        "street": "Praça Humberto Mendes",
        "zipcode": "57600-190"
    },
    {
        "city": "Palmeira dos Índios",
        "state": "AL",
        "district": "São Cristóvão",
        "street": "Rua Prefeito José Araújo",
        "zipcode": "57601-170"
    },
    {
        "city": "Palmeira dos Índios",
        "state": "AL",
        "district": "Paraíso",
        "street": "Rua Intendente Belarmino Teixeira Cavalcante",
        "zipcode": "57602-040"
    },
    {
        "city": "Palmeira dos Índios",
        "state": "AL",
        "district": "São Francisco",
        "street": "Rua Idalino de Araújo",
        "zipcode": "57602-400"
    },
    {
        "city": "Palmeira dos Índios",
        "state": "AL",
        "district": "Ribeira",
        "street": "Rua Dom Otávio Aguiar",
        "zipcode": "57602-550"
    },
    {
        "city": "Palmeira dos Índios",
        "state": "AL",
        "district": "Sonho Verde",
        "street": "Rua Salvador",
        "zipcode": "57606-306"
    },
    {
        "city": "Palmeira dos Índios",
        "state": "AL",
        "district": "Vila Maria",
        "street": "Rua Frederico Osana",
        "zipcode": "57607-310"
    },
    {
        "city": "Palmeira dos Índios",
        "state": "AL",
        "district": "Vila Maria",
        "street": "Rua Zuleide Gaia",
        "zipcode": "57607-650"
    },
    {
        "city": "Palmeira dos Índios",
        "state": "AL",
        "district": "Vila Maria",
        "street": "Rua Antônio Laurindo dos Santos",
        "zipcode": "57607-670"
    },
    {
        "city": "Palmeira dos Índios",
        "state": "AL",
        "district": "Palmeira de Fora",
        "street": "Rua Sebastião Ferreira",
        "zipcode": "57608-050"
    },
    {
        "city": "Palmeira dos Índios",
        "state": "AL",
        "district": "Palmeira de Fora",
        "street": "Travessa Lindolfo Passos",
        "zipcode": "57608-115"
    },
    {
        "city": "Palmeira dos Índios",
        "state": "AL",
        "district": "Palmeira de Fora",
        "street": "Rua Bonifácio Pinto",
        "zipcode": "57608-280"
    },
    {
        "city": "Palmeira dos Índios",
        "state": "AL",
        "district": "Palmeira de Fora",
        "street": "Rua Rosa Guedes",
        "zipcode": "57608-340"
    },
    {
        "city": "Palmeira dos Índios",
        "state": "AL",
        "district": "Palmeira de Fora",
        "street": "Rua Pedro Estevão",
        "zipcode": "57608-350"
    },
    {
        "city": "Palmeira dos Índios",
        "state": "AL",
        "district": "Palmeira de Fora",
        "street": "Praça Manoel Pereira da Silva",
        "zipcode": "57608-550"
    },
    {
        "city": "Palmeira dos Índios",
        "state": "AL",
        "district": "Goití",
        "street": "Rua José Mendes Ferreira",
        "zipcode": "57608-710"
    },
    {
        "city": "Palmeira dos Índios",
        "state": "AL",
        "district": "Jardim Brasil",
        "street": "Rua José Cabral das Graças",
        "zipcode": "57607-201"
    },
    {
        "city": "Palmeira dos Índios",
        "state": "AL",
        "district": "Jardim Brasil",
        "street": "Rua Ezequiel Pereira",
        "zipcode": "57607-260"
    },
    {
        "city": "Palmeira dos Índios",
        "state": "AL",
        "district": "Palmeira de Fora",
        "street": "Rua Atendente Edna Maria da Silva Pinto",
        "zipcode": "57608-378"
    },
    {
        "city": "Palmeira dos Índios",
        "state": "AL",
        "district": "Palmeira de Fora",
        "street": "Conjunto Formigão",
        "zipcode": "57608-518"
    },
    {
        "city": "Palmeira dos Índios",
        "state": "AL",
        "district": "Palmeira de Fora",
        "street": "Praça Liberalina Nonato (Cj Santa Helena)",
        "zipcode": "57608-555"
    },
    {
        "city": "Palmeira dos Índios",
        "state": "AL",
        "district": "Juca Sampaio",
        "street": "Rua Virgílio Ferreira dos Santos",
        "zipcode": "57603-065"
    },
    {
        "city": "Palmeira dos Índios",
        "state": "AL",
        "district": "Graciliano Ramos",
        "street": "Rua Maria da Dores da Silva",
        "zipcode": "57604-094"
    },
    {
        "city": "Palmeira dos Índios",
        "state": "AL",
        "district": "Alto do Cruzeiro",
        "street": "Rua Manoel Gomes da Silva",
        "zipcode": "57600-540"
    },
    {
        "city": "Palmeira dos Índios",
        "state": "AL",
        "district": "Vila Maria",
        "street": "2ª Travessa Padre Cícero",
        "zipcode": "57607-602"
    },
    {
        "city": "Palmeira dos Índios",
        "state": "AL",
        "district": "Vila Maria",
        "street": "3ª Travessa Padre Cícero",
        "zipcode": "57607-603"
    },
    {
        "city": "Palmeira dos Índios",
        "state": "AL",
        "district": "Vila Maria",
        "street": "Rua João Farias",
        "zipcode": "57607-605"
    },
    {
        "city": "Palmeira dos Índios",
        "state": "AL",
        "district": "Palmeira de Fora",
        "street": "Rodovia BR 316",
        "zipcode": "57608-345"
    },
    {
        "city": "Palmeira dos Índios",
        "state": "AL",
        "district": "Alto do Cruzeiro",
        "street": "Travessa Monte Bela Vista",
        "zipcode": "57600-732"
    },
    {
        "city": "Palmeira dos Índios",
        "state": "AL",
        "district": "Sonho Verde",
        "street": "Avenida Aurélia Alves Brasileiro",
        "zipcode": "57606-250"
    },
    {
        "city": "Palmeira dos Índios",
        "state": "AL",
        "district": "Sonho Verde",
        "street": "Rua Doutora Maria Betania Teixeira Bezerra",
        "zipcode": "57606-256"
    },
    {
        "city": "Palmeira dos Índios",
        "state": "AL",
        "district": "Ribeira",
        "street": "Rua Sargento Manoel Morais Santos da Silva",
        "zipcode": "57602-535"
    },
    {
        "city": "Palmeira dos Índios",
        "state": "AL",
        "district": "Sonho Verde",
        "street": "Rodovia Girador de Acesso BR 316",
        "zipcode": "57606-057"
    },
    {
        "city": "Palmeira dos Índios",
        "state": "AL",
        "district": "Alto do Cruzeiro",
        "street": "2ª Travessa Pio XII",
        "zipcode": "57600-560"
    },
    {
        "city": "Palmeira dos Índios",
        "state": "AL",
        "district": "Alto do Cruzeiro",
        "street": "2ª Travessa São Miguel",
        "zipcode": "57600-716"
    },
    {
        "city": "Palmeira dos Índios",
        "state": "AL",
        "district": "São Cristóvão",
        "street": "Avenida Hércilio Barros Duarte",
        "zipcode": "57601-300"
    },
    {
        "city": "Palmeira dos Índios",
        "state": "AL",
        "district": "São Cristóvão",
        "street": "Avenida Brasília",
        "zipcode": "57601-425"
    },
    {
        "city": "Palmeira dos Índios",
        "state": "AL",
        "district": "Juca Sampaio",
        "street": "Avenida Muniz Falcão",
        "zipcode": "57603-145"
    },
    {
        "city": "Palmeira dos Índios",
        "state": "AL",
        "district": "Jardim Brasil",
        "street": "Avenida Alagoas",
        "zipcode": "57607-020"
    },
    {
        "city": "Palmeira dos Índios",
        "state": "AL",
        "district": "Graciliano Ramos",
        "street": "Rua Leopoldo Virginio Torres (Lot Recanto do Sabiá)",
        "zipcode": "57604-674"
    },
    {
        "city": "Palmeira dos Índios",
        "state": "AL",
        "district": "São Francisco",
        "street": "Rua José Julião de Melo",
        "zipcode": "57602-260"
    },
    {
        "city": "Palmeira dos Índios",
        "state": "AL",
        "district": "José Maia Costa",
        "street": "Rua Virgílio da Silva Filho",
        "zipcode": "57602-496"
    },
    {
        "city": "Palmeira dos Índios",
        "state": "AL",
        "district": "Graciliano Ramos",
        "street": "Rua Professora Eliete Rodrigues (Lot Recanto do Sabiá)",
        "zipcode": "57604-652"
    },
    {
        "city": "Palmeira dos Índios",
        "state": "AL",
        "district": "Graciliano Ramos",
        "street": "Rua Professora Célia Margarida (Lot Recanto do Sabiá)",
        "zipcode": "57604-670"
    },
    {
        "city": "Palmeira dos Índios",
        "state": "AL",
        "district": "São Francisco",
        "street": "Travessa Sebastião Medeiros",
        "zipcode": "57602-285"
    },
    {
        "city": "Palmeira dos Índios",
        "state": "AL",
        "district": "Vila Maria",
        "street": "2ª Travessa Francisco Barbosa",
        "zipcode": "57607-475"
    },
    {
        "city": "Palmeira dos Índios",
        "state": "AL",
        "district": "Vila Maria",
        "street": "1ª Travessa Zuleide Gaia",
        "zipcode": "57607-652"
    },
    {
        "city": "Palmeira dos Índios",
        "state": "AL",
        "district": "Palmeira de Fora",
        "street": "Rua Lindolfo Passos",
        "zipcode": "57608-110"
    },
    {
        "city": "Palmeira dos Índios",
        "state": "AL",
        "district": "Palmeira de Fora",
        "street": "Rua Luiz José Barbosa de Carvalho",
        "zipcode": "57608-387"
    },
    {
        "city": "Palmeira dos Índios",
        "state": "AL",
        "district": "Palmeira de Fora",
        "street": "Rua Carteiro Genivaldo Santana de Araújo",
        "zipcode": "57608-374"
    },
    {
        "city": "Palmeira dos Índios",
        "state": "AL",
        "district": "Palmeira de Fora",
        "street": "Rua Nelson Evangelista Ramos",
        "zipcode": "57608-516"
    },
    {
        "city": "Palmeira dos Índios",
        "state": "AL",
        "district": "Palmeira de Fora",
        "street": "Rua Antônio Firmino de Sá (Cj Santa Helena)",
        "zipcode": "57608-525"
    },
    {
        "city": "Palmeira dos Índios",
        "state": "AL",
        "district": "Sonho Verde",
        "street": "Rua Napolião Oliveira Ferro",
        "zipcode": "57606-266"
    },
    {
        "city": "Palmeira dos Índios",
        "state": "AL",
        "district": "Vila Maria",
        "street": "Travessa Antônio Gaudino dos Santos",
        "zipcode": "57607-615"
    }
]