[
    {
        "city": "São Miguel dos Campos",
        "state": "AL",
        "district": "Geraldo Sampaio",
        "street": "Quadra A (Cj Geraldo Sampaio)",
        "zipcode": "57240-360"
    },
    {
        "city": "São Miguel dos Campos",
        "state": "AL",
        "district": "Geraldo Sampaio",
        "street": "Quadra C (Cj Geraldo Sampaio)",
        "zipcode": "57240-356"
    },
    {
        "city": "São Miguel dos Campos",
        "state": "AL",
        "district": "Rui Palmeira",
        "street": "Avenida Tarcísio Soares Palmeira",
        "zipcode": "57245-333"
    },
    {
        "city": "São Miguel dos Campos",
        "state": "AL",
        "district": "Coité",
        "street": "Rodovia Municipal Áureo César Teixeira",
        "zipcode": "57242-200"
    },
    {
        "city": "São Miguel dos Campos",
        "state": "AL",
        "district": "Centro",
        "street": "Rua Barão de Jequiá",
        "zipcode": "57240-052"
    },
    {
        "city": "São Miguel dos Campos",
        "state": "AL",
        "district": "Paraíso",
        "street": "Rodovia BR",
        "zipcode": "57240-198"
    },
    {
        "city": "São Miguel dos Campos",
        "state": "AL",
        "district": "Centro",
        "street": "Rua Doutor Miguel Lopes",
        "zipcode": "57240-006"
    },
    {
        "city": "São Miguel dos Campos",
        "state": "AL",
        "district": "Centro",
        "street": "Rua Doutor Miguel Lopes",
        "zipcode": "57240-004"
    },
    {
        "city": "São Miguel dos Campos",
        "state": "AL",
        "district": "Hélio Jatobá",
        "street": "Rodovia BR",
        "zipcode": "57246-370"
    },
    {
        "city": "São Miguel dos Campos",
        "state": "AL",
        "district": "Centro",
        "street": "Travessa Coronel José Calazans",
        "zipcode": "57240-055"
    },
    {
        "city": "São Miguel dos Campos",
        "state": "AL",
        "district": "Hélio Jatobá",
        "street": "Quadra Z",
        "zipcode": "57246-394"
    },
    {
        "city": "São Miguel dos Campos",
        "state": "AL",
        "district": "Hélio Jatobá",
        "street": "Quadra G",
        "zipcode": "57246-376"
    },
    {
        "city": "São Miguel dos Campos",
        "state": "AL",
        "district": "Hélio Jatobá",
        "street": "Quadra R",
        "zipcode": "57246-379"
    },
    {
        "city": "São Miguel dos Campos",
        "state": "AL",
        "district": "Hélio Jatobá",
        "street": "Quadra S",
        "zipcode": "57246-383"
    },
    {
        "city": "São Miguel dos Campos",
        "state": "AL",
        "district": "Hélio Jatobá",
        "street": "Quadra W",
        "zipcode": "57246-384"
    },
    {
        "city": "São Miguel dos Campos",
        "state": "AL",
        "district": "Hélio Jatobá",
        "street": "Quadra I",
        "zipcode": "57246-386"
    },
    {
        "city": "São Miguel dos Campos",
        "state": "AL",
        "district": "Hélio Jatobá",
        "street": "Quadra Y",
        "zipcode": "57246-388"
    },
    {
        "city": "São Miguel dos Campos",
        "state": "AL",
        "district": "Hélio Jatobá",
        "street": "Quadra 2ª J",
        "zipcode": "57246-392"
    },
    {
        "city": "São Miguel dos Campos",
        "state": "AL",
        "district": "Hélio Jatobá",
        "street": "Quadra U",
        "zipcode": "57246-393"
    },
    {
        "city": "São Miguel dos Campos",
        "state": "AL",
        "district": "Hélio Jatobá",
        "street": "Quadra V",
        "zipcode": "57246-399"
    },
    {
        "city": "São Miguel dos Campos",
        "state": "AL",
        "district": "Hélio Jatobá",
        "street": "Quadra L",
        "zipcode": "57246-402"
    },
    {
        "city": "São Miguel dos Campos",
        "state": "AL",
        "district": "Hélio Jatobá",
        "street": "Quadra X",
        "zipcode": "57246-403"
    },
    {
        "city": "São Miguel dos Campos",
        "state": "AL",
        "district": "Hélio Jatobá",
        "street": "Quadra B",
        "zipcode": "57246-404"
    },
    {
        "city": "São Miguel dos Campos",
        "state": "AL",
        "district": "Hélio Jatobá",
        "street": "Quadra N",
        "zipcode": "57246-417"
    },
    {
        "city": "São Miguel dos Campos",
        "state": "AL",
        "district": "Hélio Jatobá",
        "street": "Quadra Z",
        "zipcode": "57246-507"
    },
    {
        "city": "São Miguel dos Campos",
        "state": "AL",
        "district": "Rui Palmeira",
        "street": "Avenida Amélia Soares",
        "zipcode": "57245-309"
    },
    {
        "city": "São Miguel dos Campos",
        "state": "AL",
        "district": "Hélio Jatobá",
        "street": "Quadra C",
        "zipcode": "57246-580"
    },
    {
        "city": "São Miguel dos Campos",
        "state": "AL",
        "district": "Hélio Jatobá",
        "street": "Quadra B",
        "zipcode": "57246-600"
    },
    {
        "city": "São Miguel dos Campos",
        "state": "AL",
        "district": "Hélio Jatobá",
        "street": "Quadra E",
        "zipcode": "57246-470"
    },
    {
        "city": "São Miguel dos Campos",
        "state": "AL",
        "district": "Hélio Jatobá",
        "street": "Quadra E",
        "zipcode": "57246-425"
    },
    {
        "city": "São Miguel dos Campos",
        "state": "AL",
        "district": "Hélio Jatobá",
        "street": "Quadra C",
        "zipcode": "57246-450"
    },
    {
        "city": "São Miguel dos Campos",
        "state": "AL",
        "district": "Hélio Jatobá",
        "street": "Quadra C",
        "zipcode": "57246-455"
    },
    {
        "city": "São Miguel dos Campos",
        "state": "AL",
        "district": "Hélio Jatobá",
        "street": "Quadra D",
        "zipcode": "57246-465"
    },
    {
        "city": "São Miguel dos Campos",
        "state": "AL",
        "district": "Hélio Jatobá",
        "street": "Quadra E",
        "zipcode": "57246-260"
    },
    {
        "city": "São Miguel dos Campos",
        "state": "AL",
        "district": "Hélio Jatobá",
        "street": "Quadra F",
        "zipcode": "57246-265"
    },
    {
        "city": "São Miguel dos Campos",
        "state": "AL",
        "district": "Hélio Jatobá",
        "street": "Quadra G",
        "zipcode": "57246-280"
    },
    {
        "city": "São Miguel dos Campos",
        "state": "AL",
        "district": "Hélio Jatobá",
        "street": "Quadra V",
        "zipcode": "57246-180"
    },
    {
        "city": "São Miguel dos Campos",
        "state": "AL",
        "district": "Hélio Jatobá",
        "street": "Quadra W",
        "zipcode": "57246-185"
    },
    {
        "city": "São Miguel dos Campos",
        "state": "AL",
        "district": "Rui Palmeira",
        "street": "Avenida Luis Moreira de Castro",
        "zipcode": "57245-324"
    },
    {
        "city": "São Miguel dos Campos",
        "state": "AL",
        "district": "Rui Palmeira",
        "street": "Avenida Maria Cândida Soares Palmeira",
        "zipcode": "57245-327"
    },
    {
        "city": "São Miguel dos Campos",
        "state": "AL",
        "district": "Rui Palmeira",
        "street": "Avenida José Luis Soares Neto",
        "zipcode": "57245-336"
    },
    {
        "city": "São Miguel dos Campos",
        "state": "AL",
        "district": "Rui Palmeira",
        "street": "Avenida Thomas Boaventura Santos",
        "zipcode": "57245-348"
    },
    {
        "city": "São Miguel dos Campos",
        "state": "AL",
        "district": "Fátima",
        "street": "Quadra F (Res Novo S Miguel)",
        "zipcode": "57245-274"
    },
    {
        "city": "São Miguel dos Campos",
        "state": "AL",
        "district": "Fátima",
        "street": "Quadra C",
        "zipcode": "57245-205"
    },
    {
        "city": "São Miguel dos Campos",
        "state": "AL",
        "district": "Fátima",
        "street": "Quadra F (Lot W Cavalcante)",
        "zipcode": "57245-250"
    },
    {
        "city": "São Miguel dos Campos",
        "state": "AL",
        "district": "Fátima",
        "street": "Quadra G (Lot W Cavalcante)",
        "zipcode": "57245-253"
    },
    {
        "city": "São Miguel dos Campos",
        "state": "AL",
        "district": "Fátima",
        "street": "Quadra F (Lot Edgar Palmeira)",
        "zipcode": "57245-187"
    },
    {
        "city": "São Miguel dos Campos",
        "state": "AL",
        "district": "Fátima",
        "street": "Quadra D (Lot W Cavalcante)",
        "zipcode": "57245-244"
    },
    {
        "city": "São Miguel dos Campos",
        "state": "AL",
        "district": "Fátima",
        "street": "Quadra E (Lot W Cavalcante)",
        "zipcode": "57245-247"
    },
    {
        "city": "São Miguel dos Campos",
        "state": "AL",
        "district": "Fátima",
        "street": "Quadra C (Res Novo S Miguel)",
        "zipcode": "57245-265"
    },
    {
        "city": "São Miguel dos Campos",
        "state": "AL",
        "district": "Hélio Jatobá",
        "street": "Quadra F",
        "zipcode": "57246-035"
    },
    {
        "city": "São Miguel dos Campos",
        "state": "AL",
        "district": "Fátima",
        "street": "Quadra J (Lot Ester S Torres)",
        "zipcode": "57245-013"
    },
    {
        "city": "São Miguel dos Campos",
        "state": "AL",
        "district": "Fátima",
        "street": "Quadra J (Lot Wellington Torres)",
        "zipcode": "57245-154"
    },
    {
        "city": "São Miguel dos Campos",
        "state": "AL",
        "district": "Fátima",
        "street": "Quadra K (Lot Edgar Palmeira)",
        "zipcode": "57245-214"
    },
    {
        "city": "São Miguel dos Campos",
        "state": "AL",
        "district": "Geraldo Sampaio",
        "street": "Quadra I (Cj Diógenes Celestino)",
        "zipcode": "57240-350"
    },
    {
        "city": "São Miguel dos Campos",
        "state": "AL",
        "district": "Geraldo Sampaio",
        "street": "Quadra K (Cj Diógenes Celestino)",
        "zipcode": "57240-354"
    },
    {
        "city": "São Miguel dos Campos",
        "state": "AL",
        "district": "Fátima",
        "street": "Rua dos Prazeres",
        "zipcode": "57245-130"
    },
    {
        "city": "São Miguel dos Campos",
        "state": "AL",
        "district": "Fátima",
        "street": "Quadra J (Lot Edgar Palmeira)",
        "zipcode": "57245-211"
    },
    {
        "city": "São Miguel dos Campos",
        "state": "AL",
        "district": "Bela Vista",
        "street": "Quadra D (Lot Bela Vista III)",
        "zipcode": "57241-424"
    },
    {
        "city": "São Miguel dos Campos",
        "state": "AL",
        "district": "Bela Vista",
        "street": "Quadra D (Lot Bela Vista II)",
        "zipcode": "57241-436"
    },
    {
        "city": "São Miguel dos Campos",
        "state": "AL",
        "district": "Canto da Saudade",
        "street": "Quadra 14 (Lot José Calazans)",
        "zipcode": "57241-058"
    },
    {
        "city": "São Miguel dos Campos",
        "state": "AL",
        "district": "Paraíso",
        "street": "Quadra D (Lot José Torres Filho)",
        "zipcode": "57240-166"
    },
    {
        "city": "São Miguel dos Campos",
        "state": "AL",
        "district": "Paraíso",
        "street": "Quadra D (Lot José Alves)",
        "zipcode": "57240-158"
    },
    {
        "city": "São Miguel dos Campos",
        "state": "AL",
        "district": "Paraíso",
        "street": "Quadra F (Lot José Torres Filho)",
        "zipcode": "57240-170"
    },
    {
        "city": "São Miguel dos Campos",
        "state": "AL",
        "district": "Bela Vista",
        "street": "Quadra C (Lot Bela Vista III)",
        "zipcode": "57241-421"
    },
    {
        "city": "São Miguel dos Campos",
        "state": "AL",
        "district": "Canto da Saudade",
        "street": "Quadra 19 (Lot José Calazans)",
        "zipcode": "57241-040"
    },
    {
        "city": "São Miguel dos Campos",
        "state": "AL",
        "district": "Canto da Saudade",
        "street": "Quadra 13 (Lot José Calazans)",
        "zipcode": "57241-055"
    },
    {
        "city": "São Miguel dos Campos",
        "state": "AL",
        "district": "Canto da Saudade",
        "street": "Quadra 15 (Lot José Calazans)",
        "zipcode": "57241-061"
    },
    {
        "city": "São Miguel dos Campos",
        "state": "AL",
        "district": "Centro",
        "street": "Rua Cecília de Sá",
        "zipcode": "57240-076"
    },
    {
        "city": "São Miguel dos Campos",
        "state": "AL",
        "district": "Centro",
        "street": "Rua Coronel Francisco Cavalcante",
        "zipcode": "57240-078"
    },
    {
        "city": "São Miguel dos Campos",
        "state": "AL",
        "district": "Centro",
        "street": "Rua João Correia de Albuquerque",
        "zipcode": "57240-082"
    },
    {
        "city": "São Miguel dos Campos",
        "state": "AL",
        "district": "Centro",
        "street": "Rua Jeremias de Menezes",
        "zipcode": "57240-038"
    },
    {
        "city": "São Miguel dos Campos",
        "state": "AL",
        "district": "Centro",
        "street": "Rua Doutor Francisco Duarte",
        "zipcode": "57240-040"
    },
    {
        "city": "São Miguel dos Campos",
        "state": "AL",
        "district": "Centro",
        "street": "Rua Doutor Costa Barros",
        "zipcode": "57240-020"
    },
    {
        "city": "São Miguel dos Campos",
        "state": "AL",
        "district": "Centro",
        "street": "Rua Doutor Rômulo de Almeida",
        "zipcode": "57240-022"
    },
    {
        "city": "São Miguel dos Campos",
        "state": "AL",
        "district": "Paraíso",
        "street": "Rua Sartírio Brandão",
        "zipcode": "57240-202"
    },
    {
        "city": "São Miguel dos Campos",
        "state": "AL",
        "district": "Centro",
        "street": "Praça Padre Júlio de Albuquerque",
        "zipcode": "57240-970"
    },
    {
        "city": "São Miguel dos Campos",
        "state": "AL",
        "district": "Centro",
        "street": "Rua Coronel Rocha Santos",
        "zipcode": "57240-010"
    },
    {
        "city": "São Miguel dos Campos",
        "state": "AL",
        "district": "Hélio Jatobá",
        "street": "Rua Vereador Benedito Severino Filho",
        "zipcode": "57246-715"
    },
    {
        "city": "São Miguel dos Campos",
        "state": "AL",
        "district": "Centro",
        "street": "Rua Coronel Francisco Cavalcante",
        "zipcode": "57240-080"
    },
    {
        "city": "São Miguel dos Campos",
        "state": "AL",
        "district": "Centro",
        "street": "Rua Coronel José Calazans",
        "zipcode": "57240-060"
    },
    {
        "city": "São Miguel dos Campos",
        "state": "AL",
        "district": "Centro",
        "street": "Travessa Vinte e Nove de Setembro",
        "zipcode": "57240-032"
    },
    {
        "city": "São Miguel dos Campos",
        "state": "AL",
        "district": "Centro",
        "street": "Rua Sizenando Amorim",
        "zipcode": "57240-046"
    },
    {
        "city": "São Miguel dos Campos",
        "state": "AL",
        "district": "Centro",
        "street": "Rua Coronel José Alexandrino",
        "zipcode": "57240-012"
    },
    {
        "city": "São Miguel dos Campos",
        "state": "AL",
        "district": "Centro",
        "street": "Avenida Vera Cruz",
        "zipcode": "57240-016"
    },
    {
        "city": "São Miguel dos Campos",
        "state": "AL",
        "district": "Bela Vista",
        "street": "Quadra C (Lot Bela Vista II)",
        "zipcode": "57241-433"
    },
    {
        "city": "São Miguel dos Campos",
        "state": "AL",
        "district": "Bela Vista",
        "street": "Quadra J (Lot Bela Vista I)",
        "zipcode": "57241-454"
    },
    {
        "city": "São Miguel dos Campos",
        "state": "AL",
        "district": "Fátima",
        "street": "Quadra Q (Lot Ester S Torres)",
        "zipcode": "57245-037"
    },
    {
        "city": "São Miguel dos Campos",
        "state": "AL",
        "district": "Fátima",
        "street": "Quadra B (Lot  Ester S Torres)",
        "zipcode": "57245-055"
    },
    {
        "city": "São Miguel dos Campos",
        "state": "AL",
        "district": "Fátima",
        "street": "Quadra I (Lot Ester S Torres)",
        "zipcode": "57245-070"
    },
    {
        "city": "São Miguel dos Campos",
        "state": "AL",
        "district": "Fátima",
        "street": "Quadra P (Lot Ester S Torres)",
        "zipcode": "57245-007"
    },
    {
        "city": "São Miguel dos Campos",
        "state": "AL",
        "district": "Fátima",
        "street": "Quadra U (Lot Ester S Torres)",
        "zipcode": "57245-031"
    },
    {
        "city": "São Miguel dos Campos",
        "state": "AL",
        "district": "Bela Vista",
        "street": "Rua do Mercado",
        "zipcode": "57241-400"
    },
    {
        "city": "São Miguel dos Campos",
        "state": "AL",
        "district": "Canto da Saudade",
        "street": "Quadra 30 (Lot José Calazans)",
        "zipcode": "57241-033"
    },
    {
        "city": "São Miguel dos Campos",
        "state": "AL",
        "district": "Geraldo Sampaio",
        "street": "Quadra E (Cj Diógenes Celestino)",
        "zipcode": "57240-342"
    },
    {
        "city": "São Miguel dos Campos",
        "state": "AL",
        "district": "Canto da Saudade",
        "street": "Rua Coronel Francisco Jatobá",
        "zipcode": "57241-007"
    },
    {
        "city": "São Miguel dos Campos",
        "state": "AL",
        "district": "Paraíso",
        "street": "Rua Minervino dos Santos",
        "zipcode": "57240-214"
    },
    {
        "city": "São Miguel dos Campos",
        "state": "AL",
        "district": "Centro",
        "street": "Rua Gasparino Cavalcante Pessoa",
        "zipcode": "57240-094"
    },
    {
        "city": "São Miguel dos Campos",
        "state": "AL",
        "district": "Centro",
        "street": "Avenida Deputado Diney Torres",
        "zipcode": "57240-096"
    },
    {
        "city": "São Miguel dos Campos",
        "state": "AL",
        "district": "Paraíso",
        "street": "Quadra C (Lot José Torres Filho)",
        "zipcode": "57240-164"
    },
    {
        "city": "São Miguel dos Campos",
        "state": "AL",
        "district": "Paraíso",
        "street": "Rua Coronel Francisco Cavalcante",
        "zipcode": "57240-190"
    },
    {
        "city": "São Miguel dos Campos",
        "state": "AL",
        "district": "Humberto Alves",
        "street": "Rua Vinte e Nove de Setembro",
        "zipcode": "57242-022"
    },
    {
        "city": "São Miguel dos Campos",
        "state": "AL",
        "district": "Humberto Alves",
        "street": "Rua Sítio Vera Cruz 3",
        "zipcode": "57242-103"
    },
    {
        "city": "São Miguel dos Campos",
        "state": "AL",
        "district": "Fátima",
        "street": "Rua Santa Terezinha",
        "zipcode": "57245-106"
    },
    {
        "city": "São Miguel dos Campos",
        "state": "AL",
        "district": "Geraldo Sampaio",
        "street": "Rua João Cesar Teixeira",
        "zipcode": "57240-322"
    },
    {
        "city": "São Miguel dos Campos",
        "state": "AL",
        "district": "Geraldo Sampaio",
        "street": "Quadra H (Cj Diógenes Celestino)",
        "zipcode": "57240-348"
    },
    {
        "city": "São Miguel dos Campos",
        "state": "AL",
        "district": "Centro",
        "street": "Travessa Aristides de Castro",
        "zipcode": "57240-084"
    },
    {
        "city": "São Miguel dos Campos",
        "state": "AL",
        "district": "Canto da Saudade",
        "street": "Praça Antonieta Teixeira Leite",
        "zipcode": "57241-020"
    },
    {
        "city": "São Miguel dos Campos",
        "state": "AL",
        "district": "Canto da Saudade",
        "street": "Rua Albérico Cavalcante Pessoa",
        "zipcode": "57241-022"
    },
    {
        "city": "São Miguel dos Campos",
        "state": "AL",
        "district": "Canto da Saudade",
        "street": "Quadra 27 (Lot José Calazans)",
        "zipcode": "57241-039"
    },
    {
        "city": "São Miguel dos Campos",
        "state": "AL",
        "district": "Canto da Saudade",
        "street": "Quadra 21 (Lot José Calazans)",
        "zipcode": "57241-046"
    },
    {
        "city": "São Miguel dos Campos",
        "state": "AL",
        "district": "Canto da Saudade",
        "street": "Quadra 17 (Lot José Calazans)",
        "zipcode": "57241-067"
    },
    {
        "city": "São Miguel dos Campos",
        "state": "AL",
        "district": "Canto da Saudade",
        "street": "Quadra 18 (Lot José Calazans)",
        "zipcode": "57241-070"
    },
    {
        "city": "São Miguel dos Campos",
        "state": "AL",
        "district": "Lourdes",
        "street": "Rua Coronel Francisco Jatobá",
        "zipcode": "57241-201"
    },
    {
        "city": "São Miguel dos Campos",
        "state": "AL",
        "district": "Lourdes",
        "street": "Rua José de Sá Teixeira",
        "zipcode": "57241-207"
    },
    {
        "city": "São Miguel dos Campos",
        "state": "AL",
        "district": "Lourdes",
        "street": "Rua Diógenes Almeida Celestino",
        "zipcode": "57241-249"
    },
    {
        "city": "São Miguel dos Campos",
        "state": "AL",
        "district": "Bela Vista",
        "street": "Quadra A (Lot Bela Vista III)",
        "zipcode": "57241-415"
    },
    {
        "city": "São Miguel dos Campos",
        "state": "AL",
        "district": "Bela Vista",
        "street": "Quadra E (Lot Bela Vista I)",
        "zipcode": "57241-457"
    },
    {
        "city": "São Miguel dos Campos",
        "state": "AL",
        "district": "Humberto Alves",
        "street": "Travessa Vinte e Nove de Setembro",
        "zipcode": "57242-031"
    },
    {
        "city": "São Miguel dos Campos",
        "state": "AL",
        "district": "Humberto Alves",
        "street": "Rua Miguel Augusto de Barros",
        "zipcode": "57242-067"
    },
    {
        "city": "São Miguel dos Campos",
        "state": "AL",
        "district": "Fátima",
        "street": "Rua Santa Mônica",
        "zipcode": "57245-082"
    },
    {
        "city": "São Miguel dos Campos",
        "state": "AL",
        "district": "Fátima",
        "street": "Rua Padre Cícero",
        "zipcode": "57245-109"
    },
    {
        "city": "São Miguel dos Campos",
        "state": "AL",
        "district": "Fátima",
        "street": "Quadra 4 (Lot José Calazans)",
        "zipcode": "57245-119"
    },
    {
        "city": "São Miguel dos Campos",
        "state": "AL",
        "district": "Fátima",
        "street": "Quadra 1 (Lot José Calazans)",
        "zipcode": "57245-134"
    },
    {
        "city": "São Miguel dos Campos",
        "state": "AL",
        "district": "Fátima",
        "street": "Rua São Benedito",
        "zipcode": "57245-136"
    },
    {
        "city": "São Miguel dos Campos",
        "state": "AL",
        "district": "Fátima",
        "street": "Rua Nossa Senhora dos Prazeres",
        "zipcode": "57245-140"
    },
    {
        "city": "São Miguel dos Campos",
        "state": "AL",
        "district": "Fátima",
        "street": "Quadra B (Lot Wellington Torres)",
        "zipcode": "57245-142"
    },
    {
        "city": "São Miguel dos Campos",
        "state": "AL",
        "district": "Fátima",
        "street": "Quadra F (Lot Wellington Torres)",
        "zipcode": "57245-148"
    },
    {
        "city": "São Miguel dos Campos",
        "state": "AL",
        "district": "Fátima",
        "street": "Quadra C (Lot Edgar Palmeira)",
        "zipcode": "57245-178"
    },
    {
        "city": "São Miguel dos Campos",
        "state": "AL",
        "district": "Fátima",
        "street": "Quadra B",
        "zipcode": "57245-202"
    },
    {
        "city": "São Miguel dos Campos",
        "state": "AL",
        "district": "Fátima",
        "street": "Quadra D",
        "zipcode": "57245-208"
    },
    {
        "city": "São Miguel dos Campos",
        "state": "AL",
        "district": "Fátima",
        "street": "Quadra C (Lot W Cavalcante)",
        "zipcode": "57245-241"
    },
    {
        "city": "São Miguel dos Campos",
        "state": "AL",
        "district": "Centro",
        "street": "Rua Manoel Teixeira Leite",
        "zipcode": "57240-072"
    },
    {
        "city": "São Miguel dos Campos",
        "state": "AL",
        "district": "Hélio Jatobá",
        "street": "Avenida Sebastião Carlos Monteiro (Lot Hélio Jatobá II)",
        "zipcode": "57246-365"
    },
    {
        "city": "São Miguel dos Campos",
        "state": "AL",
        "district": "Centro",
        "street": "Rua Vinte e Nove de Setembro",
        "zipcode": "57240-030"
    },
    {
        "city": "São Miguel dos Campos",
        "state": "AL",
        "district": "Fátima",
        "street": "Quadra A (Lot Wellington Torres)",
        "zipcode": "57245-169"
    },
    {
        "city": "São Miguel dos Campos",
        "state": "AL",
        "district": "Fátima",
        "street": "Quadra D (Res Novo S Miguel)",
        "zipcode": "57245-268"
    },
    {
        "city": "São Miguel dos Campos",
        "state": "AL",
        "district": "Fátima",
        "street": "Quadra L (Res Novo S Miguel)",
        "zipcode": "57245-292"
    },
    {
        "city": "São Miguel dos Campos",
        "state": "AL",
        "district": "Rui Palmeira",
        "street": "Avenida José Luis Soares Filho",
        "zipcode": "57245-339"
    },
    {
        "city": "São Miguel dos Campos",
        "state": "AL",
        "district": "Hélio Jatobá",
        "street": "Quadra E",
        "zipcode": "57246-030"
    },
    {
        "city": "São Miguel dos Campos",
        "state": "AL",
        "district": "Hélio Jatobá",
        "street": "Quadra P",
        "zipcode": "57246-055"
    },
    {
        "city": "São Miguel dos Campos",
        "state": "AL",
        "district": "Hélio Jatobá",
        "street": "Quadra S",
        "zipcode": "57246-095"
    },
    {
        "city": "São Miguel dos Campos",
        "state": "AL",
        "district": "Humberto Alves",
        "street": "Rua José Cesar Teixeira",
        "zipcode": "57242-091"
    },
    {
        "city": "São Miguel dos Campos",
        "state": "AL",
        "district": "Hélio Jatobá",
        "street": "Quadra D",
        "zipcode": "57246-140"
    },
    {
        "city": "São Miguel dos Campos",
        "state": "AL",
        "district": "Hélio Jatobá",
        "street": "Quadra U",
        "zipcode": "57246-175"
    },
    {
        "city": "São Miguel dos Campos",
        "state": "AL",
        "district": "Hélio Jatobá",
        "street": "Quadra H",
        "zipcode": "57246-190"
    },
    {
        "city": "São Miguel dos Campos",
        "state": "AL",
        "district": "Hélio Jatobá",
        "street": "Quadra Z",
        "zipcode": "57246-205"
    },
    {
        "city": "São Miguel dos Campos",
        "state": "AL",
        "district": "Hélio Jatobá",
        "street": "Quadra K",
        "zipcode": "57246-230"
    },
    {
        "city": "São Miguel dos Campos",
        "state": "AL",
        "district": "Hélio Jatobá",
        "street": "Quadra D",
        "zipcode": "57246-245"
    },
    {
        "city": "São Miguel dos Campos",
        "state": "AL",
        "district": "Hélio Jatobá",
        "street": "Quadra P",
        "zipcode": "57246-275"
    },
    {
        "city": "São Miguel dos Campos",
        "state": "AL",
        "district": "Hélio Jatobá",
        "street": "Quadra O",
        "zipcode": "57246-303"
    },
    {
        "city": "São Miguel dos Campos",
        "state": "AL",
        "district": "Hélio Jatobá",
        "street": "Quadra Q",
        "zipcode": "57246-330"
    },
    {
        "city": "São Miguel dos Campos",
        "state": "AL",
        "district": "Hélio Jatobá",
        "street": "Rua Cícero Pereira da Silva (Lot Hélio Jatobá II)",
        "zipcode": "57246-380"
    },
    {
        "city": "São Miguel dos Campos",
        "state": "AL",
        "district": "Hélio Jatobá",
        "street": "Quadra H",
        "zipcode": "57246-382"
    },
    {
        "city": "São Miguel dos Campos",
        "state": "AL",
        "district": "Hélio Jatobá",
        "street": "Rua José de Abreu Chaves (Lot Hélio Jatobá II)",
        "zipcode": "57246-390"
    },
    {
        "city": "São Miguel dos Campos",
        "state": "AL",
        "district": "Hélio Jatobá",
        "street": "Quadra K",
        "zipcode": "57246-396"
    },
    {
        "city": "São Miguel dos Campos",
        "state": "AL",
        "district": "Hélio Jatobá",
        "street": "Quadra C",
        "zipcode": "57246-415"
    },
    {
        "city": "São Miguel dos Campos",
        "state": "AL",
        "district": "Hélio Jatobá",
        "street": "Quadra H",
        "zipcode": "57246-500"
    },
    {
        "city": "São Miguel dos Campos",
        "state": "AL",
        "district": "Hélio Jatobá",
        "street": "Quadra K",
        "zipcode": "57246-535"
    },
    {
        "city": "São Miguel dos Campos",
        "state": "AL",
        "district": "Hélio Jatobá",
        "street": "Quadra G",
        "zipcode": "57246-625"
    },
    {
        "city": "São Miguel dos Campos",
        "state": "AL",
        "district": "Hélio Jatobá",
        "street": "Avenida Vereador Ambrósio Ceriaco da Conversão",
        "zipcode": "57246-650"
    },
    {
        "city": "São Miguel dos Campos",
        "state": "AL",
        "district": "Hélio Jatobá",
        "street": "Avenida Empresário Manuel Antonio dos Santos",
        "zipcode": "57246-670"
    },
    {
        "city": "São Miguel dos Campos",
        "state": "AL",
        "district": "Hélio Jatobá",
        "street": "Rua Vereador Agnaldo Campos de Matos",
        "zipcode": "57246-695"
    },
    {
        "city": "São Miguel dos Campos",
        "state": "AL",
        "district": "Hélio Jatobá",
        "street": "Avenida Empresário José Júlio de Carvalho (Guido)",
        "zipcode": "57246-705"
    },
    {
        "city": "São Miguel dos Campos",
        "state": "AL",
        "district": "Hélio Jatobá",
        "street": "Rua Empresário José Geraldo Firmino da Silva",
        "zipcode": "57246-745"
    },
    {
        "city": "São Miguel dos Campos",
        "state": "AL",
        "district": "Hélio Jatobá",
        "street": "Rua Senhora Nair Santos Cavalcante",
        "zipcode": "57246-770"
    },
    {
        "city": "São Miguel dos Campos",
        "state": "AL",
        "district": "Área Rural de São Miguel dos Campos",
        "street": "Área Rural",
        "zipcode": "57249-899"
    },
    {
        "city": "São Miguel dos Campos",
        "state": "AL",
        "district": "Hélio Jatobá",
        "street": "Quadra L",
        "zipcode": "57246-640"
    },
    {
        "city": "São Miguel dos Campos",
        "state": "AL",
        "district": "Hélio Jatobá",
        "street": "Quadra D",
        "zipcode": "57246-575"
    },
    {
        "city": "São Miguel dos Campos",
        "state": "AL",
        "district": "Lourdes",
        "street": "Quadra 36 (Lot José Calazans)",
        "zipcode": "57241-205"
    },
    {
        "city": "São Miguel dos Campos",
        "state": "AL",
        "district": "Lourdes",
        "street": "Quadra 35 (Lot José Calazans)",
        "zipcode": "57241-209"
    },
    {
        "city": "São Miguel dos Campos",
        "state": "AL",
        "district": "Lourdes",
        "street": "Quadra 33 (Lot José Calazans)",
        "zipcode": "57241-215"
    },
    {
        "city": "São Miguel dos Campos",
        "state": "AL",
        "district": "Lourdes",
        "street": "Quadra 37 (Lot José Calazans)",
        "zipcode": "57241-217"
    },
    {
        "city": "São Miguel dos Campos",
        "state": "AL",
        "district": "Fátima",
        "street": "Quadra 3 (Lot José Calazans)",
        "zipcode": "57245-122"
    },
    {
        "city": "São Miguel dos Campos",
        "state": "AL",
        "district": "Fátima",
        "street": "Quadra 2 (Lot José Calazans)",
        "zipcode": "57245-135"
    },
    {
        "city": "São Miguel dos Campos",
        "state": "AL",
        "district": "Hélio Jatobá",
        "street": "Quadra E",
        "zipcode": "57246-475"
    },
    {
        "city": "São Miguel dos Campos",
        "state": "AL",
        "district": "Hélio Jatobá",
        "street": "Quadra C",
        "zipcode": "57246-605"
    },
    {
        "city": "São Miguel dos Campos",
        "state": "AL",
        "district": "Hélio Jatobá",
        "street": "Quadra D",
        "zipcode": "57246-610"
    },
    {
        "city": "São Miguel dos Campos",
        "state": "AL",
        "district": "Hélio Jatobá",
        "street": "Quadra Q",
        "zipcode": "57246-373"
    },
    {
        "city": "São Miguel dos Campos",
        "state": "AL",
        "district": "Fátima",
        "street": "Quadra D (Lot Wellington Torres)",
        "zipcode": "57245-145"
    },
    {
        "city": "São Miguel dos Campos",
        "state": "AL",
        "district": "Fátima",
        "street": "Quadra E (Lot Wellington Torres)",
        "zipcode": "57245-163"
    },
    {
        "city": "São Miguel dos Campos",
        "state": "AL",
        "district": "Fátima",
        "street": "Quadra C (Lot Wellington Torres)",
        "zipcode": "57245-166"
    },
    {
        "city": "São Miguel dos Campos",
        "state": "AL",
        "district": "Fátima",
        "street": "Quadra D (Lot Edgar Palmeira)",
        "zipcode": "57245-181"
    },
    {
        "city": "São Miguel dos Campos",
        "state": "AL",
        "district": "Fátima",
        "street": "Quadra G (Lot Edgar Palmeira)",
        "zipcode": "57245-190"
    },
    {
        "city": "São Miguel dos Campos",
        "state": "AL",
        "district": "Fátima",
        "street": "Quadra H (Lot Edgar Palmeira)",
        "zipcode": "57245-193"
    },
    {
        "city": "São Miguel dos Campos",
        "state": "AL",
        "district": "Fátima",
        "street": "Quadra M (Lot Edgar Palmeira)",
        "zipcode": "57245-220"
    },
    {
        "city": "São Miguel dos Campos",
        "state": "AL",
        "district": "Fátima",
        "street": "Quadra P (Lot Edgar Palmeira)",
        "zipcode": "57245-229"
    },
    {
        "city": "São Miguel dos Campos",
        "state": "AL",
        "district": "Hélio Jatobá",
        "street": "Quadra K",
        "zipcode": "57246-645"
    },
    {
        "city": "São Miguel dos Campos",
        "state": "AL",
        "district": "Fátima",
        "street": "Quadra G (Lot Wellington Torres)",
        "zipcode": "57245-160"
    },
    {
        "city": "São Miguel dos Campos",
        "state": "AL",
        "district": "Hélio Jatobá",
        "street": "Quadra L",
        "zipcode": "57246-545"
    },
    {
        "city": "São Miguel dos Campos",
        "state": "AL",
        "district": "Hélio Jatobá",
        "street": "Rua Vereador José Rinaldo Soares Gameleira",
        "zipcode": "57246-685"
    },
    {
        "city": "São Miguel dos Campos",
        "state": "AL",
        "district": "Hélio Jatobá",
        "street": "Rua José Vicente dos Santos",
        "zipcode": "57246-775"
    },
    {
        "city": "São Miguel dos Campos",
        "state": "AL",
        "district": "Fátima",
        "street": "Quadra 6 (Lot José Calazans)",
        "zipcode": "57245-120"
    },
    {
        "city": "São Miguel dos Campos",
        "state": "AL",
        "district": "Fátima",
        "street": "Quadra 5 (Lot José Calazans)",
        "zipcode": "57245-137"
    },
    {
        "city": "São Miguel dos Campos",
        "state": "AL",
        "district": "Hélio Jatobá",
        "street": "Quadra R (Lot Hélio Jatobá I)",
        "zipcode": "57246-087"
    },
    {
        "city": "São Miguel dos Campos",
        "state": "AL",
        "district": "Hélio Jatobá",
        "street": "Quadra Z (Lot Hélio Jatobá I)",
        "zipcode": "57246-157"
    },
    {
        "city": "São Miguel dos Campos",
        "state": "AL",
        "district": "Hélio Jatobá",
        "street": "Quadra I",
        "zipcode": "57246-300"
    },
    {
        "city": "São Miguel dos Campos",
        "state": "AL",
        "district": "Hélio Jatobá",
        "street": "Quadra L",
        "zipcode": "57246-355"
    },
    {
        "city": "São Miguel dos Campos",
        "state": "AL",
        "district": "Hélio Jatobá",
        "street": "Quadra F",
        "zipcode": "57246-485"
    },
    {
        "city": "São Miguel dos Campos",
        "state": "AL",
        "district": "Hélio Jatobá",
        "street": "Quadra G",
        "zipcode": "57246-490"
    },
    {
        "city": "São Miguel dos Campos",
        "state": "AL",
        "district": "Hélio Jatobá",
        "street": "Quadra G",
        "zipcode": "57246-495"
    },
    {
        "city": "São Miguel dos Campos",
        "state": "AL",
        "district": "Hélio Jatobá",
        "street": "Quadra H",
        "zipcode": "57246-505"
    },
    {
        "city": "São Miguel dos Campos",
        "state": "AL",
        "district": "Hélio Jatobá",
        "street": "Quadra J",
        "zipcode": "57246-515"
    },
    {
        "city": "São Miguel dos Campos",
        "state": "AL",
        "district": "Hélio Jatobá",
        "street": "Quadra L",
        "zipcode": "57246-525"
    },
    {
        "city": "São Miguel dos Campos",
        "state": "AL",
        "district": "Hélio Jatobá",
        "street": "Quadra K",
        "zipcode": "57246-530"
    },
    {
        "city": "São Miguel dos Campos",
        "state": "AL",
        "district": "Hélio Jatobá",
        "street": "Quadra J",
        "zipcode": "57246-550"
    },
    {
        "city": "São Miguel dos Campos",
        "state": "AL",
        "district": "Hélio Jatobá",
        "street": "Quadra H",
        "zipcode": "57246-555"
    },
    {
        "city": "São Miguel dos Campos",
        "state": "AL",
        "district": "Hélio Jatobá",
        "street": "Quadra F",
        "zipcode": "57246-565"
    },
    {
        "city": "São Miguel dos Campos",
        "state": "AL",
        "district": "Hélio Jatobá",
        "street": "Quadra E",
        "zipcode": "57246-615"
    },
    {
        "city": "São Miguel dos Campos",
        "state": "AL",
        "district": "Hélio Jatobá",
        "street": "Quadra H",
        "zipcode": "57246-630"
    },
    {
        "city": "São Miguel dos Campos",
        "state": "AL",
        "district": "Hélio Jatobá",
        "street": "Rua Professora Maria Nildes Alves de Moura",
        "zipcode": "57246-680"
    },
    {
        "city": "São Miguel dos Campos",
        "state": "AL",
        "district": "Hélio Jatobá",
        "street": "Rua Vereador Manoel Moreira de Cerqueira",
        "zipcode": "57246-690"
    },
    {
        "city": "São Miguel dos Campos",
        "state": "AL",
        "district": "Hélio Jatobá",
        "street": "Rua Vereador Paulo André Verçosa Lemos",
        "zipcode": "57246-700"
    },
    {
        "city": "São Miguel dos Campos",
        "state": "AL",
        "district": "Hélio Jatobá",
        "street": "Rua Vereador Aleudo Paulino Dias",
        "zipcode": "57246-710"
    },
    {
        "city": "São Miguel dos Campos",
        "state": "AL",
        "district": "Hélio Jatobá",
        "street": "Rua Empresário Carlos Roberto Vieira",
        "zipcode": "57246-725"
    },
    {
        "city": "São Miguel dos Campos",
        "state": "AL",
        "district": "Hélio Jatobá",
        "street": "Rua Desportista José Cícero dos Santos (Gordo)",
        "zipcode": "57246-730"
    },
    {
        "city": "São Miguel dos Campos",
        "state": "AL",
        "district": "Hélio Jatobá",
        "street": "Rua Comerciante Domiciano Celestino",
        "zipcode": "57246-735"
    },
    {
        "city": "São Miguel dos Campos",
        "state": "AL",
        "district": "Hélio Jatobá",
        "street": "Rua Empresário Amarílson Calda da Silva",
        "zipcode": "57246-750"
    },
    {
        "city": "São Miguel dos Campos",
        "state": "AL",
        "district": "Hélio Jatobá",
        "street": "Rua Empresário Aloiso Lourenço de Misquita",
        "zipcode": "57246-755"
    },
    {
        "city": "São Miguel dos Campos",
        "state": "AL",
        "district": "Hélio Jatobá",
        "street": "Rua Comerciante José Antônio da Silva",
        "zipcode": "57246-760"
    },
    {
        "city": "São Miguel dos Campos",
        "state": "AL",
        "district": "Hélio Jatobá",
        "street": "Rua Empresário Benedito Cursino dos Santos",
        "zipcode": "57246-765"
    },
    {
        "city": "São Miguel dos Campos",
        "state": "AL",
        "district": "Hélio Jatobá",
        "street": "Rua Vereador André Correa dos Santos",
        "zipcode": "57246-720"
    },
    {
        "city": "São Miguel dos Campos",
        "state": "AL",
        "district": "Fátima",
        "street": "Quadra E (Res Novo S Miguel)",
        "zipcode": "57245-271"
    },
    {
        "city": "São Miguel dos Campos",
        "state": "AL",
        "district": "Fátima",
        "street": "Quadra G (Res Novo S Miguel)",
        "zipcode": "57245-277"
    },
    {
        "city": "São Miguel dos Campos",
        "state": "AL",
        "district": "Fátima",
        "street": "Quadra I (Lot Edgar Palmeira)",
        "zipcode": "57245-196"
    },
    {
        "city": "São Miguel dos Campos",
        "state": "AL",
        "district": "Hélio Jatobá",
        "street": "Quadra X",
        "zipcode": "57246-115"
    },
    {
        "city": "São Miguel dos Campos",
        "state": "AL",
        "district": "Hélio Jatobá",
        "street": "Quadra B",
        "zipcode": "57246-015"
    },
    {
        "city": "São Miguel dos Campos",
        "state": "AL",
        "district": "Hélio Jatobá",
        "street": "Quadra C",
        "zipcode": "57246-145"
    },
    {
        "city": "São Miguel dos Campos",
        "state": "AL",
        "district": "Hélio Jatobá",
        "street": "Quadra B",
        "zipcode": "57246-150"
    },
    {
        "city": "São Miguel dos Campos",
        "state": "AL",
        "district": "Humberto Alves",
        "street": "Rua Vicente Ferreira Bonfim",
        "zipcode": "57242-052"
    },
    {
        "city": "São Miguel dos Campos",
        "state": "AL",
        "district": "Humberto Alves",
        "street": "Rua Vulpiano Júnior",
        "zipcode": "57242-073"
    },
    {
        "city": "São Miguel dos Campos",
        "state": "AL",
        "district": "Hélio Jatobá",
        "street": "Rua Vereador Jackson Soares Torres",
        "zipcode": "57246-660"
    },
    {
        "city": "São Miguel dos Campos",
        "state": "AL",
        "district": "Canto da Saudade",
        "street": "Quadra 12 (Lot José Calazans)",
        "zipcode": "57241-073"
    },
    {
        "city": "São Miguel dos Campos",
        "state": "AL",
        "district": "Canto da Saudade",
        "street": "Quadra 7 (Lot José Calazans)",
        "zipcode": "57241-088"
    },
    {
        "city": "São Miguel dos Campos",
        "state": "AL",
        "district": "Lourdes",
        "street": "Rua Carlos Monteiro",
        "zipcode": "57241-216"
    },
    {
        "city": "São Miguel dos Campos",
        "state": "AL",
        "district": "Lourdes",
        "street": "Rua José Soares",
        "zipcode": "57241-222"
    },
    {
        "city": "São Miguel dos Campos",
        "state": "AL",
        "district": "Lourdes",
        "street": "Rua José Irineu Campos",
        "zipcode": "57241-228"
    },
    {
        "city": "São Miguel dos Campos",
        "state": "AL",
        "district": "Lourdes",
        "street": "Rua João Palmeira Sampaio",
        "zipcode": "57241-243"
    },
    {
        "city": "São Miguel dos Campos",
        "state": "AL",
        "district": "Lourdes",
        "street": "Rua Amabílio Cavalcante",
        "zipcode": "57241-246"
    },
    {
        "city": "São Miguel dos Campos",
        "state": "AL",
        "district": "Humberto Alves",
        "street": "Rua Antonio Gonçalves Ferreira",
        "zipcode": "57242-043"
    },
    {
        "city": "São Miguel dos Campos",
        "state": "AL",
        "district": "Humberto Alves",
        "street": "Rua Otacílio Marques de Sá",
        "zipcode": "57242-055"
    },
    {
        "city": "São Miguel dos Campos",
        "state": "AL",
        "district": "Humberto Alves",
        "street": "Rua Aminadabe de Abreu",
        "zipcode": "57242-058"
    },
    {
        "city": "São Miguel dos Campos",
        "state": "AL",
        "district": "Humberto Alves",
        "street": "Rua Miguel Marques de Moura",
        "zipcode": "57242-061"
    },
    {
        "city": "São Miguel dos Campos",
        "state": "AL",
        "district": "Humberto Alves",
        "street": "Rua França Júnior",
        "zipcode": "57242-088"
    },
    {
        "city": "São Miguel dos Campos",
        "state": "AL",
        "district": "Hélio Jatobá",
        "street": "Quadra C",
        "zipcode": "57246-020"
    },
    {
        "city": "São Miguel dos Campos",
        "state": "AL",
        "district": "Hélio Jatobá",
        "street": "Quadra Z",
        "zipcode": "57246-120"
    },
    {
        "city": "São Miguel dos Campos",
        "state": "AL",
        "district": "Paraíso",
        "street": "Rua Oscar Palmeira Ferro",
        "zipcode": "57240-204"
    },
    {
        "city": "São Miguel dos Campos",
        "state": "AL",
        "district": "Hélio Jatobá",
        "street": "Quadra E",
        "zipcode": "57246-135"
    },
    {
        "city": "São Miguel dos Campos",
        "state": "AL",
        "district": "Hélio Jatobá",
        "street": "Quadra S",
        "zipcode": "57246-165"
    },
    {
        "city": "São Miguel dos Campos",
        "state": "AL",
        "district": "Hélio Jatobá",
        "street": "Quadra I",
        "zipcode": "57246-195"
    },
    {
        "city": "São Miguel dos Campos",
        "state": "AL",
        "district": "Hélio Jatobá",
        "street": "Quadra Y",
        "zipcode": "57246-200"
    },
    {
        "city": "São Miguel dos Campos",
        "state": "AL",
        "district": "Hélio Jatobá",
        "street": "Quadra J",
        "zipcode": "57246-210"
    },
    {
        "city": "São Miguel dos Campos",
        "state": "AL",
        "district": "Hélio Jatobá",
        "street": "Quadra 1ª L",
        "zipcode": "57246-215"
    },
    {
        "city": "São Miguel dos Campos",
        "state": "AL",
        "district": "Hélio Jatobá",
        "street": "Quadra 2ª L",
        "zipcode": "57246-235"
    },
    {
        "city": "São Miguel dos Campos",
        "state": "AL",
        "district": "Hélio Jatobá",
        "street": "Quadra M",
        "zipcode": "57246-250"
    },
    {
        "city": "São Miguel dos Campos",
        "state": "AL",
        "district": "Hélio Jatobá",
        "street": "Quadra O",
        "zipcode": "57246-270"
    },
    {
        "city": "São Miguel dos Campos",
        "state": "AL",
        "district": "Hélio Jatobá",
        "street": "Quadra J",
        "zipcode": "57246-295"
    },
    {
        "city": "São Miguel dos Campos",
        "state": "AL",
        "district": "Hélio Jatobá",
        "street": "Quadra U",
        "zipcode": "57246-310"
    },
    {
        "city": "São Miguel dos Campos",
        "state": "AL",
        "district": "Hélio Jatobá",
        "street": "Quadra T",
        "zipcode": "57246-315"
    },
    {
        "city": "São Miguel dos Campos",
        "state": "AL",
        "district": "Hélio Jatobá",
        "street": "Quadra S",
        "zipcode": "57246-320"
    },
    {
        "city": "São Miguel dos Campos",
        "state": "AL",
        "district": "Hélio Jatobá",
        "street": "Quadra R",
        "zipcode": "57246-325"
    },
    {
        "city": "São Miguel dos Campos",
        "state": "AL",
        "district": "Hélio Jatobá",
        "street": "Quadra P",
        "zipcode": "57246-335"
    },
    {
        "city": "São Miguel dos Campos",
        "state": "AL",
        "district": "Hélio Jatobá",
        "street": "Quadra O",
        "zipcode": "57246-340"
    },
    {
        "city": "São Miguel dos Campos",
        "state": "AL",
        "district": "Hélio Jatobá",
        "street": "Quadra N",
        "zipcode": "57246-345"
    },
    {
        "city": "São Miguel dos Campos",
        "state": "AL",
        "district": "Hélio Jatobá",
        "street": "Rua Sandra Urbano (Lot Hélio Jatobá II)",
        "zipcode": "57246-360"
    },
    {
        "city": "São Miguel dos Campos",
        "state": "AL",
        "district": "Hélio Jatobá",
        "street": "Rua Maria Emília Vieira (Lot Hélio Jatobá II)",
        "zipcode": "57246-395"
    },
    {
        "city": "São Miguel dos Campos",
        "state": "AL",
        "district": "Hélio Jatobá",
        "street": "Quadra M",
        "zipcode": "57246-410"
    },
    {
        "city": "São Miguel dos Campos",
        "state": "AL",
        "district": "Hélio Jatobá",
        "street": "Rua Vereador Sandoval Cavalcante Albuquerque Pessoa",
        "zipcode": "57246-655"
    },
    {
        "city": "São Miguel dos Campos",
        "state": "AL",
        "district": "Fátima",
        "street": "Quadra S (Lot Ester S Torres)",
        "zipcode": "57245-040"
    },
    {
        "city": "São Miguel dos Campos",
        "state": "AL",
        "district": "Fátima",
        "street": "Quadra V (Lot Ester S Torres)",
        "zipcode": "57245-043"
    },
    {
        "city": "São Miguel dos Campos",
        "state": "AL",
        "district": "Fátima",
        "street": "Quadra H (Res Novo S Miguel)",
        "zipcode": "57245-280"
    },
    {
        "city": "São Miguel dos Campos",
        "state": "AL",
        "district": "Fátima",
        "street": "Quadra J (Res Novo S Miguel)",
        "zipcode": "57245-286"
    },
    {
        "city": "São Miguel dos Campos",
        "state": "AL",
        "district": "Fátima",
        "street": "Quadra L (Lot Edgar Palmeira)",
        "zipcode": "57245-217"
    },
    {
        "city": "São Miguel dos Campos",
        "state": "AL",
        "district": "Fátima",
        "street": "Quadra K (Lot Ester S Torres)",
        "zipcode": "57245-025"
    },
    {
        "city": "São Miguel dos Campos",
        "state": "AL",
        "district": "Fátima",
        "street": "Quadra R (Lot Ester S Torres)",
        "zipcode": "57245-028"
    },
    {
        "city": "São Miguel dos Campos",
        "state": "AL",
        "district": "Fátima",
        "street": "Quadra T (Lot Ester S Torres)",
        "zipcode": "57245-034"
    },
    {
        "city": "São Miguel dos Campos",
        "state": "AL",
        "district": "Hélio Jatobá",
        "street": "Quadra N",
        "zipcode": "57246-065"
    },
    {
        "city": "São Miguel dos Campos",
        "state": "AL",
        "district": "Geraldo Sampaio",
        "street": "Quadra F (Cj Diógenes Celestino)",
        "zipcode": "57240-344"
    },
    {
        "city": "São Miguel dos Campos",
        "state": "AL",
        "district": "Geraldo Sampaio",
        "street": "Quadra J (Cj Diógenes Celestino)",
        "zipcode": "57240-352"
    },
    {
        "city": "São Miguel dos Campos",
        "state": "AL",
        "district": "Paraíso",
        "street": "Rua Antônio José da Silva",
        "zipcode": "57240-206"
    },
    {
        "city": "São Miguel dos Campos",
        "state": "AL",
        "district": "Geraldo Sampaio",
        "street": "Rua Olinto de Andrade Lima",
        "zipcode": "57240-304"
    },
    {
        "city": "São Miguel dos Campos",
        "state": "AL",
        "district": "Geraldo Sampaio",
        "street": "Rua Miguel Moreira Torres",
        "zipcode": "57240-306"
    },
    {
        "city": "São Miguel dos Campos",
        "state": "AL",
        "district": "Geraldo Sampaio",
        "street": "Rua José Antônio da Cruz",
        "zipcode": "57240-310"
    },
    {
        "city": "São Miguel dos Campos",
        "state": "AL",
        "district": "Paraíso",
        "street": "Quadra H (Lot José Torres Filho)",
        "zipcode": "57240-174"
    },
    {
        "city": "São Miguel dos Campos",
        "state": "AL",
        "district": "Geraldo Sampaio",
        "street": "Travessa Vereador Antônio Pugliese Bitencourt",
        "zipcode": "57240-314"
    },
    {
        "city": "São Miguel dos Campos",
        "state": "AL",
        "district": "Geraldo Sampaio",
        "street": "Travessa Vereador Antonino Pereira Lima",
        "zipcode": "57240-316"
    },
    {
        "city": "São Miguel dos Campos",
        "state": "AL",
        "district": "Canto da Saudade",
        "street": "Rua São José",
        "zipcode": "57241-091"
    },
    {
        "city": "São Miguel dos Campos",
        "state": "AL",
        "district": "Fátima",
        "street": "Quadra M (Lot Ester S Torres)",
        "zipcode": "57245-010"
    },
    {
        "city": "São Miguel dos Campos",
        "state": "AL",
        "district": "Paraíso",
        "street": "Rua Geraldo Palmeira Sampaio",
        "zipcode": "57240-196"
    },
    {
        "city": "São Miguel dos Campos",
        "state": "AL",
        "district": "Paraíso",
        "street": "Rua Dirceu Ribas Macedo",
        "zipcode": "57240-200"
    },
    {
        "city": "São Miguel dos Campos",
        "state": "AL",
        "district": "Canto da Saudade",
        "street": "Quadra 20 (Lot José Calazans)",
        "zipcode": "57241-043"
    },
    {
        "city": "São Miguel dos Campos",
        "state": "AL",
        "district": "Canto da Saudade",
        "street": "Quadra 10 (Lot José Calazans)",
        "zipcode": "57241-079"
    },
    {
        "city": "São Miguel dos Campos",
        "state": "AL",
        "district": "Canto da Saudade",
        "street": "Quadra 8 (Lot José Calazans)",
        "zipcode": "57241-085"
    },
    {
        "city": "São Miguel dos Campos",
        "state": "AL",
        "district": "Canto da Saudade",
        "street": "Rua Santa Mônica",
        "zipcode": "57241-094"
    },
    {
        "city": "São Miguel dos Campos",
        "state": "AL",
        "district": "Humberto Alves",
        "street": "Rua Mário Palmeira",
        "zipcode": "57242-094"
    },
    {
        "city": "São Miguel dos Campos",
        "state": "AL",
        "district": "Fátima",
        "street": "Rodovia BR",
        "zipcode": "57245-001"
    },
    {
        "city": "São Miguel dos Campos",
        "state": "AL",
        "district": "Fátima",
        "street": "Quadra N (Lot Ester S Torres)",
        "zipcode": "57245-022"
    },
    {
        "city": "São Miguel dos Campos",
        "state": "AL",
        "district": "Fátima",
        "street": "Rua Santa Inêz",
        "zipcode": "57245-085"
    },
    {
        "city": "São Miguel dos Campos",
        "state": "AL",
        "district": "Fátima",
        "street": "Rua Santa Izabel",
        "zipcode": "57245-094"
    },
    {
        "city": "São Miguel dos Campos",
        "state": "AL",
        "district": "Fátima",
        "street": "Quadra I (Res Novo S Miguel)",
        "zipcode": "57245-283"
    },
    {
        "city": "São Miguel dos Campos",
        "state": "AL",
        "district": "Rui Palmeira",
        "street": "Rodovia BR",
        "zipcode": "57245-300"
    },
    {
        "city": "São Miguel dos Campos",
        "state": "AL",
        "district": "Hélio Jatobá",
        "street": "Rua São José",
        "zipcode": "57246-005"
    },
    {
        "city": "São Miguel dos Campos",
        "state": "AL",
        "district": "Hélio Jatobá",
        "street": "Quadra H",
        "zipcode": "57246-045"
    },
    {
        "city": "São Miguel dos Campos",
        "state": "AL",
        "district": "Hélio Jatobá",
        "street": "Quadra Q",
        "zipcode": "57246-050"
    },
    {
        "city": "São Miguel dos Campos",
        "state": "AL",
        "district": "Hélio Jatobá",
        "street": "Quadra O",
        "zipcode": "57246-060"
    },
    {
        "city": "São Miguel dos Campos",
        "state": "AL",
        "district": "Hélio Jatobá",
        "street": "Quadra L",
        "zipcode": "57246-075"
    },
    {
        "city": "São Miguel dos Campos",
        "state": "AL",
        "district": "Hélio Jatobá",
        "street": "Quadra J",
        "zipcode": "57246-080"
    },
    {
        "city": "São Miguel dos Campos",
        "state": "AL",
        "district": "Hélio Jatobá",
        "street": "Quadra T",
        "zipcode": "57246-100"
    },
    {
        "city": "São Miguel dos Campos",
        "state": "AL",
        "district": "Hélio Jatobá",
        "street": "Quadra U",
        "zipcode": "57246-105"
    },
    {
        "city": "São Miguel dos Campos",
        "state": "AL",
        "district": "Hélio Jatobá",
        "street": "Quadra V",
        "zipcode": "57246-110"
    },
    {
        "city": "São Miguel dos Campos",
        "state": "AL",
        "district": "Humberto Alves",
        "street": "Rua José Torres Filho",
        "zipcode": "57242-046"
    },
    {
        "city": "São Miguel dos Campos",
        "state": "AL",
        "district": "Humberto Alves",
        "street": "Rua Sandoval Cavalcante",
        "zipcode": "57242-064"
    },
    {
        "city": "São Miguel dos Campos",
        "state": "AL",
        "district": "Hélio Jatobá",
        "street": "Quadra I",
        "zipcode": "57246-085"
    },
    {
        "city": "São Miguel dos Campos",
        "state": "AL",
        "district": "Bela Vista",
        "street": "Quadra H (Lot Bela Vista I)",
        "zipcode": "57241-448"
    },
    {
        "city": "São Miguel dos Campos",
        "state": "AL",
        "district": "Bela Vista",
        "street": "Quadra I (Lot Bela Vista I)",
        "zipcode": "57241-451"
    },
    {
        "city": "São Miguel dos Campos",
        "state": "AL",
        "district": "Fátima",
        "street": "Rua Santa Rita",
        "zipcode": "57245-133"
    },
    {
        "city": "São Miguel dos Campos",
        "state": "AL",
        "district": "Geraldo Sampaio",
        "street": "Rua Adolfo Correia de Oliveira",
        "zipcode": "57240-324"
    },
    {
        "city": "São Miguel dos Campos",
        "state": "AL",
        "district": "Geraldo Sampaio",
        "street": "Rua Desembargador Moura Castro",
        "zipcode": "57240-330"
    },
    {
        "city": "São Miguel dos Campos",
        "state": "AL",
        "district": "Geraldo Sampaio",
        "street": "Rua José Quintela Cavalcante",
        "zipcode": "57240-332"
    },
    {
        "city": "São Miguel dos Campos",
        "state": "AL",
        "district": "Paraíso",
        "street": "Rua José Medeiros Aprato",
        "zipcode": "57240-208"
    },
    {
        "city": "São Miguel dos Campos",
        "state": "AL",
        "district": "Paraíso",
        "street": "Rua José Paulino da Costa",
        "zipcode": "57240-212"
    },
    {
        "city": "São Miguel dos Campos",
        "state": "AL",
        "district": "Centro",
        "street": "Rua José Elias Almeida",
        "zipcode": "57240-048"
    },
    {
        "city": "São Miguel dos Campos",
        "state": "AL",
        "district": "Centro",
        "street": "Rua José Soares",
        "zipcode": "57240-068"
    },
    {
        "city": "São Miguel dos Campos",
        "state": "AL",
        "district": "Centro",
        "street": "Rua Aristides de Castro",
        "zipcode": "57240-086"
    },
    {
        "city": "São Miguel dos Campos",
        "state": "AL",
        "district": "Paraíso",
        "street": "Quadra G (Lot José Torres Filho)",
        "zipcode": "57240-172"
    },
    {
        "city": "São Miguel dos Campos",
        "state": "AL",
        "district": "Paraíso",
        "street": "Rua Manoel Ferreira de Sá",
        "zipcode": "57240-194"
    },
    {
        "city": "São Miguel dos Campos",
        "state": "AL",
        "district": "Centro",
        "street": "Rua Prefeito Moacir Cavalcante",
        "zipcode": "57240-042"
    },
    {
        "city": "São Miguel dos Campos",
        "state": "AL",
        "district": "Centro",
        "street": "Rua Pedro Fernandes da Costa",
        "zipcode": "57240-056"
    },
    {
        "city": "São Miguel dos Campos",
        "state": "AL",
        "district": "Geraldo Sampaio",
        "street": "Rua Vereador Antonino Pereira Lima",
        "zipcode": "57240-318"
    },
    {
        "city": "São Miguel dos Campos",
        "state": "AL",
        "district": "Lourdes",
        "street": "Travessa José Irineu Campos",
        "zipcode": "57241-231"
    },
    {
        "city": "São Miguel dos Campos",
        "state": "AL",
        "district": "Humberto Alves",
        "street": "Rua Virgílio Palmeira",
        "zipcode": "57242-019"
    },
    {
        "city": "São Miguel dos Campos",
        "state": "AL",
        "district": "Humberto Alves",
        "street": "Travessa Vinte e Nove de Setembro",
        "zipcode": "57242-025"
    },
    {
        "city": "São Miguel dos Campos",
        "state": "AL",
        "district": "Humberto Alves",
        "street": "Rua Vinte e Nove de Setembro",
        "zipcode": "57242-028"
    },
    {
        "city": "São Miguel dos Campos",
        "state": "AL",
        "district": "Humberto Alves",
        "street": "Travessa Salvador Aprato",
        "zipcode": "57242-037"
    },
    {
        "city": "São Miguel dos Campos",
        "state": "AL",
        "district": "Humberto Alves",
        "street": "Rua Sítio Vera Cruz 2",
        "zipcode": "57242-100"
    },
    {
        "city": "São Miguel dos Campos",
        "state": "AL",
        "district": "Fátima",
        "street": "Rua São Paulo",
        "zipcode": "57245-091"
    },
    {
        "city": "São Miguel dos Campos",
        "state": "AL",
        "district": "Centro",
        "street": "Rua Salvador Aprato",
        "zipcode": "57240-034"
    },
    {
        "city": "São Miguel dos Campos",
        "state": "AL",
        "district": "Centro",
        "street": "Rua José Antônio da Cruz",
        "zipcode": "57240-090"
    },
    {
        "city": "São Miguel dos Campos",
        "state": "AL",
        "district": "Centro",
        "street": "Travessa José Antônio da Cruz",
        "zipcode": "57240-092"
    },
    {
        "city": "São Miguel dos Campos",
        "state": "AL",
        "district": "Geraldo Sampaio",
        "street": "Rua Sérgio Rocha Lima",
        "zipcode": "57240-328"
    },
    {
        "city": "São Miguel dos Campos",
        "state": "AL",
        "district": "Centro",
        "street": "Travessa Humberto Alves",
        "zipcode": "57240-062"
    },
    {
        "city": "São Miguel dos Campos",
        "state": "AL",
        "district": "Centro",
        "street": "Rua Senador Máximo",
        "zipcode": "57240-064"
    },
    {
        "city": "São Miguel dos Campos",
        "state": "AL",
        "district": "Paraíso",
        "street": "Rua Severino dos Santos",
        "zipcode": "57240-210"
    },
    {
        "city": "São Miguel dos Campos",
        "state": "AL",
        "district": "Geraldo Sampaio",
        "street": "Rua Manoel Marcolino Santos",
        "zipcode": "57240-326"
    },
    {
        "city": "São Miguel dos Campos",
        "state": "AL",
        "district": "Lourdes",
        "street": "Rua Leocádio Rocha Silva",
        "zipcode": "57241-225"
    },
    {
        "city": "São Miguel dos Campos",
        "state": "AL",
        "district": "Bela Vista",
        "street": "Rua Sampaio Marques",
        "zipcode": "57241-406"
    },
    {
        "city": "São Miguel dos Campos",
        "state": "AL",
        "district": "Humberto Alves",
        "street": "Travessa Sampaio Marques",
        "zipcode": "57242-001"
    },
    {
        "city": "São Miguel dos Campos",
        "state": "AL",
        "district": "Humberto Alves",
        "street": "Rua Coronel José Alexandrino",
        "zipcode": "57242-013"
    },
    {
        "city": "São Miguel dos Campos",
        "state": "AL",
        "district": "Humberto Alves",
        "street": "Rua Salvador Aprato",
        "zipcode": "57242-034"
    },
    {
        "city": "São Miguel dos Campos",
        "state": "AL",
        "district": "Fátima",
        "street": "Rua São José",
        "zipcode": "57245-073"
    },
    {
        "city": "São Miguel dos Campos",
        "state": "AL",
        "district": "Fátima",
        "street": "Rua São José",
        "zipcode": "57245-076"
    },
    {
        "city": "São Miguel dos Campos",
        "state": "AL",
        "district": "Fátima",
        "street": "Rua São Francisco",
        "zipcode": "57245-088"
    },
    {
        "city": "São Miguel dos Campos",
        "state": "AL",
        "district": "Fátima",
        "street": "Rua Santa Lúcia",
        "zipcode": "57245-103"
    },
    {
        "city": "São Miguel dos Campos",
        "state": "AL",
        "district": "Fátima",
        "street": "Rua São Vicente",
        "zipcode": "57245-112"
    },
    {
        "city": "São Miguel dos Campos",
        "state": "AL",
        "district": "Fátima",
        "street": "Rua Santa Luzia",
        "zipcode": "57245-121"
    },
    {
        "city": "São Miguel dos Campos",
        "state": "AL",
        "district": "Fátima",
        "street": "Rua Santo Antonio",
        "zipcode": "57245-124"
    },
    {
        "city": "São Miguel dos Campos",
        "state": "AL",
        "district": "Canto da Saudade",
        "street": "Quadra 11 (Lot José Calazans)",
        "zipcode": "57241-076"
    },
    {
        "city": "São Miguel dos Campos",
        "state": "AL",
        "district": "Lourdes",
        "street": "Rua Dalton Tenório",
        "zipcode": "57241-255"
    },
    {
        "city": "São Miguel dos Campos",
        "state": "AL",
        "district": "Bela Vista",
        "street": "Avenida Sampaio Marques",
        "zipcode": "57241-403"
    },
    {
        "city": "São Miguel dos Campos",
        "state": "AL",
        "district": "Bela Vista",
        "street": "Quadra B (Lot Bela Vista III)",
        "zipcode": "57241-418"
    },
    {
        "city": "São Miguel dos Campos",
        "state": "AL",
        "district": "Bela Vista",
        "street": "Quadra A (Lot Bela Vista II)",
        "zipcode": "57241-427"
    },
    {
        "city": "São Miguel dos Campos",
        "state": "AL",
        "district": "Fátima",
        "street": "Quadra G (Lot Ester S Torres)",
        "zipcode": "57245-046"
    },
    {
        "city": "São Miguel dos Campos",
        "state": "AL",
        "district": "Fátima",
        "street": "Quadra D (Lot Ester S Torres)",
        "zipcode": "57245-049"
    },
    {
        "city": "São Miguel dos Campos",
        "state": "AL",
        "district": "Fátima",
        "street": "Quadra A (Lot Ester S Torres)",
        "zipcode": "57245-052"
    },
    {
        "city": "São Miguel dos Campos",
        "state": "AL",
        "district": "Lourdes",
        "street": "Praça José Inácio",
        "zipcode": "57241-234"
    },
    {
        "city": "São Miguel dos Campos",
        "state": "AL",
        "district": "Canto da Saudade",
        "street": "Quadra 25 (Lot José Calazans)",
        "zipcode": "57241-034"
    },
    {
        "city": "São Miguel dos Campos",
        "state": "AL",
        "district": "Lourdes",
        "street": "Avenida Rotary",
        "zipcode": "57241-204"
    },
    {
        "city": "São Miguel dos Campos",
        "state": "AL",
        "district": "Geraldo Sampaio",
        "street": "Quadra A (Cj Diógenes Celestino)",
        "zipcode": "57240-334"
    },
    {
        "city": "São Miguel dos Campos",
        "state": "AL",
        "district": "Geraldo Sampaio",
        "street": "Quadra B (Cj Diógenes Celestino)",
        "zipcode": "57240-336"
    },
    {
        "city": "São Miguel dos Campos",
        "state": "AL",
        "district": "Geraldo Sampaio",
        "street": "Quadra C (Cj Diógenes Celestino)",
        "zipcode": "57240-338"
    },
    {
        "city": "São Miguel dos Campos",
        "state": "AL",
        "district": "Canto da Saudade",
        "street": "Rua José Antônio da Cruz",
        "zipcode": "57241-001"
    },
    {
        "city": "São Miguel dos Campos",
        "state": "AL",
        "district": "Canto da Saudade",
        "street": "Rua Juca Calazans",
        "zipcode": "57241-004"
    },
    {
        "city": "São Miguel dos Campos",
        "state": "AL",
        "district": "Humberto Alves",
        "street": "Rua Coronel Rocha Santos",
        "zipcode": "57242-007"
    },
    {
        "city": "São Miguel dos Campos",
        "state": "AL",
        "district": "Canto da Saudade",
        "street": "Rua Adelaide de Sá",
        "zipcode": "57241-010"
    },
    {
        "city": "São Miguel dos Campos",
        "state": "AL",
        "district": "Canto da Saudade",
        "street": "Avenida Rotary",
        "zipcode": "57241-013"
    },
    {
        "city": "São Miguel dos Campos",
        "state": "AL",
        "district": "Canto da Saudade",
        "street": "Rua Pastor José de Moraes Alves",
        "zipcode": "57241-019"
    },
    {
        "city": "São Miguel dos Campos",
        "state": "AL",
        "district": "Canto da Saudade",
        "street": "Rua José de Sá Teixeira",
        "zipcode": "57241-016"
    },
    {
        "city": "São Miguel dos Campos",
        "state": "AL",
        "district": "Paraíso",
        "street": "Rua Manoel Pascoal da Costa",
        "zipcode": "57240-192"
    },
    {
        "city": "São Miguel dos Campos",
        "state": "AL",
        "district": "Centro",
        "street": "Rua Júlio Plech",
        "zipcode": "57240-026"
    },
    {
        "city": "São Miguel dos Campos",
        "state": "AL",
        "district": "Humberto Alves",
        "street": "Rua Sítio Vera Cruz 4",
        "zipcode": "57242-106"
    },
    {
        "city": "São Miguel dos Campos",
        "state": "AL",
        "district": "Canto da Saudade",
        "street": "Rua João Epaminondas",
        "zipcode": "57241-028"
    },
    {
        "city": "São Miguel dos Campos",
        "state": "AL",
        "district": "Humberto Alves",
        "street": "Rua Doutor José César Sobrinho",
        "zipcode": "57242-049"
    },
    {
        "city": "São Miguel dos Campos",
        "state": "AL",
        "district": "Fátima",
        "street": "Quadra O (Lot Edgar Palmeira)",
        "zipcode": "57245-226"
    },
    {
        "city": "São Miguel dos Campos",
        "state": "AL",
        "district": "Paraíso",
        "street": "Quadra B (Lot José Torres Filho)",
        "zipcode": "57240-162"
    },
    {
        "city": "São Miguel dos Campos",
        "state": "AL",
        "district": "Centro",
        "street": "Vila Padre Cícero",
        "zipcode": "57240-074"
    },
    {
        "city": "São Miguel dos Campos",
        "state": "AL",
        "district": "Canto da Saudade",
        "street": "Quadra 26 (Lot José Calazans)",
        "zipcode": "57241-037"
    },
    {
        "city": "São Miguel dos Campos",
        "state": "AL",
        "district": "Canto da Saudade",
        "street": "Quadra 23 (Lot José Calazans)",
        "zipcode": "57241-052"
    },
    {
        "city": "São Miguel dos Campos",
        "state": "AL",
        "district": "Canto da Saudade",
        "street": "Quadra 24 (Lot José Calazans)",
        "zipcode": "57241-054"
    },
    {
        "city": "São Miguel dos Campos",
        "state": "AL",
        "district": "Lourdes",
        "street": "Quadra 34 (Lot José Calazans)",
        "zipcode": "57241-211"
    },
    {
        "city": "São Miguel dos Campos",
        "state": "AL",
        "district": "Lourdes",
        "street": "Avenida Sampaio Marques",
        "zipcode": "57241-240"
    },
    {
        "city": "São Miguel dos Campos",
        "state": "AL",
        "district": "Bela Vista",
        "street": "Avenida Albuquerque Lins",
        "zipcode": "57241-409"
    },
    {
        "city": "São Miguel dos Campos",
        "state": "AL",
        "district": "Bela Vista",
        "street": "Rua Mário Palmeira",
        "zipcode": "57241-412"
    },
    {
        "city": "São Miguel dos Campos",
        "state": "AL",
        "district": "Bela Vista",
        "street": "Quadra B (Lot Bela Vista II)",
        "zipcode": "57241-430"
    },
    {
        "city": "São Miguel dos Campos",
        "state": "AL",
        "district": "Humberto Alves",
        "street": "Rua Coronel José Alexandrino",
        "zipcode": "57242-010"
    },
    {
        "city": "São Miguel dos Campos",
        "state": "AL",
        "district": "Humberto Alves",
        "street": "Rua Rodrigo Correia de Araújo",
        "zipcode": "57242-079"
    },
    {
        "city": "São Miguel dos Campos",
        "state": "AL",
        "district": "Fátima",
        "street": "Rua José Antônio da Cruz",
        "zipcode": "57245-004"
    },
    {
        "city": "São Miguel dos Campos",
        "state": "AL",
        "district": "Fátima",
        "street": "Quadra E (Lot Ester S Torres)",
        "zipcode": "57245-058"
    },
    {
        "city": "São Miguel dos Campos",
        "state": "AL",
        "district": "Fátima",
        "street": "Quadra B (Lot W Cavalcante)",
        "zipcode": "57245-238"
    },
    {
        "city": "São Miguel dos Campos",
        "state": "AL",
        "district": "Fátima",
        "street": "Quadra B (Res Novo S Miguel)",
        "zipcode": "57245-262"
    },
    {
        "city": "São Miguel dos Campos",
        "state": "AL",
        "district": "Hélio Jatobá",
        "street": "Quadra B",
        "zipcode": "57246-440"
    },
    {
        "city": "São Miguel dos Campos",
        "state": "AL",
        "district": "Hélio Jatobá",
        "street": "Quadra F",
        "zipcode": "57246-480"
    },
    {
        "city": "São Miguel dos Campos",
        "state": "AL",
        "district": "Fátima",
        "street": "Rua São Geraldo",
        "zipcode": "57245-118"
    },
    {
        "city": "São Miguel dos Campos",
        "state": "AL",
        "district": "Geraldo Sampaio",
        "street": "Quadra B (Cj Geraldo Sampaio)",
        "zipcode": "57240-358"
    },
    {
        "city": "São Miguel dos Campos",
        "state": "AL",
        "district": "Hélio Jatobá",
        "street": "Avenida Ben",
        "zipcode": "57246-780"
    },
    {
        "city": "São Miguel dos Campos",
        "state": "AL",
        "district": "Centro",
        "street": "Vila Adriana",
        "zipcode": "57240-058"
    },
    {
        "city": "São Miguel dos Campos",
        "state": "AL",
        "district": "Centro",
        "street": "Travessa Coronel Francisco Cavalcante",
        "zipcode": "57240-088"
    },
    {
        "city": "São Miguel dos Campos",
        "state": "AL",
        "district": "Bela Vista",
        "street": "Quadra E (Lot Bela Vista II)",
        "zipcode": "57241-439"
    },
    {
        "city": "São Miguel dos Campos",
        "state": "AL",
        "district": "Fátima",
        "street": "Quadra C (Lot Ester S Torres)",
        "zipcode": "57245-061"
    },
    {
        "city": "São Miguel dos Campos",
        "state": "AL",
        "district": "Fátima",
        "street": "Quadra F (Lot Ester S Torres)",
        "zipcode": "57245-064"
    },
    {
        "city": "São Miguel dos Campos",
        "state": "AL",
        "district": "Fátima",
        "street": "Quadra H (Lot Ester S Torres)",
        "zipcode": "57245-067"
    },
    {
        "city": "São Miguel dos Campos",
        "state": "AL",
        "district": "Fátima",
        "street": "Quadra K (Res Novo S Miguel)",
        "zipcode": "57245-289"
    },
    {
        "city": "São Miguel dos Campos",
        "state": "AL",
        "district": "Fátima",
        "street": "Avenida São Sebastião",
        "zipcode": "57245-079"
    },
    {
        "city": "São Miguel dos Campos",
        "state": "AL",
        "district": "Fátima",
        "street": "Quadra H (Lot Wellington Torres)",
        "zipcode": "57245-151"
    },
    {
        "city": "São Miguel dos Campos",
        "state": "AL",
        "district": "Fátima",
        "street": "Quadra A (Lot Edgar Palmeira)",
        "zipcode": "57245-172"
    },
    {
        "city": "São Miguel dos Campos",
        "state": "AL",
        "district": "Fátima",
        "street": "Quadra B (Lot Edgar Palmeira)",
        "zipcode": "57245-175"
    },
    {
        "city": "São Miguel dos Campos",
        "state": "AL",
        "district": "Fátima",
        "street": "Quadra A (Lot W Cavalcante)",
        "zipcode": "57245-235"
    },
    {
        "city": "São Miguel dos Campos",
        "state": "AL",
        "district": "Canto da Saudade",
        "street": "Rua José Carlos Monteiro",
        "zipcode": "57241-025"
    },
    {
        "city": "São Miguel dos Campos",
        "state": "AL",
        "district": "Geraldo Sampaio",
        "street": "Rua Gasparino Cavalcante Pessoa",
        "zipcode": "57240-302"
    },
    {
        "city": "São Miguel dos Campos",
        "state": "AL",
        "district": "Centro",
        "street": "Rua André Bastos",
        "zipcode": "57240-066"
    },
    {
        "city": "São Miguel dos Campos",
        "state": "AL",
        "district": "Paraíso",
        "street": "Quadra C (Lot José Alves)",
        "zipcode": "57240-156"
    },
    {
        "city": "São Miguel dos Campos",
        "state": "AL",
        "district": "Paraíso",
        "street": "Quadra E (Lot José Torres Filho)",
        "zipcode": "57240-168"
    },
    {
        "city": "São Miguel dos Campos",
        "state": "AL",
        "district": "Paraíso",
        "street": "Quadra A (Lot José Alves)",
        "zipcode": "57240-152"
    },
    {
        "city": "São Miguel dos Campos",
        "state": "AL",
        "district": "Paraíso",
        "street": "Rua Coronel José Calazans",
        "zipcode": "57240-150"
    },
    {
        "city": "São Miguel dos Campos",
        "state": "AL",
        "district": "Centro",
        "street": "Rua Bernardo Lopes",
        "zipcode": "57240-044"
    },
    {
        "city": "São Miguel dos Campos",
        "state": "AL",
        "district": "Centro",
        "street": "Quadra E (Lot José Alves)",
        "zipcode": "57240-050"
    },
    {
        "city": "São Miguel dos Campos",
        "state": "AL",
        "district": "Centro",
        "street": "Rua Alcides Sá",
        "zipcode": "57240-024"
    },
    {
        "city": "São Miguel dos Campos",
        "state": "AL",
        "district": "Rui Palmeira",
        "street": "Avenida Francisco Bezerra",
        "zipcode": "57245-303"
    },
    {
        "city": "São Miguel dos Campos",
        "state": "AL",
        "district": "Hélio Jatobá",
        "street": "Quadra A",
        "zipcode": "57246-220"
    },
    {
        "city": "São Miguel dos Campos",
        "state": "AL",
        "district": "Geraldo Sampaio",
        "street": "Rua Vereador José de Aquino",
        "zipcode": "57240-320"
    },
    {
        "city": "São Miguel dos Campos",
        "state": "AL",
        "district": "Hélio Jatobá",
        "street": "Rua Vereador José Martins Filho",
        "zipcode": "57246-665"
    },
    {
        "city": "São Miguel dos Campos",
        "state": "AL",
        "district": "Centro",
        "street": "Rua Adailton Barbosa de Carvalho",
        "zipcode": "57240-057"
    },
    {
        "city": "São Miguel dos Campos",
        "state": "AL",
        "district": "Fátima",
        "street": "Quadra A",
        "zipcode": "57245-199"
    },
    {
        "city": "São Miguel dos Campos",
        "state": "AL",
        "district": "Paraíso",
        "street": "Quadra B (Lot José Alves)",
        "zipcode": "57240-154"
    },
    {
        "city": "São Miguel dos Campos",
        "state": "AL",
        "district": "Canto da Saudade",
        "street": "Quadra 9 (Lot José Calazans)",
        "zipcode": "57241-082"
    },
    {
        "city": "São Miguel dos Campos",
        "state": "AL",
        "district": "Lourdes",
        "street": "Quadra 32 (Lot José Calazans)",
        "zipcode": "57241-203"
    },
    {
        "city": "São Miguel dos Campos",
        "state": "AL",
        "district": "Lourdes",
        "street": "Rua Doutor Miguel Lopes",
        "zipcode": "57241-237"
    },
    {
        "city": "São Miguel dos Campos",
        "state": "AL",
        "district": "Lourdes",
        "street": "Rua Ezequiel Quintela Cavalcante",
        "zipcode": "57241-258"
    },
    {
        "city": "São Miguel dos Campos",
        "state": "AL",
        "district": "Humberto Alves",
        "street": "Rua João Batista de Messias",
        "zipcode": "57242-040"
    },
    {
        "city": "São Miguel dos Campos",
        "state": "AL",
        "district": "Humberto Alves",
        "street": "Rua João Correia da SIlva",
        "zipcode": "57242-097"
    },
    {
        "city": "São Miguel dos Campos",
        "state": "AL",
        "district": "Fátima",
        "street": "Rua São Lucas",
        "zipcode": "57245-097"
    },
    {
        "city": "São Miguel dos Campos",
        "state": "AL",
        "district": "Fátima",
        "street": "Quadra I (Lot Wellington Torres)",
        "zipcode": "57245-157"
    },
    {
        "city": "São Miguel dos Campos",
        "state": "AL",
        "district": "Hélio Jatobá",
        "street": "Quadra G",
        "zipcode": "57246-040"
    },
    {
        "city": "São Miguel dos Campos",
        "state": "AL",
        "district": "Hélio Jatobá",
        "street": "Quadra R",
        "zipcode": "57246-090"
    },
    {
        "city": "São Miguel dos Campos",
        "state": "AL",
        "district": "Hélio Jatobá",
        "street": "Quadra A",
        "zipcode": "57246-155"
    },
    {
        "city": "São Miguel dos Campos",
        "state": "AL",
        "district": "Hélio Jatobá",
        "street": "Quadra A",
        "zipcode": "57246-430"
    },
    {
        "city": "São Miguel dos Campos",
        "state": "AL",
        "district": "Hélio Jatobá",
        "street": "Quadra A",
        "zipcode": "57246-435"
    },
    {
        "city": "São Miguel dos Campos",
        "state": "AL",
        "district": "Hélio Jatobá",
        "street": "Quadra A",
        "zipcode": "57246-590"
    },
    {
        "city": "São Miguel dos Campos",
        "state": "AL",
        "district": "Hélio Jatobá",
        "street": "Quadra A",
        "zipcode": "57246-595"
    },
    {
        "city": "São Miguel dos Campos",
        "state": "AL",
        "district": "Hélio Jatobá",
        "street": "Quadra V",
        "zipcode": "57246-305"
    },
    {
        "city": "São Miguel dos Campos",
        "state": "AL",
        "district": "",
        "street": "Rodovia Municipal Aureo Cesar Teixeira  CPC Coité de São Miguel",
        "zipcode": "57240-990"
    },
    {
        "city": "São Miguel dos Campos",
        "state": "AL",
        "district": "Hélio Jatobá",
        "street": "Quadra R",
        "zipcode": "57246-160"
    },
    {
        "city": "São Miguel dos Campos",
        "state": "AL",
        "district": "Hélio Jatobá",
        "street": "Quadra T",
        "zipcode": "57246-170"
    },
    {
        "city": "São Miguel dos Campos",
        "state": "AL",
        "district": "Hélio Jatobá",
        "street": "Quadra X",
        "zipcode": "57246-187"
    },
    {
        "city": "São Miguel dos Campos",
        "state": "AL",
        "district": "Hélio Jatobá",
        "street": "Quadra B",
        "zipcode": "57246-225"
    },
    {
        "city": "São Miguel dos Campos",
        "state": "AL",
        "district": "Hélio Jatobá",
        "street": "Quadra Q",
        "zipcode": "57246-290"
    },
    {
        "city": "São Miguel dos Campos",
        "state": "AL",
        "district": "Hélio Jatobá",
        "street": "Quadra M",
        "zipcode": "57246-350"
    },
    {
        "city": "São Miguel dos Campos",
        "state": "AL",
        "district": "Hélio Jatobá",
        "street": "Quadra X",
        "zipcode": "57246-378"
    },
    {
        "city": "São Miguel dos Campos",
        "state": "AL",
        "district": "Hélio Jatobá",
        "street": "Quadra T",
        "zipcode": "57246-387"
    },
    {
        "city": "São Miguel dos Campos",
        "state": "AL",
        "district": "Fátima",
        "street": "Quadra Q (Lot Edgar Palmeira)",
        "zipcode": "57245-232"
    },
    {
        "city": "São Miguel dos Campos",
        "state": "AL",
        "district": "Geraldo Sampaio",
        "street": "Quadra G (Cj Diógenes Celestino)",
        "zipcode": "57240-346"
    },
    {
        "city": "São Miguel dos Campos",
        "state": "AL",
        "district": "Hélio Jatobá",
        "street": "Residencial Jardim",
        "zipcode": "57246-785"
    },
    {
        "city": "São Miguel dos Campos",
        "state": "AL",
        "district": "Bela Vista",
        "street": "Quadra F (Lot Bela Vista I)",
        "zipcode": "57241-442"
    },
    {
        "city": "São Miguel dos Campos",
        "state": "AL",
        "district": "Fátima",
        "street": "Quadra H (Lot W Cavalcante)",
        "zipcode": "57245-256"
    },
    {
        "city": "São Miguel dos Campos",
        "state": "AL",
        "district": "Hélio Jatobá",
        "street": "Quadra F",
        "zipcode": "57246-130"
    },
    {
        "city": "São Miguel dos Campos",
        "state": "AL",
        "district": "Centro",
        "street": "Rua Coronel José Calazans",
        "zipcode": "57240-054"
    },
    {
        "city": "São Miguel dos Campos",
        "state": "AL",
        "district": "Canto da Saudade",
        "street": "Quadra 16 (Lot José Calazans)",
        "zipcode": "57241-064"
    },
    {
        "city": "São Miguel dos Campos",
        "state": "AL",
        "district": "Lourdes",
        "street": "Rua Eurico Tenório",
        "zipcode": "57241-252"
    },
    {
        "city": "São Miguel dos Campos",
        "state": "AL",
        "district": "Fátima",
        "street": "Rua São João",
        "zipcode": "57245-127"
    },
    {
        "city": "São Miguel dos Campos",
        "state": "AL",
        "district": "Hélio Jatobá",
        "street": "Quadra I (Lot Hélio Jatobá I)",
        "zipcode": "57246-012"
    },
    {
        "city": "São Miguel dos Campos",
        "state": "AL",
        "district": "Hélio Jatobá",
        "street": "Quadra M",
        "zipcode": "57246-070"
    },
    {
        "city": "São Miguel dos Campos",
        "state": "AL",
        "district": "Hélio Jatobá",
        "street": "Quadra J",
        "zipcode": "57246-510"
    },
    {
        "city": "São Miguel dos Campos",
        "state": "AL",
        "district": "Fátima",
        "street": "Rua São Pedro",
        "zipcode": "57245-100"
    },
    {
        "city": "São Miguel dos Campos",
        "state": "AL",
        "district": "Fátima",
        "street": "Quadra O (Lot Ester S Torres)",
        "zipcode": "57245-019"
    },
    {
        "city": "São Miguel dos Campos",
        "state": "AL",
        "district": "Centro",
        "street": "Avenida Sampaio Marques",
        "zipcode": "57240-002"
    },
    {
        "city": "São Miguel dos Campos",
        "state": "AL",
        "district": "Centro",
        "street": "Rua Visconde de Sinimbú",
        "zipcode": "57240-008"
    },
    {
        "city": "São Miguel dos Campos",
        "state": "AL",
        "district": "Fátima",
        "street": "Rua Nossa Senhora do Ó",
        "zipcode": "57245-115"
    },
    {
        "city": "São Miguel dos Campos",
        "state": "AL",
        "district": "Lourdes",
        "street": "Travessa Pitu",
        "zipcode": "57241-213"
    },
    {
        "city": "São Miguel dos Campos",
        "state": "AL",
        "district": "Humberto Alves",
        "street": "Rua Vereador Miguel Cavalcante",
        "zipcode": "57242-082"
    },
    {
        "city": "São Miguel dos Campos",
        "state": "AL",
        "district": "Humberto Alves",
        "street": "Avenida Albuquerque Lins",
        "zipcode": "57242-085"
    },
    {
        "city": "São Miguel dos Campos",
        "state": "AL",
        "district": "Geraldo Sampaio",
        "street": "Avenida Deputado Diney Torres",
        "zipcode": "57240-300"
    },
    {
        "city": "São Miguel dos Campos",
        "state": "AL",
        "district": "Rui Palmeira",
        "street": "Avenida Armando Soares Torres",
        "zipcode": "57245-312"
    },
    {
        "city": "São Miguel dos Campos",
        "state": "AL",
        "district": "Rui Palmeira",
        "street": "Avenida Aníbal Torres",
        "zipcode": "57245-321"
    },
    {
        "city": "São Miguel dos Campos",
        "state": "AL",
        "district": "Rui Palmeira",
        "street": "Avenida Clarisse Soares Bezerra",
        "zipcode": "57245-330"
    },
    {
        "city": "São Miguel dos Campos",
        "state": "AL",
        "district": "Centro",
        "street": "Avenida Vera Cruz",
        "zipcode": "57240-014"
    },
    {
        "city": "São Miguel dos Campos",
        "state": "AL",
        "district": "Centro",
        "street": "Praça Centenário",
        "zipcode": "57240-018"
    },
    {
        "city": "São Miguel dos Campos",
        "state": "AL",
        "district": "Rui Palmeira",
        "street": "Avenida Clóvis Torres",
        "zipcode": "57245-318"
    },
    {
        "city": "São Miguel dos Campos",
        "state": "AL",
        "district": null,
        "street": null,
        "zipcode": "57240-000"
    },
    {
        "city": "São Miguel dos Campos",
        "state": "AL",
        "district": "Fátima",
        "street": "Quadra N (Lot Edgar Palmeira)",
        "zipcode": "57245-223"
    },
    {
        "city": "São Miguel dos Campos",
        "state": "AL",
        "district": "Humberto Alves",
        "street": "Avenida Vera Cruz",
        "zipcode": "57242-070"
    },
    {
        "city": "São Miguel dos Campos",
        "state": "AL",
        "district": "Canto da Saudade",
        "street": "Quadra 28 (Lot José Calazans)",
        "zipcode": "57241-031"
    },
    {
        "city": "São Miguel dos Campos",
        "state": "AL",
        "district": "Centro",
        "street": "Praça Coronel Miguel Cesar Teixeira",
        "zipcode": "57240-007"
    },
    {
        "city": "São Miguel dos Campos",
        "state": "AL",
        "district": "Paraíso",
        "street": "Rua Pedro Fernandes da Costa",
        "zipcode": "57240-176"
    },
    {
        "city": "São Miguel dos Campos",
        "state": "AL",
        "district": "Rui Palmeira",
        "street": "Avenida João Soriano Bonfim",
        "zipcode": "57245-306"
    },
    {
        "city": "São Miguel dos Campos",
        "state": "AL",
        "district": "Rui Palmeira",
        "street": "Praça Dom Adelmo Machado",
        "zipcode": "57245-342"
    },
    {
        "city": "São Miguel dos Campos",
        "state": "AL",
        "district": "Rui Palmeira",
        "street": "Avenida Francisco Soares Palmeira",
        "zipcode": "57245-345"
    },
    {
        "city": "São Miguel dos Campos",
        "state": "AL",
        "district": "Hélio Jatobá",
        "street": "Quadra A",
        "zipcode": "57246-010"
    },
    {
        "city": "São Miguel dos Campos",
        "state": "AL",
        "district": "Hélio Jatobá",
        "street": "Quadra A",
        "zipcode": "57246-398"
    },
    {
        "city": "São Miguel dos Campos",
        "state": "AL",
        "district": "Hélio Jatobá",
        "street": "Quadra B",
        "zipcode": "57246-585"
    },
    {
        "city": "São Miguel dos Campos",
        "state": "AL",
        "district": "Fátima",
        "street": "Quadra A (Res Novo S Miguel)",
        "zipcode": "57245-259"
    },
    {
        "city": "São Miguel dos Campos",
        "state": "AL",
        "district": "Geraldo Sampaio",
        "street": "Quadra D (Cj Diógenes Celestino)",
        "zipcode": "57240-340"
    },
    {
        "city": "São Miguel dos Campos",
        "state": "AL",
        "district": "Canto da Saudade",
        "street": "Quadra 22 (Lot José Calazans)",
        "zipcode": "57241-049"
    },
    {
        "city": "São Miguel dos Campos",
        "state": "AL",
        "district": "Hélio Jatobá",
        "street": "Quadra C",
        "zipcode": "57246-240"
    },
    {
        "city": "São Miguel dos Campos",
        "state": "AL",
        "district": "Hélio Jatobá",
        "street": "Quadra N",
        "zipcode": "57246-255"
    },
    {
        "city": "São Miguel dos Campos",
        "state": "AL",
        "district": "Hélio Jatobá",
        "street": "Rua Britoaldo Andrade Chaves (Lot Hélio Jatobá II)",
        "zipcode": "57246-385"
    },
    {
        "city": "São Miguel dos Campos",
        "state": "AL",
        "district": "Hélio Jatobá",
        "street": "Quadra D",
        "zipcode": "57246-420"
    },
    {
        "city": "São Miguel dos Campos",
        "state": "AL",
        "district": "Hélio Jatobá",
        "street": "Quadra B",
        "zipcode": "57246-445"
    },
    {
        "city": "São Miguel dos Campos",
        "state": "AL",
        "district": "Hélio Jatobá",
        "street": "Quadra D",
        "zipcode": "57246-460"
    },
    {
        "city": "São Miguel dos Campos",
        "state": "AL",
        "district": "Hélio Jatobá",
        "street": "Quadra K",
        "zipcode": "57246-540"
    },
    {
        "city": "São Miguel dos Campos",
        "state": "AL",
        "district": "Hélio Jatobá",
        "street": "Quadra E",
        "zipcode": "57246-570"
    },
    {
        "city": "São Miguel dos Campos",
        "state": "AL",
        "district": "Hélio Jatobá",
        "street": "Quadra F",
        "zipcode": "57246-620"
    },
    {
        "city": "São Miguel dos Campos",
        "state": "AL",
        "district": "Hélio Jatobá",
        "street": "Quadra J",
        "zipcode": "57246-635"
    },
    {
        "city": "São Miguel dos Campos",
        "state": "AL",
        "district": "Hélio Jatobá",
        "street": "Rua Vereador Milton Francisco Leite",
        "zipcode": "57246-675"
    },
    {
        "city": "São Miguel dos Campos",
        "state": "AL",
        "district": "Hélio Jatobá",
        "street": "Rua Contador José Gomes da Silva",
        "zipcode": "57246-740"
    },
    {
        "city": "São Miguel dos Campos",
        "state": "AL",
        "district": "Hélio Jatobá",
        "street": "Quadra L",
        "zipcode": "57246-520"
    },
    {
        "city": "São Miguel dos Campos",
        "state": "AL",
        "district": "Hélio Jatobá",
        "street": "Avenida Luiz Eteval de França (Lot Hélio Jatobá II)",
        "zipcode": "57246-375"
    },
    {
        "city": "São Miguel dos Campos",
        "state": "AL",
        "district": "Bela Vista",
        "street": "Quadra G (Lot Bela Vista I)",
        "zipcode": "57241-445"
    },
    {
        "city": "São Miguel dos Campos",
        "state": "AL",
        "district": "Humberto Alves",
        "street": "Avenida Vera Cruz",
        "zipcode": "57242-016"
    },
    {
        "city": "São Miguel dos Campos",
        "state": "AL",
        "district": "Fátima",
        "street": "Quadra L (Lot Ester S Torres)",
        "zipcode": "57245-016"
    },
    {
        "city": "São Miguel dos Campos",
        "state": "AL",
        "district": "Rui Palmeira",
        "street": "Avenida Paulo Cavalcante Aprato",
        "zipcode": "57245-315"
    },
    {
        "city": "São Miguel dos Campos",
        "state": "AL",
        "district": "Fátima",
        "street": "Avenida São Cristóvão (Hélio Jatobá)",
        "zipcode": "57245-139"
    },
    {
        "city": "São Miguel dos Campos",
        "state": "AL",
        "district": "Fátima",
        "street": "Quadra E (Lot Edgar Palmeira)",
        "zipcode": "57245-184"
    },
    {
        "city": "São Miguel dos Campos",
        "state": "AL",
        "district": "Lourdes",
        "street": "Rua André Bastos",
        "zipcode": "57241-219"
    },
    {
        "city": "São Miguel dos Campos",
        "state": "AL",
        "district": "Canto da Saudade",
        "street": "Quadra 29 (Lot José Calazans)",
        "zipcode": "57241-036"
    },
    {
        "city": "São Miguel dos Campos",
        "state": "AL",
        "district": "Geraldo Sampaio",
        "street": "Rua Girlene Amorim de Carvalho",
        "zipcode": "57240-308"
    },
    {
        "city": "São Miguel dos Campos",
        "state": "AL",
        "district": "Centro",
        "street": "Rua Coronel Francisco Jatobá",
        "zipcode": "57240-070"
    },
    {
        "city": "São Miguel dos Campos",
        "state": "AL",
        "district": "Centro",
        "street": "Rua Salvador Aprato",
        "zipcode": "57240-036"
    },
    {
        "city": "São Miguel dos Campos",
        "state": "AL",
        "district": "Centro",
        "street": "Praça Padre Júlio de Albuquerque",
        "zipcode": "57240-028"
    },
    {
        "city": "São Miguel dos Campos",
        "state": "AL",
        "district": "Humberto Alves",
        "street": "Rua Sítio Vera Cruz 1",
        "zipcode": "57242-076"
    },
    {
        "city": "São Miguel dos Campos",
        "state": "AL",
        "district": "Paraíso",
        "street": "Quadra A (Lot José Torres Filho)",
        "zipcode": "57240-160"
    },
    {
        "city": "São Miguel dos Campos",
        "state": "AL",
        "district": "Geraldo Sampaio",
        "street": "Rua Vereador Antônio Pugliese Bitencourt",
        "zipcode": "57240-312"
    },
    {
        "city": "São Miguel dos Campos",
        "state": "AL",
        "district": "Humberto Alves",
        "street": "Rua Sampaio Marques",
        "zipcode": "57242-004"
    },
    {
        "city": "São Miguel dos Campos",
        "state": "AL",
        "district": "Hélio Jatobá",
        "street": "Quadra D",
        "zipcode": "57246-025"
    },
    {
        "city": "São Miguel dos Campos",
        "state": "AL",
        "district": "Hélio Jatobá",
        "street": "Quadra G",
        "zipcode": "57246-125"
    },
    {
        "city": "São Miguel dos Campos",
        "state": "AL",
        "district": "Hélio Jatobá",
        "street": "Quadra H",
        "zipcode": "57246-285"
    },
    {
        "city": "São Miguel dos Campos",
        "state": "AL",
        "district": "Hélio Jatobá",
        "street": "Rua Ernani José da Silva (Lot Hélio Jatobá II)",
        "zipcode": "57246-400"
    },
    {
        "city": "São Miguel dos Campos",
        "state": "AL",
        "district": "Hélio Jatobá",
        "street": "Rua Otávio Correia dos Santos (Lot Hélio Jatobá II)",
        "zipcode": "57246-405"
    },
    {
        "city": "São Miguel dos Campos",
        "state": "AL",
        "district": "Hélio Jatobá",
        "street": "Quadra G",
        "zipcode": "57246-560"
    }
]