[
    {
        "city": "Canguaretama",
        "state": "RN",
        "district": "Centro",
        "street": "Rua Otávio Lima 100",
        "zipcode": "59190-970"
    },
    {
        "city": "Canguaretama",
        "state": "RN",
        "district": "Areia Branca",
        "street": "Distrito Areia Branca s/n",
        "zipcode": "59190-973"
    },
    {
        "city": "Canguaretama",
        "state": "RN",
        "district": "",
        "street": "",
        "zipcode": "59190-000"
    },
    {
        "city": "Canguaretama",
        "state": "RN",
        "district": "Barra de Cunhaú",
        "street": "Rua Principal s/n",
        "zipcode": "59190-971"
    },
    {
        "city": "Canguaretama",
        "state": "RN",
        "district": null,
        "street": "Rua da Igreja",
        "zipcode": "59190-991"
    },
    {
        "city": "Canguaretama",
        "state": "RN",
        "district": null,
        "street": "Rua Osório Chaves",
        "zipcode": "59190-990"
    },
    {
        "city": "Canguaretama",
        "state": "RN",
        "district": null,
        "street": "Rua Alfredo Brito",
        "zipcode": "59190-992"
    },
    {
        "city": "Canguaretama",
        "state": "RN",
        "district": "Piquirí",
        "street": "Rua Principal s/n",
        "zipcode": "59190-972"
    }
]