[
    {
        "city": "Ceará-Mirim",
        "state": "RN",
        "district": "Capela",
        "street": "Rua Principal s/n",
        "zipcode": "59570-978"
    },
    {
        "city": "Ceará-Mirim",
        "state": "RN",
        "district": null,
        "street": "Zona Rural",
        "zipcode": "59570-990"
    },
    {
        "city": "Ceará-Mirim",
        "state": "RN",
        "district": "Santa Agueda",
        "street": "Rua Coronel Pedro Oliveira Correia 181",
        "zipcode": "59570-970"
    },
    {
        "city": "Ceará-Mirim",
        "state": "RN",
        "district": "",
        "street": "",
        "zipcode": "59570-000"
    },
    {
        "city": "Ceará-Mirim",
        "state": "RN",
        "district": "Muriú",
        "street": "Rua Antônio Basilio s/n",
        "zipcode": "59570-971"
    },
    {
        "city": "Ceará-Mirim",
        "state": "RN",
        "district": "Massangana",
        "street": "Rua Principal s/n",
        "zipcode": "59570-975"
    },
    {
        "city": "Ceará-Mirim",
        "state": "RN",
        "district": "Ponta do Mato",
        "street": "Rua Principal s/n",
        "zipcode": "59570-979"
    },
    {
        "city": "Ceará-Mirim",
        "state": "RN",
        "district": "Matas",
        "street": "Rua Principal s/n",
        "zipcode": "59570-977"
    },
    {
        "city": "Ceará-Mirim",
        "state": "RN",
        "district": "Gravatá",
        "street": "Rua Principal s/n",
        "zipcode": "59570-974"
    },
    {
        "city": "Ceará-Mirim",
        "state": "RN",
        "district": null,
        "street": "Associação do Conselho Comunitário",
        "zipcode": "59570-992"
    },
    {
        "city": "Ceará-Mirim",
        "state": "RN",
        "district": "Coqueiros",
        "street": "Rua Principal s/n",
        "zipcode": "59570-972"
    },
    {
        "city": "Ceará-Mirim",
        "state": "RN",
        "district": null,
        "street": "Associação do Conselho Comunitário",
        "zipcode": "59570-991"
    },
    {
        "city": "Ceará-Mirim",
        "state": "RN",
        "district": "Primeira Lagoa",
        "street": "Rua Principal s/n",
        "zipcode": "59570-976"
    },
    {
        "city": "Ceará-Mirim",
        "state": "RN",
        "district": "Massaranduba",
        "street": "Rua Principal s/n",
        "zipcode": "59570-973"
    }
]