[
    {
        "city": "Extremoz",
        "state": "RN",
        "district": null,
        "street": "Rua Principal",
        "zipcode": "59575-992"
    },
    {
        "city": "Extremoz",
        "state": "RN",
        "district": null,
        "street": "Conselho Comunitário de Maanain",
        "zipcode": "59575-996"
    },
    {
        "city": "Extremoz",
        "state": "RN",
        "district": "Centro",
        "street": "Avenida Joaquim de Góis s/n",
        "zipcode": "59575-970"
    },
    {
        "city": "Extremoz",
        "state": "RN",
        "district": "Povoado Genipabu",
        "street": "Distrito Genipabu s/n",
        "zipcode": "59575-972"
    },
    {
        "city": "Extremoz",
        "state": "RN",
        "district": "Povoado de Pitangui",
        "street": "Distrito de Pitangui s/n",
        "zipcode": "59575-971"
    },
    {
        "city": "Extremoz",
        "state": "RN",
        "district": null,
        "street": "Rua Vereador Ricardo Afonso",
        "zipcode": "59575-991"
    },
    {
        "city": "Extremoz",
        "state": "RN",
        "district": "",
        "street": "",
        "zipcode": "59575-000"
    },
    {
        "city": "Extremoz",
        "state": "RN",
        "district": null,
        "street": "Rua Cícero Inácio",
        "zipcode": "59575-994"
    },
    {
        "city": "Extremoz",
        "state": "RN",
        "district": null,
        "street": "Barra do Rio",
        "zipcode": "59575-995"
    },
    {
        "city": "Extremoz",
        "state": "RN",
        "district": null,
        "street": "Rua Principal",
        "zipcode": "59575-993"
    },
    {
        "city": "Extremoz",
        "state": "RN",
        "district": null,
        "street": "Avenida Central",
        "zipcode": "59575-990"
    }
]