[
    {
        "city": "Goianinha",
        "state": "RN",
        "district": "Miranda",
        "street": "Rua Principal s/n",
        "zipcode": "59173-972"
    },
    {
        "city": "Goianinha",
        "state": "RN",
        "district": "Centro",
        "street": "Rua Professor Tibúrcio 29",
        "zipcode": "59173-970"
    },
    {
        "city": "Goianinha",
        "state": "RN",
        "district": null,
        "street": "Rua Manoel Cláudio Bezerra",
        "zipcode": "59173-992"
    },
    {
        "city": "Goianinha",
        "state": "RN",
        "district": "",
        "street": "",
        "zipcode": "59173-000"
    },
    {
        "city": "Goianinha",
        "state": "RN",
        "district": "Sumaré",
        "street": "Rua Principal s/n",
        "zipcode": "59173-974"
    },
    {
        "city": "Goianinha",
        "state": "RN",
        "district": null,
        "street": "Sítio Sapucaia",
        "zipcode": "59173-991"
    },
    {
        "city": "Goianinha",
        "state": "RN",
        "district": "Lagoa do Mato",
        "street": "Rua Principal s/n",
        "zipcode": "59173-971"
    },
    {
        "city": "Goianinha",
        "state": "RN",
        "district": "Umari",
        "street": "Rua Principal s/n",
        "zipcode": "59173-973"
    }
]