[
    {
        "city": "Macaíba",
        "state": "RN",
        "district": null,
        "street": "Rua Projetada",
        "zipcode": "59280-990"
    },
    {
        "city": "Macaíba",
        "state": "RN",
        "district": "Centro",
        "street": "Rua Nossa Senhora da Conceição 117",
        "zipcode": "59280-970"
    },
    {
        "city": "Macaíba",
        "state": "RN",
        "district": "",
        "street": "",
        "zipcode": "59280-000"
    },
    {
        "city": "Macaíba",
        "state": "RN",
        "district": "Mangabeira",
        "street": "Rua Principal s/n",
        "zipcode": "59280-974"
    },
    {
        "city": "Macaíba",
        "state": "RN",
        "district": "Cajazeiras",
        "street": "Rua Principal s/n",
        "zipcode": "59280-973"
    },
    {
        "city": "Macaíba",
        "state": "RN",
        "district": "Cana Brava",
        "street": "Rua Principal s/n",
        "zipcode": "59280-971"
    },
    {
        "city": "Macaíba",
        "state": "RN",
        "district": null,
        "street": "Posto de Saúde",
        "zipcode": "59280-995"
    },
    {
        "city": "Macaíba",
        "state": "RN",
        "district": null,
        "street": "Rua Auta de Souza",
        "zipcode": "59280-991"
    },
    {
        "city": "Macaíba",
        "state": "RN",
        "district": "Traíras",
        "street": "Rua Principal s/n",
        "zipcode": "59280-972"
    },
    {
        "city": "Macaíba",
        "state": "RN",
        "district": null,
        "street": "Rodovia RN",
        "zipcode": "59280-993"
    }
]