[
    {
        "city": "Monte Alegre",
        "state": "RN",
        "district": "Centro",
        "street": "Avenida João de Paiva 18",
        "zipcode": "59182-970"
    },
    {
        "city": "Monte Alegre",
        "state": "RN",
        "district": "",
        "street": "",
        "zipcode": "59182-000"
    },
    {
        "city": "Monte Alegre",
        "state": "RN",
        "district": null,
        "street": "Padaria de Conveniência",
        "zipcode": "59182-990"
    },
    {
        "city": "Monte Alegre",
        "state": "RN",
        "district": "Centro",
        "street": "Rua Sólon Ubarana s/n",
        "zipcode": "59182-974"
    },
    {
        "city": "Monte Alegre",
        "state": "RN",
        "district": "Fazenda Albertina",
        "street": "Trevo Algaroba s/n",
        "zipcode": "59182-971"
    },
    {
        "city": "Monte Alegre",
        "state": "RN",
        "district": "Centro",
        "street": "Rua Fontes",
        "zipcode": "59182-973"
    },
    {
        "city": "Monte Alegre",
        "state": "RN",
        "district": "Centro",
        "street": "Rua São Francisco s/n",
        "zipcode": "59182-972"
    },
    {
        "city": "Monte Alegre",
        "state": "RN",
        "district": "Centro",
        "street": "Rua Fontes s/n",
        "zipcode": "59182-975"
    }
]