[
    {
        "city": "Mossoro",
        "state": "RN",
        "district": "Presidente Costa E Silva",
        "street": "Rua Dos Cajueiros",
        "zipcode": "59625-480"
    },
    {
        "city": "Mossoro",
        "state": "RN",
        "district": "Centro",
        "street": "Travessa Martins Vasconcelos",
        "zipcode": "59600-710"
    },
    {
        "city": "Mossoro",
        "state": "RN",
        "district": "Alto De Sao Manoel",
        "street": "Rua Presidente Kennedy",
        "zipcode": "59629-160"
    },
    {
        "city": "Mossoro",
        "state": "RN",
        "district": "Abolicao",
        "street": "Rua Maria M. Medeiros",
        "zipcode": "59616-050"
    },
    {
        "city": "Mossoro",
        "state": "RN",
        "district": "Alto De Sao Manoel",
        "street": "Rua Zacarias Cunha",
        "zipcode": "59629-080"
    },
    {
        "city": "Mossoro",
        "state": "RN",
        "district": "Doze Anos",
        "street": "Travessa Ferreira Leite",
        "zipcode": "59603-345"
    },
    {
        "city": "Mossoro",
        "state": "RN",
        "district": "Paredoes",
        "street": "Praça Dos Expedicionarios",
        "zipcode": "59610-340"
    },
    {
        "city": "Mossoro",
        "state": "RN",
        "district": "Aeroporto",
        "street": "Rua Joao Pereira Dos Santos",
        "zipcode": "59607-760"
    },
    {
        "city": "Mossoro",
        "state": "RN",
        "district": "Alto De Sao Manoel",
        "street": "Rua Manoel Alpiniano",
        "zipcode": "59631-080"
    },
    {
        "city": "Mossoro",
        "state": "RN",
        "district": "Centro",
        "street": "Praça Bento Praxedes",
        "zipcode": "59600-620"
    },
    {
        "city": "Mossoro",
        "state": "RN",
        "district": "Presidente Costa E Silva",
        "street": "Praça Francisco Vidal Oliveira",
        "zipcode": "59625-580"
    },
    {
        "city": "Mossoro",
        "state": "RN",
        "district": "Abolicao",
        "street": "Rua Deoclides Vieira De Sa",
        "zipcode": "59615-570"
    },
    {
        "city": "Mossoro",
        "state": "RN",
        "district": "Dom Jaime Camara",
        "street": "Rua Jose De Elipio",
        "zipcode": "59628-710"
    },
    {
        "city": "Mossoro",
        "state": "RN",
        "district": "Belo Horizonte",
        "street": "Rua Bom Jesus",
        "zipcode": "59600-510"
    },
    {
        "city": "Mossoro",
        "state": "RN",
        "district": "Belo Horizonte",
        "street": "Travessa Marinho Dantas",
        "zipcode": "59600-505"
    },
    {
        "city": "Mossoro",
        "state": "RN",
        "district": "Centro",
        "street": "Rua Juvenal Lamartine",
        "zipcode": "59603-040"
    },
    {
        "city": "Mossoro",
        "state": "RN",
        "district": "Centro",
        "street": "Rua Melo Franco",
        "zipcode": "59603-090"
    },
    {
        "city": "Mossoro",
        "state": "RN",
        "district": "Centro",
        "street": "Travessa Mossoroense",
        "zipcode": "59600-730"
    },
    {
        "city": "Mossoro",
        "state": "RN",
        "district": "Doze Anos",
        "street": "Rua Severiano Melo",
        "zipcode": "59603-450"
    },
    {
        "city": "Mossoro",
        "state": "RN",
        "district": "Belo Horizonte",
        "street": "Rua Pedro Rodrigues Da Silva",
        "zipcode": "59605-290"
    },
    {
        "city": "Mossoro",
        "state": "RN",
        "district": "Paredoes",
        "street": "Rua Prudente De Morais",
        "zipcode": "59610-100"
    },
    {
        "city": "Mossoro",
        "state": "RN",
        "district": "Nova Betania",
        "street": "Rua Naninha Rocha",
        "zipcode": "59607-690"
    },
    {
        "city": "Mossoro",
        "state": "RN",
        "district": "Nova Betania",
        "street": "Rua Francisco Rosado Dos Santos",
        "zipcode": "59607-750"
    },
    {
        "city": "Mossoro",
        "state": "RN",
        "district": "Boa Vista",
        "street": "Rua Vicente Carvalho",
        "zipcode": "59605-050"
    },
    {
        "city": "Mossoro",
        "state": "RN",
        "district": "Doze Anos",
        "street": "Rua Eduardo Medeiros",
        "zipcode": "59603-220"
    },
    {
        "city": "Mossoro",
        "state": "RN",
        "district": "Belo Horizonte",
        "street": "Rua Manoel Freire",
        "zipcode": "59605-490"
    },
    {
        "city": "Mossoro",
        "state": "RN",
        "district": "Aeroporto",
        "street": "2A Tv Vicente Fernandes",
        "zipcode": "59603-265"
    },
    {
        "city": "Mossoro",
        "state": "RN",
        "district": "Centro",
        "street": "Praça Quinze De Novembro",
        "zipcode": "59610-320"
    },
    {
        "city": "Mossoro",
        "state": "RN",
        "district": "Santo Antonio",
        "street": "Praça Conego Estevam Dantas",
        "zipcode": "59611-180"
    },
    {
        "city": "Mossoro",
        "state": "RN",
        "district": "Centro",
        "street": "Praça Redencao",
        "zipcode": "59600-780"
    },
    {
        "city": "Mossoro",
        "state": "RN",
        "district": "Centro",
        "street": "Rua Quinze De Novembro",
        "zipcode": "59610-260"
    },
    {
        "city": "Mossoro",
        "state": "RN",
        "district": "Belo Horizonte",
        "street": "Rua Padre Americo Simoneti",
        "zipcode": "59605-300"
    },
    {
        "city": "Mossoro",
        "state": "RN",
        "district": "Nova Betania",
        "street": "Rua Francisco Ferreira Bezerra",
        "zipcode": "59611-390"
    },
    {
        "city": "Mossoro",
        "state": "RN",
        "district": "Belo Horizonte",
        "street": "Rua Francisco Solon",
        "zipcode": "59605-380"
    },
    {
        "city": "Mossoro",
        "state": "RN",
        "district": "Abolicao",
        "street": "Rua Oliveira Costa",
        "zipcode": "59611-230"
    },
    {
        "city": "Mossoro",
        "state": "RN",
        "district": "Belo Horizonte",
        "street": "Rua Antonio Delmiro",
        "zipcode": "59605-390"
    },
    {
        "city": "Mossoro",
        "state": "RN",
        "district": "Alto Da Conceicao",
        "street": "Praça Coronel Antonio Miranda",
        "zipcode": "59600-640"
    },
    {
        "city": "Mossoro",
        "state": "RN",
        "district": "Centro",
        "street": "Vila Rui Barbosa",
        "zipcode": "59600-235"
    },
    {
        "city": "Mossoro",
        "state": "RN",
        "district": "Centro",
        "street": "Rua Idalino Oliveira",
        "zipcode": "59600-690"
    },
    {
        "city": "Mossoro",
        "state": "RN",
        "district": "Paredoes",
        "street": "Rua Tiberio Burlamaqui",
        "zipcode": "59610-130"
    },
    {
        "city": "Mossoro",
        "state": "RN",
        "district": "Aeroporto",
        "street": "Rua Francisco Fernandes De Souza",
        "zipcode": "59607-170"
    },
    {
        "city": "Mossoro",
        "state": "RN",
        "district": "Doze Anos",
        "street": "Travessa Diocesana",
        "zipcode": "59603-205"
    },
    {
        "city": "Mossoro",
        "state": "RN",
        "district": "Belo Horizonte",
        "street": "Rua Souza Leao",
        "zipcode": "59605-310"
    },
    {
        "city": "Mossoro",
        "state": "RN",
        "district": "Centro",
        "street": "Praça Getulio Vargas",
        "zipcode": "59600-680"
    },
    {
        "city": "Mossoro",
        "state": "RN",
        "district": "Abolicao",
        "street": "Rua Francisca Ildete Costa Bueno",
        "zipcode": "59611-280"
    },
    {
        "city": "Mossoro",
        "state": "RN",
        "district": "Centro",
        "street": "Rua Dr Antonio De Souza",
        "zipcode": "59600-650"
    },
    {
        "city": "Mossoro",
        "state": "RN",
        "district": "Nova Betania",
        "street": "Avenida Do Contorno",
        "zipcode": "59607-770"
    },
    {
        "city": "Mossoro",
        "state": "RN",
        "district": "Alto Da Conceicao",
        "street": "Rua Haroldo Gurgel",
        "zipcode": "59605-220"
    },
    {
        "city": "Mossoro",
        "state": "RN",
        "district": "Boa Vista",
        "street": "Rua Francisco Bauduino",
        "zipcode": "59603-300"
    },
    {
        "city": "Mossoro",
        "state": "RN",
        "district": "Doze Anos",
        "street": "Rua Batista Da Mota",
        "zipcode": "59603-250"
    },
    {
        "city": "Mossoro",
        "state": "RN",
        "district": "Centro",
        "street": "Vila Vicente Leite",
        "zipcode": "59610-360"
    },
    {
        "city": "Mossoro",
        "state": "RN",
        "district": "Paredoes",
        "street": "Rua Marechal Hermes",
        "zipcode": "59610-160"
    },
    {
        "city": "Mossoro",
        "state": "RN",
        "district": "Boa Vista",
        "street": "Rua Joao Paulo Ii",
        "zipcode": "59605-560"
    },
    {
        "city": "Mossoro",
        "state": "RN",
        "district": "Centro",
        "street": "Avenida Alberto Maranhao",
        "zipcode": "59610-000"
    },
    {
        "city": "Mossoro",
        "state": "RN",
        "district": "Santo Antonio",
        "street": "Praça Conego Monte",
        "zipcode": "59611-500"
    },
    {
        "city": "Mossoro",
        "state": "RN",
        "district": "Boa Vista",
        "street": "Rua Antonio Costa Filho",
        "zipcode": "59605-420"
    },
    {
        "city": "Mossoro",
        "state": "RN",
        "district": "Boa Vista",
        "street": "Rua Sao Vicente",
        "zipcode": "59603-290"
    },
    {
        "city": "Mossoro",
        "state": "RN",
        "district": "Centro",
        "street": "Rua Jose Otavio",
        "zipcode": "59603-010"
    },
    {
        "city": "Mossoro",
        "state": "RN",
        "district": "Bom Jardim",
        "street": "Vila Brasil",
        "zipcode": "59610-350"
    },
    {
        "city": "Mossoro",
        "state": "RN",
        "district": "Belo Horizonte",
        "street": "Rua Jose Damiao",
        "zipcode": "59605-410"
    },
    {
        "city": "Mossoro",
        "state": "RN",
        "district": "Belo Horizonte",
        "street": "Rua Francisco Bernardo",
        "zipcode": "59605-470"
    },
    {
        "city": "Mossoro",
        "state": "RN",
        "district": "Boa Vista",
        "street": "Rua Santa Luzia",
        "zipcode": "59605-550"
    },
    {
        "city": "Mossoro",
        "state": "RN",
        "district": "Belo Horizonte",
        "street": "Rua Amelia Galvao",
        "zipcode": "59605-170"
    },
    {
        "city": "Mossoro",
        "state": "RN",
        "district": "Centro",
        "street": "Rua Georgino Avelino",
        "zipcode": "59610-270"
    },
    {
        "city": "Mossoro",
        "state": "RN",
        "district": "Aeroporto",
        "street": "Rua Luiz Teotonio De Paula",
        "zipcode": "59607-190"
    },
    {
        "city": "Mossoro",
        "state": "RN",
        "district": "Doze Anos",
        "street": "Rua Edson Nunes",
        "zipcode": "59603-160"
    },
    {
        "city": "Mossoro",
        "state": "RN",
        "district": "Nova Betania",
        "street": "Rua Francisca Rosado Dos Anjos",
        "zipcode": "59607-460"
    },
    {
        "city": "Mossoro",
        "state": "RN",
        "district": "Aeroporto",
        "street": "Rua Raimundo Reboucas Leite",
        "zipcode": "59607-160"
    },
    {
        "city": "Mossoro",
        "state": "RN",
        "district": "Belo Horizonte",
        "street": "Rua Romualdo Galvao",
        "zipcode": "59605-180"
    },
    {
        "city": "Mossoro",
        "state": "RN",
        "district": "Belo Horizonte",
        "street": "Travessa Pedro Gomes",
        "zipcode": "59605-355"
    },
    {
        "city": "Mossoro",
        "state": "RN",
        "district": "Santo Antonio",
        "street": "Praça Itamar Negreiros Paulino",
        "zipcode": "59611-530"
    },
    {
        "city": "Mossoro",
        "state": "RN",
        "district": "Boa Vista",
        "street": "Rua Francisco Solon",
        "zipcode": "59603-280"
    },
    {
        "city": "Mossoro",
        "state": "RN",
        "district": "Belo Horizonte",
        "street": "Praça Vilma Maia",
        "zipcode": "59605-360"
    },
    {
        "city": "Mossoro",
        "state": "RN",
        "district": "Belo Horizonte",
        "street": "Rua Joao Victor De Oliveira",
        "zipcode": "59600-700"
    },
    {
        "city": "Mossoro",
        "state": "RN",
        "district": "Centro",
        "street": "Praça Felipe Guerra",
        "zipcode": "59600-660"
    },
    {
        "city": "Mossoro",
        "state": "RN",
        "district": "Bom Jardim",
        "street": "Rua Juvenal Lamartine",
        "zipcode": "59618-040"
    },
    {
        "city": "Mossoro",
        "state": "RN",
        "district": "Bom Jardim",
        "street": "Rua Melo Franco",
        "zipcode": "59618-090"
    },
    {
        "city": "Mossoro",
        "state": "RN",
        "district": "Bom Jardim",
        "street": "Rua Pedro Velho",
        "zipcode": "59618-010"
    },
    {
        "city": "Mossoro",
        "state": "RN",
        "district": "Abolicao",
        "street": "Rua Pedro Velho",
        "zipcode": "59619-180"
    },
    {
        "city": "Mossoro",
        "state": "RN",
        "district": "Abolicao",
        "street": "Rua Santa Ana",
        "zipcode": "59616-200"
    },
    {
        "city": "Mossoro",
        "state": "RN",
        "district": "Abolicao",
        "street": "Rua Francisco Sales",
        "zipcode": "59619-740"
    },
    {
        "city": "Mossoro",
        "state": "RN",
        "district": "Ilha De Santa Luzia",
        "street": "Avenida Presidente Dutra",
        "zipcode": "59631-000"
    },
    {
        "city": "Mossoro",
        "state": "RN",
        "district": "Belo Horizonte",
        "street": "Rua Padre Cicero",
        "zipcode": "59628-760"
    },
    {
        "city": "Mossoro",
        "state": "RN",
        "district": "Abolicao",
        "street": "Rua Mestre De Obra",
        "zipcode": "59616-040"
    },
    {
        "city": "Mossoro",
        "state": "RN",
        "district": "Alto De Sao Manoel",
        "street": "Rua Inacio Do Vale",
        "zipcode": "59633-270"
    },
    {
        "city": "Mossoro",
        "state": "RN",
        "district": "Bom Jardim",
        "street": "Travessa Nilo Pecanha",
        "zipcode": "59618-185"
    },
    {
        "city": "Mossoro",
        "state": "RN",
        "district": "Abolicao",
        "street": "Rua Medeirinho Dantas",
        "zipcode": "59616-060"
    },
    {
        "city": "Mossoro",
        "state": "RN",
        "district": "Abolicao",
        "street": "Rua Francisco Gomes Monteiro",
        "zipcode": "59615-830"
    },
    {
        "city": "Mossoro",
        "state": "RN",
        "district": "Abolicao",
        "street": "Rua Emidia Nunes",
        "zipcode": "59615-740"
    },
    {
        "city": "Mossoro",
        "state": "RN",
        "district": "Nova Betania",
        "street": "Rua Telegrafista Moacir Melo",
        "zipcode": "59612-830"
    },
    {
        "city": "Mossoro",
        "state": "RN",
        "district": "Abolicao",
        "street": "Rua Do Eletricista",
        "zipcode": "59615-720"
    },
    {
        "city": "Mossoro",
        "state": "RN",
        "district": "Alto De Sao Manoel",
        "street": "Travessa Rio Mossoro",
        "zipcode": "59625-125"
    },
    {
        "city": "Mossoro",
        "state": "RN",
        "district": "Abolicao",
        "street": "Rua Raquel Ana De Sousa",
        "zipcode": "59616-150"
    },
    {
        "city": "Mossoro",
        "state": "RN",
        "district": "Bom Jardim",
        "street": "Travessa Miguel Couto",
        "zipcode": "59618-235"
    },
    {
        "city": "Mossoro",
        "state": "RN",
        "district": "Abolicao",
        "street": "Rua Do Tratorista",
        "zipcode": "59615-510"
    },
    {
        "city": "Mossoro",
        "state": "RN",
        "district": "Abolicao",
        "street": "Avenida Do Contorno",
        "zipcode": "59615-520"
    },
    {
        "city": "Mossoro",
        "state": "RN",
        "district": "Abolicao",
        "street": "Rua Francisco Alves Cabral",
        "zipcode": "59615-760"
    },
    {
        "city": "Mossoro",
        "state": "RN",
        "district": "Abolicao",
        "street": "Rua Lourdinha Menezes",
        "zipcode": "59616-010"
    },
    {
        "city": "Mossoro",
        "state": "RN",
        "district": "Abolicao",
        "street": "Rua Benome Veloso",
        "zipcode": "59615-640"
    },
    {
        "city": "Mossoro",
        "state": "RN",
        "district": "Bom Jardim",
        "street": "Rua Francisco Pascoal",
        "zipcode": "59618-270"
    },
    {
        "city": "Mossoro",
        "state": "RN",
        "district": "Barrocas",
        "street": "Travessa Joao Cordeiro",
        "zipcode": "59621-035"
    },
    {
        "city": "Mossoro",
        "state": "RN",
        "district": "Abolicao",
        "street": "Avenida Do Contorno",
        "zipcode": "59612-770"
    },
    {
        "city": "Mossoro",
        "state": "RN",
        "district": "Barrocas",
        "street": "Rua Hermano Mota",
        "zipcode": "59621-440"
    },
    {
        "city": "Mossoro",
        "state": "RN",
        "district": "Paredoes",
        "street": "Rua Machado De Assis",
        "zipcode": "59618-100"
    },
    {
        "city": "Mossoro",
        "state": "RN",
        "district": "Abolicao",
        "street": "Rua Do Servente",
        "zipcode": "59616-170"
    },
    {
        "city": "Mossoro",
        "state": "RN",
        "district": "Abolicao",
        "street": "Travessa Pedro Velho",
        "zipcode": "59619-185"
    },
    {
        "city": "Mossoro",
        "state": "RN",
        "district": "Abolicao",
        "street": "Rua Do Contra Mestre",
        "zipcode": "59615-660"
    },
    {
        "city": "Mossoro",
        "state": "RN",
        "district": "Abolicao",
        "street": "Rua Senador Dinarte Mariz",
        "zipcode": "59615-430"
    },
    {
        "city": "Mossoro",
        "state": "RN",
        "district": "Alto De Sao Manoel",
        "street": "1A Tv General Pericles",
        "zipcode": "59625-065"
    },
    {
        "city": "Mossoro",
        "state": "RN",
        "district": "Bom Jardim",
        "street": "Rua Geraldo Couto",
        "zipcode": "59621-020"
    },
    {
        "city": "Mossoro",
        "state": "RN",
        "district": "Abolicao",
        "street": "Rua Do Engenheiro",
        "zipcode": "59615-450"
    },
    {
        "city": "Mossoro",
        "state": "RN",
        "district": "Dom Jaime Camara",
        "street": "Rua Antonio Filgueira",
        "zipcode": "59629-090"
    },
    {
        "city": "Mossoro",
        "state": "RN",
        "district": "Bom Jardim",
        "street": "Rua Epitacio Pessoa",
        "zipcode": "59618-250"
    },
    {
        "city": "Mossoro",
        "state": "RN",
        "district": "Abolicao",
        "street": "Rua General De Gaulle",
        "zipcode": "59615-810"
    },
    {
        "city": "Mossoro",
        "state": "RN",
        "district": "Abolicao",
        "street": "Rua Senador Ruy Carneiro",
        "zipcode": "59615-440"
    },
    {
        "city": "Mossoro",
        "state": "RN",
        "district": "Abolicao",
        "street": "Rua Mae Rita",
        "zipcode": "59616-020"
    },
    {
        "city": "Mossoro",
        "state": "RN",
        "district": "Alto De Sao Manoel",
        "street": "Rua Eugenio Pacelli De Moura",
        "zipcode": "59629-150"
    },
    {
        "city": "Mossoro",
        "state": "RN",
        "district": "Barrocas",
        "street": "Travessa Tiberio Burlamaque",
        "zipcode": "59621-420"
    },
    {
        "city": "Mossoro",
        "state": "RN",
        "district": "Presidente Costa E Silva",
        "street": "Travessa Santana",
        "zipcode": "59625-645"
    },
    {
        "city": "Mossoro",
        "state": "RN",
        "district": "Abolicao",
        "street": "Rua Senador Jose Candido Ferraz",
        "zipcode": "59615-420"
    },
    {
        "city": "Mossoro",
        "state": "RN",
        "district": "Alto De Sao Manoel",
        "street": "1A Tv Francisco Mota",
        "zipcode": "59625-305"
    },
    {
        "city": "Mossoro",
        "state": "RN",
        "district": "Ilha De Santa Luzia",
        "street": "Rua Luiz Xaxa",
        "zipcode": "59625-710"
    },
    {
        "city": "Mossoro",
        "state": "RN",
        "district": "Abolicao",
        "street": "Rua Sao Francisco",
        "zipcode": "59615-040"
    },
    {
        "city": "Mossoro",
        "state": "RN",
        "district": "Ilha De Santa Luzia",
        "street": "Travessa General Pericles",
        "zipcode": "59625-076"
    },
    {
        "city": "Mossoro",
        "state": "RN",
        "district": "Abolicao",
        "street": "Rua Do Apontador",
        "zipcode": "59615-650"
    },
    {
        "city": "Mossoro",
        "state": "RN",
        "district": "Abolicao",
        "street": "Rua Edilson Filgueira",
        "zipcode": "59615-710"
    },
    {
        "city": "Mossoro",
        "state": "RN",
        "district": "Presidente Costa E Silva",
        "street": "Rua Audimiro Francisco Moura",
        "zipcode": "59628-410"
    },
    {
        "city": "Mossoro",
        "state": "RN",
        "district": "Abolicao",
        "street": "Rua Antonio Rodrigues Do Monte",
        "zipcode": "59615-630"
    },
    {
        "city": "Mossoro",
        "state": "RN",
        "district": "Dom Jaime Camara",
        "street": "Rua Hilda Leite Guimaraes",
        "zipcode": "59628-820"
    },
    {
        "city": "Mossoro",
        "state": "RN",
        "district": "Bom Jardim",
        "street": "Rua Nilo Pecanha",
        "zipcode": "59618-180"
    },
    {
        "city": "Mossoro",
        "state": "RN",
        "district": "Paredoes",
        "street": "Travessa Rodrigues Alves",
        "zipcode": "59618-065"
    },
    {
        "city": "Mossoro",
        "state": "RN",
        "district": "Alto De Sao Manoel",
        "street": "Rua Joao Pedro De Oliveira",
        "zipcode": "59625-700"
    },
    {
        "city": "Mossoro",
        "state": "RN",
        "district": "Bom Jardim",
        "street": "Avenida Alberto Maranhao",
        "zipcode": "59618-000"
    },
    {
        "city": "Mossoro",
        "state": "RN",
        "district": "Dom Jaime Camara",
        "street": "Rua Itaguaci Fernandes",
        "zipcode": "59628-690"
    },
    {
        "city": "Mossoro",
        "state": "RN",
        "district": "Abolicao",
        "street": "Rua Sauipe",
        "zipcode": "59616-130"
    },
    {
        "city": "Mossoro",
        "state": "RN",
        "district": "Abolicao",
        "street": "Rua Dr Girao",
        "zipcode": "59615-730"
    },
    {
        "city": "Mossoro",
        "state": "RN",
        "district": "Alto De Sao Manoel",
        "street": "Rua Valdemar De Almeida",
        "zipcode": "59629-040"
    },
    {
        "city": "Mossoro",
        "state": "RN",
        "district": "Alto De Sao Manoel",
        "street": "Rua Prof. Prado Valadares",
        "zipcode": "59629-000"
    },
    {
        "city": "Mossoro",
        "state": "RN",
        "district": "Dom Jaime Camara",
        "street": "Rua Tenente Abdon Nunes",
        "zipcode": "59629-030"
    },
    {
        "city": "Mossoro",
        "state": "RN",
        "district": "Alto De Sao Manoel",
        "street": "Rua Aluisio Paula",
        "zipcode": "59629-140"
    },
    {
        "city": "Mossoro",
        "state": "RN",
        "district": "Alto Do Sumare",
        "street": "Avenida Do Contorno",
        "zipcode": "59633-510"
    },
    {
        "city": "Mossoro",
        "state": "RN",
        "district": "Alto De Sao Manoel",
        "street": "Rua Prof. Aleixo Prates",
        "zipcode": "59629-120"
    },
    {
        "city": "Mossoro",
        "state": "RN",
        "district": "Planalto Treze De Maio",
        "street": "Rua Guilherme Ricardo De Lima",
        "zipcode": "59633-570"
    },
    {
        "city": "Mossoro",
        "state": "RN",
        "district": "Planalto Treze De Maio",
        "street": "Avenida Do Contorno",
        "zipcode": "59633-580"
    },
    {
        "city": "Mossoro",
        "state": "RN",
        "district": "Alto De Sao Manoel",
        "street": "Rua Valentim Sabino",
        "zipcode": "59629-155"
    },
    {
        "city": "Mossoro",
        "state": "RN",
        "district": "Planalto Treze De Maio",
        "street": "Rua Titico Ramiro",
        "zipcode": "59633-620"
    },
    {
        "city": "Mossoro",
        "state": "RN",
        "district": "Alto De Sao Manoel",
        "street": "Rua Wagner",
        "zipcode": "59629-060"
    },
    {
        "city": "Mossoro",
        "state": "RN",
        "district": "Planalto Treze De Maio",
        "street": "Rua Felipe Mendes",
        "zipcode": "59633-600"
    },
    {
        "city": "Mossoro",
        "state": "RN",
        "district": "Alto De Sao Manoel",
        "street": "Rua Raimundo Dias Menescal",
        "zipcode": "59629-010"
    },
    {
        "city": "Mossoro",
        "state": "RN",
        "district": "Alto De Sao Manoel",
        "street": "Rua Walter Sa Leitao",
        "zipcode": "59629-050"
    },
    {
        "city": "Mossoro",
        "state": "RN",
        "district": "Doze Anos",
        "street": "Avenida Rio Branco",
        "zipcode": "59603-400"
    },
    {
        "city": "Mossoro",
        "state": "RN",
        "district": "Belo Horizonte",
        "street": "Rua Francisco Lobato",
        "zipcode": "59605-580"
    },
    {
        "city": "Mossoro",
        "state": "RN",
        "district": "Santo Antonio",
        "street": "Rua Juvenal Lamartine",
        "zipcode": "59611-040"
    },
    {
        "city": "Mossoro",
        "state": "RN",
        "district": "Centro",
        "street": "Avenida Rio Branco",
        "zipcode": "59611-400"
    },
    {
        "city": "Mossoro",
        "state": "RN",
        "district": "Bom Jardim",
        "street": "Rua Artur Bernardes",
        "zipcode": "59618-260"
    },
    {
        "city": "Mossoro",
        "state": "RN",
        "district": "Alto De Sao Manoel",
        "street": "Avenida Presidente Dutra",
        "zipcode": "59633-000"
    },
    {
        "city": "Mossoro",
        "state": "RN",
        "district": "Doze Anos",
        "street": "Vila Socorro",
        "zipcode": "59603-360"
    },
    {
        "city": "Mossoro",
        "state": "RN",
        "district": "Belo Horizonte",
        "street": "Rua Padre Freire",
        "zipcode": "59605-430"
    },
    {
        "city": "Mossoro",
        "state": "RN",
        "district": "Centro",
        "street": "Praça Coracao De Jesus",
        "zipcode": "59600-630"
    },
    {
        "city": "Mossoro",
        "state": "RN",
        "district": "Abolicao",
        "street": "Rua Antonio Victor De Melo",
        "zipcode": "59615-610"
    },
    {
        "city": "Mossoro",
        "state": "RN",
        "district": "Alto De Sao Manoel",
        "street": "Rua Dr Ernesto Fonseca",
        "zipcode": "59629-110"
    },
    {
        "city": "Mossoro",
        "state": "RN",
        "district": "Alto De Sao Manoel",
        "street": "Rua Jaime Guedes",
        "zipcode": "59629-070"
    },
    {
        "city": "Mossoro",
        "state": "RN",
        "district": "Bom Jardim",
        "street": "Travessa Afonso Pena",
        "zipcode": "59618-025"
    },
    {
        "city": "Mossoro",
        "state": "RN",
        "district": "Belo Horizonte",
        "street": "Rua Capitao Luiz Firmino",
        "zipcode": "59605-440"
    },
    {
        "city": "Mossoro",
        "state": "RN",
        "district": "Paredoes",
        "street": "Vila Ciarline",
        "zipcode": "59610-285"
    },
    {
        "city": "Mossoro",
        "state": "RN",
        "district": "Centro",
        "street": "Avenida Joao Pessoa",
        "zipcode": "59600-600"
    },
    {
        "city": "Mossoro",
        "state": "RN",
        "district": "Abolicao",
        "street": "Rua Agostinho Filgueira Dos Santos",
        "zipcode": "59616-260"
    },
    {
        "city": "Mossoro",
        "state": "RN",
        "district": "Santo Antonio",
        "street": "Rua Seis De Janeiro",
        "zipcode": "59619-070"
    },
    {
        "city": "Mossoro",
        "state": "RN",
        "district": "Belo Horizonte",
        "street": "Rua Vinte E Quatro De Agosto",
        "zipcode": "59605-230"
    },
    {
        "city": "Mossoro",
        "state": "RN",
        "district": "Belo Horizonte",
        "street": "Rua Santos Morais",
        "zipcode": "59600-790"
    },
    {
        "city": "Mossoro",
        "state": "RN",
        "district": "Abolicao",
        "street": "Rua Luiz Cavalcante",
        "zipcode": "59612-680"
    },
    {
        "city": "Mossoro",
        "state": "RN",
        "district": "Ilha De Santa Luzia",
        "street": "Travessa Francisco Paulino",
        "zipcode": "59625-075"
    },
    {
        "city": "Mossoro",
        "state": "RN",
        "district": "Presidente Costa E Silva",
        "street": "Rua Aldemiro Francisco De Moura",
        "zipcode": "59628-790"
    },
    {
        "city": "Mossoro",
        "state": "RN",
        "district": "Presidente Costa E Silva",
        "street": "Praça Francisco Das Chagas Brasil",
        "zipcode": "59625-570"
    },
    {
        "city": "Mossoro",
        "state": "RN",
        "district": "Alto De Sao Manoel",
        "street": "Rua Da Esperanca",
        "zipcode": "59621-700"
    },
    {
        "city": "Mossoro",
        "state": "RN",
        "district": "Belo Horizonte",
        "street": "Avenida Alberto Maranhao",
        "zipcode": "59600-005"
    },
    {
        "city": "Mossoro",
        "state": "RN",
        "district": "Doze Anos",
        "street": "Rua Joao Pedro Da Costa",
        "zipcode": "59603-110"
    },
    {
        "city": "Mossoro",
        "state": "RN",
        "district": "Centro",
        "street": "Rua Frei Antonio Da Conceicao",
        "zipcode": "59600-670"
    },
    {
        "city": "Mossoro",
        "state": "RN",
        "district": "Alto Da Conceicao",
        "street": "Praça Alipio Bandeira",
        "zipcode": "59600-800"
    },
    {
        "city": "Mossoro",
        "state": "RN",
        "district": "Belo Horizonte",
        "street": "Rua Dr Pedro Gomes De Oliveira",
        "zipcode": "59605-350"
    },
    {
        "city": "Mossoro",
        "state": "RN",
        "district": "Alto Da Conceicao",
        "street": "Rua Coronel Fausto",
        "zipcode": "59600-580"
    },
    {
        "city": "Mossoro",
        "state": "RN",
        "district": "Dom Jaime Camara",
        "street": "Rua Vereador Jose Bernardo",
        "zipcode": "59628-420"
    },
    {
        "city": "Mossoro",
        "state": "RN",
        "district": "Dom Jaime Camara",
        "street": "Rua Sabino Maciel Junior",
        "zipcode": "59629-020"
    },
    {
        "city": "Mossoro",
        "state": "RN",
        "district": "Belo Horizonte",
        "street": "Rua Dom Elder Camara",
        "zipcode": "59605-450"
    },
    {
        "city": "Mossoro",
        "state": "RN",
        "district": "Abolicao",
        "street": "Rua Filomena Pimenta",
        "zipcode": "59612-550"
    },
    {
        "city": "Mossoro",
        "state": "RN",
        "district": "Pintos",
        "street": "Travessa Da Guia",
        "zipcode": "59625-505"
    },
    {
        "city": "Mossoro",
        "state": "RN",
        "district": "Abolicao",
        "street": "Rua Antonio Epaminondas Medeiros",
        "zipcode": "59615-620"
    },
    {
        "city": "Mossoro",
        "state": "RN",
        "district": "Nova Betania",
        "street": "Rua Vicente Fernandes",
        "zipcode": "59603-260"
    },
    {
        "city": "Mossoro",
        "state": "RN",
        "district": "Abolicao",
        "street": "Rua Da Br",
        "zipcode": "59616-280"
    },
    {
        "city": "Mossoro",
        "state": "RN",
        "district": "Planalto Treze De Maio",
        "street": "Avenida Do Contorno",
        "zipcode": "59633-400"
    },
    {
        "city": "Mossoro",
        "state": "RN",
        "district": "Abolicao",
        "street": "Rua Almirante Ary Parreiras",
        "zipcode": "59615-410"
    },
    {
        "city": "Mossoro",
        "state": "RN",
        "district": "Abolicao",
        "street": "Rua Do Ferreiro",
        "zipcode": "59615-750"
    },
    {
        "city": "Mossoro",
        "state": "RN",
        "district": "Abolicao",
        "street": "Rua Manoel Lucas Mota",
        "zipcode": "59615-500"
    },
    {
        "city": "Mossoro",
        "state": "RN",
        "district": "Abolicao",
        "street": "Rua Principe Da Beira",
        "zipcode": "59616-090"
    },
    {
        "city": "Mossoro",
        "state": "RN",
        "district": "Abolicao",
        "street": "Rua Coronel Jose Vaz",
        "zipcode": "59615-700"
    }
]