[
    {
        "city": "Nísia Floresta",
        "state": "RN",
        "district": "Campo de Santana",
        "street": "Distrito Campo de Santana s/n",
        "zipcode": "59164-971"
    },
    {
        "city": "Nísia Floresta",
        "state": "RN",
        "district": null,
        "street": "Rua do Comércio",
        "zipcode": "59164-990"
    },
    {
        "city": "Nísia Floresta",
        "state": "RN",
        "district": null,
        "street": "Rua das Oiticicas",
        "zipcode": "59164-996"
    },
    {
        "city": "Nísia Floresta",
        "state": "RN",
        "district": "Povoado de Pium",
        "street": "Distrito de Pium s/n",
        "zipcode": "59164-972"
    },
    {
        "city": "Nísia Floresta",
        "state": "RN",
        "district": "",
        "street": "",
        "zipcode": "59164-000"
    },
    {
        "city": "Nísia Floresta",
        "state": "RN",
        "district": null,
        "street": "Morrinhos",
        "zipcode": "59165-990"
    },
    {
        "city": "Nísia Floresta",
        "state": "RN",
        "district": null,
        "street": "Presídio de Alcaçuz",
        "zipcode": "59165-992"
    },
    {
        "city": "Nísia Floresta",
        "state": "RN",
        "district": null,
        "street": "Rodovia RN 313 km 01",
        "zipcode": "59164-995"
    },
    {
        "city": "Nísia Floresta",
        "state": "RN",
        "district": null,
        "street": "Rua Carmem Miranda",
        "zipcode": "59164-991"
    },
    {
        "city": "Nísia Floresta",
        "state": "RN",
        "district": "Praia de Tabatinga",
        "street": "Praia de Tabatinga s/n",
        "zipcode": "59164-973"
    },
    {
        "city": "Nísia Floresta",
        "state": "RN",
        "district": "Búzios",
        "street": "Avenida Coronel Paulo Salema s/n",
        "zipcode": "59164-974"
    },
    {
        "city": "Nísia Floresta",
        "state": "RN",
        "district": null,
        "street": "Povoado de Currais",
        "zipcode": "59165-991"
    },
    {
        "city": "Nísia Floresta",
        "state": "RN",
        "district": "Centro",
        "street": "Rua Pedro Augusto de Oliveira Trindade",
        "zipcode": "59164-970"
    },
    {
        "city": "Nísia Floresta",
        "state": "RN",
        "district": null,
        "street": "Rua Doutor Tarcísio",
        "zipcode": "59164-997"
    },
    {
        "city": "Nísia Floresta",
        "state": "RN",
        "district": null,
        "street": "Rua da Praia",
        "zipcode": "59164-998"
    },
    {
        "city": "Nísia Floresta",
        "state": "RN",
        "district": null,
        "street": "Rua Projetada",
        "zipcode": "59164-994"
    }
]