[
    {
        "city": "São José de Mipibu",
        "state": "RN",
        "district": "Centro",
        "street": "Rua Jaime Sales",
        "zipcode": "59162-970"
    },
    {
        "city": "São José de Mipibu",
        "state": "RN",
        "district": "Povoado Laranjeira do Abdias",
        "street": "Rua Principal s/n",
        "zipcode": "59162-973"
    },
    {
        "city": "São José de Mipibu",
        "state": "RN",
        "district": "Pau Brasil",
        "street": "Rua Principal s/n",
        "zipcode": "59162-972"
    },
    {
        "city": "São José de Mipibu",
        "state": "RN",
        "district": "Sítio Japecanga",
        "street": "Sítio Japecanga",
        "zipcode": "59162-975"
    },
    {
        "city": "São José de Mipibu",
        "state": "RN",
        "district": "Sítio Arenã",
        "street": "Rua Principal",
        "zipcode": "59162-976"
    },
    {
        "city": "São José de Mipibu",
        "state": "RN",
        "district": null,
        "street": "Rua São José",
        "zipcode": "59162-992"
    },
    {
        "city": "São José de Mipibu",
        "state": "RN",
        "district": "Povoado Curral Novo",
        "street": "Distrito Curral Novo s/n  AGC Curral Novo",
        "zipcode": "59162-977"
    },
    {
        "city": "São José de Mipibu",
        "state": "RN",
        "district": "",
        "street": "",
        "zipcode": "59162-000"
    },
    {
        "city": "São José de Mipibu",
        "state": "RN",
        "district": "Manibu",
        "street": "Rua Principal s/n",
        "zipcode": "59162-971"
    },
    {
        "city": "São José de Mipibu",
        "state": "RN",
        "district": "Laranjeira dos Cosmes",
        "street": "Rua Principal s/n",
        "zipcode": "59162-974"
    },
    {
        "city": "São José de Mipibu",
        "state": "RN",
        "district": null,
        "street": "Salão de Francis Cabeleleira",
        "zipcode": "59162-993"
    },
    {
        "city": "São José de Mipibu",
        "state": "RN",
        "district": null,
        "street": "RN",
        "zipcode": "59162-990"
    },
    {
        "city": "São José de Mipibu",
        "state": "RN",
        "district": null,
        "street": "Distrito de Taborda",
        "zipcode": "59162-991"
    },
    {
        "city": "São José de Mipibu",
        "state": "RN",
        "district": null,
        "street": "Associação Comunitária do Ribeiro",
        "zipcode": "59162-994"
    }
]