[
    {
        "city": "Santana",
        "state": "AP",
        "district": "Fé em Deus",
        "street": "Passagem Salmo 23",
        "zipcode": "68928-399"
    },
    {
        "city": "Santana",
        "state": "AP",
        "district": "Provedor I",
        "street": "Travessa Manoel Pestana",
        "zipcode": "68927-221"
    },
    {
        "city": "Santana",
        "state": "AP",
        "district": "Distrito Industrial",
        "street": "Travessa Rio Jari (Resd. Aqv. Tucunaré)",
        "zipcode": "68929-569"
    },
    {
        "city": "Santana",
        "state": "AP",
        "district": "Daniel",
        "street": "Travessa Manoel Moura de Carvalho",
        "zipcode": "68926-064"
    },
    {
        "city": "Santana",
        "state": "AP",
        "district": "Fé em Deus",
        "street": "Rua Brasil",
        "zipcode": "68928-410"
    },
    {
        "city": "Santana",
        "state": "AP",
        "district": "Fonte Nova",
        "street": "Alameda do Poço",
        "zipcode": "68928-139"
    },
    {
        "city": "Santana",
        "state": "AP",
        "district": "Fonte Nova",
        "street": "Alameda D",
        "zipcode": "68928-304"
    },
    {
        "city": "Santana",
        "state": "AP",
        "district": "Fonte Nova",
        "street": "Avenida das Nações",
        "zipcode": "68928-133"
    },
    {
        "city": "Santana",
        "state": "AP",
        "district": "Fé em Deus",
        "street": "Avenida Salmo 23",
        "zipcode": "68928-396"
    },
    {
        "city": "Santana",
        "state": "AP",
        "district": "Fé em Deus",
        "street": "Avenida Salmo 91",
        "zipcode": "68928-404"
    },
    {
        "city": "Santana",
        "state": "AP",
        "district": "Provedor I",
        "street": "Avenida 10",
        "zipcode": "68927-167"
    },
    {
        "city": "Santana",
        "state": "AP",
        "district": "Central",
        "street": "Travessa Atlântico",
        "zipcode": "68925-221"
    },
    {
        "city": "Santana",
        "state": "AP",
        "district": "Central",
        "street": "Travessa Maria Vitorina",
        "zipcode": "68925-223"
    },
    {
        "city": "Santana",
        "state": "AP",
        "district": "Distrito Industrial",
        "street": "Travessa Rio Tefé (Resd. Aqv. Tucunaré)",
        "zipcode": "68929-513"
    },
    {
        "city": "Santana",
        "state": "AP",
        "district": "Distrito Industrial",
        "street": "Travessa Rio Vila Nova (Resd. Aqv. Tucunaré)",
        "zipcode": "68929-515"
    },
    {
        "city": "Santana",
        "state": "AP",
        "district": "Distrito Industrial",
        "street": "Travessa Rio Xingu (Resd. Aqv. Tucunaré)",
        "zipcode": "68929-517"
    },
    {
        "city": "Santana",
        "state": "AP",
        "district": "Distrito Industrial",
        "street": "Alameda Rio Araguari (Resd. Aqv. Tucunaré)",
        "zipcode": "68929-539"
    },
    {
        "city": "Santana",
        "state": "AP",
        "district": "Distrito Industrial",
        "street": "Alameda Rio Vila Nova (Resd. Aqv. Tucunaré)",
        "zipcode": "68929-542"
    },
    {
        "city": "Santana",
        "state": "AP",
        "district": "Distrito Industrial",
        "street": "Avenida Acquaville (Resd. Aqv. Tucunaré)",
        "zipcode": "68929-543"
    },
    {
        "city": "Santana",
        "state": "AP",
        "district": "Distrito Industrial",
        "street": "Avenida Rio Calçoene (Resd. Aqv. Tucunaré)",
        "zipcode": "68929-546"
    },
    {
        "city": "Santana",
        "state": "AP",
        "district": "Distrito Industrial",
        "street": "Avenida Rio Maracá (Resd. Aqv. Tucunaré)",
        "zipcode": "68929-549"
    },
    {
        "city": "Santana",
        "state": "AP",
        "district": "Distrito Industrial",
        "street": "Avenida Rio Tartarugualzinho (Resd. Aqv. Tucunaré)",
        "zipcode": "68929-550"
    },
    {
        "city": "Santana",
        "state": "AP",
        "district": "Distrito Industrial",
        "street": "Rua Rio Amazonas (Resd. Aqv. Tucunaré)",
        "zipcode": "68929-553"
    },
    {
        "city": "Santana",
        "state": "AP",
        "district": "Distrito Industrial",
        "street": "Rua Rio Araguari (Resd. Aqv. Tucunaré)",
        "zipcode": "68929-554"
    },
    {
        "city": "Santana",
        "state": "AP",
        "district": "Distrito Industrial",
        "street": "Rua Rio Pedreira (Resd. Aqv. Tucunaré)",
        "zipcode": "68929-555"
    },
    {
        "city": "Santana",
        "state": "AP",
        "district": "Distrito Industrial",
        "street": "Travessa Lago Azul (Resd. Aqv. Tucunaré)",
        "zipcode": "68929-559"
    },
    {
        "city": "Santana",
        "state": "AP",
        "district": "Distrito Industrial",
        "street": "Travessa Lago Novo (Resd. Aqv. Tucunaré)",
        "zipcode": "68929-561"
    },
    {
        "city": "Santana",
        "state": "AP",
        "district": "Distrito Industrial",
        "street": "Travessa Lago Verde (Resd. Aqv. Tucunaré)",
        "zipcode": "68929-562"
    },
    {
        "city": "Santana",
        "state": "AP",
        "district": "Distrito Industrial",
        "street": "Travessa Rio Branco (Resd. Aqv. Tucunaré)",
        "zipcode": "68929-566"
    },
    {
        "city": "Santana",
        "state": "AP",
        "district": "Distrito Industrial",
        "street": "Travessa Rio Oiapoque (Resd. Aqv. Tucunaré)",
        "zipcode": "68929-571"
    },
    {
        "city": "Santana",
        "state": "AP",
        "district": "Distrito Industrial",
        "street": "Alameda Mar Vermelho (Resd. Aqv. Tucunaré)",
        "zipcode": "68929-579"
    },
    {
        "city": "Santana",
        "state": "AP",
        "district": "Ilha de Santana",
        "street": "Rua Beira Rio",
        "zipcode": "68933-001"
    },
    {
        "city": "Santana",
        "state": "AP",
        "district": "Ilha de Santana",
        "street": "Travessa Santana",
        "zipcode": "68933-004"
    },
    {
        "city": "Santana",
        "state": "AP",
        "district": "Ilha de Santana",
        "street": "Travessa Doze de Outubro",
        "zipcode": "68933-007"
    },
    {
        "city": "Santana",
        "state": "AP",
        "district": "Distrito Industrial",
        "street": "Alameda Mar Mediterrâneo (Resd. Aqv. Tucunaré)",
        "zipcode": "68929-537"
    },
    {
        "city": "Santana",
        "state": "AP",
        "district": "Distrito Industrial",
        "street": "Avenida Rio Amapá (Resd. Aqv. Tucunaré)",
        "zipcode": "68929-545"
    },
    {
        "city": "Santana",
        "state": "AP",
        "district": "Ilha de Santana",
        "street": "Ramal da Madesa",
        "zipcode": "68933-008"
    },
    {
        "city": "Santana",
        "state": "AP",
        "district": "Distrito Industrial",
        "street": "Travessa Rio Solimões (Resd. Aqv. Tucunaré)",
        "zipcode": "68929-574"
    },
    {
        "city": "Santana",
        "state": "AP",
        "district": "Distrito Industrial",
        "street": "Alameda Rio Anajás (Resd. Aqv. Tucunaré)",
        "zipcode": "68929-538"
    },
    {
        "city": "Santana",
        "state": "AP",
        "district": "Fé em Deus",
        "street": "Passagem Salmo 91",
        "zipcode": "68928-401"
    },
    {
        "city": "Santana",
        "state": "AP",
        "district": "Distrito Industrial",
        "street": "Rua Rio Trombetas (Resd. Aqv. Tucunaré)",
        "zipcode": "68929-557"
    },
    {
        "city": "Santana",
        "state": "AP",
        "district": "Distrito Industrial",
        "street": "Travessa Rio Tapajós (Resd. Aqv. Tucunaré)",
        "zipcode": "68929-575"
    },
    {
        "city": "Santana",
        "state": "AP",
        "district": "Elesbão",
        "street": "Travessa Açaí",
        "zipcode": "68925-302"
    },
    {
        "city": "Santana",
        "state": "AP",
        "district": "Vila Amazonas",
        "street": "Rua D 9",
        "zipcode": "68926-150"
    },
    {
        "city": "Santana",
        "state": "AP",
        "district": "Vila Amazonas",
        "street": "Rua D 6C",
        "zipcode": "68926-210"
    },
    {
        "city": "Santana",
        "state": "AP",
        "district": "Provedor",
        "street": "Passagem Sem Denominação",
        "zipcode": "68927-417"
    },
    {
        "city": "Santana",
        "state": "AP",
        "district": "Fonte Nova",
        "street": "Rua Walter Barbosa de Araújo",
        "zipcode": "68928-157"
    },
    {
        "city": "Santana",
        "state": "AP",
        "district": "Fonte Nova",
        "street": "Travessa L4 da Fonte Nova",
        "zipcode": "68928-208"
    },
    {
        "city": "Santana",
        "state": "AP",
        "district": "Fonte Nova",
        "street": "Travessa L5 da Fonte Nova",
        "zipcode": "68928-211"
    },
    {
        "city": "Santana",
        "state": "AP",
        "district": "Fonte Nova",
        "street": "Travessa L7 da Fonte Nova",
        "zipcode": "68928-217"
    },
    {
        "city": "Santana",
        "state": "AP",
        "district": "Fonte Nova",
        "street": "Travessa L9 da Fonte Nova",
        "zipcode": "68928-223"
    },
    {
        "city": "Santana",
        "state": "AP",
        "district": "Fonte Nova",
        "street": "Alameda B",
        "zipcode": "68928-298"
    },
    {
        "city": "Santana",
        "state": "AP",
        "district": "Fonte Nova",
        "street": "Travessa L11",
        "zipcode": "68928-190"
    },
    {
        "city": "Santana",
        "state": "AP",
        "district": "Daniel",
        "street": "Avenida João Bitencourt Muniz",
        "zipcode": "68926-068"
    },
    {
        "city": "Santana",
        "state": "AP",
        "district": "Vila Amazonas",
        "street": "Rua D 4",
        "zipcode": "68926-190"
    },
    {
        "city": "Santana",
        "state": "AP",
        "district": "Vila Amazonas",
        "street": "Rua D 12",
        "zipcode": "68926-170"
    },
    {
        "city": "Santana",
        "state": "AP",
        "district": "Paraíso",
        "street": "Avenida Princesa Izabel",
        "zipcode": "68928-006"
    },
    {
        "city": "Santana",
        "state": "AP",
        "district": "Paraíso",
        "street": "Avenida Ministro Rui Barbosa",
        "zipcode": "68928-018"
    },
    {
        "city": "Santana",
        "state": "AP",
        "district": "Paraíso",
        "street": "Avenida Santana",
        "zipcode": "68928-060"
    },
    {
        "city": "Santana",
        "state": "AP",
        "district": "Paraíso",
        "street": "Rua Doutor Osvaldo Cruz",
        "zipcode": "68928-066"
    },
    {
        "city": "Santana",
        "state": "AP",
        "district": "Fonte Nova",
        "street": "Avenida Rio Branco",
        "zipcode": "68928-148"
    },
    {
        "city": "Santana",
        "state": "AP",
        "district": "Fonte Nova",
        "street": "Avenida Sete de Setembro",
        "zipcode": "68928-187"
    },
    {
        "city": "Santana",
        "state": "AP",
        "district": "Fonte Nova",
        "street": "Avenida São Paulo Apóstolo",
        "zipcode": "68928-232"
    },
    {
        "city": "Santana",
        "state": "AP",
        "district": "Fortaleza",
        "street": "Travessa Rio Tipitinga",
        "zipcode": "68926-350"
    },
    {
        "city": "Santana",
        "state": "AP",
        "district": "Remedios",
        "street": "Travessa 4",
        "zipcode": "68927-033"
    },
    {
        "city": "Santana",
        "state": "AP",
        "district": "Remedios",
        "street": "Travessa 6",
        "zipcode": "68927-039"
    },
    {
        "city": "Santana",
        "state": "AP",
        "district": "Provedor I",
        "street": "Travessa Sílvio Camilo",
        "zipcode": "68927-227"
    },
    {
        "city": "Santana",
        "state": "AP",
        "district": "Novo Horizonte",
        "street": "Travessa D",
        "zipcode": "68926-013"
    },
    {
        "city": "Santana",
        "state": "AP",
        "district": "Vila Amazonas",
        "street": "Rua D 11",
        "zipcode": "68926-174"
    },
    {
        "city": "Santana",
        "state": "AP",
        "district": "Provedor",
        "street": "Avenida Brasilia",
        "zipcode": "68927-441"
    },
    {
        "city": "Santana",
        "state": "AP",
        "district": "Paraíso",
        "street": "Avenida Coelho Neto",
        "zipcode": "68928-021"
    },
    {
        "city": "Santana",
        "state": "AP",
        "district": "Paraíso",
        "street": "Avenida Mineira",
        "zipcode": "68928-090"
    },
    {
        "city": "Santana",
        "state": "AP",
        "district": "Fonte Nova",
        "street": "Rua João Leite Coutinho",
        "zipcode": "68928-178"
    },
    {
        "city": "Santana",
        "state": "AP",
        "district": "Distrito Industrial",
        "street": "Rua Onze",
        "zipcode": "68929-524"
    },
    {
        "city": "Santana",
        "state": "AP",
        "district": "Distrito Industrial",
        "street": "Rua Treze",
        "zipcode": "68929-532"
    },
    {
        "city": "Santana",
        "state": "AP",
        "district": "Distrito Industrial",
        "street": "Rua Zero",
        "zipcode": "68929-536"
    },
    {
        "city": "Santana",
        "state": "AP",
        "district": "Distrito Industrial",
        "street": "Rua Um",
        "zipcode": "68929-552"
    },
    {
        "city": "Santana",
        "state": "AP",
        "district": "Distrito Industrial",
        "street": "Rua Quatro",
        "zipcode": "68929-556"
    },
    {
        "city": "Santana",
        "state": "AP",
        "district": "Distrito Industrial",
        "street": "Rua Três",
        "zipcode": "68929-572"
    },
    {
        "city": "Santana",
        "state": "AP",
        "district": "Distrito Industrial",
        "street": "Travessa Rio Negro (Resd. Aqv. Tucunaré)",
        "zipcode": "68929-570"
    },
    {
        "city": "Santana",
        "state": "AP",
        "district": "Ilha de Santana",
        "street": "Avenida Antonia Henriqueta",
        "zipcode": "68933-006"
    },
    {
        "city": "Santana",
        "state": "AP",
        "district": "Ilha de Santana",
        "street": "Rua C",
        "zipcode": "68933-010"
    },
    {
        "city": "Santana",
        "state": "AP",
        "district": "Remedios",
        "street": "Travessa 5",
        "zipcode": "68927-036"
    },
    {
        "city": "Santana",
        "state": "AP",
        "district": "Nova Brasília",
        "street": "Travessa Zenóbia Vileta",
        "zipcode": "68927-323"
    },
    {
        "city": "Santana",
        "state": "AP",
        "district": "Fonte Nova",
        "street": "Alameda Cabedelo",
        "zipcode": "68928-142"
    },
    {
        "city": "Santana",
        "state": "AP",
        "district": "Distrito Industrial",
        "street": "Avenida São João Apóstolo",
        "zipcode": "68929-568"
    },
    {
        "city": "Santana",
        "state": "AP",
        "district": "Remedios",
        "street": "Travessa 10",
        "zipcode": "68927-054"
    },
    {
        "city": "Santana",
        "state": "AP",
        "district": "Ilha de Santana",
        "street": "Rua A",
        "zipcode": "68933-000"
    },
    {
        "city": "Santana",
        "state": "AP",
        "district": "Provedor I",
        "street": "Avenida 8",
        "zipcode": "68927-173"
    },
    {
        "city": "Santana",
        "state": "AP",
        "district": "Provedor",
        "street": "Travessa L17 do Provedor",
        "zipcode": "68927-378"
    },
    {
        "city": "Santana",
        "state": "AP",
        "district": "Provedor",
        "street": "Travessa L3 do Provedor",
        "zipcode": "68927-402"
    },
    {
        "city": "Santana",
        "state": "AP",
        "district": "Provedor",
        "street": "Travessa L2 do Provedor",
        "zipcode": "68927-405"
    },
    {
        "city": "Santana",
        "state": "AP",
        "district": "Provedor",
        "street": "Travessa Américo Vespúcio",
        "zipcode": "68927-411"
    },
    {
        "city": "Santana",
        "state": "AP",
        "district": "Provedor",
        "street": "Passagem Sem Denominação 2",
        "zipcode": "68927-426"
    },
    {
        "city": "Santana",
        "state": "AP",
        "district": "Fonte Nova",
        "street": "Rua das Orquídeas",
        "zipcode": "68928-262"
    },
    {
        "city": "Santana",
        "state": "AP",
        "district": "Fonte Nova",
        "street": "Alameda das Margaridas",
        "zipcode": "68928-265"
    },
    {
        "city": "Santana",
        "state": "AP",
        "district": "Fonte Nova",
        "street": "Alameda das Magnólias (Prq Laranjeiras)",
        "zipcode": "68928-268"
    },
    {
        "city": "Santana",
        "state": "AP",
        "district": "Fonte Nova",
        "street": "Alameda das Pampolas (Prq Laranjeiras)",
        "zipcode": "68928-274"
    },
    {
        "city": "Santana",
        "state": "AP",
        "district": "Fonte Nova",
        "street": "Rodovia Duca Serra",
        "zipcode": "68928-280"
    },
    {
        "city": "Santana",
        "state": "AP",
        "district": "Fonte Nova",
        "street": "Alameda A",
        "zipcode": "68928-295"
    },
    {
        "city": "Santana",
        "state": "AP",
        "district": "Provedor I",
        "street": "Avenida Tocantinópolis",
        "zipcode": "68927-128"
    },
    {
        "city": "Santana",
        "state": "AP",
        "district": "Nova Brasília",
        "street": "Rua General Ubaldo Figueira",
        "zipcode": "68927-239"
    },
    {
        "city": "Santana",
        "state": "AP",
        "district": "Nova Brasília",
        "street": "Avenida Walter Lopes da Cruz",
        "zipcode": "68927-275"
    },
    {
        "city": "Santana",
        "state": "AP",
        "district": "Nova Brasília",
        "street": "Rua Padre Vitório Galiane",
        "zipcode": "68927-302"
    },
    {
        "city": "Santana",
        "state": "AP",
        "district": "Nova Brasília",
        "street": "Rua Osvaldo Cruz",
        "zipcode": "68927-314"
    },
    {
        "city": "Santana",
        "state": "AP",
        "district": "Nova Brasília",
        "street": "Ramal 19 de Maio",
        "zipcode": "68927-335"
    },
    {
        "city": "Santana",
        "state": "AP",
        "district": "Provedor",
        "street": "Avenida Walter Lopes da Cruz",
        "zipcode": "68927-420"
    },
    {
        "city": "Santana",
        "state": "AP",
        "district": "Fonte Nova",
        "street": "Avenida Júlio Cardoso",
        "zipcode": "68928-229"
    },
    {
        "city": "Santana",
        "state": "AP",
        "district": "Fonte Nova",
        "street": "Avenida Salmo 23 (Lot F Deus)",
        "zipcode": "68928-328"
    },
    {
        "city": "Santana",
        "state": "AP",
        "district": "Daniel",
        "street": "Travessa Manoel Videira",
        "zipcode": "68926-080"
    },
    {
        "city": "Santana",
        "state": "AP",
        "district": "Provedor I",
        "street": "Travessa 14",
        "zipcode": "68927-146"
    },
    {
        "city": "Santana",
        "state": "AP",
        "district": "Provedor I",
        "street": "Travessa L4 do Provedor",
        "zipcode": "68927-218"
    },
    {
        "city": "Santana",
        "state": "AP",
        "district": "Nova Brasília",
        "street": "Travessa C Martel",
        "zipcode": "68927-242"
    },
    {
        "city": "Santana",
        "state": "AP",
        "district": "Nova Brasília",
        "street": "Travessa Manoel Pereira da Rocha",
        "zipcode": "68927-257"
    },
    {
        "city": "Santana",
        "state": "AP",
        "district": "Nova Brasília",
        "street": "Travessa Geronimo de Albuquerque",
        "zipcode": "68927-269"
    },
    {
        "city": "Santana",
        "state": "AP",
        "district": "Nova Brasília",
        "street": "Travessa Delorizano Monteiro",
        "zipcode": "68927-278"
    },
    {
        "city": "Santana",
        "state": "AP",
        "district": "Nova Brasília",
        "street": "Travessa Amélia Silva",
        "zipcode": "68927-326"
    },
    {
        "city": "Santana",
        "state": "AP",
        "district": "Fonte Nova",
        "street": "3ª Travessa da São João",
        "zipcode": "68928-289"
    },
    {
        "city": "Santana",
        "state": "AP",
        "district": "Fonte Nova",
        "street": "3ª Travessa São João Apóstolo",
        "zipcode": "68928-292"
    },
    {
        "city": "Santana",
        "state": "AP",
        "district": "Novo Horizonte",
        "street": "Rua Raimundo Ferreira Guedes",
        "zipcode": "68926-008"
    },
    {
        "city": "Santana",
        "state": "AP",
        "district": "Provedor I",
        "street": "Avenida Delorizano Monteiro",
        "zipcode": "68927-206"
    },
    {
        "city": "Santana",
        "state": "AP",
        "district": "Nova Brasília",
        "street": "Avenida Brasilia",
        "zipcode": "68927-296"
    },
    {
        "city": "Santana",
        "state": "AP",
        "district": "Fonte Nova",
        "street": "Avenida das Acácias (Prq Laranjeiras)",
        "zipcode": "68928-250"
    },
    {
        "city": "Santana",
        "state": "AP",
        "district": "Fonte Nova",
        "street": "Avenida Brasil (Lot F Deus)",
        "zipcode": "68928-313"
    },
    {
        "city": "Santana",
        "state": "AP",
        "district": "Fonte Nova",
        "street": "Avenida Carlos Martel",
        "zipcode": "68928-319"
    },
    {
        "city": "Santana",
        "state": "AP",
        "district": "Distrito Industrial",
        "street": "Rodovia Duca Serra",
        "zipcode": "68929-500"
    },
    {
        "city": "Santana",
        "state": "AP",
        "district": "Vila Amazonas",
        "street": "Rua D 2",
        "zipcode": "68926-182"
    },
    {
        "city": "Santana",
        "state": "AP",
        "district": "Remedios",
        "street": "Travessa 7",
        "zipcode": "68927-042"
    },
    {
        "city": "Santana",
        "state": "AP",
        "district": "Nova Brasília",
        "street": "Avenida José Deulino",
        "zipcode": "68927-341"
    },
    {
        "city": "Santana",
        "state": "AP",
        "district": "Paraíso",
        "street": "Avenida Rio Branco",
        "zipcode": "68928-015"
    },
    {
        "city": "Santana",
        "state": "AP",
        "district": "Paraíso",
        "street": "Avenida São Paulo Apóstolo",
        "zipcode": "68928-063"
    },
    {
        "city": "Santana",
        "state": "AP",
        "district": "Paraíso",
        "street": "Avenida São João Apóstolo",
        "zipcode": "68928-075"
    },
    {
        "city": "Santana",
        "state": "AP",
        "district": "Paraíso",
        "street": "Avenida Júlio Cardoso",
        "zipcode": "68928-096"
    },
    {
        "city": "Santana",
        "state": "AP",
        "district": "Fonte Nova",
        "street": "Avenida Dom Pedro I",
        "zipcode": "68928-163"
    },
    {
        "city": "Santana",
        "state": "AP",
        "district": "Fonte Nova",
        "street": "Avenida Princesa Izabel",
        "zipcode": "68928-166"
    },
    {
        "city": "Santana",
        "state": "AP",
        "district": "Fonte Nova",
        "street": "Avenida Santana",
        "zipcode": "68928-196"
    },
    {
        "city": "Santana",
        "state": "AP",
        "district": "Fonte Nova",
        "street": "Avenida das Palmeiras (Prq Laranjeiras)",
        "zipcode": "68928-247"
    },
    {
        "city": "Santana",
        "state": "AP",
        "district": "Fonte Nova",
        "street": "Avenida Brasilia",
        "zipcode": "68928-316"
    },
    {
        "city": "Santana",
        "state": "AP",
        "district": "Distrito Industrial",
        "street": "Ramal do Cajueiro",
        "zipcode": "68929-504"
    },
    {
        "city": "Santana",
        "state": "AP",
        "district": "Distrito Industrial",
        "street": "Rua Oito",
        "zipcode": "68929-516"
    },
    {
        "city": "Santana",
        "state": "AP",
        "district": "Distrito Industrial",
        "street": "Rua Dez",
        "zipcode": "68929-512"
    },
    {
        "city": "Santana",
        "state": "AP",
        "district": "Provedor",
        "street": "Rua Capitão Euclides Rodrigues",
        "zipcode": "68927-447"
    },
    {
        "city": "Santana",
        "state": "AP",
        "district": "Provedor",
        "street": "Travessa L5 do Provedor",
        "zipcode": "68927-450"
    },
    {
        "city": "Santana",
        "state": "AP",
        "district": "Provedor",
        "street": "Travessa L9 do Provedor",
        "zipcode": "68927-459"
    },
    {
        "city": "Santana",
        "state": "AP",
        "district": "Paraíso",
        "street": "Travessa Quatro",
        "zipcode": "68928-033"
    },
    {
        "city": "Santana",
        "state": "AP",
        "district": "Paraíso",
        "street": "Rua Presidente Getúlio Vargas",
        "zipcode": "68928-039"
    },
    {
        "city": "Santana",
        "state": "AP",
        "district": "Paraíso",
        "street": "Travessa América",
        "zipcode": "68928-087"
    },
    {
        "city": "Santana",
        "state": "AP",
        "district": "Paraíso",
        "street": "Travessa H",
        "zipcode": "68928-108"
    },
    {
        "city": "Santana",
        "state": "AP",
        "district": "Paraíso",
        "street": "Travessa M",
        "zipcode": "68928-117"
    },
    {
        "city": "Santana",
        "state": "AP",
        "district": "Provedor",
        "street": "Travessa L16 do Provedor",
        "zipcode": "68927-372"
    },
    {
        "city": "Santana",
        "state": "AP",
        "district": "Provedor",
        "street": "Travessa L13 do Provedor",
        "zipcode": "68927-375"
    },
    {
        "city": "Santana",
        "state": "AP",
        "district": "Paraíso",
        "street": "Rua Presidente Juscelino Kubitschek de Oliveira",
        "zipcode": "68928-069"
    },
    {
        "city": "Santana",
        "state": "AP",
        "district": "Paraíso",
        "street": "Rodovia Duca Serra",
        "zipcode": "68928-084"
    },
    {
        "city": "Santana",
        "state": "AP",
        "district": "Paraíso",
        "street": "Travessa N",
        "zipcode": "68928-120"
    },
    {
        "city": "Santana",
        "state": "AP",
        "district": "Fonte Nova",
        "street": "Rua Presidente Floriano Peixoto",
        "zipcode": "68928-130"
    },
    {
        "city": "Santana",
        "state": "AP",
        "district": "Fonte Nova",
        "street": "Rua dos Imigrantes",
        "zipcode": "68928-169"
    },
    {
        "city": "Santana",
        "state": "AP",
        "district": "Vila Amazonas",
        "street": "Rua D 29",
        "zipcode": "68926-098"
    },
    {
        "city": "Santana",
        "state": "AP",
        "district": "Vila Amazonas",
        "street": "Rua D 8",
        "zipcode": "68926-154"
    },
    {
        "city": "Santana",
        "state": "AP",
        "district": "Vila Amazonas",
        "street": "Rua D 7",
        "zipcode": "68926-158"
    },
    {
        "city": "Santana",
        "state": "AP",
        "district": "Vila Amazonas",
        "street": "Rua D 6B",
        "zipcode": "68926-206"
    },
    {
        "city": "Santana",
        "state": "AP",
        "district": "Fortaleza",
        "street": "Rua Piauí",
        "zipcode": "68926-340"
    },
    {
        "city": "Santana",
        "state": "AP",
        "district": "Fortaleza",
        "street": "Rua da Fábrica",
        "zipcode": "68926-355"
    },
    {
        "city": "Santana",
        "state": "AP",
        "district": "Daniel",
        "street": "Avenida Pedro da Costa Favela",
        "zipcode": "68926-076"
    },
    {
        "city": "Santana",
        "state": "AP",
        "district": "Vila Amazonas",
        "street": "Rua D 27",
        "zipcode": "68926-110"
    },
    {
        "city": "Santana",
        "state": "AP",
        "district": "Vila Amazonas",
        "street": "Rua D 26",
        "zipcode": "68926-114"
    },
    {
        "city": "Santana",
        "state": "AP",
        "district": "Vila Amazonas",
        "street": "Rua D 25",
        "zipcode": "68926-118"
    },
    {
        "city": "Santana",
        "state": "AP",
        "district": "Vila Amazonas",
        "street": "Rua D 10",
        "zipcode": "68926-146"
    },
    {
        "city": "Santana",
        "state": "AP",
        "district": "Fortaleza",
        "street": "Avenida Rio Solimões",
        "zipcode": "68926-380"
    },
    {
        "city": "Santana",
        "state": "AP",
        "district": "Novo Horizonte",
        "street": "Travessa B",
        "zipcode": "68926-016"
    },
    {
        "city": "Santana",
        "state": "AP",
        "district": "Novo Horizonte",
        "street": "Travessa C",
        "zipcode": "68926-020"
    },
    {
        "city": "Santana",
        "state": "AP",
        "district": "Novo Horizonte",
        "street": "Travessa América",
        "zipcode": "68926-052"
    },
    {
        "city": "Santana",
        "state": "AP",
        "district": "Fortaleza",
        "street": "Travessa Rio Tocantins",
        "zipcode": "68926-360"
    },
    {
        "city": "Santana",
        "state": "AP",
        "district": "Fortaleza",
        "street": "Travessa Rio Salvador",
        "zipcode": "68926-390"
    },
    {
        "city": "Santana",
        "state": "AP",
        "district": "Fortaleza",
        "street": "Travessa Rio Xingu",
        "zipcode": "68926-400"
    },
    {
        "city": "Santana",
        "state": "AP",
        "district": "Fortaleza",
        "street": "Travessa Rio Preto",
        "zipcode": "68926-405"
    },
    {
        "city": "Santana",
        "state": "AP",
        "district": "Remedios",
        "street": "Travessa Ângelo de Moraes",
        "zipcode": "68927-018"
    },
    {
        "city": "Santana",
        "state": "AP",
        "district": "Remedios",
        "street": "Travessa 9",
        "zipcode": "68927-048"
    },
    {
        "city": "Santana",
        "state": "AP",
        "district": "Provedor I",
        "street": "Travessa Mário Quirino",
        "zipcode": "68927-122"
    },
    {
        "city": "Santana",
        "state": "AP",
        "district": "Provedor I",
        "street": "Travessa 13",
        "zipcode": "68927-143"
    },
    {
        "city": "Santana",
        "state": "AP",
        "district": "Provedor I",
        "street": "Travessa 18",
        "zipcode": "68927-149"
    },
    {
        "city": "Santana",
        "state": "AP",
        "district": "Provedor I",
        "street": "Travessa 25",
        "zipcode": "68927-179"
    },
    {
        "city": "Santana",
        "state": "AP",
        "district": "Provedor",
        "street": "Travessa L8 do Provedor",
        "zipcode": "68927-456"
    },
    {
        "city": "Santana",
        "state": "AP",
        "district": "Novo Horizonte",
        "street": "Avenida Irmãos Lobato Monteiro",
        "zipcode": "68926-044"
    },
    {
        "city": "Santana",
        "state": "AP",
        "district": "Vila Amazonas",
        "street": "Rua D 24",
        "zipcode": "68926-122"
    },
    {
        "city": "Santana",
        "state": "AP",
        "district": "Fortaleza",
        "street": "Travessa Rio Pirativa",
        "zipcode": "68926-330"
    },
    {
        "city": "Santana",
        "state": "AP",
        "district": "Hospitalidade",
        "street": "Avenida Brasilia",
        "zipcode": "68925-165"
    },
    {
        "city": "Santana",
        "state": "AP",
        "district": "Central",
        "street": "Avenida Coelho Neto",
        "zipcode": "68925-183"
    },
    {
        "city": "Santana",
        "state": "AP",
        "district": "Provedor I",
        "street": "Travessa 15",
        "zipcode": "68927-131"
    },
    {
        "city": "Santana",
        "state": "AP",
        "district": "Paraíso",
        "street": "Travessa Três",
        "zipcode": "68928-030"
    },
    {
        "city": "Santana",
        "state": "AP",
        "district": "Ilha de Santana",
        "street": "Rua D",
        "zipcode": "68933-015"
    },
    {
        "city": "Santana",
        "state": "AP",
        "district": "Nova Brasília",
        "street": "Travessa Américo Vespúcio",
        "zipcode": "68927-347"
    },
    {
        "city": "Santana",
        "state": "AP",
        "district": "Nova Brasília",
        "street": "Travessa Manoel Abreu de Souza",
        "zipcode": "68927-350"
    },
    {
        "city": "Santana",
        "state": "AP",
        "district": "Remedios",
        "street": "Rua Pastor Sozinho",
        "zipcode": "68927-078"
    },
    {
        "city": "Santana",
        "state": "AP",
        "district": "Nova Brasília",
        "street": "Avenida Antonio Nunes",
        "zipcode": "68927-248"
    },
    {
        "city": "Santana",
        "state": "AP",
        "district": "Provedor",
        "street": "Rua General Ubaldo Figueira",
        "zipcode": "68927-366"
    },
    {
        "city": "Santana",
        "state": "AP",
        "district": "Provedor I",
        "street": "Avenida 12",
        "zipcode": "68927-161"
    },
    {
        "city": "Santana",
        "state": "AP",
        "district": "Provedor",
        "street": "Travessa L15 do Provedor",
        "zipcode": "68927-396"
    },
    {
        "city": "Santana",
        "state": "AP",
        "district": "Comercial",
        "street": "Avenida 30 de Novembro",
        "zipcode": "68925-034"
    },
    {
        "city": "Santana",
        "state": "AP",
        "district": "Comercial",
        "street": "Rua Calçoene",
        "zipcode": "68925-073"
    },
    {
        "city": "Santana",
        "state": "AP",
        "district": "Comercial",
        "street": "Avenida 7 de Setembro",
        "zipcode": "68925-108"
    },
    {
        "city": "Santana",
        "state": "AP",
        "district": "Provedor I",
        "street": "Travessa 21",
        "zipcode": "68927-191"
    },
    {
        "city": "Santana",
        "state": "AP",
        "district": "Fonte Nova",
        "street": "Alameda C",
        "zipcode": "68928-301"
    },
    {
        "city": "Santana",
        "state": "AP",
        "district": "Nova Brasília",
        "street": "Travessa Oscar Santos",
        "zipcode": "68927-353"
    },
    {
        "city": "Santana",
        "state": "AP",
        "district": "Hospitalidade",
        "street": "Avenida Dom Pedro I",
        "zipcode": "68925-147"
    },
    {
        "city": "Santana",
        "state": "AP",
        "district": "Hospitalidade",
        "street": "Avenida Coelho Neto",
        "zipcode": "68925-162"
    },
    {
        "city": "Santana",
        "state": "AP",
        "district": "Comercial",
        "street": "Avenida José de Anchieta",
        "zipcode": "68925-114"
    },
    {
        "city": "Santana",
        "state": "AP",
        "district": "Hospitalidade",
        "street": "Avenida José de Anchieta",
        "zipcode": "68925-120"
    },
    {
        "city": "Santana",
        "state": "AP",
        "district": "Hospitalidade",
        "street": "Rua A1",
        "zipcode": "68925-126"
    },
    {
        "city": "Santana",
        "state": "AP",
        "district": "Hospitalidade",
        "street": "Rua Presidente John Fitzgerald Kennedy",
        "zipcode": "68925-138"
    },
    {
        "city": "Santana",
        "state": "AP",
        "district": "Hospitalidade",
        "street": "Rua General Ubaldo Figueira",
        "zipcode": "68925-168"
    },
    {
        "city": "Santana",
        "state": "AP",
        "district": "Central",
        "street": "Rua General Ubaldo Figueira",
        "zipcode": "68925-186"
    },
    {
        "city": "Santana",
        "state": "AP",
        "district": "Central",
        "street": "Avenida São João Apóstolo",
        "zipcode": "68925-243"
    },
    {
        "city": "Santana",
        "state": "AP",
        "district": "Elesbão",
        "street": "Rua da Piçarreira",
        "zipcode": "68925-250"
    },
    {
        "city": "Santana",
        "state": "AP",
        "district": "Elesbão",
        "street": "Rua Raimundo Carvalho de Azevedo",
        "zipcode": "68925-270"
    },
    {
        "city": "Santana",
        "state": "AP",
        "district": "Central",
        "street": "Avenida Poeta Castro Alves",
        "zipcode": "68925-970"
    },
    {
        "city": "Santana",
        "state": "AP",
        "district": "Novo Horizonte",
        "street": "Rua Cláudio Lúcio Monteiro",
        "zipcode": "68926-000"
    },
    {
        "city": "Santana",
        "state": "AP",
        "district": "Novo Horizonte",
        "street": "Avenida Odecia Marques Pereira",
        "zipcode": "68926-032"
    },
    {
        "city": "Santana",
        "state": "AP",
        "district": "Fortaleza",
        "street": "Rodovia Comandante Pedro Salvador Diniz",
        "zipcode": "68926-300"
    },
    {
        "city": "Santana",
        "state": "AP",
        "district": "Central",
        "street": "Avenida Rio Branco",
        "zipcode": "68925-201"
    },
    {
        "city": "Santana",
        "state": "AP",
        "district": "Central",
        "street": "Avenida Poeta Castro Alves",
        "zipcode": "68925-219"
    },
    {
        "city": "Santana",
        "state": "AP",
        "district": "Central",
        "street": "Rodovia Duca Serra",
        "zipcode": "68925-231"
    },
    {
        "city": "Santana",
        "state": "AP",
        "district": "Vila Amazonas",
        "street": "Rua D 28",
        "zipcode": "68926-106"
    },
    {
        "city": "Santana",
        "state": "AP",
        "district": "Nova Brasília",
        "street": "Beco 15 de Novembro",
        "zipcode": "68927-281"
    },
    {
        "city": "Santana",
        "state": "AP",
        "district": "Hospitalidade",
        "street": "Travessa Dom Pedro I",
        "zipcode": "68925-150"
    },
    {
        "city": "Santana",
        "state": "AP",
        "district": "Elesbão",
        "street": "Travessa João Moreira",
        "zipcode": "68925-274"
    },
    {
        "city": "Santana",
        "state": "AP",
        "district": "Elesbão",
        "street": "Travessa Dona Maria",
        "zipcode": "68925-282"
    },
    {
        "city": "Santana",
        "state": "AP",
        "district": "Elesbão",
        "street": "1ª Travessa do Elesbão",
        "zipcode": "68925-322"
    },
    {
        "city": "Santana",
        "state": "AP",
        "district": "Elesbão",
        "street": "2ª Travessa do Elesbão",
        "zipcode": "68925-326"
    },
    {
        "city": "Santana",
        "state": "AP",
        "district": "Elesbão",
        "street": "6ª Travessa do Elesbão",
        "zipcode": "68925-342"
    },
    {
        "city": "Santana",
        "state": "AP",
        "district": "Elesbão",
        "street": "Travessa Josiel Oliveira Cardoso",
        "zipcode": "68925-290"
    },
    {
        "city": "Santana",
        "state": "AP",
        "district": "Provedor I",
        "street": "Travessa 23",
        "zipcode": "68927-185"
    },
    {
        "city": "Santana",
        "state": "AP",
        "district": "Provedor I",
        "street": "21ª Travessa de Abril",
        "zipcode": "68927-203"
    },
    {
        "city": "Santana",
        "state": "AP",
        "district": "Provedor I",
        "street": "Travessa Raimundo Vasques",
        "zipcode": "68927-224"
    },
    {
        "city": "Santana",
        "state": "AP",
        "district": "Nova Brasília",
        "street": "Travessa 1º de Maio",
        "zipcode": "68927-305"
    },
    {
        "city": "Santana",
        "state": "AP",
        "district": "Elesbão",
        "street": "Travessa Maria Ignes",
        "zipcode": "68925-286"
    },
    {
        "city": "Santana",
        "state": "AP",
        "district": "Novo Horizonte",
        "street": "Avenida Manoel Francisco Guedes",
        "zipcode": "68926-004"
    },
    {
        "city": "Santana",
        "state": "AP",
        "district": "Central",
        "street": "Avenida das Nações",
        "zipcode": "68925-207"
    },
    {
        "city": "Santana",
        "state": "AP",
        "district": "Remedios",
        "street": "Avenida Espedito dos Santos",
        "zipcode": "68927-084"
    },
    {
        "city": "Santana",
        "state": "AP",
        "district": "Provedor I",
        "street": "Avenida Walter Lopes",
        "zipcode": "68927-209"
    },
    {
        "city": "Santana",
        "state": "AP",
        "district": "Nova Brasília",
        "street": "Travessa Stélio de Oliveira",
        "zipcode": "68927-263"
    },
    {
        "city": "Santana",
        "state": "AP",
        "district": "Vila Amazonas",
        "street": "Rua D 20",
        "zipcode": "68926-138"
    },
    {
        "city": "Santana",
        "state": "AP",
        "district": "Remedios",
        "street": "Avenida Maria de Oliveira Colares",
        "zipcode": "68927-000"
    },
    {
        "city": "Santana",
        "state": "AP",
        "district": "Remedios",
        "street": "Avenida Bento Maciel Parente",
        "zipcode": "68927-012"
    },
    {
        "city": "Santana",
        "state": "AP",
        "district": "Remedios",
        "street": "Travessa 15",
        "zipcode": "68927-051"
    },
    {
        "city": "Santana",
        "state": "AP",
        "district": "Remedios",
        "street": "Avenida Tocantinópolis",
        "zipcode": "68927-057"
    },
    {
        "city": "Santana",
        "state": "AP",
        "district": "Remedios",
        "street": "Avenida Feliciana de Silva",
        "zipcode": "68927-087"
    },
    {
        "city": "Santana",
        "state": "AP",
        "district": "Provedor I",
        "street": "Avenida Palmira Miranda Andrade",
        "zipcode": "68927-125"
    },
    {
        "city": "Santana",
        "state": "AP",
        "district": "Nova Brasília",
        "street": "Travessa S Camilo",
        "zipcode": "68927-320"
    },
    {
        "city": "Santana",
        "state": "AP",
        "district": "Remedios",
        "street": "Avenida Portílio de Melo",
        "zipcode": "68927-009"
    },
    {
        "city": "Santana",
        "state": "AP",
        "district": "Provedor I",
        "street": "Rua Pastor Sozinho",
        "zipcode": "68927-110"
    },
    {
        "city": "Santana",
        "state": "AP",
        "district": "Provedor I",
        "street": "Travessa 19",
        "zipcode": "68927-152"
    },
    {
        "city": "Santana",
        "state": "AP",
        "district": "Comercial",
        "street": "Travessa Esperança",
        "zipcode": "68925-046"
    },
    {
        "city": "Santana",
        "state": "AP",
        "district": "Comercial",
        "street": "Rua 31 de Março",
        "zipcode": "68925-049"
    },
    {
        "city": "Santana",
        "state": "AP",
        "district": "Comercial",
        "street": "Travessa Rio Jari",
        "zipcode": "68925-061"
    },
    {
        "city": "Santana",
        "state": "AP",
        "district": "Comercial",
        "street": "Travessa Tartarugalzinho",
        "zipcode": "68925-064"
    },
    {
        "city": "Santana",
        "state": "AP",
        "district": "Comercial",
        "street": "Travessa Santana",
        "zipcode": "68925-079"
    },
    {
        "city": "Santana",
        "state": "AP",
        "district": "Comercial",
        "street": "Rua Pedro Salvador Diniz",
        "zipcode": "68925-102"
    },
    {
        "city": "Santana",
        "state": "AP",
        "district": "Provedor I",
        "street": "Travessa 20",
        "zipcode": "68927-155"
    },
    {
        "city": "Santana",
        "state": "AP",
        "district": "Paraíso",
        "street": "Rua Osvaldo Cruz",
        "zipcode": "68928-003"
    },
    {
        "city": "Santana",
        "state": "AP",
        "district": "Paraíso",
        "street": "Travessa Dois",
        "zipcode": "68928-027"
    },
    {
        "city": "Santana",
        "state": "AP",
        "district": "Fonte Nova",
        "street": "Rua Everaldo Vasconcelos",
        "zipcode": "68928-181"
    },
    {
        "city": "Santana",
        "state": "AP",
        "district": "Fonte Nova",
        "street": "Travessa L8 da Fonte Nova",
        "zipcode": "68928-220"
    },
    {
        "city": "Santana",
        "state": "AP",
        "district": "Fonte Nova",
        "street": "Travessa L10 da Fonte Nova",
        "zipcode": "68928-226"
    },
    {
        "city": "Santana",
        "state": "AP",
        "district": "Comercial",
        "street": "Rua Poeta Machado de Assis",
        "zipcode": "68925-093"
    },
    {
        "city": "Santana",
        "state": "AP",
        "district": "Hospitalidade",
        "street": "Avenida Ruy Barbosa",
        "zipcode": "68925-159"
    },
    {
        "city": "Santana",
        "state": "AP",
        "district": "Central",
        "street": "Rua Pedro Salvador Diniz",
        "zipcode": "68925-180"
    },
    {
        "city": "Santana",
        "state": "AP",
        "district": "Elesbão",
        "street": "Ramal Olaria",
        "zipcode": "68925-318"
    },
    {
        "city": "Santana",
        "state": "AP",
        "district": "Novo Horizonte",
        "street": "Avenida Maria Izabel Pereira da Silva",
        "zipcode": "68926-040"
    },
    {
        "city": "Santana",
        "state": "AP",
        "district": "Vila Amazonas",
        "street": "Rua D 23",
        "zipcode": "68926-126"
    },
    {
        "city": "Santana",
        "state": "AP",
        "district": "Vila Amazonas",
        "street": "Rua D 14",
        "zipcode": "68926-162"
    },
    {
        "city": "Santana",
        "state": "AP",
        "district": "Comercial",
        "street": "Avenida Poeta Castro Alves",
        "zipcode": "68925-111"
    },
    {
        "city": "Santana",
        "state": "AP",
        "district": "Vila Amazonas",
        "street": "Rua C 1",
        "zipcode": "68926-142"
    },
    {
        "city": "Santana",
        "state": "AP",
        "district": "Nova Brasília",
        "street": "Rua Adálvaro Alves Cavalcanti",
        "zipcode": "68927-290"
    },
    {
        "city": "Santana",
        "state": "AP",
        "district": "Paraíso",
        "street": "Avenida Poeta Castro Alves",
        "zipcode": "68928-051"
    },
    {
        "city": "Santana",
        "state": "AP",
        "district": "Comercial",
        "street": "1ª Travessa Jesus de Nazaré",
        "zipcode": "68925-019"
    },
    {
        "city": "Santana",
        "state": "AP",
        "district": "Comercial",
        "street": "2ª Travessa Beira",
        "zipcode": "68925-028"
    },
    {
        "city": "Santana",
        "state": "AP",
        "district": "Comercial",
        "street": "Travessa 30 de Novembro",
        "zipcode": "68925-037"
    },
    {
        "city": "Santana",
        "state": "AP",
        "district": "Hospitalidade",
        "street": "Travessa Princesa Izabel",
        "zipcode": "68925-132"
    },
    {
        "city": "Santana",
        "state": "AP",
        "district": "Elesbão",
        "street": "Travessa das Mangueiras",
        "zipcode": "68925-262"
    },
    {
        "city": "Santana",
        "state": "AP",
        "district": "Novo Horizonte",
        "street": "Travessa E",
        "zipcode": "68926-021"
    },
    {
        "city": "Santana",
        "state": "AP",
        "district": "Fortaleza",
        "street": "Travessa RAIMUNDO PEREIRA DE SOUZA",
        "zipcode": "68926-361"
    },
    {
        "city": "Santana",
        "state": "AP",
        "district": "Fortaleza",
        "street": "Travessa Rio Vila Nova",
        "zipcode": "68926-375"
    },
    {
        "city": "Santana",
        "state": "AP",
        "district": "Fortaleza",
        "street": "Travessa Rio Macacoari",
        "zipcode": "68926-320"
    },
    {
        "city": "Santana",
        "state": "AP",
        "district": "Provedor I",
        "street": "Travessa 24",
        "zipcode": "68927-182"
    },
    {
        "city": "Santana",
        "state": "AP",
        "district": "Nova Brasília",
        "street": "Travessa C Abreu",
        "zipcode": "68927-245"
    },
    {
        "city": "Santana",
        "state": "AP",
        "district": "Provedor",
        "street": "Travessa Coelho Vasques",
        "zipcode": "68927-414"
    },
    {
        "city": "Santana",
        "state": "AP",
        "district": "Fonte Nova",
        "street": "Travessa L3 da Fonte Nova",
        "zipcode": "68928-205"
    },
    {
        "city": "Santana",
        "state": "AP",
        "district": "Fonte Nova",
        "street": "2ª Travessa da São João",
        "zipcode": "68928-286"
    },
    {
        "city": "Santana",
        "state": "AP",
        "district": "Novo Horizonte",
        "street": "Avenida Benedito de Jesus Cardoso",
        "zipcode": "68926-056"
    },
    {
        "city": "Santana",
        "state": "AP",
        "district": "Vila Amazonas",
        "street": "Avenida B 1",
        "zipcode": "68926-102"
    },
    {
        "city": "Santana",
        "state": "AP",
        "district": "Remedios",
        "street": "Avenida Francisco de Melo Parente",
        "zipcode": "68927-006"
    },
    {
        "city": "Santana",
        "state": "AP",
        "district": "Paraíso",
        "street": "Avenida Dom Pedro I",
        "zipcode": "68928-012"
    },
    {
        "city": "Santana",
        "state": "AP",
        "district": "Distrito Industrial",
        "street": "Rodovia Macapá",
        "zipcode": "68929-508"
    },
    {
        "city": "Santana",
        "state": "AP",
        "district": "Ilha de Santana",
        "street": "Rua B",
        "zipcode": "68933-005"
    },
    {
        "city": "Santana",
        "state": "AP",
        "district": "Hospitalidade",
        "street": "Avenida Princesa Izabel",
        "zipcode": "68925-129"
    },
    {
        "city": "Santana",
        "state": "AP",
        "district": "Central",
        "street": "Rua Capitão Euclides Rodrigues",
        "zipcode": "68925-192"
    },
    {
        "city": "Santana",
        "state": "AP",
        "district": "Central",
        "street": "Avenida Ministro Rui Barbosa",
        "zipcode": "68925-198"
    },
    {
        "city": "Santana",
        "state": "AP",
        "district": "Central",
        "street": "Avenida 15 de Novembro",
        "zipcode": "68925-213"
    },
    {
        "city": "Santana",
        "state": "AP",
        "district": "Central",
        "street": "Avenida José de Anchieta",
        "zipcode": "68925-216"
    },
    {
        "city": "Santana",
        "state": "AP",
        "district": "Central",
        "street": "Avenida Santana",
        "zipcode": "68925-228"
    },
    {
        "city": "Santana",
        "state": "AP",
        "district": "Elesbão",
        "street": "Travessa Manga",
        "zipcode": "68925-298"
    },
    {
        "city": "Santana",
        "state": "AP",
        "district": "Remedios",
        "street": "Travessa Veiga Cabral",
        "zipcode": "68927-072"
    },
    {
        "city": "Santana",
        "state": "AP",
        "district": "Distrito Industrial",
        "street": "Rua Doze",
        "zipcode": "68929-540"
    },
    {
        "city": "Santana",
        "state": "AP",
        "district": "Remedios",
        "street": "Travessa 8",
        "zipcode": "68927-045"
    },
    {
        "city": "Santana",
        "state": "AP",
        "district": "Provedor I",
        "street": "Avenida 9",
        "zipcode": "68927-170"
    },
    {
        "city": "Santana",
        "state": "AP",
        "district": "Distrito Industrial",
        "street": "Avenida Um",
        "zipcode": "68929-520"
    },
    {
        "city": "Santana",
        "state": "AP",
        "district": "Comercial",
        "street": "Rua Beira",
        "zipcode": "68925-025"
    },
    {
        "city": "Santana",
        "state": "AP",
        "district": "Provedor",
        "street": "Travessa L6 do Provedor",
        "zipcode": "68927-381"
    },
    {
        "city": "Santana",
        "state": "AP",
        "district": "Provedor",
        "street": "Travessa L14 do Provedor",
        "zipcode": "68927-393"
    },
    {
        "city": "Santana",
        "state": "AP",
        "district": "Fonte Nova",
        "street": "Rua das Rosas",
        "zipcode": "68928-241"
    },
    {
        "city": "Santana",
        "state": "AP",
        "district": "Fonte Nova",
        "street": "Travessa Jasmim",
        "zipcode": "68928-346"
    },
    {
        "city": "Santana",
        "state": "AP",
        "district": "Provedor",
        "street": "Travessa Apolônio Gomes",
        "zipcode": "68927-360"
    },
    {
        "city": "Santana",
        "state": "AP",
        "district": "Paraíso",
        "street": "Rua Presidente Tancredo Neves",
        "zipcode": "68928-081"
    },
    {
        "city": "Santana",
        "state": "AP",
        "district": "Paraíso",
        "street": "Rua Presidente Floriano Peixoto",
        "zipcode": "68928-093"
    },
    {
        "city": "Santana",
        "state": "AP",
        "district": "Paraíso",
        "street": "Travessa I",
        "zipcode": "68928-111"
    },
    {
        "city": "Santana",
        "state": "AP",
        "district": "Comercial",
        "street": "Avenida Ferreira Gomes",
        "zipcode": "68925-067"
    },
    {
        "city": "Santana",
        "state": "AP",
        "district": "Vila Amazonas",
        "street": "Rua D 13",
        "zipcode": "68926-166"
    },
    {
        "city": "Santana",
        "state": "AP",
        "district": "Provedor",
        "street": "Avenida Palmira Miranda Andrade",
        "zipcode": "68927-363"
    },
    {
        "city": "Santana",
        "state": "AP",
        "district": "Fonte Nova",
        "street": "Avenida Presidente Marechal Humberto de Alencar Castelo Branco",
        "zipcode": "68928-193"
    },
    {
        "city": "Santana",
        "state": "AP",
        "district": "Comercial",
        "street": "2ª Travessa Shallon",
        "zipcode": "68925-010"
    },
    {
        "city": "Santana",
        "state": "AP",
        "district": "Central",
        "street": "Travessa Nossa Senhora de Fátima",
        "zipcode": "68925-237"
    },
    {
        "city": "Santana",
        "state": "AP",
        "district": "Elesbão",
        "street": "2ª Travessa da Piçarreira",
        "zipcode": "68925-258"
    },
    {
        "city": "Santana",
        "state": "AP",
        "district": "Elesbão",
        "street": "Travessa Tapereba",
        "zipcode": "68925-306"
    },
    {
        "city": "Santana",
        "state": "AP",
        "district": "Central",
        "street": "Vila do Portuário do Igarapé da Fortaleza s/n  AGC Portuário do Igarapé da Fortaleza",
        "zipcode": "68925-973"
    },
    {
        "city": "Santana",
        "state": "AP",
        "district": "Fortaleza",
        "street": "Travessa Rio Matapi Mirim",
        "zipcode": "68926-315"
    },
    {
        "city": "Santana",
        "state": "AP",
        "district": "Fortaleza",
        "street": "Travessa Igarapé do Lago",
        "zipcode": "68926-325"
    },
    {
        "city": "Santana",
        "state": "AP",
        "district": "Remedios",
        "street": "Travessa 2",
        "zipcode": "68927-024"
    },
    {
        "city": "Santana",
        "state": "AP",
        "district": "Remedios",
        "street": "Travessa Senador Nilo Coelho",
        "zipcode": "68927-066"
    },
    {
        "city": "Santana",
        "state": "AP",
        "district": "Provedor I",
        "street": "Travessa 12",
        "zipcode": "68927-140"
    },
    {
        "city": "Santana",
        "state": "AP",
        "district": "Remedios",
        "street": "Travessa Gomes Freire de Andrade",
        "zipcode": "68927-021"
    },
    {
        "city": "Santana",
        "state": "AP",
        "district": "Provedor",
        "street": "Avenida 25 de Dezembro",
        "zipcode": "68927-429"
    },
    {
        "city": "Santana",
        "state": "AP",
        "district": "Fonte Nova",
        "street": "Travessa Bem",
        "zipcode": "68928-343"
    },
    {
        "city": "Santana",
        "state": "AP",
        "district": "Distrito Industrial",
        "street": "Rua Cinco",
        "zipcode": "68929-544"
    },
    {
        "city": "Santana",
        "state": "AP",
        "district": "Provedor I",
        "street": "Travessa 11",
        "zipcode": "68927-137"
    },
    {
        "city": "Santana",
        "state": "AP",
        "district": "Remedios",
        "street": "Rua Presidente Arthur Costa e Silva",
        "zipcode": "68927-075"
    },
    {
        "city": "Santana",
        "state": "AP",
        "district": "Remedios",
        "street": "Travessa Osvaldo de Andrade",
        "zipcode": "68927-099"
    },
    {
        "city": "Santana",
        "state": "AP",
        "district": "Nova Brasília",
        "street": "Travessa Pedro Teixeira",
        "zipcode": "68927-251"
    },
    {
        "city": "Santana",
        "state": "AP",
        "district": "Nova Brasília",
        "street": "Travessa 25 de Dezembro",
        "zipcode": "68927-311"
    },
    {
        "city": "Santana",
        "state": "AP",
        "district": "Fonte Nova",
        "street": "Rua Alídio Rodrigues",
        "zipcode": "68928-145"
    },
    {
        "city": "Santana",
        "state": "AP",
        "district": "Provedor I",
        "street": "Travessa A R Lima",
        "zipcode": "68927-116"
    },
    {
        "city": "Santana",
        "state": "AP",
        "district": "Comercial",
        "street": "Avenida 14 de Janeiro",
        "zipcode": "68925-022"
    },
    {
        "city": "Santana",
        "state": "AP",
        "district": "Comercial",
        "street": "Rua Rio Jari",
        "zipcode": "68925-058"
    },
    {
        "city": "Santana",
        "state": "AP",
        "district": "Comercial",
        "street": "Rua Presidente John Fitzgerald Kennedy",
        "zipcode": "68925-096"
    },
    {
        "city": "Santana",
        "state": "AP",
        "district": "Comercial",
        "street": "Avenida Jesus de Nazaré",
        "zipcode": "68925-013"
    },
    {
        "city": "Santana",
        "state": "AP",
        "district": "Comercial",
        "street": "Avenida Esperança",
        "zipcode": "68925-043"
    },
    {
        "city": "Santana",
        "state": "AP",
        "district": "Comercial",
        "street": "Avenida Amapá",
        "zipcode": "68925-055"
    },
    {
        "city": "Santana",
        "state": "AP",
        "district": "Hospitalidade",
        "street": "Avenida das Nações",
        "zipcode": "68925-144"
    },
    {
        "city": "Santana",
        "state": "AP",
        "district": "Comercial",
        "street": "Avenida Shallon",
        "zipcode": "68925-004"
    },
    {
        "city": "Santana",
        "state": "AP",
        "district": "Comercial",
        "street": "Rua Macapá",
        "zipcode": "68925-070"
    },
    {
        "city": "Santana",
        "state": "AP",
        "district": "Comercial",
        "street": "Avenida Santana",
        "zipcode": "68925-076"
    },
    {
        "city": "Santana",
        "state": "AP",
        "district": "Comercial",
        "street": "Rua Presidente Arthur Costa e Silva",
        "zipcode": "68925-099"
    },
    {
        "city": "Santana",
        "state": "AP",
        "district": "Hospitalidade",
        "street": "Avenida 15 de Novembro",
        "zipcode": "68925-141"
    },
    {
        "city": "Santana",
        "state": "AP",
        "district": "Hospitalidade",
        "street": "Avenida Rio Branco",
        "zipcode": "68925-153"
    },
    {
        "city": "Santana",
        "state": "AP",
        "district": "Hospitalidade",
        "street": "Avenida Maria de Oliveira Colares",
        "zipcode": "68925-171"
    },
    {
        "city": "Santana",
        "state": "AP",
        "district": "Hospitalidade",
        "street": "Rua Pedro Salvador Diniz",
        "zipcode": "68925-177"
    },
    {
        "city": "Santana",
        "state": "AP",
        "district": "Central",
        "street": "Rua Padre Vitório Galiane",
        "zipcode": "68925-195"
    },
    {
        "city": "Santana",
        "state": "AP",
        "district": "Central",
        "street": "Avenida São Paulo Apóstolo",
        "zipcode": "68925-240"
    },
    {
        "city": "Santana",
        "state": "AP",
        "district": "Elesbão",
        "street": "Rua do Delta",
        "zipcode": "68925-294"
    },
    {
        "city": "Santana",
        "state": "AP",
        "district": "Central",
        "street": "Distrito da Ilha de Santana  ACC I Porto",
        "zipcode": "68925-974"
    },
    {
        "city": "Santana",
        "state": "AP",
        "district": "Novo Horizonte",
        "street": "Rua Raimundo Nunes da Cruz",
        "zipcode": "68926-024"
    },
    {
        "city": "Santana",
        "state": "AP",
        "district": "Novo Horizonte",
        "street": "Rua Maria Jacira Ferreira de Brito",
        "zipcode": "68926-028"
    },
    {
        "city": "Santana",
        "state": "AP",
        "district": "Novo Horizonte",
        "street": "Avenida José Cesar Braga",
        "zipcode": "68926-036"
    },
    {
        "city": "Santana",
        "state": "AP",
        "district": "Daniel",
        "street": "Rua Cláudio Lúcio Monteiro",
        "zipcode": "68926-060"
    },
    {
        "city": "Santana",
        "state": "AP",
        "district": "Daniel",
        "street": "Avenida Lucena de Azevedo",
        "zipcode": "68926-084"
    },
    {
        "city": "Santana",
        "state": "AP",
        "district": "Vila Amazonas",
        "street": "Avenida Lucena de Azevedo",
        "zipcode": "68926-090"
    },
    {
        "city": "Santana",
        "state": "AP",
        "district": "Vila Amazonas",
        "street": "Rua D 22",
        "zipcode": "68926-130"
    },
    {
        "city": "Santana",
        "state": "AP",
        "district": "Vila Amazonas",
        "street": "Rua D 3",
        "zipcode": "68926-186"
    },
    {
        "city": "Santana",
        "state": "AP",
        "district": "Vila Amazonas",
        "street": "Rua D 6A",
        "zipcode": "68926-202"
    },
    {
        "city": "Santana",
        "state": "AP",
        "district": "Comercial",
        "street": "2ª Travessa Jesus de Nazaré",
        "zipcode": "68925-016"
    },
    {
        "city": "Santana",
        "state": "AP",
        "district": "Comercial",
        "street": "1ª Travessa Beira",
        "zipcode": "68925-031"
    },
    {
        "city": "Santana",
        "state": "AP",
        "district": "Central",
        "street": "Travessa Oscar Santos",
        "zipcode": "68925-234"
    },
    {
        "city": "Santana",
        "state": "AP",
        "district": "Elesbão",
        "street": "1ª Travessa da Piçarreira",
        "zipcode": "68925-254"
    },
    {
        "city": "Santana",
        "state": "AP",
        "district": "Elesbão",
        "street": "Travessa Passagem do Sistema",
        "zipcode": "68925-278"
    },
    {
        "city": "Santana",
        "state": "AP",
        "district": "Elesbão",
        "street": "Travessa Biribá",
        "zipcode": "68925-310"
    },
    {
        "city": "Santana",
        "state": "AP",
        "district": "Elesbão",
        "street": "4ª Travessa do Elesbão",
        "zipcode": "68925-334"
    },
    {
        "city": "Santana",
        "state": "AP",
        "district": "Elesbão",
        "street": "5ª Travessa do Elesbão",
        "zipcode": "68925-338"
    },
    {
        "city": "Santana",
        "state": "AP",
        "district": "Novo Horizonte",
        "street": "Travessa A",
        "zipcode": "68926-012"
    },
    {
        "city": "Santana",
        "state": "AP",
        "district": "Novo Horizonte",
        "street": "Travessa F",
        "zipcode": "68926-017"
    },
    {
        "city": "Santana",
        "state": "AP",
        "district": "Comercial",
        "street": "Avenida Souza Mar",
        "zipcode": "68925-001"
    },
    {
        "city": "Santana",
        "state": "AP",
        "district": "Comercial",
        "street": "1ª Travessa Shallon",
        "zipcode": "68925-007"
    },
    {
        "city": "Santana",
        "state": "AP",
        "district": "Hospitalidade",
        "street": "Rua Cláudio Lúcio Monteiro",
        "zipcode": "68925-123"
    },
    {
        "city": "Santana",
        "state": "AP",
        "district": "Central",
        "street": "Avenida Dom Pedro I",
        "zipcode": "68925-204"
    },
    {
        "city": "Santana",
        "state": "AP",
        "district": "Novo Horizonte",
        "street": "Avenida Armando Firmino de Matos",
        "zipcode": "68926-048"
    },
    {
        "city": "Santana",
        "state": "AP",
        "district": "Vila Amazonas",
        "street": "Rodovia Comandante Pedro Salvador Diniz",
        "zipcode": "68926-214"
    },
    {
        "city": "Santana",
        "state": "AP",
        "district": "Provedor I",
        "street": "Avenida 13",
        "zipcode": "68927-158"
    },
    {
        "city": "Santana",
        "state": "AP",
        "district": "Provedor I",
        "street": "Travessa 22",
        "zipcode": "68927-188"
    },
    {
        "city": "Santana",
        "state": "AP",
        "district": "Provedor I",
        "street": "Rua Pedro Salvador Diniz",
        "zipcode": "68927-194"
    },
    {
        "city": "Santana",
        "state": "AP",
        "district": "Provedor I",
        "street": "Travessa 16",
        "zipcode": "68927-197"
    },
    {
        "city": "Santana",
        "state": "AP",
        "district": "Provedor I",
        "street": "Travessa 17",
        "zipcode": "68927-200"
    },
    {
        "city": "Santana",
        "state": "AP",
        "district": "Hospitalidade",
        "street": "Rua Poeta Machado de Assis",
        "zipcode": "68925-135"
    },
    {
        "city": "Santana",
        "state": "AP",
        "district": "Central",
        "street": "Avenida Princesa Izabel",
        "zipcode": "68925-210"
    },
    {
        "city": "Santana",
        "state": "AP",
        "district": "Central",
        "street": "Avenida Presidente Marechal Humberto de Alencar Castelo Branco",
        "zipcode": "68925-225"
    },
    {
        "city": "Santana",
        "state": "AP",
        "district": "Vila Amazonas",
        "street": "Rua D 21",
        "zipcode": "68926-134"
    },
    {
        "city": "Santana",
        "state": "AP",
        "district": "Vila Amazonas",
        "street": "Rua D 1",
        "zipcode": "68926-178"
    },
    {
        "city": "Santana",
        "state": "AP",
        "district": "Vila Amazonas",
        "street": "Rua D 5A",
        "zipcode": "68926-194"
    },
    {
        "city": "Santana",
        "state": "AP",
        "district": "Vila Amazonas",
        "street": "Rua D 5B",
        "zipcode": "68926-198"
    },
    {
        "city": "Santana",
        "state": "AP",
        "district": "Remedios",
        "street": "Rua Cláudio Lúcio Monteiro",
        "zipcode": "68927-003"
    },
    {
        "city": "Santana",
        "state": "AP",
        "district": "Provedor I",
        "street": "Rodovia Comandante Pedro Salvador Diniz",
        "zipcode": "68927-134"
    },
    {
        "city": "Santana",
        "state": "AP",
        "district": "Fortaleza",
        "street": "Travessa Rio Madeira",
        "zipcode": "68926-305"
    },
    {
        "city": "Santana",
        "state": "AP",
        "district": "Fortaleza",
        "street": "Travessa Igarapé Maruanum",
        "zipcode": "68926-335"
    },
    {
        "city": "Santana",
        "state": "AP",
        "district": "Fortaleza",
        "street": "Travessa Rio Maracá",
        "zipcode": "68926-345"
    },
    {
        "city": "Santana",
        "state": "AP",
        "district": "Fortaleza",
        "street": "Travessa Rio Trombetas",
        "zipcode": "68926-365"
    },
    {
        "city": "Santana",
        "state": "AP",
        "district": "Hospitalidade",
        "street": "Travessa Rio Branco",
        "zipcode": "68925-156"
    },
    {
        "city": "Santana",
        "state": "AP",
        "district": "Elesbão",
        "street": "Travessa Maria Davina",
        "zipcode": "68925-266"
    },
    {
        "city": "Santana",
        "state": "AP",
        "district": "Elesbão",
        "street": "3ª Travessa do Elesbão",
        "zipcode": "68925-330"
    },
    {
        "city": "Santana",
        "state": "AP",
        "district": "Daniel",
        "street": "Travessa da Luz",
        "zipcode": "68926-072"
    },
    {
        "city": "Santana",
        "state": "AP",
        "district": "Fortaleza",
        "street": "Travessa Igarapé Sororoca",
        "zipcode": "68926-310"
    },
    {
        "city": "Santana",
        "state": "AP",
        "district": "Fortaleza",
        "street": "Travessa Rio Matapi",
        "zipcode": "68926-370"
    },
    {
        "city": "Santana",
        "state": "AP",
        "district": "Fortaleza",
        "street": "Travessa Rio Araguari",
        "zipcode": "68926-395"
    },
    {
        "city": "Santana",
        "state": "AP",
        "district": "Remedios",
        "street": "Travessa 3",
        "zipcode": "68927-030"
    },
    {
        "city": "Santana",
        "state": "AP",
        "district": "Remedios",
        "street": "Travessa Mário de Andrade",
        "zipcode": "68927-063"
    },
    {
        "city": "Santana",
        "state": "AP",
        "district": "Remedios",
        "street": "Travessa John Fitzgerald Kennedy",
        "zipcode": "68927-096"
    },
    {
        "city": "Santana",
        "state": "AP",
        "district": "Remedios",
        "street": "Travessa Padres Fúvio",
        "zipcode": "68927-102"
    },
    {
        "city": "Santana",
        "state": "AP",
        "district": "Provedor I",
        "street": "Travessa 26",
        "zipcode": "68927-176"
    },
    {
        "city": "Santana",
        "state": "AP",
        "district": "Nova Brasília",
        "street": "Travessa Pedro Salvador Diniz",
        "zipcode": "68927-230"
    },
    {
        "city": "Santana",
        "state": "AP",
        "district": "Elesbão",
        "street": "Travessa Acerola",
        "zipcode": "68925-314"
    },
    {
        "city": "Santana",
        "state": "AP",
        "district": "Provedor I",
        "street": "Travessa João Moreira",
        "zipcode": "68927-215"
    },
    {
        "city": "Santana",
        "state": "AP",
        "district": "Provedor",
        "street": "Travessa L4 do Provedor",
        "zipcode": "68927-399"
    },
    {
        "city": "Santana",
        "state": "AP",
        "district": "Provedor",
        "street": "Travessa L1 do Provedor",
        "zipcode": "68927-408"
    },
    {
        "city": "Santana",
        "state": "AP",
        "district": "Provedor",
        "street": "Avenida 12 de Abril",
        "zipcode": "68927-423"
    },
    {
        "city": "Santana",
        "state": "AP",
        "district": "Provedor",
        "street": "Rua Padre Vitório Galiane",
        "zipcode": "68927-435"
    },
    {
        "city": "Santana",
        "state": "AP",
        "district": "Provedor",
        "street": "Travessa L7 do Provedor",
        "zipcode": "68927-453"
    },
    {
        "city": "Santana",
        "state": "AP",
        "district": "Paraíso",
        "street": "Rua Padre Vitório Galiane",
        "zipcode": "68928-000"
    },
    {
        "city": "Santana",
        "state": "AP",
        "district": "Paraíso",
        "street": "Travessa Um",
        "zipcode": "68928-024"
    },
    {
        "city": "Santana",
        "state": "AP",
        "district": "Paraíso",
        "street": "Travessa Cinco",
        "zipcode": "68928-036"
    },
    {
        "city": "Santana",
        "state": "AP",
        "district": "Paraíso",
        "street": "Rua Presidente General Emílio Garrastazu Médice",
        "zipcode": "68928-042"
    },
    {
        "city": "Santana",
        "state": "AP",
        "district": "Paraíso",
        "street": "Travessa G",
        "zipcode": "68928-105"
    },
    {
        "city": "Santana",
        "state": "AP",
        "district": "Fonte Nova",
        "street": "Rua Padre Fúlvio",
        "zipcode": "68928-151"
    },
    {
        "city": "Santana",
        "state": "AP",
        "district": "Fonte Nova",
        "street": "Travessa L1 da Fonte Nova",
        "zipcode": "68928-199"
    },
    {
        "city": "Santana",
        "state": "AP",
        "district": "Fonte Nova",
        "street": "Alameda das Tulipas (Prq Laranjeiras)",
        "zipcode": "68928-256"
    },
    {
        "city": "Santana",
        "state": "AP",
        "district": "Fonte Nova",
        "street": "Alameda dos Girassóis (Prq Laranjeiras)",
        "zipcode": "68928-271"
    },
    {
        "city": "Santana",
        "state": "AP",
        "district": "Fonte Nova",
        "street": "Travessa Açaí",
        "zipcode": "68928-340"
    },
    {
        "city": "Santana",
        "state": "AP",
        "district": "Fonte Nova",
        "street": "Travessa Maracanã",
        "zipcode": "68928-349"
    },
    {
        "city": "Santana",
        "state": "AP",
        "district": "Nova Brasília",
        "street": "Avenida 21 de Abril",
        "zipcode": "68927-308"
    },
    {
        "city": "Santana",
        "state": "AP",
        "district": "Provedor",
        "street": "Avenida Maria de Oliveira Colares",
        "zipcode": "68927-438"
    },
    {
        "city": "Santana",
        "state": "AP",
        "district": "Provedor",
        "street": "Rua Adálvaro Alves Cavalcanti",
        "zipcode": "68927-444"
    },
    {
        "city": "Santana",
        "state": "AP",
        "district": "Paraíso",
        "street": "Avenida Sete de Setembro",
        "zipcode": "68928-054"
    },
    {
        "city": "Santana",
        "state": "AP",
        "district": "Paraíso",
        "street": "Avenida Presidente Marechal Humberto de Alencar Castelo Branco",
        "zipcode": "68928-057"
    },
    {
        "city": "Santana",
        "state": "AP",
        "district": "Fonte Nova",
        "street": "Avenida José de Anchieta",
        "zipcode": "68928-175"
    },
    {
        "city": "Santana",
        "state": "AP",
        "district": "Fonte Nova",
        "street": "Avenida Poeta Castro Alves",
        "zipcode": "68928-184"
    },
    {
        "city": "Santana",
        "state": "AP",
        "district": "Fonte Nova",
        "street": "Avenida 1º de Maio",
        "zipcode": "68928-310"
    },
    {
        "city": "Santana",
        "state": "AP",
        "district": "Nova Brasília",
        "street": "Travessa Miguel de Bulhões",
        "zipcode": "68927-254"
    },
    {
        "city": "Santana",
        "state": "AP",
        "district": "Nova Brasília",
        "street": "Travessa Nelciana Vasques",
        "zipcode": "68927-260"
    },
    {
        "city": "Santana",
        "state": "AP",
        "district": "Nova Brasília",
        "street": "Travessa Apolônio Gomes",
        "zipcode": "68927-284"
    },
    {
        "city": "Santana",
        "state": "AP",
        "district": "Nova Brasília",
        "street": "Travessa Manoel Pastana",
        "zipcode": "68927-329"
    },
    {
        "city": "Santana",
        "state": "AP",
        "district": "Nova Brasília",
        "street": "Travessa Antônio Izaias Brandão",
        "zipcode": "68927-332"
    },
    {
        "city": "Santana",
        "state": "AP",
        "district": "Fonte Nova",
        "street": "Travessa Sem denominação",
        "zipcode": "68928-235"
    },
    {
        "city": "Santana",
        "state": "AP",
        "district": "Fonte Nova",
        "street": "1ª Travessa da São João",
        "zipcode": "68928-283"
    },
    {
        "city": "Santana",
        "state": "AP",
        "district": "Distrito Industrial",
        "street": "Travessa Rio Tocantins (Resd. Aqv. Tucunaré)",
        "zipcode": "68929-514"
    },
    {
        "city": "Santana",
        "state": "AP",
        "district": "Nova Brasília",
        "street": "Avenida Estelio de Oliveira",
        "zipcode": "68927-236"
    },
    {
        "city": "Santana",
        "state": "AP",
        "district": "Paraíso",
        "street": "Avenida das Nações",
        "zipcode": "68928-009"
    },
    {
        "city": "Santana",
        "state": "AP",
        "district": "Fonte Nova",
        "street": "Alameda Tambaú",
        "zipcode": "68928-136"
    },
    {
        "city": "Santana",
        "state": "AP",
        "district": "Fonte Nova",
        "street": "Rua Valdomiro Ferreira Uchôa",
        "zipcode": "68928-214"
    },
    {
        "city": "Santana",
        "state": "AP",
        "district": "Fonte Nova",
        "street": "Alameda dos Jasmins",
        "zipcode": "68928-238"
    },
    {
        "city": "Santana",
        "state": "AP",
        "district": "Fonte Nova",
        "street": "Avenida dos Cocais (Lot F Deus)",
        "zipcode": "68928-244"
    },
    {
        "city": "Santana",
        "state": "AP",
        "district": "Fonte Nova",
        "street": "Alameda das Açucenas (Prq Laranjeiras)",
        "zipcode": "68928-253"
    },
    {
        "city": "Santana",
        "state": "AP",
        "district": "Fonte Nova",
        "street": "Alameda dos Crisatemos (Prq Laranjeiras)",
        "zipcode": "68928-259"
    },
    {
        "city": "Santana",
        "state": "AP",
        "district": "Fonte Nova",
        "street": "Avenida Coelho Neto",
        "zipcode": "68928-322"
    },
    {
        "city": "Santana",
        "state": "AP",
        "district": "Fonte Nova",
        "street": "Avenida Salmo 91 (Lot F Deus)",
        "zipcode": "68928-331"
    },
    {
        "city": "Santana",
        "state": "AP",
        "district": "Fonte Nova",
        "street": "Avenida São João Apóstolo",
        "zipcode": "68928-334"
    },
    {
        "city": "Santana",
        "state": "AP",
        "district": "Distrito Industrial",
        "street": "Rua Sete",
        "zipcode": "68929-528"
    },
    {
        "city": "Santana",
        "state": "AP",
        "district": "Distrito Industrial",
        "street": "Alameda Rio Maracá (Resd. Aqv. Tucunaré)",
        "zipcode": "68929-541"
    },
    {
        "city": "Santana",
        "state": "AP",
        "district": "Distrito Industrial",
        "street": "Avenida Rio Madeira (Resd. Aqv. Tucunaré)",
        "zipcode": "68929-547"
    },
    {
        "city": "Santana",
        "state": "AP",
        "district": "Distrito Industrial",
        "street": "Rua Dois",
        "zipcode": "68929-548"
    },
    {
        "city": "Santana",
        "state": "AP",
        "district": "Distrito Industrial",
        "street": "Rua Rio Amapari (Resd. Aqv. Tucunaré)",
        "zipcode": "68929-551"
    },
    {
        "city": "Santana",
        "state": "AP",
        "district": "Distrito Industrial",
        "street": "Rua Seis",
        "zipcode": "68929-560"
    },
    {
        "city": "Santana",
        "state": "AP",
        "district": "Distrito Industrial",
        "street": "Travessa Mar Adriático (Resd. Aqv. Tucunaré)",
        "zipcode": "68929-563"
    },
    {
        "city": "Santana",
        "state": "AP",
        "district": "Distrito Industrial",
        "street": "Travessa Rio Flexal (Resd. Aqv. Tucunaré)",
        "zipcode": "68929-567"
    },
    {
        "city": "Santana",
        "state": "AP",
        "district": "Provedor",
        "street": "Travessa L50 do Provedor",
        "zipcode": "68927-369"
    },
    {
        "city": "Santana",
        "state": "AP",
        "district": "Paraíso",
        "street": "Rua Presidente Marechal Deodoro da Fonseca",
        "zipcode": "68928-072"
    },
    {
        "city": "Santana",
        "state": "AP",
        "district": "Paraíso",
        "street": "Travessa J",
        "zipcode": "68928-114"
    },
    {
        "city": "Santana",
        "state": "AP",
        "district": "Fonte Nova",
        "street": "Rua 14",
        "zipcode": "68928-154"
    },
    {
        "city": "Santana",
        "state": "AP",
        "district": "Fonte Nova",
        "street": "Rua Damião da Cruz Barreto",
        "zipcode": "68928-160"
    },
    {
        "city": "Santana",
        "state": "AP",
        "district": "Fonte Nova",
        "street": "Travessa L2 da Fonte Nova",
        "zipcode": "68928-202"
    },
    {
        "city": "Santana",
        "state": "AP",
        "district": "Fonte Nova",
        "street": "Alameda das Violetas (Prq Laranjeiras)",
        "zipcode": "68928-277"
    },
    {
        "city": "Santana",
        "state": "AP",
        "district": "Fonte Nova",
        "street": "Alameda das Rosas (Prq Laranjeiras)",
        "zipcode": "68928-307"
    },
    {
        "city": "Santana",
        "state": "AP",
        "district": "Distrito Industrial",
        "street": "Alameda Baia do Guajará (Resd.Acq. Tucunaré)",
        "zipcode": "68929-577"
    },
    {
        "city": "Santana",
        "state": "AP",
        "district": "Ilha de Santana",
        "street": "Travessa Rio Pirativa",
        "zipcode": "68933-002"
    },
    {
        "city": "Santana",
        "state": "AP",
        "district": "Comercial",
        "street": "Travessa 31 de Março",
        "zipcode": "68925-052"
    },
    {
        "city": "Santana",
        "state": "AP",
        "district": "Hospitalidade",
        "street": "Rua Presidente Arthur Costa e Silva",
        "zipcode": "68925-174"
    },
    {
        "city": "Santana",
        "state": "AP",
        "district": "Central",
        "street": "Travessa Álvaro Barros",
        "zipcode": "68925-220"
    },
    {
        "city": "Santana",
        "state": "AP",
        "district": "Central",
        "street": "Avenida 7 de Setembro",
        "zipcode": "68925-222"
    },
    {
        "city": "Santana",
        "state": "AP",
        "district": "Vila Amazonas",
        "street": "Rua D 15",
        "zipcode": "68926-163"
    },
    {
        "city": "Santana",
        "state": "AP",
        "district": "Fortaleza",
        "street": "Travessa Igarapé Anaeurapucu",
        "zipcode": "68926-385"
    },
    {
        "city": "Santana",
        "state": "AP",
        "district": "Remedios",
        "street": "Travessa Souza Fundão",
        "zipcode": "68927-015"
    },
    {
        "city": "Santana",
        "state": "AP",
        "district": "Remedios",
        "street": "Rua Pedro Salvador Diniz",
        "zipcode": "68927-027"
    },
    {
        "city": "Santana",
        "state": "AP",
        "district": "Remedios",
        "street": "Avenida 15 de Outubro",
        "zipcode": "68927-081"
    },
    {
        "city": "Santana",
        "state": "AP",
        "district": "Nova Brasília",
        "street": "Travessa Vicente Conrado",
        "zipcode": "68927-266"
    },
    {
        "city": "Santana",
        "state": "AP",
        "district": "Nova Brasília",
        "street": "Travessa Bernardo de Melo",
        "zipcode": "68927-272"
    },
    {
        "city": "Santana",
        "state": "AP",
        "district": "Nova Brasília",
        "street": "Avenida Ana Mária Coelho",
        "zipcode": "68927-338"
    },
    {
        "city": "Santana",
        "state": "AP",
        "district": "Nova Brasília",
        "street": "Avenida Pereira de Abreu",
        "zipcode": "68927-344"
    },
    {
        "city": "Santana",
        "state": "AP",
        "district": "Provedor",
        "street": "Travessa L10 do Provedor",
        "zipcode": "68927-384"
    },
    {
        "city": "Santana",
        "state": "AP",
        "district": "Provedor",
        "street": "Travessa L12 do Provedor",
        "zipcode": "68927-390"
    },
    {
        "city": "Santana",
        "state": "AP",
        "district": "Paraíso",
        "street": "Avenida José de Anchieta",
        "zipcode": "68928-048"
    },
    {
        "city": "Santana",
        "state": "AP",
        "district": "Paraíso",
        "street": "Avenida Brasilia",
        "zipcode": "68928-078"
    },
    {
        "city": "Santana",
        "state": "AP",
        "district": "Paraíso",
        "street": "Avenida Maria de Oliveira Colares",
        "zipcode": "68928-099"
    },
    {
        "city": "Santana",
        "state": "AP",
        "district": "Fonte Nova",
        "street": "Rua Antônio Abilio Rodrigues",
        "zipcode": "68928-337"
    },
    {
        "city": "Santana",
        "state": "AP",
        "district": "Distrito Industrial",
        "street": "Avenida São Paulo Apóstolo",
        "zipcode": "68929-564"
    },
    {
        "city": "Santana",
        "state": "AP",
        "district": "Remedios",
        "street": "Travessa Atlântida",
        "zipcode": "68927-060"
    },
    {
        "city": "Santana",
        "state": "AP",
        "district": "Remedios",
        "street": "Travessa Senador Teotônio Vilela",
        "zipcode": "68927-069"
    },
    {
        "city": "Santana",
        "state": "AP",
        "district": "Provedor I",
        "street": "Travessa Ana Maria Coelho",
        "zipcode": "68927-113"
    },
    {
        "city": "Santana",
        "state": "AP",
        "district": "Nova Brasília",
        "street": "Avenida Coelho Neto",
        "zipcode": "68927-233"
    },
    {
        "city": "Santana",
        "state": "AP",
        "district": "Nova Brasília",
        "street": "Avenida Palmira Miranda Andrade",
        "zipcode": "68927-287"
    },
    {
        "city": "Santana",
        "state": "AP",
        "district": "Nova Brasília",
        "street": "Rua Capitão Euclides Rodrigues",
        "zipcode": "68927-293"
    },
    {
        "city": "Santana",
        "state": "AP",
        "district": "Fé em Deus",
        "street": "Rua Salmo 21",
        "zipcode": "68928-393"
    },
    {
        "city": "Santana",
        "state": "AP",
        "district": "Fé em Deus",
        "street": "Avenida Brasil",
        "zipcode": "68928-406"
    },
    {
        "city": "Santana",
        "state": "AP",
        "district": "Fonte Nova",
        "street": "Avenida Maria de Oliveira Colares",
        "zipcode": "68928-325"
    },
    {
        "city": "Santana",
        "state": "AP",
        "district": "Fé em Deus",
        "street": "Rua Salmo 23",
        "zipcode": "68928-408"
    },
    {
        "city": "Santana",
        "state": "AP",
        "district": "Distrito Industrial",
        "street": "Alameda Grande Rio (Resd. Aqv. Tucunaré)",
        "zipcode": "68929-578"
    },
    {
        "city": "Santana",
        "state": "AP",
        "district": "Distrito Industrial",
        "street": "Travessa Rio Pará (Resd. Aqv. Tucunaré)",
        "zipcode": "68929-573"
    },
    {
        "city": "Santana",
        "state": "AP",
        "district": "Distrito Industrial",
        "street": "Travessa Fé em Deus",
        "zipcode": "68929-576"
    },
    {
        "city": "Santana",
        "state": "AP",
        "district": "Vila Amazonas",
        "street": "Travessa Manoel Moura de Carvalho",
        "zipcode": "68926-094"
    },
    {
        "city": "Santana",
        "state": "AP",
        "district": "Comercial",
        "street": "Travessa Calçoene",
        "zipcode": "68925-040"
    },
    {
        "city": "Santana",
        "state": "AP",
        "district": "Comercial",
        "street": "Rua Cláudio Lúcio Monteiro",
        "zipcode": "68925-090"
    },
    {
        "city": "Santana",
        "state": "AP",
        "district": "Provedor I",
        "street": "Avenida 11",
        "zipcode": "68927-164"
    },
    {
        "city": "Santana",
        "state": "AP",
        "district": "Provedor",
        "street": "Travessa L11 do Provedor",
        "zipcode": "68927-387"
    },
    {
        "city": "Santana",
        "state": "AP",
        "district": "Comercial",
        "street": "Avenida Presidente Marechal Humberto de Alencar Castelo Branco",
        "zipcode": "68925-105"
    },
    {
        "city": "Santana",
        "state": "AP",
        "district": "Remedios",
        "street": "Avenida Palmira Miranda Andrade",
        "zipcode": "68927-090"
    },
    {
        "city": "Santana",
        "state": "AP",
        "district": "Remedios",
        "street": "Rua Presidente John Fitzgerald Kennedy",
        "zipcode": "68927-093"
    },
    {
        "city": "Santana",
        "state": "AP",
        "district": "Paraíso",
        "street": "Avenida Quinze de Novembro",
        "zipcode": "68928-045"
    },
    {
        "city": "Santana",
        "state": "AP",
        "district": "Provedor I",
        "street": "Travessa 14 de Janeiro",
        "zipcode": "68927-212"
    },
    {
        "city": "Santana",
        "state": "AP",
        "district": "Central",
        "street": "Rua Adálvaro Alves Cavalcanti",
        "zipcode": "68925-189"
    },
    {
        "city": "Santana",
        "state": "AP",
        "district": "Distrito Industrial",
        "street": "Travessa Baia do Guajará (Resd. Aqv. Tucurané)",
        "zipcode": "68929-558"
    },
    {
        "city": "Santana",
        "state": "AP",
        "district": "Distrito Industrial",
        "street": "Travessa Parauapebas (Resd. Aqv. Tucunaré)",
        "zipcode": "68929-565"
    },
    {
        "city": "Santana",
        "state": "AP",
        "district": "Provedor I",
        "street": "Travessa José Deolindo da Silva",
        "zipcode": "68927-119"
    },
    {
        "city": "Santana",
        "state": "AP",
        "district": "Provedor",
        "street": "Travessa Manoel Abreu de Souza",
        "zipcode": "68927-432"
    },
    {
        "city": "Santana",
        "state": "AP",
        "district": "Nova Brasília",
        "street": "Avenida Maria de Oliveira Colares",
        "zipcode": "68927-299"
    },
    {
        "city": "Santana",
        "state": "AP",
        "district": "Fonte Nova",
        "street": "Avenida Quinze de Novembro",
        "zipcode": "68928-172"
    }
]