[
    {
        "city": "Ji-Parana",
        "state": "RO",
        "district": "Centro",
        "street": "Rua Dos Buritis",
        "zipcode": "78961-260"
    },
    {
        "city": "Ji-Parana",
        "state": "RO",
        "district": "Centro",
        "street": "Avenida Rio Urupa",
        "zipcode": "78961-270"
    },
    {
        "city": "Ji-Parana",
        "state": "RO",
        "district": "Jardim Dos Migrantes",
        "street": "Rua Herminio Vieira",
        "zipcode": "78961-290"
    },
    {
        "city": "Ji-Parana",
        "state": "RO",
        "district": "Centro",
        "street": "Rua Dos Pacaas",
        "zipcode": "78961-130"
    },
    {
        "city": "Ji-Parana",
        "state": "RO",
        "district": "Jardim Dos Migrantes",
        "street": "Rua Dos Garimpeiros",
        "zipcode": "78961-320"
    },
    {
        "city": "Ji-Parana",
        "state": "RO",
        "district": "Centro",
        "street": "Rua R. Catanheide",
        "zipcode": "78961-180"
    },
    {
        "city": "Ji-Parana",
        "state": "RO",
        "district": "Centro",
        "street": "Rua Dos Cinta",
        "zipcode": "78961-150"
    },
    {
        "city": "Ji-Parana",
        "state": "RO",
        "district": "Centro",
        "street": "Avenida Dois De Abril",
        "zipcode": "78961-030"
    },
    {
        "city": "Ji-Parana",
        "state": "RO",
        "district": "Centro",
        "street": "Rua Dom Augusto",
        "zipcode": "78961-380"
    },
    {
        "city": "Ji-Parana",
        "state": "RO",
        "district": "Urupa",
        "street": "Rua Paranaense",
        "zipcode": "78961-025"
    },
    {
        "city": "Ji-Parana",
        "state": "RO",
        "district": "Centro",
        "street": "Rua Seis De Maio",
        "zipcode": "78961-660"
    },
    {
        "city": "Ji-Parana",
        "state": "RO",
        "district": "2 De Abril",
        "street": "Rua Ciro Escobar",
        "zipcode": "78962-060"
    },
    {
        "city": "Ji-Parana",
        "state": "RO",
        "district": "Parque Sao Pedro",
        "street": "Rua Dos Academicos",
        "zipcode": "78961-605"
    },
    {
        "city": "Ji-Parana",
        "state": "RO",
        "district": "Centro",
        "street": "Rua Almirante Barroso",
        "zipcode": "78961-670"
    },
    {
        "city": "Ji-Parana",
        "state": "RO",
        "district": "Centro",
        "street": "Avenida Transcontinental",
        "zipcode": "78961-410"
    },
    {
        "city": "Ji-Parana",
        "state": "RO",
        "district": "Dom Bosco",
        "street": "Rua Rio Mamore",
        "zipcode": "78961-510"
    },
    {
        "city": "Ji-Parana",
        "state": "RO",
        "district": "Parque Sao Pedro",
        "street": "Rua Rio Tocantins",
        "zipcode": "78961-580"
    },
    {
        "city": "Ji-Parana",
        "state": "RO",
        "district": "Centro",
        "street": "Rua Julio Guerra",
        "zipcode": "78961-400"
    },
    {
        "city": "Ji-Parana",
        "state": "RO",
        "district": "Parque Sao Pedro",
        "street": "Rua G (Parque Sao Pedro)",
        "zipcode": "78961-585"
    },
    {
        "city": "Ji-Parana",
        "state": "RO",
        "district": "Casa Preta",
        "street": "Rua Sao Joao",
        "zipcode": "78961-450"
    },
    {
        "city": "Ji-Parana",
        "state": "RO",
        "district": "Jardim Dos Migrantes",
        "street": "Rua Dos Mineiros",
        "zipcode": "78961-720"
    },
    {
        "city": "Ji-Parana",
        "state": "RO",
        "district": "Parque Sao Pedro",
        "street": "Rua Tres Irmaos",
        "zipcode": "78961-555"
    },
    {
        "city": "Ji-Parana",
        "state": "RO",
        "district": "Centro",
        "street": "Rua Isaias De Miranda",
        "zipcode": "78961-060"
    },
    {
        "city": "Ji-Parana",
        "state": "RO",
        "district": "Jardim Dos Migrantes",
        "street": "Rua Dos Seringueiros",
        "zipcode": "78961-360"
    },
    {
        "city": "Ji-Parana",
        "state": "RO",
        "district": "Centro",
        "street": "Rua Capitao Silvio",
        "zipcode": "78961-730"
    },
    {
        "city": "Ji-Parana",
        "state": "RO",
        "district": "Centro",
        "street": "Rua Do Caritiana",
        "zipcode": "78961-120"
    },
    {
        "city": "Ji-Parana",
        "state": "RO",
        "district": "Dom Bosco",
        "street": "Rua Rio Solimoes",
        "zipcode": "78961-480"
    },
    {
        "city": "Ji-Parana",
        "state": "RO",
        "district": "Casa Preta",
        "street": "Rua Parana",
        "zipcode": "78961-440"
    },
    {
        "city": "Ji-Parana",
        "state": "RO",
        "district": "Dom Bosco",
        "street": "Rua Rio Tapajos",
        "zipcode": "78961-530"
    },
    {
        "city": "Ji-Parana",
        "state": "RO",
        "district": "Centro",
        "street": "Rua Tenente Brasil",
        "zipcode": "78961-610"
    },
    {
        "city": "Ji-Parana",
        "state": "RO",
        "district": "Dom Bosco",
        "street": "Rua Rio Madeira",
        "zipcode": "78961-520"
    },
    {
        "city": "Ji-Parana",
        "state": "RO",
        "district": "Centro",
        "street": "Rua Raimundo Araujo",
        "zipcode": "78961-040"
    },
    {
        "city": "Ji-Parana",
        "state": "RO",
        "district": "Urupa",
        "street": "Rua Bernado Medeiros",
        "zipcode": "78961-020"
    },
    {
        "city": "Ji-Parana",
        "state": "RO",
        "district": "2 De Abril",
        "street": "Avenida Marechal Rondon",
        "zipcode": "78962-510"
    },
    {
        "city": "Ji-Parana",
        "state": "RO",
        "district": "2 De Abril",
        "street": "Avenida Dois De Abril",
        "zipcode": "78962-540"
    },
    {
        "city": "Ji-Parana",
        "state": "RO",
        "district": "2 De Abril",
        "street": "Avenida Padre Angelo Cerri",
        "zipcode": "78962-030"
    },
    {
        "city": "Ji-Parana",
        "state": "RO",
        "district": "Parque Sao Pedro",
        "street": "Rua Umuarama",
        "zipcode": "78961-565"
    },
    {
        "city": "Ji-Parana",
        "state": "RO",
        "district": "Parque Sao Pedro",
        "street": "Rua Rio Aripuana",
        "zipcode": "78961-560"
    },
    {
        "city": "Ji-Parana",
        "state": "RO",
        "district": "Jardim Dos Migrantes",
        "street": "Rua Jose De Oliveira",
        "zipcode": "78961-340"
    },
    {
        "city": "Ji-Parana",
        "state": "RO",
        "district": "Centro",
        "street": "Rua Velho Rocha",
        "zipcode": "78961-200"
    },
    {
        "city": "Ji-Parana",
        "state": "RO",
        "district": "Casa Preta",
        "street": "Avenida Padre Adolfo",
        "zipcode": "78961-420"
    },
    {
        "city": "Ji-Parana",
        "state": "RO",
        "district": "Sao Bernardo",
        "street": "Rua Avenca",
        "zipcode": "78962-330"
    },
    {
        "city": "Ji-Parana",
        "state": "RO",
        "district": "Sao Bernardo",
        "street": "Rua Das Rosas",
        "zipcode": "78962-280"
    },
    {
        "city": "Ji-Parana",
        "state": "RO",
        "district": "Centro",
        "street": "Rua Beira Rio (Centro)",
        "zipcode": "78961-625"
    },
    {
        "city": "Ji-Parana",
        "state": "RO",
        "district": "Urupa",
        "street": "Rua Vilhena",
        "zipcode": "78961-615"
    },
    {
        "city": "Ji-Parana",
        "state": "RO",
        "district": "Urupa",
        "street": "Rua Sete De Setembro",
        "zipcode": "78961-700"
    },
    {
        "city": "Ji-Parana",
        "state": "RO",
        "district": "Centro",
        "street": "Rua Velho Teotonio",
        "zipcode": "78961-210"
    },
    {
        "city": "Ji-Parana",
        "state": "RO",
        "district": "Centro",
        "street": "Rua Vilagran Cabrita",
        "zipcode": "78961-640"
    },
    {
        "city": "Ji-Parana",
        "state": "RO",
        "district": "2 De Abril",
        "street": "Rua Dezenove",
        "zipcode": "78962-180"
    },
    {
        "city": "Ji-Parana",
        "state": "RO",
        "district": "Jardim Dos Migrantes",
        "street": "Rua Afonso Pena",
        "zipcode": "78962-205"
    },
    {
        "city": "Ji-Parana",
        "state": "RO",
        "district": "Parque Sao Pedro",
        "street": "Rua Dos Universitarios",
        "zipcode": "78961-600"
    },
    {
        "city": "Ji-Parana",
        "state": "RO",
        "district": "Centro",
        "street": "Rua Jose Pires",
        "zipcode": "78961-090"
    },
    {
        "city": "Ji-Parana",
        "state": "RO",
        "district": "Casa Preta",
        "street": "Rua Quinze De Novembro",
        "zipcode": "78961-690"
    },
    {
        "city": "Ji-Parana",
        "state": "RO",
        "district": "Parque Sao Pedro",
        "street": "Rua Heitor Costa",
        "zipcode": "78961-575"
    },
    {
        "city": "Ji-Parana",
        "state": "RO",
        "district": "Jardim Dos Migrantes",
        "street": "Rua Das Mangueiras",
        "zipcode": "78962-600"
    },
    {
        "city": "Ji-Parana",
        "state": "RO",
        "district": "Casa Preta",
        "street": "Avenida Dom Bosco",
        "zipcode": "78962-440"
    },
    {
        "city": "Ji-Parana",
        "state": "RO",
        "district": "Dom Bosco",
        "street": "Rua Rio Guapore",
        "zipcode": "78961-550"
    },
    {
        "city": "Ji-Parana",
        "state": "RO",
        "district": "Sao Bernardo",
        "street": "Rua Anisio Moreira",
        "zipcode": "78962-350"
    },
    {
        "city": "Ji-Parana",
        "state": "RO",
        "district": "Centro",
        "street": "Rua V. Paraibinha",
        "zipcode": "78961-230"
    },
    {
        "city": "Ji-Parana",
        "state": "RO",
        "district": "Centro",
        "street": "Rua Pedro Teixeira",
        "zipcode": "78961-650"
    },
    {
        "city": "Ji-Parana",
        "state": "RO",
        "district": "Jardim Dos Migrantes",
        "street": "Rua Treze De Setembro",
        "zipcode": "78961-350"
    },
    {
        "city": "Ji-Parana",
        "state": "RO",
        "district": "Casa Preta",
        "street": "Avenida Jk",
        "zipcode": "78961-430"
    },
    {
        "city": "Ji-Parana",
        "state": "RO",
        "district": "Casa Preta",
        "street": "Avenida Jk",
        "zipcode": "78962-480"
    },
    {
        "city": "Ji-Parana",
        "state": "RO",
        "district": "Centro",
        "street": "Rua Presidente Vargas",
        "zipcode": "78961-630"
    },
    {
        "city": "Ji-Parana",
        "state": "RO",
        "district": "2 De Abril",
        "street": "Rua Dos Pioneiros",
        "zipcode": "78962-520"
    },
    {
        "city": "Ji-Parana",
        "state": "RO",
        "district": "Parque Sao Pedro",
        "street": "Rua Rio Candeias",
        "zipcode": "78961-590"
    },
    {
        "city": "Ji-Parana",
        "state": "RO",
        "district": "Dom Bosco",
        "street": "Rua Primeiro De Maio",
        "zipcode": "78961-470"
    },
    {
        "city": "Ji-Parana",
        "state": "RO",
        "district": "Centro",
        "street": "Rua Vinte E Dois De Novembro",
        "zipcode": "78961-710"
    },
    {
        "city": "Ji-Parana",
        "state": "RO",
        "district": "Parque Sao Pedro",
        "street": "Rua Dos Colegiais",
        "zipcode": "78961-618"
    },
    {
        "city": "Ji-Parana",
        "state": "RO",
        "district": "Jardim Dos Migrantes",
        "street": "Rua Soldado Da Borracha",
        "zipcode": "78961-330"
    },
    {
        "city": "Ji-Parana",
        "state": "RO",
        "district": "Dom Bosco",
        "street": "Rua Rio Muqui",
        "zipcode": "78961-490"
    },
    {
        "city": "Ji-Parana",
        "state": "RO",
        "district": "Dom Bosco",
        "street": "Rua Dos Estudantes",
        "zipcode": "78962-430"
    },
    {
        "city": "Ji-Parana",
        "state": "RO",
        "district": "Casa Preta",
        "street": "Rua Sao Joao",
        "zipcode": "78962-450"
    },
    {
        "city": "Ji-Parana",
        "state": "RO",
        "district": "Jardim Dos Migrantes",
        "street": "Rua Sao Cristovao",
        "zipcode": "78962-590"
    },
    {
        "city": "Ji-Parana",
        "state": "RO",
        "district": "Jardim Presidencial",
        "street": "Rua G",
        "zipcode": "78962-740"
    },
    {
        "city": "Ji-Parana",
        "state": "RO",
        "district": "Sao Bernardo",
        "street": "Rua Presidente Geisel",
        "zipcode": "78962-240"
    },
    {
        "city": "Ji-Parana",
        "state": "RO",
        "district": "Jardim Das Seringueiras",
        "street": "Rua B",
        "zipcode": "78963-135"
    },
    {
        "city": "Ji-Parana",
        "state": "RO",
        "district": "Dom Bosco",
        "street": "Rua Cacoal",
        "zipcode": "78962-420"
    },
    {
        "city": "Ji-Parana",
        "state": "RO",
        "district": "Jardim Dos Migrantes",
        "street": "Rua Toledo",
        "zipcode": "78962-160"
    },
    {
        "city": "Ji-Parana",
        "state": "RO",
        "district": "Jardim Presidencial",
        "street": "Rua H",
        "zipcode": "78962-750"
    },
    {
        "city": "Ji-Parana",
        "state": "RO",
        "district": "2 De Abril",
        "street": "Rua Padre Adolfo",
        "zipcode": "78962-490"
    },
    {
        "city": "Ji-Parana",
        "state": "RO",
        "district": "Cafezinho",
        "street": "Rua E (Bnh)",
        "zipcode": "78963-070"
    },
    {
        "city": "Ji-Parana",
        "state": "RO",
        "district": "2 De Abril",
        "street": "Rua Cinco",
        "zipcode": "78962-100"
    },
    {
        "city": "Ji-Parana",
        "state": "RO",
        "district": "Sao Bernardo",
        "street": "Rua Gardenia",
        "zipcode": "78962-320"
    },
    {
        "city": "Ji-Parana",
        "state": "RO",
        "district": "Sao Bernardo",
        "street": "Rua Do Jasmin",
        "zipcode": "78962-310"
    },
    {
        "city": "Ji-Parana",
        "state": "RO",
        "district": "Jardim Presidencial",
        "street": "Rua X",
        "zipcode": "78962-640"
    },
    {
        "city": "Ji-Parana",
        "state": "RO",
        "district": "Sao Bernardo",
        "street": "Rua Dos Cravos",
        "zipcode": "78962-300"
    },
    {
        "city": "Ji-Parana",
        "state": "RO",
        "district": "Jardim Presidencial",
        "street": "Avenida Sanitaria",
        "zipcode": "78962-650"
    },
    {
        "city": "Ji-Parana",
        "state": "RO",
        "district": "Jardim Presidencial",
        "street": "Avenida A",
        "zipcode": "78962-660"
    },
    {
        "city": "Ji-Parana",
        "state": "RO",
        "district": "Sao Bernardo",
        "street": "Estrada Do Quatro",
        "zipcode": "78962-365"
    },
    {
        "city": "Ji-Parana",
        "state": "RO",
        "district": "Jardim Dos Migrantes",
        "street": "Rua Joao Batista Rios",
        "zipcode": "78962-210"
    },
    {
        "city": "Ji-Parana",
        "state": "RO",
        "district": "2 De Abril",
        "street": "Rua Vinte E Um De Abril",
        "zipcode": "78962-485"
    },
    {
        "city": "Ji-Parana",
        "state": "RO",
        "district": "Jardim Dos Migrantes",
        "street": "Rua Das Pedras",
        "zipcode": "78962-615"
    },
    {
        "city": "Ji-Parana",
        "state": "RO",
        "district": "Cafezinho",
        "street": "Rua C (Cafezinho)",
        "zipcode": "78963-122"
    },
    {
        "city": "Ji-Parana",
        "state": "RO",
        "district": "Jardim Presidencial",
        "street": "Rua D",
        "zipcode": "78962-710"
    },
    {
        "city": "Ji-Parana",
        "state": "RO",
        "district": "Jardim Dos Migrantes",
        "street": "Rua Santa Luzia",
        "zipcode": "78962-635"
    },
    {
        "city": "Ji-Parana",
        "state": "RO",
        "district": "Jardim Dos Migrantes",
        "street": "Rua Jamir Montes",
        "zipcode": "78962-110"
    },
    {
        "city": "Ji-Parana",
        "state": "RO",
        "district": "Jardim Presidencial",
        "street": "Rua J",
        "zipcode": "78962-770"
    },
    {
        "city": "Ji-Parana",
        "state": "RO",
        "district": "Cafezinho",
        "street": "Rua G",
        "zipcode": "78963-110"
    },
    {
        "city": "Ji-Parana",
        "state": "RO",
        "district": "Jardim Presidencial",
        "street": "Rua E",
        "zipcode": "78962-720"
    },
    {
        "city": "Ji-Parana",
        "state": "RO",
        "district": "2 De Abril",
        "street": "Rua Vinte E Um",
        "zipcode": "78962-190"
    },
    {
        "city": "Ji-Parana",
        "state": "RO",
        "district": "Jardim Dos Migrantes",
        "street": "Rua Trinta E Um De Marco",
        "zipcode": "78962-560"
    },
    {
        "city": "Ji-Parana",
        "state": "RO",
        "district": "Sao Francisco",
        "street": "Rua D (Bnh)",
        "zipcode": "78963-145"
    },
    {
        "city": "Ji-Parana",
        "state": "RO",
        "district": "2 De Abril",
        "street": "Rua Tereza De Jesus",
        "zipcode": "78962-080"
    },
    {
        "city": "Ji-Parana",
        "state": "RO",
        "district": "Sao Bernardo",
        "street": "Rua Presidente Carter",
        "zipcode": "78962-230"
    },
    {
        "city": "Ji-Parana",
        "state": "RO",
        "district": "Sao Bernardo",
        "street": "Rua Mamore",
        "zipcode": "78962-360"
    },
    {
        "city": "Ji-Parana",
        "state": "RO",
        "district": "Jardim Presidencial",
        "street": "Rua A",
        "zipcode": "78962-680"
    },
    {
        "city": "Ji-Parana",
        "state": "RO",
        "district": "Nova Brasilia",
        "street": "Rua Manoel Franco",
        "zipcode": "78963-005"
    },
    {
        "city": "Ji-Parana",
        "state": "RO",
        "district": "2 De Abril",
        "street": "Rua Jacomo Sanches",
        "zipcode": "78962-120"
    },
    {
        "city": "Ji-Parana",
        "state": "RO",
        "district": "Jardim Dos Migrantes",
        "street": "Rua Vista Alegre",
        "zipcode": "78962-610"
    },
    {
        "city": "Ji-Parana",
        "state": "RO",
        "district": "Casa Preta",
        "street": "Rua Da Cerom",
        "zipcode": "78962-455"
    },
    {
        "city": "Ji-Parana",
        "state": "RO",
        "district": "Jardim Presidencial",
        "street": "Rua M",
        "zipcode": "78962-800"
    },
    {
        "city": "Ji-Parana",
        "state": "RO",
        "district": "Sao Bernardo",
        "street": "Rua Sao Paulo",
        "zipcode": "78962-380"
    },
    {
        "city": "Ji-Parana",
        "state": "RO",
        "district": "Nova Brasilia",
        "street": "Rua Antonio Serpa Do Amaral",
        "zipcode": "78963-010"
    },
    {
        "city": "Ji-Parana",
        "state": "RO",
        "district": "Riachuelo",
        "street": "Avenida Cruzeiro Do Sul",
        "zipcode": "78963-045"
    },
    {
        "city": "Ji-Parana",
        "state": "RO",
        "district": "Sao Bernardo",
        "street": "Rua Presidente Medici",
        "zipcode": "78962-220"
    },
    {
        "city": "Ji-Parana",
        "state": "RO",
        "district": "2 De Abril",
        "street": "Rua Vinte E Sete",
        "zipcode": "78962-475"
    },
    {
        "city": "Ji-Parana",
        "state": "RO",
        "district": "Cafezinho",
        "street": "Rua D",
        "zipcode": "78963-050"
    },
    {
        "city": "Ji-Parana",
        "state": "RO",
        "district": "Jardim Presidencial",
        "street": "Rua C",
        "zipcode": "78962-700"
    },
    {
        "city": "Ji-Parana",
        "state": "RO",
        "district": "Cafezinho",
        "street": "Rua I",
        "zipcode": "78963-125"
    },
    {
        "city": "Ji-Parana",
        "state": "RO",
        "district": "Jardim Das Seringueiras",
        "street": "Avenida C",
        "zipcode": "78963-140"
    },
    {
        "city": "Ji-Parana",
        "state": "RO",
        "district": "Riachuelo",
        "street": "Rua Brasileira",
        "zipcode": "78963-035"
    },
    {
        "city": "Ji-Parana",
        "state": "RO",
        "district": "Riachuelo",
        "street": "Rua Sena Madureira",
        "zipcode": "78963-030"
    },
    {
        "city": "Ji-Parana",
        "state": "RO",
        "district": "Sao Bernardo",
        "street": "Rua Ji",
        "zipcode": "78962-370"
    },
    {
        "city": "Ji-Parana",
        "state": "RO",
        "district": "Primavera",
        "street": "Rua Dos Profetas",
        "zipcode": "78963-214"
    },
    {
        "city": "Ji-Parana",
        "state": "RO",
        "district": "Primavera",
        "street": "Rua Dois",
        "zipcode": "78963-185"
    },
    {
        "city": "Ji-Parana",
        "state": "RO",
        "district": "Jardim Presidencial",
        "street": "Rua I",
        "zipcode": "78962-760"
    },
    {
        "city": "Ji-Parana",
        "state": "RO",
        "district": "2 De Abril",
        "street": "Rua Saul Benesby",
        "zipcode": "78962-150"
    },
    {
        "city": "Ji-Parana",
        "state": "RO",
        "district": "Riachuelo",
        "street": "Avenida Nazare",
        "zipcode": "78963-105"
    },
    {
        "city": "Ji-Parana",
        "state": "RO",
        "district": "Cafezinho",
        "street": "Rua X",
        "zipcode": "78963-040"
    },
    {
        "city": "Ji-Parana",
        "state": "RO",
        "district": "Jardim Presidencial",
        "street": "Avenida B",
        "zipcode": "78962-670"
    },
    {
        "city": "Ji-Parana",
        "state": "RO",
        "district": "Jardim Dos Migrantes",
        "street": "Rua Menezes Filho",
        "zipcode": "78962-050"
    },
    {
        "city": "Ji-Parana",
        "state": "RO",
        "district": "2 De Abril",
        "street": "Rua Trinta E Sete",
        "zipcode": "78962-090"
    },
    {
        "city": "Ji-Parana",
        "state": "RO",
        "district": "Primavera",
        "street": "Rua Dr Fiel",
        "zipcode": "78963-210"
    },
    {
        "city": "Ji-Parana",
        "state": "RO",
        "district": "Casa Preta",
        "street": "Rua Parana",
        "zipcode": "78962-460"
    },
    {
        "city": "Ji-Parana",
        "state": "RO",
        "district": "Nova Brasilia",
        "street": "Rua Sao Luiz",
        "zipcode": "78963-015"
    },
    {
        "city": "Ji-Parana",
        "state": "RO",
        "district": "Primavera",
        "street": "Rua Seis",
        "zipcode": "78963-205"
    },
    {
        "city": "Ji-Parana",
        "state": "RO",
        "district": "Primavera",
        "street": "Rua Belo Horizonte",
        "zipcode": "78963-208"
    },
    {
        "city": "Ji-Parana",
        "state": "RO",
        "district": "Sao Francisco",
        "street": "Rua K",
        "zipcode": "78964-100"
    },
    {
        "city": "Ji-Parana",
        "state": "RO",
        "district": "Sao Francisco",
        "street": "Rua K",
        "zipcode": "78964-110"
    },
    {
        "city": "Ji-Parana",
        "state": "RO",
        "district": "Cafezinho",
        "street": "Rua K",
        "zipcode": "78963-115"
    },
    {
        "city": "Ji-Parana",
        "state": "RO",
        "district": "Cafezinho",
        "street": "Rua Maracatiara",
        "zipcode": "78963-320"
    },
    {
        "city": "Ji-Parana",
        "state": "RO",
        "district": "Jardim Presidencial",
        "street": "Rua L",
        "zipcode": "78962-790"
    },
    {
        "city": "Ji-Parana",
        "state": "RO",
        "district": "Primavera",
        "street": "Rua Tenente Antonio Joao",
        "zipcode": "78963-150"
    },
    {
        "city": "Ji-Parana",
        "state": "RO",
        "district": "Primavera",
        "street": "Rua Joao Pessoa",
        "zipcode": "78963-235"
    },
    {
        "city": "Ji-Parana",
        "state": "RO",
        "district": "Duque De Caxias",
        "street": "Rua Geraldo",
        "zipcode": "78964-130"
    },
    {
        "city": "Ji-Parana",
        "state": "RO",
        "district": "Primavera",
        "street": "Avenida Dr Osvaldo",
        "zipcode": "78963-215"
    },
    {
        "city": "Ji-Parana",
        "state": "RO",
        "district": "Sao Francisco",
        "street": "Rua Belem",
        "zipcode": "78964-090"
    },
    {
        "city": "Ji-Parana",
        "state": "RO",
        "district": "Nova Brasilia",
        "street": "Rua Luiz Muzambinho",
        "zipcode": "78963-340"
    },
    {
        "city": "Ji-Parana",
        "state": "RO",
        "district": "Cafezinho",
        "street": "Rua U",
        "zipcode": "78963-055"
    },
    {
        "city": "Ji-Parana",
        "state": "RO",
        "district": "Nova Brasilia",
        "street": "Rua Idelfonso Da Silva",
        "zipcode": "78963-325"
    },
    {
        "city": "Ji-Parana",
        "state": "RO",
        "district": "Primavera",
        "street": "Rua Martins Costa",
        "zipcode": "78963-435"
    },
    {
        "city": "Ji-Parana",
        "state": "RO",
        "district": "Primavera",
        "street": "Rua Da Proclamacao",
        "zipcode": "78963-212"
    },
    {
        "city": "Ji-Parana",
        "state": "RO",
        "district": "Nova Brasilia",
        "street": "Rua Maringa",
        "zipcode": "78964-000"
    },
    {
        "city": "Ji-Parana",
        "state": "RO",
        "district": "Riachuelo",
        "street": "Rua Rodrigues Alves",
        "zipcode": "78963-305"
    },
    {
        "city": "Ji-Parana",
        "state": "RO",
        "district": "Primavera",
        "street": "Rua Amazonas",
        "zipcode": "78963-218"
    },
    {
        "city": "Ji-Parana",
        "state": "RO",
        "district": "Primavera",
        "street": "Rua Carlos Gomes",
        "zipcode": "78963-165"
    },
    {
        "city": "Ji-Parana",
        "state": "RO",
        "district": "Primavera",
        "street": "Rua Tres",
        "zipcode": "78963-190"
    },
    {
        "city": "Ji-Parana",
        "state": "RO",
        "district": "Cafezinho",
        "street": "Rua L",
        "zipcode": "78963-060"
    },
    {
        "city": "Ji-Parana",
        "state": "RO",
        "district": "Primavera",
        "street": "Rua Cascalheira",
        "zipcode": "78963-153"
    },
    {
        "city": "Ji-Parana",
        "state": "RO",
        "district": "Riachuelo",
        "street": "Rua Silvio Michelussi",
        "zipcode": "78963-250"
    },
    {
        "city": "Ji-Parana",
        "state": "RO",
        "district": "Riachuelo",
        "street": "Avenida Transcontinental",
        "zipcode": "78963-440"
    },
    {
        "city": "Ji-Parana",
        "state": "RO",
        "district": "Riachuelo",
        "street": "Rua Castelo Branco",
        "zipcode": "78963-245"
    },
    {
        "city": "Ji-Parana",
        "state": "RO",
        "district": "Sao Francisco",
        "street": "Rua Campo Grande",
        "zipcode": "78964-080"
    },
    {
        "city": "Ji-Parana",
        "state": "RO",
        "district": "Primavera",
        "street": "Rua Henrique Dias",
        "zipcode": "78963-155"
    },
    {
        "city": "Ji-Parana",
        "state": "RO",
        "district": "Riachuelo",
        "street": "Rua Nereu Ramos",
        "zipcode": "78963-260"
    },
    {
        "city": "Ji-Parana",
        "state": "RO",
        "district": "Primavera",
        "street": "Rua Jose De Alencar",
        "zipcode": "78963-170"
    },
    {
        "city": "Ji-Parana",
        "state": "RO",
        "district": "Cafezinho",
        "street": "Rua P",
        "zipcode": "78963-075"
    },
    {
        "city": "Ji-Parana",
        "state": "RO",
        "district": "Riachuelo",
        "street": "Rua Carlos Lux",
        "zipcode": "78963-255"
    },
    {
        "city": "Ji-Parana",
        "state": "RO",
        "district": "Riachuelo",
        "street": "Rua Xapuri",
        "zipcode": "78963-080"
    },
    {
        "city": "Ji-Parana",
        "state": "RO",
        "district": "Duque De Caxias",
        "street": "Rua Rui Barbosa",
        "zipcode": "78964-150"
    },
    {
        "city": "Ji-Parana",
        "state": "RO",
        "district": "Nova Brasilia",
        "street": "Rua Angelin",
        "zipcode": "78963-385"
    },
    {
        "city": "Ji-Parana",
        "state": "RO",
        "district": "Nova Brasilia",
        "street": "Rua Goiania",
        "zipcode": "78964-040"
    },
    {
        "city": "Ji-Parana",
        "state": "RO",
        "district": "Nova Brasilia",
        "street": "Rua T",
        "zipcode": "78963-420"
    },
    {
        "city": "Ji-Parana",
        "state": "RO",
        "district": "Primavera",
        "street": "Rua Um",
        "zipcode": "78963-180"
    },
    {
        "city": "Ji-Parana",
        "state": "RO",
        "district": "Riachuelo",
        "street": "Rua Washington Luiz",
        "zipcode": "78963-295"
    },
    {
        "city": "Ji-Parana",
        "state": "RO",
        "district": "Nova Brasilia",
        "street": "Rua Joao Batista Neto",
        "zipcode": "78963-365"
    },
    {
        "city": "Ji-Parana",
        "state": "RO",
        "district": "Nova Brasilia",
        "street": "Rua Castanheira",
        "zipcode": "78963-400"
    },
    {
        "city": "Ji-Parana",
        "state": "RO",
        "district": "Nova Brasilia",
        "street": "Rua P. Honorato Pereira",
        "zipcode": "78963-345"
    },
    {
        "city": "Ji-Parana",
        "state": "RO",
        "district": "Nova Brasilia",
        "street": "Rua Jose Eduardo Viera",
        "zipcode": "78963-335"
    },
    {
        "city": "Ji-Parana",
        "state": "RO",
        "district": "Riachuelo",
        "street": "Rua Placido De Castro",
        "zipcode": "78963-065"
    },
    {
        "city": "Ji-Parana",
        "state": "RO",
        "district": "Riachuelo",
        "street": "Rua Joao Goulart",
        "zipcode": "78963-270"
    },
    {
        "city": "Ji-Parana",
        "state": "RO",
        "district": "Nova Brasilia",
        "street": "Rua Governador Jorge Teixeira",
        "zipcode": "78964-050"
    },
    {
        "city": "Ji-Parana",
        "state": "RO",
        "district": "Cafezinho",
        "street": "Rua Caucheiro",
        "zipcode": "78963-315"
    },
    {
        "city": "Ji-Parana",
        "state": "RO",
        "district": "Nova Brasilia",
        "street": "Rua Imburana",
        "zipcode": "78963-395"
    },
    {
        "city": "Ji-Parana",
        "state": "RO",
        "district": "Riachuelo",
        "street": "Rua Julio Prestes",
        "zipcode": "78963-275"
    },
    {
        "city": "Ji-Parana",
        "state": "RO",
        "district": "Nova Brasilia",
        "street": "Rua Sao Paulo",
        "zipcode": "78964-030"
    },
    {
        "city": "Ji-Parana",
        "state": "RO",
        "district": "Nova Brasilia",
        "street": "Rua Cedro",
        "zipcode": "78963-405"
    },
    {
        "city": "Ji-Parana",
        "state": "RO",
        "district": "Nova Brasilia",
        "street": "Rua Aurelio Bernardo",
        "zipcode": "78963-370"
    },
    {
        "city": "Ji-Parana",
        "state": "RO",
        "district": "Nova Brasilia",
        "street": "Rua T",
        "zipcode": "78963-425"
    },
    {
        "city": "Ji-Parana",
        "state": "RO",
        "district": "Nova Brasilia",
        "street": "Avenida Brasil",
        "zipcode": "78964-010"
    },
    {
        "city": "Ji-Parana",
        "state": "RO",
        "district": "Primavera",
        "street": "Rua Olavo Bilac",
        "zipcode": "78963-175"
    },
    {
        "city": "Ji-Parana",
        "state": "RO",
        "district": "Primavera",
        "street": "Rua Vicente Tabora Cavalcante",
        "zipcode": "78963-230"
    },
    {
        "city": "Ji-Parana",
        "state": "RO",
        "district": "Primavera",
        "street": "Rua Do Progresso",
        "zipcode": "78963-227"
    },
    {
        "city": "Ji-Parana",
        "state": "RO",
        "district": "Nova Brasilia",
        "street": "Rua Jose Bezerra",
        "zipcode": "78963-350"
    },
    {
        "city": "Ji-Parana",
        "state": "RO",
        "district": "Riachuelo",
        "street": "Rua Tarauaca",
        "zipcode": "78963-090"
    },
    {
        "city": "Ji-Parana",
        "state": "RO",
        "district": "Cafezinho",
        "street": "Rua J",
        "zipcode": "78963-120"
    },
    {
        "city": "Ji-Parana",
        "state": "RO",
        "district": "Riachuelo",
        "street": "Rua Cafe Filho",
        "zipcode": "78963-300"
    },
    {
        "city": "Ji-Parana",
        "state": "RO",
        "district": "Nova Brasilia",
        "street": "Rua Mogno",
        "zipcode": "78963-390"
    },
    {
        "city": "Ji-Parana",
        "state": "RO",
        "district": "Riachuelo",
        "street": "Rua Vinicius De Moraes",
        "zipcode": "78963-290"
    },
    {
        "city": "Ji-Parana",
        "state": "RO",
        "district": "Nova Brasilia",
        "street": "Avenida Francisco P.dos Santos",
        "zipcode": "78963-415"
    },
    {
        "city": "Ji-Parana",
        "state": "RO",
        "district": "Nova Brasilia",
        "street": "Rua Divino Taquari",
        "zipcode": "78963-360"
    },
    {
        "city": "Ji-Parana",
        "state": "RO",
        "district": "Duque De Caxias",
        "street": "Rua Costa E Silva",
        "zipcode": "78964-140"
    },
    {
        "city": "Ji-Parana",
        "state": "RO",
        "district": "Nova Brasilia",
        "street": "Rua P. Honorato Pereira",
        "zipcode": "78964-280"
    },
    {
        "city": "Ji-Parana",
        "state": "RO",
        "district": "Nova Brasilia",
        "street": "Rua Castanheira",
        "zipcode": "78964-420"
    },
    {
        "city": "Ji-Parana",
        "state": "RO",
        "district": "Nova Brasilia",
        "street": "Rua T",
        "zipcode": "78964-470"
    },
    {
        "city": "Ji-Parana",
        "state": "RO",
        "district": "Nova Brasilia",
        "street": "Rua Joaquim F. De Oliveira",
        "zipcode": "78964-440"
    },
    {
        "city": "Ji-Parana",
        "state": "RO",
        "district": "Nova Brasilia",
        "street": "Rua Mogno",
        "zipcode": "78964-390"
    },
    {
        "city": "Ji-Parana",
        "state": "RO",
        "district": "Nova Brasilia",
        "street": "Rua Caucheiro",
        "zipcode": "78964-360"
    },
    {
        "city": "Ji-Parana",
        "state": "RO",
        "district": "Nova Brasilia",
        "street": "Rua Angelim",
        "zipcode": "78964-570"
    },
    {
        "city": "Ji-Parana",
        "state": "RO",
        "district": "Duque De Caxias",
        "street": "Rua Duque De Caxias",
        "zipcode": "78964-550"
    },
    {
        "city": "Ji-Parana",
        "state": "RO",
        "district": "Duque De Caxias",
        "street": "Rua Joao Pessoa",
        "zipcode": "78964-540"
    },
    {
        "city": "Ji-Parana",
        "state": "RO",
        "district": "Nova Brasilia",
        "street": "Rua Jose Bezerra",
        "zipcode": "78964-300"
    },
    {
        "city": "Ji-Parana",
        "state": "RO",
        "district": "Vila Jotao",
        "street": "Rua Tiradentes",
        "zipcode": "78964-510"
    },
    {
        "city": "Ji-Parana",
        "state": "RO",
        "district": "Nova Brasilia",
        "street": "Rua Aurelio Bernard",
        "zipcode": "78964-340"
    },
    {
        "city": "Ji-Parana",
        "state": "RO",
        "district": "Nova Brasilia",
        "street": "Rua Ipe",
        "zipcode": "78964-380"
    },
    {
        "city": "Ji-Parana",
        "state": "RO",
        "district": "Nova Brasilia",
        "street": "Avenida Maracatiara",
        "zipcode": "78964-400"
    },
    {
        "city": "Ji-Parana",
        "state": "RO",
        "district": "Duque De Caxias",
        "street": "Rua Santos Dumont",
        "zipcode": "78964-200"
    },
    {
        "city": "Ji-Parana",
        "state": "RO",
        "district": "Duque De Caxias",
        "street": "Rua A",
        "zipcode": "78964-560"
    },
    {
        "city": "Ji-Parana",
        "state": "RO",
        "district": "Nova Brasilia",
        "street": "Rua Cedro",
        "zipcode": "78964-430"
    },
    {
        "city": "Ji-Parana",
        "state": "RO",
        "district": "Nova Brasilia",
        "street": "Rua T",
        "zipcode": "78964-460"
    },
    {
        "city": "Ji-Parana",
        "state": "RO",
        "district": "Duque De Caxias",
        "street": "Rua Pedro Alvares Cabral",
        "zipcode": "78964-180"
    },
    {
        "city": "Ji-Parana",
        "state": "RO",
        "district": "Nova Brasilia",
        "street": "Rua Idelfonso Da Silva",
        "zipcode": "78964-240"
    },
    {
        "city": "Ji-Parana",
        "state": "RO",
        "district": "Nova Brasilia",
        "street": "Rua Luiz Muzambinho",
        "zipcode": "78964-270"
    },
    {
        "city": "Ji-Parana",
        "state": "RO",
        "district": "Duque De Caxias",
        "street": "Rua Dom Pedro Ii",
        "zipcode": "78964-170"
    },
    {
        "city": "Ji-Parana",
        "state": "RO",
        "district": "Nova Brasilia",
        "street": "Rua Acre",
        "zipcode": "78964-220"
    },
    {
        "city": "Ji-Parana",
        "state": "RO",
        "district": "Nova Brasilia",
        "street": "Rua Silvio Michelussi",
        "zipcode": "78964-230"
    },
    {
        "city": "Ji-Parana",
        "state": "RO",
        "district": "Vila Jotao",
        "street": "Rua Dr Osvaldo",
        "zipcode": "78964-490"
    },
    {
        "city": "Ji-Parana",
        "state": "RO",
        "district": "Nova Brasilia",
        "street": "Rua Jose Eduardo Vieira",
        "zipcode": "78964-260"
    },
    {
        "city": "Ji-Parana",
        "state": "RO",
        "district": "Nova Brasilia",
        "street": "Rua Joao Batista Neto",
        "zipcode": "78964-330"
    },
    {
        "city": "Ji-Parana",
        "state": "RO",
        "district": "Nova Brasilia",
        "street": "Rua T",
        "zipcode": "78964-480"
    },
    {
        "city": "Ji-Parana",
        "state": "RO",
        "district": "Duque De Caxias",
        "street": "Rua Princesa Izabel",
        "zipcode": "78964-190"
    },
    {
        "city": "Ji-Parana",
        "state": "RO",
        "district": "Vila Jotao",
        "street": "Rua Calama",
        "zipcode": "78964-520"
    },
    {
        "city": "Ji-Parana",
        "state": "RO",
        "district": "Centro",
        "street": "Rua Dos Nhambiquaras",
        "zipcode": "78961-110"
    },
    {
        "city": "Ji-Parana",
        "state": "RO",
        "district": "Centro",
        "street": "Rua Dos Caripunas",
        "zipcode": "78961-170"
    },
    {
        "city": "Ji-Parana",
        "state": "RO",
        "district": "2 De Abril",
        "street": "Rua Das Flores",
        "zipcode": "78962-530"
    },
    {
        "city": "Ji-Parana",
        "state": "RO",
        "district": "Primavera",
        "street": "Rua Cinco",
        "zipcode": "78963-200"
    },
    {
        "city": "Ji-Parana",
        "state": "RO",
        "district": "Parque Sao Pedro",
        "street": "Rua C (Parque Sao Pedro)",
        "zipcode": "78961-595"
    },
    {
        "city": "Ji-Parana",
        "state": "RO",
        "district": "Jardim Presidencial",
        "street": "Rua K",
        "zipcode": "78962-780"
    },
    {
        "city": "Ji-Parana",
        "state": "RO",
        "district": "Primavera",
        "street": "Rua Quatro",
        "zipcode": "78963-195"
    },
    {
        "city": "Ji-Parana",
        "state": "RO",
        "district": "Sao Bernardo",
        "street": "Rua Presidente Joao Figueiredo",
        "zipcode": "78962-250"
    },
    {
        "city": "Ji-Parana",
        "state": "RO",
        "district": "Primavera",
        "street": "Rua Beira",
        "zipcode": "78963-148"
    },
    {
        "city": "Ji-Parana",
        "state": "RO",
        "district": "Sao Bernardo",
        "street": "Rua Das Flores",
        "zipcode": "78962-290"
    },
    {
        "city": "Ji-Parana",
        "state": "RO",
        "district": "Riachuelo",
        "street": "Rua Vinceslau Bras",
        "zipcode": "78963-285"
    },
    {
        "city": "Ji-Parana",
        "state": "RO",
        "district": "Jardim Dos Migrantes",
        "street": "Rua Caramua",
        "zipcode": "78961-300"
    },
    {
        "city": "Ji-Parana",
        "state": "RO",
        "district": "Primavera",
        "street": "Rua Republica",
        "zipcode": "78963-160"
    },
    {
        "city": "Ji-Parana",
        "state": "RO",
        "district": "Nova Brasilia",
        "street": "Rua Terezinha",
        "zipcode": "78963-020"
    },
    {
        "city": "Ji-Parana",
        "state": "RO",
        "district": "2 De Abril",
        "street": "Rua Dezessete",
        "zipcode": "78962-170"
    },
    {
        "city": "Ji-Parana",
        "state": "RO",
        "district": "Casa Preta",
        "street": "Rua Herminio Victorelli",
        "zipcode": "78962-010"
    },
    {
        "city": "Ji-Parana",
        "state": "RO",
        "district": "Jardim Dos Migrantes",
        "street": "Rua Padre Cicero",
        "zipcode": "78962-200"
    },
    {
        "city": "Ji-Parana",
        "state": "RO",
        "district": "Casa Preta",
        "street": "Avenida Dom Bosco",
        "zipcode": "78961-460"
    },
    {
        "city": "Ji-Parana",
        "state": "RO",
        "district": "Jardim Dos Migrantes",
        "street": "Rua Castro Alves",
        "zipcode": "78962-630"
    },
    {
        "city": "Ji-Parana",
        "state": "RO",
        "district": "Primavera",
        "street": "Rua Calama",
        "zipcode": "78963-225"
    },
    {
        "city": "Ji-Parana",
        "state": "RO",
        "district": "2 De Abril",
        "street": "Avenida Enginheiro Manfredo Barata Almeida Da Fonseca",
        "zipcode": "78962-470"
    },
    {
        "city": "Ji-Parana",
        "state": "RO",
        "district": "Dom Bosco",
        "street": "Rua Rio Xingu",
        "zipcode": "78961-540"
    },
    {
        "city": "Ji-Parana",
        "state": "RO",
        "district": "Sao Bernardo",
        "street": "Rua Tiradentes",
        "zipcode": "78962-390"
    },
    {
        "city": "Ji-Parana",
        "state": "RO",
        "district": "Nova Brasilia",
        "street": "Avenida Aracaju",
        "zipcode": "78963-025"
    },
    {
        "city": "Ji-Parana",
        "state": "RO",
        "district": "Riachuelo",
        "street": "Rua Feijo",
        "zipcode": "78963-085"
    },
    {
        "city": "Ji-Parana",
        "state": "RO",
        "district": "Riachuelo",
        "street": "Rua Ranier Mazzili",
        "zipcode": "78963-265"
    },
    {
        "city": "Ji-Parana",
        "state": "RO",
        "district": "Urupa",
        "street": "Rua Alfredo Dos Santos",
        "zipcode": "78961-010"
    },
    {
        "city": "Ji-Parana",
        "state": "RO",
        "district": "2 De Abril",
        "street": "Rua Joao Dos Santos Filho",
        "zipcode": "78962-020"
    },
    {
        "city": "Ji-Parana",
        "state": "RO",
        "district": "Centro",
        "street": "Rua Travessa Da Discordia",
        "zipcode": "78961-620"
    },
    {
        "city": "Ji-Parana",
        "state": "RO",
        "district": "Urupa",
        "street": "Rua Mato Grosso",
        "zipcode": "78961-680"
    },
    {
        "city": "Ji-Parana",
        "state": "RO",
        "district": "Dom Bosco",
        "street": "Rua Rio Jaru",
        "zipcode": "78961-500"
    },
    {
        "city": "Ji-Parana",
        "state": "RO",
        "district": "Jardim Presidencial",
        "street": "Rua B",
        "zipcode": "78962-690"
    },
    {
        "city": "Ji-Parana",
        "state": "RO",
        "district": "Primavera",
        "street": "Rua Do Prof.",
        "zipcode": "78963-213"
    },
    {
        "city": "Ji-Parana",
        "state": "RO",
        "district": "Jardim Dos Migrantes",
        "street": "Rua Rio Branco",
        "zipcode": "78962-140"
    },
    {
        "city": "Ji-Parana",
        "state": "RO",
        "district": "Jardim Das Seringueiras",
        "street": "Rua A",
        "zipcode": "78963-130"
    },
    {
        "city": "Ji-Parana",
        "state": "RO",
        "district": "Sao Bernardo",
        "street": "Rua Julio Guerra",
        "zipcode": "78962-410"
    },
    {
        "city": "Ji-Parana",
        "state": "RO",
        "district": "Jardim Dos Migrantes",
        "street": "Rua Jose Paragua",
        "zipcode": "78962-570"
    },
    {
        "city": "Ji-Parana",
        "state": "RO",
        "district": "Sao Bernardo",
        "street": "Rua Cabral",
        "zipcode": "78962-340"
    },
    {
        "city": "Ji-Parana",
        "state": "RO",
        "district": "Parque Sao Pedro",
        "street": "Rua Rio Jamari",
        "zipcode": "78961-570"
    },
    {
        "city": "Ji-Parana",
        "state": "RO",
        "district": "Urupa",
        "street": "Rua Jose B. De Barros",
        "zipcode": "78961-000"
    },
    {
        "city": "Ji-Parana",
        "state": "RO",
        "district": "Nova Brasilia",
        "street": "Rua Castelo Branco",
        "zipcode": "78964-210"
    },
    {
        "city": "Ji-Parana",
        "state": "RO",
        "district": "Duque De Caxias",
        "street": "Rua Martins Costa",
        "zipcode": "78964-120"
    },
    {
        "city": "Ji-Parana",
        "state": "RO",
        "district": "Nova Brasilia",
        "street": "Rua T",
        "zipcode": "78963-430"
    },
    {
        "city": "Ji-Parana",
        "state": "RO",
        "district": "Centro",
        "street": "Avenida Marechal Rondon",
        "zipcode": "78961-390"
    },
    {
        "city": "Ji-Parana",
        "state": "RO",
        "district": "Jardim Dos Migrantes",
        "street": "Rua Miguel Galdino",
        "zipcode": "78961-370"
    },
    {
        "city": "Ji-Parana",
        "state": "RO",
        "district": "Riachuelo",
        "street": "Rua Santa Clara",
        "zipcode": "78963-095"
    },
    {
        "city": "Ji-Parana",
        "state": "RO",
        "district": "Sao Francisco",
        "street": "Avenida Guanabara",
        "zipcode": "78964-070"
    },
    {
        "city": "Ji-Parana",
        "state": "RO",
        "district": "Riachuelo",
        "street": "Avenida Das Seringueiras",
        "zipcode": "78963-310"
    },
    {
        "city": "Ji-Parana",
        "state": "RO",
        "district": "Riachuelo",
        "street": "Rua Colorado Doeste",
        "zipcode": "78963-100"
    },
    {
        "city": "Ji-Parana",
        "state": "RO",
        "district": "Cafezinho",
        "street": "Rua M (Bnh)",
        "zipcode": "78963-063"
    },
    {
        "city": "Ji-Parana",
        "state": "RO",
        "district": "Nova Brasilia",
        "street": "Rua Missionario Guinnar Vingren",
        "zipcode": "78964-250"
    },
    {
        "city": "Ji-Parana",
        "state": "RO",
        "district": "Jardim Dos Migrantes",
        "street": "Rua Monte Castelo",
        "zipcode": "78962-070"
    },
    {
        "city": "Ji-Parana",
        "state": "RO",
        "district": "Nova Brasilia",
        "street": "Rua Manoel Viera Dos Santos",
        "zipcode": "78963-355"
    },
    {
        "city": "Ji-Parana",
        "state": "RO",
        "district": "Jardim Dos Migrantes",
        "street": "Rua Sao Manoel",
        "zipcode": "78962-620"
    },
    {
        "city": "Ji-Parana",
        "state": "RO",
        "district": "Jardim Presidencial",
        "street": "Rua F",
        "zipcode": "78962-730"
    },
    {
        "city": "Ji-Parana",
        "state": "RO",
        "district": "2 De Abril",
        "street": "Rua Abilio Freitas Dos Santos",
        "zipcode": "78962-040"
    },
    {
        "city": "Ji-Parana",
        "state": "RO",
        "district": "Casa Preta",
        "street": "Avenida Capitao Silvio",
        "zipcode": "78962-000"
    },
    {
        "city": "Ji-Parana",
        "state": "RO",
        "district": "Jardim Dos Migrantes",
        "street": "Rua Tubiary",
        "zipcode": "78961-310"
    },
    {
        "city": "Ji-Parana",
        "state": "RO",
        "district": "Centro",
        "street": "Rua Aluizio Ferreira",
        "zipcode": "78961-655"
    },
    {
        "city": "Ji-Parana",
        "state": "RO",
        "district": "Sao Bernardo",
        "street": "Rua Presidente Alfonsin",
        "zipcode": "78962-260"
    },
    {
        "city": "Ji-Parana",
        "state": "RO",
        "district": "Duque De Caxias",
        "street": "Rua Dom Pedro",
        "zipcode": "78964-160"
    },
    {
        "city": "Ji-Parana",
        "state": "RO",
        "district": "Primavera",
        "street": "Rua Duque De Caxias",
        "zipcode": "78963-240"
    },
    {
        "city": "Ji-Parana",
        "state": "RO",
        "district": "Nova Brasilia",
        "street": "Rua Curitiba",
        "zipcode": "78964-020"
    },
    {
        "city": "Ji-Parana",
        "state": "RO",
        "district": "Nova Brasilia",
        "street": "Rua Joaquim F.de Oliveira",
        "zipcode": "78963-410"
    },
    {
        "city": "Ji-Parana",
        "state": "RO",
        "district": "Nova Brasilia",
        "street": "Rua Missionario Guinnar Vingren",
        "zipcode": "78963-330"
    },
    {
        "city": "Ji-Parana",
        "state": "RO",
        "district": "Vila Jotao",
        "street": "Rua Dr Fiel",
        "zipcode": "78964-500"
    },
    {
        "city": "Ji-Parana",
        "state": "RO",
        "district": "Nova Brasilia",
        "street": "Avenida Das Seringueiras",
        "zipcode": "78964-350"
    },
    {
        "city": "Ji-Parana",
        "state": "RO",
        "district": "Nova Brasilia",
        "street": "Rua Imburana",
        "zipcode": "78964-410"
    },
    {
        "city": "Ji-Parana",
        "state": "RO",
        "district": "Nova Brasilia",
        "street": "Avenida Francisco P. Dos Santos",
        "zipcode": "78964-450"
    },
    {
        "city": "Ji-Parana",
        "state": "RO",
        "district": "Duque De Caxias",
        "street": "Rua Vicente Tabora Cavalcante",
        "zipcode": "78964-530"
    },
    {
        "city": "Ji-Parana",
        "state": "RO",
        "district": "Jardim Dos Migrantes",
        "street": "Rua Rio Negro",
        "zipcode": "78962-605"
    },
    {
        "city": "Ji-Parana",
        "state": "RO",
        "district": "Jardim Dos Migrantes",
        "street": "Rua Goncalves Dias",
        "zipcode": "78962-550"
    },
    {
        "city": "Ji-Parana",
        "state": "RO",
        "district": "Centro",
        "street": "Avenida Ji",
        "zipcode": "78961-070"
    },
    {
        "city": "Ji-Parana",
        "state": "RO",
        "district": "Nova Brasilia",
        "street": "Rua Porto Alegre",
        "zipcode": "78964-060"
    },
    {
        "city": "Ji-Parana",
        "state": "RO",
        "district": "Nova Brasilia",
        "street": "Rua Manoel Vieira Dos Santos",
        "zipcode": "78964-310"
    },
    {
        "city": "Ji-Parana",
        "state": "RO",
        "district": "Centro",
        "street": "Rua Dos Suruis",
        "zipcode": "78961-160"
    },
    {
        "city": "Ji-Parana",
        "state": "RO",
        "district": "Jardim Dos Migrantes",
        "street": "Rua Dos Brilhante",
        "zipcode": "78961-280"
    },
    {
        "city": "Ji-Parana",
        "state": "RO",
        "district": "Nova Brasilia",
        "street": "Avenida Brasil",
        "zipcode": "78963-000"
    },
    {
        "city": "Ji-Parana",
        "state": "RO",
        "district": "Casa Preta",
        "street": "Avenida Transcontinental",
        "zipcode": "78962-500"
    },
    {
        "city": "Ji-Parana",
        "state": "RO",
        "district": "Nova Brasilia",
        "street": "Rua Barao Do Rio Branco",
        "zipcode": "78963-375"
    },
    {
        "city": "Ji-Parana",
        "state": "RO",
        "district": "Centro",
        "street": "Rua Arseno Rodrigues",
        "zipcode": "78961-080"
    },
    {
        "city": "Ji-Parana",
        "state": "RO",
        "district": "Nova Brasilia",
        "street": "Rua Ipe",
        "zipcode": "78963-380"
    },
    {
        "city": "Ji-Parana",
        "state": "RO",
        "district": "Jardim Dos Migrantes",
        "street": "Rua Santa Izabel",
        "zipcode": "78962-625"
    },
    {
        "city": "Ji-Parana",
        "state": "RO",
        "district": "Nova Brasilia",
        "street": "Avenida Triangulo Mineiro",
        "zipcode": "78964-290"
    },
    {
        "city": "Ji-Parana",
        "state": "RO",
        "district": "Sao Bernardo",
        "street": "Avenida Elias Cardoso Balau",
        "zipcode": "78962-400"
    },
    {
        "city": "Ji-Parana",
        "state": "RO",
        "district": "Centro",
        "street": "Rua Anisio Serra",
        "zipcode": "78961-220"
    },
    {
        "city": "Ji-Parana",
        "state": "RO",
        "district": "Sao Bernardo",
        "street": "Rua Presidente Costa E Silva",
        "zipcode": "78962-270"
    },
    {
        "city": "Ji-Parana",
        "state": "RO",
        "district": "Centro",
        "street": "Rua Dos Babacus",
        "zipcode": "78961-250"
    },
    {
        "city": "Ji-Parana",
        "state": "RO",
        "district": "Nova Brasilia",
        "street": "Rua Divino Taquari",
        "zipcode": "78964-320"
    },
    {
        "city": "Ji-Parana",
        "state": "RO",
        "district": "Centro",
        "street": "Rua Nestor Ramos",
        "zipcode": "78961-050"
    },
    {
        "city": "Ji-Parana",
        "state": "RO",
        "district": "Primavera",
        "street": "Rua Tiradentes",
        "zipcode": "78963-220"
    },
    {
        "city": "Ji-Parana",
        "state": "RO",
        "district": "Centro",
        "street": "Rua Dos Cajueiros",
        "zipcode": "78961-240"
    },
    {
        "city": "Ji-Parana",
        "state": "RO",
        "district": "Centro",
        "street": "Rua Dos Zoros",
        "zipcode": "78961-140"
    },
    {
        "city": "Ji-Parana",
        "state": "RO",
        "district": "Nova Brasilia",
        "street": "Rua Barao Do Rio Branco",
        "zipcode": "78964-370"
    },
    {
        "city": "Ji-Parana",
        "state": "RO",
        "district": "Riachuelo",
        "street": "Avenida Triangulo Mineiro",
        "zipcode": "78963-280"
    },
    {
        "city": "Ji-Parana",
        "state": "RO",
        "district": "Centro",
        "street": "Rua Raimundo Ferreira",
        "zipcode": "78961-100"
    },
    {
        "city": "Ji-Parana",
        "state": "RO",
        "district": "2 De Abril",
        "street": "Rua Treze",
        "zipcode": "78962-130"
    },
    {
        "city": "Ji-Parana",
        "state": "RO",
        "district": "Centro",
        "street": "Rua Caetano Costa",
        "zipcode": "78961-190"
    }
]