[
    {
        "city": "Araxa",
        "state": "MG",
        "district": "Parque Dos Ipes",
        "street": "Rua Ebano",
        "zipcode": "38180-382"
    },
    {
        "city": "Araxa",
        "state": "MG",
        "district": "Arasol",
        "street": "Rua A",
        "zipcode": "38183-292"
    },
    {
        "city": "Araxa",
        "state": "MG",
        "district": "Centro",
        "street": "Pra√ßa Maria Aparecida Carneiro",
        "zipcode": "38183-102"
    },
    {
        "city": "Araxa",
        "state": "MG",
        "district": "Parque Dos Ipes",
        "street": "Rodovia Br",
        "zipcode": "38180-370"
    },
    {
        "city": "Araxa",
        "state": "MG",
        "district": "Parque Dos Ipes",
        "street": "Rua Balsamo",
        "zipcode": "38180-380"
    },
    {
        "city": "Araxa",
        "state": "MG",
        "district": "Parque Dos Ipes",
        "street": "Rua Aroeira",
        "zipcode": "38180-378"
    },
    {
        "city": "Araxa",
        "state": "MG",
        "district": "Vila Fertiza",
        "street": "Avenida H",
        "zipcode": "38184-198"
    },
    {
        "city": "Araxa",
        "state": "MG",
        "district": "Parque Dos Ipes",
        "street": "Rua Imbuia",
        "zipcode": "38180-376"
    },
    {
        "city": "Araxa",
        "state": "MG",
        "district": "Conj Habit Boa Vista",
        "street": "Rua Vinte E Quatro",
        "zipcode": "38180-730"
    },
    {
        "city": "Araxa",
        "state": "MG",
        "district": "Parque Dos Ipes",
        "street": "Rodovia Br",
        "zipcode": "38180-384"
    },
    {
        "city": "Araxa",
        "state": "MG",
        "district": "Parque Dos Ipes",
        "street": "Rua Sucupira",
        "zipcode": "38180-372"
    },
    {
        "city": "Araxa",
        "state": "MG",
        "district": "Vila Fertiza",
        "street": "Rua E",
        "zipcode": "38184-210"
    },
    {
        "city": "Araxa",
        "state": "MG",
        "district": "Vila Fertiza",
        "street": "Rua F",
        "zipcode": "38184-212"
    },
    {
        "city": "Araxa",
        "state": "MG",
        "district": "Vila Fertiza",
        "street": "Rua D",
        "zipcode": "38184-208"
    },
    {
        "city": "Araxa",
        "state": "MG",
        "district": "Vila Fertiza",
        "street": "Rua G",
        "zipcode": "38184-214"
    },
    {
        "city": "Araxa",
        "state": "MG",
        "district": "Vila Fertiza",
        "street": "Rua C",
        "zipcode": "38184-206"
    },
    {
        "city": "Araxa",
        "state": "MG",
        "district": "Parque Dos Ipes",
        "street": "Rua Perimetral",
        "zipcode": "38180-374"
    }
]