[
    {
        "city": "Braúnas",
        "state": "MG",
        "district": "Centro",
        "street": "Rua São Vicente 515",
        "zipcode": "35169-970"
    },
    {
        "city": "Braúnas",
        "state": "MG",
        "district": null,
        "street": null,
        "zipcode": "35169-000"
    },
    {
        "city": "Braúnas",
        "state": "MG",
        "district": "Centro",
        "street": "Rua Principal s/n  AGC Barroadas",
        "zipcode": "35189-971"
    },
    {
        "city": "Braúnas",
        "state": "MG",
        "district": "Centro",
        "street": "Rua Principal s/n  AGC Santa Rita (Braúnas)",
        "zipcode": "35189-973"
    },
    {
        "city": "Braúnas",
        "state": "MG",
        "district": "",
        "street": "Rua Principal s/n",
        "zipcode": "35189-990"
    },
    {
        "city": "Braúnas",
        "state": "MG",
        "district": "Centro",
        "street": "Rua São Vicente 515  AC Braúnas",
        "zipcode": "35189-970"
    },
    {
        "city": "Braúnas",
        "state": "MG",
        "district": "Salto Grande",
        "street": "Vila Salto Grande s/n  AGC Salto Grande",
        "zipcode": "35189-976"
    },
    {
        "city": "Braúnas",
        "state": "MG",
        "district": "",
        "street": "",
        "zipcode": "35189-000"
    },
    {
        "city": "Braúnas",
        "state": "MG",
        "district": "Salto Grande",
        "street": "Vila Salto Grande s/n",
        "zipcode": "35169-976"
    },
    {
        "city": "Braúnas",
        "state": "MG",
        "district": null,
        "street": "Rua Principal s/n",
        "zipcode": "35169-990"
    },
    {
        "city": "Braúnas",
        "state": "MG",
        "district": "Centro",
        "street": "Rua Principal s/n",
        "zipcode": "35169-971"
    },
    {
        "city": "Braúnas",
        "state": "MG",
        "district": "Centro",
        "street": "Rua Principal s/n",
        "zipcode": "35169-973"
    }
]