[
    {
        "city": "Cataguases",
        "state": "MG",
        "district": "Chácara Bom Sucesso",
        "street": "Rua Jarbas Henrique Passos",
        "zipcode": "36772-548"
    },
    {
        "city": "Cataguases",
        "state": "MG",
        "district": "Ana Carrara",
        "street": "Rua C",
        "zipcode": "36773-766"
    },
    {
        "city": "Cataguases",
        "state": "MG",
        "district": "Fátima",
        "street": "Rua Oito",
        "zipcode": "36773-576"
    },
    {
        "city": "Cataguases",
        "state": "MG",
        "district": "Ime Farage",
        "street": "Rua Amazonas",
        "zipcode": "36773-582"
    },
    {
        "city": "Cataguases",
        "state": "MG",
        "district": "Colinas",
        "street": "Rua Doze",
        "zipcode": "36773-280"
    },
    {
        "city": "Cataguases",
        "state": "MG",
        "district": "Pouso Alegre",
        "street": "Rua Guiomar Furtado",
        "zipcode": "36774-558"
    },
    {
        "city": "Cataguases",
        "state": "MG",
        "district": "Pouso Alegre",
        "street": "Rua Manoel Fialho Reis",
        "zipcode": "36774-335"
    },
    {
        "city": "Cataguases",
        "state": "MG",
        "district": "Pouso Alegre",
        "street": "Rua Moacir Fialho Reis",
        "zipcode": "36774-339"
    },
    {
        "city": "Cataguases",
        "state": "MG",
        "district": "Jardim Santa Cristina",
        "street": "Alameda das Andorinhas",
        "zipcode": "36770-448"
    },
    {
        "city": "Cataguases",
        "state": "MG",
        "district": "Granjaria",
        "street": "Avenida Eponina Peixoto Ribeiro",
        "zipcode": "36773-564"
    },
    {
        "city": "Cataguases",
        "state": "MG",
        "district": "Centro",
        "street": "Praça Governador Valadares",
        "zipcode": "36770-071"
    },
    {
        "city": "Cataguases",
        "state": "MG",
        "district": "Centro",
        "street": "Rua Doutor Lobo Filho",
        "zipcode": "36770-006"
    },
    {
        "city": "Cataguases",
        "state": "MG",
        "district": "Centro",
        "street": "Praça Santa Rita",
        "zipcode": "36770-020"
    },
    {
        "city": "Cataguases",
        "state": "MG",
        "district": "Centro",
        "street": "Rua Elcy Fajardo",
        "zipcode": "36770-082"
    },
    {
        "city": "Cataguases",
        "state": "MG",
        "district": "Vila Reis",
        "street": "Rua Leogédio Carlos da Silva",
        "zipcode": "36770-220"
    },
    {
        "city": "Cataguases",
        "state": "MG",
        "district": "Vila Reis",
        "street": "Rua Fernando Peixoto",
        "zipcode": "36770-222"
    },
    {
        "city": "Cataguases",
        "state": "MG",
        "district": "Centro",
        "street": "Rua Major Vieira",
        "zipcode": "36770-060"
    },
    {
        "city": "Cataguases",
        "state": "MG",
        "district": "Centro",
        "street": "Rua Raimundo de Paula Batista",
        "zipcode": "36770-078"
    },
    {
        "city": "Cataguases",
        "state": "MG",
        "district": "Bela Vista",
        "street": "Rua Pedro Dutra",
        "zipcode": "36770-166"
    },
    {
        "city": "Cataguases",
        "state": "MG",
        "district": "José Gabriel de Passos",
        "street": "Rua Sigismundo Ferreira",
        "zipcode": "36770-230"
    },
    {
        "city": "Cataguases",
        "state": "MG",
        "district": "Centro",
        "street": "Travessa Astolfo Dutra",
        "zipcode": "36770-002"
    },
    {
        "city": "Cataguases",
        "state": "MG",
        "district": "Centro",
        "street": "Travessa Américo Ramos",
        "zipcode": "36770-036"
    },
    {
        "city": "Cataguases",
        "state": "MG",
        "district": "Centro",
        "street": "Rua Doutor Antônio Carlos Sobral",
        "zipcode": "36770-044"
    },
    {
        "city": "Cataguases",
        "state": "MG",
        "district": "Vila Reis",
        "street": "Rua Vitório Pedro Gracioli",
        "zipcode": "36770-224"
    },
    {
        "city": "Cataguases",
        "state": "MG",
        "district": "Distrito Industrial",
        "street": "Avenida Manoel Inácio Peixoto",
        "zipcode": "36771-000"
    },
    {
        "city": "Cataguases",
        "state": "MG",
        "district": "Paraíso",
        "street": "Alameda das Cabiúnas",
        "zipcode": "36772-210"
    },
    {
        "city": "Cataguases",
        "state": "MG",
        "district": "Vila Reis",
        "street": "Rua Danton Portilho",
        "zipcode": "36770-243"
    },
    {
        "city": "Cataguases",
        "state": "MG",
        "district": "Jardim Santa Cristina",
        "street": "Rua da Paz",
        "zipcode": "36770-444"
    },
    {
        "city": "Cataguases",
        "state": "MG",
        "district": "Jardim Santa Cristina",
        "street": "Rua Capitu",
        "zipcode": "36770-452"
    },
    {
        "city": "Cataguases",
        "state": "MG",
        "district": "João Riguete",
        "street": "Rua Antônio Januário Carneiro",
        "zipcode": "36770-618"
    },
    {
        "city": "Cataguases",
        "state": "MG",
        "district": "Santa Clara",
        "street": "Rua Domingos Tostes",
        "zipcode": "36771-414"
    },
    {
        "city": "Cataguases",
        "state": "MG",
        "district": "Taquara Preta",
        "street": "Rua Angelo Rocha",
        "zipcode": "36771-547"
    },
    {
        "city": "Cataguases",
        "state": "MG",
        "district": "Taquara Preta",
        "street": "Rua Carlos Drumond de Andrade",
        "zipcode": "36771-550"
    },
    {
        "city": "Cataguases",
        "state": "MG",
        "district": "Vila Tereza",
        "street": "Rua Doutor José Cohen",
        "zipcode": "36772-014"
    },
    {
        "city": "Cataguases",
        "state": "MG",
        "district": "Paraíso",
        "street": "Rua Bento Manso",
        "zipcode": "36772-156"
    },
    {
        "city": "Cataguases",
        "state": "MG",
        "district": "Carijós",
        "street": "Rua Espírito Santo",
        "zipcode": "36770-311"
    },
    {
        "city": "Cataguases",
        "state": "MG",
        "district": "João Riguete",
        "street": "Rua João Riguete",
        "zipcode": "36770-608"
    },
    {
        "city": "Cataguases",
        "state": "MG",
        "district": "Ibraim Mendonça",
        "street": "Rua Jandira de Souza Reis",
        "zipcode": "36771-014"
    },
    {
        "city": "Cataguases",
        "state": "MG",
        "district": "Ibraim Mendonça",
        "street": "Rua Jarbas de S. Melo",
        "zipcode": "36771-141"
    },
    {
        "city": "Cataguases",
        "state": "MG",
        "district": "Taquara Preta",
        "street": "Rua Geraldo Costa Cruz",
        "zipcode": "36771-524"
    },
    {
        "city": "Cataguases",
        "state": "MG",
        "district": "Taquara Preta",
        "street": "Rua Ercyl Salgado",
        "zipcode": "36771-548"
    },
    {
        "city": "Cataguases",
        "state": "MG",
        "district": "Centenário",
        "street": "Rua Levi Simões da Costa",
        "zipcode": "36772-362"
    },
    {
        "city": "Cataguases",
        "state": "MG",
        "district": "Ana Carrara",
        "street": "Rua D",
        "zipcode": "36773-764"
    },
    {
        "city": "Cataguases",
        "state": "MG",
        "district": "Vila Minalda",
        "street": "Rua Herberto Dutra",
        "zipcode": "36772-415"
    },
    {
        "city": "Cataguases",
        "state": "MG",
        "district": "Primavera",
        "street": "Rua Francisco Trocoli Masseli",
        "zipcode": "36772-506"
    },
    {
        "city": "Cataguases",
        "state": "MG",
        "district": "Jardim Santa Cristina",
        "street": "Rua Macunaíma",
        "zipcode": "36770-404"
    },
    {
        "city": "Cataguases",
        "state": "MG",
        "district": "São Pedro",
        "street": "Rua Odomar de Souza",
        "zipcode": "36771-312"
    },
    {
        "city": "Cataguases",
        "state": "MG",
        "district": "Taquara Preta",
        "street": "Rua Maria das Dores Mendes Vaz",
        "zipcode": "36771-520"
    },
    {
        "city": "Cataguases",
        "state": "MG",
        "district": "São Pedro",
        "street": "Rua Nelson Bianchi",
        "zipcode": "36771-310"
    },
    {
        "city": "Cataguases",
        "state": "MG",
        "district": "Dico Leite",
        "street": "Rua Sebatião Galdino",
        "zipcode": "36772-459"
    },
    {
        "city": "Cataguases",
        "state": "MG",
        "district": "Primavera",
        "street": "Rua Sebastião S. Pinto",
        "zipcode": "36772-516"
    },
    {
        "city": "Cataguases",
        "state": "MG",
        "district": "São João",
        "street": "Rua Vereador Jorge Cardoso Sales",
        "zipcode": "36770-242"
    },
    {
        "city": "Cataguases",
        "state": "MG",
        "district": "João Riguete",
        "street": "Rua Umbelino Domingos da Silva",
        "zipcode": "36770-624"
    },
    {
        "city": "Cataguases",
        "state": "MG",
        "district": "Taquara Preta",
        "street": "Rua Telmo Assis Amand",
        "zipcode": "36771-544"
    },
    {
        "city": "Cataguases",
        "state": "MG",
        "district": "São Marcos",
        "street": "Travessa Trinta de Maio",
        "zipcode": "36771-714"
    },
    {
        "city": "Cataguases",
        "state": "MG",
        "district": "Vila Minalda",
        "street": "Rua Walter Santos de Carvalho",
        "zipcode": "36772-416"
    },
    {
        "city": "Cataguases",
        "state": "MG",
        "district": "Primavera",
        "street": "Rua Carolina Clementina Alves",
        "zipcode": "36772-524"
    },
    {
        "city": "Cataguases",
        "state": "MG",
        "district": "Paraíso",
        "street": "Beco dos Pinheiros",
        "zipcode": "36772-168"
    },
    {
        "city": "Cataguases",
        "state": "MG",
        "district": "Granjaria",
        "street": "Avenida João Inácio Peixoto",
        "zipcode": "36773-560"
    },
    {
        "city": "Cataguases",
        "state": "MG",
        "district": "Granjaria",
        "street": "Rua Alzira Lamim de Miranda",
        "zipcode": "36773-261"
    },
    {
        "city": "Cataguases",
        "state": "MG",
        "district": "Colinas",
        "street": "Rua Doutor Walter Gomes Rosa",
        "zipcode": "36773-290"
    },
    {
        "city": "Cataguases",
        "state": "MG",
        "district": "Granjaria",
        "street": "Rua Doutor Tácito de Andrade",
        "zipcode": "36773-565"
    },
    {
        "city": "Cataguases",
        "state": "MG",
        "district": "Fátima",
        "street": "Rua Armênia Pereira Lima",
        "zipcode": "36773-586"
    },
    {
        "city": "Cataguases",
        "state": "MG",
        "district": "Menezes",
        "street": "Rua Euclides Rocha",
        "zipcode": "36773-090"
    },
    {
        "city": "Cataguases",
        "state": "MG",
        "district": "Jardim Bandeirantes I",
        "street": "Rua L",
        "zipcode": "36773-098"
    },
    {
        "city": "Cataguases",
        "state": "MG",
        "district": "Jardim Bandeirantes I",
        "street": "Rua Joaquim Francisco Ferreira",
        "zipcode": "36773-119"
    },
    {
        "city": "Cataguases",
        "state": "MG",
        "district": "Recanto das Palmeiras",
        "street": "Rua Geraldo Amin Samor",
        "zipcode": "36773-480"
    },
    {
        "city": "Cataguases",
        "state": "MG",
        "district": "Recanto das Palmeiras",
        "street": "Rua Flávio Leite Souza",
        "zipcode": "36773-482"
    },
    {
        "city": "Cataguases",
        "state": "MG",
        "district": "Leonardo",
        "street": "Rua José Augusto de Souza",
        "zipcode": "36773-674"
    },
    {
        "city": "Cataguases",
        "state": "MG",
        "district": "Primavera",
        "street": "Rua Napoleão Monteiro de Barros",
        "zipcode": "36772-530"
    },
    {
        "city": "Cataguases",
        "state": "MG",
        "district": "Nossa Senhora das Graças",
        "street": "Rua Othenilio Dias da Cruz",
        "zipcode": "36773-050"
    },
    {
        "city": "Cataguases",
        "state": "MG",
        "district": "Jardim Bandeirantes II",
        "street": "Rua Tarcísio Lessa",
        "zipcode": "36773-109"
    },
    {
        "city": "Cataguases",
        "state": "MG",
        "district": "Colinas",
        "street": "Rua Professor Antônio Amaro",
        "zipcode": "36773-254"
    },
    {
        "city": "Cataguases",
        "state": "MG",
        "district": "Horto Florestal",
        "street": "Rua Simão José da Silva",
        "zipcode": "36773-461"
    },
    {
        "city": "Cataguases",
        "state": "MG",
        "district": "Recanto das Palmeiras",
        "street": "Rua Olavo Martins Rocha",
        "zipcode": "36773-483"
    },
    {
        "city": "Cataguases",
        "state": "MG",
        "district": "Guanabara",
        "street": "Rua Raul Cisneiro Guedes",
        "zipcode": "36773-600"
    },
    {
        "city": "Cataguases",
        "state": "MG",
        "district": "Menezes",
        "street": "Travessa Antônio dos Passos",
        "zipcode": "36773-087"
    },
    {
        "city": "Cataguases",
        "state": "MG",
        "district": "Jardim Bandeirantes I",
        "street": "Praça do Ouro",
        "zipcode": "36773-124"
    },
    {
        "city": "Cataguases",
        "state": "MG",
        "district": "Colinas",
        "street": "Rua Wilde Amorim",
        "zipcode": "36773-270"
    },
    {
        "city": "Cataguases",
        "state": "MG",
        "district": "Leonardo",
        "street": "Rua Eli Vieira de Souza",
        "zipcode": "36773-634"
    },
    {
        "city": "Cataguases",
        "state": "MG",
        "district": "Leonardo",
        "street": "Rua Pedro Álvares Cabral",
        "zipcode": "36773-636"
    },
    {
        "city": "Cataguases",
        "state": "MG",
        "district": "Vila Rezende",
        "street": "Rua Dom Pedro I",
        "zipcode": "36774-006"
    },
    {
        "city": "Cataguases",
        "state": "MG",
        "district": "São Marcos",
        "street": "Rua José Américo Ribeiro",
        "zipcode": "36771-710"
    },
    {
        "city": "Cataguases",
        "state": "MG",
        "district": "Beira Rio",
        "street": "Rua Graciema Mendonça de Resende",
        "zipcode": "36772-038"
    },
    {
        "city": "Cataguases",
        "state": "MG",
        "district": "Beira Rio",
        "street": "Rua Marluce Mendonça de Resende",
        "zipcode": "36772-040"
    },
    {
        "city": "Cataguases",
        "state": "MG",
        "district": "Centenário",
        "street": "Rua Mário Cardoso",
        "zipcode": "36772-360"
    },
    {
        "city": "Cataguases",
        "state": "MG",
        "district": "Chácara Bom Sucesso",
        "street": "Rua Quatro",
        "zipcode": "36772-554"
    },
    {
        "city": "Cataguases",
        "state": "MG",
        "district": "Centro",
        "street": "Rua Ennes Luz Pinto",
        "zipcode": "36773-000"
    },
    {
        "city": "Cataguases",
        "state": "MG",
        "district": "Morada da Serra",
        "street": "Rua das Amendoeiras",
        "zipcode": "36773-024"
    },
    {
        "city": "Cataguases",
        "state": "MG",
        "district": "Recanto das Palmeiras",
        "street": "Rua Dona Maria Imaculada Pinheiro",
        "zipcode": "36773-486"
    },
    {
        "city": "Cataguases",
        "state": "MG",
        "district": "Vila Domingos Lopes",
        "street": "Rua Mauro Peixoto Gomes",
        "zipcode": "36774-015"
    },
    {
        "city": "Cataguases",
        "state": "MG",
        "district": "Vila Domingos Lopes",
        "street": "Rua Joaquim Augusto de Almeida",
        "zipcode": "36774-016"
    },
    {
        "city": "Cataguases",
        "state": "MG",
        "district": "Vila Domingos Lopes",
        "street": "Rua Maurício Murgel",
        "zipcode": "36774-028"
    },
    {
        "city": "Cataguases",
        "state": "MG",
        "district": "Vila Domingos Lopes",
        "street": "Rua Francisco Valente",
        "zipcode": "36774-030"
    },
    {
        "city": "Cataguases",
        "state": "MG",
        "district": "Haidee",
        "street": "Rua Itapoá",
        "zipcode": "36774-094"
    },
    {
        "city": "Cataguases",
        "state": "MG",
        "district": "Menezes",
        "street": "Rua Itagiba Thomas da Silva",
        "zipcode": "36774-127"
    },
    {
        "city": "Cataguases",
        "state": "MG",
        "district": "Independência",
        "street": "Rua Professor Elias Chicre",
        "zipcode": "36774-132"
    },
    {
        "city": "Cataguases",
        "state": "MG",
        "district": "Thomé",
        "street": "Rua Domingos Ciliberio",
        "zipcode": "36774-150"
    },
    {
        "city": "Cataguases",
        "state": "MG",
        "district": "Thomé",
        "street": "Rua Ana Ávila Thome",
        "zipcode": "36774-156"
    },
    {
        "city": "Cataguases",
        "state": "MG",
        "district": "Sebastião Adolfo",
        "street": "Rua Manoel Ribeiro",
        "zipcode": "36774-180"
    },
    {
        "city": "Cataguases",
        "state": "MG",
        "district": "Sebastião Adolfo",
        "street": "Rua Aristóbulo Alves",
        "zipcode": "36774-181"
    },
    {
        "city": "Cataguases",
        "state": "MG",
        "district": "Menezes",
        "street": "Rua João Gonçalves de Azevedo (Vl Penha)",
        "zipcode": "36774-200"
    },
    {
        "city": "Cataguases",
        "state": "MG",
        "district": "Menezes",
        "street": "Rua Alberto Ramos (Vl Penha)",
        "zipcode": "36774-206"
    },
    {
        "city": "Cataguases",
        "state": "MG",
        "district": "Sol Nascente",
        "street": "Rua Paulo Valério",
        "zipcode": "36774-408"
    },
    {
        "city": "Cataguases",
        "state": "MG",
        "district": "Sol Nascente",
        "street": "Rua Henrique Athouguia",
        "zipcode": "36774-410"
    },
    {
        "city": "Cataguases",
        "state": "MG",
        "district": "Chácaras Palmeiras",
        "street": "Rua Ondina Carvalheira Peixoto",
        "zipcode": "36774-550"
    },
    {
        "city": "Cataguases",
        "state": "MG",
        "district": "Popular",
        "street": "Rua Doutor Cavalcanti",
        "zipcode": "36774-564"
    },
    {
        "city": "Cataguases",
        "state": "MG",
        "district": "Popular",
        "street": "Rua David Teixeira",
        "zipcode": "36774-574"
    },
    {
        "city": "Cataguases",
        "state": "MG",
        "district": "São Sebastião",
        "street": "Rua Armando Paula Neves",
        "zipcode": "36774-658"
    },
    {
        "city": "Cataguases",
        "state": "MG",
        "district": "São Sebastião",
        "street": "Rua Aquiles Mazini Filho",
        "zipcode": "36774-662"
    },
    {
        "city": "Cataguases",
        "state": "MG",
        "district": "Pampulha",
        "street": "Rua Francisco Chaves Campos",
        "zipcode": "36774-782"
    },
    {
        "city": "Cataguases",
        "state": "MG",
        "district": "Pampulha",
        "street": "Rua Monsenhor Solindo José da Cunha",
        "zipcode": "36774-784"
    },
    {
        "city": "Cataguases",
        "state": "MG",
        "district": "Carijós",
        "street": "Rua Paraíba",
        "zipcode": "36770-305"
    },
    {
        "city": "Cataguases",
        "state": "MG",
        "district": "Centro",
        "street": "Vila Manhães",
        "zipcode": "36770-008"
    },
    {
        "city": "Cataguases",
        "state": "MG",
        "district": "São Pedro",
        "street": "Rua Edgard Coutinho",
        "zipcode": "36771-306"
    },
    {
        "city": "Cataguases",
        "state": "MG",
        "district": "Centro",
        "street": "Avenida Meia Pataca",
        "zipcode": "36770-003"
    },
    {
        "city": "Cataguases",
        "state": "MG",
        "district": "Centro",
        "street": "Beco Finoca",
        "zipcode": "36774-001"
    },
    {
        "city": "Cataguases",
        "state": "MG",
        "district": "Ibraim Mendonça",
        "street": "Rua F",
        "zipcode": "36771-112"
    },
    {
        "city": "Cataguases",
        "state": "MG",
        "district": "Jardim",
        "street": "Rua Willian Schofield",
        "zipcode": "36772-004"
    },
    {
        "city": "Cataguases",
        "state": "MG",
        "district": "Haidee",
        "street": "Rua Itaquera",
        "zipcode": "36774-090"
    },
    {
        "city": "Cataguases",
        "state": "MG",
        "district": "Thomé",
        "street": "Rua Tiradentes",
        "zipcode": "36774-152"
    },
    {
        "city": "Cataguases",
        "state": "MG",
        "district": "Centro",
        "street": "Praça Rogério Teixeira",
        "zipcode": "36770-058"
    },
    {
        "city": "Cataguases",
        "state": "MG",
        "district": "Centro",
        "street": "Avenida Rotary",
        "zipcode": "36770-067"
    },
    {
        "city": "Cataguases",
        "state": "MG",
        "district": "Bela Vista",
        "street": "Chácara da Pedreira",
        "zipcode": "36770-168"
    },
    {
        "city": "Cataguases",
        "state": "MG",
        "district": "Vila Reis",
        "street": "Beco da Alegria",
        "zipcode": "36770-236"
    },
    {
        "city": "Cataguases",
        "state": "MG",
        "district": "Vila Reis",
        "street": "Avenida Maria Fernandes de Barros",
        "zipcode": "36770-238"
    },
    {
        "city": "Cataguases",
        "state": "MG",
        "district": "Jardim Santa Cristina",
        "street": "Avenida Vargem Alegre",
        "zipcode": "36770-408"
    },
    {
        "city": "Cataguases",
        "state": "MG",
        "district": "Jardim Santa Cristina",
        "street": "Alameda dos Colibris",
        "zipcode": "36770-438"
    },
    {
        "city": "Cataguases",
        "state": "MG",
        "district": "Antônio Justino",
        "street": "Avenida Antônio Justino",
        "zipcode": "36770-602"
    },
    {
        "city": "Cataguases",
        "state": "MG",
        "district": "Santa Clara",
        "street": "Avenida das Industrias",
        "zipcode": "36771-396"
    },
    {
        "city": "Cataguases",
        "state": "MG",
        "district": "Beira Rio",
        "street": "Beco São Francisco de Assis",
        "zipcode": "36772-035"
    },
    {
        "city": "Cataguases",
        "state": "MG",
        "district": "Paraíso",
        "street": "Alameda das Perobas",
        "zipcode": "36772-176"
    },
    {
        "city": "Cataguases",
        "state": "MG",
        "district": "Dico Leite",
        "street": "Avenida Gecerico Gomes Oliveira",
        "zipcode": "36772-451"
    },
    {
        "city": "Cataguases",
        "state": "MG",
        "district": "Colinas",
        "street": "Praça Amarildo Navarro",
        "zipcode": "36773-266"
    },
    {
        "city": "Cataguases",
        "state": "MG",
        "district": "Granjaria",
        "street": "Chácara da Granjaria",
        "zipcode": "36773-563"
    },
    {
        "city": "Cataguases",
        "state": "MG",
        "district": "Leonardo",
        "street": "Beco do Magro",
        "zipcode": "36773-644"
    },
    {
        "city": "Cataguases",
        "state": "MG",
        "district": "Popular",
        "street": "Beco Crioulo",
        "zipcode": "36774-553"
    },
    {
        "city": "Cataguases",
        "state": "MG",
        "district": "Centro",
        "street": "Rua Alfredo Barroso",
        "zipcode": "36770-052"
    },
    {
        "city": "Cataguases",
        "state": "MG",
        "district": "Centro",
        "street": "Rua Ananísia Fonseca",
        "zipcode": "36770-074"
    },
    {
        "city": "Cataguases",
        "state": "MG",
        "district": "Ibraim Mendonça",
        "street": "Rua Antônio Carroceiro",
        "zipcode": "36771-118"
    },
    {
        "city": "Cataguases",
        "state": "MG",
        "district": "Primavera",
        "street": "Rua Alcides",
        "zipcode": "36772-540"
    },
    {
        "city": "Cataguases",
        "state": "MG",
        "district": "Colinas",
        "street": "Praça Rosa do Amaral",
        "zipcode": "36773-294"
    },
    {
        "city": "Cataguases",
        "state": "MG",
        "district": "Granjaria",
        "street": "Rua Altina Maria Simões",
        "zipcode": "36773-559"
    },
    {
        "city": "Cataguases",
        "state": "MG",
        "district": "Guanabara",
        "street": "Rua André Rocha Oliveira",
        "zipcode": "36773-614"
    },
    {
        "city": "Cataguases",
        "state": "MG",
        "district": "Leonardo",
        "street": "Rua Aida Carvalheira Peixoto",
        "zipcode": "36773-654"
    },
    {
        "city": "Cataguases",
        "state": "MG",
        "district": "Santa Clara",
        "street": "Beco da Solidão",
        "zipcode": "36771-004"
    },
    {
        "city": "Cataguases",
        "state": "MG",
        "district": "Paraíso",
        "street": "Praça Quatro",
        "zipcode": "36772-206"
    },
    {
        "city": "Cataguases",
        "state": "MG",
        "district": "Bom Pastor",
        "street": "Avenida Centenário",
        "zipcode": "36772-350"
    },
    {
        "city": "Cataguases",
        "state": "MG",
        "district": "Vila Minalda",
        "street": "Avenida Nicolau Siervi",
        "zipcode": "36772-430"
    },
    {
        "city": "Cataguases",
        "state": "MG",
        "district": "Paraíso",
        "street": "Praça Dois",
        "zipcode": "36772-164"
    },
    {
        "city": "Cataguases",
        "state": "MG",
        "district": "Santa Clara",
        "street": "Rua Alberto Malachine",
        "zipcode": "36771-410"
    },
    {
        "city": "Cataguases",
        "state": "MG",
        "district": "Jardim",
        "street": "Rua Amelinha Peixoto",
        "zipcode": "36772-006"
    },
    {
        "city": "Cataguases",
        "state": "MG",
        "district": "Beira Rio",
        "street": "Rua Alfredo José Nunes",
        "zipcode": "36772-048"
    },
    {
        "city": "Cataguases",
        "state": "MG",
        "district": "Paraíso",
        "street": "Rua Antônio dos Santos Cardoso",
        "zipcode": "36772-180"
    },
    {
        "city": "Cataguases",
        "state": "MG",
        "district": "Paraíso",
        "street": "Praça Um",
        "zipcode": "36772-200"
    },
    {
        "city": "Cataguases",
        "state": "MG",
        "district": "Bom Pastor",
        "street": "Rua Antônio Cunha",
        "zipcode": "36772-354"
    },
    {
        "city": "Cataguases",
        "state": "MG",
        "district": "Centenário",
        "street": "Rua Abílio Tavares Pires",
        "zipcode": "36772-358"
    },
    {
        "city": "Cataguases",
        "state": "MG",
        "district": "Dico Leite",
        "street": "Rua Amelia",
        "zipcode": "36772-454"
    },
    {
        "city": "Cataguases",
        "state": "MG",
        "district": "Esperança",
        "street": "Rua B",
        "zipcode": "36772-502"
    },
    {
        "city": "Cataguases",
        "state": "MG",
        "district": "Primavera",
        "street": "Rua Augusto Albuquerque",
        "zipcode": "36772-512"
    },
    {
        "city": "Cataguases",
        "state": "MG",
        "district": "Primavera",
        "street": "Rua Aniceto Romanhol",
        "zipcode": "36772-528"
    },
    {
        "city": "Cataguases",
        "state": "MG",
        "district": "Vila Reis",
        "street": "Rua Acre",
        "zipcode": "36770-301"
    },
    {
        "city": "Cataguases",
        "state": "MG",
        "district": "Vila Minalda",
        "street": "Beco Horácio Ferreira Costa",
        "zipcode": "36772-412"
    },
    {
        "city": "Cataguases",
        "state": "MG",
        "district": "Centro",
        "street": "Avenida Coronel Artur Cruz",
        "zipcode": "36773-008"
    },
    {
        "city": "Cataguases",
        "state": "MG",
        "district": "Menezes",
        "street": "Praça Antônio dos Passos",
        "zipcode": "36773-088"
    },
    {
        "city": "Cataguases",
        "state": "MG",
        "district": "Granjaria",
        "street": "Beco do Hipólito",
        "zipcode": "36773-260"
    },
    {
        "city": "Cataguases",
        "state": "MG",
        "district": "Morada da Serra",
        "street": "Rua das Figueiras",
        "zipcode": "36773-014"
    },
    {
        "city": "Cataguases",
        "state": "MG",
        "district": "Morada da Serra",
        "street": "Rua das Paineiras",
        "zipcode": "36773-016"
    },
    {
        "city": "Cataguases",
        "state": "MG",
        "district": "Jardim Bandeirantes I",
        "street": "Rua Aquiles Felipe",
        "zipcode": "36773-116"
    },
    {
        "city": "Cataguases",
        "state": "MG",
        "district": "Granjaria",
        "street": "Rua Cezar Simões da Rocha",
        "zipcode": "36773-262"
    },
    {
        "city": "Cataguases",
        "state": "MG",
        "district": "Beira Rio",
        "street": "Avenida Veríssimo Mendonça",
        "zipcode": "36772-022"
    },
    {
        "city": "Cataguases",
        "state": "MG",
        "district": "Paraíso",
        "street": "Alameda dos Buritizeiros",
        "zipcode": "36772-204"
    },
    {
        "city": "Cataguases",
        "state": "MG",
        "district": "Vila Minalda",
        "street": "Beco Saratiel Dias Ferraz",
        "zipcode": "36772-408"
    },
    {
        "city": "Cataguases",
        "state": "MG",
        "district": "Centro",
        "street": "Avenida Melo Viana",
        "zipcode": "36773-010"
    },
    {
        "city": "Cataguases",
        "state": "MG",
        "district": "Centro",
        "street": "Avenida Humberto Mauro",
        "zipcode": "36773-012"
    },
    {
        "city": "Cataguases",
        "state": "MG",
        "district": "Jardim Bandeirantes II",
        "street": "Praça dos Diamantes",
        "zipcode": "36773-104"
    },
    {
        "city": "Cataguases",
        "state": "MG",
        "district": "Jardim Bandeirantes II",
        "street": "Praça das Esmeraldas",
        "zipcode": "36773-110"
    },
    {
        "city": "Cataguases",
        "state": "MG",
        "district": "Colinas",
        "street": "Praça João Paulo II",
        "zipcode": "36773-274"
    },
    {
        "city": "Cataguases",
        "state": "MG",
        "district": "Horto Florestal",
        "street": "Beco Três",
        "zipcode": "36773-456"
    },
    {
        "city": "Cataguases",
        "state": "MG",
        "district": "Granjaria",
        "street": "Praça Doutor Joaquim José da Costa Cruz",
        "zipcode": "36773-540"
    },
    {
        "city": "Cataguases",
        "state": "MG",
        "district": "Leonardo",
        "street": "Avenida José Leonardo",
        "zipcode": "36773-626"
    },
    {
        "city": "Cataguases",
        "state": "MG",
        "district": "Leonardo",
        "street": "Beco Joaquim Vieira",
        "zipcode": "36773-628"
    },
    {
        "city": "Cataguases",
        "state": "MG",
        "district": "Taquara Preta",
        "street": "Avenida José Costa Cruz",
        "zipcode": "36771-536"
    },
    {
        "city": "Cataguases",
        "state": "MG",
        "district": "Paraíso",
        "street": "Alameda dos Ipês",
        "zipcode": "36772-212"
    },
    {
        "city": "Cataguases",
        "state": "MG",
        "district": "Granjaria",
        "street": "Avenida Coronel Artur Cruz",
        "zipcode": "36773-569"
    },
    {
        "city": "Cataguases",
        "state": "MG",
        "district": "Vila Domingos Lopes",
        "street": "Beco dos Pires",
        "zipcode": "36774-018"
    },
    {
        "city": "Cataguases",
        "state": "MG",
        "district": "Vila Domingos Lopes",
        "street": "Praça Cônego Xavier",
        "zipcode": "36774-058"
    },
    {
        "city": "Cataguases",
        "state": "MG",
        "district": "Thomé",
        "street": "Avenida Ministro José Fabrino Baião",
        "zipcode": "36774-184"
    },
    {
        "city": "Cataguases",
        "state": "MG",
        "district": "Popular",
        "street": "Avenida Eudaldo Lessa",
        "zipcode": "36774-552"
    },
    {
        "city": "Cataguases",
        "state": "MG",
        "district": "Popular",
        "street": "Beco dos Machado",
        "zipcode": "36774-650"
    },
    {
        "city": "Cataguases",
        "state": "MG",
        "district": "Popular",
        "street": "Avenida Sizenando Dutra de Siqueira",
        "zipcode": "36774-770"
    },
    {
        "city": "Cataguases",
        "state": "MG",
        "district": "Centro",
        "street": "Rua Arnaud Coimbra",
        "zipcode": "36770-072"
    },
    {
        "city": "Cataguases",
        "state": "MG",
        "district": "Ibraim Mendonça",
        "street": "Rua Antônio Rodrigues Gomes",
        "zipcode": "36771-120"
    },
    {
        "city": "Cataguases",
        "state": "MG",
        "district": "Jardim Bandeirantes I",
        "street": "Rua Alfredo Paratela",
        "zipcode": "36773-092"
    },
    {
        "city": "Cataguases",
        "state": "MG",
        "district": "Recanto das Palmeiras",
        "street": "Rua Beatriz Samor",
        "zipcode": "36773-481"
    },
    {
        "city": "Cataguases",
        "state": "MG",
        "district": "Granjaria",
        "street": "Rua Amauri Antônio Mauad",
        "zipcode": "36773-538"
    },
    {
        "city": "Cataguases",
        "state": "MG",
        "district": "Izabel Tavares",
        "street": "Rua Balsas",
        "zipcode": "36773-590"
    },
    {
        "city": "Cataguases",
        "state": "MG",
        "district": "Fátima",
        "street": "Rua D",
        "zipcode": "36773-596"
    },
    {
        "city": "Cataguases",
        "state": "MG",
        "district": "Jardim Santa Cristina",
        "street": "Alameda das Magnólias",
        "zipcode": "36770-430"
    },
    {
        "city": "Cataguases",
        "state": "MG",
        "district": "Ibraim Mendonça",
        "street": "Rua Capitão João Pedro",
        "zipcode": "36771-140"
    },
    {
        "city": "Cataguases",
        "state": "MG",
        "district": "Guanabara",
        "street": "Beco Sebastião Correia Santiago",
        "zipcode": "36773-603"
    },
    {
        "city": "Cataguases",
        "state": "MG",
        "district": "Guanabara",
        "street": "Rua Antenor Garcia",
        "zipcode": "36773-616"
    },
    {
        "city": "Cataguases",
        "state": "MG",
        "district": "Leonardo",
        "street": "Rua Alzir do Nascimento Arruda",
        "zipcode": "36773-650"
    },
    {
        "city": "Cataguases",
        "state": "MG",
        "district": "Leonardo",
        "street": "Rua Arlindo Pinheiro",
        "zipcode": "36773-656"
    },
    {
        "city": "Cataguases",
        "state": "MG",
        "district": "Leonardo",
        "street": "Rua Antônio de Souza",
        "zipcode": "36773-664"
    },
    {
        "city": "Cataguases",
        "state": "MG",
        "district": "Ana Carrara",
        "street": "Rua A",
        "zipcode": "36773-752"
    },
    {
        "city": "Cataguases",
        "state": "MG",
        "district": "Ana Carrara",
        "street": "Rua Antônio Souza de Carvalho",
        "zipcode": "36773-760"
    },
    {
        "city": "Cataguases",
        "state": "MG",
        "district": "Vila Minalda",
        "street": "Rua Dedé Peixoto Ramos",
        "zipcode": "36772-706"
    },
    {
        "city": "Cataguases",
        "state": "MG",
        "district": "Morada da Serra",
        "street": "Rua das Cerejeiras",
        "zipcode": "36773-017"
    },
    {
        "city": "Cataguases",
        "state": "MG",
        "district": "Miguel Rocha",
        "street": "Rua Carlos Astolfo",
        "zipcode": "36773-550"
    },
    {
        "city": "Cataguases",
        "state": "MG",
        "district": "Leonardo",
        "street": "Rua Antônio Passos",
        "zipcode": "36773-670"
    },
    {
        "city": "Cataguases",
        "state": "MG",
        "district": "Centro",
        "street": "Rua Carlos Inácio Peixoto",
        "zipcode": "36774-042"
    },
    {
        "city": "Cataguases",
        "state": "MG",
        "district": "Vila Domingos Lopes",
        "street": "Rua Augusto Resende",
        "zipcode": "36774-052"
    },
    {
        "city": "Cataguases",
        "state": "MG",
        "district": "Vila Domingos Lopes",
        "street": "Rua Aurélio Augusto de Souza",
        "zipcode": "36774-056"
    },
    {
        "city": "Cataguases",
        "state": "MG",
        "district": "Haidee",
        "street": "Rua Altamiro Peixoto",
        "zipcode": "36774-100"
    },
    {
        "city": "Cataguases",
        "state": "MG",
        "district": "Independência",
        "street": "Rua Cinco",
        "zipcode": "36774-146"
    },
    {
        "city": "Cataguases",
        "state": "MG",
        "district": "Thomé",
        "street": "Rua Antônio Henrique Felipe",
        "zipcode": "36774-168"
    },
    {
        "city": "Cataguases",
        "state": "MG",
        "district": "Sol Nascente",
        "street": "Rua Álvaro Franca",
        "zipcode": "36774-406"
    },
    {
        "city": "Cataguases",
        "state": "MG",
        "district": "Popular",
        "street": "Rua Antero Ribeiro",
        "zipcode": "36774-560"
    },
    {
        "city": "Cataguases",
        "state": "MG",
        "district": "Popular",
        "street": "Praça Teodorico de Oliveira Martins",
        "zipcode": "36774-570"
    },
    {
        "city": "Cataguases",
        "state": "MG",
        "district": "São Sebastião",
        "street": "Rua Agostinho Neves",
        "zipcode": "36774-660"
    },
    {
        "city": "Cataguases",
        "state": "MG",
        "district": "Centro",
        "street": "Avenida Astolfo Dutra",
        "zipcode": "36770-001"
    },
    {
        "city": "Cataguases",
        "state": "MG",
        "district": "Centro",
        "street": "Avenida Meia Pataca",
        "zipcode": "36770-056"
    },
    {
        "city": "Cataguases",
        "state": "MG",
        "district": "Centro",
        "street": "Avenida Sanitária",
        "zipcode": "36770-084"
    },
    {
        "city": "Cataguases",
        "state": "MG",
        "district": "Centro",
        "street": "Avenida Francisco Adolfo de Carvalho",
        "zipcode": "36770-086"
    },
    {
        "city": "Cataguases",
        "state": "MG",
        "district": "Jardim Santa Cristina",
        "street": "Avenida Oscarina",
        "zipcode": "36770-405"
    },
    {
        "city": "Cataguases",
        "state": "MG",
        "district": "Jardim Santa Cristina",
        "street": "Alameda dos Pardais",
        "zipcode": "36770-416"
    },
    {
        "city": "Cataguases",
        "state": "MG",
        "district": "Jardim Santa Cristina",
        "street": "Avenida das Flores",
        "zipcode": "36770-432"
    },
    {
        "city": "Cataguases",
        "state": "MG",
        "district": "Jardim Santa Cristina",
        "street": "Alameda das Garças",
        "zipcode": "36770-450"
    },
    {
        "city": "Cataguases",
        "state": "MG",
        "district": "Centro",
        "street": "Avenida Astolfo Dutra",
        "zipcode": "36770-970"
    },
    {
        "city": "Cataguases",
        "state": "MG",
        "district": "Centro",
        "street": "Avenida Astolfo Dutra",
        "zipcode": "36770-971"
    },
    {
        "city": "Cataguases",
        "state": "MG",
        "district": "Paraíso",
        "street": "Alameda dos Angicos",
        "zipcode": "36772-202"
    },
    {
        "city": "Cataguases",
        "state": "MG",
        "district": "Vila Minalda",
        "street": "Beco do Viana",
        "zipcode": "36772-410"
    },
    {
        "city": "Cataguases",
        "state": "MG",
        "district": "Granjaria",
        "street": "Avenida Paulo Schelb",
        "zipcode": "36773-430"
    },
    {
        "city": "Cataguases",
        "state": "MG",
        "district": "Recanto das Palmeiras",
        "street": "Avenida Paulo Schelb",
        "zipcode": "36773-488"
    },
    {
        "city": "Cataguases",
        "state": "MG",
        "district": "Granjaria",
        "street": "Alameda Francisco Peixoto Filho",
        "zipcode": "36773-541"
    },
    {
        "city": "Cataguases",
        "state": "MG",
        "district": "Leonardo",
        "street": "Beco Santo Antônio",
        "zipcode": "36773-658"
    },
    {
        "city": "Cataguases",
        "state": "MG",
        "district": "Paraíso",
        "street": "Alameda dos Ingazeiros",
        "zipcode": "36772-192"
    },
    {
        "city": "Cataguases",
        "state": "MG",
        "district": "Centro",
        "street": "Praça Doutor Cunha Neto",
        "zipcode": "36773-006"
    },
    {
        "city": "Cataguases",
        "state": "MG",
        "district": "Vila Domingos Lopes",
        "street": "Avenida Meia Pataca",
        "zipcode": "36774-017"
    },
    {
        "city": "Cataguases",
        "state": "MG",
        "district": "Haidee",
        "street": "Avenida Guido Marliere",
        "zipcode": "36774-104"
    },
    {
        "city": "Cataguases",
        "state": "MG",
        "district": "Popular",
        "street": "Avenida Meia Pataca",
        "zipcode": "36774-555"
    },
    {
        "city": "Cataguases",
        "state": "MG",
        "district": "Hermenegildo Marote",
        "street": "Avenida Aladia de Abreu Marote",
        "zipcode": "36774-666"
    },
    {
        "city": "Cataguases",
        "state": "MG",
        "district": "Pampulha",
        "street": "Avenida Meia Pataca",
        "zipcode": "36774-773"
    },
    {
        "city": "Cataguases",
        "state": "MG",
        "district": "Área Rural de Cataguases",
        "street": "Área Rural",
        "zipcode": "36775-899"
    },
    {
        "city": "Cataguases",
        "state": "MG",
        "district": "Centro",
        "street": "Praça Rui Barbosa",
        "zipcode": "36770-034"
    },
    {
        "city": "Cataguases",
        "state": "MG",
        "district": "Iracema",
        "street": "Rua Antônio Alves Miranda",
        "zipcode": "36771-130"
    },
    {
        "city": "Cataguases",
        "state": "MG",
        "district": "São Cristóvão",
        "street": "Rua Antônio Carlos H Silva",
        "zipcode": "36771-704"
    },
    {
        "city": "Cataguases",
        "state": "MG",
        "district": "Dico Leite",
        "street": "Rua Américo",
        "zipcode": "36772-458"
    },
    {
        "city": "Cataguases",
        "state": "MG",
        "district": "Horto Florestal",
        "street": "Rua Antônio Cirilo",
        "zipcode": "36773-454"
    },
    {
        "city": "Cataguases",
        "state": "MG",
        "district": "Horto Florestal",
        "street": "Rua Ana Maria Mendonça",
        "zipcode": "36773-536"
    },
    {
        "city": "Cataguases",
        "state": "MG",
        "district": "Fátima",
        "street": "Rua Alípio Miranda Vaz",
        "zipcode": "36773-592"
    },
    {
        "city": "Cataguases",
        "state": "MG",
        "district": "Ime Farage",
        "street": "Rua Aimorés",
        "zipcode": "36773-612"
    },
    {
        "city": "Cataguases",
        "state": "MG",
        "district": "Centro",
        "street": "Rua Alferes Henrique Azevedo",
        "zipcode": "36770-004"
    },
    {
        "city": "Cataguases",
        "state": "MG",
        "district": "Leonardo",
        "street": "Rua Antônio Augusto Souza Filho",
        "zipcode": "36773-668"
    },
    {
        "city": "Cataguases",
        "state": "MG",
        "district": "Vila Domingos Lopes",
        "street": "Rua Antônio Alexandre",
        "zipcode": "36774-008"
    },
    {
        "city": "Cataguases",
        "state": "MG",
        "district": "Paraíso",
        "street": "Alameda das Palmeiras",
        "zipcode": "36772-190"
    },
    {
        "city": "Cataguases",
        "state": "MG",
        "district": "Jardim Bandeirantes II",
        "street": "Rua Aristides Braga",
        "zipcode": "36773-076"
    },
    {
        "city": "Cataguases",
        "state": "MG",
        "district": "Jardim Bandeirantes I",
        "street": "Rua Adriano Albuquerque",
        "zipcode": "36773-093"
    },
    {
        "city": "Cataguases",
        "state": "MG",
        "district": "Ime Farage",
        "street": "Rua Guarani",
        "zipcode": "36773-608"
    },
    {
        "city": "Cataguases",
        "state": "MG",
        "district": "Vila Domingos Lopes",
        "street": "Rua Gama Cerqueira",
        "zipcode": "36774-009"
    },
    {
        "city": "Cataguases",
        "state": "MG",
        "district": "São Sebastião",
        "street": "Rua Francisco de Almeida Gama",
        "zipcode": "36774-654"
    },
    {
        "city": "Cataguases",
        "state": "MG",
        "district": "Pouso Alegre",
        "street": "Travessa Edson Fabrino",
        "zipcode": "36774-342"
    },
    {
        "city": "Cataguases",
        "state": "MG",
        "district": "Sebastião Adolfo",
        "street": "Beco Maria das Neves",
        "zipcode": "36774-177"
    },
    {
        "city": "Cataguases",
        "state": "MG",
        "district": "Centro",
        "street": "Rua dos Estudantes",
        "zipcode": "36770-018"
    },
    {
        "city": "Cataguases",
        "state": "MG",
        "district": "Centro",
        "street": "Rua Doutor Francisco de Barros",
        "zipcode": "36770-022"
    },
    {
        "city": "Cataguases",
        "state": "MG",
        "district": "Centro",
        "street": "Rua Coronel João Duarte",
        "zipcode": "36770-032"
    },
    {
        "city": "Cataguases",
        "state": "MG",
        "district": "Bela Vista",
        "street": "Rua Camilo Soares",
        "zipcode": "36770-150"
    },
    {
        "city": "Cataguases",
        "state": "MG",
        "district": "São Marcos",
        "street": "Rua Antônio João Campos",
        "zipcode": "36771-715"
    },
    {
        "city": "Cataguases",
        "state": "MG",
        "district": "Dico Leite",
        "street": "Rua Cláudia Maria",
        "zipcode": "36772-450"
    },
    {
        "city": "Cataguases",
        "state": "MG",
        "district": "Dico Leite",
        "street": "Rua Diantina Rita de Oliveira",
        "zipcode": "36772-455"
    },
    {
        "city": "Cataguases",
        "state": "MG",
        "district": "Colinas",
        "street": "Rua Dez",
        "zipcode": "36773-250"
    },
    {
        "city": "Cataguases",
        "state": "MG",
        "district": "Centro",
        "street": "Rua Joaquim Henrique da Mata",
        "zipcode": "36770-030"
    },
    {
        "city": "Cataguases",
        "state": "MG",
        "district": "Centro",
        "street": "Rua Francisco Rossi",
        "zipcode": "36770-048"
    },
    {
        "city": "Cataguases",
        "state": "MG",
        "district": "Centro",
        "street": "Rua Joaquim Peixoto Ramos",
        "zipcode": "36770-066"
    },
    {
        "city": "Cataguases",
        "state": "MG",
        "district": "Centro",
        "street": "Rua Elsie Fajardo da Silveira",
        "zipcode": "36770-076"
    },
    {
        "city": "Cataguases",
        "state": "MG",
        "district": "Centro",
        "street": "Rua João Braga",
        "zipcode": "36770-080"
    },
    {
        "city": "Cataguases",
        "state": "MG",
        "district": "Ibraim Mendonça",
        "street": "Rua Geraldo de Souza Pinto",
        "zipcode": "36771-127"
    },
    {
        "city": "Cataguases",
        "state": "MG",
        "district": "São Marcos",
        "street": "Rua João Fernando Bernardo",
        "zipcode": "36771-712"
    },
    {
        "city": "Cataguases",
        "state": "MG",
        "district": "São Pedro",
        "street": "Rua Leonida Silva",
        "zipcode": "36771-305"
    },
    {
        "city": "Cataguases",
        "state": "MG",
        "district": "Granjaria",
        "street": "Rua Fábio de Paula Leite",
        "zipcode": "36773-432"
    },
    {
        "city": "Cataguases",
        "state": "MG",
        "district": "Centro",
        "street": "Rua Tenente Fortunato",
        "zipcode": "36770-038"
    },
    {
        "city": "Cataguases",
        "state": "MG",
        "district": "Centro",
        "street": "Rua Manoel Couto",
        "zipcode": "36770-053"
    },
    {
        "city": "Cataguases",
        "state": "MG",
        "district": "Centro",
        "street": "Rua Rabelo Horta",
        "zipcode": "36770-064"
    },
    {
        "city": "Cataguases",
        "state": "MG",
        "district": "Centro",
        "street": "Rua Ricardina Machado Miranda",
        "zipcode": "36770-094"
    },
    {
        "city": "Cataguases",
        "state": "MG",
        "district": "Bela Vista",
        "street": "Rua Nilton Guanabaro Rossi",
        "zipcode": "36770-169"
    },
    {
        "city": "Cataguases",
        "state": "MG",
        "district": "Ibraim Mendonça",
        "street": "Rua Ofélia Rabelo de Souza",
        "zipcode": "36771-013"
    },
    {
        "city": "Cataguases",
        "state": "MG",
        "district": "São Marcos",
        "street": "Rua Sebastião Cândido de Souza",
        "zipcode": "36771-711"
    },
    {
        "city": "Cataguases",
        "state": "MG",
        "district": "São Marcos",
        "street": "Rua Rosa Maria de Oliveira",
        "zipcode": "36771-713"
    },
    {
        "city": "Cataguases",
        "state": "MG",
        "district": "Vila Minalda",
        "street": "Rua Silvéria Emiliana Cruz de Almeida",
        "zipcode": "36772-417"
    },
    {
        "city": "Cataguases",
        "state": "MG",
        "district": "Centro",
        "street": "Rua Manoel Ramos Trindade",
        "zipcode": "36770-014"
    },
    {
        "city": "Cataguases",
        "state": "MG",
        "district": "Centro",
        "street": "Rua Treze de Maio",
        "zipcode": "36770-026"
    },
    {
        "city": "Cataguases",
        "state": "MG",
        "district": "Centro",
        "street": "Travessa Dona Zica",
        "zipcode": "36770-050"
    },
    {
        "city": "Cataguases",
        "state": "MG",
        "district": "Centro",
        "street": "Rua Professor Alcântara",
        "zipcode": "36770-068"
    },
    {
        "city": "Cataguases",
        "state": "MG",
        "district": "Centro",
        "street": "Rua Valentim Pereira da Rocha",
        "zipcode": "36770-092"
    },
    {
        "city": "Cataguases",
        "state": "MG",
        "district": "Jardim Santa Cristina",
        "street": "Rua Iracema Dias",
        "zipcode": "36770-431"
    },
    {
        "city": "Cataguases",
        "state": "MG",
        "district": "Ibraim Mendonça",
        "street": "Rua Maria de Melo",
        "zipcode": "36771-011"
    },
    {
        "city": "Cataguases",
        "state": "MG",
        "district": "Ibraim Mendonça",
        "street": "Rua Jacira Souza Silva",
        "zipcode": "36771-012"
    },
    {
        "city": "Cataguases",
        "state": "MG",
        "district": "Morada da Serra",
        "street": "Rua das Andorinhas",
        "zipcode": "36773-019"
    },
    {
        "city": "Cataguases",
        "state": "MG",
        "district": "Vila Domingos Lopes",
        "street": "Rua Dom Pedro II",
        "zipcode": "36774-050"
    },
    {
        "city": "Cataguases",
        "state": "MG",
        "district": "Sebastião Adolfo",
        "street": "Travessa João Matola",
        "zipcode": "36774-187"
    },
    {
        "city": "Cataguases",
        "state": "MG",
        "district": "Floresta",
        "street": "Rua Marcelo Simões de Melo Mathias",
        "zipcode": "36774-261"
    },
    {
        "city": "Cataguases",
        "state": "MG",
        "district": "Popular",
        "street": "Rua Dino Barbosa",
        "zipcode": "36774-572"
    },
    {
        "city": "Cataguases",
        "state": "MG",
        "district": "Pampulha",
        "street": "Beco Pedro Esteves Alonso",
        "zipcode": "36774-779"
    },
    {
        "city": "Cataguases",
        "state": "MG",
        "district": "Vila Reis",
        "street": "Rua Elisa do Carmo",
        "zipcode": "36770-240"
    },
    {
        "city": "Cataguases",
        "state": "MG",
        "district": "Carijós",
        "street": "Rua Ceará",
        "zipcode": "36770-307"
    },
    {
        "city": "Cataguases",
        "state": "MG",
        "district": "Carijós",
        "street": "Rua Bahia",
        "zipcode": "36770-313"
    },
    {
        "city": "Cataguases",
        "state": "MG",
        "district": "Jardim Santa Cristina",
        "street": "Rua Clarissa",
        "zipcode": "36770-434"
    },
    {
        "city": "Cataguases",
        "state": "MG",
        "district": "Antônio Justino",
        "street": "Rua Beira Linha",
        "zipcode": "36770-603"
    },
    {
        "city": "Cataguases",
        "state": "MG",
        "district": "Ibraim Mendonça",
        "street": "Rua D",
        "zipcode": "36771-114"
    },
    {
        "city": "Cataguases",
        "state": "MG",
        "district": "São Pedro",
        "street": "Rua Carmelita Duarte",
        "zipcode": "36771-304"
    },
    {
        "city": "Cataguases",
        "state": "MG",
        "district": "Santa Clara",
        "street": "Rua Cândida Stolano",
        "zipcode": "36771-418"
    },
    {
        "city": "Cataguases",
        "state": "MG",
        "district": "São Cristóvão",
        "street": "Rua Antônio Lomeu de Carvalho",
        "zipcode": "36771-606"
    },
    {
        "city": "Cataguases",
        "state": "MG",
        "district": "Fátima",
        "street": "Rua Cora Duarte",
        "zipcode": "36773-580"
    },
    {
        "city": "Cataguases",
        "state": "MG",
        "district": "Vila Reis",
        "street": "Rua João Dias Neto",
        "zipcode": "36770-228"
    },
    {
        "city": "Cataguases",
        "state": "MG",
        "district": "Jardim Santa Cristina",
        "street": "Rua Estrela da Manha",
        "zipcode": "36770-436"
    },
    {
        "city": "Cataguases",
        "state": "MG",
        "district": "João Riguete",
        "street": "Rua Evangelino Vale",
        "zipcode": "36770-622"
    },
    {
        "city": "Cataguases",
        "state": "MG",
        "district": "João Riguete",
        "street": "Rua Elisário Costa",
        "zipcode": "36770-628"
    },
    {
        "city": "Cataguases",
        "state": "MG",
        "district": "Santa Clara",
        "street": "Rua Jovino Soares",
        "zipcode": "36771-420"
    },
    {
        "city": "Cataguases",
        "state": "MG",
        "district": "Santa Clara",
        "street": "Rua Kléber Lopes Simões",
        "zipcode": "36771-405"
    },
    {
        "city": "Cataguases",
        "state": "MG",
        "district": "Jardim",
        "street": "Rua José Vieira de Gusmão",
        "zipcode": "36772-003"
    },
    {
        "city": "Cataguases",
        "state": "MG",
        "district": "Primavera",
        "street": "Rua Felipe Cabreira",
        "zipcode": "36772-538"
    },
    {
        "city": "Cataguases",
        "state": "MG",
        "district": "Primavera",
        "street": "Rua Luiz Gonzaga Afonso",
        "zipcode": "36772-542"
    },
    {
        "city": "Cataguases",
        "state": "MG",
        "district": "Jardim Bandeirantes I",
        "street": "Rua Francisco Mauro",
        "zipcode": "36773-112"
    },
    {
        "city": "Cataguases",
        "state": "MG",
        "district": "Colinas",
        "street": "Rua Francisco Marques da Silva",
        "zipcode": "36773-268"
    },
    {
        "city": "Cataguases",
        "state": "MG",
        "district": "Bela Vista",
        "street": "Rua Rosário Fusco",
        "zipcode": "36770-156"
    },
    {
        "city": "Cataguases",
        "state": "MG",
        "district": "Vila Reis",
        "street": "Rua Nossa Senhora da Conceicão",
        "zipcode": "36770-226"
    },
    {
        "city": "Cataguases",
        "state": "MG",
        "district": "Jardim Santa Cristina",
        "street": "Rua Sagarana",
        "zipcode": "36770-402"
    },
    {
        "city": "Cataguases",
        "state": "MG",
        "district": "Faber Resende",
        "street": "Rua Oscarina",
        "zipcode": "36770-406"
    },
    {
        "city": "Cataguases",
        "state": "MG",
        "district": "João Riguete",
        "street": "Rua Orastes Spindola",
        "zipcode": "36770-632"
    },
    {
        "city": "Cataguases",
        "state": "MG",
        "district": "Santa Clara",
        "street": "Rua Otávio Carlos Mourão",
        "zipcode": "36771-002"
    },
    {
        "city": "Cataguases",
        "state": "MG",
        "district": "Ibraim Mendonça",
        "street": "Rua Noêmia Sobral de Souza",
        "zipcode": "36771-116"
    },
    {
        "city": "Cataguases",
        "state": "MG",
        "district": "Ibraim Mendonça",
        "street": "Rua Manoel Barbosa",
        "zipcode": "36771-124"
    },
    {
        "city": "Cataguases",
        "state": "MG",
        "district": "Iracema",
        "street": "Rua Manoel Antônio",
        "zipcode": "36771-134"
    },
    {
        "city": "Cataguases",
        "state": "MG",
        "district": "Iracema",
        "street": "Rua Maria das Graças",
        "zipcode": "36771-136"
    },
    {
        "city": "Cataguases",
        "state": "MG",
        "district": "Santa Clara",
        "street": "Rua Quinze",
        "zipcode": "36771-408"
    },
    {
        "city": "Cataguases",
        "state": "MG",
        "district": "Santa Clara",
        "street": "Rua Nelson Batista",
        "zipcode": "36771-422"
    },
    {
        "city": "Cataguases",
        "state": "MG",
        "district": "Santa Clara",
        "street": "Rua Quatorze",
        "zipcode": "36771-426"
    },
    {
        "city": "Cataguases",
        "state": "MG",
        "district": "Taquara Preta",
        "street": "Rua Maria Graciole",
        "zipcode": "36771-526"
    },
    {
        "city": "Cataguases",
        "state": "MG",
        "district": "Taquara Preta",
        "street": "Rua Manoel Alves Miranda",
        "zipcode": "36771-527"
    },
    {
        "city": "Cataguases",
        "state": "MG",
        "district": "Taquara Preta",
        "street": "Rua Professor Gradim",
        "zipcode": "36771-538"
    },
    {
        "city": "Cataguases",
        "state": "MG",
        "district": "Taquara Preta",
        "street": "Rua Maria Pimenta",
        "zipcode": "36771-540"
    },
    {
        "city": "Cataguases",
        "state": "MG",
        "district": "Taquara Preta",
        "street": "Rua Maria Alcina",
        "zipcode": "36771-552"
    },
    {
        "city": "Cataguases",
        "state": "MG",
        "district": "Santa Clara",
        "street": "Rua Onze",
        "zipcode": "36771-401"
    },
    {
        "city": "Cataguases",
        "state": "MG",
        "district": "Dico Leite",
        "street": "Rua Marlene",
        "zipcode": "36772-456"
    },
    {
        "city": "Cataguases",
        "state": "MG",
        "district": "Colinas",
        "street": "Rua Manoel Taveira",
        "zipcode": "36773-286"
    },
    {
        "city": "Cataguases",
        "state": "MG",
        "district": "Colinas",
        "street": "Rua Professora Margarida Conde de Carvalho",
        "zipcode": "36773-288"
    },
    {
        "city": "Cataguases",
        "state": "MG",
        "district": "José Gabriel de Passos",
        "street": "Rua Tenente Pires",
        "zipcode": "36770-232"
    },
    {
        "city": "Cataguases",
        "state": "MG",
        "district": "Antônio Justino",
        "street": "Vila São José",
        "zipcode": "36770-606"
    },
    {
        "city": "Cataguases",
        "state": "MG",
        "district": "Ibraim Mendonça",
        "street": "Travessa Manoel Barbosa",
        "zipcode": "36771-126"
    },
    {
        "city": "Cataguases",
        "state": "MG",
        "district": "São Pedro",
        "street": "Rua Wander Barbosa",
        "zipcode": "36771-300"
    },
    {
        "city": "Cataguases",
        "state": "MG",
        "district": "Santa Clara",
        "street": "Rua Vinte e Cinco de Dezenbro",
        "zipcode": "36771-402"
    },
    {
        "city": "Cataguases",
        "state": "MG",
        "district": "São Pedro",
        "street": "Rua Domingos Vassalo",
        "zipcode": "36771-302"
    },
    {
        "city": "Cataguases",
        "state": "MG",
        "district": "Santa Clara",
        "street": "Rua José Simeão",
        "zipcode": "36771-412"
    },
    {
        "city": "Cataguases",
        "state": "MG",
        "district": "Leonardo",
        "street": "Rua Durval Camarinha",
        "zipcode": "36773-649"
    },
    {
        "city": "Cataguases",
        "state": "MG",
        "district": "Haidee",
        "street": "Rua Lucio Alves",
        "zipcode": "36774-101"
    },
    {
        "city": "Cataguases",
        "state": "MG",
        "district": "Thomé",
        "street": "Rua Eugênio Mendonça",
        "zipcode": "36774-170"
    },
    {
        "city": "Cataguases",
        "state": "MG",
        "district": "Vila Minalda",
        "street": "Rua Dona Genebra Rodrigues S. de Souza",
        "zipcode": "36772-404"
    },
    {
        "city": "Cataguases",
        "state": "MG",
        "district": "Vila Minalda",
        "street": "Rua dos Operários",
        "zipcode": "36772-420"
    },
    {
        "city": "Cataguases",
        "state": "MG",
        "district": "Centro",
        "street": "Rua Eduardo Del Peloso",
        "zipcode": "36773-004"
    },
    {
        "city": "Cataguases",
        "state": "MG",
        "district": "Jardim Bandeirantes I",
        "street": "Rua E",
        "zipcode": "36773-114"
    },
    {
        "city": "Cataguases",
        "state": "MG",
        "district": "Jardim Bandeirantes I",
        "street": "Rua Edgar Cunha",
        "zipcode": "36773-120"
    },
    {
        "city": "Cataguases",
        "state": "MG",
        "district": "Ibraim Mendonça",
        "street": "Rua Geraldo Silvério",
        "zipcode": "36771-132"
    },
    {
        "city": "Cataguases",
        "state": "MG",
        "district": "Vila Tereza",
        "street": "Rua José de Almeida Kneipp",
        "zipcode": "36772-018"
    },
    {
        "city": "Cataguases",
        "state": "MG",
        "district": "Vila Tereza",
        "street": "Rua João Pessoa",
        "zipcode": "36772-020"
    },
    {
        "city": "Cataguases",
        "state": "MG",
        "district": "Beira Rio",
        "street": "Rua Irmã Judite",
        "zipcode": "36772-024"
    },
    {
        "city": "Cataguases",
        "state": "MG",
        "district": "Vila Minalda",
        "street": "Rua Glicério Batista",
        "zipcode": "36772-400"
    },
    {
        "city": "Cataguases",
        "state": "MG",
        "district": "Vila Minalda",
        "street": "Rua Hilda Pinheiro",
        "zipcode": "36772-402"
    },
    {
        "city": "Cataguases",
        "state": "MG",
        "district": "Dico Leite",
        "street": "Rua Guaraciaba",
        "zipcode": "36772-452"
    },
    {
        "city": "Cataguases",
        "state": "MG",
        "district": "Dico Leite",
        "street": "Rua João Simeão",
        "zipcode": "36772-500"
    },
    {
        "city": "Cataguases",
        "state": "MG",
        "district": "Esperança",
        "street": "Rua F",
        "zipcode": "36772-510"
    },
    {
        "city": "Cataguases",
        "state": "MG",
        "district": "Primavera",
        "street": "Rua José Masieiro",
        "zipcode": "36772-534"
    },
    {
        "city": "Cataguases",
        "state": "MG",
        "district": "Chácara Bom Sucesso",
        "street": "Rua Eurides Amâncio de Oliveira",
        "zipcode": "36772-552"
    },
    {
        "city": "Cataguases",
        "state": "MG",
        "district": "Jardim Bandeirantes II",
        "street": "Rua João Garcia",
        "zipcode": "36773-108"
    },
    {
        "city": "Cataguases",
        "state": "MG",
        "district": "Jardim Bandeirantes I",
        "street": "Rua Humberto Henrique",
        "zipcode": "36773-126"
    },
    {
        "city": "Cataguases",
        "state": "MG",
        "district": "Colinas",
        "street": "Rua José Miranda Rossi",
        "zipcode": "36773-292"
    },
    {
        "city": "Cataguases",
        "state": "MG",
        "district": "Horto Florestal",
        "street": "Rua Luiz Cláudio dos Santos",
        "zipcode": "36773-452"
    },
    {
        "city": "Cataguases",
        "state": "MG",
        "district": "Carijós",
        "street": "Rua Sergipe",
        "zipcode": "36770-309"
    },
    {
        "city": "Cataguases",
        "state": "MG",
        "district": "São Pedro",
        "street": "Rua Serafim Cabral",
        "zipcode": "36771-308"
    },
    {
        "city": "Cataguases",
        "state": "MG",
        "district": "Beira Rio",
        "street": "Rua Neide Resende",
        "zipcode": "36772-042"
    },
    {
        "city": "Cataguases",
        "state": "MG",
        "district": "Paraíso",
        "street": "Rua Manoel Braúlio Barroca",
        "zipcode": "36772-158"
    },
    {
        "city": "Cataguases",
        "state": "MG",
        "district": "Paraíso",
        "street": "Rua Otávio Rocha Ferraz",
        "zipcode": "36772-182"
    },
    {
        "city": "Cataguases",
        "state": "MG",
        "district": "Vila Minalda",
        "street": "Rua Luiz Pinto da Silva",
        "zipcode": "36772-406"
    },
    {
        "city": "Cataguases",
        "state": "MG",
        "district": "Dico Leite",
        "street": "Rua Marcilieta",
        "zipcode": "36772-460"
    },
    {
        "city": "Cataguases",
        "state": "MG",
        "district": "Primavera",
        "street": "Rua Nelson Soares Dutra",
        "zipcode": "36772-520"
    },
    {
        "city": "Cataguases",
        "state": "MG",
        "district": "Primavera",
        "street": "Rua Sebastião Fonseca",
        "zipcode": "36772-522"
    },
    {
        "city": "Cataguases",
        "state": "MG",
        "district": "Vila Minalda",
        "street": "Rua Sebastião Siervi",
        "zipcode": "36772-704"
    },
    {
        "city": "Cataguases",
        "state": "MG",
        "district": "Jardim Bandeirantes II",
        "street": "Rua Seis",
        "zipcode": "36773-078"
    },
    {
        "city": "Cataguases",
        "state": "MG",
        "district": "Menezes",
        "street": "Rua Ofélia Resende",
        "zipcode": "36773-082"
    },
    {
        "city": "Cataguases",
        "state": "MG",
        "district": "Menezes",
        "street": "Rua Moisés Araújo",
        "zipcode": "36773-086"
    },
    {
        "city": "Cataguases",
        "state": "MG",
        "district": "Jardim Bandeirantes I",
        "street": "Rua M",
        "zipcode": "36773-100"
    },
    {
        "city": "Cataguases",
        "state": "MG",
        "district": "Colinas",
        "street": "Rua Nove",
        "zipcode": "36773-252"
    },
    {
        "city": "Cataguases",
        "state": "MG",
        "district": "Colinas",
        "street": "Rua Nove",
        "zipcode": "36773-276"
    },
    {
        "city": "Cataguases",
        "state": "MG",
        "district": "Colinas",
        "street": "Rua Onze",
        "zipcode": "36773-282"
    },
    {
        "city": "Cataguases",
        "state": "MG",
        "district": "Santa Clara",
        "street": "Rua Treze",
        "zipcode": "36771-425"
    },
    {
        "city": "Cataguases",
        "state": "MG",
        "district": "Primavera",
        "street": "Rua Raimundo Vieira de Queiroz",
        "zipcode": "36772-514"
    },
    {
        "city": "Cataguases",
        "state": "MG",
        "district": "Primavera",
        "street": "Rua Walter Samuel",
        "zipcode": "36772-527"
    },
    {
        "city": "Cataguases",
        "state": "MG",
        "district": "Chácara Bom Sucesso",
        "street": "Rua Três",
        "zipcode": "36772-550"
    },
    {
        "city": "Cataguases",
        "state": "MG",
        "district": "Jardim Bandeirantes I",
        "street": "Rua J",
        "zipcode": "36773-096"
    },
    {
        "city": "Cataguases",
        "state": "MG",
        "district": "Colinas",
        "street": "Rua José de Moura",
        "zipcode": "36773-264"
    },
    {
        "city": "Cataguases",
        "state": "MG",
        "district": "Colinas",
        "street": "Rua Nove",
        "zipcode": "36773-272"
    },
    {
        "city": "Cataguases",
        "state": "MG",
        "district": "Leonardo",
        "street": "Rua Sebastião Ventura",
        "zipcode": "36773-646"
    },
    {
        "city": "Cataguases",
        "state": "MG",
        "district": "Beira Rio",
        "street": "Rua Manoel Barbosa Junior",
        "zipcode": "36772-023"
    },
    {
        "city": "Cataguases",
        "state": "MG",
        "district": "Beira Rio",
        "street": "Rua Pedro Ferreira de Matos",
        "zipcode": "36772-032"
    },
    {
        "city": "Cataguases",
        "state": "MG",
        "district": "Beira Rio",
        "street": "Rua Sadi Mendonça",
        "zipcode": "36772-034"
    },
    {
        "city": "Cataguases",
        "state": "MG",
        "district": "Beira Rio",
        "street": "Rua José Nascimento de Souza",
        "zipcode": "36772-046"
    },
    {
        "city": "Cataguases",
        "state": "MG",
        "district": "Paraíso",
        "street": "Rua Pascoal Ciodario",
        "zipcode": "36772-150"
    },
    {
        "city": "Cataguases",
        "state": "MG",
        "district": "Paraíso",
        "street": "Rua Cléber Miranda",
        "zipcode": "36772-174"
    },
    {
        "city": "Cataguases",
        "state": "MG",
        "district": "Vila Minalda",
        "street": "Rua Capitão Marcos",
        "zipcode": "36772-414"
    },
    {
        "city": "Cataguases",
        "state": "MG",
        "district": "Leonardo",
        "street": "Rua Serapião de Oliveira Silva",
        "zipcode": "36773-651"
    },
    {
        "city": "Cataguases",
        "state": "MG",
        "district": "Paraíso",
        "street": "Rua Pedro Comelo",
        "zipcode": "36772-188"
    },
    {
        "city": "Cataguases",
        "state": "MG",
        "district": "Colinas",
        "street": "Rua Dezessete",
        "zipcode": "36773-298"
    },
    {
        "city": "Cataguases",
        "state": "MG",
        "district": "Horto Florestal",
        "street": "Rua das Flores",
        "zipcode": "36773-462"
    },
    {
        "city": "Cataguases",
        "state": "MG",
        "district": "Recanto das Palmeiras",
        "street": "Rua Carmen Aguiar Rezende",
        "zipcode": "36773-485"
    },
    {
        "city": "Cataguases",
        "state": "MG",
        "district": "Beira Rio",
        "street": "Rua Faber Vieira de Resende",
        "zipcode": "36772-036"
    },
    {
        "city": "Cataguases",
        "state": "MG",
        "district": "Horto Florestal",
        "street": "Rua Julia Cravo Lobo",
        "zipcode": "36773-476"
    },
    {
        "city": "Cataguases",
        "state": "MG",
        "district": "Miguel Rocha",
        "street": "Rua Emiliana Maria Simões",
        "zipcode": "36773-556"
    },
    {
        "city": "Cataguases",
        "state": "MG",
        "district": "Granjaria",
        "street": "Rua Lacordaire Dutra",
        "zipcode": "36773-568"
    },
    {
        "city": "Cataguases",
        "state": "MG",
        "district": "Fátima",
        "street": "Rua João Augusto de Souza",
        "zipcode": "36773-574"
    },
    {
        "city": "Cataguases",
        "state": "MG",
        "district": "Ime Farage",
        "street": "Rua Goitacazes",
        "zipcode": "36773-606"
    },
    {
        "city": "Cataguases",
        "state": "MG",
        "district": "Leonardo",
        "street": "Rua José Alício",
        "zipcode": "36773-640"
    },
    {
        "city": "Cataguases",
        "state": "MG",
        "district": "Centro",
        "street": "Rua Paulino Fernandes",
        "zipcode": "36770-024"
    },
    {
        "city": "Cataguases",
        "state": "MG",
        "district": "Centro",
        "street": "Rua Marechal Deodoro",
        "zipcode": "36770-062"
    },
    {
        "city": "Cataguases",
        "state": "MG",
        "district": "Horto Florestal",
        "street": "Rua Paulo Aurtran",
        "zipcode": "36773-460"
    },
    {
        "city": "Cataguases",
        "state": "MG",
        "district": "Miguel Rocha",
        "street": "Rua Santa Helena",
        "zipcode": "36773-544"
    },
    {
        "city": "Cataguases",
        "state": "MG",
        "district": "Miguel Rocha",
        "street": "Rua Oito",
        "zipcode": "36773-554"
    },
    {
        "city": "Cataguases",
        "state": "MG",
        "district": "Miguel Rocha",
        "street": "Rua Miguel Rocha",
        "zipcode": "36773-558"
    },
    {
        "city": "Cataguases",
        "state": "MG",
        "district": "Izabel Tavares",
        "street": "Rua Maestro Geraldo Clarismundo",
        "zipcode": "36773-571"
    },
    {
        "city": "Cataguases",
        "state": "MG",
        "district": "Izabel Tavares",
        "street": "Rua Maranhão",
        "zipcode": "36773-588"
    },
    {
        "city": "Cataguases",
        "state": "MG",
        "district": "Centro",
        "street": "Rua Virgílio de Melo Franco",
        "zipcode": "36773-002"
    },
    {
        "city": "Cataguases",
        "state": "MG",
        "district": "Colinas",
        "street": "Rua Treze",
        "zipcode": "36773-284"
    },
    {
        "city": "Cataguases",
        "state": "MG",
        "district": "Miguel Rocha",
        "street": "Rua Tiradentes",
        "zipcode": "36773-546"
    },
    {
        "city": "Cataguases",
        "state": "MG",
        "district": "Guanabara",
        "street": "Rua Rômulo Laprea",
        "zipcode": "36773-604"
    },
    {
        "city": "Cataguases",
        "state": "MG",
        "district": "Leonardo",
        "street": "Rua Nossa Senhora da Piedade",
        "zipcode": "36773-632"
    },
    {
        "city": "Cataguases",
        "state": "MG",
        "district": "Leonardo",
        "street": "Travessa José Alício",
        "zipcode": "36773-642"
    },
    {
        "city": "Cataguases",
        "state": "MG",
        "district": "Leonardo",
        "street": "Rua Maria Schettini",
        "zipcode": "36773-662"
    },
    {
        "city": "Cataguases",
        "state": "MG",
        "district": "Izabel Cristina Mauad",
        "street": "Rua Elias Mauad",
        "zipcode": "36773-678"
    },
    {
        "city": "Cataguases",
        "state": "MG",
        "district": "Ana Carrara",
        "street": "Rua José Custódio Araújo",
        "zipcode": "36773-754"
    },
    {
        "city": "Cataguases",
        "state": "MG",
        "district": "Ana Carrara",
        "street": "Rua Manoel Bandeira",
        "zipcode": "36773-756"
    },
    {
        "city": "Cataguases",
        "state": "MG",
        "district": "Ana Carrara",
        "street": "Rua Nestor Massena",
        "zipcode": "36773-762"
    },
    {
        "city": "Cataguases",
        "state": "MG",
        "district": "Vila Rezende",
        "street": "Rua Francisco Neves",
        "zipcode": "36774-002"
    },
    {
        "city": "Cataguases",
        "state": "MG",
        "district": "Paraíso",
        "street": "Rua Francisco de Souza Pinheiro",
        "zipcode": "36772-166"
    },
    {
        "city": "Cataguases",
        "state": "MG",
        "district": "Primavera",
        "street": "Rua Capitão Ezequiel",
        "zipcode": "36772-518"
    },
    {
        "city": "Cataguases",
        "state": "MG",
        "district": "Jardim Bandeirantes II",
        "street": "Rua Ila Ribeiro dos Santos",
        "zipcode": "36773-081"
    },
    {
        "city": "Cataguases",
        "state": "MG",
        "district": "Menezes",
        "street": "Rua Licinio Garcia",
        "zipcode": "36773-085"
    },
    {
        "city": "Cataguases",
        "state": "MG",
        "district": "Jardim Bandeirantes I",
        "street": "Rua Fernão Dias",
        "zipcode": "36773-095"
    },
    {
        "city": "Cataguases",
        "state": "MG",
        "district": "Horto Florestal",
        "street": "Rua Procópio Ferreira",
        "zipcode": "36773-458"
    },
    {
        "city": "Cataguases",
        "state": "MG",
        "district": "Horto Florestal",
        "street": "Rua Lourdes Cruz",
        "zipcode": "36773-464"
    },
    {
        "city": "Cataguases",
        "state": "MG",
        "district": "Recanto das Palmeiras",
        "street": "Rua Professor Geraldo Moreira da Costa",
        "zipcode": "36773-484"
    },
    {
        "city": "Cataguases",
        "state": "MG",
        "district": "Horto Florestal",
        "street": "Rua Professora Benedita Silva",
        "zipcode": "36773-534"
    },
    {
        "city": "Cataguases",
        "state": "MG",
        "district": "Fátima",
        "street": "Rua Waldemar Gomes Rosa",
        "zipcode": "36773-594"
    },
    {
        "city": "Cataguases",
        "state": "MG",
        "district": "Centro",
        "street": "Vila Tamega",
        "zipcode": "36774-036"
    },
    {
        "city": "Cataguases",
        "state": "MG",
        "district": "Haidee",
        "street": "Rua Frederico Ozanan",
        "zipcode": "36774-044"
    },
    {
        "city": "Cataguases",
        "state": "MG",
        "district": "Vila Domingos Lopes",
        "street": "Rua Telêmaco de Souza",
        "zipcode": "36774-054"
    },
    {
        "city": "Cataguases",
        "state": "MG",
        "district": "Haidee",
        "street": "Rua Italva",
        "zipcode": "36774-088"
    },
    {
        "city": "Cataguases",
        "state": "MG",
        "district": "Haidee",
        "street": "Rua Itaqui",
        "zipcode": "36774-092"
    },
    {
        "city": "Cataguases",
        "state": "MG",
        "district": "Haidee",
        "street": "Rua Itaocara",
        "zipcode": "36774-098"
    },
    {
        "city": "Cataguases",
        "state": "MG",
        "district": "Haidee",
        "street": "Rua Doutor Abílio Cezar Novaes",
        "zipcode": "36774-116"
    },
    {
        "city": "Cataguases",
        "state": "MG",
        "district": "Menezes",
        "street": "Rua Frederico Rossini",
        "zipcode": "36774-118"
    },
    {
        "city": "Cataguases",
        "state": "MG",
        "district": "Independência",
        "street": "Rua Delegado Manoel Teixeira",
        "zipcode": "36774-136"
    },
    {
        "city": "Cataguases",
        "state": "MG",
        "district": "Menezes",
        "street": "Rua Francisco Salgado",
        "zipcode": "36774-140"
    },
    {
        "city": "Cataguases",
        "state": "MG",
        "district": "Thomé",
        "street": "Rua Homero Cortes",
        "zipcode": "36774-154"
    },
    {
        "city": "Cataguases",
        "state": "MG",
        "district": "Thomé",
        "street": "Rua Doutor Fenelon Barbosa",
        "zipcode": "36774-158"
    },
    {
        "city": "Cataguases",
        "state": "MG",
        "district": "Pouso Alegre",
        "street": "Rua Edson Fabrino",
        "zipcode": "36774-332"
    },
    {
        "city": "Cataguases",
        "state": "MG",
        "district": "Jardim Santa Cristina",
        "street": "Rua Dona Flor",
        "zipcode": "36770-440"
    },
    {
        "city": "Cataguases",
        "state": "MG",
        "district": "Beira Rio",
        "street": "Rua Clélia Dutra de Resende",
        "zipcode": "36772-030"
    },
    {
        "city": "Cataguases",
        "state": "MG",
        "district": "Vila Minalda",
        "street": "Rua Ana Siervi",
        "zipcode": "36772-700"
    },
    {
        "city": "Cataguases",
        "state": "MG",
        "district": "Jardim Bandeirantes I",
        "street": "Rua Cinco",
        "zipcode": "36773-106"
    },
    {
        "city": "Cataguases",
        "state": "MG",
        "district": "Bela Vista",
        "street": "Rua Henrique Resende",
        "zipcode": "36770-165"
    },
    {
        "city": "Cataguases",
        "state": "MG",
        "district": "Vila Reis",
        "street": "Rua José Maria Figueiredo Reis",
        "zipcode": "36770-221"
    },
    {
        "city": "Cataguases",
        "state": "MG",
        "district": "Vila Reis",
        "street": "Rua João Dias Neto",
        "zipcode": "36770-902"
    },
    {
        "city": "Cataguases",
        "state": "MG",
        "district": "Ibraim Mendonça",
        "street": "Rua José Esteves",
        "zipcode": "36771-006"
    },
    {
        "city": "Cataguases",
        "state": "MG",
        "district": "Santa Clara",
        "street": "Rua João Vieira de Carvalho",
        "zipcode": "36771-409"
    },
    {
        "city": "Cataguases",
        "state": "MG",
        "district": "Taquara Preta",
        "street": "Rua Governador Francelino Pereira",
        "zipcode": "36771-530"
    },
    {
        "city": "Cataguases",
        "state": "MG",
        "district": "Taquara Preta",
        "street": "Rua João Delacio",
        "zipcode": "36771-546"
    },
    {
        "city": "Cataguases",
        "state": "MG",
        "district": "Paraíso",
        "street": "Rua José Alcino Bitencourt",
        "zipcode": "36772-186"
    },
    {
        "city": "Cataguases",
        "state": "MG",
        "district": "Primavera",
        "street": "Rua João Gonçalves Afonso",
        "zipcode": "36772-532"
    },
    {
        "city": "Cataguases",
        "state": "MG",
        "district": "Carijós",
        "street": "Rua Minas Gerais",
        "zipcode": "36770-303"
    },
    {
        "city": "Cataguases",
        "state": "MG",
        "district": "Cidade Nova",
        "street": "Rua Ofélia Rabelo de Souza",
        "zipcode": "36771-208"
    },
    {
        "city": "Cataguases",
        "state": "MG",
        "district": "Santa Clara",
        "street": "Rua Nestor Lomeu Ribeiro",
        "zipcode": "36771-417"
    },
    {
        "city": "Cataguases",
        "state": "MG",
        "district": "Santa Clara",
        "street": "Rua Milton Ventura Marinho",
        "zipcode": "36771-424"
    },
    {
        "city": "Cataguases",
        "state": "MG",
        "district": "Taquara Preta",
        "street": "Rua Marcolino Silva",
        "zipcode": "36771-528"
    },
    {
        "city": "Cataguases",
        "state": "MG",
        "district": "Centenário",
        "street": "Rua Manoel Ribeiro",
        "zipcode": "36772-366"
    },
    {
        "city": "Cataguases",
        "state": "MG",
        "district": "Menezes",
        "street": "Rua Nilo Valverde",
        "zipcode": "36773-083"
    },
    {
        "city": "Cataguases",
        "state": "MG",
        "district": "Colinas",
        "street": "Rua Luiza Pussente Cavalier",
        "zipcode": "36773-249"
    },
    {
        "city": "Cataguases",
        "state": "MG",
        "district": "Centro",
        "street": "Rua Leônidas Peixoto",
        "zipcode": "36770-090"
    },
    {
        "city": "Cataguases",
        "state": "MG",
        "district": "José Gabriel de Passos",
        "street": "Rua Manoel de Almeida Costa",
        "zipcode": "36770-234"
    },
    {
        "city": "Cataguases",
        "state": "MG",
        "district": "Chácara Bom Sucesso",
        "street": "Rua Um",
        "zipcode": "36772-546"
    },
    {
        "city": "Cataguases",
        "state": "MG",
        "district": "Jardim Bandeirantes II",
        "street": "Rua Afonso Lana",
        "zipcode": "36773-074"
    },
    {
        "city": "Cataguases",
        "state": "MG",
        "district": "Granjaria",
        "street": "Rua José Pereira Rezende",
        "zipcode": "36773-567"
    },
    {
        "city": "Cataguases",
        "state": "MG",
        "district": "Leonardo",
        "street": "Rua Pierre Teotônio da Silva",
        "zipcode": "36773-648"
    },
    {
        "city": "Cataguases",
        "state": "MG",
        "district": "Leonardo",
        "street": "Rua Sebastião Quaresma",
        "zipcode": "36773-660"
    },
    {
        "city": "Cataguases",
        "state": "MG",
        "district": "Centro",
        "street": "Rua Visconde do Rio Branco",
        "zipcode": "36774-000"
    },
    {
        "city": "Cataguases",
        "state": "MG",
        "district": "Vila Rezende",
        "street": "Rua José Herdy Ramos",
        "zipcode": "36774-004"
    },
    {
        "city": "Cataguases",
        "state": "MG",
        "district": "Guanabara",
        "street": "Rua Teófilo Almeida",
        "zipcode": "36773-598"
    },
    {
        "city": "Cataguases",
        "state": "MG",
        "district": "Vila Domingos Lopes",
        "street": "Rua José Rodrigues Pandelo",
        "zipcode": "36774-010"
    },
    {
        "city": "Cataguases",
        "state": "MG",
        "district": "Vila Domingos Lopes",
        "street": "Rua José Duarte",
        "zipcode": "36774-012"
    },
    {
        "city": "Cataguases",
        "state": "MG",
        "district": "Vila Domingos Lopes",
        "street": "Vila Domingos Lopes",
        "zipcode": "36774-014"
    },
    {
        "city": "Cataguases",
        "state": "MG",
        "district": "Vila Domingos Lopes",
        "street": "Rua Leopoldo Murgel",
        "zipcode": "36774-024"
    },
    {
        "city": "Cataguases",
        "state": "MG",
        "district": "Vila Domingos Lopes",
        "street": "Travessa Carvalho",
        "zipcode": "36774-026"
    },
    {
        "city": "Cataguases",
        "state": "MG",
        "district": "Haidee",
        "street": "Rua João Carroceiro",
        "zipcode": "36774-112"
    },
    {
        "city": "Cataguases",
        "state": "MG",
        "district": "Haidee",
        "street": "Rua José Francisco Mendes",
        "zipcode": "36774-114"
    },
    {
        "city": "Cataguases",
        "state": "MG",
        "district": "Menezes",
        "street": "Rua José Godinho",
        "zipcode": "36774-128"
    },
    {
        "city": "Cataguases",
        "state": "MG",
        "district": "Menezes",
        "street": "Rua Olímpio Sachetto",
        "zipcode": "36774-129"
    },
    {
        "city": "Cataguases",
        "state": "MG",
        "district": "Independência",
        "street": "Rua Quatro",
        "zipcode": "36774-138"
    },
    {
        "city": "Cataguases",
        "state": "MG",
        "district": "Independência",
        "street": "Rua Oito",
        "zipcode": "36774-148"
    },
    {
        "city": "Cataguases",
        "state": "MG",
        "district": "Thomé",
        "street": "Rua Jesuína Ávila Thome",
        "zipcode": "36774-160"
    },
    {
        "city": "Cataguases",
        "state": "MG",
        "district": "Thomé",
        "street": "Rua Manoel Amaro Simões",
        "zipcode": "36774-172"
    },
    {
        "city": "Cataguases",
        "state": "MG",
        "district": "Sebastião Adolfo",
        "street": "Rua Jota Lacerda",
        "zipcode": "36774-178"
    },
    {
        "city": "Cataguases",
        "state": "MG",
        "district": "Sebastião Adolfo",
        "street": "Rua Luiz Ribeiro",
        "zipcode": "36774-182"
    },
    {
        "city": "Cataguases",
        "state": "MG",
        "district": "Pouso Alegre",
        "street": "Rua Aquiles Fialho",
        "zipcode": "36774-334"
    },
    {
        "city": "Cataguases",
        "state": "MG",
        "district": "Pouso Alegre",
        "street": "Rua Maria Fernandes",
        "zipcode": "36774-346"
    },
    {
        "city": "Cataguases",
        "state": "MG",
        "district": "Sol Nascente",
        "street": "Rua João de Moura",
        "zipcode": "36774-416"
    },
    {
        "city": "Cataguases",
        "state": "MG",
        "district": "Sol Nascente",
        "street": "Rua João Bianchi",
        "zipcode": "36774-428"
    },
    {
        "city": "Cataguases",
        "state": "MG",
        "district": "Sol Nascente",
        "street": "Rua Cinco",
        "zipcode": "36774-432"
    },
    {
        "city": "Cataguases",
        "state": "MG",
        "district": "Popular",
        "street": "Rua Francisco Rachid",
        "zipcode": "36774-556"
    },
    {
        "city": "Cataguases",
        "state": "MG",
        "district": "Pouso Alegre",
        "street": "Rua das Acácias (Lot Maria Neto)",
        "zipcode": "36774-337"
    },
    {
        "city": "Cataguases",
        "state": "MG",
        "district": "Pouso Alegre",
        "street": "Rua Ataliba Chaves de Souza",
        "zipcode": "36774-344"
    },
    {
        "city": "Cataguases",
        "state": "MG",
        "district": "Pouso Alegre",
        "street": "Rua São José",
        "zipcode": "36774-330"
    },
    {
        "city": "Cataguases",
        "state": "MG",
        "district": "Centro",
        "street": "Rua Cleto da Rocha",
        "zipcode": "36770-088"
    },
    {
        "city": "Cataguases",
        "state": "MG",
        "district": "Vila São José",
        "street": "Rua Doutor José Pacheco de Medeiros",
        "zipcode": "36770-604"
    },
    {
        "city": "Cataguases",
        "state": "MG",
        "district": "Ibraim Mendonça",
        "street": "Rua Doutor Joaquim Cruz",
        "zipcode": "36771-122"
    },
    {
        "city": "Cataguases",
        "state": "MG",
        "district": "Morada da Serra",
        "street": "Rua das Oliveiras",
        "zipcode": "36773-018"
    },
    {
        "city": "Cataguases",
        "state": "MG",
        "district": "Ime Farage",
        "street": "Rua Basílio Barroso",
        "zipcode": "36773-610"
    },
    {
        "city": "Cataguases",
        "state": "MG",
        "district": "Centro",
        "street": "Rua José Maria Figueiredo Reis",
        "zipcode": "36770-098"
    },
    {
        "city": "Cataguases",
        "state": "MG",
        "district": "Bela Vista",
        "street": "Rua Francisco Inácio Peixoto",
        "zipcode": "36770-154"
    },
    {
        "city": "Cataguases",
        "state": "MG",
        "district": "Antônio Justino",
        "street": "Rua José Rodrigues Rocha",
        "zipcode": "36770-600"
    },
    {
        "city": "Cataguases",
        "state": "MG",
        "district": "João Riguete",
        "street": "Rua José Carlos Panza",
        "zipcode": "36770-620"
    },
    {
        "city": "Cataguases",
        "state": "MG",
        "district": "Iracema",
        "street": "Rua José Roberto",
        "zipcode": "36771-138"
    },
    {
        "city": "Cataguases",
        "state": "MG",
        "district": "Santa Clara",
        "street": "Rua Ernesto Vecchi",
        "zipcode": "36771-407"
    },
    {
        "city": "Cataguases",
        "state": "MG",
        "district": "Taquara Preta",
        "street": "Rua Governador Bias Fortes",
        "zipcode": "36771-534"
    },
    {
        "city": "Cataguases",
        "state": "MG",
        "district": "Jardim",
        "street": "Rua Francisca de Souza Peixoto",
        "zipcode": "36772-002"
    },
    {
        "city": "Cataguases",
        "state": "MG",
        "district": "Colinas",
        "street": "Rua José Leite de Faria",
        "zipcode": "36773-256"
    },
    {
        "city": "Cataguases",
        "state": "MG",
        "district": "Guanabara",
        "street": "Rua Joaquim Guerra",
        "zipcode": "36773-602"
    },
    {
        "city": "Cataguases",
        "state": "MG",
        "district": "Centro",
        "street": "Rua Manoel da Silva Rama",
        "zipcode": "36770-040"
    },
    {
        "city": "Cataguases",
        "state": "MG",
        "district": "Centro",
        "street": "Rua Nogueira Neves",
        "zipcode": "36770-070"
    },
    {
        "city": "Cataguases",
        "state": "MG",
        "district": "Carijós",
        "street": "Rua São Paulo",
        "zipcode": "36770-317"
    },
    {
        "city": "Cataguases",
        "state": "MG",
        "district": "Vila Tereza",
        "street": "Rua Maurício Carrara",
        "zipcode": "36772-012"
    },
    {
        "city": "Cataguases",
        "state": "MG",
        "district": "Vila Tereza",
        "street": "Rua Nossa Senhora do Carmo",
        "zipcode": "36772-016"
    },
    {
        "city": "Cataguases",
        "state": "MG",
        "district": "Bom Pastor",
        "street": "Rua Sertório Ferreira de Souza",
        "zipcode": "36772-260"
    },
    {
        "city": "Cataguases",
        "state": "MG",
        "district": "Granjaria",
        "street": "Rua Nossa Senhora das Dores",
        "zipcode": "36773-450"
    },
    {
        "city": "Cataguases",
        "state": "MG",
        "district": "Horto Florestal",
        "street": "Rua Santa Luzia",
        "zipcode": "36773-474"
    },
    {
        "city": "Cataguases",
        "state": "MG",
        "district": "Fátima",
        "street": "Rua Raul Torres Pessoa",
        "zipcode": "36773-584"
    },
    {
        "city": "Cataguases",
        "state": "MG",
        "district": "Santa Clara",
        "street": "Rua Sebastião Machado Araújo",
        "zipcode": "36771-416"
    },
    {
        "city": "Cataguases",
        "state": "MG",
        "district": "Taquara Preta",
        "street": "Rua Joaquim de Souza Carvalho",
        "zipcode": "36771-522"
    },
    {
        "city": "Cataguases",
        "state": "MG",
        "district": "Horto Florestal",
        "street": "Rua Manoel P. Oliveira",
        "zipcode": "36773-526"
    },
    {
        "city": "Cataguases",
        "state": "MG",
        "district": "Izabel Tavares",
        "street": "Travessa Alzira Diogo",
        "zipcode": "36773-572"
    },
    {
        "city": "Cataguases",
        "state": "MG",
        "district": "Leonardo",
        "street": "Rua Nelson Fonseca",
        "zipcode": "36773-676"
    },
    {
        "city": "Cataguases",
        "state": "MG",
        "district": "Ana Carrara",
        "street": "Rua Expedito Liberato",
        "zipcode": "36773-758"
    },
    {
        "city": "Cataguases",
        "state": "MG",
        "district": "Miguel Rocha",
        "street": "Rua Manoel Simões da Rocha",
        "zipcode": "36773-552"
    },
    {
        "city": "Cataguases",
        "state": "MG",
        "district": "Granjaria",
        "street": "Rua Capitão Alberto Mendes Júnior",
        "zipcode": "36773-566"
    },
    {
        "city": "Cataguases",
        "state": "MG",
        "district": "Vila Domingos Lopes",
        "street": "Rua Cristovão Lacerda de Moraes",
        "zipcode": "36774-013"
    },
    {
        "city": "Cataguases",
        "state": "MG",
        "district": "Vila Domingos Lopes",
        "street": "Travessa Vila Nova",
        "zipcode": "36774-022"
    },
    {
        "city": "Cataguases",
        "state": "MG",
        "district": "Vila Domingos Lopes",
        "street": "Rua Tenente Luiz Ribeiro",
        "zipcode": "36774-034"
    },
    {
        "city": "Cataguases",
        "state": "MG",
        "district": "Menezes",
        "street": "Rua Felipe Borges (Vl Penha)",
        "zipcode": "36774-204"
    },
    {
        "city": "Cataguases",
        "state": "MG",
        "district": "Sol Nascente",
        "street": "Rua Pedro Ventura",
        "zipcode": "36774-420"
    },
    {
        "city": "Cataguases",
        "state": "MG",
        "district": "Sol Nascente",
        "street": "Rua Reinor Rabelo Reis",
        "zipcode": "36774-426"
    },
    {
        "city": "Cataguases",
        "state": "MG",
        "district": "Sol Nascente",
        "street": "Rua João Cesário",
        "zipcode": "36774-430"
    },
    {
        "city": "Cataguases",
        "state": "MG",
        "district": "Popular",
        "street": "Rua Wanderlei Quirino",
        "zipcode": "36774-561"
    },
    {
        "city": "Cataguases",
        "state": "MG",
        "district": "Popular",
        "street": "Rua Vera Lúcia Simões Lobo",
        "zipcode": "36774-568"
    },
    {
        "city": "Cataguases",
        "state": "MG",
        "district": "Hermenegildo Marote",
        "street": "Rua Primeiro de Maio",
        "zipcode": "36774-668"
    },
    {
        "city": "Cataguases",
        "state": "MG",
        "district": "Pampulha",
        "street": "Rua Otávio Jorge",
        "zipcode": "36774-772"
    },
    {
        "city": "Cataguases",
        "state": "MG",
        "district": "Pampulha",
        "street": "Rua Pergentino Dutra de Siqueira",
        "zipcode": "36774-776"
    },
    {
        "city": "Cataguases",
        "state": "MG",
        "district": "Pampulha",
        "street": "Rua Hamilton Schelb",
        "zipcode": "36774-778"
    },
    {
        "city": "Cataguases",
        "state": "MG",
        "district": "Pampulha",
        "street": "Rua Manoel Machado Júnior",
        "zipcode": "36774-786"
    },
    {
        "city": "Cataguases",
        "state": "MG",
        "district": "Pampulha",
        "street": "Rua Elza Peixoto",
        "zipcode": "36774-788"
    },
    {
        "city": "Cataguases",
        "state": "MG",
        "district": "Pampulha",
        "street": "Rua João Cruz",
        "zipcode": "36774-790"
    },
    {
        "city": "Cataguases",
        "state": "MG",
        "district": "Jardim Bandeirantes I",
        "street": "Rua Joaquim Anacleto",
        "zipcode": "36773-097"
    },
    {
        "city": "Cataguases",
        "state": "MG",
        "district": "Centro",
        "street": "Praça Sandoval de Azevedo",
        "zipcode": "36770-046"
    },
    {
        "city": "Cataguases",
        "state": "MG",
        "district": "João Riguete",
        "street": "Rua Cícero Cornélio Pinto",
        "zipcode": "36770-610"
    },
    {
        "city": "Cataguases",
        "state": "MG",
        "district": "João Riguete",
        "street": "Rua Antônio Marinho",
        "zipcode": "36770-630"
    },
    {
        "city": "Cataguases",
        "state": "MG",
        "district": "Ibraim Mendonça",
        "street": "Rua Antero Ribeiro Peixoto",
        "zipcode": "36771-110"
    },
    {
        "city": "Cataguases",
        "state": "MG",
        "district": "Dico Leite",
        "street": "Rua Duque de Caxias",
        "zipcode": "36772-448"
    },
    {
        "city": "Cataguases",
        "state": "MG",
        "district": "Esperança",
        "street": "Rua C",
        "zipcode": "36772-504"
    },
    {
        "city": "Cataguases",
        "state": "MG",
        "district": "Jardim Bandeirantes I",
        "street": "Rua Doutor Milton Campos",
        "zipcode": "36773-118"
    },
    {
        "city": "Cataguases",
        "state": "MG",
        "district": "Colinas",
        "street": "Rua Efigênia Rufino de Souza",
        "zipcode": "36773-251"
    },
    {
        "city": "Cataguases",
        "state": "MG",
        "district": "Jardim Santa Cristina",
        "street": "Rua Espera Feliz",
        "zipcode": "36770-442"
    },
    {
        "city": "Cataguases",
        "state": "MG",
        "district": "Cidade Nova",
        "street": "Rua Joaquim do Carmo",
        "zipcode": "36771-206"
    },
    {
        "city": "Cataguases",
        "state": "MG",
        "district": "Beira Rio",
        "street": "Rua Geraldo Silva",
        "zipcode": "36772-044"
    },
    {
        "city": "Cataguases",
        "state": "MG",
        "district": "Primavera",
        "street": "Rua José do Carmo Barbosa",
        "zipcode": "36772-536"
    },
    {
        "city": "Cataguases",
        "state": "MG",
        "district": "Colinas",
        "street": "Rua Ludovico Magalhães",
        "zipcode": "36773-248"
    },
    {
        "city": "Cataguases",
        "state": "MG",
        "district": "Colinas",
        "street": "Rua João Carrara Filho",
        "zipcode": "36773-253"
    },
    {
        "city": "Cataguases",
        "state": "MG",
        "district": "Colinas",
        "street": "Rua Luiz Guimarães Peixoto",
        "zipcode": "36773-258"
    },
    {
        "city": "Cataguases",
        "state": "MG",
        "district": "Izabel Tavares",
        "street": "Rua Francisco Tavares Noleto",
        "zipcode": "36773-570"
    },
    {
        "city": "Cataguases",
        "state": "MG",
        "district": "Guanabara",
        "street": "Rua Gonçalves de Paula",
        "zipcode": "36773-599"
    },
    {
        "city": "Cataguases",
        "state": "MG",
        "district": "Vila Minalda",
        "street": "Rua Maria de Carvalho Siervi",
        "zipcode": "36772-702"
    },
    {
        "city": "Cataguases",
        "state": "MG",
        "district": "Vila Minalda",
        "street": "Rua Mário Rodrigues",
        "zipcode": "36772-705"
    },
    {
        "city": "Cataguases",
        "state": "MG",
        "district": "Jardim Bandeirantes I",
        "street": "Rua Ormeu Botelho",
        "zipcode": "36773-122"
    },
    {
        "city": "Cataguases",
        "state": "MG",
        "district": "Horto Florestal",
        "street": "Rua Nossa Senhora das Dores",
        "zipcode": "36773-453"
    },
    {
        "city": "Cataguases",
        "state": "MG",
        "district": "Miguel Rocha",
        "street": "Rua São Cristóvão",
        "zipcode": "36773-548"
    },
    {
        "city": "Cataguases",
        "state": "MG",
        "district": "Centro",
        "street": "Praça Manoel Inácio Peixoto",
        "zipcode": "36770-073"
    },
    {
        "city": "Cataguases",
        "state": "MG",
        "district": "Bela Vista",
        "street": "Rua Wanda da Silva Andrade",
        "zipcode": "36770-167"
    },
    {
        "city": "Cataguases",
        "state": "MG",
        "district": "Beira Rio",
        "street": "Rua Oito de Outubro",
        "zipcode": "36772-026"
    },
    {
        "city": "Cataguases",
        "state": "MG",
        "district": "Paraíso",
        "street": "Rua Geraldino Ferraz",
        "zipcode": "36772-208"
    },
    {
        "city": "Cataguases",
        "state": "MG",
        "district": "Centenário",
        "street": "Rua Américo Abreu",
        "zipcode": "36772-364"
    },
    {
        "city": "Cataguases",
        "state": "MG",
        "district": "Primavera",
        "street": "Rua Itagibá Rodrigues Alves",
        "zipcode": "36772-508"
    },
    {
        "city": "Cataguases",
        "state": "MG",
        "district": "Colinas",
        "street": "Rua Viviane Bitencourt",
        "zipcode": "36773-293"
    },
    {
        "city": "Cataguases",
        "state": "MG",
        "district": "Granjaria",
        "street": "Rua Carlos Antônio",
        "zipcode": "36773-562"
    },
    {
        "city": "Cataguases",
        "state": "MG",
        "district": "Leonardo",
        "street": "Rua Maria Luiza Carvalheira Ramos",
        "zipcode": "36773-630"
    },
    {
        "city": "Cataguases",
        "state": "MG",
        "district": "Leonardo",
        "street": "Rua Dorcília Augusta do Nascimento",
        "zipcode": "36773-666"
    },
    {
        "city": "Cataguases",
        "state": "MG",
        "district": "Izabel Cristina Mauad",
        "street": "Rua Luiz Guimarães",
        "zipcode": "36773-684"
    },
    {
        "city": "Cataguases",
        "state": "MG",
        "district": "Santa Clara",
        "street": "Rua Vinte e Quatro de Dezembro",
        "zipcode": "36771-403"
    },
    {
        "city": "Cataguases",
        "state": "MG",
        "district": "Paraíso",
        "street": "Rua Nelson Miranda de Carvalho",
        "zipcode": "36772-153"
    },
    {
        "city": "Cataguases",
        "state": "MG",
        "district": "Paraíso",
        "street": "Rua Maria Gouveia Ferraz",
        "zipcode": "36772-154"
    },
    {
        "city": "Cataguases",
        "state": "MG",
        "district": "Paraíso",
        "street": "Rua Caetano Mauro",
        "zipcode": "36772-178"
    },
    {
        "city": "Cataguases",
        "state": "MG",
        "district": "Menezes",
        "street": "Rua Romualdo Menezes",
        "zipcode": "36773-084"
    },
    {
        "city": "Cataguases",
        "state": "MG",
        "district": "Granjaria",
        "street": "Rua Francisco Xavier de Matos",
        "zipcode": "36773-542"
    },
    {
        "city": "Cataguases",
        "state": "MG",
        "district": "Miguel Rocha",
        "street": "Rua Sebastião Carré",
        "zipcode": "36773-553"
    },
    {
        "city": "Cataguases",
        "state": "MG",
        "district": "Vila Domingos Lopes",
        "street": "Vila Frederico Abrita",
        "zipcode": "36774-046"
    },
    {
        "city": "Cataguases",
        "state": "MG",
        "district": "Haidee",
        "street": "Rua Itacolomi",
        "zipcode": "36774-096"
    },
    {
        "city": "Cataguases",
        "state": "MG",
        "district": "Independência",
        "street": "Rua Nove",
        "zipcode": "36774-122"
    },
    {
        "city": "Cataguases",
        "state": "MG",
        "district": "Menezes",
        "street": "Rua Benjamin de Oliveira (Vl Penha)",
        "zipcode": "36774-202"
    },
    {
        "city": "Cataguases",
        "state": "MG",
        "district": "Sol Nascente",
        "street": "Rua Waldemar de Andrade",
        "zipcode": "36774-400"
    },
    {
        "city": "Cataguases",
        "state": "MG",
        "district": "Sol Nascente",
        "street": "Rua Carmindo Valério",
        "zipcode": "36774-424"
    },
    {
        "city": "Cataguases",
        "state": "MG",
        "district": "Popular",
        "street": "Rua Professor Rabelo",
        "zipcode": "36774-566"
    },
    {
        "city": "Cataguases",
        "state": "MG",
        "district": "Popular",
        "street": "Rua Pascoalina Riguete",
        "zipcode": "36774-576"
    },
    {
        "city": "Cataguases",
        "state": "MG",
        "district": "São Diniz",
        "street": "Rua Joaquim Oliveira Martins",
        "zipcode": "36774-794"
    },
    {
        "city": "Cataguases",
        "state": "MG",
        "district": "São Diniz",
        "street": "Rua José Adolfo",
        "zipcode": "36774-796"
    },
    {
        "city": "Cataguases",
        "state": "MG",
        "district": "Independência",
        "street": "Rua Irineu de Paula Rocha",
        "zipcode": "36774-142"
    },
    {
        "city": "Cataguases",
        "state": "MG",
        "district": "Pouso Alegre",
        "street": "Rua Serafim Spindola",
        "zipcode": "36774-338"
    },
    {
        "city": "Cataguases",
        "state": "MG",
        "district": "Centro",
        "street": "Praça Getúlio Vargas",
        "zipcode": "36770-069"
    },
    {
        "city": "Cataguases",
        "state": "MG",
        "district": "Centro",
        "street": "Praça José Ribeiro de Moura Júnior",
        "zipcode": "36770-089"
    },
    {
        "city": "Cataguases",
        "state": "MG",
        "district": "Vila Minalda",
        "street": "Beco do Cooperão",
        "zipcode": "36772-418"
    },
    {
        "city": "Cataguases",
        "state": "MG",
        "district": "Menezes",
        "street": "Praça Jacy de Abreu Lopes",
        "zipcode": "36774-126"
    },
    {
        "city": "Cataguases",
        "state": "MG",
        "district": "Popular",
        "street": "Beco do Arlindo",
        "zipcode": "36774-554"
    },
    {
        "city": "Cataguases",
        "state": "MG",
        "district": "Pampulha",
        "street": "Beco do Chiripa",
        "zipcode": "36774-774"
    },
    {
        "city": "Cataguases",
        "state": "MG",
        "district": "Jardim Santa Cristina",
        "street": "Rua Brejo das Almas",
        "zipcode": "36770-418"
    },
    {
        "city": "Cataguases",
        "state": "MG",
        "district": "Primavera",
        "street": "Rua Bernardo Mariquito",
        "zipcode": "36772-529"
    },
    {
        "city": "Cataguases",
        "state": "MG",
        "district": "Morada da Serra",
        "street": "Rua das Castanheiras",
        "zipcode": "36773-020"
    },
    {
        "city": "Cataguases",
        "state": "MG",
        "district": "Morada da Serra",
        "street": "Rua das Laranjeiras",
        "zipcode": "36773-022"
    },
    {
        "city": "Cataguases",
        "state": "MG",
        "district": "Centro",
        "street": "Rua José Rossi",
        "zipcode": "36770-042"
    },
    {
        "city": "Cataguases",
        "state": "MG",
        "district": "Centro",
        "street": "Rua Hemetério Carneiro Souza",
        "zipcode": "36770-054"
    },
    {
        "city": "Cataguases",
        "state": "MG",
        "district": "São João",
        "street": "Rua José Francisco Miranda",
        "zipcode": "36770-245"
    },
    {
        "city": "Cataguases",
        "state": "MG",
        "district": "João Riguete",
        "street": "Rua Francisco Moutinho Rocha Filho",
        "zipcode": "36770-615"
    },
    {
        "city": "Cataguases",
        "state": "MG",
        "district": "São Cristóvão",
        "street": "Rua Jonas Xavier de Souza",
        "zipcode": "36771-604"
    },
    {
        "city": "Cataguases",
        "state": "MG",
        "district": "Paraíso",
        "street": "Rua José Fernandes Sucassas",
        "zipcode": "36772-170"
    },
    {
        "city": "Cataguases",
        "state": "MG",
        "district": "Bom Pastor",
        "street": "Rua Jarbas Cortes Domingos",
        "zipcode": "36772-352"
    },
    {
        "city": "Cataguases",
        "state": "MG",
        "district": "Vila Minalda",
        "street": "Rua Joaquim Gonçalves Ledo",
        "zipcode": "36772-419"
    },
    {
        "city": "Cataguases",
        "state": "MG",
        "district": "Dico Leite",
        "street": "Rua José Dias",
        "zipcode": "36772-457"
    },
    {
        "city": "Cataguases",
        "state": "MG",
        "district": "Primavera",
        "street": "Rua João Batista Valverde",
        "zipcode": "36772-526"
    },
    {
        "city": "Cataguases",
        "state": "MG",
        "district": "Bela Vista",
        "street": "Rua Ruymar Branco Ribeiro",
        "zipcode": "36770-162"
    },
    {
        "city": "Cataguases",
        "state": "MG",
        "district": "Bela Vista",
        "street": "Rua Ostende Ribeiro",
        "zipcode": "36770-170"
    },
    {
        "city": "Cataguases",
        "state": "MG",
        "district": "Centro",
        "street": "Rua José Gonçalves Araújo Porto",
        "zipcode": "36770-010"
    },
    {
        "city": "Cataguases",
        "state": "MG",
        "district": "Centro",
        "street": "Vila Queiroz",
        "zipcode": "36770-016"
    },
    {
        "city": "Cataguases",
        "state": "MG",
        "district": "Vila Reis",
        "street": "Rua Wantuil Cardoso de Lima",
        "zipcode": "36770-241"
    },
    {
        "city": "Cataguases",
        "state": "MG",
        "district": "João Riguete",
        "street": "Rua Cassiano",
        "zipcode": "36770-616"
    },
    {
        "city": "Cataguases",
        "state": "MG",
        "district": "Leonardo",
        "street": "Rua do Fruta Pão",
        "zipcode": "36773-638"
    },
    {
        "city": "Cataguases",
        "state": "MG",
        "district": "Paraíso",
        "street": "Rua Leone Sachetto",
        "zipcode": "36772-160"
    },
    {
        "city": "Cataguases",
        "state": "MG",
        "district": "Leonardo",
        "street": "Rua Sérvulo Abranches",
        "zipcode": "36773-652"
    },
    {
        "city": "Cataguases",
        "state": "MG",
        "district": "Vila Domingos Lopes",
        "street": "Rua Moreira Lima",
        "zipcode": "36774-020"
    },
    {
        "city": "Cataguases",
        "state": "MG",
        "district": "Vila Domingos Lopes",
        "street": "Rua Doutor Norberto Custódio Ferreira",
        "zipcode": "36774-032"
    },
    {
        "city": "Cataguases",
        "state": "MG",
        "district": "Centro",
        "street": "Rua Manoel Peixoto Ramos",
        "zipcode": "36774-040"
    },
    {
        "city": "Cataguases",
        "state": "MG",
        "district": "Vila Domingos Lopes",
        "street": "Rua Homero Fernandes",
        "zipcode": "36774-048"
    },
    {
        "city": "Cataguases",
        "state": "MG",
        "district": "Haidee",
        "street": "Rua José Cesário",
        "zipcode": "36774-089"
    },
    {
        "city": "Cataguases",
        "state": "MG",
        "district": "Haidee",
        "street": "Rua Francisco Antônio Leonardo",
        "zipcode": "36774-102"
    },
    {
        "city": "Cataguases",
        "state": "MG",
        "district": "Independência",
        "street": "Rua Teodósio Passos Guieiro",
        "zipcode": "36774-134"
    },
    {
        "city": "Cataguases",
        "state": "MG",
        "district": "Independência",
        "street": "Rua São Sebastião",
        "zipcode": "36774-144"
    },
    {
        "city": "Cataguases",
        "state": "MG",
        "district": "Thomé",
        "street": "Rua Augusta Cunha",
        "zipcode": "36774-162"
    },
    {
        "city": "Cataguases",
        "state": "MG",
        "district": "Thomé",
        "street": "Rua Agenor de Barros",
        "zipcode": "36774-164"
    },
    {
        "city": "Cataguases",
        "state": "MG",
        "district": "Thomé",
        "street": "Praça Doutor Otoni Alvim Gomes",
        "zipcode": "36774-166"
    },
    {
        "city": "Cataguases",
        "state": "MG",
        "district": "Thomé",
        "street": "Rua José Ávila Thome",
        "zipcode": "36774-174"
    },
    {
        "city": "Cataguases",
        "state": "MG",
        "district": "Sebastião Adolfo",
        "street": "Rua José Carlos da Silveira",
        "zipcode": "36774-185"
    },
    {
        "city": "Cataguases",
        "state": "MG",
        "district": "Sol Nascente",
        "street": "Rua Quatorze",
        "zipcode": "36774-402"
    },
    {
        "city": "Cataguases",
        "state": "MG",
        "district": "Sol Nascente",
        "street": "Rua Alencar Fonseca",
        "zipcode": "36774-412"
    },
    {
        "city": "Cataguases",
        "state": "MG",
        "district": "Sol Nascente",
        "street": "Rua Maria Aparecida Thouguia",
        "zipcode": "36774-414"
    },
    {
        "city": "Cataguases",
        "state": "MG",
        "district": "Sol Nascente",
        "street": "Rua Juca Furtado",
        "zipcode": "36774-418"
    },
    {
        "city": "Cataguases",
        "state": "MG",
        "district": "São Sebastião",
        "street": "Rua Aristobulo Machado",
        "zipcode": "36774-652"
    },
    {
        "city": "Cataguases",
        "state": "MG",
        "district": "Pampulha",
        "street": "Rua Edmundo Machado Moraes",
        "zipcode": "36774-789"
    },
    {
        "city": "Cataguases",
        "state": "MG",
        "district": "São Diniz",
        "street": "Rua Alípio Lopes Machado",
        "zipcode": "36774-795"
    },
    {
        "city": "Cataguases",
        "state": "MG",
        "district": "Colinas",
        "street": "Rua José Maria Manso",
        "zipcode": "36773-278"
    },
    {
        "city": "Cataguases",
        "state": "MG",
        "district": "Granjaria",
        "street": "Rua José Pires Junior",
        "zipcode": "36773-561"
    },
    {
        "city": "Cataguases",
        "state": "MG",
        "district": "Carijós",
        "street": "Rua Rio de Janeiro",
        "zipcode": "36770-315"
    },
    {
        "city": "Cataguases",
        "state": "MG",
        "district": "São Cristóvão",
        "street": "Rua Pedro Sérgio de Oliveira",
        "zipcode": "36771-602"
    },
    {
        "city": "Cataguases",
        "state": "MG",
        "district": "São Cristóvão",
        "street": "Rua Professor Paulo Miranda",
        "zipcode": "36771-608"
    },
    {
        "city": "Cataguases",
        "state": "MG",
        "district": "João Riguete",
        "street": "Rua Serafim Barata",
        "zipcode": "36770-626"
    },
    {
        "city": "Cataguases",
        "state": "MG",
        "district": "Nossa Senhora das Graças",
        "street": "Rua Projetada",
        "zipcode": "36773-052"
    },
    {
        "city": "Cataguases",
        "state": "MG",
        "district": "São Cristóvão",
        "street": "Rua Tereza Cristina Bolçada Mauro",
        "zipcode": "36771-700"
    },
    {
        "city": "Cataguases",
        "state": "MG",
        "district": "Ana Carrara",
        "street": "Rua Orbílio da Silva Ramos",
        "zipcode": "36773-750"
    },
    {
        "city": "Cataguases",
        "state": "MG",
        "district": "Bom Pastor",
        "street": "Rua Luiz Vicentini",
        "zipcode": "36772-258"
    },
    {
        "city": "Cataguases",
        "state": "MG",
        "district": "Bom Pastor",
        "street": "Rua Pedro Neto",
        "zipcode": "36772-351"
    },
    {
        "city": "Cataguases",
        "state": "MG",
        "district": "Vila Domingos Lopes",
        "street": "Rua Mauro Peixoto Ramos",
        "zipcode": "36774-011"
    },
    {
        "city": "Cataguases",
        "state": "MG",
        "district": "Sebastião Adolfo",
        "street": "Rua Vilma Amaral do Rosário",
        "zipcode": "36774-179"
    },
    {
        "city": "Cataguases",
        "state": "MG",
        "district": "Sebastião Adolfo",
        "street": "Rua Maria Garcia Ribeiro",
        "zipcode": "36774-186"
    },
    {
        "city": "Cataguases",
        "state": "MG",
        "district": "Sol Nascente",
        "street": "Rua Zelino Pinto da Silva",
        "zipcode": "36774-422"
    },
    {
        "city": "Cataguases",
        "state": "MG",
        "district": "Sol Nascente",
        "street": "Rua Ávila Vieira de Rezende",
        "zipcode": "36774-436"
    },
    {
        "city": "Cataguases",
        "state": "MG",
        "district": "Popular",
        "street": "Rua Honorina Ventania",
        "zipcode": "36774-562"
    },
    {
        "city": "Cataguases",
        "state": "MG",
        "district": "Hermenegildo Marote",
        "street": "Rua João Ciodario",
        "zipcode": "36774-664"
    },
    {
        "city": "Cataguases",
        "state": "MG",
        "district": "Pampulha",
        "street": "Rua Joaquim Ornelas de Araújo",
        "zipcode": "36774-780"
    },
    {
        "city": "Cataguases",
        "state": "MG",
        "district": "São Diniz",
        "street": "Rua Paulo Matoso",
        "zipcode": "36774-792"
    },
    {
        "city": "Cataguases",
        "state": "MG",
        "district": "Thomé",
        "street": "Rua Maria Areia",
        "zipcode": "36774-176"
    },
    {
        "city": "Cataguases",
        "state": "MG",
        "district": "Jardim",
        "street": "Rua Onofre Bonfim",
        "zipcode": "36772-008"
    },
    {
        "city": "Cataguases",
        "state": "MG",
        "district": "Izabel Tavares",
        "street": "Rua Laedio Gama",
        "zipcode": "36773-578"
    },
    {
        "city": "Cataguases",
        "state": "MG",
        "district": "São Sebastião",
        "street": "Rua Leonor Gama Salgado",
        "zipcode": "36774-656"
    },
    {
        "city": "Cataguases",
        "state": "MG",
        "district": "Bom Retiro",
        "street": "Rua Antônio Silva",
        "zipcode": "36774-348"
    },
    {
        "city": "Cataguases",
        "state": "MG",
        "district": "Bela Vista",
        "street": "Rua Guilhermino César",
        "zipcode": "36770-164"
    },
    {
        "city": "Cataguases",
        "state": "MG",
        "district": "Taquara Preta",
        "street": "Rua Francisco Gama do Vale",
        "zipcode": "36771-529"
    },
    {
        "city": "Cataguases",
        "state": "MG",
        "district": "Centro",
        "street": "Travessa São Vicente de Paula",
        "zipcode": "36770-012"
    },
    {
        "city": "Cataguases",
        "state": "MG",
        "district": "Vila Rezende",
        "street": "Rua Camilo Nogueira da Gama",
        "zipcode": "36770-096"
    },
    {
        "city": "Cataguases",
        "state": "MG",
        "district": "Centro",
        "street": "Rua Gama Cerqueira",
        "zipcode": "36774-041"
    },
    {
        "city": "Cataguases",
        "state": "MG",
        "district": "São João",
        "street": "Rua Paulo Amarante Barcelos",
        "zipcode": "36770-244"
    },
    {
        "city": "Cataguases",
        "state": "MG",
        "district": "Bom Retiro",
        "street": "Rua José Vicente",
        "zipcode": "36774-349"
    },
    {
        "city": "Cataguases",
        "state": "MG",
        "district": "Jardim Bandeirantes I",
        "street": "Rua Ércio Pinto de Souza",
        "zipcode": "36773-102"
    },
    {
        "city": "Cataguases",
        "state": "MG",
        "district": "Beira Rio",
        "street": "Rua Edson Vieira de Resende",
        "zipcode": "36772-028"
    },
    {
        "city": "Cataguases",
        "state": "MG",
        "district": "Ibraim Mendonça",
        "street": "Rua Nair Guimarães Peixoto",
        "zipcode": "36771-128"
    },
    {
        "city": "Cataguases",
        "state": "MG",
        "district": "Taquara Preta",
        "street": "Rua Governador Israel Pinheiro",
        "zipcode": "36771-532"
    },
    {
        "city": "Cataguases",
        "state": "MG",
        "district": "Pouso Alegre",
        "street": "Rua Luiz Carlos Germano (Fuscão)",
        "zipcode": "36774-333"
    },
    {
        "city": "Cataguases",
        "state": "MG",
        "district": "Pouso Alegre",
        "street": "Rua Maria Novaes",
        "zipcode": "36774-336"
    },
    {
        "city": "Cataguases",
        "state": "MG",
        "district": "Pouso Alegre",
        "street": "Rua Artur Cardoso",
        "zipcode": "36774-340"
    },
    {
        "city": "Cataguases",
        "state": "MG",
        "district": "Jardim Santa Cristina",
        "street": "Avenida Bom Destino",
        "zipcode": "36770-400"
    },
    {
        "city": "Cataguases",
        "state": "MG",
        "district": "Centro",
        "street": "Avenida Coronel Antônio Augusto de Souza",
        "zipcode": "36772-900"
    },
    {
        "city": "Cataguases",
        "state": "MG",
        "district": "Vila Tereza",
        "street": "Praça José Inácio Peixoto",
        "zipcode": "36772-010"
    },
    {
        "city": "Cataguases",
        "state": "MG",
        "district": "Paraíso",
        "street": "Praça Cinco",
        "zipcode": "36772-152"
    },
    {
        "city": "Cataguases",
        "state": "MG",
        "district": "Centro",
        "street": "Rua Coronel Vieira",
        "zipcode": "36770-028"
    },
    {
        "city": "Cataguases",
        "state": "MG",
        "district": "Bela Vista",
        "street": "Rua Antônio Martins Mendes",
        "zipcode": "36770-152"
    },
    {
        "city": "Cataguases",
        "state": "MG",
        "district": "Centro",
        "street": "Praça Santa Rita",
        "zipcode": "36770-900"
    },
    {
        "city": "Cataguases",
        "state": "MG",
        "district": "Centro",
        "street": "Praça Rui Barbosa",
        "zipcode": "36770-901"
    },
    {
        "city": "Cataguases",
        "state": "MG",
        "district": "Jardim Bandeirantes I",
        "street": "Rua Manoel das Neves",
        "zipcode": "36773-094"
    },
    {
        "city": "Cataguases",
        "state": "MG",
        "district": "Vila Tereza",
        "street": "Avenida Coronel Antônio Augusto de Souza",
        "zipcode": "36772-000"
    },
    {
        "city": "Cataguases",
        "state": "MG",
        "district": "Jardim Bandeirantes II",
        "street": "Rua Manoel Silveira",
        "zipcode": "36773-080"
    },
    {
        "city": "Cataguases",
        "state": "MG",
        "district": "Leonardo",
        "street": "Travessa José Augusto de Souza",
        "zipcode": "36773-672"
    },
    {
        "city": "Cataguases",
        "state": "MG",
        "district": "Izabel Cristina Mauad",
        "street": "Rua Jaci Vieira de Souza",
        "zipcode": "36773-680"
    },
    {
        "city": "Cataguases",
        "state": "MG",
        "district": "Izabel Cristina Mauad",
        "street": "Rua José Alberto Bitencourt Filho",
        "zipcode": "36773-682"
    },
    {
        "city": "Cataguases",
        "state": "MG",
        "district": "Taquara Preta",
        "street": "Rua Geraldo Martins Silveira",
        "zipcode": "36771-542"
    },
    {
        "city": "Cataguases",
        "state": "MG",
        "district": "Floresta",
        "street": "Rua Francisco Antônio Alonço Matias",
        "zipcode": "36774-260"
    },
    {
        "city": "Cataguases",
        "state": "MG",
        "district": "Chácaras Palmeiras",
        "street": "Rua Ondina Carvalheira Peixoto",
        "zipcode": "36774-900"
    },
    {
        "city": "Cataguases",
        "state": "MG",
        "district": "Independência",
        "street": "Rua Reverendo Felipe Revale de Carvalho",
        "zipcode": "36774-130"
    },
    {
        "city": "Cataguases",
        "state": "MG",
        "district": "Sebastião Adolfo",
        "street": "Rua José do Grupo",
        "zipcode": "36774-183"
    },
    {
        "city": "Cataguases",
        "state": "MG",
        "district": "Bom Pastor",
        "street": "Rua Luiz Linhares",
        "zipcode": "36772-356"
    }
]