[
    {
        "city": "Congonhas",
        "state": "MG",
        "district": "Joaquim Murtinho",
        "street": "Rua Dom Oscar 656",
        "zipcode": "36415-972"
    },
    {
        "city": "Congonhas",
        "state": "MG",
        "district": null,
        "street": "Rua São Cristóvão 711",
        "zipcode": "36415-990"
    },
    {
        "city": "Congonhas",
        "state": "MG",
        "district": "",
        "street": "",
        "zipcode": "36415-000"
    },
    {
        "city": "Congonhas",
        "state": "MG",
        "district": "Centro",
        "street": "Praça Juscelino Kubitschek 35",
        "zipcode": "36415-970"
    },
    {
        "city": "Congonhas",
        "state": "MG",
        "district": "Centro",
        "street": "Avenida Júlia Kubitschek 498",
        "zipcode": "36415-976"
    },
    {
        "city": "Congonhas",
        "state": "MG",
        "district": "Centro",
        "street": "Rua Antônio Faria Costa s/n",
        "zipcode": "36415-975"
    },
    {
        "city": "Congonhas",
        "state": "MG",
        "district": null,
        "street": "Rua José Pedro S/N",
        "zipcode": "36415-992"
    },
    {
        "city": "Congonhas",
        "state": "MG",
        "district": "Centro",
        "street": "Rua Cristo Rei",
        "zipcode": "36417-971"
    },
    {
        "city": "Congonhas",
        "state": "MG",
        "district": "Piquiri",
        "street": "Praça São Sebastião 102",
        "zipcode": "36415-971"
    },
    {
        "city": "Congonhas",
        "state": "MG",
        "district": "Centro",
        "street": "Praça São Sebastião 102",
        "zipcode": "36415-973"
    }
]