[
    {
        "city": "Coronel Fabriciano",
        "state": "MG",
        "district": "Recanto Verde",
        "street": "Avenida Latercio",
        "zipcode": "35171-036"
    },
    {
        "city": "Coronel Fabriciano",
        "state": "MG",
        "district": "Caladinho",
        "street": "Rua C (Jd Alpino)",
        "zipcode": "35171-246"
    },
    {
        "city": "Coronel Fabriciano",
        "state": "MG",
        "district": "Caladinho",
        "street": "Rua Carirus",
        "zipcode": "35171-280"
    },
    {
        "city": "Coronel Fabriciano",
        "state": "MG",
        "district": "Nossa Senhora do Carmo",
        "street": "Beco José Anastácio",
        "zipcode": "35170-638"
    },
    {
        "city": "Coronel Fabriciano",
        "state": "MG",
        "district": "Nossa Senhora do Carmo",
        "street": "Rua Sebastião André de Souza",
        "zipcode": "35170-087"
    },
    {
        "city": "Coronel Fabriciano",
        "state": "MG",
        "district": "Frederico Ozanan",
        "street": "Rua Beija",
        "zipcode": "35172-060"
    },
    {
        "city": "Coronel Fabriciano",
        "state": "MG",
        "district": "São Domingos",
        "street": "Rua José Virgílio",
        "zipcode": "35171-846"
    },
    {
        "city": "Coronel Fabriciano",
        "state": "MG",
        "district": "Surinan",
        "street": "Beco Três (da rua Francisco José Quirino)",
        "zipcode": "35170-736"
    },
    {
        "city": "Coronel Fabriciano",
        "state": "MG",
        "district": "Centro",
        "street": "Avenida Pedro Nolasco",
        "zipcode": "35170-000"
    },
    {
        "city": "Coronel Fabriciano",
        "state": "MG",
        "district": "Surinan",
        "street": "Rua Ocarlino José Silva",
        "zipcode": "35170-744"
    },
    {
        "city": "Coronel Fabriciano",
        "state": "MG",
        "district": "Caladinho",
        "street": "Rua Vale do Guaíra",
        "zipcode": "35171-206"
    },
    {
        "city": "Coronel Fabriciano",
        "state": "MG",
        "district": "Potyra (Caladão)",
        "street": "Rua João Dutra",
        "zipcode": "35171-800"
    },
    {
        "city": "Coronel Fabriciano",
        "state": "MG",
        "district": "Surinan",
        "street": "Beco Um (da rua Francisco José Quirino)",
        "zipcode": "35170-738"
    },
    {
        "city": "Coronel Fabriciano",
        "state": "MG",
        "district": "Santa Rita",
        "street": "Rua Isolina Maria",
        "zipcode": "35170-707"
    },
    {
        "city": "Coronel Fabriciano",
        "state": "MG",
        "district": "São Cristovão",
        "street": "Rua Geraldo Alves Torres",
        "zipcode": "35172-182"
    },
    {
        "city": "Coronel Fabriciano",
        "state": "MG",
        "district": "Caladinho",
        "street": "Rua Vale do Javari",
        "zipcode": "35171-202"
    },
    {
        "city": "Coronel Fabriciano",
        "state": "MG",
        "district": "Morada do Vale",
        "street": "Rua Vale do Rio Pardo",
        "zipcode": "35171-766"
    },
    {
        "city": "Coronel Fabriciano",
        "state": "MG",
        "district": "Nova Tijuca",
        "street": "Rua Geraldo Procópio de Oliveria",
        "zipcode": "35171-779"
    },
    {
        "city": "Coronel Fabriciano",
        "state": "MG",
        "district": "Santa Terezinha II",
        "street": "Rua Ricardo Moreira Xavier",
        "zipcode": "35171-418"
    },
    {
        "city": "Coronel Fabriciano",
        "state": "MG",
        "district": "Nossa Senhora da Penha",
        "street": "Beco Beira Linha",
        "zipcode": "35170-612"
    },
    {
        "city": "Coronel Fabriciano",
        "state": "MG",
        "district": "Nossa Senhora da Penha",
        "street": "Rua Joffre Pontes",
        "zipcode": "35170-614"
    },
    {
        "city": "Coronel Fabriciano",
        "state": "MG",
        "district": "Sylvio Pereira II",
        "street": "Rua João Batista Mussum",
        "zipcode": "35171-866"
    },
    {
        "city": "Coronel Fabriciano",
        "state": "MG",
        "district": "Belvedere",
        "street": "Avenida Nestor Cotta Figueiredo",
        "zipcode": "35170-345"
    },
    {
        "city": "Coronel Fabriciano",
        "state": "MG",
        "district": "Residencial Pomar",
        "street": "Rua Macieira",
        "zipcode": "35171-234"
    },
    {
        "city": "Coronel Fabriciano",
        "state": "MG",
        "district": "Belvedere",
        "street": "Rua Raquel de Queiróz",
        "zipcode": "35170-347"
    },
    {
        "city": "Coronel Fabriciano",
        "state": "MG",
        "district": "Potyra (Caladão)",
        "street": "Rua Pedro Cipriano",
        "zipcode": "35171-812"
    },
    {
        "city": "Coronel Fabriciano",
        "state": "MG",
        "district": "Nossa Senhora do Carmo",
        "street": "Rua Orlando Pereira dos Santos",
        "zipcode": "35170-630"
    },
    {
        "city": "Coronel Fabriciano",
        "state": "MG",
        "district": "Todos os Santos",
        "street": "Rua Rosália Tomaz da Costa",
        "zipcode": "35170-079"
    },
    {
        "city": "Coronel Fabriciano",
        "state": "MG",
        "district": "Residencial Fazendinha",
        "street": "Rua José Luiz da Silva",
        "zipcode": "35171-050"
    },
    {
        "city": "Coronel Fabriciano",
        "state": "MG",
        "district": "Caladinho",
        "street": "Rua Tupã",
        "zipcode": "35171-261"
    },
    {
        "city": "Coronel Fabriciano",
        "state": "MG",
        "district": "Sylvio Pereira I",
        "street": "Rua Caratinga",
        "zipcode": "35171-400"
    },
    {
        "city": "Coronel Fabriciano",
        "state": "MG",
        "district": "Melo Viana",
        "street": "Rua Montes Claros",
        "zipcode": "35170-176"
    },
    {
        "city": "Coronel Fabriciano",
        "state": "MG",
        "district": "Melo Viana",
        "street": "Rua Três Corações",
        "zipcode": "35170-177"
    },
    {
        "city": "Coronel Fabriciano",
        "state": "MG",
        "district": "Melo Viana",
        "street": "Rua Viçosa",
        "zipcode": "35170-181"
    },
    {
        "city": "Coronel Fabriciano",
        "state": "MG",
        "district": "Santa Inez",
        "street": "Rua A",
        "zipcode": "35170-690"
    },
    {
        "city": "Coronel Fabriciano",
        "state": "MG",
        "district": "Surinan",
        "street": "Avenida Sanitária",
        "zipcode": "35170-743"
    },
    {
        "city": "Coronel Fabriciano",
        "state": "MG",
        "district": "Floresta",
        "street": "Rua Canela",
        "zipcode": "35170-215"
    },
    {
        "city": "Coronel Fabriciano",
        "state": "MG",
        "district": "Santo Elói",
        "street": "Rua Ubatuba",
        "zipcode": "35170-133"
    },
    {
        "city": "Coronel Fabriciano",
        "state": "MG",
        "district": "Melo Viana",
        "street": "Rua Poços de Caldas",
        "zipcode": "35170-137"
    },
    {
        "city": "Coronel Fabriciano",
        "state": "MG",
        "district": "Caladinho",
        "street": "Rua D",
        "zipcode": "35171-244"
    },
    {
        "city": "Coronel Fabriciano",
        "state": "MG",
        "district": "Caladinho",
        "street": "Rua Javari",
        "zipcode": "35171-277"
    },
    {
        "city": "Coronel Fabriciano",
        "state": "MG",
        "district": "Centro",
        "street": "Rua José Cornélio",
        "zipcode": "35170-008"
    },
    {
        "city": "Coronel Fabriciano",
        "state": "MG",
        "district": "Recanto Verde",
        "street": "Rua Silício",
        "zipcode": "35171-030"
    },
    {
        "city": "Coronel Fabriciano",
        "state": "MG",
        "district": "Surinan",
        "street": "Beco Um",
        "zipcode": "35170-192"
    },
    {
        "city": "Coronel Fabriciano",
        "state": "MG",
        "district": "Centro",
        "street": "Rua Duque de Caxias",
        "zipcode": "35170-009"
    },
    {
        "city": "Coronel Fabriciano",
        "state": "MG",
        "district": "Manoel Domingos",
        "street": "Rua A",
        "zipcode": "35170-090"
    },
    {
        "city": "Coronel Fabriciano",
        "state": "MG",
        "district": "Centro",
        "street": "Avenida Acesita",
        "zipcode": "35170-058"
    },
    {
        "city": "Coronel Fabriciano",
        "state": "MG",
        "district": "Giovanini",
        "street": "Avenida Araruama",
        "zipcode": "35170-099"
    },
    {
        "city": "Coronel Fabriciano",
        "state": "MG",
        "district": "Professores",
        "street": "Rua Ari Barros",
        "zipcode": "35170-018"
    },
    {
        "city": "Coronel Fabriciano",
        "state": "MG",
        "district": "Giovanini",
        "street": "Rua Arpoador",
        "zipcode": "35170-104"
    },
    {
        "city": "Coronel Fabriciano",
        "state": "MG",
        "district": "Manoel Domingos",
        "street": "Rua C",
        "zipcode": "35170-081"
    },
    {
        "city": "Coronel Fabriciano",
        "state": "MG",
        "district": "Nossa Senhora do Carmo",
        "street": "Rua Chafariz",
        "zipcode": "35170-047"
    },
    {
        "city": "Coronel Fabriciano",
        "state": "MG",
        "district": "Nossa Senhora do Carmo",
        "street": "Rua Cinco",
        "zipcode": "35170-068"
    },
    {
        "city": "Coronel Fabriciano",
        "state": "MG",
        "district": "Giovanini",
        "street": "Rua Copacabana",
        "zipcode": "35170-098"
    },
    {
        "city": "Coronel Fabriciano",
        "state": "MG",
        "district": "Manoel Domingos",
        "street": "Rua D",
        "zipcode": "35170-062"
    },
    {
        "city": "Coronel Fabriciano",
        "state": "MG",
        "district": "Nossa Senhora do Carmo",
        "street": "Rua Compadre Juca",
        "zipcode": "35170-045"
    },
    {
        "city": "Coronel Fabriciano",
        "state": "MG",
        "district": "Giovanini",
        "street": "Avenida Diocesana",
        "zipcode": "35170-109"
    },
    {
        "city": "Coronel Fabriciano",
        "state": "MG",
        "district": "Centro",
        "street": "Rua Dom Bosco",
        "zipcode": "35170-031"
    },
    {
        "city": "Coronel Fabriciano",
        "state": "MG",
        "district": "Nossa Senhora da Penha",
        "street": "Rua Vereador José Vieira Simões",
        "zipcode": "35170-051"
    },
    {
        "city": "Coronel Fabriciano",
        "state": "MG",
        "district": "Manoel Domingos",
        "street": "Rua E",
        "zipcode": "35170-063"
    },
    {
        "city": "Coronel Fabriciano",
        "state": "MG",
        "district": "Centro",
        "street": "Rua Ezequiel Pereira",
        "zipcode": "35170-084"
    },
    {
        "city": "Coronel Fabriciano",
        "state": "MG",
        "district": "Todos os Santos",
        "street": "Praça Getúlio Vargas",
        "zipcode": "35170-059"
    },
    {
        "city": "Coronel Fabriciano",
        "state": "MG",
        "district": "Giovanini",
        "street": "Rua Itaparica",
        "zipcode": "35170-101"
    },
    {
        "city": "Coronel Fabriciano",
        "state": "MG",
        "district": "Giovanini",
        "street": "Rua Jacaraípe",
        "zipcode": "35170-095"
    },
    {
        "city": "Coronel Fabriciano",
        "state": "MG",
        "district": "Centro",
        "street": "Rua José lima",
        "zipcode": "35170-036"
    },
    {
        "city": "Coronel Fabriciano",
        "state": "MG",
        "district": "Centro",
        "street": "Rua José Anastácio Franco",
        "zipcode": "35170-040"
    },
    {
        "city": "Coronel Fabriciano",
        "state": "MG",
        "district": "Centro",
        "street": "Rua José Maria de Magalhães",
        "zipcode": "35170-042"
    },
    {
        "city": "Coronel Fabriciano",
        "state": "MG",
        "district": "Centro",
        "street": "Rua José Rodrigues",
        "zipcode": "35170-091"
    },
    {
        "city": "Coronel Fabriciano",
        "state": "MG",
        "district": "Professores",
        "street": "Rua José Vivi",
        "zipcode": "35170-020"
    },
    {
        "city": "Coronel Fabriciano",
        "state": "MG",
        "district": "Professores",
        "street": "Rua Lauro Barbosa",
        "zipcode": "35170-029"
    },
    {
        "city": "Coronel Fabriciano",
        "state": "MG",
        "district": "Giovanini",
        "street": "Rua Leblon",
        "zipcode": "35170-105"
    },
    {
        "city": "Coronel Fabriciano",
        "state": "MG",
        "district": "Centro",
        "street": "Rua Ligação",
        "zipcode": "35170-021"
    },
    {
        "city": "Coronel Fabriciano",
        "state": "MG",
        "district": "Centro",
        "street": "Rua Maria Matos",
        "zipcode": "35170-111"
    },
    {
        "city": "Coronel Fabriciano",
        "state": "MG",
        "district": "Nossa Senhora da Penha",
        "street": "Rua Nove",
        "zipcode": "35170-071"
    },
    {
        "city": "Coronel Fabriciano",
        "state": "MG",
        "district": "Nossa Senhora do Carmo",
        "street": "Rua Ouro Preto",
        "zipcode": "35170-057"
    },
    {
        "city": "Coronel Fabriciano",
        "state": "MG",
        "district": "Todos os Santos",
        "street": "Rua Pedro Queiroga",
        "zipcode": "35170-077"
    },
    {
        "city": "Coronel Fabriciano",
        "state": "MG",
        "district": "Nossa Senhora do Carmo",
        "street": "Rua Caetano Cândido",
        "zipcode": "35170-067"
    },
    {
        "city": "Coronel Fabriciano",
        "state": "MG",
        "district": "Centro",
        "street": "Rua Quintiliano Pereira",
        "zipcode": "35170-083"
    },
    {
        "city": "Coronel Fabriciano",
        "state": "MG",
        "district": "Caladinho",
        "street": "Rua Quinze",
        "zipcode": "35171-147"
    },
    {
        "city": "Coronel Fabriciano",
        "state": "MG",
        "district": "Recanto Verde",
        "street": "Rua Oxigênio",
        "zipcode": "35171-826"
    },
    {
        "city": "Coronel Fabriciano",
        "state": "MG",
        "district": "Belvedere",
        "street": "Rua José Gomes Ferreira",
        "zipcode": "35170-185"
    },
    {
        "city": "Coronel Fabriciano",
        "state": "MG",
        "district": "Centro",
        "street": "Praça JK",
        "zipcode": "35170-462"
    },
    {
        "city": "Coronel Fabriciano",
        "state": "MG",
        "district": "Caladinho",
        "street": "Rua Vale dos Purús",
        "zipcode": "35171-203"
    },
    {
        "city": "Coronel Fabriciano",
        "state": "MG",
        "district": "Recanto Verde",
        "street": "Rua Arsênio",
        "zipcode": "35171-819"
    },
    {
        "city": "Coronel Fabriciano",
        "state": "MG",
        "district": "Floresta",
        "street": "Rua Pedestia",
        "zipcode": "35170-227"
    },
    {
        "city": "Coronel Fabriciano",
        "state": "MG",
        "district": "Santa Helena",
        "street": "Rua Ramiro Camargo",
        "zipcode": "35170-027"
    },
    {
        "city": "Coronel Fabriciano",
        "state": "MG",
        "district": "Professores",
        "street": "Rua Rio Branco",
        "zipcode": "35170-015"
    },
    {
        "city": "Coronel Fabriciano",
        "state": "MG",
        "district": "Giovanini",
        "street": "Avenida Sanitária",
        "zipcode": "35170-108"
    },
    {
        "city": "Coronel Fabriciano",
        "state": "MG",
        "district": "Todos os Santos",
        "street": "Rua São Francisco de Assis",
        "zipcode": "35170-074"
    },
    {
        "city": "Coronel Fabriciano",
        "state": "MG",
        "district": "Professores",
        "street": "Rua São José",
        "zipcode": "35170-030"
    },
    {
        "city": "Coronel Fabriciano",
        "state": "MG",
        "district": "Todos os Santos",
        "street": "Rua Sérgio Romanelli",
        "zipcode": "35170-060"
    },
    {
        "city": "Coronel Fabriciano",
        "state": "MG",
        "district": "Centro",
        "street": "Rua Treze de Maio",
        "zipcode": "35170-035"
    },
    {
        "city": "Coronel Fabriciano",
        "state": "MG",
        "district": "Todos os Santos",
        "street": "Rua Padre Deolino Coelho",
        "zipcode": "35170-076"
    },
    {
        "city": "Coronel Fabriciano",
        "state": "MG",
        "district": "Giovanini",
        "street": "Rua Guarujá",
        "zipcode": "35170-103"
    },
    {
        "city": "Coronel Fabriciano",
        "state": "MG",
        "district": "Giovanini",
        "street": "Rua Paquetá",
        "zipcode": "35170-094"
    },
    {
        "city": "Coronel Fabriciano",
        "state": "MG",
        "district": "Centro",
        "street": "Rua Albert Scharlet",
        "zipcode": "35170-038"
    },
    {
        "city": "Coronel Fabriciano",
        "state": "MG",
        "district": "Centro",
        "street": "Rua Pedro Mafra",
        "zipcode": "35170-024"
    },
    {
        "city": "Coronel Fabriciano",
        "state": "MG",
        "district": "Professores",
        "street": "Rua Angélica",
        "zipcode": "35170-011"
    },
    {
        "city": "Coronel Fabriciano",
        "state": "MG",
        "district": "Centro",
        "street": "Rua Piracicaba",
        "zipcode": "35170-034"
    },
    {
        "city": "Coronel Fabriciano",
        "state": "MG",
        "district": "Nossa Senhora da Penha",
        "street": "Rua Sete",
        "zipcode": "35170-085"
    },
    {
        "city": "Coronel Fabriciano",
        "state": "MG",
        "district": "Melo Viana",
        "street": "Rua Alvorada",
        "zipcode": "35170-165"
    },
    {
        "city": "Coronel Fabriciano",
        "state": "MG",
        "district": "Santo Elói",
        "street": "Rua Antônio Santiago",
        "zipcode": "35170-136"
    },
    {
        "city": "Coronel Fabriciano",
        "state": "MG",
        "district": "Santo Elói",
        "street": "Rua Araxá",
        "zipcode": "35170-148"
    },
    {
        "city": "Coronel Fabriciano",
        "state": "MG",
        "district": "Floresta",
        "street": "Rua Bálsamo",
        "zipcode": "35170-221"
    },
    {
        "city": "Coronel Fabriciano",
        "state": "MG",
        "district": "Olaria",
        "street": "Rua Carangola",
        "zipcode": "35170-155"
    },
    {
        "city": "Coronel Fabriciano",
        "state": "MG",
        "district": "Floresta",
        "street": "Rua Castanheira",
        "zipcode": "35170-230"
    },
    {
        "city": "Coronel Fabriciano",
        "state": "MG",
        "district": "Floresta",
        "street": "Rua Cedro",
        "zipcode": "35170-213"
    },
    {
        "city": "Coronel Fabriciano",
        "state": "MG",
        "district": "Melo Viana",
        "street": "Rua Dede de Melo",
        "zipcode": "35170-163"
    },
    {
        "city": "Coronel Fabriciano",
        "state": "MG",
        "district": "Melo Viana",
        "street": "Rua Diamantina",
        "zipcode": "35170-169"
    },
    {
        "city": "Coronel Fabriciano",
        "state": "MG",
        "district": "Surinan",
        "street": "Rua Doze",
        "zipcode": "35170-203"
    },
    {
        "city": "Coronel Fabriciano",
        "state": "MG",
        "district": "Floresta",
        "street": "Rua Ébano",
        "zipcode": "35170-222"
    },
    {
        "city": "Coronel Fabriciano",
        "state": "MG",
        "district": "Melo Viana",
        "street": "Rua Flórida",
        "zipcode": "35170-178"
    },
    {
        "city": "Coronel Fabriciano",
        "state": "MG",
        "district": "Floresta",
        "street": "Rua Gameleira",
        "zipcode": "35170-217"
    },
    {
        "city": "Coronel Fabriciano",
        "state": "MG",
        "district": "Santa Cruz",
        "street": "Avenida Getúlio Vargas",
        "zipcode": "35170-245"
    },
    {
        "city": "Coronel Fabriciano",
        "state": "MG",
        "district": "Floresta",
        "street": "Rua Imbuia",
        "zipcode": "35170-211"
    },
    {
        "city": "Coronel Fabriciano",
        "state": "MG",
        "district": "Nazaré",
        "street": "Rua Intendente Gravatá",
        "zipcode": "35170-116"
    },
    {
        "city": "Coronel Fabriciano",
        "state": "MG",
        "district": "Floresta",
        "street": "Rua Ipê",
        "zipcode": "35170-219"
    },
    {
        "city": "Coronel Fabriciano",
        "state": "MG",
        "district": "Giovanini",
        "street": "Rua Iriri",
        "zipcode": "35170-124"
    },
    {
        "city": "Coronel Fabriciano",
        "state": "MG",
        "district": "Olaria",
        "street": "Rua Itambé",
        "zipcode": "35170-154"
    },
    {
        "city": "Coronel Fabriciano",
        "state": "MG",
        "district": "Melo Viana",
        "street": "Rua Itaúna",
        "zipcode": "35170-173"
    },
    {
        "city": "Coronel Fabriciano",
        "state": "MG",
        "district": "Melo Viana",
        "street": "Rua Jequitibá",
        "zipcode": "35170-171"
    },
    {
        "city": "Coronel Fabriciano",
        "state": "MG",
        "district": "Surinan",
        "street": "Rua Joacir Azeredo",
        "zipcode": "35170-199"
    },
    {
        "city": "Coronel Fabriciano",
        "state": "MG",
        "district": "Surinan",
        "street": "Rua Jonas Soares Camargo",
        "zipcode": "35170-200"
    },
    {
        "city": "Coronel Fabriciano",
        "state": "MG",
        "district": "Surinan",
        "street": "Rua José Bonifácio de Almeida",
        "zipcode": "35170-196"
    },
    {
        "city": "Coronel Fabriciano",
        "state": "MG",
        "district": "São Geraldo",
        "street": "Rua José Sabino",
        "zipcode": "35170-206"
    },
    {
        "city": "Coronel Fabriciano",
        "state": "MG",
        "district": "Melo Viana",
        "street": "Rua Josino Bhering",
        "zipcode": "35170-167"
    },
    {
        "city": "Coronel Fabriciano",
        "state": "MG",
        "district": "Olaria",
        "street": "Rua Mariana",
        "zipcode": "35170-138"
    },
    {
        "city": "Coronel Fabriciano",
        "state": "MG",
        "district": "Melo Viana",
        "street": "Rua Maringá",
        "zipcode": "35170-152"
    },
    {
        "city": "Coronel Fabriciano",
        "state": "MG",
        "district": "Giovanini",
        "street": "Rua Monsenhor Alípio",
        "zipcode": "35170-117"
    },
    {
        "city": "Coronel Fabriciano",
        "state": "MG",
        "district": "Belvedere",
        "street": "Rua Nova Almeida",
        "zipcode": "35170-129"
    },
    {
        "city": "Coronel Fabriciano",
        "state": "MG",
        "district": "Surinan",
        "street": "Rua Nove",
        "zipcode": "35170-204"
    },
    {
        "city": "Coronel Fabriciano",
        "state": "MG",
        "district": "Pedra Linda",
        "street": "Rua Pedra Azul",
        "zipcode": "35170-240"
    },
    {
        "city": "Coronel Fabriciano",
        "state": "MG",
        "district": "Melo Viana",
        "street": "Rua Pedra Azul",
        "zipcode": "35170-149"
    },
    {
        "city": "Coronel Fabriciano",
        "state": "MG",
        "district": "Pedra Linda",
        "street": "Rua Pedra Branca",
        "zipcode": "35170-238"
    },
    {
        "city": "Coronel Fabriciano",
        "state": "MG",
        "district": "Floresta",
        "street": "Rua Peroba",
        "zipcode": "35170-229"
    },
    {
        "city": "Coronel Fabriciano",
        "state": "MG",
        "district": "Santo Elói",
        "street": "Rua Pio XII",
        "zipcode": "35170-145"
    },
    {
        "city": "Coronel Fabriciano",
        "state": "MG",
        "district": "Caladinho",
        "street": "Avenida Represa",
        "zipcode": "35171-238"
    },
    {
        "city": "Coronel Fabriciano",
        "state": "MG",
        "district": "Surinan",
        "street": "Rua Raimunda Gonçalves da Silva",
        "zipcode": "35170-198"
    },
    {
        "city": "Coronel Fabriciano",
        "state": "MG",
        "district": "Belvedere",
        "street": "Rua Maria Soares de Oliveira",
        "zipcode": "35170-188"
    },
    {
        "city": "Coronel Fabriciano",
        "state": "MG",
        "district": "Morada do Vale",
        "street": "Rua Vale do Ivair",
        "zipcode": "35171-188"
    },
    {
        "city": "Coronel Fabriciano",
        "state": "MG",
        "district": "Melo Viana",
        "street": "Rua Pirapora",
        "zipcode": "35170-184"
    },
    {
        "city": "Coronel Fabriciano",
        "state": "MG",
        "district": "Professores",
        "street": "Rua Rio Doce",
        "zipcode": "35170-112"
    },
    {
        "city": "Coronel Fabriciano",
        "state": "MG",
        "district": "Melo Viana",
        "street": "Rua Santo Antônio",
        "zipcode": "35170-153"
    },
    {
        "city": "Coronel Fabriciano",
        "state": "MG",
        "district": "Santo Elói",
        "street": "Avenida Sepetiba",
        "zipcode": "35170-142"
    },
    {
        "city": "Coronel Fabriciano",
        "state": "MG",
        "district": "São Geraldo",
        "street": "Beco Três",
        "zipcode": "35170-209"
    },
    {
        "city": "Coronel Fabriciano",
        "state": "MG",
        "district": "Olaria",
        "street": "Rua Uberaba",
        "zipcode": "35170-134"
    },
    {
        "city": "Coronel Fabriciano",
        "state": "MG",
        "district": "São Geraldo",
        "street": "Beco Um",
        "zipcode": "35170-207"
    },
    {
        "city": "Coronel Fabriciano",
        "state": "MG",
        "district": "Belvedere",
        "street": "Avenida Crianças do Mundo",
        "zipcode": "35170-120"
    },
    {
        "city": "Coronel Fabriciano",
        "state": "MG",
        "district": "Belvedere",
        "street": "Rua Vinte e Um",
        "zipcode": "35170-190"
    },
    {
        "city": "Coronel Fabriciano",
        "state": "MG",
        "district": "Santa Cruz",
        "street": "Avenida do Contorno",
        "zipcode": "35170-244"
    },
    {
        "city": "Coronel Fabriciano",
        "state": "MG",
        "district": "Melo Viana",
        "street": "Rua Pedro Soares",
        "zipcode": "35170-157"
    },
    {
        "city": "Coronel Fabriciano",
        "state": "MG",
        "district": "Giovanini",
        "street": "Rua Cabo Frio",
        "zipcode": "35170-127"
    },
    {
        "city": "Coronel Fabriciano",
        "state": "MG",
        "district": "Melo Viana",
        "street": "Rua Itabira",
        "zipcode": "35170-180"
    },
    {
        "city": "Coronel Fabriciano",
        "state": "MG",
        "district": "Belvedere",
        "street": "Avenida Professora Dona Lilica Albeny",
        "zipcode": "35170-126"
    },
    {
        "city": "Coronel Fabriciano",
        "state": "MG",
        "district": "Santa Cruz",
        "street": "Rua Dois",
        "zipcode": "35170-243"
    },
    {
        "city": "Coronel Fabriciano",
        "state": "MG",
        "district": "Santo Elói",
        "street": "Rua São José",
        "zipcode": "35170-146"
    },
    {
        "city": "Coronel Fabriciano",
        "state": "MG",
        "district": "Belvedere",
        "street": "Rua Dez",
        "zipcode": "35170-333"
    },
    {
        "city": "Coronel Fabriciano",
        "state": "MG",
        "district": "Belvedere",
        "street": "Rua Dezenove",
        "zipcode": "35170-336"
    },
    {
        "city": "Coronel Fabriciano",
        "state": "MG",
        "district": "Córrego Alto",
        "street": "Rua Boa Vista",
        "zipcode": "35170-500"
    },
    {
        "city": "Coronel Fabriciano",
        "state": "MG",
        "district": "Belvedere",
        "street": "Rua Onze",
        "zipcode": "35170-349"
    },
    {
        "city": "Coronel Fabriciano",
        "state": "MG",
        "district": "Belvedere",
        "street": "Rua Vinte e Nove",
        "zipcode": "35170-355"
    },
    {
        "city": "Coronel Fabriciano",
        "state": "MG",
        "district": "Centro",
        "street": "Rua Pedro Nolasco",
        "zipcode": "35170-300"
    },
    {
        "city": "Coronel Fabriciano",
        "state": "MG",
        "district": "São Domingos",
        "street": "Rua Acácia",
        "zipcode": "35170-307"
    },
    {
        "city": "Coronel Fabriciano",
        "state": "MG",
        "district": "Santa Cruz",
        "street": "Rua Alemanha",
        "zipcode": "35170-247"
    },
    {
        "city": "Coronel Fabriciano",
        "state": "MG",
        "district": "Santa Cruz",
        "street": "Rua Bélgica",
        "zipcode": "35170-250"
    },
    {
        "city": "Coronel Fabriciano",
        "state": "MG",
        "district": "Santa Cruz",
        "street": "Rua Brasil",
        "zipcode": "35170-253"
    },
    {
        "city": "Coronel Fabriciano",
        "state": "MG",
        "district": "Gávea",
        "street": "Rua C",
        "zipcode": "35170-302"
    },
    {
        "city": "Coronel Fabriciano",
        "state": "MG",
        "district": "Santa Cruz",
        "street": "Rua Canadá",
        "zipcode": "35170-255"
    },
    {
        "city": "Coronel Fabriciano",
        "state": "MG",
        "district": "Santa Cruz",
        "street": "Rua Chile",
        "zipcode": "35170-252"
    },
    {
        "city": "Coronel Fabriciano",
        "state": "MG",
        "district": "Santa Inez",
        "street": "Rua Cinco",
        "zipcode": "35170-288"
    },
    {
        "city": "Coronel Fabriciano",
        "state": "MG",
        "district": "São Vicente",
        "street": "Rua Cinco",
        "zipcode": "35170-282"
    },
    {
        "city": "Coronel Fabriciano",
        "state": "MG",
        "district": "São Vicente",
        "street": "Rua Dez",
        "zipcode": "35170-283"
    },
    {
        "city": "Coronel Fabriciano",
        "state": "MG",
        "district": "Santa Cruz",
        "street": "Rua Dezessete",
        "zipcode": "35170-274"
    },
    {
        "city": "Coronel Fabriciano",
        "state": "MG",
        "district": "São Vicente",
        "street": "Rua Dois",
        "zipcode": "35170-279"
    },
    {
        "city": "Coronel Fabriciano",
        "state": "MG",
        "district": "Santa Cruz",
        "street": "Rua Espanha",
        "zipcode": "35170-265"
    },
    {
        "city": "Coronel Fabriciano",
        "state": "MG",
        "district": "Santa Cruz",
        "street": "Rua Finlândia",
        "zipcode": "35170-271"
    },
    {
        "city": "Coronel Fabriciano",
        "state": "MG",
        "district": "Santa Cruz",
        "street": "Rua Franca",
        "zipcode": "35170-261"
    },
    {
        "city": "Coronel Fabriciano",
        "state": "MG",
        "district": "São Domingos",
        "street": "Rua Girassol",
        "zipcode": "35170-310"
    },
    {
        "city": "Coronel Fabriciano",
        "state": "MG",
        "district": "Santa Cruz",
        "street": "Rua Índia",
        "zipcode": "35170-262"
    },
    {
        "city": "Coronel Fabriciano",
        "state": "MG",
        "district": "Córrego Alto",
        "street": "Rua Ipê",
        "zipcode": "35170-297"
    },
    {
        "city": "Coronel Fabriciano",
        "state": "MG",
        "district": "Santa Cruz",
        "street": "Rua Israel",
        "zipcode": "35170-258"
    },
    {
        "city": "Coronel Fabriciano",
        "state": "MG",
        "district": "Santa Cruz",
        "street": "Rua Itália",
        "zipcode": "35170-249"
    },
    {
        "city": "Coronel Fabriciano",
        "state": "MG",
        "district": "Córrego Alto",
        "street": "Rua Laranjeiras",
        "zipcode": "35170-296"
    },
    {
        "city": "Coronel Fabriciano",
        "state": "MG",
        "district": "Santa Luzia",
        "street": "Rua Quatro",
        "zipcode": "35170-287"
    },
    {
        "city": "Coronel Fabriciano",
        "state": "MG",
        "district": "São Domingos",
        "street": "Avenida Vitória Régia",
        "zipcode": "35170-309"
    },
    {
        "city": "Coronel Fabriciano",
        "state": "MG",
        "district": "Santa Inez",
        "street": "Rua Seis",
        "zipcode": "35170-289"
    },
    {
        "city": "Coronel Fabriciano",
        "state": "MG",
        "district": "Santa Inez",
        "street": "Rua Sete",
        "zipcode": "35170-290"
    },
    {
        "city": "Coronel Fabriciano",
        "state": "MG",
        "district": "Santa Luzia",
        "street": "Rua Um",
        "zipcode": "35170-284"
    },
    {
        "city": "Coronel Fabriciano",
        "state": "MG",
        "district": "São Vicente",
        "street": "Rua Um",
        "zipcode": "35170-278"
    },
    {
        "city": "Coronel Fabriciano",
        "state": "MG",
        "district": "Santa Cruz",
        "street": "Rua Uruguai",
        "zipcode": "35170-267"
    },
    {
        "city": "Coronel Fabriciano",
        "state": "MG",
        "district": "Santa Cruz",
        "street": "Rua Venezuela",
        "zipcode": "35170-269"
    },
    {
        "city": "Coronel Fabriciano",
        "state": "MG",
        "district": "Córrego Alto",
        "street": "Rua Vinhático",
        "zipcode": "35170-295"
    },
    {
        "city": "Coronel Fabriciano",
        "state": "MG",
        "district": "Santa Cruz",
        "street": "Rua Portugal",
        "zipcode": "35170-257"
    },
    {
        "city": "Coronel Fabriciano",
        "state": "MG",
        "district": "São Domingos",
        "street": "Rua Violeta",
        "zipcode": "35170-305"
    },
    {
        "city": "Coronel Fabriciano",
        "state": "MG",
        "district": "Santa Cruz",
        "street": "Rua Holanda",
        "zipcode": "35170-266"
    },
    {
        "city": "Coronel Fabriciano",
        "state": "MG",
        "district": "Manoel Domingos",
        "street": "Rua B",
        "zipcode": "35170-315"
    },
    {
        "city": "Coronel Fabriciano",
        "state": "MG",
        "district": "São Cristovão",
        "street": "Rua Sol",
        "zipcode": "35172-175"
    },
    {
        "city": "Coronel Fabriciano",
        "state": "MG",
        "district": "Belvedere",
        "street": "Rua Felício Barros",
        "zipcode": "35170-362"
    },
    {
        "city": "Coronel Fabriciano",
        "state": "MG",
        "district": "Belvedere",
        "street": "Rua Trinta e três",
        "zipcode": "35170-364"
    },
    {
        "city": "Coronel Fabriciano",
        "state": "MG",
        "district": "Belvedere",
        "street": "Rua Noeme Oliveira",
        "zipcode": "35170-356"
    },
    {
        "city": "Coronel Fabriciano",
        "state": "MG",
        "district": "Belvedere",
        "street": "Rua Manoel Altino",
        "zipcode": "35170-350"
    },
    {
        "city": "Coronel Fabriciano",
        "state": "MG",
        "district": "Belvedere",
        "street": "Avenida Altamiro Gomes",
        "zipcode": "35170-352"
    },
    {
        "city": "Coronel Fabriciano",
        "state": "MG",
        "district": "Belvedere",
        "street": "Rua Olavo Bilac",
        "zipcode": "35170-330"
    },
    {
        "city": "Coronel Fabriciano",
        "state": "MG",
        "district": "Florença",
        "street": "Rua Vinte e Sete",
        "zipcode": "35170-410"
    },
    {
        "city": "Coronel Fabriciano",
        "state": "MG",
        "district": "Florença",
        "street": "Rua Cinco",
        "zipcode": "35170-402"
    },
    {
        "city": "Coronel Fabriciano",
        "state": "MG",
        "district": "Giovanini",
        "street": "Rua Ligação",
        "zipcode": "35170-382"
    },
    {
        "city": "Coronel Fabriciano",
        "state": "MG",
        "district": "Olaria",
        "street": "Rua Ipanema",
        "zipcode": "35170-390"
    },
    {
        "city": "Coronel Fabriciano",
        "state": "MG",
        "district": "Florença",
        "street": "Rua Cento e Três",
        "zipcode": "35170-400"
    },
    {
        "city": "Coronel Fabriciano",
        "state": "MG",
        "district": "Córrego Alto",
        "street": "Rua Dois",
        "zipcode": "35170-450"
    },
    {
        "city": "Coronel Fabriciano",
        "state": "MG",
        "district": "São Vicente",
        "street": "Rua Oito",
        "zipcode": "35170-440"
    },
    {
        "city": "Coronel Fabriciano",
        "state": "MG",
        "district": "Todos os Santos",
        "street": "Rua Teofílo Otoní",
        "zipcode": "35170-318"
    },
    {
        "city": "Coronel Fabriciano",
        "state": "MG",
        "district": "Todos os Santos",
        "street": "Rua Três Grotas",
        "zipcode": "35170-320"
    },
    {
        "city": "Coronel Fabriciano",
        "state": "MG",
        "district": "Professores",
        "street": "Rua Acyr Antunes Lopes",
        "zipcode": "35170-656"
    },
    {
        "city": "Coronel Fabriciano",
        "state": "MG",
        "district": "Melo Viana",
        "street": "Rua Álvaro Moreira",
        "zipcode": "35170-582"
    },
    {
        "city": "Coronel Fabriciano",
        "state": "MG",
        "district": "Melo Viana",
        "street": "Beco Santo Antônio",
        "zipcode": "35170-587"
    },
    {
        "city": "Coronel Fabriciano",
        "state": "MG",
        "district": "Melo Viana",
        "street": "Beco Pirapora",
        "zipcode": "35170-595"
    },
    {
        "city": "Coronel Fabriciano",
        "state": "MG",
        "district": "Córrego Alto",
        "street": "Rua Um",
        "zipcode": "35170-526"
    },
    {
        "city": "Coronel Fabriciano",
        "state": "MG",
        "district": "Nossa Senhora do Carmo",
        "street": "Beco Um (da rua Epaminondas)",
        "zipcode": "35170-640"
    },
    {
        "city": "Coronel Fabriciano",
        "state": "MG",
        "district": "José da Silva Brito",
        "street": "Rua Três",
        "zipcode": "35170-562"
    },
    {
        "city": "Coronel Fabriciano",
        "state": "MG",
        "district": "Santa Cruz",
        "street": "Beco Cinco (da rua Haiti)",
        "zipcode": "35170-662"
    },
    {
        "city": "Coronel Fabriciano",
        "state": "MG",
        "district": "Santa Cruz",
        "street": "Beco Seis (da rua Haiti)",
        "zipcode": "35170-666"
    },
    {
        "city": "Coronel Fabriciano",
        "state": "MG",
        "district": "Santa Cruz",
        "street": "Beco Um (da rua Porto Rico)",
        "zipcode": "35170-670"
    },
    {
        "city": "Coronel Fabriciano",
        "state": "MG",
        "district": "Santa Cruz",
        "street": "Beco Um (da rua México)",
        "zipcode": "35170-674"
    },
    {
        "city": "Coronel Fabriciano",
        "state": "MG",
        "district": "Santa Cruz",
        "street": "Beco Cinco (da rua Áustria)",
        "zipcode": "35170-678"
    },
    {
        "city": "Coronel Fabriciano",
        "state": "MG",
        "district": "Santa Inez",
        "street": "Rua Contorno",
        "zipcode": "35170-692"
    },
    {
        "city": "Coronel Fabriciano",
        "state": "MG",
        "district": "Santa Inez",
        "street": "Rua Um",
        "zipcode": "35170-694"
    },
    {
        "city": "Coronel Fabriciano",
        "state": "MG",
        "district": "Santa Luzia",
        "street": "Rua Cinco",
        "zipcode": "35170-696"
    },
    {
        "city": "Coronel Fabriciano",
        "state": "MG",
        "district": "Santa Cruz",
        "street": "Rua Turquia",
        "zipcode": "35170-688"
    },
    {
        "city": "Coronel Fabriciano",
        "state": "MG",
        "district": "José da Silva Brito",
        "street": "Rua Cinco",
        "zipcode": "35170-550"
    },
    {
        "city": "Coronel Fabriciano",
        "state": "MG",
        "district": "Córrego Alto",
        "street": "Rua Dez",
        "zipcode": "35170-502"
    },
    {
        "city": "Coronel Fabriciano",
        "state": "MG",
        "district": "Córrego Alto",
        "street": "Rua Dezesseis",
        "zipcode": "35170-506"
    },
    {
        "city": "Coronel Fabriciano",
        "state": "MG",
        "district": "Córrego Alto",
        "street": "Rua Jaboticabeira",
        "zipcode": "35170-510"
    },
    {
        "city": "Coronel Fabriciano",
        "state": "MG",
        "district": "Córrego Alto",
        "street": "Rua Oito",
        "zipcode": "35170-512"
    },
    {
        "city": "Coronel Fabriciano",
        "state": "MG",
        "district": "Córrego Alto",
        "street": "Rua Quinze",
        "zipcode": "35170-518"
    },
    {
        "city": "Coronel Fabriciano",
        "state": "MG",
        "district": "Córrego Alto",
        "street": "Rua Sete",
        "zipcode": "35170-524"
    },
    {
        "city": "Coronel Fabriciano",
        "state": "MG",
        "district": "Nossa Senhora do Carmo",
        "street": "Rua Joaquim de Ávila Netto",
        "zipcode": "35170-636"
    },
    {
        "city": "Coronel Fabriciano",
        "state": "MG",
        "district": "São Geraldo",
        "street": "Beco Cinco (da rua José Correia)",
        "zipcode": "35170-712"
    },
    {
        "city": "Coronel Fabriciano",
        "state": "MG",
        "district": "São Geraldo",
        "street": "Beco Dois (da rua José Sabino)",
        "zipcode": "35170-714"
    },
    {
        "city": "Coronel Fabriciano",
        "state": "MG",
        "district": "São Geraldo",
        "street": "Rua Caetano Viana",
        "zipcode": "35170-718"
    },
    {
        "city": "Coronel Fabriciano",
        "state": "MG",
        "district": "São Geraldo",
        "street": "Rua João Paulo Ribeiro",
        "zipcode": "35170-720"
    },
    {
        "city": "Coronel Fabriciano",
        "state": "MG",
        "district": "São Geraldo",
        "street": "Beco José Viana",
        "zipcode": "35170-722"
    },
    {
        "city": "Coronel Fabriciano",
        "state": "MG",
        "district": "Surinan",
        "street": "Rua João Evangelista Barros",
        "zipcode": "35170-742"
    },
    {
        "city": "Coronel Fabriciano",
        "state": "MG",
        "district": "Morada do Vale",
        "street": "Rua Rio Piracicaba",
        "zipcode": "35171-748"
    },
    {
        "city": "Coronel Fabriciano",
        "state": "MG",
        "district": "Nossa Senhora da Penha",
        "street": "Rua Sebastião Dutra de Souza",
        "zipcode": "35170-620"
    },
    {
        "city": "Coronel Fabriciano",
        "state": "MG",
        "district": "Córrego Alto",
        "street": "Rua Raimundo Pedro Assis",
        "zipcode": "35170-520"
    },
    {
        "city": "Coronel Fabriciano",
        "state": "MG",
        "district": "Córrego Alto",
        "street": "Rua Dom Guido Conforti",
        "zipcode": "35170-508"
    },
    {
        "city": "Coronel Fabriciano",
        "state": "MG",
        "district": "Nossa Senhora do Carmo",
        "street": "Praça Francisco de Assis Campos",
        "zipcode": "35170-634"
    },
    {
        "city": "Coronel Fabriciano",
        "state": "MG",
        "district": "Santa Luzia",
        "street": "Rua Seis",
        "zipcode": "35170-702"
    },
    {
        "city": "Coronel Fabriciano",
        "state": "MG",
        "district": "Santa Rita",
        "street": "Rua José Augusto Vitorino",
        "zipcode": "35170-709"
    },
    {
        "city": "Coronel Fabriciano",
        "state": "MG",
        "district": "Professores",
        "street": "Rua Julita Pires Bretas",
        "zipcode": "35170-660"
    },
    {
        "city": "Coronel Fabriciano",
        "state": "MG",
        "district": "São Domingos",
        "street": "Rua Amélia Fernandes",
        "zipcode": "35171-005"
    },
    {
        "city": "Coronel Fabriciano",
        "state": "MG",
        "district": "São Domingos",
        "street": "Rua Cromo",
        "zipcode": "35171-014"
    },
    {
        "city": "Coronel Fabriciano",
        "state": "MG",
        "district": "São Domingos",
        "street": "Rua Dália",
        "zipcode": "35171-007"
    },
    {
        "city": "Coronel Fabriciano",
        "state": "MG",
        "district": "São Domingos",
        "street": "Beco das Flores",
        "zipcode": "35171-004"
    },
    {
        "city": "Coronel Fabriciano",
        "state": "MG",
        "district": "São Domingos",
        "street": "Rua Gardênia",
        "zipcode": "35171-013"
    },
    {
        "city": "Coronel Fabriciano",
        "state": "MG",
        "district": "São Domingos",
        "street": "Rua Jasmim",
        "zipcode": "35171-011"
    },
    {
        "city": "Coronel Fabriciano",
        "state": "MG",
        "district": "São Domingos",
        "street": "Rua Sempre",
        "zipcode": "35171-006"
    },
    {
        "city": "Coronel Fabriciano",
        "state": "MG",
        "district": "Belvedere",
        "street": "Rua José Feliciano da Silva",
        "zipcode": "35170-341"
    },
    {
        "city": "Coronel Fabriciano",
        "state": "MG",
        "district": "Nossa Senhora da Penha",
        "street": "Rua Maria Justina da Conceição",
        "zipcode": "35170-618"
    },
    {
        "city": "Coronel Fabriciano",
        "state": "MG",
        "district": "Nossa Senhora da Penha",
        "street": "Rua Marciano Monsueto Silva",
        "zipcode": "35170-616"
    },
    {
        "city": "Coronel Fabriciano",
        "state": "MG",
        "district": "São Domingos",
        "street": "Rua Sempre",
        "zipcode": "35171-001"
    },
    {
        "city": "Coronel Fabriciano",
        "state": "MG",
        "district": "São Domingos",
        "street": "Rua Tulipas",
        "zipcode": "35171-000"
    },
    {
        "city": "Coronel Fabriciano",
        "state": "MG",
        "district": "São Domingos",
        "street": "Rua Margarida",
        "zipcode": "35171-010"
    },
    {
        "city": "Coronel Fabriciano",
        "state": "MG",
        "district": "Alipinho",
        "street": "Rua Álvaro Alberto Guimarães",
        "zipcode": "35171-042"
    },
    {
        "city": "Coronel Fabriciano",
        "state": "MG",
        "district": "Alipinho",
        "street": "Rua Alvino Olegário",
        "zipcode": "35171-052"
    },
    {
        "city": "Coronel Fabriciano",
        "state": "MG",
        "district": "Potyra (Caladão)",
        "street": "Rua Anga",
        "zipcode": "35171-077"
    },
    {
        "city": "Coronel Fabriciano",
        "state": "MG",
        "district": "Júlia Kubitschek",
        "street": "Rua Antônio Pinto",
        "zipcode": "35171-096"
    },
    {
        "city": "Coronel Fabriciano",
        "state": "MG",
        "district": "São Domingos",
        "street": "Beco do Avante",
        "zipcode": "35171-092"
    },
    {
        "city": "Coronel Fabriciano",
        "state": "MG",
        "district": "Recanto Verde",
        "street": "Rua Bário",
        "zipcode": "35171-021"
    },
    {
        "city": "Coronel Fabriciano",
        "state": "MG",
        "district": "Bom Jesus",
        "street": "Rua Castelo Branco",
        "zipcode": "35171-116"
    },
    {
        "city": "Coronel Fabriciano",
        "state": "MG",
        "district": "Júlia Kubitschek",
        "street": "Rua Cinco",
        "zipcode": "35171-106"
    },
    {
        "city": "Coronel Fabriciano",
        "state": "MG",
        "district": "Alipinho",
        "street": "Rua Cirineu Teixeira",
        "zipcode": "35171-056"
    },
    {
        "city": "Coronel Fabriciano",
        "state": "MG",
        "district": "Manoel Maia (Apara Foice)",
        "street": "Avenida Corcovado",
        "zipcode": "35171-059"
    },
    {
        "city": "Coronel Fabriciano",
        "state": "MG",
        "district": "Manoel Maia (Apara Foice)",
        "street": "Rua Gaivotas",
        "zipcode": "35171-072"
    },
    {
        "city": "Coronel Fabriciano",
        "state": "MG",
        "district": "Recanto Verde",
        "street": "Avenida Germânio",
        "zipcode": "35171-037"
    },
    {
        "city": "Coronel Fabriciano",
        "state": "MG",
        "district": "Santo Antônio",
        "street": "Rua Gustavo Rodrigues da Silva",
        "zipcode": "35171-046"
    },
    {
        "city": "Coronel Fabriciano",
        "state": "MG",
        "district": "Júlia Kubitschek",
        "street": "Rua Hilário Grossi",
        "zipcode": "35171-101"
    },
    {
        "city": "Coronel Fabriciano",
        "state": "MG",
        "district": "Potyra (Caladão)",
        "street": "Rua Ibate",
        "zipcode": "35171-081"
    },
    {
        "city": "Coronel Fabriciano",
        "state": "MG",
        "district": "Alipinho",
        "street": "Rua Isaulina Limão",
        "zipcode": "35171-039"
    },
    {
        "city": "Coronel Fabriciano",
        "state": "MG",
        "district": "Santo Antônio",
        "street": "Rua Jorge Gomes de Andrade",
        "zipcode": "35171-047"
    },
    {
        "city": "Coronel Fabriciano",
        "state": "MG",
        "district": "Potyra (Caladão)",
        "street": "Beco José Brandão",
        "zipcode": "35171-091"
    },
    {
        "city": "Coronel Fabriciano",
        "state": "MG",
        "district": "Júlia Kubitschek",
        "street": "Rua José Furtado de Assis",
        "zipcode": "35171-098"
    },
    {
        "city": "Coronel Fabriciano",
        "state": "MG",
        "district": "Potyra (Caladão)",
        "street": "Rua Kira",
        "zipcode": "35171-084"
    },
    {
        "city": "Coronel Fabriciano",
        "state": "MG",
        "district": "Manoel Maia (Apara Foice)",
        "street": "Rua Maracanã",
        "zipcode": "35171-071"
    },
    {
        "city": "Coronel Fabriciano",
        "state": "MG",
        "district": "Recanto Verde",
        "street": "Rua Neônio",
        "zipcode": "35171-034"
    },
    {
        "city": "Coronel Fabriciano",
        "state": "MG",
        "district": "Manoel Maia (Apara Foice)",
        "street": "Rua Netuno",
        "zipcode": "35171-062"
    },
    {
        "city": "Coronel Fabriciano",
        "state": "MG",
        "district": "Recanto Verde",
        "street": "Rua Nióbio",
        "zipcode": "35171-023"
    },
    {
        "city": "Coronel Fabriciano",
        "state": "MG",
        "district": "Júlia Kubitschek",
        "street": "Rua Oito",
        "zipcode": "35171-103"
    },
    {
        "city": "Coronel Fabriciano",
        "state": "MG",
        "district": "Alipinho",
        "street": "Rua Padre Américo Magalhães",
        "zipcode": "35171-053"
    },
    {
        "city": "Coronel Fabriciano",
        "state": "MG",
        "district": "Manoel Maia (Apara Foice)",
        "street": "Rua Patativa",
        "zipcode": "35171-068"
    },
    {
        "city": "Coronel Fabriciano",
        "state": "MG",
        "district": "Bom Jesus",
        "street": "Rua Platina",
        "zipcode": "35171-114"
    },
    {
        "city": "Coronel Fabriciano",
        "state": "MG",
        "district": "Júlia Kubitschek",
        "street": "Rua Nico Roque",
        "zipcode": "35171-094"
    },
    {
        "city": "Coronel Fabriciano",
        "state": "MG",
        "district": "Recanto Verde",
        "street": "Rua Ródio",
        "zipcode": "35171-028"
    },
    {
        "city": "Coronel Fabriciano",
        "state": "MG",
        "district": "Recanto Verde",
        "street": "Rua Renio",
        "zipcode": "35171-018"
    },
    {
        "city": "Coronel Fabriciano",
        "state": "MG",
        "district": "Manoel Maia (Apara Foice)",
        "street": "Rua Rouxinol",
        "zipcode": "35171-074"
    },
    {
        "city": "Coronel Fabriciano",
        "state": "MG",
        "district": "Bom Jesus",
        "street": "Rua Rubi",
        "zipcode": "35171-112"
    },
    {
        "city": "Coronel Fabriciano",
        "state": "MG",
        "district": "Recanto Verde",
        "street": "Rua Rubídio",
        "zipcode": "35171-019"
    },
    {
        "city": "Coronel Fabriciano",
        "state": "MG",
        "district": "Manoel Maia (Apara Foice)",
        "street": "Avenida Sanitária",
        "zipcode": "35171-073"
    },
    {
        "city": "Coronel Fabriciano",
        "state": "MG",
        "district": "Júlia Kubitschek",
        "street": "Rua Seis",
        "zipcode": "35171-105"
    },
    {
        "city": "Coronel Fabriciano",
        "state": "MG",
        "district": "Potyra (Caladão)",
        "street": "Rua Sena",
        "zipcode": "35171-082"
    },
    {
        "city": "Coronel Fabriciano",
        "state": "MG",
        "district": "Potyra (Caladão)",
        "street": "Rua Sete",
        "zipcode": "35171-088"
    },
    {
        "city": "Coronel Fabriciano",
        "state": "MG",
        "district": "Recanto Verde",
        "street": "Rua Tantaro",
        "zipcode": "35171-025"
    },
    {
        "city": "Coronel Fabriciano",
        "state": "MG",
        "district": "Nova Tijuca",
        "street": "Rua Um",
        "zipcode": "35171-118"
    },
    {
        "city": "Coronel Fabriciano",
        "state": "MG",
        "district": "Potyra (Caladão)",
        "street": "Rua Um",
        "zipcode": "35171-086"
    },
    {
        "city": "Coronel Fabriciano",
        "state": "MG",
        "district": "Manoel Maia (Apara Foice)",
        "street": "Rua Urânio",
        "zipcode": "35171-060"
    },
    {
        "city": "Coronel Fabriciano",
        "state": "MG",
        "district": "Manoel Maia (Apara Foice)",
        "street": "Rua Vênus",
        "zipcode": "35171-064"
    },
    {
        "city": "Coronel Fabriciano",
        "state": "MG",
        "district": "São Domingos",
        "street": "Rua Manganês",
        "zipcode": "35171-015"
    },
    {
        "city": "Coronel Fabriciano",
        "state": "MG",
        "district": "Recanto Verde",
        "street": "Rua Radônio",
        "zipcode": "35171-032"
    },
    {
        "city": "Coronel Fabriciano",
        "state": "MG",
        "district": "Recanto Verde",
        "street": "Rua Paladino",
        "zipcode": "35171-029"
    },
    {
        "city": "Coronel Fabriciano",
        "state": "MG",
        "district": "Nova Tijuca",
        "street": "Rua Reno",
        "zipcode": "35171-117"
    },
    {
        "city": "Coronel Fabriciano",
        "state": "MG",
        "district": "Potyra (Caladão)",
        "street": "Rua Tie",
        "zipcode": "35171-083"
    },
    {
        "city": "Coronel Fabriciano",
        "state": "MG",
        "district": "Aparecida do Norte",
        "street": "Rua Três Marias",
        "zipcode": "35171-108"
    },
    {
        "city": "Coronel Fabriciano",
        "state": "MG",
        "district": "Recanto Verde",
        "street": "Rua Samário",
        "zipcode": "35171-027"
    },
    {
        "city": "Coronel Fabriciano",
        "state": "MG",
        "district": "Universitário",
        "street": "Rua Araguaia",
        "zipcode": "35171-176"
    },
    {
        "city": "Coronel Fabriciano",
        "state": "MG",
        "district": "Morada do Vale",
        "street": "Avenida Atlântica",
        "zipcode": "35171-198"
    },
    {
        "city": "Coronel Fabriciano",
        "state": "MG",
        "district": "Vila São Domingos",
        "street": "Rua Brasília",
        "zipcode": "35171-152"
    },
    {
        "city": "Coronel Fabriciano",
        "state": "MG",
        "district": "Nova Tijuca",
        "street": "Rua Cinco",
        "zipcode": "35171-122"
    },
    {
        "city": "Coronel Fabriciano",
        "state": "MG",
        "district": "Caladinho",
        "street": "Rua Cinco",
        "zipcode": "35171-220"
    },
    {
        "city": "Coronel Fabriciano",
        "state": "MG",
        "district": "Residencial Pomar",
        "street": "Rua Coqueiros",
        "zipcode": "35171-232"
    },
    {
        "city": "Coronel Fabriciano",
        "state": "MG",
        "district": "Bom Jesus",
        "street": "Rua D",
        "zipcode": "35171-124"
    },
    {
        "city": "Coronel Fabriciano",
        "state": "MG",
        "district": "Santa Terezinha I",
        "street": "Rua Cyro Cotta Poggialli",
        "zipcode": "35171-136"
    },
    {
        "city": "Coronel Fabriciano",
        "state": "MG",
        "district": "Caladinho",
        "street": "Rua Dezesseis",
        "zipcode": "35171-148"
    },
    {
        "city": "Coronel Fabriciano",
        "state": "MG",
        "district": "Caladinho",
        "street": "Beco Dois",
        "zipcode": "35171-225"
    },
    {
        "city": "Coronel Fabriciano",
        "state": "MG",
        "district": "Caladinho",
        "street": "Rua Goiás",
        "zipcode": "35171-155"
    },
    {
        "city": "Coronel Fabriciano",
        "state": "MG",
        "district": "Caladinho",
        "street": "Rua Jacinto das Neves",
        "zipcode": "35171-153"
    },
    {
        "city": "Coronel Fabriciano",
        "state": "MG",
        "district": "Santa Terezinha I",
        "street": "Rua Londres",
        "zipcode": "35171-132"
    },
    {
        "city": "Coronel Fabriciano",
        "state": "MG",
        "district": "Santa Terezinha I",
        "street": "Rua Marfim",
        "zipcode": "35171-127"
    },
    {
        "city": "Coronel Fabriciano",
        "state": "MG",
        "district": "Caladinho",
        "street": "Rua Maria Couto",
        "zipcode": "35171-199"
    },
    {
        "city": "Coronel Fabriciano",
        "state": "MG",
        "district": "Morada do Vale",
        "street": "Rua Melvin Jones",
        "zipcode": "35171-215"
    },
    {
        "city": "Coronel Fabriciano",
        "state": "MG",
        "district": "Vila São Domingos",
        "street": "Rua México",
        "zipcode": "35171-150"
    },
    {
        "city": "Coronel Fabriciano",
        "state": "MG",
        "district": "Caladinho",
        "street": "Beco Oito",
        "zipcode": "35171-228"
    },
    {
        "city": "Coronel Fabriciano",
        "state": "MG",
        "district": "Caladinho",
        "street": "Rua Paraná",
        "zipcode": "35171-165"
    },
    {
        "city": "Coronel Fabriciano",
        "state": "MG",
        "district": "Santa Terezinha I",
        "street": "Rua Paranaíba",
        "zipcode": "35171-133"
    },
    {
        "city": "Coronel Fabriciano",
        "state": "MG",
        "district": "Aparecida do Norte",
        "street": "Rua Pernambuco",
        "zipcode": "35171-164"
    },
    {
        "city": "Coronel Fabriciano",
        "state": "MG",
        "district": "Caladinho",
        "street": "Rua Piauí",
        "zipcode": "35171-170"
    },
    {
        "city": "Coronel Fabriciano",
        "state": "MG",
        "district": "Nova Tijuca",
        "street": "Rua Quatro",
        "zipcode": "35171-121"
    },
    {
        "city": "Coronel Fabriciano",
        "state": "MG",
        "district": "Caladinho",
        "street": "Rua Quatro",
        "zipcode": "35171-222"
    },
    {
        "city": "Coronel Fabriciano",
        "state": "MG",
        "district": "Caladinho",
        "street": "Beco Quatro",
        "zipcode": "35171-227"
    },
    {
        "city": "Coronel Fabriciano",
        "state": "MG",
        "district": "Morada do Vale",
        "street": "Alameda Rio Doce",
        "zipcode": "35171-213"
    },
    {
        "city": "Coronel Fabriciano",
        "state": "MG",
        "district": "Aparecida do Norte",
        "street": "Rua Roraima",
        "zipcode": "35171-159"
    },
    {
        "city": "Coronel Fabriciano",
        "state": "MG",
        "district": "Caladinho",
        "street": "Rua Santa Luzia",
        "zipcode": "35171-169"
    },
    {
        "city": "Coronel Fabriciano",
        "state": "MG",
        "district": "Aparecida do Norte",
        "street": "Avenida São Paulo",
        "zipcode": "35171-156"
    },
    {
        "city": "Coronel Fabriciano",
        "state": "MG",
        "district": "Aparecida do Norte",
        "street": "Rua Sete Lagoas",
        "zipcode": "35171-160"
    },
    {
        "city": "Coronel Fabriciano",
        "state": "MG",
        "district": "Caladinho",
        "street": "Rua Três",
        "zipcode": "35171-219"
    },
    {
        "city": "Coronel Fabriciano",
        "state": "MG",
        "district": "Santa Terezinha I",
        "street": "Rua Treze",
        "zipcode": "35171-138"
    },
    {
        "city": "Coronel Fabriciano",
        "state": "MG",
        "district": "Caladinho",
        "street": "Beco Um",
        "zipcode": "35171-224"
    },
    {
        "city": "Coronel Fabriciano",
        "state": "MG",
        "district": "Caladinho",
        "street": "Rua Vale do Amazonas",
        "zipcode": "35171-204"
    },
    {
        "city": "Coronel Fabriciano",
        "state": "MG",
        "district": "Caladinho",
        "street": "Rua Vale do Paraná",
        "zipcode": "35171-207"
    },
    {
        "city": "Coronel Fabriciano",
        "state": "MG",
        "district": "Morada do Vale",
        "street": "Rua Vale do Piracicaba",
        "zipcode": "35171-185"
    },
    {
        "city": "Coronel Fabriciano",
        "state": "MG",
        "district": "Morada do Vale",
        "street": "Rua Vale do Rio Negro",
        "zipcode": "35171-214"
    },
    {
        "city": "Coronel Fabriciano",
        "state": "MG",
        "district": "Morada do Vale",
        "street": "Rua Vale do Tietê",
        "zipcode": "35171-189"
    },
    {
        "city": "Coronel Fabriciano",
        "state": "MG",
        "district": "Morada do Vale",
        "street": "Rua Vale do Tocantins",
        "zipcode": "35171-183"
    },
    {
        "city": "Coronel Fabriciano",
        "state": "MG",
        "district": "Caladinho",
        "street": "Rua Vale do Xingu",
        "zipcode": "35171-205"
    },
    {
        "city": "Coronel Fabriciano",
        "state": "MG",
        "district": "Morada do Vale",
        "street": "Rua Vale dos Solimões",
        "zipcode": "35171-210"
    },
    {
        "city": "Coronel Fabriciano",
        "state": "MG",
        "district": "Morada do Vale",
        "street": "Rua Vale São Mateus",
        "zipcode": "35171-195"
    },
    {
        "city": "Coronel Fabriciano",
        "state": "MG",
        "district": "Morada do Vale",
        "street": "Rua Vale Tapajós",
        "zipcode": "35171-196"
    },
    {
        "city": "Coronel Fabriciano",
        "state": "MG",
        "district": "Santa Terezinha II",
        "street": "Rua Nilza Winter Maia",
        "zipcode": "35171-141"
    },
    {
        "city": "Coronel Fabriciano",
        "state": "MG",
        "district": "Santa Terezinha II",
        "street": "Rua Katsuo Furuta",
        "zipcode": "35171-144"
    },
    {
        "city": "Coronel Fabriciano",
        "state": "MG",
        "district": "Santa Terezinha II",
        "street": "Rua Raimundo Alves de Carvalho",
        "zipcode": "35171-140"
    },
    {
        "city": "Coronel Fabriciano",
        "state": "MG",
        "district": "Universitário",
        "street": "Rua Xingu",
        "zipcode": "35171-174"
    },
    {
        "city": "Coronel Fabriciano",
        "state": "MG",
        "district": "Morada do Vale",
        "street": "Rua Vale do Araguaia",
        "zipcode": "35171-180"
    },
    {
        "city": "Coronel Fabriciano",
        "state": "MG",
        "district": "Santa Terezinha I",
        "street": "Rua Said Albeny",
        "zipcode": "35171-137"
    },
    {
        "city": "Coronel Fabriciano",
        "state": "MG",
        "district": "Caladinho",
        "street": "Rua Belo Horizonte",
        "zipcode": "35171-167"
    },
    {
        "city": "Coronel Fabriciano",
        "state": "MG",
        "district": "Morada do Vale",
        "street": "Rua Vale do Grajaú",
        "zipcode": "35171-186"
    },
    {
        "city": "Coronel Fabriciano",
        "state": "MG",
        "district": "Santa Terezinha II",
        "street": "Rua Igino Matias da Silva",
        "zipcode": "35171-146"
    },
    {
        "city": "Coronel Fabriciano",
        "state": "MG",
        "district": "Caladinho",
        "street": "Alameda Acácias",
        "zipcode": "35171-247"
    },
    {
        "city": "Coronel Fabriciano",
        "state": "MG",
        "district": "Amaro Lanari",
        "street": "Rua Alagoas",
        "zipcode": "35171-348"
    },
    {
        "city": "Coronel Fabriciano",
        "state": "MG",
        "district": "Caladinho",
        "street": "Rua B",
        "zipcode": "35171-301"
    },
    {
        "city": "Coronel Fabriciano",
        "state": "MG",
        "district": "Amaro Lanari",
        "street": "Rua Bahia",
        "zipcode": "35171-320"
    },
    {
        "city": "Coronel Fabriciano",
        "state": "MG",
        "district": "Mangueiras",
        "street": "Rua Bangu",
        "zipcode": "35171-306"
    },
    {
        "city": "Coronel Fabriciano",
        "state": "MG",
        "district": "Amaro Lanari",
        "street": "Avenida Brasília",
        "zipcode": "35171-347"
    },
    {
        "city": "Coronel Fabriciano",
        "state": "MG",
        "district": "Caladinho",
        "street": "Rua Carajás",
        "zipcode": "35171-282"
    },
    {
        "city": "Coronel Fabriciano",
        "state": "MG",
        "district": "Caladinho",
        "street": "Rua Caramuru",
        "zipcode": "35171-276"
    },
    {
        "city": "Coronel Fabriciano",
        "state": "MG",
        "district": "Caladinho",
        "street": "Alameda Cinco (Jd Alpino)",
        "zipcode": "35171-253"
    },
    {
        "city": "Coronel Fabriciano",
        "state": "MG",
        "district": "Caladinho",
        "street": "Rua Comanches",
        "zipcode": "35171-287"
    },
    {
        "city": "Coronel Fabriciano",
        "state": "MG",
        "district": "Mangueiras",
        "street": "Rua Corinthians",
        "zipcode": "35171-308"
    },
    {
        "city": "Coronel Fabriciano",
        "state": "MG",
        "district": "Mangueiras",
        "street": "Rua Cruzeiro",
        "zipcode": "35171-297"
    },
    {
        "city": "Coronel Fabriciano",
        "state": "MG",
        "district": "Amaro Lanari",
        "street": "Rua Curitiba",
        "zipcode": "35171-342"
    },
    {
        "city": "Coronel Fabriciano",
        "state": "MG",
        "district": "Mangueiras",
        "street": "Rua Democrata",
        "zipcode": "35171-294"
    },
    {
        "city": "Coronel Fabriciano",
        "state": "MG",
        "district": "Caladinho",
        "street": "Rua Dez",
        "zipcode": "35171-259"
    },
    {
        "city": "Coronel Fabriciano",
        "state": "MG",
        "district": "Mangueiras",
        "street": "Rua Flamengo",
        "zipcode": "35171-303"
    },
    {
        "city": "Coronel Fabriciano",
        "state": "MG",
        "district": "Amaro Lanari",
        "street": "Rua Goiás",
        "zipcode": "35171-337"
    },
    {
        "city": "Coronel Fabriciano",
        "state": "MG",
        "district": "Caladinho",
        "street": "Rua Iracema",
        "zipcode": "35171-278"
    },
    {
        "city": "Coronel Fabriciano",
        "state": "MG",
        "district": "Residencial Pomar",
        "street": "Rua Laranjeiras",
        "zipcode": "35171-235"
    },
    {
        "city": "Coronel Fabriciano",
        "state": "MG",
        "district": "Amaro Lanari",
        "street": "Rua Maceió",
        "zipcode": "35171-315"
    },
    {
        "city": "Coronel Fabriciano",
        "state": "MG",
        "district": "Amaro Lanari",
        "street": "Rua Maranhão",
        "zipcode": "35171-330"
    },
    {
        "city": "Coronel Fabriciano",
        "state": "MG",
        "district": "Amaro Lanari",
        "street": "Rua Minas Gerais",
        "zipcode": "35171-314"
    },
    {
        "city": "Coronel Fabriciano",
        "state": "MG",
        "district": "Caladinho",
        "street": "Rua Miranhas",
        "zipcode": "35171-281"
    },
    {
        "city": "Coronel Fabriciano",
        "state": "MG",
        "district": "Mangueiras",
        "street": "Rua Nacional",
        "zipcode": "35171-292"
    },
    {
        "city": "Coronel Fabriciano",
        "state": "MG",
        "district": "Caladinho",
        "street": "Alameda Nove",
        "zipcode": "35171-257"
    },
    {
        "city": "Coronel Fabriciano",
        "state": "MG",
        "district": "Caladinho",
        "street": "Alameda Onze",
        "zipcode": "35171-255"
    },
    {
        "city": "Coronel Fabriciano",
        "state": "MG",
        "district": "Amaro Lanari",
        "street": "Rua Paraíba",
        "zipcode": "35171-311"
    },
    {
        "city": "Coronel Fabriciano",
        "state": "MG",
        "district": "Amaro Lanari",
        "street": "Rua Piauí",
        "zipcode": "35171-326"
    },
    {
        "city": "Coronel Fabriciano",
        "state": "MG",
        "district": "Mangueiras",
        "street": "Rua Ponte Preta",
        "zipcode": "35171-289"
    },
    {
        "city": "Coronel Fabriciano",
        "state": "MG",
        "district": "Caladinho",
        "street": "Rua Poti",
        "zipcode": "35171-263"
    },
    {
        "city": "Coronel Fabriciano",
        "state": "MG",
        "district": "Caladinho",
        "street": "Rua Potiguar",
        "zipcode": "35171-237"
    },
    {
        "city": "Coronel Fabriciano",
        "state": "MG",
        "district": "Amaro Lanari",
        "street": "Rua Salvador",
        "zipcode": "35171-319"
    },
    {
        "city": "Coronel Fabriciano",
        "state": "MG",
        "district": "Amaro Lanari",
        "street": "Rua São Luiz",
        "zipcode": "35171-329"
    },
    {
        "city": "Coronel Fabriciano",
        "state": "MG",
        "district": "Amaro Lanari",
        "street": "Rua São Paulo",
        "zipcode": "35171-338"
    },
    {
        "city": "Coronel Fabriciano",
        "state": "MG",
        "district": "Caladinho",
        "street": "Rua Tapajós",
        "zipcode": "35171-272"
    },
    {
        "city": "Coronel Fabriciano",
        "state": "MG",
        "district": "Caladinho",
        "street": "Rua Tapuias",
        "zipcode": "35171-271"
    },
    {
        "city": "Coronel Fabriciano",
        "state": "MG",
        "district": "Amaro Lanari",
        "street": "Rua Terezina",
        "zipcode": "35171-325"
    },
    {
        "city": "Coronel Fabriciano",
        "state": "MG",
        "district": "Caladinho",
        "street": "Rua Trinta",
        "zipcode": "35171-241"
    },
    {
        "city": "Coronel Fabriciano",
        "state": "MG",
        "district": "Caladinho",
        "street": "Rua Trinta e Oito",
        "zipcode": "35171-240"
    },
    {
        "city": "Coronel Fabriciano",
        "state": "MG",
        "district": "Amaro Lanari",
        "street": "Rua Trinta e Quatro",
        "zipcode": "35171-349"
    },
    {
        "city": "Coronel Fabriciano",
        "state": "MG",
        "district": "Caladinho",
        "street": "Rua Tupis",
        "zipcode": "35171-285"
    },
    {
        "city": "Coronel Fabriciano",
        "state": "MG",
        "district": "Caladinho",
        "street": "Rua Um (Jd Alpino)",
        "zipcode": "35171-249"
    },
    {
        "city": "Coronel Fabriciano",
        "state": "MG",
        "district": "Mangueiras",
        "street": "Rua Valério",
        "zipcode": "35171-295"
    },
    {
        "city": "Coronel Fabriciano",
        "state": "MG",
        "district": "Amaro Lanari",
        "street": "Rua Acre",
        "zipcode": "35171-332"
    },
    {
        "city": "Coronel Fabriciano",
        "state": "MG",
        "district": "Caladinho",
        "street": "Rua Caraíba",
        "zipcode": "35171-265"
    },
    {
        "city": "Coronel Fabriciano",
        "state": "MG",
        "district": "Residencial Pomar",
        "street": "Rua Mangueiras",
        "zipcode": "35171-236"
    },
    {
        "city": "Coronel Fabriciano",
        "state": "MG",
        "district": "Caladinho",
        "street": "Rua Timbiras",
        "zipcode": "35171-269"
    },
    {
        "city": "Coronel Fabriciano",
        "state": "MG",
        "district": "Caladinho",
        "street": "Alameda Dez",
        "zipcode": "35171-254"
    },
    {
        "city": "Coronel Fabriciano",
        "state": "MG",
        "district": "Amaro Lanari",
        "street": "Rua Rio Grande do Norte",
        "zipcode": "35171-324"
    },
    {
        "city": "Coronel Fabriciano",
        "state": "MG",
        "district": "Amaro Lanari",
        "street": "Rua Belém",
        "zipcode": "35171-335"
    },
    {
        "city": "Coronel Fabriciano",
        "state": "MG",
        "district": "Caladinho",
        "street": "Rua Tupinambás",
        "zipcode": "35171-267"
    },
    {
        "city": "Coronel Fabriciano",
        "state": "MG",
        "district": "Mangueiras",
        "street": "Rua Fluminense",
        "zipcode": "35171-304"
    },
    {
        "city": "Coronel Fabriciano",
        "state": "MG",
        "district": "Mangueiras",
        "street": "Rua Vila Nova",
        "zipcode": "35171-300"
    },
    {
        "city": "Coronel Fabriciano",
        "state": "MG",
        "district": "Mangueiras",
        "street": "Rua Portuguesa",
        "zipcode": "35171-310"
    },
    {
        "city": "Coronel Fabriciano",
        "state": "MG",
        "district": "Caladinho",
        "street": "Rua Vereador Wicilon Vieira Veloso",
        "zipcode": "35171-552"
    },
    {
        "city": "Coronel Fabriciano",
        "state": "MG",
        "district": "Contente",
        "street": "Rua C",
        "zipcode": "35171-692"
    },
    {
        "city": "Coronel Fabriciano",
        "state": "MG",
        "district": "Contente",
        "street": "Rua Dois",
        "zipcode": "35171-694"
    },
    {
        "city": "Coronel Fabriciano",
        "state": "MG",
        "district": "Contente",
        "street": "Rua Três",
        "zipcode": "35171-696"
    },
    {
        "city": "Coronel Fabriciano",
        "state": "MG",
        "district": "Alipinho",
        "street": "Rua João Teixeira Benevides",
        "zipcode": "35171-470"
    },
    {
        "city": "Coronel Fabriciano",
        "state": "MG",
        "district": "Mangueiras",
        "street": "Avenida Um",
        "zipcode": "35171-707"
    },
    {
        "city": "Coronel Fabriciano",
        "state": "MG",
        "district": "Mangueiras",
        "street": "Rua Um",
        "zipcode": "35171-710"
    },
    {
        "city": "Coronel Fabriciano",
        "state": "MG",
        "district": "Morada do Vale",
        "street": "Beco Dois",
        "zipcode": "35171-720"
    },
    {
        "city": "Coronel Fabriciano",
        "state": "MG",
        "district": "Mangueiras",
        "street": "Rua A",
        "zipcode": "35171-700"
    },
    {
        "city": "Coronel Fabriciano",
        "state": "MG",
        "district": "Aldeia do Lago",
        "street": "Rua A",
        "zipcode": "35171-507"
    },
    {
        "city": "Coronel Fabriciano",
        "state": "MG",
        "district": "Aparecida do Norte",
        "street": "Rua E",
        "zipcode": "35171-670"
    },
    {
        "city": "Coronel Fabriciano",
        "state": "MG",
        "district": "Parque Industrial Novo Reno",
        "street": "Rua M",
        "zipcode": "35171-604"
    },
    {
        "city": "Coronel Fabriciano",
        "state": "MG",
        "district": "Parque Industrial Novo Reno",
        "street": "Avenida Um",
        "zipcode": "35171-606"
    },
    {
        "city": "Coronel Fabriciano",
        "state": "MG",
        "district": "Aldeia do Lago",
        "street": "Rua D",
        "zipcode": "35171-513"
    },
    {
        "city": "Coronel Fabriciano",
        "state": "MG",
        "district": "Gávea",
        "street": "Rua E",
        "zipcode": "35170-570"
    },
    {
        "city": "Coronel Fabriciano",
        "state": "MG",
        "district": "Bom Jesus",
        "street": "Rua Alexandrita",
        "zipcode": "35171-680"
    },
    {
        "city": "Coronel Fabriciano",
        "state": "MG",
        "district": "Morada do Vale",
        "street": "Beco Um (da rua Vale do Piracicaba)",
        "zipcode": "35171-730"
    },
    {
        "city": "Coronel Fabriciano",
        "state": "MG",
        "district": "Morada do Vale",
        "street": "Beco Um (da rua Vale do Tefé)",
        "zipcode": "35171-732"
    },
    {
        "city": "Coronel Fabriciano",
        "state": "MG",
        "district": "Morada do Vale",
        "street": "Rua Vale de Taquari",
        "zipcode": "35171-734"
    },
    {
        "city": "Coronel Fabriciano",
        "state": "MG",
        "district": "Universitário",
        "street": "Rua Padre Rocha",
        "zipcode": "35171-430"
    },
    {
        "city": "Coronel Fabriciano",
        "state": "MG",
        "district": "Vila São Francisco",
        "street": "Beco Um (da rua Sete)",
        "zipcode": "35171-444"
    },
    {
        "city": "Coronel Fabriciano",
        "state": "MG",
        "district": "Vila São Francisco",
        "street": "Rua Oito",
        "zipcode": "35171-454"
    },
    {
        "city": "Coronel Fabriciano",
        "state": "MG",
        "district": "Vila Jacinto das Neves",
        "street": "Rua Ceará",
        "zipcode": "35171-462"
    },
    {
        "city": "Coronel Fabriciano",
        "state": "MG",
        "district": "Santa Terezinha II",
        "street": "Rua Dezessete",
        "zipcode": "35171-416"
    },
    {
        "city": "Coronel Fabriciano",
        "state": "MG",
        "district": "Sylvio Pereira II",
        "street": "Rua Dezenove",
        "zipcode": "35171-368"
    },
    {
        "city": "Coronel Fabriciano",
        "state": "MG",
        "district": "Sylvio Pereira II",
        "street": "Rua Dezesseis",
        "zipcode": "35171-364"
    },
    {
        "city": "Coronel Fabriciano",
        "state": "MG",
        "district": "Sylvio Pereira II",
        "street": "Rua Dezoito",
        "zipcode": "35171-367"
    },
    {
        "city": "Coronel Fabriciano",
        "state": "MG",
        "district": "Sylvio Pereira I",
        "street": "Rua Rio Doce",
        "zipcode": "35171-356"
    },
    {
        "city": "Coronel Fabriciano",
        "state": "MG",
        "district": "Sylvio Pereira I",
        "street": "Rua Ponte Nova",
        "zipcode": "35171-358"
    },
    {
        "city": "Coronel Fabriciano",
        "state": "MG",
        "district": "Sylvio Pereira I",
        "street": "Rua Ipatinga",
        "zipcode": "35171-362"
    },
    {
        "city": "Coronel Fabriciano",
        "state": "MG",
        "district": "Sylvio Pereira I",
        "street": "Rua Timóteo",
        "zipcode": "35171-363"
    },
    {
        "city": "Coronel Fabriciano",
        "state": "MG",
        "district": "Sylvio Pereira I",
        "street": "Rua Treze",
        "zipcode": "35171-360"
    },
    {
        "city": "Coronel Fabriciano",
        "state": "MG",
        "district": "Sylvio Pereira I",
        "street": "Avenida Minas Gerais",
        "zipcode": "35171-374"
    },
    {
        "city": "Coronel Fabriciano",
        "state": "MG",
        "district": "Sylvio Pereira II",
        "street": "Rua Vinte",
        "zipcode": "35171-369"
    },
    {
        "city": "Coronel Fabriciano",
        "state": "MG",
        "district": "Sylvio Pereira II",
        "street": "Rua Vinte e Um",
        "zipcode": "35171-370"
    },
    {
        "city": "Coronel Fabriciano",
        "state": "MG",
        "district": "Sylvio Pereira I",
        "street": "Rua Quatro",
        "zipcode": "35171-351"
    },
    {
        "city": "Coronel Fabriciano",
        "state": "MG",
        "district": "São Cristovão",
        "street": "Rua Reginaldo A. torres",
        "zipcode": "35172-172"
    },
    {
        "city": "Coronel Fabriciano",
        "state": "MG",
        "district": "Aldeia do Lago",
        "street": "Rua Seis",
        "zipcode": "35171-520"
    },
    {
        "city": "Coronel Fabriciano",
        "state": "MG",
        "district": "Aldeia do Lago",
        "street": "Rua Oito",
        "zipcode": "35171-523"
    },
    {
        "city": "Coronel Fabriciano",
        "state": "MG",
        "district": "Aldeia do Lago",
        "street": "Rua Cinco",
        "zipcode": "35171-517"
    },
    {
        "city": "Coronel Fabriciano",
        "state": "MG",
        "district": "Aldeia do Lago",
        "street": "Rua Dois",
        "zipcode": "35171-528"
    },
    {
        "city": "Coronel Fabriciano",
        "state": "MG",
        "district": "Júlia Kubitschek",
        "street": "Beco Dois",
        "zipcode": "35171-380"
    },
    {
        "city": "Coronel Fabriciano",
        "state": "MG",
        "district": "Aldeia do Lago",
        "street": "Rua Um",
        "zipcode": "35171-505"
    },
    {
        "city": "Coronel Fabriciano",
        "state": "MG",
        "district": "Caladinho",
        "street": "Rua Ligação",
        "zipcode": "35171-377"
    },
    {
        "city": "Coronel Fabriciano",
        "state": "MG",
        "district": "Caladinho",
        "street": "Rua Acácias",
        "zipcode": "35171-378"
    },
    {
        "city": "Coronel Fabriciano",
        "state": "MG",
        "district": "Aldeia do Lago",
        "street": "Rua Sete",
        "zipcode": "35171-539"
    },
    {
        "city": "Coronel Fabriciano",
        "state": "MG",
        "district": "Nova Tijuca",
        "street": "Rua Sete",
        "zipcode": "35171-780"
    },
    {
        "city": "Coronel Fabriciano",
        "state": "MG",
        "district": "Pedreira",
        "street": "Beco Três",
        "zipcode": "35171-786"
    },
    {
        "city": "Coronel Fabriciano",
        "state": "MG",
        "district": "Pedreira",
        "street": "Beco Um",
        "zipcode": "35171-788"
    },
    {
        "city": "Coronel Fabriciano",
        "state": "MG",
        "district": "Pedreira",
        "street": "Beco Dois",
        "zipcode": "35171-790"
    },
    {
        "city": "Coronel Fabriciano",
        "state": "MG",
        "district": "Morada do Vale",
        "street": "Beco Dois (da rua Vale do Tefé)",
        "zipcode": "35171-740"
    },
    {
        "city": "Coronel Fabriciano",
        "state": "MG",
        "district": "Morada do Vale",
        "street": "Beco Seis (da rua Vale do Tefé)",
        "zipcode": "35171-750"
    },
    {
        "city": "Coronel Fabriciano",
        "state": "MG",
        "district": "Morada do Vale",
        "street": "Rua Três",
        "zipcode": "35171-752"
    },
    {
        "city": "Coronel Fabriciano",
        "state": "MG",
        "district": "Morada do Vale",
        "street": "Rua Vale da Amizade",
        "zipcode": "35171-754"
    },
    {
        "city": "Coronel Fabriciano",
        "state": "MG",
        "district": "Morada do Vale",
        "street": "Rua Vale da Jamaica",
        "zipcode": "35171-760"
    },
    {
        "city": "Coronel Fabriciano",
        "state": "MG",
        "district": "Jardim Primavera",
        "street": "Rua H",
        "zipcode": "35172-321"
    },
    {
        "city": "Coronel Fabriciano",
        "state": "MG",
        "district": "São Domingos",
        "street": "Beco Dois",
        "zipcode": "35171-834"
    },
    {
        "city": "Coronel Fabriciano",
        "state": "MG",
        "district": "São Cristovão",
        "street": "Rua José Bhering",
        "zipcode": "35172-188"
    },
    {
        "city": "Coronel Fabriciano",
        "state": "MG",
        "district": "Vila São Francisco",
        "street": "Praça Manoel Altino Vila Nova",
        "zipcode": "35171-450"
    },
    {
        "city": "Coronel Fabriciano",
        "state": "MG",
        "district": "Amaro Lanari",
        "street": "Praça Glória de Oliveira Araújo",
        "zipcode": "35171-652"
    },
    {
        "city": "Coronel Fabriciano",
        "state": "MG",
        "district": "Amaro Lanari",
        "street": "Praça Nilton Teixeira",
        "zipcode": "35171-658"
    },
    {
        "city": "Coronel Fabriciano",
        "state": "MG",
        "district": "Amaro Lanari",
        "street": "Praça José Mateus Vasconcelos",
        "zipcode": "35171-654"
    },
    {
        "city": "Coronel Fabriciano",
        "state": "MG",
        "district": "Potyra (Caladão)",
        "street": "Rua Apua",
        "zipcode": "35171-794"
    },
    {
        "city": "Coronel Fabriciano",
        "state": "MG",
        "district": "Potyra (Caladão)",
        "street": "Rua OKA",
        "zipcode": "35171-810"
    },
    {
        "city": "Coronel Fabriciano",
        "state": "MG",
        "district": "Potyra (Caladão)",
        "street": "Rua Três",
        "zipcode": "35171-816"
    },
    {
        "city": "Coronel Fabriciano",
        "state": "MG",
        "district": "Recanto Verde",
        "street": "Rua C",
        "zipcode": "35171-820"
    },
    {
        "city": "Coronel Fabriciano",
        "state": "MG",
        "district": "Recanto Verde",
        "street": "Avenida Lutércio",
        "zipcode": "35171-825"
    },
    {
        "city": "Coronel Fabriciano",
        "state": "MG",
        "district": "Recanto Verde",
        "street": "Rua Tântalo",
        "zipcode": "35171-828"
    },
    {
        "city": "Coronel Fabriciano",
        "state": "MG",
        "district": "Residencial Fazendinha",
        "street": "Rua Quatro",
        "zipcode": "35172-015"
    },
    {
        "city": "Coronel Fabriciano",
        "state": "MG",
        "district": "Residencial Fazendinha",
        "street": "Rua Sete",
        "zipcode": "35172-025"
    },
    {
        "city": "Coronel Fabriciano",
        "state": "MG",
        "district": "Judith Bhering",
        "street": "Rua Corínthios",
        "zipcode": "35172-082"
    },
    {
        "city": "Coronel Fabriciano",
        "state": "MG",
        "district": "São Domingos",
        "street": "Beco Dois",
        "zipcode": "35171-842"
    },
    {
        "city": "Coronel Fabriciano",
        "state": "MG",
        "district": "São Domingos",
        "street": "Rua Quatroze",
        "zipcode": "35171-850"
    },
    {
        "city": "Coronel Fabriciano",
        "state": "MG",
        "district": "Sylvio Pereira II",
        "street": "Rua Servidão",
        "zipcode": "35171-868"
    },
    {
        "city": "Coronel Fabriciano",
        "state": "MG",
        "district": "Professores",
        "street": "Rua Doze de Outubro",
        "zipcode": "35170-012"
    },
    {
        "city": "Coronel Fabriciano",
        "state": "MG",
        "district": "Santa Helena",
        "street": "Rua Joaquim César",
        "zipcode": "35170-028"
    },
    {
        "city": "Coronel Fabriciano",
        "state": "MG",
        "district": "Santa Helena",
        "street": "Rua Márcio Albeny",
        "zipcode": "35170-022"
    },
    {
        "city": "Coronel Fabriciano",
        "state": "MG",
        "district": "Professores",
        "street": "Rua Pará",
        "zipcode": "35170-013"
    },
    {
        "city": "Coronel Fabriciano",
        "state": "MG",
        "district": "Centro",
        "street": "Rua Vereador Pedro Messina",
        "zipcode": "35170-037"
    },
    {
        "city": "Coronel Fabriciano",
        "state": "MG",
        "district": "Judith Bhering",
        "street": "Rua Galatas",
        "zipcode": "35172-100"
    },
    {
        "city": "Coronel Fabriciano",
        "state": "MG",
        "district": "Judith Bhering",
        "street": "Rua Esdras",
        "zipcode": "35172-095"
    },
    {
        "city": "Coronel Fabriciano",
        "state": "MG",
        "district": "Judith Bhering",
        "street": "Rua Deuteronômio",
        "zipcode": "35172-092"
    },
    {
        "city": "Coronel Fabriciano",
        "state": "MG",
        "district": "Judith Bhering",
        "street": "Rua Abraão",
        "zipcode": "35172-083"
    },
    {
        "city": "Coronel Fabriciano",
        "state": "MG",
        "district": "Judith Bhering",
        "street": "Rua Abdias",
        "zipcode": "35172-080"
    },
    {
        "city": "Coronel Fabriciano",
        "state": "MG",
        "district": "Residencial Fazendinha",
        "street": "Rua Três",
        "zipcode": "35172-030"
    },
    {
        "city": "Coronel Fabriciano",
        "state": "MG",
        "district": "Santa Cruz",
        "street": "Beco Três (da rua Argentina)",
        "zipcode": "35170-668"
    },
    {
        "city": "Coronel Fabriciano",
        "state": "MG",
        "district": "Santa Cruz",
        "street": "Beco Dois (da rua Áustria)",
        "zipcode": "35170-682"
    },
    {
        "city": "Coronel Fabriciano",
        "state": "MG",
        "district": "Santa Luzia",
        "street": "Beco Quatro",
        "zipcode": "35170-700"
    },
    {
        "city": "Coronel Fabriciano",
        "state": "MG",
        "district": "Melo Viana",
        "street": "Rua Alfenas",
        "zipcode": "35170-174"
    },
    {
        "city": "Coronel Fabriciano",
        "state": "MG",
        "district": "Santa Cruz",
        "street": "Rua Austrália",
        "zipcode": "35170-260"
    },
    {
        "city": "Coronel Fabriciano",
        "state": "MG",
        "district": "Giovanini",
        "street": "Avenida Doutor José de Magalhães Pinto",
        "zipcode": "35170-097"
    },
    {
        "city": "Coronel Fabriciano",
        "state": "MG",
        "district": "Melo Viana",
        "street": "Rua Euzébio de Brito",
        "zipcode": "35170-170"
    },
    {
        "city": "Coronel Fabriciano",
        "state": "MG",
        "district": "Giovanini",
        "street": "Rua Guarapari",
        "zipcode": "35170-102"
    },
    {
        "city": "Coronel Fabriciano",
        "state": "MG",
        "district": "Pedra Linda",
        "street": "Rua Pedra Corada",
        "zipcode": "35170-239"
    },
    {
        "city": "Coronel Fabriciano",
        "state": "MG",
        "district": "Alipinho",
        "street": "Rua Quinze de Novembro",
        "zipcode": "35171-041"
    },
    {
        "city": "Coronel Fabriciano",
        "state": "MG",
        "district": "Centro",
        "street": "Rua Salatiel Dias",
        "zipcode": "35170-078"
    },
    {
        "city": "Coronel Fabriciano",
        "state": "MG",
        "district": "Amaro Lanari",
        "street": "Praça Orlando Veloso",
        "zipcode": "35171-660"
    },
    {
        "city": "Coronel Fabriciano",
        "state": "MG",
        "district": "Potyra (Caladão)",
        "street": "Rua Tarcísio Francisco Silva",
        "zipcode": "35171-814"
    },
    {
        "city": "Coronel Fabriciano",
        "state": "MG",
        "district": "Sylvio Pereira I",
        "street": "Beco Um (da rua Tereza Leolpodina)",
        "zipcode": "35171-860"
    },
    {
        "city": "Coronel Fabriciano",
        "state": "MG",
        "district": "Vila São Francisco",
        "street": "Praça Maria Xavier dos Santos",
        "zipcode": "35171-452"
    },
    {
        "city": "Coronel Fabriciano",
        "state": "MG",
        "district": "Santo Elói",
        "street": "Rua São Joaquim",
        "zipcode": "35170-144"
    },
    {
        "city": "Coronel Fabriciano",
        "state": "MG",
        "district": "Todos os Santos",
        "street": "Rua Seminário Betânia",
        "zipcode": "35170-061"
    },
    {
        "city": "Coronel Fabriciano",
        "state": "MG",
        "district": "Nossa Senhora do Carmo",
        "street": "Rua Sebastião Andrade",
        "zipcode": "35170-066"
    },
    {
        "city": "Coronel Fabriciano",
        "state": "MG",
        "district": "São Vicente",
        "street": "Rua Três",
        "zipcode": "35170-280"
    },
    {
        "city": "Coronel Fabriciano",
        "state": "MG",
        "district": "Belvedere",
        "street": "Rua Castro Alves",
        "zipcode": "35170-123"
    },
    {
        "city": "Coronel Fabriciano",
        "state": "MG",
        "district": "Centro",
        "street": "Rua Manoel Joaquim Pires",
        "zipcode": "35170-082"
    },
    {
        "city": "Coronel Fabriciano",
        "state": "MG",
        "district": "Judith Bhering",
        "street": "Rua Malaquias",
        "zipcode": "35172-119"
    },
    {
        "city": "Coronel Fabriciano",
        "state": "MG",
        "district": "Judith Bhering",
        "street": "Rua Jeremias",
        "zipcode": "35172-113"
    },
    {
        "city": "Coronel Fabriciano",
        "state": "MG",
        "district": "Judith Bhering",
        "street": "Rua Gêneses",
        "zipcode": "35172-104"
    },
    {
        "city": "Coronel Fabriciano",
        "state": "MG",
        "district": "Jardim Primavera",
        "street": "Rua R",
        "zipcode": "35172-351"
    },
    {
        "city": "Coronel Fabriciano",
        "state": "MG",
        "district": "Jardim Primavera",
        "street": "Rua P",
        "zipcode": "35172-345"
    },
    {
        "city": "Coronel Fabriciano",
        "state": "MG",
        "district": "Jardim Primavera",
        "street": "Rua Q",
        "zipcode": "35172-348"
    },
    {
        "city": "Coronel Fabriciano",
        "state": "MG",
        "district": "Jardim Primavera",
        "street": "Rua O",
        "zipcode": "35172-342"
    },
    {
        "city": "Coronel Fabriciano",
        "state": "MG",
        "district": "Jardim Primavera",
        "street": "Rua M",
        "zipcode": "35172-336"
    },
    {
        "city": "Coronel Fabriciano",
        "state": "MG",
        "district": "Frederico Ozanan",
        "street": "Rua Canário",
        "zipcode": "35172-062"
    },
    {
        "city": "Coronel Fabriciano",
        "state": "MG",
        "district": "Residencial Pomar",
        "street": "Rua das Limas",
        "zipcode": "35171-830"
    },
    {
        "city": "Coronel Fabriciano",
        "state": "MG",
        "district": "Recanto Verde",
        "street": "Avenida Jovelino Francisco Martins",
        "zipcode": "35171-823"
    },
    {
        "city": "Coronel Fabriciano",
        "state": "MG",
        "district": "Jardim Primavera",
        "street": "Rua Ligação",
        "zipcode": "35172-333"
    },
    {
        "city": "Coronel Fabriciano",
        "state": "MG",
        "district": "Jardim Primavera",
        "street": "Rua I",
        "zipcode": "35172-324"
    },
    {
        "city": "Coronel Fabriciano",
        "state": "MG",
        "district": "Jardim Primavera",
        "street": "Rua G",
        "zipcode": "35172-318"
    },
    {
        "city": "Coronel Fabriciano",
        "state": "MG",
        "district": "Jardim Primavera",
        "street": "Rua D",
        "zipcode": "35172-309"
    },
    {
        "city": "Coronel Fabriciano",
        "state": "MG",
        "district": "Jardim Primavera",
        "street": "Rua B",
        "zipcode": "35172-303"
    },
    {
        "city": "Coronel Fabriciano",
        "state": "MG",
        "district": "São Geraldo",
        "street": "Rua Três",
        "zipcode": "35170-423"
    },
    {
        "city": "Coronel Fabriciano",
        "state": "MG",
        "district": "Judith Bhering",
        "street": "Rua Provérbios",
        "zipcode": "35172-125"
    },
    {
        "city": "Coronel Fabriciano",
        "state": "MG",
        "district": "Melo Viana",
        "street": "Beco José Vieira",
        "zipcode": "35170-580"
    },
    {
        "city": "Coronel Fabriciano",
        "state": "MG",
        "district": "Melo Viana",
        "street": "Rua Antônio Rafael Silva",
        "zipcode": "35170-585"
    },
    {
        "city": "Coronel Fabriciano",
        "state": "MG",
        "district": "Júlia Kubitschek",
        "street": "Avenida Cananeia",
        "zipcode": "35171-382"
    },
    {
        "city": "Coronel Fabriciano",
        "state": "MG",
        "district": "Santa Cruz",
        "street": "Beco José Faustino",
        "zipcode": "35170-664"
    },
    {
        "city": "Coronel Fabriciano",
        "state": "MG",
        "district": "Santa Cruz",
        "street": "Beco Um (da rua Argentina)",
        "zipcode": "35170-676"
    },
    {
        "city": "Coronel Fabriciano",
        "state": "MG",
        "district": "Santa Cruz",
        "street": "Beco Três (da rua Áustria)",
        "zipcode": "35170-686"
    },
    {
        "city": "Coronel Fabriciano",
        "state": "MG",
        "district": "Centro",
        "street": "Beco Piracicaba",
        "zipcode": "35170-464"
    },
    {
        "city": "Coronel Fabriciano",
        "state": "MG",
        "district": "Córrego Alto",
        "street": "Rua Principal",
        "zipcode": "35170-514"
    },
    {
        "city": "Coronel Fabriciano",
        "state": "MG",
        "district": "Belvedere",
        "street": "Rua Antônio Pereira de Aquino",
        "zipcode": "35170-353"
    },
    {
        "city": "Coronel Fabriciano",
        "state": "MG",
        "district": "Córrego Alto",
        "street": "Rua Seis",
        "zipcode": "35170-522"
    },
    {
        "city": "Coronel Fabriciano",
        "state": "MG",
        "district": "Morada do Vale",
        "street": "Beco Cinco (da rua Vale do Tefé)",
        "zipcode": "35171-736"
    },
    {
        "city": "Coronel Fabriciano",
        "state": "MG",
        "district": "Vila São Francisco",
        "street": "Beco Quatro (da rua Sete)",
        "zipcode": "35171-436"
    },
    {
        "city": "Coronel Fabriciano",
        "state": "MG",
        "district": "Bom Jesus",
        "street": "Rua Benedito Onésimo Martins",
        "zipcode": "35171-123"
    },
    {
        "city": "Coronel Fabriciano",
        "state": "MG",
        "district": "Giovanini",
        "street": "Rua Afonso Damasceno",
        "zipcode": "35170-114"
    },
    {
        "city": "Coronel Fabriciano",
        "state": "MG",
        "district": "Alipinho",
        "street": "Rua Alvim Alberto Magalhães",
        "zipcode": "35171-038"
    },
    {
        "city": "Coronel Fabriciano",
        "state": "MG",
        "district": "Córrego Alto",
        "street": "Rua Ameixa",
        "zipcode": "35170-294"
    },
    {
        "city": "Coronel Fabriciano",
        "state": "MG",
        "district": "Santa Cruz",
        "street": "Praça André Didi",
        "zipcode": "35170-254"
    },
    {
        "city": "Coronel Fabriciano",
        "state": "MG",
        "district": "Olaria",
        "street": "Rua Belo Horizonte",
        "zipcode": "35170-141"
    },
    {
        "city": "Coronel Fabriciano",
        "state": "MG",
        "district": "Santa Cruz",
        "street": "Rua Bolívia",
        "zipcode": "35170-268"
    },
    {
        "city": "Coronel Fabriciano",
        "state": "MG",
        "district": "Mangueiras",
        "street": "Rua Botafogo",
        "zipcode": "35171-299"
    },
    {
        "city": "Coronel Fabriciano",
        "state": "MG",
        "district": "Giovanini",
        "street": "Rua Cananéia",
        "zipcode": "35170-110"
    },
    {
        "city": "Coronel Fabriciano",
        "state": "MG",
        "district": "Melo Viana",
        "street": "Rua Caxambu",
        "zipcode": "35170-160"
    },
    {
        "city": "Coronel Fabriciano",
        "state": "MG",
        "district": "São Domingos",
        "street": "Avenida Dom Oscar",
        "zipcode": "35170-308"
    },
    {
        "city": "Coronel Fabriciano",
        "state": "MG",
        "district": "Melo Viana",
        "street": "Rua Dona Helena",
        "zipcode": "35170-164"
    },
    {
        "city": "Coronel Fabriciano",
        "state": "MG",
        "district": "Giovanini",
        "street": "Rua Doutor José Semião",
        "zipcode": "35170-119"
    },
    {
        "city": "Coronel Fabriciano",
        "state": "MG",
        "district": "Professores",
        "street": "Rua Felipe Albeny",
        "zipcode": "35170-128"
    },
    {
        "city": "Coronel Fabriciano",
        "state": "MG",
        "district": "Santa Cruz",
        "street": "Rua Grécia",
        "zipcode": "35170-264"
    },
    {
        "city": "Coronel Fabriciano",
        "state": "MG",
        "district": "Caladinho",
        "street": "Rua Jacaúna",
        "zipcode": "35171-264"
    },
    {
        "city": "Coronel Fabriciano",
        "state": "MG",
        "district": "Olaria",
        "street": "Rua João Caetano",
        "zipcode": "35170-156"
    },
    {
        "city": "Coronel Fabriciano",
        "state": "MG",
        "district": "São Domingos",
        "street": "Rua Magnólia",
        "zipcode": "35170-304"
    },
    {
        "city": "Coronel Fabriciano",
        "state": "MG",
        "district": "Alipinho",
        "street": "Rua Mariano Benevides",
        "zipcode": "35171-044"
    },
    {
        "city": "Coronel Fabriciano",
        "state": "MG",
        "district": "São Vicente",
        "street": "Rua México",
        "zipcode": "35170-277"
    },
    {
        "city": "Coronel Fabriciano",
        "state": "MG",
        "district": "Santa Inez",
        "street": "Rua Oito",
        "zipcode": "35170-291"
    },
    {
        "city": "Coronel Fabriciano",
        "state": "MG",
        "district": "Córrego Alto",
        "street": "Rua dos Pinheiros",
        "zipcode": "35170-298"
    },
    {
        "city": "Coronel Fabriciano",
        "state": "MG",
        "district": "Santa Rita",
        "street": "Rua Vicente Barbosa",
        "zipcode": "35170-272"
    },
    {
        "city": "Coronel Fabriciano",
        "state": "MG",
        "district": "Alipinho",
        "street": "Rua Sanitária",
        "zipcode": "35171-057"
    },
    {
        "city": "Coronel Fabriciano",
        "state": "MG",
        "district": "Amaro Lanari",
        "street": "Rua Sergipe",
        "zipcode": "35171-322"
    },
    {
        "city": "Coronel Fabriciano",
        "state": "MG",
        "district": "Potyra (Caladão)",
        "street": "Rua Taguara",
        "zipcode": "35171-078"
    },
    {
        "city": "Coronel Fabriciano",
        "state": "MG",
        "district": "Recanto Verde",
        "street": "Rua Terbio",
        "zipcode": "35171-035"
    },
    {
        "city": "Coronel Fabriciano",
        "state": "MG",
        "district": "Melo Viana",
        "street": "Rua Tiradentes",
        "zipcode": "35170-179"
    },
    {
        "city": "Coronel Fabriciano",
        "state": "MG",
        "district": "Santa Terezinha I",
        "street": "Rua Alexandrita",
        "zipcode": "35171-128"
    },
    {
        "city": "Coronel Fabriciano",
        "state": "MG",
        "district": "Morada do Vale",
        "street": "Rua Vale do Uruguai",
        "zipcode": "35171-194"
    },
    {
        "city": "Coronel Fabriciano",
        "state": "MG",
        "district": "Santa Terezinha II",
        "street": "Rua Maria Aparecida Alves",
        "zipcode": "35171-145"
    },
    {
        "city": "Coronel Fabriciano",
        "state": "MG",
        "district": "Caladinho",
        "street": "Rua Tibiriçá",
        "zipcode": "35171-286"
    },
    {
        "city": "Coronel Fabriciano",
        "state": "MG",
        "district": "Centro",
        "street": "Rua Carlos DÁvila",
        "zipcode": "35170-092"
    },
    {
        "city": "Coronel Fabriciano",
        "state": "MG",
        "district": "Judith Bhering",
        "street": "Rua Hebreus",
        "zipcode": "35172-107"
    },
    {
        "city": "Coronel Fabriciano",
        "state": "MG",
        "district": "Jardim Primavera",
        "street": "Rua T",
        "zipcode": "35172-357"
    },
    {
        "city": "Coronel Fabriciano",
        "state": "MG",
        "district": "Jardim Primavera",
        "street": "Rua José Alves da Silva",
        "zipcode": "35172-315"
    },
    {
        "city": "Coronel Fabriciano",
        "state": "MG",
        "district": "Aldeia do Lago",
        "street": "Rua Quatro",
        "zipcode": "35171-524"
    },
    {
        "city": "Coronel Fabriciano",
        "state": "MG",
        "district": "Belvedere",
        "street": "Rua Vinte e Quatro",
        "zipcode": "35170-370"
    },
    {
        "city": "Coronel Fabriciano",
        "state": "MG",
        "district": "Florença",
        "street": "Rua Vinte e Nove",
        "zipcode": "35170-404"
    },
    {
        "city": "Coronel Fabriciano",
        "state": "MG",
        "district": "Todos os Santos",
        "street": "Rua Maria do Carmo Guimarães",
        "zipcode": "35170-316"
    },
    {
        "city": "Coronel Fabriciano",
        "state": "MG",
        "district": "Centro",
        "street": "Rua Rubens Siqueira Maia",
        "zipcode": "35170-460"
    },
    {
        "city": "Coronel Fabriciano",
        "state": "MG",
        "district": "Vila São Francisco",
        "street": "Beco Seis (da rua Sete)",
        "zipcode": "35171-438"
    },
    {
        "city": "Coronel Fabriciano",
        "state": "MG",
        "district": "Caladinho",
        "street": "Rua Amapá",
        "zipcode": "35171-173"
    },
    {
        "city": "Coronel Fabriciano",
        "state": "MG",
        "district": "Caladinho",
        "street": "Avenida Atlântica",
        "zipcode": "35171-212"
    },
    {
        "city": "Coronel Fabriciano",
        "state": "MG",
        "district": "Mangueiras",
        "street": "Rua Atlético",
        "zipcode": "35171-298"
    },
    {
        "city": "Coronel Fabriciano",
        "state": "MG",
        "district": "Bom Jesus",
        "street": "Rua Augusta",
        "zipcode": "35171-115"
    },
    {
        "city": "Coronel Fabriciano",
        "state": "MG",
        "district": "Caladinho",
        "street": "Rua Bartira",
        "zipcode": "35171-279"
    },
    {
        "city": "Coronel Fabriciano",
        "state": "MG",
        "district": "Mangueiras",
        "street": "Rua Bom Sucesso",
        "zipcode": "35171-309"
    },
    {
        "city": "Coronel Fabriciano",
        "state": "MG",
        "district": "Caladinho",
        "street": "Rua C",
        "zipcode": "35171-243"
    },
    {
        "city": "Coronel Fabriciano",
        "state": "MG",
        "district": "Caladinho",
        "street": "Rua Caipós",
        "zipcode": "35171-270"
    },
    {
        "city": "Coronel Fabriciano",
        "state": "MG",
        "district": "Manoel Maia (Apara Foice)",
        "street": "Rua Colibri",
        "zipcode": "35171-070"
    },
    {
        "city": "Coronel Fabriciano",
        "state": "MG",
        "district": "Caladinho",
        "street": "Rua Curvelo",
        "zipcode": "35171-154"
    },
    {
        "city": "Coronel Fabriciano",
        "state": "MG",
        "district": "Bom Jesus",
        "street": "Rua Diamante",
        "zipcode": "35171-111"
    },
    {
        "city": "Coronel Fabriciano",
        "state": "MG",
        "district": "Caladinho",
        "street": "Rua Dois (Ch Caladinho)",
        "zipcode": "35171-252"
    },
    {
        "city": "Coronel Fabriciano",
        "state": "MG",
        "district": "Sylvio Pereira I",
        "street": "Rua Sebastião Alves de Andrade",
        "zipcode": "35171-375"
    },
    {
        "city": "Coronel Fabriciano",
        "state": "MG",
        "district": "Universitário",
        "street": "Rua F",
        "zipcode": "35171-168"
    },
    {
        "city": "Coronel Fabriciano",
        "state": "MG",
        "district": "Santa Terezinha II",
        "street": "Rua Fernando Pinheiro DÁvila",
        "zipcode": "35171-143"
    },
    {
        "city": "Coronel Fabriciano",
        "state": "MG",
        "district": "Amaro Lanari",
        "street": "Rua Florianópolis",
        "zipcode": "35171-344"
    },
    {
        "city": "Coronel Fabriciano",
        "state": "MG",
        "district": "Caladinho",
        "street": "Rua Goitacazes",
        "zipcode": "35171-283"
    },
    {
        "city": "Coronel Fabriciano",
        "state": "MG",
        "district": "Potyra (Caladão)",
        "street": "Rua Iba",
        "zipcode": "35171-080"
    },
    {
        "city": "Coronel Fabriciano",
        "state": "MG",
        "district": "Potyra (Caladão)",
        "street": "Avenida Ike",
        "zipcode": "35171-075"
    },
    {
        "city": "Coronel Fabriciano",
        "state": "MG",
        "district": "Amaro Lanari",
        "street": "Rua João Pessoa",
        "zipcode": "35171-318"
    },
    {
        "city": "Coronel Fabriciano",
        "state": "MG",
        "district": "Manoel Maia (Apara Foice)",
        "street": "Rua Júpiter",
        "zipcode": "35171-065"
    },
    {
        "city": "Coronel Fabriciano",
        "state": "MG",
        "district": "Potyra (Caladão)",
        "street": "Rua de Ligação",
        "zipcode": "35171-089"
    },
    {
        "city": "Coronel Fabriciano",
        "state": "MG",
        "district": "Residencial Pomar",
        "street": "Avenida Limoeiros",
        "zipcode": "35171-230"
    },
    {
        "city": "Coronel Fabriciano",
        "state": "MG",
        "district": "Santa Terezinha I",
        "street": "Rua Lírio",
        "zipcode": "35171-134"
    },
    {
        "city": "Coronel Fabriciano",
        "state": "MG",
        "district": "Santa Terezinha I",
        "street": "Rua Manaus",
        "zipcode": "35171-139"
    },
    {
        "city": "Coronel Fabriciano",
        "state": "MG",
        "district": "Amaro Lanari",
        "street": "Rua Natal",
        "zipcode": "35171-323"
    },
    {
        "city": "Coronel Fabriciano",
        "state": "MG",
        "district": "Amaro Lanari",
        "street": "Rua Pará",
        "zipcode": "35171-336"
    },
    {
        "city": "Coronel Fabriciano",
        "state": "MG",
        "district": "Bom Jesus",
        "street": "Rua José Tomaz Azevedo",
        "zipcode": "35171-107"
    },
    {
        "city": "Coronel Fabriciano",
        "state": "MG",
        "district": "Vila São Domingos",
        "street": "Rua Porto Velho",
        "zipcode": "35171-149"
    },
    {
        "city": "Coronel Fabriciano",
        "state": "MG",
        "district": "Amaro Lanari",
        "street": "Rua Rio Branco",
        "zipcode": "35171-331"
    },
    {
        "city": "Coronel Fabriciano",
        "state": "MG",
        "district": "São Geraldo",
        "street": "Beco Antônio Peres do Nascimento",
        "zipcode": "35170-715"
    },
    {
        "city": "Coronel Fabriciano",
        "state": "MG",
        "district": "Córrego Alto",
        "street": "Praça São Francisco Xavier",
        "zipcode": "35170-504"
    },
    {
        "city": "Coronel Fabriciano",
        "state": "MG",
        "district": "Amaro Lanari",
        "street": "Rua Rio de Janeiro",
        "zipcode": "35171-313"
    },
    {
        "city": "Coronel Fabriciano",
        "state": "MG",
        "district": "Amaro Lanari",
        "street": "Rua Santa Catarina",
        "zipcode": "35171-343"
    },
    {
        "city": "Coronel Fabriciano",
        "state": "MG",
        "district": "Manoel Maia (Apara Foice)",
        "street": "Rua Saturno",
        "zipcode": "35171-061"
    },
    {
        "city": "Coronel Fabriciano",
        "state": "MG",
        "district": "Caladinho",
        "street": "Rua Sete (Ch Caladinho)",
        "zipcode": "35171-251"
    },
    {
        "city": "Coronel Fabriciano",
        "state": "MG",
        "district": "Potyra (Caladão)",
        "street": "Rua Tagua",
        "zipcode": "35171-085"
    },
    {
        "city": "Coronel Fabriciano",
        "state": "MG",
        "district": "Nova Tijuca",
        "street": "Rua Três",
        "zipcode": "35171-120"
    },
    {
        "city": "Coronel Fabriciano",
        "state": "MG",
        "district": "Caladinho",
        "street": "Beco Três",
        "zipcode": "35171-226"
    },
    {
        "city": "Coronel Fabriciano",
        "state": "MG",
        "district": "Morada do Vale",
        "street": "Rua Vale do Trombeta",
        "zipcode": "35171-209"
    },
    {
        "city": "Coronel Fabriciano",
        "state": "MG",
        "district": "Sylvio Pereira II",
        "street": "Rua Vinte e Dois",
        "zipcode": "35171-371"
    },
    {
        "city": "Coronel Fabriciano",
        "state": "MG",
        "district": "Recanto Verde",
        "street": "Beco Dezesseis",
        "zipcode": "35171-093"
    },
    {
        "city": "Coronel Fabriciano",
        "state": "MG",
        "district": "Amaro Lanari",
        "street": "Rua Fortaleza",
        "zipcode": "35171-327"
    },
    {
        "city": "Coronel Fabriciano",
        "state": "MG",
        "district": "Caladinho",
        "street": "Alameda Oito",
        "zipcode": "35171-256"
    },
    {
        "city": "Coronel Fabriciano",
        "state": "MG",
        "district": "Júlia Kubitschek",
        "street": "Beco Três",
        "zipcode": "35171-390"
    },
    {
        "city": "Coronel Fabriciano",
        "state": "MG",
        "district": "Mangueiras",
        "street": "Rua Maringá",
        "zipcode": "35171-293"
    },
    {
        "city": "Coronel Fabriciano",
        "state": "MG",
        "district": "Mangueiras",
        "street": "Rua América",
        "zipcode": "35171-296"
    },
    {
        "city": "Coronel Fabriciano",
        "state": "MG",
        "district": "Potyra (Caladão)",
        "street": "Rua KAA",
        "zipcode": "35171-804"
    },
    {
        "city": "Coronel Fabriciano",
        "state": "MG",
        "district": "Santa Luzia",
        "street": "Rua Desterro",
        "zipcode": "35170-698"
    },
    {
        "city": "Coronel Fabriciano",
        "state": "MG",
        "district": "Recanto Verde",
        "street": "Rua D",
        "zipcode": "35171-822"
    },
    {
        "city": "Coronel Fabriciano",
        "state": "MG",
        "district": "Morada do Vale",
        "street": "Beco Quatro (da rua Vale do Tefé)",
        "zipcode": "35171-746"
    },
    {
        "city": "Coronel Fabriciano",
        "state": "MG",
        "district": "Morada do Vale",
        "street": "Rua Vale das Florestas",
        "zipcode": "35171-756"
    },
    {
        "city": "Coronel Fabriciano",
        "state": "MG",
        "district": "São Domingos",
        "street": "Beco Três",
        "zipcode": "35171-854"
    },
    {
        "city": "Coronel Fabriciano",
        "state": "MG",
        "district": "Vila São Francisco",
        "street": "Beco Dois",
        "zipcode": "35171-448"
    },
    {
        "city": "Coronel Fabriciano",
        "state": "MG",
        "district": "Melo Viana",
        "street": "Rua Olaria",
        "zipcode": "35171-971"
    },
    {
        "city": "Coronel Fabriciano",
        "state": "MG",
        "district": "Melo Viana",
        "street": "Rua Caratinga",
        "zipcode": "35170-159"
    },
    {
        "city": "Coronel Fabriciano",
        "state": "MG",
        "district": "São Geraldo",
        "street": "Rua Alípio José da Silva",
        "zipcode": "35170-193"
    },
    {
        "city": "Coronel Fabriciano",
        "state": "MG",
        "district": "Santa Terezinha I",
        "street": "Rua Antônio Mascarenhas",
        "zipcode": "35170-004"
    },
    {
        "city": "Coronel Fabriciano",
        "state": "MG",
        "district": "Todos os Santos",
        "street": "Rua Bela Vista",
        "zipcode": "35170-064"
    },
    {
        "city": "Coronel Fabriciano",
        "state": "MG",
        "district": "Todos os Santos",
        "street": "Rua Cônego Domingos",
        "zipcode": "35170-053"
    },
    {
        "city": "Coronel Fabriciano",
        "state": "MG",
        "district": "Professores",
        "street": "Rua Dionísio Garcia",
        "zipcode": "35170-017"
    },
    {
        "city": "Coronel Fabriciano",
        "state": "MG",
        "district": "São Geraldo",
        "street": "Beco Dois",
        "zipcode": "35170-208"
    },
    {
        "city": "Coronel Fabriciano",
        "state": "MG",
        "district": "Belvedere",
        "street": "Avenida Araruama",
        "zipcode": "35170-121"
    },
    {
        "city": "Coronel Fabriciano",
        "state": "MG",
        "district": "Giovanini",
        "street": "Avenida Doutor José de Magalhães Pinto",
        "zipcode": "35170-096"
    },
    {
        "city": "Coronel Fabriciano",
        "state": "MG",
        "district": "Centro",
        "street": "Rua Doutor Moacir Byrro",
        "zipcode": "35170-002"
    },
    {
        "city": "Coronel Fabriciano",
        "state": "MG",
        "district": "Centro",
        "street": "Rua Efrem Macedo",
        "zipcode": "35170-006"
    },
    {
        "city": "Coronel Fabriciano",
        "state": "MG",
        "district": "Floresta",
        "street": "Rua Eucaliptos",
        "zipcode": "35170-216"
    },
    {
        "city": "Coronel Fabriciano",
        "state": "MG",
        "district": "São Geraldo",
        "street": "Rua Francisco José Quirino",
        "zipcode": "35170-231"
    },
    {
        "city": "Coronel Fabriciano",
        "state": "MG",
        "district": "Centro",
        "street": "Rua Ipanema",
        "zipcode": "35170-032"
    },
    {
        "city": "Coronel Fabriciano",
        "state": "MG",
        "district": "Melo Viana",
        "street": "Rua Lambari",
        "zipcode": "35170-182"
    },
    {
        "city": "Coronel Fabriciano",
        "state": "MG",
        "district": "Giovanini",
        "street": "Rua Marajó",
        "zipcode": "35170-107"
    },
    {
        "city": "Coronel Fabriciano",
        "state": "MG",
        "district": "Centro",
        "street": "Rua Marechal Floriano",
        "zipcode": "35170-049"
    },
    {
        "city": "Coronel Fabriciano",
        "state": "MG",
        "district": "Melo Viana",
        "street": "Rua Maria de Lourdes de Jesus",
        "zipcode": "35170-172"
    },
    {
        "city": "Coronel Fabriciano",
        "state": "MG",
        "district": "Nossa Senhora da Penha",
        "street": "Rua Zulmira Pires da Silva",
        "zipcode": "35170-070"
    },
    {
        "city": "Coronel Fabriciano",
        "state": "MG",
        "district": "Floresta",
        "street": "Rua Pau Brasil",
        "zipcode": "35170-214"
    },
    {
        "city": "Coronel Fabriciano",
        "state": "MG",
        "district": "Santa Cruz",
        "street": "Rua Porto Rico",
        "zipcode": "35170-263"
    },
    {
        "city": "Coronel Fabriciano",
        "state": "MG",
        "district": "Surinan",
        "street": "Rua Quatorze",
        "zipcode": "35170-202"
    },
    {
        "city": "Coronel Fabriciano",
        "state": "MG",
        "district": "Giovanini",
        "street": "Rua Quintino Alves",
        "zipcode": "35170-113"
    },
    {
        "city": "Coronel Fabriciano",
        "state": "MG",
        "district": "Centro",
        "street": "Rua Joaquim de Ávila Neto",
        "zipcode": "35170-080"
    },
    {
        "city": "Coronel Fabriciano",
        "state": "MG",
        "district": "Surinan",
        "street": "Avenida Roldão Alves Torres",
        "zipcode": "35170-194"
    },
    {
        "city": "Coronel Fabriciano",
        "state": "MG",
        "district": "Nossa Senhora da Penha",
        "street": "Avenida São Domingos",
        "zipcode": "35170-043"
    },
    {
        "city": "Coronel Fabriciano",
        "state": "MG",
        "district": "Giovanini",
        "street": "Rua São Vicente",
        "zipcode": "35170-100"
    },
    {
        "city": "Coronel Fabriciano",
        "state": "MG",
        "district": "Belvedere",
        "street": "Rua Trinta e Cinco",
        "zipcode": "35170-191"
    },
    {
        "city": "Coronel Fabriciano",
        "state": "MG",
        "district": "São Geraldo",
        "street": "Rua Wantuil Apolonio Alves",
        "zipcode": "35170-232"
    },
    {
        "city": "Coronel Fabriciano",
        "state": "MG",
        "district": "Nossa Senhora do Carmo",
        "street": "Beco Vítor Barbosa",
        "zipcode": "35170-088"
    },
    {
        "city": "Coronel Fabriciano",
        "state": "MG",
        "district": "Centro",
        "street": "Rua Zacarias Roque",
        "zipcode": "35170-025"
    },
    {
        "city": "Coronel Fabriciano",
        "state": "MG",
        "district": "Sylvio Pereira I",
        "street": "Rua Marliéria",
        "zipcode": "35171-361"
    },
    {
        "city": "Coronel Fabriciano",
        "state": "MG",
        "district": "Nossa Senhora do Carmo",
        "street": "Rua Jerônimo de Oliveira",
        "zipcode": "35170-069"
    },
    {
        "city": "Coronel Fabriciano",
        "state": "MG",
        "district": "Centro",
        "street": "Rua Coronel Silvino Pereira",
        "zipcode": "35170-039"
    },
    {
        "city": "Coronel Fabriciano",
        "state": "MG",
        "district": "Professores",
        "street": "Rua Joaquim Alves Júnior",
        "zipcode": "35170-016"
    },
    {
        "city": "Coronel Fabriciano",
        "state": "MG",
        "district": "Floresta",
        "street": "Rua Mogno",
        "zipcode": "35170-223"
    },
    {
        "city": "Coronel Fabriciano",
        "state": "MG",
        "district": "Judith Bhering",
        "street": "Rua Profetas",
        "zipcode": "35172-122"
    },
    {
        "city": "Coronel Fabriciano",
        "state": "MG",
        "district": "Judith Bhering",
        "street": "Rua Levítico",
        "zipcode": "35172-116"
    },
    {
        "city": "Coronel Fabriciano",
        "state": "MG",
        "district": "Judith Bhering",
        "street": "Rua Benjamim",
        "zipcode": "35172-086"
    },
    {
        "city": "Coronel Fabriciano",
        "state": "MG",
        "district": "Jardim Primavera",
        "street": "Rua S",
        "zipcode": "35172-354"
    },
    {
        "city": "Coronel Fabriciano",
        "state": "MG",
        "district": "Residencial Fazendinha",
        "street": "Rua Seis",
        "zipcode": "35172-020"
    },
    {
        "city": "Coronel Fabriciano",
        "state": "MG",
        "district": "Jardim Primavera",
        "street": "Rua E",
        "zipcode": "35172-312"
    },
    {
        "city": "Coronel Fabriciano",
        "state": "MG",
        "district": "Aldeia do Lago",
        "street": "Rua Nove",
        "zipcode": "35171-526"
    },
    {
        "city": "Coronel Fabriciano",
        "state": "MG",
        "district": "São Cristovão",
        "street": "Rua Antônio João A. torres",
        "zipcode": "35172-160"
    },
    {
        "city": "Coronel Fabriciano",
        "state": "MG",
        "district": "Professores",
        "street": "Rua Ivan Campo Belo",
        "zipcode": "35170-658"
    },
    {
        "city": "Coronel Fabriciano",
        "state": "MG",
        "district": "Santa Cruz",
        "street": "Beco Um (da rua Venezuela)",
        "zipcode": "35170-672"
    },
    {
        "city": "Coronel Fabriciano",
        "state": "MG",
        "district": "São Domingos",
        "street": "Beco Três (Copasa)",
        "zipcode": "35171-836"
    },
    {
        "city": "Coronel Fabriciano",
        "state": "MG",
        "district": "Belvedere",
        "street": "Avenida Francisca Pereira",
        "zipcode": "35170-339"
    },
    {
        "city": "Coronel Fabriciano",
        "state": "MG",
        "district": "Giovanini",
        "street": "Avenida Doutor José de Magalhães Pinto",
        "zipcode": "35170-971"
    },
    {
        "city": "Coronel Fabriciano",
        "state": "MG",
        "district": "Santa Cruz",
        "street": "Rua Áustria",
        "zipcode": "35170-259"
    },
    {
        "city": "Coronel Fabriciano",
        "state": "MG",
        "district": "Potyra (Caladão)",
        "street": "Rua Aysso",
        "zipcode": "35171-076"
    },
    {
        "city": "Coronel Fabriciano",
        "state": "MG",
        "district": "Santa Cruz",
        "street": "Rua Colômbia",
        "zipcode": "35170-276"
    },
    {
        "city": "Coronel Fabriciano",
        "state": "MG",
        "district": "Santa Luzia",
        "street": "Rua Dois",
        "zipcode": "35170-285"
    },
    {
        "city": "Coronel Fabriciano",
        "state": "MG",
        "district": "Santa Cruz",
        "street": "Rua Equador",
        "zipcode": "35170-299"
    },
    {
        "city": "Coronel Fabriciano",
        "state": "MG",
        "district": "Santa Cruz",
        "street": "Rua Escócia",
        "zipcode": "35170-256"
    },
    {
        "city": "Coronel Fabriciano",
        "state": "MG",
        "district": "Santa Cruz",
        "street": "Rua Hawaí",
        "zipcode": "35170-270"
    },
    {
        "city": "Coronel Fabriciano",
        "state": "MG",
        "district": "Santa Cruz",
        "street": "Rua Inglaterra",
        "zipcode": "35170-248"
    },
    {
        "city": "Coronel Fabriciano",
        "state": "MG",
        "district": "Potyra (Caladão)",
        "street": "Beco José Vieira",
        "zipcode": "35171-087"
    },
    {
        "city": "Coronel Fabriciano",
        "state": "MG",
        "district": "São Domingos",
        "street": "Rua Lírio",
        "zipcode": "35170-306"
    },
    {
        "city": "Coronel Fabriciano",
        "state": "MG",
        "district": "Alipinho",
        "street": "Rua Maria de Lourdes Morais",
        "zipcode": "35171-055"
    },
    {
        "city": "Coronel Fabriciano",
        "state": "MG",
        "district": "Alipinho",
        "street": "Travessa Mariano Benevides",
        "zipcode": "35171-045"
    },
    {
        "city": "Coronel Fabriciano",
        "state": "MG",
        "district": "Alipinho",
        "street": "Rua Maricyl",
        "zipcode": "35171-040"
    },
    {
        "city": "Coronel Fabriciano",
        "state": "MG",
        "district": "Manoel Maia (Apara Foice)",
        "street": "Rua Marte",
        "zipcode": "35171-063"
    },
    {
        "city": "Coronel Fabriciano",
        "state": "MG",
        "district": "Melo Viana",
        "street": "Rua Olaria",
        "zipcode": "35171-017"
    },
    {
        "city": "Coronel Fabriciano",
        "state": "MG",
        "district": "Pedra Linda",
        "street": "Rua Pedra de Cristal",
        "zipcode": "35170-241"
    },
    {
        "city": "Coronel Fabriciano",
        "state": "MG",
        "district": "Pedra Linda",
        "street": "Rua Pedra Linda",
        "zipcode": "35170-233"
    },
    {
        "city": "Coronel Fabriciano",
        "state": "MG",
        "district": "Manoel Maia (Apara Foice)",
        "street": "Rua Pintassilgo",
        "zipcode": "35171-069"
    },
    {
        "city": "Coronel Fabriciano",
        "state": "MG",
        "district": "Recanto Verde",
        "street": "Rua Potássio",
        "zipcode": "35171-024"
    },
    {
        "city": "Coronel Fabriciano",
        "state": "MG",
        "district": "São Vicente",
        "street": "Rua Quatro",
        "zipcode": "35170-281"
    },
    {
        "city": "Coronel Fabriciano",
        "state": "MG",
        "district": "São Domingos",
        "street": "Rua Rosa Branca",
        "zipcode": "35171-009"
    },
    {
        "city": "Coronel Fabriciano",
        "state": "MG",
        "district": "São Domingos",
        "street": "Rua Rosa Vermelha",
        "zipcode": "35171-008"
    },
    {
        "city": "Coronel Fabriciano",
        "state": "MG",
        "district": "São Domingos",
        "street": "Travessa Sempre",
        "zipcode": "35171-002"
    },
    {
        "city": "Coronel Fabriciano",
        "state": "MG",
        "district": "Recanto Verde",
        "street": "Rua Tungstênio",
        "zipcode": "35171-026"
    },
    {
        "city": "Coronel Fabriciano",
        "state": "MG",
        "district": "Córrego Alto",
        "street": "Rua Jequitibá",
        "zipcode": "35170-292"
    },
    {
        "city": "Coronel Fabriciano",
        "state": "MG",
        "district": "Aldeia do Lago",
        "street": "Rua Fazenda Santa Terezinha",
        "zipcode": "35171-540"
    },
    {
        "city": "Coronel Fabriciano",
        "state": "MG",
        "district": "Belvedere",
        "street": "Avenida José Francisco Domingos",
        "zipcode": "35170-348"
    },
    {
        "city": "Coronel Fabriciano",
        "state": "MG",
        "district": "Belvedere",
        "street": "Rua Dezesseis",
        "zipcode": "35170-340"
    },
    {
        "city": "Coronel Fabriciano",
        "state": "MG",
        "district": "Florença",
        "street": "Rua Vinte e Seis",
        "zipcode": "35170-408"
    },
    {
        "city": "Coronel Fabriciano",
        "state": "MG",
        "district": "Giovanini",
        "street": "Rua Um",
        "zipcode": "35170-384"
    },
    {
        "city": "Coronel Fabriciano",
        "state": "MG",
        "district": "Todos os Santos",
        "street": "Rua Nestor C. Figueiredo",
        "zipcode": "35170-317"
    },
    {
        "city": "Coronel Fabriciano",
        "state": "MG",
        "district": "Caladinho",
        "street": "Rua Araribóia",
        "zipcode": "35171-284"
    },
    {
        "city": "Coronel Fabriciano",
        "state": "MG",
        "district": "Aparecida do Norte",
        "street": "Rua Bahia",
        "zipcode": "35171-158"
    },
    {
        "city": "Coronel Fabriciano",
        "state": "MG",
        "district": "Santa Terezinha I",
        "street": "Rua C",
        "zipcode": "35171-129"
    },
    {
        "city": "Coronel Fabriciano",
        "state": "MG",
        "district": "Amaro Lanari",
        "street": "Rua Ceará",
        "zipcode": "35171-328"
    },
    {
        "city": "Coronel Fabriciano",
        "state": "MG",
        "district": "Santa Terezinha II",
        "street": "Rua João Teófilo Toledo",
        "zipcode": "35171-142"
    },
    {
        "city": "Coronel Fabriciano",
        "state": "MG",
        "district": "Nova Tijuca",
        "street": "Rua Dois",
        "zipcode": "35171-119"
    },
    {
        "city": "Coronel Fabriciano",
        "state": "MG",
        "district": "Morada do Vale",
        "street": "Rua das Flores",
        "zipcode": "35171-288"
    },
    {
        "city": "Coronel Fabriciano",
        "state": "MG",
        "district": "Júlia Kubitschek",
        "street": "Rua Luiz Gonzaga Silva",
        "zipcode": "35171-097"
    },
    {
        "city": "Coronel Fabriciano",
        "state": "MG",
        "district": "Caladinho",
        "street": "Rua Guarani",
        "zipcode": "35171-266"
    },
    {
        "city": "Coronel Fabriciano",
        "state": "MG",
        "district": "Caladinho",
        "street": "Rua Itaberália",
        "zipcode": "35171-258"
    },
    {
        "city": "Coronel Fabriciano",
        "state": "MG",
        "district": "Júlia Kubitschek",
        "street": "Rua Joaquim Gomes da Silveira Neto",
        "zipcode": "35171-095"
    },
    {
        "city": "Coronel Fabriciano",
        "state": "MG",
        "district": "Mangueiras",
        "street": "Rua Juscelino Kubitschek",
        "zipcode": "35171-291"
    },
    {
        "city": "Coronel Fabriciano",
        "state": "MG",
        "district": "Bom Jesus",
        "street": "Rua Oito de Outubro",
        "zipcode": "35171-126"
    },
    {
        "city": "Coronel Fabriciano",
        "state": "MG",
        "district": "Santa Terezinha I",
        "street": "Rua Pará",
        "zipcode": "35171-130"
    },
    {
        "city": "Coronel Fabriciano",
        "state": "MG",
        "district": "Amaro Lanari",
        "street": "Rua Paraná",
        "zipcode": "35171-341"
    },
    {
        "city": "Coronel Fabriciano",
        "state": "MG",
        "district": "Amaro Lanari",
        "street": "Rua Pernambuco",
        "zipcode": "35171-317"
    },
    {
        "city": "Coronel Fabriciano",
        "state": "MG",
        "district": "Santa Terezinha II",
        "street": "Rua Antônio Martins Soares",
        "zipcode": "35171-414"
    },
    {
        "city": "Coronel Fabriciano",
        "state": "MG",
        "district": "Aldeia do Lago",
        "street": "Avenida Condomínio Aldeia do Lago",
        "zipcode": "35171-509"
    },
    {
        "city": "Coronel Fabriciano",
        "state": "MG",
        "district": "Sylvio Pereira I",
        "street": "Rua Alvinópolis",
        "zipcode": "35171-357"
    },
    {
        "city": "Coronel Fabriciano",
        "state": "MG",
        "district": "Santa Terezinha I",
        "street": "Rua Francisco Guerra Assis",
        "zipcode": "35171-402"
    },
    {
        "city": "Coronel Fabriciano",
        "state": "MG",
        "district": "São Domingos",
        "street": "Rua Hortência",
        "zipcode": "35171-844"
    },
    {
        "city": "Coronel Fabriciano",
        "state": "MG",
        "district": "Universitário",
        "street": "Rua Peru",
        "zipcode": "35171-350"
    },
    {
        "city": "Coronel Fabriciano",
        "state": "MG",
        "district": "Aparecida do Norte",
        "street": "Rua Pirapora",
        "zipcode": "35171-162"
    },
    {
        "city": "Coronel Fabriciano",
        "state": "MG",
        "district": "Amaro Lanari",
        "street": "Rua Rio Grande do Sul",
        "zipcode": "35171-339"
    },
    {
        "city": "Coronel Fabriciano",
        "state": "MG",
        "district": "Aparecida do Norte",
        "street": "Rua Rondônia",
        "zipcode": "35171-157"
    },
    {
        "city": "Coronel Fabriciano",
        "state": "MG",
        "district": "Caladinho",
        "street": "Rua São Francisco de Assis",
        "zipcode": "35171-166"
    },
    {
        "city": "Coronel Fabriciano",
        "state": "MG",
        "district": "Júlia Kubitschek",
        "street": "Rua Sete",
        "zipcode": "35171-104"
    },
    {
        "city": "Coronel Fabriciano",
        "state": "MG",
        "district": "Caladinho",
        "street": "Rua Tamoios",
        "zipcode": "35171-268"
    },
    {
        "city": "Coronel Fabriciano",
        "state": "MG",
        "district": "Universitário",
        "street": "Rua Tocantins",
        "zipcode": "35171-175"
    },
    {
        "city": "Coronel Fabriciano",
        "state": "MG",
        "district": "Morada do Vale",
        "street": "Rua Vale do Jurema",
        "zipcode": "35171-181"
    },
    {
        "city": "Coronel Fabriciano",
        "state": "MG",
        "district": "Amaro Lanari",
        "street": "Rua Vitória",
        "zipcode": "35171-312"
    },
    {
        "city": "Coronel Fabriciano",
        "state": "MG",
        "district": "Caladinho",
        "street": "Rua Xavantes",
        "zipcode": "35171-275"
    },
    {
        "city": "Coronel Fabriciano",
        "state": "MG",
        "district": "Caladinho",
        "street": "Avenida Presidente Tancredo de Almeida Neves",
        "zipcode": "35171-302"
    },
    {
        "city": "Coronel Fabriciano",
        "state": "MG",
        "district": "Sylvio Pereira I",
        "street": "Rua Jaguaraçu",
        "zipcode": "35171-359"
    },
    {
        "city": "Coronel Fabriciano",
        "state": "MG",
        "district": "Caladinho",
        "street": "Travessa Ipê",
        "zipcode": "35171-248"
    },
    {
        "city": "Coronel Fabriciano",
        "state": "MG",
        "district": "Aparecida do Norte",
        "street": "Rua Paraopeba",
        "zipcode": "35171-163"
    },
    {
        "city": "Coronel Fabriciano",
        "state": "MG",
        "district": "Bom Jesus",
        "street": "Rua Prata",
        "zipcode": "35171-113"
    },
    {
        "city": "Coronel Fabriciano",
        "state": "MG",
        "district": "Amaro Lanari",
        "street": "Rua Amazonas",
        "zipcode": "35171-334"
    },
    {
        "city": "Coronel Fabriciano",
        "state": "MG",
        "district": "Amaro Lanari",
        "street": "Rua Espírito Santo",
        "zipcode": "35171-345"
    },
    {
        "city": "Coronel Fabriciano",
        "state": "MG",
        "district": "Residencial Pomar",
        "street": "Avenida Goiabeira",
        "zipcode": "35171-229"
    },
    {
        "city": "Coronel Fabriciano",
        "state": "MG",
        "district": "Mangueiras",
        "street": "Rua Santos",
        "zipcode": "35171-307"
    },
    {
        "city": "Coronel Fabriciano",
        "state": "MG",
        "district": "Bom Jesus",
        "street": "Rua Turmalina",
        "zipcode": "35171-682"
    },
    {
        "city": "Coronel Fabriciano",
        "state": "MG",
        "district": "Mangueiras",
        "street": "Rua José Firmino da Silva",
        "zipcode": "35171-703"
    },
    {
        "city": "Coronel Fabriciano",
        "state": "MG",
        "district": "Mangueiras",
        "street": "Rua Ligação",
        "zipcode": "35171-702"
    },
    {
        "city": "Coronel Fabriciano",
        "state": "MG",
        "district": "Potyra (Caladão)",
        "street": "Beco Antônio Fidélis",
        "zipcode": "35171-792"
    },
    {
        "city": "Coronel Fabriciano",
        "state": "MG",
        "district": "Potyra (Caladão)",
        "street": "Rua Itatiba",
        "zipcode": "35171-798"
    },
    {
        "city": "Coronel Fabriciano",
        "state": "MG",
        "district": "Potyra (Caladão)",
        "street": "Beco Maria Tereza",
        "zipcode": "35171-806"
    },
    {
        "city": "Coronel Fabriciano",
        "state": "MG",
        "district": "Morada do Vale",
        "street": "Beco Um (da Alameda Rio Doce)",
        "zipcode": "35171-726"
    },
    {
        "city": "Coronel Fabriciano",
        "state": "MG",
        "district": "Morada do Vale",
        "street": "Rua Quatro",
        "zipcode": "35171-744"
    },
    {
        "city": "Coronel Fabriciano",
        "state": "MG",
        "district": "Morada do Vale",
        "street": "Rua Vale do Paraíba",
        "zipcode": "35171-764"
    },
    {
        "city": "Coronel Fabriciano",
        "state": "MG",
        "district": "Morada do Vale",
        "street": "Rua Vale do São Francisco II",
        "zipcode": "35171-768"
    },
    {
        "city": "Coronel Fabriciano",
        "state": "MG",
        "district": "São Geraldo",
        "street": "Beco Um (da rua Alípio José da Silva)",
        "zipcode": "35170-716"
    },
    {
        "city": "Coronel Fabriciano",
        "state": "MG",
        "district": "Vila São Francisco",
        "street": "Beco Três (da rua Sete)",
        "zipcode": "35171-442"
    },
    {
        "city": "Coronel Fabriciano",
        "state": "MG",
        "district": "Vila São Francisco",
        "street": "Beco Cinco (da rua Sete)",
        "zipcode": "35171-446"
    },
    {
        "city": "Coronel Fabriciano",
        "state": "MG",
        "district": "Vila Maria Linhares",
        "street": "Rua Vale do Jatobá",
        "zipcode": "35171-467"
    },
    {
        "city": "Coronel Fabriciano",
        "state": "MG",
        "district": "Santa Terezinha I",
        "street": "Rua Julita Pires Bretas",
        "zipcode": "35171-408"
    },
    {
        "city": "Coronel Fabriciano",
        "state": "MG",
        "district": "Centro",
        "street": "Rua José Cornélio",
        "zipcode": "35170-970"
    },
    {
        "city": "Coronel Fabriciano",
        "state": "MG",
        "district": "Caladinho",
        "street": "Rua A",
        "zipcode": "35171-242"
    },
    {
        "city": "Coronel Fabriciano",
        "state": "MG",
        "district": "Córrego Alto",
        "street": "Rua Amora",
        "zipcode": "35170-293"
    },
    {
        "city": "Coronel Fabriciano",
        "state": "MG",
        "district": "Residencial Pomar",
        "street": "Rua Amoras",
        "zipcode": "35171-231"
    },
    {
        "city": "Coronel Fabriciano",
        "state": "MG",
        "district": "Amaro Lanari",
        "street": "Rua Aracaju",
        "zipcode": "35171-321"
    },
    {
        "city": "Coronel Fabriciano",
        "state": "MG",
        "district": "Santa Rita",
        "street": "Rua Geraldo Hubner Miranda",
        "zipcode": "35170-273"
    },
    {
        "city": "Coronel Fabriciano",
        "state": "MG",
        "district": "Sylvio Pereira II",
        "street": "Rua Dezessete",
        "zipcode": "35171-365"
    },
    {
        "city": "Coronel Fabriciano",
        "state": "MG",
        "district": "Caladinho",
        "street": "Rua Dois",
        "zipcode": "35171-218"
    },
    {
        "city": "Coronel Fabriciano",
        "state": "MG",
        "district": "Centro",
        "street": "Rua Doutor Querubino",
        "zipcode": "35170-001"
    },
    {
        "city": "Coronel Fabriciano",
        "state": "MG",
        "district": "Giovanini",
        "street": "Rua Icaraí",
        "zipcode": "35170-106"
    },
    {
        "city": "Coronel Fabriciano",
        "state": "MG",
        "district": "Pedra Linda",
        "street": "Rua Pedras Preciosas",
        "zipcode": "35170-237"
    },
    {
        "city": "Coronel Fabriciano",
        "state": "MG",
        "district": "Santo Elói",
        "street": "Rua Ponte Nova",
        "zipcode": "35170-147"
    },
    {
        "city": "Coronel Fabriciano",
        "state": "MG",
        "district": "Santo Elói",
        "street": "Rua Salinas",
        "zipcode": "35170-132"
    },
    {
        "city": "Coronel Fabriciano",
        "state": "MG",
        "district": "Santa Helena",
        "street": "Rua São Sebastião",
        "zipcode": "35170-010"
    },
    {
        "city": "Coronel Fabriciano",
        "state": "MG",
        "district": "Melo Viana",
        "street": "Rua Teófilo Otoni",
        "zipcode": "35170-162"
    },
    {
        "city": "Coronel Fabriciano",
        "state": "MG",
        "district": "Morada do Vale",
        "street": "Rua Vale do Mucuri",
        "zipcode": "35171-190"
    },
    {
        "city": "Coronel Fabriciano",
        "state": "MG",
        "district": "Sylvio Pereira II",
        "street": "Rua Vinte e Três",
        "zipcode": "35171-372"
    },
    {
        "city": "Coronel Fabriciano",
        "state": "MG",
        "district": "Bom Jesus",
        "street": "Avenida Presidente Tancredo de Almeida Neves",
        "zipcode": "35170-055"
    },
    {
        "city": "Coronel Fabriciano",
        "state": "MG",
        "district": "Caladinho",
        "street": "Avenida Presidente Tancredo de Almeida Neves",
        "zipcode": "35170-056"
    },
    {
        "city": "Coronel Fabriciano",
        "state": "MG",
        "district": "Professores",
        "street": "Rua Moacir DÁvila",
        "zipcode": "35170-014"
    },
    {
        "city": "Coronel Fabriciano",
        "state": "MG",
        "district": "Surinan",
        "street": "Rua Joaquim Custódio Ângelo",
        "zipcode": "35170-195"
    },
    {
        "city": "Coronel Fabriciano",
        "state": "MG",
        "district": "Judith Bhering",
        "street": "Rua Izaías",
        "zipcode": "35172-110"
    },
    {
        "city": "Coronel Fabriciano",
        "state": "MG",
        "district": "Jardim Primavera",
        "street": "Rua Gentil de Assis Machado",
        "zipcode": "35172-330"
    },
    {
        "city": "Coronel Fabriciano",
        "state": "MG",
        "district": "Jardim Primavera",
        "street": "Rua J",
        "zipcode": "35172-327"
    },
    {
        "city": "Coronel Fabriciano",
        "state": "MG",
        "district": "Jardim Primavera",
        "street": "Rua Joaquim Quirino de Alvarenga",
        "zipcode": "35172-306"
    },
    {
        "city": "Coronel Fabriciano",
        "state": "MG",
        "district": "Aldeia do Lago",
        "street": "Rua Dez",
        "zipcode": "35171-529"
    },
    {
        "city": "Coronel Fabriciano",
        "state": "MG",
        "district": "Belvedere",
        "street": "Avenida Jesus Rodrigues Valente",
        "zipcode": "35170-346"
    },
    {
        "city": "Coronel Fabriciano",
        "state": "MG",
        "district": "Florença",
        "street": "Rua Vinte e Oito",
        "zipcode": "35170-406"
    },
    {
        "city": "Coronel Fabriciano",
        "state": "MG",
        "district": "Júlia Kubitschek",
        "street": "Beco Quatro",
        "zipcode": "35171-385"
    },
    {
        "city": "Coronel Fabriciano",
        "state": "MG",
        "district": "Centro",
        "street": "Praça Sérvulo Roque",
        "zipcode": "35170-325"
    },
    {
        "city": "Coronel Fabriciano",
        "state": "MG",
        "district": "Belvedere",
        "street": "Rua João Lagares",
        "zipcode": "35170-374"
    },
    {
        "city": "Coronel Fabriciano",
        "state": "MG",
        "district": "Belvedere",
        "street": "Rua Doutor Maurício Anacleto",
        "zipcode": "35170-376"
    },
    {
        "city": "Coronel Fabriciano",
        "state": "MG",
        "district": "Universitário",
        "street": "Praça José Maria Deman",
        "zipcode": "35171-432"
    },
    {
        "city": "Coronel Fabriciano",
        "state": "MG",
        "district": "Belvedere",
        "street": "Rua Conceição Maria de Oliveira",
        "zipcode": "35170-331"
    },
    {
        "city": "Coronel Fabriciano",
        "state": "MG",
        "district": "Morada do Vale",
        "street": "Beco Um (da rua Vale Araguaia)",
        "zipcode": "35171-728"
    },
    {
        "city": "Coronel Fabriciano",
        "state": "MG",
        "district": "São Domingos",
        "street": "Beco Quatro",
        "zipcode": "35171-852"
    },
    {
        "city": "Coronel Fabriciano",
        "state": "MG",
        "district": "Santa Helena",
        "street": "Rua Julita Pires Bretas",
        "zipcode": "35170-026"
    },
    {
        "city": "Coronel Fabriciano",
        "state": "MG",
        "district": "Belvedere",
        "street": "Rua Vila Lobos",
        "zipcode": "35170-357"
    },
    {
        "city": "Coronel Fabriciano",
        "state": "MG",
        "district": "Centro",
        "street": "Rua Antônio Mascarenhas",
        "zipcode": "35170-003"
    },
    {
        "city": "Coronel Fabriciano",
        "state": "MG",
        "district": "Centro",
        "street": "Rua Armando Fajardo",
        "zipcode": "35170-007"
    },
    {
        "city": "Coronel Fabriciano",
        "state": "MG",
        "district": "Caladinho",
        "street": "Rua Vereador Célio Valadares da Silva",
        "zipcode": "35171-273"
    },
    {
        "city": "Coronel Fabriciano",
        "state": "MG",
        "district": "Melo Viana",
        "street": "Rua Gercy Barnabé de Souza",
        "zipcode": "35170-592"
    },
    {
        "city": "Coronel Fabriciano",
        "state": "MG",
        "district": "Nossa Senhora do Carmo",
        "street": "Rua Alex Souza Silva",
        "zipcode": "35170-086"
    },
    {
        "city": "Coronel Fabriciano",
        "state": "MG",
        "district": "Júlia Kubitschek",
        "street": "Rua João Berbet",
        "zipcode": "35171-102"
    },
    {
        "city": "Coronel Fabriciano",
        "state": "MG",
        "district": "Santa Rita",
        "street": "Rua Valdemiro de Oliveira",
        "zipcode": "35170-710"
    },
    {
        "city": "Coronel Fabriciano",
        "state": "MG",
        "district": "Caladinho",
        "street": "Avenida Cacau (Ch Caladinho)",
        "zipcode": "35171-250"
    },
    {
        "city": "Coronel Fabriciano",
        "state": "MG",
        "district": "Nossa Senhora do Carmo",
        "street": "Rua Anastácio",
        "zipcode": "35170-073"
    },
    {
        "city": "Coronel Fabriciano",
        "state": "MG",
        "district": "Belvedere",
        "street": "Rua Tomáz Gonzaga",
        "zipcode": "35170-335"
    },
    {
        "city": "Coronel Fabriciano",
        "state": "MG",
        "district": "Caladinho",
        "street": "Rua Francisco Serafim Gonçalves",
        "zipcode": "35171-172"
    },
    {
        "city": "Coronel Fabriciano",
        "state": "MG",
        "district": "Potyra (Caladão)",
        "street": "Rua do Paulino Firmino da Costa",
        "zipcode": "35171-090"
    },
    {
        "city": "Coronel Fabriciano",
        "state": "MG",
        "district": "Belvedere",
        "street": "Rua Dona Vilica Silveira",
        "zipcode": "35170-354"
    },
    {
        "city": "Coronel Fabriciano",
        "state": "MG",
        "district": "Belvedere",
        "street": "Rua Casimiro de Abreu",
        "zipcode": "35170-337"
    },
    {
        "city": "Coronel Fabriciano",
        "state": "MG",
        "district": "Mangueiras",
        "street": "Rua João Evangelista dos Anjos",
        "zipcode": "35171-305"
    },
    {
        "city": "Coronel Fabriciano",
        "state": "MG",
        "district": "Belvedere",
        "street": "Rua Sete",
        "zipcode": "35170-125"
    },
    {
        "city": "Coronel Fabriciano",
        "state": "MG",
        "district": "Júlia Kubitschek",
        "street": "Rua Wilson Passos Pereira",
        "zipcode": "35171-100"
    },
    {
        "city": "Coronel Fabriciano",
        "state": "MG",
        "district": "Sylvio Pereira II",
        "street": "Rua Vinte e Quatro",
        "zipcode": "35171-373"
    },
    {
        "city": "Coronel Fabriciano",
        "state": "MG",
        "district": "Belvedere",
        "street": "Rua Trinta e Dois",
        "zipcode": "35170-360"
    },
    {
        "city": "Coronel Fabriciano",
        "state": "MG",
        "district": "São Domingos",
        "street": "Rua Açucena",
        "zipcode": "35170-303"
    },
    {
        "city": "Coronel Fabriciano",
        "state": "MG",
        "district": "Pedra Linda",
        "street": "Rua Pedra Corrida",
        "zipcode": "35170-234"
    },
    {
        "city": "Coronel Fabriciano",
        "state": "MG",
        "district": "Nossa Senhora do Carmo",
        "street": "Rua José Teodoro Rosa",
        "zipcode": "35170-093"
    },
    {
        "city": "Coronel Fabriciano",
        "state": "MG",
        "district": "Caladinho",
        "street": "Rua Quatro (Jd Alpino)",
        "zipcode": "35171-245"
    },
    {
        "city": "Coronel Fabriciano",
        "state": "MG",
        "district": "Pedra Linda",
        "street": "Rua Pedra Negra",
        "zipcode": "35170-235"
    },
    {
        "city": "Coronel Fabriciano",
        "state": "MG",
        "district": "Pedra Linda",
        "street": "Rua Pedra Lavrada",
        "zipcode": "35170-236"
    },
    {
        "city": "Coronel Fabriciano",
        "state": "MG",
        "district": "São Cristovão",
        "street": "Rua Benedito Bhering",
        "zipcode": "35172-163"
    },
    {
        "city": "Coronel Fabriciano",
        "state": "MG",
        "district": "Nossa Senhora da Penha",
        "street": "Rua Efigênia Moreira Quirino",
        "zipcode": "35170-072"
    },
    {
        "city": "Coronel Fabriciano",
        "state": "MG",
        "district": "Belvedere",
        "street": "Rua José Gomide Filho",
        "zipcode": "35170-358"
    },
    {
        "city": "Coronel Fabriciano",
        "state": "MG",
        "district": "Centro",
        "street": "Praça Louiz Ench",
        "zipcode": "35170-033"
    },
    {
        "city": "Coronel Fabriciano",
        "state": "MG",
        "district": "Santa Rita",
        "street": "Rua Antônio Paulo Menezes",
        "zipcode": "35170-703"
    },
    {
        "city": "Coronel Fabriciano",
        "state": "MG",
        "district": "Córrego Alto",
        "street": "Rua Treze",
        "zipcode": "35170-456"
    },
    {
        "city": "Coronel Fabriciano",
        "state": "MG",
        "district": "Morada do Vale",
        "street": "Rua Vale do Corrente",
        "zipcode": "35171-762"
    },
    {
        "city": "Coronel Fabriciano",
        "state": "MG",
        "district": "Belvedere",
        "street": "Rua Itapoá",
        "zipcode": "35170-131"
    },
    {
        "city": "Coronel Fabriciano",
        "state": "MG",
        "district": "Caladinho",
        "street": "Rua Racaris",
        "zipcode": "35171-260"
    },
    {
        "city": "Coronel Fabriciano",
        "state": "MG",
        "district": "Morada do Vale",
        "street": "Rua Vale do Jequitinhonha",
        "zipcode": "35171-211"
    },
    {
        "city": "Coronel Fabriciano",
        "state": "MG",
        "district": "Jardim Primavera",
        "street": "Avenida Itália Zagnoli da Silva",
        "zipcode": "35172-339"
    },
    {
        "city": "Coronel Fabriciano",
        "state": "MG",
        "district": "Santo Elói",
        "street": "Rua Uberlândia",
        "zipcode": "35170-135"
    },
    {
        "city": "Coronel Fabriciano",
        "state": "MG",
        "district": "Amaro Lanari",
        "street": "Rua Manaus",
        "zipcode": "35171-333"
    },
    {
        "city": "Coronel Fabriciano",
        "state": "MG",
        "district": "Olaria",
        "street": "Rua Juiz de Fora",
        "zipcode": "35170-140"
    },
    {
        "city": "Coronel Fabriciano",
        "state": "MG",
        "district": "Mangueiras",
        "street": "Avenida Vasco da Gama",
        "zipcode": "35171-290"
    },
    {
        "city": "Coronel Fabriciano",
        "state": "MG",
        "district": "Belvedere",
        "street": "Rua Said Albeny",
        "zipcode": "35170-338"
    },
    {
        "city": "Coronel Fabriciano",
        "state": "MG",
        "district": "Aldeia do Lago",
        "street": "Rua Três",
        "zipcode": "35171-511"
    },
    {
        "city": "Coronel Fabriciano",
        "state": "MG",
        "district": "Mangueiras",
        "street": "Rua Social",
        "zipcode": "35171-705"
    },
    {
        "city": "Coronel Fabriciano",
        "state": "MG",
        "district": "Floresta",
        "street": "Rua Braúnas",
        "zipcode": "35170-212"
    },
    {
        "city": "Coronel Fabriciano",
        "state": "MG",
        "district": "Belvedere",
        "street": "Rua José Feliciano Silva",
        "zipcode": "35170-334"
    },
    {
        "city": "Coronel Fabriciano",
        "state": "MG",
        "district": "Amaro Lanari",
        "street": "Praça Sete de Setembro",
        "zipcode": "35171-662"
    },
    {
        "city": "Coronel Fabriciano",
        "state": "MG",
        "district": "Nossa Senhora do Carmo",
        "street": "Rua Marciano Panteleão Gomes",
        "zipcode": "35170-048"
    },
    {
        "city": "Coronel Fabriciano",
        "state": "MG",
        "district": "Recanto Verde",
        "street": "Rua Afenio",
        "zipcode": "35171-033"
    },
    {
        "city": "Coronel Fabriciano",
        "state": "MG",
        "district": "São Cristovão",
        "street": "Rua Constância de Barros",
        "zipcode": "35172-166"
    },
    {
        "city": "Coronel Fabriciano",
        "state": "MG",
        "district": "Belvedere",
        "street": "Rua José Augusto Machado",
        "zipcode": "35170-366"
    },
    {
        "city": "Coronel Fabriciano",
        "state": "MG",
        "district": "Professores",
        "street": "Rua José Cirilo",
        "zipcode": "35170-023"
    },
    {
        "city": "Coronel Fabriciano",
        "state": "MG",
        "district": "Caladinho",
        "street": "Rua Jacuí",
        "zipcode": "35171-262"
    },
    {
        "city": "Coronel Fabriciano",
        "state": "MG",
        "district": "Professores",
        "street": "Travessa Trevo",
        "zipcode": "35170-118"
    },
    {
        "city": "Coronel Fabriciano",
        "state": "MG",
        "district": "Morada do Vale",
        "street": "Rua Vale do Manhuaçu",
        "zipcode": "35171-184"
    },
    {
        "city": "Coronel Fabriciano",
        "state": "MG",
        "district": "Sylvio Pereira I",
        "street": "Rua Osvaldina Vieira Mota",
        "zipcode": "35171-353"
    },
    {
        "city": "Coronel Fabriciano",
        "state": "MG",
        "district": "Santa Terezinha I",
        "street": "Rua Reverendo John Wesley",
        "zipcode": "35171-404"
    },
    {
        "city": "Coronel Fabriciano",
        "state": "MG",
        "district": "Potyra (Caladão)",
        "street": "Beco Joaquim Tomé da Silva",
        "zipcode": "35171-802"
    },
    {
        "city": "Coronel Fabriciano",
        "state": "MG",
        "district": "Sylvio Pereira I",
        "street": "Rua Waldemar Silveira Maia",
        "zipcode": "35171-354"
    },
    {
        "city": "Coronel Fabriciano",
        "state": "MG",
        "district": "Belvedere",
        "street": "Rua Maurício Miranda Soares",
        "zipcode": "35170-343"
    },
    {
        "city": "Coronel Fabriciano",
        "state": "MG",
        "district": "Nossa Senhora do Carmo",
        "street": "Rua Calisto dos Passos",
        "zipcode": "35170-044"
    },
    {
        "city": "Coronel Fabriciano",
        "state": "MG",
        "district": "Santa Rita",
        "street": "Rua Augusto Zeferino Moura",
        "zipcode": "35170-705"
    },
    {
        "city": "Coronel Fabriciano",
        "state": "MG",
        "district": "Caladinho",
        "street": "Rua José Rodrigues Ribeiro",
        "zipcode": "35171-221"
    },
    {
        "city": "Coronel Fabriciano",
        "state": "MG",
        "district": "Sylvio Pereira I",
        "street": "Rua Acaiaca",
        "zipcode": "35171-355"
    },
    {
        "city": "Coronel Fabriciano",
        "state": "MG",
        "district": "Gávea",
        "street": "Rua Elias Viana",
        "zipcode": "35170-572"
    },
    {
        "city": "Coronel Fabriciano",
        "state": "MG",
        "district": "Nossa Senhora da Penha",
        "street": "Rua José Antônio de Souza",
        "zipcode": "35170-052"
    },
    {
        "city": "Coronel Fabriciano",
        "state": "MG",
        "district": "Caladinho",
        "street": "Rua Emílio Sanches",
        "zipcode": "35171-200"
    },
    {
        "city": "Coronel Fabriciano",
        "state": "MG",
        "district": "Sylvio Pereira I",
        "street": "Rua Professora Tereza Leopoldina dos Anjos",
        "zipcode": "35171-376"
    },
    {
        "city": "Coronel Fabriciano",
        "state": "MG",
        "district": "Belvedere",
        "street": "Rua Joaquim Vicente Bonfim",
        "zipcode": "35170-372"
    },
    {
        "city": "Coronel Fabriciano",
        "state": "MG",
        "district": "Santa Cruz",
        "street": "Rua Haiti",
        "zipcode": "35170-275"
    },
    {
        "city": "Coronel Fabriciano",
        "state": "MG",
        "district": "Melo Viana",
        "street": "Rua Ipatinga",
        "zipcode": "35170-158"
    },
    {
        "city": "Coronel Fabriciano",
        "state": "MG",
        "district": "Aparecida do Norte",
        "street": "Rua Maucia",
        "zipcode": "35171-125"
    },
    {
        "city": "Coronel Fabriciano",
        "state": "MG",
        "district": "Bom Jesus",
        "street": "Rua Ouro",
        "zipcode": "35171-110"
    },
    {
        "city": "Coronel Fabriciano",
        "state": "MG",
        "district": "Amaro Lanari",
        "street": "Rua Porto Alegre",
        "zipcode": "35171-340"
    },
    {
        "city": "Coronel Fabriciano",
        "state": "MG",
        "district": "Melo Viana",
        "street": "Rua Serro",
        "zipcode": "35170-175"
    },
    {
        "city": "Coronel Fabriciano",
        "state": "MG",
        "district": "Santa Luzia",
        "street": "Rua Três",
        "zipcode": "35170-286"
    },
    {
        "city": "Coronel Fabriciano",
        "state": "MG",
        "district": "Caladinho",
        "street": "Rua Trinta e Um",
        "zipcode": "35171-239"
    },
    {
        "city": "Coronel Fabriciano",
        "state": "MG",
        "district": "Belvedere",
        "street": "Rua José Machado Sena",
        "zipcode": "35170-368"
    },
    {
        "city": "Coronel Fabriciano",
        "state": "MG",
        "district": "São Vicente",
        "street": "Rua Seis",
        "zipcode": "35170-445"
    },
    {
        "city": "Coronel Fabriciano",
        "state": "MG",
        "district": "Professores",
        "street": "Rua Amazonas",
        "zipcode": "35170-019"
    },
    {
        "city": "Coronel Fabriciano",
        "state": "MG",
        "district": "Giovanini",
        "street": "Rua Donato de Melo",
        "zipcode": "35170-115"
    },
    {
        "city": "Coronel Fabriciano",
        "state": "MG",
        "district": "Belvedere",
        "street": "Rua Gonçalves Dias",
        "zipcode": "35170-122"
    },
    {
        "city": "Coronel Fabriciano",
        "state": "MG",
        "district": "Floresta",
        "street": "Rua Açaí",
        "zipcode": "35170-225"
    },
    {
        "city": "Coronel Fabriciano",
        "state": "MG",
        "district": "Floresta",
        "street": "Rua Cerejeira",
        "zipcode": "35170-226"
    },
    {
        "city": "Coronel Fabriciano",
        "state": "MG",
        "district": "Gávea",
        "street": "Rua B",
        "zipcode": "35170-301"
    },
    {
        "city": "Coronel Fabriciano",
        "state": "MG",
        "district": "Belvedere",
        "street": "Rua Jandira Daurte",
        "zipcode": "35170-344"
    },
    {
        "city": "Coronel Fabriciano",
        "state": "MG",
        "district": "Belvedere",
        "street": "Rua Dezessete",
        "zipcode": "35170-342"
    },
    {
        "city": "Coronel Fabriciano",
        "state": "MG",
        "district": "Santa Cruz",
        "street": "Beco Três",
        "zipcode": "35170-684"
    },
    {
        "city": "Coronel Fabriciano",
        "state": "MG",
        "district": "Manoel Domingos",
        "street": "Acampamento B",
        "zipcode": "35170-089"
    },
    {
        "city": "Coronel Fabriciano",
        "state": "MG",
        "district": "Belvedere",
        "street": "Rua Cylira Boy de Vasconcelos",
        "zipcode": "35170-332"
    },
    {
        "city": "Coronel Fabriciano",
        "state": "MG",
        "district": "Sylvio Pereira I",
        "street": "Rua Nelson Antunes Lopes",
        "zipcode": "35171-352"
    },
    {
        "city": "Coronel Fabriciano",
        "state": "MG",
        "district": "Residencial Fazendinha",
        "street": "Rua Aurea Gabriela Pena de Souza",
        "zipcode": "35171-048"
    },
    {
        "city": "Coronel Fabriciano",
        "state": "MG",
        "district": "Residencial Fazendinha",
        "street": "Rua Gustavo Fernandes da Trindade (Tranqüilão)",
        "zipcode": "35171-049"
    },
    {
        "city": "Coronel Fabriciano",
        "state": "MG",
        "district": "Manoel Maia (Apara Foice)",
        "street": "Rua Andorinhas",
        "zipcode": "35171-067"
    },
    {
        "city": "Coronel Fabriciano",
        "state": "MG",
        "district": "Manoel Maia (Apara Foice)",
        "street": "Rua Campestre",
        "zipcode": "35171-066"
    },
    {
        "city": "Coronel Fabriciano",
        "state": "MG",
        "district": "Santa Terezinha I",
        "street": "Rua Quatorze",
        "zipcode": "35171-406"
    },
    {
        "city": "Coronel Fabriciano",
        "state": "MG",
        "district": "Santa Terezinha II",
        "street": "Avenida A",
        "zipcode": "35171-412"
    },
    {
        "city": "Coronel Fabriciano",
        "state": "MG",
        "district": "Caladinho",
        "street": "Rua Caetés",
        "zipcode": "35171-274"
    },
    {
        "city": "Coronel Fabriciano",
        "state": "MG",
        "district": "Nossa Senhora do Carmo",
        "street": "Rua Cônego Antônio Rocha",
        "zipcode": "35170-050"
    },
    {
        "city": "Coronel Fabriciano",
        "state": "MG",
        "district": "Centro",
        "street": "Praça Salgado Filho",
        "zipcode": "35170-046"
    },
    {
        "city": "Coronel Fabriciano",
        "state": "MG",
        "district": "Centro",
        "street": "Rua Boa Vista",
        "zipcode": "35170-041"
    },
    {
        "city": "Coronel Fabriciano",
        "state": "MG",
        "district": "Júlia Kubitschek",
        "street": "Beco Um",
        "zipcode": "35171-395"
    },
    {
        "city": "Coronel Fabriciano",
        "state": "MG",
        "district": "Morada do Vale",
        "street": "Rua Vale das Flores",
        "zipcode": "35171-396"
    },
    {
        "city": "Coronel Fabriciano",
        "state": "MG",
        "district": "Surinan",
        "street": "Rua Chile",
        "zipcode": "35170-197"
    },
    {
        "city": "Coronel Fabriciano",
        "state": "MG",
        "district": "Floresta",
        "street": "Avenida Palmeira",
        "zipcode": "35170-218"
    },
    {
        "city": "Coronel Fabriciano",
        "state": "MG",
        "district": "São Geraldo",
        "street": "Rua Salustiano Costa",
        "zipcode": "35170-210"
    },
    {
        "city": "Coronel Fabriciano",
        "state": "MG",
        "district": "Melo Viana",
        "street": "Rua São Francisco",
        "zipcode": "35170-183"
    },
    {
        "city": "Coronel Fabriciano",
        "state": "MG",
        "district": "Surinan",
        "street": "Rua Manoel Messias",
        "zipcode": "35170-201"
    },
    {
        "city": "Coronel Fabriciano",
        "state": "MG",
        "district": "Belvedere",
        "street": "Avenida José de Ávila Barros",
        "zipcode": "35170-186"
    },
    {
        "city": "Coronel Fabriciano",
        "state": "MG",
        "district": "Belvedere",
        "street": "Rua Vinte e Dois",
        "zipcode": "35170-187"
    },
    {
        "city": "Coronel Fabriciano",
        "state": "MG",
        "district": "São Geraldo",
        "street": "Beco Quatro (da rua Josué Correia)",
        "zipcode": "35170-724"
    },
    {
        "city": "Coronel Fabriciano",
        "state": "MG",
        "district": "São Geraldo",
        "street": "Beco Raimundo da Costa",
        "zipcode": "35170-726"
    },
    {
        "city": "Coronel Fabriciano",
        "state": "MG",
        "district": "São Geraldo",
        "street": "Beco Três (da rua José Correia)",
        "zipcode": "35170-728"
    },
    {
        "city": "Coronel Fabriciano",
        "state": "MG",
        "district": "Floresta",
        "street": "Rua Angelim",
        "zipcode": "35170-224"
    },
    {
        "city": "Coronel Fabriciano",
        "state": "MG",
        "district": "Recanto Verde",
        "street": "Rua Berilo",
        "zipcode": "35171-022"
    },
    {
        "city": "Coronel Fabriciano",
        "state": "MG",
        "district": "São Domingos",
        "street": "Rua Dom Marcos",
        "zipcode": "35171-016"
    },
    {
        "city": "Coronel Fabriciano",
        "state": "MG",
        "district": "São Domingos",
        "street": "Rua Flor",
        "zipcode": "35171-003"
    },
    {
        "city": "Coronel Fabriciano",
        "state": "MG",
        "district": "Santa Cruz",
        "street": "Rua Japão",
        "zipcode": "35170-246"
    },
    {
        "city": "Coronel Fabriciano",
        "state": "MG",
        "district": "Floresta",
        "street": "Rua Jequitibá",
        "zipcode": "35170-220"
    },
    {
        "city": "Coronel Fabriciano",
        "state": "MG",
        "district": "São Domingos",
        "street": "Rua Orquídeas",
        "zipcode": "35171-012"
    },
    {
        "city": "Coronel Fabriciano",
        "state": "MG",
        "district": "Floresta",
        "street": "Rua Sapucaia",
        "zipcode": "35170-228"
    },
    {
        "city": "Coronel Fabriciano",
        "state": "MG",
        "district": "Santa Cruz",
        "street": "Rua Suécia",
        "zipcode": "35170-251"
    },
    {
        "city": "Coronel Fabriciano",
        "state": "MG",
        "district": "Recanto Verde",
        "street": "Rua Telúrio",
        "zipcode": "35171-031"
    },
    {
        "city": "Coronel Fabriciano",
        "state": "MG",
        "district": "Santa Cruz",
        "street": "Rua Argentina",
        "zipcode": "35170-242"
    },
    {
        "city": "Coronel Fabriciano",
        "state": "MG",
        "district": "Recanto Verde",
        "street": "Rua Césio",
        "zipcode": "35171-020"
    },
    {
        "city": "Coronel Fabriciano",
        "state": "MG",
        "district": "São Cristovão",
        "street": "Rua Gregório Maria Bhering",
        "zipcode": "35172-185"
    },
    {
        "city": "Coronel Fabriciano",
        "state": "MG",
        "district": "Jardim Primavera",
        "street": "Rua Antônia Maria Xavier",
        "zipcode": "35172-300"
    },
    {
        "city": "Coronel Fabriciano",
        "state": "MG",
        "district": "Centro",
        "street": "Rua Doutor Moacir Byrro",
        "zipcode": "35170-972"
    },
    {
        "city": "Coronel Fabriciano",
        "state": "MG",
        "district": "Amaro Lanari",
        "street": "Avenida Brasília",
        "zipcode": "35170-973"
    },
    {
        "city": "Coronel Fabriciano",
        "state": "MG",
        "district": "Universitário",
        "street": "Rua Manhuaçu",
        "zipcode": "35171-177"
    },
    {
        "city": "Coronel Fabriciano",
        "state": "MG",
        "district": "Morada do Vale",
        "street": "Rua Vale do Indaiá",
        "zipcode": "35171-197"
    },
    {
        "city": "Coronel Fabriciano",
        "state": "MG",
        "district": "Caladinho",
        "street": "Rua Vale do Juruá",
        "zipcode": "35171-201"
    },
    {
        "city": "Coronel Fabriciano",
        "state": "MG",
        "district": "Morada do Vale",
        "street": "Rua Vale do São Francisco",
        "zipcode": "35171-182"
    },
    {
        "city": "Coronel Fabriciano",
        "state": "MG",
        "district": "Morada do Vale",
        "street": "Rua Vale do Rio Verde",
        "zipcode": "35171-191"
    },
    {
        "city": "Coronel Fabriciano",
        "state": "MG",
        "district": "Morada do Vale",
        "street": "Beco Três",
        "zipcode": "35171-722"
    },
    {
        "city": "Coronel Fabriciano",
        "state": "MG",
        "district": "Parque Industrial Novo Reno",
        "street": "Rua B",
        "zipcode": "35171-602"
    },
    {
        "city": "Coronel Fabriciano",
        "state": "MG",
        "district": "Amaro Lanari",
        "street": "Rua Amapá",
        "zipcode": "35171-650"
    },
    {
        "city": "Coronel Fabriciano",
        "state": "MG",
        "district": "Morada do Vale",
        "street": "Rua Dois",
        "zipcode": "35171-738"
    },
    {
        "city": "Coronel Fabriciano",
        "state": "MG",
        "district": "Bom Jesus",
        "street": "Rua Julita Pires Bretas",
        "zipcode": "35171-684"
    },
    {
        "city": "Coronel Fabriciano",
        "state": "MG",
        "district": "Melo Viana",
        "street": "Rua Horto Cascudo",
        "zipcode": "35170-168"
    },
    {
        "city": "Coronel Fabriciano",
        "state": "MG",
        "district": "Olaria",
        "street": "Rua Pará de Minas",
        "zipcode": "35170-139"
    },
    {
        "city": "Coronel Fabriciano",
        "state": "MG",
        "district": "Santo Elói",
        "street": "Rua Santana",
        "zipcode": "35170-143"
    },
    {
        "city": "Coronel Fabriciano",
        "state": "MG",
        "district": "Melo Viana",
        "street": "Rua Antônio Dias",
        "zipcode": "35170-166"
    },
    {
        "city": "Coronel Fabriciano",
        "state": "MG",
        "district": "Melo Viana",
        "street": "Beco Flórida",
        "zipcode": "35170-590"
    },
    {
        "city": "Coronel Fabriciano",
        "state": "MG",
        "district": "Nossa Senhora do Carmo",
        "street": "Beco Um (da rua Antônio Benedito Pacífico)",
        "zipcode": "35170-642"
    },
    {
        "city": "Coronel Fabriciano",
        "state": "MG",
        "district": "José da Silva Brito",
        "street": "Rua Nove",
        "zipcode": "35170-553"
    },
    {
        "city": "Coronel Fabriciano",
        "state": "MG",
        "district": "José da Silva Brito",
        "street": "Rua Seis",
        "zipcode": "35170-556"
    },
    {
        "city": "Coronel Fabriciano",
        "state": "MG",
        "district": "Córrego Alto",
        "street": "Rua Quatorze",
        "zipcode": "35170-516"
    },
    {
        "city": "Coronel Fabriciano",
        "state": "MG",
        "district": "São Geraldo",
        "street": "Rua Quatro",
        "zipcode": "35170-420"
    },
    {
        "city": "Coronel Fabriciano",
        "state": "MG",
        "district": "Caladinho",
        "street": "Rua Seis",
        "zipcode": "35171-223"
    },
    {
        "city": "Coronel Fabriciano",
        "state": "MG",
        "district": "Caladinho",
        "street": "Rua Um",
        "zipcode": "35171-217"
    },
    {
        "city": "Coronel Fabriciano",
        "state": "MG",
        "district": "Morada do Vale",
        "street": "Rua Vale da Madeira",
        "zipcode": "35171-216"
    },
    {
        "city": "Coronel Fabriciano",
        "state": "MG",
        "district": "Morada do Vale",
        "street": "Rua Vale do Iguaçu",
        "zipcode": "35171-187"
    },
    {
        "city": "Coronel Fabriciano",
        "state": "MG",
        "district": "Morada do Vale",
        "street": "Rua Vale do Tefé",
        "zipcode": "35171-208"
    },
    {
        "city": "Coronel Fabriciano",
        "state": "MG",
        "district": "Residencial Pomar",
        "street": "Rua das Mangueiras",
        "zipcode": "35171-832"
    },
    {
        "city": "Coronel Fabriciano",
        "state": "MG",
        "district": "São Domingos",
        "street": "Rua Turquia",
        "zipcode": "35171-856"
    },
    {
        "city": "Coronel Fabriciano",
        "state": "MG",
        "district": "São Domingos",
        "street": "Beco Um",
        "zipcode": "35171-858"
    },
    {
        "city": "Coronel Fabriciano",
        "state": "MG",
        "district": "Residencial Fazendinha",
        "street": "Rua Cinco",
        "zipcode": "35172-022"
    },
    {
        "city": "Coronel Fabriciano",
        "state": "MG",
        "district": "Alipinho",
        "street": "Rua Ana Moura",
        "zipcode": "35171-051"
    },
    {
        "city": "Coronel Fabriciano",
        "state": "MG",
        "district": "Bom Jesus",
        "street": "Rua Esmeralda",
        "zipcode": "35171-109"
    },
    {
        "city": "Coronel Fabriciano",
        "state": "MG",
        "district": "Judith Bhering",
        "street": "Rua Felipenses",
        "zipcode": "35172-098"
    },
    {
        "city": "Coronel Fabriciano",
        "state": "MG",
        "district": "Judith Bhering",
        "street": "Rua Colossenses",
        "zipcode": "35172-089"
    },
    {
        "city": "Coronel Fabriciano",
        "state": "MG",
        "district": "Alipinho",
        "street": "Rua Maria Delfina Benevides",
        "zipcode": "35171-043"
    },
    {
        "city": "Coronel Fabriciano",
        "state": "MG",
        "district": "Manoel Maia (Apara Foice)",
        "street": "Rua Padre Américo Magalhães",
        "zipcode": "35171-054"
    },
    {
        "city": "Coronel Fabriciano",
        "state": "MG",
        "district": "Santa Terezinha I",
        "street": "Rua Paraná",
        "zipcode": "35171-131"
    },
    {
        "city": "Coronel Fabriciano",
        "state": "MG",
        "district": "Universitário",
        "street": "Rua Maria Vieira Breder",
        "zipcode": "35171-179"
    },
    {
        "city": "Coronel Fabriciano",
        "state": "MG",
        "district": "São Cristovão",
        "street": "Rua Durval Bhering",
        "zipcode": "35172-169"
    },
    {
        "city": "Coronel Fabriciano",
        "state": "MG",
        "district": "Giovanini",
        "street": "Avenida de Ligação",
        "zipcode": "35170-381"
    },
    {
        "city": "Coronel Fabriciano",
        "state": "MG",
        "district": "Caladinho",
        "street": "Rua Miguel Nonato da Silva",
        "zipcode": "35171-551"
    },
    {
        "city": "Coronel Fabriciano",
        "state": "MG",
        "district": "Nossa Senhora da Penha",
        "street": "Rua Maria Francelina Pimentel",
        "zipcode": "35170-611"
    },
    {
        "city": "Coronel Fabriciano",
        "state": "MG",
        "district": "Área Rural de Coronel Fabriciano",
        "street": "Área Rural",
        "zipcode": "35175-899"
    },
    {
        "city": "Coronel Fabriciano",
        "state": "MG",
        "district": "Caladinho",
        "street": "Rua Equador",
        "zipcode": "35171-550"
    },
    {
        "city": "Coronel Fabriciano",
        "state": "MG",
        "district": "Parque Industrial Novo Reno",
        "street": "Avenida Dois",
        "zipcode": "35171-600"
    },
    {
        "city": "Coronel Fabriciano",
        "state": "MG",
        "district": "Nossa Senhora do Carmo",
        "street": "Beco Dois (da rua Antônio Benedito Pacífico)",
        "zipcode": "35170-632"
    },
    {
        "city": "Coronel Fabriciano",
        "state": "MG",
        "district": "Giovanini",
        "street": "Rua Três",
        "zipcode": "35170-383"
    },
    {
        "city": "Coronel Fabriciano",
        "state": "MG",
        "district": "Contente",
        "street": "Rua dos Bahia",
        "zipcode": "35171-690"
    },
    {
        "city": "Coronel Fabriciano",
        "state": "MG",
        "district": "Sylvio Pereira II",
        "street": "Rua Pastor Jessé Lopes de Abreu",
        "zipcode": "35171-366"
    },
    {
        "city": "Coronel Fabriciano",
        "state": "MG",
        "district": "Belvedere",
        "street": "Rua Leme",
        "zipcode": "35170-130"
    },
    {
        "city": "Coronel Fabriciano",
        "state": "MG",
        "district": "Contente",
        "street": "Rua Um",
        "zipcode": "35171-698"
    },
    {
        "city": "Coronel Fabriciano",
        "state": "MG",
        "district": "José da Silva Brito",
        "street": "Rua Sete",
        "zipcode": "35170-559"
    },
    {
        "city": "Coronel Fabriciano",
        "state": "MG",
        "district": "Nossa Senhora da Penha",
        "street": "Rua José Pedro Rodrigues",
        "zipcode": "35170-615"
    },
    {
        "city": "Coronel Fabriciano",
        "state": "MG",
        "district": "São Domingos",
        "street": "Beco Três (da rua Tulipa)",
        "zipcode": "35171-845"
    },
    {
        "city": "Coronel Fabriciano",
        "state": "MG",
        "district": "Santa Terezinha II",
        "street": "Avenida Um",
        "zipcode": "35171-415"
    },
    {
        "city": "Coronel Fabriciano",
        "state": "MG",
        "district": "Morada do Vale",
        "street": "Beco Um (da rua Vale do Rio Verde)",
        "zipcode": "35171-724"
    },
    {
        "city": "Coronel Fabriciano",
        "state": "MG",
        "district": "Aparecida do Norte",
        "street": "Rua Antônio Moraes",
        "zipcode": "35171-672"
    },
    {
        "city": "Coronel Fabriciano",
        "state": "MG",
        "district": "Potyra (Caladão)",
        "street": "Beco Dois",
        "zipcode": "35171-796"
    },
    {
        "city": "Coronel Fabriciano",
        "state": "MG",
        "district": "Potyra (Caladão)",
        "street": "Rua Marina Caetana de Assunção",
        "zipcode": "35171-808"
    },
    {
        "city": "Coronel Fabriciano",
        "state": "MG",
        "district": "Recanto Verde",
        "street": "Rua Argônio",
        "zipcode": "35171-817"
    },
    {
        "city": "Coronel Fabriciano",
        "state": "MG",
        "district": "Santa Cruz",
        "street": "Beco Dois (da rua Haiti)",
        "zipcode": "35170-680"
    },
    {
        "city": "Coronel Fabriciano",
        "state": "MG",
        "district": "Belvedere",
        "street": "Rua Osvaldo Cândido da Silveira",
        "zipcode": "35170-351"
    },
    {
        "city": "Coronel Fabriciano",
        "state": "MG",
        "district": "Vila São Francisco",
        "street": "Beco Sete (da rua Sete)",
        "zipcode": "35171-440"
    },
    {
        "city": "Coronel Fabriciano",
        "state": "MG",
        "district": "Caladinho",
        "street": "Rua Belo Horizonte",
        "zipcode": "35171-970"
    },
    {
        "city": "Coronel Fabriciano",
        "state": "MG",
        "district": "Caladinho",
        "street": "Rua Acre",
        "zipcode": "35171-171"
    },
    {
        "city": "Coronel Fabriciano",
        "state": "MG",
        "district": "Aparecida do Norte",
        "street": "Rua Angico",
        "zipcode": "35171-161"
    },
    {
        "city": "Coronel Fabriciano",
        "state": "MG",
        "district": "Amaro Lanari",
        "street": "Avenida Brasília",
        "zipcode": "35171-346"
    },
    {
        "city": "Coronel Fabriciano",
        "state": "MG",
        "district": "Melo Viana",
        "street": "Rua Cambuquira",
        "zipcode": "35170-161"
    },
    {
        "city": "Coronel Fabriciano",
        "state": "MG",
        "district": "Todos os Santos",
        "street": "Rua Dom José Brandão de Castro",
        "zipcode": "35170-075"
    },
    {
        "city": "Coronel Fabriciano",
        "state": "MG",
        "district": "Melo Viana",
        "street": "Avenida Geraldo Inácio",
        "zipcode": "35170-150"
    },
    {
        "city": "Coronel Fabriciano",
        "state": "MG",
        "district": "São Cristovão",
        "street": "Rua Murilo Bhering",
        "zipcode": "35172-190"
    },
    {
        "city": "Coronel Fabriciano",
        "state": "MG",
        "district": "Residencial Pomar",
        "street": "Rua Mamoeiros",
        "zipcode": "35171-233"
    },
    {
        "city": "Coronel Fabriciano",
        "state": "MG",
        "district": "São Domingos",
        "street": "Rua Bonina",
        "zipcode": "35171-840"
    },
    {
        "city": "Coronel Fabriciano",
        "state": "MG",
        "district": "Melo Viana",
        "street": "Avenida Geraldo Inácio",
        "zipcode": "35170-151"
    },
    {
        "city": "Coronel Fabriciano",
        "state": "MG",
        "district": "Júlia Kubitschek",
        "street": "Rua Geraldo Rodrigues Soares",
        "zipcode": "35171-099"
    },
    {
        "city": "Coronel Fabriciano",
        "state": "MG",
        "district": "Potyra (Caladão)",
        "street": "Rua Guassu",
        "zipcode": "35171-079"
    },
    {
        "city": "Coronel Fabriciano",
        "state": "MG",
        "district": "São Geraldo",
        "street": "Rua José Correia",
        "zipcode": "35170-205"
    },
    {
        "city": "Coronel Fabriciano",
        "state": "MG",
        "district": "Belvedere",
        "street": "Rua Wilkie Barros",
        "zipcode": "35170-189"
    },
    {
        "city": "Coronel Fabriciano",
        "state": "MG",
        "district": "Amaro Lanari",
        "street": "Rua Recife",
        "zipcode": "35171-316"
    },
    {
        "city": "Coronel Fabriciano",
        "state": "MG",
        "district": "Morada do Vale",
        "street": "Rua Vale do Jaguari",
        "zipcode": "35171-193"
    },
    {
        "city": "Coronel Fabriciano",
        "state": "MG",
        "district": "Vila São Domingos",
        "street": "Rua Vitória",
        "zipcode": "35171-151"
    },
    {
        "city": "Coronel Fabriciano",
        "state": "MG",
        "district": "Todos os Santos",
        "street": "Avenida Presidente Tancredo de Almeida Neves",
        "zipcode": "35170-054"
    },
    {
        "city": "Coronel Fabriciano",
        "state": "MG",
        "district": "Nossa Senhora do Carmo",
        "street": "Rua Benedito Pacífico",
        "zipcode": "35170-065"
    },
    {
        "city": "Coronel Fabriciano",
        "state": "MG",
        "district": "Manoel Maia (Apara Foice)",
        "street": "Rua Mercúrio",
        "zipcode": "35171-058"
    },
    {
        "city": "Coronel Fabriciano",
        "state": "MG",
        "district": "Santa Helena",
        "street": "Rua Argemiro José Ribeiro",
        "zipcode": "35170-005"
    },
    {
        "city": "Coronel Fabriciano",
        "state": "MG",
        "district": "São Cristovão",
        "street": "Rua Terezinha Bhering",
        "zipcode": "35172-178"
    },
    {
        "city": "Coronel Fabriciano",
        "state": "MG",
        "district": "Residencial Fazendinha",
        "street": "Rua Dois",
        "zipcode": "35172-010"
    },
    {
        "city": "Coronel Fabriciano",
        "state": "MG",
        "district": "Belvedere",
        "street": "Rua João Alves Filho",
        "zipcode": "35170-371"
    },
    {
        "city": "Coronel Fabriciano",
        "state": "MG",
        "district": "Todos os Santos",
        "street": "Rua Durval de Matos",
        "zipcode": "35170-490"
    },
    {
        "city": "Coronel Fabriciano",
        "state": "MG",
        "district": "São Cristovão",
        "street": "Rua Benedito Mário Bhering",
        "zipcode": "35172-180"
    },
    {
        "city": "Coronel Fabriciano",
        "state": "MG",
        "district": "Sylvio Pereira II",
        "street": "Rua Geraldo Vieira",
        "zipcode": "35171-864"
    },
    {
        "city": "Coronel Fabriciano",
        "state": "MG",
        "district": "Nossa Senhora da Penha",
        "street": "Rua Wilson Brito de Souza",
        "zipcode": "35170-610"
    },
    {
        "city": "Coronel Fabriciano",
        "state": "MG",
        "district": "Surinan",
        "street": "Beco Dois (da rua Francisco José Quirino)",
        "zipcode": "35170-740"
    },
    {
        "city": "Coronel Fabriciano",
        "state": "MG",
        "district": "Morada do Vale",
        "street": "Rua Vale do Paracatu",
        "zipcode": "35171-192"
    },
    {
        "city": "Coronel Fabriciano",
        "state": "MG",
        "district": "São Domingos",
        "street": "Praça da Bíblia",
        "zipcode": "35171-838"
    },
    {
        "city": "Coronel Fabriciano",
        "state": "MG",
        "district": "Santa Helena",
        "street": "Praça José Maximiliano de Souza",
        "zipcode": "35170-750"
    },
    {
        "city": "Coronel Fabriciano",
        "state": "MG",
        "district": "Pedra Linda",
        "street": "Rua Pedra Bonita",
        "zipcode": "35170-650"
    },
    {
        "city": "Coronel Fabriciano",
        "state": "MG",
        "district": "Universitário",
        "street": "Rua Paracatu",
        "zipcode": "35171-178"
    },
    {
        "city": "Coronel Fabriciano",
        "state": "MG",
        "district": "Santa Terezinha I",
        "street": "Rua Paracatu",
        "zipcode": "35171-135"
    }
]