[
    {
        "city": "Extrema",
        "state": "MG",
        "district": null,
        "street": "Zona Rural",
        "zipcode": "37640-995"
    },
    {
        "city": "Extrema",
        "state": "MG",
        "district": "Distrito Industrial dos Pires",
        "street": "Rua Josepha Gomes de Souza 382 Galpão ML  Multilaser",
        "zipcode": "37640-901"
    },
    {
        "city": "Extrema",
        "state": "MG",
        "district": "Distrito Industrial dos Pires",
        "street": "Rua Josepha Gomes de Souza 382  Multikids",
        "zipcode": "37640-902"
    },
    {
        "city": "Extrema",
        "state": "MG",
        "district": "Distrito Industrial dos Pires",
        "street": "Rua Josepha Gomes de Souza 85  Centauro",
        "zipcode": "37640-910"
    },
    {
        "city": "Extrema",
        "state": "MG",
        "district": "Bairro dos Pires",
        "street": "Estrada Municipal Maria Margarida Pinto 02  Dafiti",
        "zipcode": "37640-915"
    },
    {
        "city": "Extrema",
        "state": "MG",
        "district": "Bairro dos Pires",
        "street": "Rua Maria Margarida Pinto 742 Pavilhão B  NETSHOES",
        "zipcode": "37640-920"
    },
    {
        "city": "Extrema",
        "state": "MG",
        "district": "Centro",
        "street": "Rua Governador Valadares 112",
        "zipcode": "37640-970"
    },
    {
        "city": "Extrema",
        "state": "MG",
        "district": "Centro",
        "street": "Rua João Mendes 230",
        "zipcode": "37640-971"
    },
    {
        "city": "Extrema",
        "state": "MG",
        "district": "Centro",
        "street": "Rua Antônio Onisto 68",
        "zipcode": "37640-972"
    },
    {
        "city": "Extrema",
        "state": "MG",
        "district": "",
        "street": "",
        "zipcode": "37640-000"
    },
    {
        "city": "Extrema",
        "state": "MG",
        "district": "Distrito Industrial dos Pires",
        "street": "Rua Josepha Gomes de Souza 382  Multilaser/Consumidor",
        "zipcode": "37640-904"
    },
    {
        "city": "Extrema",
        "state": "MG",
        "district": null,
        "street": "Bairro dos Forjos",
        "zipcode": "37640-992"
    },
    {
        "city": "Extrema",
        "state": "MG",
        "district": null,
        "street": "Zona Rural",
        "zipcode": "37640-993"
    },
    {
        "city": "Extrema",
        "state": "MG",
        "district": "Distrito Industrial dos Pires",
        "street": "Rua Josepha Gomes de Souza 298 Galpão 03",
        "zipcode": "37640-930"
    },
    {
        "city": "Extrema",
        "state": "MG",
        "district": null,
        "street": "Zona Rural",
        "zipcode": "37640-990"
    },
    {
        "city": "Extrema",
        "state": "MG",
        "district": null,
        "street": "Rodovia Fernão Dias",
        "zipcode": "37640-991"
    },
    {
        "city": "Extrema",
        "state": "MG",
        "district": "Distrito Industrial dos Pires",
        "street": "Rua Josepha Gomes de Souza 382",
        "zipcode": "37640-900"
    },
    {
        "city": "Extrema",
        "state": "MG",
        "district": null,
        "street": "Zona Rural",
        "zipcode": "37640-994"
    }
]