[
    {
        "city": "Inhapim",
        "state": "MG",
        "district": "Macadame",
        "street": "Rua João Barbosa Neto s/n",
        "zipcode": "35330-974"
    },
    {
        "city": "Inhapim",
        "state": "MG",
        "district": "São Tomé de Minas",
        "street": "Praça Ricardo Neiva 12",
        "zipcode": "35330-975"
    },
    {
        "city": "Inhapim",
        "state": "MG",
        "district": "Jerusalém",
        "street": "Rua Otávio Brasiliense de Araújo 43",
        "zipcode": "35330-971"
    },
    {
        "city": "Inhapim",
        "state": "MG",
        "district": "",
        "street": "",
        "zipcode": "35330-000"
    },
    {
        "city": "Inhapim",
        "state": "MG",
        "district": "Bom Jesus do Rio Preto",
        "street": "Rua Jacinto Leocádio 49",
        "zipcode": "35331-970"
    },
    {
        "city": "Inhapim",
        "state": "MG",
        "district": "Santo Antônio do Alegre",
        "street": "Praça José Felix 21",
        "zipcode": "35330-973"
    },
    {
        "city": "Inhapim",
        "state": "MG",
        "district": "Novo Horizonte",
        "street": "Avenida Geraldino Nunes de Morais 38",
        "zipcode": "35330-972"
    },
    {
        "city": "Inhapim",
        "state": "MG",
        "district": "Centro",
        "street": "Rua Carmo Viggiano 47",
        "zipcode": "35330-970"
    }
]