[
    {
        "city": "Itabira",
        "state": "MG",
        "district": "Boa Esperança",
        "street": "Rua Leão XX III",
        "zipcode": "35903-614"
    },
    {
        "city": "Itabira",
        "state": "MG",
        "district": "Boa Esperança",
        "street": "Rua RZ",
        "zipcode": "35903-604"
    },
    {
        "city": "Itabira",
        "state": "MG",
        "district": "Vale do Sol",
        "street": "Rua José Felipe Adão (Residencial Vale do Sol)",
        "zipcode": "35900-813"
    },
    {
        "city": "Itabira",
        "state": "MG",
        "district": "Santa Matilde",
        "street": "Rua B",
        "zipcode": "35900-627"
    },
    {
        "city": "Itabira",
        "state": "MG",
        "district": null,
        "street": "Avenida João Paulo I",
        "zipcode": "35902-990"
    },
    {
        "city": "Itabira",
        "state": "MG",
        "district": "Santa Matilde",
        "street": "Rua Cinco",
        "zipcode": "35900-631"
    },
    {
        "city": "Itabira",
        "state": "MG",
        "district": "Pará",
        "street": "Rua João Rodrigues de Bragança",
        "zipcode": "35900-029"
    },
    {
        "city": "Itabira",
        "state": "MG",
        "district": "Vale do Sol",
        "street": "Avenida Prefeito Jairo Magalhães (Residencial Vale do Sol)",
        "zipcode": "35900-812"
    },
    {
        "city": "Itabira",
        "state": "MG",
        "district": "Boa Esperança",
        "street": "Beco Boa Esperança",
        "zipcode": "35903-593"
    },
    {
        "city": "Itabira",
        "state": "MG",
        "district": "Santa Matilde",
        "street": "Rua Oito",
        "zipcode": "35900-629"
    },
    {
        "city": "Itabira",
        "state": "MG",
        "district": "Boa Esperança",
        "street": "Rua Belo Campo",
        "zipcode": "35903-618"
    },
    {
        "city": "Itabira",
        "state": "MG",
        "district": null,
        "street": "Rua Acre",
        "zipcode": "35902-993"
    },
    {
        "city": "Itabira",
        "state": "MG",
        "district": "São Pedro",
        "street": "Rua Girassol",
        "zipcode": "35900-128"
    },
    {
        "city": "Itabira",
        "state": "MG",
        "district": "Praia",
        "street": "Rua Caetés",
        "zipcode": "35900-275"
    },
    {
        "city": "Itabira",
        "state": "MG",
        "district": "Gabiroba",
        "street": "Rua D",
        "zipcode": "35902-054"
    },
    {
        "city": "Itabira",
        "state": "MG",
        "district": "Pará",
        "street": "Rua do Cascalho",
        "zipcode": "35900-050"
    },
    {
        "city": "Itabira",
        "state": "MG",
        "district": "Pará",
        "street": "Avenida Martins da Costa",
        "zipcode": "35900-047"
    },
    {
        "city": "Itabira",
        "state": "MG",
        "district": "Esplanada da Estação",
        "street": "Avenida Mauro Ribeiro Lage",
        "zipcode": "35900-560"
    },
    {
        "city": "Itabira",
        "state": "MG",
        "district": "Major Lage de Baixo",
        "street": "Avenida Mangueiras",
        "zipcode": "35900-235"
    },
    {
        "city": "Itabira",
        "state": "MG",
        "district": "São Pedro",
        "street": "Avenida das Rosas",
        "zipcode": "35900-117"
    },
    {
        "city": "Itabira",
        "state": "MG",
        "district": "Vila Santa Izabel",
        "street": "Avenida Carlos de Paula Andrade",
        "zipcode": "35900-206"
    },
    {
        "city": "Itabira",
        "state": "MG",
        "district": "Vila Senhora de Fátima",
        "street": "Rua Antonina Moreira",
        "zipcode": "35900-259"
    },
    {
        "city": "Itabira",
        "state": "MG",
        "district": "Gabiroba (1ª Seção)",
        "street": "Avenida dos Médicos",
        "zipcode": "35900-408"
    },
    {
        "city": "Itabira",
        "state": "MG",
        "district": "Gabiroba (1ª Seção)",
        "street": "Avenida dos Professores",
        "zipcode": "35900-409"
    },
    {
        "city": "Itabira",
        "state": "MG",
        "district": "Bela Vista",
        "street": "Avenida Bela Vista",
        "zipcode": "35900-602"
    },
    {
        "city": "Itabira",
        "state": "MG",
        "district": "Santo Antônio",
        "street": "Alameda José Dorotéia Reis",
        "zipcode": "35900-648"
    },
    {
        "city": "Itabira",
        "state": "MG",
        "district": "Praia",
        "street": "Avenida Cristina Gazire",
        "zipcode": "35900-680"
    },
    {
        "city": "Itabira",
        "state": "MG",
        "district": "Nossa Senhora das Oliveiras",
        "street": "Rua Caratinga",
        "zipcode": "35900-170"
    },
    {
        "city": "Itabira",
        "state": "MG",
        "district": "Colina da Praia",
        "street": "Praça Geraldo Denísio",
        "zipcode": "35900-686"
    },
    {
        "city": "Itabira",
        "state": "MG",
        "district": "Vila São Joaquim",
        "street": "Avenida Madalena Pereira dos Santos",
        "zipcode": "35900-714"
    },
    {
        "city": "Itabira",
        "state": "MG",
        "district": "Condomínio Vila Residencial de Conceição",
        "street": "Alameda Ipê Amarelo",
        "zipcode": "35901-171"
    },
    {
        "city": "Itabira",
        "state": "MG",
        "district": "Condomínio Vila Residencial de Conceição",
        "street": "Alameda Lírio",
        "zipcode": "35901-172"
    },
    {
        "city": "Itabira",
        "state": "MG",
        "district": "Flamboyant",
        "street": "Rua Arp Procópio",
        "zipcode": "35901-635"
    },
    {
        "city": "Itabira",
        "state": "MG",
        "district": "Flamboyant",
        "street": "Rua Antonio Lage",
        "zipcode": "35901-638"
    },
    {
        "city": "Itabira",
        "state": "MG",
        "district": "Flamboyant",
        "street": "Rua Athanázio Fernandes da Silva",
        "zipcode": "35901-640"
    },
    {
        "city": "Itabira",
        "state": "MG",
        "district": "São Pedro",
        "street": "Praça Sílvio Ferreira",
        "zipcode": "35900-644"
    },
    {
        "city": "Itabira",
        "state": "MG",
        "district": "Gabiroba",
        "street": "Avenida Almir Pessoa de Magalhães",
        "zipcode": "35902-085"
    },
    {
        "city": "Itabira",
        "state": "MG",
        "district": "Gabiroba",
        "street": "Avenida João Lage",
        "zipcode": "35902-086"
    },
    {
        "city": "Itabira",
        "state": "MG",
        "district": "Área Rural de Itabira",
        "street": "Área Rural",
        "zipcode": "35904-899"
    },
    {
        "city": "Itabira",
        "state": "MG",
        "district": "Bela Vista",
        "street": "Rua Antônio Germano Barbosa",
        "zipcode": "35900-096"
    },
    {
        "city": "Itabira",
        "state": "MG",
        "district": "Nossa Senhora das Oliveiras",
        "street": "Avenida Um",
        "zipcode": "35900-160"
    },
    {
        "city": "Itabira",
        "state": "MG",
        "district": "Nossa Senhora das Oliveiras",
        "street": "Rua A",
        "zipcode": "35900-172"
    },
    {
        "city": "Itabira",
        "state": "MG",
        "district": "Vila Amélia",
        "street": "Avenida Stela Matutina",
        "zipcode": "35900-251"
    },
    {
        "city": "Itabira",
        "state": "MG",
        "district": "Pará",
        "street": "Rua Dinorah de Alvarenga",
        "zipcode": "35900-040"
    },
    {
        "city": "Itabira",
        "state": "MG",
        "district": "Pará",
        "street": "Rua Doutor Olinto Andrade",
        "zipcode": "35900-043"
    },
    {
        "city": "Itabira",
        "state": "MG",
        "district": "Pará",
        "street": "Rua Doutor José de Grisólia",
        "zipcode": "35900-045"
    },
    {
        "city": "Itabira",
        "state": "MG",
        "district": "Pará",
        "street": "Rua Dom Prudêncio",
        "zipcode": "35900-048"
    },
    {
        "city": "Itabira",
        "state": "MG",
        "district": "Campestre I",
        "street": "Rua Desembargador Drumond",
        "zipcode": "35900-079"
    },
    {
        "city": "Itabira",
        "state": "MG",
        "district": "São Pedro",
        "street": "Rua das Violetas",
        "zipcode": "35900-133"
    },
    {
        "city": "Itabira",
        "state": "MG",
        "district": "Nossa Senhora das Oliveiras",
        "street": "Rua Diamantina",
        "zipcode": "35900-164"
    },
    {
        "city": "Itabira",
        "state": "MG",
        "district": "Nossa Senhora das Oliveiras",
        "street": "Rua Curvelo",
        "zipcode": "35900-166"
    },
    {
        "city": "Itabira",
        "state": "MG",
        "district": "Nova Vista",
        "street": "Rua das Marés",
        "zipcode": "35900-181"
    },
    {
        "city": "Itabira",
        "state": "MG",
        "district": "Penha",
        "street": "Rua Emídio Alves Ferreira",
        "zipcode": "35900-067"
    },
    {
        "city": "Itabira",
        "state": "MG",
        "district": "Bela Vista",
        "street": "Rua João Dias Duarte",
        "zipcode": "35900-095"
    },
    {
        "city": "Itabira",
        "state": "MG",
        "district": "Nova Vista",
        "street": "Rua Esperança",
        "zipcode": "35900-179"
    },
    {
        "city": "Itabira",
        "state": "MG",
        "district": "Juca Rosa",
        "street": "Rua Germanos",
        "zipcode": "35900-188"
    },
    {
        "city": "Itabira",
        "state": "MG",
        "district": "Juca Rosa",
        "street": "Rua Flamboyant",
        "zipcode": "35900-192"
    },
    {
        "city": "Itabira",
        "state": "MG",
        "district": "Vila São Geraldo",
        "street": "Rua Jatobá",
        "zipcode": "35900-196"
    },
    {
        "city": "Itabira",
        "state": "MG",
        "district": "Vila Santa Izabel",
        "street": "Rua Geraldo Santana dos Santos",
        "zipcode": "35900-207"
    },
    {
        "city": "Itabira",
        "state": "MG",
        "district": "Major Lage de Baixo",
        "street": "Rua Grafite",
        "zipcode": "35900-222"
    },
    {
        "city": "Itabira",
        "state": "MG",
        "district": "Praia",
        "street": "Rua João Camilo de Oliveira Torres",
        "zipcode": "35900-270"
    },
    {
        "city": "Itabira",
        "state": "MG",
        "district": "Campestre I",
        "street": "Rua Nossa Senhora da Piedade",
        "zipcode": "35900-073"
    },
    {
        "city": "Itabira",
        "state": "MG",
        "district": "Bela Vista",
        "street": "Rua Raimundo de Souza",
        "zipcode": "35900-092"
    },
    {
        "city": "Itabira",
        "state": "MG",
        "district": "Vila Nações Unidas",
        "street": "Rua México",
        "zipcode": "35900-055"
    },
    {
        "city": "Itabira",
        "state": "MG",
        "district": "Campestre I",
        "street": "Rua Odorico Albuquerque",
        "zipcode": "35900-077"
    },
    {
        "city": "Itabira",
        "state": "MG",
        "district": "Bela Vista",
        "street": "Rua Professor Max de Caux",
        "zipcode": "35900-100"
    },
    {
        "city": "Itabira",
        "state": "MG",
        "district": "Nossa Senhora das Oliveiras",
        "street": "Rua Ouro Preto",
        "zipcode": "35900-161"
    },
    {
        "city": "Itabira",
        "state": "MG",
        "district": "Nossa Senhora das Oliveiras",
        "street": "Rua Morro do Pilar",
        "zipcode": "35900-173"
    },
    {
        "city": "Itabira",
        "state": "MG",
        "district": "Vila Piedade",
        "street": "Rua Luiz Ventura",
        "zipcode": "35900-205"
    },
    {
        "city": "Itabira",
        "state": "MG",
        "district": "Vila Amélia",
        "street": "Rua Júpiter",
        "zipcode": "35900-257"
    },
    {
        "city": "Itabira",
        "state": "MG",
        "district": "Praia",
        "street": "Rua Monlevade",
        "zipcode": "35900-272"
    },
    {
        "city": "Itabira",
        "state": "MG",
        "district": "Penha",
        "street": "Rua Tenente Cândido Eliziário",
        "zipcode": "35900-069"
    },
    {
        "city": "Itabira",
        "state": "MG",
        "district": "São Pedro",
        "street": "Travessa das Margaridas",
        "zipcode": "35900-122"
    },
    {
        "city": "Itabira",
        "state": "MG",
        "district": "Nossa Senhora das Oliveiras",
        "street": "Rua Venda Nova",
        "zipcode": "35900-171"
    },
    {
        "city": "Itabira",
        "state": "MG",
        "district": "Alto Pereira",
        "street": "Rua Tenente Antônio Camilo",
        "zipcode": "35900-247"
    },
    {
        "city": "Itabira",
        "state": "MG",
        "district": "Pará",
        "street": "Rua Joaquim Murtinho",
        "zipcode": "35900-037"
    },
    {
        "city": "Itabira",
        "state": "MG",
        "district": "Pará",
        "street": "Rua Cassimiro Andrade",
        "zipcode": "35900-038"
    },
    {
        "city": "Itabira",
        "state": "MG",
        "district": "Santo Antônio",
        "street": "Rua Professora Didi Andrade",
        "zipcode": "35900-109"
    },
    {
        "city": "Itabira",
        "state": "MG",
        "district": "Vila Nações Unidas",
        "street": "Avenida France de Paula Andrade",
        "zipcode": "35900-053"
    },
    {
        "city": "Itabira",
        "state": "MG",
        "district": "Eldorado",
        "street": "Rua Cônego José Lopes Magalhães",
        "zipcode": "35900-140"
    },
    {
        "city": "Itabira",
        "state": "MG",
        "district": "Quatorze de Fevereiro",
        "street": "Avenida Duque de Caxias",
        "zipcode": "35900-236"
    },
    {
        "city": "Itabira",
        "state": "MG",
        "district": "Colina da Praia",
        "street": "Rua Agapanthos",
        "zipcode": "35900-323"
    },
    {
        "city": "Itabira",
        "state": "MG",
        "district": "Esplanada da Estação",
        "street": "Avenida Villa Lobos",
        "zipcode": "35900-557"
    },
    {
        "city": "Itabira",
        "state": "MG",
        "district": "Esplanada da Estação",
        "street": "Avenida Mauro Ribeiro Lage",
        "zipcode": "35900-562"
    },
    {
        "city": "Itabira",
        "state": "MG",
        "district": "Esplanada da Estação",
        "street": "Avenida Mauro Ribeiro Lage",
        "zipcode": "35900-564"
    },
    {
        "city": "Itabira",
        "state": "MG",
        "district": "Água Fresca",
        "street": "Rua Candidópolis",
        "zipcode": "35900-445"
    },
    {
        "city": "Itabira",
        "state": "MG",
        "district": "Juca Rosa",
        "street": "Praça Maricas Magalhães",
        "zipcode": "35900-693"
    },
    {
        "city": "Itabira",
        "state": "MG",
        "district": "Juca Rosa",
        "street": "Praça dos Cavaleiros",
        "zipcode": "35900-694"
    },
    {
        "city": "Itabira",
        "state": "MG",
        "district": "Colina da Praia",
        "street": "Rua Dois",
        "zipcode": "35900-291"
    },
    {
        "city": "Itabira",
        "state": "MG",
        "district": "Gabiroba (1ª Seção)",
        "street": "Rua dos Jornalistas",
        "zipcode": "35900-422"
    },
    {
        "city": "Itabira",
        "state": "MG",
        "district": "Amazonas",
        "street": "Rua da Bahia",
        "zipcode": "35900-377"
    },
    {
        "city": "Itabira",
        "state": "MG",
        "district": "Vale do Sol",
        "street": "Rua Chiquinho Alfaiate (Residencial Vale do Sol)",
        "zipcode": "35900-818"
    },
    {
        "city": "Itabira",
        "state": "MG",
        "district": "Alto da Boa Vista",
        "street": "Rua Cinco",
        "zipcode": "35900-851"
    },
    {
        "city": "Itabira",
        "state": "MG",
        "district": "Machado",
        "street": "Rua D",
        "zipcode": "35901-018"
    },
    {
        "city": "Itabira",
        "state": "MG",
        "district": "Machado",
        "street": "Rua Dom Pedro I",
        "zipcode": "35901-024"
    },
    {
        "city": "Itabira",
        "state": "MG",
        "district": "Colina da Praia",
        "street": "Rua Eucalípto",
        "zipcode": "35900-333"
    },
    {
        "city": "Itabira",
        "state": "MG",
        "district": "Doze de Março",
        "street": "Rua José Basílio Caetano",
        "zipcode": "35900-348"
    },
    {
        "city": "Itabira",
        "state": "MG",
        "district": "Eldorado",
        "street": "Rua Haidée de Alvarenga",
        "zipcode": "35900-148"
    },
    {
        "city": "Itabira",
        "state": "MG",
        "district": "Vila Piedade",
        "street": "Rua José Hilário",
        "zipcode": "35900-202"
    },
    {
        "city": "Itabira",
        "state": "MG",
        "district": "Cônego Guilhermino Pereira",
        "street": "Rua Joaquim Eugênio Braga",
        "zipcode": "35900-366"
    },
    {
        "city": "Itabira",
        "state": "MG",
        "district": "Machado",
        "street": "Rua José Donato de Souza",
        "zipcode": "35901-008"
    },
    {
        "city": "Itabira",
        "state": "MG",
        "district": "Machado",
        "street": "Rua Gameleira",
        "zipcode": "35901-027"
    },
    {
        "city": "Itabira",
        "state": "MG",
        "district": "João XXIII",
        "street": "Rua H",
        "zipcode": "35901-044"
    },
    {
        "city": "Itabira",
        "state": "MG",
        "district": "Praia",
        "street": "Rua Piracicaba",
        "zipcode": "35900-282"
    },
    {
        "city": "Itabira",
        "state": "MG",
        "district": "Colina da Praia",
        "street": "Rua Quatro",
        "zipcode": "35900-293"
    },
    {
        "city": "Itabira",
        "state": "MG",
        "district": "Panorama",
        "street": "Rua Maria do Carmo Lage",
        "zipcode": "35900-339"
    },
    {
        "city": "Itabira",
        "state": "MG",
        "district": "Doze de Março",
        "street": "Rua Prefeito Virgilino Quintão",
        "zipcode": "35900-346"
    },
    {
        "city": "Itabira",
        "state": "MG",
        "district": "Major Lage de Cima",
        "street": "Rua Quincas Custódio",
        "zipcode": "35900-397"
    },
    {
        "city": "Itabira",
        "state": "MG",
        "district": "Amazonas",
        "street": "Rua Mato Grosso",
        "zipcode": "35900-372"
    },
    {
        "city": "Itabira",
        "state": "MG",
        "district": "Vila Santa Rosa",
        "street": "Rua Mauro Hilário Martins",
        "zipcode": "35900-705"
    },
    {
        "city": "Itabira",
        "state": "MG",
        "district": "Vila São Joaquim",
        "street": "Rua Randolfo Martins da Costa",
        "zipcode": "35900-713"
    },
    {
        "city": "Itabira",
        "state": "MG",
        "district": "Novo Amazonas",
        "street": "Rua Minas Gerais",
        "zipcode": "35900-736"
    },
    {
        "city": "Itabira",
        "state": "MG",
        "district": "Colina da Praia",
        "street": "Rua Vinte e Nove",
        "zipcode": "35900-317"
    },
    {
        "city": "Itabira",
        "state": "MG",
        "district": "Novo Amazonas",
        "street": "Rua Santa Catarina",
        "zipcode": "35900-354"
    },
    {
        "city": "Itabira",
        "state": "MG",
        "district": "Amazonas",
        "street": "Rua São Paulo",
        "zipcode": "35900-373"
    },
    {
        "city": "Itabira",
        "state": "MG",
        "district": "Amazonas",
        "street": "Rua Rio de Janeiro",
        "zipcode": "35900-374"
    },
    {
        "city": "Itabira",
        "state": "MG",
        "district": "Santa Tereza (Cvrd)",
        "street": "Rua Rosa Francisca Domingues",
        "zipcode": "35900-441"
    },
    {
        "city": "Itabira",
        "state": "MG",
        "district": "Pará",
        "street": "Travessa Mestre Emílio",
        "zipcode": "35900-498"
    },
    {
        "city": "Itabira",
        "state": "MG",
        "district": "Eldorado",
        "street": "Travessa Olinto Martins de Souza",
        "zipcode": "35900-605"
    },
    {
        "city": "Itabira",
        "state": "MG",
        "district": "Santo Antônio",
        "street": "Travessa Clodoaldo Caigher",
        "zipcode": "35900-652"
    },
    {
        "city": "Itabira",
        "state": "MG",
        "district": "Major Lage de Cima",
        "street": "Rua Ametista",
        "zipcode": "35900-399"
    },
    {
        "city": "Itabira",
        "state": "MG",
        "district": "Água Fresca",
        "street": "Rua Santa Isabel",
        "zipcode": "35900-461"
    },
    {
        "city": "Itabira",
        "state": "MG",
        "district": "Vila Bethânia",
        "street": "Avenida Galiléia",
        "zipcode": "35900-471"
    },
    {
        "city": "Itabira",
        "state": "MG",
        "district": "Centro",
        "street": "Travessa Nove de Outubro",
        "zipcode": "35900-528"
    },
    {
        "city": "Itabira",
        "state": "MG",
        "district": "Eldorado",
        "street": "Avenida José Marcos de Almeida",
        "zipcode": "35900-135"
    },
    {
        "city": "Itabira",
        "state": "MG",
        "district": "Colina da Praia",
        "street": "Rua Seis",
        "zipcode": "35900-295"
    },
    {
        "city": "Itabira",
        "state": "MG",
        "district": "Santa Inês",
        "street": "Rua Flogomiro Matos",
        "zipcode": "35900-884"
    },
    {
        "city": "Itabira",
        "state": "MG",
        "district": "Clóvis Alvim I",
        "street": "Rua Rinaldo Calheiros Duarte",
        "zipcode": "35901-002"
    },
    {
        "city": "Itabira",
        "state": "MG",
        "district": "Machado",
        "street": "Avenida Machado de Assis",
        "zipcode": "35901-007"
    },
    {
        "city": "Itabira",
        "state": "MG",
        "district": "João XXIII",
        "street": "Rua C",
        "zipcode": "35901-040"
    },
    {
        "city": "Itabira",
        "state": "MG",
        "district": "João XXIII",
        "street": "Rua Maurício Linhares Guerra",
        "zipcode": "35901-043"
    },
    {
        "city": "Itabira",
        "state": "MG",
        "district": "Santa Ruth",
        "street": "Rua José Venancio Paulino",
        "zipcode": "35901-077"
    },
    {
        "city": "Itabira",
        "state": "MG",
        "district": "Jardim Belvedere",
        "street": "Rua Prudente de Morais",
        "zipcode": "35901-445"
    },
    {
        "city": "Itabira",
        "state": "MG",
        "district": "Vila Conceição de Baixo",
        "street": "Rua dos Inglêses",
        "zipcode": "35901-083"
    },
    {
        "city": "Itabira",
        "state": "MG",
        "district": "Abóboras",
        "street": "Rua Cerejeira",
        "zipcode": "35901-151"
    },
    {
        "city": "Itabira",
        "state": "MG",
        "district": "Santa Marta",
        "street": "Rua Cinco",
        "zipcode": "35901-185"
    },
    {
        "city": "Itabira",
        "state": "MG",
        "district": "Buritis",
        "street": "Rua Damasceno",
        "zipcode": "35901-530"
    },
    {
        "city": "Itabira",
        "state": "MG",
        "district": "Gabiroba",
        "street": "Rua dos Enfermeiros",
        "zipcode": "35902-006"
    },
    {
        "city": "Itabira",
        "state": "MG",
        "district": "Gabiroba",
        "street": "Rua dos Pintores",
        "zipcode": "35902-014"
    },
    {
        "city": "Itabira",
        "state": "MG",
        "district": "Gabiroba",
        "street": "Rua dos Filósofos",
        "zipcode": "35902-015"
    },
    {
        "city": "Itabira",
        "state": "MG",
        "district": "Ribeira de Cima",
        "street": "Rua José João Bernadino",
        "zipcode": "35901-204"
    },
    {
        "city": "Itabira",
        "state": "MG",
        "district": "Bálsamos",
        "street": "Rua Hissopo",
        "zipcode": "35901-356"
    },
    {
        "city": "Itabira",
        "state": "MG",
        "district": "Vila Conceição de Baixo",
        "street": "Rua do Bálsamo",
        "zipcode": "35901-084"
    },
    {
        "city": "Itabira",
        "state": "MG",
        "district": "Vila Conceição de Baixo",
        "street": "Rua Alecrim",
        "zipcode": "35901-086"
    },
    {
        "city": "Itabira",
        "state": "MG",
        "district": "Santa Marta",
        "street": "Rua Sete",
        "zipcode": "35901-187"
    },
    {
        "city": "Itabira",
        "state": "MG",
        "district": "Ribeira de Cima",
        "street": "Rua Limeira",
        "zipcode": "35901-203"
    },
    {
        "city": "Itabira",
        "state": "MG",
        "district": "Fênix",
        "street": "Avenida Olímpio Domingos Cardoso",
        "zipcode": "35901-233"
    },
    {
        "city": "Itabira",
        "state": "MG",
        "district": "Fênix",
        "street": "Rua Três",
        "zipcode": "35901-242"
    },
    {
        "city": "Itabira",
        "state": "MG",
        "district": "Bálsamos",
        "street": "Rua Azevinho",
        "zipcode": "35901-358"
    },
    {
        "city": "Itabira",
        "state": "MG",
        "district": "Monsenhor José Lopes",
        "street": "Rua Antônio Carolino",
        "zipcode": "35901-415"
    },
    {
        "city": "Itabira",
        "state": "MG",
        "district": "Jardim Belvedere",
        "street": "Rua Marechal Deodoro da Fonseca",
        "zipcode": "35901-441"
    },
    {
        "city": "Itabira",
        "state": "MG",
        "district": "Jardim Belvedere",
        "street": "Rua Nilo Procópio Peçanha",
        "zipcode": "35901-451"
    },
    {
        "city": "Itabira",
        "state": "MG",
        "district": "Flamboyant",
        "street": "Rua Julieta Müller (Loteamento Flamboyant)",
        "zipcode": "35901-648"
    },
    {
        "city": "Itabira",
        "state": "MG",
        "district": "Nossa Senhora das Oliveiras",
        "street": "Rua Ouro Fino",
        "zipcode": "35901-680"
    },
    {
        "city": "Itabira",
        "state": "MG",
        "district": "Gabiroba",
        "street": "Rua DW",
        "zipcode": "35902-033"
    },
    {
        "city": "Itabira",
        "state": "MG",
        "district": "Gabiroba",
        "street": "Avenida DW",
        "zipcode": "35902-040"
    },
    {
        "city": "Itabira",
        "state": "MG",
        "district": "Gabiroba",
        "street": "Rua dos Feirantes",
        "zipcode": "35902-041"
    },
    {
        "city": "Itabira",
        "state": "MG",
        "district": "Gabiroba",
        "street": "Rua dos Bibliotecários",
        "zipcode": "35902-045"
    },
    {
        "city": "Itabira",
        "state": "MG",
        "district": "Gabiroba",
        "street": "Rua DW",
        "zipcode": "35902-048"
    },
    {
        "city": "Itabira",
        "state": "MG",
        "district": "Gabiroba",
        "street": "Rua Raimundo Nonato Araújo",
        "zipcode": "35902-056"
    },
    {
        "city": "Itabira",
        "state": "MG",
        "district": "Gabiroba",
        "street": "Rua dos Senadores",
        "zipcode": "35902-065"
    },
    {
        "city": "Itabira",
        "state": "MG",
        "district": "Gabiroba",
        "street": "Rua BW",
        "zipcode": "35902-075"
    },
    {
        "city": "Itabira",
        "state": "MG",
        "district": "Gabiroba",
        "street": "Rua dos Lanterneiros",
        "zipcode": "35902-101"
    },
    {
        "city": "Itabira",
        "state": "MG",
        "district": "Quatorze de Fevereiro",
        "street": "Rua Dona Modestina",
        "zipcode": "35900-238"
    },
    {
        "city": "Itabira",
        "state": "MG",
        "district": "Praia",
        "street": "Rua São Domingos do Prata",
        "zipcode": "35900-276"
    },
    {
        "city": "Itabira",
        "state": "MG",
        "district": "Colina da Praia",
        "street": "Rua Hugo Duarte Braga",
        "zipcode": "35900-290"
    },
    {
        "city": "Itabira",
        "state": "MG",
        "district": "Esplanada da Estação",
        "street": "Rua Tom Jobim",
        "zipcode": "35900-552"
    },
    {
        "city": "Itabira",
        "state": "MG",
        "district": "Santo Antônio",
        "street": "Travessa Raimundo Macedo",
        "zipcode": "35900-646"
    },
    {
        "city": "Itabira",
        "state": "MG",
        "district": "Major Lage de Cima",
        "street": "Rua Venâncio Augusto Gomes",
        "zipcode": "35900-842"
    },
    {
        "city": "Itabira",
        "state": "MG",
        "district": "Santa Inês",
        "street": "Rua Sebastião Leandro Silva",
        "zipcode": "35900-880"
    },
    {
        "city": "Itabira",
        "state": "MG",
        "district": "Santa Ruth",
        "street": "Avenida Vinte",
        "zipcode": "35901-058"
    },
    {
        "city": "Itabira",
        "state": "MG",
        "district": "Santa Ruth",
        "street": "Rua Dezenove",
        "zipcode": "35901-063"
    },
    {
        "city": "Itabira",
        "state": "MG",
        "district": "Vila Conceição de Baixo",
        "street": "Rua Caviúna",
        "zipcode": "35901-064"
    },
    {
        "city": "Itabira",
        "state": "MG",
        "district": "Santa Ruth",
        "street": "Rua João Reis",
        "zipcode": "35901-067"
    },
    {
        "city": "Itabira",
        "state": "MG",
        "district": "Vila Conceição de Baixo",
        "street": "Rua Marcela",
        "zipcode": "35901-085"
    },
    {
        "city": "Itabira",
        "state": "MG",
        "district": "Bálsamos",
        "street": "Rua Antônio Lopes Esteves",
        "zipcode": "35901-367"
    },
    {
        "city": "Itabira",
        "state": "MG",
        "district": "Gabiroba",
        "street": "Rua dos Vigilantes",
        "zipcode": "35902-012"
    },
    {
        "city": "Itabira",
        "state": "MG",
        "district": "Gabiroba",
        "street": "Rua dos Pedreiros",
        "zipcode": "35902-018"
    },
    {
        "city": "Itabira",
        "state": "MG",
        "district": "Gabiroba",
        "street": "Rua DW",
        "zipcode": "35902-034"
    },
    {
        "city": "Itabira",
        "state": "MG",
        "district": "Gabiroba",
        "street": "Rua Maria Figueiredo",
        "zipcode": "35902-110"
    },
    {
        "city": "Itabira",
        "state": "MG",
        "district": "Jardim dos Ipês",
        "street": "Rua Oito",
        "zipcode": "35903-007"
    },
    {
        "city": "Itabira",
        "state": "MG",
        "district": "Jardim dos Ipês",
        "street": "Rua Ipê Uma",
        "zipcode": "35903-009"
    },
    {
        "city": "Itabira",
        "state": "MG",
        "district": "Jardim dos Ipês",
        "street": "Rua Ipê da Amazônia",
        "zipcode": "35903-014"
    },
    {
        "city": "Itabira",
        "state": "MG",
        "district": "Barreiro",
        "street": "Rua Aurora Lage de Andrade",
        "zipcode": "35903-037"
    },
    {
        "city": "Itabira",
        "state": "MG",
        "district": "Distrito Industrial",
        "street": "Avenida Hematita",
        "zipcode": "35903-051"
    },
    {
        "city": "Itabira",
        "state": "MG",
        "district": "Pedreira",
        "street": "Rodovia BR",
        "zipcode": "35904-011"
    },
    {
        "city": "Itabira",
        "state": "MG",
        "district": "Pedreira",
        "street": "Rua Canário",
        "zipcode": "35904-013"
    },
    {
        "city": "Itabira",
        "state": "MG",
        "district": "Quintas da Rocinha",
        "street": "Rua Capim Cheiroso",
        "zipcode": "35904-101"
    },
    {
        "city": "Itabira",
        "state": "MG",
        "district": "Quintas da Rocinha",
        "street": "Rua dos Vagalumes",
        "zipcode": "35904-105"
    },
    {
        "city": "Itabira",
        "state": "MG",
        "district": "Major Lage de Baixo",
        "street": "Rua Manganês",
        "zipcode": "35900-223"
    },
    {
        "city": "Itabira",
        "state": "MG",
        "district": "Santa Ruth",
        "street": "Rua Onze",
        "zipcode": "35901-066"
    },
    {
        "city": "Itabira",
        "state": "MG",
        "district": "Santa Ruth",
        "street": "Rua Dois",
        "zipcode": "35901-076"
    },
    {
        "city": "Itabira",
        "state": "MG",
        "district": "Ribeira de Baixo",
        "street": "Rua Poney",
        "zipcode": "35903-028"
    },
    {
        "city": "Itabira",
        "state": "MG",
        "district": "Pedreira",
        "street": "Rua Curió",
        "zipcode": "35904-018"
    },
    {
        "city": "Itabira",
        "state": "MG",
        "district": "Bálsamos",
        "street": "Rua Rebeca Fatala Sella",
        "zipcode": "35901-365"
    },
    {
        "city": "Itabira",
        "state": "MG",
        "district": "Santa Ruth",
        "street": "Rua Dezoito",
        "zipcode": "35901-062"
    },
    {
        "city": "Itabira",
        "state": "MG",
        "district": "São Marcos",
        "street": "Rua Uruguai",
        "zipcode": "35900-753"
    },
    {
        "city": "Itabira",
        "state": "MG",
        "district": "Bálsamos",
        "street": "Rua Aloés",
        "zipcode": "35901-355"
    },
    {
        "city": "Itabira",
        "state": "MG",
        "district": "São Pedro",
        "street": "Rua Amor",
        "zipcode": "35900-129"
    },
    {
        "city": "Itabira",
        "state": "MG",
        "district": "Eldorado",
        "street": "Avenida W",
        "zipcode": "35900-136"
    },
    {
        "city": "Itabira",
        "state": "MG",
        "district": "Boa Esperança",
        "street": "Rua RZ",
        "zipcode": "35903-603"
    },
    {
        "city": "Itabira",
        "state": "MG",
        "district": "Nossa Senhora das Oliveiras",
        "street": "Avenida Mariana",
        "zipcode": "35900-159"
    },
    {
        "city": "Itabira",
        "state": "MG",
        "district": "Campestre I",
        "street": "Avenida Cauê",
        "zipcode": "35900-072"
    },
    {
        "city": "Itabira",
        "state": "MG",
        "district": "São Pedro",
        "street": "Avenida das Rosas",
        "zipcode": "35900-118"
    },
    {
        "city": "Itabira",
        "state": "MG",
        "district": "Campestre I",
        "street": "Rua Capitão Tomé",
        "zipcode": "35900-084"
    },
    {
        "city": "Itabira",
        "state": "MG",
        "district": "Campestre I",
        "street": "Rua Carlos Augusto Paiva",
        "zipcode": "35900-090"
    },
    {
        "city": "Itabira",
        "state": "MG",
        "district": "Eldorado",
        "street": "Avenida W",
        "zipcode": "35900-137"
    },
    {
        "city": "Itabira",
        "state": "MG",
        "district": "Bela Vista",
        "street": "Rua Carlindo Augusto Neves",
        "zipcode": "35900-098"
    },
    {
        "city": "Itabira",
        "state": "MG",
        "district": "Gabiroba",
        "street": "Rua Afonso Paulo dos Reis",
        "zipcode": "35902-078"
    },
    {
        "city": "Itabira",
        "state": "MG",
        "district": "Pará",
        "street": "Rua Braz Martins",
        "zipcode": "35900-032"
    },
    {
        "city": "Itabira",
        "state": "MG",
        "district": "Centro",
        "street": "Praça do Centenário",
        "zipcode": "35900-023"
    },
    {
        "city": "Itabira",
        "state": "MG",
        "district": "Centro",
        "street": "Rua Major Lage",
        "zipcode": "35900-019"
    },
    {
        "city": "Itabira",
        "state": "MG",
        "district": "Centro",
        "street": "Rua Major Paulo",
        "zipcode": "35900-024"
    },
    {
        "city": "Itabira",
        "state": "MG",
        "district": "Pará",
        "street": "Rua Minervino Bethônico",
        "zipcode": "35900-036"
    },
    {
        "city": "Itabira",
        "state": "MG",
        "district": "Pará",
        "street": "Rua Raul Alvarenga",
        "zipcode": "35900-033"
    },
    {
        "city": "Itabira",
        "state": "MG",
        "district": "Pará",
        "street": "Rua Três Irmãos",
        "zipcode": "35900-031"
    },
    {
        "city": "Itabira",
        "state": "MG",
        "district": "Centro",
        "street": "Rua Zeca Amâncio",
        "zipcode": "35900-027"
    },
    {
        "city": "Itabira",
        "state": "MG",
        "district": "Boa Esperança",
        "street": "Rua Pio X",
        "zipcode": "35903-615"
    },
    {
        "city": "Itabira",
        "state": "MG",
        "district": "Eldorado",
        "street": "Rua B",
        "zipcode": "35900-145"
    },
    {
        "city": "Itabira",
        "state": "MG",
        "district": "Nossa Senhora das Oliveiras",
        "street": "Rua Carandaí",
        "zipcode": "35900-169"
    },
    {
        "city": "Itabira",
        "state": "MG",
        "district": "Machado",
        "street": "Rua Castelo Branco",
        "zipcode": "35901-025"
    },
    {
        "city": "Itabira",
        "state": "MG",
        "district": "Eldorado",
        "street": "Rua Cinco",
        "zipcode": "35900-156"
    },
    {
        "city": "Itabira",
        "state": "MG",
        "district": "Nova Vista",
        "street": "Rua Arco Iris",
        "zipcode": "35900-176"
    },
    {
        "city": "Itabira",
        "state": "MG",
        "district": "Juca Rosa",
        "street": "Rua Camélia",
        "zipcode": "35900-191"
    },
    {
        "city": "Itabira",
        "state": "MG",
        "district": "Major Lage de Baixo",
        "street": "Rua B",
        "zipcode": "35900-220"
    },
    {
        "city": "Itabira",
        "state": "MG",
        "district": "Major Lage de Baixo",
        "street": "Rua Abraim José Gazire",
        "zipcode": "35900-231"
    },
    {
        "city": "Itabira",
        "state": "MG",
        "district": "Vila Senhora de Fátima",
        "street": "Caminho do Poço",
        "zipcode": "35900-262"
    },
    {
        "city": "Itabira",
        "state": "MG",
        "district": "Praia",
        "street": "Rua Bom Jesus",
        "zipcode": "35900-277"
    },
    {
        "city": "Itabira",
        "state": "MG",
        "district": "Colina da Praia",
        "street": "Rua Antônio Olinto Zeferino",
        "zipcode": "35900-299"
    },
    {
        "city": "Itabira",
        "state": "MG",
        "district": "Panorama",
        "street": "Rua Ambrosina Dias Duarte",
        "zipcode": "35900-340"
    },
    {
        "city": "Itabira",
        "state": "MG",
        "district": "Doze de Março",
        "street": "Rua Aírton Gonçalves",
        "zipcode": "35900-350"
    },
    {
        "city": "Itabira",
        "state": "MG",
        "district": "Amazonas",
        "street": "Rua Alagoas",
        "zipcode": "35900-376"
    },
    {
        "city": "Itabira",
        "state": "MG",
        "district": "Gabiroba (1ª Seção)",
        "street": "Rua Castro Alves",
        "zipcode": "35900-414"
    },
    {
        "city": "Itabira",
        "state": "MG",
        "district": "Madre Maria de Jesus",
        "street": "Rua A",
        "zipcode": "35900-467"
    },
    {
        "city": "Itabira",
        "state": "MG",
        "district": "Vila Bethânia",
        "street": "Rua Arábia",
        "zipcode": "35900-479"
    },
    {
        "city": "Itabira",
        "state": "MG",
        "district": "Nova Vista",
        "street": "Rua das Flores",
        "zipcode": "35900-177"
    },
    {
        "city": "Itabira",
        "state": "MG",
        "district": "Nova Vista",
        "street": "Rua Cristalina",
        "zipcode": "35900-183"
    },
    {
        "city": "Itabira",
        "state": "MG",
        "district": "Juca Rosa",
        "street": "Rua Dália",
        "zipcode": "35900-190"
    },
    {
        "city": "Itabira",
        "state": "MG",
        "district": "Major Lage de Baixo",
        "street": "Rua Cinco",
        "zipcode": "35900-228"
    },
    {
        "city": "Itabira",
        "state": "MG",
        "district": "Quatorze de Fevereiro",
        "street": "Rua Cornélio Pena",
        "zipcode": "35900-241"
    },
    {
        "city": "Itabira",
        "state": "MG",
        "district": "Vila Amélia",
        "street": "Rua Diana",
        "zipcode": "35900-253"
    },
    {
        "city": "Itabira",
        "state": "MG",
        "district": "Praia",
        "street": "Rua da Conceição",
        "zipcode": "35900-281"
    },
    {
        "city": "Itabira",
        "state": "MG",
        "district": "Major Lage de Baixo",
        "street": "Rua Caulim",
        "zipcode": "35900-225"
    },
    {
        "city": "Itabira",
        "state": "MG",
        "district": "Alto Pereira",
        "street": "Rua C",
        "zipcode": "35900-249"
    },
    {
        "city": "Itabira",
        "state": "MG",
        "district": "Amazonas",
        "street": "Avenida Brasil",
        "zipcode": "35900-367"
    },
    {
        "city": "Itabira",
        "state": "MG",
        "district": "Amazonas",
        "street": "Avenida Ipiranga",
        "zipcode": "35900-370"
    },
    {
        "city": "Itabira",
        "state": "MG",
        "district": "Amazonas",
        "street": "Avenida Central",
        "zipcode": "35900-371"
    },
    {
        "city": "Itabira",
        "state": "MG",
        "district": "Gabiroba (1ª Seção)",
        "street": "Avenida dos Vereadores",
        "zipcode": "35900-407"
    },
    {
        "city": "Itabira",
        "state": "MG",
        "district": "Centro",
        "street": "Beco do Calvário",
        "zipcode": "35900-496"
    },
    {
        "city": "Itabira",
        "state": "MG",
        "district": "Centro",
        "street": "Praça Doutor Acrísio Alvarenga",
        "zipcode": "35900-527"
    },
    {
        "city": "Itabira",
        "state": "MG",
        "district": "Pará",
        "street": "Rua Antônio Luis Coelho",
        "zipcode": "35900-579"
    },
    {
        "city": "Itabira",
        "state": "MG",
        "district": "Campestre",
        "street": "Rua Augusto Batista Silva",
        "zipcode": "35900-596"
    },
    {
        "city": "Itabira",
        "state": "MG",
        "district": "Eldorado",
        "street": "Beco José Getúlio Soares",
        "zipcode": "35900-607"
    },
    {
        "city": "Itabira",
        "state": "MG",
        "district": "Juca Rosa",
        "street": "Rua Acácia",
        "zipcode": "35900-186"
    },
    {
        "city": "Itabira",
        "state": "MG",
        "district": "Major Lage de Baixo",
        "street": "Rua Armindo Costa Lage",
        "zipcode": "35900-212"
    },
    {
        "city": "Itabira",
        "state": "MG",
        "district": "Colina da Praia",
        "street": "Rua Antônio Duarte Moreira",
        "zipcode": "35900-294"
    },
    {
        "city": "Itabira",
        "state": "MG",
        "district": "Água Fresca",
        "street": "Rua Beta",
        "zipcode": "35900-448"
    },
    {
        "city": "Itabira",
        "state": "MG",
        "district": "Madre Maria de Jesus",
        "street": "Rua B",
        "zipcode": "35900-468"
    },
    {
        "city": "Itabira",
        "state": "MG",
        "district": "Centro",
        "street": "Praça Nico Rosa",
        "zipcode": "35900-525"
    },
    {
        "city": "Itabira",
        "state": "MG",
        "district": "Esplanada da Estação",
        "street": "Praça Rui Barbosa",
        "zipcode": "35900-559"
    },
    {
        "city": "Itabira",
        "state": "MG",
        "district": "São Francisco",
        "street": "Praça Seis",
        "zipcode": "35900-617"
    },
    {
        "city": "Itabira",
        "state": "MG",
        "district": "São Pedro",
        "street": "Rua Bromélia",
        "zipcode": "35900-641"
    },
    {
        "city": "Itabira",
        "state": "MG",
        "district": "Major Lage de Baixo",
        "street": "Rua Cambuquira",
        "zipcode": "35900-706"
    },
    {
        "city": "Itabira",
        "state": "MG",
        "district": "Alto Pereira",
        "street": "Rua Bela Vista",
        "zipcode": "35900-710"
    },
    {
        "city": "Itabira",
        "state": "MG",
        "district": "Hamilton",
        "street": "Rua B",
        "zipcode": "35900-723"
    },
    {
        "city": "Itabira",
        "state": "MG",
        "district": "Centro",
        "street": "Rua Dona Zezeca",
        "zipcode": "35900-523"
    },
    {
        "city": "Itabira",
        "state": "MG",
        "district": "Bela Vista",
        "street": "Rua Chácara",
        "zipcode": "35900-600"
    },
    {
        "city": "Itabira",
        "state": "MG",
        "district": "Centro",
        "street": "Rua Cultura",
        "zipcode": "35900-522"
    },
    {
        "city": "Itabira",
        "state": "MG",
        "district": "Santo Antônio",
        "street": "Rua Célio Guerra",
        "zipcode": "35900-649"
    },
    {
        "city": "Itabira",
        "state": "MG",
        "district": "Hamilton",
        "street": "Rua Cometa",
        "zipcode": "35900-720"
    },
    {
        "city": "Itabira",
        "state": "MG",
        "district": "Campestre",
        "street": "Chácara Fernando Jardim",
        "zipcode": "35900-595"
    },
    {
        "city": "Itabira",
        "state": "MG",
        "district": "Amazonas",
        "street": "Avenida Brasil",
        "zipcode": "35900-369"
    },
    {
        "city": "Itabira",
        "state": "MG",
        "district": "Hamilton",
        "street": "Rua Caiçara",
        "zipcode": "35900-387"
    },
    {
        "city": "Itabira",
        "state": "MG",
        "district": "Santa Ruth",
        "street": "Avenida Dez",
        "zipcode": "35901-176"
    },
    {
        "city": "Itabira",
        "state": "MG",
        "district": "Gabiroba",
        "street": "Avenida dos Advogados",
        "zipcode": "35902-003"
    },
    {
        "city": "Itabira",
        "state": "MG",
        "district": "Major Lage de Baixo",
        "street": "Rua Acesita",
        "zipcode": "35900-214"
    },
    {
        "city": "Itabira",
        "state": "MG",
        "district": "Pedreira",
        "street": "Rua Catatau",
        "zipcode": "35904-012"
    },
    {
        "city": "Itabira",
        "state": "MG",
        "district": "Panorama",
        "street": "Rua Maria T.C. Lage",
        "zipcode": "35900-746"
    },
    {
        "city": "Itabira",
        "state": "MG",
        "district": "São Marcos",
        "street": "Rua Itália",
        "zipcode": "35900-752"
    },
    {
        "city": "Itabira",
        "state": "MG",
        "district": "São Marcos",
        "street": "Rua França",
        "zipcode": "35900-754"
    },
    {
        "city": "Itabira",
        "state": "MG",
        "district": "Panorama",
        "street": "Rua José Antônio Teixeira",
        "zipcode": "35900-747"
    },
    {
        "city": "Itabira",
        "state": "MG",
        "district": "São Cristóvão",
        "street": "Travessa Dois",
        "zipcode": "35900-760"
    },
    {
        "city": "Itabira",
        "state": "MG",
        "district": "São Cristóvão",
        "street": "Rua Quatro",
        "zipcode": "35900-761"
    },
    {
        "city": "Itabira",
        "state": "MG",
        "district": "Boa Esperança",
        "street": "Rua Papa Paulo VI",
        "zipcode": "35903-602"
    },
    {
        "city": "Itabira",
        "state": "MG",
        "district": "Valença",
        "street": "Rua Alexandria",
        "zipcode": "35901-050"
    },
    {
        "city": "Itabira",
        "state": "MG",
        "district": "Santa Inês",
        "street": "Rua Antônio Lisboa da Silva",
        "zipcode": "35900-890"
    },
    {
        "city": "Itabira",
        "state": "MG",
        "district": "Fênix",
        "street": "Rua B",
        "zipcode": "35901-223"
    },
    {
        "city": "Itabira",
        "state": "MG",
        "district": "Bálsamos",
        "street": "Avenida Mirra",
        "zipcode": "35901-352"
    },
    {
        "city": "Itabira",
        "state": "MG",
        "district": "Pará",
        "street": "Rua Padre Sudário",
        "zipcode": "35900-034"
    },
    {
        "city": "Itabira",
        "state": "MG",
        "district": "Boa Esperança",
        "street": "Rua João Paulo I",
        "zipcode": "35903-611"
    },
    {
        "city": "Itabira",
        "state": "MG",
        "district": "Gabiroba",
        "street": "Rua BW",
        "zipcode": "35902-067"
    },
    {
        "city": "Itabira",
        "state": "MG",
        "district": "Gabiroba",
        "street": "Rua BW",
        "zipcode": "35902-070"
    },
    {
        "city": "Itabira",
        "state": "MG",
        "district": "Gabiroba",
        "street": "Rua BW",
        "zipcode": "35902-071"
    },
    {
        "city": "Itabira",
        "state": "MG",
        "district": "Gabiroba",
        "street": "Rua BW",
        "zipcode": "35902-080"
    },
    {
        "city": "Itabira",
        "state": "MG",
        "district": "Ribeira de Baixo",
        "street": "Rua Campolina",
        "zipcode": "35903-026"
    },
    {
        "city": "Itabira",
        "state": "MG",
        "district": "Distrito Industrial II",
        "street": "Rua Cinco",
        "zipcode": "35903-085"
    },
    {
        "city": "Itabira",
        "state": "MG",
        "district": "São Marcos",
        "street": "Rua Dinamarca",
        "zipcode": "35900-751"
    },
    {
        "city": "Itabira",
        "state": "MG",
        "district": "São Marcos",
        "street": "Rua Suécia",
        "zipcode": "35900-755"
    },
    {
        "city": "Itabira",
        "state": "MG",
        "district": "Madre Maria de Jesus",
        "street": "Rua Quatro",
        "zipcode": "35900-781"
    },
    {
        "city": "Itabira",
        "state": "MG",
        "district": "São Cristóvão",
        "street": "Rua Atletas",
        "zipcode": "35900-763"
    },
    {
        "city": "Itabira",
        "state": "MG",
        "district": "São Cristóvão",
        "street": "Rua José Assunção Carvalho",
        "zipcode": "35900-759"
    },
    {
        "city": "Itabira",
        "state": "MG",
        "district": "Boa Esperança",
        "street": "Rua Júlio Papa de Roma",
        "zipcode": "35903-607"
    },
    {
        "city": "Itabira",
        "state": "MG",
        "district": "Boa Esperança",
        "street": "Rua Bento XV",
        "zipcode": "35903-609"
    },
    {
        "city": "Itabira",
        "state": "MG",
        "district": "Boa Esperança",
        "street": "Rua João XXIII",
        "zipcode": "35903-613"
    },
    {
        "city": "Itabira",
        "state": "MG",
        "district": "Barro Branco",
        "street": "Rua Um",
        "zipcode": "35903-504"
    },
    {
        "city": "Itabira",
        "state": "MG",
        "district": "Pedreira",
        "street": "Travessa Pássaro",
        "zipcode": "35904-001"
    },
    {
        "city": "Itabira",
        "state": "MG",
        "district": "Pedreira",
        "street": "Avenida Luis Lott",
        "zipcode": "35904-002"
    },
    {
        "city": "Itabira",
        "state": "MG",
        "district": "Pedreira",
        "street": "Rua Gaivota",
        "zipcode": "35904-003"
    },
    {
        "city": "Itabira",
        "state": "MG",
        "district": "Pedreira",
        "street": "Rua Pintassilgo",
        "zipcode": "35904-007"
    },
    {
        "city": "Itabira",
        "state": "MG",
        "district": "Pedreira",
        "street": "Rua Bem",
        "zipcode": "35904-008"
    },
    {
        "city": "Itabira",
        "state": "MG",
        "district": "Pedreira",
        "street": "Rua Papagaio",
        "zipcode": "35904-009"
    },
    {
        "city": "Itabira",
        "state": "MG",
        "district": "Centro",
        "street": "Avenida João Pinheiro",
        "zipcode": "35900-970"
    },
    {
        "city": "Itabira",
        "state": "MG",
        "district": "Centro",
        "street": "Avenida Daniel Jardim de Grisólia",
        "zipcode": "35900-972"
    },
    {
        "city": "Itabira",
        "state": "MG",
        "district": "Boa Esperança",
        "street": "Avenida Contorno",
        "zipcode": "35903-617"
    },
    {
        "city": "Itabira",
        "state": "MG",
        "district": "Boa Esperança",
        "street": "Rua Pio X II",
        "zipcode": "35903-616"
    },
    {
        "city": "Itabira",
        "state": "MG",
        "district": "Barro Branco",
        "street": "Rua Adolfo Sampaio",
        "zipcode": "35903-503"
    },
    {
        "city": "Itabira",
        "state": "MG",
        "district": "Centro",
        "street": "Praça Doutor Acrísio Alvarenga",
        "zipcode": "35900-971"
    },
    {
        "city": "Itabira",
        "state": "MG",
        "district": "Praia",
        "street": "Rua Barão de Cocais",
        "zipcode": "35900-274"
    },
    {
        "city": "Itabira",
        "state": "MG",
        "district": "Praia",
        "street": "Avenida Prefeito Li Guerra",
        "zipcode": "35900-279"
    },
    {
        "city": "Itabira",
        "state": "MG",
        "district": "Praia",
        "street": "Rua Carmésia",
        "zipcode": "35900-287"
    },
    {
        "city": "Itabira",
        "state": "MG",
        "district": "Gabiroba (1ª Seção)",
        "street": "Avenida Pedro Martins Guerra",
        "zipcode": "35900-410"
    },
    {
        "city": "Itabira",
        "state": "MG",
        "district": "Gianette",
        "street": "Rua Ceará",
        "zipcode": "35900-390"
    },
    {
        "city": "Itabira",
        "state": "MG",
        "district": "Eldorado",
        "street": "Avenida Argemiro de Souza",
        "zipcode": "35900-134"
    },
    {
        "city": "Itabira",
        "state": "MG",
        "district": "Gabiroba",
        "street": "Rua Aníbal Vicente Ferreira",
        "zipcode": "35902-077"
    },
    {
        "city": "Itabira",
        "state": "MG",
        "district": "Vila Piedade",
        "street": "Rua Adelaide Augusta Lage",
        "zipcode": "35900-201"
    },
    {
        "city": "Itabira",
        "state": "MG",
        "district": "Colina da Praia",
        "street": "Avenida São João",
        "zipcode": "35900-289"
    },
    {
        "city": "Itabira",
        "state": "MG",
        "district": "Jardim dos Ipês",
        "street": "Praça Um",
        "zipcode": "35903-015"
    },
    {
        "city": "Itabira",
        "state": "MG",
        "district": "Barro Branco",
        "street": "Rua Adolfo Barcelos",
        "zipcode": "35903-502"
    },
    {
        "city": "Itabira",
        "state": "MG",
        "district": "Centro",
        "street": "Rua Água Santa",
        "zipcode": "35900-009"
    },
    {
        "city": "Itabira",
        "state": "MG",
        "district": "Centro",
        "street": "Avenida Carlos Drumond de Andrade",
        "zipcode": "35900-025"
    },
    {
        "city": "Itabira",
        "state": "MG",
        "district": "Centro",
        "street": "Rua Coronel Linhares Guerra",
        "zipcode": "35900-020"
    },
    {
        "city": "Itabira",
        "state": "MG",
        "district": "Centro",
        "street": "Avenida Daniel Jardim de Grisólia",
        "zipcode": "35900-001"
    },
    {
        "city": "Itabira",
        "state": "MG",
        "district": "Centro",
        "street": "Rua Guarda",
        "zipcode": "35900-003"
    },
    {
        "city": "Itabira",
        "state": "MG",
        "district": "Centro",
        "street": "Rua Mestre Emílio",
        "zipcode": "35900-008"
    },
    {
        "city": "Itabira",
        "state": "MG",
        "district": "Centro",
        "street": "Rua Monsenhor Júlio Engrácia",
        "zipcode": "35900-016"
    },
    {
        "city": "Itabira",
        "state": "MG",
        "district": "Centro",
        "street": "Rua Nove de Outubro",
        "zipcode": "35900-005"
    },
    {
        "city": "Itabira",
        "state": "MG",
        "district": "Centro",
        "street": "Rua dos Operários",
        "zipcode": "35900-004"
    },
    {
        "city": "Itabira",
        "state": "MG",
        "district": "Centro",
        "street": "Rua Princesa Izabel",
        "zipcode": "35900-015"
    },
    {
        "city": "Itabira",
        "state": "MG",
        "district": "Centro",
        "street": "Rua São José",
        "zipcode": "35900-002"
    },
    {
        "city": "Itabira",
        "state": "MG",
        "district": "Centro",
        "street": "Travessa da Saúde",
        "zipcode": "35900-011"
    },
    {
        "city": "Itabira",
        "state": "MG",
        "district": "Centro",
        "street": "Rua Sizenando de Barros",
        "zipcode": "35900-006"
    },
    {
        "city": "Itabira",
        "state": "MG",
        "district": "Pará",
        "street": "Rua Trajano Procópio",
        "zipcode": "35900-035"
    },
    {
        "city": "Itabira",
        "state": "MG",
        "district": "Centro",
        "street": "Rua Doutor Guerra",
        "zipcode": "35900-017"
    },
    {
        "city": "Itabira",
        "state": "MG",
        "district": "Madre Maria de Jesus",
        "street": "Travessa Cinco",
        "zipcode": "35900-782"
    },
    {
        "city": "Itabira",
        "state": "MG",
        "district": "Madre Maria de Jesus",
        "street": "Travessa São Domingos",
        "zipcode": "35900-783"
    },
    {
        "city": "Itabira",
        "state": "MG",
        "district": "Madre Maria de Jesus",
        "street": "Beco Dois",
        "zipcode": "35900-786"
    },
    {
        "city": "Itabira",
        "state": "MG",
        "district": "Gabiroba",
        "street": "Travessa Mecânicos",
        "zipcode": "35900-801"
    },
    {
        "city": "Itabira",
        "state": "MG",
        "district": "Gabiroba",
        "street": "Rua dos Poetas",
        "zipcode": "35900-802"
    },
    {
        "city": "Itabira",
        "state": "MG",
        "district": "Gabiroba",
        "street": "Praça Dois",
        "zipcode": "35900-805"
    },
    {
        "city": "Itabira",
        "state": "MG",
        "district": "Vila Bethânia",
        "street": "Travessa Joaquim Custódio Barbosa",
        "zipcode": "35900-791"
    },
    {
        "city": "Itabira",
        "state": "MG",
        "district": "Vila Salica",
        "street": "Rua F",
        "zipcode": "35900-780"
    },
    {
        "city": "Itabira",
        "state": "MG",
        "district": "Água Fresca",
        "street": "Travessa Tabelião Hidelbrando Martins da Costa",
        "zipcode": "35900-767"
    },
    {
        "city": "Itabira",
        "state": "MG",
        "district": "Vila Salica",
        "street": "Rua B",
        "zipcode": "35900-776"
    },
    {
        "city": "Itabira",
        "state": "MG",
        "district": "Barreiro",
        "street": "Rua Quatro",
        "zipcode": "35903-035"
    },
    {
        "city": "Itabira",
        "state": "MG",
        "district": "Boa Esperança",
        "street": "Rua RZ",
        "zipcode": "35903-605"
    },
    {
        "city": "Itabira",
        "state": "MG",
        "district": "Boa Esperança",
        "street": "Travessa Bento XV",
        "zipcode": "35903-610"
    },
    {
        "city": "Itabira",
        "state": "MG",
        "district": "Boa Esperança",
        "street": "Rua João Paulo II",
        "zipcode": "35903-612"
    },
    {
        "city": "Itabira",
        "state": "MG",
        "district": "Pedreira",
        "street": "Rua Pássaro",
        "zipcode": "35904-000"
    },
    {
        "city": "Itabira",
        "state": "MG",
        "district": "Pedreira",
        "street": "Rua Araponga",
        "zipcode": "35904-005"
    },
    {
        "city": "Itabira",
        "state": "MG",
        "district": "Pedreira",
        "street": "Rua Corta Madeira",
        "zipcode": "35904-006"
    },
    {
        "city": "Itabira",
        "state": "MG",
        "district": "Vila Senhora de Fátima",
        "street": "Rua Joaquim Loureiro",
        "zipcode": "35900-260"
    },
    {
        "city": "Itabira",
        "state": "MG",
        "district": "Vila Senhora de Fátima",
        "street": "Rua Cezário Alvim Sobrinho",
        "zipcode": "35900-261"
    },
    {
        "city": "Itabira",
        "state": "MG",
        "district": "Vila Senhora de Fátima",
        "street": "Rua Arenito",
        "zipcode": "35900-267"
    },
    {
        "city": "Itabira",
        "state": "MG",
        "district": "Vila Nações Unidas",
        "street": "Praça Fábio Pires Guerra",
        "zipcode": "35900-058"
    },
    {
        "city": "Itabira",
        "state": "MG",
        "district": "Nova Vista",
        "street": "Rua Alegria",
        "zipcode": "35900-178"
    },
    {
        "city": "Itabira",
        "state": "MG",
        "district": "Vila Bethânia",
        "street": "Rua Canaã",
        "zipcode": "35900-478"
    },
    {
        "city": "Itabira",
        "state": "MG",
        "district": "Centro",
        "street": "Praça da Saúde",
        "zipcode": "35900-495"
    },
    {
        "city": "Itabira",
        "state": "MG",
        "district": "Penha",
        "street": "Praça Doutor Mauro de Alvarenga",
        "zipcode": "35900-588"
    },
    {
        "city": "Itabira",
        "state": "MG",
        "district": "Serra do Esmeril",
        "street": "Estrada Serra do Esmeril",
        "zipcode": "35900-900"
    },
    {
        "city": "Itabira",
        "state": "MG",
        "district": "Boa Esperança",
        "street": "Rua Alta Esperança",
        "zipcode": "35903-606"
    },
    {
        "city": "Itabira",
        "state": "MG",
        "district": "Centro",
        "street": "Rua Lucindo Gomes",
        "zipcode": "35900-007"
    },
    {
        "city": "Itabira",
        "state": "MG",
        "district": null,
        "street": "Rua da Chapada",
        "zipcode": "35902-991"
    },
    {
        "city": "Itabira",
        "state": "MG",
        "district": null,
        "street": "Rua Baixada Grande",
        "zipcode": "35903-990"
    },
    {
        "city": "Itabira",
        "state": "MG",
        "district": "Colina da Praia",
        "street": "Rua Cáctus",
        "zipcode": "35900-329"
    },
    {
        "city": "Itabira",
        "state": "MG",
        "district": "Vila Amélia",
        "street": "Praça Apolo",
        "zipcode": "35900-716"
    },
    {
        "city": "Itabira",
        "state": "MG",
        "district": "Campestre I",
        "street": "Rua Doutor Robson",
        "zipcode": "35900-074"
    },
    {
        "city": "Itabira",
        "state": "MG",
        "district": "Bela Vista",
        "street": "Rua D",
        "zipcode": "35900-102"
    },
    {
        "city": "Itabira",
        "state": "MG",
        "district": "São Pedro",
        "street": "Rua dos Cravos",
        "zipcode": "35900-125"
    },
    {
        "city": "Itabira",
        "state": "MG",
        "district": "Vila Amélia",
        "street": "Rua Cibele",
        "zipcode": "35900-258"
    },
    {
        "city": "Itabira",
        "state": "MG",
        "district": "Penha",
        "street": "Rua Giral",
        "zipcode": "35900-068"
    },
    {
        "city": "Itabira",
        "state": "MG",
        "district": "Campestre I",
        "street": "Rua Hematita",
        "zipcode": "35900-085"
    },
    {
        "city": "Itabira",
        "state": "MG",
        "district": "Bela Vista",
        "street": "Rua F",
        "zipcode": "35900-094"
    },
    {
        "city": "Itabira",
        "state": "MG",
        "district": "Bela Vista",
        "street": "Rua João Júlio de Oliveira Jota",
        "zipcode": "35900-099"
    },
    {
        "city": "Itabira",
        "state": "MG",
        "district": "Santo Antônio",
        "street": "Rua H",
        "zipcode": "35900-114"
    },
    {
        "city": "Itabira",
        "state": "MG",
        "district": "Santa Ruth",
        "street": "Rua José Brás",
        "zipcode": "35901-078"
    },
    {
        "city": "Itabira",
        "state": "MG",
        "district": "Penha",
        "street": "Rua Nossa Senhora da Penha",
        "zipcode": "35900-070"
    },
    {
        "city": "Itabira",
        "state": "MG",
        "district": "Bela Vista",
        "street": "Rua Ormindo Dias Lage",
        "zipcode": "35900-108"
    },
    {
        "city": "Itabira",
        "state": "MG",
        "district": "Santo Antônio",
        "street": "Rua Palmas",
        "zipcode": "35900-116"
    },
    {
        "city": "Itabira",
        "state": "MG",
        "district": "Pará",
        "street": "Rua Nossa Senhora do Carmo",
        "zipcode": "35900-046"
    },
    {
        "city": "Itabira",
        "state": "MG",
        "district": "Nossa Senhora das Oliveiras",
        "street": "Rua Nova Lima",
        "zipcode": "35900-167"
    },
    {
        "city": "Itabira",
        "state": "MG",
        "district": "Novo Amazonas",
        "street": "Rua Maranhão",
        "zipcode": "35900-357"
    },
    {
        "city": "Itabira",
        "state": "MG",
        "district": "Amazonas",
        "street": "Rua Piauí",
        "zipcode": "35900-379"
    },
    {
        "city": "Itabira",
        "state": "MG",
        "district": "Vila Nações Unidas",
        "street": "Rua Santo Antônio",
        "zipcode": "35900-054"
    },
    {
        "city": "Itabira",
        "state": "MG",
        "district": "Campestre I",
        "street": "Rua Tomaz Howem",
        "zipcode": "35900-082"
    },
    {
        "city": "Itabira",
        "state": "MG",
        "district": "Santo Antônio",
        "street": "Rua Três",
        "zipcode": "35900-111"
    },
    {
        "city": "Itabira",
        "state": "MG",
        "district": "Quatorze de Fevereiro",
        "street": "Rua Salvino Pascoal Patrocínio",
        "zipcode": "35900-243"
    },
    {
        "city": "Itabira",
        "state": "MG",
        "district": "Pará",
        "street": "Rua Doutor Novaes",
        "zipcode": "35900-039"
    },
    {
        "city": "Itabira",
        "state": "MG",
        "district": "Pará",
        "street": "Rua Tamoios",
        "zipcode": "35900-041"
    },
    {
        "city": "Itabira",
        "state": "MG",
        "district": "Campestre I",
        "street": "Rua Doutor João Paulo Pinheiro",
        "zipcode": "35900-076"
    },
    {
        "city": "Itabira",
        "state": "MG",
        "district": "Campestre I",
        "street": "Rua Jacutinga",
        "zipcode": "35900-086"
    },
    {
        "city": "Itabira",
        "state": "MG",
        "district": "São Pedro",
        "street": "Travessa Tulipas",
        "zipcode": "35900-124"
    },
    {
        "city": "Itabira",
        "state": "MG",
        "district": "Colina da Praia",
        "street": "Avenida Anthuriuns",
        "zipcode": "35900-320"
    },
    {
        "city": "Itabira",
        "state": "MG",
        "district": "Centro",
        "street": "Praça do Expedicionario",
        "zipcode": "35900-526"
    },
    {
        "city": "Itabira",
        "state": "MG",
        "district": "Major Lage de Baixo",
        "street": "Praça São Tomé",
        "zipcode": "35900-671"
    },
    {
        "city": "Itabira",
        "state": "MG",
        "district": "Machado",
        "street": "Rua Sucupira",
        "zipcode": "35901-102"
    },
    {
        "city": "Itabira",
        "state": "MG",
        "district": "Bálsamos",
        "street": "Avenida Mandrágora",
        "zipcode": "35901-351"
    },
    {
        "city": "Itabira",
        "state": "MG",
        "district": "Machado",
        "street": "Rua C",
        "zipcode": "35901-017"
    },
    {
        "city": "Itabira",
        "state": "MG",
        "district": "Gabiroba",
        "street": "Rua dos Militares",
        "zipcode": "35902-024"
    },
    {
        "city": "Itabira",
        "state": "MG",
        "district": "Eldorado",
        "street": "Rua Congonhas do Campo",
        "zipcode": "35900-149"
    },
    {
        "city": "Itabira",
        "state": "MG",
        "district": "Barro Branco",
        "street": "Rua Acre",
        "zipcode": "35903-501"
    },
    {
        "city": "Itabira",
        "state": "MG",
        "district": "Centro",
        "street": "Rua Paulo Pereira",
        "zipcode": "35900-018"
    },
    {
        "city": "Itabira",
        "state": "MG",
        "district": "Centro",
        "street": "Rua Tiradentes",
        "zipcode": "35900-013"
    },
    {
        "city": "Itabira",
        "state": "MG",
        "district": "Centro",
        "street": "Rua Dom Prudêncio",
        "zipcode": "35900-012"
    },
    {
        "city": "Itabira",
        "state": "MG",
        "district": "Eldorado",
        "street": "Rua das Tulipas",
        "zipcode": "35900-151"
    },
    {
        "city": "Itabira",
        "state": "MG",
        "district": "Alto da Boa Vista",
        "street": "Rua Dois",
        "zipcode": "35900-263"
    },
    {
        "city": "Itabira",
        "state": "MG",
        "district": "Colina da Praia",
        "street": "Rua Dezoito",
        "zipcode": "35900-306"
    },
    {
        "city": "Itabira",
        "state": "MG",
        "district": "Colina da Praia",
        "street": "Rua Dezenove",
        "zipcode": "35900-307"
    },
    {
        "city": "Itabira",
        "state": "MG",
        "district": "Vila Nações Unidas",
        "street": "Rua H",
        "zipcode": "35900-059"
    },
    {
        "city": "Itabira",
        "state": "MG",
        "district": "Vila Nações Unidas",
        "street": "Rua I",
        "zipcode": "35900-060"
    },
    {
        "city": "Itabira",
        "state": "MG",
        "district": "Eldorado",
        "street": "Rua João de Oliveira Pena",
        "zipcode": "35900-153"
    },
    {
        "city": "Itabira",
        "state": "MG",
        "district": "Vila Piedade",
        "street": "Rua Joaquim Carlos",
        "zipcode": "35900-203"
    },
    {
        "city": "Itabira",
        "state": "MG",
        "district": "Major Lage de Baixo",
        "street": "Rua Itambé",
        "zipcode": "35900-215"
    },
    {
        "city": "Itabira",
        "state": "MG",
        "district": "Alto Pereira",
        "street": "Rua Israel Pinheiro",
        "zipcode": "35900-246"
    },
    {
        "city": "Itabira",
        "state": "MG",
        "district": "Praia",
        "street": "Rua Januária",
        "zipcode": "35900-273"
    },
    {
        "city": "Itabira",
        "state": "MG",
        "district": "Praia",
        "street": "Rua Joanésia",
        "zipcode": "35900-283"
    },
    {
        "city": "Itabira",
        "state": "MG",
        "district": "Centro",
        "street": "Praça Joaquim Pedro Rosa",
        "zipcode": "35900-022"
    },
    {
        "city": "Itabira",
        "state": "MG",
        "district": "Centro",
        "street": "Praça Monsenhor Felicíssimo",
        "zipcode": "35900-021"
    },
    {
        "city": "Itabira",
        "state": "MG",
        "district": "Água Fresca",
        "street": "Rua Joaquim Firmino Rodrigues",
        "zipcode": "35900-771"
    },
    {
        "city": "Itabira",
        "state": "MG",
        "district": "Chapada",
        "street": "Rua Degelândia",
        "zipcode": "35903-530"
    },
    {
        "city": "Itabira",
        "state": "MG",
        "district": "Colina da Praia",
        "street": "Rua Jacaré",
        "zipcode": "35900-324"
    },
    {
        "city": "Itabira",
        "state": "MG",
        "district": "Bela Vista",
        "street": "Rua Joaquim Valadares",
        "zipcode": "35900-105"
    },
    {
        "city": "Itabira",
        "state": "MG",
        "district": "Praia",
        "street": "Rua Ferros",
        "zipcode": "35900-288"
    },
    {
        "city": "Itabira",
        "state": "MG",
        "district": "Pará",
        "street": "Rua Major Lage",
        "zipcode": "35900-051"
    },
    {
        "city": "Itabira",
        "state": "MG",
        "district": "Campestre I",
        "street": "Rua Renato Campos",
        "zipcode": "35900-078"
    },
    {
        "city": "Itabira",
        "state": "MG",
        "district": "Eldorado",
        "street": "Rua Olinto Martins de Souza",
        "zipcode": "35900-154"
    },
    {
        "city": "Itabira",
        "state": "MG",
        "district": "Nossa Senhora das Oliveiras",
        "street": "Rua Ponte Nova",
        "zipcode": "35900-165"
    },
    {
        "city": "Itabira",
        "state": "MG",
        "district": "Nova Vista",
        "street": "Rua Raio de Luz",
        "zipcode": "35900-182"
    },
    {
        "city": "Itabira",
        "state": "MG",
        "district": "Vila Santa Izabel",
        "street": "Rua Prefeito Oto de Oliveira Pena",
        "zipcode": "35900-208"
    },
    {
        "city": "Itabira",
        "state": "MG",
        "district": "Major Lage de Baixo",
        "street": "Rua Modesto Pinto",
        "zipcode": "35900-218"
    },
    {
        "city": "Itabira",
        "state": "MG",
        "district": "Major Lage de Baixo",
        "street": "Rua Presidente Costa e Silva",
        "zipcode": "35900-232"
    },
    {
        "city": "Itabira",
        "state": "MG",
        "district": "Quatorze de Fevereiro",
        "street": "Rua Juca Machado",
        "zipcode": "35900-239"
    },
    {
        "city": "Itabira",
        "state": "MG",
        "district": "Vila Amélia",
        "street": "Rua Netuno",
        "zipcode": "35900-269"
    },
    {
        "city": "Itabira",
        "state": "MG",
        "district": "Colina da Praia",
        "street": "Rua Lótus",
        "zipcode": "35900-335"
    },
    {
        "city": "Itabira",
        "state": "MG",
        "district": "São Pedro",
        "street": "Rua Malva",
        "zipcode": "35900-130"
    },
    {
        "city": "Itabira",
        "state": "MG",
        "district": "Eldorado",
        "street": "Rua O",
        "zipcode": "35900-146"
    },
    {
        "city": "Itabira",
        "state": "MG",
        "district": "Penha",
        "street": "Rua Santana",
        "zipcode": "35900-064"
    },
    {
        "city": "Itabira",
        "state": "MG",
        "district": "Penha",
        "street": "Rua Santa Maria",
        "zipcode": "35900-065"
    },
    {
        "city": "Itabira",
        "state": "MG",
        "district": "Nossa Senhora das Oliveiras",
        "street": "Rua Santa Luzia",
        "zipcode": "35900-162"
    },
    {
        "city": "Itabira",
        "state": "MG",
        "district": "Nossa Senhora das Oliveiras",
        "street": "Rua Sabará",
        "zipcode": "35900-163"
    },
    {
        "city": "Itabira",
        "state": "MG",
        "district": "Juca Rosa",
        "street": "Rua Vila Rica",
        "zipcode": "35900-193"
    },
    {
        "city": "Itabira",
        "state": "MG",
        "district": "Major Lage de Baixo",
        "street": "Rua São Bento",
        "zipcode": "35900-219"
    },
    {
        "city": "Itabira",
        "state": "MG",
        "district": "Major Lage de Baixo",
        "street": "Rua Um",
        "zipcode": "35900-227"
    },
    {
        "city": "Itabira",
        "state": "MG",
        "district": "Vila Amélia",
        "street": "Rua Saturno",
        "zipcode": "35900-255"
    },
    {
        "city": "Itabira",
        "state": "MG",
        "district": "Alto da Boa Vista",
        "street": "Rua Três",
        "zipcode": "35900-264"
    },
    {
        "city": "Itabira",
        "state": "MG",
        "district": "Praia",
        "street": "Rua Santa Bárbara",
        "zipcode": "35900-278"
    },
    {
        "city": "Itabira",
        "state": "MG",
        "district": "Vila Nações Unidas",
        "street": "Rua Totonho Ramos",
        "zipcode": "35900-057"
    },
    {
        "city": "Itabira",
        "state": "MG",
        "district": "São Pedro",
        "street": "Rua Gardênias",
        "zipcode": "35900-132"
    },
    {
        "city": "Itabira",
        "state": "MG",
        "district": "Eldorado",
        "street": "Rua Nélson Figueiredo",
        "zipcode": "35900-139"
    },
    {
        "city": "Itabira",
        "state": "MG",
        "district": "Vila São Geraldo",
        "street": "Rua Eliodoro do Carmo Silva",
        "zipcode": "35900-197"
    },
    {
        "city": "Itabira",
        "state": "MG",
        "district": "Vila São Geraldo",
        "street": "Travessa Eliodoro do Carmo Silva",
        "zipcode": "35900-198"
    },
    {
        "city": "Itabira",
        "state": "MG",
        "district": "Vila Piedade",
        "street": "Rua Nova Era",
        "zipcode": "35900-199"
    },
    {
        "city": "Itabira",
        "state": "MG",
        "district": "Alto Pereira",
        "street": "Rua Nenzinha Rosa",
        "zipcode": "35900-248"
    },
    {
        "city": "Itabira",
        "state": "MG",
        "district": "Vila Amélia",
        "street": "Travessa Urânio",
        "zipcode": "35900-256"
    },
    {
        "city": "Itabira",
        "state": "MG",
        "district": "Praia",
        "street": "Rua Serro",
        "zipcode": "35900-280"
    },
    {
        "city": "Itabira",
        "state": "MG",
        "district": "Colina da Praia",
        "street": "Rua Carvalho",
        "zipcode": "35900-325"
    },
    {
        "city": "Itabira",
        "state": "MG",
        "district": "Gabiroba",
        "street": "Rua Dona Lilica",
        "zipcode": "35902-083"
    },
    {
        "city": "Itabira",
        "state": "MG",
        "district": "Gabiroba",
        "street": "Rua dos Compositores",
        "zipcode": "35902-095"
    },
    {
        "city": "Itabira",
        "state": "MG",
        "district": "Santa Inês",
        "street": "Rua dos Monjolos",
        "zipcode": "35900-886"
    },
    {
        "city": "Itabira",
        "state": "MG",
        "district": "Boa Esperança",
        "street": "Rua RZ",
        "zipcode": "35903-601"
    },
    {
        "city": "Itabira",
        "state": "MG",
        "district": "Bálsamos",
        "street": "Rua Gálbano",
        "zipcode": "35901-354"
    },
    {
        "city": "Itabira",
        "state": "MG",
        "district": "Barreiro",
        "street": "Rua Dois",
        "zipcode": "35903-033"
    },
    {
        "city": "Itabira",
        "state": "MG",
        "district": "Jardim dos Ipês",
        "street": "Rua Ipê Peroba",
        "zipcode": "35903-011"
    },
    {
        "city": "Itabira",
        "state": "MG",
        "district": "Barreiro",
        "street": "Rua José Luiz",
        "zipcode": "35903-036"
    },
    {
        "city": "Itabira",
        "state": "MG",
        "district": "Vila São Joaquim",
        "street": "Rua Demerval Camilo de Oliveira Lage",
        "zipcode": "35900-406"
    },
    {
        "city": "Itabira",
        "state": "MG",
        "district": "Gabiroba (1ª Seção)",
        "street": "Rua dos Padres",
        "zipcode": "35900-412"
    },
    {
        "city": "Itabira",
        "state": "MG",
        "district": "Gabiroba (1ª Seção)",
        "street": "Rua dos Bispos",
        "zipcode": "35900-415"
    },
    {
        "city": "Itabira",
        "state": "MG",
        "district": "Gabiroba (1ª Seção)",
        "street": "Rua dos Eletricistas",
        "zipcode": "35900-416"
    },
    {
        "city": "Itabira",
        "state": "MG",
        "district": "Gabiroba (1ª Seção)",
        "street": "Rua dos Bancários",
        "zipcode": "35900-419"
    },
    {
        "city": "Itabira",
        "state": "MG",
        "district": "Gabiroba (1ª Seção)",
        "street": "Rua dos Engraxates",
        "zipcode": "35900-425"
    },
    {
        "city": "Itabira",
        "state": "MG",
        "district": "Água Fresca",
        "street": "Rua Drago",
        "zipcode": "35900-452"
    },
    {
        "city": "Itabira",
        "state": "MG",
        "district": "Panorama",
        "street": "Rua Joaquim Costa Lage",
        "zipcode": "35900-341"
    },
    {
        "city": "Itabira",
        "state": "MG",
        "district": "Panorama",
        "street": "Rua José Faria Júnior",
        "zipcode": "35900-344"
    },
    {
        "city": "Itabira",
        "state": "MG",
        "district": "Cônego Guilhermino Pereira",
        "street": "Rua José Gregório da Cruz",
        "zipcode": "35900-345"
    },
    {
        "city": "Itabira",
        "state": "MG",
        "district": "Hamilton",
        "street": "Rua Gonçalves Dias",
        "zipcode": "35900-388"
    },
    {
        "city": "Itabira",
        "state": "MG",
        "district": "Santa Tereza (Cvrd)",
        "street": "Rua José Andrade Nascimento",
        "zipcode": "35900-437"
    },
    {
        "city": "Itabira",
        "state": "MG",
        "district": "Major Lage de Baixo",
        "street": "Rua Hematita",
        "zipcode": "35900-224"
    },
    {
        "city": "Itabira",
        "state": "MG",
        "district": "Praia",
        "street": "Rua Guarani",
        "zipcode": "35900-286"
    },
    {
        "city": "Itabira",
        "state": "MG",
        "district": "Amazonas",
        "street": "Rua Guanabara",
        "zipcode": "35900-375"
    },
    {
        "city": "Itabira",
        "state": "MG",
        "district": "Novo Amazonas",
        "street": "Rua Paraná",
        "zipcode": "35900-355"
    },
    {
        "city": "Itabira",
        "state": "MG",
        "district": "Novo Amazonas",
        "street": "Rua Professora Isabel Eliziário Barbosa",
        "zipcode": "35900-361"
    },
    {
        "city": "Itabira",
        "state": "MG",
        "district": "Gianette",
        "street": "Rua Paraíba",
        "zipcode": "35900-391"
    },
    {
        "city": "Itabira",
        "state": "MG",
        "district": "Vila São Joaquim",
        "street": "Rua Prefeito José Eliziário Barbosa",
        "zipcode": "35900-405"
    },
    {
        "city": "Itabira",
        "state": "MG",
        "district": "Santa Tereza (Cvrd)",
        "street": "Rua Monteiro Lobato",
        "zipcode": "35900-440"
    },
    {
        "city": "Itabira",
        "state": "MG",
        "district": "Água Fresca",
        "street": "Rua Liquem",
        "zipcode": "35900-454"
    },
    {
        "city": "Itabira",
        "state": "MG",
        "district": "Água Fresca",
        "street": "Rua Marechal Jofre",
        "zipcode": "35900-455"
    },
    {
        "city": "Itabira",
        "state": "MG",
        "district": "Vila Bethânia",
        "street": "Rua Nazaré",
        "zipcode": "35900-473"
    },
    {
        "city": "Itabira",
        "state": "MG",
        "district": "Praia",
        "street": "Rua Paraíso",
        "zipcode": "35900-285"
    },
    {
        "city": "Itabira",
        "state": "MG",
        "district": "Colina da Praia",
        "street": "Rua Onze",
        "zipcode": "35900-300"
    },
    {
        "city": "Itabira",
        "state": "MG",
        "district": "Hamilton",
        "street": "Rua Primavera",
        "zipcode": "35900-386"
    },
    {
        "city": "Itabira",
        "state": "MG",
        "district": "Gianette",
        "street": "Rua Pernambuco",
        "zipcode": "35900-392"
    },
    {
        "city": "Itabira",
        "state": "MG",
        "district": "Colina da Praia",
        "street": "Rua Vinte e Quatro",
        "zipcode": "35900-312"
    },
    {
        "city": "Itabira",
        "state": "MG",
        "district": "Colina da Praia",
        "street": "Rua Vinte e Sete",
        "zipcode": "35900-315"
    },
    {
        "city": "Itabira",
        "state": "MG",
        "district": "Colina da Praia",
        "street": "Rua Vinte e Oito",
        "zipcode": "35900-316"
    },
    {
        "city": "Itabira",
        "state": "MG",
        "district": "Colina da Praia",
        "street": "Rua Trinta",
        "zipcode": "35900-318"
    },
    {
        "city": "Itabira",
        "state": "MG",
        "district": "Cônego Guilhermino Pereira",
        "street": "Rua Rita Neves",
        "zipcode": "35900-363"
    },
    {
        "city": "Itabira",
        "state": "MG",
        "district": "Amazonas",
        "street": "Rua Roraima",
        "zipcode": "35900-380"
    },
    {
        "city": "Itabira",
        "state": "MG",
        "district": "Hamilton",
        "street": "Rua Santinho Linhares",
        "zipcode": "35900-383"
    },
    {
        "city": "Itabira",
        "state": "MG",
        "district": "Major Lage de Cima",
        "street": "Rua Turmalina",
        "zipcode": "35900-395"
    },
    {
        "city": "Itabira",
        "state": "MG",
        "district": "Major Lage de Cima",
        "street": "Rua Safira",
        "zipcode": "35900-398"
    },
    {
        "city": "Itabira",
        "state": "MG",
        "district": "Vila São Joaquim",
        "street": "Rua Vereador Ozório Martins de Souza",
        "zipcode": "35900-404"
    },
    {
        "city": "Itabira",
        "state": "MG",
        "district": "Gabiroba (1ª Seção)",
        "street": "Rua W",
        "zipcode": "35900-423"
    },
    {
        "city": "Itabira",
        "state": "MG",
        "district": "Gabiroba (1ª Seção)",
        "street": "Rua W",
        "zipcode": "35900-428"
    },
    {
        "city": "Itabira",
        "state": "MG",
        "district": "Gabiroba (1ª Seção)",
        "street": "Rua W",
        "zipcode": "35900-434"
    },
    {
        "city": "Itabira",
        "state": "MG",
        "district": "Água Fresca",
        "street": "Rua Tabuti",
        "zipcode": "35900-447"
    },
    {
        "city": "Itabira",
        "state": "MG",
        "district": "Água Fresca",
        "street": "Rua Santo Antônio",
        "zipcode": "35900-459"
    },
    {
        "city": "Itabira",
        "state": "MG",
        "district": "Água Fresca",
        "street": "Rua Santa Helena",
        "zipcode": "35900-460"
    },
    {
        "city": "Itabira",
        "state": "MG",
        "district": "Água Fresca",
        "street": "Rua São João",
        "zipcode": "35900-462"
    },
    {
        "city": "Itabira",
        "state": "MG",
        "district": "Água Fresca",
        "street": "Rua Santa Kátia",
        "zipcode": "35900-463"
    },
    {
        "city": "Itabira",
        "state": "MG",
        "district": "Colina da Praia",
        "street": "Rua Treze",
        "zipcode": "35900-302"
    },
    {
        "city": "Itabira",
        "state": "MG",
        "district": "Amazonas",
        "street": "Rua Sergipe",
        "zipcode": "35900-378"
    },
    {
        "city": "Itabira",
        "state": "MG",
        "district": "Major Lage de Cima",
        "street": "Rua Mármore",
        "zipcode": "35900-400"
    },
    {
        "city": "Itabira",
        "state": "MG",
        "district": "Gabiroba (1ª Seção)",
        "street": "Rua dos Professores",
        "zipcode": "35900-411"
    },
    {
        "city": "Itabira",
        "state": "MG",
        "district": "Gabiroba (1ª Seção)",
        "street": "Rua W",
        "zipcode": "35900-421"
    },
    {
        "city": "Itabira",
        "state": "MG",
        "district": "Gabiroba (1ª Seção)",
        "street": "Rua dos Escritores",
        "zipcode": "35900-426"
    },
    {
        "city": "Itabira",
        "state": "MG",
        "district": "Colina da Praia",
        "street": "Rua Nove",
        "zipcode": "35900-298"
    },
    {
        "city": "Itabira",
        "state": "MG",
        "district": "Colina da Praia",
        "street": "Rua Dezesseis",
        "zipcode": "35900-304"
    },
    {
        "city": "Itabira",
        "state": "MG",
        "district": "Cônego Guilhermino Pereira",
        "street": "Rua Galáxia",
        "zipcode": "35900-364"
    },
    {
        "city": "Itabira",
        "state": "MG",
        "district": "Vila Bethânia",
        "street": "Rua Emaús",
        "zipcode": "35900-477"
    },
    {
        "city": "Itabira",
        "state": "MG",
        "district": "Clóvis Alvim II",
        "street": "Rua Francisco José da Silva",
        "zipcode": "35900-482"
    },
    {
        "city": "Itabira",
        "state": "MG",
        "district": "Clóvis Alvim II",
        "street": "Rua José Cândido da Silva",
        "zipcode": "35900-485"
    },
    {
        "city": "Itabira",
        "state": "MG",
        "district": "Centro",
        "street": "Rua Elis Regina",
        "zipcode": "35900-540"
    },
    {
        "city": "Itabira",
        "state": "MG",
        "district": "Campestre",
        "street": "Rua Francisco Osório Menezes",
        "zipcode": "35900-597"
    },
    {
        "city": "Itabira",
        "state": "MG",
        "district": "Santa Tereza (Cvrd)",
        "street": "Rua João de Deus Deiró",
        "zipcode": "35900-439"
    },
    {
        "city": "Itabira",
        "state": "MG",
        "district": "Água Fresca",
        "street": "Rua Idelbrando Martins da Costa",
        "zipcode": "35900-444"
    },
    {
        "city": "Itabira",
        "state": "MG",
        "district": "Água Fresca",
        "street": "Rua Eufórbia",
        "zipcode": "35900-450"
    },
    {
        "city": "Itabira",
        "state": "MG",
        "district": "Água Fresca",
        "street": "Rua Estrela",
        "zipcode": "35900-456"
    },
    {
        "city": "Itabira",
        "state": "MG",
        "district": "Vila Bethânia",
        "street": "Rua Jericó",
        "zipcode": "35900-476"
    },
    {
        "city": "Itabira",
        "state": "MG",
        "district": "Centro",
        "street": "Rua Esmeralda",
        "zipcode": "35900-532"
    },
    {
        "city": "Itabira",
        "state": "MG",
        "district": "Clóvis Alvim II",
        "street": "Rua O",
        "zipcode": "35900-486"
    },
    {
        "city": "Itabira",
        "state": "MG",
        "district": "Clóvis Alvim II",
        "street": "Rua N",
        "zipcode": "35900-487"
    },
    {
        "city": "Itabira",
        "state": "MG",
        "district": "Esplanada da Estação",
        "street": "Rua Nara Leão",
        "zipcode": "35900-555"
    },
    {
        "city": "Itabira",
        "state": "MG",
        "district": "São Francisco",
        "street": "Rua L",
        "zipcode": "35900-615"
    },
    {
        "city": "Itabira",
        "state": "MG",
        "district": "Água Fresca",
        "street": "Rua Lula",
        "zipcode": "35900-446"
    },
    {
        "city": "Itabira",
        "state": "MG",
        "district": "Clóvis Alvim II",
        "street": "Rua K",
        "zipcode": "35900-490"
    },
    {
        "city": "Itabira",
        "state": "MG",
        "district": "São Francisco",
        "street": "Rua N",
        "zipcode": "35900-616"
    },
    {
        "city": "Itabira",
        "state": "MG",
        "district": "Santa Matilde",
        "street": "Rua Quatro",
        "zipcode": "35900-633"
    },
    {
        "city": "Itabira",
        "state": "MG",
        "district": "Juca Rosa",
        "street": "Rua Vitória",
        "zipcode": "35900-492"
    },
    {
        "city": "Itabira",
        "state": "MG",
        "district": "Pará",
        "street": "Travessa Dom Prudêncio",
        "zipcode": "35900-500"
    },
    {
        "city": "Itabira",
        "state": "MG",
        "district": "Pará",
        "street": "Travessa Major Lage",
        "zipcode": "35900-501"
    },
    {
        "city": "Itabira",
        "state": "MG",
        "district": "Campestre I",
        "street": "Travessa Jacutinga",
        "zipcode": "35900-505"
    },
    {
        "city": "Itabira",
        "state": "MG",
        "district": "São Pedro",
        "street": "Travessa dos Cravos",
        "zipcode": "35900-508"
    },
    {
        "city": "Itabira",
        "state": "MG",
        "district": "São Pedro",
        "street": "Travessa das Orquídeas",
        "zipcode": "35900-510"
    },
    {
        "city": "Itabira",
        "state": "MG",
        "district": "Vila Santa Izabel",
        "street": "Travessa Prefeito Oto de Oliveira Pena",
        "zipcode": "35900-514"
    },
    {
        "city": "Itabira",
        "state": "MG",
        "district": "Amazonas",
        "street": "Travessa Espírito Santo",
        "zipcode": "35900-518"
    },
    {
        "city": "Itabira",
        "state": "MG",
        "district": "Hamilton",
        "street": "Travessa Avelar Machado",
        "zipcode": "35900-519"
    },
    {
        "city": "Itabira",
        "state": "MG",
        "district": "Centro",
        "street": "Travessa João Pinheiro",
        "zipcode": "35900-531"
    },
    {
        "city": "Itabira",
        "state": "MG",
        "district": "Centro",
        "street": "Rua Sady Pereira",
        "zipcode": "35900-534"
    },
    {
        "city": "Itabira",
        "state": "MG",
        "district": "Esplanada da Estação",
        "street": "Rua Vinícius de Morais",
        "zipcode": "35900-554"
    },
    {
        "city": "Itabira",
        "state": "MG",
        "district": "Esplanada da Estação",
        "street": "Travessa Gonzaguinha",
        "zipcode": "35900-556"
    },
    {
        "city": "Itabira",
        "state": "MG",
        "district": "Penha",
        "street": "Travessa João Soares da Silva",
        "zipcode": "35900-591"
    },
    {
        "city": "Itabira",
        "state": "MG",
        "district": "Penha",
        "street": "Travessa José Lego Simões",
        "zipcode": "35900-592"
    },
    {
        "city": "Itabira",
        "state": "MG",
        "district": "São Francisco",
        "street": "Rua Um",
        "zipcode": "35900-610"
    },
    {
        "city": "Itabira",
        "state": "MG",
        "district": "Colina da Praia",
        "street": "Rua Vinte e Três",
        "zipcode": "35900-311"
    },
    {
        "city": "Itabira",
        "state": "MG",
        "district": "Colina da Praia",
        "street": "Rua Vinte e Cinco",
        "zipcode": "35900-313"
    },
    {
        "city": "Itabira",
        "state": "MG",
        "district": "Santa Matilde",
        "street": "Rua Seis",
        "zipcode": "35900-632"
    },
    {
        "city": "Itabira",
        "state": "MG",
        "district": "Centro",
        "street": "Travessa Zeca Amâncio",
        "zipcode": "35900-497"
    },
    {
        "city": "Itabira",
        "state": "MG",
        "district": "Penha",
        "street": "Travessa Tenente Cândido Eliziário",
        "zipcode": "35900-503"
    },
    {
        "city": "Itabira",
        "state": "MG",
        "district": "Santo Antônio",
        "street": "Travessa Um",
        "zipcode": "35900-507"
    },
    {
        "city": "Itabira",
        "state": "MG",
        "district": "São Pedro",
        "street": "Travessa Um",
        "zipcode": "35900-509"
    },
    {
        "city": "Itabira",
        "state": "MG",
        "district": "Valença",
        "street": "Rua Galícia",
        "zipcode": "35901-052"
    },
    {
        "city": "Itabira",
        "state": "MG",
        "district": "Esplanada da Estação",
        "street": "Travessa Susinha de Sá Martins",
        "zipcode": "35900-558"
    },
    {
        "city": "Itabira",
        "state": "MG",
        "district": "Penha",
        "street": "Travessa Santana",
        "zipcode": "35900-590"
    },
    {
        "city": "Itabira",
        "state": "MG",
        "district": "João XXIII",
        "street": "Rua F",
        "zipcode": "35901-042"
    },
    {
        "city": "Itabira",
        "state": "MG",
        "district": "Madre Maria de Jesus",
        "street": "Rua F",
        "zipcode": "35900-784"
    },
    {
        "city": "Itabira",
        "state": "MG",
        "district": "Madre Maria de Jesus",
        "street": "Beco Um",
        "zipcode": "35900-785"
    },
    {
        "city": "Itabira",
        "state": "MG",
        "district": "Vila Salica",
        "street": "Rua E",
        "zipcode": "35900-779"
    },
    {
        "city": "Itabira",
        "state": "MG",
        "district": "São Cristóvão",
        "street": "Rua Cinco",
        "zipcode": "35900-762"
    },
    {
        "city": "Itabira",
        "state": "MG",
        "district": "São Cristóvão",
        "street": "Travessa Cinco",
        "zipcode": "35900-765"
    },
    {
        "city": "Itabira",
        "state": "MG",
        "district": "Vila Salica",
        "street": "Rua C",
        "zipcode": "35900-777"
    },
    {
        "city": "Itabira",
        "state": "MG",
        "district": "Vila Salica",
        "street": "Rua D",
        "zipcode": "35900-778"
    },
    {
        "city": "Itabira",
        "state": "MG",
        "district": "Água Fresca",
        "street": "Rua Salmonete",
        "zipcode": "35900-768"
    },
    {
        "city": "Itabira",
        "state": "MG",
        "district": "Água Fresca",
        "street": "Travessa Tabelião Valdemar de Alvarenga Lage",
        "zipcode": "35900-769"
    },
    {
        "city": "Itabira",
        "state": "MG",
        "district": "Vila Salica",
        "street": "Rua A",
        "zipcode": "35900-775"
    },
    {
        "city": "Itabira",
        "state": "MG",
        "district": "Machado",
        "street": "Avenida Rui Barbosa",
        "zipcode": "35901-006"
    },
    {
        "city": "Itabira",
        "state": "MG",
        "district": "Machado",
        "street": "Rua Bernardo Guimarães",
        "zipcode": "35901-009"
    },
    {
        "city": "Itabira",
        "state": "MG",
        "district": "Machado",
        "street": "Rua Castro Alves",
        "zipcode": "35901-012"
    },
    {
        "city": "Itabira",
        "state": "MG",
        "district": "Machado",
        "street": "Rua Afonso Pena",
        "zipcode": "35901-014"
    },
    {
        "city": "Itabira",
        "state": "MG",
        "district": "Machado",
        "street": "Rua B",
        "zipcode": "35901-016"
    },
    {
        "city": "Itabira",
        "state": "MG",
        "district": "Machado",
        "street": "Rua Costa e Silva",
        "zipcode": "35901-026"
    },
    {
        "city": "Itabira",
        "state": "MG",
        "district": "Santa Ruth",
        "street": "Rua Dezessete",
        "zipcode": "35901-061"
    },
    {
        "city": "Itabira",
        "state": "MG",
        "district": "Santa Ruth",
        "street": "Rua Dona Fiota",
        "zipcode": "35901-065"
    },
    {
        "city": "Itabira",
        "state": "MG",
        "district": "Machado",
        "street": "Rua Cora Coralina",
        "zipcode": "35901-099"
    },
    {
        "city": "Itabira",
        "state": "MG",
        "district": "Ribeira de Cima",
        "street": "Rua das Castanheiras",
        "zipcode": "35901-202"
    },
    {
        "city": "Itabira",
        "state": "MG",
        "district": "Gabiroba",
        "street": "Rua dos Advogados",
        "zipcode": "35902-000"
    },
    {
        "city": "Itabira",
        "state": "MG",
        "district": "Gabiroba",
        "street": "Rua dos Metalúrgicos",
        "zipcode": "35902-011"
    },
    {
        "city": "Itabira",
        "state": "MG",
        "district": "Juca Rosa",
        "street": "Rua Ipê",
        "zipcode": "35900-691"
    },
    {
        "city": "Itabira",
        "state": "MG",
        "district": "Hamilton",
        "street": "Rua Floresta",
        "zipcode": "35900-722"
    },
    {
        "city": "Itabira",
        "state": "MG",
        "district": "Amazonas",
        "street": "Rua Honorina Machado",
        "zipcode": "35900-729"
    },
    {
        "city": "Itabira",
        "state": "MG",
        "district": "Amazonas",
        "street": "Rua Goiás",
        "zipcode": "35900-731"
    },
    {
        "city": "Itabira",
        "state": "MG",
        "district": "Novo Amazonas",
        "street": "Rua Geraldo Alves Neves",
        "zipcode": "35900-739"
    },
    {
        "city": "Itabira",
        "state": "MG",
        "district": "Machado",
        "street": "Rua José de Alencar",
        "zipcode": "35901-010"
    },
    {
        "city": "Itabira",
        "state": "MG",
        "district": "Machado",
        "street": "Rua E",
        "zipcode": "35901-019"
    },
    {
        "city": "Itabira",
        "state": "MG",
        "district": "João XXIII",
        "street": "Rua Fagundes Varela",
        "zipcode": "35901-031"
    },
    {
        "city": "Itabira",
        "state": "MG",
        "district": "Vila Conceição de Baixo",
        "street": "Rua Hortelã",
        "zipcode": "35901-087"
    },
    {
        "city": "Itabira",
        "state": "MG",
        "district": "Vila Conceição de Baixo",
        "street": "Rua Jacarandá",
        "zipcode": "35901-094"
    },
    {
        "city": "Itabira",
        "state": "MG",
        "district": "Fênix",
        "street": "Rua Ernane de Oliveira",
        "zipcode": "35901-225"
    },
    {
        "city": "Itabira",
        "state": "MG",
        "district": "Fênix",
        "street": "Rua João Martins de Souza",
        "zipcode": "35901-230"
    },
    {
        "city": "Itabira",
        "state": "MG",
        "district": "Juca Rosa",
        "street": "Rua Paraisópolis",
        "zipcode": "35900-692"
    },
    {
        "city": "Itabira",
        "state": "MG",
        "district": "Amazonas",
        "street": "Rua Madre Maria de Jesus",
        "zipcode": "35900-732"
    },
    {
        "city": "Itabira",
        "state": "MG",
        "district": "Santo Antônio",
        "street": "Travessa Didi Andrade",
        "zipcode": "35900-647"
    },
    {
        "city": "Itabira",
        "state": "MG",
        "district": "Praia",
        "street": "Travessa Guarani",
        "zipcode": "35900-683"
    },
    {
        "city": "Itabira",
        "state": "MG",
        "district": "Praia",
        "street": "Travessa Santa Bárbara",
        "zipcode": "35900-682"
    },
    {
        "city": "Itabira",
        "state": "MG",
        "district": "Vila São Geraldo",
        "street": "Rua Marajó",
        "zipcode": "35900-695"
    },
    {
        "city": "Itabira",
        "state": "MG",
        "district": "Major Lage de Baixo",
        "street": "Travessa Modesto Pinto",
        "zipcode": "35900-708"
    },
    {
        "city": "Itabira",
        "state": "MG",
        "district": "Major Lage de Baixo",
        "street": "Rua Vereador Nenêgo Prisco",
        "zipcode": "35900-709"
    },
    {
        "city": "Itabira",
        "state": "MG",
        "district": "Amazonas",
        "street": "Rua Três",
        "zipcode": "35900-726"
    },
    {
        "city": "Itabira",
        "state": "MG",
        "district": "Novo Amazonas",
        "street": "Praça Maria Clara",
        "zipcode": "35900-740"
    },
    {
        "city": "Itabira",
        "state": "MG",
        "district": "Santa Inês",
        "street": "Rua Seis",
        "zipcode": "35900-876"
    },
    {
        "city": "Itabira",
        "state": "MG",
        "district": "Clóvis Alvim I",
        "street": "Avenida Fábio Pires",
        "zipcode": "35901-000"
    },
    {
        "city": "Itabira",
        "state": "MG",
        "district": "Machado",
        "street": "Rua Quintiliano Guerra",
        "zipcode": "35901-023"
    },
    {
        "city": "Itabira",
        "state": "MG",
        "district": "João XXIII",
        "street": "Rua São Miguel",
        "zipcode": "35901-033"
    },
    {
        "city": "Itabira",
        "state": "MG",
        "district": "João XXIII",
        "street": "Rua B",
        "zipcode": "35901-038"
    },
    {
        "city": "Itabira",
        "state": "MG",
        "district": "João XXIII",
        "street": "Rua B",
        "zipcode": "35901-039"
    },
    {
        "city": "Itabira",
        "state": "MG",
        "district": "João XXIII",
        "street": "Rua K",
        "zipcode": "35901-046"
    },
    {
        "city": "Itabira",
        "state": "MG",
        "district": "João XXIII",
        "street": "Rua L",
        "zipcode": "35901-047"
    },
    {
        "city": "Itabira",
        "state": "MG",
        "district": "Valença",
        "street": "Rua Lisboa",
        "zipcode": "35901-055"
    },
    {
        "city": "Itabira",
        "state": "MG",
        "district": "Fênix",
        "street": "Rua Mário de Paula Andrade",
        "zipcode": "35901-234"
    },
    {
        "city": "Itabira",
        "state": "MG",
        "district": "São Francisco",
        "street": "Rua Dois",
        "zipcode": "35900-611"
    },
    {
        "city": "Itabira",
        "state": "MG",
        "district": "Santa Matilde",
        "street": "Rua Sete",
        "zipcode": "35900-628"
    },
    {
        "city": "Itabira",
        "state": "MG",
        "district": "Madre Maria de Jesus",
        "street": "Beco Dez",
        "zipcode": "35900-787"
    },
    {
        "city": "Itabira",
        "state": "MG",
        "district": "Madre Maria de Jesus",
        "street": "Rua Titina",
        "zipcode": "35900-789"
    },
    {
        "city": "Itabira",
        "state": "MG",
        "district": "Gabiroba",
        "street": "Travessa Eletricistas",
        "zipcode": "35900-807"
    },
    {
        "city": "Itabira",
        "state": "MG",
        "district": "Gabiroba",
        "street": "Rua Comerciários",
        "zipcode": "35900-798"
    },
    {
        "city": "Itabira",
        "state": "MG",
        "district": "Gabiroba",
        "street": "Rua Deputados",
        "zipcode": "35900-799"
    },
    {
        "city": "Itabira",
        "state": "MG",
        "district": "Gabiroba",
        "street": "Travessa Deputados",
        "zipcode": "35900-800"
    },
    {
        "city": "Itabira",
        "state": "MG",
        "district": "Gabiroba",
        "street": "Rua A",
        "zipcode": "35900-804"
    },
    {
        "city": "Itabira",
        "state": "MG",
        "district": "Vila Bethânia",
        "street": "Travessa Canaã",
        "zipcode": "35900-793"
    },
    {
        "city": "Itabira",
        "state": "MG",
        "district": "Vila Bethânia",
        "street": "Rua Maria Gomes",
        "zipcode": "35900-794"
    },
    {
        "city": "Itabira",
        "state": "MG",
        "district": "Gabiroba",
        "street": "Rua dos Taxistas",
        "zipcode": "35902-008"
    },
    {
        "city": "Itabira",
        "state": "MG",
        "district": "Gabiroba",
        "street": "Rua dos Cantores",
        "zipcode": "35902-016"
    },
    {
        "city": "Itabira",
        "state": "MG",
        "district": "Eldorado",
        "street": "Rua L",
        "zipcode": "35900-141"
    },
    {
        "city": "Itabira",
        "state": "MG",
        "district": "Penha",
        "street": "Rua do Cruzeiro",
        "zipcode": "35900-071"
    },
    {
        "city": "Itabira",
        "state": "MG",
        "district": "Esplanada da Estação",
        "street": "Rua Suzinha de Sá Martins",
        "zipcode": "35900-209"
    },
    {
        "city": "Itabira",
        "state": "MG",
        "district": "Colina da Praia",
        "street": "Rua Vinte e Dois",
        "zipcode": "35900-310"
    },
    {
        "city": "Itabira",
        "state": "MG",
        "district": "Água Fresca",
        "street": "Rua Olme",
        "zipcode": "35900-451"
    },
    {
        "city": "Itabira",
        "state": "MG",
        "district": "Santa Ruth",
        "street": "Rua Vinte e Três",
        "zipcode": "35901-071"
    },
    {
        "city": "Itabira",
        "state": "MG",
        "district": "Santa Ruth",
        "street": "Rua Oito",
        "zipcode": "35901-073"
    },
    {
        "city": "Itabira",
        "state": "MG",
        "district": "Santa Ruth",
        "street": "Rua Vinte e Dois",
        "zipcode": "35901-074"
    },
    {
        "city": "Itabira",
        "state": "MG",
        "district": "Valença",
        "street": "Travessa Lisboa",
        "zipcode": "35901-095"
    },
    {
        "city": "Itabira",
        "state": "MG",
        "district": "Santa Marta",
        "street": "Rua Seis",
        "zipcode": "35901-186"
    },
    {
        "city": "Itabira",
        "state": "MG",
        "district": "Santa Marta",
        "street": "Rua Nove",
        "zipcode": "35901-189"
    },
    {
        "city": "Itabira",
        "state": "MG",
        "district": "Fênix",
        "street": "Rua Onze",
        "zipcode": "35901-227"
    },
    {
        "city": "Itabira",
        "state": "MG",
        "district": "Monsenhor José Lopes",
        "street": "Rua Nephtali Nogueira Silva",
        "zipcode": "35901-407"
    },
    {
        "city": "Itabira",
        "state": "MG",
        "district": "Monsenhor José Lopes",
        "street": "Rua Francisco de Paulo da Silva",
        "zipcode": "35901-413"
    },
    {
        "city": "Itabira",
        "state": "MG",
        "district": "Gabiroba",
        "street": "Travessa dos Advogados",
        "zipcode": "35902-001"
    },
    {
        "city": "Itabira",
        "state": "MG",
        "district": "Gabiroba",
        "street": "Rua dos Desenhistas",
        "zipcode": "35902-025"
    },
    {
        "city": "Itabira",
        "state": "MG",
        "district": "Gabiroba",
        "street": "Rua dos Cabelereiros",
        "zipcode": "35902-026"
    },
    {
        "city": "Itabira",
        "state": "MG",
        "district": "Gabiroba",
        "street": "Rua dos Biólogos",
        "zipcode": "35902-032"
    },
    {
        "city": "Itabira",
        "state": "MG",
        "district": "Gabiroba",
        "street": "Rua DW",
        "zipcode": "35902-035"
    },
    {
        "city": "Itabira",
        "state": "MG",
        "district": "Gabiroba",
        "street": "Rua DW",
        "zipcode": "35902-043"
    },
    {
        "city": "Itabira",
        "state": "MG",
        "district": "Gabiroba",
        "street": "Rua DW",
        "zipcode": "35902-046"
    },
    {
        "city": "Itabira",
        "state": "MG",
        "district": "Gabiroba",
        "street": "Rua DW",
        "zipcode": "35902-049"
    },
    {
        "city": "Itabira",
        "state": "MG",
        "district": "Gabiroba",
        "street": "Travessa Olinda Alves",
        "zipcode": "35902-053"
    },
    {
        "city": "Itabira",
        "state": "MG",
        "district": "Gabiroba",
        "street": "Rua Jó Ferreira Silva",
        "zipcode": "35902-059"
    },
    {
        "city": "Itabira",
        "state": "MG",
        "district": "Gabiroba",
        "street": "Rua dos Carpinteiros",
        "zipcode": "35902-061"
    },
    {
        "city": "Itabira",
        "state": "MG",
        "district": "Gabiroba",
        "street": "Rua DW",
        "zipcode": "35902-063"
    },
    {
        "city": "Itabira",
        "state": "MG",
        "district": "Gabiroba",
        "street": "Rua dos Cientistas",
        "zipcode": "35902-064"
    },
    {
        "city": "Itabira",
        "state": "MG",
        "district": "Gabiroba",
        "street": "Rua Rosa Antônia de Oliveira",
        "zipcode": "35902-073"
    },
    {
        "city": "Itabira",
        "state": "MG",
        "district": "Gabiroba",
        "street": "Rua Salvador Teodoro Magalhães",
        "zipcode": "35902-079"
    },
    {
        "city": "Itabira",
        "state": "MG",
        "district": "Gabiroba",
        "street": "Rua José Sergio Rosa",
        "zipcode": "35902-081"
    },
    {
        "city": "Itabira",
        "state": "MG",
        "district": "Santa Matilde",
        "street": "Rua N",
        "zipcode": "35900-626"
    },
    {
        "city": "Itabira",
        "state": "MG",
        "district": "Major Lage de Cima",
        "street": "Rua Córrego Seco",
        "zipcode": "35900-840"
    },
    {
        "city": "Itabira",
        "state": "MG",
        "district": "Major Lage de Cima",
        "street": "Rua Vila Técnica Areão",
        "zipcode": "35900-841"
    },
    {
        "city": "Itabira",
        "state": "MG",
        "district": "Alto da Boa Vista",
        "street": "Rua Um",
        "zipcode": "35900-850"
    },
    {
        "city": "Itabira",
        "state": "MG",
        "district": "Cidade Nova",
        "street": "Rua Doutor Daniel de Carvalho",
        "zipcode": "35900-868"
    },
    {
        "city": "Itabira",
        "state": "MG",
        "district": "Clóvis Alvim I",
        "street": "Rua Jason Bragança",
        "zipcode": "35901-003"
    },
    {
        "city": "Itabira",
        "state": "MG",
        "district": "João XXIII",
        "street": "Rua São Mateus",
        "zipcode": "35901-034"
    },
    {
        "city": "Itabira",
        "state": "MG",
        "district": "Valença",
        "street": "Rua Veneza",
        "zipcode": "35901-051"
    },
    {
        "city": "Itabira",
        "state": "MG",
        "district": "Valença",
        "street": "Rua Coimbra",
        "zipcode": "35901-053"
    },
    {
        "city": "Itabira",
        "state": "MG",
        "district": "Valença",
        "street": "Rua Nápolis",
        "zipcode": "35901-054"
    },
    {
        "city": "Itabira",
        "state": "MG",
        "district": "Santa Ruth",
        "street": "Rua Doze",
        "zipcode": "35901-069"
    },
    {
        "city": "Itabira",
        "state": "MG",
        "district": "Santa Ruth",
        "street": "Rua Sete",
        "zipcode": "35901-081"
    },
    {
        "city": "Itabira",
        "state": "MG",
        "district": "Santa Ruth",
        "street": "Rua Vinte e Um",
        "zipcode": "35901-178"
    },
    {
        "city": "Itabira",
        "state": "MG",
        "district": "Santa Marta",
        "street": "Rua Três",
        "zipcode": "35901-183"
    },
    {
        "city": "Itabira",
        "state": "MG",
        "district": "Fênix",
        "street": "Rua Dez",
        "zipcode": "35901-228"
    },
    {
        "city": "Itabira",
        "state": "MG",
        "district": "Fênix",
        "street": "Rua Cristovam Pimentel Duarte",
        "zipcode": "35901-236"
    },
    {
        "city": "Itabira",
        "state": "MG",
        "district": "Fênix",
        "street": "Rua D",
        "zipcode": "35901-239"
    },
    {
        "city": "Itabira",
        "state": "MG",
        "district": "Gabiroba",
        "street": "Rua dos Pescadores",
        "zipcode": "35902-019"
    },
    {
        "city": "Itabira",
        "state": "MG",
        "district": "Gabiroba",
        "street": "Rua DW",
        "zipcode": "35902-020"
    },
    {
        "city": "Itabira",
        "state": "MG",
        "district": "Gabiroba",
        "street": "Rua DW",
        "zipcode": "35902-028"
    },
    {
        "city": "Itabira",
        "state": "MG",
        "district": "Barreiro",
        "street": "Rua Eduardo Lage Andrade",
        "zipcode": "35903-038"
    },
    {
        "city": "Itabira",
        "state": "MG",
        "district": "Centro",
        "street": "Rua Alexandre Drumond",
        "zipcode": "35900-010"
    },
    {
        "city": "Itabira",
        "state": "MG",
        "district": "Pará",
        "street": "Rua Alfredo Sampaio",
        "zipcode": "35900-030"
    },
    {
        "city": "Itabira",
        "state": "MG",
        "district": "Centro",
        "street": "Rua Irmãos DCaux",
        "zipcode": "35900-026"
    },
    {
        "city": "Itabira",
        "state": "MG",
        "district": "Centro",
        "street": "Rua Padre Olímpio",
        "zipcode": "35900-014"
    },
    {
        "city": "Itabira",
        "state": "MG",
        "district": "Pará",
        "street": "Rua Bebe Magalhães",
        "zipcode": "35900-052"
    },
    {
        "city": "Itabira",
        "state": "MG",
        "district": "Santo Antônio",
        "street": "Rua C",
        "zipcode": "35900-115"
    },
    {
        "city": "Itabira",
        "state": "MG",
        "district": "São Pedro",
        "street": "Rua Begônias",
        "zipcode": "35900-131"
    },
    {
        "city": "Itabira",
        "state": "MG",
        "district": "Eldorado",
        "street": "Praça Quatro",
        "zipcode": "35900-144"
    },
    {
        "city": "Itabira",
        "state": "MG",
        "district": "Hamilton",
        "street": "Rua Avelar Machado",
        "zipcode": "35900-385"
    },
    {
        "city": "Itabira",
        "state": "MG",
        "district": "Água Fresca",
        "street": "Rua Benedito Roque da Silva",
        "zipcode": "35900-466"
    },
    {
        "city": "Itabira",
        "state": "MG",
        "district": "Bela Vista",
        "street": "Rua Cônego Guilhermino Pereira",
        "zipcode": "35900-097"
    },
    {
        "city": "Itabira",
        "state": "MG",
        "district": "Juca Rosa",
        "street": "Rua do Cedro",
        "zipcode": "35900-189"
    },
    {
        "city": "Itabira",
        "state": "MG",
        "district": "Major Lage de Baixo",
        "street": "Rua Caxambu",
        "zipcode": "35900-213"
    },
    {
        "city": "Itabira",
        "state": "MG",
        "district": "Quatorze de Fevereiro",
        "street": "Rua Dona Eleonora",
        "zipcode": "35900-240"
    },
    {
        "city": "Itabira",
        "state": "MG",
        "district": "Alto Pereira",
        "street": "Rua D",
        "zipcode": "35900-250"
    },
    {
        "city": "Itabira",
        "state": "MG",
        "district": "Panorama",
        "street": "Rua Custódio G. Martins da Costa",
        "zipcode": "35900-338"
    },
    {
        "city": "Itabira",
        "state": "MG",
        "district": "Hamilton",
        "street": "Rua Daniel Jardim de Grisólia",
        "zipcode": "35900-384"
    },
    {
        "city": "Itabira",
        "state": "MG",
        "district": "Major Lage de Baixo",
        "street": "Rua Cristal",
        "zipcode": "35900-221"
    },
    {
        "city": "Itabira",
        "state": "MG",
        "district": "Amazonas",
        "street": "Rua Cinco",
        "zipcode": "35900-728"
    },
    {
        "city": "Itabira",
        "state": "MG",
        "district": "Campestre I",
        "street": "Rua Itabirito",
        "zipcode": "35900-087"
    },
    {
        "city": "Itabira",
        "state": "MG",
        "district": "Santo Antônio",
        "street": "Rua Gerson Guerra",
        "zipcode": "35900-110"
    },
    {
        "city": "Itabira",
        "state": "MG",
        "district": "Nova Vista",
        "street": "Rua Estrela Guia",
        "zipcode": "35900-180"
    },
    {
        "city": "Itabira",
        "state": "MG",
        "district": "Colina da Praia",
        "street": "Rua José Expedito Totó",
        "zipcode": "35900-305"
    },
    {
        "city": "Itabira",
        "state": "MG",
        "district": "Amazonas",
        "street": "Rua Espírito Santo",
        "zipcode": "35900-381"
    },
    {
        "city": "Itabira",
        "state": "MG",
        "district": "Campestre I",
        "street": "Rua Mister Chalton",
        "zipcode": "35900-075"
    },
    {
        "city": "Itabira",
        "state": "MG",
        "district": "Bela Vista",
        "street": "Rua Raimundo Dionísio Vieira",
        "zipcode": "35900-103"
    },
    {
        "city": "Itabira",
        "state": "MG",
        "district": "Água Fresca",
        "street": "Rua Manoel Clemente Ribeiro",
        "zipcode": "35900-494"
    },
    {
        "city": "Itabira",
        "state": "MG",
        "district": "Eldorado",
        "street": "Rua Professor João Novais",
        "zipcode": "35900-138"
    },
    {
        "city": "Itabira",
        "state": "MG",
        "district": "Colina da Praia",
        "street": "Rua Professora Batistina Pereira",
        "zipcode": "35900-688"
    },
    {
        "city": "Itabira",
        "state": "MG",
        "district": "São Pedro",
        "street": "Travessa das Rosas",
        "zipcode": "35900-119"
    },
    {
        "city": "Itabira",
        "state": "MG",
        "district": "Santa Tereza (Cvrd)",
        "street": "Rua Sebastião Damásio de Alvarenga",
        "zipcode": "35900-435"
    },
    {
        "city": "Itabira",
        "state": "MG",
        "district": "Major Lage de Baixo",
        "street": "Travessa Granito",
        "zipcode": "35900-707"
    },
    {
        "city": "Itabira",
        "state": "MG",
        "district": "Vila Nações Unidas",
        "street": "Rua Miguel Alves de Araújo",
        "zipcode": "35900-056"
    },
    {
        "city": "Itabira",
        "state": "MG",
        "district": "Penha",
        "street": "Avenida João Soares Silva",
        "zipcode": "35900-062"
    },
    {
        "city": "Itabira",
        "state": "MG",
        "district": "Bela Vista",
        "street": "Avenida Emílio Zacarias da Silva",
        "zipcode": "35900-091"
    },
    {
        "city": "Itabira",
        "state": "MG",
        "district": "São Pedro",
        "street": "Travessa Três",
        "zipcode": "35900-123"
    },
    {
        "city": "Itabira",
        "state": "MG",
        "district": "Colina da Praia",
        "street": "Rua Doze",
        "zipcode": "35900-301"
    },
    {
        "city": "Itabira",
        "state": "MG",
        "district": "João XXIII",
        "street": "Rua Manoel Bandeira",
        "zipcode": "35901-035"
    },
    {
        "city": "Itabira",
        "state": "MG",
        "district": "Gabiroba",
        "street": "Rua dos Tabeliães",
        "zipcode": "35902-097"
    },
    {
        "city": "Itabira",
        "state": "MG",
        "district": "Gabiroba",
        "street": "Rua dos Topógrafos",
        "zipcode": "35902-099"
    },
    {
        "city": "Itabira",
        "state": "MG",
        "district": "Gabiroba",
        "street": "Rua Telefonistas",
        "zipcode": "35902-105"
    },
    {
        "city": "Itabira",
        "state": "MG",
        "district": "Gabiroba",
        "street": "Rua dos Delegados",
        "zipcode": "35902-091"
    },
    {
        "city": "Itabira",
        "state": "MG",
        "district": "Jardim dos Ipês",
        "street": "Rua Ipê do Serrado",
        "zipcode": "35903-000"
    },
    {
        "city": "Itabira",
        "state": "MG",
        "district": "Jardim dos Ipês",
        "street": "Rua Ipê Rosa",
        "zipcode": "35903-001"
    },
    {
        "city": "Itabira",
        "state": "MG",
        "district": "Jardim dos Ipês",
        "street": "Rua Ipê da Serra",
        "zipcode": "35903-008"
    },
    {
        "city": "Itabira",
        "state": "MG",
        "district": "Jardim dos Ipês",
        "street": "Rua Ipê Verde",
        "zipcode": "35903-010"
    },
    {
        "city": "Itabira",
        "state": "MG",
        "district": "Jardim dos Ipês",
        "street": "Rua Ipê de Minas",
        "zipcode": "35903-012"
    },
    {
        "city": "Itabira",
        "state": "MG",
        "district": "Jardim dos Ipês",
        "street": "Praça Dois",
        "zipcode": "35903-016"
    },
    {
        "city": "Itabira",
        "state": "MG",
        "district": "Jardim dos Ipês",
        "street": "Praça Três",
        "zipcode": "35903-017"
    },
    {
        "city": "Itabira",
        "state": "MG",
        "district": "Distrito Industrial II",
        "street": "Rua Dois",
        "zipcode": "35903-082"
    },
    {
        "city": "Itabira",
        "state": "MG",
        "district": "Distrito Industrial II",
        "street": "Rua Quatro",
        "zipcode": "35903-084"
    },
    {
        "city": "Itabira",
        "state": "MG",
        "district": "Pedreira",
        "street": "Rua Haiti",
        "zipcode": "35904-022"
    },
    {
        "city": "Itabira",
        "state": "MG",
        "district": "Santa Ruth",
        "street": "Rua Quinze",
        "zipcode": "35901-059"
    },
    {
        "city": "Itabira",
        "state": "MG",
        "district": "Gabiroba",
        "street": "Travessa das Cantineiras",
        "zipcode": "35902-010"
    },
    {
        "city": "Itabira",
        "state": "MG",
        "district": "Gabiroba",
        "street": "Rua DW",
        "zipcode": "35902-039"
    },
    {
        "city": "Itabira",
        "state": "MG",
        "district": "Gabiroba",
        "street": "Rua DW",
        "zipcode": "35902-047"
    },
    {
        "city": "Itabira",
        "state": "MG",
        "district": "Barreiro",
        "street": "Rua Elson Lambari",
        "zipcode": "35903-032"
    },
    {
        "city": "Itabira",
        "state": "MG",
        "district": "Fênix",
        "street": "Rua Um",
        "zipcode": "35901-240"
    },
    {
        "city": "Itabira",
        "state": "MG",
        "district": "Praia",
        "street": "Rua Mesquita",
        "zipcode": "35900-284"
    },
    {
        "city": "Itabira",
        "state": "MG",
        "district": "Bela Vista",
        "street": "Rua Antônio XIV",
        "zipcode": "35900-107"
    },
    {
        "city": "Itabira",
        "state": "MG",
        "district": "Colina da Praia",
        "street": "Rua Caládiuns",
        "zipcode": "35900-327"
    },
    {
        "city": "Itabira",
        "state": "MG",
        "district": "Amazonas",
        "street": "Rua Amapá",
        "zipcode": "35900-730"
    },
    {
        "city": "Itabira",
        "state": "MG",
        "district": "Gabiroba (1ª Seção)",
        "street": "Rua dos Estudantes",
        "zipcode": "35900-413"
    },
    {
        "city": "Itabira",
        "state": "MG",
        "district": "Gabiroba (1ª Seção)",
        "street": "Rua dos Industriários",
        "zipcode": "35900-424"
    },
    {
        "city": "Itabira",
        "state": "MG",
        "district": "Gabiroba (1ª Seção)",
        "street": "Rua dos Engenheiros",
        "zipcode": "35900-433"
    },
    {
        "city": "Itabira",
        "state": "MG",
        "district": "Vila São Joaquim",
        "street": "Rua Doutor Altivo Drumond de Andrade",
        "zipcode": "35900-712"
    },
    {
        "city": "Itabira",
        "state": "MG",
        "district": "Machado",
        "street": "Rua Coelho Neto",
        "zipcode": "35901-097"
    },
    {
        "city": "Itabira",
        "state": "MG",
        "district": "Vila Bethânia",
        "street": "Rua Jerusalém",
        "zipcode": "35900-475"
    },
    {
        "city": "Itabira",
        "state": "MG",
        "district": "Pará",
        "street": "Rua José Andrade",
        "zipcode": "35900-493"
    },
    {
        "city": "Itabira",
        "state": "MG",
        "district": "Vila Piedade",
        "street": "Rua José Isidoro",
        "zipcode": "35900-204"
    },
    {
        "city": "Itabira",
        "state": "MG",
        "district": "Eldorado",
        "street": "Rua Levy Ribeiro",
        "zipcode": "35900-152"
    },
    {
        "city": "Itabira",
        "state": "MG",
        "district": "Eldorado",
        "street": "Rua Maria do Carmo Lage",
        "zipcode": "35900-157"
    },
    {
        "city": "Itabira",
        "state": "MG",
        "district": "Nossa Senhora das Oliveiras",
        "street": "Rua Pirapora",
        "zipcode": "35900-168"
    },
    {
        "city": "Itabira",
        "state": "MG",
        "district": "Nova Vista",
        "street": "Rua Pôr do Sol",
        "zipcode": "35900-184"
    },
    {
        "city": "Itabira",
        "state": "MG",
        "district": "Vila Piedade",
        "street": "Rua Josefina Bragança",
        "zipcode": "35900-200"
    },
    {
        "city": "Itabira",
        "state": "MG",
        "district": "Major Lage de Baixo",
        "street": "Rua Platina",
        "zipcode": "35900-217"
    },
    {
        "city": "Itabira",
        "state": "MG",
        "district": "Vila Amélia",
        "street": "Rua Marte",
        "zipcode": "35900-254"
    },
    {
        "city": "Itabira",
        "state": "MG",
        "district": "Bela Vista",
        "street": "Rua José Marinho Fernandes",
        "zipcode": "35900-601"
    },
    {
        "city": "Itabira",
        "state": "MG",
        "district": "Gabiroba (1ª Seção)",
        "street": "Rua Músicos",
        "zipcode": "35900-429"
    },
    {
        "city": "Itabira",
        "state": "MG",
        "district": "Água Fresca",
        "street": "Rua Palmeiras",
        "zipcode": "35900-453"
    },
    {
        "city": "Itabira",
        "state": "MG",
        "district": "Colina da Praia",
        "street": "Rua Quatorze",
        "zipcode": "35900-689"
    },
    {
        "city": "Itabira",
        "state": "MG",
        "district": "Hamilton",
        "street": "Rua Mata",
        "zipcode": "35900-721"
    },
    {
        "city": "Itabira",
        "state": "MG",
        "district": "Vila São Geraldo",
        "street": "Rua Sebastião Calixto da Mata",
        "zipcode": "35900-195"
    },
    {
        "city": "Itabira",
        "state": "MG",
        "district": "Major Lage de Baixo",
        "street": "Rua Urânio",
        "zipcode": "35900-226"
    },
    {
        "city": "Itabira",
        "state": "MG",
        "district": "Novo Amazonas",
        "street": "Rua São Paulo",
        "zipcode": "35900-352"
    },
    {
        "city": "Itabira",
        "state": "MG",
        "district": "Novo Amazonas",
        "street": "Rua Rio Grande do Sul",
        "zipcode": "35900-358"
    },
    {
        "city": "Itabira",
        "state": "MG",
        "district": "Major Lage de Cima",
        "street": "Rua Topázio",
        "zipcode": "35900-394"
    },
    {
        "city": "Itabira",
        "state": "MG",
        "district": "Madre Maria de Jesus",
        "street": "Rua Seis",
        "zipcode": "35900-470"
    },
    {
        "city": "Itabira",
        "state": "MG",
        "district": "Clóvis Alvim II",
        "street": "Rua Sebastião José Gomes",
        "zipcode": "35900-488"
    },
    {
        "city": "Itabira",
        "state": "MG",
        "district": "Colina da Praia",
        "street": "Rua Vinte e Seis",
        "zipcode": "35900-314"
    },
    {
        "city": "Itabira",
        "state": "MG",
        "district": "Água Fresca",
        "street": "Rua São Geraldo",
        "zipcode": "35900-465"
    },
    {
        "city": "Itabira",
        "state": "MG",
        "district": "Penha",
        "street": "Avenida France de Paula Andrade",
        "zipcode": "35900-063"
    },
    {
        "city": "Itabira",
        "state": "MG",
        "district": "Colina da Praia",
        "street": "Rua Nemerocallis",
        "zipcode": "35900-334"
    },
    {
        "city": "Itabira",
        "state": "MG",
        "district": "Clóvis Alvim II",
        "street": "Rua José Evangelista Lage",
        "zipcode": "35900-484"
    },
    {
        "city": "Itabira",
        "state": "MG",
        "district": "Centro",
        "street": "Rua João Gonçalves de Lima",
        "zipcode": "35900-524"
    },
    {
        "city": "Itabira",
        "state": "MG",
        "district": "Amazonas",
        "street": "Rua Titina Machado",
        "zipcode": "35900-725"
    },
    {
        "city": "Itabira",
        "state": "MG",
        "district": "Abóboras",
        "street": "Rua Afonso de Assis Freitas",
        "zipcode": "35901-150"
    },
    {
        "city": "Itabira",
        "state": "MG",
        "district": "Bálsamos",
        "street": "Rua Açafrão",
        "zipcode": "35901-359"
    },
    {
        "city": "Itabira",
        "state": "MG",
        "district": "Gabiroba",
        "street": "Rua Olinda Alves",
        "zipcode": "35902-052"
    },
    {
        "city": "Itabira",
        "state": "MG",
        "district": "Gabiroba",
        "street": "Rua BW",
        "zipcode": "35902-072"
    },
    {
        "city": "Itabira",
        "state": "MG",
        "district": "Centro",
        "street": "Rua Maria Alexandrina Rosa",
        "zipcode": "35900-533"
    },
    {
        "city": "Itabira",
        "state": "MG",
        "district": "Santa Matilde",
        "street": "Rua Dois",
        "zipcode": "35900-630"
    },
    {
        "city": "Itabira",
        "state": "MG",
        "district": "São Pedro",
        "street": "Rua Azaléia",
        "zipcode": "35900-640"
    },
    {
        "city": "Itabira",
        "state": "MG",
        "district": "Pedreira",
        "street": "Rua Sabiá",
        "zipcode": "35904-024"
    },
    {
        "city": "Itabira",
        "state": "MG",
        "district": "Quintas da Rocinha",
        "street": "Rua dos Passarinhos",
        "zipcode": "35904-107"
    },
    {
        "city": "Itabira",
        "state": "MG",
        "district": "Distrito Industrial",
        "street": "Avenida Itabirito",
        "zipcode": "35903-052"
    },
    {
        "city": "Itabira",
        "state": "MG",
        "district": "Pedreira",
        "street": "Rua Cigarra",
        "zipcode": "35904-023"
    },
    {
        "city": "Itabira",
        "state": "MG",
        "district": "Pedreira",
        "street": "Travessa Gaivota",
        "zipcode": "35904-027"
    },
    {
        "city": "Itabira",
        "state": "MG",
        "district": "Quintas da Rocinha",
        "street": "Rua das Corujas",
        "zipcode": "35904-103"
    },
    {
        "city": "Itabira",
        "state": "MG",
        "district": "Madre Maria de Jesus",
        "street": "Beco Onze",
        "zipcode": "35900-788"
    },
    {
        "city": "Itabira",
        "state": "MG",
        "district": "Gabiroba",
        "street": "Rua José Guilherme Zeferino",
        "zipcode": "35900-797"
    },
    {
        "city": "Itabira",
        "state": "MG",
        "district": "São Pedro",
        "street": "Rua Dálias",
        "zipcode": "35900-127"
    },
    {
        "city": "Itabira",
        "state": "MG",
        "district": "Gabiroba",
        "street": "Rua José Leandro de Araujo",
        "zipcode": "35900-803"
    },
    {
        "city": "Itabira",
        "state": "MG",
        "district": "Eldorado",
        "street": "Rua Antônio Caiapó",
        "zipcode": "35900-147"
    },
    {
        "city": "Itabira",
        "state": "MG",
        "district": "Campestre",
        "street": "Praça Vereador José Máximo",
        "zipcode": "35900-593"
    },
    {
        "city": "Itabira",
        "state": "MG",
        "district": "Eldorado",
        "street": "Rua Aprígio da Conceição Pires",
        "zipcode": "35900-150"
    },
    {
        "city": "Itabira",
        "state": "MG",
        "district": "Machado",
        "street": "Rua Cassimiro de Abreu",
        "zipcode": "35901-011"
    },
    {
        "city": "Itabira",
        "state": "MG",
        "district": "Machado",
        "street": "Rua das Candeias",
        "zipcode": "35901-028"
    },
    {
        "city": "Itabira",
        "state": "MG",
        "district": "Santa Ruth",
        "street": "Rua Dezesseis",
        "zipcode": "35901-060"
    },
    {
        "city": "Itabira",
        "state": "MG",
        "district": "Ribeira de Cima",
        "street": "Rua das Laranjeiras",
        "zipcode": "35901-201"
    },
    {
        "city": "Itabira",
        "state": "MG",
        "district": "Gabiroba",
        "street": "Rua DW",
        "zipcode": "35902-005"
    },
    {
        "city": "Itabira",
        "state": "MG",
        "district": "Gabiroba",
        "street": "Rua das Cantineiras",
        "zipcode": "35902-009"
    },
    {
        "city": "Itabira",
        "state": "MG",
        "district": "Pará",
        "street": "Rua Ipoema",
        "zipcode": "35900-044"
    },
    {
        "city": "Itabira",
        "state": "MG",
        "district": "Pará",
        "street": "Rua Ireni Barbosa",
        "zipcode": "35900-049"
    },
    {
        "city": "Itabira",
        "state": "MG",
        "district": "Campestre I",
        "street": "Rua João Luiz da Silva Torres",
        "zipcode": "35900-083"
    },
    {
        "city": "Itabira",
        "state": "MG",
        "district": "Bela Vista",
        "street": "Rua Eurico Camilo",
        "zipcode": "35900-101"
    },
    {
        "city": "Itabira",
        "state": "MG",
        "district": "Machado",
        "street": "Rua F",
        "zipcode": "35901-020"
    },
    {
        "city": "Itabira",
        "state": "MG",
        "district": "Penha",
        "street": "Rua Praia do Rosário",
        "zipcode": "35900-066"
    },
    {
        "city": "Itabira",
        "state": "MG",
        "district": "Campestre I",
        "street": "Rua Tomaz Abreu",
        "zipcode": "35900-080"
    },
    {
        "city": "Itabira",
        "state": "MG",
        "district": "Bela Vista",
        "street": "Rua Seis",
        "zipcode": "35900-093"
    },
    {
        "city": "Itabira",
        "state": "MG",
        "district": "Bela Vista",
        "street": "Travessa Ormindo Dias Lage",
        "zipcode": "35900-506"
    },
    {
        "city": "Itabira",
        "state": "MG",
        "district": "São Pedro",
        "street": "Travessa Girassol",
        "zipcode": "35900-511"
    },
    {
        "city": "Itabira",
        "state": "MG",
        "district": "Eldorado",
        "street": "Travessa João de Oliveira Pena",
        "zipcode": "35900-606"
    },
    {
        "city": "Itabira",
        "state": "MG",
        "district": "Nossa Senhora das Oliveiras",
        "street": "Avenida Juiz de Fora",
        "zipcode": "35900-158"
    },
    {
        "city": "Itabira",
        "state": "MG",
        "district": "Quatorze de Fevereiro",
        "street": "Travessa Dona Eleonora",
        "zipcode": "35900-516"
    },
    {
        "city": "Itabira",
        "state": "MG",
        "district": "Santa Inês",
        "street": "Rua Sete",
        "zipcode": "35900-878"
    },
    {
        "city": "Itabira",
        "state": "MG",
        "district": "João XXIII",
        "street": "Rua Raul Pompéia",
        "zipcode": "35901-032"
    },
    {
        "city": "Itabira",
        "state": "MG",
        "district": "João XXIII",
        "street": "Rua A",
        "zipcode": "35901-037"
    },
    {
        "city": "Itabira",
        "state": "MG",
        "district": "João XXIII",
        "street": "Rua João Fernandes Vieira",
        "zipcode": "35901-048"
    },
    {
        "city": "Itabira",
        "state": "MG",
        "district": "Santa Ruth",
        "street": "Rua Um",
        "zipcode": "35901-075"
    },
    {
        "city": "Itabira",
        "state": "MG",
        "district": "Valença",
        "street": "Avenida Natália Pena Jacome",
        "zipcode": "35901-119"
    },
    {
        "city": "Itabira",
        "state": "MG",
        "district": "Santa Marta",
        "street": "Rua Quatro",
        "zipcode": "35901-184"
    },
    {
        "city": "Itabira",
        "state": "MG",
        "district": "Fênix",
        "street": "Rua Sérgio Einseberg",
        "zipcode": "35901-224"
    },
    {
        "city": "Itabira",
        "state": "MG",
        "district": "Fênix",
        "street": "Avenida Jorge Ferraz",
        "zipcode": "35901-229"
    },
    {
        "city": "Itabira",
        "state": "MG",
        "district": "Bálsamos",
        "street": "Rua Adelina Esteves Cruz",
        "zipcode": "35901-363"
    },
    {
        "city": "Itabira",
        "state": "MG",
        "district": "Jardim Belvedere",
        "street": "Rua Venceslau Brás",
        "zipcode": "35901-455"
    },
    {
        "city": "Itabira",
        "state": "MG",
        "district": "Gabiroba",
        "street": "Avenida W",
        "zipcode": "35902-013"
    },
    {
        "city": "Itabira",
        "state": "MG",
        "district": "Gabiroba",
        "street": "Rua dos Artesãos",
        "zipcode": "35902-017"
    },
    {
        "city": "Itabira",
        "state": "MG",
        "district": "Gabiroba",
        "street": "Rua dos Agricultores",
        "zipcode": "35902-027"
    },
    {
        "city": "Itabira",
        "state": "MG",
        "district": "Gabiroba",
        "street": "Rua dos Juizes",
        "zipcode": "35902-042"
    },
    {
        "city": "Itabira",
        "state": "MG",
        "district": "Gabiroba",
        "street": "Rua DW",
        "zipcode": "35902-050"
    },
    {
        "city": "Itabira",
        "state": "MG",
        "district": "Gabiroba",
        "street": "Rua L",
        "zipcode": "35902-055"
    },
    {
        "city": "Itabira",
        "state": "MG",
        "district": "Gabiroba",
        "street": "Rua BW",
        "zipcode": "35902-066"
    },
    {
        "city": "Itabira",
        "state": "MG",
        "district": "Gabiroba",
        "street": "Rua BW",
        "zipcode": "35902-082"
    },
    {
        "city": "Itabira",
        "state": "MG",
        "district": "Serra do Esmeril",
        "street": "Estrada Serra do Esmeril",
        "zipcode": "35900-661"
    },
    {
        "city": "Itabira",
        "state": "MG",
        "district": "Clóvis Alvim II",
        "street": "Rua Virgílio José Gazire",
        "zipcode": "35900-821"
    },
    {
        "city": "Itabira",
        "state": "MG",
        "district": "São Bento",
        "street": "Rua Porto Velho",
        "zipcode": "35900-844"
    },
    {
        "city": "Itabira",
        "state": "MG",
        "district": "Santa Ruth",
        "street": "Rua Maria Helena Silveira",
        "zipcode": "35901-072"
    },
    {
        "city": "Itabira",
        "state": "MG",
        "district": "Bálsamos",
        "street": "Avenida Três",
        "zipcode": "35901-353"
    },
    {
        "city": "Itabira",
        "state": "MG",
        "district": "Gabiroba",
        "street": "Rua dos Bombeiros",
        "zipcode": "35902-029"
    },
    {
        "city": "Itabira",
        "state": "MG",
        "district": "Gabiroba",
        "street": "Rua BW",
        "zipcode": "35902-074"
    },
    {
        "city": "Itabira",
        "state": "MG",
        "district": "Jardim dos Ipês",
        "street": "Praça Quatro",
        "zipcode": "35903-018"
    },
    {
        "city": "Itabira",
        "state": "MG",
        "district": "Ribeira de Baixo",
        "street": "Rua Mangalarga",
        "zipcode": "35903-027"
    },
    {
        "city": "Itabira",
        "state": "MG",
        "district": "Machado",
        "street": "Rua A",
        "zipcode": "35901-015"
    },
    {
        "city": "Itabira",
        "state": "MG",
        "district": "Santa Marta",
        "street": "Rua Oito",
        "zipcode": "35901-188"
    },
    {
        "city": "Itabira",
        "state": "MG",
        "district": "Fênix",
        "street": "Rua Sete",
        "zipcode": "35901-238"
    },
    {
        "city": "Itabira",
        "state": "MG",
        "district": "Gabiroba",
        "street": "Rua dos Programadores",
        "zipcode": "35902-030"
    },
    {
        "city": "Itabira",
        "state": "MG",
        "district": "Pedreira",
        "street": "Rua Beija Flor",
        "zipcode": "35904-021"
    },
    {
        "city": "Itabira",
        "state": "MG",
        "district": "Barreiro",
        "street": "Rodovia Deputado Luiz Menezes",
        "zipcode": "35903-031"
    },
    {
        "city": "Itabira",
        "state": "MG",
        "district": "Vila Bethânia",
        "street": "Rua Capitão Machado",
        "zipcode": "35900-472"
    },
    {
        "city": "Itabira",
        "state": "MG",
        "district": "Quatorze de Fevereiro",
        "street": "Rua Cesário Alvim",
        "zipcode": "35900-245"
    },
    {
        "city": "Itabira",
        "state": "MG",
        "district": "Panorama",
        "street": "Rua Cecília Machado",
        "zipcode": "35900-343"
    },
    {
        "city": "Itabira",
        "state": "MG",
        "district": "Cônego Guilhermino Pereira",
        "street": "Rua Doutor Juvenil Duarte Braga",
        "zipcode": "35900-362"
    },
    {
        "city": "Itabira",
        "state": "MG",
        "district": "Gabiroba (1ª Seção)",
        "street": "Rua dos Mecânicos",
        "zipcode": "35900-420"
    },
    {
        "city": "Itabira",
        "state": "MG",
        "district": "Gabiroba (1ª Seção)",
        "street": "Rua dos Motoristas",
        "zipcode": "35900-427"
    },
    {
        "city": "Itabira",
        "state": "MG",
        "district": "Gabiroba (1ª Seção)",
        "street": "Rua dos Comerciantes",
        "zipcode": "35900-417"
    },
    {
        "city": "Itabira",
        "state": "MG",
        "district": "Eldorado",
        "street": "Rua Joaquim Lourenço Lage",
        "zipcode": "35900-142"
    },
    {
        "city": "Itabira",
        "state": "MG",
        "district": "Juca Rosa",
        "street": "Rua João Camilo de Oliveira Torres",
        "zipcode": "35900-185"
    },
    {
        "city": "Itabira",
        "state": "MG",
        "district": "Juca Rosa",
        "street": "Rua Hortêncio",
        "zipcode": "35900-194"
    },
    {
        "city": "Itabira",
        "state": "MG",
        "district": "Major Lage de Baixo",
        "street": "Rua Ester Pereira Guerra",
        "zipcode": "35900-230"
    },
    {
        "city": "Itabira",
        "state": "MG",
        "district": "Colina da Praia",
        "street": "Rua Gradios",
        "zipcode": "35900-328"
    },
    {
        "city": "Itabira",
        "state": "MG",
        "district": "Major Lage de Cima",
        "street": "Rua Israel Pinheiro",
        "zipcode": "35900-401"
    },
    {
        "city": "Itabira",
        "state": "MG",
        "district": "Colina da Praia",
        "street": "Rua José Jésus de Souza",
        "zipcode": "35900-309"
    },
    {
        "city": "Itabira",
        "state": "MG",
        "district": "João XXIII",
        "street": "Rua I",
        "zipcode": "35901-045"
    },
    {
        "city": "Itabira",
        "state": "MG",
        "district": "Bela Vista",
        "street": "Rua Presidente Kennedy",
        "zipcode": "35900-106"
    },
    {
        "city": "Itabira",
        "state": "MG",
        "district": "Major Lage de Baixo",
        "street": "Rua Morganito",
        "zipcode": "35900-234"
    },
    {
        "city": "Itabira",
        "state": "MG",
        "district": "Vila Amélia",
        "street": "Rua Minerva",
        "zipcode": "35900-252"
    },
    {
        "city": "Itabira",
        "state": "MG",
        "district": "Alto da Boa Vista",
        "street": "Rua Quatro",
        "zipcode": "35900-265"
    },
    {
        "city": "Itabira",
        "state": "MG",
        "district": "Panorama",
        "street": "Rua Pires Silva Pontes",
        "zipcode": "35900-342"
    },
    {
        "city": "Itabira",
        "state": "MG",
        "district": "Novo Amazonas",
        "street": "Rua Professora Maria Antonieta Bethônico",
        "zipcode": "35900-359"
    },
    {
        "city": "Itabira",
        "state": "MG",
        "district": "Cônego Guilhermino Pereira",
        "street": "Rua Presidente Dutra",
        "zipcode": "35900-365"
    },
    {
        "city": "Itabira",
        "state": "MG",
        "district": "Santa Tereza (Cvrd)",
        "street": "Rua Maria Campos",
        "zipcode": "35900-436"
    },
    {
        "city": "Itabira",
        "state": "MG",
        "district": "Colina da Praia",
        "street": "Rua Prefeito José Rosa",
        "zipcode": "35900-308"
    },
    {
        "city": "Itabira",
        "state": "MG",
        "district": "Eldorado",
        "street": "Rua Vereador José Getúlio",
        "zipcode": "35900-174"
    },
    {
        "city": "Itabira",
        "state": "MG",
        "district": "Juca Rosa",
        "street": "Travessa Acácia",
        "zipcode": "35900-187"
    },
    {
        "city": "Itabira",
        "state": "MG",
        "district": "Major Lage de Baixo",
        "street": "Rua Seis",
        "zipcode": "35900-229"
    },
    {
        "city": "Itabira",
        "state": "MG",
        "district": "Colina da Praia",
        "street": "Rua Sete",
        "zipcode": "35900-296"
    },
    {
        "city": "Itabira",
        "state": "MG",
        "district": "Água Fresca",
        "street": "Rua Valdemar de Alvarenga Lage",
        "zipcode": "35900-442"
    },
    {
        "city": "Itabira",
        "state": "MG",
        "district": "Água Fresca",
        "street": "Rua São Nicolau",
        "zipcode": "35900-458"
    },
    {
        "city": "Itabira",
        "state": "MG",
        "district": "Água Fresca",
        "street": "Rua São Lourenço",
        "zipcode": "35900-464"
    },
    {
        "city": "Itabira",
        "state": "MG",
        "district": "Novo Amazonas",
        "street": "Rua Rio Grande do Norte",
        "zipcode": "35900-356"
    },
    {
        "city": "Itabira",
        "state": "MG",
        "district": "Major Lage de Cima",
        "street": "Rua Diamante",
        "zipcode": "35900-396"
    },
    {
        "city": "Itabira",
        "state": "MG",
        "district": "Monsenhor José Lopes",
        "street": "Rua Marília Cecília Duarte",
        "zipcode": "35901-417"
    },
    {
        "city": "Itabira",
        "state": "MG",
        "district": "Monsenhor José Lopes",
        "street": "Rua Bené Moreira",
        "zipcode": "35901-419"
    },
    {
        "city": "Itabira",
        "state": "MG",
        "district": "Monsenhor José Lopes",
        "street": "Rua Mário Gurgel",
        "zipcode": "35901-421"
    },
    {
        "city": "Itabira",
        "state": "MG",
        "district": "Jardim Belvedere",
        "street": "Rua Floriano Vieira Peixoto",
        "zipcode": "35901-443"
    },
    {
        "city": "Itabira",
        "state": "MG",
        "district": "Jardim Belvedere",
        "street": "Rua Campos Sales",
        "zipcode": "35901-447"
    },
    {
        "city": "Itabira",
        "state": "MG",
        "district": "Jardim Belvedere",
        "street": "Rua Marechal Hermes da Fonseca",
        "zipcode": "35901-453"
    },
    {
        "city": "Itabira",
        "state": "MG",
        "district": "Gabiroba",
        "street": "Rua dos Ferroviários",
        "zipcode": "35902-062"
    },
    {
        "city": "Itabira",
        "state": "MG",
        "district": "Gabiroba",
        "street": "Rua dos Alfaiates",
        "zipcode": "35902-087"
    },
    {
        "city": "Itabira",
        "state": "MG",
        "district": "Gabiroba",
        "street": "Rua dos Administradores",
        "zipcode": "35902-103"
    },
    {
        "city": "Itabira",
        "state": "MG",
        "district": "Jardim dos Ipês",
        "street": "Rua Ipê Branco",
        "zipcode": "35903-002"
    },
    {
        "city": "Itabira",
        "state": "MG",
        "district": "Pedreira",
        "street": "Rua Tico",
        "zipcode": "35904-025"
    },
    {
        "city": "Itabira",
        "state": "MG",
        "district": "Pedreira",
        "street": "Rua Pica Pau",
        "zipcode": "35904-033"
    },
    {
        "city": "Itabira",
        "state": "MG",
        "district": "Pedreira",
        "street": "Rua Juriti",
        "zipcode": "35904-035"
    },
    {
        "city": "Itabira",
        "state": "MG",
        "district": "Pedreira",
        "street": "Rua João",
        "zipcode": "35904-010"
    },
    {
        "city": "Itabira",
        "state": "MG",
        "district": "Pedreira",
        "street": "Rua Pássaro",
        "zipcode": "35904-017"
    },
    {
        "city": "Itabira",
        "state": "MG",
        "district": "Quatorze de Fevereiro",
        "street": "Rua José Bragança",
        "zipcode": "35900-244"
    },
    {
        "city": "Itabira",
        "state": "MG",
        "district": "Distrito Industrial",
        "street": "Rua Cromita",
        "zipcode": "35903-053"
    },
    {
        "city": "Itabira",
        "state": "MG",
        "district": "Pará",
        "street": "Rua Mestre Emílio",
        "zipcode": "35900-028"
    },
    {
        "city": "Itabira",
        "state": "MG",
        "district": "Colina da Praia",
        "street": "Rua Bambu",
        "zipcode": "35900-332"
    },
    {
        "city": "Itabira",
        "state": "MG",
        "district": "Gabiroba (1ª Seção)",
        "street": "Rua B",
        "zipcode": "35900-431"
    },
    {
        "city": "Itabira",
        "state": "MG",
        "district": "Centro",
        "street": "Rua Azul",
        "zipcode": "35900-530"
    },
    {
        "city": "Itabira",
        "state": "MG",
        "district": "Vila Santa Rosa",
        "street": "Avenida Osório Sampaio",
        "zipcode": "35900-700"
    },
    {
        "city": "Itabira",
        "state": "MG",
        "district": "São Pedro",
        "street": "Rua das Orquídeas",
        "zipcode": "35900-126"
    },
    {
        "city": "Itabira",
        "state": "MG",
        "district": "Major Lage de Baixo",
        "street": "Rua Coronel Juca Torres",
        "zipcode": "35900-233"
    },
    {
        "city": "Itabira",
        "state": "MG",
        "district": "Colina da Praia",
        "street": "Rua Coronel Tico",
        "zipcode": "35900-303"
    },
    {
        "city": "Itabira",
        "state": "MG",
        "district": "São Francisco",
        "street": "Rua Cinco",
        "zipcode": "35900-613"
    },
    {
        "city": "Itabira",
        "state": "MG",
        "district": "Vila Nações Unidas",
        "street": "Rua J",
        "zipcode": "35900-061"
    },
    {
        "city": "Itabira",
        "state": "MG",
        "district": "Campestre I",
        "street": "Rua Granito",
        "zipcode": "35900-089"
    },
    {
        "city": "Itabira",
        "state": "MG",
        "district": "Esplanada da Estação",
        "street": "Rua Esplanada da Estação",
        "zipcode": "35900-210"
    },
    {
        "city": "Itabira",
        "state": "MG",
        "district": "Água Fresca",
        "street": "Rua Iguana",
        "zipcode": "35900-449"
    },
    {
        "city": "Itabira",
        "state": "MG",
        "district": "João XXIII",
        "street": "Rua Francisco Félix",
        "zipcode": "35901-036"
    },
    {
        "city": "Itabira",
        "state": "MG",
        "district": "Valença",
        "street": "Rua Gênova",
        "zipcode": "35901-056"
    },
    {
        "city": "Itabira",
        "state": "MG",
        "district": "Campestre I",
        "street": "Rua Martita",
        "zipcode": "35900-088"
    },
    {
        "city": "Itabira",
        "state": "MG",
        "district": "Major Lage de Baixo",
        "street": "Rua Prefeito Virgilino Quintão",
        "zipcode": "35900-211"
    },
    {
        "city": "Itabira",
        "state": "MG",
        "district": "Quatorze de Fevereiro",
        "street": "Rua Mestre Emílio",
        "zipcode": "35900-237"
    },
    {
        "city": "Itabira",
        "state": "MG",
        "district": "Vila Bethânia",
        "street": "Rua Naum",
        "zipcode": "35900-480"
    },
    {
        "city": "Itabira",
        "state": "MG",
        "district": "Amazonas",
        "street": "Rua Quatro",
        "zipcode": "35900-727"
    },
    {
        "city": "Itabira",
        "state": "MG",
        "district": "Clóvis Alvim II",
        "street": "Rua Leandro Saturnino de Souza",
        "zipcode": "35900-822"
    },
    {
        "city": "Itabira",
        "state": "MG",
        "district": "Santa Tereza (Cvrd)",
        "street": "Rua Sebastião Franco de Oliveira",
        "zipcode": "35900-438"
    },
    {
        "city": "Itabira",
        "state": "MG",
        "district": "Eldorado",
        "street": "Travessa das Tulipas",
        "zipcode": "35900-513"
    },
    {
        "city": "Itabira",
        "state": "MG",
        "district": "Major Lage de Baixo",
        "street": "Rua Turquesa",
        "zipcode": "35900-216"
    },
    {
        "city": "Itabira",
        "state": "MG",
        "district": "Água Fresca",
        "street": "Rua São Manoel",
        "zipcode": "35900-457"
    },
    {
        "city": "Itabira",
        "state": "MG",
        "district": "Praia",
        "street": "Rua São Gonçalo",
        "zipcode": "35900-681"
    },
    {
        "city": "Itabira",
        "state": "MG",
        "district": "Juca Rosa",
        "street": "Travessa João Camilo de Oliveira Torres",
        "zipcode": "35900-690"
    },
    {
        "city": "Itabira",
        "state": "MG",
        "district": "Vila Santa Rosa",
        "street": "Rua Vovó Ana de Oliveira",
        "zipcode": "35900-699"
    },
    {
        "city": "Itabira",
        "state": "MG",
        "district": "Eldorado",
        "street": "Rua Álvaro Alvarenga",
        "zipcode": "35900-155"
    },
    {
        "city": "Itabira",
        "state": "MG",
        "district": "Pará",
        "street": "Rua Padre Ângelo",
        "zipcode": "35900-491"
    },
    {
        "city": "Itabira",
        "state": "MG",
        "district": "Bela Vista",
        "street": "Travessa Emílio Zacarias da Silva",
        "zipcode": "35900-504"
    },
    {
        "city": "Itabira",
        "state": "MG",
        "district": "Vila Bethânia",
        "street": "Travessa Santa Maria",
        "zipcode": "35900-520"
    },
    {
        "city": "Itabira",
        "state": "MG",
        "district": "Vila Bethânia",
        "street": "Travessa Sirinéia",
        "zipcode": "35900-521"
    },
    {
        "city": "Itabira",
        "state": "MG",
        "district": "Centro",
        "street": "Avenida João Pinheiro",
        "zipcode": "35900-539"
    },
    {
        "city": "Itabira",
        "state": "MG",
        "district": "Novo Amazonas",
        "street": "Rua Daniel Augusto Costa",
        "zipcode": "35900-738"
    },
    {
        "city": "Itabira",
        "state": "MG",
        "district": "Clóvis Alvim I",
        "street": "Rua Miguel Ferreira de Sá",
        "zipcode": "35901-005"
    },
    {
        "city": "Itabira",
        "state": "MG",
        "district": "Machado",
        "street": "Rua Olavo Bilac",
        "zipcode": "35901-013"
    },
    {
        "city": "Itabira",
        "state": "MG",
        "district": "Machado",
        "street": "Rua Onze",
        "zipcode": "35901-021"
    },
    {
        "city": "Itabira",
        "state": "MG",
        "district": "Santa Ruth",
        "street": "Avenida Trinta",
        "zipcode": "35901-057"
    },
    {
        "city": "Itabira",
        "state": "MG",
        "district": "Santa Ruth",
        "street": "Rua Nove",
        "zipcode": "35901-070"
    },
    {
        "city": "Itabira",
        "state": "MG",
        "district": "Valença",
        "street": "Travessa Gênova",
        "zipcode": "35901-096"
    },
    {
        "city": "Itabira",
        "state": "MG",
        "district": "Santa Ruth",
        "street": "Rua Antônio Carolino",
        "zipcode": "35901-175"
    },
    {
        "city": "Itabira",
        "state": "MG",
        "district": "Santa Marta",
        "street": "Rua São Pedro",
        "zipcode": "35901-182"
    },
    {
        "city": "Itabira",
        "state": "MG",
        "district": "Gabiroba",
        "street": "Rua Sayd Jabour",
        "zipcode": "35902-069"
    },
    {
        "city": "Itabira",
        "state": "MG",
        "district": "Centro",
        "street": "Avenida João Pinheiro",
        "zipcode": "35900-538"
    },
    {
        "city": "Itabira",
        "state": "MG",
        "district": "São Francisco",
        "street": "Rua Topógrafo Raimundo Nonato",
        "zipcode": "35900-612"
    },
    {
        "city": "Itabira",
        "state": "MG",
        "district": "Santo Antônio",
        "street": "Rua Wagner Rodrigues",
        "zipcode": "35900-645"
    },
    {
        "city": "Itabira",
        "state": "MG",
        "district": "Panorama",
        "street": "Rua Capitão Machado",
        "zipcode": "35900-744"
    },
    {
        "city": "Itabira",
        "state": "MG",
        "district": "Clóvis Alvim II",
        "street": "Travessa Leandro Saturnino de Souza",
        "zipcode": "35900-823"
    },
    {
        "city": "Itabira",
        "state": "MG",
        "district": "João XXIII",
        "street": "Rua Humberto Campos",
        "zipcode": "35901-029"
    },
    {
        "city": "Itabira",
        "state": "MG",
        "district": "João XXIII",
        "street": "Rua D",
        "zipcode": "35901-041"
    },
    {
        "city": "Itabira",
        "state": "MG",
        "district": "João XXIII",
        "street": "Rua Guimarães Rosa",
        "zipcode": "35901-049"
    },
    {
        "city": "Itabira",
        "state": "MG",
        "district": "Pedreira",
        "street": "Travessa Catatau",
        "zipcode": "35904-031"
    },
    {
        "city": "Itabira",
        "state": "MG",
        "district": "Hamilton",
        "street": "Rua Waldemar Alvarenga Lage",
        "zipcode": "35900-382"
    },
    {
        "city": "Itabira",
        "state": "MG",
        "district": "Vila Bethânia",
        "street": "Rua Belém",
        "zipcode": "35900-481"
    },
    {
        "city": "Itabira",
        "state": "MG",
        "district": "Pará",
        "street": "Praça Regina Pires Guerra",
        "zipcode": "35900-580"
    },
    {
        "city": "Itabira",
        "state": "MG",
        "district": "Praia",
        "street": "Rodovia Dorval de Oliveira",
        "zipcode": "35900-684"
    },
    {
        "city": "Itabira",
        "state": "MG",
        "district": "Colina da Praia",
        "street": "Rua Cruzília",
        "zipcode": "35900-326"
    },
    {
        "city": "Itabira",
        "state": "MG",
        "district": "Gabiroba (1ª Seção)",
        "street": "Rua dos Contabilistas",
        "zipcode": "35900-430"
    },
    {
        "city": "Itabira",
        "state": "MG",
        "district": "Madre Maria de Jesus",
        "street": "Rua Cinco",
        "zipcode": "35900-469"
    },
    {
        "city": "Itabira",
        "state": "MG",
        "district": "São Pedro",
        "street": "Rua César Gerra",
        "zipcode": "35900-642"
    },
    {
        "city": "Itabira",
        "state": "MG",
        "district": "Vila Conceição de Baixo",
        "street": "Rua das Candeias",
        "zipcode": "35901-092"
    },
    {
        "city": "Itabira",
        "state": "MG",
        "district": "Gabiroba",
        "street": "Rua dos Aeronautas",
        "zipcode": "35902-007"
    },
    {
        "city": "Itabira",
        "state": "MG",
        "district": "Colina da Praia",
        "street": "Rua Indaiá",
        "zipcode": "35900-321"
    },
    {
        "city": "Itabira",
        "state": "MG",
        "district": "Panorama",
        "street": "Rua João Evangelista Costa Lage",
        "zipcode": "35900-337"
    },
    {
        "city": "Itabira",
        "state": "MG",
        "district": "Santa Inês",
        "street": "Rua João Manoel de Azevedo",
        "zipcode": "35900-882"
    },
    {
        "city": "Itabira",
        "state": "MG",
        "district": "Clóvis Alvim I",
        "street": "Rua Eudes Martins Costa",
        "zipcode": "35901-004"
    },
    {
        "city": "Itabira",
        "state": "MG",
        "district": "Monsenhor José Lopes",
        "street": "Rua Guilhermina Duarte Lage",
        "zipcode": "35901-401"
    },
    {
        "city": "Itabira",
        "state": "MG",
        "district": "Colina da Praia",
        "street": "Rua Maria Luiza Gonçalves",
        "zipcode": "35900-292"
    },
    {
        "city": "Itabira",
        "state": "MG",
        "district": "Clóvis Alvim II",
        "street": "Rua Manoel Fernandes Agra",
        "zipcode": "35900-489"
    },
    {
        "city": "Itabira",
        "state": "MG",
        "district": "Novo Amazonas",
        "street": "Rua Mato Grosso",
        "zipcode": "35900-353"
    },
    {
        "city": "Itabira",
        "state": "MG",
        "district": "Cônego Guilhermino Pereira",
        "street": "Rua José Timóteo Fernandes",
        "zipcode": "35900-517"
    },
    {
        "city": "Itabira",
        "state": "MG",
        "district": "Panorama",
        "street": "Rua Odilon C Lage",
        "zipcode": "35900-745"
    },
    {
        "city": "Itabira",
        "state": "MG",
        "district": "Colina da Praia",
        "street": "Rua Sempre",
        "zipcode": "35900-331"
    },
    {
        "city": "Itabira",
        "state": "MG",
        "district": "Eldorado",
        "street": "Travessa Cônego José Lopes Magalhães",
        "zipcode": "35900-512"
    },
    {
        "city": "Itabira",
        "state": "MG",
        "district": "Amazonas",
        "street": "Travessa Brasil",
        "zipcode": "35900-368"
    },
    {
        "city": "Itabira",
        "state": "MG",
        "district": "Água Fresca",
        "street": "Rua Valdemar de Alvarenga Lage",
        "zipcode": "35900-443"
    },
    {
        "city": "Itabira",
        "state": "MG",
        "district": "Colina da Praia",
        "street": "Rua Hely Couto de Mendonça",
        "zipcode": "35900-297"
    },
    {
        "city": "Itabira",
        "state": "MG",
        "district": "Praia",
        "street": "Rua João Camilo de Oliveira Torres",
        "zipcode": "35900-271"
    },
    {
        "city": "Itabira",
        "state": "MG",
        "district": "Cidade Nova",
        "street": "Rua Lourdes Bethonico",
        "zipcode": "35900-862"
    },
    {
        "city": "Itabira",
        "state": "MG",
        "district": "Cidade Nova",
        "street": "Rua Marina Cardoso Casana",
        "zipcode": "35900-864"
    },
    {
        "city": "Itabira",
        "state": "MG",
        "district": "João XXIII",
        "street": "Rua Afonso Arinos",
        "zipcode": "35901-030"
    },
    {
        "city": "Itabira",
        "state": "MG",
        "district": "Machado",
        "street": "Rua Três",
        "zipcode": "35901-098"
    },
    {
        "city": "Itabira",
        "state": "MG",
        "district": "Machado",
        "street": "Praça Vereador José Braz",
        "zipcode": "35901-101"
    },
    {
        "city": "Itabira",
        "state": "MG",
        "district": "Ribeira de Cima",
        "street": "Rua Manga",
        "zipcode": "35901-205"
    },
    {
        "city": "Itabira",
        "state": "MG",
        "district": "Fênix",
        "street": "Rua Sebastião Zeferino Duarte",
        "zipcode": "35901-221"
    },
    {
        "city": "Itabira",
        "state": "MG",
        "district": "Fênix",
        "street": "Rua José Luis Gonzaga",
        "zipcode": "35901-222"
    },
    {
        "city": "Itabira",
        "state": "MG",
        "district": "São Marcos",
        "street": "Rua Argentina",
        "zipcode": "35901-700"
    },
    {
        "city": "Itabira",
        "state": "MG",
        "district": "Gabiroba",
        "street": "Rua DW",
        "zipcode": "35902-004"
    },
    {
        "city": "Itabira",
        "state": "MG",
        "district": "Gabiroba",
        "street": "Rua DW",
        "zipcode": "35902-021"
    },
    {
        "city": "Itabira",
        "state": "MG",
        "district": "Gabiroba",
        "street": "Rua DW",
        "zipcode": "35902-036"
    },
    {
        "city": "Itabira",
        "state": "MG",
        "district": "Gabiroba",
        "street": "Rua dos Açougueiros",
        "zipcode": "35902-038"
    },
    {
        "city": "Itabira",
        "state": "MG",
        "district": "Gabiroba",
        "street": "Rua DW",
        "zipcode": "35902-044"
    },
    {
        "city": "Itabira",
        "state": "MG",
        "district": "Gabiroba",
        "street": "Rua DW",
        "zipcode": "35902-051"
    },
    {
        "city": "Itabira",
        "state": "MG",
        "district": "Gabiroba",
        "street": "Rua dos Bioquímicos",
        "zipcode": "35902-068"
    },
    {
        "city": "Itabira",
        "state": "MG",
        "district": "Gabiroba",
        "street": "Rua BW",
        "zipcode": "35902-076"
    },
    {
        "city": "Itabira",
        "state": "MG",
        "district": "Fênix",
        "street": "Rua Itamar José Eliziario",
        "zipcode": "35901-231"
    },
    {
        "city": "Itabira",
        "state": "MG",
        "district": "Fênix",
        "street": "Rua Seis",
        "zipcode": "35901-237"
    },
    {
        "city": "Itabira",
        "state": "MG",
        "district": "Fênix",
        "street": "Rua Dois",
        "zipcode": "35901-241"
    },
    {
        "city": "Itabira",
        "state": "MG",
        "district": "Bálsamos",
        "street": "Rua Custódio Torres Cruz",
        "zipcode": "35901-361"
    },
    {
        "city": "Itabira",
        "state": "MG",
        "district": "Gabiroba",
        "street": "Rua das Domésticas",
        "zipcode": "35902-022"
    },
    {
        "city": "Itabira",
        "state": "MG",
        "district": "Gabiroba",
        "street": "Rua DW",
        "zipcode": "35902-037"
    },
    {
        "city": "Itabira",
        "state": "MG",
        "district": "Gabiroba",
        "street": "Rua José dos Santos Cruz",
        "zipcode": "35902-060"
    },
    {
        "city": "Itabira",
        "state": "MG",
        "district": "Barreiro",
        "street": "Rua Joaquim Costa",
        "zipcode": "35903-039"
    },
    {
        "city": "Itabira",
        "state": "MG",
        "district": "Pedreira",
        "street": "Travessa Canário",
        "zipcode": "35904-014"
    },
    {
        "city": "Itabira",
        "state": "MG",
        "district": "Pedreira",
        "street": "Travessa Pardal",
        "zipcode": "35904-020"
    },
    {
        "city": "Itabira",
        "state": "MG",
        "district": "Pedreira",
        "street": "Rua Garça",
        "zipcode": "35904-026"
    },
    {
        "city": "Itabira",
        "state": "MG",
        "district": "Distrito Industrial",
        "street": "Rua Columbita",
        "zipcode": "35903-054"
    },
    {
        "city": "Itabira",
        "state": "MG",
        "district": "Moinho Velho",
        "street": "Rua Durcelina Camila Gomes",
        "zipcode": "35901-660"
    },
    {
        "city": "Itabira",
        "state": "MG",
        "district": "Monsenhor José Lopes",
        "street": "Rua Joaquim Soares dos Santos",
        "zipcode": "35901-409"
    },
    {
        "city": "Itabira",
        "state": "MG",
        "district": "Jardim Belvedere",
        "street": "Rua Francisco Rodrigues Alves",
        "zipcode": "35901-449"
    },
    {
        "city": "Itabira",
        "state": "MG",
        "district": "Vila Conceição de Baixo",
        "street": "Rua José Barbosa Filho",
        "zipcode": "35901-550"
    },
    {
        "city": "Itabira",
        "state": "MG",
        "district": "Vila Conceição de Baixo",
        "street": "Rua Geraldo Martins Costa",
        "zipcode": "35901-560"
    },
    {
        "city": "Itabira",
        "state": "MG",
        "district": "Colina da Praia",
        "street": "Rua Elias Natalino Gavazza",
        "zipcode": "35901-570"
    },
    {
        "city": "Itabira",
        "state": "MG",
        "district": "Flamboyant",
        "street": "Rua Adão Matoso",
        "zipcode": "35901-630"
    },
    {
        "city": "Itabira",
        "state": "MG",
        "district": "Gabiroba",
        "street": "Rua dos Arquitetos",
        "zipcode": "35902-023"
    },
    {
        "city": "Itabira",
        "state": "MG",
        "district": "Gabiroba",
        "street": "Rua João dos Santos Cunha",
        "zipcode": "35902-058"
    },
    {
        "city": "Itabira",
        "state": "MG",
        "district": "Gabiroba",
        "street": "Rua Geraldo Carmelindo Moura",
        "zipcode": "35902-084"
    },
    {
        "city": "Itabira",
        "state": "MG",
        "district": "Gabiroba",
        "street": "Rua dos Pastores",
        "zipcode": "35902-089"
    },
    {
        "city": "Itabira",
        "state": "MG",
        "district": "Gabiroba",
        "street": "Rua dos Detetives",
        "zipcode": "35902-093"
    },
    {
        "city": "Itabira",
        "state": "MG",
        "district": "Cidade Nova",
        "street": "Rua José Horácio Bethonico",
        "zipcode": "35900-866"
    },
    {
        "city": "Itabira",
        "state": "MG",
        "district": "Santa Inês",
        "street": "Rua Maria Vicença Bragança",
        "zipcode": "35900-888"
    },
    {
        "city": "Itabira",
        "state": "MG",
        "district": "Santa Ruth",
        "street": "Rua Joaquim Marinho de Souza",
        "zipcode": "35901-068"
    },
    {
        "city": "Itabira",
        "state": "MG",
        "district": "Santa Ruth",
        "street": "Rua José Luiz Gonzaga",
        "zipcode": "35901-079"
    },
    {
        "city": "Itabira",
        "state": "MG",
        "district": "Fênix",
        "street": "Rua Matilde Brangaça Pereira",
        "zipcode": "35901-235"
    },
    {
        "city": "Itabira",
        "state": "MG",
        "district": "Jardim dos Ipês",
        "street": "Rua Ipê Roxo",
        "zipcode": "35903-003"
    },
    {
        "city": "Itabira",
        "state": "MG",
        "district": "Jardim dos Ipês",
        "street": "Rua Ipê Mirim",
        "zipcode": "35903-005"
    },
    {
        "city": "Itabira",
        "state": "MG",
        "district": "Jardim dos Ipês",
        "street": "Rua Ipê Tabaco",
        "zipcode": "35903-006"
    },
    {
        "city": "Itabira",
        "state": "MG",
        "district": "Jardim dos Ipês",
        "street": "Rua Ipê do Campo",
        "zipcode": "35903-013"
    },
    {
        "city": "Itabira",
        "state": "MG",
        "district": "Barreiro",
        "street": "Rua Três",
        "zipcode": "35903-034"
    },
    {
        "city": "Itabira",
        "state": "MG",
        "district": "Distrito Industrial II",
        "street": "Rua Três",
        "zipcode": "35903-083"
    },
    {
        "city": "Itabira",
        "state": "MG",
        "district": "Distrito Industrial II",
        "street": "Rua Irmã Ivone Drumond",
        "zipcode": "35903-087"
    },
    {
        "city": "Itabira",
        "state": "MG",
        "district": "Pedreira",
        "street": "Rua Pardal",
        "zipcode": "35904-019"
    },
    {
        "city": "Itabira",
        "state": "MG",
        "district": "Pedreira",
        "street": "Rua Canarinho",
        "zipcode": "35904-029"
    },
    {
        "city": "Itabira",
        "state": "MG",
        "district": "Quintas da Rocinha",
        "street": "Rua das Maritacas",
        "zipcode": "35904-109"
    },
    {
        "city": "Itabira",
        "state": "MG",
        "district": "Centro",
        "street": "Rua Joaquim Morais de Brito",
        "zipcode": "35900-535"
    },
    {
        "city": "Itabira",
        "state": "MG",
        "district": "Fênix",
        "street": "Rua Hidemburgo Gonçalves",
        "zipcode": "35901-226"
    },
    {
        "city": "Itabira",
        "state": "MG",
        "district": "Jardim dos Ipês",
        "street": "Rua Ipê Paulista",
        "zipcode": "35903-004"
    },
    {
        "city": "Itabira",
        "state": "MG",
        "district": "Vale do Sol",
        "street": "Rua Jair Soares da Fonseca (Residencial Vale do Sol)",
        "zipcode": "35900-816"
    },
    {
        "city": "Itabira",
        "state": "MG",
        "district": "Major Lage de Baixo",
        "street": "Rua Otávio Carvalho Lage",
        "zipcode": "35900-672"
    },
    {
        "city": "Itabira",
        "state": "MG",
        "district": "Vale do Sol",
        "street": "Rua Orlando Martins Lage (Residencial Vale do Sol)",
        "zipcode": "35900-815"
    },
    {
        "city": "Itabira",
        "state": "MG",
        "district": "Pará",
        "street": "Travessa Ipoema",
        "zipcode": "35900-499"
    },
    {
        "city": "Itabira",
        "state": "MG",
        "district": "Centro",
        "street": "Travessa Cego Custódio",
        "zipcode": "35900-529"
    },
    {
        "city": "Itabira",
        "state": "MG",
        "district": "Vale do Sol",
        "street": "Rua Terezinha Incerti (Residencial Vale do Sol)",
        "zipcode": "35900-817"
    },
    {
        "city": "Itabira",
        "state": "MG",
        "district": "Vale do Sol",
        "street": "Rua Robinson Damasceno (Residencial Vale do Sol)",
        "zipcode": "35900-819"
    },
    {
        "city": "Itabira",
        "state": "MG",
        "district": "Cidade Nova",
        "street": "Rua Padre Francisco Trombert",
        "zipcode": "35900-860"
    },
    {
        "city": "Itabira",
        "state": "MG",
        "district": "Santa Ruth",
        "street": "Rua Simone Maria Santiago",
        "zipcode": "35901-080"
    },
    {
        "city": "Itabira",
        "state": "MG",
        "district": "Santa Marta",
        "street": "Rua Voyage",
        "zipcode": "35901-190"
    },
    {
        "city": "Itabira",
        "state": "MG",
        "district": "Bálsamos",
        "street": "Rua Sarsa",
        "zipcode": "35901-357"
    },
    {
        "city": "Itabira",
        "state": "MG",
        "district": "Monsenhor José Lopes",
        "street": "Rua Pedro Ferreira Mota",
        "zipcode": "35901-403"
    },
    {
        "city": "Itabira",
        "state": "MG",
        "district": "Buritis",
        "street": "Via Doutor Altamir Nunes Barros",
        "zipcode": "35901-520"
    },
    {
        "city": "Itabira",
        "state": "MG",
        "district": "Jardim Buritis",
        "street": "Rua Taciano de Alvarenga Martins",
        "zipcode": "35901-600"
    },
    {
        "city": "Itabira",
        "state": "MG",
        "district": "Flamboyant",
        "street": "Rua José Duarte Caldas",
        "zipcode": "35901-633"
    },
    {
        "city": "Itabira",
        "state": "MG",
        "district": "Flamboyant",
        "street": "Rua Luiz de Mello Brandão",
        "zipcode": "35901-634"
    },
    {
        "city": "Itabira",
        "state": "MG",
        "district": "Flamboyant",
        "street": "Rua Eneida Bragança",
        "zipcode": "35901-647"
    },
    {
        "city": "Itabira",
        "state": "MG",
        "district": "Flamboyant",
        "street": "Rua Horácio de Carvalho",
        "zipcode": "35901-649"
    },
    {
        "city": "Itabira",
        "state": "MG",
        "district": "Nossa Senhora das Oliveiras",
        "street": "Rua Ouro Branco",
        "zipcode": "35901-682"
    },
    {
        "city": "Itabira",
        "state": "MG",
        "district": "Flamboyant",
        "street": "Rua Norberto Honório Martins",
        "zipcode": "35901-632"
    },
    {
        "city": "Itabira",
        "state": "MG",
        "district": "João XXIII",
        "street": "Rua São Tarcísio",
        "zipcode": "35901-740"
    },
    {
        "city": "Itabira",
        "state": "MG",
        "district": "Pedreira",
        "street": "Rua Periquito",
        "zipcode": "35904-015"
    },
    {
        "city": "Itabira",
        "state": "MG",
        "district": "Esplanada da Estação",
        "street": "Rua Geraldo Magela Maciel",
        "zipcode": "35900-563"
    },
    {
        "city": "Itabira",
        "state": "MG",
        "district": "Barreiro",
        "street": "Travessa José Costa",
        "zipcode": "35903-040"
    },
    {
        "city": "Itabira",
        "state": "MG",
        "district": "Madre Maria de Jesus",
        "street": "Avenida Galiléia",
        "zipcode": "35900-808"
    },
    {
        "city": "Itabira",
        "state": "MG",
        "district": "Madre Maria de Jesus",
        "street": "Rua São Domingos",
        "zipcode": "35900-790"
    },
    {
        "city": "Itabira",
        "state": "MG",
        "district": "Jardim Belvedere",
        "street": "Rua Epitácio Pessoa",
        "zipcode": "35901-457"
    },
    {
        "city": "Itabira",
        "state": "MG",
        "district": "Colina da Praia",
        "street": "Rua Itaguara",
        "zipcode": "35900-336"
    },
    {
        "city": "Itabira",
        "state": "MG",
        "district": "Vila Senhora de Fátima",
        "street": "Rua Argila",
        "zipcode": "35900-266"
    },
    {
        "city": "Itabira",
        "state": "MG",
        "district": "Vila Senhora de Fátima",
        "street": "Rua Lunard",
        "zipcode": "35900-268"
    },
    {
        "city": "Itabira",
        "state": "MG",
        "district": "Pedreira",
        "street": "Travessa Periquito",
        "zipcode": "35904-016"
    },
    {
        "city": "Itabira",
        "state": "MG",
        "district": "Pará",
        "street": "Praça Doutor Nélson Lima Guimares",
        "zipcode": "35900-042"
    },
    {
        "city": "Itabira",
        "state": "MG",
        "district": "Santo Antônio",
        "street": "Rua Augusta Torres Guerra",
        "zipcode": "35900-112"
    },
    {
        "city": "Itabira",
        "state": "MG",
        "district": "Santo Antônio",
        "street": "Rua B",
        "zipcode": "35900-113"
    },
    {
        "city": "Itabira",
        "state": "MG",
        "district": "Quatorze de Fevereiro",
        "street": "Praça Mário Carvalho Azevedo de Barros",
        "zipcode": "35900-242"
    },
    {
        "city": "Itabira",
        "state": "MG",
        "district": "Colina da Praia",
        "street": "Rua Canas Índicas",
        "zipcode": "35900-322"
    },
    {
        "city": "Itabira",
        "state": "MG",
        "district": "Colina da Praia",
        "street": "Rua Amarillos",
        "zipcode": "35900-330"
    },
    {
        "city": "Itabira",
        "state": "MG",
        "district": "Doze de Março",
        "street": "Rua Benedito Valadares",
        "zipcode": "35900-347"
    },
    {
        "city": "Itabira",
        "state": "MG",
        "district": "Gianette",
        "street": "Avenida Rio Doce",
        "zipcode": "35900-389"
    },
    {
        "city": "Itabira",
        "state": "MG",
        "district": "Major Lage de Cima",
        "street": "Avenida Rio Doce",
        "zipcode": "35900-393"
    },
    {
        "city": "Itabira",
        "state": "MG",
        "district": "Clóvis Alvim II",
        "street": "Rua Alvim Veríssimo Gomes",
        "zipcode": "35900-483"
    },
    {
        "city": "Itabira",
        "state": "MG",
        "district": "Clóvis Alvim I",
        "street": "Rua Antônio Félix Filho",
        "zipcode": "35901-001"
    },
    {
        "city": "Itabira",
        "state": "MG",
        "district": "Vila Conceicao De Cima",
        "street": "Rua Um",
        "zipcode": "35901-091"
    },
    {
        "city": "Itabira",
        "state": "MG",
        "district": "Boa Esperança",
        "street": "Travessa Nilo Júnior",
        "zipcode": "35903-595"
    },
    {
        "city": "Itabira",
        "state": "MG",
        "district": "Vila Conceicao De Cima",
        "street": "Rua Doze",
        "zipcode": "35901-090"
    },
    {
        "city": "Itabira",
        "state": "MG",
        "district": "Vila Sao Joaquim",
        "street": "Avenida Maria Cassimira Andrade Lage",
        "zipcode": "35900-402"
    },
    {
        "city": "Itabira",
        "state": "MG",
        "district": "São Pedro",
        "street": "Rua das Margaridas",
        "zipcode": "35900-121"
    },
    {
        "city": "Itabira",
        "state": "MG",
        "district": "Campestre I",
        "street": "Rua do Ouro",
        "zipcode": "35900-081"
    },
    {
        "city": "Itabira",
        "state": "MG",
        "district": "São Pedro",
        "street": "Rua das Margaridas",
        "zipcode": "35900-120"
    },
    {
        "city": "Itabira",
        "state": "MG",
        "district": "Gabiroba (1ª Seção)",
        "street": "Rua dos Fazendeiros",
        "zipcode": "35900-418"
    },
    {
        "city": "Itabira",
        "state": "MG",
        "district": "Boa Esperança",
        "street": "Beco Nova União",
        "zipcode": "35903-599"
    },
    {
        "city": "Itabira",
        "state": "MG",
        "district": "Vale do Sol",
        "street": "Rua Professora Dona Duquinha (Residencial Vale do Sol)",
        "zipcode": "35900-814"
    },
    {
        "city": "Itabira",
        "state": "MG",
        "district": "Vale do Sol",
        "street": "Rua Doutor Sérgio Rosa (Residencial Vale do Sol)",
        "zipcode": "35900-810"
    },
    {
        "city": "Itabira",
        "state": "MG",
        "district": "Boa Esperança",
        "street": "Rua Filadélfia",
        "zipcode": "35903-597"
    },
    {
        "city": "Itabira",
        "state": "MG",
        "district": "Boa Esperança",
        "street": "Escadaria João de Oliveira Pena",
        "zipcode": "35903-590"
    },
    {
        "city": "Itabira",
        "state": "MG",
        "district": "Vila Bethânia",
        "street": "Praça Alfredo Terra da Silva",
        "zipcode": "35900-795"
    },
    {
        "city": "Itabira",
        "state": "MG",
        "district": "Vila Conceicao De Cima",
        "street": "Rua Tres",
        "zipcode": "35901-088"
    },
    {
        "city": "Itabira",
        "state": "MG",
        "district": "Gabiroba (1ª Seção)",
        "street": "Rua dos Funcionários Públicos",
        "zipcode": "35900-432"
    },
    {
        "city": "Itabira",
        "state": "MG",
        "district": "Eldorado",
        "street": "Rua Franklin Figueiredo",
        "zipcode": "35900-143"
    },
    {
        "city": "Itabira",
        "state": "MG",
        "district": "Vila São Joaquim",
        "street": "Rua Israel Pinheiro",
        "zipcode": "35900-403"
    },
    {
        "city": "Itabira",
        "state": "MG",
        "district": "Vila Bethânia",
        "street": "Rua Jordânia",
        "zipcode": "35900-474"
    },
    {
        "city": "Itabira",
        "state": "MG",
        "district": "Vila Nações Unidas",
        "street": "Rua Geraldo Avelino de Almeida",
        "zipcode": "35900-650"
    },
    {
        "city": "Itabira",
        "state": "MG",
        "district": "Vila Piedade",
        "street": "Rua Fernando Gonçalves Terceiros",
        "zipcode": "35900-697"
    },
    {
        "city": "Itabira",
        "state": "MG",
        "district": "Bela Vista",
        "street": "Rua Raul Anastácio de Brito",
        "zipcode": "35900-104"
    },
    {
        "city": "Itabira",
        "state": "MG",
        "district": "Colina da Praia",
        "street": "Rua Ministro Daniel de Carvalho",
        "zipcode": "35900-319"
    },
    {
        "city": "Itabira",
        "state": "MG",
        "district": "Major Lage de Baixo",
        "street": "Rua Malacacheta",
        "zipcode": "35900-515"
    },
    {
        "city": "Itabira",
        "state": "MG",
        "district": "Novo Amazonas",
        "street": "Avenida Ipiranga",
        "zipcode": "35900-351"
    },
    {
        "city": "Itabira",
        "state": "MG",
        "district": "Novo Amazonas",
        "street": "Rua Guilherme José Vaz",
        "zipcode": "35900-360"
    },
    {
        "city": "Itabira",
        "state": "MG",
        "district": "Vila Nações Unidas",
        "street": "Travessa Santo Antônio",
        "zipcode": "35900-502"
    },
    {
        "city": "Itabira",
        "state": "MG",
        "district": "Vila Conceição de Baixo",
        "street": "Rua Vinte e Um de Abril",
        "zipcode": "35901-082"
    },
    {
        "city": "Itabira",
        "state": "MG",
        "district": "Vila Conceição de Baixo",
        "street": "Rua Sapucaia",
        "zipcode": "35901-093"
    },
    {
        "city": "Itabira",
        "state": "MG",
        "district": "Fênix",
        "street": "Rua Maurílio Martins de Souza",
        "zipcode": "35901-232"
    },
    {
        "city": "Itabira",
        "state": "MG",
        "district": "Monsenhor José Lopes",
        "street": "Rua Argemiro Ildefonso Andrade",
        "zipcode": "35901-405"
    },
    {
        "city": "Itabira",
        "state": "MG",
        "district": "Monsenhor José Lopes",
        "street": "Rua Vicente Martins do Couto",
        "zipcode": "35901-411"
    },
    {
        "city": "Itabira",
        "state": "MG",
        "district": "Gabiroba",
        "street": "Rua Benevides Ferreira dos Santos",
        "zipcode": "35902-057"
    },
    {
        "city": "Itabira",
        "state": "MG",
        "district": "Vale do Sol",
        "street": "Rua Nilo Simões Alvarenga (Residencial Vale do Sol)",
        "zipcode": "35900-820"
    },
    {
        "city": "Itabira",
        "state": "MG",
        "district": "Monsenhor José Lopes",
        "street": "Rua Dolor Evangelista Magalhães",
        "zipcode": "35901-423"
    },
    {
        "city": "Itabira",
        "state": "MG",
        "district": "Gabiroba",
        "street": "Rua dos Locutores",
        "zipcode": "35902-031"
    },
    {
        "city": "Itabira",
        "state": "MG",
        "district": "Distrito Industrial II",
        "street": "Rua Professora Marieta Trindade",
        "zipcode": "35903-081"
    },
    {
        "city": "Itabira",
        "state": "MG",
        "district": "Gabiroba",
        "street": "Travessa dos Fazendeiros",
        "zipcode": "35900-806"
    },
    {
        "city": "Itabira",
        "state": "MG",
        "district": "São Cristóvão",
        "street": "Travessa José Basílio Caetano",
        "zipcode": "35900-764"
    },
    {
        "city": "Itabira",
        "state": "MG",
        "district": "Água Fresca",
        "street": "Rua Maria Firmino de Jesus",
        "zipcode": "35900-770"
    },
    {
        "city": "Itabira",
        "state": "MG",
        "district": "Boa Esperança",
        "street": "Rua Brige Pereira Gomes",
        "zipcode": "35903-608"
    },
    {
        "city": "Itabira",
        "state": "MG",
        "district": "Vila Conceicao De Cima",
        "street": "Rua Cinco",
        "zipcode": "35901-089"
    },
    {
        "city": "Itabira",
        "state": "MG",
        "district": "Centro",
        "street": "Avenida Joao Pinheiro",
        "zipcode": "35900-000"
    }
]