[
    {
        "city": "Janaúba",
        "state": "MG",
        "district": "Dente Grande",
        "street": "Avenida Rede Elétrica",
        "zipcode": "39445-442"
    },
    {
        "city": "Janaúba",
        "state": "MG",
        "district": "Isaías Pereira",
        "street": "Rua C",
        "zipcode": "39447-566"
    },
    {
        "city": "Janaúba",
        "state": "MG",
        "district": "Dente Grande",
        "street": "Avenida Brasil",
        "zipcode": "39445-408"
    },
    {
        "city": "Janaúba",
        "state": "MG",
        "district": "Dente Grande",
        "street": "Rua Rio Preto",
        "zipcode": "39445-444"
    },
    {
        "city": "Janaúba",
        "state": "MG",
        "district": "Veredas",
        "street": "Rua Avelino Mendes Nogueira",
        "zipcode": "39440-015"
    },
    {
        "city": "Janaúba",
        "state": "MG",
        "district": "Dente Grande",
        "street": "Rua Rosalina José Serafim",
        "zipcode": "39445-446"
    },
    {
        "city": "Janaúba",
        "state": "MG",
        "district": "Isaías Pereira",
        "street": "Avenida Rede Elétrica",
        "zipcode": "39447-608"
    },
    {
        "city": "Janaúba",
        "state": "MG",
        "district": "Saudade",
        "street": "Rua Laurindo Francisco de Souza",
        "zipcode": "39445-275"
    },
    {
        "city": "Janaúba",
        "state": "MG",
        "district": "Barbosas",
        "street": "Rua Guarany",
        "zipcode": "39440-582"
    },
    {
        "city": "Janaúba",
        "state": "MG",
        "district": "Gameleira",
        "street": "Rua Beira Rio",
        "zipcode": "39442-190"
    },
    {
        "city": "Janaúba",
        "state": "MG",
        "district": null,
        "street": null,
        "zipcode": "39440-000"
    },
    {
        "city": "Janaúba",
        "state": "MG",
        "district": "Ribeirão do Ouro",
        "street": "Rua H",
        "zipcode": "39445-714"
    },
    {
        "city": "Janaúba",
        "state": "MG",
        "district": "Santa Cruz",
        "street": "Rua Onze",
        "zipcode": "39447-460"
    },
    {
        "city": "Janaúba",
        "state": "MG",
        "district": "Jacarezinho I",
        "street": "Rua A",
        "zipcode": "39440-800"
    },
    {
        "city": "Janaúba",
        "state": "MG",
        "district": "Barbosas",
        "street": "Rua F",
        "zipcode": "39440-470"
    },
    {
        "city": "Janaúba",
        "state": "MG",
        "district": "Veredas",
        "street": "Rua Albino Borges Pinto",
        "zipcode": "39440-001"
    },
    {
        "city": "Janaúba",
        "state": "MG",
        "district": "Jardim das Acácias",
        "street": "Rua Dez",
        "zipcode": "39447-820"
    },
    {
        "city": "Janaúba",
        "state": "MG",
        "district": "Isaías Pereira",
        "street": "Rua J",
        "zipcode": "39447-582"
    },
    {
        "city": "Janaúba",
        "state": "MG",
        "district": "Área Rural",
        "street": "Área Rural de Janaúba",
        "zipcode": "39448-899"
    },
    {
        "city": "Janaúba",
        "state": "MG",
        "district": "Ribeirão do Ouro",
        "street": "Avenida Vereador José Prates",
        "zipcode": "39445-636"
    },
    {
        "city": "Janaúba",
        "state": "MG",
        "district": "Santa Cruz",
        "street": "Rua Jonatas Pereira",
        "zipcode": "39447-321"
    },
    {
        "city": "Janaúba",
        "state": "MG",
        "district": "Residencial Dona Lindu",
        "street": "Rua Professora Antonieta Bahia",
        "zipcode": "39447-800"
    },
    {
        "city": "Janaúba",
        "state": "MG",
        "district": "Cerâmica",
        "street": "Rua Antônio Simões",
        "zipcode": "39442-470"
    },
    {
        "city": "Janaúba",
        "state": "MG",
        "district": "Boa Vista",
        "street": "Praça Manoel Aguiar Cordeiro",
        "zipcode": "39444-012"
    },
    {
        "city": "Janaúba",
        "state": "MG",
        "district": "Esplanada",
        "street": "Avenida da Saudade",
        "zipcode": "39445-186"
    },
    {
        "city": "Janaúba",
        "state": "MG",
        "district": "Ribeirão do Ouro",
        "street": "Rua Altino Gomes Barbosa",
        "zipcode": "39445-660"
    },
    {
        "city": "Janaúba",
        "state": "MG",
        "district": "Rio Novo",
        "street": "Avenida Gentil Dias",
        "zipcode": "39440-202"
    },
    {
        "city": "Janaúba",
        "state": "MG",
        "district": "Veredas",
        "street": "Rua Dezoito",
        "zipcode": "39440-023"
    },
    {
        "city": "Janaúba",
        "state": "MG",
        "district": "Veredas",
        "street": "Rua Dois",
        "zipcode": "39440-025"
    },
    {
        "city": "Janaúba",
        "state": "MG",
        "district": "Veredas",
        "street": "Rua Eça de Queiroz",
        "zipcode": "39440-029"
    },
    {
        "city": "Janaúba",
        "state": "MG",
        "district": "Veredas",
        "street": "Rua Cento e Nove",
        "zipcode": "39440-152"
    },
    {
        "city": "Janaúba",
        "state": "MG",
        "district": "Veredas",
        "street": "Rua Mariana Rosa",
        "zipcode": "39440-053"
    },
    {
        "city": "Janaúba",
        "state": "MG",
        "district": "Veredas",
        "street": "Rua Quarenta e Três",
        "zipcode": "39440-099"
    },
    {
        "city": "Janaúba",
        "state": "MG",
        "district": "Veredas",
        "street": "Rua Salviana Caldas",
        "zipcode": "39440-073"
    },
    {
        "city": "Janaúba",
        "state": "MG",
        "district": "Veredas",
        "street": "Rua Princesa Izabel",
        "zipcode": "39440-043"
    },
    {
        "city": "Janaúba",
        "state": "MG",
        "district": "Veredas",
        "street": "Rua Dona Pantaliana Pereira",
        "zipcode": "39440-063"
    },
    {
        "city": "Janaúba",
        "state": "MG",
        "district": "Veredas",
        "street": "Rua Trinta e Cinco",
        "zipcode": "39440-077"
    },
    {
        "city": "Janaúba",
        "state": "MG",
        "district": "Rio Novo",
        "street": "Rua Joana Fernandes de Souza",
        "zipcode": "39440-204"
    },
    {
        "city": "Janaúba",
        "state": "MG",
        "district": "Rio Novo",
        "street": "Rua Antônio Luiz de França",
        "zipcode": "39440-258"
    },
    {
        "city": "Janaúba",
        "state": "MG",
        "district": "Veredas",
        "street": "Rua Antônio Celestino de Faria",
        "zipcode": "39440-095"
    },
    {
        "city": "Janaúba",
        "state": "MG",
        "district": "Veredas",
        "street": "Rua Cento e Cinco",
        "zipcode": "39440-132"
    },
    {
        "city": "Janaúba",
        "state": "MG",
        "district": "Veredas",
        "street": "Rua Benjamin Franco Vasconcelos",
        "zipcode": "39440-017"
    },
    {
        "city": "Janaúba",
        "state": "MG",
        "district": "Veredas",
        "street": "Rua Filomena Barbosa da Fonseca",
        "zipcode": "39440-031"
    },
    {
        "city": "Janaúba",
        "state": "MG",
        "district": "Veredas",
        "street": "Rua Horaciano Caetano",
        "zipcode": "39440-041"
    },
    {
        "city": "Janaúba",
        "state": "MG",
        "district": "Veredas",
        "street": "Rua Maria Rodrigues Maia",
        "zipcode": "39440-051"
    },
    {
        "city": "Janaúba",
        "state": "MG",
        "district": "Veredas",
        "street": "Rua João Caires Sobrinho",
        "zipcode": "39440-154"
    },
    {
        "city": "Janaúba",
        "state": "MG",
        "district": "Veredas",
        "street": "Rua Manoel Bandeira",
        "zipcode": "39440-156"
    },
    {
        "city": "Janaúba",
        "state": "MG",
        "district": "Rio Novo",
        "street": "Rua Seis",
        "zipcode": "39440-214"
    },
    {
        "city": "Janaúba",
        "state": "MG",
        "district": "Rio Novo",
        "street": "Rua Izaulina Caires",
        "zipcode": "39440-292"
    },
    {
        "city": "Janaúba",
        "state": "MG",
        "district": "Rio Novo",
        "street": "Rua José Avelino Silva",
        "zipcode": "39440-302"
    },
    {
        "city": "Janaúba",
        "state": "MG",
        "district": "Rio Novo",
        "street": "Avenida José Gorutuba",
        "zipcode": "39440-304"
    },
    {
        "city": "Janaúba",
        "state": "MG",
        "district": "Rio Novo",
        "street": "Rua José Pereira Junior",
        "zipcode": "39440-306"
    },
    {
        "city": "Janaúba",
        "state": "MG",
        "district": "Rio Novo",
        "street": "Beco Leandro de Barros",
        "zipcode": "39440-310"
    },
    {
        "city": "Janaúba",
        "state": "MG",
        "district": "Rio Novo",
        "street": "Rua Dona Joana Borges Santos",
        "zipcode": "39440-340"
    },
    {
        "city": "Janaúba",
        "state": "MG",
        "district": "Rio Novo",
        "street": "Rua Leandro de Barros",
        "zipcode": "39440-346"
    },
    {
        "city": "Janaúba",
        "state": "MG",
        "district": "Rio Novo",
        "street": "Rua do Feijão Bravo",
        "zipcode": "39440-380"
    },
    {
        "city": "Janaúba",
        "state": "MG",
        "district": "Barbosas",
        "street": "Rua Frederico Barbosa",
        "zipcode": "39440-474"
    },
    {
        "city": "Janaúba",
        "state": "MG",
        "district": "Barbosas",
        "street": "Avenida Gentil Dias",
        "zipcode": "39440-478"
    },
    {
        "city": "Janaúba",
        "state": "MG",
        "district": "Barbosas",
        "street": "Rua José Benedito Nunes",
        "zipcode": "39440-486"
    },
    {
        "city": "Janaúba",
        "state": "MG",
        "district": "Cerâmica",
        "street": "Rua Santa Terezinha",
        "zipcode": "39442-388"
    },
    {
        "city": "Janaúba",
        "state": "MG",
        "district": "São Gonçalo",
        "street": "Rua Carlos Alberto Rocha",
        "zipcode": "39445-024"
    },
    {
        "city": "Janaúba",
        "state": "MG",
        "district": "São Gonçalo",
        "street": "Avenida Manoel Athaide",
        "zipcode": "39445-051"
    },
    {
        "city": "Janaúba",
        "state": "MG",
        "district": "Centro",
        "street": "Rua Inhumas",
        "zipcode": "39442-064"
    },
    {
        "city": "Janaúba",
        "state": "MG",
        "district": "Novo Paraíso",
        "street": "Beco Santa Rita I",
        "zipcode": "39442-103"
    },
    {
        "city": "Janaúba",
        "state": "MG",
        "district": "Nova Esperança",
        "street": "Rua Porteirinha",
        "zipcode": "39442-162"
    },
    {
        "city": "Janaúba",
        "state": "MG",
        "district": "Novo Paraíso",
        "street": "Beco Santa Maria II",
        "zipcode": "39442-109"
    },
    {
        "city": "Janaúba",
        "state": "MG",
        "district": "Padre Eustáquio",
        "street": "Rua Grão Mogol",
        "zipcode": "39442-302"
    },
    {
        "city": "Janaúba",
        "state": "MG",
        "district": "São Lucas",
        "street": "Rua Todos os Santos",
        "zipcode": "39444-198"
    },
    {
        "city": "Janaúba",
        "state": "MG",
        "district": "Nova Esperança",
        "street": "Rua Santa Helena",
        "zipcode": "39442-138"
    },
    {
        "city": "Janaúba",
        "state": "MG",
        "district": "São Lucas",
        "street": "Rua São Judas Tadeu",
        "zipcode": "39444-186"
    },
    {
        "city": "Janaúba",
        "state": "MG",
        "district": "Barbosas",
        "street": "Rua Pantaliana Maria de Jesus",
        "zipcode": "39440-498"
    },
    {
        "city": "Janaúba",
        "state": "MG",
        "district": "Barbosas",
        "street": "Rua Rufino Barbosa Fonseca",
        "zipcode": "39440-502"
    },
    {
        "city": "Janaúba",
        "state": "MG",
        "district": "Barbosas",
        "street": "Rua Pedro Antônio",
        "zipcode": "39440-600"
    },
    {
        "city": "Janaúba",
        "state": "MG",
        "district": "Santa Terezinha",
        "street": "Rua Amado Rodrigues Gomes",
        "zipcode": "39440-700"
    },
    {
        "city": "Janaúba",
        "state": "MG",
        "district": "Santa Terezinha",
        "street": "Rua Cirila Maria de Jesus",
        "zipcode": "39440-709"
    },
    {
        "city": "Janaúba",
        "state": "MG",
        "district": "Jacarezinho I",
        "street": "Rua E",
        "zipcode": "39440-835"
    },
    {
        "city": "Janaúba",
        "state": "MG",
        "district": "Jacarezinho I",
        "street": "Rua do Grupo",
        "zipcode": "39440-849"
    },
    {
        "city": "Janaúba",
        "state": "MG",
        "district": "Jacarezinho I",
        "street": "Avenida Marcelino Rodrigues Siqueira",
        "zipcode": "39440-870"
    },
    {
        "city": "Janaúba",
        "state": "MG",
        "district": "Centro",
        "street": "Praça do Cristo Redentor",
        "zipcode": "39442-001"
    },
    {
        "city": "Janaúba",
        "state": "MG",
        "district": "Centro",
        "street": "Rua José Augusto de Souza",
        "zipcode": "39442-036"
    },
    {
        "city": "Janaúba",
        "state": "MG",
        "district": "Centro",
        "street": "Rua Monte Azul",
        "zipcode": "39442-044"
    },
    {
        "city": "Janaúba",
        "state": "MG",
        "district": "Centro",
        "street": "Rua Virgílio de Melo Franco",
        "zipcode": "39442-062"
    },
    {
        "city": "Janaúba",
        "state": "MG",
        "district": "Novo Paraíso",
        "street": "Rua Santa Rita",
        "zipcode": "39442-100"
    },
    {
        "city": "Janaúba",
        "state": "MG",
        "district": "Nova Esperança",
        "street": "Rua Salgado Filho",
        "zipcode": "39442-165"
    },
    {
        "city": "Janaúba",
        "state": "MG",
        "district": "Gameleira",
        "street": "Rua Antônio Bento de Freitas",
        "zipcode": "39442-180"
    },
    {
        "city": "Janaúba",
        "state": "MG",
        "district": "Padre Eustáquio",
        "street": "Rua Artur Bernardes",
        "zipcode": "39442-238"
    },
    {
        "city": "Janaúba",
        "state": "MG",
        "district": "Padre Eustáquio",
        "street": "Rua Ferrovia",
        "zipcode": "39442-248"
    },
    {
        "city": "Janaúba",
        "state": "MG",
        "district": "Padre Eustáquio",
        "street": "Rua Orlinda Maria de Jesus",
        "zipcode": "39442-274"
    },
    {
        "city": "Janaúba",
        "state": "MG",
        "district": "Padre Eustáquio",
        "street": "Rua Salinas",
        "zipcode": "39442-290"
    },
    {
        "city": "Janaúba",
        "state": "MG",
        "district": "Cerâmica",
        "street": "Rua Corinto",
        "zipcode": "39442-348"
    },
    {
        "city": "Janaúba",
        "state": "MG",
        "district": "Cerâmica",
        "street": "Rua Maria Custódia Ferreira",
        "zipcode": "39442-370"
    },
    {
        "city": "Janaúba",
        "state": "MG",
        "district": "Cerâmica",
        "street": "Beco Cerâmica",
        "zipcode": "39442-473"
    },
    {
        "city": "Janaúba",
        "state": "MG",
        "district": "Boa Vista",
        "street": "Rua Boa Esperança",
        "zipcode": "39444-003"
    },
    {
        "city": "Janaúba",
        "state": "MG",
        "district": "Boa Vista",
        "street": "Rua Jonas Silêncio de Andrade",
        "zipcode": "39444-004"
    },
    {
        "city": "Janaúba",
        "state": "MG",
        "district": "Boa Vista",
        "street": "Rua Luiz Corrêa",
        "zipcode": "39444-008"
    },
    {
        "city": "Janaúba",
        "state": "MG",
        "district": "Boa Vista",
        "street": "Rua Joaquim Luiz de França",
        "zipcode": "39444-068"
    },
    {
        "city": "Janaúba",
        "state": "MG",
        "district": "Boa Vista",
        "street": "Rua Tibúrcio Alves",
        "zipcode": "39444-140"
    },
    {
        "city": "Janaúba",
        "state": "MG",
        "district": "Residencial Clarita",
        "street": "Rua E",
        "zipcode": "39444-218"
    },
    {
        "city": "Janaúba",
        "state": "MG",
        "district": "Residencial Clarita",
        "street": "Rua J",
        "zipcode": "39444-228"
    },
    {
        "city": "Janaúba",
        "state": "MG",
        "district": "São Gonçalo",
        "street": "Rua Américo Soares",
        "zipcode": "39445-009"
    },
    {
        "city": "Janaúba",
        "state": "MG",
        "district": "São Gonçalo",
        "street": "Rua Ipiranga",
        "zipcode": "39445-039"
    },
    {
        "city": "Janaúba",
        "state": "MG",
        "district": "São Gonçalo",
        "street": "Rua São João da Ponte",
        "zipcode": "39445-045"
    },
    {
        "city": "Janaúba",
        "state": "MG",
        "district": "São Gonçalo",
        "street": "Rua Sergipe",
        "zipcode": "39445-069"
    },
    {
        "city": "Janaúba",
        "state": "MG",
        "district": "Esplanada",
        "street": "Rua Marcionílio Soares",
        "zipcode": "39445-144"
    },
    {
        "city": "Janaúba",
        "state": "MG",
        "district": "Esplanada",
        "street": "Rua Osmar Antunes",
        "zipcode": "39445-168"
    },
    {
        "city": "Janaúba",
        "state": "MG",
        "district": "Esplanada",
        "street": "Rua Sete",
        "zipcode": "39445-192"
    },
    {
        "city": "Janaúba",
        "state": "MG",
        "district": "Saudade",
        "street": "Rua Clemência Mendes Oliveira",
        "zipcode": "39445-245"
    },
    {
        "city": "Janaúba",
        "state": "MG",
        "district": "Saudade",
        "street": "Rua Duzentos e Setenta",
        "zipcode": "39445-260"
    },
    {
        "city": "Janaúba",
        "state": "MG",
        "district": "Saudade",
        "street": "Rua Trezentos e Quarenta",
        "zipcode": "39445-308"
    },
    {
        "city": "Janaúba",
        "state": "MG",
        "district": "Santo Antônio",
        "street": "Avenida Vereador José Prates",
        "zipcode": "39447-224"
    },
    {
        "city": "Janaúba",
        "state": "MG",
        "district": "Isaías Pereira",
        "street": "Rua Napoleão Peres de Araújo",
        "zipcode": "39447-600"
    },
    {
        "city": "Janaúba",
        "state": "MG",
        "district": "Algodões",
        "street": "Rua João Pereira",
        "zipcode": "39447-710"
    },
    {
        "city": "Janaúba",
        "state": "MG",
        "district": "São Vicente",
        "street": "Rua Codevasf",
        "zipcode": "39448-503"
    },
    {
        "city": "Janaúba",
        "state": "MG",
        "district": "Morada do Sol",
        "street": "Corredor Dez",
        "zipcode": "39448-569"
    },
    {
        "city": "Janaúba",
        "state": "MG",
        "district": "Planalto",
        "street": "Rua José Gomes Barbosa",
        "zipcode": "39445-484"
    },
    {
        "city": "Janaúba",
        "state": "MG",
        "district": "Ribeirão do Ouro",
        "street": "Rua Sebastião Teodoro da Silva",
        "zipcode": "39445-678"
    },
    {
        "city": "Janaúba",
        "state": "MG",
        "district": "Santo Antônio",
        "street": "Rua Deoclides Mendes",
        "zipcode": "39447-058"
    },
    {
        "city": "Janaúba",
        "state": "MG",
        "district": "Santo Antônio",
        "street": "Rua Vinte e Oito",
        "zipcode": "39447-098"
    },
    {
        "city": "Janaúba",
        "state": "MG",
        "district": "Santo Antônio",
        "street": "Rua Filomena Magalhães",
        "zipcode": "39447-134"
    },
    {
        "city": "Janaúba",
        "state": "MG",
        "district": "Santo Antônio",
        "street": "Avenida da Saudade",
        "zipcode": "39447-190"
    },
    {
        "city": "Janaúba",
        "state": "MG",
        "district": "Santa Cruz",
        "street": "Rua Oito",
        "zipcode": "39447-456"
    },
    {
        "city": "Janaúba",
        "state": "MG",
        "district": "Casas Populares",
        "street": "Rua Francisco Pereira da Mota",
        "zipcode": "39447-536"
    },
    {
        "city": "Janaúba",
        "state": "MG",
        "district": "Isaías Pereira",
        "street": "Avenida Lilia Gonzaga Cavalcanti",
        "zipcode": "39447-588"
    },
    {
        "city": "Janaúba",
        "state": "MG",
        "district": "Ribeirão do Ouro",
        "street": "Rua Bento Barbosa Neto",
        "zipcode": "39445-616"
    },
    {
        "city": "Janaúba",
        "state": "MG",
        "district": "Ribeirão do Ouro",
        "street": "Rua Etelvina Silveira",
        "zipcode": "39445-628"
    },
    {
        "city": "Janaúba",
        "state": "MG",
        "district": "Casas Populares",
        "street": "Rua Josias Antunes Teixeira",
        "zipcode": "39447-544"
    },
    {
        "city": "Janaúba",
        "state": "MG",
        "district": "Ribeirão do Ouro",
        "street": "Rua Josefina Alves Santana",
        "zipcode": "39445-638"
    },
    {
        "city": "Janaúba",
        "state": "MG",
        "district": "Residencial Dona Lindu",
        "street": "Rua Rita Teixeira da Silva",
        "zipcode": "39447-812"
    },
    {
        "city": "Janaúba",
        "state": "MG",
        "district": "Santo Antônio",
        "street": "Avenida Manoel Athaide",
        "zipcode": "39447-158"
    },
    {
        "city": "Janaúba",
        "state": "MG",
        "district": "Santa Cruz",
        "street": "Rua Taquaril",
        "zipcode": "39447-484"
    },
    {
        "city": "Janaúba",
        "state": "MG",
        "district": "Planalto",
        "street": "Rua Trezentos e Setenta",
        "zipcode": "39445-604"
    },
    {
        "city": "Janaúba",
        "state": "MG",
        "district": "Saudade",
        "street": "Rua Paraíba",
        "zipcode": "39445-314"
    },
    {
        "city": "Janaúba",
        "state": "MG",
        "district": "Dente Grande",
        "street": "Rua Belizário Silveira",
        "zipcode": "39445-406"
    },
    {
        "city": "Janaúba",
        "state": "MG",
        "district": "Planalto",
        "street": "Rua Neco Tiburtino",
        "zipcode": "39445-490"
    },
    {
        "city": "Janaúba",
        "state": "MG",
        "district": "Planalto",
        "street": "Rua Petrolina Gonçalves Carvalho",
        "zipcode": "39445-496"
    },
    {
        "city": "Janaúba",
        "state": "MG",
        "district": "Planalto",
        "street": "Rua Quatrocentos e Sessenta e Três",
        "zipcode": "39445-508"
    },
    {
        "city": "Janaúba",
        "state": "MG",
        "district": "Ribeirão do Ouro",
        "street": "Rua Anatalão Pereira Silva",
        "zipcode": "39445-662"
    },
    {
        "city": "Janaúba",
        "state": "MG",
        "district": "Ribeirão do Ouro",
        "street": "Rua José Silva",
        "zipcode": "39445-722"
    },
    {
        "city": "Janaúba",
        "state": "MG",
        "district": "Santo Antônio",
        "street": "Rua Evaristo Marques",
        "zipcode": "39447-008"
    },
    {
        "city": "Janaúba",
        "state": "MG",
        "district": "Santo Antônio",
        "street": "Rua Marcionilia Maria de Jesus",
        "zipcode": "39447-022"
    },
    {
        "city": "Janaúba",
        "state": "MG",
        "district": "Santo Antônio",
        "street": "Rua Mateus Cosme Damião",
        "zipcode": "39447-228"
    },
    {
        "city": "Janaúba",
        "state": "MG",
        "district": "Santo Antônio",
        "street": "Rua Quintino Pereira",
        "zipcode": "39447-236"
    },
    {
        "city": "Janaúba",
        "state": "MG",
        "district": "Santa Cruz",
        "street": "Rua Ildeu Nogueira",
        "zipcode": "39447-318"
    },
    {
        "city": "Janaúba",
        "state": "MG",
        "district": "Santa Cruz",
        "street": "Rua Mato Grosso",
        "zipcode": "39447-448"
    },
    {
        "city": "Janaúba",
        "state": "MG",
        "district": "Residencial Dona Lindu",
        "street": "Rua Etelvina Ferreira de Vasconcelos",
        "zipcode": "39447-802"
    },
    {
        "city": "Janaúba",
        "state": "MG",
        "district": "São Vicente",
        "street": "Rua Reinaldo Viana",
        "zipcode": "39448-524"
    },
    {
        "city": "Janaúba",
        "state": "MG",
        "district": "São Gonçalo",
        "street": "Avenida Prefeito Edilson Brandão Guimarães",
        "zipcode": "39445-081"
    },
    {
        "city": "Janaúba",
        "state": "MG",
        "district": "Jacarezinho I",
        "street": "Avenida Aeroporto",
        "zipcode": "39440-807"
    },
    {
        "city": "Janaúba",
        "state": "MG",
        "district": "Boa Vista",
        "street": "Rodovia MG",
        "zipcode": "39444-001"
    },
    {
        "city": "Janaúba",
        "state": "MG",
        "district": "Santo Antônio",
        "street": "Avenida Presidente Tancredo Neves",
        "zipcode": "39447-038"
    },
    {
        "city": "Janaúba",
        "state": "MG",
        "district": "Santa Cruz",
        "street": "Avenida Prefeito Edilson Brandão Guimarães",
        "zipcode": "39447-363"
    },
    {
        "city": "Janaúba",
        "state": "MG",
        "district": "Santa Cruz",
        "street": "Rua A",
        "zipcode": "39447-400"
    },
    {
        "city": "Janaúba",
        "state": "MG",
        "district": "Cerâmica",
        "street": "Rua Aleixo Alves de Souza",
        "zipcode": "39442-340"
    },
    {
        "city": "Janaúba",
        "state": "MG",
        "district": "São Gonçalo",
        "street": "Rua Alagoas",
        "zipcode": "39445-003"
    },
    {
        "city": "Janaúba",
        "state": "MG",
        "district": "Algodões",
        "street": "Rodovia BR",
        "zipcode": "39447-654"
    },
    {
        "city": "Janaúba",
        "state": "MG",
        "district": "Centro",
        "street": "Rua Aimorés",
        "zipcode": "39442-003"
    },
    {
        "city": "Janaúba",
        "state": "MG",
        "district": "Esplanada",
        "street": "Avenida Maurício Augusto de Azevedo",
        "zipcode": "39445-150"
    },
    {
        "city": "Janaúba",
        "state": "MG",
        "district": "Ribeirão do Ouro",
        "street": "Avenida Militão José dos Santos",
        "zipcode": "39445-676"
    },
    {
        "city": "Janaúba",
        "state": "MG",
        "district": "Veredas",
        "street": "Rua Alfredo Maia",
        "zipcode": "39440-005"
    },
    {
        "city": "Janaúba",
        "state": "MG",
        "district": "Barbosas",
        "street": "Rua A",
        "zipcode": "39440-460"
    },
    {
        "city": "Janaúba",
        "state": "MG",
        "district": "Centro",
        "street": "Praça Péricles Oliveira Santos",
        "zipcode": "39442-046"
    },
    {
        "city": "Janaúba",
        "state": "MG",
        "district": "Gameleira",
        "street": "Avenida Osvaldo Cruz",
        "zipcode": "39442-212"
    },
    {
        "city": "Janaúba",
        "state": "MG",
        "district": "Padre Eustáquio",
        "street": "Avenida Mestre Alfredo Barbosa",
        "zipcode": "39442-230"
    },
    {
        "city": "Janaúba",
        "state": "MG",
        "district": "Padre Eustáquio",
        "street": "Avenida Pedro Alves da Silva",
        "zipcode": "39442-280"
    },
    {
        "city": "Janaúba",
        "state": "MG",
        "district": "Boa Vista",
        "street": "Rua A",
        "zipcode": "39444-050"
    },
    {
        "city": "Janaúba",
        "state": "MG",
        "district": "Boa Vista",
        "street": "Rua Alfredo Maia Santos",
        "zipcode": "39444-052"
    },
    {
        "city": "Janaúba",
        "state": "MG",
        "district": "Residencial Clarita",
        "street": "Rua A",
        "zipcode": "39444-210"
    },
    {
        "city": "Janaúba",
        "state": "MG",
        "district": "Esplanada",
        "street": "Avenida Presidente Kennedy",
        "zipcode": "39445-132"
    },
    {
        "city": "Janaúba",
        "state": "MG",
        "district": "Saudade",
        "street": "Rua Alagoas",
        "zipcode": "39445-233"
    },
    {
        "city": "Janaúba",
        "state": "MG",
        "district": "Planalto",
        "street": "Rua Alagoas",
        "zipcode": "39445-463"
    },
    {
        "city": "Janaúba",
        "state": "MG",
        "district": "Planalto",
        "street": "Avenida Q",
        "zipcode": "39445-574"
    },
    {
        "city": "Janaúba",
        "state": "MG",
        "district": "Planalto",
        "street": "Avenida Rede Elétrica",
        "zipcode": "39445-583"
    },
    {
        "city": "Janaúba",
        "state": "MG",
        "district": "Santo Antônio",
        "street": "Rua Afonso Pena",
        "zipcode": "39447-000"
    },
    {
        "city": "Janaúba",
        "state": "MG",
        "district": "Santo Antônio",
        "street": "Praça Maria José Silva",
        "zipcode": "39447-026"
    },
    {
        "city": "Janaúba",
        "state": "MG",
        "district": "Gameleira",
        "street": "Rua Antunino Antunes",
        "zipcode": "39442-182"
    },
    {
        "city": "Janaúba",
        "state": "MG",
        "district": "Boa Vista",
        "street": "Rua Caraíbas",
        "zipcode": "39444-060"
    },
    {
        "city": "Janaúba",
        "state": "MG",
        "district": "Rio Novo",
        "street": "Rua Cento e Seis",
        "zipcode": "39440-260"
    },
    {
        "city": "Janaúba",
        "state": "MG",
        "district": "Residencial Clarita",
        "street": "Rua C",
        "zipcode": "39444-214"
    },
    {
        "city": "Janaúba",
        "state": "MG",
        "district": "Esplanada",
        "street": "Rua Ciriaco Marques da Silva",
        "zipcode": "39445-111"
    },
    {
        "city": "Janaúba",
        "state": "MG",
        "district": "Ribeirão do Ouro",
        "street": "Rua Carmélia Teixeira de Oliveira",
        "zipcode": "39445-666"
    },
    {
        "city": "Janaúba",
        "state": "MG",
        "district": "Santo Antônio",
        "street": "Rua Bicalho Brandão",
        "zipcode": "39447-118"
    },
    {
        "city": "Janaúba",
        "state": "MG",
        "district": "Isaías Pereira",
        "street": "Rua B",
        "zipcode": "39447-562"
    },
    {
        "city": "Janaúba",
        "state": "MG",
        "district": "Centro",
        "street": "Rua Barão do Gorutuba",
        "zipcode": "39442-026"
    },
    {
        "city": "Janaúba",
        "state": "MG",
        "district": "Esplanada",
        "street": "Rua Cinco",
        "zipcode": "39445-108"
    },
    {
        "city": "Janaúba",
        "state": "MG",
        "district": "Centro",
        "street": "Rua Cirilo Barbosa",
        "zipcode": "39442-014"
    },
    {
        "city": "Janaúba",
        "state": "MG",
        "district": "Centro",
        "street": "Rua Belo Horizonte",
        "zipcode": "39442-008"
    },
    {
        "city": "Janaúba",
        "state": "MG",
        "district": "Barbosas",
        "street": "Rua B",
        "zipcode": "39440-466"
    },
    {
        "city": "Janaúba",
        "state": "MG",
        "district": "Centro",
        "street": "Rua Antunino Antunes",
        "zipcode": "39442-004"
    },
    {
        "city": "Janaúba",
        "state": "MG",
        "district": "Novo Paraíso",
        "street": "Rua Barão do Gorutuba",
        "zipcode": "39442-076"
    },
    {
        "city": "Janaúba",
        "state": "MG",
        "district": "Gameleira",
        "street": "Rua Arcelino Pereira da Silva",
        "zipcode": "39442-184"
    },
    {
        "city": "Janaúba",
        "state": "MG",
        "district": "Gameleira",
        "street": "Rua Aurora",
        "zipcode": "39442-186"
    },
    {
        "city": "Janaúba",
        "state": "MG",
        "district": "Gameleira",
        "street": "Rua Barão do Rio Branco",
        "zipcode": "39442-220"
    },
    {
        "city": "Janaúba",
        "state": "MG",
        "district": "Cerâmica",
        "street": "Rua Castelo Branco",
        "zipcode": "39442-346"
    },
    {
        "city": "Janaúba",
        "state": "MG",
        "district": "Cerâmica",
        "street": "Rua Barão do Rio Branco",
        "zipcode": "39442-384"
    },
    {
        "city": "Janaúba",
        "state": "MG",
        "district": "Boa Vista",
        "street": "Rua Bernardino Teodoro",
        "zipcode": "39444-056"
    },
    {
        "city": "Janaúba",
        "state": "MG",
        "district": "Residencial Clarita",
        "street": "Rua B",
        "zipcode": "39444-212"
    },
    {
        "city": "Janaúba",
        "state": "MG",
        "district": "Esplanada",
        "street": "Rua Caetés",
        "zipcode": "39445-213"
    },
    {
        "city": "Janaúba",
        "state": "MG",
        "district": "Saudade",
        "street": "Rua Ceará",
        "zipcode": "39445-242"
    },
    {
        "city": "Janaúba",
        "state": "MG",
        "district": "Ribeirão do Ouro",
        "street": "Rua Cândido Pereira",
        "zipcode": "39445-664"
    },
    {
        "city": "Janaúba",
        "state": "MG",
        "district": "Santo Antônio",
        "street": "Rua Camila Batista",
        "zipcode": "39447-050"
    },
    {
        "city": "Janaúba",
        "state": "MG",
        "district": "Santo Antônio",
        "street": "Rua Cassiano Pereira",
        "zipcode": "39447-054"
    },
    {
        "city": "Janaúba",
        "state": "MG",
        "district": "Santa Cruz",
        "street": "Rua Aracajú",
        "zipcode": "39447-303"
    },
    {
        "city": "Janaúba",
        "state": "MG",
        "district": "Algodões",
        "street": "Rua Augusto Pereira",
        "zipcode": "39447-700"
    },
    {
        "city": "Janaúba",
        "state": "MG",
        "district": "Residencial Dona Lindu",
        "street": "Rua Geni Celestina de Souza",
        "zipcode": "39447-804"
    },
    {
        "city": "Janaúba",
        "state": "MG",
        "district": "Morada do Sol",
        "street": "Rua Chafariz",
        "zipcode": "39448-563"
    },
    {
        "city": "Janaúba",
        "state": "MG",
        "district": "Esplanada",
        "street": "Rua Doutor Santos",
        "zipcode": "39445-183"
    },
    {
        "city": "Janaúba",
        "state": "MG",
        "district": "Saudade",
        "street": "Rua Fortaleza",
        "zipcode": "39445-263"
    },
    {
        "city": "Janaúba",
        "state": "MG",
        "district": "Saudade",
        "street": "Rua Francisco Rodrigues",
        "zipcode": "39445-266"
    },
    {
        "city": "Janaúba",
        "state": "MG",
        "district": "Saudade",
        "street": "Rua Joaquim Costa Brito",
        "zipcode": "39445-311"
    },
    {
        "city": "Janaúba",
        "state": "MG",
        "district": "Planalto",
        "street": "Rua José Barbosa",
        "zipcode": "39445-481"
    },
    {
        "city": "Janaúba",
        "state": "MG",
        "district": "Ribeirão do Ouro",
        "street": "Rua F",
        "zipcode": "39445-710"
    },
    {
        "city": "Janaúba",
        "state": "MG",
        "district": "Santo Antônio",
        "street": "Rua Félix Luiz de França",
        "zipcode": "39447-130"
    },
    {
        "city": "Janaúba",
        "state": "MG",
        "district": "Santo Antônio",
        "street": "Rua Goiás",
        "zipcode": "39447-138"
    },
    {
        "city": "Janaúba",
        "state": "MG",
        "district": "Santo Antônio",
        "street": "Rua José Cupertino Mendes",
        "zipcode": "39447-150"
    },
    {
        "city": "Janaúba",
        "state": "MG",
        "district": "Santo Antônio",
        "street": "Rua Francisco Pereira",
        "zipcode": "39447-212"
    },
    {
        "city": "Janaúba",
        "state": "MG",
        "district": "Isaías Pereira",
        "street": "Rua E",
        "zipcode": "39447-572"
    },
    {
        "city": "Janaúba",
        "state": "MG",
        "district": "Isaías Pereira",
        "street": "Rua H",
        "zipcode": "39447-576"
    },
    {
        "city": "Janaúba",
        "state": "MG",
        "district": "Jardim das Acácias",
        "street": "Rua Dezesseis",
        "zipcode": "39447-823"
    },
    {
        "city": "Janaúba",
        "state": "MG",
        "district": "Jardim das Acácias",
        "street": "Rua Doze",
        "zipcode": "39447-832"
    },
    {
        "city": "Janaúba",
        "state": "MG",
        "district": "Novo Paraíso",
        "street": "Rua Gorutuba",
        "zipcode": "39442-079"
    },
    {
        "city": "Janaúba",
        "state": "MG",
        "district": "Santo Antônio",
        "street": "Rua José Macêdo Neto",
        "zipcode": "39447-220"
    },
    {
        "city": "Janaúba",
        "state": "MG",
        "district": "Padre Eustáquio",
        "street": "Rua Ferroviária",
        "zipcode": "39442-300"
    },
    {
        "city": "Janaúba",
        "state": "MG",
        "district": "São Gonçalo",
        "street": "Rua Dona Maria Pena",
        "zipcode": "39445-057"
    },
    {
        "city": "Janaúba",
        "state": "MG",
        "district": "São Gonçalo",
        "street": "Rua Governador Valadares",
        "zipcode": "39445-078"
    },
    {
        "city": "Janaúba",
        "state": "MG",
        "district": "Dente Grande",
        "street": "Rua Domingos Soares",
        "zipcode": "39445-414"
    },
    {
        "city": "Janaúba",
        "state": "MG",
        "district": "Santa Cruz",
        "street": "Rua do Ginásio",
        "zipcode": "39447-315"
    },
    {
        "city": "Janaúba",
        "state": "MG",
        "district": "Algodões",
        "street": "Rua Formiga",
        "zipcode": "39447-660"
    },
    {
        "city": "Janaúba",
        "state": "MG",
        "district": "São Vicente",
        "street": "Rua Francisca Maria de Jesus",
        "zipcode": "39448-512"
    },
    {
        "city": "Janaúba",
        "state": "MG",
        "district": "Morada do Sol",
        "street": "Rua Canafístula",
        "zipcode": "39448-560"
    },
    {
        "city": "Janaúba",
        "state": "MG",
        "district": "Santa Cruz",
        "street": "Rua J",
        "zipcode": "39447-428"
    },
    {
        "city": "Janaúba",
        "state": "MG",
        "district": "Casas Populares",
        "street": "Rua Dezia Gomes Silva",
        "zipcode": "39447-532"
    },
    {
        "city": "Janaúba",
        "state": "MG",
        "district": "Rio Novo",
        "street": "Rua Francisca Mendes Oliveira",
        "zipcode": "39440-278"
    },
    {
        "city": "Janaúba",
        "state": "MG",
        "district": "Rio Novo",
        "street": "Rua Dona Tiburtina",
        "zipcode": "39440-330"
    },
    {
        "city": "Janaúba",
        "state": "MG",
        "district": "Nova Esperança",
        "street": "Rua Dom Pedro II",
        "zipcode": "39442-153"
    },
    {
        "city": "Janaúba",
        "state": "MG",
        "district": "Padre Eustáquio",
        "street": "Rua Dois",
        "zipcode": "39442-244"
    },
    {
        "city": "Janaúba",
        "state": "MG",
        "district": "Cerâmica",
        "street": "Rua Getúlio Vargas",
        "zipcode": "39442-360"
    },
    {
        "city": "Janaúba",
        "state": "MG",
        "district": "Boa Vista",
        "street": "Rua E",
        "zipcode": "39444-002"
    },
    {
        "city": "Janaúba",
        "state": "MG",
        "district": "Esplanada",
        "street": "Rua E",
        "zipcode": "39445-117"
    },
    {
        "city": "Janaúba",
        "state": "MG",
        "district": "Saudade",
        "street": "Rua Doze",
        "zipcode": "39445-257"
    },
    {
        "city": "Janaúba",
        "state": "MG",
        "district": "Dente Grande",
        "street": "Rua Herogina Ferraz",
        "zipcode": "39445-418"
    },
    {
        "city": "Janaúba",
        "state": "MG",
        "district": "Dente Grande",
        "street": "Rua João da Cruz",
        "zipcode": "39445-420"
    },
    {
        "city": "Janaúba",
        "state": "MG",
        "district": "Planalto",
        "street": "Rua Geraldo Daniel Santos",
        "zipcode": "39445-475"
    },
    {
        "city": "Janaúba",
        "state": "MG",
        "district": "Planalto",
        "street": "Rua Joaquim de Paulina",
        "zipcode": "39445-478"
    },
    {
        "city": "Janaúba",
        "state": "MG",
        "district": "Ribeirão do Ouro",
        "street": "Rua Duzentos e Sessenta",
        "zipcode": "39445-622"
    },
    {
        "city": "Janaúba",
        "state": "MG",
        "district": "Ribeirão do Ouro",
        "street": "Rua Joaquim Miguel da Silva",
        "zipcode": "39445-632"
    },
    {
        "city": "Janaúba",
        "state": "MG",
        "district": "Ribeirão do Ouro",
        "street": "Rua João Domingues",
        "zipcode": "39445-672"
    },
    {
        "city": "Janaúba",
        "state": "MG",
        "district": "Ribeirão do Ouro",
        "street": "Rua G",
        "zipcode": "39445-712"
    },
    {
        "city": "Janaúba",
        "state": "MG",
        "district": "Santo Antônio",
        "street": "Rua Domingos José Serafim",
        "zipcode": "39447-062"
    },
    {
        "city": "Janaúba",
        "state": "MG",
        "district": "Santo Antônio",
        "street": "Rua Jonatas Pereira",
        "zipcode": "39447-078"
    },
    {
        "city": "Janaúba",
        "state": "MG",
        "district": "Santo Antônio",
        "street": "Rua Dona Marieta",
        "zipcode": "39447-094"
    },
    {
        "city": "Janaúba",
        "state": "MG",
        "district": "Santo Antônio",
        "street": "Rua Dezessete",
        "zipcode": "39447-126"
    },
    {
        "city": "Janaúba",
        "state": "MG",
        "district": "Santo Antônio",
        "street": "Rua Joana Clara",
        "zipcode": "39447-142"
    },
    {
        "city": "Janaúba",
        "state": "MG",
        "district": "Santa Cruz",
        "street": "Rua Dona Maria de Freitas",
        "zipcode": "39447-342"
    },
    {
        "city": "Janaúba",
        "state": "MG",
        "district": "Algodões",
        "street": "Rua E",
        "zipcode": "39447-658"
    },
    {
        "city": "Janaúba",
        "state": "MG",
        "district": "Jardim das Acácias",
        "street": "Rua Dezoito",
        "zipcode": "39447-829"
    },
    {
        "city": "Janaúba",
        "state": "MG",
        "district": "Isaías Pereira",
        "street": "Rua O",
        "zipcode": "39447-602"
    },
    {
        "city": "Janaúba",
        "state": "MG",
        "district": "Algodões",
        "street": "Rua João Medeiros",
        "zipcode": "39447-666"
    },
    {
        "city": "Janaúba",
        "state": "MG",
        "district": "Algodões",
        "street": "Rua José Miguel Junior",
        "zipcode": "39447-668"
    },
    {
        "city": "Janaúba",
        "state": "MG",
        "district": "Algodões",
        "street": "Rua M",
        "zipcode": "39447-676"
    },
    {
        "city": "Janaúba",
        "state": "MG",
        "district": "Algodões",
        "street": "Rua N",
        "zipcode": "39447-678"
    },
    {
        "city": "Janaúba",
        "state": "MG",
        "district": "Algodões",
        "street": "Rua Nove",
        "zipcode": "39447-680"
    },
    {
        "city": "Janaúba",
        "state": "MG",
        "district": "Algodões",
        "street": "Rua P",
        "zipcode": "39447-684"
    },
    {
        "city": "Janaúba",
        "state": "MG",
        "district": "Algodões",
        "street": "Rua Joãozinho Pereira",
        "zipcode": "39447-720"
    },
    {
        "city": "Janaúba",
        "state": "MG",
        "district": "Morada do Sol",
        "street": "Rua Maria de Lourdes",
        "zipcode": "39448-575"
    },
    {
        "city": "Janaúba",
        "state": "MG",
        "district": "Esplanada",
        "street": "Rua Manaus",
        "zipcode": "39445-135"
    },
    {
        "city": "Janaúba",
        "state": "MG",
        "district": "Esplanada",
        "street": "Rua Martiniano Coelho",
        "zipcode": "39445-147"
    },
    {
        "city": "Janaúba",
        "state": "MG",
        "district": "Esplanada",
        "street": "Rua Olívia Magalhães de Oliveira",
        "zipcode": "39445-165"
    },
    {
        "city": "Janaúba",
        "state": "MG",
        "district": "Dente Grande",
        "street": "Rua Neco Tiburtino",
        "zipcode": "39445-430"
    },
    {
        "city": "Janaúba",
        "state": "MG",
        "district": "Santo Antônio",
        "street": "Rua Maria Antunes",
        "zipcode": "39447-090"
    },
    {
        "city": "Janaúba",
        "state": "MG",
        "district": "Santo Antônio",
        "street": "Rua Manaus",
        "zipcode": "39447-154"
    },
    {
        "city": "Janaúba",
        "state": "MG",
        "district": "Santo Antônio",
        "street": "Rua Natal",
        "zipcode": "39447-174"
    },
    {
        "city": "Janaúba",
        "state": "MG",
        "district": "Santo Antônio",
        "street": "Rua Onze",
        "zipcode": "39447-232"
    },
    {
        "city": "Janaúba",
        "state": "MG",
        "district": "Casas Populares",
        "street": "Rua José Batista da Cunha",
        "zipcode": "39447-540"
    },
    {
        "city": "Janaúba",
        "state": "MG",
        "district": "Isaías Pereira",
        "street": "Rua Leonora Miranda",
        "zipcode": "39447-586"
    },
    {
        "city": "Janaúba",
        "state": "MG",
        "district": "Isaías Pereira",
        "street": "Rua Padre Luiz Gonzaga",
        "zipcode": "39447-590"
    },
    {
        "city": "Janaúba",
        "state": "MG",
        "district": "Isaías Pereira",
        "street": "Rua Maria da Soledade Freitas",
        "zipcode": "39447-594"
    },
    {
        "city": "Janaúba",
        "state": "MG",
        "district": "Isaías Pereira",
        "street": "Rua Madre Piedade",
        "zipcode": "39447-604"
    },
    {
        "city": "Janaúba",
        "state": "MG",
        "district": "São Vicente",
        "street": "Rua Jataí",
        "zipcode": "39448-521"
    },
    {
        "city": "Janaúba",
        "state": "MG",
        "district": "Padre Eustáquio",
        "street": "Rua Osvaldo Aranha",
        "zipcode": "39442-276"
    },
    {
        "city": "Janaúba",
        "state": "MG",
        "district": "Saudade",
        "street": "Rua Padre Cleto Altoe",
        "zipcode": "39445-248"
    },
    {
        "city": "Janaúba",
        "state": "MG",
        "district": "Santo Antônio",
        "street": "Rua L",
        "zipcode": "39447-082"
    },
    {
        "city": "Janaúba",
        "state": "MG",
        "district": "Santo Antônio",
        "street": "Rua Lidio Cardoso",
        "zipcode": "39447-086"
    },
    {
        "city": "Janaúba",
        "state": "MG",
        "district": "Padre Eustáquio",
        "street": "Rua Onze",
        "zipcode": "39442-272"
    },
    {
        "city": "Janaúba",
        "state": "MG",
        "district": "Boa Vista",
        "street": "Rua N",
        "zipcode": "39444-014"
    },
    {
        "city": "Janaúba",
        "state": "MG",
        "district": "Santo Antônio",
        "street": "Rua Mariana Rosa",
        "zipcode": "39447-166"
    },
    {
        "city": "Janaúba",
        "state": "MG",
        "district": "São Lucas",
        "street": "Rua Santa Lúcia",
        "zipcode": "39444-188"
    },
    {
        "city": "Janaúba",
        "state": "MG",
        "district": "Dente Grande",
        "street": "Rua Plínio Guerra de Brito",
        "zipcode": "39445-438"
    },
    {
        "city": "Janaúba",
        "state": "MG",
        "district": "Planalto",
        "street": "Rua Marcos Fonseca",
        "zipcode": "39445-568"
    },
    {
        "city": "Janaúba",
        "state": "MG",
        "district": "Ribeirão do Ouro",
        "street": "Rua Marcelino Nunes da Silva",
        "zipcode": "39445-640"
    },
    {
        "city": "Janaúba",
        "state": "MG",
        "district": "Casas Populares",
        "street": "Rua Joaquim Alípio Brito",
        "zipcode": "39447-538"
    },
    {
        "city": "Janaúba",
        "state": "MG",
        "district": "Planalto",
        "street": "Rua Neurisvan Clóvis Santos",
        "zipcode": "39445-571"
    },
    {
        "city": "Janaúba",
        "state": "MG",
        "district": "São Lucas",
        "street": "Rua São Braz",
        "zipcode": "39444-168"
    },
    {
        "city": "Janaúba",
        "state": "MG",
        "district": "Centro",
        "street": "Rua Marechal Deodoro da Fonseca",
        "zipcode": "39442-018"
    },
    {
        "city": "Janaúba",
        "state": "MG",
        "district": "Gameleira",
        "street": "Rua Santa Helena",
        "zipcode": "39442-200"
    },
    {
        "city": "Janaúba",
        "state": "MG",
        "district": "Cerâmica",
        "street": "Rua Seis",
        "zipcode": "39442-386"
    },
    {
        "city": "Janaúba",
        "state": "MG",
        "district": "São Lucas",
        "street": "Rua São Bento",
        "zipcode": "39444-166"
    },
    {
        "city": "Janaúba",
        "state": "MG",
        "district": "São Lucas",
        "street": "Rua São Domingos",
        "zipcode": "39444-172"
    },
    {
        "city": "Janaúba",
        "state": "MG",
        "district": "São Lucas",
        "street": "Rua Santa Margarida",
        "zipcode": "39444-192"
    },
    {
        "city": "Janaúba",
        "state": "MG",
        "district": "Saudade",
        "street": "Rua Rubson Pereira Santana",
        "zipcode": "39445-293"
    },
    {
        "city": "Janaúba",
        "state": "MG",
        "district": "Dente Grande",
        "street": "Rua Santa Cruz",
        "zipcode": "39445-340"
    },
    {
        "city": "Janaúba",
        "state": "MG",
        "district": "Santo Antônio",
        "street": "Rua Leandra Pereira",
        "zipcode": "39447-046"
    },
    {
        "city": "Janaúba",
        "state": "MG",
        "district": "Santa Cruz",
        "street": "Rua Padre Julião",
        "zipcode": "39447-327"
    },
    {
        "city": "Janaúba",
        "state": "MG",
        "district": "Santa Cruz",
        "street": "Rua Pedro Corrêa",
        "zipcode": "39447-348"
    },
    {
        "city": "Janaúba",
        "state": "MG",
        "district": "Santa Cruz",
        "street": "Rua Madre Piedade",
        "zipcode": "39447-468"
    },
    {
        "city": "Janaúba",
        "state": "MG",
        "district": "Ribeirão do Ouro",
        "street": "Rua Pedro Marciano",
        "zipcode": "39445-726"
    },
    {
        "city": "Janaúba",
        "state": "MG",
        "district": "Algodões",
        "street": "Rua L",
        "zipcode": "39447-672"
    },
    {
        "city": "Janaúba",
        "state": "MG",
        "district": "Algodões",
        "street": "Rua Q",
        "zipcode": "39447-688"
    },
    {
        "city": "Janaúba",
        "state": "MG",
        "district": "Algodões",
        "street": "Rua Quatro",
        "zipcode": "39447-690"
    },
    {
        "city": "Janaúba",
        "state": "MG",
        "district": "Morada do Sol",
        "street": "Rua Reinaldo Viana",
        "zipcode": "39448-581"
    },
    {
        "city": "Janaúba",
        "state": "MG",
        "district": "Santo Antônio",
        "street": "Rua Quinze",
        "zipcode": "39447-186"
    },
    {
        "city": "Janaúba",
        "state": "MG",
        "district": "Algodões",
        "street": "Rua Santa Izabel",
        "zipcode": "39447-664"
    },
    {
        "city": "Janaúba",
        "state": "MG",
        "district": "São Lucas",
        "street": "Rua São Felipe",
        "zipcode": "39444-176"
    },
    {
        "city": "Janaúba",
        "state": "MG",
        "district": "Jardim das Acácias",
        "street": "Rua Quinze",
        "zipcode": "39447-847"
    },
    {
        "city": "Janaúba",
        "state": "MG",
        "district": "Planalto",
        "street": "Rua Quatrocentos e Vinte",
        "zipcode": "39445-580"
    },
    {
        "city": "Janaúba",
        "state": "MG",
        "district": "Santo Antônio",
        "street": "Rua Roque Mendes Barbosa",
        "zipcode": "39447-240"
    },
    {
        "city": "Janaúba",
        "state": "MG",
        "district": "Jardim das Acácias",
        "street": "Rua Quatorze",
        "zipcode": "39447-844"
    },
    {
        "city": "Janaúba",
        "state": "MG",
        "district": "Santa Cruz",
        "street": "Rua Rio Grande do Norte",
        "zipcode": "39447-351"
    },
    {
        "city": "Janaúba",
        "state": "MG",
        "district": "Santa Cruz",
        "street": "Rua Sansão Durães",
        "zipcode": "39447-354"
    },
    {
        "city": "Janaúba",
        "state": "MG",
        "district": "São Vicente",
        "street": "Rua Valdemar Pereira",
        "zipcode": "39448-527"
    },
    {
        "city": "Janaúba",
        "state": "MG",
        "district": "Rio Novo",
        "street": "Rua Ubaldino de Assis",
        "zipcode": "39440-332"
    },
    {
        "city": "Janaúba",
        "state": "MG",
        "district": "Cerâmica",
        "street": "Rua Goiânia",
        "zipcode": "39442-362"
    },
    {
        "city": "Janaúba",
        "state": "MG",
        "district": "Padre Eustáquio",
        "street": "Rua Júlia Esteves Caldeira",
        "zipcode": "39442-254"
    },
    {
        "city": "Janaúba",
        "state": "MG",
        "district": "Esplanada",
        "street": "Rua José Teotônio",
        "zipcode": "39445-129"
    },
    {
        "city": "Janaúba",
        "state": "MG",
        "district": "Casas Populares",
        "street": "Rua José Santos Norte",
        "zipcode": "39447-542"
    },
    {
        "city": "Janaúba",
        "state": "MG",
        "district": "Santa Cruz",
        "street": "Rua José Virgínio Lopes",
        "zipcode": "39447-324"
    },
    {
        "city": "Janaúba",
        "state": "MG",
        "district": "Residencial Dona Lindu",
        "street": "Rua Judite Antunes de Souza",
        "zipcode": "39447-810"
    },
    {
        "city": "Janaúba",
        "state": "MG",
        "district": "Rio Novo",
        "street": "Rua Justina Pereira dos Santos",
        "zipcode": "39440-308"
    },
    {
        "city": "Janaúba",
        "state": "MG",
        "district": "Cerâmica",
        "street": "Rua Juscelino Kubitschek",
        "zipcode": "39442-366"
    },
    {
        "city": "Janaúba",
        "state": "MG",
        "district": "Barbosas",
        "street": "Rua K",
        "zipcode": "39440-490"
    },
    {
        "city": "Janaúba",
        "state": "MG",
        "district": "Rio Novo",
        "street": "Rua Justiniano Ferraz Faria",
        "zipcode": "39440-344"
    },
    {
        "city": "Janaúba",
        "state": "MG",
        "district": "Boa Vista",
        "street": "Rua L",
        "zipcode": "39444-006"
    },
    {
        "city": "Janaúba",
        "state": "MG",
        "district": "Boa Vista",
        "street": "Rua K",
        "zipcode": "39444-070"
    },
    {
        "city": "Janaúba",
        "state": "MG",
        "district": "Santo Antônio",
        "street": "Rua Lausinha dos Anjos",
        "zipcode": "39447-018"
    },
    {
        "city": "Janaúba",
        "state": "MG",
        "district": "Padre Eustáquio",
        "street": "Rua Liocárdio Teodoro",
        "zipcode": "39442-258"
    },
    {
        "city": "Janaúba",
        "state": "MG",
        "district": "Barbosas",
        "street": "Rua Lourenço Barbosa da Fonseca",
        "zipcode": "39440-591"
    },
    {
        "city": "Janaúba",
        "state": "MG",
        "district": "Planalto",
        "street": "Rua Um",
        "zipcode": "39445-598"
    },
    {
        "city": "Janaúba",
        "state": "MG",
        "district": "Veredas",
        "street": "Rua Quarenta e Quatro",
        "zipcode": "39440-089"
    },
    {
        "city": "Janaúba",
        "state": "MG",
        "district": "Veredas",
        "street": "Rua Manoel Bandeira",
        "zipcode": "39440-146"
    },
    {
        "city": "Janaúba",
        "state": "MG",
        "district": "Veredas",
        "street": "Rua Quarenta e Três A",
        "zipcode": "39440-150"
    },
    {
        "city": "Janaúba",
        "state": "MG",
        "district": "Rio Novo",
        "street": "Rua Manezinho de Juca",
        "zipcode": "39440-312"
    },
    {
        "city": "Janaúba",
        "state": "MG",
        "district": "Veredas",
        "street": "Rua Porto Alegre",
        "zipcode": "39440-067"
    },
    {
        "city": "Janaúba",
        "state": "MG",
        "district": "Novo Paraíso",
        "street": "Rua Pio XII",
        "zipcode": "39442-097"
    },
    {
        "city": "Janaúba",
        "state": "MG",
        "district": "Esplanada",
        "street": "Rua Manoel Margarido",
        "zipcode": "39445-141"
    },
    {
        "city": "Janaúba",
        "state": "MG",
        "district": "Veredas",
        "street": "Rua Quarenta e Cinco",
        "zipcode": "39440-148"
    },
    {
        "city": "Janaúba",
        "state": "MG",
        "district": "Rio Novo",
        "street": "Rua Oito",
        "zipcode": "39440-210"
    },
    {
        "city": "Janaúba",
        "state": "MG",
        "district": "Rio Novo",
        "street": "Rua Professora Adalgisa Santana",
        "zipcode": "39440-250"
    },
    {
        "city": "Janaúba",
        "state": "MG",
        "district": "Rio Novo",
        "street": "Rua Maria Vitória",
        "zipcode": "39440-318"
    },
    {
        "city": "Janaúba",
        "state": "MG",
        "district": "Rio Novo",
        "street": "Rua Maria de Judy",
        "zipcode": "39440-348"
    },
    {
        "city": "Janaúba",
        "state": "MG",
        "district": "Barbosas",
        "street": "Rua Maria da Solidade",
        "zipcode": "39440-494"
    },
    {
        "city": "Janaúba",
        "state": "MG",
        "district": "Barbosas",
        "street": "Rua Quatro",
        "zipcode": "39440-500"
    },
    {
        "city": "Janaúba",
        "state": "MG",
        "district": "Barbosas",
        "street": "Rua M",
        "zipcode": "39440-594"
    },
    {
        "city": "Janaúba",
        "state": "MG",
        "district": "Barbosas",
        "street": "Rua P",
        "zipcode": "39440-597"
    },
    {
        "city": "Janaúba",
        "state": "MG",
        "district": "Santa Terezinha",
        "street": "Rua Luiz Ferreira",
        "zipcode": "39440-727"
    },
    {
        "city": "Janaúba",
        "state": "MG",
        "district": "Santa Terezinha",
        "street": "Rua Pageú",
        "zipcode": "39440-745"
    },
    {
        "city": "Janaúba",
        "state": "MG",
        "district": "Centro",
        "street": "Rua Padre Cícero",
        "zipcode": "39442-012"
    },
    {
        "city": "Janaúba",
        "state": "MG",
        "district": "Novo Paraíso",
        "street": "Rua Manga",
        "zipcode": "39442-082"
    },
    {
        "city": "Janaúba",
        "state": "MG",
        "district": "Novo Paraíso",
        "street": "Rua Monte Azul",
        "zipcode": "39442-091"
    },
    {
        "city": "Janaúba",
        "state": "MG",
        "district": "Nova Esperança",
        "street": "Rua Nova Esperança",
        "zipcode": "39442-150"
    },
    {
        "city": "Janaúba",
        "state": "MG",
        "district": "Gameleira",
        "street": "Rua Paraná",
        "zipcode": "39442-214"
    },
    {
        "city": "Janaúba",
        "state": "MG",
        "district": "Gameleira",
        "street": "Rua Pernambuco",
        "zipcode": "39442-218"
    },
    {
        "city": "Janaúba",
        "state": "MG",
        "district": "Padre Eustáquio",
        "street": "Rua Minas Gerais",
        "zipcode": "39442-264"
    },
    {
        "city": "Janaúba",
        "state": "MG",
        "district": "Padre Eustáquio",
        "street": "Rua Nilton Pires",
        "zipcode": "39442-268"
    },
    {
        "city": "Janaúba",
        "state": "MG",
        "district": "Padre Eustáquio",
        "street": "Rua Quatro",
        "zipcode": "39442-282"
    },
    {
        "city": "Janaúba",
        "state": "MG",
        "district": "Cerâmica",
        "street": "Rua Luiz Fabiano",
        "zipcode": "39442-368"
    },
    {
        "city": "Janaúba",
        "state": "MG",
        "district": "Cerâmica",
        "street": "Rua Maria de Derme",
        "zipcode": "39442-372"
    },
    {
        "city": "Janaúba",
        "state": "MG",
        "district": "Cerâmica",
        "street": "Rua Paulinho Pintor",
        "zipcode": "39442-378"
    },
    {
        "city": "Janaúba",
        "state": "MG",
        "district": "Boa Vista",
        "street": "Rua M",
        "zipcode": "39444-010"
    },
    {
        "city": "Janaúba",
        "state": "MG",
        "district": "Boa Vista",
        "street": "Rua O",
        "zipcode": "39444-022"
    },
    {
        "city": "Janaúba",
        "state": "MG",
        "district": "São Gonçalo",
        "street": "Rua Primavera",
        "zipcode": "39445-066"
    },
    {
        "city": "Janaúba",
        "state": "MG",
        "district": "Esplanada",
        "street": "Rua Nove",
        "zipcode": "39445-159"
    },
    {
        "city": "Janaúba",
        "state": "MG",
        "district": "Esplanada",
        "street": "Rua Oito",
        "zipcode": "39445-162"
    },
    {
        "city": "Janaúba",
        "state": "MG",
        "district": "Esplanada",
        "street": "Rua Primavera",
        "zipcode": "39445-171"
    },
    {
        "city": "Janaúba",
        "state": "MG",
        "district": "Esplanada",
        "street": "Rua Nilton Cangussu",
        "zipcode": "39445-219"
    },
    {
        "city": "Janaúba",
        "state": "MG",
        "district": "Saudade",
        "street": "Rua Pará",
        "zipcode": "39445-290"
    },
    {
        "city": "Janaúba",
        "state": "MG",
        "district": "Dente Grande",
        "street": "Rua Lúcio Marques da Silva",
        "zipcode": "39445-424"
    },
    {
        "city": "Janaúba",
        "state": "MG",
        "district": "Dente Grande",
        "street": "Rua Manoelina Chaves",
        "zipcode": "39445-426"
    },
    {
        "city": "Janaúba",
        "state": "MG",
        "district": "Dente Grande",
        "street": "Rua Petrolina Gonçalves Carvalho",
        "zipcode": "39445-436"
    },
    {
        "city": "Janaúba",
        "state": "MG",
        "district": "Planalto",
        "street": "Rua Pedro Marques",
        "zipcode": "39445-493"
    },
    {
        "city": "Janaúba",
        "state": "MG",
        "district": "Veredas",
        "street": "Rua Trinta e Dois",
        "zipcode": "39440-091"
    },
    {
        "city": "Janaúba",
        "state": "MG",
        "district": "São Gonçalo",
        "street": "Rua Sessenta e Sete",
        "zipcode": "39445-072"
    },
    {
        "city": "Janaúba",
        "state": "MG",
        "district": "Esplanada",
        "street": "Rua Rubson Pereira Santana",
        "zipcode": "39445-180"
    },
    {
        "city": "Janaúba",
        "state": "MG",
        "district": "Cerâmica",
        "street": "Rua Santa Cruz",
        "zipcode": "39442-350"
    },
    {
        "city": "Janaúba",
        "state": "MG",
        "district": "Santo Antônio",
        "street": "Rua Mato Grosso",
        "zipcode": "39447-170"
    },
    {
        "city": "Janaúba",
        "state": "MG",
        "district": "Dente Grande",
        "street": "Rua São José",
        "zipcode": "39445-422"
    },
    {
        "city": "Janaúba",
        "state": "MG",
        "district": "Rio Novo",
        "street": "Rua S",
        "zipcode": "39440-328"
    },
    {
        "city": "Janaúba",
        "state": "MG",
        "district": "Rio Novo",
        "street": "Rua Um",
        "zipcode": "39440-334"
    },
    {
        "city": "Janaúba",
        "state": "MG",
        "district": "Centro",
        "street": "Rua Salgado Filho",
        "zipcode": "39442-058"
    },
    {
        "city": "Janaúba",
        "state": "MG",
        "district": "Nova Esperança",
        "street": "Rua São João",
        "zipcode": "39442-147"
    },
    {
        "city": "Janaúba",
        "state": "MG",
        "district": "Esplanada",
        "street": "Rua Seis",
        "zipcode": "39445-189"
    },
    {
        "city": "Janaúba",
        "state": "MG",
        "district": "Saudade",
        "street": "Rua Treze",
        "zipcode": "39445-305"
    },
    {
        "city": "Janaúba",
        "state": "MG",
        "district": "Veredas",
        "street": "Rua Trinta e Três",
        "zipcode": "39440-105"
    },
    {
        "city": "Janaúba",
        "state": "MG",
        "district": "Rio Novo",
        "street": "Rua Quatro",
        "zipcode": "39440-212"
    },
    {
        "city": "Janaúba",
        "state": "MG",
        "district": "Rio Novo",
        "street": "Rua São Tiago",
        "zipcode": "39440-218"
    },
    {
        "city": "Janaúba",
        "state": "MG",
        "district": "Rio Novo",
        "street": "Rua Rosenda Pereira Farias",
        "zipcode": "39440-326"
    },
    {
        "city": "Janaúba",
        "state": "MG",
        "district": "Centro",
        "street": "Rua São João da Ponte",
        "zipcode": "39442-034"
    },
    {
        "city": "Janaúba",
        "state": "MG",
        "district": "Centro",
        "street": "Rua Rui Barbosa",
        "zipcode": "39442-056"
    },
    {
        "city": "Janaúba",
        "state": "MG",
        "district": "Novo Paraíso",
        "street": "Rua São Paulo",
        "zipcode": "39442-094"
    },
    {
        "city": "Janaúba",
        "state": "MG",
        "district": "Gameleira",
        "street": "Rua Um",
        "zipcode": "39442-222"
    },
    {
        "city": "Janaúba",
        "state": "MG",
        "district": "Padre Eustáquio",
        "street": "Rua Rio Pardo",
        "zipcode": "39442-286"
    },
    {
        "city": "Janaúba",
        "state": "MG",
        "district": "Padre Eustáquio",
        "street": "Rua Sabará",
        "zipcode": "39442-288"
    },
    {
        "city": "Janaúba",
        "state": "MG",
        "district": "Padre Eustáquio",
        "street": "Rua Sinfrônio Cangussu",
        "zipcode": "39442-292"
    },
    {
        "city": "Janaúba",
        "state": "MG",
        "district": "Cerâmica",
        "street": "Rua Santa Efigênia",
        "zipcode": "39442-356"
    },
    {
        "city": "Janaúba",
        "state": "MG",
        "district": "Cerâmica",
        "street": "Rua Recife",
        "zipcode": "39442-382"
    },
    {
        "city": "Janaúba",
        "state": "MG",
        "district": "Boa Vista",
        "street": "Rua Teodoro Caires",
        "zipcode": "39444-020"
    },
    {
        "city": "Janaúba",
        "state": "MG",
        "district": "Boa Vista",
        "street": "Rua Sete de Setembro",
        "zipcode": "39444-074"
    },
    {
        "city": "Janaúba",
        "state": "MG",
        "district": "Boa Vista",
        "street": "Rua Quinze",
        "zipcode": "39444-100"
    },
    {
        "city": "Janaúba",
        "state": "MG",
        "district": "São Lucas",
        "street": "Rua Santo Agostinho",
        "zipcode": "39444-160"
    },
    {
        "city": "Janaúba",
        "state": "MG",
        "district": "São Lucas",
        "street": "Rua Santa Madalena",
        "zipcode": "39444-190"
    },
    {
        "city": "Janaúba",
        "state": "MG",
        "district": "São Lucas",
        "street": "Rua São Miguel",
        "zipcode": "39444-196"
    },
    {
        "city": "Janaúba",
        "state": "MG",
        "district": "São Lucas",
        "street": "Rua São Vicente de Paulo",
        "zipcode": "39444-200"
    },
    {
        "city": "Janaúba",
        "state": "MG",
        "district": "São Gonçalo",
        "street": "Rua São Pedro",
        "zipcode": "39445-063"
    },
    {
        "city": "Janaúba",
        "state": "MG",
        "district": "São Gonçalo",
        "street": "Rua Tiradentes",
        "zipcode": "39445-075"
    },
    {
        "city": "Janaúba",
        "state": "MG",
        "district": "Esplanada",
        "street": "Rua Tocantins",
        "zipcode": "39445-198"
    },
    {
        "city": "Janaúba",
        "state": "MG",
        "district": "Esplanada",
        "street": "Rua Três",
        "zipcode": "39445-201"
    },
    {
        "city": "Janaúba",
        "state": "MG",
        "district": "Saudade",
        "street": "Rua Sergipe",
        "zipcode": "39445-299"
    },
    {
        "city": "Janaúba",
        "state": "MG",
        "district": "Dente Grande",
        "street": "Rua Rondônia",
        "zipcode": "39445-350"
    },
    {
        "city": "Janaúba",
        "state": "MG",
        "district": "Dente Grande",
        "street": "Rua São Sebastião",
        "zipcode": "39445-448"
    },
    {
        "city": "Janaúba",
        "state": "MG",
        "district": "Planalto",
        "street": "Rua Sergipe",
        "zipcode": "39445-502"
    },
    {
        "city": "Janaúba",
        "state": "MG",
        "district": "Ribeirão do Ouro",
        "street": "Rua Nezim Martins",
        "zipcode": "39445-644"
    },
    {
        "city": "Janaúba",
        "state": "MG",
        "district": "Santo Antônio",
        "street": "Rua Maria Clara",
        "zipcode": "39447-024"
    },
    {
        "city": "Janaúba",
        "state": "MG",
        "district": "Santo Antônio",
        "street": "Rua Otoni de Assis Alves",
        "zipcode": "39447-028"
    },
    {
        "city": "Janaúba",
        "state": "MG",
        "district": "Santa Cruz",
        "street": "Rua Mestre Luiz Gonzaga",
        "zipcode": "39447-432"
    },
    {
        "city": "Janaúba",
        "state": "MG",
        "district": "Santa Cruz",
        "street": "Rua Mateus Cosme Damião",
        "zipcode": "39447-444"
    },
    {
        "city": "Janaúba",
        "state": "MG",
        "district": "Planalto",
        "street": "Rua Lúcio Marques da Silva",
        "zipcode": "39445-565"
    },
    {
        "city": "Janaúba",
        "state": "MG",
        "district": "Santa Cruz",
        "street": "Rua Sérgio Pereira",
        "zipcode": "39447-496"
    },
    {
        "city": "Janaúba",
        "state": "MG",
        "district": "Planalto",
        "street": "Rua Quatrocentos e Sessenta e Um",
        "zipcode": "39445-511"
    },
    {
        "city": "Janaúba",
        "state": "MG",
        "district": "Planalto",
        "street": "Rua Quatrocentos",
        "zipcode": "39445-577"
    },
    {
        "city": "Janaúba",
        "state": "MG",
        "district": "Planalto",
        "street": "Rua Trezentos e Sessenta",
        "zipcode": "39445-595"
    },
    {
        "city": "Janaúba",
        "state": "MG",
        "district": "Ribeirão do Ouro",
        "street": "Rua São Lourenço",
        "zipcode": "39445-724"
    },
    {
        "city": "Janaúba",
        "state": "MG",
        "district": "Santo Antônio",
        "street": "Rua Romão Gomes",
        "zipcode": "39447-036"
    },
    {
        "city": "Janaúba",
        "state": "MG",
        "district": "Santo Antônio",
        "street": "Rua Sargento Piloto",
        "zipcode": "39447-182"
    },
    {
        "city": "Janaúba",
        "state": "MG",
        "district": "Santa Cruz",
        "street": "Rua São Luiz",
        "zipcode": "39447-330"
    },
    {
        "city": "Janaúba",
        "state": "MG",
        "district": "Santa Cruz",
        "street": "Rua Sofia Rosa",
        "zipcode": "39447-357"
    },
    {
        "city": "Janaúba",
        "state": "MG",
        "district": "Santa Cruz",
        "street": "Rua Tiradentes",
        "zipcode": "39447-360"
    },
    {
        "city": "Janaúba",
        "state": "MG",
        "district": "Veredas",
        "street": "Rua Newton Santos",
        "zipcode": "39440-061"
    },
    {
        "city": "Janaúba",
        "state": "MG",
        "district": "Veredas",
        "street": "Rua Thomas Antônio Gonzaga",
        "zipcode": "39440-075"
    },
    {
        "city": "Janaúba",
        "state": "MG",
        "district": "Veredas",
        "street": "Rua Uberlândia",
        "zipcode": "39440-079"
    },
    {
        "city": "Janaúba",
        "state": "MG",
        "district": "Veredas",
        "street": "Rua Vinte e Dois",
        "zipcode": "39440-081"
    },
    {
        "city": "Janaúba",
        "state": "MG",
        "district": "Veredas",
        "street": "Rua Um",
        "zipcode": "39440-093"
    },
    {
        "city": "Janaúba",
        "state": "MG",
        "district": "Veredas",
        "street": "Rua Trinta e Nove",
        "zipcode": "39440-101"
    },
    {
        "city": "Janaúba",
        "state": "MG",
        "district": "Veredas",
        "street": "Rua Trinta e Oito",
        "zipcode": "39440-103"
    },
    {
        "city": "Janaúba",
        "state": "MG",
        "district": "Veredas",
        "street": "Rua Joaquim Caldas",
        "zipcode": "39440-045"
    },
    {
        "city": "Janaúba",
        "state": "MG",
        "district": "Veredas",
        "street": "Rua José Miguel Sobrinho",
        "zipcode": "39440-047"
    },
    {
        "city": "Janaúba",
        "state": "MG",
        "district": "Veredas",
        "street": "Rua Honório Antônio de Farias",
        "zipcode": "39440-140"
    },
    {
        "city": "Janaúba",
        "state": "MG",
        "district": "Rio Novo",
        "street": "Rua João Ferreira de Souza",
        "zipcode": "39440-298"
    },
    {
        "city": "Janaúba",
        "state": "MG",
        "district": "Rio Novo",
        "street": "Rua Maria de Jesus Souza",
        "zipcode": "39440-314"
    },
    {
        "city": "Janaúba",
        "state": "MG",
        "district": "Rio Novo",
        "street": "Rua Maria Luiza Celestina",
        "zipcode": "39440-316"
    },
    {
        "city": "Janaúba",
        "state": "MG",
        "district": "Rio Novo",
        "street": "Rua Pantaliana Maria de Jesus",
        "zipcode": "39440-322"
    },
    {
        "city": "Janaúba",
        "state": "MG",
        "district": "Rio Novo",
        "street": "Rua Quinze",
        "zipcode": "39440-324"
    },
    {
        "city": "Janaúba",
        "state": "MG",
        "district": "Rio Novo",
        "street": "Rua Vinte e Um",
        "zipcode": "39440-336"
    },
    {
        "city": "Janaúba",
        "state": "MG",
        "district": "Barbosas",
        "street": "Rua I",
        "zipcode": "39440-480"
    },
    {
        "city": "Janaúba",
        "state": "MG",
        "district": "Barbosas",
        "street": "Travessa Luzia Pereira dos Santos",
        "zipcode": "39440-492"
    },
    {
        "city": "Janaúba",
        "state": "MG",
        "district": "Centro",
        "street": "Avenida do Comércio 366",
        "zipcode": "39440-970"
    },
    {
        "city": "Janaúba",
        "state": "MG",
        "district": "Centro",
        "street": "Avenida Brasil 685",
        "zipcode": "39440-971"
    },
    {
        "city": "Janaúba",
        "state": "MG",
        "district": "Barbosas",
        "street": "Rua Zé Turiba",
        "zipcode": "39440-504"
    },
    {
        "city": "Janaúba",
        "state": "MG",
        "district": "Cerâmica",
        "street": "Rua Varginha",
        "zipcode": "39442-392"
    },
    {
        "city": "Janaúba",
        "state": "MG",
        "district": "Santo Antônio",
        "street": "Rua Vinte e Um",
        "zipcode": "39447-248"
    },
    {
        "city": "Janaúba",
        "state": "MG",
        "district": "Jardim das Acácias",
        "street": "Rua Treze",
        "zipcode": "39447-853"
    },
    {
        "city": "Janaúba",
        "state": "MG",
        "district": "Ribeirão do Ouro",
        "street": "Rua Zim Batista",
        "zipcode": "39445-650"
    },
    {
        "city": "Janaúba",
        "state": "MG",
        "district": "Padre Eustáquio",
        "street": "Rua Um",
        "zipcode": "39442-296"
    },
    {
        "city": "Janaúba",
        "state": "MG",
        "district": "Ribeirão do Ouro",
        "street": "Rua Trezentos e Vinte",
        "zipcode": "39445-648"
    },
    {
        "city": "Janaúba",
        "state": "MG",
        "district": "Santo Antônio",
        "street": "Rua Vinte e Cinco",
        "zipcode": "39447-042"
    },
    {
        "city": "Janaúba",
        "state": "MG",
        "district": "Santa Terezinha",
        "street": "Rua Vitória",
        "zipcode": "39440-772"
    },
    {
        "city": "Janaúba",
        "state": "MG",
        "district": "Planalto",
        "street": "Rua Três",
        "zipcode": "39445-589"
    },
    {
        "city": "Janaúba",
        "state": "MG",
        "district": "Barbosas",
        "street": "Rua João Teixeira",
        "zipcode": "39440-585"
    },
    {
        "city": "Janaúba",
        "state": "MG",
        "district": "Jacarezinho I",
        "street": "Rua Josefa Maria da Silva",
        "zipcode": "39440-856"
    },
    {
        "city": "Janaúba",
        "state": "MG",
        "district": "Jacarezinho I",
        "street": "Rua L",
        "zipcode": "39440-863"
    },
    {
        "city": "Janaúba",
        "state": "MG",
        "district": "Centro",
        "street": "Rua Porteirinha",
        "zipcode": "39442-050"
    },
    {
        "city": "Janaúba",
        "state": "MG",
        "district": "Centro",
        "street": "Rua Santos Dumont",
        "zipcode": "39442-060"
    },
    {
        "city": "Janaúba",
        "state": "MG",
        "district": "Novo Paraíso",
        "street": "Rua Espinosa",
        "zipcode": "39442-070"
    },
    {
        "city": "Janaúba",
        "state": "MG",
        "district": "Novo Paraíso",
        "street": "Rua Virgílio de Melo Franco",
        "zipcode": "39442-106"
    },
    {
        "city": "Janaúba",
        "state": "MG",
        "district": "Nova Esperança",
        "street": "Rua Pio XII",
        "zipcode": "39442-156"
    },
    {
        "city": "Janaúba",
        "state": "MG",
        "district": "Barbosas",
        "street": "Rua Miguel Barbosa",
        "zipcode": "39440-496"
    },
    {
        "city": "Janaúba",
        "state": "MG",
        "district": "Gameleira",
        "street": "Rua Izaulino José da Silva",
        "zipcode": "39442-202"
    },
    {
        "city": "Janaúba",
        "state": "MG",
        "district": "Padre Eustáquio",
        "street": "Rua Jaime Macêdo de Moura",
        "zipcode": "39442-252"
    },
    {
        "city": "Janaúba",
        "state": "MG",
        "district": "Cerâmica",
        "street": "Rua Orlando Miranda",
        "zipcode": "39442-376"
    },
    {
        "city": "Janaúba",
        "state": "MG",
        "district": "Cerâmica",
        "street": "Travessa Olaria",
        "zipcode": "39442-398"
    },
    {
        "city": "Janaúba",
        "state": "MG",
        "district": "São Gonçalo",
        "street": "Rua Governador Valadares",
        "zipcode": "39445-087"
    },
    {
        "city": "Janaúba",
        "state": "MG",
        "district": "Dente Grande",
        "street": "Rua Vítor Gonçalves dos Santos",
        "zipcode": "39445-452"
    },
    {
        "city": "Janaúba",
        "state": "MG",
        "district": "Ribeirão do Ouro",
        "street": "Rua Zeferino José dos Santos",
        "zipcode": "39445-728"
    },
    {
        "city": "Janaúba",
        "state": "MG",
        "district": "Algodões",
        "street": "Rua Vanilson Pereira",
        "zipcode": "39447-694"
    },
    {
        "city": "Janaúba",
        "state": "MG",
        "district": "Esplanada",
        "street": "Rua Nilson Silva",
        "zipcode": "39445-156"
    },
    {
        "city": "Janaúba",
        "state": "MG",
        "district": "Rio Novo",
        "street": "Rua Sete",
        "zipcode": "39440-216"
    },
    {
        "city": "Janaúba",
        "state": "MG",
        "district": "Rio Novo",
        "street": "Rua Genésio Cangussu",
        "zipcode": "39440-280"
    },
    {
        "city": "Janaúba",
        "state": "MG",
        "district": "Barbosas",
        "street": "Rua Santa Rita de Cássia",
        "zipcode": "39440-603"
    },
    {
        "city": "Janaúba",
        "state": "MG",
        "district": "Centro",
        "street": "Rua Felisberto Antunes",
        "zipcode": "39442-022"
    },
    {
        "city": "Janaúba",
        "state": "MG",
        "district": "Centro",
        "street": "Rua Marcolino Evangelista Barbosa",
        "zipcode": "39442-040"
    },
    {
        "city": "Janaúba",
        "state": "MG",
        "district": "Novo Paraíso",
        "street": "Rua São Francisco",
        "zipcode": "39442-073"
    },
    {
        "city": "Janaúba",
        "state": "MG",
        "district": "Novo Paraíso",
        "street": "Rua Santa Maria",
        "zipcode": "39442-085"
    },
    {
        "city": "Janaúba",
        "state": "MG",
        "district": "Gameleira",
        "street": "Rua Minas Gerais",
        "zipcode": "39442-210"
    },
    {
        "city": "Janaúba",
        "state": "MG",
        "district": "Padre Eustáquio",
        "street": "Rua Jaime Honorato Santos",
        "zipcode": "39442-250"
    },
    {
        "city": "Janaúba",
        "state": "MG",
        "district": "Padre Eustáquio",
        "street": "Rua Maria José de Oliveira",
        "zipcode": "39442-262"
    },
    {
        "city": "Janaúba",
        "state": "MG",
        "district": "Cerâmica",
        "street": "Rua Toninho de Vitor",
        "zipcode": "39442-390"
    },
    {
        "city": "Janaúba",
        "state": "MG",
        "district": "Cerâmica",
        "street": "Rua Três",
        "zipcode": "39442-488"
    },
    {
        "city": "Janaúba",
        "state": "MG",
        "district": "Boa Vista",
        "street": "Rua Nove de Setembro",
        "zipcode": "39444-016"
    },
    {
        "city": "Janaúba",
        "state": "MG",
        "district": "Boa Vista",
        "street": "Rua Pedro Luiz de França",
        "zipcode": "39444-018"
    },
    {
        "city": "Janaúba",
        "state": "MG",
        "district": "Boa Vista",
        "street": "Rua Salviana Caldas",
        "zipcode": "39444-072"
    },
    {
        "city": "Janaúba",
        "state": "MG",
        "district": "São Lucas",
        "street": "Rua Santa Bárbara",
        "zipcode": "39444-162"
    },
    {
        "city": "Janaúba",
        "state": "MG",
        "district": "São Lucas",
        "street": "Rua São Cristóvão",
        "zipcode": "39444-170"
    },
    {
        "city": "Janaúba",
        "state": "MG",
        "district": "São Lucas",
        "street": "Rua São Geraldo",
        "zipcode": "39444-178"
    },
    {
        "city": "Janaúba",
        "state": "MG",
        "district": "São Lucas",
        "street": "Rua Santo Inácio",
        "zipcode": "39444-180"
    },
    {
        "city": "Janaúba",
        "state": "MG",
        "district": "São Gonçalo",
        "street": "Rua São João da Ponte",
        "zipcode": "39445-042"
    },
    {
        "city": "Janaúba",
        "state": "MG",
        "district": "São Gonçalo",
        "street": "Rua João XXIII",
        "zipcode": "39445-048"
    },
    {
        "city": "Janaúba",
        "state": "MG",
        "district": "Esplanada",
        "street": "Rua José Augusto de Souza",
        "zipcode": "39445-126"
    },
    {
        "city": "Janaúba",
        "state": "MG",
        "district": "Esplanada",
        "street": "Rua Rio Preto",
        "zipcode": "39445-177"
    },
    {
        "city": "Janaúba",
        "state": "MG",
        "district": "Esplanada",
        "street": "Rua Tamoios",
        "zipcode": "39445-195"
    },
    {
        "city": "Janaúba",
        "state": "MG",
        "district": "Esplanada",
        "street": "Rua Tupinambás",
        "zipcode": "39445-204"
    },
    {
        "city": "Janaúba",
        "state": "MG",
        "district": "Esplanada",
        "street": "Rua Xavantes",
        "zipcode": "39445-210"
    },
    {
        "city": "Janaúba",
        "state": "MG",
        "district": "Saudade",
        "street": "Rua Manoel Xavier",
        "zipcode": "39445-284"
    },
    {
        "city": "Janaúba",
        "state": "MG",
        "district": "Ribeirão do Ouro",
        "street": "Rua Joaquim Bispo de Oliveira",
        "zipcode": "39445-718"
    },
    {
        "city": "Janaúba",
        "state": "MG",
        "district": "Algodões",
        "street": "Rua Laurinda Fernandes",
        "zipcode": "39447-674"
    },
    {
        "city": "Janaúba",
        "state": "MG",
        "district": "Residencial Dona Lindu",
        "street": "Rua Jovita Maria de Jesus",
        "zipcode": "39447-808"
    },
    {
        "city": "Janaúba",
        "state": "MG",
        "district": "Dente Grande",
        "street": "Rua Pedro Marques",
        "zipcode": "39445-434"
    },
    {
        "city": "Janaúba",
        "state": "MG",
        "district": "Dente Grande",
        "street": "Rua Teodoro José Serafim",
        "zipcode": "39445-450"
    },
    {
        "city": "Janaúba",
        "state": "MG",
        "district": "Planalto",
        "street": "Rua Herogina Ferraz",
        "zipcode": "39445-559"
    },
    {
        "city": "Janaúba",
        "state": "MG",
        "district": "Planalto",
        "street": "Rua José Miguel Silveira",
        "zipcode": "39445-562"
    },
    {
        "city": "Janaúba",
        "state": "MG",
        "district": "Planalto",
        "street": "Rua Valdemar Rocha",
        "zipcode": "39445-601"
    },
    {
        "city": "Janaúba",
        "state": "MG",
        "district": "Ribeirão do Ouro",
        "street": "Rua Francisco Gonçalves",
        "zipcode": "39445-670"
    },
    {
        "city": "Janaúba",
        "state": "MG",
        "district": "Santo Antônio",
        "street": "Rua Elias Venceslau Gomes",
        "zipcode": "39447-006"
    },
    {
        "city": "Janaúba",
        "state": "MG",
        "district": "Santo Antônio",
        "street": "Rua Jacó Pereira",
        "zipcode": "39447-014"
    },
    {
        "city": "Janaúba",
        "state": "MG",
        "district": "Santo Antônio",
        "street": "Rua São João da Ponte",
        "zipcode": "39447-016"
    },
    {
        "city": "Janaúba",
        "state": "MG",
        "district": "Santo Antônio",
        "street": "Rua Maranhão",
        "zipcode": "39447-020"
    },
    {
        "city": "Janaúba",
        "state": "MG",
        "district": "Santo Antônio",
        "street": "Rua Porfílio Pereira",
        "zipcode": "39447-030"
    },
    {
        "city": "Janaúba",
        "state": "MG",
        "district": "Santa Cruz",
        "street": "Rua Macéio",
        "zipcode": "39447-333"
    },
    {
        "city": "Janaúba",
        "state": "MG",
        "district": "Santa Cruz",
        "street": "Rua Ilha do Caiçara",
        "zipcode": "39447-366"
    },
    {
        "city": "Janaúba",
        "state": "MG",
        "district": "Casas Populares",
        "street": "Rua Júlia Aguiar Nogueira",
        "zipcode": "39447-546"
    },
    {
        "city": "Janaúba",
        "state": "MG",
        "district": "Algodões",
        "street": "Rua Itaúna",
        "zipcode": "39447-662"
    },
    {
        "city": "Janaúba",
        "state": "MG",
        "district": "Gameleira",
        "street": "Rua Lucas Viana Neiva",
        "zipcode": "39442-208"
    },
    {
        "city": "Janaúba",
        "state": "MG",
        "district": "Esplanada",
        "street": "Rua Fortaleza",
        "zipcode": "39445-120"
    },
    {
        "city": "Janaúba",
        "state": "MG",
        "district": "Planalto",
        "street": "Rua Quatrocentos e Sessenta",
        "zipcode": "39445-499"
    },
    {
        "city": "Janaúba",
        "state": "MG",
        "district": "Ribeirão do Ouro",
        "street": "Rua Felicidade Antunes",
        "zipcode": "39445-630"
    },
    {
        "city": "Janaúba",
        "state": "MG",
        "district": "Ribeirão do Ouro",
        "street": "Rua Três",
        "zipcode": "39445-646"
    },
    {
        "city": "Janaúba",
        "state": "MG",
        "district": "Planalto",
        "street": "Rua Santos Rodrigues Souza",
        "zipcode": "39445-586"
    },
    {
        "city": "Janaúba",
        "state": "MG",
        "district": "Ribeirão do Ouro",
        "street": "Rua Messias Pereira Dias",
        "zipcode": "39445-674"
    },
    {
        "city": "Janaúba",
        "state": "MG",
        "district": "Padre Eustáquio",
        "street": "Rua Nove",
        "zipcode": "39442-270"
    },
    {
        "city": "Janaúba",
        "state": "MG",
        "district": "Centro",
        "street": "Rua Pio XII",
        "zipcode": "39442-048"
    },
    {
        "city": "Janaúba",
        "state": "MG",
        "district": "Cerâmica",
        "street": "Rua Santa Cândida",
        "zipcode": "39442-344"
    },
    {
        "city": "Janaúba",
        "state": "MG",
        "district": "São Lucas",
        "street": "Rua São Benedito",
        "zipcode": "39444-164"
    },
    {
        "city": "Janaúba",
        "state": "MG",
        "district": "São Lucas",
        "street": "Rua São João",
        "zipcode": "39444-182"
    },
    {
        "city": "Janaúba",
        "state": "MG",
        "district": "Esplanada",
        "street": "Rua Vitório Evangelista",
        "zipcode": "39445-207"
    },
    {
        "city": "Janaúba",
        "state": "MG",
        "district": "Saudade",
        "street": "Rua Manaus",
        "zipcode": "39445-278"
    },
    {
        "city": "Janaúba",
        "state": "MG",
        "district": "Saudade",
        "street": "Rua Tomas Francisco de Souza",
        "zipcode": "39445-302"
    },
    {
        "city": "Janaúba",
        "state": "MG",
        "district": "Dente Grande",
        "street": "Rua São Francisco de Assis",
        "zipcode": "39445-416"
    },
    {
        "city": "Janaúba",
        "state": "MG",
        "district": "Dente Grande",
        "street": "Rua Olívia Magalhães de Oliveira",
        "zipcode": "39445-432"
    },
    {
        "city": "Janaúba",
        "state": "MG",
        "district": "Dente Grande",
        "street": "Rua Quinze",
        "zipcode": "39445-440"
    },
    {
        "city": "Janaúba",
        "state": "MG",
        "district": "Ribeirão do Ouro",
        "street": "Rua Edmundo Ferreira Brito",
        "zipcode": "39445-668"
    },
    {
        "city": "Janaúba",
        "state": "MG",
        "district": "Santo Antônio",
        "street": "Rua Tiradentes",
        "zipcode": "39447-040"
    },
    {
        "city": "Janaúba",
        "state": "MG",
        "district": "Santo Antônio",
        "street": "Rua João Pereira",
        "zipcode": "39447-074"
    },
    {
        "city": "Janaúba",
        "state": "MG",
        "district": "Santa Cruz",
        "street": "Rua Pacífico Martins",
        "zipcode": "39447-464"
    },
    {
        "city": "Janaúba",
        "state": "MG",
        "district": "Santa Cruz",
        "street": "Rua Severina Severa",
        "zipcode": "39447-480"
    },
    {
        "city": "Janaúba",
        "state": "MG",
        "district": "Algodões",
        "street": "Rua O",
        "zipcode": "39447-682"
    },
    {
        "city": "Janaúba",
        "state": "MG",
        "district": "Algodões",
        "street": "Rua Percílio Barbosa",
        "zipcode": "39447-686"
    },
    {
        "city": "Janaúba",
        "state": "MG",
        "district": "Algodões",
        "street": "Rua R",
        "zipcode": "39447-692"
    },
    {
        "city": "Janaúba",
        "state": "MG",
        "district": "Santo Antônio",
        "street": "Rua Oriente",
        "zipcode": "39447-178"
    },
    {
        "city": "Janaúba",
        "state": "MG",
        "district": "Santo Antônio",
        "street": "Rua Treze",
        "zipcode": "39447-244"
    },
    {
        "city": "Janaúba",
        "state": "MG",
        "district": "Santa Cruz",
        "street": "Rua Doze",
        "zipcode": "39447-420"
    },
    {
        "city": "Janaúba",
        "state": "MG",
        "district": "Isaías Pereira",
        "street": "Rua Maria Lima dos Santos",
        "zipcode": "39447-596"
    },
    {
        "city": "Janaúba",
        "state": "MG",
        "district": "Isaías Pereira",
        "street": "Rua R",
        "zipcode": "39447-606"
    },
    {
        "city": "Janaúba",
        "state": "MG",
        "district": "Isaías Pereira",
        "street": "Rua Wladimir Teles de Menezes",
        "zipcode": "39447-612"
    },
    {
        "city": "Janaúba",
        "state": "MG",
        "district": "Residencial Dona Lindu",
        "street": "Rua Terezinha dos Anjos Silva",
        "zipcode": "39447-814"
    },
    {
        "city": "Janaúba",
        "state": "MG",
        "district": "Santo Antônio",
        "street": "Rua Duzentos e Oitenta",
        "zipcode": "39447-208"
    },
    {
        "city": "Janaúba",
        "state": "MG",
        "district": "Santo Antônio",
        "street": "Rua João de Deus",
        "zipcode": "39447-216"
    },
    {
        "city": "Janaúba",
        "state": "MG",
        "district": "Santa Cruz",
        "street": "Rua Mariano José Pereira",
        "zipcode": "39447-440"
    },
    {
        "city": "Janaúba",
        "state": "MG",
        "district": "Santa Cruz",
        "street": "Rua Seis A",
        "zipcode": "39447-476"
    },
    {
        "city": "Janaúba",
        "state": "MG",
        "district": "Casas Populares",
        "street": "Rua Maura Alves de Jesus",
        "zipcode": "39447-548"
    },
    {
        "city": "Janaúba",
        "state": "MG",
        "district": "Jardim das Acácias",
        "street": "Rua Itaúna",
        "zipcode": "39447-835"
    },
    {
        "city": "Janaúba",
        "state": "MG",
        "district": "Jardim das Acácias",
        "street": "Rua Nove",
        "zipcode": "39447-838"
    },
    {
        "city": "Janaúba",
        "state": "MG",
        "district": "São Vicente",
        "street": "Rua Hermengarda Caires",
        "zipcode": "39448-515"
    },
    {
        "city": "Janaúba",
        "state": "MG",
        "district": "Morada do Sol",
        "street": "Rua Domingos Bispo",
        "zipcode": "39448-572"
    },
    {
        "city": "Janaúba",
        "state": "MG",
        "district": "Santo Antônio",
        "street": "Rua Manoel Serapião",
        "zipcode": "39447-162"
    },
    {
        "city": "Janaúba",
        "state": "MG",
        "district": "Santa Cruz",
        "street": "Rua Vicente Meira",
        "zipcode": "39447-492"
    },
    {
        "city": "Janaúba",
        "state": "MG",
        "district": "Isaías Pereira",
        "street": "Rua José Lopes Primo",
        "zipcode": "39447-584"
    },
    {
        "city": "Janaúba",
        "state": "MG",
        "district": "Isaías Pereira",
        "street": "Rua M",
        "zipcode": "39447-592"
    },
    {
        "city": "Janaúba",
        "state": "MG",
        "district": "Isaías Pereira",
        "street": "Rua S",
        "zipcode": "39447-610"
    },
    {
        "city": "Janaúba",
        "state": "MG",
        "district": "São Lucas",
        "street": "Rua São Joaquim",
        "zipcode": "39444-184"
    },
    {
        "city": "Janaúba",
        "state": "MG",
        "district": "Santa Cruz",
        "street": "Rua Seis",
        "zipcode": "39447-472"
    },
    {
        "city": "Janaúba",
        "state": "MG",
        "district": "Santa Cruz",
        "street": "Rua Treze A",
        "zipcode": "39447-488"
    },
    {
        "city": "Janaúba",
        "state": "MG",
        "district": "Jardim das Acácias",
        "street": "Rua Seis",
        "zipcode": "39447-850"
    },
    {
        "city": "Janaúba",
        "state": "MG",
        "district": "Centro",
        "street": "Avenida Brasil",
        "zipcode": "39442-010"
    },
    {
        "city": "Janaúba",
        "state": "MG",
        "district": "Rio Novo",
        "street": "Beco do Corredor",
        "zipcode": "39440-262"
    },
    {
        "city": "Janaúba",
        "state": "MG",
        "district": "Rio Novo",
        "street": "Avenida Gentil Dias",
        "zipcode": "39440-282"
    },
    {
        "city": "Janaúba",
        "state": "MG",
        "district": "Rio Novo",
        "street": "Beco Geraldo dos Anjos Ferreira",
        "zipcode": "39440-286"
    },
    {
        "city": "Janaúba",
        "state": "MG",
        "district": "Rio Novo",
        "street": "Avenida Gentil Dias",
        "zipcode": "39440-338"
    },
    {
        "city": "Janaúba",
        "state": "MG",
        "district": "Rio Novo",
        "street": "Avenida Doutor João Luiz de Almeida",
        "zipcode": "39440-342"
    },
    {
        "city": "Janaúba",
        "state": "MG",
        "district": "Barbosas",
        "street": "Avenida Gentil Dias",
        "zipcode": "39440-476"
    },
    {
        "city": "Janaúba",
        "state": "MG",
        "district": "Barbosas",
        "street": "Avenida José Gorutuba",
        "zipcode": "39440-488"
    },
    {
        "city": "Janaúba",
        "state": "MG",
        "district": "Barbosas",
        "street": "Avenida Gentil Dias",
        "zipcode": "39440-508"
    },
    {
        "city": "Janaúba",
        "state": "MG",
        "district": "Barbosas",
        "street": "Beco José Gorutuba",
        "zipcode": "39440-510"
    },
    {
        "city": "Janaúba",
        "state": "MG",
        "district": "Barbosas",
        "street": "Avenida Júlia Gomes de Freitas",
        "zipcode": "39440-609"
    },
    {
        "city": "Janaúba",
        "state": "MG",
        "district": "Centro",
        "street": "Avenida do Comércio",
        "zipcode": "39442-016"
    },
    {
        "city": "Janaúba",
        "state": "MG",
        "district": "Veredas",
        "street": "Rua Antônio Caldas Silva",
        "zipcode": "39440-083"
    },
    {
        "city": "Janaúba",
        "state": "MG",
        "district": "Veredas",
        "street": "Rua Antônio Caires",
        "zipcode": "39440-013"
    },
    {
        "city": "Janaúba",
        "state": "MG",
        "district": "Dente Grande",
        "street": "Rua Amazonas",
        "zipcode": "39445-320"
    },
    {
        "city": "Janaúba",
        "state": "MG",
        "district": "Santa Cruz",
        "street": "Avenida Manoel Athaide",
        "zipcode": "39447-336"
    },
    {
        "city": "Janaúba",
        "state": "MG",
        "district": "Santa Cruz",
        "street": "Avenida Manoel Athaide",
        "zipcode": "39447-339"
    },
    {
        "city": "Janaúba",
        "state": "MG",
        "district": "Algodões",
        "street": "Avenida K",
        "zipcode": "39447-670"
    },
    {
        "city": "Janaúba",
        "state": "MG",
        "district": "Gameleira",
        "street": "Beco Paraná",
        "zipcode": "39442-224"
    },
    {
        "city": "Janaúba",
        "state": "MG",
        "district": "Esplanada",
        "street": "Rua Belém",
        "zipcode": "39445-096"
    },
    {
        "city": "Janaúba",
        "state": "MG",
        "district": "Centro",
        "street": "Praça Doutor Rockert",
        "zipcode": "39442-052"
    },
    {
        "city": "Janaúba",
        "state": "MG",
        "district": "Santo Antônio",
        "street": "Avenida Manoel Athaide",
        "zipcode": "39447-194"
    },
    {
        "city": "Janaúba",
        "state": "MG",
        "district": "Novo Paraíso",
        "street": "Beco Santa Maria I",
        "zipcode": "39442-088"
    },
    {
        "city": "Janaúba",
        "state": "MG",
        "district": "Padre Eustáquio",
        "street": "Rua Antônio Narcisio Pereira Filho",
        "zipcode": "39442-236"
    },
    {
        "city": "Janaúba",
        "state": "MG",
        "district": "Isaías Pereira",
        "street": "Avenida Cordiolino José da Silva",
        "zipcode": "39447-570"
    },
    {
        "city": "Janaúba",
        "state": "MG",
        "district": "Esplanada",
        "street": "Rua Ambrósio Mendes",
        "zipcode": "39445-090"
    },
    {
        "city": "Janaúba",
        "state": "MG",
        "district": "São Gonçalo",
        "street": "Praça Anchieta",
        "zipcode": "39445-012"
    },
    {
        "city": "Janaúba",
        "state": "MG",
        "district": "Rio Novo",
        "street": "Rua André Ferreira",
        "zipcode": "39440-256"
    },
    {
        "city": "Janaúba",
        "state": "MG",
        "district": "Rio Novo",
        "street": "Beco do Feijão Bravo",
        "zipcode": "39440-390"
    },
    {
        "city": "Janaúba",
        "state": "MG",
        "district": "Barbosas",
        "street": "Rua Angelo dos Santos Lima",
        "zipcode": "39440-462"
    },
    {
        "city": "Janaúba",
        "state": "MG",
        "district": "Barbosas",
        "street": "Rua Antônio Morais",
        "zipcode": "39440-464"
    },
    {
        "city": "Janaúba",
        "state": "MG",
        "district": "Santa Terezinha",
        "street": "Estrada Velha",
        "zipcode": "39440-754"
    },
    {
        "city": "Janaúba",
        "state": "MG",
        "district": "Santa Terezinha",
        "street": "Estrada Velha I",
        "zipcode": "39440-763"
    },
    {
        "city": "Janaúba",
        "state": "MG",
        "district": "Santa Terezinha",
        "street": "Estrada Velha II",
        "zipcode": "39440-790"
    },
    {
        "city": "Janaúba",
        "state": "MG",
        "district": "Jacarezinho I",
        "street": "Estrada Monte Alto",
        "zipcode": "39440-877"
    },
    {
        "city": "Janaúba",
        "state": "MG",
        "district": "Centro",
        "street": "Rua Américo Soares",
        "zipcode": "39442-002"
    },
    {
        "city": "Janaúba",
        "state": "MG",
        "district": "Centro",
        "street": "Praça Doutor Maurício Azevedo",
        "zipcode": "39442-066"
    },
    {
        "city": "Janaúba",
        "state": "MG",
        "district": "Novo Paraíso",
        "street": "Beco Santa Rita II",
        "zipcode": "39442-112"
    },
    {
        "city": "Janaúba",
        "state": "MG",
        "district": "Novo Paraíso",
        "street": "Beco Santa Maria III",
        "zipcode": "39442-115"
    },
    {
        "city": "Janaúba",
        "state": "MG",
        "district": "Nova Esperança",
        "street": "Beco da Ponte",
        "zipcode": "39442-159"
    },
    {
        "city": "Janaúba",
        "state": "MG",
        "district": "Nova Esperança",
        "street": "Beco Francisco Sá",
        "zipcode": "39442-168"
    },
    {
        "city": "Janaúba",
        "state": "MG",
        "district": "Padre Eustáquio",
        "street": "Rua Antônio Augusto Oliveira",
        "zipcode": "39442-234"
    },
    {
        "city": "Janaúba",
        "state": "MG",
        "district": "Cerâmica",
        "street": "Beco Olaria",
        "zipcode": "39442-374"
    },
    {
        "city": "Janaúba",
        "state": "MG",
        "district": "Centro",
        "street": "Avenida do Comércio",
        "zipcode": "39442-970"
    },
    {
        "city": "Janaúba",
        "state": "MG",
        "district": "Boa Vista",
        "street": "Beco Pedro Luiz de França",
        "zipcode": "39444-024"
    },
    {
        "city": "Janaúba",
        "state": "MG",
        "district": "Boa Vista",
        "street": "Rua André Luiz França",
        "zipcode": "39444-054"
    },
    {
        "city": "Janaúba",
        "state": "MG",
        "district": "Boa Vista",
        "street": "Beco Três",
        "zipcode": "39444-076"
    },
    {
        "city": "Janaúba",
        "state": "MG",
        "district": "São Gonçalo",
        "street": "Rua Afonso Pena",
        "zipcode": "39445-000"
    },
    {
        "city": "Janaúba",
        "state": "MG",
        "district": "São Gonçalo",
        "street": "Avenida Santa Mônica",
        "zipcode": "39445-060"
    },
    {
        "city": "Janaúba",
        "state": "MG",
        "district": "São Gonçalo",
        "street": "Avenida Santa Mônica",
        "zipcode": "39445-084"
    },
    {
        "city": "Janaúba",
        "state": "MG",
        "district": "Esplanada",
        "street": "Avenida Brasil",
        "zipcode": "39445-102"
    },
    {
        "city": "Janaúba",
        "state": "MG",
        "district": "Santa Terezinha",
        "street": "Avenida Marcelino Rodrigues Siqueira",
        "zipcode": "39440-736"
    },
    {
        "city": "Janaúba",
        "state": "MG",
        "district": "Esplanada",
        "street": "Avenida Manoel Athaide",
        "zipcode": "39445-138"
    },
    {
        "city": "Janaúba",
        "state": "MG",
        "district": "Ribeirão do Ouro",
        "street": "Avenida Ecológica",
        "zipcode": "39445-626"
    },
    {
        "city": "Janaúba",
        "state": "MG",
        "district": "Dente Grande",
        "street": "Beco Amazonas I",
        "zipcode": "39445-360"
    },
    {
        "city": "Janaúba",
        "state": "MG",
        "district": "Santa Cruz",
        "street": "Rua Angelo Ferreira",
        "zipcode": "39447-404"
    },
    {
        "city": "Janaúba",
        "state": "MG",
        "district": "Morada do Sol",
        "street": "Beco Vinte",
        "zipcode": "39448-587"
    },
    {
        "city": "Janaúba",
        "state": "MG",
        "district": "Santo Antônio",
        "street": "Rua Ana Romana",
        "zipcode": "39447-204"
    },
    {
        "city": "Janaúba",
        "state": "MG",
        "district": "Santo Antônio",
        "street": "Rua Ambrozina Romana",
        "zipcode": "39447-200"
    },
    {
        "city": "Janaúba",
        "state": "MG",
        "district": "Santo Antônio",
        "street": "Avenida Vereador José Prates",
        "zipcode": "39447-252"
    },
    {
        "city": "Janaúba",
        "state": "MG",
        "district": "Ribeirão do Ouro",
        "street": "Estrada Baixa da Colônia",
        "zipcode": "39445-700"
    },
    {
        "city": "Janaúba",
        "state": "MG",
        "district": "Isaías Pereira",
        "street": "Rua Belino Mendes",
        "zipcode": "39447-564"
    },
    {
        "city": "Janaúba",
        "state": "MG",
        "district": "Padre Eustáquio",
        "street": "Rua Belo Horizonte",
        "zipcode": "39442-242"
    },
    {
        "city": "Janaúba",
        "state": "MG",
        "district": "Esplanada",
        "street": "Rua Belizário Silveira",
        "zipcode": "39445-099"
    },
    {
        "city": "Janaúba",
        "state": "MG",
        "district": "Dente Grande",
        "street": "Rua Belgo Mineira",
        "zipcode": "39445-330"
    },
    {
        "city": "Janaúba",
        "state": "MG",
        "district": "Dente Grande",
        "street": "Avenida Santa Mônica",
        "zipcode": "39445-428"
    },
    {
        "city": "Janaúba",
        "state": "MG",
        "district": "Planalto",
        "street": "Rua Ana Maria de Jesus",
        "zipcode": "39445-466"
    },
    {
        "city": "Janaúba",
        "state": "MG",
        "district": "Planalto",
        "street": "Rua Antônio Parrela",
        "zipcode": "39445-469"
    },
    {
        "city": "Janaúba",
        "state": "MG",
        "district": "Ribeirão do Ouro",
        "street": "Rua Amâncio Barbosa da Fonseca",
        "zipcode": "39445-612"
    },
    {
        "city": "Janaúba",
        "state": "MG",
        "district": "Ribeirão do Ouro",
        "street": "Beco Bananal",
        "zipcode": "39445-730"
    },
    {
        "city": "Janaúba",
        "state": "MG",
        "district": "Santa Cruz",
        "street": "Rua Benedito Eugênio",
        "zipcode": "39447-408"
    },
    {
        "city": "Janaúba",
        "state": "MG",
        "district": "São Vicente",
        "street": "Rua Antônia Lacerda",
        "zipcode": "39448-500"
    },
    {
        "city": "Janaúba",
        "state": "MG",
        "district": "São Vicente",
        "street": "Beco J",
        "zipcode": "39448-518"
    },
    {
        "city": "Janaúba",
        "state": "MG",
        "district": "Morada do Sol",
        "street": "Beco da Serra",
        "zipcode": "39448-584"
    },
    {
        "city": "Janaúba",
        "state": "MG",
        "district": "Veredas",
        "street": "Rua Cento e Sete",
        "zipcode": "39440-134"
    },
    {
        "city": "Janaúba",
        "state": "MG",
        "district": "Cerâmica",
        "street": "Rua Bom Jesus",
        "zipcode": "39442-394"
    },
    {
        "city": "Janaúba",
        "state": "MG",
        "district": "Ribeirão do Ouro",
        "street": "Rua David Gonçalves da Silva",
        "zipcode": "39445-618"
    },
    {
        "city": "Janaúba",
        "state": "MG",
        "district": "Rio Novo",
        "street": "Rua Dez",
        "zipcode": "39440-200"
    },
    {
        "city": "Janaúba",
        "state": "MG",
        "district": "Rio Novo",
        "street": "Rua Dezenove",
        "zipcode": "39440-264"
    },
    {
        "city": "Janaúba",
        "state": "MG",
        "district": "Rio Novo",
        "street": "Rua Dezoito",
        "zipcode": "39440-266"
    },
    {
        "city": "Janaúba",
        "state": "MG",
        "district": "Jacarezinho I",
        "street": "Rua C",
        "zipcode": "39440-814"
    },
    {
        "city": "Janaúba",
        "state": "MG",
        "district": "Jacarezinho I",
        "street": "Rua D",
        "zipcode": "39440-821"
    },
    {
        "city": "Janaúba",
        "state": "MG",
        "district": "Jacarezinho I",
        "street": "Rua Darino Pereira",
        "zipcode": "39440-828"
    },
    {
        "city": "Janaúba",
        "state": "MG",
        "district": "Gameleira",
        "street": "Rua Campina Grande",
        "zipcode": "39442-192"
    },
    {
        "city": "Janaúba",
        "state": "MG",
        "district": "Gameleira",
        "street": "Rua Dezesseis",
        "zipcode": "39442-194"
    },
    {
        "city": "Janaúba",
        "state": "MG",
        "district": "Cerâmica",
        "street": "Rua Dez",
        "zipcode": "39442-352"
    },
    {
        "city": "Janaúba",
        "state": "MG",
        "district": "Cerâmica",
        "street": "Rua Curvelo",
        "zipcode": "39442-400"
    },
    {
        "city": "Janaúba",
        "state": "MG",
        "district": "Cerâmica",
        "street": "Rua Deolindo Batista",
        "zipcode": "39442-476"
    },
    {
        "city": "Janaúba",
        "state": "MG",
        "district": "São Gonçalo",
        "street": "Rua Branco Cuia",
        "zipcode": "39445-021"
    },
    {
        "city": "Janaúba",
        "state": "MG",
        "district": "São Gonçalo",
        "street": "Rua Cirilo Barbosa",
        "zipcode": "39445-027"
    },
    {
        "city": "Janaúba",
        "state": "MG",
        "district": "São Gonçalo",
        "street": "Rua Delio Azevedo Bahia",
        "zipcode": "39445-030"
    },
    {
        "city": "Janaúba",
        "state": "MG",
        "district": "Saudade",
        "street": "Rua Deusdete Gonzaga Soares",
        "zipcode": "39445-254"
    },
    {
        "city": "Janaúba",
        "state": "MG",
        "district": "Dente Grande",
        "street": "Rua Damazio Gonçalves dos Santos",
        "zipcode": "39445-412"
    },
    {
        "city": "Janaúba",
        "state": "MG",
        "district": "Planalto",
        "street": "Rua Deraldo Alves Pereira",
        "zipcode": "39445-553"
    },
    {
        "city": "Janaúba",
        "state": "MG",
        "district": "Algodões",
        "street": "Rua da Lagoa",
        "zipcode": "39447-730"
    },
    {
        "city": "Janaúba",
        "state": "MG",
        "district": "Algodões",
        "street": "Rua D",
        "zipcode": "39447-656"
    },
    {
        "city": "Janaúba",
        "state": "MG",
        "district": "Casas Populares",
        "street": "Rua Damião Pereira",
        "zipcode": "39447-530"
    },
    {
        "city": "Janaúba",
        "state": "MG",
        "district": "Isaías Pereira",
        "street": "Rua Cirilo Corrêa",
        "zipcode": "39447-568"
    },
    {
        "city": "Janaúba",
        "state": "MG",
        "district": "Ribeirão do Ouro",
        "street": "Rua D",
        "zipcode": "39445-702"
    },
    {
        "city": "Janaúba",
        "state": "MG",
        "district": "São Gonçalo",
        "street": "Rua dos Bandeirantes",
        "zipcode": "39445-018"
    },
    {
        "city": "Janaúba",
        "state": "MG",
        "district": "Ribeirão do Ouro",
        "street": "Rua Duzentos e Setenta",
        "zipcode": "39445-624"
    },
    {
        "city": "Janaúba",
        "state": "MG",
        "district": "Centro",
        "street": "Rua Espinosa",
        "zipcode": "39442-020"
    },
    {
        "city": "Janaúba",
        "state": "MG",
        "district": "Isaías Pereira",
        "street": "Rua Euzébio Rodrigues Medeiros",
        "zipcode": "39447-574"
    },
    {
        "city": "Janaúba",
        "state": "MG",
        "district": "Isaías Pereira",
        "street": "Rua I",
        "zipcode": "39447-578"
    },
    {
        "city": "Janaúba",
        "state": "MG",
        "district": "Residencial Dona Lindu",
        "street": "Rua Itaúna",
        "zipcode": "39447-806"
    },
    {
        "city": "Janaúba",
        "state": "MG",
        "district": "São Vicente",
        "street": "Rua Edgar Athaide",
        "zipcode": "39448-509"
    },
    {
        "city": "Janaúba",
        "state": "MG",
        "district": "Santo Antônio",
        "street": "Rua Emídio Pereira da Silva",
        "zipcode": "39447-066"
    },
    {
        "city": "Janaúba",
        "state": "MG",
        "district": "Santo Antônio",
        "street": "Rua Ildeu Nogueira",
        "zipcode": "39447-070"
    },
    {
        "city": "Janaúba",
        "state": "MG",
        "district": "Veredas",
        "street": "Rua Geraldo Souza Santos",
        "zipcode": "39440-037"
    },
    {
        "city": "Janaúba",
        "state": "MG",
        "district": "Veredas",
        "street": "Rua Grão Mogol",
        "zipcode": "39440-059"
    },
    {
        "city": "Janaúba",
        "state": "MG",
        "district": "Veredas",
        "street": "Rua Florianópolis",
        "zipcode": "39440-085"
    },
    {
        "city": "Janaúba",
        "state": "MG",
        "district": "Veredas",
        "street": "Rua Izaulina Caires",
        "zipcode": "39440-142"
    },
    {
        "city": "Janaúba",
        "state": "MG",
        "district": "Veredas",
        "street": "Rua João Batista de Menezes",
        "zipcode": "39440-144"
    },
    {
        "city": "Janaúba",
        "state": "MG",
        "district": "Rio Novo",
        "street": "Rua Elizene Dias",
        "zipcode": "39440-272"
    },
    {
        "city": "Janaúba",
        "state": "MG",
        "district": "Rio Novo",
        "street": "Rua Geraldo dos Anjos Ferreira",
        "zipcode": "39440-284"
    },
    {
        "city": "Janaúba",
        "state": "MG",
        "district": "Rio Novo",
        "street": "Rua Izaete Pereira",
        "zipcode": "39440-290"
    },
    {
        "city": "Janaúba",
        "state": "MG",
        "district": "Rio Novo",
        "street": "Rua Jedor Ferreira",
        "zipcode": "39440-294"
    },
    {
        "city": "Janaúba",
        "state": "MG",
        "district": "Rio Novo",
        "street": "Rua João Batista de Menezes",
        "zipcode": "39440-296"
    },
    {
        "city": "Janaúba",
        "state": "MG",
        "district": "Rio Novo",
        "street": "Rua João Valente",
        "zipcode": "39440-300"
    },
    {
        "city": "Janaúba",
        "state": "MG",
        "district": "Barbosas",
        "street": "Rua Felícia",
        "zipcode": "39440-472"
    },
    {
        "city": "Janaúba",
        "state": "MG",
        "district": "Barbosas",
        "street": "Rua J",
        "zipcode": "39440-482"
    },
    {
        "city": "Janaúba",
        "state": "MG",
        "district": "Barbosas",
        "street": "Rua Felícia Fernandes de Souza",
        "zipcode": "39440-573"
    },
    {
        "city": "Janaúba",
        "state": "MG",
        "district": "Barbosas",
        "street": "Rua Geraldo Teles",
        "zipcode": "39440-579"
    },
    {
        "city": "Janaúba",
        "state": "MG",
        "district": "Jacarezinho I",
        "street": "Rua Gentil Lopes de Oliveira",
        "zipcode": "39440-842"
    },
    {
        "city": "Janaúba",
        "state": "MG",
        "district": "Centro",
        "street": "Rua Inhumas",
        "zipcode": "39442-030"
    },
    {
        "city": "Janaúba",
        "state": "MG",
        "district": "Centro",
        "street": "Rua Jacinto Mendes",
        "zipcode": "39442-032"
    },
    {
        "city": "Janaúba",
        "state": "MG",
        "district": "Nova Esperança",
        "street": "Rua Jacinto Mendes",
        "zipcode": "39442-141"
    },
    {
        "city": "Janaúba",
        "state": "MG",
        "district": "Nova Esperança",
        "street": "Rua Jaraguá",
        "zipcode": "39442-144"
    },
    {
        "city": "Janaúba",
        "state": "MG",
        "district": "Gameleira",
        "street": "Rua Euclides da Cunha",
        "zipcode": "39442-196"
    },
    {
        "city": "Janaúba",
        "state": "MG",
        "district": "Gameleira",
        "street": "Rua Gorutuba",
        "zipcode": "39442-198"
    },
    {
        "city": "Janaúba",
        "state": "MG",
        "district": "Gameleira",
        "street": "Rua Jaime Macêdo de Moura",
        "zipcode": "39442-204"
    },
    {
        "city": "Janaúba",
        "state": "MG",
        "district": "Cerâmica",
        "street": "Rua Eulina Felismina Almeida",
        "zipcode": "39442-358"
    },
    {
        "city": "Janaúba",
        "state": "MG",
        "district": "Cerâmica",
        "street": "Rua Guilherme Ferreira Lima",
        "zipcode": "39442-364"
    },
    {
        "city": "Janaúba",
        "state": "MG",
        "district": "Boa Vista",
        "street": "Rua F",
        "zipcode": "39444-062"
    },
    {
        "city": "Janaúba",
        "state": "MG",
        "district": "Boa Vista",
        "street": "Rua I",
        "zipcode": "39444-064"
    },
    {
        "city": "Janaúba",
        "state": "MG",
        "district": "Boa Vista",
        "street": "Rua J",
        "zipcode": "39444-066"
    },
    {
        "city": "Janaúba",
        "state": "MG",
        "district": "Residencial Clarita",
        "street": "Rua F",
        "zipcode": "39444-220"
    },
    {
        "city": "Janaúba",
        "state": "MG",
        "district": "Residencial Clarita",
        "street": "Rua G",
        "zipcode": "39444-222"
    },
    {
        "city": "Janaúba",
        "state": "MG",
        "district": "Residencial Clarita",
        "street": "Rua H",
        "zipcode": "39444-224"
    },
    {
        "city": "Janaúba",
        "state": "MG",
        "district": "Residencial Clarita",
        "street": "Rua I",
        "zipcode": "39444-226"
    },
    {
        "city": "Janaúba",
        "state": "MG",
        "district": "Esplanada",
        "street": "Rua Joaquim Costa Brito",
        "zipcode": "39445-123"
    },
    {
        "city": "Janaúba",
        "state": "MG",
        "district": "Esplanada",
        "street": "Rua Joaquim Costa Brito",
        "zipcode": "39445-216"
    },
    {
        "city": "Janaúba",
        "state": "MG",
        "district": "Saudade",
        "street": "Rua João Pessoa",
        "zipcode": "39445-269"
    },
    {
        "city": "Janaúba",
        "state": "MG",
        "district": "Saudade",
        "street": "Rua Joaquim Costa Brito",
        "zipcode": "39445-272"
    },
    {
        "city": "Janaúba",
        "state": "MG",
        "district": "Ribeirão do Ouro",
        "street": "Rua E",
        "zipcode": "39445-708"
    },
    {
        "city": "Janaúba",
        "state": "MG",
        "district": "Ribeirão do Ouro",
        "street": "Rua Jair Gonzaga Cruz",
        "zipcode": "39445-716"
    },
    {
        "city": "Janaúba",
        "state": "MG",
        "district": "Santo Antônio",
        "street": "Rua Izabel Maria",
        "zipcode": "39447-012"
    },
    {
        "city": "Janaúba",
        "state": "MG",
        "district": "Santa Cruz",
        "street": "Rua Itaúna",
        "zipcode": "39447-424"
    },
    {
        "city": "Janaúba",
        "state": "MG",
        "district": "Casas Populares",
        "street": "Rua E 1",
        "zipcode": "39447-534"
    },
    {
        "city": "Janaúba",
        "state": "MG",
        "district": "Rio Novo",
        "street": "Rua Josefa Fernandes da Silva",
        "zipcode": "39440-206"
    },
    {
        "city": "Janaúba",
        "state": "MG",
        "district": "Veredas",
        "street": "Rua Antônio Augusto Oliveira",
        "zipcode": "39440-011"
    },
    {
        "city": "Janaúba",
        "state": "MG",
        "district": "Veredas",
        "street": "Rua Dezenove",
        "zipcode": "39440-021"
    },
    {
        "city": "Janaúba",
        "state": "MG",
        "district": "Veredas",
        "street": "Rua Domingos Pereira de Souza",
        "zipcode": "39440-027"
    },
    {
        "city": "Janaúba",
        "state": "MG",
        "district": "Veredas",
        "street": "Rua Dona Francisca Rosa",
        "zipcode": "39440-035"
    },
    {
        "city": "Janaúba",
        "state": "MG",
        "district": "Veredas",
        "street": "Rua Martinha Santos Pereira",
        "zipcode": "39440-055"
    },
    {
        "city": "Janaúba",
        "state": "MG",
        "district": "Veredas",
        "street": "Rua Florência Maria de Jesus",
        "zipcode": "39440-033"
    },
    {
        "city": "Janaúba",
        "state": "MG",
        "district": "Veredas",
        "street": "Rua Cornélio Gonçalves Pires",
        "zipcode": "39440-019"
    },
    {
        "city": "Janaúba",
        "state": "MG",
        "district": "Veredas",
        "street": "Avenida Mestre Alfredo Barbosa",
        "zipcode": "39440-003"
    },
    {
        "city": "Janaúba",
        "state": "MG",
        "district": "Veredas",
        "street": "Rua Hermínio José da Silva",
        "zipcode": "39440-039"
    },
    {
        "city": "Janaúba",
        "state": "MG",
        "district": "Veredas",
        "street": "Rodovia MG",
        "zipcode": "39440-057"
    },
    {
        "city": "Janaúba",
        "state": "MG",
        "district": "Veredas",
        "street": "Avenida Pedro Alves da Silva",
        "zipcode": "39440-097"
    },
    {
        "city": "Janaúba",
        "state": "MG",
        "district": "Veredas",
        "street": "Rua Antônio Luiz de França",
        "zipcode": "39440-130"
    },
    {
        "city": "Janaúba",
        "state": "MG",
        "district": "Veredas",
        "street": "Avenida Pedro Álvares Cabral",
        "zipcode": "39440-065"
    },
    {
        "city": "Janaúba",
        "state": "MG",
        "district": "Rio Novo",
        "street": "Rua Diva Pinto",
        "zipcode": "39440-268"
    },
    {
        "city": "Janaúba",
        "state": "MG",
        "district": "Rio Novo",
        "street": "Rua Dorival de Carvalho",
        "zipcode": "39440-270"
    },
    {
        "city": "Janaúba",
        "state": "MG",
        "district": "Rio Novo",
        "street": "Rua Hermes de Paula",
        "zipcode": "39440-288"
    },
    {
        "city": "Janaúba",
        "state": "MG",
        "district": "Barbosas",
        "street": "Rua Domingos Barbosa",
        "zipcode": "39440-468"
    },
    {
        "city": "Janaúba",
        "state": "MG",
        "district": "Barbosas",
        "street": "Avenida Júlia Gomes de Freitas",
        "zipcode": "39440-588"
    },
    {
        "city": "Janaúba",
        "state": "MG",
        "district": "Barbosas",
        "street": "Beco Geraldo Teles Menezes",
        "zipcode": "39440-606"
    },
    {
        "city": "Janaúba",
        "state": "MG",
        "district": "Santa Terezinha",
        "street": "Rua da Igreja",
        "zipcode": "39440-718"
    },
    {
        "city": "Janaúba",
        "state": "MG",
        "district": "Santa Terezinha",
        "street": "Beco Pageú",
        "zipcode": "39440-781"
    },
    {
        "city": "Janaúba",
        "state": "MG",
        "district": "Jacarezinho I",
        "street": "Estrada Velha",
        "zipcode": "39440-884"
    },
    {
        "city": "Janaúba",
        "state": "MG",
        "district": "Centro",
        "street": "Rua Francisco Sá",
        "zipcode": "39442-024"
    },
    {
        "city": "Janaúba",
        "state": "MG",
        "district": "Padre Eustáquio",
        "street": "Praça Justino Pereira de Brito",
        "zipcode": "39442-256"
    },
    {
        "city": "Janaúba",
        "state": "MG",
        "district": "Veredas",
        "street": "Rua Ernesto Marques da Silva",
        "zipcode": "39440-136"
    },
    {
        "city": "Janaúba",
        "state": "MG",
        "district": "Veredas",
        "street": "Rua Cento e Seis",
        "zipcode": "39440-160"
    },
    {
        "city": "Janaúba",
        "state": "MG",
        "district": "Rio Novo",
        "street": "Rua Adilson Ribas",
        "zipcode": "39440-252"
    },
    {
        "city": "Janaúba",
        "state": "MG",
        "district": "Barbosas",
        "street": "Avenida Gentil Dias",
        "zipcode": "39440-506"
    },
    {
        "city": "Janaúba",
        "state": "MG",
        "district": "Barbosas",
        "street": "Rua Brasilina Maria de Jesus",
        "zipcode": "39440-570"
    },
    {
        "city": "Janaúba",
        "state": "MG",
        "district": "Barbosas",
        "street": "Rua Francisco Barbosa",
        "zipcode": "39440-576"
    },
    {
        "city": "Janaúba",
        "state": "MG",
        "district": "Centro",
        "street": "Praça Rômulo Azevedo",
        "zipcode": "39442-054"
    },
    {
        "city": "Janaúba",
        "state": "MG",
        "district": "Nova Esperança",
        "street": "Rua Dom Aristides",
        "zipcode": "39442-120"
    },
    {
        "city": "Janaúba",
        "state": "MG",
        "district": "Nova Esperança",
        "street": "Rua Avelino Pereira",
        "zipcode": "39442-123"
    },
    {
        "city": "Janaúba",
        "state": "MG",
        "district": "Nova Esperança",
        "street": "Rua Boa Esperança",
        "zipcode": "39442-126"
    },
    {
        "city": "Janaúba",
        "state": "MG",
        "district": "Nova Esperança",
        "street": "Beco do Chafariz",
        "zipcode": "39442-129"
    },
    {
        "city": "Janaúba",
        "state": "MG",
        "district": "Nova Esperança",
        "street": "Rua Francisco Sá",
        "zipcode": "39442-132"
    },
    {
        "city": "Janaúba",
        "state": "MG",
        "district": "Nova Esperança",
        "street": "Beco Jacinto Mendes",
        "zipcode": "39442-171"
    },
    {
        "city": "Janaúba",
        "state": "MG",
        "district": "Gameleira",
        "street": "Rua Bahia",
        "zipcode": "39442-188"
    },
    {
        "city": "Janaúba",
        "state": "MG",
        "district": "Gameleira",
        "street": "Rua João Cordeiro",
        "zipcode": "39442-206"
    },
    {
        "city": "Janaúba",
        "state": "MG",
        "district": "Gameleira",
        "street": "Rua Dom Pedro II",
        "zipcode": "39442-216"
    },
    {
        "city": "Janaúba",
        "state": "MG",
        "district": "Padre Eustáquio",
        "street": "Rua Barão do Rio Branco",
        "zipcode": "39442-284"
    },
    {
        "city": "Janaúba",
        "state": "MG",
        "district": "Cerâmica",
        "street": "Rua Cuiabá",
        "zipcode": "39442-396"
    },
    {
        "city": "Janaúba",
        "state": "MG",
        "district": "Cerâmica",
        "street": "Rua Esmeraldo José Vicente",
        "zipcode": "39442-479"
    },
    {
        "city": "Janaúba",
        "state": "MG",
        "district": "Centro",
        "street": "Avenida Brasil",
        "zipcode": "39442-972"
    },
    {
        "city": "Janaúba",
        "state": "MG",
        "district": "Residencial Clarita",
        "street": "Rua D",
        "zipcode": "39444-216"
    },
    {
        "city": "Janaúba",
        "state": "MG",
        "district": "São Gonçalo",
        "street": "Rua Álvaro da Silva Lopes",
        "zipcode": "39445-006"
    },
    {
        "city": "Janaúba",
        "state": "MG",
        "district": "São Gonçalo",
        "street": "Rua Augusto Pinheiro Caires",
        "zipcode": "39445-015"
    },
    {
        "city": "Janaúba",
        "state": "MG",
        "district": "Planalto",
        "street": "Rua Augusto de Lima",
        "zipcode": "39445-550"
    },
    {
        "city": "Janaúba",
        "state": "MG",
        "district": "Centro",
        "street": "Rua Dom Aristides",
        "zipcode": "39442-006"
    },
    {
        "city": "Janaúba",
        "state": "MG",
        "district": "Padre Eustáquio",
        "street": "Praça Vitório Evangelista",
        "zipcode": "39442-298"
    },
    {
        "city": "Janaúba",
        "state": "MG",
        "district": "Santo Antônio",
        "street": "Avenida Prefeito Edilson Brandão Guimarães",
        "zipcode": "39447-004"
    },
    {
        "city": "Janaúba",
        "state": "MG",
        "district": "Santo Antônio",
        "street": "Avenida dos Inconfidentes",
        "zipcode": "39447-010"
    },
    {
        "city": "Janaúba",
        "state": "MG",
        "district": "Santo Antônio",
        "street": "Avenida Presidente Tancredo Neves",
        "zipcode": "39447-048"
    },
    {
        "city": "Janaúba",
        "state": "MG",
        "district": "Santa Cruz",
        "street": "Rua Dois",
        "zipcode": "39447-416"
    },
    {
        "city": "Janaúba",
        "state": "MG",
        "district": "Algodões",
        "street": "Rua A",
        "zipcode": "39447-650"
    },
    {
        "city": "Janaúba",
        "state": "MG",
        "district": "Cerâmica",
        "street": "Rua Boa Vista",
        "zipcode": "39442-342"
    },
    {
        "city": "Janaúba",
        "state": "MG",
        "district": "Esplanada",
        "street": "Rua Antônio Soares",
        "zipcode": "39445-093"
    },
    {
        "city": "Janaúba",
        "state": "MG",
        "district": "Rio Novo",
        "street": "Rua Aleixo Borges",
        "zipcode": "39440-254"
    },
    {
        "city": "Janaúba",
        "state": "MG",
        "district": "Padre Eustáquio",
        "street": "Avenida do Triângulo",
        "zipcode": "39442-294"
    },
    {
        "city": "Janaúba",
        "state": "MG",
        "district": "Cerâmica",
        "street": "Rua Dio Cuia",
        "zipcode": "39442-354"
    },
    {
        "city": "Janaúba",
        "state": "MG",
        "district": "Boa Vista",
        "street": "Rua Cândido Ângelo Barbosa",
        "zipcode": "39444-080"
    },
    {
        "city": "Janaúba",
        "state": "MG",
        "district": "Boa Vista",
        "street": "Avenida Rede Elétrica",
        "zipcode": "39444-120"
    },
    {
        "city": "Janaúba",
        "state": "MG",
        "district": "São Gonçalo",
        "street": "Avenida Prefeito Edilson Brandão Guimarães",
        "zipcode": "39445-033"
    },
    {
        "city": "Janaúba",
        "state": "MG",
        "district": "São Gonçalo",
        "street": "Avenida dos Inconfidentes",
        "zipcode": "39445-036"
    },
    {
        "city": "Janaúba",
        "state": "MG",
        "district": "Esplanada",
        "street": "Rua Cacique",
        "zipcode": "39445-105"
    },
    {
        "city": "Janaúba",
        "state": "MG",
        "district": "Esplanada",
        "street": "Avenida Santa Mônica",
        "zipcode": "39445-153"
    },
    {
        "city": "Janaúba",
        "state": "MG",
        "district": "Saudade",
        "street": "Rua Ângelo Nunes Pereira",
        "zipcode": "39445-236"
    },
    {
        "city": "Janaúba",
        "state": "MG",
        "district": "Saudade",
        "street": "Rua Bias Fortes",
        "zipcode": "39445-239"
    },
    {
        "city": "Janaúba",
        "state": "MG",
        "district": "Saudade",
        "street": "Rua Dalva da Costa Brito",
        "zipcode": "39445-251"
    },
    {
        "city": "Janaúba",
        "state": "MG",
        "district": "Dente Grande",
        "street": "Beco Amazonas II",
        "zipcode": "39445-370"
    },
    {
        "city": "Janaúba",
        "state": "MG",
        "district": "Dente Grande",
        "street": "Rua Antônio Parrela",
        "zipcode": "39445-400"
    },
    {
        "city": "Janaúba",
        "state": "MG",
        "district": "Dente Grande",
        "street": "Rua Augusto de Lima",
        "zipcode": "39445-402"
    },
    {
        "city": "Janaúba",
        "state": "MG",
        "district": "Dente Grande",
        "street": "Rua Cirilo Freire Carvalho",
        "zipcode": "39445-410"
    },
    {
        "city": "Janaúba",
        "state": "MG",
        "district": "Planalto",
        "street": "Rua Adelino Dantas de Queiroz",
        "zipcode": "39445-460"
    },
    {
        "city": "Janaúba",
        "state": "MG",
        "district": "Planalto",
        "street": "Rua Cirilo Freire Carvalho",
        "zipcode": "39445-472"
    },
    {
        "city": "Janaúba",
        "state": "MG",
        "district": "Planalto",
        "street": "Avenida Santa Mônica",
        "zipcode": "39445-487"
    },
    {
        "city": "Janaúba",
        "state": "MG",
        "district": "Planalto",
        "street": "Rua Domingos Soares",
        "zipcode": "39445-556"
    },
    {
        "city": "Janaúba",
        "state": "MG",
        "district": "Ribeirão do Ouro",
        "street": "Rua Alisson Esteves Bessa",
        "zipcode": "39445-610"
    },
    {
        "city": "Janaúba",
        "state": "MG",
        "district": "Ribeirão do Ouro",
        "street": "Avenida Militão José dos Santos",
        "zipcode": "39445-642"
    },
    {
        "city": "Janaúba",
        "state": "MG",
        "district": "Ribeirão do Ouro",
        "street": "Rua Delmiro Soares Oliveira",
        "zipcode": "39445-704"
    },
    {
        "city": "Janaúba",
        "state": "MG",
        "district": "Santo Antônio",
        "street": "Rua Alexandre Pereira",
        "zipcode": "39447-002"
    },
    {
        "city": "Janaúba",
        "state": "MG",
        "district": "Santo Antônio",
        "street": "Rua da República",
        "zipcode": "39447-034"
    },
    {
        "city": "Janaúba",
        "state": "MG",
        "district": "Santo Antônio",
        "street": "Rua Clemência Mendes Oliveira",
        "zipcode": "39447-122"
    },
    {
        "city": "Janaúba",
        "state": "MG",
        "district": "Santa Cruz",
        "street": "Rua Bento Soares",
        "zipcode": "39447-306"
    },
    {
        "city": "Janaúba",
        "state": "MG",
        "district": "Santa Cruz",
        "street": "Rua Dezenove",
        "zipcode": "39447-309"
    },
    {
        "city": "Janaúba",
        "state": "MG",
        "district": "São Vicente",
        "street": "Rua Dacira Parrela",
        "zipcode": "39448-506"
    },
    {
        "city": "Janaúba",
        "state": "MG",
        "district": "Morada do Sol",
        "street": "Beco Quinze",
        "zipcode": "39448-578"
    },
    {
        "city": "Janaúba",
        "state": "MG",
        "district": "Esplanada",
        "street": "Rua Cloves Santos",
        "zipcode": "39445-114"
    },
    {
        "city": "Janaúba",
        "state": "MG",
        "district": "Saudade",
        "street": "Rua Ady Soares Oliveira",
        "zipcode": "39445-230"
    },
    {
        "city": "Janaúba",
        "state": "MG",
        "district": "Santo Antônio",
        "street": "Rua Bernadina Maria",
        "zipcode": "39447-114"
    },
    {
        "city": "Janaúba",
        "state": "MG",
        "district": "Isaías Pereira",
        "street": "Rua A",
        "zipcode": "39447-560"
    },
    {
        "city": "Janaúba",
        "state": "MG",
        "district": "Isaías Pereira",
        "street": "Rua Dona Ilda Lelis",
        "zipcode": "39447-580"
    },
    {
        "city": "Janaúba",
        "state": "MG",
        "district": "Residencial Dona Lindu",
        "street": "Rua Dona Tita",
        "zipcode": "39447-816"
    },
    {
        "city": "Janaúba",
        "state": "MG",
        "district": "Jardim das Acácias",
        "street": "Rua Dezessete",
        "zipcode": "39447-826"
    },
    {
        "city": "Janaúba",
        "state": "MG",
        "district": "Veredas",
        "street": "Rua Cento e Oito",
        "zipcode": "39440-158"
    },
    {
        "city": "Janaúba",
        "state": "MG",
        "district": "Nova Esperança",
        "street": "Rua Gorutuba",
        "zipcode": "39442-135"
    },
    {
        "city": "Janaúba",
        "state": "MG",
        "district": "Padre Eustáquio",
        "street": "Rua Bahia",
        "zipcode": "39442-240"
    },
    {
        "city": "Janaúba",
        "state": "MG",
        "district": "Padre Eustáquio",
        "street": "Rua Euclides da Cunha",
        "zipcode": "39442-246"
    },
    {
        "city": "Janaúba",
        "state": "MG",
        "district": "Ribeirão do Ouro",
        "street": "Rua Antônio Rocha",
        "zipcode": "39445-614"
    },
    {
        "city": "Janaúba",
        "state": "MG",
        "district": "Ribeirão do Ouro",
        "street": "Rua Deusdedith Ferreira da Silva",
        "zipcode": "39445-620"
    },
    {
        "city": "Janaúba",
        "state": "MG",
        "district": "Ribeirão do Ouro",
        "street": "Rua Durvalino Rodrigues",
        "zipcode": "39445-706"
    },
    {
        "city": "Janaúba",
        "state": "MG",
        "district": "Santa Cruz",
        "street": "Rua Antônio Vicente de Paula",
        "zipcode": "39447-300"
    },
    {
        "city": "Janaúba",
        "state": "MG",
        "district": "Boa Vista",
        "street": "Rua Cândido Barbosa da Cunha",
        "zipcode": "39444-058"
    },
    {
        "city": "Janaúba",
        "state": "MG",
        "district": "Santo Antônio",
        "street": "Rua Antônio Alves de Souza",
        "zipcode": "39447-110"
    },
    {
        "city": "Janaúba",
        "state": "MG",
        "district": "Algodões",
        "street": "Rua Antônio Silveira",
        "zipcode": "39447-652"
    },
    {
        "city": "Janaúba",
        "state": "MG",
        "district": "Morada do Sol",
        "street": "Rua Colonização Bico da Pedra",
        "zipcode": "39448-566"
    },
    {
        "city": "Janaúba",
        "state": "MG",
        "district": "Centro",
        "street": "Avenida Maurício Augusto de Azevedo",
        "zipcode": "39442-042"
    },
    {
        "city": "Janaúba",
        "state": "MG",
        "district": "Padre Eustáquio",
        "street": "Avenida Osvaldo Cruz",
        "zipcode": "39442-278"
    },
    {
        "city": "Janaúba",
        "state": "MG",
        "district": "Santa Cruz",
        "street": "Avenida Prefeito Edilson Brandão Guimarães",
        "zipcode": "39447-312"
    },
    {
        "city": "Janaúba",
        "state": "MG",
        "district": "Esplanada",
        "street": "Rua Quatro",
        "zipcode": "39445-174"
    },
    {
        "city": "Janaúba",
        "state": "MG",
        "district": "Santa Cruz",
        "street": "Rua Maria Gomes de Oliveira",
        "zipcode": "39447-436"
    },
    {
        "city": "Janaúba",
        "state": "MG",
        "district": "Casas Populares",
        "street": "Avenida Militão José dos Santos",
        "zipcode": "39447-550"
    },
    {
        "city": "Janaúba",
        "state": "MG",
        "district": "Jardim das Acácias",
        "street": "Rua Onze",
        "zipcode": "39447-841"
    },
    {
        "city": "Janaúba",
        "state": "MG",
        "district": "Veredas",
        "street": "Rua Ana Ribeiro Viana",
        "zipcode": "39440-007"
    },
    {
        "city": "Janaúba",
        "state": "MG",
        "district": "Veredas",
        "street": "Rua Anita Pereira de Souza",
        "zipcode": "39440-009"
    },
    {
        "city": "Janaúba",
        "state": "MG",
        "district": "Veredas",
        "street": "Avenida Pedro Álvares Cabral",
        "zipcode": "39440-087"
    },
    {
        "city": "Janaúba",
        "state": "MG",
        "district": "Rio Novo",
        "street": "Avenida Gentil Dias",
        "zipcode": "39440-220"
    },
    {
        "city": "Janaúba",
        "state": "MG",
        "district": "Veredas",
        "street": "Rua Manoel Batista Guimarães",
        "zipcode": "39440-049"
    },
    {
        "city": "Janaúba",
        "state": "MG",
        "district": "Veredas",
        "street": "Rua Quarenta e Dois",
        "zipcode": "39440-069"
    },
    {
        "city": "Janaúba",
        "state": "MG",
        "district": "Veredas",
        "street": "Rua Nossa Senhora da Rosa Mística",
        "zipcode": "39440-071"
    },
    {
        "city": "Janaúba",
        "state": "MG",
        "district": "Rio Novo",
        "street": "Rua Felipe Aguiar",
        "zipcode": "39440-276"
    },
    {
        "city": "Janaúba",
        "state": "MG",
        "district": "Cerâmica",
        "street": "Rua Pedro Barbosa da Cunha",
        "zipcode": "39442-380"
    },
    {
        "city": "Janaúba",
        "state": "MG",
        "district": "Boa Vista",
        "street": "Rua Guilherme Ferreira Lima",
        "zipcode": "39444-030"
    },
    {
        "city": "Janaúba",
        "state": "MG",
        "district": "Planalto",
        "street": "Rua Trezentos e Oitenta",
        "zipcode": "39445-592"
    },
    {
        "city": "Janaúba",
        "state": "MG",
        "district": "Santo Antônio",
        "street": "Rua Quintino Venceslau Gomes",
        "zipcode": "39447-032"
    },
    {
        "city": "Janaúba",
        "state": "MG",
        "district": "Rio Novo",
        "street": "Rua Ernesto Marques da Silva",
        "zipcode": "39440-274"
    },
    {
        "city": "Janaúba",
        "state": "MG",
        "district": "Saudade",
        "street": "Avenida da Saudade",
        "zipcode": "39445-296"
    },
    {
        "city": "Janaúba",
        "state": "MG",
        "district": "Santa Cruz",
        "street": "Rua Cinco",
        "zipcode": "39447-412"
    },
    {
        "city": "Janaúba",
        "state": "MG",
        "district": "Santa Cruz",
        "street": "Rua N",
        "zipcode": "39447-452"
    },
    {
        "city": "Janaúba",
        "state": "MG",
        "district": "Isaías Pereira",
        "street": "Rua N",
        "zipcode": "39447-589"
    },
    {
        "city": "Janaúba",
        "state": "MG",
        "district": "Ribeirão do Ouro",
        "street": "Rua José Maria Cerqueira",
        "zipcode": "39445-634"
    },
    {
        "city": "Janaúba",
        "state": "MG",
        "district": "Santo Antônio",
        "street": "Rua João Pessoa",
        "zipcode": "39447-146"
    },
    {
        "city": "Janaúba",
        "state": "MG",
        "district": "Casas Populares",
        "street": "Avenida Militão José dos Santos",
        "zipcode": "39447-552"
    },
    {
        "city": "Janaúba",
        "state": "MG",
        "district": "Centro",
        "street": "Rua José Teotônio",
        "zipcode": "39442-038"
    },
    {
        "city": "Janaúba",
        "state": "MG",
        "district": "Padre Eustáquio",
        "street": "Rua Lucas Viana Neiva",
        "zipcode": "39442-260"
    },
    {
        "city": "Janaúba",
        "state": "MG",
        "district": "São Vicente",
        "street": "Rua Vicente Medeiros",
        "zipcode": "39448-530"
    },
    {
        "city": "Janaúba",
        "state": "MG",
        "district": "Veredas",
        "street": "Rua Geraldo dos Anjos Ferreira",
        "zipcode": "39440-138"
    },
    {
        "city": "Janaúba",
        "state": "MG",
        "district": "Rio Novo",
        "street": "Rua Júlia Esteves Caldeira",
        "zipcode": "39440-208"
    },
    {
        "city": "Janaúba",
        "state": "MG",
        "district": "Barbosas",
        "street": "Rua João Marques da Silva",
        "zipcode": "39440-484"
    },
    {
        "city": "Janaúba",
        "state": "MG",
        "district": "Centro",
        "street": "Rua Santa Helena",
        "zipcode": "39442-028"
    },
    {
        "city": "Janaúba",
        "state": "MG",
        "district": "Padre Eustáquio",
        "street": "Rua Américo Gianette",
        "zipcode": "39442-232"
    },
    {
        "city": "Janaúba",
        "state": "MG",
        "district": "Padre Eustáquio",
        "street": "Rua Montes Claros",
        "zipcode": "39442-266"
    },
    {
        "city": "Janaúba",
        "state": "MG",
        "district": "Cerâmica",
        "street": "Rua Doutor José do Carmo",
        "zipcode": "39442-482"
    },
    {
        "city": "Janaúba",
        "state": "MG",
        "district": "São Lucas",
        "street": "Rua Nossa Senhora de Fátima",
        "zipcode": "39444-174"
    },
    {
        "city": "Janaúba",
        "state": "MG",
        "district": "São Lucas",
        "street": "Rua São Mateus",
        "zipcode": "39444-194"
    },
    {
        "city": "Janaúba",
        "state": "MG",
        "district": "São Gonçalo",
        "street": "Avenida Manoel Athaide",
        "zipcode": "39445-054"
    },
    {
        "city": "Janaúba",
        "state": "MG",
        "district": "Saudade",
        "street": "Avenida Manoel Athaide",
        "zipcode": "39445-281"
    },
    {
        "city": "Janaúba",
        "state": "MG",
        "district": "Saudade",
        "street": "Avenida Santa Mônica",
        "zipcode": "39445-287"
    },
    {
        "city": "Janaúba",
        "state": "MG",
        "district": "Dente Grande",
        "street": "Rua Avelino José Miguel",
        "zipcode": "39445-404"
    },
    {
        "city": "Janaúba",
        "state": "MG",
        "district": "Planalto",
        "street": "Rua Quatrocentos e Sessenta e Dois",
        "zipcode": "39445-505"
    },
    {
        "city": "Janaúba",
        "state": "MG",
        "district": "Ribeirão do Ouro",
        "street": "Rua José Alencar",
        "zipcode": "39445-720"
    },
    {
        "city": "Janaúba",
        "state": "MG",
        "district": "Santa Cruz",
        "street": "Rua Oscarlino José Martins",
        "zipcode": "39447-345"
    },
    {
        "city": "Janaúba",
        "state": "MG",
        "district": "Santo Antônio",
        "street": "Avenida Prefeito Edilson Brandão Guimarães",
        "zipcode": "39447-044"
    }
]