[
    {
        "city": "Juiz De Fora",
        "state": "MG",
        "district": "Sao Pedro",
        "street": "Rua Dolores Dutra De Morais",
        "zipcode": "36038-270"
    },
    {
        "city": "Juiz De Fora",
        "state": "MG",
        "district": "Grama",
        "street": "Avenida Juiz De Fora",
        "zipcode": "36048-000"
    },
    {
        "city": "Juiz De Fora",
        "state": "MG",
        "district": "Santa Rita De Cassia",
        "street": "Rua Otavio Pereira Torres",
        "zipcode": "36051-215"
    },
    {
        "city": "Juiz De Fora",
        "state": "MG",
        "district": "Granville",
        "street": "Rua Helena Teixeira De Carvalho",
        "zipcode": "36036-245"
    },
    {
        "city": "Juiz De Fora",
        "state": "MG",
        "district": "Centro",
        "street": "Galeria Dr Tito Ribeiro",
        "zipcode": "36016-312"
    },
    {
        "city": "Juiz De Fora",
        "state": "MG",
        "district": "Parque Independencia",
        "street": "Rua Manoel Jose De Paula",
        "zipcode": "36048-640"
    },
    {
        "city": "Juiz De Fora",
        "state": "MG",
        "district": "Parque Independencia",
        "street": "Rua H",
        "zipcode": "36048-490"
    },
    {
        "city": "Juiz De Fora",
        "state": "MG",
        "district": "Sagrado  Coracao  De Jesus",
        "street": "Travessa G",
        "zipcode": "36032-230"
    },
    {
        "city": "Juiz De Fora",
        "state": "MG",
        "district": "Lourdes",
        "street": "Rua Y",
        "zipcode": "36070-590"
    }
]