[
    {
        "city": "Manhuaçu",
        "state": "MG",
        "district": "Santa Terezinha",
        "street": "Rua Zulmira Bertolace de Barros",
        "zipcode": "36902-012"
    },
    {
        "city": "Manhuaçu",
        "state": "MG",
        "district": "Santa Luzia",
        "street": "Rua Zequinha Campos",
        "zipcode": "36906-063"
    },
    {
        "city": "Manhuaçu",
        "state": "MG",
        "district": "Catuai",
        "street": "Rua Professora Zélia Rodrigues Simão",
        "zipcode": "36900-416"
    },
    {
        "city": "Manhuaçu",
        "state": "MG",
        "district": "São Jorge",
        "street": "Rua Wilson Silva",
        "zipcode": "36904-401"
    },
    {
        "city": "Manhuaçu",
        "state": "MG",
        "district": "São Vicente",
        "street": "Rua Wilson de Souza Santos",
        "zipcode": "36904-111"
    },
    {
        "city": "Manhuaçu",
        "state": "MG",
        "district": "Ponte da Aldeia",
        "street": "Rua Waldemar Alves Dutra",
        "zipcode": "36906-467"
    },
    {
        "city": "Manhuaçu",
        "state": "MG",
        "district": "Bom Pastor",
        "street": "Rua Wadi Assad",
        "zipcode": "36902-305"
    },
    {
        "city": "Manhuaçu",
        "state": "MG",
        "district": "Lajinha",
        "street": "Rua Vitória Régia",
        "zipcode": "36906-174"
    },
    {
        "city": "Manhuaçu",
        "state": "MG",
        "district": "Engenho da Serra",
        "street": "Vila Vitória",
        "zipcode": "36902-329"
    },
    {
        "city": "Manhuaçu",
        "state": "MG",
        "district": "Bom Jardim",
        "street": "Vila Vinte e Um de Abril",
        "zipcode": "36906-399"
    },
    {
        "city": "Manhuaçu",
        "state": "MG",
        "district": "Ponte da Aldeia",
        "street": "Rua Vinte e Cinco de Dezembro",
        "zipcode": "36906-464"
    },
    {
        "city": "Manhuaçu",
        "state": "MG",
        "district": "Santa Luzia",
        "street": "Rua São Vicente de Paulo",
        "zipcode": "36906-096"
    },
    {
        "city": "Manhuaçu",
        "state": "MG",
        "district": "São Jorge",
        "street": "Rua Vicente de Paula Reis",
        "zipcode": "36904-386"
    },
    {
        "city": "Manhuaçu",
        "state": "MG",
        "district": "Engenho da Serra",
        "street": "Rua Vargas",
        "zipcode": "36902-383"
    },
    {
        "city": "Manhuaçu",
        "state": "MG",
        "district": "Sagrada Família",
        "street": "Rua Valentim Vieira de Souza",
        "zipcode": "36900-239"
    },
    {
        "city": "Manhuaçu",
        "state": "MG",
        "district": "São Jorge",
        "street": "Rua Vale Verde",
        "zipcode": "36904-410"
    },
    {
        "city": "Manhuaçu",
        "state": "MG",
        "district": "Santana",
        "street": "Viela Um",
        "zipcode": "36904-030"
    },
    {
        "city": "Manhuaçu",
        "state": "MG",
        "district": "Nossa Senhora Aparecida",
        "street": "Rua Um",
        "zipcode": "36904-368"
    },
    {
        "city": "Manhuaçu",
        "state": "MG",
        "district": "Bom Pastor",
        "street": "Rua Um",
        "zipcode": "36902-233"
    },
    {
        "city": "Manhuaçu",
        "state": "MG",
        "district": "Bom Pastor",
        "street": "Rua Ulisses Calheiros de Araújo",
        "zipcode": "36902-302"
    },
    {
        "city": "Manhuaçu",
        "state": "MG",
        "district": "Engenho da Serra",
        "street": "Viela Uerika Roberta Silva",
        "zipcode": "36902-350"
    },
    {
        "city": "Manhuaçu",
        "state": "MG",
        "district": "Santa Luzia",
        "street": "Rua Abade Tupis",
        "zipcode": "36906-006"
    },
    {
        "city": "Manhuaçu",
        "state": "MG",
        "district": "Bom Jardim",
        "street": "Vila Trinta e Um de Março",
        "zipcode": "36906-411"
    },
    {
        "city": "Manhuaçu",
        "state": "MG",
        "district": "Nossa Senhora Aparecida",
        "street": "Rua Trinta de Março",
        "zipcode": "36904-290"
    },
    {
        "city": "Manhuaçu",
        "state": "MG",
        "district": "Santana",
        "street": "Rua do Triângulo",
        "zipcode": "36904-006"
    },
    {
        "city": "Manhuaçu",
        "state": "MG",
        "district": "Matinha",
        "street": "Rua Treze de Maio",
        "zipcode": "36902-143"
    },
    {
        "city": "Manhuaçu",
        "state": "MG",
        "district": "Santana",
        "street": "Viela Três",
        "zipcode": "36904-036"
    },
    {
        "city": "Manhuaçu",
        "state": "MG",
        "district": "Nossa Senhora Aparecida",
        "street": "Rua Três",
        "zipcode": "36904-374"
    },
    {
        "city": "Manhuaçu",
        "state": "MG",
        "district": "Bom Pastor",
        "street": "Rua Três",
        "zipcode": "36902-236"
    },
    {
        "city": "Manhuaçu",
        "state": "MG",
        "district": "Nossa Senhora Aparecida",
        "street": "Rua Tiradentes",
        "zipcode": "36904-239"
    },
    {
        "city": "Manhuaçu",
        "state": "MG",
        "district": "Bom Pastor",
        "street": "Rua Dona Tina",
        "zipcode": "36902-254"
    },
    {
        "city": "Manhuaçu",
        "state": "MG",
        "district": "Santo Antônio",
        "street": "Rua Timbiras",
        "zipcode": "36900-142"
    },
    {
        "city": "Manhuaçu",
        "state": "MG",
        "district": "Bom Pastor",
        "street": "Rua Theócrito Pinheiro",
        "zipcode": "36902-287"
    },
    {
        "city": "Manhuaçu",
        "state": "MG",
        "district": "Santana",
        "street": "Rua Terezinha de Barros Barbosa",
        "zipcode": "36904-021"
    },
    {
        "city": "Manhuaçu",
        "state": "MG",
        "district": "Todos os Santos",
        "street": "Rua Teodoro Pio dos Santos",
        "zipcode": "36906-123"
    },
    {
        "city": "Manhuaçu",
        "state": "MG",
        "district": "Pouso Alegre",
        "street": "Avenida Presidente Tancredo Neves",
        "zipcode": "36904-076"
    },
    {
        "city": "Manhuaçu",
        "state": "MG",
        "district": "Santana",
        "street": "Avenida Presidente Tancredo Neves",
        "zipcode": "36904-000"
    },
    {
        "city": "Manhuaçu",
        "state": "MG",
        "district": "Nossa Senhora Aparecida",
        "street": "Rua das Sucupiras",
        "zipcode": "36904-317"
    },
    {
        "city": "Manhuaçu",
        "state": "MG",
        "district": "Nossa Senhora Aparecida",
        "street": "Vila Solidários",
        "zipcode": "36904-302"
    },
    {
        "city": "Manhuaçu",
        "state": "MG",
        "district": "Engenho da Serra",
        "street": "Rua do Sol Nascente",
        "zipcode": "36902-338"
    },
    {
        "city": "Manhuaçu",
        "state": "MG",
        "district": "Lajinha",
        "street": "Rua Sipriano Lopes de Carvalho",
        "zipcode": "36906-201"
    },
    {
        "city": "Manhuaçu",
        "state": "MG",
        "district": "Bom Pastor",
        "street": "Rua São Simão",
        "zipcode": "36902-269"
    },
    {
        "city": "Manhuaçu",
        "state": "MG",
        "district": "Santana",
        "street": "Rua Simão Francisco Romão",
        "zipcode": "36904-009"
    },
    {
        "city": "Manhuaçu",
        "state": "MG",
        "district": "Bom Jardim",
        "street": "Rua Silvina Leopoldina Sette",
        "zipcode": "36906-381"
    },
    {
        "city": "Manhuaçu",
        "state": "MG",
        "district": "Matinha",
        "street": "Rua São Silvestre",
        "zipcode": "36902-167"
    },
    {
        "city": "Manhuaçu",
        "state": "MG",
        "district": "Colina",
        "street": "Rua Silvério Afonso",
        "zipcode": "36900-386"
    },
    {
        "city": "Manhuaçu",
        "state": "MG",
        "district": "Pinheiro",
        "street": "Rua Silmara Cássia da Silva",
        "zipcode": "36902-072"
    },
    {
        "city": "Manhuaçu",
        "state": "MG",
        "district": "Santa Luzia",
        "street": "Rua Silas Venâncio do Carmo",
        "zipcode": "36906-051"
    },
    {
        "city": "Manhuaçu",
        "state": "MG",
        "district": "Colina",
        "street": "Rua Silas Pacheco",
        "zipcode": "36900-380"
    },
    {
        "city": "Manhuaçu",
        "state": "MG",
        "district": "Engenho da Serra",
        "street": "Rua Silas Agripino Heringer",
        "zipcode": "36902-374"
    },
    {
        "city": "Manhuaçu",
        "state": "MG",
        "district": "Bom Pastor",
        "street": "Rua Shekinah",
        "zipcode": "36902-296"
    },
    {
        "city": "Manhuaçu",
        "state": "MG",
        "district": "Matinha",
        "street": "Rua Sete de Setembro",
        "zipcode": "36902-185"
    },
    {
        "city": "Manhuaçu",
        "state": "MG",
        "district": "Coqueiro",
        "street": "Rua Serafim Tibúrcio",
        "zipcode": "36900-353"
    },
    {
        "city": "Manhuaçu",
        "state": "MG",
        "district": "São Jorge",
        "street": "Rua Sentinela do Caparaó",
        "zipcode": "36904-398"
    },
    {
        "city": "Manhuaçu",
        "state": "MG",
        "district": "Santana",
        "street": "Viela Seis",
        "zipcode": "36904-045"
    },
    {
        "city": "Manhuaçu",
        "state": "MG",
        "district": "Lajinha",
        "street": "Rua Sebastião Martins Gomes",
        "zipcode": "36906-183"
    },
    {
        "city": "Manhuaçu",
        "state": "MG",
        "district": "Colina",
        "street": "Rua Sebastião Lacerda",
        "zipcode": "36900-389"
    },
    {
        "city": "Manhuaçu",
        "state": "MG",
        "district": "Coqueiro",
        "street": "Viela Sebastião Gonçalves Lacerda",
        "zipcode": "36900-356"
    },
    {
        "city": "Manhuaçu",
        "state": "MG",
        "district": "Ponte da Aldeia",
        "street": "Rua Sebastião de Oliveira Gomes",
        "zipcode": "36906-476"
    },
    {
        "city": "Manhuaçu",
        "state": "MG",
        "district": "Lajinha",
        "street": "Avenida Sebastião Alves de Almeida",
        "zipcode": "36906-159"
    },
    {
        "city": "Manhuaçu",
        "state": "MG",
        "district": "Santa Luzia",
        "street": "Rua Sebastiana Moura",
        "zipcode": "36906-009"
    },
    {
        "city": "Manhuaçu",
        "state": "MG",
        "district": "Pinheiro",
        "street": "Rua Saulo Campos Brandão",
        "zipcode": "36902-063"
    },
    {
        "city": "Manhuaçu",
        "state": "MG",
        "district": "Bela Vista",
        "street": "Rua Doutor Samuel Fonseca Junior",
        "zipcode": "36906-258"
    },
    {
        "city": "Manhuaçu",
        "state": "MG",
        "district": "Engenho da Serra",
        "street": "Vila Sambes",
        "zipcode": "36902-323"
    },
    {
        "city": "Manhuaçu",
        "state": "MG",
        "district": "Baixada",
        "street": "Avenida Salime Nacif",
        "zipcode": "36902-051"
    },
    {
        "city": "Manhuaçu",
        "state": "MG",
        "district": "São Jorge",
        "street": "Rua Sacramento",
        "zipcode": "36904-413"
    },
    {
        "city": "Manhuaçu",
        "state": "MG",
        "district": "Bom Jardim",
        "street": "Vila Sabará",
        "zipcode": "36906-396"
    },
    {
        "city": "Manhuaçu",
        "state": "MG",
        "district": "Área Rural de Manhuaçu",
        "street": "Área Rural",
        "zipcode": "36908-899"
    },
    {
        "city": "Manhuaçu",
        "state": "MG",
        "district": "Sagrada Família",
        "street": "Rua Rubi",
        "zipcode": "36900-221"
    },
    {
        "city": "Manhuaçu",
        "state": "MG",
        "district": "Nossa Senhora Aparecida",
        "street": "Rua das Roseiras",
        "zipcode": "36904-344"
    },
    {
        "city": "Manhuaçu",
        "state": "MG",
        "district": "Petrina",
        "street": "Rua Rosária Lúcia de Freitas",
        "zipcode": "36900-289"
    },
    {
        "city": "Manhuaçu",
        "state": "MG",
        "district": "Vale Verde",
        "street": "Avenida Rômulo Tebas Sette",
        "zipcode": "36906-330"
    },
    {
        "city": "Manhuaçu",
        "state": "MG",
        "district": "Matinha",
        "street": "Rua Roberto Moreira",
        "zipcode": "36902-149"
    },
    {
        "city": "Manhuaçu",
        "state": "MG",
        "district": "Santa Luzia",
        "street": "Rua Santa Rita",
        "zipcode": "36906-054"
    },
    {
        "city": "Manhuaçu",
        "state": "MG",
        "district": "Matinha",
        "street": "Rua Santa Rita",
        "zipcode": "36902-170"
    },
    {
        "city": "Manhuaçu",
        "state": "MG",
        "district": "São Vicente",
        "street": "Rua Rita de Castro Correia",
        "zipcode": "36904-105"
    },
    {
        "city": "Manhuaçu",
        "state": "MG",
        "district": "Bom Jardim",
        "street": "Rua Rita Clara Sette",
        "zipcode": "36906-384"
    },
    {
        "city": "Manhuaçu",
        "state": "MG",
        "district": "Nossa Senhora Aparecida",
        "street": "Rua Rio Grande",
        "zipcode": "36904-287"
    },
    {
        "city": "Manhuaçu",
        "state": "MG",
        "district": "Baixada",
        "street": "Avenida Barão do Rio Branco",
        "zipcode": "36902-030"
    },
    {
        "city": "Manhuaçu",
        "state": "MG",
        "district": "Bela Vista",
        "street": "Rua Engenheiro Renato Bitarâes Pereira",
        "zipcode": "36906-252"
    },
    {
        "city": "Manhuaçu",
        "state": "MG",
        "district": "Pouso Alegre",
        "street": "Rua Renata Cruz",
        "zipcode": "36904-085"
    },
    {
        "city": "Manhuaçu",
        "state": "MG",
        "district": "Santa Luzia",
        "street": "Rua Professora Regina Lutfalla",
        "zipcode": "36906-024"
    },
    {
        "city": "Manhuaçu",
        "state": "MG",
        "district": "São Jorge",
        "street": "Rua Realeza",
        "zipcode": "36904-443"
    },
    {
        "city": "Manhuaçu",
        "state": "MG",
        "district": "Alfa Sul",
        "street": "Rua Raquel Resende de Lima Magalhães",
        "zipcode": "36904-162"
    },
    {
        "city": "Manhuaçu",
        "state": "MG",
        "district": "Centro",
        "street": "Rua Randolfo Baião",
        "zipcode": "36900-019"
    },
    {
        "city": "Manhuaçu",
        "state": "MG",
        "district": "Engenho da Serra",
        "street": "Rua Raimundo Soares Vargas",
        "zipcode": "36902-368"
    },
    {
        "city": "Manhuaçu",
        "state": "MG",
        "district": "Santa Luzia",
        "street": "Rua Raimundo Martins",
        "zipcode": "36906-099"
    },
    {
        "city": "Manhuaçu",
        "state": "MG",
        "district": "Engenho da Serra",
        "street": "Viela Dona Raimunda",
        "zipcode": "36902-347"
    },
    {
        "city": "Manhuaçu",
        "state": "MG",
        "district": "Centro",
        "street": "Rua Capitão Rafael",
        "zipcode": "36900-010"
    },
    {
        "city": "Manhuaçu",
        "state": "MG",
        "district": "Bom Jardim",
        "street": "Travessa Quinze de Novembro",
        "zipcode": "36906-390"
    },
    {
        "city": "Manhuaçu",
        "state": "MG",
        "district": "Bom Pastor",
        "street": "Rua Quatro de Dezembro",
        "zipcode": "36902-245"
    },
    {
        "city": "Manhuaçu",
        "state": "MG",
        "district": "Santana",
        "street": "Viela Quatro",
        "zipcode": "36904-039"
    },
    {
        "city": "Manhuaçu",
        "state": "MG",
        "district": "Nossa Senhora Aparecida",
        "street": "Rua Quatro",
        "zipcode": "36904-377"
    },
    {
        "city": "Manhuaçu",
        "state": "MG",
        "district": "Bom Pastor",
        "street": "Rua Quatro",
        "zipcode": "36902-230"
    },
    {
        "city": "Manhuaçu",
        "state": "MG",
        "district": "Floresta",
        "street": "Rua Projetada 12",
        "zipcode": "36902-215"
    },
    {
        "city": "Manhuaçu",
        "state": "MG",
        "district": "Floresta",
        "street": "Rua Projetada 10",
        "zipcode": "36902-218"
    },
    {
        "city": "Manhuaçu",
        "state": "MG",
        "district": "Vale da Ema",
        "street": "Rua Projetada 10",
        "zipcode": "36900-250"
    },
    {
        "city": "Manhuaçu",
        "state": "MG",
        "district": "Vale da Ema",
        "street": "Rua Projetada 9",
        "zipcode": "36900-253"
    },
    {
        "city": "Manhuaçu",
        "state": "MG",
        "district": "Floresta",
        "street": "Rua Projetada 8",
        "zipcode": "36902-203"
    },
    {
        "city": "Manhuaçu",
        "state": "MG",
        "district": "Vale da Ema",
        "street": "Rua Projetada 8",
        "zipcode": "36900-265"
    },
    {
        "city": "Manhuaçu",
        "state": "MG",
        "district": "Floresta",
        "street": "Rua Projetada 7",
        "zipcode": "36902-212"
    },
    {
        "city": "Manhuaçu",
        "state": "MG",
        "district": "Vale da Ema",
        "street": "Rua Projetada 7",
        "zipcode": "36900-262"
    },
    {
        "city": "Manhuaçu",
        "state": "MG",
        "district": "Floresta",
        "street": "Rua Projetada 6",
        "zipcode": "36902-221"
    },
    {
        "city": "Manhuaçu",
        "state": "MG",
        "district": "Vale da Ema",
        "street": "Rua Projetada 6",
        "zipcode": "36900-268"
    },
    {
        "city": "Manhuaçu",
        "state": "MG",
        "district": "Floresta",
        "street": "Rua Projetada 5",
        "zipcode": "36902-224"
    },
    {
        "city": "Manhuaçu",
        "state": "MG",
        "district": "Vale da Ema",
        "street": "Rua Projetada 5",
        "zipcode": "36900-271"
    },
    {
        "city": "Manhuaçu",
        "state": "MG",
        "district": "Vale da Ema",
        "street": "Rua Projetada 4",
        "zipcode": "36900-256"
    },
    {
        "city": "Manhuaçu",
        "state": "MG",
        "district": "Floresta",
        "street": "Rua Projetada 3",
        "zipcode": "36902-209"
    },
    {
        "city": "Manhuaçu",
        "state": "MG",
        "district": "Vale da Ema",
        "street": "Rua Projetada 3",
        "zipcode": "36900-259"
    },
    {
        "city": "Manhuaçu",
        "state": "MG",
        "district": "Floresta",
        "street": "Rua Projetada 2",
        "zipcode": "36902-206"
    },
    {
        "city": "Manhuaçu",
        "state": "MG",
        "district": "Vale da Ema",
        "street": "Rua Projetada 2",
        "zipcode": "36900-274"
    },
    {
        "city": "Manhuaçu",
        "state": "MG",
        "district": "Floresta",
        "street": "Rua Projetada 1",
        "zipcode": "36902-200"
    },
    {
        "city": "Manhuaçu",
        "state": "MG",
        "district": "Vale da Ema",
        "street": "Rua Projetada 1",
        "zipcode": "36900-277"
    },
    {
        "city": "Manhuaçu",
        "state": "MG",
        "district": "Ponte da Aldeia",
        "street": "Rua Primeiro de Maio",
        "zipcode": "36906-446"
    },
    {
        "city": "Manhuaçu",
        "state": "MG",
        "district": "Bom Pastor",
        "street": "Rua Plínio Pinheiro",
        "zipcode": "36902-257"
    },
    {
        "city": "Manhuaçu",
        "state": "MG",
        "district": "Nossa Senhora Aparecida",
        "street": "Rua dos Pinheiros",
        "zipcode": "36904-320"
    },
    {
        "city": "Manhuaçu",
        "state": "MG",
        "district": "Petrina",
        "street": "Viela Nossa Senhora da Piedade",
        "zipcode": "36900-286"
    },
    {
        "city": "Manhuaçu",
        "state": "MG",
        "district": "Alfa Sul",
        "street": "Rua Philadelpho Coutinho Araújo",
        "zipcode": "36904-165"
    },
    {
        "city": "Manhuaçu",
        "state": "MG",
        "district": "São Jorge",
        "street": "Rua São Pedro",
        "zipcode": "36904-437"
    },
    {
        "city": "Manhuaçu",
        "state": "MG",
        "district": "Centro",
        "street": "Rua Pedro Guarda",
        "zipcode": "36900-004"
    },
    {
        "city": "Manhuaçu",
        "state": "MG",
        "district": "São Jorge",
        "street": "Rua Pedro Faria",
        "zipcode": "36904-389"
    },
    {
        "city": "Manhuaçu",
        "state": "MG",
        "district": "São Jorge",
        "street": "Praça Pedro Faria",
        "zipcode": "36904-383"
    },
    {
        "city": "Manhuaçu",
        "state": "MG",
        "district": "São Vicente",
        "street": "Travessa Pedro César da Costa de Paula",
        "zipcode": "36904-132"
    },
    {
        "city": "Manhuaçu",
        "state": "MG",
        "district": "Matinha",
        "street": "Rua Pedra Bonita",
        "zipcode": "36902-146"
    },
    {
        "city": "Manhuaçu",
        "state": "MG",
        "district": "Nossa Senhora Aparecida",
        "street": "Rua da Paz",
        "zipcode": "36904-278"
    },
    {
        "city": "Manhuaçu",
        "state": "MG",
        "district": "Vila Deolinda",
        "street": "Rua Capitão Paulo Carneiro",
        "zipcode": "36906-420"
    },
    {
        "city": "Manhuaçu",
        "state": "MG",
        "district": "Lajinha",
        "street": "Rua Paulo Alves Mendes",
        "zipcode": "36906-180"
    },
    {
        "city": "Manhuaçu",
        "state": "MG",
        "district": "Bela Vista",
        "street": "Rua Paulino Mendes Dornelas",
        "zipcode": "36906-240"
    },
    {
        "city": "Manhuaçu",
        "state": "MG",
        "district": "Nossa Senhora Aparecida",
        "street": "Rua Pau Brasil",
        "zipcode": "36904-347"
    },
    {
        "city": "Manhuaçu",
        "state": "MG",
        "district": "Santa Terezinha",
        "street": "Rua Paraíso",
        "zipcode": "36902-015"
    },
    {
        "city": "Manhuaçu",
        "state": "MG",
        "district": "Nossa Senhora Aparecida",
        "street": "Rua das Palmeiras",
        "zipcode": "36904-359"
    },
    {
        "city": "Manhuaçu",
        "state": "MG",
        "district": "São Jorge",
        "street": "Avenida Palmeiras",
        "zipcode": "36904-425"
    },
    {
        "city": "Manhuaçu",
        "state": "MG",
        "district": "Matinha",
        "street": "Avenida Palmeiras",
        "zipcode": "36902-188"
    },
    {
        "city": "Manhuaçu",
        "state": "MG",
        "district": "São Vicente",
        "street": "Rua Otalino Moura",
        "zipcode": "36904-138"
    },
    {
        "city": "Manhuaçu",
        "state": "MG",
        "district": "Pinheiro",
        "street": "Rua Osvaldo Teixeira de Cerqueira",
        "zipcode": "36902-060"
    },
    {
        "city": "Manhuaçu",
        "state": "MG",
        "district": "Centro",
        "street": "Rua Osmar Lacerda",
        "zipcode": "36900-112"
    },
    {
        "city": "Manhuaçu",
        "state": "MG",
        "district": "Bom Pastor",
        "street": "Rua Oscar Fernandes Lopes",
        "zipcode": "36902-248"
    },
    {
        "city": "Manhuaçu",
        "state": "MG",
        "district": "Santo Antônio",
        "street": "Rua Orozimbo Aguiar",
        "zipcode": "36900-139"
    },
    {
        "city": "Manhuaçu",
        "state": "MG",
        "district": "Santa Luzia",
        "street": "Rua Oliveira Rodrigues",
        "zipcode": "36906-039"
    },
    {
        "city": "Manhuaçu",
        "state": "MG",
        "district": "Pinheiro",
        "street": "Rua Oliveira",
        "zipcode": "36902-102"
    },
    {
        "city": "Manhuaçu",
        "state": "MG",
        "district": "Santa Luzia",
        "street": "Rua Olinto Toledo",
        "zipcode": "36906-036"
    },
    {
        "city": "Manhuaçu",
        "state": "MG",
        "district": "Sagrada Família",
        "street": "Rua Olímpio Vargas",
        "zipcode": "36900-200"
    },
    {
        "city": "Manhuaçu",
        "state": "MG",
        "district": "Santana",
        "street": "Travessa Oito",
        "zipcode": "36904-048"
    },
    {
        "city": "Manhuaçu",
        "state": "MG",
        "district": "Colina",
        "street": "Rua Odilon Batista Goulart",
        "zipcode": "36900-401"
    },
    {
        "city": "Manhuaçu",
        "state": "MG",
        "district": "Centro",
        "street": "Rua Nudant Pizeli",
        "zipcode": "36900-031"
    },
    {
        "city": "Manhuaçu",
        "state": "MG",
        "district": "Matinha",
        "street": "Rua Nove de Julho",
        "zipcode": "36902-182"
    },
    {
        "city": "Manhuaçu",
        "state": "MG",
        "district": "Nossa Senhora Aparecida",
        "street": "Rua Nova Aliança",
        "zipcode": "36904-308"
    },
    {
        "city": "Manhuaçu",
        "state": "MG",
        "district": "Pinheiro",
        "street": "Rua Nivaldo Nunes da Rosa",
        "zipcode": "36902-117"
    },
    {
        "city": "Manhuaçu",
        "state": "MG",
        "district": "Colina",
        "street": "Rua Nilo Elias",
        "zipcode": "36900-383"
    },
    {
        "city": "Manhuaçu",
        "state": "MG",
        "district": "Alfa Sul",
        "street": "Rua Nelson Wellerson",
        "zipcode": "36904-216"
    },
    {
        "city": "Manhuaçu",
        "state": "MG",
        "district": "Sagrada Família",
        "street": "Rua Nelson Monteiro",
        "zipcode": "36900-233"
    },
    {
        "city": "Manhuaçu",
        "state": "MG",
        "district": "Centro",
        "street": "Rua Doutor Nelson Duarte",
        "zipcode": "36900-067"
    },
    {
        "city": "Manhuaçu",
        "state": "MG",
        "district": "Bom Jardim",
        "street": "Vila Nelcino Dornelas Sette",
        "zipcode": "36906-372"
    },
    {
        "city": "Manhuaçu",
        "state": "MG",
        "district": "Bom Jardim",
        "street": "Rua Neide Celeste Maurício",
        "zipcode": "36906-366"
    },
    {
        "city": "Manhuaçu",
        "state": "MG",
        "district": "Lajinha",
        "street": "Rua Narciso Evangelista dos Anjos",
        "zipcode": "36906-150"
    },
    {
        "city": "Manhuaçu",
        "state": "MG",
        "district": "Pouso Alegre",
        "street": "Rua Nair Rosa de Morais",
        "zipcode": "36904-088"
    },
    {
        "city": "Manhuaçu",
        "state": "MG",
        "district": "Bom Pastor",
        "street": "Rua Nadir Mariano Estanislau",
        "zipcode": "36902-308"
    },
    {
        "city": "Manhuaçu",
        "state": "MG",
        "district": "Bom Jardim",
        "street": "Avenida Nações Unidas",
        "zipcode": "36906-405"
    },
    {
        "city": "Manhuaçu",
        "state": "MG",
        "district": "Matinha",
        "street": "Travessa Santa Mônica",
        "zipcode": "36902-176"
    },
    {
        "city": "Manhuaçu",
        "state": "MG",
        "district": "Colina",
        "street": "Rua Moisés Ribeiro Alves",
        "zipcode": "36900-392"
    },
    {
        "city": "Manhuaçu",
        "state": "MG",
        "district": "Nossa Senhora Aparecida",
        "street": "Rua dos Mognos",
        "zipcode": "36904-335"
    },
    {
        "city": "Manhuaçu",
        "state": "MG",
        "district": "Pinheiro",
        "street": "Rua Milton Pinheiro",
        "zipcode": "36902-129"
    },
    {
        "city": "Manhuaçu",
        "state": "MG",
        "district": "Bom Jardim",
        "street": "Rua Juvercino Pereira",
        "zipcode": "36906-375"
    },
    {
        "city": "Manhuaçu",
        "state": "MG",
        "district": "Centro",
        "street": "Rua Professor Juventino Nunes",
        "zipcode": "36900-040"
    },
    {
        "city": "Manhuaçu",
        "state": "MG",
        "district": "Santa Luzia",
        "street": "Vila Jurema Fernandes Alves",
        "zipcode": "36906-027"
    },
    {
        "city": "Manhuaçu",
        "state": "MG",
        "district": "Santa Luzia",
        "street": "Beco Senhor Juquinha",
        "zipcode": "36906-048"
    },
    {
        "city": "Manhuaçu",
        "state": "MG",
        "district": "Sagrada Família",
        "street": "Rua Juquinha Santana",
        "zipcode": "36900-236"
    },
    {
        "city": "Manhuaçu",
        "state": "MG",
        "district": "Pinheiro",
        "street": "Rua Prefeito Juner Bento Barbosa",
        "zipcode": "36902-126"
    },
    {
        "city": "Manhuaçu",
        "state": "MG",
        "district": "Santa Luzia",
        "street": "Rua Júlio Bueno",
        "zipcode": "36906-001"
    },
    {
        "city": "Manhuaçu",
        "state": "MG",
        "district": "dos Operários",
        "street": "Rua Julieta Caldeira Pena",
        "zipcode": "36900-339"
    },
    {
        "city": "Manhuaçu",
        "state": "MG",
        "district": "Engenho da Serra",
        "street": "Rua Judith Alves de Oliveira",
        "zipcode": "36902-386"
    },
    {
        "city": "Manhuaçu",
        "state": "MG",
        "district": "Todos os Santos",
        "street": "Rua Josino Camilo de Amorim",
        "zipcode": "36906-135"
    },
    {
        "city": "Manhuaçu",
        "state": "MG",
        "district": "Santo Antônio",
        "street": "Rua Josias Breder",
        "zipcode": "36900-136"
    },
    {
        "city": "Manhuaçu",
        "state": "MG",
        "district": "Bom Jardim",
        "street": "Vila José Viana Coura",
        "zipcode": "36906-363"
    },
    {
        "city": "Manhuaçu",
        "state": "MG",
        "district": "Lajinha",
        "street": "Rua José Tertuliano Hott",
        "zipcode": "36906-192"
    },
    {
        "city": "Manhuaçu",
        "state": "MG",
        "district": "Baixada",
        "street": "Praça José Soares Pires",
        "zipcode": "36902-039"
    },
    {
        "city": "Manhuaçu",
        "state": "MG",
        "district": "Matinha",
        "street": "Rua São José",
        "zipcode": "36902-173"
    },
    {
        "city": "Manhuaçu",
        "state": "MG",
        "district": "São Vicente",
        "street": "Rua José Ribeiro Sobrinho",
        "zipcode": "36904-108"
    },
    {
        "city": "Manhuaçu",
        "state": "MG",
        "district": "Pinheiro",
        "street": "Rua José Pinheiro Filgueiras",
        "zipcode": "36902-114"
    },
    {
        "city": "Manhuaçu",
        "state": "MG",
        "district": "Bom Pastor",
        "street": "Viela José Perígolo Filho",
        "zipcode": "36902-293"
    },
    {
        "city": "Manhuaçu",
        "state": "MG",
        "district": "Lajinha",
        "street": "Rua José Perígolo",
        "zipcode": "36906-195"
    },
    {
        "city": "Manhuaçu",
        "state": "MG",
        "district": "Bom Pastor",
        "street": "Rua José Pedro Espechite",
        "zipcode": "36902-275"
    },
    {
        "city": "Manhuaçu",
        "state": "MG",
        "district": "Centro",
        "street": "Rua Coronel José Pedro",
        "zipcode": "36900-100"
    },
    {
        "city": "Manhuaçu",
        "state": "MG",
        "district": "Santa Luzia",
        "street": "Rua José Pedro",
        "zipcode": "36906-090"
    },
    {
        "city": "Manhuaçu",
        "state": "MG",
        "district": "Vale Verde",
        "street": "Rua José Paulo Bastos",
        "zipcode": "36906-342"
    },
    {
        "city": "Manhuaçu",
        "state": "MG",
        "district": "Nossa Senhora Aparecida",
        "street": "Vila José Maia",
        "zipcode": "36904-242"
    },
    {
        "city": "Manhuaçu",
        "state": "MG",
        "district": "Bom Pastor",
        "street": "Rua José Luiz Emerik",
        "zipcode": "36902-251"
    },
    {
        "city": "Manhuaçu",
        "state": "MG",
        "district": "Pinheiro",
        "street": "Rua José Lopes do Sacramento",
        "zipcode": "36902-066"
    },
    {
        "city": "Manhuaçu",
        "state": "MG",
        "district": "São Vicente",
        "street": "Rua José Leandro da Silva",
        "zipcode": "36904-102"
    },
    {
        "city": "Manhuaçu",
        "state": "MG",
        "district": "Luciano Heringer",
        "street": "Rua Capitão José Francisco de Faria",
        "zipcode": "36900-173"
    },
    {
        "city": "Manhuaçu",
        "state": "MG",
        "district": "Santa Luzia",
        "street": "Rua José Francisco Coelho",
        "zipcode": "36906-081"
    },
    {
        "city": "Manhuaçu",
        "state": "MG",
        "district": "São Jorge",
        "street": "Rua José Florêncio da Silva",
        "zipcode": "36904-395"
    },
    {
        "city": "Manhuaçu",
        "state": "MG",
        "district": "Centro",
        "street": "Rua Doutor José Fernandes Rodrigues",
        "zipcode": "36900-088"
    },
    {
        "city": "Manhuaçu",
        "state": "MG",
        "district": "Engenho da Serra",
        "street": "Rua José Felício Gomes",
        "zipcode": "36902-359"
    },
    {
        "city": "Manhuaçu",
        "state": "MG",
        "district": "Santa Terezinha",
        "street": "Viela José Eugênio",
        "zipcode": "36902-024"
    },
    {
        "city": "Manhuaçu",
        "state": "MG",
        "district": "Lajinha",
        "street": "Rua José Dornelas Júnior",
        "zipcode": "36906-204"
    },
    {
        "city": "Manhuaçu",
        "state": "MG",
        "district": "Santa Luzia",
        "street": "Rua José Dias Neves Dutra",
        "zipcode": "36906-060"
    },
    {
        "city": "Manhuaçu",
        "state": "MG",
        "district": "dos Operários",
        "street": "Rua José de Souza",
        "zipcode": "36900-333"
    },
    {
        "city": "Manhuaçu",
        "state": "MG",
        "district": "Bela Vista",
        "street": "Rua José da Costa Huebra",
        "zipcode": "36906-243"
    },
    {
        "city": "Manhuaçu",
        "state": "MG",
        "district": "Bom Pastor",
        "street": "Rua José Coelho de Vasconcelos",
        "zipcode": "36902-311"
    },
    {
        "city": "Manhuaçu",
        "state": "MG",
        "district": "Luciano Heringer",
        "street": "Rua José Cláudio Hott",
        "zipcode": "36900-170"
    },
    {
        "city": "Manhuaçu",
        "state": "MG",
        "district": "Santa Luzia",
        "street": "Rua José Cirilo",
        "zipcode": "36906-021"
    },
    {
        "city": "Manhuaçu",
        "state": "MG",
        "district": "Vila Deolinda",
        "street": "Rua José Cicarine",
        "zipcode": "36906-423"
    },
    {
        "city": "Manhuaçu",
        "state": "MG",
        "district": "Alfa Sul",
        "street": "Rua Doutor José Carlos Pires",
        "zipcode": "36904-201"
    },
    {
        "city": "Manhuaçu",
        "state": "MG",
        "district": "Bom Pastor",
        "street": "Rua José Camilo Avelar",
        "zipcode": "36902-278"
    },
    {
        "city": "Manhuaçu",
        "state": "MG",
        "district": "Santa Luzia",
        "street": "Rua José Cabral",
        "zipcode": "36906-057"
    },
    {
        "city": "Manhuaçu",
        "state": "MG",
        "district": "Santa Terezinha",
        "street": "Rua José Bertolace de Barros",
        "zipcode": "36902-000"
    },
    {
        "city": "Manhuaçu",
        "state": "MG",
        "district": "Pouso Alegre",
        "street": "Avenida José Augusto Pereira",
        "zipcode": "36904-073"
    },
    {
        "city": "Manhuaçu",
        "state": "MG",
        "district": "Alfa Sul",
        "street": "Rua José Antônio Prata",
        "zipcode": "36904-195"
    },
    {
        "city": "Manhuaçu",
        "state": "MG",
        "district": "Bela Vista",
        "street": "Rua José Antônio Justino",
        "zipcode": "36906-246"
    },
    {
        "city": "Manhuaçu",
        "state": "MG",
        "district": "Pinheiro",
        "street": "Rua José André de Carvalho",
        "zipcode": "36902-105"
    },
    {
        "city": "Manhuaçu",
        "state": "MG",
        "district": "São Vicente",
        "street": "Rua José Ambrósio Ferreira",
        "zipcode": "36904-099"
    },
    {
        "city": "Manhuaçu",
        "state": "MG",
        "district": "Santana",
        "street": "Rua José Alves Barbosa",
        "zipcode": "36904-003"
    },
    {
        "city": "Manhuaçu",
        "state": "MG",
        "district": "Baixada",
        "street": "Praça José Adolfo Assad",
        "zipcode": "36902-033"
    },
    {
        "city": "Manhuaçu",
        "state": "MG",
        "district": "Luciano Heringer",
        "street": "Rua Jorge Satlher",
        "zipcode": "36900-194"
    },
    {
        "city": "Manhuaçu",
        "state": "MG",
        "district": "Alfa Sul",
        "street": "Avenida Jorge Said Chequer",
        "zipcode": "36904-192"
    },
    {
        "city": "Manhuaçu",
        "state": "MG",
        "district": "Pinheiro",
        "street": "Rua Jorge Pinheiro",
        "zipcode": "36902-078"
    },
    {
        "city": "Manhuaçu",
        "state": "MG",
        "district": "Ponte da Aldeia",
        "street": "Avenida Doutor Jorge Hannas",
        "zipcode": "36906-440"
    },
    {
        "city": "Manhuaçu",
        "state": "MG",
        "district": "Bom Jardim",
        "street": "Avenida Doutor Jorge Hannas",
        "zipcode": "36906-360"
    },
    {
        "city": "Manhuaçu",
        "state": "MG",
        "district": "São Jorge",
        "street": "Avenida Doutor Jorge Hannas",
        "zipcode": "36904-380"
    },
    {
        "city": "Manhuaçu",
        "state": "MG",
        "district": "Nossa Senhora Aparecida",
        "street": "Avenida Doutor Jorge Hannas",
        "zipcode": "36904-230"
    },
    {
        "city": "Manhuaçu",
        "state": "MG",
        "district": "São Vicente",
        "street": "Avenida Doutor Jorge Hannas",
        "zipcode": "36904-090"
    },
    {
        "city": "Manhuaçu",
        "state": "MG",
        "district": "Pouso Alegre",
        "street": "Avenida Doutor Jorge Hannas",
        "zipcode": "36904-070"
    },
    {
        "city": "Manhuaçu",
        "state": "MG",
        "district": "Santana",
        "street": "Avenida Doutor Jorge Hannas",
        "zipcode": "36904-054"
    },
    {
        "city": "Manhuaçu",
        "state": "MG",
        "district": "Santo Antônio",
        "street": "Avenida Doutor Jorge Hannas",
        "zipcode": "36900-130"
    },
    {
        "city": "Manhuaçu",
        "state": "MG",
        "district": "Vale Verde",
        "street": "Rua Jorge Alberto Bastos Resende",
        "zipcode": "36906-345"
    },
    {
        "city": "Manhuaçu",
        "state": "MG",
        "district": "Santa Luzia",
        "street": "Rua Joaquim Serafim Alves",
        "zipcode": "36906-015"
    },
    {
        "city": "Manhuaçu",
        "state": "MG",
        "district": "Sagrada Família",
        "street": "Rua Joaquim Pereira da Silva",
        "zipcode": "36900-224"
    },
    {
        "city": "Manhuaçu",
        "state": "MG",
        "district": "Alfa Sul",
        "street": "Rua Joaquim Pedro Vitor",
        "zipcode": "36904-183"
    },
    {
        "city": "Manhuaçu",
        "state": "MG",
        "district": "Engenho da Serra",
        "street": "Rua Joaquim Pedro Ferreira",
        "zipcode": "36902-395"
    },
    {
        "city": "Manhuaçu",
        "state": "MG",
        "district": "Santo Antônio",
        "street": "Rua Joaquim Gonçalves Dutra",
        "zipcode": "36900-166"
    },
    {
        "city": "Manhuaçu",
        "state": "MG",
        "district": "Bom Jardim",
        "street": "Rua Joaquim Garcia Sobrinho",
        "zipcode": "36906-402"
    },
    {
        "city": "Manhuaçu",
        "state": "MG",
        "district": "Nossa Senhora Aparecida",
        "street": "Vila São João",
        "zipcode": "36904-293"
    },
    {
        "city": "Manhuaçu",
        "state": "MG",
        "district": "Alfa Sul",
        "street": "Rua João Petronilho",
        "zipcode": "36904-186"
    },
    {
        "city": "Manhuaçu",
        "state": "MG",
        "district": "Matinha",
        "street": "Rua Papa João Paulo II",
        "zipcode": "36902-140"
    },
    {
        "city": "Manhuaçu",
        "state": "MG",
        "district": "Centro",
        "street": "Rua Papa João Paulo I",
        "zipcode": "36900-046"
    },
    {
        "city": "Manhuaçu",
        "state": "MG",
        "district": "Santa Luzia",
        "street": "Praça Coronel João Pacheco",
        "zipcode": "36906-012"
    },
    {
        "city": "Manhuaçu",
        "state": "MG",
        "district": "Engenho da Serra",
        "street": "Rua São João Evangelista",
        "zipcode": "36902-320"
    },
    {
        "city": "Manhuaçu",
        "state": "MG",
        "district": "São Vicente",
        "street": "Rua João Domingos",
        "zipcode": "36904-120"
    },
    {
        "city": "Manhuaçu",
        "state": "MG",
        "district": "São Vicente",
        "street": "Rua João Dias do Nascimento",
        "zipcode": "36904-129"
    },
    {
        "city": "Manhuaçu",
        "state": "MG",
        "district": "Centro",
        "street": "Rua João de Deus Marques",
        "zipcode": "36900-043"
    },
    {
        "city": "Manhuaçu",
        "state": "MG",
        "district": "Luciano Heringer",
        "street": "Rua João Cornélio de Aguiar",
        "zipcode": "36900-188"
    },
    {
        "city": "Manhuaçu",
        "state": "MG",
        "district": "Centro",
        "street": "Rua João Claudino",
        "zipcode": "36900-106"
    },
    {
        "city": "Manhuaçu",
        "state": "MG",
        "district": "Centro",
        "street": "Beco João Bracks",
        "zipcode": "36900-061"
    },
    {
        "city": "Manhuaçu",
        "state": "MG",
        "district": "São Jorge",
        "street": "Rua São João Batista",
        "zipcode": "36904-407"
    },
    {
        "city": "Manhuaçu",
        "state": "MG",
        "district": "Santa Luzia",
        "street": "Rua Jerônimo Inácio",
        "zipcode": "36906-003"
    },
    {
        "city": "Manhuaçu",
        "state": "MG",
        "district": "Nossa Senhora Aparecida",
        "street": "Rua dos Jatobás",
        "zipcode": "36904-356"
    },
    {
        "city": "Manhuaçu",
        "state": "MG",
        "district": "Sagrada Família",
        "street": "Rua Jair de Brito",
        "zipcode": "36900-206"
    },
    {
        "city": "Manhuaçu",
        "state": "MG",
        "district": "São Jorge",
        "street": "Rua Jaguaraí",
        "zipcode": "36904-440"
    },
    {
        "city": "Manhuaçu",
        "state": "MG",
        "district": "Nossa Senhora Aparecida",
        "street": "Rua dos Jacarandás",
        "zipcode": "36904-323"
    },
    {
        "city": "Manhuaçu",
        "state": "MG",
        "district": "Cidade Nova",
        "street": "Rua J",
        "zipcode": "36906-300"
    },
    {
        "city": "Manhuaçu",
        "state": "MG",
        "district": "Centro",
        "street": "Rua Vereador Ismar Estanislau",
        "zipcode": "36900-049"
    },
    {
        "city": "Manhuaçu",
        "state": "MG",
        "district": "Pinheiro",
        "street": "Rua Ismael Heringer Batista",
        "zipcode": "36902-096"
    },
    {
        "city": "Manhuaçu",
        "state": "MG",
        "district": "Nossa Senhora Aparecida",
        "street": "Vila Isaías Batista de Oliveira",
        "zipcode": "36904-284"
    },
    {
        "city": "Manhuaçu",
        "state": "MG",
        "district": "Nossa Senhora Aparecida",
        "street": "Rua dos Ipês",
        "zipcode": "36904-362"
    },
    {
        "city": "Manhuaçu",
        "state": "MG",
        "district": "Engenho da Serra",
        "street": "Rua Santa Inês",
        "zipcode": "36902-341"
    },
    {
        "city": "Manhuaçu",
        "state": "MG",
        "district": "Engenho da Serra",
        "street": "Vila Independência",
        "zipcode": "36902-356"
    },
    {
        "city": "Manhuaçu",
        "state": "MG",
        "district": "Lajinha",
        "street": "Rua das Hortências",
        "zipcode": "36906-177"
    },
    {
        "city": "Manhuaçu",
        "state": "MG",
        "district": "Pinheiro",
        "street": "Rua Professor Hiran de Carvalho",
        "zipcode": "36902-069"
    },
    {
        "city": "Manhuaçu",
        "state": "MG",
        "district": "Alfa Sul",
        "street": "Rua Hilda Vargas Leitão de Almeida",
        "zipcode": "36904-153"
    },
    {
        "city": "Manhuaçu",
        "state": "MG",
        "district": "Nossa Senhora Aparecida",
        "street": "Rua Hervê Cordovil",
        "zipcode": "36904-314"
    },
    {
        "city": "Manhuaçu",
        "state": "MG",
        "district": "Centro",
        "street": "Rua Herondino Pereira Xavier",
        "zipcode": "36900-076"
    },
    {
        "city": "Manhuaçu",
        "state": "MG",
        "district": "Santa Luzia",
        "street": "Vila Hélio Breder",
        "zipcode": "36906-093"
    },
    {
        "city": "Manhuaçu",
        "state": "MG",
        "district": "São Jorge",
        "street": "Rua Doutor Helder Fernandes Rodrigues",
        "zipcode": "36904-392"
    },
    {
        "city": "Manhuaçu",
        "state": "MG",
        "district": "Pinheiro",
        "street": "Rua Heitor Pinheiro",
        "zipcode": "36902-120"
    },
    {
        "city": "Manhuaçu",
        "state": "MG",
        "district": "Cidade Nova",
        "street": "Rua H",
        "zipcode": "36906-306"
    },
    {
        "city": "Manhuaçu",
        "state": "MG",
        "district": "Todos os Santos",
        "street": "Rua Guiomar Amélia Amorim",
        "zipcode": "36906-126"
    },
    {
        "city": "Manhuaçu",
        "state": "MG",
        "district": "Coqueiro",
        "street": "Travessa Guilherme Lacerda de Lima",
        "zipcode": "36900-368"
    },
    {
        "city": "Manhuaçu",
        "state": "MG",
        "district": "São Jorge",
        "street": "Rua Guarani",
        "zipcode": "36904-446"
    },
    {
        "city": "Manhuaçu",
        "state": "MG",
        "district": "Centro",
        "street": "Rua Monsenhor Gonzáles",
        "zipcode": "36900-028"
    },
    {
        "city": "Manhuaçu",
        "state": "MG",
        "district": "Centro",
        "street": "Rua Glotildes Carneiro",
        "zipcode": "36900-118"
    },
    {
        "city": "Manhuaçu",
        "state": "MG",
        "district": "Centro",
        "street": "Rua Glenan Lucas Heringer",
        "zipcode": "36900-016"
    },
    {
        "city": "Manhuaçu",
        "state": "MG",
        "district": "Petrina",
        "street": "Rua Gláucio Mendes",
        "zipcode": "36900-304"
    },
    {
        "city": "Manhuaçu",
        "state": "MG",
        "district": "Coqueiro",
        "street": "Avenida Getúlio Vargas",
        "zipcode": "36900-350"
    },
    {
        "city": "Manhuaçu",
        "state": "MG",
        "district": "Matinha",
        "street": "Rua São Geraldo",
        "zipcode": "36902-158"
    },
    {
        "city": "Manhuaçu",
        "state": "MG",
        "district": "Pouso Alegre",
        "street": "Rua Geraldo Pereira",
        "zipcode": "36904-079"
    },
    {
        "city": "Manhuaçu",
        "state": "MG",
        "district": "Santa Luzia",
        "street": "Rua Professor Geraldo Maciel",
        "zipcode": "36906-108"
    },
    {
        "city": "Manhuaçu",
        "state": "MG",
        "district": "Alfa Sul",
        "street": "Rua Geraldo Lins Bonifácio",
        "zipcode": "36904-174"
    },
    {
        "city": "Manhuaçu",
        "state": "MG",
        "district": "Nossa Senhora Aparecida",
        "street": "Vila Geraldo José Cardoso",
        "zipcode": "36904-251"
    },
    {
        "city": "Manhuaçu",
        "state": "MG",
        "district": "Lajinha",
        "street": "Rua Capitão Geraldo Alves",
        "zipcode": "36906-198"
    },
    {
        "city": "Manhuaçu",
        "state": "MG",
        "district": "Pinheiro",
        "street": "Rua Geralda Bertolace Vieira",
        "zipcode": "36902-111"
    },
    {
        "city": "Manhuaçu",
        "state": "MG",
        "district": "Alfa Sul",
        "street": "Rua Gentil Antônio da Silva",
        "zipcode": "36904-168"
    },
    {
        "city": "Manhuaçu",
        "state": "MG",
        "district": "Lajinha",
        "street": "Rua Geni de Souza Lima",
        "zipcode": "36906-153"
    },
    {
        "city": "Manhuaçu",
        "state": "MG",
        "district": "Engenho da Serra",
        "street": "Rua São Gabriel",
        "zipcode": "36902-332"
    },
    {
        "city": "Manhuaçu",
        "state": "MG",
        "district": "Cidade Nova",
        "street": "Rua G",
        "zipcode": "36906-309"
    },
    {
        "city": "Manhuaçu",
        "state": "MG",
        "district": "Nossa Senhora Aparecida",
        "street": "Vila Fumaph",
        "zipcode": "36904-245"
    },
    {
        "city": "Manhuaçu",
        "state": "MG",
        "district": "Recanto da Aldeia",
        "street": "Rua Tenente Fully",
        "zipcode": "36906-486"
    },
    {
        "city": "Manhuaçu",
        "state": "MG",
        "district": "Centro",
        "street": "Rua Frederico Dolabela",
        "zipcode": "36900-025"
    },
    {
        "city": "Manhuaçu",
        "state": "MG",
        "district": "Nossa Senhora Aparecida",
        "street": "Vila da Fraternidade",
        "zipcode": "36904-260"
    },
    {
        "city": "Manhuaçu",
        "state": "MG",
        "district": "Petrina",
        "street": "Rua Francisco Salles",
        "zipcode": "36900-280"
    },
    {
        "city": "Manhuaçu",
        "state": "MG",
        "district": "Matinha",
        "street": "Rua Francisco Guerra Silva",
        "zipcode": "36902-194"
    },
    {
        "city": "Manhuaçu",
        "state": "MG",
        "district": "Recanto da Aldeia",
        "street": "Rua Francisco Gonçalves de Oliveira Junior",
        "zipcode": "36906-480"
    },
    {
        "city": "Manhuaçu",
        "state": "MG",
        "district": "Colina",
        "street": "Rua Francisco Garcia Barbosa",
        "zipcode": "36900-395"
    },
    {
        "city": "Manhuaçu",
        "state": "MG",
        "district": "Baixada",
        "street": "Rua Francisco Fialho",
        "zipcode": "36902-054"
    },
    {
        "city": "Manhuaçu",
        "state": "MG",
        "district": "Nossa Senhora Aparecida",
        "street": "Vila São Francisco de Assis",
        "zipcode": "36904-266"
    },
    {
        "city": "Manhuaçu",
        "state": "MG",
        "district": "Santo Antônio",
        "street": "Rua Padre Fortunato de Carvalho",
        "zipcode": "36900-160"
    },
    {
        "city": "Manhuaçu",
        "state": "MG",
        "district": "Matinha",
        "street": "Rua Fortaleza",
        "zipcode": "36902-152"
    },
    {
        "city": "Manhuaçu",
        "state": "MG",
        "district": "Pinheiro",
        "street": "Rua Floriano Gonçalves Lacerda",
        "zipcode": "36902-093"
    },
    {
        "city": "Manhuaçu",
        "state": "MG",
        "district": "Ponte da Aldeia",
        "street": "Rua das Flores",
        "zipcode": "36906-458"
    },
    {
        "city": "Manhuaçu",
        "state": "MG",
        "district": "Santa Luzia",
        "street": "Rua Firmino Cordeiro",
        "zipcode": "36906-087"
    },
    {
        "city": "Manhuaçu",
        "state": "MG",
        "district": "Centro",
        "street": "Rua Maestro Filomeno dos Santos",
        "zipcode": "36900-022"
    },
    {
        "city": "Manhuaçu",
        "state": "MG",
        "district": "Sagrada Família",
        "street": "Rua Félix Fernandes Rocha",
        "zipcode": "36900-227"
    },
    {
        "city": "Manhuaçu",
        "state": "MG",
        "district": "Baixada",
        "street": "Rua Felipe Nacif",
        "zipcode": "36902-057"
    },
    {
        "city": "Manhuaçu",
        "state": "MG",
        "district": "Engenho da Serra",
        "street": "Rua Felipe Dias",
        "zipcode": "36902-392"
    },
    {
        "city": "Manhuaçu",
        "state": "MG",
        "district": "Matinha",
        "street": "Rua Santa Fé",
        "zipcode": "36902-161"
    },
    {
        "city": "Manhuaçu",
        "state": "MG",
        "district": "Santo Antônio",
        "street": "Rua Faustino Amâncio",
        "zipcode": "36900-157"
    },
    {
        "city": "Manhuaçu",
        "state": "MG",
        "district": "Cidade Nova",
        "street": "Rua F",
        "zipcode": "36906-312"
    },
    {
        "city": "Manhuaçu",
        "state": "MG",
        "district": "Baixada",
        "street": "Travessa Ezio Verly de Morais",
        "zipcode": "36902-045"
    },
    {
        "city": "Manhuaçu",
        "state": "MG",
        "district": "São Jorge",
        "street": "Rua Evaristo Gomes",
        "zipcode": "36904-428"
    },
    {
        "city": "Manhuaçu",
        "state": "MG",
        "district": "Petrina",
        "street": "Rua Eva Rabelo Mariano",
        "zipcode": "36900-283"
    },
    {
        "city": "Manhuaçu",
        "state": "MG",
        "district": "Santa Luzia",
        "street": "Rua Padre Eustáquio",
        "zipcode": "36906-033"
    },
    {
        "city": "Manhuaçu",
        "state": "MG",
        "district": "Centro",
        "street": "Rua Etelvino Guimarães",
        "zipcode": "36900-115"
    },
    {
        "city": "Manhuaçu",
        "state": "MG",
        "district": "Nossa Senhora Aparecida",
        "street": "Vila da Esperança",
        "zipcode": "36904-254"
    },
    {
        "city": "Manhuaçu",
        "state": "MG",
        "district": "Ponte da Aldeia",
        "street": "Rua Esperança",
        "zipcode": "36906-461"
    },
    {
        "city": "Manhuaçu",
        "state": "MG",
        "district": "Santa Luzia",
        "street": "Rua Esperança",
        "zipcode": "36906-102"
    },
    {
        "city": "Manhuaçu",
        "state": "MG",
        "district": "Alfa Sul",
        "street": "Rua Emilton do Vale Lacerda",
        "zipcode": "36904-180"
    },
    {
        "city": "Manhuaçu",
        "state": "MG",
        "district": "Alfa Sul",
        "street": "Avenida Eloy Werner",
        "zipcode": "36904-150"
    },
    {
        "city": "Manhuaçu",
        "state": "MG",
        "district": "Santa Terezinha",
        "street": "Rua Santa Efigênia",
        "zipcode": "36902-018"
    },
    {
        "city": "Manhuaçu",
        "state": "MG",
        "district": "Santa Luzia",
        "street": "Rua Efigênia da Silva",
        "zipcode": "36906-069"
    },
    {
        "city": "Manhuaçu",
        "state": "MG",
        "district": "Alfa Sul",
        "street": "Rua Edson de Oliveira",
        "zipcode": "36904-204"
    },
    {
        "city": "Manhuaçu",
        "state": "MG",
        "district": "Alfa Sul",
        "street": "Rua Edson da Silva Costa",
        "zipcode": "36904-210"
    },
    {
        "city": "Manhuaçu",
        "state": "MG",
        "district": "Catuai",
        "street": "Rua Edson da Silva Costa",
        "zipcode": "36900-419"
    },
    {
        "city": "Manhuaçu",
        "state": "MG",
        "district": "Cidade Nova",
        "street": "Rua E",
        "zipcode": "36906-315"
    },
    {
        "city": "Manhuaçu",
        "state": "MG",
        "district": "Coqueiro",
        "street": "Rua Duarte Peixoto",
        "zipcode": "36900-371"
    },
    {
        "city": "Manhuaçu",
        "state": "MG",
        "district": "Bom Pastor",
        "street": "Rua Drosa Pinheiro",
        "zipcode": "36902-260"
    },
    {
        "city": "Manhuaçu",
        "state": "MG",
        "district": "Nossa Senhora Aparecida",
        "street": "Rua Doze de Outubro",
        "zipcode": "36904-299"
    },
    {
        "city": "Manhuaçu",
        "state": "MG",
        "district": "Nossa Senhora Aparecida",
        "street": "Rua Dorcelina Zanirat",
        "zipcode": "36904-236"
    },
    {
        "city": "Manhuaçu",
        "state": "MG",
        "district": "dos Operários",
        "street": "Rua Domingos Labanca",
        "zipcode": "36900-336"
    },
    {
        "city": "Manhuaçu",
        "state": "MG",
        "district": "Santana",
        "street": "Viela Dois",
        "zipcode": "36904-033"
    },
    {
        "city": "Manhuaçu",
        "state": "MG",
        "district": "Nossa Senhora Aparecida",
        "street": "Rua Dois",
        "zipcode": "36904-371"
    },
    {
        "city": "Manhuaçu",
        "state": "MG",
        "district": "Bom Pastor",
        "street": "Rua Dois",
        "zipcode": "36902-239"
    },
    {
        "city": "Manhuaçu",
        "state": "MG",
        "district": "Luciano Heringer",
        "street": "Rua Divino Fidélis de Oliveira",
        "zipcode": "36900-185"
    },
    {
        "city": "Manhuaçu",
        "state": "MG",
        "district": "Bela Vista",
        "street": "Rua Dirceu Lacerda de Castro",
        "zipcode": "36906-255"
    },
    {
        "city": "Manhuaçu",
        "state": "MG",
        "district": "Centro",
        "street": "Rua Professor Diocélio Marques de Oliveira",
        "zipcode": "36900-007"
    },
    {
        "city": "Manhuaçu",
        "state": "MG",
        "district": "Ponte da Aldeia",
        "street": "Viela Didier de Andrade",
        "zipcode": "36906-449"
    },
    {
        "city": "Manhuaçu",
        "state": "MG",
        "district": "Bom Jardim",
        "street": "Vila Dez de Agosto",
        "zipcode": "36906-369"
    },
    {
        "city": "Manhuaçu",
        "state": "MG",
        "district": "Pinheiro",
        "street": "Rua David Gonçalves de Oliveira",
        "zipcode": "36902-090"
    },
    {
        "city": "Manhuaçu",
        "state": "MG",
        "district": "São Vicente",
        "street": "Avenida Dário Grossi",
        "zipcode": "36904-093"
    },
    {
        "city": "Manhuaçu",
        "state": "MG",
        "district": "São Vicente",
        "street": "Rua Dário Borges Ferreira",
        "zipcode": "36904-096"
    },
    {
        "city": "Manhuaçu",
        "state": "MG",
        "district": "Alfa Sul",
        "street": "Rua Dário Alves Caldeira",
        "zipcode": "36904-177"
    },
    {
        "city": "Manhuaçu",
        "state": "MG",
        "district": "Alfa Sul",
        "street": "Rua Darcy Cesar de Oliveira Leite",
        "zipcode": "36904-219"
    },
    {
        "city": "Manhuaçu",
        "state": "MG",
        "district": "Cidade Nova",
        "street": "Rua D",
        "zipcode": "36906-318"
    },
    {
        "city": "Manhuaçu",
        "state": "MG",
        "district": "Centro",
        "street": "Rua Professora Custódia Feres",
        "zipcode": "36900-070"
    },
    {
        "city": "Manhuaçu",
        "state": "MG",
        "district": "Centro",
        "street": "Praça Cordovil Pinto Coelho",
        "zipcode": "36900-103"
    },
    {
        "city": "Manhuaçu",
        "state": "MG",
        "district": "Nossa Senhora Aparecida",
        "street": "Rua dos Coqueiros",
        "zipcode": "36904-329"
    },
    {
        "city": "Manhuaçu",
        "state": "MG",
        "district": "Pinheiro",
        "street": "Rua Conceição Dalólio Pinheiro",
        "zipcode": "36902-132"
    },
    {
        "city": "Manhuaçu",
        "state": "MG",
        "district": "dos Operários",
        "street": "Rua da Conceição",
        "zipcode": "36900-330"
    },
    {
        "city": "Manhuaçu",
        "state": "MG",
        "district": "Matinha",
        "street": "Rua Santa Clara",
        "zipcode": "36902-164"
    },
    {
        "city": "Manhuaçu",
        "state": "MG",
        "district": "Centro",
        "street": "Praça Cinco de Novembro",
        "zipcode": "36900-091"
    },
    {
        "city": "Manhuaçu",
        "state": "MG",
        "district": "Santana",
        "street": "Viela Cinco",
        "zipcode": "36904-042"
    },
    {
        "city": "Manhuaçu",
        "state": "MG",
        "district": "Matinha",
        "street": "Rua Céu Azul",
        "zipcode": "36902-155"
    },
    {
        "city": "Manhuaçu",
        "state": "MG",
        "district": "Alfa Sul",
        "street": "Rua Vereador César Miranda Mansur",
        "zipcode": "36904-171"
    },
    {
        "city": "Manhuaçu",
        "state": "MG",
        "district": "Centro",
        "street": "Praça Doutor César Leite",
        "zipcode": "36900-073"
    },
    {
        "city": "Manhuaçu",
        "state": "MG",
        "district": "Nossa Senhora Aparecida",
        "street": "Rua das Cerejeiras",
        "zipcode": "36904-353"
    },
    {
        "city": "Manhuaçu",
        "state": "MG",
        "district": "Bom Pastor",
        "street": "Rua Centenário",
        "zipcode": "36902-272"
    },
    {
        "city": "Manhuaçu",
        "state": "MG",
        "district": "Nossa Senhora Aparecida",
        "street": "Rua dos Cedros",
        "zipcode": "36904-341"
    },
    {
        "city": "Manhuaçu",
        "state": "MG",
        "district": "Vila Deolinda",
        "street": "Rua Catuai",
        "zipcode": "36906-426"
    },
    {
        "city": "Manhuaçu",
        "state": "MG",
        "district": "Santa Luzia",
        "street": "Escadaria Santa Catarina",
        "zipcode": "36906-078"
    },
    {
        "city": "Manhuaçu",
        "state": "MG",
        "district": "Santana",
        "street": "Avenida Castelo Branco",
        "zipcode": "36904-024"
    },
    {
        "city": "Manhuaçu",
        "state": "MG",
        "district": "Nossa Senhora Aparecida",
        "street": "Rua das Castanheiras",
        "zipcode": "36904-338"
    },
    {
        "city": "Manhuaçu",
        "state": "MG",
        "district": "Nossa Senhora Aparecida",
        "street": "Rua das Cascatas",
        "zipcode": "36904-326"
    },
    {
        "city": "Manhuaçu",
        "state": "MG",
        "district": "Petrina",
        "street": "Rua Cartés",
        "zipcode": "36900-298"
    },
    {
        "city": "Manhuaçu",
        "state": "MG",
        "district": "Alfa Sul",
        "street": "Rua Carlos Luiz Lutfala",
        "zipcode": "36904-189"
    },
    {
        "city": "Manhuaçu",
        "state": "MG",
        "district": "Santana",
        "street": "Rua Caparaó",
        "zipcode": "36904-027"
    },
    {
        "city": "Manhuaçu",
        "state": "MG",
        "district": "Engenho da Serra",
        "street": "Rua Cândido José Cerqueira",
        "zipcode": "36902-371"
    },
    {
        "city": "Manhuaçu",
        "state": "MG",
        "district": "Coqueiro",
        "street": "Rua Camilo Mellem Sad",
        "zipcode": "36900-365"
    },
    {
        "city": "Manhuaçu",
        "state": "MG",
        "district": "São Vicente",
        "street": "Rua Calixto Maximiano de Souza",
        "zipcode": "36904-126"
    },
    {
        "city": "Manhuaçu",
        "state": "MG",
        "district": "Santa Luzia",
        "street": "Rua Caixa D Água",
        "zipcode": "36906-066"
    },
    {
        "city": "Manhuaçu",
        "state": "MG",
        "district": "Petrina",
        "street": "Rua Caiapós",
        "zipcode": "36900-316"
    },
    {
        "city": "Manhuaçu",
        "state": "MG",
        "district": "Cidade Nova",
        "street": "Rua C",
        "zipcode": "36906-321"
    },
    {
        "city": "Manhuaçu",
        "state": "MG",
        "district": "Nossa Senhora Aparecida",
        "street": "Rua das Buganvilles",
        "zipcode": "36904-332"
    },
    {
        "city": "Manhuaçu",
        "state": "MG",
        "district": "Ponte da Aldeia",
        "street": "Rua Breder",
        "zipcode": "36906-473"
    },
    {
        "city": "Manhuaçu",
        "state": "MG",
        "district": "Santa Luzia",
        "street": "Rua Brás Marques",
        "zipcode": "36906-075"
    },
    {
        "city": "Manhuaçu",
        "state": "MG",
        "district": "Engenho da Serra",
        "street": "Viela Bom Sucesso",
        "zipcode": "36902-365"
    },
    {
        "city": "Manhuaçu",
        "state": "MG",
        "district": "Ponte da Aldeia",
        "street": "Rua Boa Vista",
        "zipcode": "36906-455"
    },
    {
        "city": "Manhuaçu",
        "state": "MG",
        "district": "Vale Verde",
        "street": "Rua Blandina Bifano Bastos",
        "zipcode": "36906-351"
    },
    {
        "city": "Manhuaçu",
        "state": "MG",
        "district": "Nossa Senhora Aparecida",
        "street": "Rua Bezerra Paes",
        "zipcode": "36904-269"
    },
    {
        "city": "Manhuaçu",
        "state": "MG",
        "district": "Pinheiro",
        "street": "Rua Bertulino Gonçalves de Oliveira",
        "zipcode": "36902-099"
    },
    {
        "city": "Manhuaçu",
        "state": "MG",
        "district": "Bom Pastor",
        "street": "Travessa Bazem Pinheiro",
        "zipcode": "36902-284"
    },
    {
        "city": "Manhuaçu",
        "state": "MG",
        "district": "Bom Pastor",
        "street": "Rua Barra do Monte Alverne",
        "zipcode": "36902-242"
    },
    {
        "city": "Manhuaçu",
        "state": "MG",
        "district": "Cidade Nova",
        "street": "Rua B",
        "zipcode": "36906-324"
    },
    {
        "city": "Manhuaçu",
        "state": "MG",
        "district": "Residencial Bulinga",
        "street": "Rua B",
        "zipcode": "36904-063"
    },
    {
        "city": "Manhuaçu",
        "state": "MG",
        "district": "Lajinha",
        "street": "Rua Ayrton Senna",
        "zipcode": "36906-156"
    },
    {
        "city": "Manhuaçu",
        "state": "MG",
        "district": "Baixada",
        "street": "Rua Avelino Dutra Barros",
        "zipcode": "36902-036"
    },
    {
        "city": "Manhuaçu",
        "state": "MG",
        "district": "Nossa Senhora Aparecida",
        "street": "Rua Avelar José Pedro",
        "zipcode": "36904-233"
    },
    {
        "city": "Manhuaçu",
        "state": "MG",
        "district": "Luciano Heringer",
        "street": "Rua Auro Sathler",
        "zipcode": "36900-191"
    },
    {
        "city": "Manhuaçu",
        "state": "MG",
        "district": "Bom Pastor",
        "street": "Rua Aurino Cirilo da Costa",
        "zipcode": "36902-266"
    },
    {
        "city": "Manhuaçu",
        "state": "MG",
        "district": "Lajinha",
        "street": "Rua Augusto Sathler",
        "zipcode": "36906-186"
    },
    {
        "city": "Manhuaçu",
        "state": "MG",
        "district": "Santa Luzia",
        "street": "Rua Augusta Ana Carvalho",
        "zipcode": "36906-042"
    },
    {
        "city": "Manhuaçu",
        "state": "MG",
        "district": "Santo Antônio",
        "street": "Rua Ataulpho Mageste Pimentel",
        "zipcode": "36900-163"
    },
    {
        "city": "Manhuaçu",
        "state": "MG",
        "district": "Engenho da Serra",
        "street": "Viela Arlindo Marques",
        "zipcode": "36902-353"
    },
    {
        "city": "Manhuaçu",
        "state": "MG",
        "district": "Petrina",
        "street": "Rua Apinajes",
        "zipcode": "36900-325"
    },
    {
        "city": "Manhuaçu",
        "state": "MG",
        "district": "Pinheiro",
        "street": "Rua Aparício Caldeira",
        "zipcode": "36902-108"
    },
    {
        "city": "Manhuaçu",
        "state": "MG",
        "district": "Matinha",
        "street": "Rua Nossa Senhora Aparecida",
        "zipcode": "36902-179"
    },
    {
        "city": "Manhuaçu",
        "state": "MG",
        "district": "Santo Antônio",
        "street": "Rua Antônio Wellerson",
        "zipcode": "36900-133"
    },
    {
        "city": "Manhuaçu",
        "state": "MG",
        "district": "São Jorge",
        "street": "Rua Milton Florêncio",
        "zipcode": "36904-431"
    },
    {
        "city": "Manhuaçu",
        "state": "MG",
        "district": "Santa Luzia",
        "street": "Praça Milton Amorim",
        "zipcode": "36906-045"
    },
    {
        "city": "Manhuaçu",
        "state": "MG",
        "district": "Bom Pastor",
        "street": "Rodovia MG",
        "zipcode": "36902-317"
    },
    {
        "city": "Manhuaçu",
        "state": "MG",
        "district": "Santa Luzia",
        "street": "Rua Messias Leite",
        "zipcode": "36906-018"
    },
    {
        "city": "Manhuaçu",
        "state": "MG",
        "district": "Bom Pastor",
        "street": "Avenida Melo Viana",
        "zipcode": "36902-290"
    },
    {
        "city": "Manhuaçu",
        "state": "MG",
        "district": "Todos os Santos",
        "street": "Rua Mellin Abi",
        "zipcode": "36906-120"
    },
    {
        "city": "Manhuaçu",
        "state": "MG",
        "district": "São Jorge",
        "street": "Rua Melchíades Gomes",
        "zipcode": "36904-419"
    },
    {
        "city": "Manhuaçu",
        "state": "MG",
        "district": "Bom Jardim",
        "street": "Rua Maximiano Dornelas Sette",
        "zipcode": "36906-378"
    },
    {
        "city": "Manhuaçu",
        "state": "MG",
        "district": "Petrina",
        "street": "Rua Mauro de Souza Coutinho",
        "zipcode": "36900-322"
    },
    {
        "city": "Manhuaçu",
        "state": "MG",
        "district": "Petrina",
        "street": "Rua Mauá",
        "zipcode": "36900-301"
    },
    {
        "city": "Manhuaçu",
        "state": "MG",
        "district": "Engenho da Serra",
        "street": "Rua São Mateus",
        "zipcode": "36902-335"
    },
    {
        "city": "Manhuaçu",
        "state": "MG",
        "district": "São Vicente",
        "street": "Rua Marechal Mascarenhas de Morais",
        "zipcode": "36904-114"
    },
    {
        "city": "Manhuaçu",
        "state": "MG",
        "district": "Alfa Sul",
        "street": "Rua Professora Mary Pinto Coelho Campos",
        "zipcode": "36904-207"
    },
    {
        "city": "Manhuaçu",
        "state": "MG",
        "district": "Sagrada Família",
        "street": "Praça Martins Fraga",
        "zipcode": "36900-203"
    },
    {
        "city": "Manhuaçu",
        "state": "MG",
        "district": "Engenho da Serra",
        "street": "Vila Santa Marta",
        "zipcode": "36902-362"
    },
    {
        "city": "Manhuaçu",
        "state": "MG",
        "district": "Catuai",
        "street": "Rua Mário Nogueira da Gama",
        "zipcode": "36900-422"
    },
    {
        "city": "Manhuaçu",
        "state": "MG",
        "district": "Santa Luzia",
        "street": "Rua Maria Venâncio",
        "zipcode": "36906-084"
    },
    {
        "city": "Manhuaçu",
        "state": "MG",
        "district": "Engenho da Serra",
        "street": "Viela Maria José da Silva Souza",
        "zipcode": "36902-344"
    },
    {
        "city": "Manhuaçu",
        "state": "MG",
        "district": "São Vicente",
        "street": "Rua Maria Goreth Guimarães",
        "zipcode": "36904-144"
    },
    {
        "city": "Manhuaçu",
        "state": "MG",
        "district": "Recanto da Aldeia",
        "street": "Rua Maria de Souza Salazar",
        "zipcode": "36906-489"
    },
    {
        "city": "Manhuaçu",
        "state": "MG",
        "district": "Recanto da Aldeia",
        "street": "Rua Maria de Lourdes Salazar",
        "zipcode": "36906-483"
    },
    {
        "city": "Manhuaçu",
        "state": "MG",
        "district": "São Jorge",
        "street": "Rua Professora Maria Damasceno Bastos",
        "zipcode": "36904-422"
    },
    {
        "city": "Manhuaçu",
        "state": "MG",
        "district": "Sagrada Família",
        "street": "Rua Maria da Silva Miguel",
        "zipcode": "36900-230"
    },
    {
        "city": "Manhuaçu",
        "state": "MG",
        "district": "Recanto da Aldeia",
        "street": "Rua Maria da Penha Vargas Brandão",
        "zipcode": "36906-492"
    },
    {
        "city": "Manhuaçu",
        "state": "MG",
        "district": "São Vicente",
        "street": "Rua Maria da Glória Ribeiro",
        "zipcode": "36904-141"
    },
    {
        "city": "Manhuaçu",
        "state": "MG",
        "district": "Centro",
        "street": "Rua Maria Bracks Abi",
        "zipcode": "36900-097"
    },
    {
        "city": "Manhuaçu",
        "state": "MG",
        "district": "Sagrada Família",
        "street": "Travessa Maria Batista Viana",
        "zipcode": "36900-212"
    },
    {
        "city": "Manhuaçu",
        "state": "MG",
        "district": "Lajinha",
        "street": "Rua Maria Alves de Almeida Pires",
        "zipcode": "36906-168"
    },
    {
        "city": "Manhuaçu",
        "state": "MG",
        "district": "Engenho da Serra",
        "street": "Rua Maria Alexandrina",
        "zipcode": "36902-380"
    },
    {
        "city": "Manhuaçu",
        "state": "MG",
        "district": "Matinha",
        "street": "Rua São Marcos",
        "zipcode": "36902-191"
    },
    {
        "city": "Manhuaçu",
        "state": "MG",
        "district": "Santana",
        "street": "Rua Marcos Cerqueira Freitas",
        "zipcode": "36904-051"
    },
    {
        "city": "Manhuaçu",
        "state": "MG",
        "district": "Petrina",
        "street": "Rua Reverendo Marcolino Guimarães Lopes",
        "zipcode": "36900-319"
    },
    {
        "city": "Manhuaçu",
        "state": "MG",
        "district": "Bela Vista",
        "street": "Rua Marco Antônio Ribeiro",
        "zipcode": "36906-249"
    },
    {
        "city": "Manhuaçu",
        "state": "MG",
        "district": "Pinheiro",
        "street": "Rua Márcio José Campos",
        "zipcode": "36902-123"
    },
    {
        "city": "Manhuaçu",
        "state": "MG",
        "district": "Pinheiro",
        "street": "Rua Marcelo Bastos Pinheiro",
        "zipcode": "36902-075"
    },
    {
        "city": "Manhuaçu",
        "state": "MG",
        "district": "Todos os Santos",
        "street": "Rua Marcelino Guimarães Pinto",
        "zipcode": "36906-129"
    },
    {
        "city": "Manhuaçu",
        "state": "MG",
        "district": "Todos os Santos",
        "street": "Rua Manoel Pio dos Santos",
        "zipcode": "36906-132"
    },
    {
        "city": "Manhuaçu",
        "state": "MG",
        "district": "Santa Terezinha",
        "street": "Rua Manoel Martins Xavier",
        "zipcode": "36902-021"
    },
    {
        "city": "Manhuaçu",
        "state": "MG",
        "district": "Bom Pastor",
        "street": "Rua Manoel Martins Pinto",
        "zipcode": "36902-299"
    },
    {
        "city": "Manhuaçu",
        "state": "MG",
        "district": "Lajinha",
        "street": "Rua Manoel Jacob de Abreu",
        "zipcode": "36906-189"
    },
    {
        "city": "Manhuaçu",
        "state": "MG",
        "district": "Luciano Heringer",
        "street": "Rua Manoel Hott Gouveia",
        "zipcode": "36900-176"
    },
    {
        "city": "Manhuaçu",
        "state": "MG",
        "district": "Centro",
        "street": "Rua Professor Manoel do Carmo",
        "zipcode": "36900-064"
    },
    {
        "city": "Manhuaçu",
        "state": "MG",
        "district": "Vale Verde",
        "street": "Rua Manoel Coelho de Oliveira",
        "zipcode": "36906-339"
    },
    {
        "city": "Manhuaçu",
        "state": "MG",
        "district": "Bom Jardim",
        "street": "Rua Manoel Bento Dias",
        "zipcode": "36906-387"
    },
    {
        "city": "Manhuaçu",
        "state": "MG",
        "district": "Nossa Senhora Aparecida",
        "street": "Rua das Mangueiras",
        "zipcode": "36904-350"
    },
    {
        "city": "Manhuaçu",
        "state": "MG",
        "district": "Santa Luzia",
        "street": "Rua Santa Luzia",
        "zipcode": "36906-030"
    },
    {
        "city": "Manhuaçu",
        "state": "MG",
        "district": "Nossa Senhora Aparecida",
        "street": "Viela da Luz",
        "zipcode": "36904-296"
    },
    {
        "city": "Manhuaçu",
        "state": "MG",
        "district": "São Jorge",
        "street": "Rua Luizburgo",
        "zipcode": "36904-449"
    },
    {
        "city": "Manhuaçu",
        "state": "MG",
        "district": "São Jorge",
        "street": "Rua São Luiz",
        "zipcode": "36904-434"
    },
    {
        "city": "Manhuaçu",
        "state": "MG",
        "district": "Petrina",
        "street": "Rua Luiz Rodrigues Sette",
        "zipcode": "36900-310"
    },
    {
        "city": "Manhuaçu",
        "state": "MG",
        "district": "Baixada",
        "street": "Rua Capitão Luiz Quintino de Souza",
        "zipcode": "36902-042"
    },
    {
        "city": "Manhuaçu",
        "state": "MG",
        "district": "Bom Pastor",
        "street": "Rua Luiz Lino Valentin",
        "zipcode": "36902-263"
    },
    {
        "city": "Manhuaçu",
        "state": "MG",
        "district": "Centro",
        "street": "Rua Luiz Cerqueira",
        "zipcode": "36900-085"
    },
    {
        "city": "Manhuaçu",
        "state": "MG",
        "district": "Bom Pastor",
        "street": "Rua Luciana Ribeiro Pinheiro",
        "zipcode": "36902-281"
    },
    {
        "city": "Manhuaçu",
        "state": "MG",
        "district": "Engenho da Serra",
        "street": "Rua São Lucas",
        "zipcode": "36902-326"
    },
    {
        "city": "Manhuaçu",
        "state": "MG",
        "district": "Sagrada Família",
        "street": "Rua Levindo Rocha",
        "zipcode": "36900-209"
    },
    {
        "city": "Manhuaçu",
        "state": "MG",
        "district": "Pinheiro",
        "street": "Avenida Letícia Vargas Pinheiro",
        "zipcode": "36902-084"
    },
    {
        "city": "Manhuaçu",
        "state": "MG",
        "district": "Petrina",
        "street": "Rua Professora Leda Rocha",
        "zipcode": "36900-295"
    },
    {
        "city": "Manhuaçu",
        "state": "MG",
        "district": "Centro",
        "street": "Rua Leandro Gonçalves",
        "zipcode": "36900-109"
    },
    {
        "city": "Manhuaçu",
        "state": "MG",
        "district": "Sagrada Família",
        "street": "Rua Lauro Rocha",
        "zipcode": "36900-218"
    },
    {
        "city": "Manhuaçu",
        "state": "MG",
        "district": "Vale Verde",
        "street": "Rua Laura Maria Pimentel Alves Costa",
        "zipcode": "36906-336"
    },
    {
        "city": "Manhuaçu",
        "state": "MG",
        "district": "Vila Deolinda",
        "street": "Rua Laranjeiras",
        "zipcode": "36906-429"
    },
    {
        "city": "Manhuaçu",
        "state": "MG",
        "district": "Centro",
        "street": "Rua Lafayette Sabido",
        "zipcode": "36900-079"
    },
    {
        "city": "Manhuaçu",
        "state": "MG",
        "district": "Petrina",
        "street": "Rua Antônio Sellos",
        "zipcode": "36900-307"
    },
    {
        "city": "Manhuaçu",
        "state": "MG",
        "district": "Lajinha",
        "street": "Rua Antônio Sathler Sobrinho",
        "zipcode": "36906-165"
    },
    {
        "city": "Manhuaçu",
        "state": "MG",
        "district": "Nossa Senhora Aparecida",
        "street": "Rua Santo Antônio",
        "zipcode": "36904-281"
    },
    {
        "city": "Manhuaçu",
        "state": "MG",
        "district": "Petrina",
        "street": "Rua Antônio Romualdo da Silva",
        "zipcode": "36900-292"
    },
    {
        "city": "Manhuaçu",
        "state": "MG",
        "district": "Centro",
        "street": "Rua Antônio Rodrigues Lomeu",
        "zipcode": "36900-052"
    },
    {
        "city": "Manhuaçu",
        "state": "MG",
        "district": "Baixada",
        "street": "Rua Antônio Puppin",
        "zipcode": "36902-048"
    },
    {
        "city": "Manhuaçu",
        "state": "MG",
        "district": "Lajinha",
        "street": "Rua Antônio Maximiliano de Amorim",
        "zipcode": "36906-171"
    },
    {
        "city": "Manhuaçu",
        "state": "MG",
        "district": "Santo Antônio",
        "street": "Rua Antônio Júlio Pereira",
        "zipcode": "36900-148"
    },
    {
        "city": "Manhuaçu",
        "state": "MG",
        "district": "Centro",
        "street": "Rua Reverendo Antônio Godoy",
        "zipcode": "36900-094"
    },
    {
        "city": "Manhuaçu",
        "state": "MG",
        "district": "São Vicente",
        "street": "Rua Antônio de Pádua",
        "zipcode": "36904-117"
    },
    {
        "city": "Manhuaçu",
        "state": "MG",
        "district": "Colina",
        "street": "Rua Coronel Antônio de Miranda Sete",
        "zipcode": "36900-398"
    },
    {
        "city": "Manhuaçu",
        "state": "MG",
        "district": "Santa Luzia",
        "street": "Rua Antônio Cunha de Jesus",
        "zipcode": "36906-072"
    },
    {
        "city": "Manhuaçu",
        "state": "MG",
        "district": "Engenho da Serra",
        "street": "Rua Antônio Brandão Filho",
        "zipcode": "36902-389"
    },
    {
        "city": "Manhuaçu",
        "state": "MG",
        "district": "Alfa Sul",
        "street": "Rua Antônio Barbosa dos Santos",
        "zipcode": "36904-213"
    },
    {
        "city": "Manhuaçu",
        "state": "MG",
        "district": "Luciano Heringer",
        "street": "Travessa Angelina Muniz",
        "zipcode": "36900-179"
    },
    {
        "city": "Manhuaçu",
        "state": "MG",
        "district": "Todos os Santos",
        "street": "Rua Angelina Cândida Amorim",
        "zipcode": "36906-138"
    },
    {
        "city": "Manhuaçu",
        "state": "MG",
        "district": "Alfa Sul",
        "street": "Rua Ângela Maria de Morais",
        "zipcode": "36904-159"
    },
    {
        "city": "Manhuaçu",
        "state": "MG",
        "district": "Pinheiro",
        "street": "Rua Andreza Filgueira Batista",
        "zipcode": "36902-087"
    },
    {
        "city": "Manhuaçu",
        "state": "MG",
        "district": "Ponte da Aldeia",
        "street": "Rua dos Andrades",
        "zipcode": "36906-452"
    },
    {
        "city": "Manhuaçu",
        "state": "MG",
        "district": "Bom Jardim",
        "street": "Rua Anália Maria Dias",
        "zipcode": "36906-393"
    },
    {
        "city": "Manhuaçu",
        "state": "MG",
        "district": "Santa Luzia",
        "street": "Travessa Anacir Alves Moreira",
        "zipcode": "36906-105"
    },
    {
        "city": "Manhuaçu",
        "state": "MG",
        "district": "Nossa Senhora Aparecida",
        "street": "Rua Ana Rosa Ribeiro",
        "zipcode": "36904-257"
    },
    {
        "city": "Manhuaçu",
        "state": "MG",
        "district": "Nossa Senhora Aparecida",
        "street": "Viela Ana Lima da Silva",
        "zipcode": "36904-248"
    },
    {
        "city": "Manhuaçu",
        "state": "MG",
        "district": "Santana",
        "street": "Rua Ana Fraga Mendonça",
        "zipcode": "36904-012"
    },
    {
        "city": "Manhuaçu",
        "state": "MG",
        "district": "Nossa Senhora Aparecida",
        "street": "Viela da Amizade",
        "zipcode": "36904-263"
    },
    {
        "city": "Manhuaçu",
        "state": "MG",
        "district": "Centro",
        "street": "Rua Amintas Campos",
        "zipcode": "36900-058"
    },
    {
        "city": "Manhuaçu",
        "state": "MG",
        "district": "Santana",
        "street": "Rua Américo Fernandes",
        "zipcode": "36904-018"
    },
    {
        "city": "Manhuaçu",
        "state": "MG",
        "district": "Nossa Senhora Aparecida",
        "street": "Rua das Amêndoas",
        "zipcode": "36904-365"
    },
    {
        "city": "Manhuaçu",
        "state": "MG",
        "district": "São Jorge",
        "street": "Rua Santo Amaro",
        "zipcode": "36904-416"
    },
    {
        "city": "Manhuaçu",
        "state": "MG",
        "district": "Centro",
        "street": "Rua Amaral Francisco",
        "zipcode": "36900-034"
    },
    {
        "city": "Manhuaçu",
        "state": "MG",
        "district": "Santo Antônio",
        "street": "Rua Altivo Veras",
        "zipcode": "36900-145"
    },
    {
        "city": "Manhuaçu",
        "state": "MG",
        "district": "Alfa Sul",
        "street": "Rua Altivo Estanislau",
        "zipcode": "36904-156"
    },
    {
        "city": "Manhuaçu",
        "state": "MG",
        "district": "Nossa Senhora Aparecida",
        "street": "Rua Altevir Loubak",
        "zipcode": "36904-275"
    },
    {
        "city": "Manhuaçu",
        "state": "MG",
        "district": "Pinheiro",
        "street": "Rua Prefeito Altamir Moreira Garcia",
        "zipcode": "36902-081"
    },
    {
        "city": "Manhuaçu",
        "state": "MG",
        "district": "Catuai",
        "street": "Rua Altair da Cruz Reis",
        "zipcode": "36900-410"
    },
    {
        "city": "Manhuaçu",
        "state": "MG",
        "district": "Santa Terezinha",
        "street": "Rua Altair Antônio Ferreira",
        "zipcode": "36902-009"
    },
    {
        "city": "Manhuaçu",
        "state": "MG",
        "district": "Centro",
        "street": "Rua Desembargador Alonso Starling",
        "zipcode": "36900-055"
    },
    {
        "city": "Manhuaçu",
        "state": "MG",
        "district": "Catuai",
        "street": "Rua Almerinda Araújo da Silveira",
        "zipcode": "36900-413"
    },
    {
        "city": "Manhuaçu",
        "state": "MG",
        "district": "Petrina",
        "street": "Rua Alício Roberto",
        "zipcode": "36900-313"
    },
    {
        "city": "Manhuaçu",
        "state": "MG",
        "district": "São Vicente",
        "street": "Rua Alice Dias",
        "zipcode": "36904-135"
    },
    {
        "city": "Manhuaçu",
        "state": "MG",
        "district": "Lajinha",
        "street": "Rua Alfredo Gonçalves Cruz",
        "zipcode": "36906-162"
    },
    {
        "city": "Manhuaçu",
        "state": "MG",
        "district": "Vale Verde",
        "street": "Rua Alfredino Sette",
        "zipcode": "36906-333"
    },
    {
        "city": "Manhuaçu",
        "state": "MG",
        "district": "Centro",
        "street": "Rua Alencar Soares Vargas",
        "zipcode": "36900-037"
    },
    {
        "city": "Manhuaçu",
        "state": "MG",
        "district": "São Jorge",
        "street": "Rua Alda Policarpo Silva",
        "zipcode": "36904-404"
    },
    {
        "city": "Manhuaçu",
        "state": "MG",
        "district": "São Vicente",
        "street": "Rua Alcino Salazar",
        "zipcode": "36904-123"
    },
    {
        "city": "Manhuaçu",
        "state": "MG",
        "district": "Centro",
        "street": "Rua Alceste Nogueira da Gama",
        "zipcode": "36900-082"
    },
    {
        "city": "Manhuaçu",
        "state": "MG",
        "district": "Santana",
        "street": "Rua Coronel Alberto Pinto Coelho",
        "zipcode": "36904-015"
    },
    {
        "city": "Manhuaçu",
        "state": "MG",
        "district": "Vale Verde",
        "street": "Rua Albertino da Silva Resende",
        "zipcode": "36906-348"
    },
    {
        "city": "Manhuaçu",
        "state": "MG",
        "district": "Pouso Alegre",
        "street": "Avenida Ailton Alves dos Santos",
        "zipcode": "36904-082"
    },
    {
        "city": "Manhuaçu",
        "state": "MG",
        "district": "Santa Terezinha",
        "street": "Rua Santo Agostinho",
        "zipcode": "36902-006"
    },
    {
        "city": "Manhuaçu",
        "state": "MG",
        "district": "Nossa Senhora Aparecida",
        "street": "Praça Agostinho Marcolino",
        "zipcode": "36904-311"
    },
    {
        "city": "Manhuaçu",
        "state": "MG",
        "district": "Coqueiro",
        "street": "Rua Agostinho Borela",
        "zipcode": "36900-359"
    },
    {
        "city": "Manhuaçu",
        "state": "MG",
        "district": "Ponte da Aldeia",
        "street": "Avenida Agenor de Paula Salazar",
        "zipcode": "36906-470"
    },
    {
        "city": "Manhuaçu",
        "state": "MG",
        "district": "Santo Antônio",
        "street": "Rua Agenor Bento Salgado",
        "zipcode": "36900-151"
    },
    {
        "city": "Manhuaçu",
        "state": "MG",
        "district": "Bom Pastor",
        "street": "Rua Coronel Afonso Henrique de Albuquerque",
        "zipcode": "36902-314"
    },
    {
        "city": "Manhuaçu",
        "state": "MG",
        "district": "Ponte da Aldeia",
        "street": "Rua Padre Afonso Hansh",
        "zipcode": "36906-443"
    },
    {
        "city": "Manhuaçu",
        "state": "MG",
        "district": "Centro",
        "street": "Rua Afonso Augusto Pereira",
        "zipcode": "36900-013"
    },
    {
        "city": "Manhuaçu",
        "state": "MG",
        "district": "Engenho da Serra",
        "street": "Rua Adrelino Marques",
        "zipcode": "36902-398"
    },
    {
        "city": "Manhuaçu",
        "state": "MG",
        "district": "Santo Antônio",
        "street": "Rua Professora Adelice Vargas",
        "zipcode": "36900-154"
    },
    {
        "city": "Manhuaçu",
        "state": "MG",
        "district": "Engenho da Serra",
        "street": "Rua Abalen Chibel Nacif",
        "zipcode": "36902-377"
    },
    {
        "city": "Manhuaçu",
        "state": "MG",
        "district": "Cidade Nova",
        "street": "Rua A",
        "zipcode": "36906-303"
    },
    {
        "city": "Manhuaçu",
        "state": "MG",
        "district": "Residencial Bulinga",
        "street": "Rua A",
        "zipcode": "36904-060"
    },
    {
        "city": "Manhuaçu",
        "state": "MG",
        "district": "Santana",
        "street": "Avenida Doutor Jorge Hannas",
        "zipcode": "36904-970"
    },
    {
        "city": "Manhuaçu",
        "state": "MG",
        "district": "Baixada",
        "street": "Avenida Salime Nacif",
        "zipcode": "36902-970"
    },
    {
        "city": "Manhuaçu",
        "state": "MG",
        "district": "Centro",
        "street": "Avenida Doutor Jorge Hannas",
        "zipcode": "36900-001"
    },
    {
        "city": "Manhuaçu",
        "state": "MG",
        "district": "Coqueiro",
        "street": "Rua Bento Alves Costa",
        "zipcode": "36900-362"
    },
    {
        "city": "Manhuaçu",
        "state": "MG",
        "district": "Alfa Sul",
        "street": "Rua Benedito Von Rondow",
        "zipcode": "36904-198"
    },
    {
        "city": "Manhuaçu",
        "state": "MG",
        "district": "Luciano Heringer",
        "street": "Rua Benedito Ribeiro Lins",
        "zipcode": "36900-182"
    },
    {
        "city": "Manhuaçu",
        "state": "MG",
        "district": "Sagrada Família",
        "street": "Avenida Belo Horizonte",
        "zipcode": "36900-215"
    },
    {
        "city": "Manhuaçu",
        "state": "MG",
        "district": "Nossa Senhora Aparecida",
        "street": "Avenida Belmiro Brum",
        "zipcode": "36904-272"
    },
    {
        "city": "Manhuaçu",
        "state": "MG",
        "district": "Nossa Senhora Aparecida",
        "street": "Rua Bela Vista",
        "zipcode": "36904-305"
    },
    {
        "city": "Manhuaçu",
        "state": "MG",
        "district": "Bom Jardim",
        "street": "Rua Beira Rio",
        "zipcode": "36906-408"
    },
    {
        "city": "Manhuaçu",
        "state": "MG",
        "district": "Santa Terezinha",
        "street": "Rua Beira Mata",
        "zipcode": "36902-003"
    },
    {
        "city": "Manhuaçu",
        "state": "MG",
        "district": "Centro",
        "street": "Rua Raimundo Gabriel da Fonseca s/n",
        "zipcode": "36900-976"
    },
    {
        "city": "Manhuaçu",
        "state": "MG",
        "district": "Centro",
        "street": "Praça Cinco de Novembro 405",
        "zipcode": "36900-970"
    },
    {
        "city": "Manhuaçu",
        "state": "MG",
        "district": "Centro",
        "street": "Avenida Salime Nacif 592",
        "zipcode": "36900-974"
    },
    {
        "city": "Manhuaçu",
        "state": "MG",
        "district": "Centro",
        "street": "Rua Principal s/n",
        "zipcode": "36900-977"
    },
    {
        "city": "Manhuaçu",
        "state": "MG",
        "district": "Centro",
        "street": "Avenida Miguel Arcanjo Brandão s/n",
        "zipcode": "36906-972"
    },
    {
        "city": "Manhuaçu",
        "state": "MG",
        "district": "Centro",
        "street": "Rua Silvério Dutra 70",
        "zipcode": "36908-971"
    },
    {
        "city": "Manhuaçu",
        "state": "MG",
        "district": "Santo Antônio",
        "street": "Rua Antônio Wellerson 606",
        "zipcode": "36900-972"
    },
    {
        "city": "Manhuaçu",
        "state": "MG",
        "district": "",
        "street": "",
        "zipcode": "36900-000"
    },
    {
        "city": "Manhuaçu",
        "state": "MG",
        "district": "Dom Corrêa",
        "street": "Rua Antonio Medeiros de Castro s/n",
        "zipcode": "36900-975"
    },
    {
        "city": "Manhuaçu",
        "state": "MG",
        "district": "Santana",
        "street": "Avenida Doutor Jorge Hannas 67",
        "zipcode": "36900-971"
    }
]