[
    {
        "city": "Monte Carmelo",
        "state": "MG",
        "district": null,
        "street": null,
        "zipcode": "38500-000"
    },
    {
        "city": "Monte Carmelo",
        "state": "MG",
        "district": "Centro",
        "street": "Rua São Sebastião 194",
        "zipcode": "38500-978"
    },
    {
        "city": "Monte Carmelo",
        "state": "MG",
        "district": "Buritis",
        "street": "Rua Principal s/n",
        "zipcode": "38500-974"
    },
    {
        "city": "Monte Carmelo",
        "state": "MG",
        "district": "Centro",
        "street": "Praça da Igreja s/n",
        "zipcode": "38500-979"
    },
    {
        "city": "Monte Carmelo",
        "state": "MG",
        "district": "Centro",
        "street": "Praça Afonso Pena 37",
        "zipcode": "38500-970"
    },
    {
        "city": "Monte Carmelo",
        "state": "MG",
        "district": "Centro",
        "street": "Praça Afonso Pena 37",
        "zipcode": "38500-976"
    },
    {
        "city": "Monte Carmelo",
        "state": "MG",
        "district": "Celso Bueno",
        "street": "Rua São Sebastião 55",
        "zipcode": "38500-972"
    },
    {
        "city": "Monte Carmelo",
        "state": "MG",
        "district": "Centro",
        "street": "Praça Osvaldo Cruz 87",
        "zipcode": "38500-971"
    }
]