[
    {
        "city": "Muriaé",
        "state": "MG",
        "district": "União",
        "street": "Travessa José Passos de Oliveira",
        "zipcode": "36888-068"
    },
    {
        "city": "Muriaé",
        "state": "MG",
        "district": "Centro",
        "street": "Rua Doutor Gabriel de Oliveira Passos",
        "zipcode": "36880-014"
    },
    {
        "city": "Muriaé",
        "state": "MG",
        "district": "João VI",
        "street": "Rua Luiz Cláudio de Oliveira",
        "zipcode": "36883-244"
    },
    {
        "city": "Muriaé",
        "state": "MG",
        "district": "Napoleão",
        "street": "Rua Isaura Napoleão Magalhães",
        "zipcode": "36887-085"
    },
    {
        "city": "Muriaé",
        "state": "MG",
        "district": "Barra",
        "street": "Rua Doutor Antônio Francisco",
        "zipcode": "36884-010"
    },
    {
        "city": "Muriaé",
        "state": "MG",
        "district": "Bom Pastor",
        "street": "Rua Luiz Cláudio de Oliveira",
        "zipcode": "36887-182"
    },
    {
        "city": "Muriaé",
        "state": "MG",
        "district": "Planalto",
        "street": "Rua Ângelo Tureta",
        "zipcode": "36883-146"
    },
    {
        "city": "Muriaé",
        "state": "MG",
        "district": "José Cirilo",
        "street": "Avenida Altino Rodrigues Pereira",
        "zipcode": "36886-009"
    },
    {
        "city": "Muriaé",
        "state": "MG",
        "district": "Centro",
        "street": "Rua José Rodrigues Marthos",
        "zipcode": "36880-107"
    },
    {
        "city": "Muriaé",
        "state": "MG",
        "district": "Gávea",
        "street": "Rua Wilson Frutuoso Braga 16",
        "zipcode": "36880-974"
    },
    {
        "city": "Muriaé",
        "state": "MG",
        "district": "Santo Antônio",
        "street": "Rua Vereador José Messias Soares",
        "zipcode": "36881-111"
    },
    {
        "city": "Muriaé",
        "state": "MG",
        "district": "Barra",
        "street": "Avenida Doutor Passos",
        "zipcode": "36884-002"
    },
    {
        "city": "Muriaé",
        "state": "MG",
        "district": "Barra",
        "street": "Rua Sebastião Teixeira",
        "zipcode": "36884-060"
    },
    {
        "city": "Muriaé",
        "state": "MG",
        "district": "Dornelas",
        "street": "Rua Vila Valentim",
        "zipcode": "36884-204"
    },
    {
        "city": "Muriaé",
        "state": "MG",
        "district": "Porto",
        "street": "Rua Dom Pedro II",
        "zipcode": "36889-236"
    },
    {
        "city": "Muriaé",
        "state": "MG",
        "district": "Barra",
        "street": "Alameda Antônio Luzia",
        "zipcode": "36884-073"
    },
    {
        "city": "Muriaé",
        "state": "MG",
        "district": "Santa Terezinha",
        "street": "Rua Viçosa",
        "zipcode": "36889-287"
    },
    {
        "city": "Muriaé",
        "state": "MG",
        "district": "São Pedro",
        "street": "Rua Cândida Guedes Pereira",
        "zipcode": "36889-158"
    },
    {
        "city": "Muriaé",
        "state": "MG",
        "district": "Centro",
        "street": "Rua Maestro João de Souza",
        "zipcode": "36880-054"
    },
    {
        "city": "Muriaé",
        "state": "MG",
        "district": "Santa Terezinha",
        "street": "Rua Muriaé",
        "zipcode": "36889-275"
    },
    {
        "city": "Muriaé",
        "state": "MG",
        "district": "Boa Esperança",
        "street": "Rua Professora Jorcemira de Freitas Guedes",
        "zipcode": "36889-079"
    },
    {
        "city": "Muriaé",
        "state": "MG",
        "district": "São Pedro",
        "street": "Rua São João",
        "zipcode": "36889-168"
    },
    {
        "city": "Muriaé",
        "state": "MG",
        "district": "Coronel Izalino",
        "street": "Rua Mário Rodrigues Costa",
        "zipcode": "36889-003"
    },
    {
        "city": "Muriaé",
        "state": "MG",
        "district": "João XXIII",
        "street": "Rua Francisco Vicente Moreira",
        "zipcode": "36883-197"
    },
    {
        "city": "Muriaé",
        "state": "MG",
        "district": "Centro",
        "street": "Alameda São José",
        "zipcode": "36880-021"
    },
    {
        "city": "Muriaé",
        "state": "MG",
        "district": "Quinta das Flores",
        "street": "Alameda Alamandas",
        "zipcode": "36880-143"
    },
    {
        "city": "Muriaé",
        "state": "MG",
        "district": "Centro",
        "street": "Rua Alfredo Bicalho",
        "zipcode": "36880-022"
    },
    {
        "city": "Muriaé",
        "state": "MG",
        "district": "Centro",
        "street": "Praça do Rosário",
        "zipcode": "36880-039"
    },
    {
        "city": "Muriaé",
        "state": "MG",
        "district": "Centro",
        "street": "Rua Barão do Monte Alto",
        "zipcode": "36880-018"
    },
    {
        "city": "Muriaé",
        "state": "MG",
        "district": "Centro",
        "street": "Rua Coronel Marciano Rodrigues",
        "zipcode": "36880-027"
    },
    {
        "city": "Muriaé",
        "state": "MG",
        "district": "Centro",
        "street": "Rua Capitão José Justino",
        "zipcode": "36880-029"
    },
    {
        "city": "Muriaé",
        "state": "MG",
        "district": "Centro",
        "street": "Rua Egidio Porcaro",
        "zipcode": "36880-097"
    },
    {
        "city": "Muriaé",
        "state": "MG",
        "district": "Centro",
        "street": "Rua Coronel Pereira Sobrinho",
        "zipcode": "36880-041"
    },
    {
        "city": "Muriaé",
        "state": "MG",
        "district": "Porto Belo",
        "street": "Rua Cleide Pereira Cardozo",
        "zipcode": "36889-203"
    },
    {
        "city": "Muriaé",
        "state": "MG",
        "district": "Centro",
        "street": "Rua Eudóxia Canêdo",
        "zipcode": "36880-031"
    },
    {
        "city": "Muriaé",
        "state": "MG",
        "district": "Centro",
        "street": "Rua Doutor Otávio Tibúrcio Ferreira",
        "zipcode": "36880-045"
    },
    {
        "city": "Muriaé",
        "state": "MG",
        "district": "Gaspar",
        "street": "Rua Francisco Antenor de Paula",
        "zipcode": "36888-094"
    },
    {
        "city": "Muriaé",
        "state": "MG",
        "district": "Centro",
        "street": "Rua Sebastião Abrantes",
        "zipcode": "36880-025"
    },
    {
        "city": "Muriaé",
        "state": "MG",
        "district": "Centro",
        "street": "Travessa Paschoal e Júlia",
        "zipcode": "36880-037"
    },
    {
        "city": "Muriaé",
        "state": "MG",
        "district": "Centro",
        "street": "Rua Itamuri",
        "zipcode": "36880-046"
    },
    {
        "city": "Muriaé",
        "state": "MG",
        "district": "Padre Tiago",
        "street": "Rua Jericó",
        "zipcode": "36889-420"
    },
    {
        "city": "Muriaé",
        "state": "MG",
        "district": "Quinta das Flores",
        "street": "Alameda Petúnias",
        "zipcode": "36880-149"
    },
    {
        "city": "Muriaé",
        "state": "MG",
        "district": "São Francisco",
        "street": "Rua Adrião Badaró",
        "zipcode": "36881-049"
    },
    {
        "city": "Muriaé",
        "state": "MG",
        "district": "Gaspar",
        "street": "Rua Alvorada",
        "zipcode": "36888-135"
    },
    {
        "city": "Muriaé",
        "state": "MG",
        "district": "Planalto",
        "street": "Rua Aristoteles Rodrigues Ferreira",
        "zipcode": "36883-136"
    },
    {
        "city": "Muriaé",
        "state": "MG",
        "district": "Santana",
        "street": "Rua Artur Mar da Silva",
        "zipcode": "36887-128"
    },
    {
        "city": "Muriaé",
        "state": "MG",
        "district": "Centro",
        "street": "Rua Coronel Izalino",
        "zipcode": "36880-103"
    },
    {
        "city": "Muriaé",
        "state": "MG",
        "district": "Santa Terezinha",
        "street": "Rua Coronel Pereira Sobrinho",
        "zipcode": "36889-268"
    },
    {
        "city": "Muriaé",
        "state": "MG",
        "district": "São Cristovão",
        "street": "Rua Carlos Dias Goes",
        "zipcode": "36889-304"
    },
    {
        "city": "Muriaé",
        "state": "MG",
        "district": "Porto",
        "street": "Rua Coronel Pereira Sobrinho",
        "zipcode": "36889-226"
    },
    {
        "city": "Muriaé",
        "state": "MG",
        "district": "São Cristovão",
        "street": "Rua Etiópia",
        "zipcode": "36889-318"
    },
    {
        "city": "Muriaé",
        "state": "MG",
        "district": "Centro",
        "street": "Rua Desembargador Canedo",
        "zipcode": "36880-078"
    },
    {
        "city": "Muriaé",
        "state": "MG",
        "district": "Centro",
        "street": "Rua Doutor Silveira Brum",
        "zipcode": "36880-071"
    },
    {
        "city": "Muriaé",
        "state": "MG",
        "district": "Santana",
        "street": "Rua João Vicente",
        "zipcode": "36887-114"
    },
    {
        "city": "Muriaé",
        "state": "MG",
        "district": "Chalé",
        "street": "Rua Maria de Lourdes Miranda",
        "zipcode": "36889-380"
    },
    {
        "city": "Muriaé",
        "state": "MG",
        "district": "Inconfidência",
        "street": "Rua João Salvato",
        "zipcode": "36889-402"
    },
    {
        "city": "Muriaé",
        "state": "MG",
        "district": "Vale Verde",
        "street": "Rua Monte Alegre",
        "zipcode": "36889-469"
    },
    {
        "city": "Muriaé",
        "state": "MG",
        "district": "Santa Laura",
        "street": "Rua Nadir Silva Machado",
        "zipcode": "36889-521"
    },
    {
        "city": "Muriaé",
        "state": "MG",
        "district": "Porto",
        "street": "Rua Maria Pacheco",
        "zipcode": "36889-224"
    },
    {
        "city": "Muriaé",
        "state": "MG",
        "district": "Santa Terezinha",
        "street": "Rua Laranjal",
        "zipcode": "36889-283"
    },
    {
        "city": "Muriaé",
        "state": "MG",
        "district": "São Joaquim",
        "street": "Rua Petronela Guilherme",
        "zipcode": "36886-099"
    },
    {
        "city": "Muriaé",
        "state": "MG",
        "district": "São Cristovão",
        "street": "Rua São Cristóvão",
        "zipcode": "36889-342"
    },
    {
        "city": "Muriaé",
        "state": "MG",
        "district": "Santa Terezinha",
        "street": "Rua Quenta Sol",
        "zipcode": "36889-269"
    },
    {
        "city": "Muriaé",
        "state": "MG",
        "district": "Santa Laura",
        "street": "Rua Fernando José da Costa",
        "zipcode": "36889-524"
    },
    {
        "city": "Muriaé",
        "state": "MG",
        "district": "Edgar Miranda",
        "street": "Rua Melo Franco",
        "zipcode": "36889-376"
    },
    {
        "city": "Muriaé",
        "state": "MG",
        "district": "São Francisco",
        "street": "Rua Izon Dias Duarte",
        "zipcode": "36881-048"
    },
    {
        "city": "Muriaé",
        "state": "MG",
        "district": "Safira",
        "street": "Rua Olinda Pereira Rosa",
        "zipcode": "36883-058"
    },
    {
        "city": "Muriaé",
        "state": "MG",
        "district": "Barra",
        "street": "Rua Farmacêutico Álvaro de Castro",
        "zipcode": "36884-012"
    },
    {
        "city": "Muriaé",
        "state": "MG",
        "district": "João XXIII",
        "street": "Rua Maximiano Fraga",
        "zipcode": "36883-226"
    },
    {
        "city": "Muriaé",
        "state": "MG",
        "district": "Cerâmica",
        "street": "Rua Dejair Dias de Carvalho",
        "zipcode": "36883-000"
    },
    {
        "city": "Muriaé",
        "state": "MG",
        "district": "Santa Terezinha",
        "street": "Rua Juiz de Fora",
        "zipcode": "36889-262"
    },
    {
        "city": "Muriaé",
        "state": "MG",
        "district": "Safira",
        "street": "Rua Silas Macêdo",
        "zipcode": "36883-069"
    },
    {
        "city": "Muriaé",
        "state": "MG",
        "district": "Barra",
        "street": "Rua Zita Vasconcelos",
        "zipcode": "36884-037"
    },
    {
        "city": "Muriaé",
        "state": "MG",
        "district": "Alto do Castelo",
        "street": "Avenida Bruno Sales Abreu",
        "zipcode": "36881-094"
    },
    {
        "city": "Muriaé",
        "state": "MG",
        "district": "Primavera",
        "street": "Alameda das Quaresmeiras",
        "zipcode": "36880-254"
    },
    {
        "city": "Muriaé",
        "state": "MG",
        "district": "Gaspar",
        "street": "Alameda José Mariano Machado",
        "zipcode": "36888-097"
    },
    {
        "city": "Muriaé",
        "state": "MG",
        "district": "Centro",
        "street": "Avenida Maestro Sansão",
        "zipcode": "36880-002"
    },
    {
        "city": "Muriaé",
        "state": "MG",
        "district": "Centro",
        "street": "Avenida Constantino Pinto",
        "zipcode": "36880-003"
    },
    {
        "city": "Muriaé",
        "state": "MG",
        "district": "Centro",
        "street": "Avenida Presidente Juscelino Kubitschek",
        "zipcode": "36880-017"
    },
    {
        "city": "Muriaé",
        "state": "MG",
        "district": "Barra",
        "street": "Avenida Coronel Monteiro de Castro",
        "zipcode": "36884-013"
    },
    {
        "city": "Muriaé",
        "state": "MG",
        "district": "Safira",
        "street": "Avenida Silvério Campos",
        "zipcode": "36883-033"
    },
    {
        "city": "Muriaé",
        "state": "MG",
        "district": "Boa Vista",
        "street": "Rua Alfredo Pedro Carneiro",
        "zipcode": "36888-001"
    },
    {
        "city": "Muriaé",
        "state": "MG",
        "district": "Gaspar",
        "street": "Rua Anna Josepha Corrêa",
        "zipcode": "36888-122"
    },
    {
        "city": "Muriaé",
        "state": "MG",
        "district": "Santa Luzia",
        "street": "Rua Avelino Francisco Peixoto",
        "zipcode": "36888-199"
    },
    {
        "city": "Muriaé",
        "state": "MG",
        "district": "Vale do Castelo",
        "street": "Rua Aquilino de Oliveira e Silva",
        "zipcode": "36881-062"
    },
    {
        "city": "Muriaé",
        "state": "MG",
        "district": "Centro",
        "street": "Rua Coronel Domiciano",
        "zipcode": "36880-013"
    },
    {
        "city": "Muriaé",
        "state": "MG",
        "district": "José Cirilo",
        "street": "Rua Cornélio Henriques de Almeida",
        "zipcode": "36886-002"
    },
    {
        "city": "Muriaé",
        "state": "MG",
        "district": "Santo Antônio",
        "street": "Rua Custódio Dornelas Sodré",
        "zipcode": "36881-114"
    },
    {
        "city": "Muriaé",
        "state": "MG",
        "district": "Centro",
        "street": "Praça José Henrique Hastenreiter",
        "zipcode": "36880-006"
    },
    {
        "city": "Muriaé",
        "state": "MG",
        "district": "Chácara Doutor Brum",
        "street": "Avenida Nelson Sigiliano Gomes",
        "zipcode": "36889-040"
    },
    {
        "city": "Muriaé",
        "state": "MG",
        "district": "Centro",
        "street": "Rua Efigênia Freitas da Silva",
        "zipcode": "36880-019"
    },
    {
        "city": "Muriaé",
        "state": "MG",
        "district": "Boa Vista",
        "street": "Rua Gerazina Paulina Mattos",
        "zipcode": "36888-016"
    },
    {
        "city": "Muriaé",
        "state": "MG",
        "district": "Bom Pastor",
        "street": "Rua Gertrudes Pereira Leal",
        "zipcode": "36887-172"
    },
    {
        "city": "Muriaé",
        "state": "MG",
        "district": "São José",
        "street": "Rua Eduardo Pinto da Silva",
        "zipcode": "36887-008"
    },
    {
        "city": "Muriaé",
        "state": "MG",
        "district": "Centro",
        "street": "Rua José Borges Abrantes",
        "zipcode": "36880-063"
    },
    {
        "city": "Muriaé",
        "state": "MG",
        "district": "Centro",
        "street": "Rua Natal Tanus Xaia",
        "zipcode": "36880-066"
    },
    {
        "city": "Muriaé",
        "state": "MG",
        "district": "São Gotardo",
        "street": "Rua Professora Zirlene Aparecida de Carvalho",
        "zipcode": "36880-212"
    },
    {
        "city": "Muriaé",
        "state": "MG",
        "district": "Santana",
        "street": "Rua Rodrigo de Almeida",
        "zipcode": "36887-104"
    },
    {
        "city": "Muriaé",
        "state": "MG",
        "district": "Gaspar",
        "street": "Rua Primeiro de Maio",
        "zipcode": "36888-121"
    },
    {
        "city": "Muriaé",
        "state": "MG",
        "district": "Napoleão",
        "street": "Rua Palmeiras",
        "zipcode": "36887-070"
    },
    {
        "city": "Muriaé",
        "state": "MG",
        "district": "Centro",
        "street": "Vila Jorge Cerqueira",
        "zipcode": "36880-007"
    },
    {
        "city": "Muriaé",
        "state": "MG",
        "district": "Centro",
        "street": "Vila Kátia",
        "zipcode": "36880-011"
    },
    {
        "city": "Muriaé",
        "state": "MG",
        "district": "Santa Terezinha",
        "street": "Travessa Dorvalina Vitória dos Santos Silva",
        "zipcode": "36889-294"
    },
    {
        "city": "Muriaé",
        "state": "MG",
        "district": "União",
        "street": "Travessa Maria das Graças Carvalho Freitas",
        "zipcode": "36888-062"
    },
    {
        "city": "Muriaé",
        "state": "MG",
        "district": "Barra",
        "street": "Rua Wantuil Ferreira Muniz",
        "zipcode": "36884-040"
    },
    {
        "city": "Muriaé",
        "state": "MG",
        "district": "Barra",
        "street": "Rua Simeão Feres",
        "zipcode": "36884-053"
    },
    {
        "city": "Muriaé",
        "state": "MG",
        "district": "Colety",
        "street": "Rua Jório Cavalcanti de Andrade",
        "zipcode": "36880-196"
    },
    {
        "city": "Muriaé",
        "state": "MG",
        "district": "José Cirilo",
        "street": "Rua Delfim Macedo",
        "zipcode": "36886-015"
    },
    {
        "city": "Muriaé",
        "state": "MG",
        "district": "Barra",
        "street": "Rua Sebastião José da Silva",
        "zipcode": "36884-106"
    },
    {
        "city": "Muriaé",
        "state": "MG",
        "district": "Planalto",
        "street": "Rua Maria Celeste Correa do Prado",
        "zipcode": "36883-148"
    },
    {
        "city": "Muriaé",
        "state": "MG",
        "district": "Colety",
        "street": "Rua José Máximo Ribeiro",
        "zipcode": "36880-180"
    },
    {
        "city": "Muriaé",
        "state": "MG",
        "district": "Dornelas",
        "street": "Rua Joaquim Floriano",
        "zipcode": "36884-184"
    },
    {
        "city": "Muriaé",
        "state": "MG",
        "district": "Santo Antônio",
        "street": "Vila Antônio Luiz Soares",
        "zipcode": "36881-125"
    },
    {
        "city": "Muriaé",
        "state": "MG",
        "district": "Centro",
        "street": "Rua Oneida Passos",
        "zipcode": "36880-009"
    },
    {
        "city": "Muriaé",
        "state": "MG",
        "district": "Santo Antônio",
        "street": "Travessa Edmundo Nunes",
        "zipcode": "36881-141"
    },
    {
        "city": "Muriaé",
        "state": "MG",
        "district": "Barra",
        "street": "Travessa Simeão Feres",
        "zipcode": "36884-064"
    },
    {
        "city": "Muriaé",
        "state": "MG",
        "district": "João VI",
        "street": "Vila Proteus",
        "zipcode": "36883-264"
    },
    {
        "city": "Muriaé",
        "state": "MG",
        "district": "Dornelas",
        "street": "Rua São Dimas",
        "zipcode": "36884-216"
    },
    {
        "city": "Muriaé",
        "state": "MG",
        "district": "Barra",
        "street": "Travessa William Adson Matos",
        "zipcode": "36884-076"
    },
    {
        "city": "Muriaé",
        "state": "MG",
        "district": null,
        "street": null,
        "zipcode": "36880-000"
    },
    {
        "city": "Muriaé",
        "state": "MG",
        "district": "Centro",
        "street": "Praça Coronel Pacheco de Medeiros 260",
        "zipcode": "36880-970"
    },
    {
        "city": "Muriaé",
        "state": "MG",
        "district": "Barra",
        "street": "Rua Itagiba de Oliveira 16",
        "zipcode": "36880-971"
    },
    {
        "city": "Muriaé",
        "state": "MG",
        "district": "Primavera",
        "street": "Alameda dos Resedas",
        "zipcode": "36880-252"
    },
    {
        "city": "Muriaé",
        "state": "MG",
        "district": "Quinta das Flores",
        "street": "Alameda dos Lírios",
        "zipcode": "36880-155"
    },
    {
        "city": "Muriaé",
        "state": "MG",
        "district": "Primavera",
        "street": "Alameda dos Oitis",
        "zipcode": "36880-272"
    },
    {
        "city": "Muriaé",
        "state": "MG",
        "district": "Primavera",
        "street": "Alameda dos Tamarindos",
        "zipcode": "36880-276"
    },
    {
        "city": "Muriaé",
        "state": "MG",
        "district": "Recanto Verde",
        "street": "Alameda das Palmeiras",
        "zipcode": "36889-106"
    },
    {
        "city": "Muriaé",
        "state": "MG",
        "district": "Alto do Castelo",
        "street": "Avenida João Paulo Nunes Neves",
        "zipcode": "36881-100"
    },
    {
        "city": "Muriaé",
        "state": "MG",
        "district": "Santa Laura",
        "street": "Avenida Mário de Oliveira Carvalho",
        "zipcode": "36889-515"
    },
    {
        "city": "Muriaé",
        "state": "MG",
        "district": "Prefeito Hélio Araújo",
        "street": "Avenida Maricas",
        "zipcode": "36880-167"
    },
    {
        "city": "Muriaé",
        "state": "MG",
        "district": "São Cristovão",
        "street": "Avenida Lúcio José Gusman",
        "zipcode": "36889-300"
    },
    {
        "city": "Muriaé",
        "state": "MG",
        "district": "Centro",
        "street": "Praça Doutor Lisboa Júnior",
        "zipcode": "36880-070"
    },
    {
        "city": "Muriaé",
        "state": "MG",
        "district": "Prefeito Hélio Araújo",
        "street": "Rua Álvaro de Araújo",
        "zipcode": "36880-163"
    },
    {
        "city": "Muriaé",
        "state": "MG",
        "district": "São Francisco",
        "street": "Praça Deputado Walthon Goulart",
        "zipcode": "36881-028"
    },
    {
        "city": "Muriaé",
        "state": "MG",
        "district": "Prefeito Hélio Araújo",
        "street": "Avenida Vicente Alves",
        "zipcode": "36880-160"
    },
    {
        "city": "Muriaé",
        "state": "MG",
        "district": "Alto do Castelo",
        "street": "Rua Aldo Furlani",
        "zipcode": "36881-092"
    },
    {
        "city": "Muriaé",
        "state": "MG",
        "district": "Centro",
        "street": "Rua Areca Trianda",
        "zipcode": "36880-115"
    },
    {
        "city": "Muriaé",
        "state": "MG",
        "district": "São Francisco",
        "street": "Rua Amaro Acelino de Andrade",
        "zipcode": "36881-032"
    },
    {
        "city": "Muriaé",
        "state": "MG",
        "district": "Centro",
        "street": "Rua Coronel Amador Pinheiro de Barros",
        "zipcode": "36880-030"
    },
    {
        "city": "Muriaé",
        "state": "MG",
        "district": "Centro",
        "street": "Rua Butiá da Serra",
        "zipcode": "36880-118"
    },
    {
        "city": "Muriaé",
        "state": "MG",
        "district": "Centro",
        "street": "Rua Edmundo Germano",
        "zipcode": "36880-047"
    },
    {
        "city": "Muriaé",
        "state": "MG",
        "district": "Centro",
        "street": "Rua Doutor Paulo Pacheco de Medeiros",
        "zipcode": "36880-082"
    },
    {
        "city": "Muriaé",
        "state": "MG",
        "district": "Centro",
        "street": "Rua Gílio Ticon",
        "zipcode": "36880-090"
    },
    {
        "city": "Muriaé",
        "state": "MG",
        "district": "Centro",
        "street": "Rua Indaiá do Campo",
        "zipcode": "36880-111"
    },
    {
        "city": "Muriaé",
        "state": "MG",
        "district": "Centro",
        "street": "Rua Ítalo Aló de Melo",
        "zipcode": "36880-121"
    },
    {
        "city": "Muriaé",
        "state": "MG",
        "district": "Prefeito Hélio Araújo",
        "street": "Rua Dona Raimunda",
        "zipcode": "36880-164"
    },
    {
        "city": "Muriaé",
        "state": "MG",
        "district": "Centro",
        "street": "Rua Doutor Newton Rezende",
        "zipcode": "36880-065"
    },
    {
        "city": "Muriaé",
        "state": "MG",
        "district": "Centro",
        "street": "Rua Doutor Antônio Canedo",
        "zipcode": "36880-073"
    },
    {
        "city": "Muriaé",
        "state": "MG",
        "district": "Centro",
        "street": "Rua Doutor Afonso Canedo",
        "zipcode": "36880-081"
    },
    {
        "city": "Muriaé",
        "state": "MG",
        "district": "Centro",
        "street": "Rua Doutor Guilherme Abreu Lima",
        "zipcode": "36880-059"
    },
    {
        "city": "Muriaé",
        "state": "MG",
        "district": "Centro",
        "street": "Rua Francisco Laciprete",
        "zipcode": "36880-086"
    },
    {
        "city": "Muriaé",
        "state": "MG",
        "district": "Centro",
        "street": "Rua Monsenhor Soares",
        "zipcode": "36880-055"
    },
    {
        "city": "Muriaé",
        "state": "MG",
        "district": "Centro",
        "street": "Rua Leque do Mediterrâneo",
        "zipcode": "36880-114"
    },
    {
        "city": "Muriaé",
        "state": "MG",
        "district": "Centro",
        "street": "Rua João Grossi",
        "zipcode": "36880-050"
    },
    {
        "city": "Muriaé",
        "state": "MG",
        "district": "Centro",
        "street": "Rua Miguel dos Santos Fintelman",
        "zipcode": "36880-106"
    },
    {
        "city": "Muriaé",
        "state": "MG",
        "district": "Gaspar",
        "street": "Rua Maria Claudina de Barros Ferreira",
        "zipcode": "36888-104"
    },
    {
        "city": "Muriaé",
        "state": "MG",
        "district": "Centro",
        "street": "Rua José Guarino",
        "zipcode": "36880-053"
    },
    {
        "city": "Muriaé",
        "state": "MG",
        "district": "Centro",
        "street": "Rua Princesa Isabel",
        "zipcode": "36880-058"
    },
    {
        "city": "Muriaé",
        "state": "MG",
        "district": "Centro",
        "street": "Rua São Pedro",
        "zipcode": "36880-075"
    },
    {
        "city": "Muriaé",
        "state": "MG",
        "district": "Centro",
        "street": "Rua Reverendo João Ramos",
        "zipcode": "36880-089"
    },
    {
        "city": "Muriaé",
        "state": "MG",
        "district": "Centro",
        "street": "Rua Professor Carvalho",
        "zipcode": "36880-105"
    },
    {
        "city": "Muriaé",
        "state": "MG",
        "district": "Centro",
        "street": "Rua Padre Delphino",
        "zipcode": "36880-069"
    },
    {
        "city": "Muriaé",
        "state": "MG",
        "district": "Centro",
        "street": "Vila Emílio Filippini",
        "zipcode": "36880-079"
    },
    {
        "city": "Muriaé",
        "state": "MG",
        "district": "Centro",
        "street": "Vila Arlete",
        "zipcode": "36880-099"
    },
    {
        "city": "Muriaé",
        "state": "MG",
        "district": "Centro",
        "street": "Travessa Jorge Porcaro",
        "zipcode": "36880-098"
    },
    {
        "city": "Muriaé",
        "state": "MG",
        "district": "Gaspar",
        "street": "Rua Wilson Martins Viana",
        "zipcode": "36888-125"
    },
    {
        "city": "Muriaé",
        "state": "MG",
        "district": "Santa Terezinha",
        "street": "Travessa Rodolpho de Souza Vieira",
        "zipcode": "36889-276"
    },
    {
        "city": "Muriaé",
        "state": "MG",
        "district": "Centro",
        "street": "Rua Professor Geraldo Rodrigues",
        "zipcode": "36880-093"
    },
    {
        "city": "Muriaé",
        "state": "MG",
        "district": "São Gotardo",
        "street": "Rua Escobar Gomes de Souza",
        "zipcode": "36880-213"
    },
    {
        "city": "Muriaé",
        "state": "MG",
        "district": "São Francisco",
        "street": "Rua Daniel da Silva Portes",
        "zipcode": "36881-029"
    },
    {
        "city": "Muriaé",
        "state": "MG",
        "district": "Vale do Castelo",
        "street": "Rua Bruno Nani",
        "zipcode": "36881-060"
    },
    {
        "city": "Muriaé",
        "state": "MG",
        "district": "Cerâmica",
        "street": "Rua da Cerâmica",
        "zipcode": "36883-009"
    },
    {
        "city": "Muriaé",
        "state": "MG",
        "district": "São Vicente de Paulo",
        "street": "Rua Comendador Doutor Francisco Fintelman",
        "zipcode": "36883-098"
    },
    {
        "city": "Muriaé",
        "state": "MG",
        "district": "Planalto",
        "street": "Rua Camilo Martins da Silva",
        "zipcode": "36883-131"
    },
    {
        "city": "Muriaé",
        "state": "MG",
        "district": "Prefeito Hélio Araújo",
        "street": "Rua Teodorico Torres",
        "zipcode": "36880-176"
    },
    {
        "city": "Muriaé",
        "state": "MG",
        "district": "São Francisco",
        "street": "Rua Severino Dias de Carvalho",
        "zipcode": "36881-000"
    },
    {
        "city": "Muriaé",
        "state": "MG",
        "district": "Prefeito Hélio Araújo",
        "street": "Rua São Sebastião",
        "zipcode": "36880-172"
    },
    {
        "city": "Muriaé",
        "state": "MG",
        "district": "Colety",
        "street": "Rua Raul de Leoni",
        "zipcode": "36880-188"
    },
    {
        "city": "Muriaé",
        "state": "MG",
        "district": "São Gotardo",
        "street": "Rua Ricardo Oliveira Morais de Azevedo",
        "zipcode": "36880-216"
    },
    {
        "city": "Muriaé",
        "state": "MG",
        "district": "Alterosa",
        "street": "Rua Pedro Dimas",
        "zipcode": "36880-246"
    },
    {
        "city": "Muriaé",
        "state": "MG",
        "district": "Primavera",
        "street": "Travessa das Tripcares",
        "zipcode": "36880-260"
    },
    {
        "city": "Muriaé",
        "state": "MG",
        "district": "Primavera",
        "street": "Travessa das Espirradeiras",
        "zipcode": "36880-262"
    },
    {
        "city": "Muriaé",
        "state": "MG",
        "district": "Colety",
        "street": "Rua Vinicius de Moraes",
        "zipcode": "36880-190"
    },
    {
        "city": "Muriaé",
        "state": "MG",
        "district": "São Gotardo",
        "street": "Rua Vicente Vargas de Castro",
        "zipcode": "36880-201"
    },
    {
        "city": "Muriaé",
        "state": "MG",
        "district": "Prefeito Hélio Araújo",
        "street": "Rua Euzébio Alves Pereira",
        "zipcode": "36880-175"
    },
    {
        "city": "Muriaé",
        "state": "MG",
        "district": "Colety",
        "street": "Rua Hélio Lopes",
        "zipcode": "36880-186"
    },
    {
        "city": "Muriaé",
        "state": "MG",
        "district": "Colety",
        "street": "Rua Iracivo Rodrigues Costa",
        "zipcode": "36880-198"
    },
    {
        "city": "Muriaé",
        "state": "MG",
        "district": "São Gotardo",
        "street": "Rua Geraldo de Paula Lacerda",
        "zipcode": "36880-221"
    },
    {
        "city": "Muriaé",
        "state": "MG",
        "district": "São Gotardo",
        "street": "Rua Davi Vieira da Silva",
        "zipcode": "36880-222"
    },
    {
        "city": "Muriaé",
        "state": "MG",
        "district": "São Francisco",
        "street": "Rua Irmã Gertrudes Monozzi",
        "zipcode": "36881-026"
    },
    {
        "city": "Muriaé",
        "state": "MG",
        "district": "São Francisco",
        "street": "Rua Fernando Costa de Oliveira",
        "zipcode": "36881-047"
    },
    {
        "city": "Muriaé",
        "state": "MG",
        "district": "São Gotardo",
        "street": "Rua Fernando Ferreira da Silva Santos",
        "zipcode": "36880-210"
    },
    {
        "city": "Muriaé",
        "state": "MG",
        "district": "Safira",
        "street": "Rua Elizabeth de Almeida",
        "zipcode": "36883-055"
    },
    {
        "city": "Muriaé",
        "state": "MG",
        "district": "Santo Antônio",
        "street": "Rua Matheus Secunho",
        "zipcode": "36881-119"
    },
    {
        "city": "Muriaé",
        "state": "MG",
        "district": "Santo Antônio",
        "street": "Rua Judite Santos",
        "zipcode": "36881-120"
    },
    {
        "city": "Muriaé",
        "state": "MG",
        "district": "Santo Antônio",
        "street": "Rua Italiana",
        "zipcode": "36881-131"
    },
    {
        "city": "Muriaé",
        "state": "MG",
        "district": "Santo Antônio",
        "street": "Rua Eurides Moreira do Prado",
        "zipcode": "36881-138"
    },
    {
        "city": "Muriaé",
        "state": "MG",
        "district": "Santo Antônio",
        "street": "Rua Francisca Lasaroni",
        "zipcode": "36881-144"
    },
    {
        "city": "Muriaé",
        "state": "MG",
        "district": "Cerâmica",
        "street": "Rua Geraldo Alves do Nascimento",
        "zipcode": "36883-007"
    },
    {
        "city": "Muriaé",
        "state": "MG",
        "district": "Safira",
        "street": "Rua Izanel Conceição do Nascimento",
        "zipcode": "36883-039"
    },
    {
        "city": "Muriaé",
        "state": "MG",
        "district": "São Francisco",
        "street": "Rua Doutor Rodrigo de Castro",
        "zipcode": "36881-014"
    },
    {
        "city": "Muriaé",
        "state": "MG",
        "district": "Colety",
        "street": "Rua Manoel Bandeira",
        "zipcode": "36880-192"
    },
    {
        "city": "Muriaé",
        "state": "MG",
        "district": "São Francisco",
        "street": "Rua Manoel Vilas Boas",
        "zipcode": "36881-019"
    },
    {
        "city": "Muriaé",
        "state": "MG",
        "district": "São Vicente de Paulo",
        "street": "Rua Lodeval Antônio Aredes",
        "zipcode": "36883-092"
    },
    {
        "city": "Muriaé",
        "state": "MG",
        "district": "João XXIII",
        "street": "Avenida Prefeito Paulo Fraga",
        "zipcode": "36883-239"
    },
    {
        "city": "Muriaé",
        "state": "MG",
        "district": "Planalto",
        "street": "Avenida Deputado Delfim Ribeiro",
        "zipcode": "36883-159"
    },
    {
        "city": "Muriaé",
        "state": "MG",
        "district": "Planalto",
        "street": "Rua Ambrósio Pinto da Silva",
        "zipcode": "36883-154"
    },
    {
        "city": "Muriaé",
        "state": "MG",
        "district": "São Vicente de Paulo",
        "street": "Rua Carlos Alberto de Andrade Martins",
        "zipcode": "36883-095"
    },
    {
        "city": "Muriaé",
        "state": "MG",
        "district": "Primavera",
        "street": "Travessa das Magnólias",
        "zipcode": "36880-258"
    },
    {
        "city": "Muriaé",
        "state": "MG",
        "district": "São Gotardo",
        "street": "Rua Epaminondas Dias Neto",
        "zipcode": "36880-218"
    },
    {
        "city": "Muriaé",
        "state": "MG",
        "district": "São Francisco",
        "street": "Rua Hidemburgo Vilhena",
        "zipcode": "36881-044"
    },
    {
        "city": "Muriaé",
        "state": "MG",
        "district": "Cerâmica",
        "street": "Rua Doutor Ulisses Guimarães",
        "zipcode": "36883-012"
    },
    {
        "city": "Muriaé",
        "state": "MG",
        "district": "Alterosa",
        "street": "Rua Doutor José Clovis Figueira de Aquino",
        "zipcode": "36880-243"
    },
    {
        "city": "Muriaé",
        "state": "MG",
        "district": "São Francisco",
        "street": "Rua Francisco José Bani",
        "zipcode": "36881-038"
    },
    {
        "city": "Muriaé",
        "state": "MG",
        "district": "Santo Antônio",
        "street": "Rua Mário de Oliveira Carvalho",
        "zipcode": "36881-143"
    },
    {
        "city": "Muriaé",
        "state": "MG",
        "district": "Santo Antônio",
        "street": "Rua Professora Cléria Ticom Carneiro",
        "zipcode": "36881-150"
    },
    {
        "city": "Muriaé",
        "state": "MG",
        "district": "Santo Antônio",
        "street": "Rua Pedro Mazzini",
        "zipcode": "36881-152"
    },
    {
        "city": "Muriaé",
        "state": "MG",
        "district": "Santo Antônio",
        "street": "Rua Rosa Moreira",
        "zipcode": "36881-153"
    },
    {
        "city": "Muriaé",
        "state": "MG",
        "district": "Cerâmica",
        "street": "Rua Nicolau Taranto",
        "zipcode": "36883-006"
    },
    {
        "city": "Muriaé",
        "state": "MG",
        "district": "Cerâmica",
        "street": "Rua São José",
        "zipcode": "36883-010"
    },
    {
        "city": "Muriaé",
        "state": "MG",
        "district": "Safira",
        "street": "Rua Maria Luiza Garcia",
        "zipcode": "36883-037"
    },
    {
        "city": "Muriaé",
        "state": "MG",
        "district": "Safira",
        "street": "Rua Miss Dinorah",
        "zipcode": "36883-064"
    },
    {
        "city": "Muriaé",
        "state": "MG",
        "district": "Santo Antônio",
        "street": "Rua Patrícia Xavier",
        "zipcode": "36881-122"
    },
    {
        "city": "Muriaé",
        "state": "MG",
        "district": "Safira",
        "street": "Rua José de Freitas Lima Júnior",
        "zipcode": "36883-045"
    },
    {
        "city": "Muriaé",
        "state": "MG",
        "district": "Safira",
        "street": "Rua Rosa Ferrari Braz",
        "zipcode": "36883-048"
    },
    {
        "city": "Muriaé",
        "state": "MG",
        "district": "Safira",
        "street": "Rua Santa Maria",
        "zipcode": "36883-063"
    },
    {
        "city": "Muriaé",
        "state": "MG",
        "district": "São Vicente de Paulo",
        "street": "Rua Margarida Ferreira do Amaral",
        "zipcode": "36883-086"
    },
    {
        "city": "Muriaé",
        "state": "MG",
        "district": "Santo Antônio",
        "street": "Rua Luiz Pinto Coelho Secunho",
        "zipcode": "36881-135"
    },
    {
        "city": "Muriaé",
        "state": "MG",
        "district": "Alto do Castelo",
        "street": "Rua José Euzébio de Barros",
        "zipcode": "36881-090"
    },
    {
        "city": "Muriaé",
        "state": "MG",
        "district": "Santo Antônio",
        "street": "Rua Independência",
        "zipcode": "36881-126"
    },
    {
        "city": "Muriaé",
        "state": "MG",
        "district": "João XXIII",
        "street": "Rua Irineu Felisberto",
        "zipcode": "36883-199"
    },
    {
        "city": "Muriaé",
        "state": "MG",
        "district": "João XXIII",
        "street": "Rua Astrogildo Figueiredo Barros",
        "zipcode": "36883-211"
    },
    {
        "city": "Muriaé",
        "state": "MG",
        "district": "São Gotardo",
        "street": "Rua Leaniro Caetano da Silva",
        "zipcode": "36880-206"
    },
    {
        "city": "Muriaé",
        "state": "MG",
        "district": "João XXIII",
        "street": "Rua Francisca Madalena",
        "zipcode": "36883-196"
    },
    {
        "city": "Muriaé",
        "state": "MG",
        "district": "João XXIII",
        "street": "Rua Afonso Goulart",
        "zipcode": "36883-200"
    },
    {
        "city": "Muriaé",
        "state": "MG",
        "district": "João XXIII",
        "street": "Rua Henrique Veggi",
        "zipcode": "36883-203"
    },
    {
        "city": "Muriaé",
        "state": "MG",
        "district": "João XXIII",
        "street": "Rua Eugênio Gomes",
        "zipcode": "36883-206"
    },
    {
        "city": "Muriaé",
        "state": "MG",
        "district": "João XXIII",
        "street": "Rua Farmacêutico José Mostaro",
        "zipcode": "36883-209"
    },
    {
        "city": "Muriaé",
        "state": "MG",
        "district": "São Gotardo",
        "street": "Rua Helson Hastenreiter",
        "zipcode": "36880-224"
    },
    {
        "city": "Muriaé",
        "state": "MG",
        "district": "Vale do Castelo",
        "street": "Rua José Pinto de Souza",
        "zipcode": "36881-056"
    },
    {
        "city": "Muriaé",
        "state": "MG",
        "district": "São Francisco",
        "street": "Rua Santo Cristo",
        "zipcode": "36881-031"
    },
    {
        "city": "Muriaé",
        "state": "MG",
        "district": "São Francisco",
        "street": "Rua Pedro Luiz Brejão",
        "zipcode": "36881-034"
    },
    {
        "city": "Muriaé",
        "state": "MG",
        "district": "Vale do Castelo",
        "street": "Rua Nicolau Gravina",
        "zipcode": "36881-054"
    },
    {
        "city": "Muriaé",
        "state": "MG",
        "district": "Alto do Castelo",
        "street": "Rua Soldado Jadirso Ferreira da Silva",
        "zipcode": "36881-102"
    },
    {
        "city": "Muriaé",
        "state": "MG",
        "district": "Santo Antônio",
        "street": "Vila Manoel Ladislau Neto",
        "zipcode": "36881-129"
    },
    {
        "city": "Muriaé",
        "state": "MG",
        "district": "Santo Antônio",
        "street": "Vila Dona Corina",
        "zipcode": "36881-132"
    },
    {
        "city": "Muriaé",
        "state": "MG",
        "district": "Santo Antônio",
        "street": "Rua Vanessa Tureta",
        "zipcode": "36881-147"
    },
    {
        "city": "Muriaé",
        "state": "MG",
        "district": "Safira",
        "street": "Rua Vereador Joaquim Pereira",
        "zipcode": "36883-068"
    },
    {
        "city": "Muriaé",
        "state": "MG",
        "district": "Santo Antônio",
        "street": "Travessa Alaor Nunes",
        "zipcode": "36881-140"
    },
    {
        "city": "Muriaé",
        "state": "MG",
        "district": "João XXIII",
        "street": "Rua Pedro Júlio Tureta",
        "zipcode": "36883-193"
    },
    {
        "city": "Muriaé",
        "state": "MG",
        "district": "João XXIII",
        "street": "Rua Salim Elias",
        "zipcode": "36883-194"
    },
    {
        "city": "Muriaé",
        "state": "MG",
        "district": "João XXIII",
        "street": "Rua Pedro Antonino Barbosa",
        "zipcode": "36883-212"
    },
    {
        "city": "Muriaé",
        "state": "MG",
        "district": "Alto do Castelo",
        "street": "Rua Sidnei Nobre da Silva",
        "zipcode": "36881-096"
    },
    {
        "city": "Muriaé",
        "state": "MG",
        "district": "João XXIII",
        "street": "Rua Paulino Cândido Magalhães",
        "zipcode": "36883-214"
    },
    {
        "city": "Muriaé",
        "state": "MG",
        "district": "Barra",
        "street": "Rua Doutor Lídio Bandeira de Melo",
        "zipcode": "36884-098"
    },
    {
        "city": "Muriaé",
        "state": "MG",
        "district": "Planalto",
        "street": "Rua Rotary",
        "zipcode": "36883-155"
    },
    {
        "city": "Muriaé",
        "state": "MG",
        "district": "Barra",
        "street": "Rua Alberto Gouveia Neto",
        "zipcode": "36884-104"
    },
    {
        "city": "Muriaé",
        "state": "MG",
        "district": "João VI",
        "street": "Rua Antônio Garcia de Souza",
        "zipcode": "36883-248"
    },
    {
        "city": "Muriaé",
        "state": "MG",
        "district": "Barra",
        "street": "Rua Benedito Valadares",
        "zipcode": "36884-084"
    },
    {
        "city": "Muriaé",
        "state": "MG",
        "district": "Barra",
        "street": "Rua Antônio Tavares",
        "zipcode": "36884-120"
    },
    {
        "city": "Muriaé",
        "state": "MG",
        "district": "Dornelas",
        "street": "Rua Antônio Adriano",
        "zipcode": "36884-187"
    },
    {
        "city": "Muriaé",
        "state": "MG",
        "district": "Dornelas",
        "street": "Rua Antônio Boalento",
        "zipcode": "36884-202"
    },
    {
        "city": "Muriaé",
        "state": "MG",
        "district": "João XXIII",
        "street": "Rua Antonino do Amaral Barros",
        "zipcode": "36883-229"
    },
    {
        "city": "Muriaé",
        "state": "MG",
        "district": "Barra",
        "street": "Rua Antônio Frederico Ozanan",
        "zipcode": "36884-101"
    },
    {
        "city": "Muriaé",
        "state": "MG",
        "district": "João XXIII",
        "street": "Rua das Acácias",
        "zipcode": "36883-238"
    },
    {
        "city": "Muriaé",
        "state": "MG",
        "district": "Dornelas",
        "street": "Rua Boa Esperança",
        "zipcode": "36884-182"
    },
    {
        "city": "Muriaé",
        "state": "MG",
        "district": "Santo Antônio",
        "street": "Rua Santo Antônio",
        "zipcode": "36881-110"
    },
    {
        "city": "Muriaé",
        "state": "MG",
        "district": "Barra",
        "street": "Rua Escrivão Alcino de Freitas",
        "zipcode": "36884-046"
    },
    {
        "city": "Muriaé",
        "state": "MG",
        "district": "Barra",
        "street": "Rua Eloar Enneo Stoque Júnior",
        "zipcode": "36884-102"
    },
    {
        "city": "Muriaé",
        "state": "MG",
        "district": "Barra",
        "street": "Rua Doutor Ophir de Oliveira Costa",
        "zipcode": "36884-009"
    },
    {
        "city": "Muriaé",
        "state": "MG",
        "district": "Planalto",
        "street": "Rua Nelson Cardoso de Mello",
        "zipcode": "36883-137"
    },
    {
        "city": "Muriaé",
        "state": "MG",
        "district": "Planalto",
        "street": "Rua João Batista Ferreira",
        "zipcode": "36883-151"
    },
    {
        "city": "Muriaé",
        "state": "MG",
        "district": "Planalto",
        "street": "Rua Plautides Werneck Alves",
        "zipcode": "36883-152"
    },
    {
        "city": "Muriaé",
        "state": "MG",
        "district": "João XXIII",
        "street": "Rua Vereador Petrônio Calcagno Oliveira",
        "zipcode": "36883-233"
    },
    {
        "city": "Muriaé",
        "state": "MG",
        "district": "João VI",
        "street": "Rua Joana Darc da Silva",
        "zipcode": "36883-254"
    },
    {
        "city": "Muriaé",
        "state": "MG",
        "district": "João VI",
        "street": "Rua Manoel Francisco de Assis",
        "zipcode": "36883-258"
    },
    {
        "city": "Muriaé",
        "state": "MG",
        "district": "João VI",
        "street": "Rua José Anastácio Celeiro",
        "zipcode": "36883-272"
    },
    {
        "city": "Muriaé",
        "state": "MG",
        "district": "João VI",
        "street": "Rua Manoel Avelino da Costa",
        "zipcode": "36883-274"
    },
    {
        "city": "Muriaé",
        "state": "MG",
        "district": "João VI",
        "street": "Rua José Máximo Ribeiro",
        "zipcode": "36883-279"
    },
    {
        "city": "Muriaé",
        "state": "MG",
        "district": "Barra",
        "street": "Rua Luiz Gonzaga",
        "zipcode": "36884-001"
    },
    {
        "city": "Muriaé",
        "state": "MG",
        "district": "Barra",
        "street": "Rua Júlio Brandão",
        "zipcode": "36884-005"
    },
    {
        "city": "Muriaé",
        "state": "MG",
        "district": "Barra",
        "street": "Rua Oswaldo Cruz",
        "zipcode": "36884-020"
    },
    {
        "city": "Muriaé",
        "state": "MG",
        "district": "Dornelas",
        "street": "Rua Francisco Cascelli",
        "zipcode": "36884-171"
    },
    {
        "city": "Muriaé",
        "state": "MG",
        "district": "Planalto",
        "street": "Rua Irmã Joaquina",
        "zipcode": "36883-145"
    },
    {
        "city": "Muriaé",
        "state": "MG",
        "district": "João XXIII",
        "street": "Rua Maximiano Fraga",
        "zipcode": "36883-218"
    },
    {
        "city": "Muriaé",
        "state": "MG",
        "district": "João XXIII",
        "street": "Rua José Vidon Sobrinho",
        "zipcode": "36883-224"
    },
    {
        "city": "Muriaé",
        "state": "MG",
        "district": "João XXIII",
        "street": "Travessa Mário José Bani",
        "zipcode": "36883-232"
    },
    {
        "city": "Muriaé",
        "state": "MG",
        "district": "João XXIII",
        "street": "Rua Nicodemos Cardoso Silva",
        "zipcode": "36883-236"
    },
    {
        "city": "Muriaé",
        "state": "MG",
        "district": "João VI",
        "street": "Rua José Rômulo Soares",
        "zipcode": "36883-252"
    },
    {
        "city": "Muriaé",
        "state": "MG",
        "district": "Cerâmica",
        "street": "Rua Paulo César de Abreu",
        "zipcode": "36883-016"
    },
    {
        "city": "Muriaé",
        "state": "MG",
        "district": "Safira",
        "street": "Rua José Augusto de Abreu",
        "zipcode": "36883-031"
    },
    {
        "city": "Muriaé",
        "state": "MG",
        "district": "Augusto de Abreu",
        "street": "Rua Renato Xavier Reis",
        "zipcode": "36883-173"
    },
    {
        "city": "Muriaé",
        "state": "MG",
        "district": "Barra",
        "street": "Rua Professora Petrina",
        "zipcode": "36884-038"
    },
    {
        "city": "Muriaé",
        "state": "MG",
        "district": "Planalto",
        "street": "Rua José Nacif Lipus",
        "zipcode": "36883-142"
    },
    {
        "city": "Muriaé",
        "state": "MG",
        "district": "João VI",
        "street": "Rua Hugo dos Santos",
        "zipcode": "36883-242"
    },
    {
        "city": "Muriaé",
        "state": "MG",
        "district": "Barra",
        "street": "Rua Manoel Alves de Araújo Sobrinho",
        "zipcode": "36884-006"
    },
    {
        "city": "Muriaé",
        "state": "MG",
        "district": "Barra",
        "street": "Rua Duque de Caxias",
        "zipcode": "36884-049"
    },
    {
        "city": "Muriaé",
        "state": "MG",
        "district": "Safira",
        "street": "Vila José Celestino de Almeida",
        "zipcode": "36883-046"
    },
    {
        "city": "Muriaé",
        "state": "MG",
        "district": "João XXIII",
        "street": "Rua Odon do Amaral Barros",
        "zipcode": "36883-235"
    },
    {
        "city": "Muriaé",
        "state": "MG",
        "district": "Barra",
        "street": "Rua Professora Maria Bandeira Lobato",
        "zipcode": "36884-070"
    },
    {
        "city": "Muriaé",
        "state": "MG",
        "district": "Planalto",
        "street": "Rua Totonio de Castro",
        "zipcode": "36883-134"
    },
    {
        "city": "Muriaé",
        "state": "MG",
        "district": "São Francisco",
        "street": "Travessa Ouro Preto",
        "zipcode": "36881-037"
    },
    {
        "city": "Muriaé",
        "state": "MG",
        "district": "Vale do Castelo",
        "street": "Rua Sebastião José Rodrigues",
        "zipcode": "36881-052"
    },
    {
        "city": "Muriaé",
        "state": "MG",
        "district": "Alto do Castelo",
        "street": "Rua Soldado Wilson Nogueira",
        "zipcode": "36881-098"
    },
    {
        "city": "Muriaé",
        "state": "MG",
        "district": "Barra",
        "street": "Rua Pirapanema",
        "zipcode": "36884-014"
    },
    {
        "city": "Muriaé",
        "state": "MG",
        "district": "São Vicente de Paulo",
        "street": "Rua Zeno Luiz Mazoco",
        "zipcode": "36883-089"
    },
    {
        "city": "Muriaé",
        "state": "MG",
        "district": "Barra",
        "street": "Vila Purcina Amélia",
        "zipcode": "36884-032"
    },
    {
        "city": "Muriaé",
        "state": "MG",
        "district": "José Cirilo",
        "street": "Rua Antônio Afonso Sobrinho",
        "zipcode": "36886-001"
    },
    {
        "city": "Muriaé",
        "state": "MG",
        "district": "José Cirilo",
        "street": "Rua Ayslan de Paula",
        "zipcode": "36886-013"
    },
    {
        "city": "Muriaé",
        "state": "MG",
        "district": "José Cirilo",
        "street": "Rua Augusta da Silva",
        "zipcode": "36886-023"
    },
    {
        "city": "Muriaé",
        "state": "MG",
        "district": "Joanópolis",
        "street": "Rua Bauxita",
        "zipcode": "36886-053"
    },
    {
        "city": "Muriaé",
        "state": "MG",
        "district": "Joanópolis",
        "street": "Rua Antônio Tureta",
        "zipcode": "36886-057"
    },
    {
        "city": "Muriaé",
        "state": "MG",
        "district": "Joanópolis",
        "street": "Rua Antenor Luís de Sousa",
        "zipcode": "36886-059"
    },
    {
        "city": "Muriaé",
        "state": "MG",
        "district": "Dornelas",
        "street": "Rua Amazonas",
        "zipcode": "36884-215"
    },
    {
        "city": "Muriaé",
        "state": "MG",
        "district": "Joanópolis",
        "street": "Rua Aparecida Cristina Lourenço Sales",
        "zipcode": "36886-066"
    },
    {
        "city": "Muriaé",
        "state": "MG",
        "district": "São Joaquim",
        "street": "Rua Antônio Tureta",
        "zipcode": "36886-114"
    },
    {
        "city": "Muriaé",
        "state": "MG",
        "district": "Barra",
        "street": "Rua Antônio Laviola",
        "zipcode": "36884-080"
    },
    {
        "city": "Muriaé",
        "state": "MG",
        "district": "São Joaquim",
        "street": "Rua Breida",
        "zipcode": "36886-094"
    },
    {
        "city": "Muriaé",
        "state": "MG",
        "district": "São Joaquim",
        "street": "Rua Cândido Portinari",
        "zipcode": "36886-112"
    },
    {
        "city": "Muriaé",
        "state": "MG",
        "district": "São Joaquim",
        "street": "Rua Delvaux Custódio Novaes",
        "zipcode": "36886-093"
    },
    {
        "city": "Muriaé",
        "state": "MG",
        "district": "São Joaquim",
        "street": "Rua Floresta",
        "zipcode": "36886-097"
    },
    {
        "city": "Muriaé",
        "state": "MG",
        "district": "São Joaquim",
        "street": "Rua Hebert de Souza",
        "zipcode": "36886-102"
    },
    {
        "city": "Muriaé",
        "state": "MG",
        "district": "São Joaquim",
        "street": "Rua Rosa Teodoro Barbosa",
        "zipcode": "36886-091"
    },
    {
        "city": "Muriaé",
        "state": "MG",
        "district": "São Joaquim",
        "street": "Rua Princesa Diana",
        "zipcode": "36886-109"
    },
    {
        "city": "Muriaé",
        "state": "MG",
        "district": "Barra",
        "street": "Vila Jorge Tanus Xaia",
        "zipcode": "36884-052"
    },
    {
        "city": "Muriaé",
        "state": "MG",
        "district": "Barra",
        "street": "Rua Valdevino Alexandre Rodrigues",
        "zipcode": "36884-065"
    },
    {
        "city": "Muriaé",
        "state": "MG",
        "district": "Barra",
        "street": "Vila Elmo",
        "zipcode": "36884-066"
    },
    {
        "city": "Muriaé",
        "state": "MG",
        "district": "Joanópolis",
        "street": "Rua dos Diamantes",
        "zipcode": "36886-069"
    },
    {
        "city": "Muriaé",
        "state": "MG",
        "district": "Dornelas",
        "street": "Rua Doutor Wilson Alvim do Amaral",
        "zipcode": "36884-226"
    },
    {
        "city": "Muriaé",
        "state": "MG",
        "district": "Joanópolis",
        "street": "Rua Esmeralda",
        "zipcode": "36886-056"
    },
    {
        "city": "Muriaé",
        "state": "MG",
        "district": "Barra",
        "street": "Rua Lincoln Marinho",
        "zipcode": "36884-092"
    },
    {
        "city": "Muriaé",
        "state": "MG",
        "district": "Barra",
        "street": "Rua José Eutrópio",
        "zipcode": "36884-094"
    },
    {
        "city": "Muriaé",
        "state": "MG",
        "district": "Barra",
        "street": "Rua Paulo Emílio Carlos Dias",
        "zipcode": "36884-105"
    },
    {
        "city": "Muriaé",
        "state": "MG",
        "district": "Barra",
        "street": "Rua Gil Moreira",
        "zipcode": "36884-112"
    },
    {
        "city": "Muriaé",
        "state": "MG",
        "district": "Dornelas",
        "street": "Rua Marita Dornelas",
        "zipcode": "36884-176"
    },
    {
        "city": "Muriaé",
        "state": "MG",
        "district": "Dornelas",
        "street": "Rua João Dornelas",
        "zipcode": "36884-179"
    },
    {
        "city": "Muriaé",
        "state": "MG",
        "district": "Dornelas",
        "street": "Rua Paschoal Demarques",
        "zipcode": "36884-186"
    },
    {
        "city": "Muriaé",
        "state": "MG",
        "district": "João XXIII",
        "street": "Rua José Simão",
        "zipcode": "36883-220"
    },
    {
        "city": "Muriaé",
        "state": "MG",
        "district": "Joanópolis",
        "street": "Rua Manoel Lourenço Martins",
        "zipcode": "36886-050"
    },
    {
        "city": "Muriaé",
        "state": "MG",
        "district": "Barra",
        "street": "Rua Ferreira Leite",
        "zipcode": "36884-057"
    },
    {
        "city": "Muriaé",
        "state": "MG",
        "district": "João VI",
        "street": "Via Janus",
        "zipcode": "36883-268"
    },
    {
        "city": "Muriaé",
        "state": "MG",
        "district": "João VI",
        "street": "Via Luna",
        "zipcode": "36883-278"
    },
    {
        "city": "Muriaé",
        "state": "MG",
        "district": "Barra",
        "street": "Vila Martins",
        "zipcode": "36884-017"
    },
    {
        "city": "Muriaé",
        "state": "MG",
        "district": "Barra",
        "street": "Travessa Flívio Leite",
        "zipcode": "36884-044"
    },
    {
        "city": "Muriaé",
        "state": "MG",
        "district": "Dornelas",
        "street": "Rua Sênio Alves da Silveira",
        "zipcode": "36884-170"
    },
    {
        "city": "Muriaé",
        "state": "MG",
        "district": "Dornelas",
        "street": "Rua São Geraldo",
        "zipcode": "36884-210"
    },
    {
        "city": "Muriaé",
        "state": "MG",
        "district": "José Cirilo",
        "street": "Rua Nadyr Aguiar Tureta",
        "zipcode": "36886-025"
    },
    {
        "city": "Muriaé",
        "state": "MG",
        "district": "Barra",
        "street": "Vila Del Penho",
        "zipcode": "36884-022"
    },
    {
        "city": "Muriaé",
        "state": "MG",
        "district": "Barra",
        "street": "Vila Rodolfo Licurgo",
        "zipcode": "36884-026"
    },
    {
        "city": "Muriaé",
        "state": "MG",
        "district": "Barra",
        "street": "Travessa Elias Paulo",
        "zipcode": "36884-030"
    },
    {
        "city": "Muriaé",
        "state": "MG",
        "district": "Dornelas",
        "street": "Rua Ronaldo Cardoso de Melo",
        "zipcode": "36884-196"
    },
    {
        "city": "Muriaé",
        "state": "MG",
        "district": "Dornelas",
        "street": "Rua Maria Henriques Vieira",
        "zipcode": "36884-199"
    },
    {
        "city": "Muriaé",
        "state": "MG",
        "district": "Dornelas",
        "street": "Rua Sinval Henrique de Almeida",
        "zipcode": "36884-203"
    },
    {
        "city": "Muriaé",
        "state": "MG",
        "district": "Dornelas",
        "street": "Rua Pedro Batista de Paula",
        "zipcode": "36884-214"
    },
    {
        "city": "Muriaé",
        "state": "MG",
        "district": "Barra",
        "street": "Travessa Escrivão Alcino de Freitas",
        "zipcode": "36884-048"
    },
    {
        "city": "Muriaé",
        "state": "MG",
        "district": "Barra",
        "street": "Vila Ângelo Passon",
        "zipcode": "36884-058"
    },
    {
        "city": "Muriaé",
        "state": "MG",
        "district": "Barra",
        "street": "Vila Rafael Rocha",
        "zipcode": "36884-062"
    },
    {
        "city": "Muriaé",
        "state": "MG",
        "district": "São José",
        "street": "Rua Bárbara de Andrade",
        "zipcode": "36887-004"
    },
    {
        "city": "Muriaé",
        "state": "MG",
        "district": "Aeroporto",
        "street": "Rua Benedito Videira",
        "zipcode": "36887-057"
    },
    {
        "city": "Muriaé",
        "state": "MG",
        "district": "Aeroporto",
        "street": "Rua Cavalhier",
        "zipcode": "36887-058"
    },
    {
        "city": "Muriaé",
        "state": "MG",
        "district": "Dornelas",
        "street": "Rua Carlos Gomes",
        "zipcode": "36884-207"
    },
    {
        "city": "Muriaé",
        "state": "MG",
        "district": "São Joaquim",
        "street": "Rua G",
        "zipcode": "36886-130"
    },
    {
        "city": "Muriaé",
        "state": "MG",
        "district": "São Joaquim",
        "street": "Rua I",
        "zipcode": "36886-129"
    },
    {
        "city": "Muriaé",
        "state": "MG",
        "district": "Franco Suiço",
        "street": "Rua Fritz Duvanel",
        "zipcode": "36886-172"
    },
    {
        "city": "Muriaé",
        "state": "MG",
        "district": "Aeroporto",
        "street": "Rua Francisco Luciano Moreira",
        "zipcode": "36887-030"
    },
    {
        "city": "Muriaé",
        "state": "MG",
        "district": "Napoleão",
        "street": "Rua dos Atletas",
        "zipcode": "36887-067"
    },
    {
        "city": "Muriaé",
        "state": "MG",
        "district": "Napoleão",
        "street": "Rua Dezenove de Novembro",
        "zipcode": "36887-069"
    },
    {
        "city": "Muriaé",
        "state": "MG",
        "district": "São Joaquim",
        "street": "Rua Manoel Medina",
        "zipcode": "36886-123"
    },
    {
        "city": "Muriaé",
        "state": "MG",
        "district": "São Joaquim",
        "street": "Rua Madre Tereza de Calcutá",
        "zipcode": "36886-115"
    },
    {
        "city": "Muriaé",
        "state": "MG",
        "district": "São Joaquim",
        "street": "Rua Nelson Andrade dos Santos",
        "zipcode": "36886-121"
    },
    {
        "city": "Muriaé",
        "state": "MG",
        "district": "Franco Suiço",
        "street": "Rua João Pedro José",
        "zipcode": "36886-163"
    },
    {
        "city": "Muriaé",
        "state": "MG",
        "district": "Aeroporto",
        "street": "Rua Manoel Correa do Prado",
        "zipcode": "36887-042"
    },
    {
        "city": "Muriaé",
        "state": "MG",
        "district": "Aeroporto",
        "street": "Rua José Pedrosa",
        "zipcode": "36887-051"
    },
    {
        "city": "Muriaé",
        "state": "MG",
        "district": "Napoleão",
        "street": "Rua Miguel Gusman",
        "zipcode": "36887-060"
    },
    {
        "city": "Muriaé",
        "state": "MG",
        "district": "Aeroporto",
        "street": "Rua José Olegário",
        "zipcode": "36887-055"
    },
    {
        "city": "Muriaé",
        "state": "MG",
        "district": "Aeroporto",
        "street": "Rua José Rui Barbosa",
        "zipcode": "36887-039"
    },
    {
        "city": "Muriaé",
        "state": "MG",
        "district": "Santa Helena",
        "street": "Rua Valdir Trota",
        "zipcode": "36884-255"
    },
    {
        "city": "Muriaé",
        "state": "MG",
        "district": "Aeroporto",
        "street": "Rua Pedro Muglia",
        "zipcode": "36887-036"
    },
    {
        "city": "Muriaé",
        "state": "MG",
        "district": "Aeroporto",
        "street": "Rua Olinda Gardoni",
        "zipcode": "36887-052"
    },
    {
        "city": "Muriaé",
        "state": "MG",
        "district": "Napoleão",
        "street": "Rua Padre Maximino Benassatti",
        "zipcode": "36887-063"
    },
    {
        "city": "Muriaé",
        "state": "MG",
        "district": "Napoleão",
        "street": "Rua São João Nepomuceno",
        "zipcode": "36887-076"
    },
    {
        "city": "Muriaé",
        "state": "MG",
        "district": "Napoleão",
        "street": "Rua São José",
        "zipcode": "36887-081"
    },
    {
        "city": "Muriaé",
        "state": "MG",
        "district": "São José",
        "street": "Rua Paulo Roberto Guimarães",
        "zipcode": "36887-002"
    },
    {
        "city": "Muriaé",
        "state": "MG",
        "district": "Aeroporto",
        "street": "Rua Pedro Minarini",
        "zipcode": "36887-043"
    },
    {
        "city": "Muriaé",
        "state": "MG",
        "district": "Napoleão",
        "street": "Rua Pedro Antônio da Silveira",
        "zipcode": "36887-075"
    },
    {
        "city": "Muriaé",
        "state": "MG",
        "district": "São José",
        "street": "Rua Padre Raul",
        "zipcode": "36887-010"
    },
    {
        "city": "Muriaé",
        "state": "MG",
        "district": "Aeroporto",
        "street": "Rua Valdomiro Inácio Rodrigues",
        "zipcode": "36887-031"
    },
    {
        "city": "Muriaé",
        "state": "MG",
        "district": "Aeroporto",
        "street": "Rua Sebastião Josino da Costa",
        "zipcode": "36887-033"
    },
    {
        "city": "Muriaé",
        "state": "MG",
        "district": "Dornelas",
        "street": "Travessa Bom Pastor",
        "zipcode": "36884-200"
    },
    {
        "city": "Muriaé",
        "state": "MG",
        "district": "Joanópolis",
        "street": "Rua Waldemar Antônio Penna",
        "zipcode": "36886-060"
    },
    {
        "city": "Muriaé",
        "state": "MG",
        "district": "São Joaquim",
        "street": "Rua Zuleika da Silva Pinto",
        "zipcode": "36886-105"
    },
    {
        "city": "Muriaé",
        "state": "MG",
        "district": "Napoleão",
        "street": "Travessa São Bento",
        "zipcode": "36887-064"
    },
    {
        "city": "Muriaé",
        "state": "MG",
        "district": "Napoleão",
        "street": "Rua Trinta e Um de Março",
        "zipcode": "36887-073"
    },
    {
        "city": "Muriaé",
        "state": "MG",
        "district": "Napoleão",
        "street": "Travessa Santa Isabel",
        "zipcode": "36887-078"
    },
    {
        "city": "Muriaé",
        "state": "MG",
        "district": "Napoleão",
        "street": "Rua Virgínia Napoleão",
        "zipcode": "36887-082"
    },
    {
        "city": "Muriaé",
        "state": "MG",
        "district": "Aeroporto",
        "street": "Vila Adelino José de Lima",
        "zipcode": "36887-046"
    },
    {
        "city": "Muriaé",
        "state": "MG",
        "district": "Barra",
        "street": "Vila Climério de Souza",
        "zipcode": "36884-090"
    },
    {
        "city": "Muriaé",
        "state": "MG",
        "district": "Barra",
        "street": "Vila Alípio Fernandes",
        "zipcode": "36884-061"
    },
    {
        "city": "Muriaé",
        "state": "MG",
        "district": "Barra",
        "street": "Vila Pedro de Oliveira Lima",
        "zipcode": "36884-077"
    },
    {
        "city": "Muriaé",
        "state": "MG",
        "district": "Aeroporto",
        "street": "Rua Mário Sidone",
        "zipcode": "36887-040"
    },
    {
        "city": "Muriaé",
        "state": "MG",
        "district": "Barra",
        "street": "Rua Rui Barbosa",
        "zipcode": "36884-081"
    },
    {
        "city": "Muriaé",
        "state": "MG",
        "district": "Dornelas",
        "street": "Rua Nicola Cascelli",
        "zipcode": "36884-172"
    },
    {
        "city": "Muriaé",
        "state": "MG",
        "district": "José Cirilo",
        "street": "Rua Dorval Ferreira Medeiros",
        "zipcode": "36886-007"
    },
    {
        "city": "Muriaé",
        "state": "MG",
        "district": "Barra",
        "street": "Vila São Luiz",
        "zipcode": "36884-089"
    },
    {
        "city": "Muriaé",
        "state": "MG",
        "district": "Barra",
        "street": "Rua Victor Atadeu",
        "zipcode": "36884-093"
    },
    {
        "city": "Muriaé",
        "state": "MG",
        "district": "Barra",
        "street": "Vila Júlia Inácia Rodrigues",
        "zipcode": "36884-110"
    },
    {
        "city": "Muriaé",
        "state": "MG",
        "district": "Barra",
        "street": "Vila Rubens Aparecido de Oliveira",
        "zipcode": "36884-118"
    },
    {
        "city": "Muriaé",
        "state": "MG",
        "district": "José Cirilo",
        "street": "Rua São José",
        "zipcode": "36886-017"
    },
    {
        "city": "Muriaé",
        "state": "MG",
        "district": "Barra",
        "street": "Vila Fialho",
        "zipcode": "36884-072"
    },
    {
        "city": "Muriaé",
        "state": "MG",
        "district": "Chácara da Gávea",
        "street": "Avenida Nelson Sigiliano Gomes",
        "zipcode": "36889-010"
    },
    {
        "city": "Muriaé",
        "state": "MG",
        "district": "Santana",
        "street": "Avenida Hermes de Almeida",
        "zipcode": "36887-108"
    },
    {
        "city": "Muriaé",
        "state": "MG",
        "district": "Sofocó",
        "street": "Avenida Otávio Henrique Gouvea",
        "zipcode": "36888-262"
    },
    {
        "city": "Muriaé",
        "state": "MG",
        "district": "Santana",
        "street": "Rua Alice Maria de Almeida",
        "zipcode": "36887-139"
    },
    {
        "city": "Muriaé",
        "state": "MG",
        "district": "Santana",
        "street": "Rua Alzira Lacerda",
        "zipcode": "36887-136"
    },
    {
        "city": "Muriaé",
        "state": "MG",
        "district": "Santana",
        "street": "Rua Aureliano Gomes",
        "zipcode": "36887-137"
    },
    {
        "city": "Muriaé",
        "state": "MG",
        "district": "Bom Pastor",
        "street": "Rua Aristão Ferreira Guimarães",
        "zipcode": "36887-184"
    },
    {
        "city": "Muriaé",
        "state": "MG",
        "district": "Bom Pastor",
        "street": "Rua Ângelo Muniz Pereira",
        "zipcode": "36887-170"
    },
    {
        "city": "Muriaé",
        "state": "MG",
        "district": "Gaspar",
        "street": "Rua Antônio de Souza",
        "zipcode": "36888-133"
    },
    {
        "city": "Muriaé",
        "state": "MG",
        "district": "Cardoso de Melo",
        "street": "Rua Benedito Chaves da Cunha",
        "zipcode": "36887-245"
    },
    {
        "city": "Muriaé",
        "state": "MG",
        "district": "Bom Pastor",
        "street": "Rua Dair de Souza Lopes",
        "zipcode": "36887-161"
    },
    {
        "city": "Muriaé",
        "state": "MG",
        "district": "Gaspar",
        "street": "Rua Eduardo Braga",
        "zipcode": "36888-111"
    },
    {
        "city": "Muriaé",
        "state": "MG",
        "district": "Santana",
        "street": "Rua Etelvina Napoleão",
        "zipcode": "36887-134"
    },
    {
        "city": "Muriaé",
        "state": "MG",
        "district": "Bom Pastor",
        "street": "Rua Elza Cerqueira Ramos",
        "zipcode": "36887-167"
    },
    {
        "city": "Muriaé",
        "state": "MG",
        "district": "Gaspar",
        "street": "Rua Eduardo Braga Filho",
        "zipcode": "36888-114"
    },
    {
        "city": "Muriaé",
        "state": "MG",
        "district": "Gaspar",
        "street": "Rua Dom Pedro I",
        "zipcode": "36888-130"
    },
    {
        "city": "Muriaé",
        "state": "MG",
        "district": "Santana",
        "street": "Rua Israel Pinheiro de Lacerda",
        "zipcode": "36887-120"
    },
    {
        "city": "Muriaé",
        "state": "MG",
        "district": "Bom Pastor",
        "street": "Rua Gelci do Carmo Toledo",
        "zipcode": "36887-164"
    },
    {
        "city": "Muriaé",
        "state": "MG",
        "district": "Cardoso de Melo",
        "street": "Rua Francisco Assis Pedrosa",
        "zipcode": "36887-237"
    },
    {
        "city": "Muriaé",
        "state": "MG",
        "district": "Napoleão",
        "street": "Rua das Orquídeas",
        "zipcode": "36887-084"
    },
    {
        "city": "Muriaé",
        "state": "MG",
        "district": "São José",
        "street": "Rua Florinda de Carvalho",
        "zipcode": "36887-014"
    },
    {
        "city": "Muriaé",
        "state": "MG",
        "district": "Santana",
        "street": "Rua Júlio da Fonseca",
        "zipcode": "36887-102"
    },
    {
        "city": "Muriaé",
        "state": "MG",
        "district": "Santana",
        "street": "Rua Joaquina Balbina",
        "zipcode": "36887-122"
    },
    {
        "city": "Muriaé",
        "state": "MG",
        "district": "Santana",
        "street": "Rua Manoel Vieira de Lacerda",
        "zipcode": "36887-132"
    },
    {
        "city": "Muriaé",
        "state": "MG",
        "district": "Bom Pastor",
        "street": "Rua Mário José de Oliveira",
        "zipcode": "36887-173"
    },
    {
        "city": "Muriaé",
        "state": "MG",
        "district": "Bom Pastor",
        "street": "Rua João Batista Pinheiro",
        "zipcode": "36887-176"
    },
    {
        "city": "Muriaé",
        "state": "MG",
        "district": "Cardoso de Melo",
        "street": "Rua João Lourenço da Costa",
        "zipcode": "36887-200"
    },
    {
        "city": "Muriaé",
        "state": "MG",
        "district": "Boa Vista",
        "street": "Rua Maria das Mercês Cordeiro de Aquino",
        "zipcode": "36888-010"
    },
    {
        "city": "Muriaé",
        "state": "MG",
        "district": "Santana",
        "street": "Rua Primeiro de Novembro",
        "zipcode": "36887-110"
    },
    {
        "city": "Muriaé",
        "state": "MG",
        "district": "Santana",
        "street": "Rua Quinze de Novembro",
        "zipcode": "36887-112"
    },
    {
        "city": "Muriaé",
        "state": "MG",
        "district": "Santana",
        "street": "Rua Sara de Jesus Gervásio",
        "zipcode": "36887-130"
    },
    {
        "city": "Muriaé",
        "state": "MG",
        "district": "Santana",
        "street": "Rua Sérgio Lúcio Fernandes Amaral",
        "zipcode": "36887-138"
    },
    {
        "city": "Muriaé",
        "state": "MG",
        "district": "Bom Pastor",
        "street": "Rua Therezinha de Oliveira Baldanza",
        "zipcode": "36887-163"
    },
    {
        "city": "Muriaé",
        "state": "MG",
        "district": "Bom Pastor",
        "street": "Rua Raphael Fadul Fernandes",
        "zipcode": "36887-181"
    },
    {
        "city": "Muriaé",
        "state": "MG",
        "district": "José Cirilo",
        "street": "Travessa Etevaldo de Oliveira",
        "zipcode": "36886-005"
    },
    {
        "city": "Muriaé",
        "state": "MG",
        "district": "Dornelas",
        "street": "Travessa Bahia",
        "zipcode": "36884-218"
    },
    {
        "city": "Muriaé",
        "state": "MG",
        "district": "Bom Pastor",
        "street": "Rua Waldir Custódio Novaes",
        "zipcode": "36887-178"
    },
    {
        "city": "Muriaé",
        "state": "MG",
        "district": "Cardoso de Melo",
        "street": "Rua Rosangela Silva Campos",
        "zipcode": "36887-224"
    },
    {
        "city": "Muriaé",
        "state": "MG",
        "district": "Santana",
        "street": "Rua Zélia de Almeida",
        "zipcode": "36887-106"
    },
    {
        "city": "Muriaé",
        "state": "MG",
        "district": "Santana",
        "street": "Rua Primavera",
        "zipcode": "36887-116"
    },
    {
        "city": "Muriaé",
        "state": "MG",
        "district": "Santana",
        "street": "Rua Nelson de Almeida",
        "zipcode": "36887-124"
    },
    {
        "city": "Muriaé",
        "state": "MG",
        "district": "Cardoso de Melo",
        "street": "Rua Doutor João Evangelista Bandeira de Melo",
        "zipcode": "36887-219"
    },
    {
        "city": "Muriaé",
        "state": "MG",
        "district": "Cardoso de Melo",
        "street": "Rua Francisco Cardoso de Melo",
        "zipcode": "36887-221"
    },
    {
        "city": "Muriaé",
        "state": "MG",
        "district": "Cardoso de Melo",
        "street": "Rua Afonso Cardoso de Melo",
        "zipcode": "36887-231"
    },
    {
        "city": "Muriaé",
        "state": "MG",
        "district": "Cardoso de Melo",
        "street": "Rua Lourenço Cândido Magalhães",
        "zipcode": "36887-227"
    },
    {
        "city": "Muriaé",
        "state": "MG",
        "district": "Cardoso de Melo",
        "street": "Rua Elói Carneiro Melo",
        "zipcode": "36887-222"
    },
    {
        "city": "Muriaé",
        "state": "MG",
        "district": "Cardoso de Melo",
        "street": "Avenida Ana Melo Amaro",
        "zipcode": "36887-225"
    },
    {
        "city": "Muriaé",
        "state": "MG",
        "district": "Cardoso de Melo",
        "street": "Rua Alcebíades Prudente da Silva",
        "zipcode": "36887-233"
    },
    {
        "city": "Muriaé",
        "state": "MG",
        "district": "Cardoso de Melo",
        "street": "Rua Vivalde de Souza",
        "zipcode": "36887-212"
    },
    {
        "city": "Muriaé",
        "state": "MG",
        "district": "Cardoso de Melo",
        "street": "Rua Pedro Afonso Galdino",
        "zipcode": "36887-218"
    },
    {
        "city": "Muriaé",
        "state": "MG",
        "district": "Sofocó",
        "street": "Rodovia BR",
        "zipcode": "36888-250"
    },
    {
        "city": "Muriaé",
        "state": "MG",
        "district": "Chácara da Gávea",
        "street": "Rua Alcides Matos Macedo",
        "zipcode": "36889-022"
    },
    {
        "city": "Muriaé",
        "state": "MG",
        "district": "Universitário",
        "street": "Rodovia BR",
        "zipcode": "36888-230"
    },
    {
        "city": "Muriaé",
        "state": "MG",
        "district": "Chácara Doutor Brum",
        "street": "Rua Benjamim Soares de Azevedo",
        "zipcode": "36889-052"
    },
    {
        "city": "Muriaé",
        "state": "MG",
        "district": "Santa Terezinha",
        "street": "Rua Barão do Rio Branco",
        "zipcode": "36889-266"
    },
    {
        "city": "Muriaé",
        "state": "MG",
        "district": "Boa Esperança",
        "street": "Rua Carmelito Dias Lopes",
        "zipcode": "36889-085"
    },
    {
        "city": "Muriaé",
        "state": "MG",
        "district": "Recanto Verde",
        "street": "Rua Bongaiville",
        "zipcode": "36889-102"
    },
    {
        "city": "Muriaé",
        "state": "MG",
        "district": "Recanto Verde",
        "street": "Rua Chuva de Prata",
        "zipcode": "36889-110"
    },
    {
        "city": "Muriaé",
        "state": "MG",
        "district": "São Pedro",
        "street": "Rua Braz Dutra",
        "zipcode": "36889-170"
    },
    {
        "city": "Muriaé",
        "state": "MG",
        "district": "Chácara da Gávea",
        "street": "Rua Coronel Elydio Guarçoni",
        "zipcode": "36889-016"
    },
    {
        "city": "Muriaé",
        "state": "MG",
        "district": "Chácara da Gávea",
        "street": "Rua Cristóvão Colombo de Paula",
        "zipcode": "36889-020"
    },
    {
        "city": "Muriaé",
        "state": "MG",
        "district": "Santa Terezinha",
        "street": "Rua Bicas",
        "zipcode": "36889-250"
    },
    {
        "city": "Muriaé",
        "state": "MG",
        "district": "Porto",
        "street": "Rua Coronel Francisco Vermelho",
        "zipcode": "36889-239"
    },
    {
        "city": "Muriaé",
        "state": "MG",
        "district": "Recanto Verde",
        "street": "Rua dos Jasmins",
        "zipcode": "36889-112"
    },
    {
        "city": "Muriaé",
        "state": "MG",
        "district": "Gaspar",
        "street": "Rua Gaspar Zem",
        "zipcode": "36888-093"
    },
    {
        "city": "Muriaé",
        "state": "MG",
        "district": "Chácara Doutor Brum",
        "street": "Rua Doutor Marcelino Luiz da Silva",
        "zipcode": "36889-058"
    },
    {
        "city": "Muriaé",
        "state": "MG",
        "district": "Recanto Verde",
        "street": "Rua das Camélias",
        "zipcode": "36889-090"
    },
    {
        "city": "Muriaé",
        "state": "MG",
        "district": "Recanto Verde",
        "street": "Rua das Samambaias",
        "zipcode": "36889-098"
    },
    {
        "city": "Muriaé",
        "state": "MG",
        "district": "Recanto Verde",
        "street": "Rua das Margaridas",
        "zipcode": "36889-116"
    },
    {
        "city": "Muriaé",
        "state": "MG",
        "district": "São Pedro",
        "street": "Rua dos Democratas",
        "zipcode": "36889-160"
    },
    {
        "city": "Muriaé",
        "state": "MG",
        "district": "Chácara Doutor Brum",
        "street": "Rua Dona Lourdes Reis Lopes",
        "zipcode": "36889-050"
    },
    {
        "city": "Muriaé",
        "state": "MG",
        "district": "Recanto Verde",
        "street": "Rua das Hortências",
        "zipcode": "36889-092"
    },
    {
        "city": "Muriaé",
        "state": "MG",
        "district": "São Pedro",
        "street": "Rua do Horizonte",
        "zipcode": "36889-162"
    },
    {
        "city": "Muriaé",
        "state": "MG",
        "district": "Vila Conceição",
        "street": "Rua Domiciano Martins de Andrade",
        "zipcode": "36889-190"
    },
    {
        "city": "Muriaé",
        "state": "MG",
        "district": "Porto",
        "street": "Rua Dom Silvério",
        "zipcode": "36889-235"
    },
    {
        "city": "Muriaé",
        "state": "MG",
        "district": "União",
        "street": "Rua Lícia Maria da Silveira",
        "zipcode": "36888-060"
    },
    {
        "city": "Muriaé",
        "state": "MG",
        "district": "Gaspar",
        "street": "Rua João Soares de Souza",
        "zipcode": "36888-106"
    },
    {
        "city": "Muriaé",
        "state": "MG",
        "district": "Gaspar",
        "street": "Rua José Bernardino",
        "zipcode": "36888-115"
    },
    {
        "city": "Muriaé",
        "state": "MG",
        "district": "Gaspar",
        "street": "Rua José Duarte Filho",
        "zipcode": "36888-117"
    },
    {
        "city": "Muriaé",
        "state": "MG",
        "district": "Gaspar",
        "street": "Rua Maria Nicolina de Oliveira",
        "zipcode": "36888-123"
    },
    {
        "city": "Muriaé",
        "state": "MG",
        "district": "Gaspar",
        "street": "Rua Joana Zem",
        "zipcode": "36888-126"
    },
    {
        "city": "Muriaé",
        "state": "MG",
        "district": "Chácara da Gávea",
        "street": "Rua João Feres",
        "zipcode": "36889-014"
    },
    {
        "city": "Muriaé",
        "state": "MG",
        "district": "Chácara Doutor Brum",
        "street": "Rua Lucinda Soares Brum",
        "zipcode": "36889-056"
    },
    {
        "city": "Muriaé",
        "state": "MG",
        "district": "Gaspar",
        "street": "Rua Júlio Cesar Pereira",
        "zipcode": "36888-127"
    },
    {
        "city": "Muriaé",
        "state": "MG",
        "district": "Gaspar",
        "street": "Rua Judith Leite Correa",
        "zipcode": "36888-091"
    },
    {
        "city": "Muriaé",
        "state": "MG",
        "district": "Gaspar",
        "street": "Rua Nélia de Araújo Braga",
        "zipcode": "36888-112"
    },
    {
        "city": "Muriaé",
        "state": "MG",
        "district": "Santa Luzia",
        "street": "Rua José dos Santos",
        "zipcode": "36888-193"
    },
    {
        "city": "Muriaé",
        "state": "MG",
        "district": "Gaspar",
        "street": "Rua Paulo de Oliveira Goes",
        "zipcode": "36888-105"
    },
    {
        "city": "Muriaé",
        "state": "MG",
        "district": "Gaspar",
        "street": "Rua Sete de Setembro",
        "zipcode": "36888-118"
    },
    {
        "city": "Muriaé",
        "state": "MG",
        "district": "União",
        "street": "Rua Teófilo Tostes",
        "zipcode": "36888-046"
    },
    {
        "city": "Muriaé",
        "state": "MG",
        "district": "Gaspar",
        "street": "Rua São João Batista",
        "zipcode": "36888-136"
    },
    {
        "city": "Muriaé",
        "state": "MG",
        "district": "União",
        "street": "Rua Zulmira Gruppi Almada",
        "zipcode": "36888-050"
    },
    {
        "city": "Muriaé",
        "state": "MG",
        "district": "União",
        "street": "Travessa Sebastiana Maria Fintelman",
        "zipcode": "36888-052"
    },
    {
        "city": "Muriaé",
        "state": "MG",
        "district": "União",
        "street": "Travessa Amélia Sebastiana de Jesus",
        "zipcode": "36888-064"
    },
    {
        "city": "Muriaé",
        "state": "MG",
        "district": "União",
        "street": "Travessa Antônio José Cabral",
        "zipcode": "36888-056"
    },
    {
        "city": "Muriaé",
        "state": "MG",
        "district": "União",
        "street": "Travessa Walter de Souza Carmo",
        "zipcode": "36888-058"
    },
    {
        "city": "Muriaé",
        "state": "MG",
        "district": "União",
        "street": "Rua Wilson Araújo",
        "zipcode": "36888-042"
    },
    {
        "city": "Muriaé",
        "state": "MG",
        "district": "Recanto Verde",
        "street": "Rua dos Coqueiros",
        "zipcode": "36889-100"
    },
    {
        "city": "Muriaé",
        "state": "MG",
        "district": "Gaspar",
        "street": "Rua São Judas Tadeu",
        "zipcode": "36888-103"
    },
    {
        "city": "Muriaé",
        "state": "MG",
        "district": "Cardoso de Melo",
        "street": "Rua Jair Cardoso de Melo",
        "zipcode": "36887-240"
    },
    {
        "city": "Muriaé",
        "state": "MG",
        "district": "Boa Vista",
        "street": "Rua Sebastião Campos",
        "zipcode": "36888-013"
    },
    {
        "city": "Muriaé",
        "state": "MG",
        "district": "São Cristovão",
        "street": "Rua Argélia",
        "zipcode": "36889-325"
    },
    {
        "city": "Muriaé",
        "state": "MG",
        "district": "Encoberta",
        "street": "Rua Antônio Pereira Galvão",
        "zipcode": "36889-350"
    },
    {
        "city": "Muriaé",
        "state": "MG",
        "district": "Santa Terezinha",
        "street": "Rua Carangola",
        "zipcode": "36889-281"
    },
    {
        "city": "Muriaé",
        "state": "MG",
        "district": "São Cristovão",
        "street": "Rua Cabo Verde",
        "zipcode": "36889-316"
    },
    {
        "city": "Muriaé",
        "state": "MG",
        "district": "São Cristovão",
        "street": "Rua Congo",
        "zipcode": "36889-327"
    },
    {
        "city": "Muriaé",
        "state": "MG",
        "district": "Santa Terezinha",
        "street": "Rua Coimbra",
        "zipcode": "36889-278"
    },
    {
        "city": "Muriaé",
        "state": "MG",
        "district": "Encoberta",
        "street": "Rua da Cachoeira",
        "zipcode": "36889-356"
    },
    {
        "city": "Muriaé",
        "state": "MG",
        "district": "São Pedro",
        "street": "Rua Enésio Machado de Oliveira",
        "zipcode": "36889-176"
    },
    {
        "city": "Muriaé",
        "state": "MG",
        "district": "Universitário",
        "street": "Rua Doutor Gilmar Dutra e Melo Pelipe",
        "zipcode": "36888-236"
    },
    {
        "city": "Muriaé",
        "state": "MG",
        "district": "Universitário",
        "street": "Rua Doutor Antônio Monteiro de Castro Neto",
        "zipcode": "36888-239"
    },
    {
        "city": "Muriaé",
        "state": "MG",
        "district": "Chácara da Gávea",
        "street": "Rua Francisca Silva Passos",
        "zipcode": "36889-018"
    },
    {
        "city": "Muriaé",
        "state": "MG",
        "district": "Santa Terezinha",
        "street": "Rua Genuíno Scoparo",
        "zipcode": "36889-274"
    },
    {
        "city": "Muriaé",
        "state": "MG",
        "district": "Santa Terezinha",
        "street": "Rua Divino",
        "zipcode": "36889-286"
    },
    {
        "city": "Muriaé",
        "state": "MG",
        "district": "São Cristovão",
        "street": "Rua Guiné",
        "zipcode": "36889-307"
    },
    {
        "city": "Muriaé",
        "state": "MG",
        "district": "São Cristovão",
        "street": "Rua Espanha",
        "zipcode": "36889-312"
    },
    {
        "city": "Muriaé",
        "state": "MG",
        "district": "São Cristovão",
        "street": "Rua Eugenópolis",
        "zipcode": "36889-336"
    },
    {
        "city": "Muriaé",
        "state": "MG",
        "district": "Edgar Miranda",
        "street": "Rua Doutor Milton Campos",
        "zipcode": "36889-370"
    },
    {
        "city": "Muriaé",
        "state": "MG",
        "district": "Edgar Miranda",
        "street": "Rua Guilhermina de Oliveira",
        "zipcode": "36889-364"
    },
    {
        "city": "Muriaé",
        "state": "MG",
        "district": "Porto Belo",
        "street": "Rua Edson Miranda Júnior",
        "zipcode": "36889-212"
    },
    {
        "city": "Muriaé",
        "state": "MG",
        "district": "Boa Esperança",
        "street": "Rua Luiz Antônio Ribeiro",
        "zipcode": "36889-070"
    },
    {
        "city": "Muriaé",
        "state": "MG",
        "district": "Boa Esperança",
        "street": "Rua Lourdes Soares Brum",
        "zipcode": "36889-082"
    },
    {
        "city": "Muriaé",
        "state": "MG",
        "district": "São Pedro",
        "street": "Rua José Botaro",
        "zipcode": "36889-184"
    },
    {
        "city": "Muriaé",
        "state": "MG",
        "district": "Centro",
        "street": "Rua Major Martinho",
        "zipcode": "36880-101"
    },
    {
        "city": "Muriaé",
        "state": "MG",
        "district": "Coronel Izalino",
        "street": "Rua Lacyr Goulart Silva",
        "zipcode": "36889-001"
    },
    {
        "city": "Muriaé",
        "state": "MG",
        "district": "Chácara da Gávea",
        "street": "Rua Manoel Pereira de Carvalho",
        "zipcode": "36889-030"
    },
    {
        "city": "Muriaé",
        "state": "MG",
        "district": "São Cristovão",
        "street": "Rua Líbano",
        "zipcode": "36889-319"
    },
    {
        "city": "Muriaé",
        "state": "MG",
        "district": "São Pedro",
        "street": "Rua Jardim América",
        "zipcode": "36889-178"
    },
    {
        "city": "Muriaé",
        "state": "MG",
        "district": "São Pedro",
        "street": "Rua João Braga Filho",
        "zipcode": "36889-180"
    },
    {
        "city": "Muriaé",
        "state": "MG",
        "district": "Porto Belo",
        "street": "Rua Leonídio Valemtim Ferreira",
        "zipcode": "36889-200"
    },
    {
        "city": "Muriaé",
        "state": "MG",
        "district": "Edgar Miranda",
        "street": "Rua João XXIII",
        "zipcode": "36889-368"
    },
    {
        "city": "Muriaé",
        "state": "MG",
        "district": "Santa Luzia",
        "street": "Rua Joaquim Teixeira Leite",
        "zipcode": "36888-202"
    },
    {
        "city": "Muriaé",
        "state": "MG",
        "district": "São Cristovão",
        "street": "Rua Joaquim Theodoro da Cunha",
        "zipcode": "36889-324"
    },
    {
        "city": "Muriaé",
        "state": "MG",
        "district": "Santa Terezinha",
        "street": "Rua Miraí",
        "zipcode": "36889-277"
    },
    {
        "city": "Muriaé",
        "state": "MG",
        "district": "Boa Esperança",
        "street": "Rua Nossa Senhora da Glória",
        "zipcode": "36889-076"
    },
    {
        "city": "Muriaé",
        "state": "MG",
        "district": "São Pedro",
        "street": "Rua Porfírio Amâncio de Souza",
        "zipcode": "36889-154"
    },
    {
        "city": "Muriaé",
        "state": "MG",
        "district": "São Pedro",
        "street": "Rua Valdemar Vaz Pereira",
        "zipcode": "36889-186"
    },
    {
        "city": "Muriaé",
        "state": "MG",
        "district": "Chácara da Gávea",
        "street": "Rua Professora Esmeralda Vianna",
        "zipcode": "36889-032"
    },
    {
        "city": "Muriaé",
        "state": "MG",
        "district": "Chácara Doutor Brum",
        "street": "Rua Paulo Soares Brum",
        "zipcode": "36889-054"
    },
    {
        "city": "Muriaé",
        "state": "MG",
        "district": "Porto",
        "street": "Rua Osório Armando Maria",
        "zipcode": "36889-227"
    },
    {
        "city": "Muriaé",
        "state": "MG",
        "district": "Santa Terezinha",
        "street": "Rua Palma",
        "zipcode": "36889-257"
    },
    {
        "city": "Muriaé",
        "state": "MG",
        "district": "Chácara da Gávea",
        "street": "Rua Professor Viçoso",
        "zipcode": "36889-026"
    },
    {
        "city": "Muriaé",
        "state": "MG",
        "district": "Porto",
        "street": "Rua Nossa Senhora Aparecida",
        "zipcode": "36889-230"
    },
    {
        "city": "Muriaé",
        "state": "MG",
        "district": "Porto",
        "street": "Rua Nossa Senhora do Carmo",
        "zipcode": "36889-229"
    },
    {
        "city": "Muriaé",
        "state": "MG",
        "district": "Porto Belo",
        "street": "Rua Orminda do Prado Ferreira",
        "zipcode": "36889-206"
    },
    {
        "city": "Muriaé",
        "state": "MG",
        "district": "São Cristovão",
        "street": "Rua Marrocos",
        "zipcode": "36889-331"
    },
    {
        "city": "Muriaé",
        "state": "MG",
        "district": "Padre Tiago",
        "street": "Rua Cannã",
        "zipcode": "36889-438"
    },
    {
        "city": "Muriaé",
        "state": "MG",
        "district": "Padre Tiago",
        "street": "Rua Betânia",
        "zipcode": "36889-444"
    },
    {
        "city": "Muriaé",
        "state": "MG",
        "district": "Porto",
        "street": "Rua Miguel Sevenini",
        "zipcode": "36889-223"
    },
    {
        "city": "Muriaé",
        "state": "MG",
        "district": "Santa Terezinha",
        "street": "Rua Cataguases",
        "zipcode": "36889-293"
    },
    {
        "city": "Muriaé",
        "state": "MG",
        "district": "Vale Verde",
        "street": "Rua Espírito Santo",
        "zipcode": "36889-465"
    },
    {
        "city": "Muriaé",
        "state": "MG",
        "district": "Santa Laura",
        "street": "Rua Romário Afonso Ambrósio",
        "zipcode": "36889-506"
    },
    {
        "city": "Muriaé",
        "state": "MG",
        "district": "Santa Terezinha",
        "street": "Rua Ubá",
        "zipcode": "36889-259"
    },
    {
        "city": "Muriaé",
        "state": "MG",
        "district": "Chalé",
        "street": "Rua Euclides de Almeida Pacheco",
        "zipcode": "36889-382"
    },
    {
        "city": "Muriaé",
        "state": "MG",
        "district": "Padre Tiago",
        "street": "Rua Galiléia",
        "zipcode": "36889-442"
    },
    {
        "city": "Muriaé",
        "state": "MG",
        "district": "Inconfidência",
        "street": "Rua Itamar Magalhães",
        "zipcode": "36889-398"
    },
    {
        "city": "Muriaé",
        "state": "MG",
        "district": "Santa Laura",
        "street": "Rua Ernani Luiz Ferreira",
        "zipcode": "36889-501"
    },
    {
        "city": "Muriaé",
        "state": "MG",
        "district": "Santa Laura",
        "street": "Rua Ernani Luiz Ferreira Júnior",
        "zipcode": "36889-504"
    },
    {
        "city": "Muriaé",
        "state": "MG",
        "district": "Santa Laura",
        "street": "Rua Domingos Wilson Abdalla do Amaral",
        "zipcode": "36889-513"
    },
    {
        "city": "Muriaé",
        "state": "MG",
        "district": "Padre Tiago",
        "street": "Rua Laurindo Costa e Silva",
        "zipcode": "36889-424"
    },
    {
        "city": "Muriaé",
        "state": "MG",
        "district": "Santa Laura",
        "street": "Rua Joaquim Ribeiro de Carvalho",
        "zipcode": "36889-500"
    },
    {
        "city": "Muriaé",
        "state": "MG",
        "district": "Padre Tiago",
        "street": "Rua Jerusalém",
        "zipcode": "36889-446"
    },
    {
        "city": "Muriaé",
        "state": "MG",
        "district": "Santa Terezinha",
        "street": "Rua Recreio",
        "zipcode": "36889-295"
    },
    {
        "city": "Muriaé",
        "state": "MG",
        "district": "São Cristovão",
        "street": "Rua Síria",
        "zipcode": "36889-310"
    },
    {
        "city": "Muriaé",
        "state": "MG",
        "district": "São Cristovão",
        "street": "Rua Senegal",
        "zipcode": "36889-333"
    },
    {
        "city": "Muriaé",
        "state": "MG",
        "district": "Chalé",
        "street": "Rua Professor Florestan Fernandes",
        "zipcode": "36889-384"
    },
    {
        "city": "Muriaé",
        "state": "MG",
        "district": "Inconfidência",
        "street": "Rua Rita Carneiro Lopes",
        "zipcode": "36889-406"
    },
    {
        "city": "Muriaé",
        "state": "MG",
        "district": "Padre Tiago",
        "street": "Rua Teotonio",
        "zipcode": "36889-422"
    },
    {
        "city": "Muriaé",
        "state": "MG",
        "district": "Vale Verde",
        "street": "Rua São Bernardo",
        "zipcode": "36889-454"
    },
    {
        "city": "Muriaé",
        "state": "MG",
        "district": "São Cristovão",
        "street": "Rua Pastor Luther King",
        "zipcode": "36889-339"
    },
    {
        "city": "Muriaé",
        "state": "MG",
        "district": "Vale Verde",
        "street": "Rua São Caetano",
        "zipcode": "36889-456"
    },
    {
        "city": "Muriaé",
        "state": "MG",
        "district": "Vale Verde",
        "street": "Rua Santa Clara",
        "zipcode": "36889-459"
    },
    {
        "city": "Muriaé",
        "state": "MG",
        "district": "Vale Verde",
        "street": "Rua São Gabriel",
        "zipcode": "36889-472"
    },
    {
        "city": "Muriaé",
        "state": "MG",
        "district": "Santa Laura",
        "street": "Rua Olavo Antunes Siqueira",
        "zipcode": "36889-509"
    },
    {
        "city": "Muriaé",
        "state": "MG",
        "district": "São Cristovão",
        "street": "Rua Rodésia",
        "zipcode": "36889-330"
    },
    {
        "city": "Muriaé",
        "state": "MG",
        "district": "Vale Verde",
        "street": "Rua Santo Expedito",
        "zipcode": "36889-478"
    },
    {
        "city": "Muriaé",
        "state": "MG",
        "district": "São Pedro",
        "street": "Rua Zelidia Maria da Silva",
        "zipcode": "36889-152"
    },
    {
        "city": "Muriaé",
        "state": "MG",
        "district": "Porto",
        "street": "Vila Maria José",
        "zipcode": "36889-233"
    },
    {
        "city": "Muriaé",
        "state": "MG",
        "district": "Santa Terezinha",
        "street": "Travessa Santa Luzia",
        "zipcode": "36889-256"
    },
    {
        "city": "Muriaé",
        "state": "MG",
        "district": "Santa Terezinha",
        "street": "Rua Vieiras",
        "zipcode": "36889-298"
    },
    {
        "city": "Muriaé",
        "state": "MG",
        "district": "São Cristovão",
        "street": "Vila Salvador",
        "zipcode": "36889-303"
    },
    {
        "city": "Muriaé",
        "state": "MG",
        "district": "São Cristovão",
        "street": "Vila Pascoal Bertho",
        "zipcode": "36889-306"
    },
    {
        "city": "Muriaé",
        "state": "MG",
        "district": "Inconfidência",
        "street": "Vila Ângelo Simão",
        "zipcode": "36889-400"
    },
    {
        "city": "Muriaé",
        "state": "MG",
        "district": "Padre Tiago",
        "street": "Travessa Jericó",
        "zipcode": "36889-426"
    },
    {
        "city": "Muriaé",
        "state": "MG",
        "district": "Porto",
        "street": "Vila Dermeval Lomeu de Carvalho",
        "zipcode": "36889-241"
    },
    {
        "city": "Muriaé",
        "state": "MG",
        "district": "Porto",
        "street": "Travessa Santa Tereza",
        "zipcode": "36889-247"
    },
    {
        "city": "Muriaé",
        "state": "MG",
        "district": "Santa Terezinha",
        "street": "Travessa Boa Esperança",
        "zipcode": "36889-253"
    },
    {
        "city": "Muriaé",
        "state": "MG",
        "district": "Porto",
        "street": "Vila Manoel Peçanha",
        "zipcode": "36889-232"
    },
    {
        "city": "Muriaé",
        "state": "MG",
        "district": "Inconfidência",
        "street": "Rua Olavo Rodrigues Pereira",
        "zipcode": "36889-396"
    },
    {
        "city": "Muriaé",
        "state": "MG",
        "district": "Vale Verde",
        "street": "Rua Santa Tereza",
        "zipcode": "36889-474"
    },
    {
        "city": "Muriaé",
        "state": "MG",
        "district": "Santa Laura",
        "street": "Rua Clóvis Torres",
        "zipcode": "36889-512"
    },
    {
        "city": "Muriaé",
        "state": "MG",
        "district": "Santa Terezinha",
        "street": "Rua Santa Marcelina",
        "zipcode": "36889-260"
    },
    {
        "city": "Muriaé",
        "state": "MG",
        "district": "Padre Tiago",
        "street": "Rua Nazaré",
        "zipcode": "36889-436"
    },
    {
        "city": "Muriaé",
        "state": "MG",
        "district": "Padre Tiago",
        "street": "Rua Padre Félix",
        "zipcode": "36889-448"
    },
    {
        "city": "Muriaé",
        "state": "MG",
        "district": "Centro",
        "street": "Alameda Carpedária",
        "zipcode": "36880-122"
    },
    {
        "city": "Muriaé",
        "state": "MG",
        "district": "Quinta das Flores",
        "street": "Alameda das Orquídeas",
        "zipcode": "36880-140"
    },
    {
        "city": "Muriaé",
        "state": "MG",
        "district": "Primavera",
        "street": "Alameda das Sibipirunas",
        "zipcode": "36880-268"
    },
    {
        "city": "Muriaé",
        "state": "MG",
        "district": "Primavera",
        "street": "Alameda dos Ipês",
        "zipcode": "36880-270"
    },
    {
        "city": "Muriaé",
        "state": "MG",
        "district": "Primavera",
        "street": "Alameda dos Hibiscos",
        "zipcode": "36880-278"
    },
    {
        "city": "Muriaé",
        "state": "MG",
        "district": "Quinta das Flores",
        "street": "Alameda das Violetas",
        "zipcode": "36880-146"
    },
    {
        "city": "Muriaé",
        "state": "MG",
        "district": "Centro",
        "street": "Avenida Comendador Freitas",
        "zipcode": "36880-061"
    },
    {
        "city": "Muriaé",
        "state": "MG",
        "district": "Dornelas",
        "street": "Avenida Prefeito Dante Bruno",
        "zipcode": "36884-178"
    },
    {
        "city": "Muriaé",
        "state": "MG",
        "district": "Dornelas",
        "street": "Avenida Rita Maria de Freitas",
        "zipcode": "36884-191"
    },
    {
        "city": "Muriaé",
        "state": "MG",
        "district": "Dornelas",
        "street": "Avenida João de Souza Celestino",
        "zipcode": "36884-195"
    },
    {
        "city": "Muriaé",
        "state": "MG",
        "district": "Chácara Leblom",
        "street": "Avenida Luciano Rodrigues de Paula",
        "zipcode": "36889-550"
    },
    {
        "city": "Muriaé",
        "state": "MG",
        "district": "Safira",
        "street": "Rua Afonsina Vitorina Martins",
        "zipcode": "36883-061"
    },
    {
        "city": "Muriaé",
        "state": "MG",
        "district": "Barra",
        "street": "Praça Prefeito Paulo Carvalho",
        "zipcode": "36884-074"
    },
    {
        "city": "Muriaé",
        "state": "MG",
        "district": "Barra",
        "street": "Praça Coronel Tibúrcio",
        "zipcode": "36884-097"
    },
    {
        "city": "Muriaé",
        "state": "MG",
        "district": "Barra",
        "street": "Rodovia BR",
        "zipcode": "36884-114"
    },
    {
        "city": "Muriaé",
        "state": "MG",
        "district": "Safira",
        "street": "Rua Artur Duarte",
        "zipcode": "36883-042"
    },
    {
        "city": "Muriaé",
        "state": "MG",
        "district": "Barra",
        "street": "Rua Anastácio Neto",
        "zipcode": "36884-018"
    },
    {
        "city": "Muriaé",
        "state": "MG",
        "district": "Santa Laura",
        "street": "Rua Areno Ângelo Levate",
        "zipcode": "36889-533"
    },
    {
        "city": "Muriaé",
        "state": "MG",
        "district": "Safira",
        "street": "Rua Chico Felipe",
        "zipcode": "36883-049"
    },
    {
        "city": "Muriaé",
        "state": "MG",
        "district": "Santa Laura",
        "street": "Rua Nilo Faustino de Araújo",
        "zipcode": "36889-542"
    },
    {
        "city": "Muriaé",
        "state": "MG",
        "district": "Santa Laura",
        "street": "Rua Francisco Paes de Mattos",
        "zipcode": "36889-536"
    },
    {
        "city": "Muriaé",
        "state": "MG",
        "district": "Santa Laura",
        "street": "Rua Eloi José da Silva",
        "zipcode": "36889-530"
    },
    {
        "city": "Muriaé",
        "state": "MG",
        "district": "Santa Laura",
        "street": "Rua Miguel Pereira de Carvalho",
        "zipcode": "36889-531"
    },
    {
        "city": "Muriaé",
        "state": "MG",
        "district": "Vale Verde",
        "street": "Rua São Lourenço",
        "zipcode": "36889-463"
    },
    {
        "city": "Muriaé",
        "state": "MG",
        "district": "Santa Laura",
        "street": "Rua Saulo Cardoso de Melo",
        "zipcode": "36889-527"
    },
    {
        "city": "Muriaé",
        "state": "MG",
        "district": "Vale Verde",
        "street": "Rua Tom Coby",
        "zipcode": "36889-457"
    },
    {
        "city": "Muriaé",
        "state": "MG",
        "district": "Santa Laura",
        "street": "Rua Reinaldo Marota Machado",
        "zipcode": "36889-528"
    },
    {
        "city": "Muriaé",
        "state": "MG",
        "district": "Santa Laura",
        "street": "Rua Vereador Tebinha Ligeiro",
        "zipcode": "36889-503"
    },
    {
        "city": "Muriaé",
        "state": "MG",
        "district": "Santa Laura",
        "street": "Rua João Andrade Goulart",
        "zipcode": "36889-534"
    },
    {
        "city": "Muriaé",
        "state": "MG",
        "district": "São Francisco",
        "street": "Rua Doutor Assis Pereira",
        "zipcode": "36881-001"
    },
    {
        "city": "Muriaé",
        "state": "MG",
        "district": "São Francisco",
        "street": "Rua José Pires Júnior",
        "zipcode": "36881-006"
    },
    {
        "city": "Muriaé",
        "state": "MG",
        "district": "Santa Laura",
        "street": "Rua Fernando Aloísio Pessoa de Andrade",
        "zipcode": "36889-540"
    },
    {
        "city": "Muriaé",
        "state": "MG",
        "district": "São Francisco",
        "street": "Rua Maria Calais Gomes",
        "zipcode": "36881-010"
    },
    {
        "city": "Muriaé",
        "state": "MG",
        "district": "Augusto de Abreu",
        "street": "Rua Salomão Ferreira Guimarães",
        "zipcode": "36883-185"
    },
    {
        "city": "Muriaé",
        "state": "MG",
        "district": "Barra",
        "street": "Rua Itagiba de Oliveira",
        "zipcode": "36884-970"
    },
    {
        "city": "Muriaé",
        "state": "MG",
        "district": "João XXIII",
        "street": "Rua José Máximo Ribeiro",
        "zipcode": "36883-190"
    },
    {
        "city": "Muriaé",
        "state": "MG",
        "district": "Inconfidência",
        "street": "Avenida Sebastião Marge",
        "zipcode": "36889-416"
    },
    {
        "city": "Muriaé",
        "state": "MG",
        "district": "Napoleão",
        "street": "Avenida Armando Nunes de Abreu",
        "zipcode": "36887-079"
    },
    {
        "city": "Muriaé",
        "state": "MG",
        "district": "Boa Vista",
        "street": "Avenida Nelson Sigiliano Gomes",
        "zipcode": "36888-019"
    },
    {
        "city": "Muriaé",
        "state": "MG",
        "district": "Gaspar",
        "street": "Avenida Maria Luiza Fogal",
        "zipcode": "36888-099"
    },
    {
        "city": "Muriaé",
        "state": "MG",
        "district": "Napoleão",
        "street": "Avenida Frederico Corveto Napoleão",
        "zipcode": "36887-072"
    },
    {
        "city": "Muriaé",
        "state": "MG",
        "district": "Sofocó",
        "street": "Avenida Joaquim Martins Lopes",
        "zipcode": "36888-256"
    },
    {
        "city": "Muriaé",
        "state": "MG",
        "district": "Sofocó",
        "street": "Avenida Coronel José Joaquim Pereira",
        "zipcode": "36888-265"
    },
    {
        "city": "Muriaé",
        "state": "MG",
        "district": "Boa Vista",
        "street": "Avenida José Resende Fontes",
        "zipcode": "36888-004"
    },
    {
        "city": "Muriaé",
        "state": "MG",
        "district": "Santa Helena",
        "street": "Rodovia BR",
        "zipcode": "36884-250"
    },
    {
        "city": "Muriaé",
        "state": "MG",
        "district": "São Joaquim",
        "street": "Rua Altamir Ferreira Santana",
        "zipcode": "36886-100"
    },
    {
        "city": "Muriaé",
        "state": "MG",
        "district": "Dornelas",
        "street": "Rodovia BR",
        "zipcode": "36884-228"
    },
    {
        "city": "Muriaé",
        "state": "MG",
        "district": "Aeroporto",
        "street": "Praça Otoni",
        "zipcode": "36887-037"
    },
    {
        "city": "Muriaé",
        "state": "MG",
        "district": "Santa Luzia",
        "street": "Rodovia BR",
        "zipcode": "36888-190"
    },
    {
        "city": "Muriaé",
        "state": "MG",
        "district": "São Vicente de Paulo",
        "street": "Rua Alberto José Ferreira",
        "zipcode": "36883-080"
    },
    {
        "city": "Muriaé",
        "state": "MG",
        "district": "Gaspar",
        "street": "Rodovia BR",
        "zipcode": "36888-090"
    },
    {
        "city": "Muriaé",
        "state": "MG",
        "district": "Santa Terezinha",
        "street": "Rua Abelard Goulart",
        "zipcode": "36889-271"
    },
    {
        "city": "Muriaé",
        "state": "MG",
        "district": "Santa Terezinha",
        "street": "Praça Farmacêutico Domingos Ciribelli",
        "zipcode": "36889-289"
    },
    {
        "city": "Muriaé",
        "state": "MG",
        "district": "Santa Terezinha",
        "street": "Praça dos Esportes",
        "zipcode": "36889-290"
    },
    {
        "city": "Muriaé",
        "state": "MG",
        "district": "Porto",
        "street": "Praça José Tavares de Paula",
        "zipcode": "36889-220"
    },
    {
        "city": "Muriaé",
        "state": "MG",
        "district": "Inconfidência",
        "street": "Rua Alvarenga Peixoto",
        "zipcode": "36889-390"
    },
    {
        "city": "Muriaé",
        "state": "MG",
        "district": "São José",
        "street": "Rua Adelaide Geraldo Pinto",
        "zipcode": "36887-012"
    },
    {
        "city": "Muriaé",
        "state": "MG",
        "district": "Barra",
        "street": "Rua Belisário",
        "zipcode": "36884-028"
    },
    {
        "city": "Muriaé",
        "state": "MG",
        "district": "Barra",
        "street": "Rua Antenor Mazorque Sobrinho",
        "zipcode": "36884-034"
    },
    {
        "city": "Muriaé",
        "state": "MG",
        "district": "Franco Suiço",
        "street": "Rua Angelina Duvanel Trigo",
        "zipcode": "36886-175"
    },
    {
        "city": "Muriaé",
        "state": "MG",
        "district": "São Pedro",
        "street": "Rua Ataulfo Alves",
        "zipcode": "36889-164"
    },
    {
        "city": "Muriaé",
        "state": "MG",
        "district": "Porto",
        "street": "Rua Astolfo Menezes",
        "zipcode": "36889-221"
    },
    {
        "city": "Muriaé",
        "state": "MG",
        "district": "São Cristovão",
        "street": "Rua Angola",
        "zipcode": "36889-313"
    },
    {
        "city": "Muriaé",
        "state": "MG",
        "district": "Padre Tiago",
        "street": "Rua Belém",
        "zipcode": "36889-434"
    },
    {
        "city": "Muriaé",
        "state": "MG",
        "district": "Vale Verde",
        "street": "Rua Baronia Augusta",
        "zipcode": "36889-468"
    },
    {
        "city": "Muriaé",
        "state": "MG",
        "district": "Aeroporto",
        "street": "Rua Antônio Ramos",
        "zipcode": "36887-048"
    },
    {
        "city": "Muriaé",
        "state": "MG",
        "district": "Porto",
        "street": "Rua Arthur Miranda",
        "zipcode": "36889-242"
    },
    {
        "city": "Muriaé",
        "state": "MG",
        "district": "Edgar Miranda",
        "street": "Rua Ana Neri",
        "zipcode": "36889-378"
    },
    {
        "city": "Muriaé",
        "state": "MG",
        "district": "Área Rural de Muriaé",
        "street": "Área Rural",
        "zipcode": "36891-899"
    },
    {
        "city": "Muriaé",
        "state": "MG",
        "district": "São Francisco",
        "street": "Rua Josina Rodrigues de Melo",
        "zipcode": "36881-009"
    },
    {
        "city": "Muriaé",
        "state": "MG",
        "district": "Augusto de Abreu",
        "street": "Rua Leon Dala Paula",
        "zipcode": "36883-188"
    },
    {
        "city": "Muriaé",
        "state": "MG",
        "district": "Cardoso de Melo",
        "street": "Rua Abigail Nunes de Melo",
        "zipcode": "36887-206"
    },
    {
        "city": "Muriaé",
        "state": "MG",
        "district": "Cardoso de Melo",
        "street": "Rua Fernando Levate",
        "zipcode": "36887-207"
    },
    {
        "city": "Muriaé",
        "state": "MG",
        "district": "Augusto de Abreu",
        "street": "Avenida Gessy Gravel Silva Júnior",
        "zipcode": "36883-179"
    },
    {
        "city": "Muriaé",
        "state": "MG",
        "district": "Sofocó",
        "street": "Avenida Alvino Carlos de Souza",
        "zipcode": "36888-253"
    },
    {
        "city": "Muriaé",
        "state": "MG",
        "district": "Cardoso de Melo",
        "street": "Rua José Nelson Carneiro de Melo",
        "zipcode": "36887-204"
    },
    {
        "city": "Muriaé",
        "state": "MG",
        "district": "Cardoso de Melo",
        "street": "Rua João Cardoso de Melo",
        "zipcode": "36887-236"
    },
    {
        "city": "Muriaé",
        "state": "MG",
        "district": "Augusto de Abreu",
        "street": "Rua Ferdinando Costa",
        "zipcode": "36883-182"
    },
    {
        "city": "Muriaé",
        "state": "MG",
        "district": "Cardoso de Melo",
        "street": "Rua Sebastião Fabiano Filho",
        "zipcode": "36887-210"
    },
    {
        "city": "Muriaé",
        "state": "MG",
        "district": "Primavera",
        "street": "Alameda dos Jambeiros",
        "zipcode": "36880-266"
    },
    {
        "city": "Muriaé",
        "state": "MG",
        "district": "Primavera",
        "street": "Alameda do Pau",
        "zipcode": "36880-274"
    },
    {
        "city": "Muriaé",
        "state": "MG",
        "district": "Primavera",
        "street": "Avenida Maria da Conceição Xaia",
        "zipcode": "36880-279"
    },
    {
        "city": "Muriaé",
        "state": "MG",
        "district": "São Francisco",
        "street": "Avenida Coronel Francisco Gomes Campos",
        "zipcode": "36881-017"
    },
    {
        "city": "Muriaé",
        "state": "MG",
        "district": "São Francisco",
        "street": "Rua Alexandre Barroca",
        "zipcode": "36881-016"
    },
    {
        "city": "Muriaé",
        "state": "MG",
        "district": "Santo Antônio",
        "street": "Rua Aleozina Lina da Silveira",
        "zipcode": "36881-113"
    },
    {
        "city": "Muriaé",
        "state": "MG",
        "district": "São Francisco",
        "street": "Rua Alcir Pires Vermelho",
        "zipcode": "36881-011"
    },
    {
        "city": "Muriaé",
        "state": "MG",
        "district": "Santo Antônio",
        "street": "Ladeira Santo Antônio",
        "zipcode": "36881-123"
    },
    {
        "city": "Muriaé",
        "state": "MG",
        "district": "Porto Belo",
        "street": "Avenida Sebastião Marge",
        "zipcode": "36889-215"
    },
    {
        "city": "Muriaé",
        "state": "MG",
        "district": "Cerâmica",
        "street": "Rua Antônio Expedito Campos",
        "zipcode": "36883-015"
    },
    {
        "city": "Muriaé",
        "state": "MG",
        "district": "Inconfidência",
        "street": "Rua Aristóteles Campos",
        "zipcode": "36889-404"
    },
    {
        "city": "Muriaé",
        "state": "MG",
        "district": "Porto",
        "street": "Rua Amâncio de Freitas",
        "zipcode": "36889-244"
    },
    {
        "city": "Muriaé",
        "state": "MG",
        "district": "São Cristovão",
        "street": "Rua Anestor Rosa da Silva",
        "zipcode": "36889-322"
    },
    {
        "city": "Muriaé",
        "state": "MG",
        "district": "Santo Antônio",
        "street": "Rua da Fé",
        "zipcode": "36881-146"
    },
    {
        "city": "Muriaé",
        "state": "MG",
        "district": "Centro",
        "street": "Rua Coronel Adolfo Gusman",
        "zipcode": "36880-067"
    },
    {
        "city": "Muriaé",
        "state": "MG",
        "district": "Centro",
        "street": "Rua Menotti Porcaro",
        "zipcode": "36880-095"
    },
    {
        "city": "Muriaé",
        "state": "MG",
        "district": "Prefeito Hélio Araújo",
        "street": "Rua Janir Carlos de Almeida",
        "zipcode": "36880-178"
    },
    {
        "city": "Muriaé",
        "state": "MG",
        "district": "Primavera",
        "street": "Travessa das Murtas",
        "zipcode": "36880-264"
    },
    {
        "city": "Muriaé",
        "state": "MG",
        "district": "Centro",
        "street": "Travessa Abel Meireles",
        "zipcode": "36880-038"
    },
    {
        "city": "Muriaé",
        "state": "MG",
        "district": "Centro",
        "street": "Vila Maria Rita",
        "zipcode": "36880-102"
    },
    {
        "city": "Muriaé",
        "state": "MG",
        "district": "Prefeito Hélio Araújo",
        "street": "Travessa dos Expedicionários",
        "zipcode": "36880-173"
    },
    {
        "city": "Muriaé",
        "state": "MG",
        "district": "Colety",
        "street": "Rua Virgílio Menezes",
        "zipcode": "36880-194"
    },
    {
        "city": "Muriaé",
        "state": "MG",
        "district": "São Francisco",
        "street": "Rua Doutor Otávio Amaral Barroso",
        "zipcode": "36881-022"
    },
    {
        "city": "Muriaé",
        "state": "MG",
        "district": "São Francisco",
        "street": "Rua Doutor Geraldo Starling",
        "zipcode": "36881-023"
    },
    {
        "city": "Muriaé",
        "state": "MG",
        "district": "São Francisco",
        "street": "Rua Francisco José Gertrudes",
        "zipcode": "36881-043"
    },
    {
        "city": "Muriaé",
        "state": "MG",
        "district": "Centro",
        "street": "Rua Doutor Alves Pequeno",
        "zipcode": "36880-074"
    },
    {
        "city": "Muriaé",
        "state": "MG",
        "district": "Primavera",
        "street": "Rua dos Flamboyants",
        "zipcode": "36880-250"
    },
    {
        "city": "Muriaé",
        "state": "MG",
        "district": "Santo Antônio",
        "street": "Rua Hilário Francisco de Almeida",
        "zipcode": "36881-117"
    },
    {
        "city": "Muriaé",
        "state": "MG",
        "district": "Santo Antônio",
        "street": "Rua Joaquim Neres do Nascimento",
        "zipcode": "36881-128"
    },
    {
        "city": "Muriaé",
        "state": "MG",
        "district": "Santo Antônio",
        "street": "Rua Maria da Conceição Oliveira Silva",
        "zipcode": "36881-137"
    },
    {
        "city": "Muriaé",
        "state": "MG",
        "district": "Santo Antônio",
        "street": "Rua Professora Ivonilde Muratori Rocha",
        "zipcode": "36881-149"
    },
    {
        "city": "Muriaé",
        "state": "MG",
        "district": "Cerâmica",
        "street": "Rua Henrique Hastenreiter",
        "zipcode": "36883-013"
    },
    {
        "city": "Muriaé",
        "state": "MG",
        "district": "Safira",
        "street": "Rua Joaquim Geraldo de Almeida",
        "zipcode": "36883-057"
    },
    {
        "city": "Muriaé",
        "state": "MG",
        "district": "São Francisco",
        "street": "Rua José Correa do Prado",
        "zipcode": "36881-004"
    },
    {
        "city": "Muriaé",
        "state": "MG",
        "district": "Vale do Castelo",
        "street": "Rua Luiz Antônio Faria",
        "zipcode": "36881-064"
    },
    {
        "city": "Muriaé",
        "state": "MG",
        "district": "São Francisco",
        "street": "Rua Oscar Lisboa",
        "zipcode": "36881-003"
    },
    {
        "city": "Muriaé",
        "state": "MG",
        "district": "São Francisco",
        "street": "Rua Roldão Pimentel",
        "zipcode": "36881-020"
    },
    {
        "city": "Muriaé",
        "state": "MG",
        "district": "São Francisco",
        "street": "Rua Sebastiana da Silveira Campos",
        "zipcode": "36881-025"
    },
    {
        "city": "Muriaé",
        "state": "MG",
        "district": "São Francisco",
        "street": "Rua Mariana Campos",
        "zipcode": "36881-040"
    },
    {
        "city": "Muriaé",
        "state": "MG",
        "district": "Vale do Castelo",
        "street": "Rua Olga Carlos de Souza",
        "zipcode": "36881-050"
    },
    {
        "city": "Muriaé",
        "state": "MG",
        "district": "Cerâmica",
        "street": "Vila Mariquito Pena",
        "zipcode": "36883-001"
    },
    {
        "city": "Muriaé",
        "state": "MG",
        "district": "Cerâmica",
        "street": "Travessa São João Batista",
        "zipcode": "36883-004"
    },
    {
        "city": "Muriaé",
        "state": "MG",
        "district": "Safira",
        "street": "Vila Cecília Conceição Pinheiro",
        "zipcode": "36883-030"
    },
    {
        "city": "Muriaé",
        "state": "MG",
        "district": "Safira",
        "street": "Rua Theodorico Rosa da Silva",
        "zipcode": "36883-034"
    },
    {
        "city": "Muriaé",
        "state": "MG",
        "district": "Centro",
        "street": "Rua Mariazinha Soares Bittencourt",
        "zipcode": "36880-125"
    },
    {
        "city": "Muriaé",
        "state": "MG",
        "district": "São Gotardo",
        "street": "Rua Maria Laura de Medeiros",
        "zipcode": "36880-203"
    },
    {
        "city": "Muriaé",
        "state": "MG",
        "district": "São Francisco",
        "street": "Rua Padre Arnaldo",
        "zipcode": "36881-041"
    },
    {
        "city": "Muriaé",
        "state": "MG",
        "district": "João XXIII",
        "street": "Avenida Amaro Goulart",
        "zipcode": "36883-221"
    },
    {
        "city": "Muriaé",
        "state": "MG",
        "district": "Barra",
        "street": "Avenida Marechal Floriano",
        "zipcode": "36884-113"
    },
    {
        "city": "Muriaé",
        "state": "MG",
        "district": "Dornelas",
        "street": "Avenida Francisco Dornelas",
        "zipcode": "36884-219"
    },
    {
        "city": "Muriaé",
        "state": "MG",
        "district": "Dornelas",
        "street": "Avenida Serafim Augustini de Freitas",
        "zipcode": "36884-190"
    },
    {
        "city": "Muriaé",
        "state": "MG",
        "district": "Planalto",
        "street": "Rua Araçagy Guimarães Bittencourt",
        "zipcode": "36883-149"
    },
    {
        "city": "Muriaé",
        "state": "MG",
        "district": "João VI",
        "street": "Rua Arílton Braz de Almeida",
        "zipcode": "36883-256"
    },
    {
        "city": "Muriaé",
        "state": "MG",
        "district": "Dornelas",
        "street": "Rua Arthur Ferreira",
        "zipcode": "36884-175"
    },
    {
        "city": "Muriaé",
        "state": "MG",
        "district": "Barra",
        "street": "Rua Cantuária Ferreira da Costa",
        "zipcode": "36884-086"
    },
    {
        "city": "Muriaé",
        "state": "MG",
        "district": "Dornelas",
        "street": "Travessa Paraná",
        "zipcode": "36884-212"
    },
    {
        "city": "Muriaé",
        "state": "MG",
        "district": "Dornelas",
        "street": "Rua Vicente Cascelli",
        "zipcode": "36884-227"
    },
    {
        "city": "Muriaé",
        "state": "MG",
        "district": "São Vicente de Paulo",
        "street": "Rua Doutor Hélio Tostes",
        "zipcode": "36883-083"
    },
    {
        "city": "Muriaé",
        "state": "MG",
        "district": "Barra",
        "street": "Rua Espera Feliz",
        "zipcode": "36884-045"
    },
    {
        "city": "Muriaé",
        "state": "MG",
        "district": "Barra",
        "street": "Rua Doutor Antônio Rogério de Castro",
        "zipcode": "36884-069"
    },
    {
        "city": "Muriaé",
        "state": "MG",
        "district": "Barra",
        "street": "Rua Eucário Godinho",
        "zipcode": "36884-116"
    },
    {
        "city": "Muriaé",
        "state": "MG",
        "district": "Dornelas",
        "street": "Rua Getúlio Dutra Filho",
        "zipcode": "36884-194"
    },
    {
        "city": "Muriaé",
        "state": "MG",
        "district": "José Cirilo",
        "street": "Rua Ignácio Santos Sexto",
        "zipcode": "36886-027"
    },
    {
        "city": "Muriaé",
        "state": "MG",
        "district": "Safira",
        "street": "Rua Josefa do Amor Divino",
        "zipcode": "36883-060"
    },
    {
        "city": "Muriaé",
        "state": "MG",
        "district": "Planalto",
        "street": "Rua São Vicente",
        "zipcode": "36883-130"
    },
    {
        "city": "Muriaé",
        "state": "MG",
        "district": "Planalto",
        "street": "Rua Flávio Siqueira",
        "zipcode": "36883-133"
    },
    {
        "city": "Muriaé",
        "state": "MG",
        "district": "Planalto",
        "street": "Rua Francisco de Assis Matos Oliveira",
        "zipcode": "36883-139"
    },
    {
        "city": "Muriaé",
        "state": "MG",
        "district": "João XXIII",
        "street": "Rua Henrique de Oliveira Ribeiro",
        "zipcode": "36883-230"
    },
    {
        "city": "Muriaé",
        "state": "MG",
        "district": "João VI",
        "street": "Rua Mário Monteiro de Castro Filho",
        "zipcode": "36883-240"
    },
    {
        "city": "Muriaé",
        "state": "MG",
        "district": "João VI",
        "street": "Rua Sebastião Nilton de Aredes",
        "zipcode": "36883-250"
    },
    {
        "city": "Muriaé",
        "state": "MG",
        "district": "Barra",
        "street": "Rua Francisco Carlos Machado",
        "zipcode": "36884-000"
    },
    {
        "city": "Muriaé",
        "state": "MG",
        "district": "Barra",
        "street": "Rua Presidente Getúlio Vargas",
        "zipcode": "36884-004"
    },
    {
        "city": "Muriaé",
        "state": "MG",
        "district": "Barra",
        "street": "Rua Rockfeller",
        "zipcode": "36884-016"
    },
    {
        "city": "Muriaé",
        "state": "MG",
        "district": "Barra",
        "street": "Rua Fardelas",
        "zipcode": "36884-088"
    },
    {
        "city": "Muriaé",
        "state": "MG",
        "district": "Dornelas",
        "street": "Rua Humberto Scalla",
        "zipcode": "36884-174"
    },
    {
        "city": "Muriaé",
        "state": "MG",
        "district": "Dornelas",
        "street": "Rua Sebastião Dornelas",
        "zipcode": "36884-180"
    },
    {
        "city": "Muriaé",
        "state": "MG",
        "district": "João XXIII",
        "street": "Rua José Schitni da Matta",
        "zipcode": "36883-205"
    },
    {
        "city": "Muriaé",
        "state": "MG",
        "district": "Cerâmica",
        "street": "Rua São João Batista",
        "zipcode": "36883-003"
    },
    {
        "city": "Muriaé",
        "state": "MG",
        "district": "Safira",
        "street": "Vila Moreira",
        "zipcode": "36883-052"
    },
    {
        "city": "Muriaé",
        "state": "MG",
        "district": "Safira",
        "street": "Travessa Constância Aguiar",
        "zipcode": "36883-067"
    },
    {
        "city": "Muriaé",
        "state": "MG",
        "district": "João XXIII",
        "street": "Rua Maximiano Fraga",
        "zipcode": "36883-191"
    },
    {
        "city": "Muriaé",
        "state": "MG",
        "district": "João XXIII",
        "street": "Rua Vivalde Ferreira Júnior",
        "zipcode": "36883-215"
    },
    {
        "city": "Muriaé",
        "state": "MG",
        "district": "João VI",
        "street": "Vila Titan",
        "zipcode": "36883-260"
    },
    {
        "city": "Muriaé",
        "state": "MG",
        "district": "João VI",
        "street": "Via Pandora",
        "zipcode": "36883-262"
    },
    {
        "city": "Muriaé",
        "state": "MG",
        "district": "João VI",
        "street": "Via Diane",
        "zipcode": "36883-266"
    },
    {
        "city": "Muriaé",
        "state": "MG",
        "district": "João VI",
        "street": "Rua Paschoal Ciribelli Filho",
        "zipcode": "36883-270"
    },
    {
        "city": "Muriaé",
        "state": "MG",
        "district": "João VI",
        "street": "Via Hiperiun",
        "zipcode": "36883-276"
    },
    {
        "city": "Muriaé",
        "state": "MG",
        "district": "Barra",
        "street": "Travessa Hormindo Sales Ferreira",
        "zipcode": "36884-021"
    },
    {
        "city": "Muriaé",
        "state": "MG",
        "district": "Barra",
        "street": "Rua Tiradentes",
        "zipcode": "36884-054"
    },
    {
        "city": "Muriaé",
        "state": "MG",
        "district": "Barra",
        "street": "Vila Maria Jadum",
        "zipcode": "36884-068"
    },
    {
        "city": "Muriaé",
        "state": "MG",
        "district": "Barra",
        "street": "Vila Jorcelina Laviola Marques",
        "zipcode": "36884-078"
    },
    {
        "city": "Muriaé",
        "state": "MG",
        "district": "Barra",
        "street": "Vila Anchieta",
        "zipcode": "36884-082"
    },
    {
        "city": "Muriaé",
        "state": "MG",
        "district": "Barra",
        "street": "Rua Vitório Dalla Paula",
        "zipcode": "36884-117"
    },
    {
        "city": "Muriaé",
        "state": "MG",
        "district": "Barra",
        "street": "Travessa Marechal Floriano",
        "zipcode": "36884-121"
    },
    {
        "city": "Muriaé",
        "state": "MG",
        "district": "José Cirilo",
        "street": "Rua Rodoval de Lima Costa",
        "zipcode": "36886-003"
    },
    {
        "city": "Muriaé",
        "state": "MG",
        "district": "José Cirilo",
        "street": "Rua Pedro Gurge",
        "zipcode": "36886-019"
    },
    {
        "city": "Muriaé",
        "state": "MG",
        "district": "Joanópolis",
        "street": "Rua Roberta Wernek",
        "zipcode": "36886-065"
    },
    {
        "city": "Muriaé",
        "state": "MG",
        "district": "São Francisco",
        "street": "Rua Jorge Rodrigues Barroca",
        "zipcode": "36881-035"
    },
    {
        "city": "Muriaé",
        "state": "MG",
        "district": "Barra",
        "street": "Vila Tereza Paulo",
        "zipcode": "36884-041"
    },
    {
        "city": "Muriaé",
        "state": "MG",
        "district": "Franco Suiço",
        "street": "Avenida Altino Rodrigues Pereira",
        "zipcode": "36886-160"
    },
    {
        "city": "Muriaé",
        "state": "MG",
        "district": "São Gotardo",
        "street": "Avenida Cecília Meireles",
        "zipcode": "36880-200"
    },
    {
        "city": "Muriaé",
        "state": "MG",
        "district": "Augusto de Abreu",
        "street": "Avenida João Sanches Abreu",
        "zipcode": "36883-170"
    },
    {
        "city": "Muriaé",
        "state": "MG",
        "district": "Dornelas",
        "street": "Avenida do Contorno",
        "zipcode": "36884-211"
    },
    {
        "city": "Muriaé",
        "state": "MG",
        "district": "Franco Suiço",
        "street": "Avenida Hormindo Rodrigues Pereira",
        "zipcode": "36886-178"
    },
    {
        "city": "Muriaé",
        "state": "MG",
        "district": "São Joaquim",
        "street": "Rua Airton Senna",
        "zipcode": "36886-108"
    },
    {
        "city": "Muriaé",
        "state": "MG",
        "district": "Distrito Industrial",
        "street": "Rodovia BR",
        "zipcode": "36883-280"
    },
    {
        "city": "Muriaé",
        "state": "MG",
        "district": "São Joaquim",
        "street": "Rua da Educação",
        "zipcode": "36886-096"
    },
    {
        "city": "Muriaé",
        "state": "MG",
        "district": "Colety",
        "street": "Rua Cândido dos Santos Tureta",
        "zipcode": "36880-182"
    },
    {
        "city": "Muriaé",
        "state": "MG",
        "district": "Dornelas",
        "street": "Rua Danilo Dutra de Souza",
        "zipcode": "36884-223"
    },
    {
        "city": "Muriaé",
        "state": "MG",
        "district": "São Joaquim",
        "street": "Rua das Árvores",
        "zipcode": "36886-103"
    },
    {
        "city": "Muriaé",
        "state": "MG",
        "district": "São Joaquim",
        "street": "Rua da Fraternidade",
        "zipcode": "36886-111"
    },
    {
        "city": "Muriaé",
        "state": "MG",
        "district": "São Joaquim",
        "street": "Rua H",
        "zipcode": "36886-127"
    },
    {
        "city": "Muriaé",
        "state": "MG",
        "district": "São Joaquim",
        "street": "Rua F",
        "zipcode": "36886-132"
    },
    {
        "city": "Muriaé",
        "state": "MG",
        "district": "São Joaquim",
        "street": "Rua José Roberto Cabral",
        "zipcode": "36886-120"
    },
    {
        "city": "Muriaé",
        "state": "MG",
        "district": "São Joaquim",
        "street": "Rua João Micael",
        "zipcode": "36886-124"
    },
    {
        "city": "Muriaé",
        "state": "MG",
        "district": "São José",
        "street": "Rua Manoel Clemente Pereira",
        "zipcode": "36887-016"
    },
    {
        "city": "Muriaé",
        "state": "MG",
        "district": "Joanópolis",
        "street": "Rua Rubi",
        "zipcode": "36886-054"
    },
    {
        "city": "Muriaé",
        "state": "MG",
        "district": "José Cirilo",
        "street": "Rua Sebastião Protássio",
        "zipcode": "36886-021"
    },
    {
        "city": "Muriaé",
        "state": "MG",
        "district": "Joanópolis",
        "street": "Rua Rosa Batista dos Santos Baldanza",
        "zipcode": "36886-068"
    },
    {
        "city": "Muriaé",
        "state": "MG",
        "district": "Joanópolis",
        "street": "Rua Waldemar Dionisio Penna",
        "zipcode": "36886-063"
    },
    {
        "city": "Muriaé",
        "state": "MG",
        "district": "Centro",
        "street": "Travessa Francisco Navarro Carreteiro",
        "zipcode": "36880-035"
    },
    {
        "city": "Muriaé",
        "state": "MG",
        "district": "Dornelas",
        "street": "Rua Vicente Ferreira",
        "zipcode": "36884-208"
    },
    {
        "city": "Muriaé",
        "state": "MG",
        "district": "Santana",
        "street": "Rua Zilda de Almeida",
        "zipcode": "36887-126"
    },
    {
        "city": "Muriaé",
        "state": "MG",
        "district": "Joanópolis",
        "street": "Rua dos Topázios",
        "zipcode": "36886-051"
    },
    {
        "city": "Muriaé",
        "state": "MG",
        "district": "São Joaquim",
        "street": "Rua Joaquim Rodrigues de Almeida",
        "zipcode": "36886-090"
    },
    {
        "city": "Muriaé",
        "state": "MG",
        "district": "João VI",
        "street": "Rua Etevaldo de Oliveira",
        "zipcode": "36883-246"
    },
    {
        "city": "Muriaé",
        "state": "MG",
        "district": "Barra",
        "street": "Rua Ettore Mazzini",
        "zipcode": "36884-042"
    },
    {
        "city": "Muriaé",
        "state": "MG",
        "district": "Dornelas",
        "street": "Rua Hélia Henrique de Melo",
        "zipcode": "36884-192"
    },
    {
        "city": "Muriaé",
        "state": "MG",
        "district": "Franco Suiço",
        "street": "Rua Gertrudes Veggi Duvanel",
        "zipcode": "36886-169"
    },
    {
        "city": "Muriaé",
        "state": "MG",
        "district": "Aeroporto",
        "street": "Rua Santos Dumont",
        "zipcode": "36887-045"
    },
    {
        "city": "Muriaé",
        "state": "MG",
        "district": "Santo Antônio",
        "street": "Rua Isabel Maria da Silva Paula",
        "zipcode": "36881-134"
    },
    {
        "city": "Muriaé",
        "state": "MG",
        "district": "Planalto",
        "street": "Rua Saulo Magalhães",
        "zipcode": "36883-143"
    },
    {
        "city": "Muriaé",
        "state": "MG",
        "district": "Augusto de Abreu",
        "street": "Rua Izaltina de Abreu",
        "zipcode": "36883-176"
    },
    {
        "city": "Muriaé",
        "state": "MG",
        "district": "João XXIII",
        "street": "Rua Rafael Espósito",
        "zipcode": "36883-227"
    },
    {
        "city": "Muriaé",
        "state": "MG",
        "district": "São Francisco",
        "street": "Avenida Professor Murilo de Carvalho",
        "zipcode": "36881-007"
    },
    {
        "city": "Muriaé",
        "state": "MG",
        "district": "João XXIII",
        "street": "Rua João Batista Soares",
        "zipcode": "36883-202"
    },
    {
        "city": "Muriaé",
        "state": "MG",
        "district": "João XXIII",
        "street": "Rua Flávio Fraga França",
        "zipcode": "36883-217"
    },
    {
        "city": "Muriaé",
        "state": "MG",
        "district": "Santo Antônio",
        "street": "Vila São Paulo",
        "zipcode": "36881-116"
    },
    {
        "city": "Muriaé",
        "state": "MG",
        "district": "João XXIII",
        "street": "Rua Waldevino Joaquim Garcia",
        "zipcode": "36883-208"
    },
    {
        "city": "Muriaé",
        "state": "MG",
        "district": "Barra",
        "street": "Vila Delfina Milita Philó",
        "zipcode": "36884-025"
    },
    {
        "city": "Muriaé",
        "state": "MG",
        "district": "Dornelas",
        "street": "Rua Milton Henriques de Almeida",
        "zipcode": "36884-206"
    },
    {
        "city": "Muriaé",
        "state": "MG",
        "district": "Joanópolis",
        "street": "Rua Newton Menezes",
        "zipcode": "36886-062"
    },
    {
        "city": "Muriaé",
        "state": "MG",
        "district": "Gaspar",
        "street": "Avenida Presidente Kennedy",
        "zipcode": "36888-109"
    },
    {
        "city": "Muriaé",
        "state": "MG",
        "district": "Universitário",
        "street": "Avenida Maria Vieira Varella",
        "zipcode": "36888-248"
    },
    {
        "city": "Muriaé",
        "state": "MG",
        "district": "Sofocó",
        "street": "Avenida Lourdes Francisca Martins",
        "zipcode": "36888-259"
    },
    {
        "city": "Muriaé",
        "state": "MG",
        "district": "Chácara da Gávea",
        "street": "Avenida Presidente Castelo Branco",
        "zipcode": "36889-034"
    },
    {
        "city": "Muriaé",
        "state": "MG",
        "district": "Barra",
        "street": "Avenida Coronel Monteiro de Castro",
        "zipcode": "36884-036"
    },
    {
        "city": "Muriaé",
        "state": "MG",
        "district": "Bom Pastor",
        "street": "Rua Abílio José Fritz",
        "zipcode": "36887-169"
    },
    {
        "city": "Muriaé",
        "state": "MG",
        "district": "Gaspar",
        "street": "Rua Aldina Marques Zem",
        "zipcode": "36888-107"
    },
    {
        "city": "Muriaé",
        "state": "MG",
        "district": "São Pedro",
        "street": "Rua Alício Mariano da Silva",
        "zipcode": "36889-150"
    },
    {
        "city": "Muriaé",
        "state": "MG",
        "district": "São Pedro",
        "street": "Praça da Liberdade",
        "zipcode": "36889-166"
    },
    {
        "city": "Muriaé",
        "state": "MG",
        "district": "Boa Esperança",
        "street": "Rua Armando Dias dos Santos",
        "zipcode": "36889-088"
    },
    {
        "city": "Muriaé",
        "state": "MG",
        "district": "São Pedro",
        "street": "Rua da Bandeira",
        "zipcode": "36889-172"
    },
    {
        "city": "Muriaé",
        "state": "MG",
        "district": "Centro",
        "street": "Avenida Presidente Juscelino Kubitschek",
        "zipcode": "36880-001"
    },
    {
        "city": "Muriaé",
        "state": "MG",
        "district": "Dornelas",
        "street": "Rua Silas José de Carvalho",
        "zipcode": "36884-198"
    },
    {
        "city": "Muriaé",
        "state": "MG",
        "district": "Bom Pastor",
        "street": "Rua Elias Salim Fadul",
        "zipcode": "36887-160"
    },
    {
        "city": "Muriaé",
        "state": "MG",
        "district": "Bom Pastor",
        "street": "Rua Doutor Francisco de Assis Carvalho",
        "zipcode": "36887-179"
    },
    {
        "city": "Muriaé",
        "state": "MG",
        "district": "Gaspar",
        "street": "Rua Elísio Firmino da Costa",
        "zipcode": "36888-096"
    },
    {
        "city": "Muriaé",
        "state": "MG",
        "district": "Santa Luzia",
        "street": "Rua Francisco Elias",
        "zipcode": "36888-196"
    },
    {
        "city": "Muriaé",
        "state": "MG",
        "district": "Chácara da Gávea",
        "street": "Rua Doutor Evaristo de Carvalho",
        "zipcode": "36889-012"
    },
    {
        "city": "Muriaé",
        "state": "MG",
        "district": "Recanto Verde",
        "street": "Rua das Avencas",
        "zipcode": "36889-096"
    },
    {
        "city": "Muriaé",
        "state": "MG",
        "district": "Recanto Verde",
        "street": "Rua das Rosas",
        "zipcode": "36889-108"
    },
    {
        "city": "Muriaé",
        "state": "MG",
        "district": "Cardoso de Melo",
        "street": "Rua Jhon Cardoso de Melo",
        "zipcode": "36887-242"
    },
    {
        "city": "Muriaé",
        "state": "MG",
        "district": "Gaspar",
        "street": "Rua Josefa Zem",
        "zipcode": "36888-120"
    },
    {
        "city": "Muriaé",
        "state": "MG",
        "district": "Gaspar",
        "street": "Rua Konstantinos Ioannis Gramatikopoulos",
        "zipcode": "36888-129"
    },
    {
        "city": "Muriaé",
        "state": "MG",
        "district": "São Pedro",
        "street": "Rua Maria Nunes Pereira",
        "zipcode": "36889-174"
    },
    {
        "city": "Muriaé",
        "state": "MG",
        "district": "Aeroporto",
        "street": "Rua José Tomás dos Santos",
        "zipcode": "36887-049"
    },
    {
        "city": "Muriaé",
        "state": "MG",
        "district": "Cardoso de Melo",
        "street": "Rua Oswaldo Corveto Napoleão",
        "zipcode": "36887-201"
    },
    {
        "city": "Muriaé",
        "state": "MG",
        "district": "Cardoso de Melo",
        "street": "Rua Nilson de Melo Pena",
        "zipcode": "36887-239"
    },
    {
        "city": "Muriaé",
        "state": "MG",
        "district": "União",
        "street": "Rua Sebastião Pedro Silva",
        "zipcode": "36888-048"
    },
    {
        "city": "Muriaé",
        "state": "MG",
        "district": "Gaspar",
        "street": "Rua Rosely Fintelman Zem",
        "zipcode": "36888-108"
    },
    {
        "city": "Muriaé",
        "state": "MG",
        "district": "Boa Esperança",
        "street": "Rua Oliveira Barbosa Siqueira",
        "zipcode": "36889-073"
    },
    {
        "city": "Muriaé",
        "state": "MG",
        "district": "Recanto Verde",
        "street": "Rua Palmas",
        "zipcode": "36889-114"
    },
    {
        "city": "Muriaé",
        "state": "MG",
        "district": "São Pedro",
        "street": "Rua Popular",
        "zipcode": "36889-156"
    },
    {
        "city": "Muriaé",
        "state": "MG",
        "district": "São Gotardo",
        "street": "Rua Professora Odaléia Oliveira Moraes de Azevedo",
        "zipcode": "36880-215"
    },
    {
        "city": "Muriaé",
        "state": "MG",
        "district": "União",
        "street": "Travessa Sebastião Fintelman Júnior",
        "zipcode": "36888-054"
    },
    {
        "city": "Muriaé",
        "state": "MG",
        "district": "Chácara Doutor Brum",
        "street": "Rua Wilson Frutuoso Braga",
        "zipcode": "36889-048"
    },
    {
        "city": "Muriaé",
        "state": "MG",
        "district": "São Francisco",
        "street": "Travessa José Campos",
        "zipcode": "36881-046"
    },
    {
        "city": "Muriaé",
        "state": "MG",
        "district": "Vale do Castelo",
        "street": "Rua Felício Orondino Martins",
        "zipcode": "36881-058"
    },
    {
        "city": "Muriaé",
        "state": "MG",
        "district": "Safira",
        "street": "Rua José Antônio da Silva",
        "zipcode": "36883-040"
    },
    {
        "city": "Muriaé",
        "state": "MG",
        "district": "Planalto",
        "street": "Rua Maria José da Rocha",
        "zipcode": "36883-157"
    },
    {
        "city": "Muriaé",
        "state": "MG",
        "district": "João XXIII",
        "street": "Rua Judith Pompei",
        "zipcode": "36883-223"
    },
    {
        "city": "Muriaé",
        "state": "MG",
        "district": "Barra",
        "street": "Rua Itagiba de Oliveira",
        "zipcode": "36884-056"
    },
    {
        "city": "Muriaé",
        "state": "MG",
        "district": "Cardoso de Melo",
        "street": "Rua Lopo Cardoso",
        "zipcode": "36887-209"
    },
    {
        "city": "Muriaé",
        "state": "MG",
        "district": "Cardoso de Melo",
        "street": "Avenida Regina Antunes Napoleão",
        "zipcode": "36887-215"
    },
    {
        "city": "Muriaé",
        "state": "MG",
        "district": "Gaspar",
        "street": "Rua Luciano Clemente de Souza",
        "zipcode": "36888-102"
    },
    {
        "city": "Muriaé",
        "state": "MG",
        "district": "União",
        "street": "Travessa Dona Chica",
        "zipcode": "36888-069"
    },
    {
        "city": "Muriaé",
        "state": "MG",
        "district": "Alto do Castelo",
        "street": "Rua Theobaldo Augusto Machado",
        "zipcode": "36881-104"
    },
    {
        "city": "Muriaé",
        "state": "MG",
        "district": "Barra",
        "street": "Vila Alcino Camilo de Andrade",
        "zipcode": "36884-029"
    },
    {
        "city": "Muriaé",
        "state": "MG",
        "district": "Santana",
        "street": "Avenida Maria Cândida do Carmo",
        "zipcode": "36887-118"
    },
    {
        "city": "Muriaé",
        "state": "MG",
        "district": "Universitário",
        "street": "Avenida Cristiano Ferreira Varella",
        "zipcode": "36888-233"
    },
    {
        "city": "Muriaé",
        "state": "MG",
        "district": "Universitário",
        "street": "Avenida Mizael Ferreira Varella",
        "zipcode": "36888-242"
    },
    {
        "city": "Muriaé",
        "state": "MG",
        "district": "Universitário",
        "street": "Avenida Professora Maria Roberto Marinho",
        "zipcode": "36888-245"
    },
    {
        "city": "Muriaé",
        "state": "MG",
        "district": "São Cristovão",
        "street": "Rua Aimorés",
        "zipcode": "36889-340"
    },
    {
        "city": "Muriaé",
        "state": "MG",
        "district": "Padre Tiago",
        "street": "Rua Aliete Maria de Oliveira",
        "zipcode": "36889-430"
    },
    {
        "city": "Muriaé",
        "state": "MG",
        "district": "Santa Terezinha",
        "street": "Rua Antônio Pereira Coelho",
        "zipcode": "36889-272"
    },
    {
        "city": "Muriaé",
        "state": "MG",
        "district": "Chácara Doutor Brum",
        "street": "Rua Carolina Brum",
        "zipcode": "36889-046"
    },
    {
        "city": "Muriaé",
        "state": "MG",
        "district": "Santa Luzia",
        "street": "Rua Geraldo Argemiro da Cunha",
        "zipcode": "36888-205"
    },
    {
        "city": "Muriaé",
        "state": "MG",
        "district": "Coronel Izalino",
        "street": "Rua Doutor Clóvis de Aquino",
        "zipcode": "36889-005"
    },
    {
        "city": "Muriaé",
        "state": "MG",
        "district": "Recanto Verde",
        "street": "Rua das Gardênias",
        "zipcode": "36889-094"
    },
    {
        "city": "Muriaé",
        "state": "MG",
        "district": "Santa Terezinha",
        "street": "Rua Ervália",
        "zipcode": "36889-284"
    },
    {
        "city": "Muriaé",
        "state": "MG",
        "district": "São Cristovão",
        "street": "Rua Itália",
        "zipcode": "36889-321"
    },
    {
        "city": "Muriaé",
        "state": "MG",
        "district": "Inconfidência",
        "street": "Rua Doutor Gabriel Passos",
        "zipcode": "36889-410"
    },
    {
        "city": "Muriaé",
        "state": "MG",
        "district": "Padre Tiago",
        "street": "Rua Hércules Monteiro",
        "zipcode": "36889-428"
    },
    {
        "city": "Muriaé",
        "state": "MG",
        "district": "Padre Tiago",
        "street": "Rua Hellen Maria",
        "zipcode": "36889-432"
    },
    {
        "city": "Muriaé",
        "state": "MG",
        "district": "Padre Tiago",
        "street": "Rua Emaus",
        "zipcode": "36889-440"
    },
    {
        "city": "Muriaé",
        "state": "MG",
        "district": "Aeroporto",
        "street": "Rua Mário Serenário",
        "zipcode": "36887-054"
    },
    {
        "city": "Muriaé",
        "state": "MG",
        "district": "Bom Pastor",
        "street": "Rua Lírio Cesar Ramos",
        "zipcode": "36887-166"
    },
    {
        "city": "Muriaé",
        "state": "MG",
        "district": "Sofocó",
        "street": "Rua José Rodrigues Pinto",
        "zipcode": "36888-268"
    },
    {
        "city": "Muriaé",
        "state": "MG",
        "district": "Coronel Izalino",
        "street": "Rua Mário Inácio Carneiro",
        "zipcode": "36889-007"
    },
    {
        "city": "Muriaé",
        "state": "MG",
        "district": "Chácara da Gávea",
        "street": "Rua Luiz Henrique Carneiro",
        "zipcode": "36889-028"
    },
    {
        "city": "Muriaé",
        "state": "MG",
        "district": "Santa Terezinha",
        "street": "Rua Miradouro",
        "zipcode": "36889-265"
    },
    {
        "city": "Muriaé",
        "state": "MG",
        "district": "Santa Terezinha",
        "street": "Rua Leopoldina",
        "zipcode": "36889-296"
    },
    {
        "city": "Muriaé",
        "state": "MG",
        "district": "São Cristovão",
        "street": "Rua Moçambique",
        "zipcode": "36889-334"
    },
    {
        "city": "Muriaé",
        "state": "MG",
        "district": "Edgar Miranda",
        "street": "Rua Nelson Moreira",
        "zipcode": "36889-379"
    },
    {
        "city": "Muriaé",
        "state": "MG",
        "district": "Inconfidência",
        "street": "Rua José Rodrigues de Oliveira",
        "zipcode": "36889-394"
    },
    {
        "city": "Muriaé",
        "state": "MG",
        "district": "Santa Laura",
        "street": "Rua Jorge Feres",
        "zipcode": "36889-518"
    },
    {
        "city": "Muriaé",
        "state": "MG",
        "district": "Napoleão",
        "street": "Rua Oito de Maio",
        "zipcode": "36887-066"
    },
    {
        "city": "Muriaé",
        "state": "MG",
        "district": "Vila Conceição",
        "street": "Rua Rafael Stanzani da Silva",
        "zipcode": "36889-195"
    },
    {
        "city": "Muriaé",
        "state": "MG",
        "district": "Inconfidência",
        "street": "Rua Tomaz Antônio Gonzaga",
        "zipcode": "36889-412"
    },
    {
        "city": "Muriaé",
        "state": "MG",
        "district": "Vale Verde",
        "street": "Rua Santa Catarina",
        "zipcode": "36889-450"
    },
    {
        "city": "Muriaé",
        "state": "MG",
        "district": "Vale Verde",
        "street": "Rua Santa Filomena",
        "zipcode": "36889-475"
    },
    {
        "city": "Muriaé",
        "state": "MG",
        "district": "Cardoso de Melo",
        "street": "Rua Vanderlei Cardoso de Magalhães",
        "zipcode": "36887-246"
    },
    {
        "city": "Muriaé",
        "state": "MG",
        "district": "Gaspar",
        "street": "Rua Wiles Julião de Assis",
        "zipcode": "36888-128"
    },
    {
        "city": "Muriaé",
        "state": "MG",
        "district": "Santa Terezinha",
        "street": "Travessa Anibal José Dias",
        "zipcode": "36889-280"
    },
    {
        "city": "Muriaé",
        "state": "MG",
        "district": "Vale Verde",
        "street": "Via Maria Marti",
        "zipcode": "36889-451"
    },
    {
        "city": "Muriaé",
        "state": "MG",
        "district": "Cardoso de Melo",
        "street": "Rua Claudina de Carvalho Melo",
        "zipcode": "36887-213"
    },
    {
        "city": "Muriaé",
        "state": "MG",
        "district": "Cardoso de Melo",
        "street": "Rua José Soares de Oliveira",
        "zipcode": "36887-214"
    },
    {
        "city": "Muriaé",
        "state": "MG",
        "district": "Cardoso de Melo",
        "street": "Avenida Gerson Carneiro de Melo",
        "zipcode": "36887-216"
    },
    {
        "city": "Muriaé",
        "state": "MG",
        "district": "Cardoso de Melo",
        "street": "Rua Manoel Florentino de Carvalho",
        "zipcode": "36887-228"
    },
    {
        "city": "Muriaé",
        "state": "MG",
        "district": "Cardoso de Melo",
        "street": "Rua Joaquim Mercedes Pedrosa",
        "zipcode": "36887-234"
    },
    {
        "city": "Muriaé",
        "state": "MG",
        "district": "Santa Terezinha",
        "street": "Travessa Joaquim Cassiano Filho",
        "zipcode": "36889-251"
    },
    {
        "city": "Muriaé",
        "state": "MG",
        "district": "São Cristovão",
        "street": "Vila Paulo César Peres",
        "zipcode": "36889-337"
    },
    {
        "city": "Muriaé",
        "state": "MG",
        "district": "Santa Laura",
        "street": "Rua Aloísio Carvalho Ribeiro",
        "zipcode": "36889-525"
    },
    {
        "city": "Muriaé",
        "state": "MG",
        "district": "Santa Laura",
        "street": "Avenida Sebastião Marge",
        "zipcode": "36889-543"
    },
    {
        "city": "Muriaé",
        "state": "MG",
        "district": "Dornelas",
        "street": "Praça Dornelas",
        "zipcode": "36884-183"
    },
    {
        "city": "Muriaé",
        "state": "MG",
        "district": "União",
        "street": "Rodovia BR",
        "zipcode": "36888-040"
    },
    {
        "city": "Muriaé",
        "state": "MG",
        "district": "Chalé",
        "street": "Rua Alceste Cerqueira de Faria",
        "zipcode": "36889-386"
    },
    {
        "city": "Muriaé",
        "state": "MG",
        "district": "Vale Verde",
        "street": "Praça Bernadete Garcia Carneiro",
        "zipcode": "36889-460"
    },
    {
        "city": "Muriaé",
        "state": "MG",
        "district": "Barra",
        "street": "Rua Antero Lopes Carvalho",
        "zipcode": "36884-124"
    },
    {
        "city": "Muriaé",
        "state": "MG",
        "district": "Chácara Doutor Brum",
        "street": "Rua Antônio Máximo Ribeiro Filho",
        "zipcode": "36889-062"
    },
    {
        "city": "Muriaé",
        "state": "MG",
        "district": "Santa Laura",
        "street": "Rua Antônio Rodrigues Pereira",
        "zipcode": "36889-537"
    },
    {
        "city": "Muriaé",
        "state": "MG",
        "district": "Inconfidência",
        "street": "Rua Carlos Ivan Rodrigues da Silva",
        "zipcode": "36889-414"
    },
    {
        "city": "Muriaé",
        "state": "MG",
        "district": "Vale Verde",
        "street": "Rua Carlos Leandro Ferreira",
        "zipcode": "36889-477"
    },
    {
        "city": "Muriaé",
        "state": "MG",
        "district": "Santa Laura",
        "street": "Rua Antônio Mescolin",
        "zipcode": "36889-539"
    },
    {
        "city": "Muriaé",
        "state": "MG",
        "district": "Santa Laura",
        "street": "Rua Gilberto Pedrosa de Arêdes Júnior",
        "zipcode": "36889-507"
    },
    {
        "city": "Muriaé",
        "state": "MG",
        "district": "Boa Vista",
        "street": "Rua Hilda Godinho Navarro",
        "zipcode": "36888-007"
    },
    {
        "city": "Muriaé",
        "state": "MG",
        "district": "São Cristovão",
        "street": "Rua Doutor Newton Rezende",
        "zipcode": "36889-343"
    },
    {
        "city": "Muriaé",
        "state": "MG",
        "district": "União",
        "street": "Rua Narciso Dias Rabelo",
        "zipcode": "36888-044"
    },
    {
        "city": "Muriaé",
        "state": "MG",
        "district": "Gaspar",
        "street": "Rua Léa Pimentel Mannarino",
        "zipcode": "36888-100"
    },
    {
        "city": "Muriaé",
        "state": "MG",
        "district": "São Pedro",
        "street": "Rua Maria Conceição Sabino",
        "zipcode": "36889-182"
    },
    {
        "city": "Muriaé",
        "state": "MG",
        "district": "São Cristovão",
        "street": "Rua Mauritânia",
        "zipcode": "36889-328"
    },
    {
        "city": "Muriaé",
        "state": "MG",
        "district": "Edgar Miranda",
        "street": "Rua Jorcelina Miranda",
        "zipcode": "36889-366"
    },
    {
        "city": "Muriaé",
        "state": "MG",
        "district": "Edgar Miranda",
        "street": "Rua João Pessoa",
        "zipcode": "36889-374"
    },
    {
        "city": "Muriaé",
        "state": "MG",
        "district": "São Joaquim",
        "street": "Rua Manoel Lindouro da Silva",
        "zipcode": "36886-126"
    },
    {
        "city": "Muriaé",
        "state": "MG",
        "district": "Cardoso de Melo",
        "street": "Rua Mário Martins",
        "zipcode": "36887-243"
    },
    {
        "city": "Muriaé",
        "state": "MG",
        "district": "São Gotardo",
        "street": "Rua Paulo Henrique de Freitas Rosa",
        "zipcode": "36880-204"
    },
    {
        "city": "Muriaé",
        "state": "MG",
        "district": "Gaspar",
        "street": "Rua Valdiney Fagundes",
        "zipcode": "36888-124"
    },
    {
        "city": "Muriaé",
        "state": "MG",
        "district": "Recanto Verde",
        "street": "Rua Pingo de Ouro",
        "zipcode": "36889-104"
    },
    {
        "city": "Muriaé",
        "state": "MG",
        "district": "Santa Terezinha",
        "street": "Rua Santa Luzia",
        "zipcode": "36889-254"
    },
    {
        "city": "Muriaé",
        "state": "MG",
        "district": "Vale Verde",
        "street": "Rua Santo André",
        "zipcode": "36889-453"
    },
    {
        "city": "Muriaé",
        "state": "MG",
        "district": "Vale Verde",
        "street": "Rua São Miguel",
        "zipcode": "36889-462"
    },
    {
        "city": "Muriaé",
        "state": "MG",
        "district": "Vale Verde",
        "street": "Rua Santo Amaro",
        "zipcode": "36889-466"
    },
    {
        "city": "Muriaé",
        "state": "MG",
        "district": "Santa Laura",
        "street": "Rua Professora Edmen Macedo Germano de Alvarenga",
        "zipcode": "36889-510"
    },
    {
        "city": "Muriaé",
        "state": "MG",
        "district": "União",
        "street": "Travessa Alzira de Souza Pinto",
        "zipcode": "36888-066"
    },
    {
        "city": "Muriaé",
        "state": "MG",
        "district": "Edgar Miranda",
        "street": "Rua Valentim Móia de Araújo",
        "zipcode": "36889-372"
    },
    {
        "city": "Muriaé",
        "state": "MG",
        "district": "Santa Laura",
        "street": "Rua Vereador Leandro Pereira Ferreira",
        "zipcode": "36889-519"
    },
    {
        "city": "Muriaé",
        "state": "MG",
        "district": "Dornelas",
        "street": "Travessa da Paz",
        "zipcode": "36884-220"
    },
    {
        "city": "Muriaé",
        "state": "MG",
        "district": "Santa Laura",
        "street": "Rua Vereador Wallace Sereno Fernades",
        "zipcode": "36889-522"
    },
    {
        "city": "Muriaé",
        "state": "MG",
        "district": "Porto",
        "street": "Rua Felipe Couri",
        "zipcode": "36889-245"
    },
    {
        "city": "Muriaé",
        "state": "MG",
        "district": "Edgar Miranda",
        "street": "Rua Doutor Gabriel Passos",
        "zipcode": "36889-362"
    },
    {
        "city": "Muriaé",
        "state": "MG",
        "district": "Dornelas",
        "street": "Rua Reverendo Elerson Wester Oliveira de Paula",
        "zipcode": "36884-188"
    },
    {
        "city": "Muriaé",
        "state": "MG",
        "district": "Barra",
        "street": "Rua Saber Latuf",
        "zipcode": "36884-050"
    },
    {
        "city": "Muriaé",
        "state": "MG",
        "district": "Gaspar",
        "street": "Rua Manoel Teixeira Bastos",
        "zipcode": "36888-138"
    },
    {
        "city": "Muriaé",
        "state": "MG",
        "district": "Encoberta",
        "street": "Rua Manoel Vieira",
        "zipcode": "36889-353"
    },
    {
        "city": "Muriaé",
        "state": "MG",
        "district": "Planalto",
        "street": "Rua Sargento Joaquim de Azevedo",
        "zipcode": "36883-158"
    },
    {
        "city": "Muriaé",
        "state": "MG",
        "district": "Safira",
        "street": "Rua Angelo Tomazini",
        "zipcode": "36883-036"
    },
    {
        "city": "Muriaé",
        "state": "MG",
        "district": "Vale Verde",
        "street": "Rua Sargento Geraldo de Souza Ferreira",
        "zipcode": "36889-471"
    },
    {
        "city": "Muriaé",
        "state": "MG",
        "district": "Aeroporto",
        "street": "Rua Lica Muglia",
        "zipcode": "36887-034"
    },
    {
        "city": "Muriaé",
        "state": "MG",
        "district": "Quinta das Flores",
        "street": "Alameda das Bromélias",
        "zipcode": "36880-152"
    },
    {
        "city": "Muriaé",
        "state": "MG",
        "district": "Centro",
        "street": "Avenida Presidente Arthur Bernardes",
        "zipcode": "36880-005"
    },
    {
        "city": "Muriaé",
        "state": "MG",
        "district": "Centro",
        "street": "Avenida Imperial",
        "zipcode": "36880-113"
    },
    {
        "city": "Muriaé",
        "state": "MG",
        "district": "Centro",
        "street": "Rua Abilio Alves de Matos",
        "zipcode": "36880-010"
    },
    {
        "city": "Muriaé",
        "state": "MG",
        "district": "Centro",
        "street": "Praça Coronel Pacheco de Medeiros",
        "zipcode": "36880-015"
    },
    {
        "city": "Muriaé",
        "state": "MG",
        "district": "Centro",
        "street": "Praça João Pinheiro",
        "zipcode": "36880-043"
    },
    {
        "city": "Muriaé",
        "state": "MG",
        "district": "Centro",
        "street": "Praça São Paulo",
        "zipcode": "36880-077"
    },
    {
        "city": "Muriaé",
        "state": "MG",
        "district": "Centro",
        "street": "Praça Annina Bisegna",
        "zipcode": "36880-083"
    },
    {
        "city": "Muriaé",
        "state": "MG",
        "district": "Centro",
        "street": "Rua Ambrosina Ticon",
        "zipcode": "36880-091"
    },
    {
        "city": "Muriaé",
        "state": "MG",
        "district": "Centro",
        "street": "Rua Antônio de Pádua Monteiro de Barros",
        "zipcode": "36880-123"
    },
    {
        "city": "Muriaé",
        "state": "MG",
        "district": "Centro",
        "street": "Rua Capitão Evaristo de Carvalho",
        "zipcode": "36880-087"
    },
    {
        "city": "Muriaé",
        "state": "MG",
        "district": "São Gotardo",
        "street": "Rua Celino Evaristo de Andrade",
        "zipcode": "36880-207"
    },
    {
        "city": "Muriaé",
        "state": "MG",
        "district": "Centro",
        "street": "Rua Doutor Ivan Américo Porcaro",
        "zipcode": "36880-109"
    },
    {
        "city": "Muriaé",
        "state": "MG",
        "district": "Centro",
        "street": "Rua João Crisóstomo",
        "zipcode": "36880-051"
    },
    {
        "city": "Muriaé",
        "state": "MG",
        "district": "Centro",
        "street": "Rua Licuala",
        "zipcode": "36880-119"
    },
    {
        "city": "Muriaé",
        "state": "MG",
        "district": "Prefeito Hélio Araújo",
        "street": "Rua Leonardo do Carmo Trota",
        "zipcode": "36880-161"
    },
    {
        "city": "Muriaé",
        "state": "MG",
        "district": "Centro",
        "street": "Rua Paschoal Bernardino",
        "zipcode": "36880-049"
    },
    {
        "city": "Muriaé",
        "state": "MG",
        "district": "Centro",
        "street": "Rua Phenix",
        "zipcode": "36880-117"
    },
    {
        "city": "Muriaé",
        "state": "MG",
        "district": "Prefeito Hélio Araújo",
        "street": "Rua Santa Rita",
        "zipcode": "36880-169"
    },
    {
        "city": "Muriaé",
        "state": "MG",
        "district": "Alterosa",
        "street": "Rua Sebastião José Mendes da Silva",
        "zipcode": "36880-240"
    },
    {
        "city": "Muriaé",
        "state": "MG",
        "district": "Centro",
        "street": "Travessa Demerval Olivier de Paula",
        "zipcode": "36880-033"
    },
    {
        "city": "Muriaé",
        "state": "MG",
        "district": "Centro",
        "street": "Travessa Tatão Ladeira",
        "zipcode": "36880-062"
    },
    {
        "city": "Muriaé",
        "state": "MG",
        "district": "Centro",
        "street": "Vila Osório",
        "zipcode": "36880-085"
    },
    {
        "city": "Muriaé",
        "state": "MG",
        "district": "Centro",
        "street": "Rua Doutor Olavo Tostes",
        "zipcode": "36880-023"
    },
    {
        "city": "Muriaé",
        "state": "MG",
        "district": "Colety",
        "street": "Rua Francisco das Chagas Moreira",
        "zipcode": "36880-184"
    },
    {
        "city": "Muriaé",
        "state": "MG",
        "district": "Barra",
        "street": "Rua Doutor Marcus Tarcísio",
        "zipcode": "36884-100"
    },
    {
        "city": "Muriaé",
        "state": "MG",
        "district": "Centro",
        "street": "Vila João Dias Rodrigues",
        "zipcode": "36880-094"
    },
    {
        "city": "Muriaé",
        "state": "MG",
        "district": "São Gotardo",
        "street": "Rua Marley Rodrigues",
        "zipcode": "36880-219"
    },
    {
        "city": "Muriaé",
        "state": "MG",
        "district": "Primavera",
        "street": "Travessa das Azaléias",
        "zipcode": "36880-256"
    },
    {
        "city": "Muriaé",
        "state": "MG",
        "district": "Barra",
        "street": "Rua Souza Castro",
        "zipcode": "36884-096"
    },
    {
        "city": "Muriaé",
        "state": "MG",
        "district": "Recanto Verde",
        "street": "Rua das Nascentes",
        "zipcode": "36889-118"
    },
    {
        "city": "Muriaé",
        "state": "MG",
        "district": "São Cristovão",
        "street": "Rua Holanda",
        "zipcode": "36889-315"
    },
    {
        "city": "Muriaé",
        "state": "MG",
        "district": "Santa Terezinha",
        "street": "Rua Tombos",
        "zipcode": "36889-299"
    },
    {
        "city": "Muriaé",
        "state": "MG",
        "district": "São Cristovão",
        "street": "Rua Portugal",
        "zipcode": "36889-309"
    },
    {
        "city": "Muriaé",
        "state": "MG",
        "district": "Barra",
        "street": "Rua José Carlos Sobrinho",
        "zipcode": "36884-108"
    },
    {
        "city": "Muriaé",
        "state": "MG",
        "district": "São Cristovão",
        "street": "Rua Rita Siqueira Serrano",
        "zipcode": "36889-301"
    },
    {
        "city": "Muriaé",
        "state": "MG",
        "district": "Porto Belo",
        "street": "Rua Capitão William da Costa Pereira",
        "zipcode": "36889-209"
    },
    {
        "city": "Muriaé",
        "state": "MG",
        "district": "Porto",
        "street": "Rua Honório Muratori",
        "zipcode": "36889-238"
    },
    {
        "city": "Muriaé",
        "state": "MG",
        "district": "Barra",
        "street": "Travessa Manoel Pena",
        "zipcode": "36884-024"
    },
    {
        "city": "Muriaé",
        "state": "MG",
        "district": "Barra",
        "street": "Rua Marius Dornelas",
        "zipcode": "36884-085"
    },
    {
        "city": "Muriaé",
        "state": "MG",
        "district": "São Joaquim",
        "street": "Rua Aguinaldo de Oliveira",
        "zipcode": "36886-106"
    },
    {
        "city": "Muriaé",
        "state": "MG",
        "district": "Santa Terezinha",
        "street": "Rua Ponte Nova",
        "zipcode": "36889-263"
    },
    {
        "city": "Muriaé",
        "state": "MG",
        "district": "Santa Terezinha",
        "street": "Rua Padre Ênio Martim",
        "zipcode": "36889-292"
    },
    {
        "city": "Muriaé",
        "state": "MG",
        "district": "Cardoso de Melo",
        "street": "Rua Miguel Lamogila Lopes",
        "zipcode": "36887-203"
    },
    {
        "city": "Muriaé",
        "state": "MG",
        "district": "São José",
        "street": "Rua Prefeito Francisco Teodoro Filho",
        "zipcode": "36887-000"
    },
    {
        "city": "Muriaé",
        "state": "MG",
        "district": "São José",
        "street": "Rua Prefeito Francisco Teodoro Filho",
        "zipcode": "36887-006"
    },
    {
        "city": "Muriaé",
        "state": "MG",
        "district": "Centro",
        "street": "Travessa Edson Ferreira de Oliveira",
        "zipcode": "36880-057"
    },
    {
        "city": "Muriaé",
        "state": "MG",
        "district": "Cardoso de Melo",
        "street": "Rua Etore Demarque",
        "zipcode": "36887-230"
    },
    {
        "city": "Muriaé",
        "state": "MG",
        "district": "",
        "street": "Avenida Hormindo Rodrigues",
        "zipcode": "36886-990"
    },
    {
        "city": "Muriaé",
        "state": "MG",
        "district": "",
        "street": "Avenida Alvino Carlos de Souza",
        "zipcode": "36888-990"
    },
    {
        "city": "Muriaé",
        "state": "MG",
        "district": "Gávea",
        "street": "Rua Wilson Frutuoso Braga",
        "zipcode": "36889-977"
    },
    {
        "city": "Muriaé",
        "state": "MG",
        "district": "São Pedro",
        "street": "Avenida Nelson Sigiliano Gomes",
        "zipcode": "36889-188"
    },
    {
        "city": "Muriaé",
        "state": "MG",
        "district": "Safira",
        "street": "Rua Nivercino Ferreira de Souza",
        "zipcode": "36883-054"
    },
    {
        "city": "Muriaé",
        "state": "MG",
        "district": "Barra",
        "street": "Rua Juiz Jesus Varela",
        "zipcode": "36884-008"
    },
    {
        "city": "Muriaé",
        "state": "MG",
        "district": "Barra",
        "street": "Vila Estigarríbia",
        "zipcode": "36884-109"
    },
    {
        "city": "Muriaé",
        "state": "MG",
        "district": "Barra",
        "street": "Rua Helena Baesso Veggi",
        "zipcode": "36884-122"
    },
    {
        "city": "Muriaé",
        "state": "MG",
        "district": "Santana",
        "street": "Rua Doutor Nilo Pacheco de medeiros",
        "zipcode": "36887-100"
    },
    {
        "city": "Muriaé",
        "state": "MG",
        "district": "Chácara Doutor Brum",
        "street": "Rua Sinval Florenço da Silva",
        "zipcode": "36889-044"
    },
    {
        "city": "Muriaé",
        "state": "MG",
        "district": "Prefeito Hélio Araújo",
        "street": "Avenida Agostinho Bizzo",
        "zipcode": "36880-170"
    },
    {
        "city": "Muriaé",
        "state": "MG",
        "district": "Chácara Doutor Brum",
        "street": "Avenida Alfredo Bicalho Canedo",
        "zipcode": "36889-064"
    },
    {
        "city": "Muriaé",
        "state": "MG",
        "district": "Centro",
        "street": "Avenida Presidente Juscelino Kubitschek",
        "zipcode": "36880-026"
    },
    {
        "city": "Muriaé",
        "state": "MG",
        "district": "Centro",
        "street": "Avenida Presidente Juscelino Kubitschek",
        "zipcode": "36880-034"
    },
    {
        "city": "Muriaé",
        "state": "MG",
        "district": "Edgar Miranda",
        "street": "Avenida Sebastião Marge",
        "zipcode": "36889-360"
    },
    {
        "city": "Muriaé",
        "state": "MG",
        "district": "Safira",
        "street": "Avenida Silvério Campos",
        "zipcode": "36883-051"
    },
    {
        "city": "Muriaé",
        "state": "MG",
        "district": "Centro",
        "street": "Praça Doutor Gilmar Dutra Melo e Felipe",
        "zipcode": "36880-110"
    },
    {
        "city": "Muriaé",
        "state": "MG",
        "district": "Safira",
        "street": "Rua Antônio do Nascimento",
        "zipcode": "36883-043"
    },
    {
        "city": "Muriaé",
        "state": "MG",
        "district": "São Joaquim",
        "street": "Rua Benito Dalla Paula",
        "zipcode": "36886-118"
    },
    {
        "city": "Muriaé",
        "state": "MG",
        "district": "Franco Suiço",
        "street": "Rua Armando Luciano Duvanel",
        "zipcode": "36886-166"
    },
    {
        "city": "Muriaé",
        "state": "MG",
        "district": "Barra",
        "street": "Rua Capitão João Felisberto",
        "zipcode": "36884-033"
    },
    {
        "city": "Muriaé",
        "state": "MG",
        "district": "Inconfidência",
        "street": "Rua Cláudio Manoel da Costa",
        "zipcode": "36889-408"
    },
    {
        "city": "Muriaé",
        "state": "MG",
        "district": "Chácara da Gávea",
        "street": "Rua Elvira Rogério de Castro",
        "zipcode": "36889-024"
    },
    {
        "city": "Muriaé",
        "state": "MG",
        "district": "São Joaquim",
        "street": "Rua do Mutirão",
        "zipcode": "36886-117"
    },
    {
        "city": "Muriaé",
        "state": "MG",
        "district": "Chácara Doutor Brum",
        "street": "Rua Doutor Antônio da Silveira Brum Júnior",
        "zipcode": "36889-042"
    },
    {
        "city": "Muriaé",
        "state": "MG",
        "district": "Gaspar",
        "street": "Rua Guilhermina Maria Batista",
        "zipcode": "36888-132"
    },
    {
        "city": "Muriaé",
        "state": "MG",
        "district": "Inconfidência",
        "street": "Rua Farmacêutico Sebastião Bruno",
        "zipcode": "36889-392"
    },
    {
        "city": "Muriaé",
        "state": "MG",
        "district": "Bom Pastor",
        "street": "Rua Lenira dos Santos Martins",
        "zipcode": "36887-175"
    },
    {
        "city": "Muriaé",
        "state": "MG",
        "district": "Santa Laura",
        "street": "Rua Manuel Eduardo Carvalho Schachnik",
        "zipcode": "36889-516"
    },
    {
        "city": "Muriaé",
        "state": "MG",
        "district": "Prefeito Hélio Araújo",
        "street": "Rua Vicentina",
        "zipcode": "36880-166"
    },
    {
        "city": "Muriaé",
        "state": "MG",
        "district": "São Francisco",
        "street": "Rua Vereador Joaquim Leandro",
        "zipcode": "36881-013"
    },
    {
        "city": "Muriaé",
        "state": "MG",
        "district": "Dornelas",
        "street": "Travessa Francisco Antônio Dornelas",
        "zipcode": "36884-222"
    },
    {
        "city": "Muriaé",
        "state": "MG",
        "district": "Dornelas",
        "street": "Travessa Virgílio Hastenreiter",
        "zipcode": "36884-224"
    },
    {
        "city": "Muriaé",
        "state": "MG",
        "district": "Napoleão",
        "street": "Rua Vinte e Cinco de Dezembro",
        "zipcode": "36887-061"
    },
    {
        "city": "Muriaé",
        "state": "MG",
        "district": "Safira",
        "street": "Rua Sebastião Celestino de Almeida",
        "zipcode": "36883-066"
    },
    {
        "city": "Muriaé",
        "state": "MG",
        "district": "Planalto",
        "street": "Rua Padre Roberto Landall de Moura",
        "zipcode": "36883-140"
    },
    {
        "city": "Muriaé",
        "state": "MG",
        "district": "José Cirilo",
        "street": "Rua José Antônio Amaro",
        "zipcode": "36886-011"
    },
    {
        "city": "Muriaé",
        "state": "MG",
        "district": "Chácara Doutor Brum",
        "street": "Rua José Augusto Soares Canedo",
        "zipcode": "36889-060"
    },
    {
        "city": "Muriaé",
        "state": "MG",
        "district": "São Gotardo",
        "street": "Rua Maria Zenith Madriaga dos Santos",
        "zipcode": "36880-209"
    },
    {
        "city": "Muriaé",
        "state": "MG",
        "district": null,
        "street": "Rua Antônio Tureta",
        "zipcode": "36880-991"
    },
    {
        "city": "Muriaé",
        "state": "MG",
        "district": null,
        "street": "Rua Joaquim Teixeira Leite",
        "zipcode": "36880-992"
    }
]