[
    {
        "city": "Ouro Branco",
        "state": "MG",
        "district": "Centro",
        "street": "Rua José Guilherme 227",
        "zipcode": "36420-980"
    },
    {
        "city": "Ouro Branco",
        "state": "MG",
        "district": "Centro",
        "street": "Rua Geraldo Francisco de Azevedo 340",
        "zipcode": "36420-974"
    },
    {
        "city": "Ouro Branco",
        "state": "MG",
        "district": "Itatiaia",
        "street": "Rua Santo Antônio s/n",
        "zipcode": "36420-977"
    },
    {
        "city": "Ouro Branco",
        "state": "MG",
        "district": "São Francisco",
        "street": "Rua Um s/n",
        "zipcode": "36420-979"
    },
    {
        "city": "Ouro Branco",
        "state": "MG",
        "district": "",
        "street": "",
        "zipcode": "36420-000"
    },
    {
        "city": "Ouro Branco",
        "state": "MG",
        "district": "Cristais",
        "street": "Rua Principal s/n",
        "zipcode": "36420-973"
    },
    {
        "city": "Ouro Branco",
        "state": "MG",
        "district": "Castigliano",
        "street": "Rua Geraldo do Carmo Vieira s/n",
        "zipcode": "36420-976"
    },
    {
        "city": "Ouro Branco",
        "state": "MG",
        "district": "Água Limpa",
        "street": "Rua Principal s/n",
        "zipcode": "36420-972"
    },
    {
        "city": "Ouro Branco",
        "state": "MG",
        "district": "Centro",
        "street": "Praça Edmundo Pinto 116",
        "zipcode": "36420-970"
    }
]