[
    {
        "city": "Paracatu",
        "state": "MG",
        "district": "Amoreiras I",
        "street": "Rua Unaí",
        "zipcode": "38600-420"
    },
    {
        "city": "Paracatu",
        "state": "MG",
        "district": "",
        "street": "Rua Joaquim Brochado",
        "zipcode": "38609-990"
    },
    {
        "city": "Paracatu",
        "state": "MG",
        "district": "Nossa Senhora de Fátima",
        "street": "Avenida Alto Córrego",
        "zipcode": "38607-066"
    },
    {
        "city": "Paracatu",
        "state": "MG",
        "district": "Nossa Senhora de Fátima",
        "street": "Rua Balbino Soares Mascarenhas",
        "zipcode": "38607-074"
    },
    {
        "city": "Paracatu",
        "state": "MG",
        "district": "Nossa Senhora de Fátima",
        "street": "Rua Bernardo Osório",
        "zipcode": "38607-068"
    },
    {
        "city": "Paracatu",
        "state": "MG",
        "district": "Nossa Senhora de Fátima",
        "street": "Rua Carlos Tunes",
        "zipcode": "38607-064"
    },
    {
        "city": "Paracatu",
        "state": "MG",
        "district": "Nossa Senhora de Fátima",
        "street": "Rua Isabel Soares Mascarenhas",
        "zipcode": "38607-076"
    },
    {
        "city": "Paracatu",
        "state": "MG",
        "district": "Nossa Senhora de Fátima",
        "street": "Rua Professor José Botelho Filho",
        "zipcode": "38607-062"
    },
    {
        "city": "Paracatu",
        "state": "MG",
        "district": "Nossa Senhora de Fátima",
        "street": "Rua do Nascente",
        "zipcode": "38607-070"
    },
    {
        "city": "Paracatu",
        "state": "MG",
        "district": "Nossa Senhora de Fátima",
        "street": "Rua Padre Nóbrega",
        "zipcode": "38607-072"
    },
    {
        "city": "Paracatu",
        "state": "MG",
        "district": "Bela Vista II",
        "street": "Rua Seis",
        "zipcode": "38608-298"
    },
    {
        "city": "Paracatu",
        "state": "MG",
        "district": "Nossa Senhora de Fátima",
        "street": "Rua Um",
        "zipcode": "38607-060"
    },
    {
        "city": "Paracatu",
        "state": "MG",
        "district": "Jardim Serrano",
        "street": "Rua Gerânio",
        "zipcode": "38606-222"
    },
    {
        "city": "Paracatu",
        "state": "MG",
        "district": "Santa Lúcia",
        "street": "Rua Esmeralda Salustiano Pereira",
        "zipcode": "38600-380"
    },
    {
        "city": "Paracatu",
        "state": "MG",
        "district": "Santana",
        "street": "Rua Ademar da Silva Neiva",
        "zipcode": "38600-011"
    },
    {
        "city": "Paracatu",
        "state": "MG",
        "district": "Bela Vista I",
        "street": "Rua Paulo Gouveia Damasceno",
        "zipcode": "38600-524"
    },
    {
        "city": "Paracatu",
        "state": "MG",
        "district": "Chapadinha",
        "street": "Travessa Geraldo Francisco da Silva",
        "zipcode": "38605-044"
    },
    {
        "city": "Paracatu",
        "state": "MG",
        "district": "Chapadinha II",
        "street": "Rua D",
        "zipcode": "38605-076"
    },
    {
        "city": "Paracatu",
        "state": "MG",
        "district": "Vila São Calixto",
        "street": "Rua Euridamos Avelino de Barros",
        "zipcode": "38603-004"
    },
    {
        "city": "Paracatu",
        "state": "MG",
        "district": "Juscelino Kubitschek",
        "street": "Rua C",
        "zipcode": "38607-116"
    },
    {
        "city": "Paracatu",
        "state": "MG",
        "district": "Novo Horizonte",
        "street": "Rua Luiz Roquete Franco",
        "zipcode": "38607-440"
    },
    {
        "city": "Paracatu",
        "state": "MG",
        "district": "Chapadinha",
        "street": "Travessa Ozoria Maria de Jesus",
        "zipcode": "38605-056"
    },
    {
        "city": "Paracatu",
        "state": "MG",
        "district": "Amoreiras II",
        "street": "Rua Urânio",
        "zipcode": "38608-242"
    },
    {
        "city": "Paracatu",
        "state": "MG",
        "district": "Vila Alvorada",
        "street": "Rua da Cooperativa",
        "zipcode": "38606-450"
    },
    {
        "city": "Paracatu",
        "state": "MG",
        "district": "Vila Mariana",
        "street": "Travessa Maria do Carmo Taveira Jordão",
        "zipcode": "38606-150"
    },
    {
        "city": "Paracatu",
        "state": "MG",
        "district": "Paracatuzinho",
        "street": "Rua Benedito João Joaquim Anselmo",
        "zipcode": "38603-190"
    },
    {
        "city": "Paracatu",
        "state": "MG",
        "district": "Nossa Senhora de Fátima",
        "street": "Avenida Alto Córrego",
        "zipcode": "38607-026"
    },
    {
        "city": "Paracatu",
        "state": "MG",
        "district": "Sarah Kubitschek",
        "street": "Rua N",
        "zipcode": "38607-244"
    },
    {
        "city": "Paracatu",
        "state": "MG",
        "district": "Santa Lúcia",
        "street": "Rua Major Jefferson Martins Ferreira",
        "zipcode": "38600-388"
    },
    {
        "city": "Paracatu",
        "state": "MG",
        "district": "Alto do Açude",
        "street": "Beco Joaquim Rodrigues Monteiro",
        "zipcode": "38608-040"
    },
    {
        "city": "Paracatu",
        "state": "MG",
        "district": "Bela Vista I",
        "street": "Rua Honório Souza Mundim",
        "zipcode": "38600-464"
    },
    {
        "city": "Paracatu",
        "state": "MG",
        "district": "Vila Cruvinel",
        "street": "Rua Moacir da Silveira Santos",
        "zipcode": "38600-342"
    },
    {
        "city": "Paracatu",
        "state": "MG",
        "district": "Novo Horizonte",
        "street": "Rua Victor Gonçalves da Silva",
        "zipcode": "38607-450"
    },
    {
        "city": "Paracatu",
        "state": "MG",
        "district": "Centro",
        "street": "Praça Deputado Cândido de Melo Ulhôa",
        "zipcode": "38600-180"
    },
    {
        "city": "Paracatu",
        "state": "MG",
        "district": "Alto do Córrego",
        "street": "Rua Lucinda Gonçalves Santos",
        "zipcode": "38606-056"
    },
    {
        "city": "Paracatu",
        "state": "MG",
        "district": "Paracatuzinho",
        "street": "Rua Dercílio Dias",
        "zipcode": "38603-254"
    },
    {
        "city": "Paracatu",
        "state": "MG",
        "district": "São João Evangelista",
        "street": "Rua Vereador Benedito Gomes Moreira",
        "zipcode": "38603-102"
    },
    {
        "city": "Paracatu",
        "state": "MG",
        "district": "Novo Horizonte",
        "street": "Rua Quintino Silva Neiva",
        "zipcode": "38607-446"
    },
    {
        "city": "Paracatu",
        "state": "MG",
        "district": "Jardim Serrano",
        "street": "Rua Antíssimo Areda Vasconcelos",
        "zipcode": "38606-194"
    },
    {
        "city": "Paracatu",
        "state": "MG",
        "district": "Juscelino Kubitschek",
        "street": "Rua Antônio Joaquim Moura Pimentel",
        "zipcode": "38607-106"
    },
    {
        "city": "Paracatu",
        "state": "MG",
        "district": "Centro",
        "street": "Praça Governador Magalhães Pinto",
        "zipcode": "38600-260"
    },
    {
        "city": "Paracatu",
        "state": "MG",
        "district": "Juscelino Kubitschek",
        "street": "Rua Wolney Meireles",
        "zipcode": "38607-092"
    },
    {
        "city": "Paracatu",
        "state": "MG",
        "district": "Paracatuzinho",
        "street": "Rua Pedro Rosa",
        "zipcode": "38603-350"
    },
    {
        "city": "Paracatu",
        "state": "MG",
        "district": "Nossa Senhora de Fátima",
        "street": "Rua Afonso Roquete",
        "zipcode": "38607-022"
    },
    {
        "city": "Paracatu",
        "state": "MG",
        "district": "Jardim Primavera III",
        "street": "Rua Ponte Nova",
        "zipcode": "38606-356"
    },
    {
        "city": "Paracatu",
        "state": "MG",
        "district": "Paracatuzinho",
        "street": "Rua Antonina Rosa de Jesus",
        "zipcode": "38603-220"
    },
    {
        "city": "Paracatu",
        "state": "MG",
        "district": "Primavera",
        "street": "Rua dos Coqueiros",
        "zipcode": "38606-252"
    },
    {
        "city": "Paracatu",
        "state": "MG",
        "district": "Centro",
        "street": "Ladeira dos Farias",
        "zipcode": "38600-126"
    },
    {
        "city": "Paracatu",
        "state": "MG",
        "district": "Juscelino Kubitschek",
        "street": "Rua Colina",
        "zipcode": "38607-120"
    },
    {
        "city": "Paracatu",
        "state": "MG",
        "district": "Centro",
        "street": "Travessa Geraldo Rocha",
        "zipcode": "38600-210"
    },
    {
        "city": "Paracatu",
        "state": "MG",
        "district": "Alto do Córrego",
        "street": "Rua Rodrigues Bijos",
        "zipcode": "38606-070"
    },
    {
        "city": "Paracatu",
        "state": "MG",
        "district": "Vista Alegre",
        "street": "Rua José Dias",
        "zipcode": "38607-302"
    },
    {
        "city": "Paracatu",
        "state": "MG",
        "district": "Centro",
        "street": "Rua Francisco Botelho",
        "zipcode": "38600-204"
    },
    {
        "city": "Paracatu",
        "state": "MG",
        "district": "Vista Alegre",
        "street": "Travessa Daniel Dias",
        "zipcode": "38607-318"
    },
    {
        "city": "Paracatu",
        "state": "MG",
        "district": "Sarah Kubitschek",
        "street": "Rua L",
        "zipcode": "38607-240"
    },
    {
        "city": "Paracatu",
        "state": "MG",
        "district": "Nossa Senhora Aparecida",
        "street": "Rua Irineu Torres Brochado",
        "zipcode": "38608-126"
    },
    {
        "city": "Paracatu",
        "state": "MG",
        "district": "Centro",
        "street": "Avenida Olegário Maciel",
        "zipcode": "38600-134"
    },
    {
        "city": "Paracatu",
        "state": "MG",
        "district": "Bela Vista I",
        "street": "Avenida Olegário Maciel",
        "zipcode": "38600-466"
    },
    {
        "city": "Paracatu",
        "state": "MG",
        "district": "Alto do Córrego",
        "street": "Rua Apolinário Alves",
        "zipcode": "38606-024"
    },
    {
        "city": "Paracatu",
        "state": "MG",
        "district": "Bela Vista I",
        "street": "Rua Doutor Wladimir da Silva Neiva",
        "zipcode": "38600-540"
    },
    {
        "city": "Paracatu",
        "state": "MG",
        "district": "Vila Mariana",
        "street": "Rua Zenon Alves Ribeiro",
        "zipcode": "38606-174"
    },
    {
        "city": "Paracatu",
        "state": "MG",
        "district": "Jardim Primavera",
        "street": "Rua José Matias Ferreira",
        "zipcode": "38606-084"
    },
    {
        "city": "Paracatu",
        "state": "MG",
        "district": "Paracatuzinho",
        "street": "Rua Benedito João Joaquim Anselmo",
        "zipcode": "38603-192"
    },
    {
        "city": "Paracatu",
        "state": "MG",
        "district": "Centro",
        "street": "Rua Professor Afonso Novais Pinto",
        "zipcode": "38600-142"
    },
    {
        "city": "Paracatu",
        "state": "MG",
        "district": "Nossa Senhora de Fátima",
        "street": "Rua Graciano Calçado",
        "zipcode": "38607-042"
    },
    {
        "city": "Paracatu",
        "state": "MG",
        "district": "Santa Lúcia",
        "street": "Rua Francisco Alvares da Silva",
        "zipcode": "38600-382"
    },
    {
        "city": "Paracatu",
        "state": "MG",
        "district": "Jardim Primavera III",
        "street": "Rua Araxá",
        "zipcode": "38606-344"
    },
    {
        "city": "Paracatu",
        "state": "MG",
        "district": "Centro",
        "street": "Rua Aprígio de Melo",
        "zipcode": "38600-162"
    },
    {
        "city": "Paracatu",
        "state": "MG",
        "district": "Vila Mariana",
        "street": "Rua Antero de Melo Júnior",
        "zipcode": "38606-114"
    },
    {
        "city": "Paracatu",
        "state": "MG",
        "district": "Alto do Córrego",
        "street": "Rua Lindolfo Garcia Adjuto",
        "zipcode": "38606-012"
    },
    {
        "city": "Paracatu",
        "state": "MG",
        "district": "Paracatuzinho",
        "street": "Travessa Monte Carmelo",
        "zipcode": "38603-336"
    },
    {
        "city": "Paracatu",
        "state": "MG",
        "district": "Amoreiras II",
        "street": "Rua Cristal",
        "zipcode": "38608-252"
    },
    {
        "city": "Paracatu",
        "state": "MG",
        "district": "Jardim Serrano",
        "street": "Rua Crisântemo",
        "zipcode": "38606-210"
    },
    {
        "city": "Paracatu",
        "state": "MG",
        "district": "Alto do Açude",
        "street": "Rua C",
        "zipcode": "38608-024"
    },
    {
        "city": "Paracatu",
        "state": "MG",
        "district": "Centro",
        "street": "Avenida Olegário Maciel 714",
        "zipcode": "38600-970"
    },
    {
        "city": "Paracatu",
        "state": "MG",
        "district": "Centro",
        "street": "Avenida Olegário Maciel 395",
        "zipcode": "38600-972"
    },
    {
        "city": "Paracatu",
        "state": "MG",
        "district": null,
        "street": null,
        "zipcode": "38600-000"
    },
    {
        "city": "Paracatu",
        "state": "MG",
        "district": "Vila Mariana",
        "street": "Rua Jamiro Leite",
        "zipcode": "38606-138"
    },
    {
        "city": "Paracatu",
        "state": "MG",
        "district": "Cidade Jardim",
        "street": "Alameda das Acácias",
        "zipcode": "38603-080"
    },
    {
        "city": "Paracatu",
        "state": "MG",
        "district": "Alto da Colina",
        "street": "Rua B",
        "zipcode": "38608-332"
    },
    {
        "city": "Paracatu",
        "state": "MG",
        "district": null,
        "street": "Rua Joaquim Brochado",
        "zipcode": "38600-991"
    },
    {
        "city": "Paracatu",
        "state": "MG",
        "district": "Cidade Jardim",
        "street": "Alameda das Orquídeas",
        "zipcode": "38603-090"
    },
    {
        "city": "Paracatu",
        "state": "MG",
        "district": "Cidade Jardim",
        "street": "Alameda das Quaresmeiras",
        "zipcode": "38603-094"
    },
    {
        "city": "Paracatu",
        "state": "MG",
        "district": "Bandeirantes",
        "street": "Avenida Bias Fortes",
        "zipcode": "38603-150"
    },
    {
        "city": "Paracatu",
        "state": "MG",
        "district": "Cidade Jardim",
        "street": "Alameda da Primavera",
        "zipcode": "38603-092"
    },
    {
        "city": "Paracatu",
        "state": "MG",
        "district": "Amoreiras II",
        "street": "Avenida Brasília",
        "zipcode": "38608-244"
    },
    {
        "city": "Paracatu",
        "state": "MG",
        "district": "Alto do Açude",
        "street": "Rua B",
        "zipcode": "38608-020"
    },
    {
        "city": "Paracatu",
        "state": "MG",
        "district": "Paracatuzinho",
        "street": "Avenida Aeroporto",
        "zipcode": "38603-196"
    },
    {
        "city": "Paracatu",
        "state": "MG",
        "district": "Alto do Córrego",
        "street": "Travessa Vasconcelos Teixeira",
        "zipcode": "38606-074"
    },
    {
        "city": "Paracatu",
        "state": "MG",
        "district": "Paracatuzinho",
        "street": "Avenida Israel Pinheiro",
        "zipcode": "38603-278"
    },
    {
        "city": "Paracatu",
        "state": "MG",
        "district": "Jardim Serrano",
        "street": "Rua Acácia",
        "zipcode": "38606-188"
    },
    {
        "city": "Paracatu",
        "state": "MG",
        "district": "Prado",
        "street": "Rua Acelino Silva Neiva",
        "zipcode": "38602-008"
    },
    {
        "city": "Paracatu",
        "state": "MG",
        "district": "Bela Vista",
        "street": "Rua Dom Elizeu 341",
        "zipcode": "38600-971"
    },
    {
        "city": "Paracatu",
        "state": "MG",
        "district": "Paracatuzinho",
        "street": "Avenida Doutor Romualdo Silva Neiva",
        "zipcode": "38603-380"
    },
    {
        "city": "Paracatu",
        "state": "MG",
        "district": "Centro",
        "street": "Avenida Deputado Quintino Vargas",
        "zipcode": "38600-120"
    },
    {
        "city": "Paracatu",
        "state": "MG",
        "district": "Centro",
        "street": "Avenida Deputado Quintino Vargas",
        "zipcode": "38600-106"
    },
    {
        "city": "Paracatu",
        "state": "MG",
        "district": "Lene Ville",
        "street": "Rua B",
        "zipcode": "38607-212"
    },
    {
        "city": "Paracatu",
        "state": "MG",
        "district": "Cidade Jardim",
        "street": "Alameda dos Hibiscos",
        "zipcode": "38603-082"
    },
    {
        "city": "Paracatu",
        "state": "MG",
        "district": "Cidade Jardim",
        "street": "Alameda dos Lírios",
        "zipcode": "38603-088"
    },
    {
        "city": "Paracatu",
        "state": "MG",
        "district": "Alto do Córrego",
        "street": "Alameda Santo Antônio",
        "zipcode": "38606-020"
    },
    {
        "city": "Paracatu",
        "state": "MG",
        "district": "Juscelino Kubitschek",
        "street": "Rua B",
        "zipcode": "38607-108"
    },
    {
        "city": "Paracatu",
        "state": "MG",
        "district": "Bandeirantes",
        "street": "Avenida Bias Fortes",
        "zipcode": "38603-162"
    },
    {
        "city": "Paracatu",
        "state": "MG",
        "district": "Cidade Jardim",
        "street": "Alameda dos Jasmins",
        "zipcode": "38603-086"
    },
    {
        "city": "Paracatu",
        "state": "MG",
        "district": "Santana",
        "street": "Travessa Doutor Seabra",
        "zipcode": "38600-041"
    },
    {
        "city": "Paracatu",
        "state": "MG",
        "district": "Parque do Príncipe",
        "street": "Rua Bahamas",
        "zipcode": "38602-194"
    },
    {
        "city": "Paracatu",
        "state": "MG",
        "district": "Paracatuzinho",
        "street": "Avenida Bias Fortes",
        "zipcode": "38603-206"
    },
    {
        "city": "Paracatu",
        "state": "MG",
        "district": "Vila Ecológica",
        "street": "Travessa Ypê",
        "zipcode": "38607-274"
    },
    {
        "city": "Paracatu",
        "state": "MG",
        "district": "Santa Lúcia",
        "street": "Avenida Olegário Maciel",
        "zipcode": "38600-356"
    },
    {
        "city": "Paracatu",
        "state": "MG",
        "district": "Santa Lúcia",
        "street": "Rua Abel Pimenta Ulhoa",
        "zipcode": "38600-370"
    },
    {
        "city": "Paracatu",
        "state": "MG",
        "district": "Santa Lúcia",
        "street": "Beco do Matim",
        "zipcode": "38600-392"
    },
    {
        "city": "Paracatu",
        "state": "MG",
        "district": "Nossa Senhora de Fátima",
        "street": "Avenida Vereador Henrique Neiva",
        "zipcode": "38607-006"
    },
    {
        "city": "Paracatu",
        "state": "MG",
        "district": "Alto da Colina",
        "street": "Rodovia Presidente Juscelino Kubitschek",
        "zipcode": "38608-330"
    },
    {
        "city": "Paracatu",
        "state": "MG",
        "district": "Centro",
        "street": "Praça Getúlio Vargas",
        "zipcode": "38600-214"
    },
    {
        "city": "Paracatu",
        "state": "MG",
        "district": "Primavera",
        "street": "Rodovia Alírio Herval",
        "zipcode": "38606-250"
    },
    {
        "city": "Paracatu",
        "state": "MG",
        "district": "Juscelino Kubitschek",
        "street": "Beco Dois Irmãos",
        "zipcode": "38607-128"
    },
    {
        "city": "Paracatu",
        "state": "MG",
        "district": "Paracatuzinho",
        "street": "Avenida Tenente Hugo Lima",
        "zipcode": "38603-202"
    },
    {
        "city": "Paracatu",
        "state": "MG",
        "district": "Santana",
        "street": "Praça Governador JK",
        "zipcode": "38600-007"
    },
    {
        "city": "Paracatu",
        "state": "MG",
        "district": "Centro",
        "street": "Praça Virgínia Rath",
        "zipcode": "38600-314"
    },
    {
        "city": "Paracatu",
        "state": "MG",
        "district": "Santana",
        "street": "Praça Largo do Santana",
        "zipcode": "38600-035"
    },
    {
        "city": "Paracatu",
        "state": "MG",
        "district": "Juscelino Kubitschek",
        "street": "Beco Dez",
        "zipcode": "38607-124"
    },
    {
        "city": "Paracatu",
        "state": "MG",
        "district": "Alto do Córrego",
        "street": "Praça do Cruzeiro",
        "zipcode": "38606-028"
    },
    {
        "city": "Paracatu",
        "state": "MG",
        "district": "Santa Lúcia",
        "street": "Avenida Olegário Maciel",
        "zipcode": "38600-358"
    },
    {
        "city": "Paracatu",
        "state": "MG",
        "district": "Alto do Açude",
        "street": "Rodovia Presidente Juscelino Kubitschek",
        "zipcode": "38608-002"
    },
    {
        "city": "Paracatu",
        "state": "MG",
        "district": "Bela Vista I",
        "street": "Rodovia Presidente Juscelino Kubitschek",
        "zipcode": "38600-460"
    },
    {
        "city": "Paracatu",
        "state": "MG",
        "district": "Bela Vista I",
        "street": "Praça Leonina Araújo Caldas",
        "zipcode": "38600-512"
    },
    {
        "city": "Paracatu",
        "state": "MG",
        "district": "Juscelino Kubitschek",
        "street": "Beco Amália Souza Camargos",
        "zipcode": "38607-100"
    },
    {
        "city": "Paracatu",
        "state": "MG",
        "district": "Paracatuzinho",
        "street": "Beco Olívia Pereira da Silva",
        "zipcode": "38603-344"
    },
    {
        "city": "Paracatu",
        "state": "MG",
        "district": "Alto do Açude",
        "street": "Beco do Açude",
        "zipcode": "38608-016"
    },
    {
        "city": "Paracatu",
        "state": "MG",
        "district": "Alto do Córrego",
        "street": "Praça da Meteorologia",
        "zipcode": "38606-062"
    },
    {
        "city": "Paracatu",
        "state": "MG",
        "district": "Bela Vista I",
        "street": "Praça Brasília",
        "zipcode": "38600-488"
    },
    {
        "city": "Paracatu",
        "state": "MG",
        "district": "Paracatuzinho",
        "street": "Beco Veríssima Vieira dos Santos",
        "zipcode": "38603-402"
    },
    {
        "city": "Paracatu",
        "state": "MG",
        "district": "Centro",
        "street": "Avenida Romualdo Ulhoa Tomba",
        "zipcode": "38600-112"
    },
    {
        "city": "Paracatu",
        "state": "MG",
        "district": "Jardim Serrano",
        "street": "Rodovia Alírio Herval",
        "zipcode": "38606-180"
    },
    {
        "city": "Paracatu",
        "state": "MG",
        "district": "Juscelino Kubitschek",
        "street": "Beco São Paulo",
        "zipcode": "38607-166"
    },
    {
        "city": "Paracatu",
        "state": "MG",
        "district": "Novo Horizonte",
        "street": "Avenida Vereador Henrique Neiva",
        "zipcode": "38607-412"
    },
    {
        "city": "Paracatu",
        "state": "MG",
        "district": "Santana",
        "street": "Beco B",
        "zipcode": "38600-023"
    },
    {
        "city": "Paracatu",
        "state": "MG",
        "district": "Centro",
        "street": "Beco C",
        "zipcode": "38600-176"
    },
    {
        "city": "Paracatu",
        "state": "MG",
        "district": "Cidade Nova",
        "street": "Praça Álvaro Botelho",
        "zipcode": "38602-112"
    },
    {
        "city": "Paracatu",
        "state": "MG",
        "district": "Centro",
        "street": "Praça Antônio da Mota Bastos",
        "zipcode": "38600-158"
    },
    {
        "city": "Paracatu",
        "state": "MG",
        "district": "Centro",
        "street": "Praça Cristo Rei",
        "zipcode": "38600-184"
    },
    {
        "city": "Paracatu",
        "state": "MG",
        "district": "Santana",
        "street": "Beco do Leno",
        "zipcode": "38600-037"
    },
    {
        "city": "Paracatu",
        "state": "MG",
        "district": "Centro",
        "street": "Praça Teofilo Nunes Marinho",
        "zipcode": "38600-308"
    },
    {
        "city": "Paracatu",
        "state": "MG",
        "district": "Paracatuzinho",
        "street": "Beco Adrilhes Ulhoa",
        "zipcode": "38603-214"
    },
    {
        "city": "Paracatu",
        "state": "MG",
        "district": "Centro",
        "street": "Praça Firmina Santana",
        "zipcode": "38600-196"
    },
    {
        "city": "Paracatu",
        "state": "MG",
        "district": "Jardim América",
        "street": "Rodovia Alírio Herval",
        "zipcode": "38605-002"
    },
    {
        "city": "Paracatu",
        "state": "MG",
        "district": "Bela Vista I",
        "street": "Praça Gerardus Marinus Cornelis Sanders",
        "zipcode": "38600-498"
    },
    {
        "city": "Paracatu",
        "state": "MG",
        "district": "Novo Horizonte",
        "street": "Avenida Vereador Henrique Neiva",
        "zipcode": "38607-410"
    },
    {
        "city": "Paracatu",
        "state": "MG",
        "district": "Centro",
        "street": "Praça Aldemar Silva Neiva",
        "zipcode": "38600-146"
    },
    {
        "city": "Paracatu",
        "state": "MG",
        "district": "Jardim Serrano",
        "street": "Rodovia Presidente Juscelino Kubitschek",
        "zipcode": "38606-236"
    },
    {
        "city": "Paracatu",
        "state": "MG",
        "district": "Centro",
        "street": "Avenida Romualdo Ulhoa Tomba",
        "zipcode": "38600-110"
    },
    {
        "city": "Paracatu",
        "state": "MG",
        "district": "Vila Cruvinel",
        "street": "Ladeira dos Farias",
        "zipcode": "38600-322"
    },
    {
        "city": "Paracatu",
        "state": "MG",
        "district": "Centro",
        "street": "Rodovia Presidente Juscelino Kubitschek",
        "zipcode": "38600-118"
    },
    {
        "city": "Paracatu",
        "state": "MG",
        "district": "Amoreiras I",
        "street": "Rodovia Presidente Juscelino Kubitschek",
        "zipcode": "38600-408"
    },
    {
        "city": "Paracatu",
        "state": "MG",
        "district": "Paracatuzinho",
        "street": "Rodovia Alírio Herval",
        "zipcode": "38603-200"
    },
    {
        "city": "Paracatu",
        "state": "MG",
        "district": "Amoreiras II",
        "street": "Rodovia Presidente Juscelino Kubitschek",
        "zipcode": "38608-246"
    },
    {
        "city": "Paracatu",
        "state": "MG",
        "district": "Centro",
        "street": "Beco do Rosário",
        "zipcode": "38600-292"
    },
    {
        "city": "Paracatu",
        "state": "MG",
        "district": "Juscelino Kubitschek",
        "street": "Beco José Pereira",
        "zipcode": "38607-150"
    },
    {
        "city": "Paracatu",
        "state": "MG",
        "district": "Centro",
        "street": "Beco José M Silva",
        "zipcode": "38600-244"
    },
    {
        "city": "Paracatu",
        "state": "MG",
        "district": "Centro",
        "street": "Praça Coronel Fortunato Botelho",
        "zipcode": "38600-202"
    },
    {
        "city": "Paracatu",
        "state": "MG",
        "district": "Alto do Córrego",
        "street": "Beco Dona Raimunda",
        "zipcode": "38606-066"
    },
    {
        "city": "Paracatu",
        "state": "MG",
        "district": "Vista Alegre",
        "street": "Beco São Zacarias",
        "zipcode": "38607-330"
    },
    {
        "city": "Paracatu",
        "state": "MG",
        "district": "Arraial Dangola",
        "street": "Beco do Lagedo",
        "zipcode": "38600-074"
    },
    {
        "city": "Paracatu",
        "state": "MG",
        "district": "Juscelino Kubitschek",
        "street": "Beco B",
        "zipcode": "38607-110"
    },
    {
        "city": "Paracatu",
        "state": "MG",
        "district": "Nossa Senhora de Fátima",
        "street": "Rodovia Presidente Juscelino Kubitschek",
        "zipcode": "38607-004"
    },
    {
        "city": "Paracatu",
        "state": "MG",
        "district": "Primavera",
        "street": "Praça João Rafael",
        "zipcode": "38606-272"
    },
    {
        "city": "Paracatu",
        "state": "MG",
        "district": "Primavera",
        "street": "Rua Aroeira",
        "zipcode": "38606-262"
    },
    {
        "city": "Paracatu",
        "state": "MG",
        "district": "Bela Vista I",
        "street": "Rua Antônio Vieira Cordeiro",
        "zipcode": "38600-480"
    },
    {
        "city": "Paracatu",
        "state": "MG",
        "district": "Alto do Córrego",
        "street": "Rua Augusta Martins de Moura",
        "zipcode": "38606-026"
    },
    {
        "city": "Paracatu",
        "state": "MG",
        "district": "Centro",
        "street": "Rua Ângela Cruvinel",
        "zipcode": "38600-152"
    },
    {
        "city": "Paracatu",
        "state": "MG",
        "district": "Vista Alegre",
        "street": "Rua Antônio Severiano Neto",
        "zipcode": "38607-310"
    },
    {
        "city": "Paracatu",
        "state": "MG",
        "district": "Vista Alegre",
        "street": "Rua Antônio Oscar Viana",
        "zipcode": "38607-308"
    },
    {
        "city": "Paracatu",
        "state": "MG",
        "district": "Jardim Serrano",
        "street": "Rua Ângico",
        "zipcode": "38606-192"
    },
    {
        "city": "Paracatu",
        "state": "MG",
        "district": "Paracatuzinho",
        "street": "Rua Antônio Mendes Nascimento",
        "zipcode": "38603-224"
    },
    {
        "city": "Paracatu",
        "state": "MG",
        "district": "Chapadinha II",
        "street": "Rua Adrilhes Ulhoa",
        "zipcode": "38605-060"
    },
    {
        "city": "Paracatu",
        "state": "MG",
        "district": "Parque do Príncipe",
        "street": "Rua Argentina",
        "zipcode": "38602-192"
    },
    {
        "city": "Paracatu",
        "state": "MG",
        "district": "Paracatuzinho",
        "street": "Rua Adrilhes Ulhoa",
        "zipcode": "38603-194"
    },
    {
        "city": "Paracatu",
        "state": "MG",
        "district": "Santa Lúcia",
        "street": "Rua Antônio Ponciano de Almeida",
        "zipcode": "38600-374"
    },
    {
        "city": "Paracatu",
        "state": "MG",
        "district": "Lene Ville",
        "street": "Rua A",
        "zipcode": "38607-210"
    },
    {
        "city": "Paracatu",
        "state": "MG",
        "district": "Esplanada",
        "street": "Rua Amélia Silva Neiva",
        "zipcode": "38608-212"
    },
    {
        "city": "Paracatu",
        "state": "MG",
        "district": "Centro",
        "street": "Rua Antônio Porto",
        "zipcode": "38600-160"
    },
    {
        "city": "Paracatu",
        "state": "MG",
        "district": "Paracatuzinho",
        "street": "Rua Antônio José Ulhoa",
        "zipcode": "38603-222"
    },
    {
        "city": "Paracatu",
        "state": "MG",
        "district": "Paracatuzinho",
        "street": "Rua Ana Silva Neiva",
        "zipcode": "38603-216"
    },
    {
        "city": "Paracatu",
        "state": "MG",
        "district": "Nossa Senhora de Fátima",
        "street": "Rua Amélia Gotilib Leite",
        "zipcode": "38607-014"
    },
    {
        "city": "Paracatu",
        "state": "MG",
        "district": "Bandeirantes",
        "street": "Rua Antônia Peres da Silva",
        "zipcode": "38603-180"
    },
    {
        "city": "Paracatu",
        "state": "MG",
        "district": "Bela Vista I",
        "street": "Rua Antônio Martins dos Santos",
        "zipcode": "38600-478"
    },
    {
        "city": "Paracatu",
        "state": "MG",
        "district": "Centro",
        "street": "Rua Antônia Ribeiro",
        "zipcode": "38600-156"
    },
    {
        "city": "Paracatu",
        "state": "MG",
        "district": "Centro",
        "street": "Rua Augusto Albernaz",
        "zipcode": "38600-164"
    },
    {
        "city": "Paracatu",
        "state": "MG",
        "district": "Prado",
        "street": "Rua Antenor da Silva Neiva",
        "zipcode": "38602-012"
    },
    {
        "city": "Paracatu",
        "state": "MG",
        "district": "Chapadinha",
        "street": "Rua Adrilhes Ulhoa",
        "zipcode": "38605-036"
    },
    {
        "city": "Paracatu",
        "state": "MG",
        "district": "Novo Horizonte",
        "street": "Rua Adelaide Efigênia Souto",
        "zipcode": "38607-420"
    },
    {
        "city": "Paracatu",
        "state": "MG",
        "district": "Centro",
        "street": "Rua Américo Macedo",
        "zipcode": "38600-150"
    },
    {
        "city": "Paracatu",
        "state": "MG",
        "district": "Juscelino Kubitschek",
        "street": "Rua Amália Souza Camargos",
        "zipcode": "38607-096"
    },
    {
        "city": "Paracatu",
        "state": "MG",
        "district": "Cidade Nova",
        "street": "Rua Alameda dos Ipês",
        "zipcode": "38602-110"
    },
    {
        "city": "Paracatu",
        "state": "MG",
        "district": "Juscelino Kubitschek",
        "street": "Rua Amaral Gurgel",
        "zipcode": "38607-102"
    },
    {
        "city": "Paracatu",
        "state": "MG",
        "district": "Vista Alegre",
        "street": "Rua Antônio Neto Siqueira",
        "zipcode": "38607-306"
    },
    {
        "city": "Paracatu",
        "state": "MG",
        "district": "Esplanada",
        "street": "Rua Agenor Rodrigues",
        "zipcode": "38608-202"
    },
    {
        "city": "Paracatu",
        "state": "MG",
        "district": "Jardim Primavera II",
        "street": "Rua Angical",
        "zipcode": "38606-292"
    },
    {
        "city": "Paracatu",
        "state": "MG",
        "district": "Centro",
        "street": "Rua Abadia",
        "zipcode": "38600-140"
    },
    {
        "city": "Paracatu",
        "state": "MG",
        "district": "Vila Alvorada",
        "street": "Rodovia Presidente Juscelino Kubitschek",
        "zipcode": "38606-440"
    },
    {
        "city": "Paracatu",
        "state": "MG",
        "district": "Nossa Senhora de Fátima",
        "street": "Rua Anísio Botelho",
        "zipcode": "38607-028"
    },
    {
        "city": "Paracatu",
        "state": "MG",
        "district": "Bela Vista I",
        "street": "Rua Augusto Ulhôa",
        "zipcode": "38600-482"
    },
    {
        "city": "Paracatu",
        "state": "MG",
        "district": "Vila Mariana",
        "street": "Rua Ademar da Silva Neiva",
        "zipcode": "38606-102"
    },
    {
        "city": "Paracatu",
        "state": "MG",
        "district": "Novo Horizonte",
        "street": "Rua Amélia Gotilib Leite",
        "zipcode": "38607-416"
    },
    {
        "city": "Paracatu",
        "state": "MG",
        "district": "Vila Cristiano",
        "street": "Rodovia Presidente Juscelino Kubitschek",
        "zipcode": "38606-390"
    },
    {
        "city": "Paracatu",
        "state": "MG",
        "district": "Amoreiras I",
        "street": "Rua Antônio Martins",
        "zipcode": "38600-418"
    },
    {
        "city": "Paracatu",
        "state": "MG",
        "district": "Bela Vista I",
        "street": "Rua Alcebíades Gonçalves Carvalho",
        "zipcode": "38600-474"
    },
    {
        "city": "Paracatu",
        "state": "MG",
        "district": "Esplanada",
        "street": "Rua Alumínio",
        "zipcode": "38608-206"
    },
    {
        "city": "Paracatu",
        "state": "MG",
        "district": "Prado",
        "street": "Rua Ana Monteiro dos Santos",
        "zipcode": "38602-010"
    },
    {
        "city": "Paracatu",
        "state": "MG",
        "district": "Juscelino Kubitschek",
        "street": "Rua Andrade",
        "zipcode": "38607-104"
    },
    {
        "city": "Paracatu",
        "state": "MG",
        "district": "Alto do Córrego",
        "street": "Rua Adriano Pereira Mundim",
        "zipcode": "38606-014"
    },
    {
        "city": "Paracatu",
        "state": "MG",
        "district": "Bela Vista I",
        "street": "Rua Afrânio Salustiano Pereira",
        "zipcode": "38600-472"
    },
    {
        "city": "Paracatu",
        "state": "MG",
        "district": "Santa Lúcia",
        "street": "Rua Afranio Geraldo Martins Ferreira",
        "zipcode": "38600-372"
    },
    {
        "city": "Paracatu",
        "state": "MG",
        "district": "Santana",
        "street": "Rua Arlindo Ulhoa",
        "zipcode": "38600-021"
    },
    {
        "city": "Paracatu",
        "state": "MG",
        "district": "Alto do Açude",
        "street": "Rua A",
        "zipcode": "38608-010"
    },
    {
        "city": "Paracatu",
        "state": "MG",
        "district": "Amoreiras II",
        "street": "Rua Alumínio",
        "zipcode": "38608-240"
    },
    {
        "city": "Paracatu",
        "state": "MG",
        "district": "Jardim Serrano",
        "street": "Rua Alamanda",
        "zipcode": "38606-190"
    },
    {
        "city": "Paracatu",
        "state": "MG",
        "district": "Centro",
        "street": "Rua Alexandre Silva",
        "zipcode": "38600-138"
    },
    {
        "city": "Paracatu",
        "state": "MG",
        "district": "Santana",
        "street": "Rua Adelina Silva",
        "zipcode": "38600-015"
    },
    {
        "city": "Paracatu",
        "state": "MG",
        "district": "Arraial Dangola",
        "street": "Rua Alexandre Silva",
        "zipcode": "38600-052"
    },
    {
        "city": "Paracatu",
        "state": "MG",
        "district": "Vila Mariana",
        "street": "Rua Analy Gonçalves Silva",
        "zipcode": "38606-112"
    },
    {
        "city": "Paracatu",
        "state": "MG",
        "district": "Vila Ecológica",
        "street": "Rua Ângico",
        "zipcode": "38607-260"
    },
    {
        "city": "Paracatu",
        "state": "MG",
        "district": "Cidade Nova",
        "street": "Rua Angelo Monteiro Silva",
        "zipcode": "38602-114"
    },
    {
        "city": "Paracatu",
        "state": "MG",
        "district": "Jardim Primavera III",
        "street": "Rua Congonhas",
        "zipcode": "38606-346"
    },
    {
        "city": "Paracatu",
        "state": "MG",
        "district": "Santana",
        "street": "Rua Benedito Vidal de Ataíde",
        "zipcode": "38600-025"
    },
    {
        "city": "Paracatu",
        "state": "MG",
        "district": "Novo Horizonte",
        "street": "Rua Cândida Souto Gonçalves",
        "zipcode": "38607-426"
    },
    {
        "city": "Paracatu",
        "state": "MG",
        "district": "Santa Lúcia",
        "street": "Rua Brasília Caroliona Santana de Souza",
        "zipcode": "38600-366"
    },
    {
        "city": "Paracatu",
        "state": "MG",
        "district": "Vila Alvorada",
        "street": "Rua Calminas",
        "zipcode": "38606-446"
    },
    {
        "city": "Paracatu",
        "state": "MG",
        "district": "Nossa Senhora de Fátima",
        "street": "Rua Bernardo Osório",
        "zipcode": "38607-018"
    },
    {
        "city": "Paracatu",
        "state": "MG",
        "district": "São João Evangelista",
        "street": "Rua Benedito do Carmo Conceição",
        "zipcode": "38603-118"
    },
    {
        "city": "Paracatu",
        "state": "MG",
        "district": "Bela Vista I",
        "street": "Rua Bento Pereira Mundim",
        "zipcode": "38600-462"
    },
    {
        "city": "Paracatu",
        "state": "MG",
        "district": "Jardim Serrano",
        "street": "Rua Cedro",
        "zipcode": "38606-206"
    },
    {
        "city": "Paracatu",
        "state": "MG",
        "district": "Centro",
        "street": "Rua Bernardo Caparucho Filho",
        "zipcode": "38600-174"
    },
    {
        "city": "Paracatu",
        "state": "MG",
        "district": "Juscelino Kubitschek",
        "street": "Rua Cláudio Alves Abrantes",
        "zipcode": "38607-080"
    },
    {
        "city": "Paracatu",
        "state": "MG",
        "district": "Bela Vista I",
        "street": "Rua Ciríaco Francisco de Andrade",
        "zipcode": "38600-456"
    },
    {
        "city": "Paracatu",
        "state": "MG",
        "district": "Amoreiras I",
        "street": "Rua Castelo Branco",
        "zipcode": "38600-422"
    },
    {
        "city": "Paracatu",
        "state": "MG",
        "district": "Sarah Kubitschek",
        "street": "Rua C",
        "zipcode": "38607-220"
    },
    {
        "city": "Paracatu",
        "state": "MG",
        "district": "Vila Cristiano",
        "street": "Rua Ciríaco Costa Bezerra",
        "zipcode": "38606-394"
    },
    {
        "city": "Paracatu",
        "state": "MG",
        "district": "Nossa Senhora Aparecida",
        "street": "Rua Caetano Silva Neiva",
        "zipcode": "38608-124"
    },
    {
        "city": "Paracatu",
        "state": "MG",
        "district": "Bandeirantes",
        "street": "Rua Chico Mendes",
        "zipcode": "38603-160"
    },
    {
        "city": "Paracatu",
        "state": "MG",
        "district": "Amoreiras I",
        "street": "Rua Benedito Laboissiere",
        "zipcode": "38600-412"
    },
    {
        "city": "Paracatu",
        "state": "MG",
        "district": "Paracatuzinho",
        "street": "Rua Capelinha",
        "zipcode": "38603-240"
    },
    {
        "city": "Paracatu",
        "state": "MG",
        "district": "Chapadinha II",
        "street": "Rua C",
        "zipcode": "38605-074"
    },
    {
        "city": "Paracatu",
        "state": "MG",
        "district": "Vila Cruvinel",
        "street": "Rua Brasílio Guimarães Tavares",
        "zipcode": "38600-330"
    },
    {
        "city": "Paracatu",
        "state": "MG",
        "district": "Centro",
        "street": "Rua Benedito Laboissiere",
        "zipcode": "38600-124"
    },
    {
        "city": "Paracatu",
        "state": "MG",
        "district": "Jardim Serrano",
        "street": "Rua Cajarana",
        "zipcode": "38606-200"
    },
    {
        "city": "Paracatu",
        "state": "MG",
        "district": "Paracatuzinho",
        "street": "Rua Cristiano Pimentel",
        "zipcode": "38603-250"
    },
    {
        "city": "Paracatu",
        "state": "MG",
        "district": "Juscelino Kubitschek",
        "street": "Rua Benedito Pereira Souza",
        "zipcode": "38607-112"
    },
    {
        "city": "Paracatu",
        "state": "MG",
        "district": "Centro",
        "street": "Rua Candico Neiva",
        "zipcode": "38600-178"
    },
    {
        "city": "Paracatu",
        "state": "MG",
        "district": "Paracatuzinho",
        "street": "Rua Bienor",
        "zipcode": "38603-234"
    },
    {
        "city": "Paracatu",
        "state": "MG",
        "district": "Vila Ecológica",
        "street": "Rua Copaíba",
        "zipcode": "38607-264"
    },
    {
        "city": "Paracatu",
        "state": "MG",
        "district": "Vila Mariana",
        "street": "Rua Comendador Rui Jordão",
        "zipcode": "38606-164"
    },
    {
        "city": "Paracatu",
        "state": "MG",
        "district": "São João Evangelista",
        "street": "Rua Chico Mendes",
        "zipcode": "38603-100"
    },
    {
        "city": "Paracatu",
        "state": "MG",
        "district": "Vila Alvorada",
        "street": "Rua Catuí",
        "zipcode": "38606-448"
    },
    {
        "city": "Paracatu",
        "state": "MG",
        "district": "Cidade Nova",
        "street": "Rua Brasília Caroliona Santana de Souza",
        "zipcode": "38602-100"
    },
    {
        "city": "Paracatu",
        "state": "MG",
        "district": "Paracatuzinho",
        "street": "Rua Carlos Diogo Soares Rodrigues",
        "zipcode": "38603-244"
    },
    {
        "city": "Paracatu",
        "state": "MG",
        "district": "Paracatuzinho",
        "street": "Rua Carlos da Silva Gama",
        "zipcode": "38603-242"
    },
    {
        "city": "Paracatu",
        "state": "MG",
        "district": "Juscelino Kubitschek",
        "street": "Rua Carlos Tunes",
        "zipcode": "38607-084"
    },
    {
        "city": "Paracatu",
        "state": "MG",
        "district": "Parque do Príncipe",
        "street": "Rua Chile",
        "zipcode": "38602-200"
    },
    {
        "city": "Paracatu",
        "state": "MG",
        "district": "Juscelino Kubitschek",
        "street": "Rua Bernardo Osório",
        "zipcode": "38607-082"
    },
    {
        "city": "Paracatu",
        "state": "MG",
        "district": "Parque do Príncipe",
        "street": "Rua Bolívia",
        "zipcode": "38602-196"
    },
    {
        "city": "Paracatu",
        "state": "MG",
        "district": "Bela Vista I",
        "street": "Rua Boa Vista",
        "zipcode": "38600-486"
    },
    {
        "city": "Paracatu",
        "state": "MG",
        "district": "Amoreiras I",
        "street": "Rua Bento Pereira Mundim",
        "zipcode": "38600-406"
    },
    {
        "city": "Paracatu",
        "state": "MG",
        "district": "Alto do Açude",
        "street": "Rua Benedito de Melo",
        "zipcode": "38608-022"
    },
    {
        "city": "Paracatu",
        "state": "MG",
        "district": "Alto da Colina",
        "street": "Rua C",
        "zipcode": "38608-336"
    },
    {
        "city": "Paracatu",
        "state": "MG",
        "district": "Alto do Açude",
        "street": "Rua Cláudio Alves Abrantes",
        "zipcode": "38608-004"
    },
    {
        "city": "Paracatu",
        "state": "MG",
        "district": "Paracatuzinho",
        "street": "Rua Benedito Oliveira Melo",
        "zipcode": "38603-232"
    },
    {
        "city": "Paracatu",
        "state": "MG",
        "district": "Paracatuzinho",
        "street": "Rua Cândido Silva Neiva",
        "zipcode": "38603-238"
    },
    {
        "city": "Paracatu",
        "state": "MG",
        "district": "Prado",
        "street": "Rua Cristiano Lemos do Prado",
        "zipcode": "38602-002"
    },
    {
        "city": "Paracatu",
        "state": "MG",
        "district": "Parque do Príncipe",
        "street": "Rua Cuba",
        "zipcode": "38602-206"
    },
    {
        "city": "Paracatu",
        "state": "MG",
        "district": "Paracatuzinho",
        "street": "Rua Catarina Bastos Damasceno",
        "zipcode": "38603-246"
    },
    {
        "city": "Paracatu",
        "state": "MG",
        "district": "Jardim Serrano",
        "street": "Rua Bálsamo",
        "zipcode": "38606-196"
    },
    {
        "city": "Paracatu",
        "state": "MG",
        "district": "Alto do Açude",
        "street": "Rua Carteiros",
        "zipcode": "38608-030"
    },
    {
        "city": "Paracatu",
        "state": "MG",
        "district": "Vila Cruvinel",
        "street": "Rua Beatriz",
        "zipcode": "38600-326"
    },
    {
        "city": "Paracatu",
        "state": "MG",
        "district": "Vila Alvorada",
        "street": "Rua Calcário",
        "zipcode": "38606-444"
    },
    {
        "city": "Paracatu",
        "state": "MG",
        "district": "Novo Horizonte",
        "street": "Rua Belmira Araújo Neves",
        "zipcode": "38607-424"
    },
    {
        "city": "Paracatu",
        "state": "MG",
        "district": "Bela Vista II",
        "street": "Rua Belmiro José",
        "zipcode": "38608-308"
    },
    {
        "city": "Paracatu",
        "state": "MG",
        "district": "Chapadinha II",
        "street": "Rua Benedita Rodrigues Coutinho",
        "zipcode": "38605-072"
    },
    {
        "city": "Paracatu",
        "state": "MG",
        "district": "Cidade Nova",
        "street": "Rua Cristiano Lemos do Prado",
        "zipcode": "38602-106"
    },
    {
        "city": "Paracatu",
        "state": "MG",
        "district": "Centro",
        "street": "Rua Coromandel",
        "zipcode": "38600-182"
    },
    {
        "city": "Paracatu",
        "state": "MG",
        "district": "Santa Lúcia",
        "street": "Rua Clarindo Melo Franco",
        "zipcode": "38600-376"
    },
    {
        "city": "Paracatu",
        "state": "MG",
        "district": "Jardim Serrano",
        "street": "Rua Cravo",
        "zipcode": "38606-208"
    },
    {
        "city": "Paracatu",
        "state": "MG",
        "district": "Bela Vista II",
        "street": "Rua Cinco",
        "zipcode": "38608-300"
    },
    {
        "city": "Paracatu",
        "state": "MG",
        "district": "Juscelino Kubitschek",
        "street": "Rua Diogo Soares Rodrigues",
        "zipcode": "38607-126"
    },
    {
        "city": "Paracatu",
        "state": "MG",
        "district": "Bela Vista I",
        "street": "Rua do Vigário",
        "zipcode": "38600-454"
    },
    {
        "city": "Paracatu",
        "state": "MG",
        "district": "Paracatuzinho",
        "street": "Rua Dona Mariana",
        "zipcode": "38603-334"
    },
    {
        "city": "Paracatu",
        "state": "MG",
        "district": "Jardim Serrano",
        "street": "Rua dos Pomares",
        "zipcode": "38606-244"
    },
    {
        "city": "Paracatu",
        "state": "MG",
        "district": "Paracatuzinho",
        "street": "Rua Dionisio Coelho Filho",
        "zipcode": "38603-256"
    },
    {
        "city": "Paracatu",
        "state": "MG",
        "district": "Primavera",
        "street": "Rua das Palmeiras",
        "zipcode": "38606-276"
    },
    {
        "city": "Paracatu",
        "state": "MG",
        "district": "Prado",
        "street": "Rua Dona Romana",
        "zipcode": "38602-040"
    },
    {
        "city": "Paracatu",
        "state": "MG",
        "district": "Jardim Primavera II",
        "street": "Rua das Ameixas",
        "zipcode": "38606-290"
    },
    {
        "city": "Paracatu",
        "state": "MG",
        "district": "Vila Mariana",
        "street": "Rua dos Operários",
        "zipcode": "38606-154"
    },
    {
        "city": "Paracatu",
        "state": "MG",
        "district": "Jardim Primavera III",
        "street": "Rua das Laranjeiras",
        "zipcode": "38606-352"
    },
    {
        "city": "Paracatu",
        "state": "MG",
        "district": "Amoreiras I",
        "street": "Rua Custódio Caetano de Souza",
        "zipcode": "38600-424"
    },
    {
        "city": "Paracatu",
        "state": "MG",
        "district": "Primavera",
        "street": "Rua das Cajamangas",
        "zipcode": "38606-264"
    },
    {
        "city": "Paracatu",
        "state": "MG",
        "district": "Prado",
        "street": "Rua Dom Pedro I",
        "zipcode": "38602-038"
    },
    {
        "city": "Paracatu",
        "state": "MG",
        "district": "Jardim Serrano",
        "street": "Rua das Flores",
        "zipcode": "38606-218"
    },
    {
        "city": "Paracatu",
        "state": "MG",
        "district": "Amoreiras I",
        "street": "Rua Doutor Álvaro Batista",
        "zipcode": "38600-416"
    },
    {
        "city": "Paracatu",
        "state": "MG",
        "district": "Jardim Serrano",
        "street": "Rua da Caraíba",
        "zipcode": "38606-204"
    },
    {
        "city": "Paracatu",
        "state": "MG",
        "district": "Santa Lúcia",
        "street": "Rua do Vigário",
        "zipcode": "38600-352"
    },
    {
        "city": "Paracatu",
        "state": "MG",
        "district": "Paracatuzinho",
        "street": "Rua do Santana",
        "zipcode": "38603-384"
    },
    {
        "city": "Paracatu",
        "state": "MG",
        "district": "Nossa Senhora Aparecida",
        "street": "Rua Dez",
        "zipcode": "38608-130"
    },
    {
        "city": "Paracatu",
        "state": "MG",
        "district": "Centro",
        "street": "Rua do Tanque",
        "zipcode": "38600-304"
    },
    {
        "city": "Paracatu",
        "state": "MG",
        "district": "Nossa Senhora de Fátima",
        "street": "Rua Djalmira Lepesquer",
        "zipcode": "38607-040"
    },
    {
        "city": "Paracatu",
        "state": "MG",
        "district": "Juscelino Kubitschek",
        "street": "Rua dos Sargentos",
        "zipcode": "38607-178"
    },
    {
        "city": "Paracatu",
        "state": "MG",
        "district": "Esplanada",
        "street": "Rua das Mansões",
        "zipcode": "38608-226"
    },
    {
        "city": "Paracatu",
        "state": "MG",
        "district": "Prado",
        "street": "Rua Diva da Silva Neiva",
        "zipcode": "38602-016"
    },
    {
        "city": "Paracatu",
        "state": "MG",
        "district": "Primavera",
        "street": "Rua da Jaqueira",
        "zipcode": "38606-270"
    },
    {
        "city": "Paracatu",
        "state": "MG",
        "district": "Arraial Dangola",
        "street": "Rua Dom Serafim",
        "zipcode": "38600-084"
    },
    {
        "city": "Paracatu",
        "state": "MG",
        "district": "Bela Vista I",
        "street": "Rua Donizete Victor Rodrigues",
        "zipcode": "38600-490"
    },
    {
        "city": "Paracatu",
        "state": "MG",
        "district": "Arraial Dangola",
        "street": "Rua do Lageado",
        "zipcode": "38600-072"
    },
    {
        "city": "Paracatu",
        "state": "MG",
        "district": "Alto do Açude",
        "street": "Rua do Açude",
        "zipcode": "38608-014"
    },
    {
        "city": "Paracatu",
        "state": "MG",
        "district": "Jardim Primavera",
        "street": "Rua do Jambo",
        "zipcode": "38606-086"
    },
    {
        "city": "Paracatu",
        "state": "MG",
        "district": "Vila Mariana",
        "street": "Rua dos Funcionários",
        "zipcode": "38606-130"
    },
    {
        "city": "Paracatu",
        "state": "MG",
        "district": "Paracatuzinho",
        "street": "Rua das Rosas",
        "zipcode": "38603-382"
    },
    {
        "city": "Paracatu",
        "state": "MG",
        "district": "Vila Mariana",
        "street": "Rua Djalmira Lepesquer Simplício",
        "zipcode": "38606-118"
    },
    {
        "city": "Paracatu",
        "state": "MG",
        "district": "Arraial Dangola",
        "street": "Rua das Maurícias",
        "zipcode": "38600-080"
    },
    {
        "city": "Paracatu",
        "state": "MG",
        "district": "Alto da Colina",
        "street": "Rua D",
        "zipcode": "38608-338"
    },
    {
        "city": "Paracatu",
        "state": "MG",
        "district": "São João Evangelista",
        "street": "Rua Dom Hélder Câmara",
        "zipcode": "38603-126"
    },
    {
        "city": "Paracatu",
        "state": "MG",
        "district": "Primavera",
        "street": "Rua das Amoras",
        "zipcode": "38606-258"
    },
    {
        "city": "Paracatu",
        "state": "MG",
        "district": "Centro",
        "street": "Rua do Avila",
        "zipcode": "38600-166"
    },
    {
        "city": "Paracatu",
        "state": "MG",
        "district": "Sarah Kubitschek",
        "street": "Rua D",
        "zipcode": "38607-222"
    },
    {
        "city": "Paracatu",
        "state": "MG",
        "district": "Vista Alegre",
        "street": "Rua Dois",
        "zipcode": "38607-372"
    },
    {
        "city": "Paracatu",
        "state": "MG",
        "district": "Paracatuzinho",
        "street": "Rua das Margaridas",
        "zipcode": "38603-324"
    },
    {
        "city": "Paracatu",
        "state": "MG",
        "district": "Primavera",
        "street": "Rua do Piquizeiro",
        "zipcode": "38606-280"
    },
    {
        "city": "Paracatu",
        "state": "MG",
        "district": "Vila Mariana",
        "street": "Rua dos Bancários",
        "zipcode": "38606-116"
    },
    {
        "city": "Paracatu",
        "state": "MG",
        "district": "Bandeirantes",
        "street": "Rua Dez",
        "zipcode": "38603-170"
    },
    {
        "city": "Paracatu",
        "state": "MG",
        "district": "Bandeirantes",
        "street": "Rua Dezesseis",
        "zipcode": "38603-178"
    },
    {
        "city": "Paracatu",
        "state": "MG",
        "district": "Vista Alegre",
        "street": "Rua Daniel Dias",
        "zipcode": "38607-316"
    },
    {
        "city": "Paracatu",
        "state": "MG",
        "district": "Primavera",
        "street": "Rua do Jambo",
        "zipcode": "38606-256"
    },
    {
        "city": "Paracatu",
        "state": "MG",
        "district": "Primavera",
        "street": "Rua do Cajueiro",
        "zipcode": "38606-254"
    },
    {
        "city": "Paracatu",
        "state": "MG",
        "district": "Jardim Primavera III",
        "street": "Rua dos Coqueiros",
        "zipcode": "38606-342"
    },
    {
        "city": "Paracatu",
        "state": "MG",
        "district": "Primavera",
        "street": "Rua das Pitangas",
        "zipcode": "38606-282"
    },
    {
        "city": "Paracatu",
        "state": "MG",
        "district": "Paracatuzinho",
        "street": "Rua da Contagem",
        "zipcode": "38603-248"
    },
    {
        "city": "Paracatu",
        "state": "MG",
        "district": "Juscelino Kubitschek",
        "street": "Rua da Igreja",
        "zipcode": "38607-140"
    },
    {
        "city": "Paracatu",
        "state": "MG",
        "district": "Bela Vista II",
        "street": "Rua Dois",
        "zipcode": "38608-292"
    },
    {
        "city": "Paracatu",
        "state": "MG",
        "district": "Jardim Primavera III",
        "street": "Rua das Gameleiras",
        "zipcode": "38606-348"
    },
    {
        "city": "Paracatu",
        "state": "MG",
        "district": "Juscelino Kubitschek",
        "street": "Rua da Prefeitura",
        "zipcode": "38607-168"
    },
    {
        "city": "Paracatu",
        "state": "MG",
        "district": "Jardim Primavera II",
        "street": "Rua das Mamoneiras",
        "zipcode": "38606-298"
    },
    {
        "city": "Paracatu",
        "state": "MG",
        "district": "Vila Mariana",
        "street": "Rua Dona Mabel de Andrade Dayrell",
        "zipcode": "38606-146"
    },
    {
        "city": "Paracatu",
        "state": "MG",
        "district": "Vista Alegre",
        "street": "Rua da Biquinha",
        "zipcode": "38607-312"
    },
    {
        "city": "Paracatu",
        "state": "MG",
        "district": "Paracatuzinho",
        "street": "Rua das Orquídeas",
        "zipcode": "38603-346"
    },
    {
        "city": "Paracatu",
        "state": "MG",
        "district": "Jardim Serrano",
        "street": "Rua Dália",
        "zipcode": "38606-212"
    },
    {
        "city": "Paracatu",
        "state": "MG",
        "district": "Paracatuzinho",
        "street": "Rua Doutor Francisco Timóteo Lisboa",
        "zipcode": "38603-266"
    },
    {
        "city": "Paracatu",
        "state": "MG",
        "district": "Cidade Nova",
        "street": "Rua Doutor Elmo Araújo Caldas",
        "zipcode": "38602-122"
    },
    {
        "city": "Paracatu",
        "state": "MG",
        "district": "Vila Mariana",
        "street": "Rua Francisca P Mundim",
        "zipcode": "38606-128"
    },
    {
        "city": "Paracatu",
        "state": "MG",
        "district": "Amoreiras II",
        "street": "Rua Esmeralda",
        "zipcode": "38608-260"
    },
    {
        "city": "Paracatu",
        "state": "MG",
        "district": "Prado",
        "street": "Rua Euridamas Avelino de Barros",
        "zipcode": "38602-018"
    },
    {
        "city": "Paracatu",
        "state": "MG",
        "district": "Sarah Kubitschek",
        "street": "Rua G",
        "zipcode": "38607-230"
    },
    {
        "city": "Paracatu",
        "state": "MG",
        "district": "Vila Mariana",
        "street": "Rua Durval Batista de Oliveira",
        "zipcode": "38606-124"
    },
    {
        "city": "Paracatu",
        "state": "MG",
        "district": "Jardim Serrano",
        "street": "Rua Espatódia",
        "zipcode": "38606-214"
    },
    {
        "city": "Paracatu",
        "state": "MG",
        "district": "Alto do Córrego",
        "street": "Rua Doutor Vasconcelos Teixeira",
        "zipcode": "38606-010"
    },
    {
        "city": "Paracatu",
        "state": "MG",
        "district": "Santana",
        "street": "Rua Eduardo Pimentel",
        "zipcode": "38600-001"
    },
    {
        "city": "Paracatu",
        "state": "MG",
        "district": "Jardim Serrano",
        "street": "Rua Framboesa",
        "zipcode": "38606-184"
    },
    {
        "city": "Paracatu",
        "state": "MG",
        "district": "Arraial Dangola",
        "street": "Rua Emanuel Laboissière",
        "zipcode": "38600-058"
    },
    {
        "city": "Paracatu",
        "state": "MG",
        "district": "São João Evangelista",
        "street": "Rua Frei Pedro Caixito",
        "zipcode": "38603-138"
    },
    {
        "city": "Paracatu",
        "state": "MG",
        "district": "Centro",
        "street": "Rua Doutor Anthero Santiago",
        "zipcode": "38600-154"
    },
    {
        "city": "Paracatu",
        "state": "MG",
        "district": "Bandeirantes",
        "street": "Rua Expedito Nascimento",
        "zipcode": "38603-186"
    },
    {
        "city": "Paracatu",
        "state": "MG",
        "district": "Arraial Dangola",
        "street": "Rua Eduardo Pimentel",
        "zipcode": "38600-050"
    },
    {
        "city": "Paracatu",
        "state": "MG",
        "district": "Arraial Dangola",
        "street": "Rua Estrela do Sul",
        "zipcode": "38600-060"
    },
    {
        "city": "Paracatu",
        "state": "MG",
        "district": "Sarah Kubitschek",
        "street": "Rua Felizarda Paula Andrade Azevedo",
        "zipcode": "38607-228"
    },
    {
        "city": "Paracatu",
        "state": "MG",
        "district": "Sarah Kubitschek",
        "street": "Rua F",
        "zipcode": "38607-226"
    },
    {
        "city": "Paracatu",
        "state": "MG",
        "district": "Amoreiras II",
        "street": "Rua Galvão",
        "zipcode": "38608-266"
    },
    {
        "city": "Paracatu",
        "state": "MG",
        "district": "Centro",
        "street": "Rua Francisco Xavier da Silva",
        "zipcode": "38600-206"
    },
    {
        "city": "Paracatu",
        "state": "MG",
        "district": "Santa Lúcia",
        "street": "Rua Dulce Batista Cordeiro",
        "zipcode": "38600-378"
    },
    {
        "city": "Paracatu",
        "state": "MG",
        "district": "Vila Mariana",
        "street": "Rua E",
        "zipcode": "38606-126"
    },
    {
        "city": "Paracatu",
        "state": "MG",
        "district": "Alto do Córrego",
        "street": "Rua Francisco Ferreira Araújo",
        "zipcode": "38606-034"
    },
    {
        "city": "Paracatu",
        "state": "MG",
        "district": "Centro",
        "street": "Rua Doutor Sérgio Ulhoa",
        "zipcode": "38600-300"
    },
    {
        "city": "Paracatu",
        "state": "MG",
        "district": "Chapadinha II",
        "street": "Rua F",
        "zipcode": "38605-080"
    },
    {
        "city": "Paracatu",
        "state": "MG",
        "district": "Arraial Dangola",
        "street": "Rua Floresta",
        "zipcode": "38600-064"
    },
    {
        "city": "Paracatu",
        "state": "MG",
        "district": "Vila Mariana",
        "street": "Rua Eliseu Oswaldo Macedo",
        "zipcode": "38606-104"
    },
    {
        "city": "Paracatu",
        "state": "MG",
        "district": "Santana",
        "street": "Rua Doutor Vasconcelos Teixeira",
        "zipcode": "38600-013"
    },
    {
        "city": "Paracatu",
        "state": "MG",
        "district": "Alto da Colina",
        "street": "Rua E",
        "zipcode": "38608-340"
    },
    {
        "city": "Paracatu",
        "state": "MG",
        "district": "Centro",
        "street": "Rua Doutor Jordão",
        "zipcode": "38600-236"
    },
    {
        "city": "Paracatu",
        "state": "MG",
        "district": "Prado",
        "street": "Rua Frei Anselmo",
        "zipcode": "38602-000"
    },
    {
        "city": "Paracatu",
        "state": "MG",
        "district": "Juscelino Kubitschek",
        "street": "Rua Fábio Ciência",
        "zipcode": "38607-090"
    },
    {
        "city": "Paracatu",
        "state": "MG",
        "district": "Santa Lúcia",
        "street": "Rua Francisco Mendes Teixeira",
        "zipcode": "38600-384"
    },
    {
        "city": "Paracatu",
        "state": "MG",
        "district": "Alto da Colina",
        "street": "Rua G",
        "zipcode": "38608-344"
    },
    {
        "city": "Paracatu",
        "state": "MG",
        "district": "Bandeirantes",
        "street": "Rua Doze",
        "zipcode": "38603-172"
    },
    {
        "city": "Paracatu",
        "state": "MG",
        "district": "Vila Mariana",
        "street": "Rua Genesco Gonçalves",
        "zipcode": "38606-132"
    },
    {
        "city": "Paracatu",
        "state": "MG",
        "district": "Arraial Dangola",
        "street": "Rua Etelvina Eliza Rezende",
        "zipcode": "38600-054"
    },
    {
        "city": "Paracatu",
        "state": "MG",
        "district": "Jardim Serrano",
        "street": "Rua Flamboyant",
        "zipcode": "38606-216"
    },
    {
        "city": "Paracatu",
        "state": "MG",
        "district": "Vila São Calixto",
        "street": "Rua Frei Anselmo",
        "zipcode": "38603-000"
    },
    {
        "city": "Paracatu",
        "state": "MG",
        "district": "Nossa Senhora de Fátima",
        "street": "Rua Fábio Ciência",
        "zipcode": "38607-010"
    },
    {
        "city": "Paracatu",
        "state": "MG",
        "district": "Paracatuzinho",
        "street": "Rua Gaspar Gottlib",
        "zipcode": "38603-268"
    },
    {
        "city": "Paracatu",
        "state": "MG",
        "district": "Jardim Serrano",
        "street": "Rua Eliseu Oswaldo Macedo",
        "zipcode": "38606-186"
    },
    {
        "city": "Paracatu",
        "state": "MG",
        "district": "Alto da Colina",
        "street": "Rua F",
        "zipcode": "38608-342"
    },
    {
        "city": "Paracatu",
        "state": "MG",
        "district": "Centro",
        "street": "Rua Floriano Damasceno",
        "zipcode": "38600-200"
    },
    {
        "city": "Paracatu",
        "state": "MG",
        "district": "Amoreiras II",
        "street": "Rua Francisco Mendes Teixeira",
        "zipcode": "38608-264"
    },
    {
        "city": "Paracatu",
        "state": "MG",
        "district": "Centro",
        "street": "Rua Elizeu Moreira da Silva",
        "zipcode": "38600-190"
    },
    {
        "city": "Paracatu",
        "state": "MG",
        "district": "Santana",
        "street": "Rua Etelvina Eliza Rezende",
        "zipcode": "38600-005"
    },
    {
        "city": "Paracatu",
        "state": "MG",
        "district": "Jardim Primavera II",
        "street": "Rua Gabiroba",
        "zipcode": "38606-294"
    },
    {
        "city": "Paracatu",
        "state": "MG",
        "district": "Juscelino Kubitschek",
        "street": "Rua Garcia",
        "zipcode": "38607-136"
    },
    {
        "city": "Paracatu",
        "state": "MG",
        "district": "Jardim América",
        "street": "Rua Framboesa",
        "zipcode": "38605-000"
    },
    {
        "city": "Paracatu",
        "state": "MG",
        "district": "Centro",
        "street": "Rua Gelcira Ribeiro de Pinho",
        "zipcode": "38600-208"
    },
    {
        "city": "Paracatu",
        "state": "MG",
        "district": "Bela Vista I",
        "street": "Rua General Romero Lepesquer",
        "zipcode": "38600-530"
    },
    {
        "city": "Paracatu",
        "state": "MG",
        "district": "Sarah Kubitschek",
        "street": "Rua E",
        "zipcode": "38607-224"
    },
    {
        "city": "Paracatu",
        "state": "MG",
        "district": "Morada do Sol",
        "street": "Rua Edvan Coimbra dos Santos",
        "zipcode": "38607-250"
    },
    {
        "city": "Paracatu",
        "state": "MG",
        "district": "Juscelino Kubitschek",
        "street": "Rua Fico",
        "zipcode": "38607-134"
    },
    {
        "city": "Paracatu",
        "state": "MG",
        "district": "Alto do Córrego",
        "street": "Rua Eugênia Martins de Souza",
        "zipcode": "38606-030"
    },
    {
        "city": "Paracatu",
        "state": "MG",
        "district": "Bandeirantes",
        "street": "Rua Elói Ferreira da Silva",
        "zipcode": "38603-184"
    },
    {
        "city": "Paracatu",
        "state": "MG",
        "district": "Alto do Córrego",
        "street": "Rua Francisco Adjuto Pinheiro",
        "zipcode": "38606-032"
    },
    {
        "city": "Paracatu",
        "state": "MG",
        "district": "Parque do Príncipe",
        "street": "Rua Equador",
        "zipcode": "38602-208"
    },
    {
        "city": "Paracatu",
        "state": "MG",
        "district": "Cidade Nova",
        "street": "Rua Edvar Gonçalves Carneiro",
        "zipcode": "38602-120"
    },
    {
        "city": "Paracatu",
        "state": "MG",
        "district": "Santa Lúcia",
        "street": "Rua Gastão Pereira Gonçalves",
        "zipcode": "38600-362"
    },
    {
        "city": "Paracatu",
        "state": "MG",
        "district": "Jardim Primavera III",
        "street": "Rua Governador Valadares",
        "zipcode": "38606-384"
    },
    {
        "city": "Paracatu",
        "state": "MG",
        "district": "Vila Cruvinel",
        "street": "Rua Gastão Albernaz Santana",
        "zipcode": "38600-336"
    },
    {
        "city": "Paracatu",
        "state": "MG",
        "district": "Santa Lúcia",
        "street": "Rua Honório Souza Mundim",
        "zipcode": "38600-354"
    },
    {
        "city": "Paracatu",
        "state": "MG",
        "district": "Alto do Córrego",
        "street": "Rua Idalina Lima Botelho",
        "zipcode": "38606-048"
    },
    {
        "city": "Paracatu",
        "state": "MG",
        "district": "Bela Vista I",
        "street": "Rua João Boyle",
        "zipcode": "38600-502"
    },
    {
        "city": "Paracatu",
        "state": "MG",
        "district": "Paracatuzinho",
        "street": "Rua Ismael Faustino Pereira",
        "zipcode": "38603-276"
    },
    {
        "city": "Paracatu",
        "state": "MG",
        "district": "Vila Ecológica",
        "street": "Rua Imbaúba",
        "zipcode": "38607-266"
    },
    {
        "city": "Paracatu",
        "state": "MG",
        "district": "Vila São Calixto",
        "street": "Rua Jesus Alves da Silva",
        "zipcode": "38603-006"
    },
    {
        "city": "Paracatu",
        "state": "MG",
        "district": "Esplanada",
        "street": "Rua Irineu Torres Brochado",
        "zipcode": "38608-200"
    },
    {
        "city": "Paracatu",
        "state": "MG",
        "district": "Paracatuzinho",
        "street": "Rua Geraldo Cardoso Pereira",
        "zipcode": "38603-270"
    },
    {
        "city": "Paracatu",
        "state": "MG",
        "district": "Juscelino Kubitschek",
        "street": "Rua Gustavo Meireles",
        "zipcode": "38607-094"
    },
    {
        "city": "Paracatu",
        "state": "MG",
        "district": "Bela Vista I",
        "street": "Rua Geraldo Álvares da Silva Campos",
        "zipcode": "38600-450"
    },
    {
        "city": "Paracatu",
        "state": "MG",
        "district": "Paracatuzinho",
        "street": "Rua Irandir Miranda",
        "zipcode": "38603-274"
    },
    {
        "city": "Paracatu",
        "state": "MG",
        "district": "Alto do Córrego",
        "street": "Rua Gastão Lepesquer",
        "zipcode": "38606-036"
    },
    {
        "city": "Paracatu",
        "state": "MG",
        "district": "São João Evangelista",
        "street": "Rua João Paulo II",
        "zipcode": "38603-134"
    },
    {
        "city": "Paracatu",
        "state": "MG",
        "district": "Santa Lúcia",
        "street": "Rua João Gonçalves Carvalho",
        "zipcode": "38600-368"
    },
    {
        "city": "Paracatu",
        "state": "MG",
        "district": "Amoreiras I",
        "street": "Rua Guarani",
        "zipcode": "38600-426"
    },
    {
        "city": "Paracatu",
        "state": "MG",
        "district": "Nossa Senhora de Fátima",
        "street": "Rua Gustavo Meireles",
        "zipcode": "38607-012"
    },
    {
        "city": "Paracatu",
        "state": "MG",
        "district": "Centro",
        "street": "Rua Goiás",
        "zipcode": "38600-216"
    },
    {
        "city": "Paracatu",
        "state": "MG",
        "district": "Santana",
        "street": "Rua Honório Silva",
        "zipcode": "38600-029"
    },
    {
        "city": "Paracatu",
        "state": "MG",
        "district": "Lene Ville",
        "street": "Rua I",
        "zipcode": "38607-214"
    },
    {
        "city": "Paracatu",
        "state": "MG",
        "district": "Jardim Serrano",
        "street": "Rua Hibisco",
        "zipcode": "38606-226"
    },
    {
        "city": "Paracatu",
        "state": "MG",
        "district": "Jardim Serrano",
        "street": "Rua Ipê",
        "zipcode": "38606-230"
    },
    {
        "city": "Paracatu",
        "state": "MG",
        "district": "Vista Alegre",
        "street": "Rua Geraldo Oliveira Melo",
        "zipcode": "38607-376"
    },
    {
        "city": "Paracatu",
        "state": "MG",
        "district": "Centro",
        "street": "Rua João Batista Campos",
        "zipcode": "38600-222"
    },
    {
        "city": "Paracatu",
        "state": "MG",
        "district": "Vila São Calixto",
        "street": "Rua Irmã Madalena",
        "zipcode": "38603-008"
    },
    {
        "city": "Paracatu",
        "state": "MG",
        "district": "Vila Mariana",
        "street": "Rua Geraldo Pimentel Barbosa",
        "zipcode": "38606-134"
    },
    {
        "city": "Paracatu",
        "state": "MG",
        "district": "Vila Mariana",
        "street": "Rua Governador Magalhães Pinto",
        "zipcode": "38606-148"
    },
    {
        "city": "Paracatu",
        "state": "MG",
        "district": "Bela Vista I",
        "street": "Rua João Borges de Oliveira",
        "zipcode": "38600-500"
    },
    {
        "city": "Paracatu",
        "state": "MG",
        "district": "Centro",
        "street": "Rua João de Pinho Costa",
        "zipcode": "38600-224"
    },
    {
        "city": "Paracatu",
        "state": "MG",
        "district": "Novo Horizonte",
        "street": "Rua Isidoro Araújo Ferreira",
        "zipcode": "38607-434"
    },
    {
        "city": "Paracatu",
        "state": "MG",
        "district": "Santa Lúcia",
        "street": "Rua Geraldo Álvares da Silva Campos",
        "zipcode": "38600-350"
    },
    {
        "city": "Paracatu",
        "state": "MG",
        "district": "Sarah Kubitschek",
        "street": "Rua J",
        "zipcode": "38607-236"
    },
    {
        "city": "Paracatu",
        "state": "MG",
        "district": "Alto da Colina",
        "street": "Rua H",
        "zipcode": "38608-346"
    },
    {
        "city": "Paracatu",
        "state": "MG",
        "district": "Amoreiras I",
        "street": "Rua Joaquim Murtinho",
        "zipcode": "38600-402"
    },
    {
        "city": "Paracatu",
        "state": "MG",
        "district": "Nossa Senhora Aparecida",
        "street": "Rua Joaquim Damasceno",
        "zipcode": "38608-134"
    },
    {
        "city": "Paracatu",
        "state": "MG",
        "district": "Santana",
        "street": "Rua Helena Alves Meireles",
        "zipcode": "38600-027"
    },
    {
        "city": "Paracatu",
        "state": "MG",
        "district": "Centro",
        "street": "Rua Joaquim Silva Neiva",
        "zipcode": "38600-234"
    },
    {
        "city": "Paracatu",
        "state": "MG",
        "district": "Nossa Senhora de Fátima",
        "street": "Rua Izidora Teixeira de Melo",
        "zipcode": "38607-048"
    },
    {
        "city": "Paracatu",
        "state": "MG",
        "district": "Bela Vista I",
        "street": "Rua João Macedo",
        "zipcode": "38600-504"
    },
    {
        "city": "Paracatu",
        "state": "MG",
        "district": "Novo Horizonte",
        "street": "Rua Gil da Silva Neiva",
        "zipcode": "38607-432"
    },
    {
        "city": "Paracatu",
        "state": "MG",
        "district": "Prado",
        "street": "Rua Getúlio Vargas",
        "zipcode": "38602-024"
    },
    {
        "city": "Paracatu",
        "state": "MG",
        "district": "Juscelino Kubitschek",
        "street": "Rua Geraldo Alves Correia",
        "zipcode": "38607-138"
    },
    {
        "city": "Paracatu",
        "state": "MG",
        "district": "Vila Cruvinel",
        "street": "Rua José de Barros",
        "zipcode": "38600-340"
    },
    {
        "city": "Paracatu",
        "state": "MG",
        "district": "Paracatuzinho",
        "street": "Rua Joel Batista de Oliveira",
        "zipcode": "38603-288"
    },
    {
        "city": "Paracatu",
        "state": "MG",
        "district": "Jardim Serrano",
        "street": "Rua Hortência",
        "zipcode": "38606-228"
    },
    {
        "city": "Paracatu",
        "state": "MG",
        "district": "Jardim Primavera II",
        "street": "Rua Jacarandá",
        "zipcode": "38606-296"
    },
    {
        "city": "Paracatu",
        "state": "MG",
        "district": "Centro",
        "street": "Rua João Gonçalves dos Santos",
        "zipcode": "38600-226"
    },
    {
        "city": "Paracatu",
        "state": "MG",
        "district": "Centro",
        "street": "Rua João Taveira",
        "zipcode": "38600-228"
    },
    {
        "city": "Paracatu",
        "state": "MG",
        "district": "Centro",
        "street": "Rua Joaquim Murtinho",
        "zipcode": "38600-100"
    },
    {
        "city": "Paracatu",
        "state": "MG",
        "district": "Centro",
        "street": "Rua Joaquim da Silva Pereira",
        "zipcode": "38600-104"
    },
    {
        "city": "Paracatu",
        "state": "MG",
        "district": "Alto do Córrego",
        "street": "Rua Geraldo Rabelo de Souza",
        "zipcode": "38606-040"
    },
    {
        "city": "Paracatu",
        "state": "MG",
        "district": "Nossa Senhora de Fátima",
        "street": "Rua Isabel Soares Mascarenhas",
        "zipcode": "38607-046"
    },
    {
        "city": "Paracatu",
        "state": "MG",
        "district": "Cidade Nova",
        "street": "Rua Hélio Roque Guimarães",
        "zipcode": "38602-126"
    },
    {
        "city": "Paracatu",
        "state": "MG",
        "district": "Centro",
        "street": "Rua Getúlio de Melo Franco",
        "zipcode": "38600-212"
    },
    {
        "city": "Paracatu",
        "state": "MG",
        "district": "São João Evangelista",
        "street": "Rua Jesus de Nazaré",
        "zipcode": "38603-130"
    },
    {
        "city": "Paracatu",
        "state": "MG",
        "district": "Novo Horizonte",
        "street": "Rua Geraldo Oliveira Melo",
        "zipcode": "38607-430"
    },
    {
        "city": "Paracatu",
        "state": "MG",
        "district": "Centro",
        "street": "Rua Joaquim Adjuto Botelho",
        "zipcode": "38600-230"
    },
    {
        "city": "Paracatu",
        "state": "MG",
        "district": "Paracatuzinho",
        "street": "Rua João Ulhoa",
        "zipcode": "38603-282"
    },
    {
        "city": "Paracatu",
        "state": "MG",
        "district": "Centro",
        "street": "Rua José de Souza Mundim",
        "zipcode": "38600-240"
    },
    {
        "city": "Paracatu",
        "state": "MG",
        "district": "Morada do Sol",
        "street": "Rua José Joaquim de Oliveira",
        "zipcode": "38607-254"
    },
    {
        "city": "Paracatu",
        "state": "MG",
        "district": "Juscelino Kubitschek",
        "street": "Rua José Edgar Novais Pinto",
        "zipcode": "38607-148"
    },
    {
        "city": "Paracatu",
        "state": "MG",
        "district": "Vila Mariana",
        "street": "Rua José Augusto Neto Siqueira",
        "zipcode": "38606-144"
    },
    {
        "city": "Paracatu",
        "state": "MG",
        "district": "Cidade Nova",
        "street": "Rua Luiza Silva Neiva",
        "zipcode": "38602-134"
    },
    {
        "city": "Paracatu",
        "state": "MG",
        "district": "Vila Cristiano",
        "street": "Rua Litorânea",
        "zipcode": "38606-392"
    },
    {
        "city": "Paracatu",
        "state": "MG",
        "district": "Bandeirantes",
        "street": "Rua Josué Félix Caixeta",
        "zipcode": "38603-154"
    },
    {
        "city": "Paracatu",
        "state": "MG",
        "district": "Vila Mariana",
        "street": "Rua Joaquim Costa Carijó",
        "zipcode": "38606-142"
    },
    {
        "city": "Paracatu",
        "state": "MG",
        "district": "Centro",
        "street": "Rua Juca Baiano",
        "zipcode": "38600-252"
    },
    {
        "city": "Paracatu",
        "state": "MG",
        "district": "Alto do Açude",
        "street": "Rua José Bonifácio",
        "zipcode": "38608-042"
    },
    {
        "city": "Paracatu",
        "state": "MG",
        "district": "Bela Vista I",
        "street": "Rua Machado de Assis",
        "zipcode": "38600-452"
    },
    {
        "city": "Paracatu",
        "state": "MG",
        "district": "Cidade Nova",
        "street": "Rua José de Oliveira Campos",
        "zipcode": "38602-130"
    },
    {
        "city": "Paracatu",
        "state": "MG",
        "district": "Centro",
        "street": "Rua Júlio Carneiro de Mendonça",
        "zipcode": "38600-254"
    },
    {
        "city": "Paracatu",
        "state": "MG",
        "district": "Prado",
        "street": "Rua José Belarmino",
        "zipcode": "38602-028"
    },
    {
        "city": "Paracatu",
        "state": "MG",
        "district": "Alto do Açude",
        "street": "Rua José Dias",
        "zipcode": "38608-008"
    },
    {
        "city": "Paracatu",
        "state": "MG",
        "district": "Santana",
        "street": "Rua Joaquim da Silva Pereira",
        "zipcode": "38600-009"
    },
    {
        "city": "Paracatu",
        "state": "MG",
        "district": "Nossa Senhora de Fátima",
        "street": "Rua Luiz Gonçalves dos Santos",
        "zipcode": "38607-058"
    },
    {
        "city": "Paracatu",
        "state": "MG",
        "district": "Paracatuzinho",
        "street": "Rua Levino Soares",
        "zipcode": "38603-310"
    },
    {
        "city": "Paracatu",
        "state": "MG",
        "district": "Centro",
        "street": "Rua Leopoldo Faria",
        "zipcode": "38600-108"
    },
    {
        "city": "Paracatu",
        "state": "MG",
        "district": "Centro",
        "street": "Rua Josino Rodrigues",
        "zipcode": "38600-248"
    },
    {
        "city": "Paracatu",
        "state": "MG",
        "district": "Nossa Senhora de Fátima",
        "street": "Rua Juquita Jordão",
        "zipcode": "38607-054"
    },
    {
        "city": "Paracatu",
        "state": "MG",
        "district": "Vila Alvorada",
        "street": "Rua Litorânea",
        "zipcode": "38606-442"
    },
    {
        "city": "Paracatu",
        "state": "MG",
        "district": "Jardim Primavera",
        "street": "Rua Leão Francisco Pires",
        "zipcode": "38606-080"
    },
    {
        "city": "Paracatu",
        "state": "MG",
        "district": "Santana",
        "street": "Rua José Caldeira Tobias",
        "zipcode": "38600-031"
    },
    {
        "city": "Paracatu",
        "state": "MG",
        "district": "Paracatuzinho",
        "street": "Rua Luiz Gouveia Damasceno",
        "zipcode": "38603-312"
    },
    {
        "city": "Paracatu",
        "state": "MG",
        "district": "Bela Vista I",
        "street": "Rua José Gonzaga",
        "zipcode": "38600-506"
    },
    {
        "city": "Paracatu",
        "state": "MG",
        "district": "Bela Vista I",
        "street": "Rua José Osório de Almeida",
        "zipcode": "38600-508"
    },
    {
        "city": "Paracatu",
        "state": "MG",
        "district": "Alto do Açude",
        "street": "Rua Lucindo José de Souza",
        "zipcode": "38608-046"
    },
    {
        "city": "Paracatu",
        "state": "MG",
        "district": "Paracatuzinho",
        "street": "Rua José Teixeira Oliveira",
        "zipcode": "38603-300"
    },
    {
        "city": "Paracatu",
        "state": "MG",
        "district": "Centro",
        "street": "Rua Josino Valadares",
        "zipcode": "38600-250"
    },
    {
        "city": "Paracatu",
        "state": "MG",
        "district": "Paracatuzinho",
        "street": "Rua Josefa Caldeira",
        "zipcode": "38603-302"
    },
    {
        "city": "Paracatu",
        "state": "MG",
        "district": "Nossa Senhora de Fátima",
        "street": "Rua Linha da Transmissão",
        "zipcode": "38607-056"
    },
    {
        "city": "Paracatu",
        "state": "MG",
        "district": "Vila Mariana",
        "street": "Rua Ladeira Dona Mariana",
        "zipcode": "38606-094"
    },
    {
        "city": "Paracatu",
        "state": "MG",
        "district": "Vila Cruvinel",
        "street": "Rua Leopoldo Faria",
        "zipcode": "38600-324"
    },
    {
        "city": "Paracatu",
        "state": "MG",
        "district": "Novo Horizonte",
        "street": "Rua Júlio Joaquim de Oliveira",
        "zipcode": "38607-438"
    },
    {
        "city": "Paracatu",
        "state": "MG",
        "district": "São João Evangelista",
        "street": "Rua Josué Félix Caixeta",
        "zipcode": "38603-106"
    },
    {
        "city": "Paracatu",
        "state": "MG",
        "district": "Paracatuzinho",
        "street": "Rua José Martins de Araújo",
        "zipcode": "38603-294"
    },
    {
        "city": "Paracatu",
        "state": "MG",
        "district": "Centro",
        "street": "Rua Lindolfo Garcia Adjuto",
        "zipcode": "38600-130"
    },
    {
        "city": "Paracatu",
        "state": "MG",
        "district": "Vista Alegre",
        "street": "Rua Maria Pinheiro",
        "zipcode": "38607-326"
    },
    {
        "city": "Paracatu",
        "state": "MG",
        "district": "Paracatuzinho",
        "street": "Rua Júlio Wilson Batista",
        "zipcode": "38603-306"
    },
    {
        "city": "Paracatu",
        "state": "MG",
        "district": "Santa Lúcia",
        "street": "Rua Matias Mundim",
        "zipcode": "38600-364"
    },
    {
        "city": "Paracatu",
        "state": "MG",
        "district": "Cidade Nova",
        "street": "Rua Manoel Gonçalves de Carvalho",
        "zipcode": "38602-136"
    },
    {
        "city": "Paracatu",
        "state": "MG",
        "district": "Bela Vista I",
        "street": "Rua Maximiano Alves Campos",
        "zipcode": "38600-516"
    },
    {
        "city": "Paracatu",
        "state": "MG",
        "district": "Sarah Kubitschek",
        "street": "Rua M",
        "zipcode": "38607-242"
    },
    {
        "city": "Paracatu",
        "state": "MG",
        "district": "Amoreiras II",
        "street": "Rua Mercúrio",
        "zipcode": "38608-268"
    },
    {
        "city": "Paracatu",
        "state": "MG",
        "district": "Parque do Príncipe",
        "street": "Rua Manoel Martins Ferreira",
        "zipcode": "38602-190"
    },
    {
        "city": "Paracatu",
        "state": "MG",
        "district": "Cidade Nova",
        "street": "Rua Maria Monteiro da Silva",
        "zipcode": "38602-140"
    },
    {
        "city": "Paracatu",
        "state": "MG",
        "district": "Centro",
        "street": "Rua José Pereira Guimarães",
        "zipcode": "38600-246"
    },
    {
        "city": "Paracatu",
        "state": "MG",
        "district": "Paracatuzinho",
        "street": "Rua Marciano Ribeiro",
        "zipcode": "38603-322"
    },
    {
        "city": "Paracatu",
        "state": "MG",
        "district": "Novo Horizonte",
        "street": "Rua José Nazar Pimenta",
        "zipcode": "38607-436"
    },
    {
        "city": "Paracatu",
        "state": "MG",
        "district": "Bela Vista I",
        "street": "Rua Maria de Lourdes Barbosa Mundim",
        "zipcode": "38600-514"
    },
    {
        "city": "Paracatu",
        "state": "MG",
        "district": "Paracatuzinho",
        "street": "Rua Luiz Roquete Franco",
        "zipcode": "38603-316"
    },
    {
        "city": "Paracatu",
        "state": "MG",
        "district": "Prado",
        "street": "Rua Juscelino Kubitschek",
        "zipcode": "38602-032"
    },
    {
        "city": "Paracatu",
        "state": "MG",
        "district": "Sarah Kubitschek",
        "street": "Rua K",
        "zipcode": "38607-238"
    },
    {
        "city": "Paracatu",
        "state": "MG",
        "district": "Centro",
        "street": "Rua Lauro Guimarães",
        "zipcode": "38600-258"
    },
    {
        "city": "Paracatu",
        "state": "MG",
        "district": "Vila Mariana",
        "street": "Rua Leão Francisco Pires",
        "zipcode": "38606-098"
    },
    {
        "city": "Paracatu",
        "state": "MG",
        "district": "Santa Lúcia",
        "street": "Rua Leonor Silva Neiva",
        "zipcode": "38600-390"
    },
    {
        "city": "Paracatu",
        "state": "MG",
        "district": "Alto do Córrego",
        "street": "Rua José Matias Ferreira",
        "zipcode": "38606-004"
    },
    {
        "city": "Paracatu",
        "state": "MG",
        "district": "Centro",
        "street": "Rua José Francisco",
        "zipcode": "38600-242"
    },
    {
        "city": "Paracatu",
        "state": "MG",
        "district": "Juscelino Kubitschek",
        "street": "Rua Nélio Camargo",
        "zipcode": "38607-160"
    },
    {
        "city": "Paracatu",
        "state": "MG",
        "district": "São João Evangelista",
        "street": "Rua Padre Josino",
        "zipcode": "38603-104"
    },
    {
        "city": "Paracatu",
        "state": "MG",
        "district": "Vila Mariana",
        "street": "Rua Matilde Oliveira",
        "zipcode": "38606-100"
    },
    {
        "city": "Paracatu",
        "state": "MG",
        "district": "Parque do Príncipe",
        "street": "Rua Paraná",
        "zipcode": "38602-218"
    },
    {
        "city": "Paracatu",
        "state": "MG",
        "district": "Santana",
        "street": "Rua Orcine Pinheiro",
        "zipcode": "38600-039"
    },
    {
        "city": "Paracatu",
        "state": "MG",
        "district": "Parque do Príncipe",
        "street": "Rua Marrocos",
        "zipcode": "38602-210"
    },
    {
        "city": "Paracatu",
        "state": "MG",
        "district": "São João Evangelista",
        "street": "Rua Padre Afonso Pastore",
        "zipcode": "38603-114"
    },
    {
        "city": "Paracatu",
        "state": "MG",
        "district": "Paracatuzinho",
        "street": "Rua Nair Cunha Cardoso",
        "zipcode": "38603-340"
    },
    {
        "city": "Paracatu",
        "state": "MG",
        "district": "Alto do Córrego",
        "street": "Rua Maria do Carmo Cardoso Damasceno",
        "zipcode": "38606-002"
    },
    {
        "city": "Paracatu",
        "state": "MG",
        "district": "Centro",
        "street": "Rua Olegário Simões da Cunha",
        "zipcode": "38600-270"
    },
    {
        "city": "Paracatu",
        "state": "MG",
        "district": "Jardim Primavera III",
        "street": "Rua Ouro Preto",
        "zipcode": "38606-354"
    },
    {
        "city": "Paracatu",
        "state": "MG",
        "district": "Santa Lúcia",
        "street": "Rua Nilo Sadok",
        "zipcode": "38600-394"
    },
    {
        "city": "Paracatu",
        "state": "MG",
        "district": "Primavera",
        "street": "Rua Pau Brasil",
        "zipcode": "38606-278"
    },
    {
        "city": "Paracatu",
        "state": "MG",
        "district": "Paracatuzinho",
        "street": "Rua Margem do Córrego Rico",
        "zipcode": "38603-326"
    },
    {
        "city": "Paracatu",
        "state": "MG",
        "district": "Centro",
        "street": "Rua Manoel Caetano Rocha",
        "zipcode": "38600-262"
    },
    {
        "city": "Paracatu",
        "state": "MG",
        "district": "Esplanada",
        "street": "Rua Mirante",
        "zipcode": "38608-228"
    },
    {
        "city": "Paracatu",
        "state": "MG",
        "district": "Centro",
        "street": "Rua Matias Mundim",
        "zipcode": "38600-102"
    },
    {
        "city": "Paracatu",
        "state": "MG",
        "district": "Alto do Córrego",
        "street": "Rua Miguel Mendes do Nascimento",
        "zipcode": "38606-064"
    },
    {
        "city": "Paracatu",
        "state": "MG",
        "district": "Centro",
        "street": "Rua Manoel Melo Franco",
        "zipcode": "38600-264"
    },
    {
        "city": "Paracatu",
        "state": "MG",
        "district": "Nossa Senhora de Fátima",
        "street": "Rua Padre Nóbrega",
        "zipcode": "38607-002"
    },
    {
        "city": "Paracatu",
        "state": "MG",
        "district": "Amoreiras II",
        "street": "Rua Ouro",
        "zipcode": "38608-270"
    },
    {
        "city": "Paracatu",
        "state": "MG",
        "district": "Amoreiras II",
        "street": "Rua Níquel",
        "zipcode": "38608-248"
    },
    {
        "city": "Paracatu",
        "state": "MG",
        "district": "Alto do Córrego",
        "street": "Rua Maria do Carmo Taveira Jordão",
        "zipcode": "38606-060"
    },
    {
        "city": "Paracatu",
        "state": "MG",
        "district": "Paracatuzinho",
        "street": "Rua Monte Carmelo",
        "zipcode": "38603-338"
    },
    {
        "city": "Paracatu",
        "state": "MG",
        "district": "Vila Cruvinel",
        "street": "Rua Matias Mundim",
        "zipcode": "38600-320"
    },
    {
        "city": "Paracatu",
        "state": "MG",
        "district": "Bela Vista I",
        "street": "Rua Padre Antônio Mendes Santiago",
        "zipcode": "38600-468"
    },
    {
        "city": "Paracatu",
        "state": "MG",
        "district": "Novo Horizonte",
        "street": "Rua Maria Trindade Rodrigues",
        "zipcode": "38607-444"
    },
    {
        "city": "Paracatu",
        "state": "MG",
        "district": "Vila Mariana",
        "street": "Rua Orlando Ulhoa Batista",
        "zipcode": "38606-158"
    },
    {
        "city": "Paracatu",
        "state": "MG",
        "district": "Parque do Príncipe",
        "street": "Rua Paraguai",
        "zipcode": "38602-216"
    },
    {
        "city": "Paracatu",
        "state": "MG",
        "district": "Juscelino Kubitschek",
        "street": "Rua Maria Alves Pacheco",
        "zipcode": "38607-154"
    },
    {
        "city": "Paracatu",
        "state": "MG",
        "district": "Novo Horizonte",
        "street": "Rua Marcos Neves Teixeira",
        "zipcode": "38607-442"
    },
    {
        "city": "Paracatu",
        "state": "MG",
        "district": "Bela Vista I",
        "street": "Rua Patos de Minas",
        "zipcode": "38600-522"
    },
    {
        "city": "Paracatu",
        "state": "MG",
        "district": "Alto do Córrego",
        "street": "Rua Manoel Neiva",
        "zipcode": "38606-058"
    },
    {
        "city": "Paracatu",
        "state": "MG",
        "district": "Prado",
        "street": "Rua Olavo Bilac",
        "zipcode": "38602-034"
    },
    {
        "city": "Paracatu",
        "state": "MG",
        "district": "Novo Horizonte",
        "street": "Rua Olendina Loureiro",
        "zipcode": "38607-418"
    },
    {
        "city": "Paracatu",
        "state": "MG",
        "district": "Alto da Colina",
        "street": "Rua Maria Elizabeth Guimarães Maia",
        "zipcode": "38608-348"
    },
    {
        "city": "Paracatu",
        "state": "MG",
        "district": "Vila Mariana",
        "street": "Rua Maria do Carmo Cardoso Damasceno",
        "zipcode": "38606-090"
    },
    {
        "city": "Paracatu",
        "state": "MG",
        "district": "Parque do Príncipe",
        "street": "Rua Minas Gerais",
        "zipcode": "38602-212"
    },
    {
        "city": "Paracatu",
        "state": "MG",
        "district": "Jardim Serrano",
        "street": "Rua Paineiras",
        "zipcode": "38606-238"
    },
    {
        "city": "Paracatu",
        "state": "MG",
        "district": "Centro",
        "street": "Rua Mariana Lisboa",
        "zipcode": "38600-268"
    },
    {
        "city": "Paracatu",
        "state": "MG",
        "district": "Esplanada",
        "street": "Rua Níquel",
        "zipcode": "38608-210"
    },
    {
        "city": "Paracatu",
        "state": "MG",
        "district": "Amoreiras I",
        "street": "Rua Paulo Martins",
        "zipcode": "38600-438"
    },
    {
        "city": "Paracatu",
        "state": "MG",
        "district": "Juscelino Kubitschek",
        "street": "Rua Padre Nóbrega",
        "zipcode": "38607-086"
    },
    {
        "city": "Paracatu",
        "state": "MG",
        "district": "Paracatuzinho",
        "street": "Rua Padre Joca",
        "zipcode": "38603-286"
    },
    {
        "city": "Paracatu",
        "state": "MG",
        "district": "Amoreiras II",
        "street": "Rua Prata",
        "zipcode": "38608-272"
    },
    {
        "city": "Paracatu",
        "state": "MG",
        "district": "Paracatuzinho",
        "street": "Rua Pedro Santana",
        "zipcode": "38603-352"
    },
    {
        "city": "Paracatu",
        "state": "MG",
        "district": "Amoreiras I",
        "street": "Rua Otaciano de Melo",
        "zipcode": "38600-436"
    },
    {
        "city": "Paracatu",
        "state": "MG",
        "district": "Bandeirantes",
        "street": "Rua Nove",
        "zipcode": "38603-168"
    },
    {
        "city": "Paracatu",
        "state": "MG",
        "district": "Bandeirantes",
        "street": "Rua Padre Josino",
        "zipcode": "38603-152"
    },
    {
        "city": "Paracatu",
        "state": "MG",
        "district": "Nossa Senhora de Fátima",
        "street": "Rua Professor José Botelho Filho",
        "zipcode": "38607-052"
    },
    {
        "city": "Paracatu",
        "state": "MG",
        "district": "Alto do Açude",
        "street": "Rua Presidente Olegário Maciel",
        "zipcode": "38608-048"
    },
    {
        "city": "Paracatu",
        "state": "MG",
        "district": "Prado",
        "street": "Rua Pedro Álvares Cabral",
        "zipcode": "38602-036"
    },
    {
        "city": "Paracatu",
        "state": "MG",
        "district": "Jardim Serrano",
        "street": "Rua Palma",
        "zipcode": "38606-240"
    },
    {
        "city": "Paracatu",
        "state": "MG",
        "district": "Vila Mariana",
        "street": "Rua Pedro B Martins",
        "zipcode": "38606-160"
    },
    {
        "city": "Paracatu",
        "state": "MG",
        "district": "Centro",
        "street": "Rua Olhos DÁgua",
        "zipcode": "38600-272"
    },
    {
        "city": "Paracatu",
        "state": "MG",
        "district": "Vila Ecológica",
        "street": "Rua Pequizeiro",
        "zipcode": "38607-270"
    },
    {
        "city": "Paracatu",
        "state": "MG",
        "district": "Jardim Primavera II",
        "street": "Rua Murici",
        "zipcode": "38606-300"
    },
    {
        "city": "Paracatu",
        "state": "MG",
        "district": "Centro",
        "street": "Rua Ministro Jorge Vargas",
        "zipcode": "38600-238"
    },
    {
        "city": "Paracatu",
        "state": "MG",
        "district": "Jardim Serrano",
        "street": "Rua Petúnia",
        "zipcode": "38606-242"
    },
    {
        "city": "Paracatu",
        "state": "MG",
        "district": "Bela Vista I",
        "street": "Rua Pedro Calçado",
        "zipcode": "38600-526"
    },
    {
        "city": "Paracatu",
        "state": "MG",
        "district": "São João Evangelista",
        "street": "Rua Padre Bené",
        "zipcode": "38603-116"
    },
    {
        "city": "Paracatu",
        "state": "MG",
        "district": "Jardim Primavera III",
        "street": "Rua Projetada Três",
        "zipcode": "38606-368"
    },
    {
        "city": "Paracatu",
        "state": "MG",
        "district": "Paracatuzinho",
        "street": "Rua Rogério Pereira Gonçalves",
        "zipcode": "38603-208"
    },
    {
        "city": "Paracatu",
        "state": "MG",
        "district": "Vila Mariana",
        "street": "Rua Presbiteriana",
        "zipcode": "38606-096"
    },
    {
        "city": "Paracatu",
        "state": "MG",
        "district": "Centro",
        "street": "Rua Pedro H da Silveira",
        "zipcode": "38600-278"
    },
    {
        "city": "Paracatu",
        "state": "MG",
        "district": "Alto do Córrego",
        "street": "Rua Romualdo Gonçalves Ulhoa",
        "zipcode": "38606-008"
    },
    {
        "city": "Paracatu",
        "state": "MG",
        "district": "Jardim Primavera III",
        "street": "Rua Projetada Dois",
        "zipcode": "38606-366"
    },
    {
        "city": "Paracatu",
        "state": "MG",
        "district": "Chapadinha",
        "street": "Rua Rogério Pereira Gonçalves",
        "zipcode": "38605-040"
    },
    {
        "city": "Paracatu",
        "state": "MG",
        "district": "Bandeirantes",
        "street": "Rua Quatorze",
        "zipcode": "38603-174"
    },
    {
        "city": "Paracatu",
        "state": "MG",
        "district": "Nossa Senhora de Fátima",
        "street": "Rua Presidente Costa e Silva",
        "zipcode": "38607-038"
    },
    {
        "city": "Paracatu",
        "state": "MG",
        "district": "Jardim América",
        "street": "Rua Projetada 1",
        "zipcode": "38605-008"
    },
    {
        "city": "Paracatu",
        "state": "MG",
        "district": "Jardim Primavera III",
        "street": "Rua Projetada Seis",
        "zipcode": "38606-374"
    },
    {
        "city": "Paracatu",
        "state": "MG",
        "district": "Jardim América",
        "street": "Rua Projetada Cinco",
        "zipcode": "38605-018"
    },
    {
        "city": "Paracatu",
        "state": "MG",
        "district": "Paracatuzinho",
        "street": "Rua Pedro Silva Neiva",
        "zipcode": "38603-358"
    },
    {
        "city": "Paracatu",
        "state": "MG",
        "district": "Vila Mariana",
        "street": "Rua Pedro Batista André",
        "zipcode": "38606-162"
    },
    {
        "city": "Paracatu",
        "state": "MG",
        "district": "Centro",
        "street": "Rua Rio Grande do Sul",
        "zipcode": "38600-114"
    },
    {
        "city": "Paracatu",
        "state": "MG",
        "district": "Centro",
        "street": "Rua Roberto Wachsmuth",
        "zipcode": "38600-288"
    },
    {
        "city": "Paracatu",
        "state": "MG",
        "district": "Jardim Primavera III",
        "street": "Rua Projetada Nove",
        "zipcode": "38606-380"
    },
    {
        "city": "Paracatu",
        "state": "MG",
        "district": "Paracatuzinho",
        "street": "Rua Pio Fernandes",
        "zipcode": "38603-364"
    },
    {
        "city": "Paracatu",
        "state": "MG",
        "district": "Arraial Dangola",
        "street": "Rua Professor José Joaquim da Costa",
        "zipcode": "38600-070"
    },
    {
        "city": "Paracatu",
        "state": "MG",
        "district": "Jardim Primavera II",
        "street": "Rua Peroba",
        "zipcode": "38606-302"
    },
    {
        "city": "Paracatu",
        "state": "MG",
        "district": "Cidade Nova",
        "street": "Rua Paulo de Araújo Caldas",
        "zipcode": "38602-142"
    },
    {
        "city": "Paracatu",
        "state": "MG",
        "district": "Jardim América",
        "street": "Rua Projetada Nove",
        "zipcode": "38605-024"
    },
    {
        "city": "Paracatu",
        "state": "MG",
        "district": "Vista Alegre",
        "street": "Rua Quatro",
        "zipcode": "38607-374"
    },
    {
        "city": "Paracatu",
        "state": "MG",
        "district": "Jardim América",
        "street": "Rua Projetada Oito",
        "zipcode": "38605-022"
    },
    {
        "city": "Paracatu",
        "state": "MG",
        "district": "Alto do Açude",
        "street": "Rua Penedo",
        "zipcode": "38608-050"
    },
    {
        "city": "Paracatu",
        "state": "MG",
        "district": "Centro",
        "street": "Rua Quincas Mundim",
        "zipcode": "38600-282"
    },
    {
        "city": "Paracatu",
        "state": "MG",
        "district": "Jardim América",
        "street": "Rua Projetada Dois",
        "zipcode": "38605-012"
    },
    {
        "city": "Paracatu",
        "state": "MG",
        "district": "Jardim Primavera III",
        "street": "Rua Projetada Quatro",
        "zipcode": "38606-370"
    },
    {
        "city": "Paracatu",
        "state": "MG",
        "district": "Paracatuzinho",
        "street": "Rua Praiana",
        "zipcode": "38603-366"
    },
    {
        "city": "Paracatu",
        "state": "MG",
        "district": "Bandeirantes",
        "street": "Rua Quinze",
        "zipcode": "38603-176"
    },
    {
        "city": "Paracatu",
        "state": "MG",
        "district": "Parque do Príncipe",
        "street": "Rua Piauí",
        "zipcode": "38602-222"
    },
    {
        "city": "Paracatu",
        "state": "MG",
        "district": "Esplanada",
        "street": "Rua Profeta Isaias",
        "zipcode": "38608-218"
    },
    {
        "city": "Paracatu",
        "state": "MG",
        "district": "Jardim América",
        "street": "Rua Projetada Três",
        "zipcode": "38605-014"
    },
    {
        "city": "Paracatu",
        "state": "MG",
        "district": "Jardim Primavera III",
        "street": "Rua Projetada Cinco",
        "zipcode": "38606-372"
    },
    {
        "city": "Paracatu",
        "state": "MG",
        "district": "Bela Vista I",
        "street": "Rua Thelma Maria Ulhoa Santiago",
        "zipcode": "38600-538"
    },
    {
        "city": "Paracatu",
        "state": "MG",
        "district": "Jardim Serrano",
        "street": "Rua Sucupira",
        "zipcode": "38606-246"
    },
    {
        "city": "Paracatu",
        "state": "MG",
        "district": "Jardim América",
        "street": "Rua Projetada Seis",
        "zipcode": "38605-020"
    },
    {
        "city": "Paracatu",
        "state": "MG",
        "district": "Alto do Córrego",
        "street": "Rua Raul Botelho",
        "zipcode": "38606-068"
    },
    {
        "city": "Paracatu",
        "state": "MG",
        "district": "Amoreiras II",
        "street": "Rua Tório",
        "zipcode": "38608-274"
    },
    {
        "city": "Paracatu",
        "state": "MG",
        "district": "Jardim Primavera III",
        "street": "Rua Projetada Oito",
        "zipcode": "38606-378"
    },
    {
        "city": "Paracatu",
        "state": "MG",
        "district": "Juscelino Kubitschek",
        "street": "Rua Reinaldo Areda Vasconcelos",
        "zipcode": "38607-170"
    },
    {
        "city": "Paracatu",
        "state": "MG",
        "district": "Paracatuzinho",
        "street": "Rua Renê Lepesquer",
        "zipcode": "38603-372"
    },
    {
        "city": "Paracatu",
        "state": "MG",
        "district": "Chapadinha",
        "street": "Rua Vereador Hélio Silveira",
        "zipcode": "38605-048"
    },
    {
        "city": "Paracatu",
        "state": "MG",
        "district": "Santana",
        "street": "Rua Rio Grande do Sul",
        "zipcode": "38600-003"
    },
    {
        "city": "Paracatu",
        "state": "MG",
        "district": "Amoreiras I",
        "street": "Rua Tupis",
        "zipcode": "38600-440"
    },
    {
        "city": "Paracatu",
        "state": "MG",
        "district": "Jardim Primavera III",
        "street": "Rua Projetada 10",
        "zipcode": "38606-360"
    },
    {
        "city": "Paracatu",
        "state": "MG",
        "district": "Bela Vista II",
        "street": "Rua Quatro",
        "zipcode": "38608-296"
    },
    {
        "city": "Paracatu",
        "state": "MG",
        "district": "São João Evangelista",
        "street": "Rua Sete",
        "zipcode": "38603-112"
    },
    {
        "city": "Paracatu",
        "state": "MG",
        "district": "Bela Vista I",
        "street": "Rua Tenente Olímpio Gonzaga",
        "zipcode": "38600-520"
    },
    {
        "city": "Paracatu",
        "state": "MG",
        "district": "Centro",
        "street": "Rua Professora Belmira Chaves",
        "zipcode": "38600-168"
    },
    {
        "city": "Paracatu",
        "state": "MG",
        "district": "Prado",
        "street": "Rua Romualda Lemos do Prado",
        "zipcode": "38602-042"
    },
    {
        "city": "Paracatu",
        "state": "MG",
        "district": "Jardim Primavera III",
        "street": "Rua Projetada Sete",
        "zipcode": "38606-376"
    },
    {
        "city": "Paracatu",
        "state": "MG",
        "district": "Cidade Nova",
        "street": "Rua Rosalina Fernandes Pinto",
        "zipcode": "38602-146"
    },
    {
        "city": "Paracatu",
        "state": "MG",
        "district": "Amoreiras II",
        "street": "Rua Vênus",
        "zipcode": "38608-278"
    },
    {
        "city": "Paracatu",
        "state": "MG",
        "district": "Vista Alegre",
        "street": "Rua São Silvestre",
        "zipcode": "38607-300"
    },
    {
        "city": "Paracatu",
        "state": "MG",
        "district": "São João Evangelista",
        "street": "Rua Vereador Maximiliano Gonçalves",
        "zipcode": "38603-108"
    },
    {
        "city": "Paracatu",
        "state": "MG",
        "district": "Jardim Primavera III",
        "street": "Rua Projetada 11",
        "zipcode": "38606-362"
    },
    {
        "city": "Paracatu",
        "state": "MG",
        "district": "Jardim América",
        "street": "Rua Projetada 10",
        "zipcode": "38605-010"
    },
    {
        "city": "Paracatu",
        "state": "MG",
        "district": "Vista Alegre",
        "street": "Rua São Zacarias",
        "zipcode": "38607-328"
    },
    {
        "city": "Paracatu",
        "state": "MG",
        "district": "Bela Vista II",
        "street": "Rua Sete",
        "zipcode": "38608-304"
    },
    {
        "city": "Paracatu",
        "state": "MG",
        "district": "Paracatuzinho",
        "street": "Rua Sara Costa Roriz",
        "zipcode": "38603-386"
    },
    {
        "city": "Paracatu",
        "state": "MG",
        "district": "Bela Vista II",
        "street": "Rua Seis",
        "zipcode": "38608-302"
    },
    {
        "city": "Paracatu",
        "state": "MG",
        "district": "Santana",
        "street": "Rua Sinfrônio Rosa",
        "zipcode": "38600-043"
    },
    {
        "city": "Paracatu",
        "state": "MG",
        "district": "Paracatuzinho",
        "street": "Rua São João",
        "zipcode": "38603-280"
    },
    {
        "city": "Paracatu",
        "state": "MG",
        "district": "Vila Mariana",
        "street": "Rua Vereador Gidalte Maria Santos",
        "zipcode": "38606-136"
    },
    {
        "city": "Paracatu",
        "state": "MG",
        "district": "Vila Cruvinel",
        "street": "Rua Sileide",
        "zipcode": "38600-344"
    },
    {
        "city": "Paracatu",
        "state": "MG",
        "district": "Vila Mariana",
        "street": "Rua Sebastião Paes de Almeida",
        "zipcode": "38606-170"
    },
    {
        "city": "Paracatu",
        "state": "MG",
        "district": "Esplanada",
        "street": "Rua São Dídimo",
        "zipcode": "38608-216"
    },
    {
        "city": "Paracatu",
        "state": "MG",
        "district": "Bandeirantes",
        "street": "Rua Sete",
        "zipcode": "38603-166"
    },
    {
        "city": "Paracatu",
        "state": "MG",
        "district": "Paracatuzinho",
        "street": "Rua Verbena Batista Faria",
        "zipcode": "38603-398"
    },
    {
        "city": "Paracatu",
        "state": "MG",
        "district": "Centro",
        "street": "Rua Rubens Bittencourt",
        "zipcode": "38600-128"
    },
    {
        "city": "Paracatu",
        "state": "MG",
        "district": "Amoreiras II",
        "street": "Rua Ulisses",
        "zipcode": "38608-276"
    },
    {
        "city": "Paracatu",
        "state": "MG",
        "district": "Alto do Açude",
        "street": "Rua São Domingos",
        "zipcode": "38608-032"
    },
    {
        "city": "Paracatu",
        "state": "MG",
        "district": "Bela Vista I",
        "street": "Rua Salgado Filho",
        "zipcode": "38600-536"
    },
    {
        "city": "Paracatu",
        "state": "MG",
        "district": "Paracatuzinho",
        "street": "Rua Santa Maria",
        "zipcode": "38603-328"
    },
    {
        "city": "Paracatu",
        "state": "MG",
        "district": "Centro",
        "street": "Rua São Gonçalo",
        "zipcode": "38600-218"
    },
    {
        "city": "Paracatu",
        "state": "MG",
        "district": "Juscelino Kubitschek",
        "street": "Rua Sebastião Severino de Sousa",
        "zipcode": "38607-180"
    },
    {
        "city": "Paracatu",
        "state": "MG",
        "district": "Esplanada",
        "street": "Rua Urânio",
        "zipcode": "38608-204"
    },
    {
        "city": "Paracatu",
        "state": "MG",
        "district": "Prado",
        "street": "Rua Teotônio Vilela",
        "zipcode": "38602-046"
    },
    {
        "city": "Paracatu",
        "state": "MG",
        "district": "Paracatuzinho",
        "street": "Rua Sinhá Ulhoa",
        "zipcode": "38603-396"
    },
    {
        "city": "Paracatu",
        "state": "MG",
        "district": "São João Evangelista",
        "street": "Rua São Vicente de Paula",
        "zipcode": "38603-140"
    },
    {
        "city": "Paracatu",
        "state": "MG",
        "district": "Centro",
        "street": "Rua Santiago Dantas",
        "zipcode": "38600-298"
    },
    {
        "city": "Paracatu",
        "state": "MG",
        "district": "Alto do Açude",
        "street": "Rua Severiano Silva Neiva",
        "zipcode": "38608-000"
    },
    {
        "city": "Paracatu",
        "state": "MG",
        "district": "Paracatuzinho",
        "street": "Rua São José",
        "zipcode": "38603-292"
    },
    {
        "city": "Paracatu",
        "state": "MG",
        "district": "Amoreiras I",
        "street": "Rua Unaí",
        "zipcode": "38600-442"
    },
    {
        "city": "Paracatu",
        "state": "MG",
        "district": "Bela Vista I",
        "street": "Rua Rui Costa Ulhoa",
        "zipcode": "38600-532"
    },
    {
        "city": "Paracatu",
        "state": "MG",
        "district": "Bela Vista II",
        "street": "Rua Três",
        "zipcode": "38608-294"
    },
    {
        "city": "Paracatu",
        "state": "MG",
        "district": "Esplanada",
        "street": "Rua São Judas",
        "zipcode": "38608-222"
    },
    {
        "city": "Paracatu",
        "state": "MG",
        "district": "Vista Alegre",
        "street": "Rua Severiano Silva Neiva",
        "zipcode": "38607-304"
    },
    {
        "city": "Paracatu",
        "state": "MG",
        "district": "Vila Mariana",
        "street": "Rua Vadíco Hormides",
        "zipcode": "38606-172"
    },
    {
        "city": "Paracatu",
        "state": "MG",
        "district": "Centro",
        "street": "Rua Samuel Rocha",
        "zipcode": "38600-296"
    },
    {
        "city": "Paracatu",
        "state": "MG",
        "district": "Jardim Primavera III",
        "street": "Rua Sabará",
        "zipcode": "38606-382"
    },
    {
        "city": "Paracatu",
        "state": "MG",
        "district": "Bandeirantes",
        "street": "Rua Vereador Benedito Gomes Moreira",
        "zipcode": "38603-156"
    },
    {
        "city": "Paracatu",
        "state": "MG",
        "district": "Vila Cristiano",
        "street": "Rua Tomazio da Costa Bezerra",
        "zipcode": "38606-400"
    },
    {
        "city": "Paracatu",
        "state": "MG",
        "district": "Esplanada",
        "street": "Rua São Lucas",
        "zipcode": "38608-224"
    },
    {
        "city": "Paracatu",
        "state": "MG",
        "district": "Bela Vista II",
        "street": "Rua Um",
        "zipcode": "38608-290"
    },
    {
        "city": "Paracatu",
        "state": "MG",
        "district": "Bandeirantes",
        "street": "Rua Três",
        "zipcode": "38603-164"
    },
    {
        "city": "Paracatu",
        "state": "MG",
        "district": "Paracatuzinho",
        "street": "Rua Santa Efigênia",
        "zipcode": "38603-260"
    },
    {
        "city": "Paracatu",
        "state": "MG",
        "district": "Juscelino Kubitschek",
        "street": "Rua Santa Rita",
        "zipcode": "38607-172"
    },
    {
        "city": "Paracatu",
        "state": "MG",
        "district": "Chapadinha",
        "street": "Rua Vereador Gidalte Maria Santos",
        "zipcode": "38605-046"
    },
    {
        "city": "Paracatu",
        "state": "MG",
        "district": "Paracatuzinho",
        "street": "Rua Tupi",
        "zipcode": "38603-392"
    },
    {
        "city": "Paracatu",
        "state": "MG",
        "district": "Jardim Primavera III",
        "street": "Rua São João Del Rei",
        "zipcode": "38606-350"
    },
    {
        "city": "Paracatu",
        "state": "MG",
        "district": "Vila Ecológica",
        "street": "Rua Sambaíba",
        "zipcode": "38607-272"
    },
    {
        "city": "Paracatu",
        "state": "MG",
        "district": "Alto do Açude",
        "street": "Rua São Silvestre",
        "zipcode": "38608-006"
    },
    {
        "city": "Paracatu",
        "state": "MG",
        "district": "Cidade Nova",
        "street": "Rua Valter de Pinho",
        "zipcode": "38602-148"
    },
    {
        "city": "Paracatu",
        "state": "MG",
        "district": "Parque do Príncipe",
        "street": "Rua Uruguai",
        "zipcode": "38602-224"
    },
    {
        "city": "Paracatu",
        "state": "MG",
        "district": "Nossa Senhora de Fátima",
        "street": "Rua Um",
        "zipcode": "38607-020"
    },
    {
        "city": "Paracatu",
        "state": "MG",
        "district": "Bandeirantes",
        "street": "Rua Santo Dias",
        "zipcode": "38603-182"
    },
    {
        "city": "Paracatu",
        "state": "MG",
        "district": "Amoreiras I",
        "street": "Rua Rubens Bittencourt",
        "zipcode": "38600-404"
    },
    {
        "city": "Paracatu",
        "state": "MG",
        "district": "Alto do Córrego",
        "street": "Rua Zumiro Rabelo de Souza",
        "zipcode": "38606-076"
    },
    {
        "city": "Paracatu",
        "state": "MG",
        "district": "Vista Alegre",
        "street": "Travessa da Cachoeira",
        "zipcode": "38607-314"
    },
    {
        "city": "Paracatu",
        "state": "MG",
        "district": "Paracatuzinho",
        "street": "Rua 13 de Maio",
        "zipcode": "38603-210"
    },
    {
        "city": "Paracatu",
        "state": "MG",
        "district": "Esplanada",
        "street": "Travessa Cristal II",
        "zipcode": "38608-214"
    },
    {
        "city": "Paracatu",
        "state": "MG",
        "district": "Vista Alegre",
        "street": "Rua Wolney Meireles",
        "zipcode": "38607-370"
    },
    {
        "city": "Paracatu",
        "state": "MG",
        "district": "Alto do Açude",
        "street": "Travessa do Campo",
        "zipcode": "38608-026"
    },
    {
        "city": "Paracatu",
        "state": "MG",
        "district": "Juscelino Kubitschek",
        "street": "Rua Zelina Martins de Oliveira",
        "zipcode": "38607-186"
    },
    {
        "city": "Paracatu",
        "state": "MG",
        "district": "Vila Cruvinel",
        "street": "Travessa Cruvinel",
        "zipcode": "38600-334"
    },
    {
        "city": "Paracatu",
        "state": "MG",
        "district": "Amoreiras II",
        "street": "Travessa Cristal I",
        "zipcode": "38608-254"
    },
    {
        "city": "Paracatu",
        "state": "MG",
        "district": "Centro",
        "street": "Travessa Dom Elizeu",
        "zipcode": "38600-188"
    },
    {
        "city": "Paracatu",
        "state": "MG",
        "district": "Prado",
        "street": "Rua Vila Santo Antônio",
        "zipcode": "38602-050"
    },
    {
        "city": "Paracatu",
        "state": "MG",
        "district": "Chapadinha",
        "street": "Travessa Celi Oliveira da Silva",
        "zipcode": "38605-034"
    },
    {
        "city": "Paracatu",
        "state": "MG",
        "district": "Nossa Senhora de Fátima",
        "street": "Rua Wolney Meireles",
        "zipcode": "38607-008"
    },
    {
        "city": "Paracatu",
        "state": "MG",
        "district": "Vila Mariana",
        "street": "Rua Waldemar Botelho",
        "zipcode": "38606-092"
    },
    {
        "city": "Paracatu",
        "state": "MG",
        "district": "Arraial Dangola",
        "street": "Travessa Eduardo Pimentel",
        "zipcode": "38600-056"
    },
    {
        "city": "Paracatu",
        "state": "MG",
        "district": "Paracatuzinho",
        "street": "Travessa Landim",
        "zipcode": "38603-308"
    },
    {
        "city": "Paracatu",
        "state": "MG",
        "district": "Alto do Açude",
        "street": "Travessa João Mendes",
        "zipcode": "38608-038"
    },
    {
        "city": "Paracatu",
        "state": "MG",
        "district": "Santana",
        "street": "Travessa Amélia Chaves",
        "zipcode": "38600-017"
    },
    {
        "city": "Paracatu",
        "state": "MG",
        "district": "Alto da Colina",
        "street": "Travessa B",
        "zipcode": "38608-334"
    },
    {
        "city": "Paracatu",
        "state": "MG",
        "district": "Novo Horizonte",
        "street": "Rua Wolney Meireles",
        "zipcode": "38607-414"
    },
    {
        "city": "Paracatu",
        "state": "MG",
        "district": "Santana",
        "street": "Travessa Kleber Macedo",
        "zipcode": "38600-033"
    },
    {
        "city": "Paracatu",
        "state": "MG",
        "district": "Alto do Açude",
        "street": "Rua Vicente Lopes Costa",
        "zipcode": "38608-058"
    },
    {
        "city": "Paracatu",
        "state": "MG",
        "district": "Paracatuzinho",
        "street": "Travessa Antônio Santana",
        "zipcode": "38603-226"
    },
    {
        "city": "Paracatu",
        "state": "MG",
        "district": "Centro",
        "street": "Travessa Euzebio 02",
        "zipcode": "38600-194"
    },
    {
        "city": "Paracatu",
        "state": "MG",
        "district": "Vila Cruvinel",
        "street": "Travessa José de Barros",
        "zipcode": "38600-338"
    },
    {
        "city": "Paracatu",
        "state": "MG",
        "district": "São João Evangelista",
        "street": "Travessa João Paulo II",
        "zipcode": "38603-132"
    },
    {
        "city": "Paracatu",
        "state": "MG",
        "district": "Juscelino Kubitschek",
        "street": "Travessa José Vaqueiro",
        "zipcode": "38607-152"
    },
    {
        "city": "Paracatu",
        "state": "MG",
        "district": "Amoreiras II",
        "street": "Rua Zinco",
        "zipcode": "38608-280"
    },
    {
        "city": "Paracatu",
        "state": "MG",
        "district": "Juscelino Kubitschek",
        "street": "Travessa Calixto Rabelo",
        "zipcode": "38607-118"
    },
    {
        "city": "Paracatu",
        "state": "MG",
        "district": "Centro",
        "street": "Travessa Alberto Rocha",
        "zipcode": "38600-144"
    },
    {
        "city": "Paracatu",
        "state": "MG",
        "district": "Chapadinha II",
        "street": "Travessa Ildete Moreira da Cruz",
        "zipcode": "38605-064"
    },
    {
        "city": "Paracatu",
        "state": "MG",
        "district": "Centro",
        "street": "Travessa Benvindo Manoel Teixeira",
        "zipcode": "38600-172"
    },
    {
        "city": "Paracatu",
        "state": "MG",
        "district": "Centro",
        "street": "Travessa Joaquim Moura Santiago",
        "zipcode": "38600-232"
    },
    {
        "city": "Paracatu",
        "state": "MG",
        "district": "Prado",
        "street": "Rua Zita da Silva Neiva",
        "zipcode": "38602-004"
    },
    {
        "city": "Paracatu",
        "state": "MG",
        "district": "Arraial Dangola",
        "street": "Travessa Dom Serafim",
        "zipcode": "38600-086"
    },
    {
        "city": "Paracatu",
        "state": "MG",
        "district": "Centro",
        "street": "Travessa Edson Jorge dos Santos",
        "zipcode": "38600-186"
    },
    {
        "city": "Paracatu",
        "state": "MG",
        "district": "Paracatuzinho",
        "street": "Travessa João Ulhoa",
        "zipcode": "38603-284"
    },
    {
        "city": "Paracatu",
        "state": "MG",
        "district": "Esplanada",
        "street": "Rua Walter Neiva",
        "zipcode": "38608-230"
    },
    {
        "city": "Paracatu",
        "state": "MG",
        "district": "Prado",
        "street": "Travessa Felisberto Caldeira Brant",
        "zipcode": "38602-022"
    },
    {
        "city": "Paracatu",
        "state": "MG",
        "district": "Alto do Córrego",
        "street": "Travessa Coronel Lindolfo Garcia",
        "zipcode": "38606-054"
    },
    {
        "city": "Paracatu",
        "state": "MG",
        "district": "São João Evangelista",
        "street": "Travessa Dom Hélder Câmara",
        "zipcode": "38603-124"
    },
    {
        "city": "Paracatu",
        "state": "MG",
        "district": "Alto do Açude",
        "street": "Travessa do Açude",
        "zipcode": "38608-012"
    },
    {
        "city": "Paracatu",
        "state": "MG",
        "district": "Prado",
        "street": "Travessa Gil da Silva",
        "zipcode": "38602-026"
    },
    {
        "city": "Paracatu",
        "state": "MG",
        "district": "Prado",
        "street": "Travessa Antenor da Silva Neiva",
        "zipcode": "38602-014"
    },
    {
        "city": "Paracatu",
        "state": "MG",
        "district": "Morada do Sol",
        "street": "Travessa Edvan Coimbra dos Santos",
        "zipcode": "38607-252"
    },
    {
        "city": "Paracatu",
        "state": "MG",
        "district": "Paracatuzinho",
        "street": "Rua Veríssima Vieira dos Santos",
        "zipcode": "38603-400"
    },
    {
        "city": "Paracatu",
        "state": "MG",
        "district": "Chapadinha",
        "street": "Travessa Benjamim Palma",
        "zipcode": "38605-042"
    },
    {
        "city": "Paracatu",
        "state": "MG",
        "district": "",
        "street": "Rua Joaquim Brochado",
        "zipcode": "38600-990"
    },
    {
        "city": "Paracatu",
        "state": "MG",
        "district": "Alto do Açude",
        "street": "Travessa Severiano Silva Neiva",
        "zipcode": "38608-054"
    },
    {
        "city": "Paracatu",
        "state": "MG",
        "district": "Alto do Córrego",
        "street": "Travessa Geraldo Simões da Cunha",
        "zipcode": "38606-044"
    },
    {
        "city": "Paracatu",
        "state": "MG",
        "district": "Vila Mariana",
        "street": "Travessa dos Operários",
        "zipcode": "38606-156"
    },
    {
        "city": "Paracatu",
        "state": "MG",
        "district": "Paracatuzinho",
        "street": "Travessa Professor Oto Costa",
        "zipcode": "38603-348"
    },
    {
        "city": "Paracatu",
        "state": "MG",
        "district": "Arraial Dangola",
        "street": "Travessa Floresta",
        "zipcode": "38600-066"
    },
    {
        "city": "Paracatu",
        "state": "MG",
        "district": "Chapadinha",
        "street": "Travessa Isabel Maria de Jesus",
        "zipcode": "38605-050"
    },
    {
        "city": "Paracatu",
        "state": "MG",
        "district": "Bela Vista I",
        "street": "Avenida Brasília",
        "zipcode": "38600-470"
    },
    {
        "city": "Paracatu",
        "state": "MG",
        "district": "Chapadinha II",
        "street": "Travessa Geraldo Rodrigues de Lima",
        "zipcode": "38605-062"
    },
    {
        "city": "Paracatu",
        "state": "MG",
        "district": "Centro",
        "street": "Travessa Rubens Bittencourt",
        "zipcode": "38600-294"
    },
    {
        "city": "Paracatu",
        "state": "MG",
        "district": "Amoreiras II",
        "street": "Beco dos Evangélicos",
        "zipcode": "38608-262"
    },
    {
        "city": "Paracatu",
        "state": "MG",
        "district": "Amoreiras II",
        "street": "Travessa Esmeralda",
        "zipcode": "38608-258"
    },
    {
        "city": "Paracatu",
        "state": "MG",
        "district": "Juscelino Kubitschek",
        "street": "Beco da Torre Mestre",
        "zipcode": "38607-184"
    },
    {
        "city": "Paracatu",
        "state": "MG",
        "district": "Arraial Dangola",
        "street": "Travessa Gouveia",
        "zipcode": "38600-068"
    },
    {
        "city": "Paracatu",
        "state": "MG",
        "district": "Paracatuzinho",
        "street": "Travessa Santa Maria",
        "zipcode": "38603-330"
    },
    {
        "city": "Paracatu",
        "state": "MG",
        "district": "Chapadinha II",
        "street": "Travessa Severina Teixeira de Oliveira",
        "zipcode": "38605-066"
    },
    {
        "city": "Paracatu",
        "state": "MG",
        "district": "Paracatuzinho",
        "street": "Travessa Ricardo Adjuto",
        "zipcode": "38603-378"
    },
    {
        "city": "Paracatu",
        "state": "MG",
        "district": "Paracatuzinho",
        "street": "Beco B",
        "zipcode": "38603-230"
    },
    {
        "city": "Paracatu",
        "state": "MG",
        "district": "Alto do Córrego",
        "street": "Travessa Rodrigues Bijos",
        "zipcode": "38606-072"
    },
    {
        "city": "Paracatu",
        "state": "MG",
        "district": "Amoreiras I",
        "street": "Travessa Hamilton Caetano",
        "zipcode": "38600-428"
    },
    {
        "city": "Paracatu",
        "state": "MG",
        "district": "Chapadinha",
        "street": "Travessa Ildete Moreira da Cruz",
        "zipcode": "38605-032"
    },
    {
        "city": "Paracatu",
        "state": "MG",
        "district": "Centro",
        "street": "Travessa Rio Grande do Sul",
        "zipcode": "38600-286"
    },
    {
        "city": "Paracatu",
        "state": "MG",
        "district": "Juscelino Kubitschek",
        "street": "Travessa Ouvidor",
        "zipcode": "38607-162"
    },
    {
        "city": "Paracatu",
        "state": "MG",
        "district": "Juscelino Kubitschek",
        "street": "Travessa Santa Rita",
        "zipcode": "38607-174"
    },
    {
        "city": "Paracatu",
        "state": "MG",
        "district": "Chapadinha",
        "street": "Travessa Maria da Conceição Soares Chaves",
        "zipcode": "38605-052"
    },
    {
        "city": "Paracatu",
        "state": "MG",
        "district": "Paracatuzinho",
        "street": "Avenida Aeroporto",
        "zipcode": "38603-198"
    },
    {
        "city": "Paracatu",
        "state": "MG",
        "district": "Alto do Açude",
        "street": "Travessa Severiano Silva Neiva 2",
        "zipcode": "38608-056"
    },
    {
        "city": "Paracatu",
        "state": "MG",
        "district": "Paracatuzinho",
        "street": "Travessa Sinhá Ulhoa",
        "zipcode": "38603-394"
    },
    {
        "city": "Paracatu",
        "state": "MG",
        "district": "Área Rural de Paracatu",
        "street": "Área Rural",
        "zipcode": "38609-899"
    },
    {
        "city": "Paracatu",
        "state": "MG",
        "district": "Juscelino Kubitschek",
        "street": "Rodovia Presidente Juscelino Kubitschek",
        "zipcode": "38607-088"
    },
    {
        "city": "Paracatu",
        "state": "MG",
        "district": "Paracatuzinho",
        "street": "Travessa Manoel do Carmo Conceição",
        "zipcode": "38603-320"
    },
    {
        "city": "Paracatu",
        "state": "MG",
        "district": "Paracatuzinho",
        "street": "Travessa Pedro Vilela",
        "zipcode": "38603-360"
    },
    {
        "city": "Paracatu",
        "state": "MG",
        "district": "Centro",
        "street": "Praça Governador JK",
        "zipcode": "38600-116"
    },
    {
        "city": "Paracatu",
        "state": "MG",
        "district": "Juscelino Kubitschek",
        "street": "Travessa Santa Rita",
        "zipcode": "38607-176"
    },
    {
        "city": "Paracatu",
        "state": "MG",
        "district": "Amoreiras I",
        "street": "Travessa Machado de Assis",
        "zipcode": "38600-432"
    },
    {
        "city": "Paracatu",
        "state": "MG",
        "district": "Jardim Serrano",
        "street": "Rodovia Alírio Herval",
        "zipcode": "38606-182"
    },
    {
        "city": "Paracatu",
        "state": "MG",
        "district": "Paracatuzinho",
        "street": "Travessa Tarcísio Araújo Caldas",
        "zipcode": "38603-388"
    },
    {
        "city": "Paracatu",
        "state": "MG",
        "district": "Juscelino Kubitschek",
        "street": "Travessa São Paulo",
        "zipcode": "38607-164"
    },
    {
        "city": "Paracatu",
        "state": "MG",
        "district": "Cidade Nova",
        "street": "Avenida Francisco Peixoto Braga",
        "zipcode": "38602-124"
    },
    {
        "city": "Paracatu",
        "state": "MG",
        "district": "Novo Horizonte",
        "street": "Travessa Sílvio Oliveira Melo",
        "zipcode": "38607-448"
    },
    {
        "city": "Paracatu",
        "state": "MG",
        "district": "Alto do Açude",
        "street": "Travessa Lucindo José de Souza",
        "zipcode": "38608-044"
    },
    {
        "city": "Paracatu",
        "state": "MG",
        "district": "Paracatuzinho",
        "street": "Travessa Renê Lepesquer",
        "zipcode": "38603-370"
    },
    {
        "city": "Paracatu",
        "state": "MG",
        "district": "Bela Vista I",
        "street": "Travessa Pedro Calçado",
        "zipcode": "38600-528"
    },
    {
        "city": "Paracatu",
        "state": "MG",
        "district": "Nossa Senhora de Fátima",
        "street": "Travessa Presidente Costa e Silva",
        "zipcode": "38607-036"
    },
    {
        "city": "Paracatu",
        "state": "MG",
        "district": "Paracatuzinho",
        "street": "Travessa Pedro Santana B",
        "zipcode": "38603-356"
    },
    {
        "city": "Paracatu",
        "state": "MG",
        "district": "Paracatuzinho",
        "street": "Avenida Tenente Hugo Lima",
        "zipcode": "38603-204"
    },
    {
        "city": "Paracatu",
        "state": "MG",
        "district": "Alto do Açude",
        "street": "Rua Adalberto Pereira da Silva",
        "zipcode": "38608-018"
    },
    {
        "city": "Paracatu",
        "state": "MG",
        "district": "Centro",
        "street": "Travessa Professora Maria Gildate dos Santos",
        "zipcode": "38600-266"
    },
    {
        "city": "Paracatu",
        "state": "MG",
        "district": "Cidade Jardim",
        "street": "Alameda dos Ipês",
        "zipcode": "38603-084"
    },
    {
        "city": "Paracatu",
        "state": "MG",
        "district": "Alto do Córrego",
        "street": "Rodovia Presidente Juscelino Kubitschek",
        "zipcode": "38606-006"
    },
    {
        "city": "Paracatu",
        "state": "MG",
        "district": "Chapadinha",
        "street": "Travessa Mariozan Moreira da Cruz",
        "zipcode": "38605-054"
    },
    {
        "city": "Paracatu",
        "state": "MG",
        "district": "Paracatuzinho",
        "street": "Beco do Promam",
        "zipcode": "38603-368"
    },
    {
        "city": "Paracatu",
        "state": "MG",
        "district": "Arraial Dangola",
        "street": "Travessa Serafins",
        "zipcode": "38600-088"
    },
    {
        "city": "Paracatu",
        "state": "MG",
        "district": "Paracatuzinho",
        "street": "Travessa Pedro Santana A",
        "zipcode": "38603-354"
    },
    {
        "city": "Paracatu",
        "state": "MG",
        "district": "Prado",
        "street": "Rua Abadia Lemos do Prado",
        "zipcode": "38602-006"
    },
    {
        "city": "Paracatu",
        "state": "MG",
        "district": "Centro",
        "street": "Praça Virgilio Bijos",
        "zipcode": "38600-312"
    },
    {
        "city": "Paracatu",
        "state": "MG",
        "district": "Paracatuzinho",
        "street": "Praça Júlia Camargo",
        "zipcode": "38603-304"
    },
    {
        "city": "Paracatu",
        "state": "MG",
        "district": "Centro",
        "street": "Avenida Olegário Maciel",
        "zipcode": "38600-132"
    },
    {
        "city": "Paracatu",
        "state": "MG",
        "district": "Juscelino Kubitschek",
        "street": "Travessa Marquês de Pombal",
        "zipcode": "38607-158"
    },
    {
        "city": "Paracatu",
        "state": "MG",
        "district": "Vila Alvorada",
        "street": "Rua Cristiano Costa Bezerra",
        "zipcode": "38606-452"
    },
    {
        "city": "Paracatu",
        "state": "MG",
        "district": "Nossa Senhora de Fátima",
        "street": "Rua B",
        "zipcode": "38607-030"
    },
    {
        "city": "Paracatu",
        "state": "MG",
        "district": "Parque do Príncipe",
        "street": "Rua Costa Rica",
        "zipcode": "38602-204"
    },
    {
        "city": "Paracatu",
        "state": "MG",
        "district": "Cidade Nova",
        "street": "Rua Antônio André Sobrinho",
        "zipcode": "38602-116"
    },
    {
        "city": "Paracatu",
        "state": "MG",
        "district": "Chapadinha II",
        "street": "Rua B",
        "zipcode": "38605-070"
    },
    {
        "city": "Paracatu",
        "state": "MG",
        "district": "Parque do Príncipe",
        "street": "Rua Canadá",
        "zipcode": "38602-198"
    },
    {
        "city": "Paracatu",
        "state": "MG",
        "district": "Alto do Córrego",
        "street": "Rua Antônio Rocha Borges",
        "zipcode": "38606-022"
    },
    {
        "city": "Paracatu",
        "state": "MG",
        "district": "Novo Horizonte",
        "street": "Rua Domingos Monteiro Lima",
        "zipcode": "38607-428"
    },
    {
        "city": "Paracatu",
        "state": "MG",
        "district": "Paracatuzinho",
        "street": "Praça Bom Jesus",
        "zipcode": "38603-236"
    },
    {
        "city": "Paracatu",
        "state": "MG",
        "district": "Nossa Senhora de Fátima",
        "street": "Rua Balbino Soares Mascarenhas",
        "zipcode": "38607-032"
    },
    {
        "city": "Paracatu",
        "state": "MG",
        "district": "Vila Mariana",
        "street": "Rua Adjuto Botelho",
        "zipcode": "38606-106"
    },
    {
        "city": "Paracatu",
        "state": "MG",
        "district": "Vila Ecológica",
        "street": "Rua Aroeira",
        "zipcode": "38607-262"
    },
    {
        "city": "Paracatu",
        "state": "MG",
        "district": "Alto do Córrego",
        "street": "Rua Amaro Soares França",
        "zipcode": "38606-016"
    },
    {
        "city": "Paracatu",
        "state": "MG",
        "district": "Nossa Senhora de Fátima",
        "street": "Rua Carlos Tunes",
        "zipcode": "38607-000"
    },
    {
        "city": "Paracatu",
        "state": "MG",
        "district": "Vila Mariana",
        "street": "Rua Ana Lúcia das Neves",
        "zipcode": "38606-110"
    },
    {
        "city": "Paracatu",
        "state": "MG",
        "district": "Paracatuzinho",
        "street": "Rua Djalma Lepesquer",
        "zipcode": "38603-258"
    },
    {
        "city": "Paracatu",
        "state": "MG",
        "district": "Parque do Príncipe",
        "street": "Rua Colômbia",
        "zipcode": "38602-202"
    },
    {
        "city": "Paracatu",
        "state": "MG",
        "district": "Paracatuzinho",
        "street": "Rua B",
        "zipcode": "38603-228"
    },
    {
        "city": "Paracatu",
        "state": "MG",
        "district": "Vila Mariana",
        "street": "Praça Sanji Tomoyassu",
        "zipcode": "38606-166"
    },
    {
        "city": "Paracatu",
        "state": "MG",
        "district": "Alto do Córrego",
        "street": "Rua Anibal Botelho",
        "zipcode": "38606-018"
    },
    {
        "city": "Paracatu",
        "state": "MG",
        "district": "Arraial Dangola",
        "street": "Beco Vitória Gonçalves Caldas",
        "zipcode": "38600-092"
    },
    {
        "city": "Paracatu",
        "state": "MG",
        "district": "Paracatuzinho",
        "street": "Beco Ricardo Adjuto",
        "zipcode": "38603-376"
    },
    {
        "city": "Paracatu",
        "state": "MG",
        "district": "Jardim Primavera III",
        "street": "Rua do Cajueiro",
        "zipcode": "38606-340"
    },
    {
        "city": "Paracatu",
        "state": "MG",
        "district": "Cidade Nova",
        "street": "Rua Cecilio Silva Neiva",
        "zipcode": "38602-118"
    },
    {
        "city": "Paracatu",
        "state": "MG",
        "district": "Juscelino Kubitschek",
        "street": "Rua da Torre Mestre",
        "zipcode": "38607-182"
    },
    {
        "city": "Paracatu",
        "state": "MG",
        "district": "Primavera",
        "street": "Rua das Carambolas",
        "zipcode": "38606-266"
    },
    {
        "city": "Paracatu",
        "state": "MG",
        "district": "Arraial Dangola",
        "street": "Rua das Minas Gerais",
        "zipcode": "38600-082"
    },
    {
        "city": "Paracatu",
        "state": "MG",
        "district": "Esplanada",
        "street": "Rua Cristal",
        "zipcode": "38608-208"
    },
    {
        "city": "Paracatu",
        "state": "MG",
        "district": "Nossa Senhora Aparecida",
        "street": "Rua Agenor Rodrigues",
        "zipcode": "38608-120"
    },
    {
        "city": "Paracatu",
        "state": "MG",
        "district": "Novo Horizonte",
        "street": "Rua Antônio Gouveia Damasceno",
        "zipcode": "38607-422"
    },
    {
        "city": "Paracatu",
        "state": "MG",
        "district": "Juscelino Kubitschek",
        "street": "Rua Elias Souza de Oliveira Filho",
        "zipcode": "38607-130"
    },
    {
        "city": "Paracatu",
        "state": "MG",
        "district": "Paracatuzinho",
        "street": "Rua André Avelino Araújo",
        "zipcode": "38603-218"
    },
    {
        "city": "Paracatu",
        "state": "MG",
        "district": "Jardim Serrano",
        "street": "Rua Bouganville",
        "zipcode": "38606-198"
    },
    {
        "city": "Paracatu",
        "state": "MG",
        "district": "Bela Vista I",
        "street": "Rua Dom Eliseu",
        "zipcode": "38600-492"
    },
    {
        "city": "Paracatu",
        "state": "MG",
        "district": "Centro",
        "street": "Rua Pinheiro Chagas",
        "zipcode": "38600-280"
    },
    {
        "city": "Paracatu",
        "state": "MG",
        "district": "Juscelino Kubitschek",
        "street": "Rua Cristóvão Colombo",
        "zipcode": "38607-122"
    },
    {
        "city": "Paracatu",
        "state": "MG",
        "district": "Nossa Senhora de Fátima",
        "street": "Rua Cândida Souto Pinheiro",
        "zipcode": "38607-034"
    },
    {
        "city": "Paracatu",
        "state": "MG",
        "district": "Vila Cruvinel",
        "street": "Rua Cibele",
        "zipcode": "38600-332"
    },
    {
        "city": "Paracatu",
        "state": "MG",
        "district": "Arraial Dangola",
        "street": "Rua do Tonico Lemos",
        "zipcode": "38600-090"
    },
    {
        "city": "Paracatu",
        "state": "MG",
        "district": "Paracatuzinho",
        "street": "Rua D",
        "zipcode": "38603-252"
    },
    {
        "city": "Paracatu",
        "state": "MG",
        "district": "Amoreiras II",
        "street": "Rua Diamante",
        "zipcode": "38608-256"
    },
    {
        "city": "Paracatu",
        "state": "MG",
        "district": "Bela Vista I",
        "street": "Rua Bernardo Caparucho Melo Franco",
        "zipcode": "38600-484"
    },
    {
        "city": "Paracatu",
        "state": "MG",
        "district": "Alto do Córrego",
        "street": "Rua Doutor Geraldo Serrano Neves",
        "zipcode": "38606-042"
    },
    {
        "city": "Paracatu",
        "state": "MG",
        "district": "Santana",
        "street": "Rua Antônio Neto",
        "zipcode": "38600-019"
    },
    {
        "city": "Paracatu",
        "state": "MG",
        "district": "Vila Mariana",
        "street": "Rua dos Motoristas",
        "zipcode": "38606-152"
    },
    {
        "city": "Paracatu",
        "state": "MG",
        "district": "Amoreiras I",
        "street": "Rua Ciríaco Francisco de Andrade",
        "zipcode": "38600-410"
    },
    {
        "city": "Paracatu",
        "state": "MG",
        "district": "Arraial Dangola",
        "street": "Rua do Lagedo",
        "zipcode": "38600-076"
    },
    {
        "city": "Paracatu",
        "state": "MG",
        "district": "Centro",
        "street": "Rua Benjamim Carneiro",
        "zipcode": "38600-170"
    },
    {
        "city": "Paracatu",
        "state": "MG",
        "district": "Nossa Senhora de Fátima",
        "street": "Rua Alício Lisboa",
        "zipcode": "38607-024"
    },
    {
        "city": "Paracatu",
        "state": "MG",
        "district": "Primavera",
        "street": "Rua das Laranjeiras",
        "zipcode": "38606-274"
    },
    {
        "city": "Paracatu",
        "state": "MG",
        "district": "Primavera",
        "street": "Rua do Cedro",
        "zipcode": "38606-268"
    },
    {
        "city": "Paracatu",
        "state": "MG",
        "district": "Amoreiras II",
        "street": "Rua Caetano Silva Neiva",
        "zipcode": "38608-250"
    },
    {
        "city": "Paracatu",
        "state": "MG",
        "district": "Centro",
        "street": "Rua Deputado Paulo Camilo Pena",
        "zipcode": "38600-276"
    },
    {
        "city": "Paracatu",
        "state": "MG",
        "district": "Juscelino Kubitschek",
        "street": "Rua Eurico Santarém da Silva",
        "zipcode": "38607-132"
    },
    {
        "city": "Paracatu",
        "state": "MG",
        "district": "Primavera",
        "street": "Rua Araucária",
        "zipcode": "38606-260"
    },
    {
        "city": "Paracatu",
        "state": "MG",
        "district": "Jardim Serrano",
        "street": "Rua dos Caquis",
        "zipcode": "38606-202"
    },
    {
        "city": "Paracatu",
        "state": "MG",
        "district": "Vila Cruvinel",
        "street": "Rua Benedita Pires",
        "zipcode": "38600-328"
    },
    {
        "city": "Paracatu",
        "state": "MG",
        "district": "Bela Vista I",
        "street": "Rua José Roberto de Oliveira",
        "zipcode": "38600-510"
    },
    {
        "city": "Paracatu",
        "state": "MG",
        "district": "Centro",
        "street": "Rua Gastão Pereira Gonçalves",
        "zipcode": "38600-136"
    },
    {
        "city": "Paracatu",
        "state": "MG",
        "district": "Amoreiras I",
        "street": "Rua Machado de Assis",
        "zipcode": "38600-400"
    },
    {
        "city": "Paracatu",
        "state": "MG",
        "district": "Jardim Serrano",
        "street": "Rua Graviola",
        "zipcode": "38606-224"
    },
    {
        "city": "Paracatu",
        "state": "MG",
        "district": "Bela Vista I",
        "street": "Rua Melquíades Gonçalves Carvalho",
        "zipcode": "38600-518"
    },
    {
        "city": "Paracatu",
        "state": "MG",
        "district": "Paracatuzinho",
        "street": "Rua Nair Ferreira Guimarães",
        "zipcode": "38603-342"
    },
    {
        "city": "Paracatu",
        "state": "MG",
        "district": "Alto do Córrego",
        "street": "Rua Geraldo Ferreira Souto",
        "zipcode": "38606-038"
    },
    {
        "city": "Paracatu",
        "state": "MG",
        "district": "Nossa Senhora Aparecida",
        "street": "Rua Ester da Paixão Espírito Santo",
        "zipcode": "38608-132"
    },
    {
        "city": "Paracatu",
        "state": "MG",
        "district": "Vila Mariana",
        "street": "Rua Dudu Rocha",
        "zipcode": "38606-120"
    },
    {
        "city": "Paracatu",
        "state": "MG",
        "district": "Vista Alegre",
        "street": "Rua Eduardo Ferreira Araújo",
        "zipcode": "38607-320"
    },
    {
        "city": "Paracatu",
        "state": "MG",
        "district": "Paracatuzinho",
        "street": "Rua José Oliveira Melo",
        "zipcode": "38603-296"
    },
    {
        "city": "Paracatu",
        "state": "MG",
        "district": "Jardim América",
        "street": "Rua Ladeira Dona Mariana",
        "zipcode": "38605-004"
    },
    {
        "city": "Paracatu",
        "state": "MG",
        "district": "Alto do Córrego",
        "street": "Rua Henrique Adriano Sanders",
        "zipcode": "38606-046"
    },
    {
        "city": "Paracatu",
        "state": "MG",
        "district": "Paracatuzinho",
        "street": "Rua Jonas Nascimento",
        "zipcode": "38603-290"
    },
    {
        "city": "Paracatu",
        "state": "MG",
        "district": "Bela Vista I",
        "street": "Rua Doutor Almir Alaor Porto Adjunto",
        "zipcode": "38600-476"
    },
    {
        "city": "Paracatu",
        "state": "MG",
        "district": "Cidade Nova",
        "street": "Rua Manoel Martins Ferreira",
        "zipcode": "38602-102"
    },
    {
        "city": "Paracatu",
        "state": "MG",
        "district": "Juscelino Kubitschek",
        "street": "Rua Governador JK",
        "zipcode": "38607-144"
    },
    {
        "city": "Paracatu",
        "state": "MG",
        "district": "Jardim Serrano",
        "street": "Rua Jatobá",
        "zipcode": "38606-234"
    },
    {
        "city": "Paracatu",
        "state": "MG",
        "district": "Paracatuzinho",
        "street": "Rua Inês Francisca de Melo",
        "zipcode": "38603-272"
    },
    {
        "city": "Paracatu",
        "state": "MG",
        "district": "Bela Vista I",
        "street": "Rua Francisco Rodrigues Menho",
        "zipcode": "38600-496"
    },
    {
        "city": "Paracatu",
        "state": "MG",
        "district": "Chapadinha II",
        "street": "Rua E",
        "zipcode": "38605-078"
    },
    {
        "city": "Paracatu",
        "state": "MG",
        "district": "Sarah Kubitschek",
        "street": "Rua I",
        "zipcode": "38607-234"
    },
    {
        "city": "Paracatu",
        "state": "MG",
        "district": "Cidade Nova",
        "street": "Rua Henrique Severino Maciel",
        "zipcode": "38602-128"
    },
    {
        "city": "Paracatu",
        "state": "MG",
        "district": "Nossa Senhora de Fátima",
        "street": "Rua Olendina Loureiro",
        "zipcode": "38607-016"
    },
    {
        "city": "Paracatu",
        "state": "MG",
        "district": "Centro",
        "street": "Rua Ernesto Mariano de Almeida",
        "zipcode": "38600-192"
    },
    {
        "city": "Paracatu",
        "state": "MG",
        "district": "Arraial Dangola",
        "street": "Rua Marília Gonçalves Carvalho",
        "zipcode": "38600-078"
    },
    {
        "city": "Paracatu",
        "state": "MG",
        "district": "Bela Vista II",
        "street": "Rua Oito",
        "zipcode": "38608-306"
    },
    {
        "city": "Paracatu",
        "state": "MG",
        "district": "Paracatuzinho",
        "street": "Rua Everaldo Santana Vevê",
        "zipcode": "38603-262"
    },
    {
        "city": "Paracatu",
        "state": "MG",
        "district": "Cidade Nova",
        "street": "Rua Manoel Venâncio Fernandes",
        "zipcode": "38602-138"
    },
    {
        "city": "Paracatu",
        "state": "MG",
        "district": "Chapadinha II",
        "street": "Rua G",
        "zipcode": "38605-082"
    },
    {
        "city": "Paracatu",
        "state": "MG",
        "district": "Alto do Açude",
        "street": "Rua João Mendes",
        "zipcode": "38608-036"
    },
    {
        "city": "Paracatu",
        "state": "MG",
        "district": "Jardim Serrano",
        "street": "Rua Jasmim",
        "zipcode": "38606-232"
    },
    {
        "city": "Paracatu",
        "state": "MG",
        "district": "Centro",
        "street": "Rua Osvaldo Rodrigues Diniz",
        "zipcode": "38600-274"
    },
    {
        "city": "Paracatu",
        "state": "MG",
        "district": "Nossa Senhora Aparecida",
        "street": "Rua Júlio Pereira de Castro",
        "zipcode": "38608-136"
    },
    {
        "city": "Paracatu",
        "state": "MG",
        "district": "Centro",
        "street": "Rua João Gonçalves Carvalho",
        "zipcode": "38600-122"
    },
    {
        "city": "Paracatu",
        "state": "MG",
        "district": "Sarah Kubitschek",
        "street": "Rua H",
        "zipcode": "38607-232"
    },
    {
        "city": "Paracatu",
        "state": "MG",
        "district": "Prado",
        "street": "Rua Felisberto Caldeira Brant",
        "zipcode": "38602-020"
    },
    {
        "city": "Paracatu",
        "state": "MG",
        "district": "Nossa Senhora de Fátima",
        "street": "Rua Honório Batista de Oliveira",
        "zipcode": "38607-044"
    },
    {
        "city": "Paracatu",
        "state": "MG",
        "district": "Paracatuzinho",
        "street": "Rua Francisca Neto Roquete",
        "zipcode": "38603-264"
    },
    {
        "city": "Paracatu",
        "state": "MG",
        "district": "Centro",
        "street": "Rua Floriano Costa",
        "zipcode": "38600-198"
    },
    {
        "city": "Paracatu",
        "state": "MG",
        "district": "Nossa Senhora de Fátima",
        "street": "Rua Joaquim Carneiro Mendonça",
        "zipcode": "38607-050"
    },
    {
        "city": "Paracatu",
        "state": "MG",
        "district": "Prado",
        "street": "Rua Josefina Mariana de Almeida",
        "zipcode": "38602-030"
    },
    {
        "city": "Paracatu",
        "state": "MG",
        "district": "Juscelino Kubitschek",
        "street": "Rua Maria da Conceição de Araújo",
        "zipcode": "38607-156"
    },
    {
        "city": "Paracatu",
        "state": "MG",
        "district": "Vila Ecológica",
        "street": "Rua Jatobá",
        "zipcode": "38607-268"
    },
    {
        "city": "Paracatu",
        "state": "MG",
        "district": "Juscelino Kubitschek",
        "street": "Rua Itagiba Valentim Landim",
        "zipcode": "38607-142"
    },
    {
        "city": "Paracatu",
        "state": "MG",
        "district": "Cidade Nova",
        "street": "Rua Lorival de Araújo Caldas",
        "zipcode": "38602-132"
    },
    {
        "city": "Paracatu",
        "state": "MG",
        "district": "Vila São Calixto",
        "street": "Rua Irmã Eugênia Taveira",
        "zipcode": "38603-002"
    },
    {
        "city": "Paracatu",
        "state": "MG",
        "district": "Jardim Serrano",
        "street": "Rua Gardênia",
        "zipcode": "38606-220"
    },
    {
        "city": "Paracatu",
        "state": "MG",
        "district": "Alto do Córrego",
        "street": "Rua José Joaquim de Moraes",
        "zipcode": "38606-052"
    },
    {
        "city": "Paracatu",
        "state": "MG",
        "district": "Santa Lúcia",
        "street": "Rua Geraldo Rabelo de Souza",
        "zipcode": "38600-386"
    },
    {
        "city": "Paracatu",
        "state": "MG",
        "district": "Bela Vista I",
        "street": "Rua Francisco Carneiro",
        "zipcode": "38600-494"
    },
    {
        "city": "Paracatu",
        "state": "MG",
        "district": "Vista Alegre",
        "street": "Rua Leonina Peres Araújo",
        "zipcode": "38607-324"
    },
    {
        "city": "Paracatu",
        "state": "MG",
        "district": "Jardim Primavera",
        "street": "Rua Matilde Oliveira",
        "zipcode": "38606-082"
    },
    {
        "city": "Paracatu",
        "state": "MG",
        "district": "São João Evangelista",
        "street": "Rua George Araújo Caldas",
        "zipcode": "38603-122"
    },
    {
        "city": "Paracatu",
        "state": "MG",
        "district": "Vila Cristiano",
        "street": "Rua Expedicionário Geraldo Costa Bezerra",
        "zipcode": "38606-396"
    },
    {
        "city": "Paracatu",
        "state": "MG",
        "district": "Vila São Calixto",
        "street": "Rua Maria Garcia da Silva",
        "zipcode": "38603-010"
    },
    {
        "city": "Paracatu",
        "state": "MG",
        "district": "Vila Mariana",
        "street": "Rua João André",
        "zipcode": "38606-140"
    },
    {
        "city": "Paracatu",
        "state": "MG",
        "district": "Vista Alegre",
        "street": "Rua Juarez Porto",
        "zipcode": "38607-322"
    },
    {
        "city": "Paracatu",
        "state": "MG",
        "district": "Juscelino Kubitschek",
        "street": "Rua José Camargo",
        "zipcode": "38607-146"
    },
    {
        "city": "Paracatu",
        "state": "MG",
        "district": "Amoreiras I",
        "street": "Rua Padre Antônio Mendes Santiago",
        "zipcode": "38600-414"
    },
    {
        "city": "Paracatu",
        "state": "MG",
        "district": "Amoreiras I",
        "street": "Rua Padre Manoel",
        "zipcode": "38600-434"
    },
    {
        "city": "Paracatu",
        "state": "MG",
        "district": "Amoreiras I",
        "street": "Rua Joaquim Moura Brochado",
        "zipcode": "38600-430"
    },
    {
        "city": "Paracatu",
        "state": "MG",
        "district": "Santa Lúcia",
        "street": "Rua Tiradentes",
        "zipcode": "38600-360"
    },
    {
        "city": "Paracatu",
        "state": "MG",
        "district": "Cidade Nova",
        "street": "Rua Zita da Silva Neiva",
        "zipcode": "38602-104"
    },
    {
        "city": "Paracatu",
        "state": "MG",
        "district": "Chapadinha",
        "street": "Travessa Geraldo Rodrigues de Lima",
        "zipcode": "38605-030"
    },
    {
        "city": "Paracatu",
        "state": "MG",
        "district": "Centro",
        "street": "Travessa dos Rochas",
        "zipcode": "38600-290"
    },
    {
        "city": "Paracatu",
        "state": "MG",
        "district": "Parque do Príncipe",
        "street": "Rua Venezuela",
        "zipcode": "38602-226"
    },
    {
        "city": "Paracatu",
        "state": "MG",
        "district": "Paracatuzinho",
        "street": "Travessa Perímetro 1",
        "zipcode": "38603-362"
    },
    {
        "city": "Paracatu",
        "state": "MG",
        "district": "Vila Mariana",
        "street": "Travessa Amaro de Araújo Caldas",
        "zipcode": "38606-108"
    },
    {
        "city": "Paracatu",
        "state": "MG",
        "district": "Paracatuzinho",
        "street": "Rua Professora Maria A Ferreira",
        "zipcode": "38603-332"
    },
    {
        "city": "Paracatu",
        "state": "MG",
        "district": "Paracatuzinho",
        "street": "Travessa José Simões Cunha",
        "zipcode": "38603-298"
    },
    {
        "city": "Paracatu",
        "state": "MG",
        "district": "Lene Ville",
        "street": "Rua Um",
        "zipcode": "38607-216"
    },
    {
        "city": "Paracatu",
        "state": "MG",
        "district": "São João Evangelista",
        "street": "Rua Quatro",
        "zipcode": "38603-110"
    },
    {
        "city": "Paracatu",
        "state": "MG",
        "district": "Cidade Nova",
        "street": "Rua Vereador Afrânio Salustiano Pereira",
        "zipcode": "38602-108"
    },
    {
        "city": "Paracatu",
        "state": "MG",
        "district": "Jardim Primavera III",
        "street": "Rua Projetada 1",
        "zipcode": "38606-358"
    },
    {
        "city": "Paracatu",
        "state": "MG",
        "district": "Alto do Córrego",
        "street": "Rua Waldemar Botelho",
        "zipcode": "38606-000"
    },
    {
        "city": "Paracatu",
        "state": "MG",
        "district": "Parque do Príncipe",
        "street": "Rua Pernambuco",
        "zipcode": "38602-220"
    },
    {
        "city": "Paracatu",
        "state": "MG",
        "district": "Chapadinha II",
        "street": "Travessa Celi Oliveira da Silva",
        "zipcode": "38605-068"
    },
    {
        "city": "Paracatu",
        "state": "MG",
        "district": "Alto do Açude",
        "street": "Travessa Porto Buriti",
        "zipcode": "38608-052"
    },
    {
        "city": "Paracatu",
        "state": "MG",
        "district": "Bela Vista I",
        "street": "Rua Tiradentes",
        "zipcode": "38600-458"
    },
    {
        "city": "Paracatu",
        "state": "MG",
        "district": "Prado",
        "street": "Rua Tiradentes",
        "zipcode": "38602-048"
    },
    {
        "city": "Paracatu",
        "state": "MG",
        "district": "Centro",
        "street": "Travessa Américo Macedo",
        "zipcode": "38600-148"
    },
    {
        "city": "Paracatu",
        "state": "MG",
        "district": "Centro",
        "street": "Rua Rafael Antão de Melo",
        "zipcode": "38600-284"
    },
    {
        "city": "Paracatu",
        "state": "MG",
        "district": "São João Evangelista",
        "street": "Travessa Jesus de Nazaré",
        "zipcode": "38603-128"
    },
    {
        "city": "Paracatu",
        "state": "MG",
        "district": "Centro",
        "street": "Travessa da Juriti",
        "zipcode": "38600-256"
    },
    {
        "city": "Paracatu",
        "state": "MG",
        "district": "Centro",
        "street": "Rua Silvino Reis",
        "zipcode": "38600-302"
    },
    {
        "city": "Paracatu",
        "state": "MG",
        "district": "Jardim América",
        "street": "Rua Projetada Sete",
        "zipcode": "38605-026"
    },
    {
        "city": "Paracatu",
        "state": "MG",
        "district": "Centro",
        "street": "Rua Professor Henrique dos Reis",
        "zipcode": "38600-220"
    },
    {
        "city": "Paracatu",
        "state": "MG",
        "district": "Cidade Nova",
        "street": "Rua Pedro Araújo Caldas",
        "zipcode": "38602-144"
    },
    {
        "city": "Paracatu",
        "state": "MG",
        "district": "Vila Cristiano",
        "street": "Rua Paulo Benedito Jordão",
        "zipcode": "38606-398"
    },
    {
        "city": "Paracatu",
        "state": "MG",
        "district": "Jardim América",
        "street": "Rua Presbiteriana",
        "zipcode": "38605-006"
    },
    {
        "city": "Paracatu",
        "state": "MG",
        "district": "Sarah Kubitschek",
        "street": "Rua Três",
        "zipcode": "38607-246"
    },
    {
        "city": "Paracatu",
        "state": "MG",
        "district": "Bandeirantes",
        "street": "Rua Vereador Maximiliano Gonçalves",
        "zipcode": "38603-158"
    },
    {
        "city": "Paracatu",
        "state": "MG",
        "district": "Arraial Dangola",
        "street": "Travessa Etelvina Gonçalves Caldas",
        "zipcode": "38600-062"
    },
    {
        "city": "Paracatu",
        "state": "MG",
        "district": "Nossa Senhora Aparecida",
        "street": "Rua Rodolfo Adjuto Botelho",
        "zipcode": "38608-138"
    },
    {
        "city": "Paracatu",
        "state": "MG",
        "district": "Vila Mariana",
        "street": "Rua São Sebastião",
        "zipcode": "38606-168"
    },
    {
        "city": "Paracatu",
        "state": "MG",
        "district": "Alto do Açude",
        "street": "Travessa do Campo",
        "zipcode": "38608-028"
    },
    {
        "city": "Paracatu",
        "state": "MG",
        "district": "Vila Mariana",
        "street": "Travessa Durval Batista de Oliveira",
        "zipcode": "38606-122"
    },
    {
        "city": "Paracatu",
        "state": "MG",
        "district": "São João Evangelista",
        "street": "Travessa Padre Josino",
        "zipcode": "38603-136"
    },
    {
        "city": "Paracatu",
        "state": "MG",
        "district": "Parque do Príncipe",
        "street": "Rua Panamá",
        "zipcode": "38602-214"
    },
    {
        "city": "Paracatu",
        "state": "MG",
        "district": "Jardim América",
        "street": "Rua Projetada Quatro",
        "zipcode": "38605-016"
    },
    {
        "city": "Paracatu",
        "state": "MG",
        "district": "Paracatuzinho",
        "street": "Rua Ricardo Adjuto",
        "zipcode": "38603-374"
    },
    {
        "city": "Paracatu",
        "state": "MG",
        "district": "São João Evangelista",
        "street": "Rua São Francisco de Assis",
        "zipcode": "38603-120"
    },
    {
        "city": "Paracatu",
        "state": "MG",
        "district": "Paracatuzinho",
        "street": "Travessa Luiz Roquete Franco",
        "zipcode": "38603-314"
    },
    {
        "city": "Paracatu",
        "state": "MG",
        "district": "Jardim Primavera",
        "street": "Rua Romualdo Gonçalves Ulhoa",
        "zipcode": "38606-088"
    },
    {
        "city": "Paracatu",
        "state": "MG",
        "district": "Prado",
        "street": "Rua Santos Dumont",
        "zipcode": "38602-044"
    },
    {
        "city": "Paracatu",
        "state": "MG",
        "district": "Centro",
        "street": "Rua Temistocles Rocha",
        "zipcode": "38600-306"
    },
    {
        "city": "Paracatu",
        "state": "MG",
        "district": "Jardim Primavera III",
        "street": "Rua Projetada Doze",
        "zipcode": "38606-364"
    },
    {
        "city": "Paracatu",
        "state": "MG",
        "district": "Juscelino Kubitschek",
        "street": "Travessa Amália Souza Camargos",
        "zipcode": "38607-098"
    },
    {
        "city": "Paracatu",
        "state": "MG",
        "district": "Vila São Calixto",
        "street": "Rua Sebastiana de Oliveira Faria",
        "zipcode": "38603-012"
    },
    {
        "city": "Paracatu",
        "state": "MG",
        "district": "Juscelino Kubitschek",
        "street": "Travessa Benedito Pereira Souza",
        "zipcode": "38607-114"
    },
    {
        "city": "Paracatu",
        "state": "MG",
        "district": "Alto do Córrego",
        "street": "Travessa Idalina Lima Botelho",
        "zipcode": "38606-050"
    },
    {
        "city": "Paracatu",
        "state": "MG",
        "district": "Centro",
        "street": "Rua São Vicente",
        "zipcode": "38600-310"
    },
    {
        "city": "Paracatu",
        "state": "MG",
        "district": "Paracatuzinho",
        "street": "Rua Santa Luzia",
        "zipcode": "38603-318"
    },
    {
        "city": "Paracatu",
        "state": "MG",
        "district": "Nossa Senhora Aparecida",
        "street": "Rua Urânio",
        "zipcode": "38608-122"
    },
    {
        "city": "Paracatu",
        "state": "MG",
        "district": "Bela Vista I",
        "street": "Rua Saint Clair Laboissière",
        "zipcode": "38600-534"
    },
    {
        "city": "Paracatu",
        "state": "MG",
        "district": "Esplanada",
        "street": "Travessa Profeta Isaías",
        "zipcode": "38608-220"
    },
    {
        "city": "Paracatu",
        "state": "MG",
        "district": "Nossa Senhora Aparecida",
        "street": "Rua Sete",
        "zipcode": "38608-128"
    },
    {
        "city": "Paracatu",
        "state": "MG",
        "district": "Alto do Açude",
        "street": "Travessa São Domingos",
        "zipcode": "38608-034"
    },
    {
        "city": "Paracatu",
        "state": "MG",
        "district": "Chapadinha",
        "street": "Travessa Romeu da Silva Couto",
        "zipcode": "38605-058"
    },
    {
        "city": "Paracatu",
        "state": "MG",
        "district": "Chapadinha",
        "street": "Travessa Severina Teixeira de Oliveira",
        "zipcode": "38605-038"
    },
    {
        "city": "Paracatu",
        "state": "MG",
        "district": "Paracatuzinho",
        "street": "Travessa 13 de Maio",
        "zipcode": "38603-212"
    },
    {
        "city": "Paracatu",
        "state": "MG",
        "district": "Paracatuzinho",
        "street": "Travessa Tupi",
        "zipcode": "38603-390"
    }
]