[
    {
        "city": "Pocos De Caldas",
        "state": "MG",
        "district": "Vila Menezes",
        "street": "Rua Vera Cruz",
        "zipcode": "37704-048"
    },
    {
        "city": "Pocos De Caldas",
        "state": "MG",
        "district": "Vila Radio",
        "street": "Rua B",
        "zipcode": "37704-433"
    },
    {
        "city": "Pocos De Caldas",
        "state": "MG",
        "district": "Conj Habit Pedro Afonso Junqueira",
        "street": "Rua Vinte E Oito",
        "zipcode": "37706-219"
    },
    {
        "city": "Pocos De Caldas",
        "state": "MG",
        "district": "Santo Andre",
        "street": "Rua Tenente Munhoz",
        "zipcode": "37704-067"
    },
    {
        "city": "Pocos De Caldas",
        "state": "MG",
        "district": "Santo Andre",
        "street": "Viela Um",
        "zipcode": "37704-074"
    },
    {
        "city": "Pocos De Caldas",
        "state": "MG",
        "district": "Fazenda Baeta",
        "street": "Pra√ßa Tiradentes",
        "zipcode": "37701-164"
    },
    {
        "city": "Pocos De Caldas",
        "state": "MG",
        "district": "Maria Imaculada",
        "street": "Rua Estrela De Maha",
        "zipcode": "37701-380"
    },
    {
        "city": "Pocos De Caldas",
        "state": "MG",
        "district": "Estancia Pocos De Caldas",
        "street": "Rua Caminho 7",
        "zipcode": "37706-052"
    },
    {
        "city": "Pocos De Caldas",
        "state": "MG",
        "district": "Vila Radio",
        "street": "Rua A",
        "zipcode": "37704-432"
    },
    {
        "city": "Pocos De Caldas",
        "state": "MG",
        "district": "Jardim Planalto 11",
        "street": "Rua Bruno Vitti",
        "zipcode": "37704-078"
    },
    {
        "city": "Pocos De Caldas",
        "state": "MG",
        "district": "Vila Radio",
        "street": "Rua C",
        "zipcode": "37704-104"
    },
    {
        "city": "Pocos De Caldas",
        "state": "MG",
        "district": "Jardim Kennedy I",
        "street": "Rua Prata",
        "zipcode": "37706-278"
    },
    {
        "city": "Pocos De Caldas",
        "state": "MG",
        "district": "Vila Radio",
        "street": "Rua D",
        "zipcode": "37704-046"
    },
    {
        "city": "Pocos De Caldas",
        "state": "MG",
        "district": "Fazenda Baeta",
        "street": "Rua Dos Marianos",
        "zipcode": "37701-472"
    },
    {
        "city": "Pocos De Caldas",
        "state": "MG",
        "district": "Jardim Country Club (1A Gleba)",
        "street": "Avenida Joao Pinheiro",
        "zipcode": "37704-392"
    },
    {
        "city": "Pocos De Caldas",
        "state": "MG",
        "district": "Santa Angela (1A Gleba)",
        "street": "Rua Aderson De Faria",
        "zipcode": "37701-465"
    },
    {
        "city": "Pocos De Caldas",
        "state": "MG",
        "district": "Jardim Kennedy I",
        "street": "Rua Ouro",
        "zipcode": "37706-277"
    },
    {
        "city": "Pocos De Caldas",
        "state": "MG",
        "district": "Country Club",
        "street": "Rua Quatro",
        "zipcode": "37701-364"
    },
    {
        "city": "Pocos De Caldas",
        "state": "MG",
        "district": "Conj Habit Pedro Afonso Junqueira",
        "street": "Rua Vinte E Sete",
        "zipcode": "37706-211"
    },
    {
        "city": "Pocos De Caldas",
        "state": "MG",
        "district": "Country Club",
        "street": "Rua Tres",
        "zipcode": "37701-363"
    },
    {
        "city": "Pocos De Caldas",
        "state": "MG",
        "district": "Chacara Pocos De Caldas",
        "street": "Rua Caminho 2",
        "zipcode": "37704-412"
    },
    {
        "city": "Pocos De Caldas",
        "state": "MG",
        "district": "Chacara Pocos De Caldas",
        "street": "Rua Caminho 3",
        "zipcode": "37704-413"
    }
]