[
    {
        "city": "Ponte Nova",
        "state": "MG",
        "district": "Rasa",
        "street": "Rua das Hortências",
        "zipcode": "35430-396"
    },
    {
        "city": "Ponte Nova",
        "state": "MG",
        "district": "Rasa",
        "street": "Rua Emídio Machado Guimarães",
        "zipcode": "35430-310"
    },
    {
        "city": "Ponte Nova",
        "state": "MG",
        "district": "Fortaleza",
        "street": "Rua Roque Rodrigues da Cunha",
        "zipcode": "35430-539"
    },
    {
        "city": "Ponte Nova",
        "state": "MG",
        "district": "Rasa",
        "street": "Rua dos Jasmins",
        "zipcode": "35430-398"
    },
    {
        "city": "Ponte Nova",
        "state": "MG",
        "district": "Esplanada",
        "street": "Rua Nicolau Pesce",
        "zipcode": "35430-329"
    },
    {
        "city": "Ponte Nova",
        "state": "MG",
        "district": "Nova Copacabana",
        "street": "Rua Abelardo Alves Ferreira",
        "zipcode": "35431-337"
    },
    {
        "city": "Ponte Nova",
        "state": "MG",
        "district": "Centro",
        "street": "Praça Ângelo Crivellari",
        "zipcode": "35430-025"
    },
    {
        "city": "Ponte Nova",
        "state": "MG",
        "district": "Paraíso",
        "street": "Praça Doutor José Maria da Silveira Júnior",
        "zipcode": "35430-301"
    },
    {
        "city": "Ponte Nova",
        "state": "MG",
        "district": "Nova Copacabana",
        "street": "Rua Glória Maria Andrade Gonçalves",
        "zipcode": "35431-347"
    },
    {
        "city": "Ponte Nova",
        "state": "MG",
        "district": "Nova Copacabana",
        "street": "Rua Geraldo Neves",
        "zipcode": "35431-345"
    },
    {
        "city": "Ponte Nova",
        "state": "MG",
        "district": "Fortaleza",
        "street": "Rua Milton Pires de Paula",
        "zipcode": "35430-541"
    },
    {
        "city": "Ponte Nova",
        "state": "MG",
        "district": "Ana Florência",
        "street": "Rua Olaria de Baixo",
        "zipcode": "35432-065"
    },
    {
        "city": "Ponte Nova",
        "state": "MG",
        "district": "Ana Florência",
        "street": "Rua Maria Martinho Itaboraby",
        "zipcode": "35432-025"
    },
    {
        "city": "Ponte Nova",
        "state": "MG",
        "district": "Fortaleza",
        "street": "Rua José Alves Pereira",
        "zipcode": "35430-533"
    },
    {
        "city": "Ponte Nova",
        "state": "MG",
        "district": "Paraíso",
        "street": "Rua José Lanna Teixeira",
        "zipcode": "35430-635"
    },
    {
        "city": "Ponte Nova",
        "state": "MG",
        "district": "Ana Florência",
        "street": "Avenida Mário Martins de Freitas",
        "zipcode": "35432-077"
    },
    {
        "city": "Ponte Nova",
        "state": "MG",
        "district": "Jardim",
        "street": "Rua Benedito Cezar",
        "zipcode": "35430-241"
    },
    {
        "city": "Ponte Nova",
        "state": "MG",
        "district": "Rasa",
        "street": "Rua das Orquídeas",
        "zipcode": "35430-402"
    },
    {
        "city": "Ponte Nova",
        "state": "MG",
        "district": "Centro",
        "street": "Vila Alexandrina",
        "zipcode": "35430-005"
    },
    {
        "city": "Ponte Nova",
        "state": "MG",
        "district": "Novo Horizonte",
        "street": "Rua Antônio Simião de Carvalho",
        "zipcode": "35430-300"
    },
    {
        "city": "Ponte Nova",
        "state": "MG",
        "district": "São Pedro",
        "street": "Rua Jari",
        "zipcode": "35430-275"
    },
    {
        "city": "Ponte Nova",
        "state": "MG",
        "district": "São Geraldo",
        "street": "Rua K",
        "zipcode": "35430-815"
    },
    {
        "city": "Ponte Nova",
        "state": "MG",
        "district": "Centro",
        "street": "Rua Doutor Leonardo",
        "zipcode": "35430-004"
    },
    {
        "city": "Ponte Nova",
        "state": "MG",
        "district": "Fátima",
        "street": "Rua E",
        "zipcode": "35430-269"
    },
    {
        "city": "Ponte Nova",
        "state": "MG",
        "district": "Fátima",
        "street": "Rua F",
        "zipcode": "35430-263"
    },
    {
        "city": "Ponte Nova",
        "state": "MG",
        "district": "Santo Antônio II",
        "street": "Vila Rosa",
        "zipcode": "35430-059"
    },
    {
        "city": "Ponte Nova",
        "state": "MG",
        "district": "Esplanada",
        "street": "Rua Tiradentes",
        "zipcode": "35430-077"
    },
    {
        "city": "Ponte Nova",
        "state": "MG",
        "district": "Rasa",
        "street": "Rua Patagônia",
        "zipcode": "35430-306"
    },
    {
        "city": "Ponte Nova",
        "state": "MG",
        "district": "Rasa",
        "street": "Rua Monte Rei",
        "zipcode": "35430-370"
    },
    {
        "city": "Ponte Nova",
        "state": "MG",
        "district": "Centro",
        "street": "Avenida Abdalla Felício",
        "zipcode": "35430-028"
    },
    {
        "city": "Ponte Nova",
        "state": "MG",
        "district": "Fortaleza",
        "street": "Rua Rangel Galinhares",
        "zipcode": "35430-535"
    },
    {
        "city": "Ponte Nova",
        "state": "MG",
        "district": "Paraíso",
        "street": "Rua Anibal Lopes Neto",
        "zipcode": "35430-633"
    },
    {
        "city": "Ponte Nova",
        "state": "MG",
        "district": "Ana Florência",
        "street": "Praça Amita Borges",
        "zipcode": "35432-040"
    },
    {
        "city": "Ponte Nova",
        "state": "MG",
        "district": "Triângulo",
        "street": "Rua Paineiras",
        "zipcode": "35430-573"
    },
    {
        "city": "Ponte Nova",
        "state": "MG",
        "district": "Centro",
        "street": "Escada Albano Bráulio",
        "zipcode": "35430-014"
    },
    {
        "city": "Ponte Nova",
        "state": "MG",
        "district": "Centro",
        "street": "Avenida Antônio Brant Ribeiro",
        "zipcode": "35430-036"
    },
    {
        "city": "Ponte Nova",
        "state": "MG",
        "district": "Centro",
        "street": "Rua Antônio Frederico Ozanan",
        "zipcode": "35430-029"
    },
    {
        "city": "Ponte Nova",
        "state": "MG",
        "district": "Centro",
        "street": "Avenida Arthur Bernardes",
        "zipcode": "35430-024"
    },
    {
        "city": "Ponte Nova",
        "state": "MG",
        "district": "Copacabana",
        "street": "Rua Copacabana",
        "zipcode": "35430-052"
    },
    {
        "city": "Ponte Nova",
        "state": "MG",
        "district": "Santo Antônio II",
        "street": "Travessa Dineli",
        "zipcode": "35430-062"
    },
    {
        "city": "Ponte Nova",
        "state": "MG",
        "district": "Centro",
        "street": "Avenida Doutor Cristiano de Freitas Castro",
        "zipcode": "35430-037"
    },
    {
        "city": "Ponte Nova",
        "state": "MG",
        "district": "Santo Antônio II",
        "street": "Travessa Iacomini",
        "zipcode": "35430-063"
    },
    {
        "city": "Ponte Nova",
        "state": "MG",
        "district": "Centro",
        "street": "Rua Ildefonso Marliere",
        "zipcode": "35430-010"
    },
    {
        "city": "Ponte Nova",
        "state": "MG",
        "district": "Centro",
        "street": "Rua João Pinheiro",
        "zipcode": "35430-020"
    },
    {
        "city": "Ponte Nova",
        "state": "MG",
        "district": "Vila Alvarenga",
        "street": "Rua Joaquim Conegundes",
        "zipcode": "35430-051"
    },
    {
        "city": "Ponte Nova",
        "state": "MG",
        "district": "Sumaré",
        "street": "Rua dos Jornalistas",
        "zipcode": "35430-043"
    },
    {
        "city": "Ponte Nova",
        "state": "MG",
        "district": "Centro",
        "street": "Praça José Emiliano Dias",
        "zipcode": "35430-034"
    },
    {
        "city": "Ponte Nova",
        "state": "MG",
        "district": "Centro",
        "street": "Travessa Mário Bonfatti",
        "zipcode": "35430-018"
    },
    {
        "city": "Ponte Nova",
        "state": "MG",
        "district": "Centro",
        "street": "Rua Mário Fontoura",
        "zipcode": "35430-032"
    },
    {
        "city": "Ponte Nova",
        "state": "MG",
        "district": "Vila Alvarenga",
        "street": "Rua Mato Grosso do Norte",
        "zipcode": "35430-050"
    },
    {
        "city": "Ponte Nova",
        "state": "MG",
        "district": "Vila Alvarenga",
        "street": "Rua Minas Gerais",
        "zipcode": "35430-048"
    },
    {
        "city": "Ponte Nova",
        "state": "MG",
        "district": "Sumaré",
        "street": "Praça da Mocidade",
        "zipcode": "35430-041"
    },
    {
        "city": "Ponte Nova",
        "state": "MG",
        "district": "Centro",
        "street": "Rua Olegário Maciel",
        "zipcode": "35430-015"
    },
    {
        "city": "Ponte Nova",
        "state": "MG",
        "district": "Santo Antônio II",
        "street": "Travessa Portela",
        "zipcode": "35430-055"
    },
    {
        "city": "Ponte Nova",
        "state": "MG",
        "district": "Centro",
        "street": "Travessa Saltarelli",
        "zipcode": "35430-021"
    },
    {
        "city": "Ponte Nova",
        "state": "MG",
        "district": "Vila Alvarenga",
        "street": "Rua Santa Terezinha",
        "zipcode": "35430-045"
    },
    {
        "city": "Ponte Nova",
        "state": "MG",
        "district": "Santo Antônio II",
        "street": "Travessa Santo Antônio II",
        "zipcode": "35430-058"
    },
    {
        "city": "Ponte Nova",
        "state": "MG",
        "district": "Santo Antônio II",
        "street": "Rua São Geraldo",
        "zipcode": "35430-066"
    },
    {
        "city": "Ponte Nova",
        "state": "MG",
        "district": "Sumaré",
        "street": "Rua São Vicente",
        "zipcode": "35430-038"
    },
    {
        "city": "Ponte Nova",
        "state": "MG",
        "district": "Centro",
        "street": "Rua Senador Miguel Lanna",
        "zipcode": "35430-007"
    },
    {
        "city": "Ponte Nova",
        "state": "MG",
        "district": "Centro",
        "street": "Rua Vigário João Paulo",
        "zipcode": "35430-011"
    },
    {
        "city": "Ponte Nova",
        "state": "MG",
        "district": "Fortaleza",
        "street": "Rua Carlos Henrique Pires",
        "zipcode": "35430-537"
    },
    {
        "city": "Ponte Nova",
        "state": "MG",
        "district": "Centro",
        "street": "Rua Cantídio Drumond",
        "zipcode": "35430-006"
    },
    {
        "city": "Ponte Nova",
        "state": "MG",
        "district": "Sumaré",
        "street": "Rua dos Prefeitos",
        "zipcode": "35430-042"
    },
    {
        "city": "Ponte Nova",
        "state": "MG",
        "district": "Santo Antônio II",
        "street": "Travessa São Geraldo",
        "zipcode": "35430-065"
    },
    {
        "city": "Ponte Nova",
        "state": "MG",
        "district": "Vila Oliveira",
        "street": "Rua Antônio Garavini",
        "zipcode": "35430-121"
    },
    {
        "city": "Ponte Nova",
        "state": "MG",
        "district": "Triângulo",
        "street": "Rua Antônio Morais",
        "zipcode": "35430-153"
    },
    {
        "city": "Ponte Nova",
        "state": "MG",
        "district": "Triângulo Novo",
        "street": "Rua Antônio Silami",
        "zipcode": "35430-131"
    },
    {
        "city": "Ponte Nova",
        "state": "MG",
        "district": "Triângulo",
        "street": "Rua Arnaud Barbosa",
        "zipcode": "35430-150"
    },
    {
        "city": "Ponte Nova",
        "state": "MG",
        "district": "Triângulo",
        "street": "Rua Bonifácio Guimarães",
        "zipcode": "35430-157"
    },
    {
        "city": "Ponte Nova",
        "state": "MG",
        "district": "Esplanada",
        "street": "Rua Carlos Gomes",
        "zipcode": "35430-069"
    },
    {
        "city": "Ponte Nova",
        "state": "MG",
        "district": "Esplanada",
        "street": "Rua Cláudio Manoel da Costa",
        "zipcode": "35430-074"
    },
    {
        "city": "Ponte Nova",
        "state": "MG",
        "district": "Sagrado Coração de Jesus",
        "street": "Rua Cristóvão Alvarenga",
        "zipcode": "35430-107"
    },
    {
        "city": "Ponte Nova",
        "state": "MG",
        "district": "Vila Oliveira",
        "street": "Rua Desembargador Paula Motta",
        "zipcode": "35430-123"
    },
    {
        "city": "Ponte Nova",
        "state": "MG",
        "district": "Esplanada",
        "street": "Rua Domingos Vidal Barbosa",
        "zipcode": "35430-075"
    },
    {
        "city": "Ponte Nova",
        "state": "MG",
        "district": "Sagrado Coração de Jesus",
        "street": "Rua Dona Maria Pacheco",
        "zipcode": "35430-102"
    },
    {
        "city": "Ponte Nova",
        "state": "MG",
        "district": "Nova Almeida",
        "street": "Rua Doutor José Reis Cotta",
        "zipcode": "35430-111"
    },
    {
        "city": "Ponte Nova",
        "state": "MG",
        "district": "Triângulo",
        "street": "Rua Elder de Aquino",
        "zipcode": "35430-152"
    },
    {
        "city": "Ponte Nova",
        "state": "MG",
        "district": "Triângulo Novo",
        "street": "Travessa Eloy Fraga",
        "zipcode": "35430-137"
    },
    {
        "city": "Ponte Nova",
        "state": "MG",
        "district": "Triângulo Novo",
        "street": "Travessa Elvira Alves Guimarães",
        "zipcode": "35430-135"
    },
    {
        "city": "Ponte Nova",
        "state": "MG",
        "district": "Sagrado Coração de Jesus",
        "street": "Rua Espírito Santo",
        "zipcode": "35430-110"
    },
    {
        "city": "Ponte Nova",
        "state": "MG",
        "district": "Santa Teresa",
        "street": "Rua Felisberto Leopoldo",
        "zipcode": "35430-085"
    },
    {
        "city": "Ponte Nova",
        "state": "MG",
        "district": "Esplanada",
        "street": "Rua dos Ferroviários",
        "zipcode": "35430-072"
    },
    {
        "city": "Ponte Nova",
        "state": "MG",
        "district": "Triângulo",
        "street": "Avenida Getúlio Vargas",
        "zipcode": "35430-144"
    },
    {
        "city": "Ponte Nova",
        "state": "MG",
        "district": "Sagrado Coração de Jesus",
        "street": "Rua Guanabara",
        "zipcode": "35430-098"
    },
    {
        "city": "Ponte Nova",
        "state": "MG",
        "district": "Esplanada",
        "street": "Rua Imperatriz Leopoldina",
        "zipcode": "35430-071"
    },
    {
        "city": "Ponte Nova",
        "state": "MG",
        "district": "Santa Teresa",
        "street": "Rua Jardim",
        "zipcode": "35430-093"
    },
    {
        "city": "Ponte Nova",
        "state": "MG",
        "district": "Triângulo",
        "street": "Rua João Piranga",
        "zipcode": "35430-155"
    },
    {
        "city": "Ponte Nova",
        "state": "MG",
        "district": "Guarapiranga",
        "street": "Praça Dom Helvécio",
        "zipcode": "35430-217"
    },
    {
        "city": "Ponte Nova",
        "state": "MG",
        "district": "Rasa",
        "street": "Rua José Rocha Porto",
        "zipcode": "35430-312"
    },
    {
        "city": "Ponte Nova",
        "state": "MG",
        "district": "Rasa",
        "street": "Estrada Barra Longa",
        "zipcode": "35430-380"
    },
    {
        "city": "Ponte Nova",
        "state": "MG",
        "district": "Sagrado Coração de Jesus",
        "street": "Rua João Sette",
        "zipcode": "35430-104"
    },
    {
        "city": "Ponte Nova",
        "state": "MG",
        "district": "Esplanada",
        "street": "Praça José Alves Maciel",
        "zipcode": "35430-082"
    },
    {
        "city": "Ponte Nova",
        "state": "MG",
        "district": "Nova Almeida",
        "street": "Rua José de Almeida Costa",
        "zipcode": "35430-113"
    },
    {
        "city": "Ponte Nova",
        "state": "MG",
        "district": "Sagrado Coração de Jesus",
        "street": "Rua José Saraiva Filho",
        "zipcode": "35430-105"
    },
    {
        "city": "Ponte Nova",
        "state": "MG",
        "district": "Sagrado Coração de Jesus",
        "street": "Rua José Soares Filho",
        "zipcode": "35430-106"
    },
    {
        "city": "Ponte Nova",
        "state": "MG",
        "district": "Nova Almeida",
        "street": "Rua José Zaidan",
        "zipcode": "35430-112"
    },
    {
        "city": "Ponte Nova",
        "state": "MG",
        "district": "Triângulo Novo",
        "street": "Rua Maranhão",
        "zipcode": "35430-129"
    },
    {
        "city": "Ponte Nova",
        "state": "MG",
        "district": "Vila Oliveira",
        "street": "Rua Nair Augusta Pires",
        "zipcode": "35430-124"
    },
    {
        "city": "Ponte Nova",
        "state": "MG",
        "district": "Triângulo",
        "street": "Rua Ordalino Rodrigues",
        "zipcode": "35430-148"
    },
    {
        "city": "Ponte Nova",
        "state": "MG",
        "district": "Nova Almeida",
        "street": "Rua Padre Alcides Lanna",
        "zipcode": "35430-115"
    },
    {
        "city": "Ponte Nova",
        "state": "MG",
        "district": "Esplanada",
        "street": "Rua Padre Rolim",
        "zipcode": "35430-080"
    },
    {
        "city": "Ponte Nova",
        "state": "MG",
        "district": "Vila Oliveira",
        "street": "Rua Pará",
        "zipcode": "35430-122"
    },
    {
        "city": "Ponte Nova",
        "state": "MG",
        "district": "Ipanema",
        "street": "Rua Paulo Afonso",
        "zipcode": "35430-094"
    },
    {
        "city": "Ponte Nova",
        "state": "MG",
        "district": "Triângulo",
        "street": "Rua Pedro Crivellari",
        "zipcode": "35430-159"
    },
    {
        "city": "Ponte Nova",
        "state": "MG",
        "district": "Triângulo",
        "street": "Rua R",
        "zipcode": "35430-142"
    },
    {
        "city": "Ponte Nova",
        "state": "MG",
        "district": "Triângulo",
        "street": "Praça Raimundo Afonso",
        "zipcode": "35430-145"
    },
    {
        "city": "Ponte Nova",
        "state": "MG",
        "district": "Triângulo Novo",
        "street": "Travessa Sebastião Raimundo da Costa",
        "zipcode": "35430-136"
    },
    {
        "city": "Ponte Nova",
        "state": "MG",
        "district": "Esplanada",
        "street": "Rua Thomaz Antônio Gonzaga",
        "zipcode": "35430-079"
    },
    {
        "city": "Ponte Nova",
        "state": "MG",
        "district": "Santa Teresa",
        "street": "Rua Violeta",
        "zipcode": "35430-088"
    },
    {
        "city": "Ponte Nova",
        "state": "MG",
        "district": "Triângulo",
        "street": "Rua Virgílio José de Almeida",
        "zipcode": "35430-160"
    },
    {
        "city": "Ponte Nova",
        "state": "MG",
        "district": "Triângulo Novo",
        "street": "Rua Waldemar Gomes da Silva",
        "zipcode": "35430-127"
    },
    {
        "city": "Ponte Nova",
        "state": "MG",
        "district": "Triângulo",
        "street": "Avenida João Batista Viggiano",
        "zipcode": "35430-140"
    },
    {
        "city": "Ponte Nova",
        "state": "MG",
        "district": "Santa Teresa",
        "street": "Rua Lírio",
        "zipcode": "35430-092"
    },
    {
        "city": "Ponte Nova",
        "state": "MG",
        "district": "Nova Almeida",
        "street": "Rua José Pinto Vieira",
        "zipcode": "35430-116"
    },
    {
        "city": "Ponte Nova",
        "state": "MG",
        "district": "Fátima",
        "street": "Rua Antero Dias Damasceno",
        "zipcode": "35430-255"
    },
    {
        "city": "Ponte Nova",
        "state": "MG",
        "district": "Palmeiras",
        "street": "Travessa Antônio Gomes de Queiroz",
        "zipcode": "35430-230"
    },
    {
        "city": "Ponte Nova",
        "state": "MG",
        "district": "Fátima",
        "street": "Rua Armindo Pereira",
        "zipcode": "35430-266"
    },
    {
        "city": "Ponte Nova",
        "state": "MG",
        "district": "Palmeiras",
        "street": "Rua Assad Zaidan",
        "zipcode": "35430-234"
    },
    {
        "city": "Ponte Nova",
        "state": "MG",
        "district": "Fátima",
        "street": "Rua Camilo Gomes da Silva",
        "zipcode": "35430-258"
    },
    {
        "city": "Ponte Nova",
        "state": "MG",
        "district": "Santo Antônio I",
        "street": "Rua Carangola",
        "zipcode": "35430-200"
    },
    {
        "city": "Ponte Nova",
        "state": "MG",
        "district": "Guarapiranga",
        "street": "Rua Carlos Marques",
        "zipcode": "35430-206"
    },
    {
        "city": "Ponte Nova",
        "state": "MG",
        "district": "Alto da Boa Vista",
        "street": "Rua Cid Gomes de Oliveira",
        "zipcode": "35430-245"
    },
    {
        "city": "Ponte Nova",
        "state": "MG",
        "district": "Palmeiras",
        "street": "Praça Cid Martins Soares",
        "zipcode": "35430-227"
    },
    {
        "city": "Ponte Nova",
        "state": "MG",
        "district": "Santo Antônio I",
        "street": "Rua do Contorno",
        "zipcode": "35430-196"
    },
    {
        "city": "Ponte Nova",
        "state": "MG",
        "district": "Nossa Senhora Auxiliadora",
        "street": "Praça Dom Bosco",
        "zipcode": "35430-224"
    },
    {
        "city": "Ponte Nova",
        "state": "MG",
        "district": "Guarapiranga",
        "street": "Rua Doutor Antônio Gonçalves Lanna",
        "zipcode": "35430-208"
    },
    {
        "city": "Ponte Nova",
        "state": "MG",
        "district": "Guarapiranga",
        "street": "Avenida Doutor José Grossi",
        "zipcode": "35430-213"
    },
    {
        "city": "Ponte Nova",
        "state": "MG",
        "district": "Palmeiras",
        "street": "Avenida Doutor José Mariano",
        "zipcode": "35430-228"
    },
    {
        "city": "Ponte Nova",
        "state": "MG",
        "district": "Guarapiranga",
        "street": "Rua Doutor José Sette de Barros",
        "zipcode": "35430-219"
    },
    {
        "city": "Ponte Nova",
        "state": "MG",
        "district": "Palmeiras",
        "street": "Rua Doutor José Vieira Martins",
        "zipcode": "35430-233"
    },
    {
        "city": "Ponte Nova",
        "state": "MG",
        "district": "Guarapiranga",
        "street": "Rua Doutor Pedro Palermo",
        "zipcode": "35430-209"
    },
    {
        "city": "Ponte Nova",
        "state": "MG",
        "district": "Guarapiranga",
        "street": "Rua Farmacêutico Antônio Vieira Duarte Lanna",
        "zipcode": "35430-205"
    },
    {
        "city": "Ponte Nova",
        "state": "MG",
        "district": "Guarapiranga",
        "street": "Rua Hugo Saporetti",
        "zipcode": "35430-202"
    },
    {
        "city": "Ponte Nova",
        "state": "MG",
        "district": "São Geraldo",
        "street": "Rua Icaraí",
        "zipcode": "35430-182"
    },
    {
        "city": "Ponte Nova",
        "state": "MG",
        "district": "São Geraldo",
        "street": "Rua Ipanema",
        "zipcode": "35430-181"
    },
    {
        "city": "Ponte Nova",
        "state": "MG",
        "district": "Progresso",
        "street": "Rua Jaime Pereira",
        "zipcode": "35430-186"
    },
    {
        "city": "Ponte Nova",
        "state": "MG",
        "district": "Jardim",
        "street": "Rua João Mayrink",
        "zipcode": "35430-242"
    },
    {
        "city": "Ponte Nova",
        "state": "MG",
        "district": "Bom Pastor",
        "street": "Rua João Salomão",
        "zipcode": "35430-163"
    },
    {
        "city": "Ponte Nova",
        "state": "MG",
        "district": "São Judas Tadeu",
        "street": "Rua José André de Almeida",
        "zipcode": "35430-173"
    },
    {
        "city": "Ponte Nova",
        "state": "MG",
        "district": "Bom Pastor",
        "street": "Rua José Elias Salomão",
        "zipcode": "35430-165"
    },
    {
        "city": "Ponte Nova",
        "state": "MG",
        "district": "Santo Antônio I",
        "street": "Rua José Franscisquini",
        "zipcode": "35430-192"
    },
    {
        "city": "Ponte Nova",
        "state": "MG",
        "district": "Jardim",
        "street": "Rua José Geraldo de Souza",
        "zipcode": "35430-238"
    },
    {
        "city": "Ponte Nova",
        "state": "MG",
        "district": "Progresso",
        "street": "Rua José Paulo dos Santos",
        "zipcode": "35430-188"
    },
    {
        "city": "Ponte Nova",
        "state": "MG",
        "district": "Bom Pastor",
        "street": "Rua Juventino Domenici",
        "zipcode": "35430-167"
    },
    {
        "city": "Ponte Nova",
        "state": "MG",
        "district": "São Judas Tadeu",
        "street": "Rua Marcos Rodrigues Pereira",
        "zipcode": "35430-170"
    },
    {
        "city": "Ponte Nova",
        "state": "MG",
        "district": "Palmeiras",
        "street": "Rua Marechal Deodoro",
        "zipcode": "35430-231"
    },
    {
        "city": "Ponte Nova",
        "state": "MG",
        "district": "Santo Antônio I",
        "street": "Rua Meridional",
        "zipcode": "35430-197"
    },
    {
        "city": "Ponte Nova",
        "state": "MG",
        "district": "Alto da Boa Vista",
        "street": "Rua Miguel Martins Chaves",
        "zipcode": "35430-246"
    },
    {
        "city": "Ponte Nova",
        "state": "MG",
        "district": "Guarapiranga",
        "street": "Avenida Nossa Senhora das Graças",
        "zipcode": "35430-214"
    },
    {
        "city": "Ponte Nova",
        "state": "MG",
        "district": "Jardim",
        "street": "Rua Padre Antônio Pinto",
        "zipcode": "35430-239"
    },
    {
        "city": "Ponte Nova",
        "state": "MG",
        "district": "São Geraldo",
        "street": "Rua Paraguai",
        "zipcode": "35430-177"
    },
    {
        "city": "Ponte Nova",
        "state": "MG",
        "district": "Fátima",
        "street": "Rua Paulo Gomes",
        "zipcode": "35430-256"
    },
    {
        "city": "Ponte Nova",
        "state": "MG",
        "district": "Guarapiranga",
        "street": "Rua Professor Campolina",
        "zipcode": "35430-201"
    },
    {
        "city": "Ponte Nova",
        "state": "MG",
        "district": "Guarapiranga",
        "street": "Rua Professor Raimundo Martiniano Ferreira",
        "zipcode": "35430-218"
    },
    {
        "city": "Ponte Nova",
        "state": "MG",
        "district": "São Judas Tadeu",
        "street": "Rua Professora Maria José de Abreu",
        "zipcode": "35430-174"
    },
    {
        "city": "Ponte Nova",
        "state": "MG",
        "district": "Progresso",
        "street": "Rua Quatro",
        "zipcode": "35430-184"
    },
    {
        "city": "Ponte Nova",
        "state": "MG",
        "district": "Fátima",
        "street": "Rua Santa Efigênia",
        "zipcode": "35430-253"
    },
    {
        "city": "Ponte Nova",
        "state": "MG",
        "district": "Nossa Senhora Auxiliadora",
        "street": "Rua São Domingos Sávio",
        "zipcode": "35430-223"
    },
    {
        "city": "Ponte Nova",
        "state": "MG",
        "district": "Guarapiranga",
        "street": "Rua Sebastião Francisco de Oliveira",
        "zipcode": "35430-215"
    },
    {
        "city": "Ponte Nova",
        "state": "MG",
        "district": "Santo Antônio I",
        "street": "Rua Teófilo Nascimento",
        "zipcode": "35430-193"
    },
    {
        "city": "Ponte Nova",
        "state": "MG",
        "district": "Fátima",
        "street": "Rua Tupi",
        "zipcode": "35430-250"
    },
    {
        "city": "Ponte Nova",
        "state": "MG",
        "district": "São Geraldo",
        "street": "Rua Uruguai",
        "zipcode": "35430-178"
    },
    {
        "city": "Ponte Nova",
        "state": "MG",
        "district": "Fátima",
        "street": "Rua Armando de Freitas",
        "zipcode": "35430-262"
    },
    {
        "city": "Ponte Nova",
        "state": "MG",
        "district": "Fátima",
        "street": "Rua Coronel Emílio Martins",
        "zipcode": "35430-249"
    },
    {
        "city": "Ponte Nova",
        "state": "MG",
        "district": "Alto da Boa Vista",
        "street": "Rua Senador Fernandes Torres",
        "zipcode": "35430-247"
    },
    {
        "city": "Ponte Nova",
        "state": "MG",
        "district": "Bom Pastor",
        "street": "Rua Jared Pires",
        "zipcode": "35430-168"
    },
    {
        "city": "Ponte Nova",
        "state": "MG",
        "district": "Rasa",
        "street": "Rua Nazaré",
        "zipcode": "35430-360"
    },
    {
        "city": "Ponte Nova",
        "state": "MG",
        "district": "São Geraldo",
        "street": "Rua Mário Ferreira da Silva",
        "zipcode": "35430-810"
    },
    {
        "city": "Ponte Nova",
        "state": "MG",
        "district": "Rasa",
        "street": "Rua Jerusalém",
        "zipcode": "35430-400"
    },
    {
        "city": "Ponte Nova",
        "state": "MG",
        "district": "Rasa",
        "street": "Vila Nossa Senhora Aparecida",
        "zipcode": "35430-390"
    },
    {
        "city": "Ponte Nova",
        "state": "MG",
        "district": "Palmeiras",
        "street": "Rua Padre Nicolau Caríssimo",
        "zipcode": "35430-845"
    },
    {
        "city": "Ponte Nova",
        "state": "MG",
        "district": "São Pedro",
        "street": "Travessa Rio Negro",
        "zipcode": "35430-551"
    },
    {
        "city": "Ponte Nova",
        "state": "MG",
        "district": "Santo Antônio I",
        "street": "Rua Rio Senna",
        "zipcode": "35430-507"
    },
    {
        "city": "Ponte Nova",
        "state": "MG",
        "district": "Triângulo",
        "street": "Rua Nova",
        "zipcode": "35430-575"
    },
    {
        "city": "Ponte Nova",
        "state": "MG",
        "district": "Triângulo",
        "street": "Rua Afonso Vasconcelos",
        "zipcode": "35430-577"
    },
    {
        "city": "Ponte Nova",
        "state": "MG",
        "district": "Progresso",
        "street": "Rua Avelino Ribeiro",
        "zipcode": "35430-336"
    },
    {
        "city": "Ponte Nova",
        "state": "MG",
        "district": "Paraíso",
        "street": "Rua F",
        "zipcode": "35430-631"
    },
    {
        "city": "Ponte Nova",
        "state": "MG",
        "district": "Vale Verde",
        "street": "Rua Afonso Senna",
        "zipcode": "35430-286"
    },
    {
        "city": "Ponte Nova",
        "state": "MG",
        "district": "São Pedro",
        "street": "Avenida Amazonas",
        "zipcode": "35430-273"
    },
    {
        "city": "Ponte Nova",
        "state": "MG",
        "district": "São Pedro",
        "street": "Travessa Amazonas",
        "zipcode": "35430-274"
    },
    {
        "city": "Ponte Nova",
        "state": "MG",
        "district": "Paraíso",
        "street": "Rua Ângelo da Mata Andrade",
        "zipcode": "35430-324"
    },
    {
        "city": "Ponte Nova",
        "state": "MG",
        "district": "Rasa",
        "street": "Rua Antártica",
        "zipcode": "35430-307"
    },
    {
        "city": "Ponte Nova",
        "state": "MG",
        "district": "Fátima",
        "street": "Travessa Antônio Leôncio Carneiro",
        "zipcode": "35430-271"
    },
    {
        "city": "Ponte Nova",
        "state": "MG",
        "district": "São Geraldo",
        "street": "Rua Antônio Teixeira",
        "zipcode": "35430-318"
    },
    {
        "city": "Ponte Nova",
        "state": "MG",
        "district": "Rasa",
        "street": "Rua Atlântida",
        "zipcode": "35430-308"
    },
    {
        "city": "Ponte Nova",
        "state": "MG",
        "district": "Vale Verde",
        "street": "Rua Augusto Rodrigues Seabra",
        "zipcode": "35430-295"
    },
    {
        "city": "Ponte Nova",
        "state": "MG",
        "district": "Triângulo",
        "street": "Rua Beira Linha",
        "zipcode": "35430-321"
    },
    {
        "city": "Ponte Nova",
        "state": "MG",
        "district": "Triângulo",
        "street": "Rua Cipriana de Jesus",
        "zipcode": "35430-146"
    },
    {
        "city": "Ponte Nova",
        "state": "MG",
        "district": "Vale Verde",
        "street": "Rua Coronel Soares",
        "zipcode": "35430-288"
    },
    {
        "city": "Ponte Nova",
        "state": "MG",
        "district": "Novo Horizonte",
        "street": "Rua Dalvo de Oliveira Benfeito",
        "zipcode": "35430-299"
    },
    {
        "city": "Ponte Nova",
        "state": "MG",
        "district": "Paraíso",
        "street": "Rua Doutor Mário Rodrigues Seabra",
        "zipcode": "35430-302"
    },
    {
        "city": "Ponte Nova",
        "state": "MG",
        "district": "Nova Almeida",
        "street": "Rua Doutor Pedro Soares Moura",
        "zipcode": "35430-118"
    },
    {
        "city": "Ponte Nova",
        "state": "MG",
        "district": "Fátima",
        "street": "Rua E",
        "zipcode": "35430-268"
    },
    {
        "city": "Ponte Nova",
        "state": "MG",
        "district": "Rasa",
        "street": "Rua Filipinas",
        "zipcode": "35430-319"
    },
    {
        "city": "Ponte Nova",
        "state": "MG",
        "district": "Novo Horizonte",
        "street": "Rua Francisco Caríssimo",
        "zipcode": "35430-297"
    },
    {
        "city": "Ponte Nova",
        "state": "MG",
        "district": "Fátima",
        "street": "Rua Guarani",
        "zipcode": "35430-267"
    },
    {
        "city": "Ponte Nova",
        "state": "MG",
        "district": "Palmeiras",
        "street": "Rua Itatiba",
        "zipcode": "35430-332"
    },
    {
        "city": "Ponte Nova",
        "state": "MG",
        "district": "Vale Verde",
        "street": "Rua João Messias",
        "zipcode": "35430-293"
    },
    {
        "city": "Ponte Nova",
        "state": "MG",
        "district": "Rasa",
        "street": "Rua Joaquim Machado Guimarães",
        "zipcode": "35430-304"
    },
    {
        "city": "Ponte Nova",
        "state": "MG",
        "district": "Novo Horizonte",
        "street": "Rua José Godoy",
        "zipcode": "35430-298"
    },
    {
        "city": "Ponte Nova",
        "state": "MG",
        "district": "Fátima",
        "street": "Rua Luiz Ottoni de Oliveira",
        "zipcode": "35430-254"
    },
    {
        "city": "Ponte Nova",
        "state": "MG",
        "district": "São Pedro",
        "street": "Rua Manoel Fonseca",
        "zipcode": "35430-283"
    },
    {
        "city": "Ponte Nova",
        "state": "MG",
        "district": "Vale Verde",
        "street": "Rua Manoel Pereira Rodrigues",
        "zipcode": "35430-289"
    },
    {
        "city": "Ponte Nova",
        "state": "MG",
        "district": "Centro",
        "street": "Rodovia MG",
        "zipcode": "35430-331"
    },
    {
        "city": "Ponte Nova",
        "state": "MG",
        "district": "Sagrado Coração de Jesus",
        "street": "Rua Santana Fonseca de Castro",
        "zipcode": "35430-100"
    },
    {
        "city": "Ponte Nova",
        "state": "MG",
        "district": "São Pedro",
        "street": "Rua Tapajós",
        "zipcode": "35430-280"
    },
    {
        "city": "Ponte Nova",
        "state": "MG",
        "district": "São Pedro",
        "street": "Rua Trombetas",
        "zipcode": "35430-276"
    },
    {
        "city": "Ponte Nova",
        "state": "MG",
        "district": "São Pedro",
        "street": "Rua Xingu",
        "zipcode": "35430-277"
    },
    {
        "city": "Ponte Nova",
        "state": "MG",
        "district": "São Judas Tadeu",
        "street": "Rua Doutor Ovídio Duarte Nunes",
        "zipcode": "35430-169"
    },
    {
        "city": "Ponte Nova",
        "state": "MG",
        "district": "São Pedro",
        "street": "Rua Gustavo Julião",
        "zipcode": "35430-281"
    },
    {
        "city": "Ponte Nova",
        "state": "MG",
        "district": "Vale Verde",
        "street": "Rua Zizita Rolla",
        "zipcode": "35430-292"
    },
    {
        "city": "Ponte Nova",
        "state": "MG",
        "district": "Cidade Nova",
        "street": "Rua Aquários",
        "zipcode": "35431-105"
    },
    {
        "city": "Ponte Nova",
        "state": "MG",
        "district": "Cidade Nova",
        "street": "Avenida Orion",
        "zipcode": "35431-115"
    },
    {
        "city": "Ponte Nova",
        "state": "MG",
        "district": "Cidade Nova",
        "street": "Rua Sagitários",
        "zipcode": "35431-120"
    },
    {
        "city": "Ponte Nova",
        "state": "MG",
        "district": "Rasa",
        "street": "Rua Atlândida",
        "zipcode": "35430-350"
    },
    {
        "city": "Ponte Nova",
        "state": "MG",
        "district": "Rasa",
        "street": "Rua Rio Jordão",
        "zipcode": "35430-365"
    },
    {
        "city": "Ponte Nova",
        "state": "MG",
        "district": "Rasa",
        "street": "Rua do Campo",
        "zipcode": "35430-385"
    },
    {
        "city": "Ponte Nova",
        "state": "MG",
        "district": "Centro",
        "street": "Rua Bonifácio Guimarães Sobrinho",
        "zipcode": "35430-700"
    },
    {
        "city": "Ponte Nova",
        "state": "MG",
        "district": "Nova Almeida",
        "street": "Travessa Armando Fajardo",
        "zipcode": "35430-755"
    },
    {
        "city": "Ponte Nova",
        "state": "MG",
        "district": "Novo Horizonte",
        "street": "Rua Manoel Mayrink Neto",
        "zipcode": "35430-770"
    },
    {
        "city": "Ponte Nova",
        "state": "MG",
        "district": "São Geraldo",
        "street": "Rua Renato Barçante",
        "zipcode": "35430-800"
    },
    {
        "city": "Ponte Nova",
        "state": "MG",
        "district": "São Judas Tadeu",
        "street": "Travessa João Paulo II",
        "zipcode": "35430-827"
    },
    {
        "city": "Ponte Nova",
        "state": "MG",
        "district": "Nova Copacabana",
        "street": "Rua Sílvio de Almeida Costa",
        "zipcode": "35431-365"
    },
    {
        "city": "Ponte Nova",
        "state": "MG",
        "district": "Nova Copacabana",
        "street": "Rua Paulo Moreira Brandão",
        "zipcode": "35431-359"
    },
    {
        "city": "Ponte Nova",
        "state": "MG",
        "district": "Centro",
        "street": "Rua Alexandre Felício da Fonseca",
        "zipcode": "35430-022"
    },
    {
        "city": "Ponte Nova",
        "state": "MG",
        "district": "Triângulo",
        "street": "Rua Aprígio Tavares",
        "zipcode": "35430-151"
    },
    {
        "city": "Ponte Nova",
        "state": "MG",
        "district": "Triângulo Novo",
        "street": "Rua Bahia",
        "zipcode": "35430-134"
    },
    {
        "city": "Ponte Nova",
        "state": "MG",
        "district": "Centro",
        "street": "Rua Benedito Valadares",
        "zipcode": "35430-012"
    },
    {
        "city": "Ponte Nova",
        "state": "MG",
        "district": "Santa Teresa",
        "street": "Rua Cravo",
        "zipcode": "35430-091"
    },
    {
        "city": "Ponte Nova",
        "state": "MG",
        "district": "Centro",
        "street": "Avenida Custódio Silva",
        "zipcode": "35430-026"
    },
    {
        "city": "Ponte Nova",
        "state": "MG",
        "district": "Sumaré",
        "street": "Rua dos Distritos",
        "zipcode": "35430-044"
    },
    {
        "city": "Ponte Nova",
        "state": "MG",
        "district": "Palmeiras",
        "street": "Avenida Dom Bosco",
        "zipcode": "35430-232"
    },
    {
        "city": "Ponte Nova",
        "state": "MG",
        "district": "Nova Almeida",
        "street": "Rua Doutor Aristides Mendes Lins",
        "zipcode": "35430-114"
    },
    {
        "city": "Ponte Nova",
        "state": "MG",
        "district": "Triângulo",
        "street": "Rua Doutor Jarbas Sertório de Carvalho",
        "zipcode": "35430-156"
    },
    {
        "city": "Ponte Nova",
        "state": "MG",
        "district": "Sagrado Coração de Jesus",
        "street": "Praça Doutor João Martins de Oliveira",
        "zipcode": "35430-103"
    },
    {
        "city": "Ponte Nova",
        "state": "MG",
        "district": "Triângulo",
        "street": "Rua Eleotério de Oliveira",
        "zipcode": "35430-161"
    },
    {
        "city": "Ponte Nova",
        "state": "MG",
        "district": "Santo Antônio II",
        "street": "Praça Everardo Bráulio",
        "zipcode": "35430-064"
    },
    {
        "city": "Ponte Nova",
        "state": "MG",
        "district": "Esplanada",
        "street": "Travessa dos Ferroviários",
        "zipcode": "35430-073"
    },
    {
        "city": "Ponte Nova",
        "state": "MG",
        "district": "Palmeiras",
        "street": "Avenida Francisco Vieira Martins",
        "zipcode": "35430-225"
    },
    {
        "city": "Ponte Nova",
        "state": "MG",
        "district": "Triângulo",
        "street": "Rua Independência",
        "zipcode": "35430-138"
    },
    {
        "city": "Ponte Nova",
        "state": "MG",
        "district": "Triângulo Novo",
        "street": "Rua João Alves de Oliveira",
        "zipcode": "35430-125"
    },
    {
        "city": "Ponte Nova",
        "state": "MG",
        "district": "Centro",
        "street": "Praça José Jotta da Luz",
        "zipcode": "35430-027"
    },
    {
        "city": "Ponte Nova",
        "state": "MG",
        "district": "Triângulo",
        "street": "Rua José Pedro Dias",
        "zipcode": "35430-147"
    },
    {
        "city": "Ponte Nova",
        "state": "MG",
        "district": "Palmeiras",
        "street": "Rua Luiz Carlos Prestes",
        "zipcode": "35430-236"
    },
    {
        "city": "Ponte Nova",
        "state": "MG",
        "district": "Progresso",
        "street": "Rua Luiz Correa Lopes",
        "zipcode": "35430-189"
    },
    {
        "city": "Ponte Nova",
        "state": "MG",
        "district": "Copacabana",
        "street": "Rua Marcos Giardini",
        "zipcode": "35430-053"
    },
    {
        "city": "Ponte Nova",
        "state": "MG",
        "district": "São Geraldo",
        "street": "Rua Margem da Linha",
        "zipcode": "35430-183"
    },
    {
        "city": "Ponte Nova",
        "state": "MG",
        "district": "Santo Antônio I",
        "street": "Rua Mário Tavares",
        "zipcode": "35430-194"
    },
    {
        "city": "Ponte Nova",
        "state": "MG",
        "district": "Santo Antônio I",
        "street": "Travessa Olírico Jacob",
        "zipcode": "35430-198"
    },
    {
        "city": "Ponte Nova",
        "state": "MG",
        "district": "Vila Oliveira",
        "street": "Rua Pedro Nunes Pinheiro",
        "zipcode": "35430-119"
    },
    {
        "city": "Ponte Nova",
        "state": "MG",
        "district": "Guarapiranga",
        "street": "Rua Professora Inhá Torres",
        "zipcode": "35430-216"
    },
    {
        "city": "Ponte Nova",
        "state": "MG",
        "district": "Sumaré",
        "street": "Rua dos Professores",
        "zipcode": "35430-040"
    },
    {
        "city": "Ponte Nova",
        "state": "MG",
        "district": "Triângulo Novo",
        "street": "Rua Rio Grande do Norte",
        "zipcode": "35430-130"
    },
    {
        "city": "Ponte Nova",
        "state": "MG",
        "district": "São Pedro",
        "street": "Rua Solidária",
        "zipcode": "35430-555"
    },
    {
        "city": "Ponte Nova",
        "state": "MG",
        "district": "Guarapiranga",
        "street": "Rua José Otaviano Vieira Mosqueira (Rec Pedras)",
        "zipcode": "35430-593"
    },
    {
        "city": "Ponte Nova",
        "state": "MG",
        "district": "Fortaleza",
        "street": "Rua Francisco Dias Filho",
        "zipcode": "35430-543"
    },
    {
        "city": "Ponte Nova",
        "state": "MG",
        "district": "Vale do Ipê",
        "street": "Rua Francisco Pereira Alvarenga",
        "zipcode": "35430-455"
    },
    {
        "city": "Ponte Nova",
        "state": "MG",
        "district": "Centro",
        "street": "Avenida Santa Cruz",
        "zipcode": "35430-031"
    },
    {
        "city": "Ponte Nova",
        "state": "MG",
        "district": "Santo Antônio II",
        "street": "Rua São Sebastião",
        "zipcode": "35430-067"
    },
    {
        "city": "Ponte Nova",
        "state": "MG",
        "district": "Esplanada",
        "street": "Travessa Tiradentes",
        "zipcode": "35430-078"
    },
    {
        "city": "Ponte Nova",
        "state": "MG",
        "district": "São Pedro",
        "street": "Rua Tocantins",
        "zipcode": "35430-279"
    },
    {
        "city": "Ponte Nova",
        "state": "MG",
        "district": "São Geraldo",
        "street": "Avenida Um",
        "zipcode": "35430-180"
    },
    {
        "city": "Ponte Nova",
        "state": "MG",
        "district": "Sagrado Coração de Jesus",
        "street": "Avenida Vereador João Evangelista de Almeida",
        "zipcode": "35430-096"
    },
    {
        "city": "Ponte Nova",
        "state": "MG",
        "district": "Sagrado Coração de Jesus",
        "street": "Avenida Vereador João Evangelista de Almeida",
        "zipcode": "35430-095"
    },
    {
        "city": "Ponte Nova",
        "state": "MG",
        "district": "Guarapiranga",
        "street": "Rua Anselmo Vasconcelos",
        "zipcode": "35430-207"
    },
    {
        "city": "Ponte Nova",
        "state": "MG",
        "district": "São Judas Tadeu",
        "street": "Rua José Maciel",
        "zipcode": "35430-171"
    },
    {
        "city": "Ponte Nova",
        "state": "MG",
        "district": "Cidade Nova",
        "street": "Rua Geraldo Magela Guimarães",
        "zipcode": "35431-135"
    },
    {
        "city": "Ponte Nova",
        "state": "MG",
        "district": "Nova Copacabana",
        "street": "Rua Wallace Rodrigues",
        "zipcode": "35431-310"
    },
    {
        "city": "Ponte Nova",
        "state": "MG",
        "district": "Nova Copacabana",
        "street": "Rua Renato Marinho",
        "zipcode": "35431-315"
    },
    {
        "city": "Ponte Nova",
        "state": "MG",
        "district": "Nova Copacabana",
        "street": "Rua Afonso Linhares Ribeiro",
        "zipcode": "35431-330"
    },
    {
        "city": "Ponte Nova",
        "state": "MG",
        "district": "Nova Copacabana",
        "street": "Rua Geraldo Isabel",
        "zipcode": "35431-335"
    },
    {
        "city": "Ponte Nova",
        "state": "MG",
        "district": "Ana Florência",
        "street": "Rua do Túnel",
        "zipcode": "35432-075"
    },
    {
        "city": "Ponte Nova",
        "state": "MG",
        "district": "Ana Florência",
        "street": "Rua Paraíba",
        "zipcode": "35432-080"
    },
    {
        "city": "Ponte Nova",
        "state": "MG",
        "district": "Cidade Nova",
        "street": "Rua Capricórnio",
        "zipcode": "35431-130"
    },
    {
        "city": "Ponte Nova",
        "state": "MG",
        "district": "Nova Copacabana",
        "street": "Rua Antônio Gomes",
        "zipcode": "35431-341"
    },
    {
        "city": "Ponte Nova",
        "state": "MG",
        "district": "São Geraldo",
        "street": "Rua João do Monte Medeiros",
        "zipcode": "35430-804"
    },
    {
        "city": "Ponte Nova",
        "state": "MG",
        "district": "Triângulo",
        "street": "Rua Caetano Alves da Silva",
        "zipcode": "35430-571"
    },
    {
        "city": "Ponte Nova",
        "state": "MG",
        "district": "Ana Florência",
        "street": "Rodovia MG",
        "zipcode": "35432-078"
    },
    {
        "city": "Ponte Nova",
        "state": "MG",
        "district": "Centro",
        "street": "Avenida Caetano Marinho",
        "zipcode": "35430-970"
    },
    {
        "city": "Ponte Nova",
        "state": "MG",
        "district": "Centro",
        "street": "Rua Mário Fontoura",
        "zipcode": "35430-971"
    },
    {
        "city": "Ponte Nova",
        "state": "MG",
        "district": "Centro",
        "street": "Rua Euclides da Cunha",
        "zipcode": "35430-973"
    },
    {
        "city": "Ponte Nova",
        "state": "MG",
        "district": "Vale Verde",
        "street": "Rua Amaury Rolla Senna",
        "zipcode": "35430-287"
    },
    {
        "city": "Ponte Nova",
        "state": "MG",
        "district": "Rasa",
        "street": "Rua Claudino Santos",
        "zipcode": "35430-305"
    },
    {
        "city": "Ponte Nova",
        "state": "MG",
        "district": "Rasa",
        "street": "Rua Continental",
        "zipcode": "35430-309"
    },
    {
        "city": "Ponte Nova",
        "state": "MG",
        "district": "Centro",
        "street": "Praça Doutor Ângelo Vieira Martins",
        "zipcode": "35430-035"
    },
    {
        "city": "Ponte Nova",
        "state": "MG",
        "district": "Nova Copacabana",
        "street": "Rua Maria Arlinda Pereira",
        "zipcode": "35431-353"
    },
    {
        "city": "Ponte Nova",
        "state": "MG",
        "district": "Novo Horizonte",
        "street": "Rua Edson Nogueira Gomes",
        "zipcode": "35430-296"
    },
    {
        "city": "Ponte Nova",
        "state": "MG",
        "district": "Centro",
        "street": "Rua Euclides da Cunha",
        "zipcode": "35430-033"
    },
    {
        "city": "Ponte Nova",
        "state": "MG",
        "district": "Centro",
        "street": "Praça Getúlio Vargas",
        "zipcode": "35430-002"
    },
    {
        "city": "Ponte Nova",
        "state": "MG",
        "district": "Fátima",
        "street": "Rua Guarapiranga",
        "zipcode": "35430-248"
    },
    {
        "city": "Ponte Nova",
        "state": "MG",
        "district": "Fátima",
        "street": "Rua H",
        "zipcode": "35430-270"
    },
    {
        "city": "Ponte Nova",
        "state": "MG",
        "district": "Santo Antônio II",
        "street": "Rua Idamo Iacomini",
        "zipcode": "35430-060"
    },
    {
        "city": "Ponte Nova",
        "state": "MG",
        "district": "Centro",
        "street": "Rua Inocêncio Alves Costa",
        "zipcode": "35430-023"
    },
    {
        "city": "Ponte Nova",
        "state": "MG",
        "district": "Palmeiras",
        "street": "Rua José Américo Petronilho",
        "zipcode": "35430-327"
    },
    {
        "city": "Ponte Nova",
        "state": "MG",
        "district": "Fátima",
        "street": "Rua José Pacheco Martins",
        "zipcode": "35430-261"
    },
    {
        "city": "Ponte Nova",
        "state": "MG",
        "district": "São Pedro",
        "street": "Rua José Rodrigues de Souza",
        "zipcode": "35430-282"
    },
    {
        "city": "Ponte Nova",
        "state": "MG",
        "district": "Guarapiranga",
        "street": "Rua Professor Martiniano Ferreira",
        "zipcode": "35430-333"
    },
    {
        "city": "Ponte Nova",
        "state": "MG",
        "district": "Rasa",
        "street": "Rua Rosa Maria Guimarães",
        "zipcode": "35430-313"
    },
    {
        "city": "Ponte Nova",
        "state": "MG",
        "district": "Centro",
        "street": "Praça do Rosário",
        "zipcode": "35430-009"
    },
    {
        "city": "Ponte Nova",
        "state": "MG",
        "district": "Fátima",
        "street": "Rua São José",
        "zipcode": "35430-265"
    },
    {
        "city": "Ponte Nova",
        "state": "MG",
        "district": "Fátima",
        "street": "Rua São Lourenço",
        "zipcode": "35430-257"
    },
    {
        "city": "Ponte Nova",
        "state": "MG",
        "district": "Centro",
        "street": "Rua Senador Antônio Martins",
        "zipcode": "35430-017"
    },
    {
        "city": "Ponte Nova",
        "state": "MG",
        "district": "Vila Alvarenga",
        "street": "Rua Sergipe",
        "zipcode": "35430-046"
    },
    {
        "city": "Ponte Nova",
        "state": "MG",
        "district": "Jardim",
        "street": "Rua Sinésio Moreira dos Santos",
        "zipcode": "35430-240"
    },
    {
        "city": "Ponte Nova",
        "state": "MG",
        "district": "Centro",
        "street": "Rua Vigário Miguel Chaves",
        "zipcode": "35430-013"
    },
    {
        "city": "Ponte Nova",
        "state": "MG",
        "district": "São Pedro",
        "street": "Rua Rio Negro",
        "zipcode": "35430-278"
    },
    {
        "city": "Ponte Nova",
        "state": "MG",
        "district": "Sumaré",
        "street": "Rua dos Vereadores",
        "zipcode": "35430-039"
    },
    {
        "city": "Ponte Nova",
        "state": "MG",
        "district": "Santo Antônio I",
        "street": "Rua Francisco Abrantes Fortuna",
        "zipcode": "35430-323"
    },
    {
        "city": "Ponte Nova",
        "state": "MG",
        "district": "Nova Copacabana",
        "street": "Rua Professor Marçal Antônio Coelho",
        "zipcode": "35431-351"
    },
    {
        "city": "Ponte Nova",
        "state": "MG",
        "district": "Nova Copacabana",
        "street": "Rua Ruth Martins Marinho",
        "zipcode": "35431-363"
    },
    {
        "city": "Ponte Nova",
        "state": "MG",
        "district": "Nova Copacabana",
        "street": "Rua Afonso Lopes Cordeiro",
        "zipcode": "35431-339"
    },
    {
        "city": "Ponte Nova",
        "state": "MG",
        "district": "São Geraldo",
        "street": "Rua José Mendes",
        "zipcode": "35430-813"
    },
    {
        "city": "Ponte Nova",
        "state": "MG",
        "district": "Centro",
        "street": "Rua Major Soares",
        "zipcode": "35430-016"
    },
    {
        "city": "Ponte Nova",
        "state": "MG",
        "district": "Cidade Nova",
        "street": "Travessa Gêmeos",
        "zipcode": "35431-125"
    },
    {
        "city": "Ponte Nova",
        "state": "MG",
        "district": "Ana Florência",
        "street": "Rua Orlando Geraldo",
        "zipcode": "35432-015"
    },
    {
        "city": "Ponte Nova",
        "state": "MG",
        "district": "Ana Florência",
        "street": "Avenida José Martinho César",
        "zipcode": "35432-020"
    },
    {
        "city": "Ponte Nova",
        "state": "MG",
        "district": "Ana Florência",
        "street": "Rua Padaria",
        "zipcode": "35432-045"
    },
    {
        "city": "Ponte Nova",
        "state": "MG",
        "district": "Rasa",
        "street": "Rua Sargaço",
        "zipcode": "35430-340"
    },
    {
        "city": "Ponte Nova",
        "state": "MG",
        "district": "Rasa",
        "street": "Rua Atlântica",
        "zipcode": "35430-345"
    },
    {
        "city": "Ponte Nova",
        "state": "MG",
        "district": "Rasa",
        "street": "Travessa Custódio Martins Guimarães",
        "zipcode": "35430-375"
    },
    {
        "city": "Ponte Nova",
        "state": "MG",
        "district": "Santo Antônio I",
        "street": "Rua Rio Doce",
        "zipcode": "35430-505"
    },
    {
        "city": "Ponte Nova",
        "state": "MG",
        "district": "Vila Oliveira",
        "street": "Rua Francisco Linhares Ribeiro",
        "zipcode": "35430-760"
    },
    {
        "city": "Ponte Nova",
        "state": "MG",
        "district": "Vale Verde",
        "street": "Rua Achiles Monteiro de Resende",
        "zipcode": "35430-285"
    },
    {
        "city": "Ponte Nova",
        "state": "MG",
        "district": "Triângulo Novo",
        "street": "Rua Alagoas",
        "zipcode": "35430-133"
    },
    {
        "city": "Ponte Nova",
        "state": "MG",
        "district": "Guarapiranga",
        "street": "Rua Aldo Aviani",
        "zipcode": "35430-203"
    },
    {
        "city": "Ponte Nova",
        "state": "MG",
        "district": "Esplanada",
        "street": "Rua Alvarenga Peixoto",
        "zipcode": "35430-076"
    },
    {
        "city": "Ponte Nova",
        "state": "MG",
        "district": "Bom Pastor",
        "street": "Rua Antônio Lanna Sette",
        "zipcode": "35430-164"
    },
    {
        "city": "Ponte Nova",
        "state": "MG",
        "district": "São Geraldo",
        "street": "Rua Argentina",
        "zipcode": "35430-179"
    },
    {
        "city": "Ponte Nova",
        "state": "MG",
        "district": "Nova Almeida",
        "street": "Rua Armando Fajardo",
        "zipcode": "35430-117"
    },
    {
        "city": "Ponte Nova",
        "state": "MG",
        "district": "Alto da Boa Vista",
        "street": "Rua Barão do Pontal",
        "zipcode": "35430-243"
    },
    {
        "city": "Ponte Nova",
        "state": "MG",
        "district": "Alto da Boa Vista",
        "street": "Rua Capitão Manoel",
        "zipcode": "35430-244"
    },
    {
        "city": "Ponte Nova",
        "state": "MG",
        "district": "Palmeiras",
        "street": "Rua Caraíbas",
        "zipcode": "35430-235"
    },
    {
        "city": "Ponte Nova",
        "state": "MG",
        "district": "Fátima",
        "street": "Rua Carlos Moreira Machado",
        "zipcode": "35430-272"
    },
    {
        "city": "Ponte Nova",
        "state": "MG",
        "district": "Progresso",
        "street": "Avenida Central",
        "zipcode": "35430-334"
    },
    {
        "city": "Ponte Nova",
        "state": "MG",
        "district": "Guarapiranga",
        "street": "Rua Cônego Trindade",
        "zipcode": "35430-204"
    },
    {
        "city": "Ponte Nova",
        "state": "MG",
        "district": "Santa Teresa",
        "street": "Rua Dália",
        "zipcode": "35430-090"
    },
    {
        "city": "Ponte Nova",
        "state": "MG",
        "district": "Sagrado Coração de Jesus",
        "street": "Rua Doutor Antônio Brant Ribeiro",
        "zipcode": "35430-101"
    },
    {
        "city": "Ponte Nova",
        "state": "MG",
        "district": "Nossa Senhora Auxiliadora",
        "street": "Rua Doutor Luiz Lasagna",
        "zipcode": "35430-221"
    },
    {
        "city": "Ponte Nova",
        "state": "MG",
        "district": "Palmeiras",
        "street": "Avenida Doutor Otávio Soares",
        "zipcode": "35430-229"
    },
    {
        "city": "Ponte Nova",
        "state": "MG",
        "district": "Nova Suíça",
        "street": "Rua Anunciata Armendano",
        "zipcode": "35431-010"
    },
    {
        "city": "Ponte Nova",
        "state": "MG",
        "district": "Ana Florência",
        "street": "Rua Augusto Mayruik",
        "zipcode": "35432-001"
    },
    {
        "city": "Ponte Nova",
        "state": "MG",
        "district": "Ana Florência",
        "street": "Rua Olaria de Cima",
        "zipcode": "35432-070"
    },
    {
        "city": "Ponte Nova",
        "state": "MG",
        "district": "Bom Pastor",
        "street": "Rua Eduardo Saporetti",
        "zipcode": "35430-166"
    },
    {
        "city": "Ponte Nova",
        "state": "MG",
        "district": "Triângulo",
        "street": "Avenida Ernesto Trivellato",
        "zipcode": "35430-141"
    },
    {
        "city": "Ponte Nova",
        "state": "MG",
        "district": "Triângulo",
        "street": "Rua Francisco Godoy Alvarenga",
        "zipcode": "35430-149"
    },
    {
        "city": "Ponte Nova",
        "state": "MG",
        "district": "Fátima",
        "street": "Rua Francisco Hermógenes da Fonseca",
        "zipcode": "35430-259"
    },
    {
        "city": "Ponte Nova",
        "state": "MG",
        "district": "Fátima",
        "street": "Rua Gabriel Palermo",
        "zipcode": "35430-252"
    },
    {
        "city": "Ponte Nova",
        "state": "MG",
        "district": "Progresso",
        "street": "Rua João de Souza Mendes",
        "zipcode": "35430-187"
    },
    {
        "city": "Ponte Nova",
        "state": "MG",
        "district": "Progresso",
        "street": "Travessa João Sette",
        "zipcode": "35430-185"
    },
    {
        "city": "Ponte Nova",
        "state": "MG",
        "district": "Guarapiranga",
        "street": "Rua João Vidal de Carvalho",
        "zipcode": "35430-210"
    },
    {
        "city": "Ponte Nova",
        "state": "MG",
        "district": "Vale Verde",
        "street": "Rua Joaquim Faria",
        "zipcode": "35430-294"
    },
    {
        "city": "Ponte Nova",
        "state": "MG",
        "district": "Sagrado Coração de Jesus",
        "street": "Rua José Galdino Vieira",
        "zipcode": "35430-099"
    },
    {
        "city": "Ponte Nova",
        "state": "MG",
        "district": "São Pedro",
        "street": "Rua José Pinheiro Brandão",
        "zipcode": "35430-284"
    },
    {
        "city": "Ponte Nova",
        "state": "MG",
        "district": "Nossa Senhora Auxiliadora",
        "street": "Rua Laura Vicuna",
        "zipcode": "35430-222"
    },
    {
        "city": "Ponte Nova",
        "state": "MG",
        "district": "Triângulo Novo",
        "street": "Rua Manoel Alves da Silva",
        "zipcode": "35430-126"
    },
    {
        "city": "Ponte Nova",
        "state": "MG",
        "district": "Vale Verde",
        "street": "Rua Maria Antonieta Fudoli",
        "zipcode": "35430-290"
    },
    {
        "city": "Ponte Nova",
        "state": "MG",
        "district": "Sagrado Coração de Jesus",
        "street": "Rua Murilo de Oliveira Leite",
        "zipcode": "35430-108"
    },
    {
        "city": "Ponte Nova",
        "state": "MG",
        "district": "Esplanada",
        "street": "Rua Padre Francisco Lanna",
        "zipcode": "35430-070"
    },
    {
        "city": "Ponte Nova",
        "state": "MG",
        "district": "Paraíso",
        "street": "Rua Padre José Alvarenga",
        "zipcode": "35430-303"
    },
    {
        "city": "Ponte Nova",
        "state": "MG",
        "district": "Santo Antônio II",
        "street": "Rua Primeiro de Maio",
        "zipcode": "35430-061"
    },
    {
        "city": "Ponte Nova",
        "state": "MG",
        "district": "Sagrado Coração de Jesus",
        "street": "Rua Roberto Parentoni",
        "zipcode": "35430-097"
    },
    {
        "city": "Ponte Nova",
        "state": "MG",
        "district": "Triângulo",
        "street": "Vila Santa Maria",
        "zipcode": "35430-320"
    },
    {
        "city": "Ponte Nova",
        "state": "MG",
        "district": "Nossa Senhora Auxiliadora",
        "street": "Rua Santa Maria Mazzarello",
        "zipcode": "35430-220"
    },
    {
        "city": "Ponte Nova",
        "state": "MG",
        "district": "Santo Antônio I",
        "street": "Rua Santo Antônio",
        "zipcode": "35430-191"
    },
    {
        "city": "Ponte Nova",
        "state": "MG",
        "district": "Esplanada",
        "street": "Rua Darcy Botelho de Castro",
        "zipcode": "35430-421"
    },
    {
        "city": "Ponte Nova",
        "state": "MG",
        "district": "Santo Antônio II",
        "street": "Travessa Sebastião Franco da Cruz",
        "zipcode": "35430-068"
    },
    {
        "city": "Ponte Nova",
        "state": "MG",
        "district": "Esplanada",
        "street": "Rua Tenente",
        "zipcode": "35430-081"
    },
    {
        "city": "Ponte Nova",
        "state": "MG",
        "district": "Santa Teresa",
        "street": "Rua Tulipas",
        "zipcode": "35430-086"
    },
    {
        "city": "Ponte Nova",
        "state": "MG",
        "district": "Santo Antônio I",
        "street": "Rua X",
        "zipcode": "35430-199"
    },
    {
        "city": "Ponte Nova",
        "state": "MG",
        "district": "Triângulo",
        "street": "Rua Carlos Pinto",
        "zipcode": "35430-158"
    },
    {
        "city": "Ponte Nova",
        "state": "MG",
        "district": "Fátima",
        "street": "Rua Luiz Martins Soares Sobrinho",
        "zipcode": "35430-251"
    },
    {
        "city": "Ponte Nova",
        "state": "MG",
        "district": "São Judas Tadeu",
        "street": "Rua Antônio Menezes Marques",
        "zipcode": "35430-172"
    },
    {
        "city": "Ponte Nova",
        "state": "MG",
        "district": "Fátima",
        "street": "Rua Bom Jesus",
        "zipcode": "35430-260"
    },
    {
        "city": "Ponte Nova",
        "state": "MG",
        "district": "Triângulo",
        "street": "Rua Domingos Pesce",
        "zipcode": "35430-143"
    },
    {
        "city": "Ponte Nova",
        "state": "MG",
        "district": "Rasa",
        "street": "Rua Geraldo Magela Guimarães",
        "zipcode": "35430-311"
    },
    {
        "city": "Ponte Nova",
        "state": "MG",
        "district": "Rasa",
        "street": "Rua Alexandre Claudino dos Santos",
        "zipcode": "35430-355"
    },
    {
        "city": "Ponte Nova",
        "state": "MG",
        "district": "São Geraldo",
        "street": "Rua José Campos",
        "zipcode": "35430-808"
    },
    {
        "city": "Ponte Nova",
        "state": "MG",
        "district": "São Pedro",
        "street": "Travessa Tocantins",
        "zipcode": "35430-553"
    },
    {
        "city": "Ponte Nova",
        "state": "MG",
        "district": "Palmeiras",
        "street": "Avenida Francisco Vieira Martins",
        "zipcode": "35430-972"
    },
    {
        "city": "Ponte Nova",
        "state": "MG",
        "district": "Ana Florência",
        "street": "Rodovia MG",
        "zipcode": "35432-900"
    },
    {
        "city": "Ponte Nova",
        "state": "MG",
        "district": "Centro",
        "street": "Avenida Caetano Marinho",
        "zipcode": "35430-001"
    },
    {
        "city": "Ponte Nova",
        "state": "MG",
        "district": "Vila Alvarenga",
        "street": "Travessa Felipe Camarão",
        "zipcode": "35430-049"
    },
    {
        "city": "Ponte Nova",
        "state": "MG",
        "district": "Palmeiras",
        "street": "Avenida Francisco Vieira Martins",
        "zipcode": "35430-226"
    },
    {
        "city": "Ponte Nova",
        "state": "MG",
        "district": "Triângulo Novo",
        "street": "Rua Geraldo Ferreira",
        "zipcode": "35430-128"
    },
    {
        "city": "Ponte Nova",
        "state": "MG",
        "district": "Bom Pastor",
        "street": "Rua João Marinho Sette e Câmara",
        "zipcode": "35430-162"
    },
    {
        "city": "Ponte Nova",
        "state": "MG",
        "district": "São Geraldo",
        "street": "Rua Juca Heleno",
        "zipcode": "35430-316"
    },
    {
        "city": "Ponte Nova",
        "state": "MG",
        "district": "Centro",
        "street": "Rua Luiz Martins Soares",
        "zipcode": "35430-008"
    },
    {
        "city": "Ponte Nova",
        "state": "MG",
        "district": "Vila Alvarenga",
        "street": "Rua Pernambuco",
        "zipcode": "35430-047"
    },
    {
        "city": "Ponte Nova",
        "state": "MG",
        "district": "Triângulo Novo",
        "street": "Rua Piauí",
        "zipcode": "35430-132"
    },
    {
        "city": "Ponte Nova",
        "state": "MG",
        "district": "Centro",
        "street": "Rua Presidente Antônio Carlos",
        "zipcode": "35430-003"
    },
    {
        "city": "Ponte Nova",
        "state": "MG",
        "district": "Novo Horizonte",
        "street": "Rua Professor Virgílio de Freitas Teixeira",
        "zipcode": "35430-315"
    },
    {
        "city": "Ponte Nova",
        "state": "MG",
        "district": "Santa Teresa",
        "street": "Rua Rosa",
        "zipcode": "35430-089"
    },
    {
        "city": "Ponte Nova",
        "state": "MG",
        "district": "Santo Antônio II",
        "street": "Rua Santo Antônio",
        "zipcode": "35430-054"
    },
    {
        "city": "Ponte Nova",
        "state": "MG",
        "district": "Nova Copacabana",
        "street": "Rua Ramon Aragão Dutra",
        "zipcode": "35431-361"
    },
    {
        "city": "Ponte Nova",
        "state": "MG",
        "district": "Guarapiranga",
        "street": "Avenida Mário Martins de Freitas",
        "zipcode": "35430-600"
    },
    {
        "city": "Ponte Nova",
        "state": "MG",
        "district": "Fortaleza",
        "street": "Rua Sebastião Vieira Gomes",
        "zipcode": "35430-534"
    },
    {
        "city": "Ponte Nova",
        "state": "MG",
        "district": "Santo Antônio I",
        "street": "Rua Santo Antônio",
        "zipcode": "35430-190"
    },
    {
        "city": "Ponte Nova",
        "state": "MG",
        "district": "Santo Antônio II",
        "street": "Travessa Santo Antônio I",
        "zipcode": "35430-057"
    },
    {
        "city": "Ponte Nova",
        "state": "MG",
        "district": "Centro",
        "street": "Praça São Cristóvão",
        "zipcode": "35430-330"
    },
    {
        "city": "Ponte Nova",
        "state": "MG",
        "district": "São Judas Tadeu",
        "street": "Rua Jacy Lopes",
        "zipcode": "35430-175"
    },
    {
        "city": "Ponte Nova",
        "state": "MG",
        "district": "Cidade Nova",
        "street": "Rua Três Marias",
        "zipcode": "35431-110"
    },
    {
        "city": "Ponte Nova",
        "state": "MG",
        "district": "Nova Copacabana",
        "street": "Rua Telma de Albuquerque",
        "zipcode": "35431-301"
    },
    {
        "city": "Ponte Nova",
        "state": "MG",
        "district": "Nova Copacabana",
        "street": "Rua Mauro Moreira dos Santos",
        "zipcode": "35431-325"
    },
    {
        "city": "Ponte Nova",
        "state": "MG",
        "district": "Esplanada",
        "street": "Praça Zirezarte José de Oliveira",
        "zipcode": "35430-083"
    },
    {
        "city": "Ponte Nova",
        "state": "MG",
        "district": "Santa Teresa",
        "street": "Praça das Flores",
        "zipcode": "35430-087"
    },
    {
        "city": "Ponte Nova",
        "state": "MG",
        "district": "Triângulo",
        "street": "Rua José Alves da Costa",
        "zipcode": "35430-579"
    },
    {
        "city": "Ponte Nova",
        "state": "MG",
        "district": "Sagrado Coração de Jesus",
        "street": "Praça Lourêncio Vitóriano",
        "zipcode": "35430-325"
    },
    {
        "city": "Ponte Nova",
        "state": "MG",
        "district": "Santo Antônio II",
        "street": "Praça Santo Antônio",
        "zipcode": "35430-056"
    },
    {
        "city": "Ponte Nova",
        "state": "MG",
        "district": "Nova Copacabana",
        "street": "Rua José Barroso Dutra",
        "zipcode": "35431-349"
    },
    {
        "city": "Ponte Nova",
        "state": "MG",
        "district": "Paraíso",
        "street": "Avenida Mário Martins de Freitas",
        "zipcode": "35430-637"
    },
    {
        "city": "Ponte Nova",
        "state": "MG",
        "district": "Nova Copacabana",
        "street": "Rua Eguimar da Cruz Gomes",
        "zipcode": "35431-343"
    },
    {
        "city": "Ponte Nova",
        "state": "MG",
        "district": "Palmeiras",
        "street": "Rua Augusto Lopes Castanheira",
        "zipcode": "35430-840"
    },
    {
        "city": "Ponte Nova",
        "state": "MG",
        "district": "Vale Verde",
        "street": "Praça Sebastião Sérgio Rolla de Sena",
        "zipcode": "35430-291"
    },
    {
        "city": "Ponte Nova",
        "state": "MG",
        "district": "Nova Copacabana",
        "street": "Rua Paulo de Almeida Costa",
        "zipcode": "35431-357"
    },
    {
        "city": "Ponte Nova",
        "state": "MG",
        "district": "Nova Copacabana",
        "street": "Rua José Canuto Dutra",
        "zipcode": "35431-320"
    },
    {
        "city": "Ponte Nova",
        "state": "MG",
        "district": "Rasa",
        "street": "Rua dos Girassóis",
        "zipcode": "35430-394"
    },
    {
        "city": "Ponte Nova",
        "state": "MG",
        "district": "Triângulo",
        "street": "Praça Aníbal Lopes",
        "zipcode": "35430-154"
    },
    {
        "city": "Ponte Nova",
        "state": "MG",
        "district": "Ana Florência",
        "street": "Rua Sorriso",
        "zipcode": "35432-050"
    },
    {
        "city": "Ponte Nova",
        "state": "MG",
        "district": "Ana Florência",
        "street": "Rua Mangueiras",
        "zipcode": "35432-055"
    },
    {
        "city": "Ponte Nova",
        "state": "MG",
        "district": "Ana Florência",
        "street": "Rua da Volta da Lagoa",
        "zipcode": "35432-060"
    },
    {
        "city": "Ponte Nova",
        "state": "MG",
        "district": "Ana Florência",
        "street": "Rua da Esperança",
        "zipcode": "35432-085"
    },
    {
        "city": "Ponte Nova",
        "state": "MG",
        "district": "Santo Antônio I",
        "street": "Avenida Rio Negro",
        "zipcode": "35430-500"
    },
    {
        "city": "Ponte Nova",
        "state": "MG",
        "district": "Novo Horizonte",
        "street": "Rua Ananias Pereira Vilar",
        "zipcode": "35430-775"
    },
    {
        "city": "Ponte Nova",
        "state": "MG",
        "district": "São Judas Tadeu",
        "street": "Rua João Gariglio",
        "zipcode": "35430-825"
    },
    {
        "city": "Ponte Nova",
        "state": "MG",
        "district": "Vale do Ipê",
        "street": "Rua Doutor Márcio Campante Brandão",
        "zipcode": "35430-451"
    },
    {
        "city": "Ponte Nova",
        "state": "MG",
        "district": "Palmeiras",
        "street": "Travessa Padre Parreira",
        "zipcode": "35430-237"
    },
    {
        "city": "Ponte Nova",
        "state": "MG",
        "district": "Nova Suíça",
        "street": "Rua Salvador Totino",
        "zipcode": "35431-001"
    },
    {
        "city": "Ponte Nova",
        "state": "MG",
        "district": "Fortaleza",
        "street": "Rua da Cerâmica",
        "zipcode": "35430-314"
    },
    {
        "city": "Ponte Nova",
        "state": "MG",
        "district": "São Geraldo",
        "street": "Rua Humberto Bartolomeu",
        "zipcode": "35430-176"
    },
    {
        "city": "Ponte Nova",
        "state": "MG",
        "district": "Centro",
        "street": "Avenida José Felipe de Freitas Castro",
        "zipcode": "35430-030"
    },
    {
        "city": "Ponte Nova",
        "state": "MG",
        "district": "Área Rural de Ponte Nova",
        "street": "Área Rural",
        "zipcode": "35434-899"
    },
    {
        "city": "Ponte Nova",
        "state": "MG",
        "district": "Palmeiras",
        "street": "Rua Virgínia Pinheiro Castanheira",
        "zipcode": "35430-835"
    },
    {
        "city": "Ponte Nova",
        "state": "MG",
        "district": "São Geraldo",
        "street": "Rua Evaristo Fernandes pinto",
        "zipcode": "35430-802"
    },
    {
        "city": "Ponte Nova",
        "state": "MG",
        "district": "São Geraldo",
        "street": "Rua José Alberto Bergamini",
        "zipcode": "35430-806"
    },
    {
        "city": "Ponte Nova",
        "state": "MG",
        "district": "Nova Copacabana",
        "street": "Rua Zaire Cabelereiro",
        "zipcode": "35431-367"
    },
    {
        "city": "Ponte Nova",
        "state": "MG",
        "district": "Nova Copacabana",
        "street": "Rua Maria Ignácia de Almeida",
        "zipcode": "35431-355"
    },
    {
        "city": "Ponte Nova",
        "state": "MG",
        "district": "Fátima",
        "street": "Rua Amaro Gomes",
        "zipcode": "35430-264"
    },
    {
        "city": "Ponte Nova",
        "state": "MG",
        "district": "Santo Antônio I",
        "street": "Rua Aristóteles Ernesto dos Santos",
        "zipcode": "35430-195"
    },
    {
        "city": "Ponte Nova",
        "state": "MG",
        "district": "Sagrado Coração de Jesus",
        "street": "Rua Dona Eugênia Teixeira Bráulio",
        "zipcode": "35430-109"
    },
    {
        "city": "Ponte Nova",
        "state": "MG",
        "district": "São Geraldo",
        "street": "Rua Humberto M. Luciano dos Santos",
        "zipcode": "35430-317"
    },
    {
        "city": "Ponte Nova",
        "state": "MG",
        "district": "Guarapiranga",
        "street": "Rua Professor Landulfo Machado de Magalhães",
        "zipcode": "35430-211"
    },
    {
        "city": "Ponte Nova",
        "state": "MG",
        "district": "Ana Florência",
        "street": "Rua Maury Tosatti de Almeida",
        "zipcode": "35432-030"
    },
    {
        "city": "Ponte Nova",
        "state": "MG",
        "district": "Ana Florência",
        "street": "Rua Edna Braga Rodrigues",
        "zipcode": "35432-010"
    },
    {
        "city": "Ponte Nova",
        "state": "MG",
        "district": "Progresso",
        "street": "Rua José Afonso Pereira",
        "zipcode": "35430-335"
    },
    {
        "city": "Ponte Nova",
        "state": "MG",
        "district": "Chácara das Flores",
        "street": "Rua das Rosas",
        "zipcode": "35430-514"
    },
    {
        "city": "Ponte Nova",
        "state": "MG",
        "district": "Chácara das Flores",
        "street": "Rua das Palmas",
        "zipcode": "35430-517"
    },
    {
        "city": "Ponte Nova",
        "state": "MG",
        "district": "Chácara das Flores",
        "street": "Rua das Margaridas",
        "zipcode": "35430-516"
    },
    {
        "city": "Ponte Nova",
        "state": "MG",
        "district": "Cidade Nova",
        "street": "Avenida Álvaro Soares",
        "zipcode": "35431-140"
    },
    {
        "city": "Ponte Nova",
        "state": "MG",
        "district": "Ana Florência",
        "street": "Avenida Francisco Pena",
        "zipcode": "35432-035"
    },
    {
        "city": "Ponte Nova",
        "state": "MG",
        "district": "Guarapiranga",
        "street": "Rua Jatobás (Rec Pedras)",
        "zipcode": "35430-595"
    },
    {
        "city": "Ponte Nova",
        "state": "MG",
        "district": "Cidade Nova",
        "street": "Travessa João Mayrink",
        "zipcode": "35431-101"
    },
    {
        "city": "Ponte Nova",
        "state": "MG",
        "district": "Guarapiranga",
        "street": "Rua Bonifácio Villar",
        "zipcode": "35430-212"
    },
    {
        "city": "Ponte Nova",
        "state": "MG",
        "district": "Triângulo",
        "street": "Travessa Edith Maria Silva",
        "zipcode": "35430-120"
    },
    {
        "city": "Ponte Nova",
        "state": "MG",
        "district": "Residencial Triângulo Verde",
        "street": "Alameda Triângulo Verde",
        "zipcode": "35430-362"
    },
    {
        "city": "Ponte Nova",
        "state": "MG",
        "district": "Sagrado Coração de Jesus",
        "street": "Praça Maria Sodré",
        "zipcode": "35430-326"
    },
    {
        "city": "Ponte Nova",
        "state": "MG",
        "district": "Triângulo",
        "street": "Praça Lucindo Lázaro Lessa",
        "zipcode": "35430-139"
    },
    {
        "city": "Ponte Nova",
        "state": "MG",
        "district": "Chácara das Flores",
        "street": "Rua das Violetas",
        "zipcode": "35430-519"
    },
    {
        "city": "Ponte Nova",
        "state": "MG",
        "district": "Vale do Ipê",
        "street": "Rua Maria Consenza",
        "zipcode": "35430-453"
    },
    {
        "city": "Ponte Nova",
        "state": "MG",
        "district": "Fortaleza",
        "street": "Rua Deputado Fábio Vasconcelos",
        "zipcode": "35430-531"
    },
    {
        "city": "Ponte Nova",
        "state": "MG",
        "district": "Ana Florência",
        "street": "Rua Oratório de Baixo",
        "zipcode": "35432-086"
    },
    {
        "city": "Ponte Nova",
        "state": "MG",
        "district": "Rasa",
        "street": "Rua das Azaléias",
        "zipcode": "35430-392"
    },
    {
        "city": "Ponte Nova",
        "state": "MG",
        "district": "Santa Teresa",
        "street": "Praça Sérgio Alves Pereira",
        "zipcode": "35430-084"
    },
    {
        "city": "Ponte Nova",
        "state": "MG",
        "district": "Guarapiranga",
        "street": "Rua Dr Landulfo Machado Magalhaes",
        "zipcode": "35430-328"
    },
    {
        "city": "Ponte Nova",
        "state": "MG",
        "district": "Triângulo",
        "street": "Travessa Cruzeiro",
        "zipcode": "35430-322"
    },
    {
        "city": "Ponte Nova",
        "state": "MG",
        "district": "Chácara das Flores",
        "street": "Alameda das Orquídeas",
        "zipcode": "35430-518"
    },
    {
        "city": "Ponte Nova",
        "state": "MG",
        "district": "Centro",
        "street": "Praça Dom Parreira Lara",
        "zipcode": "35430-019"
    },
    {
        "city": "Ponte Nova",
        "state": "MG",
        "district": "Chácara das Flores",
        "street": "Alameda das Bromélias",
        "zipcode": "35430-515"
    }
]