[
    {
        "city": "Ribeirao Das Neves",
        "state": "MG",
        "district": "San Genaro",
        "street": "Praça Quatro",
        "zipcode": "33825-470"
    },
    {
        "city": "Ribeirao Das Neves",
        "state": "MG",
        "district": "Menezes (Justinopolis)",
        "street": "Praça Ascobam",
        "zipcode": "33913-390"
    },
    {
        "city": "Ribeirao Das Neves",
        "state": "MG",
        "district": "Veneza",
        "street": "Rodovia Br",
        "zipcode": "33820-000"
    },
    {
        "city": "Ribeirao Das Neves",
        "state": "MG",
        "district": "Belo Vale",
        "street": "Rua Dez",
        "zipcode": "33903-105"
    },
    {
        "city": "Ribeirao Das Neves",
        "state": "MG",
        "district": "Luar Da Pampulha (Justinopolis)",
        "street": "Praça Um",
        "zipcode": "33936-050"
    },
    {
        "city": "Ribeirao Das Neves",
        "state": "MG",
        "district": "San Genaro",
        "street": "Praça Dez",
        "zipcode": "33825-530"
    },
    {
        "city": "Ribeirao Das Neves",
        "state": "MG",
        "district": "Santinho",
        "street": "Rua Nove",
        "zipcode": "33855-690"
    },
    {
        "city": "Ribeirao Das Neves",
        "state": "MG",
        "district": "Florenca",
        "street": "Rodovia Br",
        "zipcode": "33825-160"
    },
    {
        "city": "Ribeirao Das Neves",
        "state": "MG",
        "district": "Conj Nova Pampulha (Justinopolis)",
        "street": "Rua Quatorze",
        "zipcode": "33935-710"
    },
    {
        "city": "Ribeirao Das Neves",
        "state": "MG",
        "district": "San Genaro",
        "street": "Praça Nove",
        "zipcode": "33825-520"
    },
    {
        "city": "Ribeirao Das Neves",
        "state": "MG",
        "district": "San Genaro",
        "street": "Praça Seis",
        "zipcode": "33825-490"
    },
    {
        "city": "Ribeirao Das Neves",
        "state": "MG",
        "district": "Santa Marta",
        "street": "Praça Da Biblia",
        "zipcode": "33880-090"
    },
    {
        "city": "Ribeirao Das Neves",
        "state": "MG",
        "district": "Guadalajara (Justinopolis)",
        "street": "Avenida Denise Cristina Rocha",
        "zipcode": "33900-000"
    },
    {
        "city": "Ribeirao Das Neves",
        "state": "MG",
        "district": "Santinho",
        "street": "Avenida Dois",
        "zipcode": "33855-560"
    },
    {
        "city": "Ribeirao Das Neves",
        "state": "MG",
        "district": "San Genaro",
        "street": "Praça Tres",
        "zipcode": "33825-460"
    },
    {
        "city": "Ribeirao Das Neves",
        "state": "MG",
        "district": "San Genaro",
        "street": "Praça Oito",
        "zipcode": "33825-510"
    },
    {
        "city": "Ribeirao Das Neves",
        "state": "MG",
        "district": "Bom Sossego",
        "street": "Rua Quatorze",
        "zipcode": "33860-120"
    },
    {
        "city": "Ribeirao Das Neves",
        "state": "MG",
        "district": "Felixlandia (Justinopolis)",
        "street": "Praça Unida",
        "zipcode": "33943-610"
    },
    {
        "city": "Ribeirao Das Neves",
        "state": "MG",
        "district": "Santa Martinha",
        "street": "Rua Geraldo Magela Goncalves",
        "zipcode": "33860-525"
    },
    {
        "city": "Ribeirao Das Neves",
        "state": "MG",
        "district": "Cidade De Neviana",
        "street": "Praça Pascoal Candido Rodrigues",
        "zipcode": "33808-180"
    },
    {
        "city": "Ribeirao Das Neves",
        "state": "MG",
        "district": "Botafogo (Justinopolis)",
        "street": "Praça Uniao",
        "zipcode": "33902-700"
    },
    {
        "city": "Ribeirao Das Neves",
        "state": "MG",
        "district": "Esperanca (Justinopolis)",
        "street": "Rua Nova Iorque",
        "zipcode": "33913-210"
    },
    {
        "city": "Ribeirao Das Neves",
        "state": "MG",
        "district": "Sevilha (1 Secao)",
        "street": "Praça Das Bandeiras",
        "zipcode": "33855-140"
    },
    {
        "city": "Ribeirao Das Neves",
        "state": "MG",
        "district": "Savassi",
        "street": "Praça Cleber Guimaraes",
        "zipcode": "33880-640"
    },
    {
        "city": "Ribeirao Das Neves",
        "state": "MG",
        "district": "San Genaro",
        "street": "Praça Sete",
        "zipcode": "33825-500"
    },
    {
        "city": "Ribeirao Das Neves",
        "state": "MG",
        "district": "San Genaro",
        "street": "Praça Cinco",
        "zipcode": "33825-190"
    }
]