[
    {
        "city": "Sabará",
        "state": "MG",
        "district": "Centro",
        "street": "Rua Durval Passos",
        "zipcode": "34505-050"
    },
    {
        "city": "Sabará",
        "state": "MG",
        "district": "Centro",
        "street": "Rua Doutor Zoroastro Viana Passos",
        "zipcode": "34505-590"
    },
    {
        "city": "Sabará",
        "state": "MG",
        "district": "Santo Antônio (Roça Grande)",
        "street": "Rua Jornalista José Sebastião Viana Passos",
        "zipcode": "34535-232"
    },
    {
        "city": "Sabará",
        "state": "MG",
        "district": "Vila Santo Antônio de Pádua",
        "street": "Rua Américo Ferreira Passos",
        "zipcode": "34515-520"
    },
    {
        "city": "Sabará",
        "state": "MG",
        "district": "Alvorada",
        "street": "Rua Unaí",
        "zipcode": "34650-180"
    },
    {
        "city": "Sabará",
        "state": "MG",
        "district": "Centro",
        "street": "Praça Antônio de Albuquerque",
        "zipcode": "34505-800"
    },
    {
        "city": "Sabará",
        "state": "MG",
        "district": "Rosário",
        "street": "Rua Dante Alighieri",
        "zipcode": "34555-070"
    },
    {
        "city": "Sabará",
        "state": "MG",
        "district": "Córrego da Ilha",
        "street": "Rua do Campinho",
        "zipcode": "34525-225"
    },
    {
        "city": "Sabará",
        "state": "MG",
        "district": "Santana",
        "street": "Rua Maria Conceição dos Santos",
        "zipcode": "34545-760"
    },
    {
        "city": "Sabará",
        "state": "MG",
        "district": "Rosário",
        "street": "Rua Juliot Curie",
        "zipcode": "34565-240"
    },
    {
        "city": "Sabará",
        "state": "MG",
        "district": "Paciência",
        "street": "Rua Turquesa (Condomínio Albert Scharle)",
        "zipcode": "34535-106"
    },
    {
        "city": "Sabará",
        "state": "MG",
        "district": "Rosário",
        "street": "Rua Conde D Eu",
        "zipcode": "34555-302"
    },
    {
        "city": "Sabará",
        "state": "MG",
        "district": "Vila Nova Vista",
        "street": "Avenida Amália",
        "zipcode": "34710-620"
    },
    {
        "city": "Sabará",
        "state": "MG",
        "district": "Rosário",
        "street": "Rua Nícias Continentino",
        "zipcode": "34565-160"
    },
    {
        "city": "Sabará",
        "state": "MG",
        "district": "Valparaíso",
        "street": "Rua dos Sabiás",
        "zipcode": "34585-515"
    },
    {
        "city": "Sabará",
        "state": "MG",
        "district": "Nações Unidas",
        "street": "Praça São Sebastião",
        "zipcode": "34590-240"
    },
    {
        "city": "Sabará",
        "state": "MG",
        "district": "Vila Esperança",
        "street": "Rua Vereador Rubens Batista Alves",
        "zipcode": "34505-192"
    },
    {
        "city": "Sabará",
        "state": "MG",
        "district": "Rosário",
        "street": "Rua Costa Chiab",
        "zipcode": "34565-210"
    },
    {
        "city": "Sabará",
        "state": "MG",
        "district": "Vila Rica",
        "street": "Rua Recife",
        "zipcode": "34580-480"
    },
    {
        "city": "Sabará",
        "state": "MG",
        "district": "Distrito Industrial Operário Raimundo Fantini",
        "street": "Rua Paracatu",
        "zipcode": "34525-660"
    },
    {
        "city": "Sabará",
        "state": "MG",
        "district": "Santo Antônio (Roça Grande)",
        "street": "Praça da Igreja",
        "zipcode": "34535-220"
    },
    {
        "city": "Sabará",
        "state": "MG",
        "district": "Vila Real",
        "street": "Rua Barão de Sabará Manoel Antonio Pacheco",
        "zipcode": "34536-040"
    },
    {
        "city": "Sabará",
        "state": "MG",
        "district": "Santo Antônio (Roça Grande)",
        "street": "Rua São Dimas",
        "zipcode": "34545-200"
    },
    {
        "city": "Sabará",
        "state": "MG",
        "district": null,
        "street": "Estrada Velha de Nova Lima",
        "zipcode": "34505-990"
    },
    {
        "city": "Sabará",
        "state": "MG",
        "district": "Rosário",
        "street": "Praça Monte Alegre",
        "zipcode": "34575-450"
    },
    {
        "city": "Sabará",
        "state": "MG",
        "district": "Rosário",
        "street": "Rua La Fontaine",
        "zipcode": "34555-090"
    },
    {
        "city": "Sabará",
        "state": "MG",
        "district": "Rosário",
        "street": "Rua Araribóia",
        "zipcode": "34555-242"
    },
    {
        "city": "Sabará",
        "state": "MG",
        "district": "Rosário",
        "street": "Praça Monte Castelo",
        "zipcode": "34575-190"
    },
    {
        "city": "Sabará",
        "state": "MG",
        "district": "Rosário",
        "street": "Rua Fernando Veloso",
        "zipcode": "34565-290"
    },
    {
        "city": "Sabará",
        "state": "MG",
        "district": "Vila Eugênio Rossi",
        "street": "Rua Bernardo Pereira",
        "zipcode": "34585-572"
    },
    {
        "city": "Sabará",
        "state": "MG",
        "district": "Paciência",
        "street": "Rua das Acácias (Condomínio Albert Scharle)",
        "zipcode": "34535-094"
    },
    {
        "city": "Sabará",
        "state": "MG",
        "district": "Rosário",
        "street": "Rua Paulo Saraiva",
        "zipcode": "34565-170"
    },
    {
        "city": "Sabará",
        "state": "MG",
        "district": "Santo Antônio (Roça Grande)",
        "street": "Rua Carta Rosa",
        "zipcode": "34535-190"
    },
    {
        "city": "Sabará",
        "state": "MG",
        "district": "Vila Francisco de Moura",
        "street": "Rua Anselmo José dos Santos",
        "zipcode": "34525-090"
    },
    {
        "city": "Sabará",
        "state": "MG",
        "district": "Arraial Velho",
        "street": "Rua Operário Turíbio Marcelino",
        "zipcode": "34525-630"
    },
    {
        "city": "Sabará",
        "state": "MG",
        "district": "Distrito Industrial Simão da Cunha",
        "street": "Rua Engenheiro Sérgio Maculan",
        "zipcode": "34735-022"
    },
    {
        "city": "Sabará",
        "state": "MG",
        "district": "Conjunto Morada da Serra",
        "street": "Rua Serra do Cipó",
        "zipcode": "34515-662"
    },
    {
        "city": "Sabará",
        "state": "MG",
        "district": "Nossa Senhora de Fátima",
        "street": "Praça Tiradentes",
        "zipcode": "34600-570"
    },
    {
        "city": "Sabará",
        "state": "MG",
        "district": "Novo Alvorada",
        "street": "Rua Coronel Alvino Menezes",
        "zipcode": "34650-030"
    },
    {
        "city": "Sabará",
        "state": "MG",
        "district": "Paciência",
        "street": "Rua Esmeraldas (Condomínio Albert Scharle)",
        "zipcode": "34535-107"
    },
    {
        "city": "Sabará",
        "state": "MG",
        "district": "Adelmolândia",
        "street": "Rua Rosa",
        "zipcode": "34525-470"
    },
    {
        "city": "Sabará",
        "state": "MG",
        "district": "Jardim Castanheiras",
        "street": "Rua Mantiqueira",
        "zipcode": "34589-210"
    },
    {
        "city": "Sabará",
        "state": "MG",
        "district": "Jardim Castanheiras",
        "street": "Rua Nazaré",
        "zipcode": "34589-195"
    },
    {
        "city": "Sabará",
        "state": "MG",
        "district": "Rosário",
        "street": "Rua Carlos Gomes",
        "zipcode": "34565-000"
    },
    {
        "city": "Sabará",
        "state": "MG",
        "district": "Novo Alvorada",
        "street": "Rua V",
        "zipcode": "34650-262"
    },
    {
        "city": "Sabará",
        "state": "MG",
        "district": "Mangabeiras",
        "street": "Rua L",
        "zipcode": "34516-060"
    },
    {
        "city": "Sabará",
        "state": "MG",
        "district": "Mangabeiras",
        "street": "Rua G",
        "zipcode": "34516-070"
    },
    {
        "city": "Sabará",
        "state": "MG",
        "district": "Mangabeiras",
        "street": "Rua J",
        "zipcode": "34516-100"
    },
    {
        "city": "Sabará",
        "state": "MG",
        "district": "Pompeu",
        "street": "Rua L",
        "zipcode": "34518-020"
    },
    {
        "city": "Sabará",
        "state": "MG",
        "district": "Itacolomi",
        "street": "Rua Muriaé",
        "zipcode": "34580-120"
    },
    {
        "city": "Sabará",
        "state": "MG",
        "district": "Itacolomi",
        "street": "Rua Nova Lima",
        "zipcode": "34580-050"
    },
    {
        "city": "Sabará",
        "state": "MG",
        "district": "Adelmolândia",
        "street": "Rua Cinco",
        "zipcode": "34525-455"
    },
    {
        "city": "Sabará",
        "state": "MG",
        "district": "Nossa Senhora de Fátima",
        "street": "Rua Três Corações",
        "zipcode": "34600-180"
    },
    {
        "city": "Sabará",
        "state": "MG",
        "district": "Itacolomi",
        "street": "Rua Itajubá",
        "zipcode": "34580-280"
    },
    {
        "city": "Sabará",
        "state": "MG",
        "district": "Nossa Senhora de Fátima",
        "street": "Rua Varginha",
        "zipcode": "34600-550"
    },
    {
        "city": "Sabará",
        "state": "MG",
        "district": "Jardim Castanheiras",
        "street": "Rua Visconde Taiusu",
        "zipcode": "34589-009"
    },
    {
        "city": "Sabará",
        "state": "MG",
        "district": "Jardim Castanheiras",
        "street": "Rua Almirante Tamandaré",
        "zipcode": "34589-012"
    },
    {
        "city": "Sabará",
        "state": "MG",
        "district": "Jardim Castanheiras",
        "street": "Rua Vital Negreiro",
        "zipcode": "34589-052"
    },
    {
        "city": "Sabará",
        "state": "MG",
        "district": "Jardim Castanheiras",
        "street": "Rua Olavo Bilac",
        "zipcode": "34589-100"
    },
    {
        "city": "Sabará",
        "state": "MG",
        "district": "Jardim Castanheiras",
        "street": "Rua Dom Casmurro",
        "zipcode": "34589-125"
    },
    {
        "city": "Sabará",
        "state": "MG",
        "district": "Jardim Castanheiras",
        "street": "Rua Fernão Dias",
        "zipcode": "34589-150"
    },
    {
        "city": "Sabará",
        "state": "MG",
        "district": "Jardim Castanheiras",
        "street": "Rua Tiradentes",
        "zipcode": "34589-180"
    },
    {
        "city": "Sabará",
        "state": "MG",
        "district": "Jardim Castanheiras",
        "street": "Rua Santa Efigênia",
        "zipcode": "34589-190"
    },
    {
        "city": "Sabará",
        "state": "MG",
        "district": "Jardim Castanheiras",
        "street": "Rua Laguna",
        "zipcode": "34589-205"
    },
    {
        "city": "Sabará",
        "state": "MG",
        "district": "Jardim Castanheiras",
        "street": "Rua Veneza",
        "zipcode": "34589-230"
    },
    {
        "city": "Sabará",
        "state": "MG",
        "district": "Jardim Castanheiras",
        "street": "Rua Cachoeirinha",
        "zipcode": "34589-235"
    },
    {
        "city": "Sabará",
        "state": "MG",
        "district": "Jardim Castanheiras",
        "street": "Rua Vista Alegre",
        "zipcode": "34589-280"
    },
    {
        "city": "Sabará",
        "state": "MG",
        "district": "Jardim Castanheiras",
        "street": "Rua Joaquim Nabuco",
        "zipcode": "34589-005"
    },
    {
        "city": "Sabará",
        "state": "MG",
        "district": "Jardim Castanheiras",
        "street": "Rua Cândido Portinari",
        "zipcode": "34589-155"
    },
    {
        "city": "Sabará",
        "state": "MG",
        "district": "Nações Unidas",
        "street": "Rua Ubá",
        "zipcode": "34590-160"
    },
    {
        "city": "Sabará",
        "state": "MG",
        "district": "Itacolomi",
        "street": "Rua Rio Manso",
        "zipcode": "34585-070"
    },
    {
        "city": "Sabará",
        "state": "MG",
        "district": "Vila Bom Retiro",
        "street": "Rua Dois",
        "zipcode": "34710-280"
    },
    {
        "city": "Sabará",
        "state": "MG",
        "district": "Paciência",
        "street": "Rua Turmalina",
        "zipcode": "34535-109"
    },
    {
        "city": "Sabará",
        "state": "MG",
        "district": "Adelmolândia",
        "street": "Rua Periquito",
        "zipcode": "34525-515"
    },
    {
        "city": "Sabará",
        "state": "MG",
        "district": "Nossa Senhora de Fátima",
        "street": "Rua Barbacena",
        "zipcode": "34600-250"
    },
    {
        "city": "Sabará",
        "state": "MG",
        "district": "Centro",
        "street": "Rua Cabral",
        "zipcode": "34505-640"
    },
    {
        "city": "Sabará",
        "state": "MG",
        "district": "Sobradinho",
        "street": "Rua Real",
        "zipcode": "34565-500"
    },
    {
        "city": "Sabará",
        "state": "MG",
        "district": "Santana",
        "street": "Rua Cristo Rei",
        "zipcode": "34545-480"
    },
    {
        "city": "Sabará",
        "state": "MG",
        "district": "Rosário",
        "street": "Rua da Abolição",
        "zipcode": "34555-122"
    },
    {
        "city": "Sabará",
        "state": "MG",
        "district": "Santana",
        "street": "Rua Endina",
        "zipcode": "34545-520"
    },
    {
        "city": "Sabará",
        "state": "MG",
        "district": "Rosário",
        "street": "Rua Dandara",
        "zipcode": "34555-052"
    },
    {
        "city": "Sabará",
        "state": "MG",
        "district": "Alto do Fidalgo",
        "street": "Rua Rainha",
        "zipcode": "34515-740"
    },
    {
        "city": "Sabará",
        "state": "MG",
        "district": "São José",
        "street": "Rua Sírius",
        "zipcode": "34580-322"
    },
    {
        "city": "Sabará",
        "state": "MG",
        "district": "Rosário",
        "street": "Rua Regente Feijó",
        "zipcode": "34555-304"
    },
    {
        "city": "Sabará",
        "state": "MG",
        "district": "Vila dos Coqueiros",
        "street": "Rua das Flores",
        "zipcode": "34576-040"
    },
    {
        "city": "Sabará",
        "state": "MG",
        "district": "Santana",
        "street": "Rua Alfredo",
        "zipcode": "34545-650"
    },
    {
        "city": "Sabará",
        "state": "MG",
        "district": "Água Férrea",
        "street": "Rua Ewbank da Câmara",
        "zipcode": "34535-110"
    },
    {
        "city": "Sabará",
        "state": "MG",
        "district": "Santana",
        "street": "Rua José",
        "zipcode": "34545-690"
    },
    {
        "city": "Sabará",
        "state": "MG",
        "district": "Centro",
        "street": "Largo São Francisco",
        "zipcode": "34505-075"
    },
    {
        "city": "Sabará",
        "state": "MG",
        "district": "Mangabeiras",
        "street": "Rua A",
        "zipcode": "34516-000"
    },
    {
        "city": "Sabará",
        "state": "MG",
        "district": "Alto do Cabral",
        "street": "Rua Perobas",
        "zipcode": "34505-655"
    },
    {
        "city": "Sabará",
        "state": "MG",
        "district": "Alto do Fidalgo",
        "street": "Rua Marquesa",
        "zipcode": "34515-742"
    },
    {
        "city": "Sabará",
        "state": "MG",
        "district": "Vila Francisco de Moura",
        "street": "Rua Salgueiros",
        "zipcode": "34525-100"
    },
    {
        "city": "Sabará",
        "state": "MG",
        "district": "Santana",
        "street": "Rua Elza",
        "zipcode": "34545-700"
    },
    {
        "city": "Sabará",
        "state": "MG",
        "district": "Mangueiras",
        "street": "Rua do Belo Leopoldo",
        "zipcode": "34516-130"
    },
    {
        "city": "Sabará",
        "state": "MG",
        "district": "Borba Gato",
        "street": "Rua Armando Ziller",
        "zipcode": "34730-080"
    },
    {
        "city": "Sabará",
        "state": "MG",
        "district": "Rosário",
        "street": "Rua Henrique Dias",
        "zipcode": "34555-230"
    },
    {
        "city": "Sabará",
        "state": "MG",
        "district": "Ana Lúcia",
        "street": "Rua Hipnos",
        "zipcode": "34710-230"
    },
    {
        "city": "Sabará",
        "state": "MG",
        "district": "Itacolomi",
        "street": "Rua Lagoa Santa",
        "zipcode": "34580-110"
    },
    {
        "city": "Sabará",
        "state": "MG",
        "district": "Nossa Senhora de Fátima",
        "street": "Rua Monte Carmelo",
        "zipcode": "34600-640"
    },
    {
        "city": "Sabará",
        "state": "MG",
        "district": "Vila Nova Vista",
        "street": "Rua Aprazível",
        "zipcode": "34710-660"
    },
    {
        "city": "Sabará",
        "state": "MG",
        "district": "Valparaíso",
        "street": "Rua do Pardal",
        "zipcode": "34585-535"
    },
    {
        "city": "Sabará",
        "state": "MG",
        "district": "Borges",
        "street": "Rua Mangueiras",
        "zipcode": "34720-080"
    },
    {
        "city": "Sabará",
        "state": "MG",
        "district": "Alto do Fidalgo",
        "street": "Rua Duque",
        "zipcode": "34515-735"
    },
    {
        "city": "Sabará",
        "state": "MG",
        "district": "Novo Alvorada",
        "street": "Rua Coronel Otávio Amaral",
        "zipcode": "34650-045"
    },
    {
        "city": "Sabará",
        "state": "MG",
        "district": "Nossa Senhora de Fátima",
        "street": "Rua Ubá",
        "zipcode": "34600-110"
    },
    {
        "city": "Sabará",
        "state": "MG",
        "district": "Rosário",
        "street": "Rua Epitácio Pessoa",
        "zipcode": "34565-260"
    },
    {
        "city": "Sabará",
        "state": "MG",
        "district": "Alvorada",
        "street": "Rua Baldim",
        "zipcode": "34700-110"
    },
    {
        "city": "Sabará",
        "state": "MG",
        "district": "Novo Alvorada",
        "street": "Rua Vasco da Gama",
        "zipcode": "34650-240"
    },
    {
        "city": "Sabará",
        "state": "MG",
        "district": "Jardim Castanheiras",
        "street": "Rua Prudente de Morais",
        "zipcode": "34589-035"
    },
    {
        "city": "Sabará",
        "state": "MG",
        "district": "",
        "street": "Rua Prudente de Morais",
        "zipcode": "34589-990"
    },
    {
        "city": "Sabará",
        "state": "MG",
        "district": "São José",
        "street": "Rua Uberlândia",
        "zipcode": "34580-570"
    },
    {
        "city": "Sabará",
        "state": "MG",
        "district": "Nossa Senhora de Fátima",
        "street": "Rua Uberlândia",
        "zipcode": "34600-000"
    },
    {
        "city": "Sabará",
        "state": "MG",
        "district": "Nossa Senhora de Fátima",
        "street": "Avenida Governador Valadares",
        "zipcode": "34600-330"
    },
    {
        "city": "Sabará",
        "state": "MG",
        "district": "Vila Rica",
        "street": "Rua Goiânia",
        "zipcode": "34585-120"
    },
    {
        "city": "Sabará",
        "state": "MG",
        "district": "Nossa Senhora de Fátima",
        "street": "Rua Estrela do Sul",
        "zipcode": "34600-430"
    },
    {
        "city": "Sabará",
        "state": "MG",
        "district": "Vila Bom Retiro",
        "street": "Avenida Presidente Juscelino Kubitschek",
        "zipcode": "34700-030"
    },
    {
        "city": "Sabará",
        "state": "MG",
        "district": "Vila Bom Retiro",
        "street": "Rua Marcelino Ribeiro de Lima",
        "zipcode": "34710-240"
    },
    {
        "city": "Sabará",
        "state": "MG",
        "district": "Vila Bom Retiro",
        "street": "Rua Onofre Mayer Neves",
        "zipcode": "34710-290"
    },
    {
        "city": "Sabará",
        "state": "MG",
        "district": "Vila Bom Retiro",
        "street": "Rua Sebastião A. Silva",
        "zipcode": "34710-310"
    },
    {
        "city": "Sabará",
        "state": "MG",
        "district": "Vila Bom Retiro",
        "street": "Rua Raimunda Assunção de Souza",
        "zipcode": "34710-318"
    },
    {
        "city": "Sabará",
        "state": "MG",
        "district": "Vila Bom Retiro",
        "street": "Rua Sudário Maximiano Rocha",
        "zipcode": "34710-320"
    },
    {
        "city": "Sabará",
        "state": "MG",
        "district": "Rosário",
        "street": "Rua José do Patrocínio",
        "zipcode": "34555-212"
    },
    {
        "city": "Sabará",
        "state": "MG",
        "district": "Vila Eugênio Rossi",
        "street": "Rua João Monlevade",
        "zipcode": "34585-330"
    },
    {
        "city": "Sabará",
        "state": "MG",
        "district": "Nossa Senhora de Fátima",
        "street": "Rua Nova Lima",
        "zipcode": "34600-165"
    },
    {
        "city": "Sabará",
        "state": "MG",
        "district": "Alvorada",
        "street": "Rua Açucena",
        "zipcode": "34700-120"
    },
    {
        "city": "Sabará",
        "state": "MG",
        "district": "São José",
        "street": "Rua Montes Claros",
        "zipcode": "34580-320"
    },
    {
        "city": "Sabará",
        "state": "MG",
        "district": "Siderúrgica",
        "street": "Rua do Gaia",
        "zipcode": "34515-000"
    },
    {
        "city": "Sabará",
        "state": "MG",
        "district": "Nações Unidas",
        "street": "Rodovia MG",
        "zipcode": "34590-390"
    },
    {
        "city": "Sabará",
        "state": "MG",
        "district": "Novo Alvorada",
        "street": "Rodovia MG",
        "zipcode": "34700-190"
    },
    {
        "city": "Sabará",
        "state": "MG",
        "district": "Mangabeiras",
        "street": "Rua D",
        "zipcode": "34516-030"
    },
    {
        "city": "Sabará",
        "state": "MG",
        "district": "Jardim Castanheiras",
        "street": "Rua Sete de Setembro",
        "zipcode": "34589-220"
    },
    {
        "city": "Sabará",
        "state": "MG",
        "district": "Jardim Castanheiras",
        "street": "Rua Santa Maria",
        "zipcode": "34589-240"
    },
    {
        "city": "Sabará",
        "state": "MG",
        "district": "Paciência",
        "street": "Rua Dona Filhinha",
        "zipcode": "34535-091"
    },
    {
        "city": "Sabará",
        "state": "MG",
        "district": "Vila Rica",
        "street": "Rua Um J",
        "zipcode": "34585-292"
    },
    {
        "city": "Sabará",
        "state": "MG",
        "district": "Rosário",
        "street": "Rua Peixe Vivo",
        "zipcode": "34575-160"
    },
    {
        "city": "Sabará",
        "state": "MG",
        "district": "Santana",
        "street": "Rua Patrícia",
        "zipcode": "34545-600"
    },
    {
        "city": "Sabará",
        "state": "MG",
        "district": "Santana",
        "street": "Rua Vanessa",
        "zipcode": "34545-585"
    },
    {
        "city": "Sabará",
        "state": "MG",
        "district": "Rosário",
        "street": "Rua Santíssima Trindade",
        "zipcode": "34555-172"
    },
    {
        "city": "Sabará",
        "state": "MG",
        "district": "Vila Francisco de Moura",
        "street": "Rua Mogno",
        "zipcode": "34525-110"
    },
    {
        "city": "Sabará",
        "state": "MG",
        "district": "Santana",
        "street": "Rua Alencar",
        "zipcode": "34545-430"
    },
    {
        "city": "Sabará",
        "state": "MG",
        "district": "Santana",
        "street": "Rua Gilson",
        "zipcode": "34545-470"
    },
    {
        "city": "Sabará",
        "state": "MG",
        "district": "Rosário",
        "street": "Rua Todos os Santos",
        "zipcode": "34575-470"
    },
    {
        "city": "Sabará",
        "state": "MG",
        "district": "Rosário",
        "street": "Rua Felipe dos Santos",
        "zipcode": "34555-132"
    },
    {
        "city": "Sabará",
        "state": "MG",
        "district": "Nossa Senhora de Fátima",
        "street": "Rua Ipatinga",
        "zipcode": "34600-265"
    },
    {
        "city": "Sabará",
        "state": "MG",
        "district": "Centro",
        "street": "Rua Abreu Guimarães",
        "zipcode": "34505-250"
    },
    {
        "city": "Sabará",
        "state": "MG",
        "district": "Vila Rica",
        "street": "Rua Alagoas",
        "zipcode": "34580-220"
    },
    {
        "city": "Sabará",
        "state": "MG",
        "district": "Centro",
        "street": "Rua Clark",
        "zipcode": "34505-110"
    },
    {
        "city": "Sabará",
        "state": "MG",
        "district": "Centro",
        "street": "Rua Clemente de Faria",
        "zipcode": "34505-370"
    },
    {
        "city": "Sabará",
        "state": "MG",
        "district": "Adelmolândia",
        "street": "Rua Cravo",
        "zipcode": "34525-540"
    },
    {
        "city": "Sabará",
        "state": "MG",
        "district": "Centro",
        "street": "Rua Diolindo de Jesus",
        "zipcode": "34505-260"
    },
    {
        "city": "Sabará",
        "state": "MG",
        "district": "Centro",
        "street": "Praça Bueno Brandão",
        "zipcode": "34505-820"
    },
    {
        "city": "Sabará",
        "state": "MG",
        "district": "Córrego da Ilha",
        "street": "Rua Santa Cecília",
        "zipcode": "34525-254"
    },
    {
        "city": "Sabará",
        "state": "MG",
        "district": "Paciência",
        "street": "Rua Jaqueira",
        "zipcode": "34535-101"
    },
    {
        "city": "Sabará",
        "state": "MG",
        "district": "Santana",
        "street": "Rua Elpídio",
        "zipcode": "34545-730"
    },
    {
        "city": "Sabará",
        "state": "MG",
        "district": "Vila Esperança",
        "street": "Rua Esmeralda",
        "zipcode": "34505-180"
    },
    {
        "city": "Sabará",
        "state": "MG",
        "district": "Centro",
        "street": "Rua dos Esportes",
        "zipcode": "34525-370"
    },
    {
        "city": "Sabará",
        "state": "MG",
        "district": "Vila Michel",
        "street": "Rua Itabirito",
        "zipcode": "34515-010"
    },
    {
        "city": "Sabará",
        "state": "MG",
        "district": "Santana",
        "street": "Rua Jasmim",
        "zipcode": "34545-490"
    },
    {
        "city": "Sabará",
        "state": "MG",
        "district": "Vila Nova Vista",
        "street": "Rua Joaquim Cláudio",
        "zipcode": "34710-390"
    },
    {
        "city": "Sabará",
        "state": "MG",
        "district": "Ana Lúcia",
        "street": "Rua Marte",
        "zipcode": "34710-130"
    },
    {
        "city": "Sabará",
        "state": "MG",
        "district": "Santana",
        "street": "Rua Mauro",
        "zipcode": "34545-710"
    },
    {
        "city": "Sabará",
        "state": "MG",
        "district": "Centro",
        "street": "Rua Mestre Caetano",
        "zipcode": "34505-320"
    },
    {
        "city": "Sabará",
        "state": "MG",
        "district": "Valparaíso",
        "street": "Rua Onze",
        "zipcode": "34585-500"
    },
    {
        "city": "Sabará",
        "state": "MG",
        "district": "Caieira",
        "street": "Rua Otávio Guimarães",
        "zipcode": "34505-070"
    },
    {
        "city": "Sabará",
        "state": "MG",
        "district": "Vila Esperança",
        "street": "Rua do Ouro",
        "zipcode": "34505-170"
    },
    {
        "city": "Sabará",
        "state": "MG",
        "district": "Rosário",
        "street": "Rua Paganini",
        "zipcode": "34565-090"
    },
    {
        "city": "Sabará",
        "state": "MG",
        "district": "Caieira",
        "street": "Praça Paulo de Souza Lima",
        "zipcode": "34505-060"
    },
    {
        "city": "Sabará",
        "state": "MG",
        "district": "Rosário",
        "street": "Rua Piscinini",
        "zipcode": "34565-060"
    },
    {
        "city": "Sabará",
        "state": "MG",
        "district": "Centro",
        "street": "Rua Princesa Isabel",
        "zipcode": "34505-310"
    },
    {
        "city": "Sabará",
        "state": "MG",
        "district": "Valparaíso",
        "street": "Rua Quatorze",
        "zipcode": "34585-530"
    },
    {
        "city": "Sabará",
        "state": "MG",
        "district": "Vila Esperança",
        "street": "Rua Safira",
        "zipcode": "34505-230"
    },
    {
        "city": "Sabará",
        "state": "MG",
        "district": "Centro",
        "street": "Praça Santa Rita",
        "zipcode": "34505-330"
    },
    {
        "city": "Sabará",
        "state": "MG",
        "district": "Centro",
        "street": "Rua São Francisco",
        "zipcode": "34505-100"
    },
    {
        "city": "Sabará",
        "state": "MG",
        "district": "Itacolomi",
        "street": "Rua Tiradentes",
        "zipcode": "34585-100"
    },
    {
        "city": "Sabará",
        "state": "MG",
        "district": "Vila Esperança",
        "street": "Rua Topázio",
        "zipcode": "34505-210"
    },
    {
        "city": "Sabará",
        "state": "MG",
        "district": "Centro",
        "street": "Travessa Treze de Maio",
        "zipcode": "34505-271"
    },
    {
        "city": "Sabará",
        "state": "MG",
        "district": "Santana",
        "street": "Rua Valter",
        "zipcode": "34545-720"
    },
    {
        "city": "Sabará",
        "state": "MG",
        "district": "Vila Campinas",
        "street": "Rua das Flores",
        "zipcode": "34515-210"
    },
    {
        "city": "Sabará",
        "state": "MG",
        "district": "Centro",
        "street": "Rua da Republica",
        "zipcode": "34505-030"
    },
    {
        "city": "Sabará",
        "state": "MG",
        "district": "Vila Francisco de Moura",
        "street": "Rua Castanheira",
        "zipcode": "34525-120"
    },
    {
        "city": "Sabará",
        "state": "MG",
        "district": "Vila Esperança",
        "street": "Rua Diamante",
        "zipcode": "34505-190"
    },
    {
        "city": "Sabará",
        "state": "MG",
        "district": "Rio Negro",
        "street": "Rua Frei Leopoldo",
        "zipcode": "34710-300"
    },
    {
        "city": "Sabará",
        "state": "MG",
        "district": "Centro",
        "street": "Rua Mestra Ritinha",
        "zipcode": "34505-020"
    },
    {
        "city": "Sabará",
        "state": "MG",
        "district": "Centro",
        "street": "Rua Mestre Hercolino",
        "zipcode": "34505-290"
    },
    {
        "city": "Sabará",
        "state": "MG",
        "district": "Mangabeiras",
        "street": "Rua E",
        "zipcode": "34516-040"
    },
    {
        "city": "Sabará",
        "state": "MG",
        "district": "Adelmolândia",
        "street": "Travessa Um",
        "zipcode": "34525-525"
    },
    {
        "city": "Sabará",
        "state": "MG",
        "district": "Adelmolândia",
        "street": "Travessa Dois",
        "zipcode": "34525-535"
    },
    {
        "city": "Sabará",
        "state": "MG",
        "district": "Borges",
        "street": "Rua Lorena",
        "zipcode": "34720-030"
    },
    {
        "city": "Sabará",
        "state": "MG",
        "district": "Alto do Fidalgo",
        "street": "Rua Conde",
        "zipcode": "34515-734"
    },
    {
        "city": "Sabará",
        "state": "MG",
        "district": "Mangueiras",
        "street": "Rua A",
        "zipcode": "34516-135"
    },
    {
        "city": "Sabará",
        "state": "MG",
        "district": "Mangueiras",
        "street": "Rua D",
        "zipcode": "34516-150"
    },
    {
        "city": "Sabará",
        "state": "MG",
        "district": "Mangueiras",
        "street": "Rua E",
        "zipcode": "34516-155"
    },
    {
        "city": "Sabará",
        "state": "MG",
        "district": "Centro",
        "street": "Rua Antônio Basílio Pereira",
        "zipcode": "34505-470"
    },
    {
        "city": "Sabará",
        "state": "MG",
        "district": "Terra Santa",
        "street": "Rua Arthur Lima Júnior",
        "zipcode": "34505-530"
    },
    {
        "city": "Sabará",
        "state": "MG",
        "district": "Vila Santa Cruz",
        "street": "Rua Caetés",
        "zipcode": "34515-040"
    },
    {
        "city": "Sabará",
        "state": "MG",
        "district": "Vila Santo Antônio de Pádua",
        "street": "Rua Caixa DÁgua",
        "zipcode": "34515-620"
    },
    {
        "city": "Sabará",
        "state": "MG",
        "district": "Vila Rica",
        "street": "Rua Curitiba",
        "zipcode": "34580-250"
    },
    {
        "city": "Sabará",
        "state": "MG",
        "district": "Centro",
        "street": "Avenida Prefeito Serafim Motta Barros",
        "zipcode": "34505-440"
    },
    {
        "city": "Sabará",
        "state": "MG",
        "district": "Padre Chiquinho",
        "street": "Rua Dom Cabral",
        "zipcode": "34515-550"
    },
    {
        "city": "Sabará",
        "state": "MG",
        "district": "Padre Chiquinho",
        "street": "Rua Dom Silvério",
        "zipcode": "34515-570"
    },
    {
        "city": "Sabará",
        "state": "MG",
        "district": "Padre Chiquinho",
        "street": "Rua Dom Viçoso",
        "zipcode": "34515-580"
    },
    {
        "city": "Sabará",
        "state": "MG",
        "district": "Rosário",
        "street": "Rua Dom Bosco",
        "zipcode": "34575-000"
    },
    {
        "city": "Sabará",
        "state": "MG",
        "district": "Novo Alvorada",
        "street": "Rua Botafogo",
        "zipcode": "34650-230"
    },
    {
        "city": "Sabará",
        "state": "MG",
        "district": "Rosário",
        "street": "Rua Américo Vespúcio",
        "zipcode": "34555-274"
    },
    {
        "city": "Sabará",
        "state": "MG",
        "district": "Rosário",
        "street": "Rua Príncipe de Gales",
        "zipcode": "34565-300"
    },
    {
        "city": "Sabará",
        "state": "MG",
        "district": "Nossa Senhora da Conceição",
        "street": "Rua Domingos Francisco",
        "zipcode": "34505-770"
    },
    {
        "city": "Sabará",
        "state": "MG",
        "district": "Nossa Senhora da Conceição",
        "street": "Rua Z",
        "zipcode": "34505-710"
    },
    {
        "city": "Sabará",
        "state": "MG",
        "district": "Vila Santa Cruz",
        "street": "Rua Engenheiro Milton Marcos",
        "zipcode": "34515-110"
    },
    {
        "city": "Sabará",
        "state": "MG",
        "district": "Centro",
        "street": "Rua Euclides da Cunha",
        "zipcode": "34515-130"
    },
    {
        "city": "Sabará",
        "state": "MG",
        "district": "Centro",
        "street": "Rua Floriano Peixoto Viterbo",
        "zipcode": "34505-790"
    },
    {
        "city": "Sabará",
        "state": "MG",
        "district": "Nossa Senhora do Ó",
        "street": "Rua Geraldo Coimbra",
        "zipcode": "34515-240"
    },
    {
        "city": "Sabará",
        "state": "MG",
        "district": "Centro",
        "street": "Rua da Intendência",
        "zipcode": "34505-480"
    },
    {
        "city": "Sabará",
        "state": "MG",
        "district": "Alto do Cabral",
        "street": "Rua Ipê",
        "zipcode": "34505-670"
    },
    {
        "city": "Sabará",
        "state": "MG",
        "district": "Alto do Cabral",
        "street": "Rua Jacarandá",
        "zipcode": "34505-690"
    },
    {
        "city": "Sabará",
        "state": "MG",
        "district": "Centro",
        "street": "Rua João Francisco Ferreira",
        "zipcode": "34505-740"
    },
    {
        "city": "Sabará",
        "state": "MG",
        "district": "Esplanada",
        "street": "Rua José de Arimatéia",
        "zipcode": "34515-330"
    },
    {
        "city": "Sabará",
        "state": "MG",
        "district": "Vila Santo Antônio de Pádua",
        "street": "Rua José Machado Chaves",
        "zipcode": "34515-470"
    },
    {
        "city": "Sabará",
        "state": "MG",
        "district": "Centro",
        "street": "Rua José Magalhães Barbosa",
        "zipcode": "34505-510"
    },
    {
        "city": "Sabará",
        "state": "MG",
        "district": "Nossa Senhora da Conceição",
        "street": "Rua Juporema",
        "zipcode": "34515-150"
    },
    {
        "city": "Sabará",
        "state": "MG",
        "district": "Centro",
        "street": "Rua Mário Sepúlveda",
        "zipcode": "34505-840"
    },
    {
        "city": "Sabará",
        "state": "MG",
        "district": "Centro",
        "street": "Rua Marquês de Sapucaí",
        "zipcode": "34505-600"
    },
    {
        "city": "Sabará",
        "state": "MG",
        "district": "Centro",
        "street": "Rua Mundo Velho",
        "zipcode": "34505-630"
    },
    {
        "city": "Sabará",
        "state": "MG",
        "district": "Centro",
        "street": "Rua Onézimo dos Santos",
        "zipcode": "34505-540"
    },
    {
        "city": "Sabará",
        "state": "MG",
        "district": "Vila Santa Cruz",
        "street": "Rua Pedro Leopoldo",
        "zipcode": "34515-120"
    },
    {
        "city": "Sabará",
        "state": "MG",
        "district": "São José",
        "street": "Rua Plínio Carvalho Azevedo",
        "zipcode": "34515-380"
    },
    {
        "city": "Sabará",
        "state": "MG",
        "district": "São José",
        "street": "Praça Primeiro de Maio",
        "zipcode": "34515-370"
    },
    {
        "city": "Sabará",
        "state": "MG",
        "district": "Nossa Senhora do Ó",
        "street": "Rua Reta",
        "zipcode": "34515-280"
    },
    {
        "city": "Sabará",
        "state": "MG",
        "district": "Esplanada",
        "street": "Rua São Geraldo",
        "zipcode": "34515-430"
    },
    {
        "city": "Sabará",
        "state": "MG",
        "district": "Esplanada",
        "street": "Rua São João",
        "zipcode": "34515-400"
    },
    {
        "city": "Sabará",
        "state": "MG",
        "district": "Esplanada",
        "street": "Rua São Lucas",
        "zipcode": "34515-340"
    },
    {
        "city": "Sabará",
        "state": "MG",
        "district": "Esplanada",
        "street": "Rua São Paulo",
        "zipcode": "34515-320"
    },
    {
        "city": "Sabará",
        "state": "MG",
        "district": "Esplanada",
        "street": "Rua São Tadeu",
        "zipcode": "34515-310"
    },
    {
        "city": "Sabará",
        "state": "MG",
        "district": "Centro",
        "street": "Rua Sétimo de Paula Rocha",
        "zipcode": "34505-420"
    },
    {
        "city": "Sabará",
        "state": "MG",
        "district": "Centro",
        "street": "Rua Vereador José Vieira",
        "zipcode": "34505-580"
    },
    {
        "city": "Sabará",
        "state": "MG",
        "district": "Centro",
        "street": "Rua Coletor José Vieira",
        "zipcode": "34505-450"
    },
    {
        "city": "Sabará",
        "state": "MG",
        "district": "Vila Santo Antônio de Pádua",
        "street": "Rua José Raimundo Gomes",
        "zipcode": "34515-490"
    },
    {
        "city": "Sabará",
        "state": "MG",
        "district": "Siderúrgica",
        "street": "Rua Lígia de Paula Rocha",
        "zipcode": "34515-230"
    },
    {
        "city": "Sabará",
        "state": "MG",
        "district": "Centro",
        "street": "Rua Amélia Munaer",
        "zipcode": "34505-380"
    },
    {
        "city": "Sabará",
        "state": "MG",
        "district": "Siderúrgica",
        "street": "Rua Beira",
        "zipcode": "34515-165"
    },
    {
        "city": "Sabará",
        "state": "MG",
        "district": "Vila Santa Cruz",
        "street": "Rua Esperança",
        "zipcode": "34515-060"
    },
    {
        "city": "Sabará",
        "state": "MG",
        "district": "Vila Santo Antônio de Pádua",
        "street": "Rua José Honório dos Santos",
        "zipcode": "34515-530"
    },
    {
        "city": "Sabará",
        "state": "MG",
        "district": "Centro",
        "street": "Rua Vereador Edson José dos Santos",
        "zipcode": "34505-810"
    },
    {
        "city": "Sabará",
        "state": "MG",
        "district": "Morro São Francisco",
        "street": "Rua Seis",
        "zipcode": "34505-860"
    },
    {
        "city": "Sabará",
        "state": "MG",
        "district": "Morro São Francisco",
        "street": "Rua Cinco",
        "zipcode": "34505-864"
    },
    {
        "city": "Sabará",
        "state": "MG",
        "district": "Morro São Francisco",
        "street": "Rua Três",
        "zipcode": "34505-865"
    },
    {
        "city": "Sabará",
        "state": "MG",
        "district": "Morro São Francisco",
        "street": "Beco UM",
        "zipcode": "34505-866"
    },
    {
        "city": "Sabará",
        "state": "MG",
        "district": "Alto do Cabral",
        "street": "Rua Pinho",
        "zipcode": "34505-685"
    },
    {
        "city": "Sabará",
        "state": "MG",
        "district": "Alto do Cabral",
        "street": "Rua Três",
        "zipcode": "34505-698"
    },
    {
        "city": "Sabará",
        "state": "MG",
        "district": "Alto do Cabral",
        "street": "Rua Quatro",
        "zipcode": "34505-695"
    },
    {
        "city": "Sabará",
        "state": "MG",
        "district": "Paciência",
        "street": "Rua Santa Rita de Cássia",
        "zipcode": "34535-098"
    },
    {
        "city": "Sabará",
        "state": "MG",
        "district": "Paciência",
        "street": "Rua Ana Maria",
        "zipcode": "34535-000"
    },
    {
        "city": "Sabará",
        "state": "MG",
        "district": "Arraial Velho",
        "street": "Rua Antônio Avendanha",
        "zipcode": "34525-650"
    },
    {
        "city": "Sabará",
        "state": "MG",
        "district": "Vila Santo Antônio de Pádua",
        "street": "Rua Antônio Francisco Lisboa",
        "zipcode": "34515-630"
    },
    {
        "city": "Sabará",
        "state": "MG",
        "district": "Adelmolândia",
        "street": "Rua Azaléia",
        "zipcode": "34525-520"
    },
    {
        "city": "Sabará",
        "state": "MG",
        "district": "Morro da Cruz",
        "street": "Rua Bela Vista",
        "zipcode": "34525-285"
    },
    {
        "city": "Sabará",
        "state": "MG",
        "district": "Morro da Cruz",
        "street": "Rua Bom Jesus",
        "zipcode": "34525-330"
    },
    {
        "city": "Sabará",
        "state": "MG",
        "district": "Paciência",
        "street": "Rua Castorino Quites",
        "zipcode": "34535-030"
    },
    {
        "city": "Sabará",
        "state": "MG",
        "district": "Vila Francisco de Moura",
        "street": "Rua Cinco",
        "zipcode": "34525-160"
    },
    {
        "city": "Sabará",
        "state": "MG",
        "district": "Córrego da Ilha",
        "street": "Rua da Colina",
        "zipcode": "34525-250"
    },
    {
        "city": "Sabará",
        "state": "MG",
        "district": "Paciência",
        "street": "Rua Cruzeiro",
        "zipcode": "34535-050"
    },
    {
        "city": "Sabará",
        "state": "MG",
        "district": "Vila Francisco de Moura",
        "street": "Rua Pinheiro",
        "zipcode": "34525-200"
    },
    {
        "city": "Sabará",
        "state": "MG",
        "district": "Paciência",
        "street": "Rua Doutor Zacarias Lamego",
        "zipcode": "34535-010"
    },
    {
        "city": "Sabará",
        "state": "MG",
        "district": "Adelmolândia",
        "street": "Rua Jasmim",
        "zipcode": "34525-590"
    },
    {
        "city": "Sabará",
        "state": "MG",
        "district": "Centro",
        "street": "Rua José Brochado Gomes",
        "zipcode": "34525-020"
    },
    {
        "city": "Sabará",
        "state": "MG",
        "district": "Adelmolândia",
        "street": "Rua Manacá",
        "zipcode": "34525-580"
    },
    {
        "city": "Sabará",
        "state": "MG",
        "district": "Fogo Apagou",
        "street": "Rua Mário Machado",
        "zipcode": "34525-390"
    },
    {
        "city": "Sabará",
        "state": "MG",
        "district": "Fogo Apagou",
        "street": "Rua Mestre Paes",
        "zipcode": "34525-380"
    },
    {
        "city": "Sabará",
        "state": "MG",
        "district": "Vila Francisco de Moura",
        "street": "Rua Nove",
        "zipcode": "34525-130"
    },
    {
        "city": "Sabará",
        "state": "MG",
        "district": "Córrego da Ilha",
        "street": "Rua Padre Nico",
        "zipcode": "34525-050"
    },
    {
        "city": "Sabará",
        "state": "MG",
        "district": "Água Férrea",
        "street": "Rua Quatro",
        "zipcode": "34535-150"
    },
    {
        "city": "Sabará",
        "state": "MG",
        "district": "Paciência",
        "street": "Rua das Samaritanas",
        "zipcode": "34535-090"
    },
    {
        "city": "Sabará",
        "state": "MG",
        "district": "Morro da Cruz",
        "street": "Rua Santa Cruz",
        "zipcode": "34525-280"
    },
    {
        "city": "Sabará",
        "state": "MG",
        "district": "Córrego da Ilha",
        "street": "Rua Santa Luzia",
        "zipcode": "34525-240"
    },
    {
        "city": "Sabará",
        "state": "MG",
        "district": "Morro da Cruz",
        "street": "Rua São Vicente",
        "zipcode": "34525-350"
    },
    {
        "city": "Sabará",
        "state": "MG",
        "district": "Vila Francisco de Moura",
        "street": "Rua Seis",
        "zipcode": "34525-180"
    },
    {
        "city": "Sabará",
        "state": "MG",
        "district": "Conjunto Morada da Serra",
        "street": "Rua Serra da Mantiqueira",
        "zipcode": "34515-680"
    },
    {
        "city": "Sabará",
        "state": "MG",
        "district": "Conjunto Morada da Serra",
        "street": "Avenida Serra da Piedade",
        "zipcode": "34515-640"
    },
    {
        "city": "Sabará",
        "state": "MG",
        "district": "Conjunto Morada da Serra",
        "street": "Rua Serra do Borborema",
        "zipcode": "34515-650"
    },
    {
        "city": "Sabará",
        "state": "MG",
        "district": "Fogo Apagou",
        "street": "Rua Sul América",
        "zipcode": "34525-400"
    },
    {
        "city": "Sabará",
        "state": "MG",
        "district": "Morro da Cruz",
        "street": "Rua Vera Cruz",
        "zipcode": "34525-320"
    },
    {
        "city": "Sabará",
        "state": "MG",
        "district": "Praia dos Bandeirantes",
        "street": "Travessa Vereador Romualdo Lopes",
        "zipcode": "34525-030"
    },
    {
        "city": "Sabará",
        "state": "MG",
        "district": "Córrego da Ilha",
        "street": "Rua Vista Alegre",
        "zipcode": "34525-230"
    },
    {
        "city": "Sabará",
        "state": "MG",
        "district": "Adelmolândia",
        "street": "Rua Violeta",
        "zipcode": "34525-510"
    },
    {
        "city": "Sabará",
        "state": "MG",
        "district": "Paciência",
        "street": "Avenida Alberto Scharle",
        "zipcode": "34535-100"
    },
    {
        "city": "Sabará",
        "state": "MG",
        "district": "Córrego da Ilha",
        "street": "Rua Vereador Sérgio Barbosa",
        "zipcode": "34525-070"
    },
    {
        "city": "Sabará",
        "state": "MG",
        "district": "Morro da Cruz",
        "street": "Rua Boa Vista",
        "zipcode": "34525-290"
    },
    {
        "city": "Sabará",
        "state": "MG",
        "district": "Paciência",
        "street": "Rua Palmeiras",
        "zipcode": "34535-070"
    },
    {
        "city": "Sabará",
        "state": "MG",
        "district": "Paciência",
        "street": "Rua Marlene Fidelis",
        "zipcode": "34535-080"
    },
    {
        "city": "Sabará",
        "state": "MG",
        "district": "Conjunto Morada da Serra",
        "street": "Rua Serra da Canastra",
        "zipcode": "34515-720"
    },
    {
        "city": "Sabará",
        "state": "MG",
        "district": "Mangueiras",
        "street": "Rua Ribeiro Ferreira",
        "zipcode": "34516-105"
    },
    {
        "city": "Sabará",
        "state": "MG",
        "district": "Mangueiras",
        "street": "Rua do Sabonete",
        "zipcode": "34516-118"
    },
    {
        "city": "Sabará",
        "state": "MG",
        "district": "Pompeu",
        "street": "Rua Helio Martins Bento",
        "zipcode": "34518-030"
    },
    {
        "city": "Sabará",
        "state": "MG",
        "district": "Pompeu",
        "street": "Rua Pedro Teixeira de Andrade",
        "zipcode": "34518-050"
    },
    {
        "city": "Sabará",
        "state": "MG",
        "district": "Pompeu",
        "street": "Rua José Vaz Pedrosa",
        "zipcode": "34518-060"
    },
    {
        "city": "Sabará",
        "state": "MG",
        "district": "Pompeu",
        "street": "Rua Lúcio Zacarias Pinheiro",
        "zipcode": "34518-100"
    },
    {
        "city": "Sabará",
        "state": "MG",
        "district": "Córrego da Ilha",
        "street": "Rua José Emílio dos Santos",
        "zipcode": "34525-238"
    },
    {
        "city": "Sabará",
        "state": "MG",
        "district": "Adelmolândia",
        "street": "Rua Dois",
        "zipcode": "34525-425"
    },
    {
        "city": "Sabará",
        "state": "MG",
        "district": "Adelmolândia",
        "street": "Rua Três",
        "zipcode": "34525-435"
    },
    {
        "city": "Sabará",
        "state": "MG",
        "district": "Adelmolândia",
        "street": "Rua Quatro",
        "zipcode": "34525-445"
    },
    {
        "city": "Sabará",
        "state": "MG",
        "district": "Adelmolândia",
        "street": "Rua Seis",
        "zipcode": "34525-465"
    },
    {
        "city": "Sabará",
        "state": "MG",
        "district": "Adelmolândia",
        "street": "Rua Sete",
        "zipcode": "34525-475"
    },
    {
        "city": "Sabará",
        "state": "MG",
        "district": "Adelmolândia",
        "street": "Rua Nove",
        "zipcode": "34525-495"
    },
    {
        "city": "Sabará",
        "state": "MG",
        "district": "Adelmolândia",
        "street": "Rua Dez",
        "zipcode": "34525-505"
    },
    {
        "city": "Sabará",
        "state": "MG",
        "district": "Alto do Fidalgo",
        "street": "Rua Príncipe",
        "zipcode": "34515-750"
    },
    {
        "city": "Sabará",
        "state": "MG",
        "district": "Rosário",
        "street": "Rua Frei Caneca",
        "zipcode": "34555-082"
    },
    {
        "city": "Sabará",
        "state": "MG",
        "district": "Rosário",
        "street": "Rua Machado de Assis",
        "zipcode": "34555-262"
    },
    {
        "city": "Sabará",
        "state": "MG",
        "district": "Vila Real",
        "street": "Rua Cônego Roussin",
        "zipcode": "34536-080"
    },
    {
        "city": "Sabará",
        "state": "MG",
        "district": "Rosário",
        "street": "Rua Aires",
        "zipcode": "34555-040"
    },
    {
        "city": "Sabará",
        "state": "MG",
        "district": "Rosário",
        "street": "Rua Alpes",
        "zipcode": "34575-070"
    },
    {
        "city": "Sabará",
        "state": "MG",
        "district": "Rosário",
        "street": "Rua Antônio Vieira",
        "zipcode": "34555-250"
    },
    {
        "city": "Sabará",
        "state": "MG",
        "district": "Rosário",
        "street": "Rua Calabar",
        "zipcode": "34555-030"
    },
    {
        "city": "Sabará",
        "state": "MG",
        "district": "Santana",
        "street": "Rua Clair",
        "zipcode": "34545-390"
    },
    {
        "city": "Sabará",
        "state": "MG",
        "district": "Água Férrea",
        "street": "Rua Dois",
        "zipcode": "34535-170"
    },
    {
        "city": "Sabará",
        "state": "MG",
        "district": "Rosário",
        "street": "Rua Felipe Camarão",
        "zipcode": "34555-240"
    },
    {
        "city": "Sabará",
        "state": "MG",
        "district": "Rosário",
        "street": "Rua Frei Henrique de Coimbra",
        "zipcode": "34555-150"
    },
    {
        "city": "Sabará",
        "state": "MG",
        "district": "Santana",
        "street": "Rua Geraldo",
        "zipcode": "34545-450"
    },
    {
        "city": "Sabará",
        "state": "MG",
        "district": "Rosário",
        "street": "Rua Giuseppe Verdi",
        "zipcode": "34565-030"
    },
    {
        "city": "Sabará",
        "state": "MG",
        "district": "Santana",
        "street": "Rua Humberto",
        "zipcode": "34545-550"
    },
    {
        "city": "Sabará",
        "state": "MG",
        "district": "Santana",
        "street": "Rua Irineu",
        "zipcode": "34545-680"
    },
    {
        "city": "Sabará",
        "state": "MG",
        "district": "Água Férrea",
        "street": "Praça Antônio Carlos",
        "zipcode": "34535-120"
    },
    {
        "city": "Sabará",
        "state": "MG",
        "district": "Rosário",
        "street": "Rua José Bonifácio",
        "zipcode": "34555-310"
    },
    {
        "city": "Sabará",
        "state": "MG",
        "district": "Rosário",
        "street": "Rua Luís de Camões",
        "zipcode": "34555-080"
    },
    {
        "city": "Sabará",
        "state": "MG",
        "district": "Vila Rica",
        "street": "Rua Maranhão",
        "zipcode": "34580-530"
    },
    {
        "city": "Sabará",
        "state": "MG",
        "district": "Rosário",
        "street": "Rua Matias Barbosa",
        "zipcode": "34555-170"
    },
    {
        "city": "Sabará",
        "state": "MG",
        "district": "Rosário",
        "street": "Rua Maurício de Nassau",
        "zipcode": "34555-290"
    },
    {
        "city": "Sabará",
        "state": "MG",
        "district": "Rosário",
        "street": "Rua Mem de Sá",
        "zipcode": "34555-140"
    },
    {
        "city": "Sabará",
        "state": "MG",
        "district": "Rosário",
        "street": "Rua Paccini",
        "zipcode": "34565-050"
    },
    {
        "city": "Sabará",
        "state": "MG",
        "district": "Rosário",
        "street": "Rua Princesa Isabel",
        "zipcode": "34555-300"
    },
    {
        "city": "Sabará",
        "state": "MG",
        "district": "Santana",
        "street": "Rua Ricardino",
        "zipcode": "34545-410"
    },
    {
        "city": "Sabará",
        "state": "MG",
        "district": "Santana",
        "street": "Rua Santa Efigênia",
        "zipcode": "34535-210"
    },
    {
        "city": "Sabará",
        "state": "MG",
        "district": "Santo Antônio (Roça Grande)",
        "street": "Rua Santa Helena",
        "zipcode": "34545-170"
    },
    {
        "city": "Sabará",
        "state": "MG",
        "district": "Vila Real",
        "street": "Rua Lucas José de Alvarenga",
        "zipcode": "34536-050"
    },
    {
        "city": "Sabará",
        "state": "MG",
        "district": "Santo Antônio (Roça Grande)",
        "street": "Rua Santa Luzia",
        "zipcode": "34545-140"
    },
    {
        "city": "Sabará",
        "state": "MG",
        "district": "Santo Antônio (Roça Grande)",
        "street": "Rua Santo Onofre",
        "zipcode": "34545-180"
    },
    {
        "city": "Sabará",
        "state": "MG",
        "district": "Santo Antônio (Roça Grande)",
        "street": "Rua São Bento",
        "zipcode": "34545-120"
    },
    {
        "city": "Sabará",
        "state": "MG",
        "district": "Santo Antônio (Roça Grande)",
        "street": "Rua São Braz",
        "zipcode": "34545-320"
    },
    {
        "city": "Sabará",
        "state": "MG",
        "district": "Santo Antônio (Roça Grande)",
        "street": "Rua São Cristóvão",
        "zipcode": "34545-360"
    },
    {
        "city": "Sabará",
        "state": "MG",
        "district": "Santo Antônio (Roça Grande)",
        "street": "Rua São Estevão",
        "zipcode": "34545-160"
    },
    {
        "city": "Sabará",
        "state": "MG",
        "district": "Santo Antônio (Roça Grande)",
        "street": "Rua São Geraldo",
        "zipcode": "34545-230"
    },
    {
        "city": "Sabará",
        "state": "MG",
        "district": "Santo Antônio (Roça Grande)",
        "street": "Rua São João",
        "zipcode": "34545-290"
    },
    {
        "city": "Sabará",
        "state": "MG",
        "district": "Santana",
        "street": "Rua São José",
        "zipcode": "34545-590"
    },
    {
        "city": "Sabará",
        "state": "MG",
        "district": "Santo Antônio (Roça Grande)",
        "street": "Rua São Marcos",
        "zipcode": "34545-340"
    },
    {
        "city": "Sabará",
        "state": "MG",
        "district": "Santo Antônio (Roça Grande)",
        "street": "Rua São Paulo",
        "zipcode": "34545-310"
    },
    {
        "city": "Sabará",
        "state": "MG",
        "district": "Santo Antônio (Roça Grande)",
        "street": "Rua São Pedro",
        "zipcode": "34545-210"
    },
    {
        "city": "Sabará",
        "state": "MG",
        "district": "Santo Antônio (Roça Grande)",
        "street": "Rua São Tomaz",
        "zipcode": "34545-010"
    },
    {
        "city": "Sabará",
        "state": "MG",
        "district": "Santo Antônio (Roça Grande)",
        "street": "Rua São Tomé",
        "zipcode": "34545-020"
    },
    {
        "city": "Sabará",
        "state": "MG",
        "district": "Santo Antônio (Roça Grande)",
        "street": "Rua Senhora da Paz",
        "zipcode": "34545-300"
    },
    {
        "city": "Sabará",
        "state": "MG",
        "district": "Santana",
        "street": "Rua Serafim Mota Barros",
        "zipcode": "34545-420"
    },
    {
        "city": "Sabará",
        "state": "MG",
        "district": "Água Férrea",
        "street": "Rua Três",
        "zipcode": "34535-160"
    },
    {
        "city": "Sabará",
        "state": "MG",
        "district": "Santana",
        "street": "Rua Weber",
        "zipcode": "34545-750"
    },
    {
        "city": "Sabará",
        "state": "MG",
        "district": "Santana",
        "street": "Rua Ângelo",
        "zipcode": "34545-540"
    },
    {
        "city": "Sabará",
        "state": "MG",
        "district": "Santana",
        "street": "Rua Mário",
        "zipcode": "34545-570"
    },
    {
        "city": "Sabará",
        "state": "MG",
        "district": "Santana",
        "street": "Rua V",
        "zipcode": "34545-770"
    },
    {
        "city": "Sabará",
        "state": "MG",
        "district": "Santana",
        "street": "Rua Paulo",
        "zipcode": "34545-530"
    },
    {
        "city": "Sabará",
        "state": "MG",
        "district": "Santo Antônio (Roça Grande)",
        "street": "Rua Santana",
        "zipcode": "34545-790"
    },
    {
        "city": "Sabará",
        "state": "MG",
        "district": "Borges",
        "street": "Rua Aléxia",
        "zipcode": "34720-070"
    },
    {
        "city": "Sabará",
        "state": "MG",
        "district": "São José",
        "street": "Rua Veja",
        "zipcode": "34580-326"
    },
    {
        "city": "Sabará",
        "state": "MG",
        "district": "Itacolomi",
        "street": "Rua Acaiaca",
        "zipcode": "34580-160"
    },
    {
        "city": "Sabará",
        "state": "MG",
        "district": "Itacolomi",
        "street": "Rua Almenara",
        "zipcode": "34580-090"
    },
    {
        "city": "Sabará",
        "state": "MG",
        "district": "Itacolomi",
        "street": "Rua Alterosa",
        "zipcode": "34580-300"
    },
    {
        "city": "Sabará",
        "state": "MG",
        "district": "Itacolomi",
        "street": "Rua Araguari",
        "zipcode": "34580-070"
    },
    {
        "city": "Sabará",
        "state": "MG",
        "district": "São José",
        "street": "Rua Araxá",
        "zipcode": "34580-360"
    },
    {
        "city": "Sabará",
        "state": "MG",
        "district": "Rosário",
        "street": "Rua Arthur Bernardes",
        "zipcode": "34565-100"
    },
    {
        "city": "Sabará",
        "state": "MG",
        "district": "Rosário",
        "street": "Rua Boa Sorte",
        "zipcode": "34575-220"
    },
    {
        "city": "Sabará",
        "state": "MG",
        "district": "Rosário",
        "street": "Rua Bom Jardim",
        "zipcode": "34575-040"
    },
    {
        "city": "Sabará",
        "state": "MG",
        "district": "Rosário",
        "street": "Rua Bom Jesus",
        "zipcode": "34575-110"
    },
    {
        "city": "Sabará",
        "state": "MG",
        "district": "Vila Rica",
        "street": "Rua Caxambu",
        "zipcode": "34580-470"
    },
    {
        "city": "Sabará",
        "state": "MG",
        "district": "Rosário",
        "street": "Rua Célio Renato",
        "zipcode": "34575-320"
    },
    {
        "city": "Sabará",
        "state": "MG",
        "district": "Rosário",
        "street": "Rua Dora",
        "zipcode": "34575-240"
    },
    {
        "city": "Sabará",
        "state": "MG",
        "district": "Rosário",
        "street": "Rua Eduardo Barbosa",
        "zipcode": "34575-370"
    },
    {
        "city": "Sabará",
        "state": "MG",
        "district": "Santana",
        "street": "Rua Luzia Nascimento",
        "zipcode": "34545-510"
    },
    {
        "city": "Sabará",
        "state": "MG",
        "district": "Rosário",
        "street": "Rua Bethoven",
        "zipcode": "34565-120"
    },
    {
        "city": "Sabará",
        "state": "MG",
        "district": "Santana",
        "street": "Rua Nelson Córrego",
        "zipcode": "34545-400"
    },
    {
        "city": "Sabará",
        "state": "MG",
        "district": "Rosário",
        "street": "Rua Marília de Dirceu",
        "zipcode": "34555-244"
    },
    {
        "city": "Sabará",
        "state": "MG",
        "district": "Rosário",
        "street": "Rua Duquinha",
        "zipcode": "34575-590"
    },
    {
        "city": "Sabará",
        "state": "MG",
        "district": "Rosário",
        "street": "Rua Água Bela",
        "zipcode": "34575-120"
    },
    {
        "city": "Sabará",
        "state": "MG",
        "district": "Rosário",
        "street": "Rua Chopin",
        "zipcode": "34565-020"
    },
    {
        "city": "Sabará",
        "state": "MG",
        "district": "Santana",
        "street": "Rua Juvenal",
        "zipcode": "34545-460"
    },
    {
        "city": "Sabará",
        "state": "MG",
        "district": "Rosário",
        "street": "Rua Gilberto",
        "zipcode": "34575-100"
    },
    {
        "city": "Sabará",
        "state": "MG",
        "district": "Itacolomi",
        "street": "Rua Itaúna",
        "zipcode": "34580-100"
    },
    {
        "city": "Sabará",
        "state": "MG",
        "district": "Rosário",
        "street": "Rua Jatinho",
        "zipcode": "34575-140"
    },
    {
        "city": "Sabará",
        "state": "MG",
        "district": "São José",
        "street": "Rua Lavras",
        "zipcode": "34580-440"
    },
    {
        "city": "Sabará",
        "state": "MG",
        "district": "Itacolomi",
        "street": "Rua Leopoldina",
        "zipcode": "34580-180"
    },
    {
        "city": "Sabará",
        "state": "MG",
        "district": "São José",
        "street": "Rua Macapá",
        "zipcode": "34580-420"
    },
    {
        "city": "Sabará",
        "state": "MG",
        "district": "Rosário",
        "street": "Rua Madeira Simões",
        "zipcode": "34575-300"
    },
    {
        "city": "Sabará",
        "state": "MG",
        "district": "Rosário",
        "street": "Rua Orleans",
        "zipcode": "34575-030"
    },
    {
        "city": "Sabará",
        "state": "MG",
        "district": "São José",
        "street": "Rua Paraná",
        "zipcode": "34580-450"
    },
    {
        "city": "Sabará",
        "state": "MG",
        "district": "Itacolomi",
        "street": "Rua Peçanha",
        "zipcode": "34580-200"
    },
    {
        "city": "Sabará",
        "state": "MG",
        "district": "Itacolomi",
        "street": "Rua Pedro Leopoldo",
        "zipcode": "34580-140"
    },
    {
        "city": "Sabará",
        "state": "MG",
        "district": "Rosário",
        "street": "Rua Gonçalves Ledo",
        "zipcode": "34555-282"
    },
    {
        "city": "Sabará",
        "state": "MG",
        "district": "Rosário",
        "street": "Rua Frontina",
        "zipcode": "34575-410"
    },
    {
        "city": "Sabará",
        "state": "MG",
        "district": "Rosário",
        "street": "Rua Alberto Rocha",
        "zipcode": "34565-180"
    },
    {
        "city": "Sabará",
        "state": "MG",
        "district": "Rosário",
        "street": "Rua José de Anchieta",
        "zipcode": "34555-110"
    },
    {
        "city": "Sabará",
        "state": "MG",
        "district": "Rosário",
        "street": "Rua Pérola",
        "zipcode": "34575-170"
    },
    {
        "city": "Sabará",
        "state": "MG",
        "district": "Rosário",
        "street": "Rua Ponta Porã",
        "zipcode": "34575-420"
    },
    {
        "city": "Sabará",
        "state": "MG",
        "district": "Itacolomi",
        "street": "Rua Rio Acima",
        "zipcode": "34580-270"
    },
    {
        "city": "Sabará",
        "state": "MG",
        "district": "São José",
        "street": "Rua Rio Branco",
        "zipcode": "34580-390"
    },
    {
        "city": "Sabará",
        "state": "MG",
        "district": "São José",
        "street": "Rua Santa Catarina",
        "zipcode": "34580-370"
    },
    {
        "city": "Sabará",
        "state": "MG",
        "district": "Itacolomi",
        "street": "Rua São João Del Rei",
        "zipcode": "34580-030"
    },
    {
        "city": "Sabará",
        "state": "MG",
        "district": "São José",
        "street": "Rua São Paulo",
        "zipcode": "34580-350"
    },
    {
        "city": "Sabará",
        "state": "MG",
        "district": "Rosário",
        "street": "Rua Severa",
        "zipcode": "34575-620"
    },
    {
        "city": "Sabará",
        "state": "MG",
        "district": "Itacolomi",
        "street": "Rua Campanário",
        "zipcode": "34580-290"
    },
    {
        "city": "Sabará",
        "state": "MG",
        "district": "Rosário",
        "street": "Rua Eva Peron",
        "zipcode": "34565-130"
    },
    {
        "city": "Sabará",
        "state": "MG",
        "district": "Itacolomi",
        "street": "Rua Pará de Minas",
        "zipcode": "34580-035"
    },
    {
        "city": "Sabará",
        "state": "MG",
        "district": "Rosário",
        "street": "Rodovia MG",
        "zipcode": "34565-320"
    },
    {
        "city": "Sabará",
        "state": "MG",
        "district": "Nações Unidas",
        "street": "Rua Lambari",
        "zipcode": "34590-145"
    },
    {
        "city": "Sabará",
        "state": "MG",
        "district": "Valparaíso",
        "street": "Rua Rouxinol",
        "zipcode": "34585-542"
    },
    {
        "city": "Sabará",
        "state": "MG",
        "district": "São José",
        "street": "Rua Polares",
        "zipcode": "34580-323"
    },
    {
        "city": "Sabará",
        "state": "MG",
        "district": "Vila Rica",
        "street": "Rua Abaeté",
        "zipcode": "34585-110"
    },
    {
        "city": "Sabará",
        "state": "MG",
        "district": "Vila Rica",
        "street": "Rua Amazonas",
        "zipcode": "34580-600"
    },
    {
        "city": "Sabará",
        "state": "MG",
        "district": "Nações Unidas",
        "street": "Rua Áustria",
        "zipcode": "34590-180"
    },
    {
        "city": "Sabará",
        "state": "MG",
        "district": "Vila Rica",
        "street": "Rua Bahia",
        "zipcode": "34585-180"
    },
    {
        "city": "Sabará",
        "state": "MG",
        "district": "Vila Rica",
        "street": "Rua Belém",
        "zipcode": "34585-140"
    },
    {
        "city": "Sabará",
        "state": "MG",
        "district": "Nações Unidas",
        "street": "Rua Bélgica",
        "zipcode": "34590-270"
    },
    {
        "city": "Sabará",
        "state": "MG",
        "district": "Vila Eugênio Rossi",
        "street": "Rua Betim",
        "zipcode": "34585-350"
    },
    {
        "city": "Sabará",
        "state": "MG",
        "district": "Nações Unidas",
        "street": "Rua Bolívia",
        "zipcode": "34590-080"
    },
    {
        "city": "Sabará",
        "state": "MG",
        "district": "Nações Unidas",
        "street": "Avenida Brasil",
        "zipcode": "34590-050"
    },
    {
        "city": "Sabará",
        "state": "MG",
        "district": "Vila Eugênio Rossi",
        "street": "Rua Carvalho de Brito",
        "zipcode": "34585-570"
    },
    {
        "city": "Sabará",
        "state": "MG",
        "district": "Vila Eugênio Rossi",
        "street": "Rua Caxambu",
        "zipcode": "34585-360"
    },
    {
        "city": "Sabará",
        "state": "MG",
        "district": "Vila Rica",
        "street": "Rua Ceará",
        "zipcode": "34580-520"
    },
    {
        "city": "Sabará",
        "state": "MG",
        "district": "Valparaíso",
        "street": "Rua Cinco",
        "zipcode": "34585-580"
    },
    {
        "city": "Sabará",
        "state": "MG",
        "district": "Vila Rica",
        "street": "Rua Curvelo",
        "zipcode": "34585-230"
    },
    {
        "city": "Sabará",
        "state": "MG",
        "district": "Vila Santa Rita",
        "street": "Rua Diamantina",
        "zipcode": "34585-410"
    },
    {
        "city": "Sabará",
        "state": "MG",
        "district": "Valparaíso",
        "street": "Rua Doze",
        "zipcode": "34585-470"
    },
    {
        "city": "Sabará",
        "state": "MG",
        "district": "Vila Santa Rita",
        "street": "Rua Esmeraldas",
        "zipcode": "34585-390"
    },
    {
        "city": "Sabará",
        "state": "MG",
        "district": "Vila Rica",
        "street": "Rua Fortaleza",
        "zipcode": "34585-250"
    },
    {
        "city": "Sabará",
        "state": "MG",
        "district": "Rosário",
        "street": "Rua Nelson Ziviane",
        "zipcode": "34565-280"
    },
    {
        "city": "Sabará",
        "state": "MG",
        "district": "Rosário",
        "street": "Rua Olívio",
        "zipcode": "34575-260"
    },
    {
        "city": "Sabará",
        "state": "MG",
        "district": "Rosário",
        "street": "Rua Mestre Barros",
        "zipcode": "34575-460"
    },
    {
        "city": "Sabará",
        "state": "MG",
        "district": "Rosário",
        "street": "Rua Pasteur",
        "zipcode": "34565-200"
    },
    {
        "city": "Sabará",
        "state": "MG",
        "district": "Rosário",
        "street": "Rua Dalva Matos",
        "zipcode": "34575-610"
    },
    {
        "city": "Sabará",
        "state": "MG",
        "district": "Rosário",
        "street": "Rua Matedinho",
        "zipcode": "34575-480"
    },
    {
        "city": "Sabará",
        "state": "MG",
        "district": "Rosário",
        "street": "Rua Padre Nunes Garcia",
        "zipcode": "34565-250"
    },
    {
        "city": "Sabará",
        "state": "MG",
        "district": "Rosário",
        "street": "Rua José Nelson",
        "zipcode": "34575-380"
    },
    {
        "city": "Sabará",
        "state": "MG",
        "district": "Rosário",
        "street": "Rua Lavrinha",
        "zipcode": "34575-180"
    },
    {
        "city": "Sabará",
        "state": "MG",
        "district": "Rosário",
        "street": "Rua Marcel",
        "zipcode": "34575-250"
    },
    {
        "city": "Sabará",
        "state": "MG",
        "district": "Rosário",
        "street": "Rua Matozinhos",
        "zipcode": "34575-500"
    },
    {
        "city": "Sabará",
        "state": "MG",
        "district": "Rosário",
        "street": "Rua Pratinha",
        "zipcode": "34575-530"
    },
    {
        "city": "Sabará",
        "state": "MG",
        "district": "Rosário",
        "street": "Rua Rivalino",
        "zipcode": "34575-570"
    },
    {
        "city": "Sabará",
        "state": "MG",
        "district": "Vila dos Coqueiros",
        "street": "Rua Beco do Campo",
        "zipcode": "34576-080"
    },
    {
        "city": "Sabará",
        "state": "MG",
        "district": "Itacolomi",
        "street": "Rua Guaxupé",
        "zipcode": "34585-010"
    },
    {
        "city": "Sabará",
        "state": "MG",
        "district": "Itacolomi",
        "street": "Rua Heliodora",
        "zipcode": "34585-030"
    },
    {
        "city": "Sabará",
        "state": "MG",
        "district": "Nações Unidas",
        "street": "Rua Inglaterra",
        "zipcode": "34590-010"
    },
    {
        "city": "Sabará",
        "state": "MG",
        "district": "Nações Unidas",
        "street": "Rua Januária",
        "zipcode": "34590-150"
    },
    {
        "city": "Sabará",
        "state": "MG",
        "district": "Vila Rica",
        "street": "Rua Manaus",
        "zipcode": "34585-160"
    },
    {
        "city": "Sabará",
        "state": "MG",
        "district": "Nações Unidas",
        "street": "Rua Mariana",
        "zipcode": "34590-250"
    },
    {
        "city": "Sabará",
        "state": "MG",
        "district": "Vila São Sebastião",
        "street": "Rua Marzagão",
        "zipcode": "34585-460"
    },
    {
        "city": "Sabará",
        "state": "MG",
        "district": "Vila Rica",
        "street": "Rua Mato Grosso",
        "zipcode": "34585-190"
    },
    {
        "city": "Sabará",
        "state": "MG",
        "district": "Nações Unidas",
        "street": "Rua Minas Gerais",
        "zipcode": "34590-230"
    },
    {
        "city": "Sabará",
        "state": "MG",
        "district": "Vila Rica",
        "street": "Rua Minas Gerais",
        "zipcode": "34580-590"
    },
    {
        "city": "Sabará",
        "state": "MG",
        "district": "Nações Unidas",
        "street": "Praça das Nações",
        "zipcode": "34590-005"
    },
    {
        "city": "Sabará",
        "state": "MG",
        "district": "Vila Rica",
        "street": "Rua Natal",
        "zipcode": "34580-680"
    },
    {
        "city": "Sabará",
        "state": "MG",
        "district": "Valparaíso",
        "street": "Rua Oito",
        "zipcode": "34585-540"
    },
    {
        "city": "Sabará",
        "state": "MG",
        "district": "Vila Rica",
        "street": "Rua Niterói",
        "zipcode": "34580-500"
    },
    {
        "city": "Sabará",
        "state": "MG",
        "district": "Vila dos Coqueiros",
        "street": "Praça do Campo",
        "zipcode": "34576-090"
    },
    {
        "city": "Sabará",
        "state": "MG",
        "district": "Rosário",
        "street": "Rua Leonina",
        "zipcode": "34575-550"
    },
    {
        "city": "Sabará",
        "state": "MG",
        "district": "Rosário",
        "street": "Rua Charles Bizet",
        "zipcode": "34565-220"
    },
    {
        "city": "Sabará",
        "state": "MG",
        "district": "Vila Eugênio Rossi",
        "street": "Rua Orozimbo Clark",
        "zipcode": "34585-340"
    },
    {
        "city": "Sabará",
        "state": "MG",
        "district": "Vila Rica",
        "street": "Rua Pará",
        "zipcode": "34580-540"
    },
    {
        "city": "Sabará",
        "state": "MG",
        "district": "Nações Unidas",
        "street": "Rua Paraguai",
        "zipcode": "34590-090"
    },
    {
        "city": "Sabará",
        "state": "MG",
        "district": "Valparaíso",
        "street": "Rua Quinze",
        "zipcode": "34585-480"
    },
    {
        "city": "Sabará",
        "state": "MG",
        "district": "Vila Rica",
        "street": "Rua Rio Grande do Norte",
        "zipcode": "34580-670"
    },
    {
        "city": "Sabará",
        "state": "MG",
        "district": "Vila Rica",
        "street": "Rua Rio Grande do Sul",
        "zipcode": "34585-260"
    },
    {
        "city": "Sabará",
        "state": "MG",
        "district": "Vila Rica",
        "street": "Rua Rondônia",
        "zipcode": "34580-650"
    },
    {
        "city": "Sabará",
        "state": "MG",
        "district": "Vila Rica",
        "street": "Rua Santos Dumont",
        "zipcode": "34585-050"
    },
    {
        "city": "Sabará",
        "state": "MG",
        "district": "Itacolomi",
        "street": "Rua São Lourenço",
        "zipcode": "34585-060"
    },
    {
        "city": "Sabará",
        "state": "MG",
        "district": "Valparaíso",
        "street": "Rua Seis",
        "zipcode": "34585-560"
    },
    {
        "city": "Sabará",
        "state": "MG",
        "district": "Nações Unidas",
        "street": "Rua Senegal",
        "zipcode": "34590-210"
    },
    {
        "city": "Sabará",
        "state": "MG",
        "district": "Vila Rica",
        "street": "Rua Sergipe",
        "zipcode": "34580-620"
    },
    {
        "city": "Sabará",
        "state": "MG",
        "district": "Vila Rica",
        "street": "Rua Serro",
        "zipcode": "34580-580"
    },
    {
        "city": "Sabará",
        "state": "MG",
        "district": "São José",
        "street": "Rua Terezina",
        "zipcode": "34580-550"
    },
    {
        "city": "Sabará",
        "state": "MG",
        "district": "Nações Unidas",
        "street": "Rua Uruguai",
        "zipcode": "34590-020"
    },
    {
        "city": "Sabará",
        "state": "MG",
        "district": "Nações Unidas",
        "street": "Rua Venezuela",
        "zipcode": "34590-070"
    },
    {
        "city": "Sabará",
        "state": "MG",
        "district": "Vila Rica",
        "street": "Rua Vitória",
        "zipcode": "34585-270"
    },
    {
        "city": "Sabará",
        "state": "MG",
        "district": "Vila Marzagão",
        "street": "Rua do Cartório",
        "zipcode": "34585-650"
    },
    {
        "city": "Sabará",
        "state": "MG",
        "district": "Valparaíso",
        "street": "Rua das Araras",
        "zipcode": "34585-548"
    },
    {
        "city": "Sabará",
        "state": "MG",
        "district": "Vila Marzagão",
        "street": "Rua Santa Cruz",
        "zipcode": "34585-605"
    },
    {
        "city": "Sabará",
        "state": "MG",
        "district": "Jardim Castanheiras",
        "street": "Rua Céu Azul",
        "zipcode": "34589-255"
    },
    {
        "city": "Sabará",
        "state": "MG",
        "district": "Jardim Castanheiras",
        "street": "Rua Alvorada",
        "zipcode": "34589-270"
    },
    {
        "city": "Sabará",
        "state": "MG",
        "district": "Nações Unidas",
        "street": "Avenida A",
        "zipcode": "34590-395"
    },
    {
        "city": "Sabará",
        "state": "MG",
        "district": "Jardim Castanheiras",
        "street": "Rua Abílio Barroso",
        "zipcode": "34589-016"
    },
    {
        "city": "Sabará",
        "state": "MG",
        "district": "Jardim Castanheiras",
        "street": "Rua Duque de Caxias",
        "zipcode": "34589-020"
    },
    {
        "city": "Sabará",
        "state": "MG",
        "district": "Jardim Castanheiras",
        "street": "Rua Henrique Dias",
        "zipcode": "34589-025"
    },
    {
        "city": "Sabará",
        "state": "MG",
        "district": "Jardim Castanheiras",
        "street": "Rua Monteiro Lobato",
        "zipcode": "34589-105"
    },
    {
        "city": "Sabará",
        "state": "MG",
        "district": "Jardim Castanheiras",
        "street": "Rua Catarina de Freitas",
        "zipcode": "34589-050"
    },
    {
        "city": "Sabará",
        "state": "MG",
        "district": "Jardim Castanheiras",
        "street": "Rua Fernando Henrique",
        "zipcode": "34589-112"
    },
    {
        "city": "Sabará",
        "state": "MG",
        "district": "Jardim Castanheiras",
        "street": "Rua Getúlio Vargas",
        "zipcode": "34589-115"
    },
    {
        "city": "Sabará",
        "state": "MG",
        "district": "Jardim Castanheiras",
        "street": "Rua Di Cavalcante",
        "zipcode": "34589-135"
    },
    {
        "city": "Sabará",
        "state": "MG",
        "district": "Jardim Castanheiras",
        "street": "Rua Oscar Niemeyer",
        "zipcode": "34589-160"
    },
    {
        "city": "Sabará",
        "state": "MG",
        "district": "Jardim Castanheiras",
        "street": "Rua Pitanguí",
        "zipcode": "34589-170"
    },
    {
        "city": "Sabará",
        "state": "MG",
        "district": "Nossa Senhora de Fátima",
        "street": "Rua Aimorés",
        "zipcode": "34600-190"
    },
    {
        "city": "Sabará",
        "state": "MG",
        "district": "Nossa Senhora de Fátima",
        "street": "Rua Alfenas",
        "zipcode": "34600-020"
    },
    {
        "city": "Sabará",
        "state": "MG",
        "district": "Nossa Senhora de Fátima",
        "street": "Rua Araxá",
        "zipcode": "34600-120"
    },
    {
        "city": "Sabará",
        "state": "MG",
        "district": "Nossa Senhora de Fátima",
        "street": "Rua Borda da Mata",
        "zipcode": "34600-410"
    },
    {
        "city": "Sabará",
        "state": "MG",
        "district": "Nossa Senhora de Fátima",
        "street": "Rua Caldas",
        "zipcode": "34600-580"
    },
    {
        "city": "Sabará",
        "state": "MG",
        "district": "Nossa Senhora de Fátima",
        "street": "Rua Campina Verde",
        "zipcode": "34600-560"
    },
    {
        "city": "Sabará",
        "state": "MG",
        "district": "Nossa Senhora de Fátima",
        "street": "Rua Campo Florido",
        "zipcode": "34600-600"
    },
    {
        "city": "Sabará",
        "state": "MG",
        "district": "Nossa Senhora de Fátima",
        "street": "Rua Canápolis",
        "zipcode": "34600-460"
    },
    {
        "city": "Sabará",
        "state": "MG",
        "district": "Nossa Senhora de Fátima",
        "street": "Rua Carangola",
        "zipcode": "34600-260"
    },
    {
        "city": "Sabará",
        "state": "MG",
        "district": "Nossa Senhora de Fátima",
        "street": "Rua Caxambu",
        "zipcode": "34600-300"
    },
    {
        "city": "Sabará",
        "state": "MG",
        "district": "Nossa Senhora de Fátima",
        "street": "Rua Corinto",
        "zipcode": "34600-230"
    },
    {
        "city": "Sabará",
        "state": "MG",
        "district": "Nações Unidas",
        "street": "Rua Estados Unidos",
        "zipcode": "34590-290"
    },
    {
        "city": "Sabará",
        "state": "MG",
        "district": "Novo Alvorada",
        "street": "Rua Fernão Dias",
        "zipcode": "34650-040"
    },
    {
        "city": "Sabará",
        "state": "MG",
        "district": "Nossa Senhora de Fátima",
        "street": "Rua Francisco Sá",
        "zipcode": "34600-420"
    },
    {
        "city": "Sabará",
        "state": "MG",
        "district": "Nossa Senhora de Fátima",
        "street": "Rua Grão Mogol",
        "zipcode": "34600-370"
    },
    {
        "city": "Sabará",
        "state": "MG",
        "district": "Nações Unidas",
        "street": "Rua Grécia",
        "zipcode": "34590-330"
    },
    {
        "city": "Sabará",
        "state": "MG",
        "district": "Nossa Senhora de Fátima",
        "street": "Rua Guanhães",
        "zipcode": "34600-340"
    },
    {
        "city": "Sabará",
        "state": "MG",
        "district": "Nossa Senhora de Fátima",
        "street": "Rua Januária",
        "zipcode": "34600-500"
    },
    {
        "city": "Sabará",
        "state": "MG",
        "district": "Nossa Senhora de Fátima",
        "street": "Rua Lambari",
        "zipcode": "34600-090"
    },
    {
        "city": "Sabará",
        "state": "MG",
        "district": "Novo Alvorada",
        "street": "Rua Liberdade",
        "zipcode": "34650-060"
    },
    {
        "city": "Sabará",
        "state": "MG",
        "district": "Nações Unidas",
        "street": "Rua Libéria",
        "zipcode": "34590-310"
    },
    {
        "city": "Sabará",
        "state": "MG",
        "district": "Nossa Senhora de Fátima",
        "street": "Rua Lima Duarte",
        "zipcode": "34600-220"
    },
    {
        "city": "Sabará",
        "state": "MG",
        "district": "Novo Alvorada",
        "street": "Rodovia MG",
        "zipcode": "34650-000"
    },
    {
        "city": "Sabará",
        "state": "MG",
        "district": "Novo Alvorada",
        "street": "Rua Nanuque",
        "zipcode": "34650-050"
    },
    {
        "city": "Sabará",
        "state": "MG",
        "district": "Vila São Sebastião",
        "street": "Rua Raposos",
        "zipcode": "34585-440"
    },
    {
        "city": "Sabará",
        "state": "MG",
        "district": "Nossa Senhora de Fátima",
        "street": "Rua Pará de Minas",
        "zipcode": "34600-140"
    },
    {
        "city": "Sabará",
        "state": "MG",
        "district": "Nossa Senhora de Fátima",
        "street": "Rua Peçanha",
        "zipcode": "34600-290"
    },
    {
        "city": "Sabará",
        "state": "MG",
        "district": "Nossa Senhora de Fátima",
        "street": "Rua Piauí",
        "zipcode": "34600-620"
    },
    {
        "city": "Sabará",
        "state": "MG",
        "district": "Nossa Senhora de Fátima",
        "street": "Praça Pio XII",
        "zipcode": "34600-400"
    },
    {
        "city": "Sabará",
        "state": "MG",
        "district": "Nações Unidas",
        "street": "Rua Portugal",
        "zipcode": "34590-360"
    },
    {
        "city": "Sabará",
        "state": "MG",
        "district": "Nossa Senhora de Fátima",
        "street": "Avenida Raul Soares",
        "zipcode": "34600-360"
    },
    {
        "city": "Sabará",
        "state": "MG",
        "district": "Novo Alvorada",
        "street": "Travessa Rio Amazonas",
        "zipcode": "34650-080"
    },
    {
        "city": "Sabará",
        "state": "MG",
        "district": "Nossa Senhora de Fátima",
        "street": "Rua Rio Verde",
        "zipcode": "34600-390"
    },
    {
        "city": "Sabará",
        "state": "MG",
        "district": "Nossa Senhora de Fátima",
        "street": "Rua Teófilo Otoni",
        "zipcode": "34600-160"
    },
    {
        "city": "Sabará",
        "state": "MG",
        "district": "Nossa Senhora de Fátima",
        "street": "Rua Uberaba",
        "zipcode": "34600-030"
    },
    {
        "city": "Sabará",
        "state": "MG",
        "district": "Ana Lúcia",
        "street": "Rua Zeus",
        "zipcode": "34710-345"
    },
    {
        "city": "Sabará",
        "state": "MG",
        "district": "Nossa Senhora de Fátima",
        "street": "Rua Frutal",
        "zipcode": "34600-660"
    },
    {
        "city": "Sabará",
        "state": "MG",
        "district": "Nossa Senhora de Fátima",
        "street": "Rua Minas Novas",
        "zipcode": "34600-650"
    },
    {
        "city": "Sabará",
        "state": "MG",
        "district": "Nossa Senhora de Fátima",
        "street": "Rua Ouro Fino",
        "zipcode": "34600-610"
    },
    {
        "city": "Sabará",
        "state": "MG",
        "district": "Nossa Senhora de Fátima",
        "street": "Rua Sacramento",
        "zipcode": "34600-470"
    },
    {
        "city": "Sabará",
        "state": "MG",
        "district": "Nossa Senhora de Fátima",
        "street": "Rua Tremendal",
        "zipcode": "34600-075"
    },
    {
        "city": "Sabará",
        "state": "MG",
        "district": "Nossa Senhora de Fátima",
        "street": "Rua dos Coqueiros",
        "zipcode": "34600-015"
    },
    {
        "city": "Sabará",
        "state": "MG",
        "district": "Jardim Castanheiras",
        "street": "Rua Principal",
        "zipcode": "34589-185"
    },
    {
        "city": "Sabará",
        "state": "MG",
        "district": "Jardim Castanheiras",
        "street": "Rua Monte Pio",
        "zipcode": "34589-290"
    },
    {
        "city": "Sabará",
        "state": "MG",
        "district": "Jardim Castanheiras",
        "street": "Rua Raposo Tavares",
        "zipcode": "34589-060"
    },
    {
        "city": "Sabará",
        "state": "MG",
        "district": "Jardim Castanheiras",
        "street": "Rua José de Anchieta",
        "zipcode": "34589-065"
    },
    {
        "city": "Sabará",
        "state": "MG",
        "district": "Jardim Castanheiras",
        "street": "Rua Osvaldo Cruz",
        "zipcode": "34589-090"
    },
    {
        "city": "Sabará",
        "state": "MG",
        "district": "Vila Nova Vista",
        "street": "Rua Porto Seguro",
        "zipcode": "34710-650"
    },
    {
        "city": "Sabará",
        "state": "MG",
        "district": "Rio Negro",
        "street": "Rua Faria Pereira",
        "zipcode": "34710-564"
    },
    {
        "city": "Sabará",
        "state": "MG",
        "district": "Ana Lúcia",
        "street": "Avenida A",
        "zipcode": "34710-185"
    },
    {
        "city": "Sabará",
        "state": "MG",
        "district": "Vila Nova Vista",
        "street": "Rua Almeida",
        "zipcode": "34710-580"
    },
    {
        "city": "Sabará",
        "state": "MG",
        "district": "Vila Nova Vista",
        "street": "Rua Alta",
        "zipcode": "34710-570"
    },
    {
        "city": "Sabará",
        "state": "MG",
        "district": "Vila Esperança",
        "street": "Rua Alvarenga Peixoto",
        "zipcode": "34505-520"
    },
    {
        "city": "Sabará",
        "state": "MG",
        "district": "Vila Nova Vista",
        "street": "Rua Alzira",
        "zipcode": "34710-530"
    },
    {
        "city": "Sabará",
        "state": "MG",
        "district": "Vila Nova Vista",
        "street": "Rua Ana Neri",
        "zipcode": "34710-490"
    },
    {
        "city": "Sabará",
        "state": "MG",
        "district": "Novo Alvorada",
        "street": "Avenida Aparecida do Norte",
        "zipcode": "34650-200"
    },
    {
        "city": "Sabará",
        "state": "MG",
        "district": "Ana Lúcia",
        "street": "Rua Atenas",
        "zipcode": "34710-010"
    },
    {
        "city": "Sabará",
        "state": "MG",
        "district": "Novo Alvorada",
        "street": "Rua Atlético",
        "zipcode": "34650-260"
    },
    {
        "city": "Sabará",
        "state": "MG",
        "district": "Novo Alvorada",
        "street": "Rua Boa Viagem",
        "zipcode": "34650-320"
    },
    {
        "city": "Sabará",
        "state": "MG",
        "district": "Alvorada",
        "street": "Rua Campanha",
        "zipcode": "34700-040"
    },
    {
        "city": "Sabará",
        "state": "MG",
        "district": "Rio Negro",
        "street": "Avenida Cardoso de Menezes",
        "zipcode": "34700-100"
    },
    {
        "city": "Sabará",
        "state": "MG",
        "district": "Novo Santa Inês",
        "street": "Rua Carlos Chagas",
        "zipcode": "34700-170"
    },
    {
        "city": "Sabará",
        "state": "MG",
        "district": "Ana Lúcia",
        "street": "Rua Clóris",
        "zipcode": "34710-200"
    },
    {
        "city": "Sabará",
        "state": "MG",
        "district": "Centro",
        "street": "Rua Comendador Viana",
        "zipcode": "34505-340"
    },
    {
        "city": "Sabará",
        "state": "MG",
        "district": "Ana Lúcia",
        "street": "Rua Demeter",
        "zipcode": "34710-220"
    },
    {
        "city": "Sabará",
        "state": "MG",
        "district": "Novo Alvorada",
        "street": "Rua Democrata",
        "zipcode": "34650-310"
    },
    {
        "city": "Sabará",
        "state": "MG",
        "district": "Vila Nova Vista",
        "street": "Rua Dom Silvério",
        "zipcode": "34710-380"
    },
    {
        "city": "Sabará",
        "state": "MG",
        "district": "Alvorada",
        "street": "Rua Elói Mendes",
        "zipcode": "34700-090"
    },
    {
        "city": "Sabará",
        "state": "MG",
        "district": "Ana Lúcia",
        "street": "Rua Eros",
        "zipcode": "34710-520"
    },
    {
        "city": "Sabará",
        "state": "MG",
        "district": "Alvorada",
        "street": "Rua Faria Pereira",
        "zipcode": "34700-060"
    },
    {
        "city": "Sabará",
        "state": "MG",
        "district": "Novo Alvorada",
        "street": "Rua Fluminense",
        "zipcode": "34650-300"
    },
    {
        "city": "Sabará",
        "state": "MG",
        "district": "Ana Lúcia",
        "street": "Rua Fobos",
        "zipcode": "34710-070"
    },
    {
        "city": "Sabará",
        "state": "MG",
        "district": "Rio Negro",
        "street": "Rua Gávea",
        "zipcode": "34710-540"
    },
    {
        "city": "Sabará",
        "state": "MG",
        "district": "Ana Lúcia",
        "street": "Rua Hermes",
        "zipcode": "34710-050"
    },
    {
        "city": "Sabará",
        "state": "MG",
        "district": "Ana Lúcia",
        "street": "Rua Hybris",
        "zipcode": "34710-080"
    },
    {
        "city": "Sabará",
        "state": "MG",
        "district": "Vila Santo Antônio de Pádua",
        "street": "Rua Luís Galdino de Paula",
        "zipcode": "34515-510"
    },
    {
        "city": "Sabará",
        "state": "MG",
        "district": "Vila Nova Vista",
        "street": "Rua Lunds Ferreira",
        "zipcode": "34710-465"
    },
    {
        "city": "Sabará",
        "state": "MG",
        "district": "Vila Nova Vista",
        "street": "Rua Manoel Barbosa",
        "zipcode": "34710-360"
    },
    {
        "city": "Sabará",
        "state": "MG",
        "district": "Nossa Senhora da Conceição",
        "street": "Rua Marechal Rondon",
        "zipcode": "34505-780"
    },
    {
        "city": "Sabará",
        "state": "MG",
        "district": "Ana Lúcia",
        "street": "Rua Mercúrio",
        "zipcode": "34710-180"
    },
    {
        "city": "Sabará",
        "state": "MG",
        "district": "Ana Lúcia",
        "street": "Rua Minos",
        "zipcode": "34710-100"
    },
    {
        "city": "Sabará",
        "state": "MG",
        "district": "Vila Nova Vista",
        "street": "Rua Modestino Gonçalves",
        "zipcode": "34710-410"
    },
    {
        "city": "Sabará",
        "state": "MG",
        "district": "Alvorada",
        "street": "Rua Nana Kubitschek Soares",
        "zipcode": "34700-160"
    },
    {
        "city": "Sabará",
        "state": "MG",
        "district": "Ana Lúcia",
        "street": "Rua Olimpus",
        "zipcode": "34710-110"
    },
    {
        "city": "Sabará",
        "state": "MG",
        "district": "Ana Lúcia",
        "street": "Rua Padre Faustino",
        "zipcode": "34710-430"
    },
    {
        "city": "Sabará",
        "state": "MG",
        "district": "Vila Nova Vista",
        "street": "Rua Padre Ornelas",
        "zipcode": "34710-370"
    },
    {
        "city": "Sabará",
        "state": "MG",
        "district": "Novo Alvorada",
        "street": "Rua Queluzita",
        "zipcode": "34650-110"
    },
    {
        "city": "Sabará",
        "state": "MG",
        "district": "Vila Nova Vista",
        "street": "Rua Ramos Ferreira",
        "zipcode": "34710-500"
    },
    {
        "city": "Sabará",
        "state": "MG",
        "district": "Novo Alvorada",
        "street": "Travessa Rio São Francisco",
        "zipcode": "34650-150"
    },
    {
        "city": "Sabará",
        "state": "MG",
        "district": "Rio Negro",
        "street": "Rua Santa Clara",
        "zipcode": "34700-140"
    },
    {
        "city": "Sabará",
        "state": "MG",
        "district": "Novo Alvorada",
        "street": "Rua São Romão",
        "zipcode": "34650-140"
    },
    {
        "city": "Sabará",
        "state": "MG",
        "district": "Novo Alvorada",
        "street": "Rua Tupi",
        "zipcode": "34650-270"
    },
    {
        "city": "Sabará",
        "state": "MG",
        "district": "Ana Lúcia",
        "street": "Rua Urano",
        "zipcode": "34710-060"
    },
    {
        "city": "Sabará",
        "state": "MG",
        "district": "Ana Lúcia",
        "street": "Rua Vulcano",
        "zipcode": "34710-120"
    },
    {
        "city": "Sabará",
        "state": "MG",
        "district": "Vila Nova Vista",
        "street": "Rua Alegre",
        "zipcode": "34710-590"
    },
    {
        "city": "Sabará",
        "state": "MG",
        "district": "Alvorada",
        "street": "Rua Tereza Cristina",
        "zipcode": "34700-010"
    },
    {
        "city": "Sabará",
        "state": "MG",
        "district": "Alvorada",
        "street": "Rua Guaraciaba",
        "zipcode": "34700-050"
    },
    {
        "city": "Sabará",
        "state": "MG",
        "district": "Vila Esperança",
        "street": "Rua Costa Rodrigues",
        "zipcode": "34505-150"
    },
    {
        "city": "Sabará",
        "state": "MG",
        "district": "Ana Lúcia",
        "street": "Rua Rodes",
        "zipcode": "34710-235"
    },
    {
        "city": "Sabará",
        "state": "MG",
        "district": "Novo Horizonte",
        "street": "Rua dos Ipês",
        "zipcode": "34712-035"
    },
    {
        "city": "Sabará",
        "state": "MG",
        "district": "Novo Horizonte",
        "street": "Rua das Aroeiras",
        "zipcode": "34712-050"
    },
    {
        "city": "Sabará",
        "state": "MG",
        "district": "Novo Horizonte",
        "street": "Rua das Acácias",
        "zipcode": "34712-070"
    },
    {
        "city": "Sabará",
        "state": "MG",
        "district": "Novo Horizonte",
        "street": "Avenida Petit",
        "zipcode": "34712-010"
    },
    {
        "city": "Sabará",
        "state": "MG",
        "district": "Vila Amélia Moreira",
        "street": "Rua Santo Antônio",
        "zipcode": "34725-052"
    },
    {
        "city": "Sabará",
        "state": "MG",
        "district": "Vila Bom Retiro",
        "street": "Travessa A",
        "zipcode": "34710-330"
    },
    {
        "city": "Sabará",
        "state": "MG",
        "district": "Vila Rica",
        "street": "Rua Amapá",
        "zipcode": "34580-630"
    },
    {
        "city": "Sabará",
        "state": "MG",
        "district": "Terra Santa",
        "street": "Travessa Arthur Lima Júnior",
        "zipcode": "34505-531"
    },
    {
        "city": "Sabará",
        "state": "MG",
        "district": "Itacolomi",
        "street": "Rua Barra Longa",
        "zipcode": "34580-170"
    },
    {
        "city": "Sabará",
        "state": "MG",
        "district": "Vila Rica",
        "street": "Rua Brasília",
        "zipcode": "34585-300"
    },
    {
        "city": "Sabará",
        "state": "MG",
        "district": "Centro",
        "street": "Rua do Carmo",
        "zipcode": "34505-460"
    },
    {
        "city": "Sabará",
        "state": "MG",
        "district": "Rosário",
        "street": "Rua Dom Pedro II",
        "zipcode": "34555-010"
    },
    {
        "city": "Sabará",
        "state": "MG",
        "district": "Novo Alvorada",
        "street": "Rua Flamengo",
        "zipcode": "34650-290"
    },
    {
        "city": "Sabará",
        "state": "MG",
        "district": "Centro",
        "street": "Rua Fonte das Linas",
        "zipcode": "34505-570"
    },
    {
        "city": "Sabará",
        "state": "MG",
        "district": "Centro",
        "street": "Rua Francisco de Assis Pereira",
        "zipcode": "34505-500"
    },
    {
        "city": "Sabará",
        "state": "MG",
        "district": "Nossa Senhora de Fátima",
        "street": "Avenida João Pinheiro",
        "zipcode": "34600-680"
    },
    {
        "city": "Sabará",
        "state": "MG",
        "district": "Alto do Cabral",
        "street": "Rua José Domingos de Oliveira",
        "zipcode": "34505-650"
    },
    {
        "city": "Sabará",
        "state": "MG",
        "district": "Adelmolândia",
        "street": "Rua Margarida",
        "zipcode": "34525-570"
    },
    {
        "city": "Sabará",
        "state": "MG",
        "district": "Centro",
        "street": "Rua Marieta Machado",
        "zipcode": "34505-390"
    },
    {
        "city": "Sabará",
        "state": "MG",
        "district": "Nações Unidas",
        "street": "Rua México",
        "zipcode": "34590-130"
    },
    {
        "city": "Sabará",
        "state": "MG",
        "district": "Nossa Senhora de Fátima",
        "street": "Rua Ouro Preto",
        "zipcode": "34600-320"
    },
    {
        "city": "Sabará",
        "state": "MG",
        "district": "Alto do Cabral",
        "street": "Rua Padre Sebastião Tirino",
        "zipcode": "34505-680"
    },
    {
        "city": "Sabará",
        "state": "MG",
        "district": "Vila Marzagão",
        "street": "Rua Paraopeba",
        "zipcode": "34585-640"
    },
    {
        "city": "Sabará",
        "state": "MG",
        "district": "Morro da Cruz",
        "street": "Rua Santa Tereza",
        "zipcode": "34525-300"
    },
    {
        "city": "Sabará",
        "state": "MG",
        "district": "Santo Antônio (Roça Grande)",
        "street": "Rua São Sebastião",
        "zipcode": "34545-150"
    },
    {
        "city": "Sabará",
        "state": "MG",
        "district": "Nossa Senhora de Fátima",
        "street": "Rua Sete Lagoas",
        "zipcode": "34600-080"
    },
    {
        "city": "Sabará",
        "state": "MG",
        "district": "Centro",
        "street": "Rua Treze de Maio",
        "zipcode": "34505-270"
    },
    {
        "city": "Sabará",
        "state": "MG",
        "district": "Ana Lúcia",
        "street": "Rua Plutão",
        "zipcode": "34710-020"
    },
    {
        "city": "Sabará",
        "state": "MG",
        "district": "Rosário",
        "street": "Rua Angelina",
        "zipcode": "34575-280"
    },
    {
        "city": "Sabará",
        "state": "MG",
        "district": "Centro",
        "street": "Rua Ivon de Paiva",
        "zipcode": "34505-560"
    },
    {
        "city": "Sabará",
        "state": "MG",
        "district": "Santana",
        "street": "Rua José Maria Benfica",
        "zipcode": "34545-670"
    },
    {
        "city": "Sabará",
        "state": "MG",
        "district": "Pompeu",
        "street": "Rua José Augusto Pinto",
        "zipcode": "34518-010"
    },
    {
        "city": "Sabará",
        "state": "MG",
        "district": "Valparaíso",
        "street": "Rua dos Beija",
        "zipcode": "34585-525"
    },
    {
        "city": "Sabará",
        "state": "MG",
        "district": "Alto do Cabral",
        "street": "Rua Dois",
        "zipcode": "34505-705"
    },
    {
        "city": "Sabará",
        "state": "MG",
        "district": "Borges",
        "street": "Rodovia BR",
        "zipcode": "34720-010"
    },
    {
        "city": "Sabará",
        "state": "MG",
        "district": "Borges",
        "street": "Rua Jaqueline",
        "zipcode": "34720-020"
    },
    {
        "city": "Sabará",
        "state": "MG",
        "district": "Borges",
        "street": "Rua Letícia",
        "zipcode": "34720-040"
    },
    {
        "city": "Sabará",
        "state": "MG",
        "district": "Borges",
        "street": "Rua São Rafael",
        "zipcode": "34720-050"
    },
    {
        "city": "Sabará",
        "state": "MG",
        "district": "Borges",
        "street": "Estrada dos Borges",
        "zipcode": "34720-090"
    },
    {
        "city": "Sabará",
        "state": "MG",
        "district": "Vila Amélia Moreira",
        "street": "Rua Antônio",
        "zipcode": "34725-030"
    },
    {
        "city": "Sabará",
        "state": "MG",
        "district": "Vila Amélia Moreira",
        "street": "Rua da Torre",
        "zipcode": "34725-040"
    },
    {
        "city": "Sabará",
        "state": "MG",
        "district": "Vila Amélia Moreira",
        "street": "Rua Nízia Ferreira",
        "zipcode": "34725-050"
    },
    {
        "city": "Sabará",
        "state": "MG",
        "district": "Rio Negro",
        "street": "Rua Penha",
        "zipcode": "34700-180"
    },
    {
        "city": "Sabará",
        "state": "MG",
        "district": "Alvorada",
        "street": "Rua Passos",
        "zipcode": "34650-100"
    },
    {
        "city": "Sabará",
        "state": "MG",
        "district": "Santana",
        "street": "Rua Geraldo Segundo",
        "zipcode": "34545-500"
    },
    {
        "city": "Sabará",
        "state": "MG",
        "district": "Vila Amélia Moreira",
        "street": "Rua Franquelino Bevenuto",
        "zipcode": "34725-080"
    },
    {
        "city": "Sabará",
        "state": "MG",
        "district": "Vila Amélia Moreira",
        "street": "Rua Geraldo Moreira",
        "zipcode": "34725-090"
    },
    {
        "city": "Sabará",
        "state": "MG",
        "district": "Vila Amélia Moreira",
        "street": "Rua Clara",
        "zipcode": "34725-100"
    },
    {
        "city": "Sabará",
        "state": "MG",
        "district": "Borba Gato",
        "street": "Rua José Augusto",
        "zipcode": "34730-070"
    },
    {
        "city": "Sabará",
        "state": "MG",
        "district": "Borba Gato",
        "street": "Rua Dois",
        "zipcode": "34730-110"
    },
    {
        "city": "Sabará",
        "state": "MG",
        "district": "Borba Gato",
        "street": "Rua Britanite",
        "zipcode": "34730-090"
    },
    {
        "city": "Sabará",
        "state": "MG",
        "district": "Borba Gato",
        "street": "Rua Um",
        "zipcode": "34730-100"
    },
    {
        "city": "Sabará",
        "state": "MG",
        "district": "Borba Gato",
        "street": "Rua Fernandes Jaques",
        "zipcode": "34730-130"
    },
    {
        "city": "Sabará",
        "state": "MG",
        "district": "Distrito Industrial Simão da Cunha",
        "street": "Avenida B",
        "zipcode": "34735-020"
    },
    {
        "city": "Sabará",
        "state": "MG",
        "district": "Distrito Industrial Simão da Cunha",
        "street": "Rua C",
        "zipcode": "34735-030"
    },
    {
        "city": "Sabará",
        "state": "MG",
        "district": "São José",
        "street": "Rua Jordânia",
        "zipcode": "34580-325"
    },
    {
        "city": "Sabará",
        "state": "MG",
        "district": "Alvorada",
        "street": "Rua Ibirité",
        "zipcode": "34700-020"
    },
    {
        "city": "Sabará",
        "state": "MG",
        "district": "Itacolomi",
        "street": "Rua Cataguases",
        "zipcode": "34580-080"
    },
    {
        "city": "Sabará",
        "state": "MG",
        "district": "Paciência",
        "street": "Rua América",
        "zipcode": "34535-060"
    },
    {
        "city": "Sabará",
        "state": "MG",
        "district": "Vila Santo Antônio de Pádua",
        "street": "Rua Ataliba de Viterbo",
        "zipcode": "34515-590"
    },
    {
        "city": "Sabará",
        "state": "MG",
        "district": "Água Férrea",
        "street": "Rua Beira",
        "zipcode": "34535-180"
    },
    {
        "city": "Sabará",
        "state": "MG",
        "district": "Água Férrea",
        "street": "Rua Belo Horizonte",
        "zipcode": "34535-130"
    },
    {
        "city": "Sabará",
        "state": "MG",
        "district": "Centro",
        "street": "Rua Borba Gato",
        "zipcode": "34505-830"
    },
    {
        "city": "Sabará",
        "state": "MG",
        "district": "Vila Campinas",
        "street": "Rua Campinas",
        "zipcode": "34515-220"
    },
    {
        "city": "Sabará",
        "state": "MG",
        "district": "Nossa Senhora do Ó",
        "street": "Beco do Colatino",
        "zipcode": "34515-290"
    },
    {
        "city": "Sabará",
        "state": "MG",
        "district": "Valparaíso",
        "street": "Rua Dez",
        "zipcode": "34585-510"
    },
    {
        "city": "Sabará",
        "state": "MG",
        "district": "Vila Santo Antônio de Pádua",
        "street": "Avenida Evy dos Santos Sena",
        "zipcode": "34515-480"
    },
    {
        "city": "Sabará",
        "state": "MG",
        "district": "Vila Santa Cruz",
        "street": "Rua Figueira",
        "zipcode": "34515-090"
    },
    {
        "city": "Sabará",
        "state": "MG",
        "district": "Vila Santa Cruz",
        "street": "Rua Gentil Rosa",
        "zipcode": "34515-140"
    },
    {
        "city": "Sabará",
        "state": "MG",
        "district": "Centro",
        "street": "Praça Getúlio Vargas",
        "zipcode": "34505-730"
    },
    {
        "city": "Sabará",
        "state": "MG",
        "district": "Rosário",
        "street": "Rua Itagi",
        "zipcode": "34575-060"
    },
    {
        "city": "Sabará",
        "state": "MG",
        "district": "Vila Santo Antônio de Pádua",
        "street": "Rua João da Mata Lima",
        "zipcode": "34515-540"
    },
    {
        "city": "Sabará",
        "state": "MG",
        "district": "Praia dos Bandeirantes",
        "street": "Rua João Hamacek",
        "zipcode": "34525-000"
    },
    {
        "city": "Sabará",
        "state": "MG",
        "district": "Nossa Senhora do Ó",
        "street": "Rua Joaquim Siqueira",
        "zipcode": "34515-300"
    },
    {
        "city": "Sabará",
        "state": "MG",
        "district": "Arraial Velho",
        "street": "Rua José Costa Sepulveda",
        "zipcode": "34525-600"
    },
    {
        "city": "Sabará",
        "state": "MG",
        "district": "Esplanada",
        "street": "Rua José Pedro de Jesus",
        "zipcode": "34515-390"
    },
    {
        "city": "Sabará",
        "state": "MG",
        "district": "Paciência",
        "street": "Rua José Pertence",
        "zipcode": "34535-020"
    },
    {
        "city": "Sabará",
        "state": "MG",
        "district": "Adelmolândia",
        "street": "Rua José Rodrigues dos Santos",
        "zipcode": "34525-410"
    },
    {
        "city": "Sabará",
        "state": "MG",
        "district": "Ana Lúcia",
        "street": "Rua Madureira",
        "zipcode": "34710-340"
    },
    {
        "city": "Sabará",
        "state": "MG",
        "district": "Adelmolândia",
        "street": "Rua Miosótis",
        "zipcode": "34525-500"
    },
    {
        "city": "Sabará",
        "state": "MG",
        "district": "Vila Francisco de Moura",
        "street": "Rua Oito",
        "zipcode": "34525-140"
    },
    {
        "city": "Sabará",
        "state": "MG",
        "district": "Adelmolândia",
        "street": "Rua Palma",
        "zipcode": "34525-530"
    },
    {
        "city": "Sabará",
        "state": "MG",
        "district": "Siderúrgica",
        "street": "Rua Presidente Juscelino Kubitschek",
        "zipcode": "34515-170"
    },
    {
        "city": "Sabará",
        "state": "MG",
        "district": "Santo Antônio (Roça Grande)",
        "street": "Rua Santa Bárbara",
        "zipcode": "34545-380"
    },
    {
        "city": "Sabará",
        "state": "MG",
        "district": "Santo Antônio (Roça Grande)",
        "street": "Rua Santa Catarina",
        "zipcode": "34545-090"
    },
    {
        "city": "Sabará",
        "state": "MG",
        "district": null,
        "street": "Rua Arco",
        "zipcode": "34505-992"
    },
    {
        "city": "Sabará",
        "state": "MG",
        "district": "Rio Negro",
        "street": "Rua Ipanema",
        "zipcode": "34710-562"
    },
    {
        "city": "Sabará",
        "state": "MG",
        "district": "Santo Antônio (Roça Grande)",
        "street": "Rua Santa Clara",
        "zipcode": "34545-040"
    },
    {
        "city": "Sabará",
        "state": "MG",
        "district": "Morro da Cruz",
        "street": "Travessa Santa Cruz",
        "zipcode": "34525-310"
    },
    {
        "city": "Sabará",
        "state": "MG",
        "district": "Santo Antônio (Roça Grande)",
        "street": "Rua Santa Inêz",
        "zipcode": "34545-330"
    },
    {
        "city": "Sabará",
        "state": "MG",
        "district": "Santo Antônio (Roça Grande)",
        "street": "Rua Santa Terezinha",
        "zipcode": "34545-000"
    },
    {
        "city": "Sabará",
        "state": "MG",
        "district": "Esplanada",
        "street": "Rua São Mateus",
        "zipcode": "34515-350"
    },
    {
        "city": "Sabará",
        "state": "MG",
        "district": "Conjunto Morada da Serra",
        "street": "Rua Serra do Caparaó",
        "zipcode": "34515-660"
    },
    {
        "city": "Sabará",
        "state": "MG",
        "district": "Adelmolândia",
        "street": "Rua Tulipa",
        "zipcode": "34525-430"
    },
    {
        "city": "Sabará",
        "state": "MG",
        "district": "Córrego da Ilha",
        "street": "Rua Santa Tereza",
        "zipcode": "34525-270"
    },
    {
        "city": "Sabará",
        "state": "MG",
        "district": "Vila Santa Cruz",
        "street": "Rua Santa Bárbara",
        "zipcode": "34515-050"
    },
    {
        "city": "Sabará",
        "state": "MG",
        "district": "Santana",
        "street": "Praça Santana",
        "zipcode": "34545-440"
    },
    {
        "city": "Sabará",
        "state": "MG",
        "district": "Santo Antônio (Roça Grande)",
        "street": "Rua Santa Isabel",
        "zipcode": "34545-240"
    },
    {
        "city": "Sabará",
        "state": "MG",
        "district": "Adelmolândia",
        "street": "Rua Lirio",
        "zipcode": "34525-480"
    },
    {
        "city": "Sabará",
        "state": "MG",
        "district": "Santo Antônio (Roça Grande)",
        "street": "Rua São Gerônimo",
        "zipcode": "34545-190"
    },
    {
        "city": "Sabará",
        "state": "MG",
        "district": "Mangabeiras",
        "street": "Rua F",
        "zipcode": "34516-050"
    },
    {
        "city": "Sabará",
        "state": "MG",
        "district": "Vila Francisco de Moura",
        "street": "Rua Ipe Roxo",
        "zipcode": "34525-190"
    },
    {
        "city": "Sabará",
        "state": "MG",
        "district": "Mangabeiras",
        "street": "Rua do Campinho",
        "zipcode": "34516-110"
    },
    {
        "city": "Sabará",
        "state": "MG",
        "district": "Pompeu",
        "street": "Rua Geraldo Barbosa",
        "zipcode": "34518-040"
    },
    {
        "city": "Sabará",
        "state": "MG",
        "district": "Alto do Fidalgo",
        "street": "Rua Barão",
        "zipcode": "34515-745"
    },
    {
        "city": "Sabará",
        "state": "MG",
        "district": "Centro",
        "street": "Rua Jorge Urbano Benfica",
        "zipcode": "34525-065"
    },
    {
        "city": "Sabará",
        "state": "MG",
        "district": "Jardim Castanheiras",
        "street": "Rua Monte Castelo",
        "zipcode": "34589-245"
    },
    {
        "city": "Sabará",
        "state": "MG",
        "district": "Jardim Castanheiras",
        "street": "Rua Alencar da Silveira",
        "zipcode": "34589-085"
    },
    {
        "city": "Sabará",
        "state": "MG",
        "district": "Rosário",
        "street": "Rua da Independência",
        "zipcode": "34555-106"
    },
    {
        "city": "Sabará",
        "state": "MG",
        "district": "Itacolomi",
        "street": "Rua Varginha",
        "zipcode": "34580-040"
    },
    {
        "city": "Sabará",
        "state": "MG",
        "district": "Rosário",
        "street": "Rua Anita Leocádia",
        "zipcode": "34565-150"
    },
    {
        "city": "Sabará",
        "state": "MG",
        "district": "Rosário",
        "street": "Rua Argentina",
        "zipcode": "34565-190"
    },
    {
        "city": "Sabará",
        "state": "MG",
        "district": "Nações Unidas",
        "street": "Rua Argentina",
        "zipcode": "34590-030"
    },
    {
        "city": "Sabará",
        "state": "MG",
        "district": "Vila Marzagão",
        "street": "Rua Bangalô",
        "zipcode": "34585-620"
    },
    {
        "city": "Sabará",
        "state": "MG",
        "district": "São José",
        "street": "Rua Boa Vista",
        "zipcode": "34580-380"
    },
    {
        "city": "Sabará",
        "state": "MG",
        "district": "Rosário",
        "street": "Rua Bom Viver",
        "zipcode": "34575-230"
    },
    {
        "city": "Sabará",
        "state": "MG",
        "district": "Itacolomi",
        "street": "Rua Cambuquira",
        "zipcode": "34580-010"
    },
    {
        "city": "Sabará",
        "state": "MG",
        "district": "Nações Unidas",
        "street": "Rua Canadá",
        "zipcode": "34590-060"
    },
    {
        "city": "Sabará",
        "state": "MG",
        "district": "Nações Unidas",
        "street": "Rua Chile",
        "zipcode": "34590-140"
    },
    {
        "city": "Sabará",
        "state": "MG",
        "district": "Vila Eugênio Rossi",
        "street": "Rua Cuiabá",
        "zipcode": "34585-320"
    },
    {
        "city": "Sabará",
        "state": "MG",
        "district": "Valparaíso",
        "street": "Rua Dezesseis",
        "zipcode": "34585-490"
    },
    {
        "city": "Sabará",
        "state": "MG",
        "district": "Rosário",
        "street": "Rua Dom Manoel",
        "zipcode": "34555-020"
    },
    {
        "city": "Sabará",
        "state": "MG",
        "district": "Nações Unidas",
        "street": "Rua Espanha",
        "zipcode": "34590-340"
    },
    {
        "city": "Sabará",
        "state": "MG",
        "district": "Rosário",
        "street": "Rua Estácio de Sá",
        "zipcode": "34555-260"
    },
    {
        "city": "Sabará",
        "state": "MG",
        "district": "Santana",
        "street": "Rua Fátima",
        "zipcode": "34545-620"
    },
    {
        "city": "Sabará",
        "state": "MG",
        "district": "Vila Santa Rita",
        "street": "Rua Grão Mogol",
        "zipcode": "34585-400"
    },
    {
        "city": "Sabará",
        "state": "MG",
        "district": "Nações Unidas",
        "street": "Rua Japão",
        "zipcode": "34590-370"
    },
    {
        "city": "Sabará",
        "state": "MG",
        "district": "Rosário",
        "street": "Rua Joana DArc",
        "zipcode": "34575-520"
    },
    {
        "city": "Sabará",
        "state": "MG",
        "district": "São José",
        "street": "Rua João Pessoa",
        "zipcode": "34580-340"
    },
    {
        "city": "Sabará",
        "state": "MG",
        "district": "Rosário",
        "street": "Rua Maracanã",
        "zipcode": "34575-490"
    },
    {
        "city": "Sabará",
        "state": "MG",
        "district": "Santana",
        "street": "Rua Maria",
        "zipcode": "34545-560"
    },
    {
        "city": "Sabará",
        "state": "MG",
        "district": "Rosário",
        "street": "Rua Mestre Linha",
        "zipcode": "34575-200"
    },
    {
        "city": "Sabará",
        "state": "MG",
        "district": "Rosário",
        "street": "Rua Miguel Ângelo",
        "zipcode": "34555-160"
    },
    {
        "city": "Sabará",
        "state": "MG",
        "district": "Rosário",
        "street": "Rua Monte Belo",
        "zipcode": "34575-080"
    },
    {
        "city": "Sabará",
        "state": "MG",
        "district": "Nações Unidas",
        "street": "Rua Noruega",
        "zipcode": "34590-320"
    },
    {
        "city": "Sabará",
        "state": "MG",
        "district": "Vila Rica",
        "street": "Rua Pernambuco",
        "zipcode": "34580-240"
    },
    {
        "city": "Sabará",
        "state": "MG",
        "district": null,
        "street": "Rua Greik",
        "zipcode": "34565-990"
    },
    {
        "city": "Sabará",
        "state": "MG",
        "district": "Borges",
        "street": "Rua Rio das Velhas",
        "zipcode": "34720-060"
    },
    {
        "city": "Sabará",
        "state": "MG",
        "district": "Rosário",
        "street": "Rua Chico Mendes",
        "zipcode": "34555-032"
    },
    {
        "city": "Sabará",
        "state": "MG",
        "district": "Mangabeiras",
        "street": "Praça Nogueira",
        "zipcode": "34516-080"
    },
    {
        "city": "Sabará",
        "state": "MG",
        "district": "Rosário",
        "street": "Rua Pero Vaz de Caminha",
        "zipcode": "34555-272"
    },
    {
        "city": "Sabará",
        "state": "MG",
        "district": "Santana",
        "street": "Rua Edith",
        "zipcode": "34545-740"
    },
    {
        "city": "Sabará",
        "state": "MG",
        "district": "Itacolomi",
        "street": "Rua Salinas",
        "zipcode": "34580-150"
    },
    {
        "city": "Sabará",
        "state": "MG",
        "district": "Nossa Senhora de Fátima",
        "street": "Rua Santa Luzia",
        "zipcode": "34600-010"
    },
    {
        "city": "Sabará",
        "state": "MG",
        "district": "Santana",
        "street": "Rua Santo Antônio",
        "zipcode": "34545-780"
    },
    {
        "city": "Sabará",
        "state": "MG",
        "district": "Vila Marzagão",
        "street": "Rua São José",
        "zipcode": "34585-610"
    },
    {
        "city": "Sabará",
        "state": "MG",
        "district": "Nações Unidas",
        "street": "Rua Suíça",
        "zipcode": "34590-280"
    },
    {
        "city": "Sabará",
        "state": "MG",
        "district": "Vila Marzagão",
        "street": "Rua Três",
        "zipcode": "34585-590"
    },
    {
        "city": "Sabará",
        "state": "MG",
        "district": "Rosário",
        "street": "Rua Vida Nova",
        "zipcode": "34575-210"
    },
    {
        "city": "Sabará",
        "state": "MG",
        "district": "São José",
        "street": "Praça Brasília",
        "zipcode": "34580-430"
    },
    {
        "city": "Sabará",
        "state": "MG",
        "district": "Rosário",
        "street": "Rua Padre Emar",
        "zipcode": "34575-020"
    },
    {
        "city": "Sabará",
        "state": "MG",
        "district": "Rosário",
        "street": "Rua Adélia Rocha",
        "zipcode": "34575-350"
    },
    {
        "city": "Sabará",
        "state": "MG",
        "district": "Nações Unidas",
        "street": "Rua Equador",
        "zipcode": "34590-100"
    },
    {
        "city": "Sabará",
        "state": "MG",
        "district": "Valparaíso",
        "street": "Rua Dois",
        "zipcode": "34585-475"
    },
    {
        "city": "Sabará",
        "state": "MG",
        "district": "Valparaíso",
        "street": "Rua dos Curiós",
        "zipcode": "34585-558"
    },
    {
        "city": "Sabará",
        "state": "MG",
        "district": "Ana Lúcia",
        "street": "Rua Templum",
        "zipcode": "34710-075"
    },
    {
        "city": "Sabará",
        "state": "MG",
        "district": "Distrito Industrial Simão da Cunha",
        "street": "Rodovia BR",
        "zipcode": "34735-010"
    },
    {
        "city": "Sabará",
        "state": "MG",
        "district": "Distrito Industrial Simão da Cunha",
        "street": "Rua Capelão",
        "zipcode": "34735-055"
    },
    {
        "city": "Sabará",
        "state": "MG",
        "district": "Ana Lúcia",
        "street": "Praça do Cruzeiro",
        "zipcode": "34710-150"
    },
    {
        "city": "Sabará",
        "state": "MG",
        "district": "Santo Antônio (Roça Grande)",
        "street": "Rua São Diogo",
        "zipcode": "34545-130"
    },
    {
        "city": "Sabará",
        "state": "MG",
        "district": "Rosário",
        "street": "Rua Charles Gounot",
        "zipcode": "34565-110"
    },
    {
        "city": "Sabará",
        "state": "MG",
        "district": "Rosário",
        "street": "Rua Zumbí",
        "zipcode": "34555-062"
    },
    {
        "city": "Sabará",
        "state": "MG",
        "district": "Rosário",
        "street": "Rua Anita Garibaldi",
        "zipcode": "34555-292"
    },
    {
        "city": "Sabará",
        "state": "MG",
        "district": "Granja de Freitas",
        "street": "Via Borba Gato",
        "zipcode": "34589-028"
    },
    {
        "city": "Sabará",
        "state": "MG",
        "district": "Jardim Castanheiras",
        "street": "Rua São José",
        "zipcode": "34589-265"
    },
    {
        "city": "Sabará",
        "state": "MG",
        "district": "Jardim Castanheiras",
        "street": "Rua Volta Redonda",
        "zipcode": "34589-300"
    },
    {
        "city": "Sabará",
        "state": "MG",
        "district": "Jardim Castanheiras",
        "street": "Rua Presidente Prudente",
        "zipcode": "34589-055"
    },
    {
        "city": "Sabará",
        "state": "MG",
        "district": "Jardim Castanheiras",
        "street": "Rua César Late",
        "zipcode": "34589-072"
    },
    {
        "city": "Sabará",
        "state": "MG",
        "district": "Santana",
        "street": "Rua Magnólia",
        "zipcode": "34545-412"
    },
    {
        "city": "Sabará",
        "state": "MG",
        "district": "Nossa Senhora de Fátima",
        "street": "Rua Lavras",
        "zipcode": "34600-362"
    },
    {
        "city": "Sabará",
        "state": "MG",
        "district": "Rio Negro",
        "street": "Rua Alzira",
        "zipcode": "34710-566"
    },
    {
        "city": "Sabará",
        "state": "MG",
        "district": "Vila Nova Vista",
        "street": "Rua Candido Siqueira",
        "zipcode": "34710-463"
    },
    {
        "city": "Sabará",
        "state": "MG",
        "district": "Nossa Senhora de Fátima",
        "street": "Rua da Praça",
        "zipcode": "34600-303"
    },
    {
        "city": "Sabará",
        "state": "MG",
        "district": "Nossa Senhora de Fátima",
        "street": "Rua Paulista",
        "zipcode": "34600-305"
    },
    {
        "city": "Sabará",
        "state": "MG",
        "district": "Nossa Senhora de Fátima",
        "street": "Travessa Abre Campo",
        "zipcode": "34600-345"
    },
    {
        "city": "Sabará",
        "state": "MG",
        "district": "Nossa Senhora de Fátima",
        "street": "Rua Divinópolis",
        "zipcode": "34600-155"
    },
    {
        "city": "Sabará",
        "state": "MG",
        "district": "Nossa Senhora de Fátima",
        "street": "Rua Sabará",
        "zipcode": "34600-025"
    },
    {
        "city": "Sabará",
        "state": "MG",
        "district": "Itacolomi",
        "street": "Rua Ipatinga",
        "zipcode": "34585-022"
    },
    {
        "city": "Sabará",
        "state": "MG",
        "district": "Nossa Senhora de Fátima",
        "street": "Rua Um",
        "zipcode": "34600-404"
    },
    {
        "city": "Sabará",
        "state": "MG",
        "district": "Centro",
        "street": "Rua Dom Pedro II",
        "zipcode": "34505-970"
    },
    {
        "city": "Sabará",
        "state": "MG",
        "district": "Vila Eugênio Rossi",
        "street": "Rua Carvalho de Brito",
        "zipcode": "34585-973"
    },
    {
        "city": "Sabará",
        "state": "MG",
        "district": null,
        "street": "Rua Joaquim Ferreira Madureira",
        "zipcode": "34580-990"
    },
    {
        "city": "Sabará",
        "state": "MG",
        "district": null,
        "street": "Avenida Governador Valadares",
        "zipcode": "34600-990"
    },
    {
        "city": "Sabará",
        "state": "MG",
        "district": "Vila Nova Vista",
        "street": "Rua Americana",
        "zipcode": "34710-510"
    },
    {
        "city": "Sabará",
        "state": "MG",
        "district": "Vila Nova Vista",
        "street": "Rua Américo Lucena",
        "zipcode": "34710-350"
    },
    {
        "city": "Sabará",
        "state": "MG",
        "district": "Morro da Cruz",
        "street": "Rua São Geraldo",
        "zipcode": "34525-340"
    },
    {
        "city": "Sabará",
        "state": "MG",
        "district": "Vila Nova Vista",
        "street": "Rua Duartina",
        "zipcode": "34710-450"
    },
    {
        "city": "Sabará",
        "state": "MG",
        "district": "Novo Alvorada",
        "street": "Rua Esportiva",
        "zipcode": "34650-280"
    },
    {
        "city": "Sabará",
        "state": "MG",
        "district": "Vila Esperança",
        "street": "Rua Euclásio",
        "zipcode": "34505-200"
    },
    {
        "city": "Sabará",
        "state": "MG",
        "district": "Nossa Senhora de Fátima",
        "street": "Rua Florália",
        "zipcode": "34600-630"
    },
    {
        "city": "Sabará",
        "state": "MG",
        "district": "Alvorada",
        "street": "Rua Florestal",
        "zipcode": "34700-080"
    },
    {
        "city": "Sabará",
        "state": "MG",
        "district": "Rio Negro",
        "street": "Rua Glória",
        "zipcode": "34700-150"
    },
    {
        "city": "Sabará",
        "state": "MG",
        "district": "Novo Alvorada",
        "street": "Rua Guarani",
        "zipcode": "34650-250"
    },
    {
        "city": "Sabará",
        "state": "MG",
        "district": "Nossa Senhora de Fátima",
        "street": "Rua Juiz de Fora",
        "zipcode": "34600-240"
    },
    {
        "city": "Sabará",
        "state": "MG",
        "district": "Ana Lúcia",
        "street": "Rua Liceu",
        "zipcode": "34710-040"
    },
    {
        "city": "Sabará",
        "state": "MG",
        "district": "Vila Nova Vista",
        "street": "Rua Magno Moura",
        "zipcode": "34710-550"
    },
    {
        "city": "Sabará",
        "state": "MG",
        "district": "Nossa Senhora de Fátima",
        "street": "Rua Marina",
        "zipcode": "34600-670"
    },
    {
        "city": "Sabará",
        "state": "MG",
        "district": "Novo Alvorada",
        "street": "Rua Martinho Campos",
        "zipcode": "34650-070"
    },
    {
        "city": "Sabará",
        "state": "MG",
        "district": "Ana Lúcia",
        "street": "Rua Netuno",
        "zipcode": "34710-190"
    },
    {
        "city": "Sabará",
        "state": "MG",
        "district": "Borba Gato",
        "street": "Rua Campinho",
        "zipcode": "34730-060"
    },
    {
        "city": "Sabará",
        "state": "MG",
        "district": "Vila Rica",
        "street": "Praça da Lua",
        "zipcode": "34580-490"
    },
    {
        "city": "Sabará",
        "state": "MG",
        "district": "Vila Nova Vista",
        "street": "Rua José Silva Passos",
        "zipcode": "34710-555"
    },
    {
        "city": "Sabará",
        "state": "MG",
        "district": null,
        "street": "Rua das Cachoeiras",
        "zipcode": "34589-992"
    },
    {
        "city": "Sabará",
        "state": "MG",
        "district": "Vila dos Coqueiros",
        "street": "Rua Jeová Jiré",
        "zipcode": "34576-060"
    },
    {
        "city": "Sabará",
        "state": "MG",
        "district": "Caieira",
        "street": "Rua Odilon Alves dos Santos",
        "zipcode": "34505-090"
    },
    {
        "city": "Sabará",
        "state": "MG",
        "district": "Nossa Senhora de Fátima",
        "street": "Rua Paraopeba",
        "zipcode": "34600-490"
    },
    {
        "city": "Sabará",
        "state": "MG",
        "district": "Nossa Senhora de Fátima",
        "street": "Rua Pedra Azul",
        "zipcode": "34600-100"
    },
    {
        "city": "Sabará",
        "state": "MG",
        "district": "Nossa Senhora de Fátima",
        "street": "Rua Pirapora",
        "zipcode": "34600-280"
    },
    {
        "city": "Sabará",
        "state": "MG",
        "district": "Novo Alvorada",
        "street": "Rua Rio Doce",
        "zipcode": "34650-130"
    },
    {
        "city": "Sabará",
        "state": "MG",
        "district": "Vila Nova Vista",
        "street": "Rua Vasconcelos Pereira",
        "zipcode": "34710-640"
    },
    {
        "city": "Sabará",
        "state": "MG",
        "district": "Novo Alvorada",
        "street": "Rua Vila Nova",
        "zipcode": "34650-210"
    },
    {
        "city": "Sabará",
        "state": "MG",
        "district": "Nossa Senhora de Fátima",
        "street": "Rua Ibiá",
        "zipcode": "34600-590"
    },
    {
        "city": "Sabará",
        "state": "MG",
        "district": "Ana Lúcia",
        "street": "Rua Musas",
        "zipcode": "34710-325"
    },
    {
        "city": "Sabará",
        "state": "MG",
        "district": "Ana Lúcia",
        "street": "Rua Saturno",
        "zipcode": "34710-170"
    },
    {
        "city": "Sabará",
        "state": "MG",
        "district": "Nossa Senhora de Fátima",
        "street": "Rua Diamantina",
        "zipcode": "34600-060"
    },
    {
        "city": "Sabará",
        "state": "MG",
        "district": "Nações Unidas",
        "street": "Rua Israel",
        "zipcode": "34590-400"
    },
    {
        "city": "Sabará",
        "state": "MG",
        "district": "Centro",
        "street": "Avenida Expedicionário Romeu Jerônimo Dantas",
        "zipcode": "34505-045"
    },
    {
        "city": "Sabará",
        "state": "MG",
        "district": "Novo Horizonte",
        "street": "Rua dos Jatobás",
        "zipcode": "34712-100"
    },
    {
        "city": "Sabará",
        "state": "MG",
        "district": "Ana Lúcia",
        "street": "Rua Marcelino Ferreira",
        "zipcode": "34710-115"
    },
    {
        "city": "Sabará",
        "state": "MG",
        "district": "Borba Gato",
        "street": "Rua Três",
        "zipcode": "34730-112"
    },
    {
        "city": "Sabará",
        "state": "MG",
        "district": "Borba Gato",
        "street": "Rua B",
        "zipcode": "34730-082"
    },
    {
        "city": "Sabará",
        "state": "MG",
        "district": "Novo Horizonte",
        "street": "Rua Antonio Rodrigues da Costa",
        "zipcode": "34712-022"
    },
    {
        "city": "Sabará",
        "state": "MG",
        "district": "São José",
        "street": "Rua Ubá",
        "zipcode": "34580-460"
    },
    {
        "city": "Sabará",
        "state": "MG",
        "district": "Centro",
        "street": "Rua do Abrigo",
        "zipcode": "34515-160"
    },
    {
        "city": "Sabará",
        "state": "MG",
        "district": "Adelmolândia",
        "street": "Rua Adelmo João Batista",
        "zipcode": "34525-450"
    },
    {
        "city": "Sabará",
        "state": "MG",
        "district": "Nossa Senhora do Ó",
        "street": "Rua Alice Borges Correa",
        "zipcode": "34515-260"
    },
    {
        "city": "Sabará",
        "state": "MG",
        "district": "Vila Santa Cruz",
        "street": "Rua Paulo Cândido da Silva",
        "zipcode": "34515-080"
    },
    {
        "city": "Sabará",
        "state": "MG",
        "district": "Vila Campinas",
        "street": "Rua Cedro",
        "zipcode": "34515-200"
    },
    {
        "city": "Sabará",
        "state": "MG",
        "district": "Centro",
        "street": "Rua Coronel Jacinto",
        "zipcode": "34505-430"
    },
    {
        "city": "Sabará",
        "state": "MG",
        "district": "Vila Santo Antônio de Pádua",
        "street": "Rua Daniel Rocha Machado",
        "zipcode": "34515-500"
    },
    {
        "city": "Sabará",
        "state": "MG",
        "district": "Centro",
        "street": "Rua Dois Irmãos",
        "zipcode": "34505-550"
    },
    {
        "city": "Sabará",
        "state": "MG",
        "district": "Esplanada",
        "street": "Rua José Pedro dos Anjos",
        "zipcode": "34515-420"
    },
    {
        "city": "Sabará",
        "state": "MG",
        "district": "Centro",
        "street": "Rua das Laranjeiras",
        "zipcode": "34505-435"
    },
    {
        "city": "Sabará",
        "state": "MG",
        "district": "Vila Santo Antônio de Pádua",
        "street": "Avenida Longitudinal",
        "zipcode": "34515-440"
    },
    {
        "city": "Sabará",
        "state": "MG",
        "district": "Vila Esperança",
        "street": "Rua Mármore",
        "zipcode": "34505-220"
    },
    {
        "city": "Sabará",
        "state": "MG",
        "district": "Centro",
        "street": "Rua das Mercês",
        "zipcode": "34505-490"
    },
    {
        "city": "Sabará",
        "state": "MG",
        "district": "Centro",
        "street": "Rua Mestre Arcanjo",
        "zipcode": "34505-280"
    },
    {
        "city": "Sabará",
        "state": "MG",
        "district": "Centro",
        "street": "Rua Nossa Senhora da Conceição",
        "zipcode": "34505-760"
    },
    {
        "city": "Sabará",
        "state": "MG",
        "district": "Nossa Senhora do Ó",
        "street": "Largo do Ó",
        "zipcode": "34515-271"
    },
    {
        "city": "Sabará",
        "state": "MG",
        "district": "Centro",
        "street": "Rua Pereira Vieira",
        "zipcode": "34525-060"
    },
    {
        "city": "Sabará",
        "state": "MG",
        "district": "Siderúrgica",
        "street": "Rua da Ponte",
        "zipcode": "34515-190"
    },
    {
        "city": "Sabará",
        "state": "MG",
        "district": "Centro",
        "street": "Rua Prefeito Vítor Fantini",
        "zipcode": "34505-360"
    },
    {
        "city": "Sabará",
        "state": "MG",
        "district": "Centro",
        "street": "Rua Professor Francisco Lopes de Azeredo",
        "zipcode": "34525-360"
    },
    {
        "city": "Sabará",
        "state": "MG",
        "district": "Centro",
        "street": "Rua Professor Raimundo Nonato Pinto",
        "zipcode": "34505-620"
    },
    {
        "city": "Sabará",
        "state": "MG",
        "district": "Córrego da Ilha",
        "street": "Rua Santa Helena",
        "zipcode": "34525-260"
    },
    {
        "city": "Sabará",
        "state": "MG",
        "district": "Conjunto Morada da Serra",
        "street": "Praça Serra da Nevada",
        "zipcode": "34515-250"
    },
    {
        "city": "Sabará",
        "state": "MG",
        "district": "Conjunto Morada da Serra",
        "street": "Rua Serra do Caraça",
        "zipcode": "34515-690"
    },
    {
        "city": "Sabará",
        "state": "MG",
        "district": "Conjunto Morada da Serra",
        "street": "Rua Serra Grande",
        "zipcode": "34515-710"
    },
    {
        "city": "Sabará",
        "state": "MG",
        "district": "Vila Francisco de Moura",
        "street": "Rua Sete",
        "zipcode": "34525-150"
    },
    {
        "city": "Sabará",
        "state": "MG",
        "district": "Vila Francisco de Moura",
        "street": "Rua Um",
        "zipcode": "34525-210"
    },
    {
        "city": "Sabará",
        "state": "MG",
        "district": "Novo Alvorada",
        "street": "Rua Valério",
        "zipcode": "34650-330"
    },
    {
        "city": "Sabará",
        "state": "MG",
        "district": "Vila Santa Cruz",
        "street": "Rua Volta Redonda",
        "zipcode": "34515-100"
    },
    {
        "city": "Sabará",
        "state": "MG",
        "district": "Esplanada",
        "street": "Rua José Vítor Hamacek",
        "zipcode": "34515-360"
    },
    {
        "city": "Sabará",
        "state": "MG",
        "district": "Adelmolândia",
        "street": "Rua Magnólia",
        "zipcode": "34525-460"
    },
    {
        "city": "Sabará",
        "state": "MG",
        "district": "Mangabeiras",
        "street": "Rua I",
        "zipcode": "34516-090"
    },
    {
        "city": "Sabará",
        "state": "MG",
        "district": "Pompeu",
        "street": "Rua Raimundo Francisco Ferreira",
        "zipcode": "34518-080"
    },
    {
        "city": "Sabará",
        "state": "MG",
        "district": "Morro São Francisco",
        "street": "Rua Zilda Caldeira",
        "zipcode": "34505-868"
    },
    {
        "city": "Sabará",
        "state": "MG",
        "district": "Alto do Cabral",
        "street": "Rua Oitis",
        "zipcode": "34505-675"
    },
    {
        "city": "Sabará",
        "state": "MG",
        "district": "Adelmolândia",
        "street": "Rua Um",
        "zipcode": "34525-415"
    },
    {
        "city": "Sabará",
        "state": "MG",
        "district": "Vila Amélia Moreira",
        "street": "Rua José Pelágio",
        "zipcode": "34725-020"
    },
    {
        "city": "Sabará",
        "state": "MG",
        "district": "Novo Alvorada",
        "street": "Travessa Rio das Velhas",
        "zipcode": "34650-170"
    },
    {
        "city": "Sabará",
        "state": "MG",
        "district": "Alto do Fidalgo",
        "street": "Rua São Domingos",
        "zipcode": "34515-730"
    },
    {
        "city": "Sabará",
        "state": "MG",
        "district": "Alto do Fidalgo",
        "street": "Travessa Serra da Piedade",
        "zipcode": "34515-732"
    },
    {
        "city": "Sabará",
        "state": "MG",
        "district": "Córrego da Ilha",
        "street": "Travessa José Emílio dos Santos",
        "zipcode": "34525-235"
    },
    {
        "city": "Sabará",
        "state": "MG",
        "district": "Vila Amélia Moreira",
        "street": "Rua A",
        "zipcode": "34725-110"
    },
    {
        "city": "Sabará",
        "state": "MG",
        "district": "Borba Gato",
        "street": "Rua Adair Siqueira de Queiroz",
        "zipcode": "34730-030"
    },
    {
        "city": "Sabará",
        "state": "MG",
        "district": "Borba Gato",
        "street": "Rua Leonora Marcelina Ferreira",
        "zipcode": "34730-140"
    },
    {
        "city": "Sabará",
        "state": "MG",
        "district": "Mangueiras",
        "street": "Rua do Túnel",
        "zipcode": "34516-125"
    },
    {
        "city": "Sabará",
        "state": "MG",
        "district": "Mangueiras",
        "street": "Rua B",
        "zipcode": "34516-140"
    },
    {
        "city": "Sabará",
        "state": "MG",
        "district": "Mangueiras",
        "street": "Rua C",
        "zipcode": "34516-145"
    },
    {
        "city": "Sabará",
        "state": "MG",
        "district": "Mangueiras",
        "street": "Rua F",
        "zipcode": "34516-160"
    },
    {
        "city": "Sabará",
        "state": "MG",
        "district": "",
        "street": "Rua Salvador Correia de Sá",
        "zipcode": "34555-992"
    },
    {
        "city": "Sabará",
        "state": "MG",
        "district": "Vila dos Coqueiros",
        "street": "Rua Santa Rita",
        "zipcode": "34576-010"
    },
    {
        "city": "Sabará",
        "state": "MG",
        "district": "Vila Nova Vista",
        "street": "Avenida Contagem",
        "zipcode": "34710-000"
    },
    {
        "city": "Sabará",
        "state": "MG",
        "district": "Rosário",
        "street": "Rodovia MG",
        "zipcode": "34565-900"
    },
    {
        "city": "Sabará",
        "state": "MG",
        "district": "Água Férrea",
        "street": "Rua Água Férrea",
        "zipcode": "34535-140"
    },
    {
        "city": "Sabará",
        "state": "MG",
        "district": "Vila Rica",
        "street": "Rua Aracaju",
        "zipcode": "34585-130"
    },
    {
        "city": "Sabará",
        "state": "MG",
        "district": "Rosário",
        "street": "Rua Belo Campo",
        "zipcode": "34575-090"
    },
    {
        "city": "Sabará",
        "state": "MG",
        "district": "São José",
        "street": "Rua Belo Horizonte",
        "zipcode": "34580-560"
    },
    {
        "city": "Sabará",
        "state": "MG",
        "district": "Rosário",
        "street": "Rua Canaã",
        "zipcode": "34575-270"
    },
    {
        "city": "Sabará",
        "state": "MG",
        "district": "Itacolomi",
        "street": "Rua Conquista",
        "zipcode": "34580-190"
    },
    {
        "city": "Sabará",
        "state": "MG",
        "district": "Rosário",
        "street": "Rua Cristóvão Colombo",
        "zipcode": "34555-210"
    },
    {
        "city": "Sabará",
        "state": "MG",
        "district": "Adelmolândia",
        "street": "Rua Dália",
        "zipcode": "34525-490"
    },
    {
        "city": "Sabará",
        "state": "MG",
        "district": "São José",
        "street": "Rua Diamantina",
        "zipcode": "34580-410"
    },
    {
        "city": "Sabará",
        "state": "MG",
        "district": "Vila São Sebastião",
        "street": "Rua Divinópolis",
        "zipcode": "34585-430"
    },
    {
        "city": "Sabará",
        "state": "MG",
        "district": "Rosário",
        "street": "Rua Dom Pedro",
        "zipcode": "34555-190"
    },
    {
        "city": "Sabará",
        "state": "MG",
        "district": "Itacolomi",
        "street": "Rua Espinosa",
        "zipcode": "34585-020"
    },
    {
        "city": "Sabará",
        "state": "MG",
        "district": "Vila Rica",
        "street": "Rua Espírito Santo",
        "zipcode": "34585-240"
    },
    {
        "city": "Sabará",
        "state": "MG",
        "district": "Vila Rica",
        "street": "Rua Florianópolis",
        "zipcode": "34585-290"
    },
    {
        "city": "Sabará",
        "state": "MG",
        "district": "Rosário",
        "street": "Rua Gluk",
        "zipcode": "34565-070"
    },
    {
        "city": "Sabará",
        "state": "MG",
        "district": "Vila Rica",
        "street": "Rua Ibiá",
        "zipcode": "34585-220"
    },
    {
        "city": "Sabará",
        "state": "MG",
        "district": "Vila Rica",
        "street": "Rua Itabirito",
        "zipcode": "34585-090"
    },
    {
        "city": "Sabará",
        "state": "MG",
        "district": "Rosário",
        "street": "Praça Itamarati",
        "zipcode": "34575-105"
    },
    {
        "city": "Sabará",
        "state": "MG",
        "district": "Rosário",
        "street": "Rua Manoel da Nóbrega",
        "zipcode": "34555-280"
    },
    {
        "city": "Sabará",
        "state": "MG",
        "district": "Rosário",
        "street": "Rua Miguel Cervantes",
        "zipcode": "34555-060"
    },
    {
        "city": "Sabará",
        "state": "MG",
        "district": "São José",
        "street": "Rua Monte Azul",
        "zipcode": "34580-020"
    },
    {
        "city": "Sabará",
        "state": "MG",
        "district": "Itacolomi",
        "street": "Rua Oliveira",
        "zipcode": "34580-060"
    },
    {
        "city": "Sabará",
        "state": "MG",
        "district": "Vila Rica",
        "street": "Rua Piauí",
        "zipcode": "34580-510"
    },
    {
        "city": "Sabará",
        "state": "MG",
        "district": "São José",
        "street": "Rua Porto Velho",
        "zipcode": "34580-330"
    },
    {
        "city": "Sabará",
        "state": "MG",
        "district": "Itacolomi",
        "street": "Rua Rio Piracicaba",
        "zipcode": "34580-260"
    },
    {
        "city": "Sabará",
        "state": "MG",
        "district": "Vila Rica",
        "street": "Rua Roraima",
        "zipcode": "34580-640"
    },
    {
        "city": "Sabará",
        "state": "MG",
        "district": "Rosário",
        "street": "Rua Rossini",
        "zipcode": "34565-040"
    },
    {
        "city": "Sabará",
        "state": "MG",
        "district": "Santo Antônio (Roça Grande)",
        "street": "Rua Santa Efigênia",
        "zipcode": "34545-280"
    },
    {
        "city": "Sabará",
        "state": "MG",
        "district": "Santo Antônio (Roça Grande)",
        "street": "Rua Santa Maria",
        "zipcode": "34545-050"
    },
    {
        "city": "Sabará",
        "state": "MG",
        "district": "Paciência",
        "street": "Rua São Cristóvão",
        "zipcode": "34535-040"
    },
    {
        "city": "Sabará",
        "state": "MG",
        "district": "Rio Negro",
        "street": "Rua Saraiva",
        "zipcode": "34700-000"
    },
    {
        "city": "Sabará",
        "state": "MG",
        "district": "Santo Antônio (Roça Grande)",
        "street": "Rua São Francisco",
        "zipcode": "34545-260"
    },
    {
        "city": "Sabará",
        "state": "MG",
        "district": "Santana",
        "street": "Rua São Judas Tadeu",
        "zipcode": "34545-580"
    },
    {
        "city": "Sabará",
        "state": "MG",
        "district": "São José",
        "street": "Rua São Lourenço",
        "zipcode": "34580-400"
    },
    {
        "city": "Sabará",
        "state": "MG",
        "district": "Roça Grande",
        "street": "Rua São Marcos",
        "zipcode": "34545-660"
    },
    {
        "city": "Sabará",
        "state": "MG",
        "district": "Santo Antônio (Roça Grande)",
        "street": "Rua São Mateus",
        "zipcode": "34545-220"
    },
    {
        "city": "Sabará",
        "state": "MG",
        "district": "Santo Antônio (Roça Grande)",
        "street": "Rua São Roque",
        "zipcode": "34545-270"
    },
    {
        "city": "Sabará",
        "state": "MG",
        "district": "Rosário",
        "street": "Rua Tiradentes",
        "zipcode": "34555-120"
    },
    {
        "city": "Sabará",
        "state": "MG",
        "district": "Rosário",
        "street": "Rua Venceslau Braz",
        "zipcode": "34565-270"
    },
    {
        "city": "Sabará",
        "state": "MG",
        "district": "Itacolomi",
        "street": "Rua Vespasiano",
        "zipcode": "34585-080"
    },
    {
        "city": "Sabará",
        "state": "MG",
        "district": "Rosário",
        "street": "Rua Wagner",
        "zipcode": "34565-010"
    },
    {
        "city": "Sabará",
        "state": "MG",
        "district": "Rosário",
        "street": "Rua Avantino Alves",
        "zipcode": "34565-140"
    },
    {
        "city": "Sabará",
        "state": "MG",
        "district": "Rosário",
        "street": "Rua Dom João VI",
        "zipcode": "34555-180"
    },
    {
        "city": "Sabará",
        "state": "MG",
        "district": "Rosário",
        "street": "Rua Dona Efigênia",
        "zipcode": "34575-010"
    },
    {
        "city": "Sabará",
        "state": "MG",
        "district": "Adelmolândia",
        "street": "Rua Hortênsia",
        "zipcode": "34525-550"
    },
    {
        "city": "Sabará",
        "state": "MG",
        "district": "Vila Eugênio Rossi",
        "street": "Rua Rio de Janeiro",
        "zipcode": "34585-310"
    },
    {
        "city": "Sabará",
        "state": "MG",
        "district": "Rosário",
        "street": "Rua São Pedro",
        "zipcode": "34580-210"
    },
    {
        "city": "Sabará",
        "state": "MG",
        "district": "Rosário",
        "street": "Rua Lúcio Gabriel",
        "zipcode": "34575-360"
    },
    {
        "city": "Sabará",
        "state": "MG",
        "district": "Valparaíso",
        "street": "Rua Três",
        "zipcode": "34585-485"
    },
    {
        "city": "Sabará",
        "state": "MG",
        "district": "Valparaíso",
        "street": "Rua Andorinha",
        "zipcode": "34585-495"
    },
    {
        "city": "Sabará",
        "state": "MG",
        "district": "Valparaíso",
        "street": "Rua Canários",
        "zipcode": "34585-505"
    },
    {
        "city": "Sabará",
        "state": "MG",
        "district": "Valparaíso",
        "street": "Rua dos Gaviões",
        "zipcode": "34585-545"
    },
    {
        "city": "Sabará",
        "state": "MG",
        "district": "Adelmolândia",
        "street": "Rua Oito",
        "zipcode": "34525-485"
    },
    {
        "city": "Sabará",
        "state": "MG",
        "district": "Jardim Castanheiras",
        "street": "Rua Califórnia",
        "zipcode": "34589-260"
    },
    {
        "city": "Sabará",
        "state": "MG",
        "district": "Borba Gato",
        "street": "Rua A",
        "zipcode": "34730-142"
    },
    {
        "city": "Sabará",
        "state": "MG",
        "district": "Rio Negro",
        "street": "Rua Mantiqueira",
        "zipcode": "34700-152"
    },
    {
        "city": "Sabará",
        "state": "MG",
        "district": "Nossa Senhora de Fátima",
        "street": "Rua Almenara",
        "zipcode": "34600-065"
    },
    {
        "city": "Sabará",
        "state": "MG",
        "district": "Nossa Senhora de Fátima",
        "street": "Travessa Diamantina",
        "zipcode": "34600-307"
    },
    {
        "city": "Sabará",
        "state": "MG",
        "district": "Nossa Senhora de Fátima",
        "street": "Rua Dois",
        "zipcode": "34600-402"
    },
    {
        "city": "Sabará",
        "state": "MG",
        "district": "Nossa Senhora de Fátima",
        "street": "Rua Abaeté",
        "zipcode": "34600-200"
    },
    {
        "city": "Sabará",
        "state": "MG",
        "district": "Nossa Senhora de Fátima",
        "street": "Rua Abre Campo",
        "zipcode": "34600-350"
    },
    {
        "city": "Sabará",
        "state": "MG",
        "district": "Vila Nova Vista",
        "street": "Rua Albano",
        "zipcode": "34710-610"
    },
    {
        "city": "Sabará",
        "state": "MG",
        "district": "Nações Unidas",
        "street": "Rua Alemanha",
        "zipcode": "34590-200"
    },
    {
        "city": "Sabará",
        "state": "MG",
        "district": "Nações Unidas",
        "street": "Rua Austrália",
        "zipcode": "34590-190"
    },
    {
        "city": "Sabará",
        "state": "MG",
        "district": "Nossa Senhora de Fátima",
        "street": "Rua Buenópolis",
        "zipcode": "34600-480"
    },
    {
        "city": "Sabará",
        "state": "MG",
        "district": "Novo Alvorada",
        "street": "Rua Caldense",
        "zipcode": "34650-190"
    },
    {
        "city": "Sabará",
        "state": "MG",
        "district": "Nossa Senhora de Fátima",
        "street": "Rua Carlos Chagas",
        "zipcode": "34600-270"
    },
    {
        "city": "Sabará",
        "state": "MG",
        "district": "Nossa Senhora de Fátima",
        "street": "Rua Cláudio",
        "zipcode": "34600-380"
    },
    {
        "city": "Sabará",
        "state": "MG",
        "district": "Alvorada",
        "street": "Rua Colorado",
        "zipcode": "34710-560"
    },
    {
        "city": "Sabará",
        "state": "MG",
        "district": "Nossa Senhora de Fátima",
        "street": "Rua Coração de Jesus",
        "zipcode": "34600-440"
    },
    {
        "city": "Sabará",
        "state": "MG",
        "district": "Nações Unidas",
        "street": "Rua Costa Rica",
        "zipcode": "34590-380"
    },
    {
        "city": "Sabará",
        "state": "MG",
        "district": "Ana Lúcia",
        "street": "Rua Creta",
        "zipcode": "34710-140"
    },
    {
        "city": "Sabará",
        "state": "MG",
        "district": "Ana Lúcia",
        "street": "Rua Diana",
        "zipcode": "34710-210"
    },
    {
        "city": "Sabará",
        "state": "MG",
        "district": "Nações Unidas",
        "street": "Rua Franca",
        "zipcode": "34590-110"
    },
    {
        "city": "Sabará",
        "state": "MG",
        "district": "Alvorada",
        "street": "Rua Glicério Alves Pinto",
        "zipcode": "34700-130"
    },
    {
        "city": "Sabará",
        "state": "MG",
        "district": "Nações Unidas",
        "street": "Rua Holanda",
        "zipcode": "34590-260"
    },
    {
        "city": "Sabará",
        "state": "MG",
        "district": "Vila Marzagão",
        "street": "Rua da Igreja",
        "zipcode": "34585-630"
    },
    {
        "city": "Sabará",
        "state": "MG",
        "district": "Nações Unidas",
        "street": "Rua Itália",
        "zipcode": "34590-350"
    },
    {
        "city": "Sabará",
        "state": "MG",
        "district": "Alvorada",
        "street": "Rua Jaboticatubas",
        "zipcode": "34700-070"
    },
    {
        "city": "Sabará",
        "state": "MG",
        "district": "Ana Lúcia",
        "street": "Rua Júpiter",
        "zipcode": "34710-160"
    },
    {
        "city": "Sabará",
        "state": "MG",
        "district": "Nossa Senhora de Fátima",
        "street": "Rua Mariana",
        "zipcode": "34600-210"
    },
    {
        "city": "Sabará",
        "state": "MG",
        "district": "Ana Lúcia",
        "street": "Rua Monsenhor Horta",
        "zipcode": "34710-030"
    },
    {
        "city": "Sabará",
        "state": "MG",
        "district": "Nações Unidas",
        "street": "Rua das Nações",
        "zipcode": "34590-000"
    },
    {
        "city": "Sabará",
        "state": "MG",
        "district": "Vila Nova Vista",
        "street": "Rua Nice",
        "zipcode": "34710-670"
    },
    {
        "city": "Sabará",
        "state": "MG",
        "district": "Novo Alvorada",
        "street": "Rua Ouro Branco",
        "zipcode": "34650-120"
    },
    {
        "city": "Sabará",
        "state": "MG",
        "district": "Nações Unidas",
        "street": "Rua Panamá",
        "zipcode": "34590-040"
    },
    {
        "city": "Sabará",
        "state": "MG",
        "district": "Nossa Senhora de Fátima",
        "street": "Rua Pitangui",
        "zipcode": "34600-450"
    },
    {
        "city": "Sabará",
        "state": "MG",
        "district": "Nações Unidas",
        "street": "Praça República do Peru",
        "zipcode": "34590-120"
    },
    {
        "city": "Sabará",
        "state": "MG",
        "district": "Vila Marzagão",
        "street": "Rua da República",
        "zipcode": "34585-600"
    },
    {
        "city": "Sabará",
        "state": "MG",
        "district": "Ana Lúcia",
        "street": "Rua Vênus",
        "zipcode": "34710-090"
    },
    {
        "city": "Sabará",
        "state": "MG",
        "district": "Ana Lúcia",
        "street": "Praça Vesta",
        "zipcode": "34710-089"
    },
    {
        "city": "Sabará",
        "state": "MG",
        "district": "Vila Nova Vista",
        "street": "Rua Vieira dos Santos",
        "zipcode": "34710-600"
    },
    {
        "city": "Sabará",
        "state": "MG",
        "district": "Vila Nova Vista",
        "street": "Rua Andaraí",
        "zipcode": "34710-470"
    },
    {
        "city": "Sabará",
        "state": "MG",
        "district": "Vila Nova Vista",
        "street": "Rua Olívio Rodrigues",
        "zipcode": "34710-400"
    },
    {
        "city": "Sabará",
        "state": "MG",
        "district": "Nossa Senhora de Fátima",
        "street": "Rua Santos Dumont",
        "zipcode": "34600-540"
    },
    {
        "city": "Sabará",
        "state": "MG",
        "district": "Vila Nova Vista",
        "street": "Rua Cornélio Procópio",
        "zipcode": "34710-420"
    },
    {
        "city": "Sabará",
        "state": "MG",
        "district": "Nossa Senhora de Fátima",
        "street": "Rua Caeté",
        "zipcode": "34600-005"
    },
    {
        "city": "Sabará",
        "state": "MG",
        "district": "Mangabeiras",
        "street": "Rua B",
        "zipcode": "34516-010"
    },
    {
        "city": "Sabará",
        "state": "MG",
        "district": "Valparaíso",
        "street": "Rua dos Azulão",
        "zipcode": "34585-555"
    },
    {
        "city": "Sabará",
        "state": "MG",
        "district": "Borges",
        "street": "Beco Letícia",
        "zipcode": "34720-042"
    },
    {
        "city": "Sabará",
        "state": "MG",
        "district": "Borges",
        "street": "Rua Lagoana",
        "zipcode": "34720-095"
    },
    {
        "city": "Sabará",
        "state": "MG",
        "district": "Vila Amélia Moreira",
        "street": "Rua Ana dos Santos",
        "zipcode": "34725-060"
    },
    {
        "city": "Sabará",
        "state": "MG",
        "district": "Vila Amélia Moreira",
        "street": "Rua Jorge da Paixão",
        "zipcode": "34725-070"
    },
    {
        "city": "Sabará",
        "state": "MG",
        "district": "Borba Gato",
        "street": "Avenida Atílio Purri",
        "zipcode": "34730-050"
    },
    {
        "city": "Sabará",
        "state": "MG",
        "district": "Borba Gato",
        "street": "Rua Silvana Almeida",
        "zipcode": "34730-120"
    },
    {
        "city": "Sabará",
        "state": "MG",
        "district": "Distrito Industrial Simão da Cunha",
        "street": "Rua A",
        "zipcode": "34735-040"
    },
    {
        "city": "Sabará",
        "state": "MG",
        "district": "Jardim Castanheiras",
        "street": "Rua Ulisses Guimarães",
        "zipcode": "34589-110"
    },
    {
        "city": "Sabará",
        "state": "MG",
        "district": "Jardim Castanheiras",
        "street": "Rua Machado de Assis",
        "zipcode": "34589-120"
    },
    {
        "city": "Sabará",
        "state": "MG",
        "district": "Jardim Castanheiras",
        "street": "Rua Marechal Hermes",
        "zipcode": "34589-130"
    },
    {
        "city": "Sabará",
        "state": "MG",
        "district": "Jardim Castanheiras",
        "street": "Rua das Cachoeiras",
        "zipcode": "34589-140"
    },
    {
        "city": "Sabará",
        "state": "MG",
        "district": "Itacolomi",
        "street": "Avenida Joaquim Ferreira Madureira",
        "zipcode": "34580-262"
    },
    {
        "city": "Sabará",
        "state": "MG",
        "district": "Vila Real",
        "street": "Rua Doutor Anastácio Symphrônio de Abreu",
        "zipcode": "34536-020"
    },
    {
        "city": "Sabará",
        "state": "MG",
        "district": "Centro",
        "street": "Avenida Prefeito Serafim Motta Barros",
        "zipcode": "34505-971"
    },
    {
        "city": "Sabará",
        "state": "MG",
        "district": "Vila Santo Antônio de Pádua",
        "street": "Rua Alto dos Fidalgos",
        "zipcode": "34515-610"
    },
    {
        "city": "Sabará",
        "state": "MG",
        "district": "Centro",
        "street": "Rua Carlindo Pinto",
        "zipcode": "34505-400"
    },
    {
        "city": "Sabará",
        "state": "MG",
        "district": "Nossa Senhora de Fátima",
        "street": "Rua Carmo da Mata",
        "zipcode": "34600-130"
    },
    {
        "city": "Sabará",
        "state": "MG",
        "district": "Novo Alvorada",
        "street": "Rua Coronel Vargas",
        "zipcode": "34650-010"
    },
    {
        "city": "Sabará",
        "state": "MG",
        "district": "Adelmolândia",
        "street": "Rua Crisântemos",
        "zipcode": "34525-440"
    },
    {
        "city": "Sabará",
        "state": "MG",
        "district": "Centro",
        "street": "Rua Dom Pedro II",
        "zipcode": "34505-000"
    },
    {
        "city": "Sabará",
        "state": "MG",
        "district": "Centro",
        "street": "Praça Doutor Louis Ensch",
        "zipcode": "34505-750"
    },
    {
        "city": "Sabará",
        "state": "MG",
        "district": "Nações Unidas",
        "street": "Rua Egito",
        "zipcode": "34590-170"
    },
    {
        "city": "Sabará",
        "state": "MG",
        "district": "Rosário",
        "street": "Rua Fausto Luiz",
        "zipcode": "34575-310"
    },
    {
        "city": "Sabará",
        "state": "MG",
        "district": "Rosário",
        "street": "Rua Doutor José Felldman",
        "zipcode": "34575-540"
    },
    {
        "city": "Sabará",
        "state": "MG",
        "district": "Itacolomi",
        "street": "Rua Formiga",
        "zipcode": "34585-000"
    },
    {
        "city": "Sabará",
        "state": "MG",
        "district": "Vila Rica",
        "street": "Rua Goiás",
        "zipcode": "34585-200"
    },
    {
        "city": "Sabará",
        "state": "MG",
        "district": "Vila Rica",
        "street": "Rua Guanabara",
        "zipcode": "34585-280"
    },
    {
        "city": "Sabará",
        "state": "MG",
        "district": "Nossa Senhora de Fátima",
        "street": "Rua Itapecerica",
        "zipcode": "34600-150"
    },
    {
        "city": "Sabará",
        "state": "MG",
        "district": "Vila Santo Antônio de Pádua",
        "street": "Rua João Luís Spechitt",
        "zipcode": "34515-450"
    },
    {
        "city": "Sabará",
        "state": "MG",
        "district": "Rosário",
        "street": "Rua Joaquim Barbosa",
        "zipcode": "34575-340"
    },
    {
        "city": "Sabará",
        "state": "MG",
        "district": "Arraial Velho",
        "street": "Rua José Ribeiro do Carmo",
        "zipcode": "34525-640"
    },
    {
        "city": "Sabará",
        "state": "MG",
        "district": "Centro",
        "street": "Rua Luís Cassiano",
        "zipcode": "34505-010"
    },
    {
        "city": "Sabará",
        "state": "MG",
        "district": "Centro",
        "street": "Rua Manoel Aparecido Ferreira Lessa",
        "zipcode": "34505-720"
    },
    {
        "city": "Sabará",
        "state": "MG",
        "district": "Centro",
        "street": "Praça Melo Viana",
        "zipcode": "34505-300"
    },
    {
        "city": "Sabará",
        "state": "MG",
        "district": "Santo Antônio (Roça Grande)",
        "street": "Rua Nossa Senhora das Graças",
        "zipcode": "34545-110"
    },
    {
        "city": "Sabará",
        "state": "MG",
        "district": "Santo Antônio (Roça Grande)",
        "street": "Rua Senhora de Fátima",
        "zipcode": "34545-030"
    },
    {
        "city": "Sabará",
        "state": "MG",
        "district": "Vila Rica",
        "street": "Rua Paraíba",
        "zipcode": "34580-610"
    },
    {
        "city": "Sabará",
        "state": "MG",
        "district": "Itacolomi",
        "street": "Rua Pirapora",
        "zipcode": "34585-040"
    },
    {
        "city": "Sabará",
        "state": "MG",
        "district": "Vila Rica",
        "street": "Rua Porto Alegre",
        "zipcode": "34585-210"
    },
    {
        "city": "Sabará",
        "state": "MG",
        "district": "Vila Santa Cruz",
        "street": "Rua Rio Piracicaba",
        "zipcode": "34515-070"
    },
    {
        "city": "Sabará",
        "state": "MG",
        "district": "Vila Rica",
        "street": "Rua Salvador",
        "zipcode": "34585-170"
    },
    {
        "city": "Sabará",
        "state": "MG",
        "district": "Rosário",
        "street": "Rua Santa Maria",
        "zipcode": "34580-230"
    },
    {
        "city": "Sabará",
        "state": "MG",
        "district": "Nossa Senhora de Fátima",
        "street": "Rua São Gotardo",
        "zipcode": "34600-530"
    },
    {
        "city": "Sabará",
        "state": "MG",
        "district": "Centro",
        "street": "Rua São Pedro",
        "zipcode": "34505-120"
    },
    {
        "city": "Sabará",
        "state": "MG",
        "district": "Santo Antônio (Roça Grande)",
        "street": "Rua São Tiago",
        "zipcode": "34545-250"
    },
    {
        "city": "Sabará",
        "state": "MG",
        "district": "Vila Esperança",
        "street": "Rua Turmalina",
        "zipcode": "34505-240"
    },
    {
        "city": "Sabará",
        "state": "MG",
        "district": "Rosário",
        "street": "Rua Pedro Álvares Cabral",
        "zipcode": "34555-200"
    },
    {
        "city": "Sabará",
        "state": "MG",
        "district": "Vila Rica",
        "street": "Rua São Luís",
        "zipcode": "34585-150"
    },
    {
        "city": "Sabará",
        "state": "MG",
        "district": "Ana Lúcia",
        "street": "Rua Doutor Luís Ensch",
        "zipcode": "34710-260"
    },
    {
        "city": "Sabará",
        "state": "MG",
        "district": "Alto do Cabral",
        "street": "Rua Braúna",
        "zipcode": "34505-700"
    },
    {
        "city": "Sabará",
        "state": "MG",
        "district": "Valparaíso",
        "street": "Rua Nove",
        "zipcode": "34585-520"
    },
    {
        "city": "Sabará",
        "state": "MG",
        "district": "Mangabeiras",
        "street": "Rua C",
        "zipcode": "34516-020"
    },
    {
        "city": "Sabará",
        "state": "MG",
        "district": "Morro São Francisco",
        "street": "Beco Dois",
        "zipcode": "34505-867"
    },
    {
        "city": "Sabará",
        "state": "MG",
        "district": "Jardim Castanheiras",
        "street": "Rua Santo Antônio",
        "zipcode": "34589-250"
    },
    {
        "city": "Sabará",
        "state": "MG",
        "district": "Paciência",
        "street": "Rua das Orquídeas (Condomínio Eugenie Scharle)",
        "zipcode": "34535-096"
    },
    {
        "city": "Sabará",
        "state": "MG",
        "district": "Centro",
        "street": "Rua Jogo da Bola",
        "zipcode": "34505-130"
    },
    {
        "city": "Sabará",
        "state": "MG",
        "district": "Vila dos Coqueiros",
        "street": "Rua Nova Canaã",
        "zipcode": "34576-030"
    },
    {
        "city": "Sabará",
        "state": "MG",
        "district": "Novo Alvorada",
        "street": "Praça América do Norte",
        "zipcode": "34650-090"
    },
    {
        "city": "Sabará",
        "state": "MG",
        "district": "Novo Alvorada",
        "street": "Travessa Rio Araguaia",
        "zipcode": "34650-220"
    },
    {
        "city": "Sabará",
        "state": "MG",
        "district": "Novo Alvorada",
        "street": "Rua Carlota Léllis",
        "zipcode": "34650-020"
    },
    {
        "city": "Sabará",
        "state": "MG",
        "district": "Vila Real",
        "street": "Rua das Goiabeiras",
        "zipcode": "34536-100"
    },
    {
        "city": "Sabará",
        "state": "MG",
        "district": "Rosário",
        "street": "Rua Padre Cícero",
        "zipcode": "34555-104"
    },
    {
        "city": "Sabará",
        "state": "MG",
        "district": "Vila Real",
        "street": "Rua Professor Caetano Azeredo Coutinho",
        "zipcode": "34536-030"
    },
    {
        "city": "Sabará",
        "state": "MG",
        "district": "Pompeu",
        "street": "Rua Manoel Fernandes de Souza",
        "zipcode": "34518-092"
    },
    {
        "city": "Sabará",
        "state": "MG",
        "district": "Vila Eugênio Rossi",
        "street": "Rua Poços de Caldas",
        "zipcode": "34585-352"
    },
    {
        "city": "Sabará",
        "state": "MG",
        "district": "Vila Bom Retiro",
        "street": "Rua Ministro Orozimbo Nonato",
        "zipcode": "34710-250"
    },
    {
        "city": "Sabará",
        "state": "MG",
        "district": "Vila Michel",
        "street": "Rua Ajuda",
        "zipcode": "34515-020"
    },
    {
        "city": "Sabará",
        "state": "MG",
        "district": "Vila Michel",
        "street": "Rua Caixa DÁgua",
        "zipcode": "34515-030"
    },
    {
        "city": "Sabará",
        "state": "MG",
        "district": "Arraial Velho",
        "street": "Rua Humberto Ângelo Del Rio",
        "zipcode": "34525-610"
    },
    {
        "city": "Sabará",
        "state": "MG",
        "district": "Esplanada",
        "street": "Avenida João Pinheiro da Silva",
        "zipcode": "34515-410"
    },
    {
        "city": "Sabará",
        "state": "MG",
        "district": "Conjunto Morada da Serra",
        "street": "Rua Serra de Santa Helena",
        "zipcode": "34515-700"
    },
    {
        "city": "Sabará",
        "state": "MG",
        "district": "Centro",
        "street": "Rua do Kaquende",
        "zipcode": "34505-040"
    },
    {
        "city": "Sabará",
        "state": "MG",
        "district": "Adelmolândia",
        "street": "Rua Vale das Acácias",
        "zipcode": "34525-402"
    },
    {
        "city": "Sabará",
        "state": "MG",
        "district": "Nossa Senhora da Conceição",
        "street": "Rua Tulouri",
        "zipcode": "34505-850"
    },
    {
        "city": "Sabará",
        "state": "MG",
        "district": "Rosário",
        "street": "Rua Martim Afonso de Souza",
        "zipcode": "34555-270"
    },
    {
        "city": "Sabará",
        "state": "MG",
        "district": "Rosário",
        "street": "Rua Guy de Maupassant",
        "zipcode": "34555-220"
    },
    {
        "city": "Sabará",
        "state": "MG",
        "district": "Vila Santa Rita",
        "street": "Rua Prados",
        "zipcode": "34585-420"
    },
    {
        "city": "Sabará",
        "state": "MG",
        "district": "Terra Santa",
        "street": "Rua Vereador Rubens Batista Alves",
        "zipcode": "34505-533"
    },
    {
        "city": "Sabará",
        "state": "MG",
        "district": "Córrego da Ilha",
        "street": "Rua Santa Mônica",
        "zipcode": "34525-262"
    },
    {
        "city": "Sabará",
        "state": "MG",
        "district": null,
        "street": "Avenida Doutor Henrique de Mello",
        "zipcode": "34535-990"
    },
    {
        "city": "Sabará",
        "state": "MG",
        "district": "Vila dos Coqueiros",
        "street": "Rua dos Evangelicos",
        "zipcode": "34576-001"
    },
    {
        "city": "Sabará",
        "state": "MG",
        "district": "Caieira",
        "street": "Rua Honorina da Silva Oliveira",
        "zipcode": "34505-080"
    },
    {
        "city": "Sabará",
        "state": "MG",
        "district": "Vila Eugênio Rossi",
        "street": "Rua Sabinópolis",
        "zipcode": "34585-370"
    },
    {
        "city": "Sabará",
        "state": "MG",
        "district": "Alto do Cabral",
        "street": "Rua Um",
        "zipcode": "34505-703"
    },
    {
        "city": "Sabará",
        "state": "MG",
        "district": "Vila Amélia Moreira",
        "street": "Rodovia BR",
        "zipcode": "34725-010"
    },
    {
        "city": "Sabará",
        "state": "MG",
        "district": "Alto do Fidalgo",
        "street": "Rua Visconde",
        "zipcode": "34515-738"
    },
    {
        "city": "Sabará",
        "state": "MG",
        "district": "Borba Gato",
        "street": "Rua Francisco Mendes Ribeiro",
        "zipcode": "34730-040"
    },
    {
        "city": "Sabará",
        "state": "MG",
        "district": "Jardim Castanheiras",
        "street": "Rua Santos Dumont",
        "zipcode": "34589-080"
    },
    {
        "city": "Sabará",
        "state": "MG",
        "district": "Jardim Castanheiras",
        "street": "Rua Barão do Rio Branco",
        "zipcode": "34589-001"
    },
    {
        "city": "Sabará",
        "state": "MG",
        "district": "Centro",
        "street": "Rua Vovó Roxinha",
        "zipcode": "34505-635"
    },
    {
        "city": "Sabará",
        "state": "MG",
        "district": "Vila Real",
        "street": "Rua Berenice Martins Prates",
        "zipcode": "34536-010"
    },
    {
        "city": "Sabará",
        "state": "MG",
        "district": "Centro",
        "street": "Rua Antonina",
        "zipcode": "34505-350"
    },
    {
        "city": "Sabará",
        "state": "MG",
        "district": "Conjunto Morada da Serra",
        "street": "Praça Serra da Itatiaia",
        "zipcode": "34515-670"
    },
    {
        "city": "Sabará",
        "state": "MG",
        "district": "Paciência",
        "street": "Rua Ametista (Condomínio Albert Scharle)",
        "zipcode": "34535-102"
    },
    {
        "city": "Sabará",
        "state": "MG",
        "district": "Pompeu",
        "street": "Rua Raimundo Aguido Ferreira",
        "zipcode": "34518-090"
    },
    {
        "city": "Sabará",
        "state": "MG",
        "district": "Morro São Francisco",
        "street": "Rua Brasiliense",
        "zipcode": "34505-862"
    },
    {
        "city": "Sabará",
        "state": "MG",
        "district": "Rosário",
        "street": "Rua Mozart Eric",
        "zipcode": "34575-390"
    },
    {
        "city": "Sabará",
        "state": "MG",
        "district": "Centro",
        "street": "Praça Augusto Dias",
        "zipcode": "34505-140"
    },
    {
        "city": "Sabará",
        "state": "MG",
        "district": "Vila dos Coqueiros",
        "street": "Rua Espírito Santo",
        "zipcode": "34576-070"
    },
    {
        "city": "Sabará",
        "state": "MG",
        "district": "Adelmolândia",
        "street": "Rua Amarilis",
        "zipcode": "34525-420"
    },
    {
        "city": "Sabará",
        "state": "MG",
        "district": "Vila Real",
        "street": "Rua Doutor Elias Pinto de Carvalho",
        "zipcode": "34536-060"
    },
    {
        "city": "Sabará",
        "state": "MG",
        "district": "Rosário",
        "street": "Rua Maria Rita Burnier",
        "zipcode": "34575-580"
    },
    {
        "city": "Sabará",
        "state": "MG",
        "district": "Paciência",
        "street": "Rua Ipê (Condomínio Albert Scharle)",
        "zipcode": "34535-093"
    },
    {
        "city": "Sabará",
        "state": "MG",
        "district": "Vila dos Coqueiros",
        "street": "Rua Nova Jerusalém",
        "zipcode": "34576-020"
    },
    {
        "city": "Sabará",
        "state": "MG",
        "district": "Centro",
        "street": "Travessa Professor Armando de Paula",
        "zipcode": "34505-101"
    },
    {
        "city": "Sabará",
        "state": "MG",
        "district": null,
        "street": "Estrada Velha de Nova Lima",
        "zipcode": "34505-991"
    },
    {
        "city": "Sabará",
        "state": "MG",
        "district": "Praia dos Bandeirantes",
        "street": "Rua Eugênio Guimarães",
        "zipcode": "34525-040"
    },
    {
        "city": "Sabará",
        "state": "MG",
        "district": "Rosário",
        "street": "Rua Marly Burnier",
        "zipcode": "34575-600"
    },
    {
        "city": "Sabará",
        "state": "MG",
        "district": "Rosário",
        "street": "Rua Pequi",
        "zipcode": "34575-510"
    },
    {
        "city": "Sabará",
        "state": "MG",
        "district": "Vila dos Coqueiros",
        "street": "Rua do Campo",
        "zipcode": "34576-050"
    },
    {
        "city": "Sabará",
        "state": "MG",
        "district": "Santana",
        "street": "Rua Bernardino",
        "zipcode": "34545-630"
    },
    {
        "city": "Sabará",
        "state": "MG",
        "district": "Centro",
        "street": "Praça João Antero Lopes",
        "zipcode": "34505-410"
    },
    {
        "city": "Sabará",
        "state": "MG",
        "district": "Nossa Senhora de Fátima",
        "street": "Rua Esplendor",
        "zipcode": "34600-275"
    },
    {
        "city": "Sabará",
        "state": "MG",
        "district": "Rosário",
        "street": "Rua Atalaia",
        "zipcode": "34575-290"
    },
    {
        "city": "Sabará",
        "state": "MG",
        "district": "Rosário",
        "street": "Rua Leontino Cunha",
        "zipcode": "34565-230"
    },
    {
        "city": "Sabará",
        "state": "MG",
        "district": "Vila Eugênio Rossi",
        "street": "Rua Timóteo",
        "zipcode": "34585-380"
    },
    {
        "city": "Sabará",
        "state": "MG",
        "district": "Córrego da Ilha",
        "street": "Rua Nossa Senhora das Dores",
        "zipcode": "34525-252"
    },
    {
        "city": "Sabará",
        "state": "MG",
        "district": "Borba Gato",
        "street": "Rodovia BR",
        "zipcode": "34730-010"
    },
    {
        "city": "Sabará",
        "state": "MG",
        "district": "Vila Real",
        "street": "Rua Doutor Antônio Vaz da Silva",
        "zipcode": "34536-070"
    },
    {
        "city": "Sabará",
        "state": "MG",
        "district": "Ana Lúcia",
        "street": "Rua São Guilherme",
        "zipcode": "34710-182"
    },
    {
        "city": "Sabará",
        "state": "MG",
        "district": "Vila Bom Retiro",
        "street": "Rua Amélia Procópio Correia",
        "zipcode": "34710-270"
    },
    {
        "city": "Sabará",
        "state": "MG",
        "district": "Nossa Senhora de Fátima",
        "street": "Rua Caratinga",
        "zipcode": "34600-364"
    },
    {
        "city": "Sabará",
        "state": "MG",
        "district": "Vila Rica",
        "street": "Rua do Acre",
        "zipcode": "34580-660"
    },
    {
        "city": "Sabará",
        "state": "MG",
        "district": "Adelmolândia",
        "street": "Rua Gardênia",
        "zipcode": "34525-560"
    },
    {
        "city": "Sabará",
        "state": "MG",
        "district": "Arraial Velho",
        "street": "Rua José Barnabé das Chagas",
        "zipcode": "34525-620"
    },
    {
        "city": "Sabará",
        "state": "MG",
        "district": "Centro",
        "street": "Rua José dos Santos Costa",
        "zipcode": "34505-610"
    },
    {
        "city": "Sabará",
        "state": "MG",
        "district": "Vila Nova Vista",
        "street": "Rua Liégia",
        "zipcode": "34710-630"
    },
    {
        "city": "Sabará",
        "state": "MG",
        "district": "Santana",
        "street": "Rua Luiz",
        "zipcode": "34545-610"
    },
    {
        "city": "Sabará",
        "state": "MG",
        "district": "Itacolomi",
        "street": "Rua Nova Era",
        "zipcode": "34580-130"
    },
    {
        "city": "Sabará",
        "state": "MG",
        "district": "Santo Antônio (Roça Grande)",
        "street": "Rua P",
        "zipcode": "34535-200"
    },
    {
        "city": "Sabará",
        "state": "MG",
        "district": "Santo Antônio (Roça Grande)",
        "street": "Rua Santa Lúcia",
        "zipcode": "34545-080"
    },
    {
        "city": "Sabará",
        "state": "MG",
        "district": "Santo Antônio (Roça Grande)",
        "street": "Rua São Dionízio",
        "zipcode": "34545-060"
    },
    {
        "city": "Sabará",
        "state": "MG",
        "district": "Santo Antônio (Roça Grande)",
        "street": "Rua São Gabriel",
        "zipcode": "34545-070"
    },
    {
        "city": "Sabará",
        "state": "MG",
        "district": "Santo Antônio (Roça Grande)",
        "street": "Rua São Lucas",
        "zipcode": "34545-350"
    },
    {
        "city": "Sabará",
        "state": "MG",
        "district": "Valparaíso",
        "street": "Rua Sete",
        "zipcode": "34585-550"
    },
    {
        "city": "Sabará",
        "state": "MG",
        "district": "Novo Alvorada",
        "street": "Rua Tocantins",
        "zipcode": "34650-160"
    },
    {
        "city": "Sabará",
        "state": "MG",
        "district": null,
        "street": "Rua Principal",
        "zipcode": "34589-991"
    },
    {
        "city": "Sabará",
        "state": "MG",
        "district": "Morro São Francisco",
        "street": "Praça Duque de Caxias",
        "zipcode": "34505-869"
    },
    {
        "city": "Sabará",
        "state": "MG",
        "district": "Rosário",
        "street": "Rua Dona Severina",
        "zipcode": "34575-430"
    },
    {
        "city": "Sabará",
        "state": "MG",
        "district": "Paciência",
        "street": "Rua Safira (Condomínio Albert Scharle)",
        "zipcode": "34535-105"
    },
    {
        "city": "Sabará",
        "state": "MG",
        "district": "Novo Alvorada",
        "street": "Rua da Pedreira",
        "zipcode": "34650-261"
    },
    {
        "city": "Sabará",
        "state": "MG",
        "district": "Nossa Senhora da Conceição",
        "street": "Rua Milton Guimarães Reis",
        "zipcode": "34515-145"
    },
    {
        "city": "Sabará",
        "state": "MG",
        "district": "Vila Francisco de Moura",
        "street": "Rua Cerejeira",
        "zipcode": "34525-080"
    },
    {
        "city": "Sabará",
        "state": "MG",
        "district": "Rosário",
        "street": "Rua Grieg",
        "zipcode": "34565-080"
    },
    {
        "city": "Sabará",
        "state": "MG",
        "district": "Santo Antônio (Roça Grande)",
        "street": "Rua São Vicente",
        "zipcode": "34545-100"
    },
    {
        "city": "Sabará",
        "state": "MG",
        "district": "Borges",
        "street": "Beco Letícia",
        "zipcode": "34720-043"
    },
    {
        "city": "Sabará",
        "state": "MG",
        "district": "Borges",
        "street": "Beco Paschoal",
        "zipcode": "34720-025"
    },
    {
        "city": "Sabará",
        "state": "MG",
        "district": "Jardim Castanheiras",
        "street": "Rua Manoel da Nóbrega",
        "zipcode": "34589-068"
    },
    {
        "city": "Sabará",
        "state": "MG",
        "district": "Jardim Castanheiras",
        "street": "Rua Vital Brazil",
        "zipcode": "34589-095"
    },
    {
        "city": "Sabará",
        "state": "MG",
        "district": "Área Rural de Sabará",
        "street": "Área Rural",
        "zipcode": "34739-899"
    },
    {
        "city": "Sabará",
        "state": "MG",
        "district": "Santo Antônio (Roça Grande)",
        "street": "Rua Expedicionário Romeu Jerônimo Dantas",
        "zipcode": "34545-792"
    },
    {
        "city": "Sabará",
        "state": "MG",
        "district": "Caieira",
        "street": "Rua Henrique Alexandrino",
        "zipcode": "34505-068"
    },
    {
        "city": "Sabará",
        "state": "MG",
        "district": "Córrego da Ilha",
        "street": "Rua João Cassiano Filho",
        "zipcode": "34525-052"
    },
    {
        "city": "Sabará",
        "state": "MG",
        "district": "",
        "street": "Rua Tomé de Souza",
        "zipcode": "34555-993"
    },
    {
        "city": "Sabará",
        "state": "MG",
        "district": "Pompeu",
        "street": "Rua Mário Sidônio da Conceição",
        "zipcode": "34518-094"
    },
    {
        "city": "Sabará",
        "state": "MG",
        "district": "Vila Santa Cruz",
        "street": "Rua Cruzeiro",
        "zipcode": "34515-092"
    },
    {
        "city": "Sabará",
        "state": "MG",
        "district": "Vila Real",
        "street": "Rua das Jabuticabeiras",
        "zipcode": "34536-090"
    },
    {
        "city": "Sabará",
        "state": "MG",
        "district": "Centro",
        "street": "Travessa Vereador Romualdo Lopes",
        "zipcode": "34505-592"
    },
    {
        "city": "Sabará",
        "state": "MG",
        "district": "Paciência",
        "street": "Rua dos Bispos",
        "zipcode": "34535-103"
    },
    {
        "city": "Sabará",
        "state": "MG",
        "district": "Centro",
        "street": "Rua Santa Clara",
        "zipcode": "34505-125"
    },
    {
        "city": "Sabará",
        "state": "MG",
        "district": "Adelmolândia",
        "street": "Rua Orquídea",
        "zipcode": "34525-565"
    },
    {
        "city": "Sabará",
        "state": "MG",
        "district": "Nossa Senhora de Fátima",
        "street": "Rua Bicas",
        "zipcode": "34600-355"
    },
    {
        "city": "Sabará",
        "state": "MG",
        "district": "Conjunto Morada da Serra",
        "street": "Rua Serra do Ouro",
        "zipcode": "34515-645"
    },
    {
        "city": "Sabará",
        "state": "MG",
        "district": "Vila Campinas",
        "street": "Rua Manoel Quirino Paes",
        "zipcode": "34515-180"
    },
    {
        "city": "Sabará",
        "state": "MG",
        "district": "Nossa Senhora de Fátima",
        "street": "Rua Ângela Maria Lopes Martins",
        "zipcode": "34600-072"
    },
    {
        "city": "Sabará",
        "state": "MG",
        "district": "Mangabeiras",
        "street": "Praça Pingo de Ouro",
        "zipcode": "34516-082"
    },
    {
        "city": "Sabará",
        "state": "MG",
        "district": "Rosário",
        "street": "Rua Júlio Bernardes",
        "zipcode": "34575-560"
    },
    {
        "city": "Sabará",
        "state": "MG",
        "district": "Rosário",
        "street": "Praça Monte Alto",
        "zipcode": "34575-400"
    },
    {
        "city": "Sabará",
        "state": "MG",
        "district": "Rosário",
        "street": "Rua Charles Chaplin",
        "zipcode": "34555-050"
    },
    {
        "city": "Sabará",
        "state": "MG",
        "district": "Nações Unidas",
        "street": "Praça Colômbia",
        "zipcode": "34590-300"
    },
    {
        "city": "Sabará",
        "state": "MG",
        "district": "Borges",
        "street": "Rua Eugênio do Nascimento",
        "zipcode": "34720-015"
    },
    {
        "city": "Sabará",
        "state": "MG",
        "district": "Ana Lúcia",
        "street": "Rua José Campos Continentino",
        "zipcode": "34710-275"
    },
    {
        "city": "Sabará",
        "state": "MG",
        "district": "Nossa Senhora da Conceição",
        "street": "Alameda da Matriz",
        "zipcode": "34505-775"
    },
    {
        "city": "Sabará",
        "state": "MG",
        "district": "Córrego da Ilha",
        "street": "Rua Dorvalino Pinto",
        "zipcode": "34525-220"
    },
    {
        "city": "Sabará",
        "state": "MG",
        "district": "Mangabeiras",
        "street": "Rua Araucária",
        "zipcode": "34516-012"
    },
    {
        "city": "Sabará",
        "state": "MG",
        "district": "Vila São Sebastião",
        "street": "Rua Alvinópolis",
        "zipcode": "34585-453"
    },
    {
        "city": "Sabará",
        "state": "MG",
        "district": "Novo Horizonte",
        "street": "Rua dos Jequitibás",
        "zipcode": "34712-090"
    },
    {
        "city": "Sabará",
        "state": "MG",
        "district": "Novo Horizonte",
        "street": "Rua das Paineiras",
        "zipcode": "34712-040"
    },
    {
        "city": "Sabará",
        "state": "MG",
        "district": "Novo Horizonte",
        "street": "Rua dos Oitis",
        "zipcode": "34712-030"
    },
    {
        "city": "Sabará",
        "state": "MG",
        "district": "Novo Horizonte",
        "street": "Rua dos Jacarandás",
        "zipcode": "34712-080"
    },
    {
        "city": "Sabará",
        "state": "MG",
        "district": "Novo Horizonte",
        "street": "Rua Santa Albertina",
        "zipcode": "34712-120"
    },
    {
        "city": "Sabará",
        "state": "MG",
        "district": "Novo Horizonte",
        "street": "Rua Mirante",
        "zipcode": "34712-020"
    },
    {
        "city": "Sabará",
        "state": "MG",
        "district": "Córrego da Ilha",
        "street": "Rua Marlúcio Pereira",
        "zipcode": "34525-232"
    },
    {
        "city": "Sabará",
        "state": "MG",
        "district": "Nossa Senhora de Fátima",
        "street": "Rua Santo Antônio do Amparo",
        "zipcode": "34600-392"
    },
    {
        "city": "Sabará",
        "state": "MG",
        "district": "Vila São Sebastião",
        "street": "Rua Felixlândia",
        "zipcode": "34585-432"
    },
    {
        "city": "Sabará",
        "state": "MG",
        "district": "Alto do Fidalgo",
        "street": "Rua Vereador Ari Mariano Alves",
        "zipcode": "34515-747"
    },
    {
        "city": "Sabará",
        "state": "MG",
        "district": "Rosário",
        "street": "Rua Diogo Álvares Correa",
        "zipcode": "34555-102"
    },
    {
        "city": "Sabará",
        "state": "MG",
        "district": "Ana Lúcia",
        "street": "Avenida José Cândido da Silveira",
        "zipcode": "34710-138"
    },
    {
        "city": "Sabará",
        "state": "MG",
        "district": "São José",
        "street": "Rua Antares",
        "zipcode": "34580-321"
    },
    {
        "city": "Sabará",
        "state": "MG",
        "district": "Nossa Senhora de Fátima",
        "street": "Rua Pouso Alegre",
        "zipcode": "34600-310"
    },
    {
        "city": "Sabará",
        "state": "MG",
        "district": "Nossa Senhora de Fátima",
        "street": "Rua Patrocínio",
        "zipcode": "34600-520"
    },
    {
        "city": "Sabará",
        "state": "MG",
        "district": "Nossa Senhora de Fátima",
        "street": "Rua Montes Claros",
        "zipcode": "34600-050"
    },
    {
        "city": "Sabará",
        "state": "MG",
        "district": "Alto do Cabral",
        "street": "Rua Acácia",
        "zipcode": "34505-660"
    },
    {
        "city": "Sabará",
        "state": "MG",
        "district": "Rosário",
        "street": "Rua Alameda",
        "zipcode": "34575-440"
    },
    {
        "city": "Sabará",
        "state": "MG",
        "district": "Vila Santo Antônio de Pádua",
        "street": "Rua Antônio Cassimiro Nascimento Júnior",
        "zipcode": "34515-600"
    },
    {
        "city": "Sabará",
        "state": "MG",
        "district": "Vila Santo Antônio de Pádua",
        "street": "Rua Antônio Martins dos Anjos",
        "zipcode": "34515-460"
    },
    {
        "city": "Sabará",
        "state": "MG",
        "district": "São José",
        "street": "Rua Canopus",
        "zipcode": "34580-324"
    },
    {
        "city": "Sabará",
        "state": "MG",
        "district": "Mangabeiras",
        "street": "Praça do Mirante",
        "zipcode": "34516-055"
    },
    {
        "city": "Sabará",
        "state": "MG",
        "district": "Adelmolândia",
        "street": "Rua Madressilva",
        "zipcode": "34525-517"
    },
    {
        "city": "Sabará",
        "state": "MG",
        "district": "Vila São Sebastião",
        "street": "Rua Barão de Cocais",
        "zipcode": "34585-450"
    },
    {
        "city": "Sabará",
        "state": "MG",
        "district": "Vila Nova Vista",
        "street": "Rua Dom Pedrito",
        "zipcode": "34710-440"
    },
    {
        "city": "Sabará",
        "state": "MG",
        "district": "Santo Antônio (Roça Grande)",
        "street": "Avenida Doutor Henrique de Melo",
        "zipcode": "34535-230"
    },
    {
        "city": "Sabará",
        "state": "MG",
        "district": "Nossa Senhora de Fátima",
        "street": "Rua Esmeraldas",
        "zipcode": "34600-170"
    },
    {
        "city": "Sabará",
        "state": "MG",
        "district": "Vila Nova Vista",
        "street": "Rua Ferreira Pinto",
        "zipcode": "34710-460"
    },
    {
        "city": "Sabará",
        "state": "MG",
        "district": "Nossa Senhora de Fátima",
        "street": "Rua Itaúna",
        "zipcode": "34600-070"
    },
    {
        "city": "Sabará",
        "state": "MG",
        "district": "Nações Unidas",
        "street": "Rua Júlio Ribeiro",
        "zipcode": "34590-220"
    },
    {
        "city": "Sabará",
        "state": "MG",
        "district": "Rosário",
        "street": "Rua Monza",
        "zipcode": "34575-050"
    },
    {
        "city": "Sabará",
        "state": "MG",
        "district": "Nossa Senhora do Ó",
        "street": "Rua Nossa Senhora do Ó",
        "zipcode": "34515-270"
    },
    {
        "city": "Sabará",
        "state": "MG",
        "district": "Itacolomi",
        "street": "Rua Ponte Nova",
        "zipcode": "34580-310"
    },
    {
        "city": "Sabará",
        "state": "MG",
        "district": "Vila Francisco de Moura",
        "street": "Rua Ipê Amarelo",
        "zipcode": "34525-170"
    },
    {
        "city": "Sabará",
        "state": "MG",
        "district": "Rosário",
        "street": "Rua Salvador Correia de Sá",
        "zipcode": "34555-100"
    },
    {
        "city": "Sabará",
        "state": "MG",
        "district": "Vila Esperança",
        "street": "Rua Tomaz Gonzaga",
        "zipcode": "34505-160"
    },
    {
        "city": "Sabará",
        "state": "MG",
        "district": "Praia dos Bandeirantes",
        "street": "Rua Vereador José Maria Moreira",
        "zipcode": "34525-010"
    },
    {
        "city": "Sabará",
        "state": "MG",
        "district": "Rosário",
        "street": "Rua Tomé de Souza",
        "zipcode": "34555-130"
    },
    {
        "city": "Sabará",
        "state": "MG",
        "district": "Pompeu",
        "street": "Rua Luiz Carvalho Goncalves",
        "zipcode": "34518-070"
    },
    {
        "city": "Sabará",
        "state": "MG",
        "district": "Caieira",
        "street": "Avenida Expedicionário Romeu Jerônimo Dantas",
        "zipcode": "34555-000"
    },
    {
        "city": "Sabará",
        "state": "MG",
        "district": "Borba Gato",
        "street": "Rua Januário Basílio da Costa",
        "zipcode": "34730-020"
    },
    {
        "city": "Sabará",
        "state": "MG",
        "district": "Distrito Industrial Simão da Cunha",
        "street": "Rua Beira",
        "zipcode": "34735-050"
    },
    {
        "city": "Sabará",
        "state": "MG",
        "district": "Rosário",
        "street": "Rua Bete",
        "zipcode": "34575-130"
    },
    {
        "city": "Sabará",
        "state": "MG",
        "district": "Paciência",
        "street": "Rua Berilo (Condomínio Albert Sharle)",
        "zipcode": "34535-099"
    },
    {
        "city": "Sabará",
        "state": "MG",
        "district": "São José",
        "street": "Rua Bellatrix",
        "zipcode": "34580-327"
    },
    {
        "city": "Sabará",
        "state": "MG",
        "district": "Nossa Senhora de Fátima",
        "street": "Rua Paracatu",
        "zipcode": "34600-510"
    },
    {
        "city": "Sabará",
        "state": "MG",
        "district": "Rosário",
        "street": "Rua Doutor Antônio Guimarães",
        "zipcode": "34575-330"
    },
    {
        "city": "Sabará",
        "state": "MG",
        "district": "Paciência",
        "street": "Avenida Pau Brasil (Condomínio Albert Scharle)",
        "zipcode": "34535-092"
    },
    {
        "city": "Sabará",
        "state": "MG",
        "district": "Paciência",
        "street": "Rua Rubi (Condomínio Albert Scharle)",
        "zipcode": "34535-104"
    },
    {
        "city": "Sabará",
        "state": "MG",
        "district": "Santana",
        "street": "Rua Renê",
        "zipcode": "34545-640"
    },
    {
        "city": "Sabará",
        "state": "MG",
        "district": "Vila Santo Antônio de Pádua",
        "street": "Rua Poço da Bomba",
        "zipcode": "34515-560"
    }
]