[
    {
        "city": "São Francisco",
        "state": "MG",
        "district": "Centro",
        "street": "Avenida Montes Claros 660",
        "zipcode": "39300-970"
    },
    {
        "city": "São Francisco",
        "state": "MG",
        "district": "Centro",
        "street": "Rua Principal s/n",
        "zipcode": "39300-974"
    },
    {
        "city": "São Francisco",
        "state": "MG",
        "district": "Centro",
        "street": "Rua Principal s/n",
        "zipcode": "39300-976"
    },
    {
        "city": "São Francisco",
        "state": "MG",
        "district": "Centro",
        "street": "Rua Principal s/n",
        "zipcode": "39300-972"
    },
    {
        "city": "São Francisco",
        "state": "MG",
        "district": "Centro",
        "street": "Rua Padre Francisco 1076",
        "zipcode": "39300-977"
    },
    {
        "city": "São Francisco",
        "state": "MG",
        "district": "Centro",
        "street": "Rua Principal s/n",
        "zipcode": "39300-973"
    },
    {
        "city": "São Francisco",
        "state": "MG",
        "district": "Centro",
        "street": "Rua Principal s/n",
        "zipcode": "39300-978"
    },
    {
        "city": "São Francisco",
        "state": "MG",
        "district": "Centro",
        "street": "Avenida Montes Claros 660",
        "zipcode": "39300-980"
    },
    {
        "city": "São Francisco",
        "state": "MG",
        "district": "",
        "street": "",
        "zipcode": "39300-000"
    },
    {
        "city": "São Francisco",
        "state": "MG",
        "district": "Centro",
        "street": "Rua Principal s/n  AGC Retiro",
        "zipcode": "39300-971"
    }
]