[
    {
        "city": "Timoteo",
        "state": "MG",
        "district": "Limoeiro",
        "street": "Rua Palmeiras",
        "zipcode": "35181-490"
    },
    {
        "city": "Timoteo",
        "state": "MG",
        "district": "Limoeiro",
        "street": "Rua Arariba",
        "zipcode": "35181-456"
    },
    {
        "city": "Timoteo",
        "state": "MG",
        "district": "Alegre",
        "street": "Rua Sapoti",
        "zipcode": "35181-060"
    },
    {
        "city": "Timoteo",
        "state": "MG",
        "district": "Limoeiro",
        "street": "Rua Brejauba",
        "zipcode": "35181-438"
    },
    {
        "city": "Timoteo",
        "state": "MG",
        "district": "Centro",
        "street": "Avenida Acesita",
        "zipcode": "35180-202"
    },
    {
        "city": "Timoteo",
        "state": "MG",
        "district": "Limoeiro",
        "street": "Rua Cinamomo",
        "zipcode": "35181-452"
    },
    {
        "city": "Timoteo",
        "state": "MG",
        "district": "Limoeiro",
        "street": "Rua Murici",
        "zipcode": "35181-432"
    },
    {
        "city": "Timoteo",
        "state": "MG",
        "district": "Centro",
        "street": "Rua Cinquenta E Nove",
        "zipcode": "35180-204"
    },
    {
        "city": "Timoteo",
        "state": "MG",
        "district": "Limoeiro",
        "street": "Rua Imbirucu",
        "zipcode": "35181-448"
    },
    {
        "city": "Timoteo",
        "state": "MG",
        "district": "Limoeiro",
        "street": "Rua Carvalho",
        "zipcode": "35181-444"
    },
    {
        "city": "Timoteo",
        "state": "MG",
        "district": "Alegre",
        "street": "Rua Acerola",
        "zipcode": "35181-064"
    },
    {
        "city": "Timoteo",
        "state": "MG",
        "district": "Limoeiro",
        "street": "Rua Sapucaia",
        "zipcode": "35181-440"
    },
    {
        "city": "Timoteo",
        "state": "MG",
        "district": "Limoeiro",
        "street": "Rua Bicuiba",
        "zipcode": "35181-458"
    },
    {
        "city": "Timoteo",
        "state": "MG",
        "district": "Limoeiro",
        "street": "Rua Sibipiruna",
        "zipcode": "35181-442"
    },
    {
        "city": "Timoteo",
        "state": "MG",
        "district": "Limoeiro",
        "street": "Rua Casuarina",
        "zipcode": "35181-450"
    },
    {
        "city": "Timoteo",
        "state": "MG",
        "district": "Limoeiro",
        "street": "Rua Ivitinga",
        "zipcode": "35181-476"
    },
    {
        "city": "Timoteo",
        "state": "MG",
        "district": "Limoeiro",
        "street": "Rua Macaranduba",
        "zipcode": "35181-484"
    },
    {
        "city": "Timoteo",
        "state": "MG",
        "district": "Corrego Do Cacador",
        "street": "Rua A",
        "zipcode": "35180-380"
    },
    {
        "city": "Timoteo",
        "state": "MG",
        "district": "Limoeiro",
        "street": "Rua Marinheiro",
        "zipcode": "35181-446"
    },
    {
        "city": "Timoteo",
        "state": "MG",
        "district": "Limoeiro",
        "street": "Rua Candeia",
        "zipcode": "35181-462"
    },
    {
        "city": "Timoteo",
        "state": "MG",
        "district": "Limoeiro",
        "street": "Rua Sete Cascas",
        "zipcode": "35181-496"
    },
    {
        "city": "Timoteo",
        "state": "MG",
        "district": "Limoeiro",
        "street": "Rua Caicara",
        "zipcode": "35181-460"
    },
    {
        "city": "Timoteo",
        "state": "MG",
        "district": "Limoeiro",
        "street": "Rua Gameleira",
        "zipcode": "35181-470"
    },
    {
        "city": "Timoteo",
        "state": "MG",
        "district": "Limoeiro",
        "street": "Rua Tambu",
        "zipcode": "35181-500"
    },
    {
        "city": "Timoteo",
        "state": "MG",
        "district": "Limoeiro",
        "street": "Rua Balsamo",
        "zipcode": "35181-454"
    },
    {
        "city": "Timoteo",
        "state": "MG",
        "district": "Limoeiro",
        "street": "Rua Tauari",
        "zipcode": "35181-502"
    },
    {
        "city": "Timoteo",
        "state": "MG",
        "district": "Primavera",
        "street": "Rua Manaca",
        "zipcode": "35182-528"
    },
    {
        "city": "Timoteo",
        "state": "MG",
        "district": "Timirim",
        "street": "Avenida Dezesseis",
        "zipcode": "35180-330"
    },
    {
        "city": "Timoteo",
        "state": "MG",
        "district": "Limoeiro",
        "street": "Rua Pequi",
        "zipcode": "35181-492"
    }
]