[
    {
        "city": "Tupaciguara",
        "state": "MG",
        "district": "Andorinhas",
        "street": "Rua Governador Bias Fortes 43",
        "zipcode": "38430-970"
    },
    {
        "city": "Tupaciguara",
        "state": "MG",
        "district": "Andorinhas",
        "street": "Rua Governador Bias Fortes 43",
        "zipcode": "38430-972"
    },
    {
        "city": "Tupaciguara",
        "state": "MG",
        "district": null,
        "street": null,
        "zipcode": "38430-000"
    },
    {
        "city": "Tupaciguara",
        "state": "MG",
        "district": "",
        "street": "",
        "zipcode": "38480-000"
    },
    {
        "city": "Tupaciguara",
        "state": "MG",
        "district": "Centro",
        "street": "Avenida Principal",
        "zipcode": "38480-971"
    },
    {
        "city": "Tupaciguara",
        "state": "MG",
        "district": "Andorinhas",
        "street": "Rua Governador Bias Fortes",
        "zipcode": "38480-972"
    },
    {
        "city": "Tupaciguara",
        "state": "MG",
        "district": "Andorinhas",
        "street": "Rua Governador Bias Fortes",
        "zipcode": "38480-970"
    },
    {
        "city": "Tupaciguara",
        "state": "MG",
        "district": "Centro",
        "street": "Avenida Principal s/n",
        "zipcode": "38430-971"
    }
]