[
    {
        "city": "Ubá",
        "state": "MG",
        "district": "Santa Clara",
        "street": "Rua H",
        "zipcode": "36504-082"
    },
    {
        "city": "Ubá",
        "state": "MG",
        "district": "Santa Cruz",
        "street": "Rua Maria José de Lucca",
        "zipcode": "36507-070"
    },
    {
        "city": "Ubá",
        "state": "MG",
        "district": "Loteamento Santos Dumont",
        "street": "Rua João Amorim",
        "zipcode": "36503-338"
    },
    {
        "city": "Ubá",
        "state": "MG",
        "district": "Cittá de Lucca",
        "street": "Rua José Sérgio Costa",
        "zipcode": "36507-378"
    },
    {
        "city": "Ubá",
        "state": "MG",
        "district": "Cittá de Lucca",
        "street": "Rua Padre Francisco Trombert",
        "zipcode": "36507-360"
    },
    {
        "city": "Ubá",
        "state": "MG",
        "district": "Universitário",
        "street": "Rua A",
        "zipcode": "36506-188"
    },
    {
        "city": "Ubá",
        "state": "MG",
        "district": "Cittá de Lucca",
        "street": "Rua Helena de Lucca Alpino",
        "zipcode": "36507-370"
    },
    {
        "city": "Ubá",
        "state": "MG",
        "district": "Cittá de Lucca",
        "street": "Rua Francisco Antônio de Lucca",
        "zipcode": "36507-346"
    },
    {
        "city": "Ubá",
        "state": "MG",
        "district": "Centro",
        "street": "Rodovia Ubá Juiz de Fora km 06",
        "zipcode": "36500-973"
    },
    {
        "city": "Ubá",
        "state": "MG",
        "district": "Jardim Manacás",
        "street": "Rua A",
        "zipcode": "36505-080"
    },
    {
        "city": "Ubá",
        "state": "MG",
        "district": "Santa Clara",
        "street": "Rua F",
        "zipcode": "36504-070"
    },
    {
        "city": "Ubá",
        "state": "MG",
        "district": "Centro",
        "street": "Rua da Paz",
        "zipcode": "36500-033"
    },
    {
        "city": "Ubá",
        "state": "MG",
        "district": "Belvedere",
        "street": "Rua A",
        "zipcode": "36505-170"
    },
    {
        "city": "Ubá",
        "state": "MG",
        "district": "São Mateus",
        "street": "Rua Três",
        "zipcode": "36503-154"
    },
    {
        "city": "Ubá",
        "state": "MG",
        "district": "Vila Casal",
        "street": "Rua Fizinho Moreira",
        "zipcode": "36501-112"
    },
    {
        "city": "Ubá",
        "state": "MG",
        "district": "San Raphael III",
        "street": "Rua P",
        "zipcode": "36507-232"
    },
    {
        "city": "Ubá",
        "state": "MG",
        "district": "Santa Rosa",
        "street": "Rua Rubi",
        "zipcode": "36506-332"
    },
    {
        "city": "Ubá",
        "state": "MG",
        "district": "Residencial Rosa de Toledo",
        "street": "Avenida Caratinga",
        "zipcode": "36506-254"
    },
    {
        "city": "Ubá",
        "state": "MG",
        "district": "Vila Franel",
        "street": "Travessa João Alves de Lima",
        "zipcode": "36507-156"
    },
    {
        "city": "Ubá",
        "state": "MG",
        "district": "Centro",
        "street": "Rua José Campomizzi",
        "zipcode": "36500-104"
    },
    {
        "city": "Ubá",
        "state": "MG",
        "district": "Centro",
        "street": "Calçadão Deputado Ibrahim Jacob",
        "zipcode": "36500-023"
    },
    {
        "city": "Ubá",
        "state": "MG",
        "district": "Residencial Rosa de Toledo",
        "street": "Avenida Viçosa",
        "zipcode": "36506-260"
    },
    {
        "city": "Ubá",
        "state": "MG",
        "district": "Santa Cândida",
        "street": "Rodovia MG",
        "zipcode": "36505-360"
    },
    {
        "city": "Ubá",
        "state": "MG",
        "district": "Vila Gonçalves",
        "street": "Rodovia MG",
        "zipcode": "36505-092"
    },
    {
        "city": "Ubá",
        "state": "MG",
        "district": "Centro",
        "street": "Rua Agostinho Marques",
        "zipcode": "36500-016"
    },
    {
        "city": "Ubá",
        "state": "MG",
        "district": "Centro",
        "street": "Rua Sete de Setembro",
        "zipcode": "36500-019"
    },
    {
        "city": "Ubá",
        "state": "MG",
        "district": "Centro",
        "street": "Rua Quinze de Novembro",
        "zipcode": "36500-027"
    },
    {
        "city": "Ubá",
        "state": "MG",
        "district": "Centro",
        "street": "Rua Antônio Batista",
        "zipcode": "36500-001"
    },
    {
        "city": "Ubá",
        "state": "MG",
        "district": "Cittá de Lucca",
        "street": "Rua Francisquinho de Lucca",
        "zipcode": "36507-356"
    },
    {
        "city": "Ubá",
        "state": "MG",
        "district": null,
        "street": null,
        "zipcode": "36500-000"
    },
    {
        "city": "Ubá",
        "state": "MG",
        "district": "Fazendinha",
        "street": "Rua Israel",
        "zipcode": "36506-286"
    },
    {
        "city": "Ubá",
        "state": "MG",
        "district": "Centro",
        "street": "Avenida Vereador Rafael Girardi 64",
        "zipcode": "36500-970"
    },
    {
        "city": "Ubá",
        "state": "MG",
        "district": "Centro",
        "street": "Rua Antônio Batista 43",
        "zipcode": "36500-971"
    },
    {
        "city": "Ubá",
        "state": "MG",
        "district": "Jardim Glória",
        "street": "Avenida Ary Barroso",
        "zipcode": "36500-144"
    },
    {
        "city": "Ubá",
        "state": "MG",
        "district": "Santa Clara",
        "street": "Avenida A",
        "zipcode": "36504-088"
    },
    {
        "city": "Ubá",
        "state": "MG",
        "district": "Olinda",
        "street": "Avenida Brasil",
        "zipcode": "36505-124"
    },
    {
        "city": "Ubá",
        "state": "MG",
        "district": "Tanquinho Doutor José Cavaliere",
        "street": "Avenida B",
        "zipcode": "36505-284"
    },
    {
        "city": "Ubá",
        "state": "MG",
        "district": "Laranjal",
        "street": "Avenida A",
        "zipcode": "36505-338"
    },
    {
        "city": "Ubá",
        "state": "MG",
        "district": "Santa Edwiges",
        "street": "Rodovia MG",
        "zipcode": "36505-278"
    },
    {
        "city": "Ubá",
        "state": "MG",
        "district": "Cidade Jardim",
        "street": "Alameda das Orquídeas",
        "zipcode": "36507-314"
    },
    {
        "city": "Ubá",
        "state": "MG",
        "district": "São Domingos",
        "street": "Rua Adolfo Pereira Cortez",
        "zipcode": "36504-000"
    },
    {
        "city": "Ubá",
        "state": "MG",
        "district": "Cristal",
        "street": "Rua Ary Peron",
        "zipcode": "36504-250"
    },
    {
        "city": "Ubá",
        "state": "MG",
        "district": "Santana",
        "street": "Rua Doutor Waldemar Martins",
        "zipcode": "36506-056"
    },
    {
        "city": "Ubá",
        "state": "MG",
        "district": "Centro",
        "street": "Rua Monsenhor José Cândido Diniz",
        "zipcode": "36500-031"
    },
    {
        "city": "Ubá",
        "state": "MG",
        "district": "São Judas Tadeu",
        "street": "Rua Jayme Machado",
        "zipcode": "36502-282"
    },
    {
        "city": "Ubá",
        "state": "MG",
        "district": "San Raphael II",
        "street": "Rua Pedro Botaro",
        "zipcode": "36507-202"
    },
    {
        "city": "Ubá",
        "state": "MG",
        "district": "Centro",
        "street": "Galeria Francisco Láurea",
        "zipcode": "36500-022"
    },
    {
        "city": "Ubá",
        "state": "MG",
        "district": "Agroceres",
        "street": "Rua Curitiba",
        "zipcode": "36504-238"
    },
    {
        "city": "Ubá",
        "state": "MG",
        "district": "Talma",
        "street": "Rua São Paulo",
        "zipcode": "36500-298"
    },
    {
        "city": "Ubá",
        "state": "MG",
        "district": "Oséas Maranhão",
        "street": "Rua José Lemos Duarte",
        "zipcode": "36506-134"
    },
    {
        "city": "Ubá",
        "state": "MG",
        "district": "Ponte Preta",
        "street": "Rua Lambari",
        "zipcode": "36503-122"
    },
    {
        "city": "Ubá",
        "state": "MG",
        "district": "Cristo Redentor",
        "street": "Rua Arcílio de Moura Estevão",
        "zipcode": "36500-224"
    },
    {
        "city": "Ubá",
        "state": "MG",
        "district": "Universitário",
        "street": "Rua Angelino Teixeira",
        "zipcode": "36506-186"
    },
    {
        "city": "Ubá",
        "state": "MG",
        "district": "Cidade Jardim",
        "street": "Alameda das Tulipas",
        "zipcode": "36507-316"
    },
    {
        "city": "Ubá",
        "state": "MG",
        "district": "Cidade Jardim",
        "street": "Alameda Rosas",
        "zipcode": "36507-300"
    },
    {
        "city": "Ubá",
        "state": "MG",
        "district": "Caxangá",
        "street": "Rua Abigail Pimentel Tavares",
        "zipcode": "36500-202"
    },
    {
        "city": "Ubá",
        "state": "MG",
        "district": "San Raphael III",
        "street": "Rua D",
        "zipcode": "36507-238"
    },
    {
        "city": "Ubá",
        "state": "MG",
        "district": "Centro",
        "street": "Rua Henrique Russo",
        "zipcode": "36500-093"
    },
    {
        "city": "Ubá",
        "state": "MG",
        "district": "San Raphael II",
        "street": "Rua H",
        "zipcode": "36507-194"
    },
    {
        "city": "Ubá",
        "state": "MG",
        "district": "Santa Cruz",
        "street": "Rua Minas Gerais",
        "zipcode": "36507-078"
    },
    {
        "city": "Ubá",
        "state": "MG",
        "district": "Quinta das Paineiras",
        "street": "Rua B",
        "zipcode": "36502-252"
    },
    {
        "city": "Ubá",
        "state": "MG",
        "district": "San Raphael III",
        "street": "Rua K",
        "zipcode": "36507-216"
    },
    {
        "city": "Ubá",
        "state": "MG",
        "district": "San Raphael III",
        "street": "Rua C",
        "zipcode": "36507-236"
    },
    {
        "city": "Ubá",
        "state": "MG",
        "district": "Industrial",
        "street": "Rua Vinte e Cinco",
        "zipcode": "36502-090"
    },
    {
        "city": "Ubá",
        "state": "MG",
        "district": "Ponte Preta",
        "street": "Rua Inês Guiducci",
        "zipcode": "36503-136"
    },
    {
        "city": "Ubá",
        "state": "MG",
        "district": "Chiquito Gazolla",
        "street": "Rua Theófilo Lemos Gravina",
        "zipcode": "36506-122"
    },
    {
        "city": "Ubá",
        "state": "MG",
        "district": "São Judas Tadeu",
        "street": "Rua Professor Francisco Arthidoro da Costa",
        "zipcode": "36502-270"
    },
    {
        "city": "Ubá",
        "state": "MG",
        "district": "Louriçal",
        "street": "Praça Engenheiro Jaime Tavares Videira",
        "zipcode": "36505-048"
    },
    {
        "city": "Ubá",
        "state": "MG",
        "district": "Antonina Coelho",
        "street": "Rua Professora Maria Joanina Giacoia Mendes",
        "zipcode": "36506-220"
    },
    {
        "city": "Ubá",
        "state": "MG",
        "district": "Laranjal",
        "street": "Rua E",
        "zipcode": "36505-324"
    },
    {
        "city": "Ubá",
        "state": "MG",
        "district": "Laranjal",
        "street": "Rua G",
        "zipcode": "36505-326"
    },
    {
        "city": "Ubá",
        "state": "MG",
        "district": "Centro",
        "street": "Rua João Cesar Santos",
        "zipcode": "36500-003"
    },
    {
        "city": "Ubá",
        "state": "MG",
        "district": "Centro",
        "street": "Rua Nossa Senhora da Saúde",
        "zipcode": "36500-008"
    },
    {
        "city": "Ubá",
        "state": "MG",
        "district": "Centro",
        "street": "Rua Santa Terezinha",
        "zipcode": "36500-005"
    },
    {
        "city": "Ubá",
        "state": "MG",
        "district": "Portal das Mangueiras",
        "street": "Avenida Mangueiras",
        "zipcode": "36500-322"
    },
    {
        "city": "Ubá",
        "state": "MG",
        "district": "Tanquinho João Teixeira",
        "street": "Rodovia MG",
        "zipcode": "36505-340"
    },
    {
        "city": "Ubá",
        "state": "MG",
        "district": "Tanquinho Doutor José Cavaliere",
        "street": "Rodovia MG",
        "zipcode": "36505-280"
    },
    {
        "city": "Ubá",
        "state": "MG",
        "district": "Dico Teixeira",
        "street": "Avenida Comendador Teixeira e Silva",
        "zipcode": "36506-078"
    },
    {
        "city": "Ubá",
        "state": "MG",
        "district": "Santa Clara",
        "street": "Rua J",
        "zipcode": "36504-076"
    },
    {
        "city": "Ubá",
        "state": "MG",
        "district": "Vale do Ipê",
        "street": "Rua Adriano de Pádua Tozzi",
        "zipcode": "36507-282"
    },
    {
        "city": "Ubá",
        "state": "MG",
        "district": "Cidade Jardim",
        "street": "Alameda das Camélias",
        "zipcode": "36507-304"
    },
    {
        "city": "Ubá",
        "state": "MG",
        "district": "Cidade Jardim",
        "street": "Alameda das Casuarinas",
        "zipcode": "36507-308"
    },
    {
        "city": "Ubá",
        "state": "MG",
        "district": "Cidade Jardim",
        "street": "Alameda das Margaridas",
        "zipcode": "36507-312"
    },
    {
        "city": "Ubá",
        "state": "MG",
        "district": "Cidade Jardim",
        "street": "Alameda das Acácias",
        "zipcode": "36507-326"
    },
    {
        "city": "Ubá",
        "state": "MG",
        "district": "Bom Pastor",
        "street": "Rua Antônio Malaquias Júnior",
        "zipcode": "36504-162"
    },
    {
        "city": "Ubá",
        "state": "MG",
        "district": "São Sebastião",
        "street": "Rua Adalberto Carneiro de Castro",
        "zipcode": "36505-018"
    },
    {
        "city": "Ubá",
        "state": "MG",
        "district": "Santa Bernadete",
        "street": "Rua Mário Tavares Pereira",
        "zipcode": "36502-188"
    },
    {
        "city": "Ubá",
        "state": "MG",
        "district": "Aeroporto",
        "street": "Rua João Teixeira da Silveira",
        "zipcode": "36503-312"
    },
    {
        "city": "Ubá",
        "state": "MG",
        "district": "Vila Franel",
        "street": "Rua José de Assis Nogueira",
        "zipcode": "36507-154"
    },
    {
        "city": "Ubá",
        "state": "MG",
        "district": "Louriçal",
        "street": "Rua Maria José Bigonha da Silva",
        "zipcode": "36505-056"
    },
    {
        "city": "Ubá",
        "state": "MG",
        "district": "Centro",
        "street": "Rua Wenceslau Roberto Soares",
        "zipcode": "36500-050"
    },
    {
        "city": "Ubá",
        "state": "MG",
        "district": "Centro",
        "street": "Vila Clarismundo da Rocha Marliere",
        "zipcode": "36500-002"
    },
    {
        "city": "Ubá",
        "state": "MG",
        "district": "Centro",
        "street": "Rua Camilo dos Santos",
        "zipcode": "36500-006"
    },
    {
        "city": "Ubá",
        "state": "MG",
        "district": "São Sebastião",
        "street": "Travessa Miceno Caldeira",
        "zipcode": "36505-012"
    },
    {
        "city": "Ubá",
        "state": "MG",
        "district": "Jardim Glória",
        "street": "Rua Farmacêutico Mário de Azevedo",
        "zipcode": "36500-142"
    },
    {
        "city": "Ubá",
        "state": "MG",
        "district": "Eldorado",
        "street": "Rua Sílio Miquelito",
        "zipcode": "36504-102"
    },
    {
        "city": "Ubá",
        "state": "MG",
        "district": "Santo Antônio",
        "street": "Rua José Provezano",
        "zipcode": "36501-064"
    },
    {
        "city": "Ubá",
        "state": "MG",
        "district": "Vila Casal",
        "street": "Rua Sebastião Gomides de Almeida",
        "zipcode": "36501-096"
    },
    {
        "city": "Ubá",
        "state": "MG",
        "district": "São Domingos",
        "street": "Rua São Bartolomeu",
        "zipcode": "36504-026"
    },
    {
        "city": "Ubá",
        "state": "MG",
        "district": "Louriçal",
        "street": "Rua Luiz Curse",
        "zipcode": "36505-060"
    },
    {
        "city": "Ubá",
        "state": "MG",
        "district": "Centro",
        "street": "Rua Dom Helvécio",
        "zipcode": "36500-052"
    },
    {
        "city": "Ubá",
        "state": "MG",
        "district": "Cidade Carinho II",
        "street": "Rua Cinco",
        "zipcode": "36504-284"
    },
    {
        "city": "Ubá",
        "state": "MG",
        "district": "Bom Pastor",
        "street": "Rua Francisco Gomes Pereira",
        "zipcode": "36504-160"
    },
    {
        "city": "Ubá",
        "state": "MG",
        "district": "Cidade Jardim",
        "street": "Alameda das Boninas",
        "zipcode": "36507-306"
    },
    {
        "city": "Ubá",
        "state": "MG",
        "district": "Vila Casal",
        "street": "Rua Cecília Petronília Moreira",
        "zipcode": "36501-114"
    },
    {
        "city": "Ubá",
        "state": "MG",
        "district": "Vila Regina",
        "street": "Rua José Vieira de Andrade",
        "zipcode": "36501-190"
    },
    {
        "city": "Ubá",
        "state": "MG",
        "district": "Agroceres",
        "street": "Rua João José Teixeira",
        "zipcode": "36504-241"
    },
    {
        "city": "Ubá",
        "state": "MG",
        "district": "Santa Edwiges",
        "street": "Rua José Sales Collares",
        "zipcode": "36505-242"
    },
    {
        "city": "Ubá",
        "state": "MG",
        "district": "Santa Edwiges",
        "street": "Rua Doutor Antero Raymundo Gomes",
        "zipcode": "36505-244"
    },
    {
        "city": "Ubá",
        "state": "MG",
        "district": "Cittá de Lucca",
        "street": "Rua Joaquina Girardi",
        "zipcode": "36507-374"
    },
    {
        "city": "Ubá",
        "state": "MG",
        "district": "Industrial",
        "street": "Beco Ana Maria da Conceição",
        "zipcode": "36502-040"
    },
    {
        "city": "Ubá",
        "state": "MG",
        "district": "Industrial",
        "street": "Beco Francisco Paulino Teixeira",
        "zipcode": "36502-044"
    },
    {
        "city": "Ubá",
        "state": "MG",
        "district": "Industrial",
        "street": "Rua Antônio Amato",
        "zipcode": "36502-052"
    },
    {
        "city": "Ubá",
        "state": "MG",
        "district": "Industrial",
        "street": "Rua Amábile Parma Duriguetto",
        "zipcode": "36502-064"
    },
    {
        "city": "Ubá",
        "state": "MG",
        "district": "Ponte Preta",
        "street": "Avenida Olegário Maciel",
        "zipcode": "36503-112"
    },
    {
        "city": "Ubá",
        "state": "MG",
        "district": "Ponte Preta",
        "street": "Avenida Olegário Maciel",
        "zipcode": "36503-110"
    },
    {
        "city": "Ubá",
        "state": "MG",
        "district": "Santa Edwiges II",
        "street": "Rua Anatália Ângela Valéria",
        "zipcode": "36505-228"
    },
    {
        "city": "Ubá",
        "state": "MG",
        "district": "Área Rural de Ubá",
        "street": "Área Rural",
        "zipcode": "36509-899"
    },
    {
        "city": "Ubá",
        "state": "MG",
        "district": "Vila Casal",
        "street": "Rua Sebastião Luiz Cardoso",
        "zipcode": "36501-116"
    },
    {
        "city": "Ubá",
        "state": "MG",
        "district": "Vila Moreira",
        "street": "Rua Leopoldina Lopes da Silva",
        "zipcode": "36501-120"
    },
    {
        "city": "Ubá",
        "state": "MG",
        "district": "Vila Moreira",
        "street": "Rua Sebastião Cristiano Raimundo",
        "zipcode": "36501-122"
    },
    {
        "city": "Ubá",
        "state": "MG",
        "district": "São José",
        "street": "Rua Francisco Teixeira Nascimento",
        "zipcode": "36501-130"
    },
    {
        "city": "Ubá",
        "state": "MG",
        "district": "Cittá de Lucca",
        "street": "Rua Ilídio Fernandes",
        "zipcode": "36507-372"
    },
    {
        "city": "Ubá",
        "state": "MG",
        "district": "Cittá de Lucca",
        "street": "Rua Geraldo Félix Carneiro",
        "zipcode": "36507-376"
    },
    {
        "city": "Ubá",
        "state": "MG",
        "district": "Cittá de Lucca",
        "street": "Rua Juscelino de Oliveira Braga",
        "zipcode": "36507-342"
    },
    {
        "city": "Ubá",
        "state": "MG",
        "district": "Cittá de Lucca",
        "street": "Rua Ignácio Rodrigues",
        "zipcode": "36507-358"
    },
    {
        "city": "Ubá",
        "state": "MG",
        "district": "São José",
        "street": "Rua Antônio Raimundo",
        "zipcode": "36501-132"
    },
    {
        "city": "Ubá",
        "state": "MG",
        "district": "São José",
        "street": "Rua Terezinha de Abreu Moreira",
        "zipcode": "36501-138"
    },
    {
        "city": "Ubá",
        "state": "MG",
        "district": "São José",
        "street": "Rua Geni Dias Cazita",
        "zipcode": "36501-140"
    },
    {
        "city": "Ubá",
        "state": "MG",
        "district": "São José",
        "street": "Vila Henrique Groppo",
        "zipcode": "36501-142"
    },
    {
        "city": "Ubá",
        "state": "MG",
        "district": "São José",
        "street": "Rua José Jacinto Vieira",
        "zipcode": "36501-144"
    },
    {
        "city": "Ubá",
        "state": "MG",
        "district": "São José",
        "street": "Rua Carlos Gravina Neto",
        "zipcode": "36501-148"
    },
    {
        "city": "Ubá",
        "state": "MG",
        "district": "São José",
        "street": "Travessa Rita Moreira",
        "zipcode": "36501-152"
    },
    {
        "city": "Ubá",
        "state": "MG",
        "district": "São José",
        "street": "Rua Rosalina Provezano",
        "zipcode": "36501-154"
    },
    {
        "city": "Ubá",
        "state": "MG",
        "district": "São José",
        "street": "Rua José dos Santos (Lot. Residencial Novo Horizonte)",
        "zipcode": "36501-166"
    },
    {
        "city": "Ubá",
        "state": "MG",
        "district": "Vila Regina",
        "street": "Rua Florinda Fernandes",
        "zipcode": "36501-188"
    },
    {
        "city": "Ubá",
        "state": "MG",
        "district": "Vila Regina",
        "street": "Rua Jayme Ferreira da Costa",
        "zipcode": "36501-194"
    },
    {
        "city": "Ubá",
        "state": "MG",
        "district": "Industrial",
        "street": "Rua Ceará",
        "zipcode": "36502-050"
    },
    {
        "city": "Ubá",
        "state": "MG",
        "district": "Mateus Schetino",
        "street": "Rua José Américo Schetino",
        "zipcode": "36502-132"
    },
    {
        "city": "Ubá",
        "state": "MG",
        "district": "Mateus Schetino",
        "street": "Rua Braz Schetino",
        "zipcode": "36502-140"
    },
    {
        "city": "Ubá",
        "state": "MG",
        "district": "Industrial",
        "street": "Rua Expedicionário Rui Balbi",
        "zipcode": "36502-060"
    },
    {
        "city": "Ubá",
        "state": "MG",
        "district": "Santana",
        "street": "Rua Carangola",
        "zipcode": "36506-046"
    },
    {
        "city": "Ubá",
        "state": "MG",
        "district": "Industrial",
        "street": "Rua Erotides Neiva Campomizzi",
        "zipcode": "36502-084"
    },
    {
        "city": "Ubá",
        "state": "MG",
        "district": "Jardim Élida",
        "street": "Rua Corina Campos Coelho",
        "zipcode": "36502-122"
    },
    {
        "city": "Ubá",
        "state": "MG",
        "district": "Jardim Élida",
        "street": "Rua José Morais",
        "zipcode": "36502-124"
    },
    {
        "city": "Ubá",
        "state": "MG",
        "district": "Paulino Fernandes III",
        "street": "Rua José Horta Galvão",
        "zipcode": "36503-084"
    },
    {
        "city": "Ubá",
        "state": "MG",
        "district": "Paulino Fernandes III",
        "street": "Rua Hortênsia",
        "zipcode": "36503-090"
    },
    {
        "city": "Ubá",
        "state": "MG",
        "district": "Residencial São José",
        "street": "Rua Carmem Delazari Candian",
        "zipcode": "36503-104"
    },
    {
        "city": "Ubá",
        "state": "MG",
        "district": "Ponte Preta",
        "street": "Rua Cecília Buzato Marcos",
        "zipcode": "36503-120"
    },
    {
        "city": "Ubá",
        "state": "MG",
        "district": "Ponte Preta",
        "street": "Rua José Augusto Marcos",
        "zipcode": "36503-132"
    },
    {
        "city": "Ubá",
        "state": "MG",
        "district": "São Mateus",
        "street": "Rua Dois",
        "zipcode": "36503-152"
    },
    {
        "city": "Ubá",
        "state": "MG",
        "district": "Vila Regina",
        "street": "Rua Doutor José Godinho",
        "zipcode": "36501-186"
    },
    {
        "city": "Ubá",
        "state": "MG",
        "district": "Vila Regina",
        "street": "Rua Clarice Vieira",
        "zipcode": "36501-196"
    },
    {
        "city": "Ubá",
        "state": "MG",
        "district": "Paulino Fernandes",
        "street": "Rua Azaléia",
        "zipcode": "36503-068"
    },
    {
        "city": "Ubá",
        "state": "MG",
        "district": "Paulino Fernandes",
        "street": "Rua Jonina Brucshi da Silva",
        "zipcode": "36503-076"
    },
    {
        "city": "Ubá",
        "state": "MG",
        "district": "Paulino Fernandes",
        "street": "Rua Hibisco",
        "zipcode": "36503-078"
    },
    {
        "city": "Ubá",
        "state": "MG",
        "district": "Residencial São José",
        "street": "Rua Coimbra",
        "zipcode": "36503-102"
    },
    {
        "city": "Ubá",
        "state": "MG",
        "district": "Ponte Preta",
        "street": "Rua Elias Antônio Laud",
        "zipcode": "36503-114"
    },
    {
        "city": "Ubá",
        "state": "MG",
        "district": "Santa Edwiges II",
        "street": "Rua José Emygdio Teixeira",
        "zipcode": "36505-226"
    },
    {
        "city": "Ubá",
        "state": "MG",
        "district": "Paulino Fernandes",
        "street": "Rua Girassol",
        "zipcode": "36503-072"
    },
    {
        "city": "Ubá",
        "state": "MG",
        "district": "Mateus Schetino",
        "street": "Rua Nossa Senhora de Fátima",
        "zipcode": "36502-136"
    },
    {
        "city": "Ubá",
        "state": "MG",
        "district": "Industrial",
        "street": "Rua São Pedro",
        "zipcode": "36502-068"
    },
    {
        "city": "Ubá",
        "state": "MG",
        "district": "São Mateus",
        "street": "Travessa Três",
        "zipcode": "36503-158"
    },
    {
        "city": "Ubá",
        "state": "MG",
        "district": "Jardim Inês Groppo",
        "street": "Avenida Daniel Fagundes",
        "zipcode": "36503-004"
    },
    {
        "city": "Ubá",
        "state": "MG",
        "district": "Cidade Jardim",
        "street": "Alameda dos Narcisos",
        "zipcode": "36507-322"
    },
    {
        "city": "Ubá",
        "state": "MG",
        "district": "São Sebastião",
        "street": "Avenida dos Franciscanos",
        "zipcode": "36505-000"
    },
    {
        "city": "Ubá",
        "state": "MG",
        "district": "Vila Regina",
        "street": "Rua Manoel Casal",
        "zipcode": "36501-184"
    },
    {
        "city": "Ubá",
        "state": "MG",
        "district": "Centro",
        "street": "Avenida Coronel Bernardino Carneiro",
        "zipcode": "36500-114"
    },
    {
        "city": "Ubá",
        "state": "MG",
        "district": "Jardim Alves do Vale",
        "street": "Avenida Edson Morais Pacheco",
        "zipcode": "36500-340"
    },
    {
        "city": "Ubá",
        "state": "MG",
        "district": "Palmeiras",
        "street": "Avenida Edson Furtado Caiaffa",
        "zipcode": "36502-242"
    },
    {
        "city": "Ubá",
        "state": "MG",
        "district": "Residencial Jardim Europa",
        "street": "Rua A",
        "zipcode": "36505-150"
    },
    {
        "city": "Ubá",
        "state": "MG",
        "district": "Cidade Jardim",
        "street": "Alameda dos Jasmins",
        "zipcode": "36507-320"
    },
    {
        "city": "Ubá",
        "state": "MG",
        "district": "Centro",
        "street": "Rua Antonina Coelho",
        "zipcode": "36500-069"
    },
    {
        "city": "Ubá",
        "state": "MG",
        "district": "Residencial Altair Rocha",
        "street": "Rua Antônio Anastácio Duriguetto",
        "zipcode": "36502-342"
    },
    {
        "city": "Ubá",
        "state": "MG",
        "district": "dos Vaz",
        "street": "Rua Anísia Anézia da Rocha",
        "zipcode": "36502-324"
    },
    {
        "city": "Ubá",
        "state": "MG",
        "district": "Waldemar de Castro",
        "street": "Rua Agostinho Barbosa",
        "zipcode": "36505-130"
    },
    {
        "city": "Ubá",
        "state": "MG",
        "district": "Centro",
        "street": "Avenida Raul Soares",
        "zipcode": "36500-067"
    },
    {
        "city": "Ubá",
        "state": "MG",
        "district": "Centro",
        "street": "Praça Armando Bigonha",
        "zipcode": "36500-024"
    },
    {
        "city": "Ubá",
        "state": "MG",
        "district": "Centro",
        "street": "Praça Getúlio Vargas",
        "zipcode": "36500-116"
    },
    {
        "city": "Ubá",
        "state": "MG",
        "district": "Centro",
        "street": "Praça do Rosário",
        "zipcode": "36500-032"
    },
    {
        "city": "Ubá",
        "state": "MG",
        "district": "Santa Bernadete",
        "street": "Rua Alberto Ferreira de Souza",
        "zipcode": "36502-176"
    },
    {
        "city": "Ubá",
        "state": "MG",
        "district": "Residencial Monte Belo",
        "street": "Rua A",
        "zipcode": "36502-372"
    },
    {
        "city": "Ubá",
        "state": "MG",
        "district": "Cidade Carinho II",
        "street": "Avenida Um",
        "zipcode": "36504-272"
    },
    {
        "city": "Ubá",
        "state": "MG",
        "district": "Santa Bernadete",
        "street": "Avenida Santiago",
        "zipcode": "36502-158"
    },
    {
        "city": "Ubá",
        "state": "MG",
        "district": "Mangueira Rural",
        "street": "Avenida Jesus Candian",
        "zipcode": "36503-258"
    },
    {
        "city": "Ubá",
        "state": "MG",
        "district": "São José",
        "street": "Rua Mário Zauza (Lot. Residencial Novo Horizonte)",
        "zipcode": "36501-161"
    },
    {
        "city": "Ubá",
        "state": "MG",
        "district": "São José",
        "street": "Rua Oswaldo Teixeira Gomides (Lot. Residencial Novo Horizonte)",
        "zipcode": "36501-164"
    },
    {
        "city": "Ubá",
        "state": "MG",
        "district": "São José",
        "street": "Rua Mário Floriano Martins (Lot. Residencial Novo Horizonte)",
        "zipcode": "36501-165"
    },
    {
        "city": "Ubá",
        "state": "MG",
        "district": "São José",
        "street": "Rua Luiz Carlos Monteiro de Barros (Lot. Residencial Novo Horizonte)",
        "zipcode": "36501-167"
    },
    {
        "city": "Ubá",
        "state": "MG",
        "district": "Vila Regina",
        "street": "Rua Luiz de Matos",
        "zipcode": "36501-182"
    },
    {
        "city": "Ubá",
        "state": "MG",
        "district": "Industrial",
        "street": "Rua Lenir Guizilini de Andrade",
        "zipcode": "36502-058"
    },
    {
        "city": "Ubá",
        "state": "MG",
        "district": "Nossa Senhora de Fátima",
        "street": "Rua Paschoalino Bianchi",
        "zipcode": "36502-116"
    },
    {
        "city": "Ubá",
        "state": "MG",
        "district": "Jardim Élida",
        "street": "Rua Zélia Schetino",
        "zipcode": "36502-120"
    },
    {
        "city": "Ubá",
        "state": "MG",
        "district": "Mateus Schetino",
        "street": "Rua Santo André",
        "zipcode": "36502-134"
    },
    {
        "city": "Ubá",
        "state": "MG",
        "district": "Mateus Schetino",
        "street": "Rua Tancredo Neves",
        "zipcode": "36502-138"
    },
    {
        "city": "Ubá",
        "state": "MG",
        "district": "Vila Regina",
        "street": "Rua Vereador Benedito Augusto Vieira",
        "zipcode": "36501-180"
    },
    {
        "city": "Ubá",
        "state": "MG",
        "district": "Industrial",
        "street": "Vila Montanari",
        "zipcode": "36502-042"
    },
    {
        "city": "Ubá",
        "state": "MG",
        "district": "Industrial",
        "street": "Rua Maestro João Ernesto",
        "zipcode": "36502-054"
    },
    {
        "city": "Ubá",
        "state": "MG",
        "district": "Industrial",
        "street": "Rua Orlando Teixeira",
        "zipcode": "36502-080"
    },
    {
        "city": "Ubá",
        "state": "MG",
        "district": "Industrial",
        "street": "Rua Teixeira Soares",
        "zipcode": "36502-082"
    },
    {
        "city": "Ubá",
        "state": "MG",
        "district": "Mateus Schetino",
        "street": "Rua Mateus Schettino",
        "zipcode": "36502-130"
    },
    {
        "city": "Ubá",
        "state": "MG",
        "district": "Paulino Fernandes",
        "street": "Rua Palmeira",
        "zipcode": "36503-070"
    },
    {
        "city": "Ubá",
        "state": "MG",
        "district": "Paulino Fernandes III",
        "street": "Rua Xisto Fernandes Guimarães",
        "zipcode": "36503-088"
    },
    {
        "city": "Ubá",
        "state": "MG",
        "district": "Ponte Preta",
        "street": "Rua Nicéas Gomides de Almeida",
        "zipcode": "36503-124"
    },
    {
        "city": "Ubá",
        "state": "MG",
        "district": "Ponte Preta",
        "street": "Travessa Vivianen Bastos Mendes",
        "zipcode": "36503-130"
    },
    {
        "city": "Ubá",
        "state": "MG",
        "district": "Ponte Preta",
        "street": "Travessa Adelina Barbieri de Freitas",
        "zipcode": "36503-134"
    },
    {
        "city": "Ubá",
        "state": "MG",
        "district": "São Mateus",
        "street": "Rua Raimundo Mariano dos Santos",
        "zipcode": "36503-150"
    },
    {
        "city": "Ubá",
        "state": "MG",
        "district": "São Mateus",
        "street": "Rua Quatro",
        "zipcode": "36503-156"
    },
    {
        "city": "Ubá",
        "state": "MG",
        "district": "Industrial",
        "street": "Rua Nicolau Papa",
        "zipcode": "36502-076"
    },
    {
        "city": "Ubá",
        "state": "MG",
        "district": "Ponte Preta",
        "street": "Rua Josino Candian",
        "zipcode": "36503-118"
    },
    {
        "city": "Ubá",
        "state": "MG",
        "district": "Paulino Fernandes III",
        "street": "Rua Orquídea",
        "zipcode": "36503-092"
    },
    {
        "city": "Ubá",
        "state": "MG",
        "district": "Santa Edwiges",
        "street": "Rua Luiz Antônio Teixeira",
        "zipcode": "36505-240"
    },
    {
        "city": "Ubá",
        "state": "MG",
        "district": "São Domingos",
        "street": "Rua Alan Kardec",
        "zipcode": "36504-050"
    },
    {
        "city": "Ubá",
        "state": "MG",
        "district": "Jardim Primavera",
        "street": "Rua Antônio Carlos Caiaffa",
        "zipcode": "36505-182"
    },
    {
        "city": "Ubá",
        "state": "MG",
        "district": "Jardim Inês Groppo",
        "street": "Rua Aristhoteles Evaristo Alves",
        "zipcode": "36503-014"
    },
    {
        "city": "Ubá",
        "state": "MG",
        "district": "São Domingos",
        "street": "Rua Alexandre Francisco Rodrigues",
        "zipcode": "36504-060"
    },
    {
        "city": "Ubá",
        "state": "MG",
        "district": "Oséas Maranhão",
        "street": "Avenida Senador Levindo Coelho",
        "zipcode": "36506-130"
    },
    {
        "city": "Ubá",
        "state": "MG",
        "district": "Santa Rosa",
        "street": "Avenida Senador Levindo Coelho",
        "zipcode": "36506-330"
    },
    {
        "city": "Ubá",
        "state": "MG",
        "district": "Laurindo de Castro",
        "street": "Praça Newton Carneiro",
        "zipcode": "36507-142"
    },
    {
        "city": "Ubá",
        "state": "MG",
        "district": "Paulino Fernandes IV",
        "street": "Avenida Paulino Fernandes",
        "zipcode": "36503-020"
    },
    {
        "city": "Ubá",
        "state": "MG",
        "district": "Eldorado",
        "street": "Rua Antônio Frederico Ozanan",
        "zipcode": "36504-128"
    },
    {
        "city": "Ubá",
        "state": "MG",
        "district": "Vitória",
        "street": "Rua Amélia Duarte Sol",
        "zipcode": "36500-240"
    },
    {
        "city": "Ubá",
        "state": "MG",
        "district": "Mangueira Rural",
        "street": "Rua Ângelo Sperandio",
        "zipcode": "36503-250"
    },
    {
        "city": "Ubá",
        "state": "MG",
        "district": "São Pedro",
        "street": "Rua A",
        "zipcode": "36504-220"
    },
    {
        "city": "Ubá",
        "state": "MG",
        "district": "Bom Pastor",
        "street": "Avenida José Rezende Brando",
        "zipcode": "36504-178"
    },
    {
        "city": "Ubá",
        "state": "MG",
        "district": "Louriçal",
        "street": "Avenida Hermes Bigonha",
        "zipcode": "36505-036"
    },
    {
        "city": "Ubá",
        "state": "MG",
        "district": "Santa Luzia",
        "street": "Avenida Padre Arnaldo Jansen",
        "zipcode": "36506-001"
    },
    {
        "city": "Ubá",
        "state": "MG",
        "district": "Seminário",
        "street": "Avenida Maestro Gesualdo Muzitano",
        "zipcode": "36506-024"
    },
    {
        "city": "Ubá",
        "state": "MG",
        "district": "Santana",
        "street": "Avenida Padre Arnaldo Jansen",
        "zipcode": "36506-064"
    },
    {
        "city": "Ubá",
        "state": "MG",
        "district": "Antonina Coelho",
        "street": "Avenida Diógenes Gomes da Silva",
        "zipcode": "36506-226"
    },
    {
        "city": "Ubá",
        "state": "MG",
        "district": "San Raphael II",
        "street": "Avenida Jesus Brandão",
        "zipcode": "36507-190"
    },
    {
        "city": "Ubá",
        "state": "MG",
        "district": "Pedro Miquelito",
        "street": "Avenida Juscelino Kubitscheck",
        "zipcode": "36507-260"
    },
    {
        "city": "Ubá",
        "state": "MG",
        "district": "Novo Horizonte",
        "street": "Avenida Juscelino Kubitscheck",
        "zipcode": "36507-270"
    },
    {
        "city": "Ubá",
        "state": "MG",
        "district": "Santana",
        "street": "Avenida Parque Industrial",
        "zipcode": "36506-060"
    },
    {
        "city": "Ubá",
        "state": "MG",
        "district": "Laurindo de Castro",
        "street": "Avenida dos Ex Combatentes",
        "zipcode": "36507-130"
    },
    {
        "city": "Ubá",
        "state": "MG",
        "district": "Major Fusaro",
        "street": "Rua Antônio Fusaro filho",
        "zipcode": "36500-172"
    },
    {
        "city": "Ubá",
        "state": "MG",
        "district": "Santa Bernadete",
        "street": "Rua Adelina dos Santos Ribeiro",
        "zipcode": "36502-192"
    },
    {
        "city": "Ubá",
        "state": "MG",
        "district": "Caxangá",
        "street": "Rua Augusto dos Santos",
        "zipcode": "36500-204"
    },
    {
        "city": "Ubá",
        "state": "MG",
        "district": "Jardim Alves do Vale",
        "street": "Rua Ana Gomes Machado",
        "zipcode": "36500-336"
    },
    {
        "city": "Ubá",
        "state": "MG",
        "district": "Loteamento Santos Dumont",
        "street": "Rua Doutor Hésio Magri de Lacerda",
        "zipcode": "36503-330"
    },
    {
        "city": "Ubá",
        "state": "MG",
        "district": "São Sebastião",
        "street": "Rua Antônio Duarte Pacheco",
        "zipcode": "36505-016"
    },
    {
        "city": "Ubá",
        "state": "MG",
        "district": "Jardim Manacás",
        "street": "Rua B",
        "zipcode": "36505-082"
    },
    {
        "city": "Ubá",
        "state": "MG",
        "district": "Eldorado",
        "street": "Rua Antônio Adriano de Melo",
        "zipcode": "36504-134"
    },
    {
        "city": "Ubá",
        "state": "MG",
        "district": "Universitário",
        "street": "Rua Antônio de Lucca",
        "zipcode": "36506-184"
    },
    {
        "city": "Ubá",
        "state": "MG",
        "district": "São João",
        "street": "Rua Antônio Alfenas Andrade",
        "zipcode": "36507-106"
    },
    {
        "city": "Ubá",
        "state": "MG",
        "district": "Antônio Bigonha",
        "street": "Rua Ana Baião Bigonha",
        "zipcode": "36506-240"
    },
    {
        "city": "Ubá",
        "state": "MG",
        "district": "Antônio Bigonha",
        "street": "Rua Antônio da Costa Ribeiro",
        "zipcode": "36506-244"
    },
    {
        "city": "Ubá",
        "state": "MG",
        "district": "São João",
        "street": "Rua Alberto Rodrigues Baião",
        "zipcode": "36507-124"
    },
    {
        "city": "Ubá",
        "state": "MG",
        "district": "Centro",
        "street": "Praça São Januário",
        "zipcode": "36500-066"
    },
    {
        "city": "Ubá",
        "state": "MG",
        "district": "Vitória",
        "street": "Rua Braz Brando Neto",
        "zipcode": "36500-244"
    },
    {
        "city": "Ubá",
        "state": "MG",
        "district": "Cristo Redentor",
        "street": "Rua Antônio Talma",
        "zipcode": "36500-220"
    },
    {
        "city": "Ubá",
        "state": "MG",
        "district": "Boa Vista",
        "street": "Rua B",
        "zipcode": "36501-024"
    },
    {
        "city": "Ubá",
        "state": "MG",
        "district": "Quinta das Paineiras",
        "street": "Rua C",
        "zipcode": "36502-258"
    },
    {
        "city": "Ubá",
        "state": "MG",
        "district": "Santa Clara",
        "street": "Rua C",
        "zipcode": "36504-078"
    },
    {
        "city": "Ubá",
        "state": "MG",
        "district": "Bom Pastor",
        "street": "Rua Benvindo Rodrigues",
        "zipcode": "36504-182"
    },
    {
        "city": "Ubá",
        "state": "MG",
        "district": "Santa Luzia",
        "street": "Avenida dos Ex Combatentes",
        "zipcode": "36506-014"
    },
    {
        "city": "Ubá",
        "state": "MG",
        "district": "Chiquito Gazolla",
        "street": "Avenida Senador Levindo Coelho",
        "zipcode": "36506-100"
    },
    {
        "city": "Ubá",
        "state": "MG",
        "district": "São Domingos",
        "street": "Rua Ademar Gomes da Silva",
        "zipcode": "36504-010"
    },
    {
        "city": "Ubá",
        "state": "MG",
        "district": "Residencial Quinze de Novembro",
        "street": "Rua C",
        "zipcode": "36501-042"
    },
    {
        "city": "Ubá",
        "state": "MG",
        "district": "Louriçal",
        "street": "Rua Antônio Caneschi Bigonha",
        "zipcode": "36505-054"
    },
    {
        "city": "Ubá",
        "state": "MG",
        "district": "Palmeiras",
        "street": "Rua Amadeu Schiavon",
        "zipcode": "36502-220"
    },
    {
        "city": "Ubá",
        "state": "MG",
        "district": "Residencial Pires da Luz",
        "street": "Avenida Senador Levindo Coelho",
        "zipcode": "36506-300"
    },
    {
        "city": "Ubá",
        "state": "MG",
        "district": "Residencial Pires da Luz",
        "street": "Avenida Vereador João Gomes Pereira",
        "zipcode": "36506-304"
    },
    {
        "city": "Ubá",
        "state": "MG",
        "district": "Aeroporto",
        "street": "Avenida Luciano Candian",
        "zipcode": "36503-310"
    },
    {
        "city": "Ubá",
        "state": "MG",
        "district": "Santa Edwiges",
        "street": "Avenida Odette Arantes Ribeiro",
        "zipcode": "36505-256"
    },
    {
        "city": "Ubá",
        "state": "MG",
        "district": "Jardim Manacás",
        "street": "Rua C",
        "zipcode": "36505-084"
    },
    {
        "city": "Ubá",
        "state": "MG",
        "district": "Novo Primavera",
        "street": "Rua Alexandre Zócoli",
        "zipcode": "36505-212"
    },
    {
        "city": "Ubá",
        "state": "MG",
        "district": "Fazendinha",
        "street": "Rua Bulgária",
        "zipcode": "36506-290"
    },
    {
        "city": "Ubá",
        "state": "MG",
        "district": "Belvedere",
        "street": "Rua C",
        "zipcode": "36505-174"
    },
    {
        "city": "Ubá",
        "state": "MG",
        "district": "Belvedere",
        "street": "Rua D",
        "zipcode": "36505-176"
    },
    {
        "city": "Ubá",
        "state": "MG",
        "district": "Vila Mariah",
        "street": "Rua Sumaúma",
        "zipcode": "36504-148"
    },
    {
        "city": "Ubá",
        "state": "MG",
        "district": "San Raphael II",
        "street": "Rua A",
        "zipcode": "36507-198"
    },
    {
        "city": "Ubá",
        "state": "MG",
        "district": "San Raphael III",
        "street": "Rua A",
        "zipcode": "36507-222"
    },
    {
        "city": "Ubá",
        "state": "MG",
        "district": "Centro",
        "street": "Rua da Harmonia",
        "zipcode": "36500-113"
    },
    {
        "city": "Ubá",
        "state": "MG",
        "district": "Cristo Redentor",
        "street": "Rua da Mantiqueira",
        "zipcode": "36500-222"
    },
    {
        "city": "Ubá",
        "state": "MG",
        "district": "Portal das Mangueiras",
        "street": "Rua das Aroeiras",
        "zipcode": "36500-326"
    },
    {
        "city": "Ubá",
        "state": "MG",
        "district": "Santa Bernadete",
        "street": "Rua Antônio Miquelito",
        "zipcode": "36502-180"
    },
    {
        "city": "Ubá",
        "state": "MG",
        "district": "Noeme Batalha",
        "street": "Rua Antônio Lopes de Miranda",
        "zipcode": "36500-274"
    },
    {
        "city": "Ubá",
        "state": "MG",
        "district": "Portal das Mangueiras",
        "street": "Rua das Palmeiras",
        "zipcode": "36500-310"
    },
    {
        "city": "Ubá",
        "state": "MG",
        "district": "Belvedere",
        "street": "Rua B",
        "zipcode": "36505-172"
    },
    {
        "city": "Ubá",
        "state": "MG",
        "district": "Bom Pastor",
        "street": "Rua Araruama",
        "zipcode": "36504-188"
    },
    {
        "city": "Ubá",
        "state": "MG",
        "district": "São Pedro",
        "street": "Rua B",
        "zipcode": "36504-222"
    },
    {
        "city": "Ubá",
        "state": "MG",
        "district": "Louriçal",
        "street": "Rua Álvaro Januzzi",
        "zipcode": "36505-038"
    },
    {
        "city": "Ubá",
        "state": "MG",
        "district": "Louriçal",
        "street": "Rua Antônio Bigonha",
        "zipcode": "36505-040"
    },
    {
        "city": "Ubá",
        "state": "MG",
        "district": "Laranjal",
        "street": "Rua B",
        "zipcode": "36505-334"
    },
    {
        "city": "Ubá",
        "state": "MG",
        "district": "Santa Cândida",
        "street": "Rua B",
        "zipcode": "36505-366"
    },
    {
        "city": "Ubá",
        "state": "MG",
        "district": "Santa Luzia",
        "street": "Rua Ângelo Rosignoli",
        "zipcode": "36506-004"
    },
    {
        "city": "Ubá",
        "state": "MG",
        "district": "Chiquito Gazolla",
        "street": "Rua Alagoas",
        "zipcode": "36506-102"
    },
    {
        "city": "Ubá",
        "state": "MG",
        "district": "Antônio Maranhão",
        "street": "Rua Alfredo Aristides Pietsch",
        "zipcode": "36506-166"
    },
    {
        "city": "Ubá",
        "state": "MG",
        "district": "Residencial Estrela Sul",
        "street": "Rua A",
        "zipcode": "36503-290"
    },
    {
        "city": "Ubá",
        "state": "MG",
        "district": "São Sebastião",
        "street": "Rua Antônio David",
        "zipcode": "36505-014"
    },
    {
        "city": "Ubá",
        "state": "MG",
        "district": "Xangrilá",
        "street": "Rua Augusto Guido da Silva",
        "zipcode": "36505-104"
    },
    {
        "city": "Ubá",
        "state": "MG",
        "district": "Santa Cândida",
        "street": "Rua A",
        "zipcode": "36505-362"
    },
    {
        "city": "Ubá",
        "state": "MG",
        "district": "Santa Alice",
        "street": "Rua Antônio Gonçalves da Rocha",
        "zipcode": "36506-090"
    },
    {
        "city": "Ubá",
        "state": "MG",
        "district": "Peluso",
        "street": "Rua Armando Moreira Mendes",
        "zipcode": "36507-036"
    },
    {
        "city": "Ubá",
        "state": "MG",
        "district": "Lavapés",
        "street": "Rua Alcebíades José Henrique",
        "zipcode": "36507-162"
    },
    {
        "city": "Ubá",
        "state": "MG",
        "district": "Santa Edwiges",
        "street": "Rua Arthur Correa",
        "zipcode": "36505-264"
    },
    {
        "city": "Ubá",
        "state": "MG",
        "district": "Fazendinha",
        "street": "Rua Alemanha",
        "zipcode": "36506-270"
    },
    {
        "city": "Ubá",
        "state": "MG",
        "district": "São João",
        "street": "Rua Antônio Massardi",
        "zipcode": "36507-096"
    },
    {
        "city": "Ubá",
        "state": "MG",
        "district": "Residencial Rosa de Toledo",
        "street": "Rua Alfenas",
        "zipcode": "36506-252"
    },
    {
        "city": "Ubá",
        "state": "MG",
        "district": "Fazendinha",
        "street": "Rua Áustria",
        "zipcode": "36506-288"
    },
    {
        "city": "Ubá",
        "state": "MG",
        "district": "Vila Mariah",
        "street": "Rua Jequitibá Rosa",
        "zipcode": "36504-146"
    },
    {
        "city": "Ubá",
        "state": "MG",
        "district": "Jardim Manacás",
        "street": "Rua D",
        "zipcode": "36505-086"
    },
    {
        "city": "Ubá",
        "state": "MG",
        "district": "Laranjal",
        "street": "Rua D",
        "zipcode": "36505-328"
    },
    {
        "city": "Ubá",
        "state": "MG",
        "district": "Santa Cândida",
        "street": "Rua D",
        "zipcode": "36505-368"
    },
    {
        "city": "Ubá",
        "state": "MG",
        "district": "Centro",
        "street": "Rua Coronel Carlos Brandão",
        "zipcode": "36500-098"
    },
    {
        "city": "Ubá",
        "state": "MG",
        "district": "Talma",
        "street": "Rua Campo Florido",
        "zipcode": "36500-300"
    },
    {
        "city": "Ubá",
        "state": "MG",
        "district": "Santa Bernadete",
        "street": "Rua Cândido Martins de Oliveira",
        "zipcode": "36502-156"
    },
    {
        "city": "Ubá",
        "state": "MG",
        "district": "São Mateus",
        "street": "Rua Cinco",
        "zipcode": "36503-162"
    },
    {
        "city": "Ubá",
        "state": "MG",
        "district": "Aeroporto",
        "street": "Rua Córrego dos Mendes",
        "zipcode": "36503-314"
    },
    {
        "city": "Ubá",
        "state": "MG",
        "district": "Eldorado",
        "street": "Rua Claudionor Procópio de Sá",
        "zipcode": "36504-126"
    },
    {
        "city": "Ubá",
        "state": "MG",
        "district": "Cristal",
        "street": "Rua Cristalina",
        "zipcode": "36504-256"
    },
    {
        "city": "Ubá",
        "state": "MG",
        "district": "Santo Antônio",
        "street": "Rua Cecília Braga",
        "zipcode": "36501-062"
    },
    {
        "city": "Ubá",
        "state": "MG",
        "district": "Laranjal",
        "street": "Rua C",
        "zipcode": "36505-332"
    },
    {
        "city": "Ubá",
        "state": "MG",
        "district": "Residencial Estrela Sul",
        "street": "Rua D",
        "zipcode": "36503-296"
    },
    {
        "city": "Ubá",
        "state": "MG",
        "district": "Residencial Estrela Sul",
        "street": "Rua C",
        "zipcode": "36503-294"
    },
    {
        "city": "Ubá",
        "state": "MG",
        "district": "Palmeiras",
        "street": "Rua Arlindo da Silva Costa",
        "zipcode": "36502-216"
    },
    {
        "city": "Ubá",
        "state": "MG",
        "district": "Palmeiras",
        "street": "Rua Carlos Teixeira de Siqueira",
        "zipcode": "36502-226"
    },
    {
        "city": "Ubá",
        "state": "MG",
        "district": "Tanquinho João Teixeira",
        "street": "Rua Cristo Rei",
        "zipcode": "36505-342"
    },
    {
        "city": "Ubá",
        "state": "MG",
        "district": "Portal das Mangueiras",
        "street": "Rua das Braúnas",
        "zipcode": "36500-318"
    },
    {
        "city": "Ubá",
        "state": "MG",
        "district": "Novo Primavera",
        "street": "Rua C",
        "zipcode": "36505-216"
    },
    {
        "city": "Ubá",
        "state": "MG",
        "district": "Bela Vista",
        "street": "Rua D",
        "zipcode": "36507-010"
    },
    {
        "city": "Ubá",
        "state": "MG",
        "district": "Santa Luzia",
        "street": "Rua Domício de Oliveira Arruda",
        "zipcode": "36506-008"
    },
    {
        "city": "Ubá",
        "state": "MG",
        "district": "Eldorado",
        "street": "Rua Coronel Sebastião Ramos de Castro",
        "zipcode": "36504-120"
    },
    {
        "city": "Ubá",
        "state": "MG",
        "district": "Bom Pastor",
        "street": "Rua Edson Emídio Teixeira",
        "zipcode": "36504-168"
    },
    {
        "city": "Ubá",
        "state": "MG",
        "district": "Santana",
        "street": "Rua Engenheiro Carlos de Oliveira Castro Brandão",
        "zipcode": "36506-058"
    },
    {
        "city": "Ubá",
        "state": "MG",
        "district": "Boa Vista",
        "street": "Rua C",
        "zipcode": "36501-026"
    },
    {
        "city": "Ubá",
        "state": "MG",
        "district": "Bom Pastor",
        "street": "Rua Dulce",
        "zipcode": "36504-180"
    },
    {
        "city": "Ubá",
        "state": "MG",
        "district": "Vila Mariah",
        "street": "Rua Peroba Rosa",
        "zipcode": "36504-144"
    },
    {
        "city": "Ubá",
        "state": "MG",
        "district": "Santa Edwiges",
        "street": "Rua Diequinho Teixeira Pinto",
        "zipcode": "36505-252"
    },
    {
        "city": "Ubá",
        "state": "MG",
        "district": "Centro",
        "street": "Rua do Divino",
        "zipcode": "36500-111"
    },
    {
        "city": "Ubá",
        "state": "MG",
        "district": "Boa Vista",
        "street": "Rua D",
        "zipcode": "36501-028"
    },
    {
        "city": "Ubá",
        "state": "MG",
        "district": "Palmeiras",
        "street": "Rua Denória Miranda Lopes",
        "zipcode": "36502-230"
    },
    {
        "city": "Ubá",
        "state": "MG",
        "district": "Cidade Carinho II",
        "street": "Rua Dez",
        "zipcode": "36504-294"
    },
    {
        "city": "Ubá",
        "state": "MG",
        "district": "Novo Primavera",
        "street": "Rua D",
        "zipcode": "36505-214"
    },
    {
        "city": "Ubá",
        "state": "MG",
        "district": "Antonina Coelho",
        "street": "Rua Ari Alves de Souza",
        "zipcode": "36506-216"
    },
    {
        "city": "Ubá",
        "state": "MG",
        "district": "San Raphael III",
        "street": "Rua B",
        "zipcode": "36507-210"
    },
    {
        "city": "Ubá",
        "state": "MG",
        "district": "Cittá de Lucca",
        "street": "Rua Antônio Maurício Guimarães",
        "zipcode": "36507-350"
    },
    {
        "city": "Ubá",
        "state": "MG",
        "district": "Santo Antônio",
        "street": "Rua Armando Sales de Carvalho",
        "zipcode": "36501-072"
    },
    {
        "city": "Ubá",
        "state": "MG",
        "district": "Centro",
        "street": "Rua Doutor Angelo Barleta",
        "zipcode": "36500-057"
    },
    {
        "city": "Ubá",
        "state": "MG",
        "district": "Portal das Mangueiras",
        "street": "Rua dos Ipês",
        "zipcode": "36500-312"
    },
    {
        "city": "Ubá",
        "state": "MG",
        "district": "Boa Vista",
        "street": "Rua Donato Quaglieta",
        "zipcode": "36501-014"
    },
    {
        "city": "Ubá",
        "state": "MG",
        "district": "Boa Vista",
        "street": "Rua Doutor Ângelo Porto",
        "zipcode": "36501-022"
    },
    {
        "city": "Ubá",
        "state": "MG",
        "district": "Residencial Quinze de Novembro",
        "street": "Rua Doutor Ângelo Porto",
        "zipcode": "36501-040"
    },
    {
        "city": "Ubá",
        "state": "MG",
        "district": "Olaria",
        "street": "Rua Edmilson Arruda Marcos",
        "zipcode": "36503-174"
    },
    {
        "city": "Ubá",
        "state": "MG",
        "district": "Eldorado",
        "street": "Rua Doutor Fecas",
        "zipcode": "36504-092"
    },
    {
        "city": "Ubá",
        "state": "MG",
        "district": "Eldorado",
        "street": "Rua Domitila Castanon",
        "zipcode": "36504-094"
    },
    {
        "city": "Ubá",
        "state": "MG",
        "district": "Cidade Carinho II",
        "street": "Rua Dezesseis",
        "zipcode": "36504-306"
    },
    {
        "city": "Ubá",
        "state": "MG",
        "district": "Cidade Carinho II",
        "street": "Rua Dezessete",
        "zipcode": "36504-308"
    },
    {
        "city": "Ubá",
        "state": "MG",
        "district": "Cidade Carinho II",
        "street": "Rua Dezoito",
        "zipcode": "36504-310"
    },
    {
        "city": "Ubá",
        "state": "MG",
        "district": "Xangrilá",
        "street": "Rua Domingos Zoppellaro",
        "zipcode": "36505-110"
    },
    {
        "city": "Ubá",
        "state": "MG",
        "district": "Residencial Jardim Europa",
        "street": "Rua Dilacírio Rodrigues Marques",
        "zipcode": "36505-154"
    },
    {
        "city": "Ubá",
        "state": "MG",
        "district": "Quinta das Paineiras",
        "street": "Rua E",
        "zipcode": "36502-254"
    },
    {
        "city": "Ubá",
        "state": "MG",
        "district": "Santana",
        "street": "Rua Doutor Manoel José Brandão Teixeira",
        "zipcode": "36506-048"
    },
    {
        "city": "Ubá",
        "state": "MG",
        "district": "Santana",
        "street": "Rua dos Passos",
        "zipcode": "36506-042"
    },
    {
        "city": "Ubá",
        "state": "MG",
        "district": "Tanquinho Doutor José Cavaliere",
        "street": "Rua D",
        "zipcode": "36505-290"
    },
    {
        "city": "Ubá",
        "state": "MG",
        "district": "Residencial Quinze de Novembro",
        "street": "Rua Orthogantino Maciel",
        "zipcode": "36501-050"
    },
    {
        "city": "Ubá",
        "state": "MG",
        "district": "Noeme Batalha",
        "street": "Rua Fioravante Druda",
        "zipcode": "36500-260"
    },
    {
        "city": "Ubá",
        "state": "MG",
        "district": "Portal das Mangueiras",
        "street": "Rua Fioravante Druda",
        "zipcode": "36500-328"
    },
    {
        "city": "Ubá",
        "state": "MG",
        "district": "Jardim Alves do Vale",
        "street": "Rua Doutor Galdino Brandão Alvim",
        "zipcode": "36500-334"
    },
    {
        "city": "Ubá",
        "state": "MG",
        "district": "Vila Casal",
        "street": "Rua Cecília Serrato",
        "zipcode": "36501-088"
    },
    {
        "city": "Ubá",
        "state": "MG",
        "district": "Noeme Batalha",
        "street": "Rua Coubert de Moura Estevão",
        "zipcode": "36500-276"
    },
    {
        "city": "Ubá",
        "state": "MG",
        "district": "Novo Primavera",
        "street": "Rua A",
        "zipcode": "36505-210"
    },
    {
        "city": "Ubá",
        "state": "MG",
        "district": "São Francisco de Assis",
        "street": "Rua Costa e Silva",
        "zipcode": "36502-308"
    },
    {
        "city": "Ubá",
        "state": "MG",
        "district": "Boa Vista",
        "street": "Rua Coronel João Rodrigues de Andrade",
        "zipcode": "36501-006"
    },
    {
        "city": "Ubá",
        "state": "MG",
        "district": "Centro",
        "street": "Rua Carlos Peixoto Filho",
        "zipcode": "36500-097"
    },
    {
        "city": "Ubá",
        "state": "MG",
        "district": "Noeme Batalha",
        "street": "Rua Comendador Antônio Gomes",
        "zipcode": "36500-272"
    },
    {
        "city": "Ubá",
        "state": "MG",
        "district": "Santa Cândida",
        "street": "Rua C",
        "zipcode": "36505-364"
    },
    {
        "city": "Ubá",
        "state": "MG",
        "district": "Seminário",
        "street": "Rua Dinah Gomes Lima",
        "zipcode": "36506-020"
    },
    {
        "city": "Ubá",
        "state": "MG",
        "district": "Antonina Coelho",
        "street": "Rua Coronel João Faustino Toledo",
        "zipcode": "36506-208"
    },
    {
        "city": "Ubá",
        "state": "MG",
        "district": "Lavapés",
        "street": "Rua Coronel Manoel Teixeira",
        "zipcode": "36507-166"
    },
    {
        "city": "Ubá",
        "state": "MG",
        "district": "Antonina Coelho",
        "street": "Rua Celidônio Mazzei",
        "zipcode": "36506-224"
    },
    {
        "city": "Ubá",
        "state": "MG",
        "district": "Cittá de Lucca",
        "street": "Rua Carlos Fusco",
        "zipcode": "36507-362"
    },
    {
        "city": "Ubá",
        "state": "MG",
        "district": "Bom Pastor",
        "street": "Rua Itaperuna",
        "zipcode": "36504-198"
    },
    {
        "city": "Ubá",
        "state": "MG",
        "district": "San Raphael III",
        "street": "Rua M",
        "zipcode": "36507-214"
    },
    {
        "city": "Ubá",
        "state": "MG",
        "district": "São Sebastião",
        "street": "Rua Farmacêutico José Rodrigues de Andrade",
        "zipcode": "36505-002"
    },
    {
        "city": "Ubá",
        "state": "MG",
        "district": "Olaria",
        "street": "Rua Francisco Laud",
        "zipcode": "36503-176"
    },
    {
        "city": "Ubá",
        "state": "MG",
        "district": "Paulino Fernandes IV",
        "street": "Rua Elzira Teixeira Guimarães",
        "zipcode": "36503-022"
    },
    {
        "city": "Ubá",
        "state": "MG",
        "district": "Jardim Primavera",
        "street": "Rua Francisco Xavier Gomes",
        "zipcode": "36505-198"
    },
    {
        "city": "Ubá",
        "state": "MG",
        "district": "Santa Cruz",
        "street": "Rua Desembargador Doutor Câncio Prazeres",
        "zipcode": "36507-076"
    },
    {
        "city": "Ubá",
        "state": "MG",
        "district": "San Raphael II",
        "street": "Rua Dezidério Zanelli",
        "zipcode": "36507-208"
    },
    {
        "city": "Ubá",
        "state": "MG",
        "district": "Vila Casal",
        "street": "Rua Euclides Alves Pereira",
        "zipcode": "36501-100"
    },
    {
        "city": "Ubá",
        "state": "MG",
        "district": "Vila Casal",
        "street": "Rua Evaristo Fraga",
        "zipcode": "36501-106"
    },
    {
        "city": "Ubá",
        "state": "MG",
        "district": "Santa Bernadete",
        "street": "Rua Gustavo Gori",
        "zipcode": "36502-166"
    },
    {
        "city": "Ubá",
        "state": "MG",
        "district": "São Domingos",
        "street": "Rua Emídio Viana",
        "zipcode": "36504-020"
    },
    {
        "city": "Ubá",
        "state": "MG",
        "district": "Olinda",
        "street": "Rua Ipanema",
        "zipcode": "36505-120"
    },
    {
        "city": "Ubá",
        "state": "MG",
        "district": "Bom Pastor",
        "street": "Rua Helena Gruppioni Secchi",
        "zipcode": "36504-172"
    },
    {
        "city": "Ubá",
        "state": "MG",
        "district": "Laranjal",
        "street": "Rua F",
        "zipcode": "36505-336"
    },
    {
        "city": "Ubá",
        "state": "MG",
        "district": "Universitário",
        "street": "Rua Edson Marcílio",
        "zipcode": "36506-182"
    },
    {
        "city": "Ubá",
        "state": "MG",
        "district": "Fazendinha",
        "street": "Rua Holanda",
        "zipcode": "36506-280"
    },
    {
        "city": "Ubá",
        "state": "MG",
        "district": "Santa Rosa",
        "street": "Rua Diamante",
        "zipcode": "36506-342"
    },
    {
        "city": "Ubá",
        "state": "MG",
        "district": "Peluso",
        "street": "Rua Dorvílio Francisco Bonvalente",
        "zipcode": "36507-032"
    },
    {
        "city": "Ubá",
        "state": "MG",
        "district": "San Raphael III",
        "street": "Rua I",
        "zipcode": "36507-224"
    },
    {
        "city": "Ubá",
        "state": "MG",
        "district": "Vale do Ipê",
        "street": "Rua Dezidério Zanelli",
        "zipcode": "36507-280"
    },
    {
        "city": "Ubá",
        "state": "MG",
        "district": "Cittá de Lucca",
        "street": "Rua Enedina Sartori",
        "zipcode": "36507-366"
    },
    {
        "city": "Ubá",
        "state": "MG",
        "district": "Santana",
        "street": "Rua dos Ipês",
        "zipcode": "36506-066"
    },
    {
        "city": "Ubá",
        "state": "MG",
        "district": "Residencial Pires da Luz",
        "street": "Rua Doutor Ari Gonçalves",
        "zipcode": "36506-302"
    },
    {
        "city": "Ubá",
        "state": "MG",
        "district": "Residencial Quinze de Novembro",
        "street": "Rua E",
        "zipcode": "36501-048"
    },
    {
        "city": "Ubá",
        "state": "MG",
        "district": "Eldorado",
        "street": "Rua Itália",
        "zipcode": "36504-104"
    },
    {
        "city": "Ubá",
        "state": "MG",
        "district": "Santa Rosa",
        "street": "Rua Jade",
        "zipcode": "36506-340"
    },
    {
        "city": "Ubá",
        "state": "MG",
        "district": "San Raphael III",
        "street": "Rua J",
        "zipcode": "36507-218"
    },
    {
        "city": "Ubá",
        "state": "MG",
        "district": "Jardim Alves do Vale",
        "street": "Rua Fioravante Druda",
        "zipcode": "36500-338"
    },
    {
        "city": "Ubá",
        "state": "MG",
        "district": "Talma",
        "street": "Rua Geraldo Campos",
        "zipcode": "36500-288"
    },
    {
        "city": "Ubá",
        "state": "MG",
        "district": "Palmeiras",
        "street": "Rua Francisco Teixeira de Abreu",
        "zipcode": "36502-210"
    },
    {
        "city": "Ubá",
        "state": "MG",
        "district": "Quinta das Paineiras",
        "street": "Rua Francisco Teixeira de Abreu",
        "zipcode": "36502-250"
    },
    {
        "city": "Ubá",
        "state": "MG",
        "district": "Cruzeiro",
        "street": "Rua Francisco Teixeira de Abreu",
        "zipcode": "36502-290"
    },
    {
        "city": "Ubá",
        "state": "MG",
        "district": "dos Vaz",
        "street": "Rua Francisco Teixeira de Abreu",
        "zipcode": "36502-320"
    },
    {
        "city": "Ubá",
        "state": "MG",
        "district": "Concórdia",
        "street": "Rua Francisco Teixeira de Abreu",
        "zipcode": "36502-350"
    },
    {
        "city": "Ubá",
        "state": "MG",
        "district": "Residencial São Lucas",
        "street": "Rua Francisco Teixeira de Abreu",
        "zipcode": "36502-360"
    },
    {
        "city": "Ubá",
        "state": "MG",
        "district": "Residencial Monte Belo",
        "street": "Rua Francisco Teixeira de Abreu",
        "zipcode": "36502-370"
    },
    {
        "city": "Ubá",
        "state": "MG",
        "district": "Jardim Inês Groppo",
        "street": "Rua Firmino José Coelho",
        "zipcode": "36503-006"
    },
    {
        "city": "Ubá",
        "state": "MG",
        "district": "Portal das Mangueiras",
        "street": "Rua Florida",
        "zipcode": "36500-324"
    },
    {
        "city": "Ubá",
        "state": "MG",
        "district": "Meu Sonho",
        "street": "Rua Geracy da Silva Marcos",
        "zipcode": "36503-204"
    },
    {
        "city": "Ubá",
        "state": "MG",
        "district": "São Domingos",
        "street": "Rua Geraldo Campos",
        "zipcode": "36504-018"
    },
    {
        "city": "Ubá",
        "state": "MG",
        "district": "Eldorado",
        "street": "Rua Francisco de Paula Ribeiro",
        "zipcode": "36504-122"
    },
    {
        "city": "Ubá",
        "state": "MG",
        "district": "Aeroporto",
        "street": "Rua Francisco Melchiades Filho",
        "zipcode": "36503-316"
    },
    {
        "city": "Ubá",
        "state": "MG",
        "district": "Boa Vista",
        "street": "Rua Farmacêutico Jonatas de Azevedo",
        "zipcode": "36501-004"
    },
    {
        "city": "Ubá",
        "state": "MG",
        "district": "São Sebastião",
        "street": "Rua Francisco Henrique de Souza",
        "zipcode": "36505-004"
    },
    {
        "city": "Ubá",
        "state": "MG",
        "district": "São Sebastião",
        "street": "Rua Fernando Soares Estevão",
        "zipcode": "36505-006"
    },
    {
        "city": "Ubá",
        "state": "MG",
        "district": "Peluso",
        "street": "Rua Doutor Antônio Cataldo Pinto",
        "zipcode": "36507-024"
    },
    {
        "city": "Ubá",
        "state": "MG",
        "district": "Eldorado",
        "street": "Rua Geraldo Gomes da Silva",
        "zipcode": "36504-114"
    },
    {
        "city": "Ubá",
        "state": "MG",
        "district": "Antônio Maranhão",
        "street": "Rua Epaminondas Reis Lima",
        "zipcode": "36506-172"
    },
    {
        "city": "Ubá",
        "state": "MG",
        "district": "Dico Teixeira",
        "street": "Rua Dagmar Monteiro Brandão",
        "zipcode": "36506-082"
    },
    {
        "city": "Ubá",
        "state": "MG",
        "district": "Santa Alice",
        "street": "Rua Francisco Gazola",
        "zipcode": "36506-094"
    },
    {
        "city": "Ubá",
        "state": "MG",
        "district": "Antônio Bigonha",
        "street": "Rua Fizinho Pirosca",
        "zipcode": "36506-246"
    },
    {
        "city": "Ubá",
        "state": "MG",
        "district": "Centro",
        "street": "Rua Jerônimo Salgado",
        "zipcode": "36500-013"
    },
    {
        "city": "Ubá",
        "state": "MG",
        "district": "San Raphael III",
        "street": "Rua G",
        "zipcode": "36507-230"
    },
    {
        "city": "Ubá",
        "state": "MG",
        "district": "Cittá de Lucca",
        "street": "Rua Eldon Cunha",
        "zipcode": "36507-344"
    },
    {
        "city": "Ubá",
        "state": "MG",
        "district": "Laurindo de Castro",
        "street": "Rua Frei Cornélio",
        "zipcode": "36507-140"
    },
    {
        "city": "Ubá",
        "state": "MG",
        "district": "São Domingos",
        "street": "Rua Francisco Maia Neves",
        "zipcode": "36504-006"
    },
    {
        "city": "Ubá",
        "state": "MG",
        "district": "Santa Edwiges",
        "street": "Rua Gerardo Magela Bressan",
        "zipcode": "36505-254"
    },
    {
        "city": "Ubá",
        "state": "MG",
        "district": "Laranjal",
        "street": "Rua H",
        "zipcode": "36505-330"
    },
    {
        "city": "Ubá",
        "state": "MG",
        "district": "Vitória",
        "street": "Rua João Brando Filho",
        "zipcode": "36500-250"
    },
    {
        "city": "Ubá",
        "state": "MG",
        "district": "Caxangá",
        "street": "Rua Hebe Batalha Gomes",
        "zipcode": "36500-208"
    },
    {
        "city": "Ubá",
        "state": "MG",
        "district": "Olaria",
        "street": "Rua Hilário Marco da Silva",
        "zipcode": "36503-170"
    },
    {
        "city": "Ubá",
        "state": "MG",
        "district": "Olinda",
        "street": "Rua Ipiranga",
        "zipcode": "36505-122"
    },
    {
        "city": "Ubá",
        "state": "MG",
        "district": "Cristal",
        "street": "Rua Guerino Peron",
        "zipcode": "36504-252"
    },
    {
        "city": "Ubá",
        "state": "MG",
        "district": "Residencial São Leopoldo",
        "street": "Rua Inocêncio Pereira da Cruz",
        "zipcode": "36500-360"
    },
    {
        "city": "Ubá",
        "state": "MG",
        "district": "Peluso",
        "street": "Rua Hamilton Peluso",
        "zipcode": "36507-030"
    },
    {
        "city": "Ubá",
        "state": "MG",
        "district": "Santa Cruz",
        "street": "Rua Guaraci Januzzi",
        "zipcode": "36507-072"
    },
    {
        "city": "Ubá",
        "state": "MG",
        "district": "Tanquinho Doutor José Cavaliere",
        "street": "Rua Eny Casal Cavalaro",
        "zipcode": "36505-282"
    },
    {
        "city": "Ubá",
        "state": "MG",
        "district": "Fazendinha",
        "street": "Rua Espanha",
        "zipcode": "36506-284"
    },
    {
        "city": "Ubá",
        "state": "MG",
        "district": "Agostinho Sales Amato",
        "street": "Rua José Antônio Pereira",
        "zipcode": "36500-190"
    },
    {
        "city": "Ubá",
        "state": "MG",
        "district": "Santa Bernadete",
        "street": "Rua João Batista Rodrigues",
        "zipcode": "36502-160"
    },
    {
        "city": "Ubá",
        "state": "MG",
        "district": "dos Vaz",
        "street": "Rua Joaquim Vaz da Silva",
        "zipcode": "36502-326"
    },
    {
        "city": "Ubá",
        "state": "MG",
        "district": "Residencial São Lucas",
        "street": "Rua João Batista Rodrigues Júnior",
        "zipcode": "36502-366"
    },
    {
        "city": "Ubá",
        "state": "MG",
        "district": "Boa Vista",
        "street": "Rua Jesus Monteiro de Barros",
        "zipcode": "36501-016"
    },
    {
        "city": "Ubá",
        "state": "MG",
        "district": "Residencial Altair Rocha",
        "street": "Rua José Campomizzi Filho",
        "zipcode": "36502-332"
    },
    {
        "city": "Ubá",
        "state": "MG",
        "district": "Jardim Inês Groppo",
        "street": "Rua João Groppo",
        "zipcode": "36503-002"
    },
    {
        "city": "Ubá",
        "state": "MG",
        "district": "Mangueira Rural",
        "street": "Rua José Antônio Delazari",
        "zipcode": "36503-252"
    },
    {
        "city": "Ubá",
        "state": "MG",
        "district": "Mangueira Rural",
        "street": "Rua João Sperandio",
        "zipcode": "36503-256"
    },
    {
        "city": "Ubá",
        "state": "MG",
        "district": "Santa Clara",
        "street": "Rua José Alves de Souza",
        "zipcode": "36504-080"
    },
    {
        "city": "Ubá",
        "state": "MG",
        "district": "Meu Sonho",
        "street": "Rua Jacy Candian",
        "zipcode": "36503-216"
    },
    {
        "city": "Ubá",
        "state": "MG",
        "district": "Agroceres",
        "street": "Rua João Peron Filho",
        "zipcode": "36504-240"
    },
    {
        "city": "Ubá",
        "state": "MG",
        "district": "Xangrilá",
        "street": "Rua José Azevedo",
        "zipcode": "36505-116"
    },
    {
        "city": "Ubá",
        "state": "MG",
        "district": "Oséas Maranhão",
        "street": "Rua João Hilário Neto",
        "zipcode": "36506-132"
    },
    {
        "city": "Ubá",
        "state": "MG",
        "district": "Louriçal",
        "street": "Rua Homero Caneschi",
        "zipcode": "36505-076"
    },
    {
        "city": "Ubá",
        "state": "MG",
        "district": "Laranjal",
        "street": "Rua J",
        "zipcode": "36505-320"
    },
    {
        "city": "Ubá",
        "state": "MG",
        "district": "Seminário",
        "street": "Rua João Carone Filho",
        "zipcode": "36506-026"
    },
    {
        "city": "Ubá",
        "state": "MG",
        "district": "Santa Cruz",
        "street": "Rua José De Filippo",
        "zipcode": "36507-080"
    },
    {
        "city": "Ubá",
        "state": "MG",
        "district": "Lavapés",
        "street": "Rua José de Lucca",
        "zipcode": "36507-164"
    },
    {
        "city": "Ubá",
        "state": "MG",
        "district": "Centro",
        "street": "Rua Isaura da Rocha Rezende",
        "zipcode": "36500-094"
    },
    {
        "city": "Ubá",
        "state": "MG",
        "district": "Alto Santa Cruz",
        "street": "Rua Francisco de Lucca",
        "zipcode": "36507-052"
    },
    {
        "city": "Ubá",
        "state": "MG",
        "district": "Santa Clara",
        "street": "Rua I",
        "zipcode": "36504-074"
    },
    {
        "city": "Ubá",
        "state": "MG",
        "district": "Santana",
        "street": "Rua José Bressan",
        "zipcode": "36506-054"
    },
    {
        "city": "Ubá",
        "state": "MG",
        "district": "Universitário",
        "street": "Rua Joaquim Tavares",
        "zipcode": "36506-192"
    },
    {
        "city": "Ubá",
        "state": "MG",
        "district": "Vitória",
        "street": "Rua José Emídio Teixeira",
        "zipcode": "36500-252"
    },
    {
        "city": "Ubá",
        "state": "MG",
        "district": "Mangueira Rural",
        "street": "Rua José Campos",
        "zipcode": "36503-264"
    },
    {
        "city": "Ubá",
        "state": "MG",
        "district": "Centro",
        "street": "Rua Jacob Campos",
        "zipcode": "36500-056"
    },
    {
        "city": "Ubá",
        "state": "MG",
        "district": "Santa Bernadete",
        "street": "Rua Gumercindo Alexandrino de Freitas",
        "zipcode": "36502-186"
    },
    {
        "city": "Ubá",
        "state": "MG",
        "district": "Vila Gonçalves",
        "street": "Rua Heliodora Gonçalves",
        "zipcode": "36505-090"
    },
    {
        "city": "Ubá",
        "state": "MG",
        "district": "São João",
        "street": "Rua Francisco da Costa Barros",
        "zipcode": "36507-090"
    },
    {
        "city": "Ubá",
        "state": "MG",
        "district": "Vila Casal",
        "street": "Rua José Antônio Perpétuo Filho",
        "zipcode": "36501-084"
    },
    {
        "city": "Ubá",
        "state": "MG",
        "district": "São Sebastião",
        "street": "Rua Irmã Dulce",
        "zipcode": "36505-022"
    },
    {
        "city": "Ubá",
        "state": "MG",
        "district": "Vila Mariah",
        "street": "Rua Jacarandá",
        "zipcode": "36504-152"
    },
    {
        "city": "Ubá",
        "state": "MG",
        "district": "Residencial Pires da Luz",
        "street": "Rua Geraldo Lamarca",
        "zipcode": "36506-322"
    },
    {
        "city": "Ubá",
        "state": "MG",
        "district": "Bela Vista",
        "street": "Rua Hemetério Martins Carneiro",
        "zipcode": "36507-008"
    },
    {
        "city": "Ubá",
        "state": "MG",
        "district": "Antônio Maranhão",
        "street": "Rua Gorazil de Castro Brandão",
        "zipcode": "36506-150"
    },
    {
        "city": "Ubá",
        "state": "MG",
        "district": "Seminário",
        "street": "Rua Gordiano de Faria Alvim",
        "zipcode": "36506-030"
    },
    {
        "city": "Ubá",
        "state": "MG",
        "district": "Major Fusaro",
        "street": "Rua José Moreira Mendes",
        "zipcode": "36500-170"
    },
    {
        "city": "Ubá",
        "state": "MG",
        "district": "Meu Sonho",
        "street": "Rua José Guiducci",
        "zipcode": "36503-208"
    },
    {
        "city": "Ubá",
        "state": "MG",
        "district": "Bom Pastor",
        "street": "Rua Lions",
        "zipcode": "36504-170"
    },
    {
        "city": "Ubá",
        "state": "MG",
        "district": "Peluso",
        "street": "Rua Luiz Médice",
        "zipcode": "36507-022"
    },
    {
        "city": "Ubá",
        "state": "MG",
        "district": "Peluso",
        "street": "Rua José Paulino Carioca",
        "zipcode": "36507-038"
    },
    {
        "city": "Ubá",
        "state": "MG",
        "district": "Vila Franel",
        "street": "Rua Major Carneiro",
        "zipcode": "36507-158"
    },
    {
        "city": "Ubá",
        "state": "MG",
        "district": "Mangueira Rural",
        "street": "Rua Luiz Sperandio",
        "zipcode": "36503-270"
    },
    {
        "city": "Ubá",
        "state": "MG",
        "district": "Jardim Primavera",
        "street": "Rua Lauro Nicolato",
        "zipcode": "36505-194"
    },
    {
        "city": "Ubá",
        "state": "MG",
        "district": "Santa Edwiges",
        "street": "Rua José Martins da Rocha",
        "zipcode": "36505-250"
    },
    {
        "city": "Ubá",
        "state": "MG",
        "district": "Santa Edwiges II",
        "street": "Rua José Rodrigues Pires",
        "zipcode": "36505-222"
    },
    {
        "city": "Ubá",
        "state": "MG",
        "district": "Fazendinha",
        "street": "Rua Inglaterra",
        "zipcode": "36506-274"
    },
    {
        "city": "Ubá",
        "state": "MG",
        "district": "Fazendinha",
        "street": "Rua Irlanda",
        "zipcode": "36506-282"
    },
    {
        "city": "Ubá",
        "state": "MG",
        "district": "San Raphael III",
        "street": "Rua H",
        "zipcode": "36507-234"
    },
    {
        "city": "Ubá",
        "state": "MG",
        "district": "Centro",
        "street": "Rua Martinho Freire de Andrade",
        "zipcode": "36500-062"
    },
    {
        "city": "Ubá",
        "state": "MG",
        "district": "Centro",
        "street": "Rua Matilde da Rocha Balbi",
        "zipcode": "36500-096"
    },
    {
        "city": "Ubá",
        "state": "MG",
        "district": "Santa Bernadete",
        "street": "Rua João Gonçalves Soares",
        "zipcode": "36502-194"
    },
    {
        "city": "Ubá",
        "state": "MG",
        "district": "Cruzeiro",
        "street": "Rua José Antônio Lamarca",
        "zipcode": "36502-292"
    },
    {
        "city": "Ubá",
        "state": "MG",
        "district": "Mangueira Rural",
        "street": "Rua José Betio",
        "zipcode": "36503-260"
    },
    {
        "city": "Ubá",
        "state": "MG",
        "district": "São Domingos",
        "street": "Rua João Batista Pereira",
        "zipcode": "36504-040"
    },
    {
        "city": "Ubá",
        "state": "MG",
        "district": "São Domingos",
        "street": "Rua Major Mendes Sobrinho",
        "zipcode": "36504-048"
    },
    {
        "city": "Ubá",
        "state": "MG",
        "district": "Eldorado",
        "street": "Rua João Másala Sobrinho",
        "zipcode": "36504-100"
    },
    {
        "city": "Ubá",
        "state": "MG",
        "district": "Meu Sonho",
        "street": "Rua Joaquim Pereira",
        "zipcode": "36503-210"
    },
    {
        "city": "Ubá",
        "state": "MG",
        "district": "Agroceres",
        "street": "Rua Joaquim Teixeira da Rocha",
        "zipcode": "36504-236"
    },
    {
        "city": "Ubá",
        "state": "MG",
        "district": "Antônio Maranhão",
        "street": "Rua Joaquim Loureiro Batista",
        "zipcode": "36506-164"
    },
    {
        "city": "Ubá",
        "state": "MG",
        "district": "Eldorado",
        "street": "Rua José David",
        "zipcode": "36504-112"
    },
    {
        "city": "Ubá",
        "state": "MG",
        "district": "Tanquinho João Teixeira",
        "street": "Rua João Paulo I",
        "zipcode": "36505-350"
    },
    {
        "city": "Ubá",
        "state": "MG",
        "district": "Bela Vista",
        "street": "Rua José Dias Paes",
        "zipcode": "36507-006"
    },
    {
        "city": "Ubá",
        "state": "MG",
        "district": "Vitória",
        "street": "Rua Luiz Godoy",
        "zipcode": "36500-242"
    },
    {
        "city": "Ubá",
        "state": "MG",
        "district": "Vila Casal",
        "street": "Rua José Gravina Moreira",
        "zipcode": "36501-104"
    },
    {
        "city": "Ubá",
        "state": "MG",
        "district": "Jardim Glória",
        "street": "Rua Luiz Gonzaga",
        "zipcode": "36500-148"
    },
    {
        "city": "Ubá",
        "state": "MG",
        "district": "Major Fusaro",
        "street": "Rua José Martins Quintão",
        "zipcode": "36500-174"
    },
    {
        "city": "Ubá",
        "state": "MG",
        "district": "Boa Vista",
        "street": "Rua José Gomes Braga",
        "zipcode": "36501-000"
    },
    {
        "city": "Ubá",
        "state": "MG",
        "district": "Boa Vista",
        "street": "Rua José Pedro Caldeira",
        "zipcode": "36501-012"
    },
    {
        "city": "Ubá",
        "state": "MG",
        "district": "Santo Antônio",
        "street": "Rua José Giacoia",
        "zipcode": "36501-060"
    },
    {
        "city": "Ubá",
        "state": "MG",
        "district": "Olaria",
        "street": "Rua José Gonçalves Gomes",
        "zipcode": "36503-180"
    },
    {
        "city": "Ubá",
        "state": "MG",
        "district": "Olaria",
        "street": "Rua Luziane Laud Marcos",
        "zipcode": "36503-190"
    },
    {
        "city": "Ubá",
        "state": "MG",
        "district": "Bom Pastor",
        "street": "Rua Luiza Faeda de Freitas",
        "zipcode": "36504-194"
    },
    {
        "city": "Ubá",
        "state": "MG",
        "district": "da Luz",
        "street": "Rua José Médice",
        "zipcode": "36504-202"
    },
    {
        "city": "Ubá",
        "state": "MG",
        "district": "da Luz",
        "street": "Rua José Lourenço da Silva",
        "zipcode": "36504-212"
    },
    {
        "city": "Ubá",
        "state": "MG",
        "district": "Peixoto Filho",
        "street": "Rua Jurandir Peron",
        "zipcode": "36504-260"
    },
    {
        "city": "Ubá",
        "state": "MG",
        "district": "São Judas Tadeu",
        "street": "Rua José Flores da Silva",
        "zipcode": "36502-286"
    },
    {
        "city": "Ubá",
        "state": "MG",
        "district": "Santa Clara",
        "street": "Rua G",
        "zipcode": "36504-072"
    },
    {
        "city": "Ubá",
        "state": "MG",
        "district": "Mangueira Rural",
        "street": "Rua José Feital Teixeira",
        "zipcode": "36503-266"
    },
    {
        "city": "Ubá",
        "state": "MG",
        "district": "São Domingos",
        "street": "Rua José Teixeira de Souza",
        "zipcode": "36504-014"
    },
    {
        "city": "Ubá",
        "state": "MG",
        "district": "Bom Pastor",
        "street": "Rua José Gomes Pereira",
        "zipcode": "36504-184"
    },
    {
        "city": "Ubá",
        "state": "MG",
        "district": "Olaria",
        "street": "Rua José Francisco da Silva",
        "zipcode": "36503-184"
    },
    {
        "city": "Ubá",
        "state": "MG",
        "district": "Cristal",
        "street": "Rua Jurandir Peron",
        "zipcode": "36504-258"
    },
    {
        "city": "Ubá",
        "state": "MG",
        "district": "Xangrilá",
        "street": "Rua Luciano Dias de Andrade",
        "zipcode": "36505-106"
    },
    {
        "city": "Ubá",
        "state": "MG",
        "district": "Boa Vista",
        "street": "Rua Lincoln Rodrigues Costa",
        "zipcode": "36501-010"
    },
    {
        "city": "Ubá",
        "state": "MG",
        "district": "Palmeiras",
        "street": "Rua José Doriguetto",
        "zipcode": "36502-228"
    },
    {
        "city": "Ubá",
        "state": "MG",
        "district": "Louriçal",
        "street": "Rua Leandro Bigonha",
        "zipcode": "36505-062"
    },
    {
        "city": "Ubá",
        "state": "MG",
        "district": "Antônio Maranhão",
        "street": "Rua José Rinaldi",
        "zipcode": "36506-160"
    },
    {
        "city": "Ubá",
        "state": "MG",
        "district": "Dico Teixeira",
        "street": "Rua José Soares Teixeira",
        "zipcode": "36506-076"
    },
    {
        "city": "Ubá",
        "state": "MG",
        "district": "Habitat I",
        "street": "Rua José Félix",
        "zipcode": "36507-252"
    },
    {
        "city": "Ubá",
        "state": "MG",
        "district": "Peluso",
        "street": "Rua José Peluso",
        "zipcode": "36507-020"
    },
    {
        "city": "Ubá",
        "state": "MG",
        "district": "Vila Casal",
        "street": "Rua Major Franklin de Almeida",
        "zipcode": "36501-102"
    },
    {
        "city": "Ubá",
        "state": "MG",
        "district": "Chiquito Gazolla",
        "street": "Rua Pará",
        "zipcode": "36506-108"
    },
    {
        "city": "Ubá",
        "state": "MG",
        "district": "Antonina Coelho",
        "street": "Rua Maria Duarte Cancella",
        "zipcode": "36506-228"
    },
    {
        "city": "Ubá",
        "state": "MG",
        "district": "Olaria",
        "street": "Rua Marieta Augusta Silva Marcos",
        "zipcode": "36503-172"
    },
    {
        "city": "Ubá",
        "state": "MG",
        "district": "Noeme Batalha",
        "street": "Rua Olavo Bilac",
        "zipcode": "36500-264"
    },
    {
        "city": "Ubá",
        "state": "MG",
        "district": "Noeme Batalha",
        "street": "Rua Titita Batalha",
        "zipcode": "36500-266"
    },
    {
        "city": "Ubá",
        "state": "MG",
        "district": "Talma",
        "street": "Rua Mariano Rodrigues da Rocha",
        "zipcode": "36500-284"
    },
    {
        "city": "Ubá",
        "state": "MG",
        "district": "Vila Casal",
        "street": "Rua Manoel Casal",
        "zipcode": "36501-080"
    },
    {
        "city": "Ubá",
        "state": "MG",
        "district": "Santa Bernadete",
        "street": "Rua Mauri Martins de Oliveira",
        "zipcode": "36502-150"
    },
    {
        "city": "Ubá",
        "state": "MG",
        "district": "Meu Sonho",
        "street": "Rua Miguel Candian",
        "zipcode": "36503-212"
    },
    {
        "city": "Ubá",
        "state": "MG",
        "district": "Meu Sonho",
        "street": "Rua Maria José Pereira Campos",
        "zipcode": "36503-220"
    },
    {
        "city": "Ubá",
        "state": "MG",
        "district": "Eldorado",
        "street": "Rua Nilton Chinelo",
        "zipcode": "36504-124"
    },
    {
        "city": "Ubá",
        "state": "MG",
        "district": "Oséas Maranhão",
        "street": "Rua Maria Aparecida Castanon Bravo",
        "zipcode": "36506-140"
    },
    {
        "city": "Ubá",
        "state": "MG",
        "district": "Boa Vista",
        "street": "Rua Marcos Batista Zanotti",
        "zipcode": "36501-002"
    },
    {
        "city": "Ubá",
        "state": "MG",
        "district": "Dico Teixeira",
        "street": "Rua Maria Geralda dos Santos",
        "zipcode": "36506-074"
    },
    {
        "city": "Ubá",
        "state": "MG",
        "district": "Derminas",
        "street": "Rua Nicola Campanha",
        "zipcode": "36507-001"
    },
    {
        "city": "Ubá",
        "state": "MG",
        "district": "São João",
        "street": "Rua Minervina José Rodrigues",
        "zipcode": "36507-114"
    },
    {
        "city": "Ubá",
        "state": "MG",
        "district": "Jardim Alves do Vale",
        "street": "Rua Narciso Michelli",
        "zipcode": "36500-332"
    },
    {
        "city": "Ubá",
        "state": "MG",
        "district": "San Raphael II",
        "street": "Rua Maria Burato Migliorini",
        "zipcode": "36507-204"
    },
    {
        "city": "Ubá",
        "state": "MG",
        "district": "Bom Pastor",
        "street": "Rua Milton Basílio",
        "zipcode": "36504-166"
    },
    {
        "city": "Ubá",
        "state": "MG",
        "district": "Novo Horizonte",
        "street": "Rua Maria Zanelli",
        "zipcode": "36507-272"
    },
    {
        "city": "Ubá",
        "state": "MG",
        "district": "San Raphael I",
        "street": "Rua Manoel Ferreira da Costa",
        "zipcode": "36507-184"
    },
    {
        "city": "Ubá",
        "state": "MG",
        "district": "Colina do Jardim Glória",
        "street": "Rua Oito de Março",
        "zipcode": "36500-130"
    },
    {
        "city": "Ubá",
        "state": "MG",
        "district": "Agostinho Sales Amato",
        "street": "Rua Nilton Coeli",
        "zipcode": "36500-194"
    },
    {
        "city": "Ubá",
        "state": "MG",
        "district": "Residencial Altair Rocha",
        "street": "Rua Maria das Dores dos Santos",
        "zipcode": "36502-336"
    },
    {
        "city": "Ubá",
        "state": "MG",
        "district": "Louriçal",
        "street": "Rua Maria Rogéria de Jesus",
        "zipcode": "36505-034"
    },
    {
        "city": "Ubá",
        "state": "MG",
        "district": "Louriçal",
        "street": "Rua Maria de Lana Caneschi",
        "zipcode": "36505-074"
    },
    {
        "city": "Ubá",
        "state": "MG",
        "district": "São Sebastião",
        "street": "Rua Nair Andrade",
        "zipcode": "36505-008"
    },
    {
        "city": "Ubá",
        "state": "MG",
        "district": "Louriçal",
        "street": "Rua Maria Caneschi Bigonha",
        "zipcode": "36505-052"
    },
    {
        "city": "Ubá",
        "state": "MG",
        "district": "Jardim Esperança",
        "street": "Rua Maria Moreira de Oliveira",
        "zipcode": "36505-310"
    },
    {
        "city": "Ubá",
        "state": "MG",
        "district": "Antonina Coelho",
        "street": "Rua Professor Arthur Napoleão Pereira",
        "zipcode": "36506-222"
    },
    {
        "city": "Ubá",
        "state": "MG",
        "district": "San Raphael III",
        "street": "Rua O",
        "zipcode": "36507-226"
    },
    {
        "city": "Ubá",
        "state": "MG",
        "district": "Santa Edwiges",
        "street": "Rua Mauricío Muzitano",
        "zipcode": "36505-262"
    },
    {
        "city": "Ubá",
        "state": "MG",
        "district": "Talma",
        "street": "Rua São Bento",
        "zipcode": "36500-282"
    },
    {
        "city": "Ubá",
        "state": "MG",
        "district": "Talma",
        "street": "Rua Quirinópolis",
        "zipcode": "36500-296"
    },
    {
        "city": "Ubá",
        "state": "MG",
        "district": "Santo Antônio",
        "street": "Rua Júlia Trevizano",
        "zipcode": "36501-074"
    },
    {
        "city": "Ubá",
        "state": "MG",
        "district": "Vila Casal",
        "street": "Rua Raimundo Cândido da Costa",
        "zipcode": "36501-108"
    },
    {
        "city": "Ubá",
        "state": "MG",
        "district": "Santa Bernadete",
        "street": "Rua Santa Catarina",
        "zipcode": "36502-152"
    },
    {
        "city": "Ubá",
        "state": "MG",
        "district": "Palmeiras",
        "street": "Rua Mansur Mauad",
        "zipcode": "36502-238"
    },
    {
        "city": "Ubá",
        "state": "MG",
        "district": "Palmeiras",
        "street": "Rua Professora Nair de Araújo",
        "zipcode": "36502-240"
    },
    {
        "city": "Ubá",
        "state": "MG",
        "district": "São Judas Tadeu",
        "street": "Rua Professor Manoel Athidoro de Castro",
        "zipcode": "36502-278"
    },
    {
        "city": "Ubá",
        "state": "MG",
        "district": "Cristo Redentor",
        "street": "Rua Ribeiro de Almeida",
        "zipcode": "36500-226"
    },
    {
        "city": "Ubá",
        "state": "MG",
        "district": "Residencial São Leopoldo",
        "street": "Rua Luiz José Varella",
        "zipcode": "36500-362"
    },
    {
        "city": "Ubá",
        "state": "MG",
        "district": "Vila Casal",
        "street": "Rua Magaton",
        "zipcode": "36501-086"
    },
    {
        "city": "Ubá",
        "state": "MG",
        "district": "Chiquito Gazolla",
        "street": "Rua Roraima",
        "zipcode": "36506-110"
    },
    {
        "city": "Ubá",
        "state": "MG",
        "district": "Bom Pastor",
        "street": "Rua Moysés Felipe Filho",
        "zipcode": "36504-196"
    },
    {
        "city": "Ubá",
        "state": "MG",
        "district": "São Domingos",
        "street": "Rua Maria Aparecida Teixeira Luiz",
        "zipcode": "36504-030"
    },
    {
        "city": "Ubá",
        "state": "MG",
        "district": "Residencial São Lucas",
        "street": "Rua Mário Schiavon",
        "zipcode": "36502-368"
    },
    {
        "city": "Ubá",
        "state": "MG",
        "district": "Palmeiras",
        "street": "Rua Maria de Lourdes",
        "zipcode": "36502-222"
    },
    {
        "city": "Ubá",
        "state": "MG",
        "district": "San Raphael III",
        "street": "Rua L",
        "zipcode": "36507-212"
    },
    {
        "city": "Ubá",
        "state": "MG",
        "district": "San Raphael III",
        "street": "Rua N",
        "zipcode": "36507-220"
    },
    {
        "city": "Ubá",
        "state": "MG",
        "district": "Centro",
        "street": "Rua Professor Antônio Amaro",
        "zipcode": "36500-058"
    },
    {
        "city": "Ubá",
        "state": "MG",
        "district": "Santa Bernadete",
        "street": "Rua Porto Rico",
        "zipcode": "36502-184"
    },
    {
        "city": "Ubá",
        "state": "MG",
        "district": "Eldorado",
        "street": "Rua República do Líbano",
        "zipcode": "36504-106"
    },
    {
        "city": "Ubá",
        "state": "MG",
        "district": "Cidade Carinho II",
        "street": "Rua Quatro",
        "zipcode": "36504-282"
    },
    {
        "city": "Ubá",
        "state": "MG",
        "district": "Chiquito Gazolla",
        "street": "Rua Paraná",
        "zipcode": "36506-114"
    },
    {
        "city": "Ubá",
        "state": "MG",
        "district": "Oséas Maranhão",
        "street": "Rua Oséias Maranhão",
        "zipcode": "36506-138"
    },
    {
        "city": "Ubá",
        "state": "MG",
        "district": "São João",
        "street": "Rua São Francisco de Assis",
        "zipcode": "36507-098"
    },
    {
        "city": "Ubá",
        "state": "MG",
        "district": "Cittá de Lucca",
        "street": "Rua Rino Carlos Neubarth",
        "zipcode": "36507-352"
    },
    {
        "city": "Ubá",
        "state": "MG",
        "district": "Santana",
        "street": "Rua Sete Lgoas",
        "zipcode": "36506-044"
    },
    {
        "city": "Ubá",
        "state": "MG",
        "district": "Residencial Rosa de Toledo",
        "street": "Rua Piraúba",
        "zipcode": "36506-262"
    },
    {
        "city": "Ubá",
        "state": "MG",
        "district": "Laurindo de Castro",
        "street": "Rua Rosina Alpino Crispe",
        "zipcode": "36507-134"
    },
    {
        "city": "Ubá",
        "state": "MG",
        "district": "Vila Franel",
        "street": "Rua Nunciata Caneschi",
        "zipcode": "36507-152"
    },
    {
        "city": "Ubá",
        "state": "MG",
        "district": "Santa Edwiges",
        "street": "Rua Osmar Martins da Silva",
        "zipcode": "36505-246"
    },
    {
        "city": "Ubá",
        "state": "MG",
        "district": "Paulino Fernandes IV",
        "street": "Rua T",
        "zipcode": "36503-024"
    },
    {
        "city": "Ubá",
        "state": "MG",
        "district": "Jardim Primavera",
        "street": "Rua Onofre da Silva Pinto",
        "zipcode": "36505-192"
    },
    {
        "city": "Ubá",
        "state": "MG",
        "district": "São Francisco de Assis",
        "street": "Rua Presidente Médice",
        "zipcode": "36502-310"
    },
    {
        "city": "Ubá",
        "state": "MG",
        "district": "São Judas Tadeu",
        "street": "Rua Onofre leite Alves",
        "zipcode": "36502-288"
    },
    {
        "city": "Ubá",
        "state": "MG",
        "district": "Cidade Carinho II",
        "street": "Rua Oito",
        "zipcode": "36504-290"
    },
    {
        "city": "Ubá",
        "state": "MG",
        "district": "Cidade Carinho II",
        "street": "Rua Onze",
        "zipcode": "36504-296"
    },
    {
        "city": "Ubá",
        "state": "MG",
        "district": "Mangueira Rural",
        "street": "Rua Paulo Sergio Campos",
        "zipcode": "36503-278"
    },
    {
        "city": "Ubá",
        "state": "MG",
        "district": "São João",
        "street": "Rua Pedro Costa",
        "zipcode": "36507-118"
    },
    {
        "city": "Ubá",
        "state": "MG",
        "district": "Antônio Maranhão",
        "street": "Rua Orides do Nascimento",
        "zipcode": "36506-156"
    },
    {
        "city": "Ubá",
        "state": "MG",
        "district": "São João",
        "street": "Rua Pedro Eugênio",
        "zipcode": "36507-108"
    },
    {
        "city": "Ubá",
        "state": "MG",
        "district": "São João",
        "street": "Rua Pedro Lopes Canelo",
        "zipcode": "36507-120"
    },
    {
        "city": "Ubá",
        "state": "MG",
        "district": "Laurindo de Castro",
        "street": "Rua Ouro Preto",
        "zipcode": "36507-132"
    },
    {
        "city": "Ubá",
        "state": "MG",
        "district": "Centro",
        "street": "Rua Vicência Rosa",
        "zipcode": "36500-055"
    },
    {
        "city": "Ubá",
        "state": "MG",
        "district": "Centro",
        "street": "Travessa José Ferreira de Andrade",
        "zipcode": "36500-108"
    },
    {
        "city": "Ubá",
        "state": "MG",
        "district": "Centro",
        "street": "Rua Vicente Leite",
        "zipcode": "36500-009"
    },
    {
        "city": "Ubá",
        "state": "MG",
        "district": "Noeme Batalha",
        "street": "Rua Silvério Amaral",
        "zipcode": "36500-268"
    },
    {
        "city": "Ubá",
        "state": "MG",
        "district": "Vila Casal",
        "street": "Rua Vila Nova",
        "zipcode": "36501-094"
    },
    {
        "city": "Ubá",
        "state": "MG",
        "district": "São Judas Tadeu",
        "street": "Rua Sinval Cândido de Oliveira",
        "zipcode": "36502-274"
    },
    {
        "city": "Ubá",
        "state": "MG",
        "district": "Concórdia",
        "street": "Rua Tereza Casa Grande",
        "zipcode": "36502-352"
    },
    {
        "city": "Ubá",
        "state": "MG",
        "district": "Olaria",
        "street": "Rua Sônia Marcos Badaró",
        "zipcode": "36503-188"
    },
    {
        "city": "Ubá",
        "state": "MG",
        "district": "Meu Sonho",
        "street": "Rua Sebastião Pujone Filho",
        "zipcode": "36503-214"
    },
    {
        "city": "Ubá",
        "state": "MG",
        "district": "São Domingos",
        "street": "Rua Tancredo Graciano de Souza",
        "zipcode": "36504-052"
    },
    {
        "city": "Ubá",
        "state": "MG",
        "district": "Cidade Carinho II",
        "street": "Rua Três",
        "zipcode": "36504-280"
    },
    {
        "city": "Ubá",
        "state": "MG",
        "district": "Centro",
        "street": "Rua Santo Antônio",
        "zipcode": "36500-037"
    },
    {
        "city": "Ubá",
        "state": "MG",
        "district": "Centro",
        "street": "Rua Santa Cruz",
        "zipcode": "36500-059"
    },
    {
        "city": "Ubá",
        "state": "MG",
        "district": "Residencial São Leopoldo",
        "street": "Rua Nuno Álvares Felizardo",
        "zipcode": "36500-350"
    },
    {
        "city": "Ubá",
        "state": "MG",
        "district": "Santo Antônio",
        "street": "Rua Romão Casal",
        "zipcode": "36501-066"
    },
    {
        "city": "Ubá",
        "state": "MG",
        "district": "São Francisco de Assis",
        "street": "Rua Sebastião Bressan",
        "zipcode": "36502-314"
    },
    {
        "city": "Ubá",
        "state": "MG",
        "district": "São Domingos",
        "street": "Rua Santa Anastácia",
        "zipcode": "36504-022"
    },
    {
        "city": "Ubá",
        "state": "MG",
        "district": "Eldorado",
        "street": "Rua Santa Magna",
        "zipcode": "36504-098"
    },
    {
        "city": "Ubá",
        "state": "MG",
        "district": "Cidade Carinho II",
        "street": "Rua Quatorze",
        "zipcode": "36504-302"
    },
    {
        "city": "Ubá",
        "state": "MG",
        "district": "São Domingos",
        "street": "Rua São Jonas",
        "zipcode": "36504-034"
    },
    {
        "city": "Ubá",
        "state": "MG",
        "district": "Jardim Primavera",
        "street": "Rua Roberta de Oliveira",
        "zipcode": "36505-186"
    },
    {
        "city": "Ubá",
        "state": "MG",
        "district": "Talma",
        "street": "Rua Ubaí",
        "zipcode": "36500-294"
    },
    {
        "city": "Ubá",
        "state": "MG",
        "district": "Jardim Inês Groppo",
        "street": "Rua Professora Leocádia Godinho e Siqueira",
        "zipcode": "36503-008"
    },
    {
        "city": "Ubá",
        "state": "MG",
        "district": "Copacabana",
        "street": "Rua Sebastião Luiz Barbosa",
        "zipcode": "36500-182"
    },
    {
        "city": "Ubá",
        "state": "MG",
        "district": "Cidade Carinho II",
        "street": "Rua Quinze",
        "zipcode": "36504-304"
    },
    {
        "city": "Ubá",
        "state": "MG",
        "district": "Louriçal",
        "street": "Rua Professora Maria dos Anjos Costa",
        "zipcode": "36505-066"
    },
    {
        "city": "Ubá",
        "state": "MG",
        "district": "Mangueira Rural",
        "street": "Rua Olinda Comini Sperandio",
        "zipcode": "36503-274"
    },
    {
        "city": "Ubá",
        "state": "MG",
        "district": "Peluso",
        "street": "Rua Quinquina Láurla",
        "zipcode": "36507-042"
    },
    {
        "city": "Ubá",
        "state": "MG",
        "district": "Cittá de Lucca",
        "street": "Rua Tereza Martini Fusco",
        "zipcode": "36507-340"
    },
    {
        "city": "Ubá",
        "state": "MG",
        "district": "Centro",
        "street": "Via José da Matta Flores",
        "zipcode": "36500-099"
    },
    {
        "city": "Ubá",
        "state": "MG",
        "district": "Talma",
        "street": "Rua São Dionísio",
        "zipcode": "36500-290"
    },
    {
        "city": "Ubá",
        "state": "MG",
        "district": "Santa Bernadete",
        "street": "Vila Dalva de Souza Raymundo",
        "zipcode": "36502-172"
    },
    {
        "city": "Ubá",
        "state": "MG",
        "district": "São Judas Tadeu",
        "street": "Rua Waldemar Marcelo da Rocha",
        "zipcode": "36502-272"
    },
    {
        "city": "Ubá",
        "state": "MG",
        "district": "Jardim Primavera",
        "street": "Rua Rosa Pungato Ferrari",
        "zipcode": "36505-200"
    },
    {
        "city": "Ubá",
        "state": "MG",
        "district": "Seminário",
        "street": "Rua Vereador Joao Corbelli",
        "zipcode": "36506-028"
    },
    {
        "city": "Ubá",
        "state": "MG",
        "district": "Santana",
        "street": "Travessa Passos",
        "zipcode": "36506-050"
    },
    {
        "city": "Ubá",
        "state": "MG",
        "district": "Santa Rosa",
        "street": "Rua Safira",
        "zipcode": "36506-334"
    },
    {
        "city": "Ubá",
        "state": "MG",
        "district": "São João",
        "street": "Travessa Messias Bellini",
        "zipcode": "36507-092"
    },
    {
        "city": "Ubá",
        "state": "MG",
        "district": "São João",
        "street": "Rua São Gabriel",
        "zipcode": "36507-102"
    },
    {
        "city": "Ubá",
        "state": "MG",
        "district": "São João",
        "street": "Rua Santo Aleixo",
        "zipcode": "36507-112"
    },
    {
        "city": "Ubá",
        "state": "MG",
        "district": "Vale do Ipê",
        "street": "Rua Walter Bruck",
        "zipcode": "36507-290"
    },
    {
        "city": "Ubá",
        "state": "MG",
        "district": "Santa Luzia",
        "street": "Rua Vereador Sebastião de Paula Batista",
        "zipcode": "36506-012"
    },
    {
        "city": "Ubá",
        "state": "MG",
        "district": "São João",
        "street": "Rua São Damião",
        "zipcode": "36507-116"
    },
    {
        "city": "Ubá",
        "state": "MG",
        "district": "Waldemar de Castro",
        "street": "Travessa Alberto Ludovino Filho",
        "zipcode": "36505-132"
    },
    {
        "city": "Ubá",
        "state": "MG",
        "district": "San Raphael II",
        "street": "Rua Ruy Deschamps de Andrade",
        "zipcode": "36507-196"
    },
    {
        "city": "Ubá",
        "state": "MG",
        "district": "Jardim Esperança",
        "street": "Rua Três Irmãos",
        "zipcode": "36505-300"
    },
    {
        "city": "Ubá",
        "state": "MG",
        "district": "Galdino Alvim",
        "street": "Rua Vereador Rubens Barreto",
        "zipcode": "36500-160"
    },
    {
        "city": "Ubá",
        "state": "MG",
        "district": "Residencial São Leopoldo",
        "street": "Avenida Edson Morais Pacheco",
        "zipcode": "36500-364"
    },
    {
        "city": "Ubá",
        "state": "MG",
        "district": "Colina do Jardim Glória",
        "street": "Rua Antônio Martins Sobrinho",
        "zipcode": "36500-134"
    },
    {
        "city": "Ubá",
        "state": "MG",
        "district": "Jardim Glória",
        "street": "Rua Doutor Teófilo Pinto",
        "zipcode": "36500-150"
    },
    {
        "city": "Ubá",
        "state": "MG",
        "district": "Residencial Altair Rocha",
        "street": "Rua Jayme Balbi",
        "zipcode": "36502-338"
    },
    {
        "city": "Ubá",
        "state": "MG",
        "district": "Noeme Batalha",
        "street": "Rua Otaviano Gomes",
        "zipcode": "36500-270"
    },
    {
        "city": "Ubá",
        "state": "MG",
        "district": "Residencial São Leopoldo",
        "street": "Rua Pedro Alves Filho",
        "zipcode": "36500-352"
    },
    {
        "city": "Ubá",
        "state": "MG",
        "district": "Centro",
        "street": "Rua Treze de Maio",
        "zipcode": "36500-061"
    },
    {
        "city": "Ubá",
        "state": "MG",
        "district": "Centro",
        "street": "Vila Oliveira",
        "zipcode": "36500-109"
    },
    {
        "city": "Ubá",
        "state": "MG",
        "district": "Santa Bernadete",
        "street": "Vila Regina Celi Gazolla",
        "zipcode": "36502-164"
    },
    {
        "city": "Ubá",
        "state": "MG",
        "district": "São Mateus",
        "street": "Travessa Dois",
        "zipcode": "36503-160"
    },
    {
        "city": "Ubá",
        "state": "MG",
        "district": "Eldorado",
        "street": "Rua Trindade",
        "zipcode": "36504-108"
    },
    {
        "city": "Ubá",
        "state": "MG",
        "district": "Cidade Carinho II",
        "street": "Rua Sete",
        "zipcode": "36504-288"
    },
    {
        "city": "Ubá",
        "state": "MG",
        "district": "Waldemar de Castro",
        "street": "Travessa Benedito Muniz dos Santos",
        "zipcode": "36505-134"
    },
    {
        "city": "Ubá",
        "state": "MG",
        "district": "Louriçal",
        "street": "Travessa Antônio Silvério",
        "zipcode": "36505-046"
    },
    {
        "city": "Ubá",
        "state": "MG",
        "district": "Jardim Esperança",
        "street": "Rua Waltencir de Carvalho Barroso",
        "zipcode": "36505-302"
    },
    {
        "city": "Ubá",
        "state": "MG",
        "district": "Paulino Fernandes IV",
        "street": "Rua V",
        "zipcode": "36503-026"
    },
    {
        "city": "Ubá",
        "state": "MG",
        "district": "Santa Terezinha",
        "street": "Rua Luiz Gomes Martins",
        "zipcode": "36500-234"
    },
    {
        "city": "Ubá",
        "state": "MG",
        "district": "Vitória",
        "street": "Rua Salvador Filippo",
        "zipcode": "36500-246"
    },
    {
        "city": "Ubá",
        "state": "MG",
        "district": "Talma",
        "street": "Rua São Jeremias",
        "zipcode": "36500-292"
    },
    {
        "city": "Ubá",
        "state": "MG",
        "district": "São Domingos",
        "street": "Rua São Zacarias",
        "zipcode": "36504-036"
    },
    {
        "city": "Ubá",
        "state": "MG",
        "district": "Waldemar de Castro",
        "street": "Rua Santana",
        "zipcode": "36505-142"
    },
    {
        "city": "Ubá",
        "state": "MG",
        "district": "Copacabana",
        "street": "Vila Caiçara",
        "zipcode": "36500-184"
    },
    {
        "city": "Ubá",
        "state": "MG",
        "district": "Caxangá",
        "street": "Rua Tenente Pedro Batalha",
        "zipcode": "36500-200"
    },
    {
        "city": "Ubá",
        "state": "MG",
        "district": "Xangrilá",
        "street": "Unidade Aristeu Soares de Oliveira",
        "zipcode": "36505-112"
    },
    {
        "city": "Ubá",
        "state": "MG",
        "district": "Santa Edwiges",
        "street": "Rua Santos Miquelito",
        "zipcode": "36505-276"
    },
    {
        "city": "Ubá",
        "state": "MG",
        "district": "Peluso",
        "street": "Rua Vereador Oswaldo de Moura Esteves",
        "zipcode": "36507-026"
    },
    {
        "city": "Ubá",
        "state": "MG",
        "district": "Santa Edwiges",
        "street": "Rua Rubens Aroeira",
        "zipcode": "36505-274"
    },
    {
        "city": "Ubá",
        "state": "MG",
        "district": "São Domingos",
        "street": "Rua Sebastião Paiva Soares",
        "zipcode": "36504-002"
    },
    {
        "city": "Ubá",
        "state": "MG",
        "district": "Centro",
        "street": "Praça da Independência",
        "zipcode": "36500-095"
    },
    {
        "city": "Ubá",
        "state": "MG",
        "district": "Santa Bernadete",
        "street": "Vila Otaviano Teixeira Ervilha",
        "zipcode": "36502-162"
    },
    {
        "city": "Ubá",
        "state": "MG",
        "district": "Residencial São Lucas",
        "street": "Rua José Barletta Neto",
        "zipcode": "36502-364"
    },
    {
        "city": "Ubá",
        "state": "MG",
        "district": "Louriçal",
        "street": "Via Joana Antonieto Caneschi",
        "zipcode": "36505-070"
    },
    {
        "city": "Ubá",
        "state": "MG",
        "district": "Santa Luzia",
        "street": "Travessa Perim",
        "zipcode": "36506-016"
    },
    {
        "city": "Ubá",
        "state": "MG",
        "district": "Antônio Maranhão",
        "street": "Rua Virgílio Vieira de Andrade",
        "zipcode": "36506-154"
    },
    {
        "city": "Ubá",
        "state": "MG",
        "district": "Fazendinha",
        "street": "Rua Veneza",
        "zipcode": "36506-272"
    },
    {
        "city": "Ubá",
        "state": "MG",
        "district": "da Luz",
        "street": "Rua Virgílio Maia Neves",
        "zipcode": "36504-208"
    },
    {
        "city": "Ubá",
        "state": "MG",
        "district": "Agroceres",
        "street": "Via José Lopes",
        "zipcode": "36504-242"
    },
    {
        "city": "Ubá",
        "state": "MG",
        "district": "Centro",
        "street": "Rua Mário Porto",
        "zipcode": "36500-014"
    },
    {
        "city": "Ubá",
        "state": "MG",
        "district": "Centro",
        "street": "Rua Coronel Júlio Soares",
        "zipcode": "36500-051"
    },
    {
        "city": "Ubá",
        "state": "MG",
        "district": "Centro",
        "street": "Travessa Joaquim Moreira Mendes",
        "zipcode": "36500-110"
    },
    {
        "city": "Ubá",
        "state": "MG",
        "district": "Santa Clara",
        "street": "Rua Maria Célia Fagundes Reis",
        "zipcode": "36504-086"
    },
    {
        "city": "Ubá",
        "state": "MG",
        "district": "Waldemar de Castro",
        "street": "Via José Celestino Magalhães",
        "zipcode": "36505-136"
    },
    {
        "city": "Ubá",
        "state": "MG",
        "district": "Bom Pastor",
        "street": "Vila São Barnabé",
        "zipcode": "36504-176"
    },
    {
        "city": "Ubá",
        "state": "MG",
        "district": "Santa Rosa",
        "street": "Rua Vitória",
        "zipcode": "36506-336"
    },
    {
        "city": "Ubá",
        "state": "MG",
        "district": "Lavapés",
        "street": "Via José Simeão",
        "zipcode": "36507-168"
    },
    {
        "city": "Ubá",
        "state": "MG",
        "district": "Centro",
        "street": "Travessa Luiz Fontes",
        "zipcode": "36500-034"
    },
    {
        "city": "Ubá",
        "state": "MG",
        "district": "São João",
        "street": "Rua São Martins",
        "zipcode": "36507-110"
    },
    {
        "city": "Ubá",
        "state": "MG",
        "district": "Centro",
        "street": "Rua Antenor Machado",
        "zipcode": "36500-012"
    },
    {
        "city": "Ubá",
        "state": "MG",
        "district": "Centro",
        "street": "Rua dos Viajantes",
        "zipcode": "36500-015"
    },
    {
        "city": "Ubá",
        "state": "MG",
        "district": "Centro",
        "street": "Avenida Cristiano Rocas",
        "zipcode": "36500-017"
    },
    {
        "city": "Ubá",
        "state": "MG",
        "district": "Centro",
        "street": "Avenida Comendador Jacinto Soares de Souza Lima",
        "zipcode": "36500-090"
    },
    {
        "city": "Ubá",
        "state": "MG",
        "district": "Residencial Jardim Europa",
        "street": "Rua D",
        "zipcode": "36505-156"
    },
    {
        "city": "Ubá",
        "state": "MG",
        "district": "Santa Edwiges",
        "street": "Rua Adalberto Andrade Carvalho",
        "zipcode": "36505-258"
    },
    {
        "city": "Ubá",
        "state": "MG",
        "district": "Alto Santa Cruz",
        "street": "Rua Affonso Ivo Defelippe",
        "zipcode": "36507-050"
    },
    {
        "city": "Ubá",
        "state": "MG",
        "district": "Santo Antônio",
        "street": "Rua Ary da Silva Martins",
        "zipcode": "36501-070"
    },
    {
        "city": "Ubá",
        "state": "MG",
        "district": "Centro",
        "street": "Rua do Rosário",
        "zipcode": "36500-030"
    },
    {
        "city": "Ubá",
        "state": "MG",
        "district": "Louriçal",
        "street": "Rua Dico Caneschi",
        "zipcode": "36505-072"
    },
    {
        "city": "Ubá",
        "state": "MG",
        "district": "Oséas Maranhão",
        "street": "Rua Edgard Lemos Duarte",
        "zipcode": "36506-136"
    },
    {
        "city": "Ubá",
        "state": "MG",
        "district": "Centro",
        "street": "Rua Monsenhor Lincoln Ramos",
        "zipcode": "36500-025"
    },
    {
        "city": "Ubá",
        "state": "MG",
        "district": "Centro",
        "street": "Rua Major Lázaro Gomes",
        "zipcode": "36500-028"
    },
    {
        "city": "Ubá",
        "state": "MG",
        "district": "Santa Luzia",
        "street": "Rua Idalina Anália de Jesus",
        "zipcode": "36506-002"
    },
    {
        "city": "Ubá",
        "state": "MG",
        "district": "Centro",
        "street": "Rua Padre Gailhac",
        "zipcode": "36500-101"
    },
    {
        "city": "Ubá",
        "state": "MG",
        "district": "Centro",
        "street": "Avenida Santos Dumont",
        "zipcode": "36500-103"
    },
    {
        "city": "Ubá",
        "state": "MG",
        "district": "Centro",
        "street": "Avenida Vereador Rafael Girardi",
        "zipcode": "36500-029"
    },
    {
        "city": "Ubá",
        "state": "MG",
        "district": "Centro",
        "street": "Travessa João Hipólito",
        "zipcode": "36500-035"
    },
    {
        "city": "Ubá",
        "state": "MG",
        "district": "Centro",
        "street": "Travessa Edson de Melo",
        "zipcode": "36500-036"
    },
    {
        "city": "Ubá",
        "state": "MG",
        "district": "Centro",
        "street": "Praça Gladstone Faria Alvim",
        "zipcode": "36500-053"
    },
    {
        "city": "Ubá",
        "state": "MG",
        "district": "Centro",
        "street": "Rua Vinte e Dois de Maio",
        "zipcode": "36500-060"
    },
    {
        "city": "Ubá",
        "state": "MG",
        "district": "Centro",
        "street": "Travessa Antonieta Risi Soares Souza Lima",
        "zipcode": "36500-100"
    },
    {
        "city": "Ubá",
        "state": "MG",
        "district": "São Domingos",
        "street": "Rua Cabo Geraldo Pinto da Silva",
        "zipcode": "36504-038"
    },
    {
        "city": "Ubá",
        "state": "MG",
        "district": "São Domingos",
        "street": "Rua Vitório Fineto",
        "zipcode": "36504-046"
    },
    {
        "city": "Ubá",
        "state": "MG",
        "district": "São Judas Tadeu",
        "street": "Rua F",
        "zipcode": "36502-276"
    },
    {
        "city": "Ubá",
        "state": "MG",
        "district": "Mangueira Rural",
        "street": "Rua Wenceslau Campos",
        "zipcode": "36503-262"
    },
    {
        "city": "Ubá",
        "state": "MG",
        "district": "Santa Luzia",
        "street": "Travessa Francisco de Paula Lima",
        "zipcode": "36506-018"
    },
    {
        "city": "Ubá",
        "state": "MG",
        "district": "Centro",
        "street": "Rua Inácio Godinho",
        "zipcode": "36500-007"
    },
    {
        "city": "Ubá",
        "state": "MG",
        "district": "Centro",
        "street": "Rua Júlia Alvim",
        "zipcode": "36500-105"
    },
    {
        "city": "Ubá",
        "state": "MG",
        "district": "São Domingos",
        "street": "Rua Santo Expedito",
        "zipcode": "36504-024"
    },
    {
        "city": "Ubá",
        "state": "MG",
        "district": "Olaria",
        "street": "Vila Sebastião Massardi",
        "zipcode": "36503-178"
    },
    {
        "city": "Ubá",
        "state": "MG",
        "district": "Antônio Maranhão",
        "street": "Rua Shilton Justo de Araújo",
        "zipcode": "36506-168"
    },
    {
        "city": "Ubá",
        "state": "MG",
        "district": "Centro",
        "street": "Rua João Guilhermino",
        "zipcode": "36500-010"
    },
    {
        "city": "Ubá",
        "state": "MG",
        "district": "Vila Casal",
        "street": "Via José Raimundo Líquer",
        "zipcode": "36501-090"
    },
    {
        "city": "Ubá",
        "state": "MG",
        "district": "Bom Pastor",
        "street": "Vila Vicente Soares",
        "zipcode": "36504-164"
    },
    {
        "city": "Ubá",
        "state": "MG",
        "district": "Antônio Maranhão",
        "street": "Rua João Porphirio de Souza",
        "zipcode": "36506-170"
    },
    {
        "city": "Ubá",
        "state": "MG",
        "district": "Chiquito Gazolla",
        "street": "Rua Bahia",
        "zipcode": "36506-106"
    },
    {
        "city": "Ubá",
        "state": "MG",
        "district": "Peluso",
        "street": "Rua Cristina Bruschi Mendes",
        "zipcode": "36507-034"
    },
    {
        "city": "Ubá",
        "state": "MG",
        "district": "Antonina Coelho",
        "street": "Rua Clacides Soares de Souza Lima",
        "zipcode": "36506-206"
    },
    {
        "city": "Ubá",
        "state": "MG",
        "district": "Residencial Pires da Luz",
        "street": "Rua Vereador Oswaldo Salgado Guimarães",
        "zipcode": "36506-318"
    },
    {
        "city": "Ubá",
        "state": "MG",
        "district": "Portal das Mangueiras",
        "street": "Rua das Quaresmeiras",
        "zipcode": "36500-316"
    },
    {
        "city": "Ubá",
        "state": "MG",
        "district": "Boa Vista",
        "street": "Rua Cônego Agostinho Moreira",
        "zipcode": "36501-018"
    },
    {
        "city": "Ubá",
        "state": "MG",
        "district": "Boa Vista",
        "street": "Rua Doutor Adjalme Martins Carneiro",
        "zipcode": "36501-020"
    },
    {
        "city": "Ubá",
        "state": "MG",
        "district": "Residencial Quinze de Novembro",
        "street": "Rua Maria da Conceição Corrêa Nascimento",
        "zipcode": "36501-056"
    },
    {
        "city": "Ubá",
        "state": "MG",
        "district": "Jardim Glória",
        "street": "Rua Professor Antero Barroso",
        "zipcode": "36500-152"
    },
    {
        "city": "Ubá",
        "state": "MG",
        "district": "Centro",
        "street": "Avenida dos Andradas",
        "zipcode": "36500-118"
    },
    {
        "city": "Ubá",
        "state": "MG",
        "district": "Centro",
        "street": "Avenida Comendador Jacinto Soares de Souza Lima",
        "zipcode": "36500-091"
    },
    {
        "city": "Ubá",
        "state": "MG",
        "district": "Centro",
        "street": "Avenida Governador Valadares",
        "zipcode": "36500-107"
    },
    {
        "city": "Ubá",
        "state": "MG",
        "district": "Jardim Alves do Vale",
        "street": "Avenida Farmacêutico Geraldo Alves do Vale",
        "zipcode": "36500-330"
    },
    {
        "city": "Ubá",
        "state": "MG",
        "district": "Santo Antônio",
        "street": "Avenida Antônio Martins Filho",
        "zipcode": "36501-068"
    },
    {
        "city": "Ubá",
        "state": "MG",
        "district": "Portal das Mangueiras",
        "street": "Rua das Sibiprunas",
        "zipcode": "36500-314"
    },
    {
        "city": "Ubá",
        "state": "MG",
        "district": "Residencial São Leopoldo",
        "street": "Rua Antônia da Silva Alves",
        "zipcode": "36500-354"
    },
    {
        "city": "Ubá",
        "state": "MG",
        "district": "Centro",
        "street": "Rua dos Operários",
        "zipcode": "36500-117"
    },
    {
        "city": "Ubá",
        "state": "MG",
        "district": "Galdino Alvim",
        "street": "Rua Doutor Agostinho Martins de Oliveira",
        "zipcode": "36500-164"
    },
    {
        "city": "Ubá",
        "state": "MG",
        "district": "Centro",
        "street": "Travessa Zico de Souza Lima",
        "zipcode": "36500-106"
    },
    {
        "city": "Ubá",
        "state": "MG",
        "district": "Olaria",
        "street": "Vila Ilda Miquelito Gomes",
        "zipcode": "36503-182"
    },
    {
        "city": "Ubá",
        "state": "MG",
        "district": "Centro",
        "street": "Rua Irthes de Andrade",
        "zipcode": "36500-115"
    },
    {
        "city": "Ubá",
        "state": "MG",
        "district": "Centro",
        "street": "Rua Maria Camila Carneiro",
        "zipcode": "36500-063"
    },
    {
        "city": "Ubá",
        "state": "MG",
        "district": "Agostinho Sales Amato",
        "street": "Rua Jonathas Barbosa Cavaliere",
        "zipcode": "36500-196"
    },
    {
        "city": "Ubá",
        "state": "MG",
        "district": "Vila Casal",
        "street": "Rua Marechal Floriano Peixoto",
        "zipcode": "36501-082"
    },
    {
        "city": "Ubá",
        "state": "MG",
        "district": "Residencial Quinze de Novembro",
        "street": "Rua Professor José Aldair Mendes",
        "zipcode": "36501-044"
    },
    {
        "city": "Ubá",
        "state": "MG",
        "district": "Centro",
        "street": "Travessa Isaías Barbosa Nazaret",
        "zipcode": "36500-004"
    },
    {
        "city": "Ubá",
        "state": "MG",
        "district": "Centro",
        "street": "Rua Belo Horizonte",
        "zipcode": "36500-020"
    },
    {
        "city": "Ubá",
        "state": "MG",
        "district": "Centro",
        "street": "Rua Vereador Sebastião Lisboa de Andrade",
        "zipcode": "36500-054"
    },
    {
        "city": "Ubá",
        "state": "MG",
        "district": "Centro",
        "street": "Rua Cônego Abreu e Silva",
        "zipcode": "36500-064"
    },
    {
        "city": "Ubá",
        "state": "MG",
        "district": "Caxangá",
        "street": "Vila Zoralindo Villela Eiras",
        "zipcode": "36500-206"
    },
    {
        "city": "Ubá",
        "state": "MG",
        "district": "Santa Terezinha",
        "street": "Rua Simpliciano Martins da Rocha",
        "zipcode": "36500-232"
    },
    {
        "city": "Ubá",
        "state": "MG",
        "district": "Talma",
        "street": "Rua Vereador Nicolino de Filipo",
        "zipcode": "36500-280"
    },
    {
        "city": "Ubá",
        "state": "MG",
        "district": "Boa Vista",
        "street": "Rua E",
        "zipcode": "36501-030"
    },
    {
        "city": "Ubá",
        "state": "MG",
        "district": "Vila Casal",
        "street": "Via José Faria Gomes",
        "zipcode": "36501-092"
    },
    {
        "city": "Ubá",
        "state": "MG",
        "district": "Vila Casal",
        "street": "Beco dos Gomides",
        "zipcode": "36501-098"
    },
    {
        "city": "Ubá",
        "state": "MG",
        "district": "Centro",
        "street": "Rua São José",
        "zipcode": "36500-026"
    },
    {
        "city": "Ubá",
        "state": "MG",
        "district": "Centro",
        "street": "Rua Frei Pedro",
        "zipcode": "36500-065"
    },
    {
        "city": "Ubá",
        "state": "MG",
        "district": "Jardim Glória",
        "street": "Rua Luiz Fábio Paschoalino",
        "zipcode": "36500-140"
    },
    {
        "city": "Ubá",
        "state": "MG",
        "district": "Copacabana",
        "street": "Rua Ludovino José Pizziollo",
        "zipcode": "36500-186"
    },
    {
        "city": "Ubá",
        "state": "MG",
        "district": "Noeme Batalha",
        "street": "Rua Lia Druda Gomes",
        "zipcode": "36500-262"
    },
    {
        "city": "Ubá",
        "state": "MG",
        "district": "Noeme Batalha",
        "street": "Rua Francisca Batalha",
        "zipcode": "36500-278"
    },
    {
        "city": "Ubá",
        "state": "MG",
        "district": "Vila Casal",
        "street": "Rua Raul de Morais",
        "zipcode": "36501-110"
    },
    {
        "city": "Ubá",
        "state": "MG",
        "district": "Centro",
        "street": "Rua dos Ferroviários",
        "zipcode": "36500-011"
    },
    {
        "city": "Ubá",
        "state": "MG",
        "district": "Talma",
        "street": "Rua Enelin Dias",
        "zipcode": "36500-286"
    },
    {
        "city": "Ubá",
        "state": "MG",
        "district": "Cyro Fernandes",
        "street": "Avenida Edson Morais Pacheco",
        "zipcode": "36500-370"
    },
    {
        "city": "Ubá",
        "state": "MG",
        "district": "São José",
        "street": "Rua Altamiro Lima de Carvalho",
        "zipcode": "36501-146"
    },
    {
        "city": "Ubá",
        "state": "MG",
        "district": "São José",
        "street": "Rua Antônio Paschoal dos Santos Filho (Lot. Residencial Novo Horizonte)",
        "zipcode": "36501-160"
    },
    {
        "city": "Ubá",
        "state": "MG",
        "district": "Industrial",
        "street": "Beco Vicente de Oliveira do Carmo",
        "zipcode": "36502-048"
    },
    {
        "city": "Ubá",
        "state": "MG",
        "district": "Nossa Senhora de Fátima",
        "street": "Avenida Luiz Parma",
        "zipcode": "36502-110"
    },
    {
        "city": "Ubá",
        "state": "MG",
        "district": "Vila Moreira",
        "street": "Rua Francisco de Assis Nunes",
        "zipcode": "36501-124"
    },
    {
        "city": "Ubá",
        "state": "MG",
        "district": "São José",
        "street": "Rua Manoel Emídio da Costa",
        "zipcode": "36501-134"
    },
    {
        "city": "Ubá",
        "state": "MG",
        "district": "São José",
        "street": "Rua Dionísio Magaton",
        "zipcode": "36501-136"
    },
    {
        "city": "Ubá",
        "state": "MG",
        "district": "São José",
        "street": "Rua Maurício Baião Gazolla",
        "zipcode": "36501-150"
    },
    {
        "city": "Ubá",
        "state": "MG",
        "district": "São José",
        "street": "Rua Orlando Gazolla",
        "zipcode": "36501-156"
    },
    {
        "city": "Ubá",
        "state": "MG",
        "district": "São José",
        "street": "Rua Sebastião Pacienza (Lot. Residencial Novo Horizonte)",
        "zipcode": "36501-162"
    },
    {
        "city": "Ubá",
        "state": "MG",
        "district": "Vila Regina",
        "street": "Rua Maria Peron Natalino",
        "zipcode": "36501-192"
    },
    {
        "city": "Ubá",
        "state": "MG",
        "district": "Nossa Senhora de Fátima",
        "street": "Rua Orestes Bovareto Parma",
        "zipcode": "36502-112"
    },
    {
        "city": "Ubá",
        "state": "MG",
        "district": "Jardim Élida",
        "street": "Rua Maria Gabriela Fernandes",
        "zipcode": "36502-126"
    },
    {
        "city": "Ubá",
        "state": "MG",
        "district": "Santa Bernadete",
        "street": "Rua Roseni Maria Gonçalves de Morais",
        "zipcode": "36502-190"
    },
    {
        "city": "Ubá",
        "state": "MG",
        "district": "Palmeiras",
        "street": "Rua Nicolino Teixeira Soares",
        "zipcode": "36502-234"
    },
    {
        "city": "Ubá",
        "state": "MG",
        "district": "Quinta das Paineiras",
        "street": "Rua D",
        "zipcode": "36502-256"
    },
    {
        "city": "Ubá",
        "state": "MG",
        "district": "São Francisco de Assis",
        "street": "Rua Presidente Getúlio Vargas",
        "zipcode": "36502-306"
    },
    {
        "city": "Ubá",
        "state": "MG",
        "district": "Jardim Inês Groppo",
        "street": "Rua Doutor José Cavaliere",
        "zipcode": "36503-010"
    },
    {
        "city": "Ubá",
        "state": "MG",
        "district": "Santa Terezinha",
        "street": "Rua Tenente",
        "zipcode": "36500-230"
    },
    {
        "city": "Ubá",
        "state": "MG",
        "district": "dos Vaz",
        "street": "Rua Antônio Parma Duriguetto",
        "zipcode": "36502-322"
    },
    {
        "city": "Ubá",
        "state": "MG",
        "district": "Vitória",
        "street": "Rua Alencar Carneiro Viana",
        "zipcode": "36500-248"
    },
    {
        "city": "Ubá",
        "state": "MG",
        "district": "Caxangá",
        "street": "Rua Gracinda Lopes Villela",
        "zipcode": "36500-210"
    },
    {
        "city": "Ubá",
        "state": "MG",
        "district": "Palmeiras",
        "street": "Rua José Bernardo Maciel",
        "zipcode": "36502-232"
    },
    {
        "city": "Ubá",
        "state": "MG",
        "district": "Copacabana",
        "street": "Rua Ismael Gomes Braga",
        "zipcode": "36500-188"
    },
    {
        "city": "Ubá",
        "state": "MG",
        "district": "Residencial São Leopoldo",
        "street": "Rua Maura da Silva Varella",
        "zipcode": "36500-356"
    },
    {
        "city": "Ubá",
        "state": "MG",
        "district": "Boa Vista",
        "street": "Rua Major Siqueira",
        "zipcode": "36501-008"
    },
    {
        "city": "Ubá",
        "state": "MG",
        "district": "Residencial Altair Rocha",
        "street": "Rua Maria da Glória Araújo",
        "zipcode": "36502-330"
    },
    {
        "city": "Ubá",
        "state": "MG",
        "district": "Palmeiras",
        "street": "Rua Celina Micherif Vieira",
        "zipcode": "36502-212"
    },
    {
        "city": "Ubá",
        "state": "MG",
        "district": "Centro",
        "street": "Praça das Mercês",
        "zipcode": "36500-071"
    },
    {
        "city": "Ubá",
        "state": "MG",
        "district": "Copacabana",
        "street": "Rua Conselheiro Augusto César",
        "zipcode": "36500-180"
    },
    {
        "city": "Ubá",
        "state": "MG",
        "district": "Residencial São Leopoldo",
        "street": "Rua Célia da Silva Barletta",
        "zipcode": "36500-358"
    },
    {
        "city": "Ubá",
        "state": "MG",
        "district": "Mateus Schetino",
        "street": "Rua Gonçalves Dias",
        "zipcode": "36502-146"
    },
    {
        "city": "Ubá",
        "state": "MG",
        "district": "Santa Bernadete",
        "street": "Rua José Teixeira de Abreu",
        "zipcode": "36502-154"
    },
    {
        "city": "Ubá",
        "state": "MG",
        "district": "Santa Bernadete",
        "street": "Rua Reginaldo Francisco Coelho",
        "zipcode": "36502-174"
    },
    {
        "city": "Ubá",
        "state": "MG",
        "district": "Santa Bernadete",
        "street": "Rua Francisco FeItal Teixeira",
        "zipcode": "36502-182"
    },
    {
        "city": "Ubá",
        "state": "MG",
        "district": "São Judas Tadeu",
        "street": "Rua Francisco Duriguetto",
        "zipcode": "36502-280"
    },
    {
        "city": "Ubá",
        "state": "MG",
        "district": "São Francisco de Assis",
        "street": "Rua José Marcelo da Rocha",
        "zipcode": "36502-302"
    },
    {
        "city": "Ubá",
        "state": "MG",
        "district": "Residencial Altair Rocha",
        "street": "Rua Francisco Coelho da Silva",
        "zipcode": "36502-340"
    },
    {
        "city": "Ubá",
        "state": "MG",
        "district": "Residencial São Lucas",
        "street": "Rua José Schiavon",
        "zipcode": "36502-362"
    },
    {
        "city": "Ubá",
        "state": "MG",
        "district": "Jardim Inês Groppo",
        "street": "Rua Farmacêutico Hésio Rodrigues Andrade",
        "zipcode": "36503-012"
    },
    {
        "city": "Ubá",
        "state": "MG",
        "district": "Agostinho Sales Amato",
        "street": "Travessa A",
        "zipcode": "36500-192"
    },
    {
        "city": "Ubá",
        "state": "MG",
        "district": "Palmeiras",
        "street": "Rua Dário Vieira",
        "zipcode": "36502-214"
    },
    {
        "city": "Ubá",
        "state": "MG",
        "district": "Palmeiras",
        "street": "Avenida João Schiavon",
        "zipcode": "36502-224"
    },
    {
        "city": "Ubá",
        "state": "MG",
        "district": "Industrial",
        "street": "Rua Adolpho Rodrigues de Oliveira",
        "zipcode": "36502-062"
    },
    {
        "city": "Ubá",
        "state": "MG",
        "district": "Mateus Schetino",
        "street": "Rua Rosa Panzza Schetino",
        "zipcode": "36502-142"
    },
    {
        "city": "Ubá",
        "state": "MG",
        "district": "Industrial",
        "street": "Rua Pedro Gumier Filho",
        "zipcode": "36502-046"
    },
    {
        "city": "Ubá",
        "state": "MG",
        "district": "Industrial",
        "street": "Rua Henrique Parma",
        "zipcode": "36502-056"
    },
    {
        "city": "Ubá",
        "state": "MG",
        "district": "Industrial",
        "street": "Rua Margarida Tereza de Abreu",
        "zipcode": "36502-078"
    },
    {
        "city": "Ubá",
        "state": "MG",
        "district": "Industrial",
        "street": "Rua André Baffa",
        "zipcode": "36502-086"
    },
    {
        "city": "Ubá",
        "state": "MG",
        "district": "Cidade Carinho II",
        "street": "Rua Doze",
        "zipcode": "36504-298"
    },
    {
        "city": "Ubá",
        "state": "MG",
        "district": "Cidade Carinho II",
        "street": "Rua Treze",
        "zipcode": "36504-300"
    },
    {
        "city": "Ubá",
        "state": "MG",
        "district": "Chiquito Gazolla",
        "street": "Rua Goiás",
        "zipcode": "36506-116"
    },
    {
        "city": "Ubá",
        "state": "MG",
        "district": "Industrial",
        "street": "Rua Newton dos Santos",
        "zipcode": "36502-088"
    },
    {
        "city": "Ubá",
        "state": "MG",
        "district": "Mateus Schetino",
        "street": "Rua Luiz Carlos Schetino",
        "zipcode": "36502-144"
    },
    {
        "city": "Ubá",
        "state": "MG",
        "district": "Nossa Senhora de Fátima",
        "street": "Rua Orestes Durigueto",
        "zipcode": "36502-114"
    },
    {
        "city": "Ubá",
        "state": "MG",
        "district": "Ponte Preta",
        "street": "Rua Sebastião Luiz de Souza",
        "zipcode": "36503-126"
    },
    {
        "city": "Ubá",
        "state": "MG",
        "district": "Meu Sonho",
        "street": "Rua José Augusto Marcos",
        "zipcode": "36503-200"
    },
    {
        "city": "Ubá",
        "state": "MG",
        "district": "São Domingos",
        "street": "Rua Coronel Otaviano da Rocha",
        "zipcode": "36504-042"
    },
    {
        "city": "Ubá",
        "state": "MG",
        "district": "Paulino Fernandes IV",
        "street": "Rua H",
        "zipcode": "36503-028"
    },
    {
        "city": "Ubá",
        "state": "MG",
        "district": "Meu Sonho",
        "street": "Rua Maria Monis",
        "zipcode": "36503-202"
    },
    {
        "city": "Ubá",
        "state": "MG",
        "district": "Eldorado",
        "street": "Avenida Alvimar Miquelito",
        "zipcode": "36504-096"
    },
    {
        "city": "Ubá",
        "state": "MG",
        "district": "Concórdia",
        "street": "Rua Antônio Homem da Costa",
        "zipcode": "36502-354"
    },
    {
        "city": "Ubá",
        "state": "MG",
        "district": "Mangueira Rural",
        "street": "Rua Antônio Sperandio",
        "zipcode": "36503-254"
    },
    {
        "city": "Ubá",
        "state": "MG",
        "district": "São Domingos",
        "street": "Rua Antônio Candian",
        "zipcode": "36504-016"
    },
    {
        "city": "Ubá",
        "state": "MG",
        "district": "São Domingos",
        "street": "Rua Adão Pereira",
        "zipcode": "36504-054"
    },
    {
        "city": "Ubá",
        "state": "MG",
        "district": "Chiquito Gazolla",
        "street": "Rua Amazonas",
        "zipcode": "36506-118"
    },
    {
        "city": "Ubá",
        "state": "MG",
        "district": "São Domingos",
        "street": "Rua Ezequiel Moreira de Abreu",
        "zipcode": "36504-012"
    },
    {
        "city": "Ubá",
        "state": "MG",
        "district": "Eldorado",
        "street": "Rua Governador Bias Fortes",
        "zipcode": "36504-090"
    },
    {
        "city": "Ubá",
        "state": "MG",
        "district": "Mangueira Rural",
        "street": "Rua Wilson Campos",
        "zipcode": "36503-268"
    },
    {
        "city": "Ubá",
        "state": "MG",
        "district": "São Domingos",
        "street": "Rua Tabelião João Paulo Brígido Nunes",
        "zipcode": "36504-008"
    },
    {
        "city": "Ubá",
        "state": "MG",
        "district": "São Domingos",
        "street": "Vila Pedro Cortez",
        "zipcode": "36504-044"
    },
    {
        "city": "Ubá",
        "state": "MG",
        "district": "Eldorado",
        "street": "Rua Braz Damiano",
        "zipcode": "36504-118"
    },
    {
        "city": "Ubá",
        "state": "MG",
        "district": "Santa Bernadete",
        "street": "Rua Ismael de Oliveira",
        "zipcode": "36502-168"
    },
    {
        "city": "Ubá",
        "state": "MG",
        "district": "Santa Bernadete",
        "street": "Rua Santa Paula",
        "zipcode": "36502-178"
    },
    {
        "city": "Ubá",
        "state": "MG",
        "district": "Palmeiras",
        "street": "Rua Santa Edwiges",
        "zipcode": "36502-218"
    },
    {
        "city": "Ubá",
        "state": "MG",
        "district": "São Francisco de Assis",
        "street": "Rua Quita Lopes Chagas",
        "zipcode": "36502-304"
    },
    {
        "city": "Ubá",
        "state": "MG",
        "district": "Olaria",
        "street": "Rua Jaime de Almeida",
        "zipcode": "36503-186"
    },
    {
        "city": "Ubá",
        "state": "MG",
        "district": "Meu Sonho",
        "street": "Rua Jofre da Costa Marques",
        "zipcode": "36503-206"
    },
    {
        "city": "Ubá",
        "state": "MG",
        "district": "Mangueira Rural",
        "street": "Rua José Lourenço Sperandio",
        "zipcode": "36503-280"
    },
    {
        "city": "Ubá",
        "state": "MG",
        "district": "Aeroporto",
        "street": "Rua Messias Teixeira",
        "zipcode": "36503-318"
    },
    {
        "city": "Ubá",
        "state": "MG",
        "district": "São Domingos",
        "street": "Rua São Cristovão",
        "zipcode": "36504-058"
    },
    {
        "city": "Ubá",
        "state": "MG",
        "district": "Eldorado",
        "street": "Rua Santa Rita de Cássia",
        "zipcode": "36504-116"
    },
    {
        "city": "Ubá",
        "state": "MG",
        "district": "Vila Mariah",
        "street": "Rua Palmeira Imperial",
        "zipcode": "36504-140"
    },
    {
        "city": "Ubá",
        "state": "MG",
        "district": "Aeroporto",
        "street": "Travessa Messias Teixeira",
        "zipcode": "36503-320"
    },
    {
        "city": "Ubá",
        "state": "MG",
        "district": "São Domingos",
        "street": "Rua José Augusto de Melo",
        "zipcode": "36504-032"
    },
    {
        "city": "Ubá",
        "state": "MG",
        "district": "Paulino Fernandes III",
        "street": "Avenida Paulino Fernandes",
        "zipcode": "36503-080"
    },
    {
        "city": "Ubá",
        "state": "MG",
        "district": "Ponte Preta",
        "street": "Rua Antônio Ferreira da Silva",
        "zipcode": "36503-128"
    },
    {
        "city": "Ubá",
        "state": "MG",
        "district": "Ponte Preta",
        "street": "Rua Ana Sol",
        "zipcode": "36503-138"
    },
    {
        "city": "Ubá",
        "state": "MG",
        "district": "Paulino Fernandes III",
        "street": "Rua Jesus Ferrari",
        "zipcode": "36503-094"
    },
    {
        "city": "Ubá",
        "state": "MG",
        "district": "Residencial São José",
        "street": "Rua Sinval Brandão Teixeira",
        "zipcode": "36503-108"
    },
    {
        "city": "Ubá",
        "state": "MG",
        "district": "Ponte Preta",
        "street": "Rua Marcília Gazolla Candian",
        "zipcode": "36503-140"
    },
    {
        "city": "Ubá",
        "state": "MG",
        "district": "Agroceres",
        "street": "Rua Adão Quintão",
        "zipcode": "36504-232"
    },
    {
        "city": "Ubá",
        "state": "MG",
        "district": "Peixoto Filho",
        "street": "Avenida Doutor Manoel Lourenço de Azevedo",
        "zipcode": "36504-262"
    },
    {
        "city": "Ubá",
        "state": "MG",
        "district": "Bom Pastor",
        "street": "Rua Major Tito Cesar",
        "zipcode": "36504-174"
    },
    {
        "city": "Ubá",
        "state": "MG",
        "district": "da Luz",
        "street": "Rua João Maia Naves",
        "zipcode": "36504-210"
    },
    {
        "city": "Ubá",
        "state": "MG",
        "district": "Cidade Carinho II",
        "street": "Rua João Teixeira da Silveira",
        "zipcode": "36504-270"
    },
    {
        "city": "Ubá",
        "state": "MG",
        "district": "Vila Mariah",
        "street": "Rua Castanha do Pará",
        "zipcode": "36504-150"
    },
    {
        "city": "Ubá",
        "state": "MG",
        "district": "Cristal",
        "street": "Rua Ceci Peron",
        "zipcode": "36504-254"
    },
    {
        "city": "Ubá",
        "state": "MG",
        "district": "Bom Pastor",
        "street": "Rua Saquarema",
        "zipcode": "36504-186"
    },
    {
        "city": "Ubá",
        "state": "MG",
        "district": "da Luz",
        "street": "Rua José Januário Teixeira",
        "zipcode": "36504-200"
    },
    {
        "city": "Ubá",
        "state": "MG",
        "district": "Agroceres",
        "street": "Rua Jurandir Peron",
        "zipcode": "36504-230"
    },
    {
        "city": "Ubá",
        "state": "MG",
        "district": "Cidade Carinho II",
        "street": "Rua Dezenove",
        "zipcode": "36504-274"
    },
    {
        "city": "Ubá",
        "state": "MG",
        "district": "Residencial Jardim Europa",
        "street": "Rua Ilda Cordeiro Miranda",
        "zipcode": "36505-152"
    },
    {
        "city": "Ubá",
        "state": "MG",
        "district": "Santa Edwiges II",
        "street": "Rua Wilson Campos Pereira",
        "zipcode": "36505-224"
    },
    {
        "city": "Ubá",
        "state": "MG",
        "district": "Jardim Primavera",
        "street": "Avenida Quintino Poggiali",
        "zipcode": "36505-180"
    },
    {
        "city": "Ubá",
        "state": "MG",
        "district": "Eldorado",
        "street": "Rua Jorge Jacob Ibrahim",
        "zipcode": "36504-130"
    },
    {
        "city": "Ubá",
        "state": "MG",
        "district": "Jardim Esperança",
        "street": "Rua Geraldo Pais Barbosa",
        "zipcode": "36505-304"
    },
    {
        "city": "Ubá",
        "state": "MG",
        "district": "Louriçal",
        "street": "Avenida Auta Rafael",
        "zipcode": "36505-068"
    },
    {
        "city": "Ubá",
        "state": "MG",
        "district": "Tanquinho Doutor José Cavaliere",
        "street": "Avenida Jurandir Teixeira",
        "zipcode": "36505-294"
    },
    {
        "city": "Ubá",
        "state": "MG",
        "district": "Jardim Esperança",
        "street": "Rodovia MG",
        "zipcode": "36505-312"
    },
    {
        "city": "Ubá",
        "state": "MG",
        "district": "Xangrilá",
        "street": "Rua Avelino Leitão",
        "zipcode": "36505-108"
    },
    {
        "city": "Ubá",
        "state": "MG",
        "district": "Residencial Estrela Sul",
        "street": "Rua B",
        "zipcode": "36503-292"
    },
    {
        "city": "Ubá",
        "state": "MG",
        "district": "da Luz",
        "street": "Rua Américo Camilo de Almeida",
        "zipcode": "36504-204"
    },
    {
        "city": "Ubá",
        "state": "MG",
        "district": "Xangrilá",
        "street": "Rua Antônio Ribeiro da Costa",
        "zipcode": "36505-100"
    },
    {
        "city": "Ubá",
        "state": "MG",
        "district": "Tanquinho Doutor José Cavaliere",
        "street": "Rua Aristides Fernandes",
        "zipcode": "36505-288"
    },
    {
        "city": "Ubá",
        "state": "MG",
        "district": "Residencial Jardim Europa",
        "street": "Rua E",
        "zipcode": "36505-158"
    },
    {
        "city": "Ubá",
        "state": "MG",
        "district": "Agroceres",
        "street": "Rua Eliza Amaral Peron",
        "zipcode": "36504-234"
    },
    {
        "city": "Ubá",
        "state": "MG",
        "district": "Waldemar de Castro",
        "street": "Rua Joaquim Boaventura da Silveira",
        "zipcode": "36505-138"
    },
    {
        "city": "Ubá",
        "state": "MG",
        "district": "Eldorado",
        "street": "Rua José Carlos de Melo",
        "zipcode": "36504-132"
    },
    {
        "city": "Ubá",
        "state": "MG",
        "district": "Louriçal",
        "street": "Rua José Caneschi",
        "zipcode": "36505-042"
    },
    {
        "city": "Ubá",
        "state": "MG",
        "district": "Laranjal",
        "street": "Rua I",
        "zipcode": "36505-322"
    },
    {
        "city": "Ubá",
        "state": "MG",
        "district": "Cidade Carinho II",
        "street": "Rua Nove",
        "zipcode": "36504-292"
    },
    {
        "city": "Ubá",
        "state": "MG",
        "district": "Xangrilá",
        "street": "Rua Maria Pires da Luz",
        "zipcode": "36505-102"
    },
    {
        "city": "Ubá",
        "state": "MG",
        "district": "Xangrilá",
        "street": "Rua Maria da Conceição Nascimento Quirico",
        "zipcode": "36505-114"
    },
    {
        "city": "Ubá",
        "state": "MG",
        "district": "Waldemar de Castro",
        "street": "Avenida Quintino Poggiali",
        "zipcode": "36505-146"
    },
    {
        "city": "Ubá",
        "state": "MG",
        "district": "Jardim Primavera",
        "street": "Rua Olímpio Ribeiro",
        "zipcode": "36505-196"
    },
    {
        "city": "Ubá",
        "state": "MG",
        "district": "Tanquinho João Teixeira",
        "street": "Rua Pio XII",
        "zipcode": "36505-346"
    },
    {
        "city": "Ubá",
        "state": "MG",
        "district": "Cidade Carinho II",
        "street": "Rua Seis",
        "zipcode": "36504-286"
    },
    {
        "city": "Ubá",
        "state": "MG",
        "district": "Waldemar de Castro",
        "street": "Vila Olinda Esmelinda Barbosa",
        "zipcode": "36505-140"
    },
    {
        "city": "Ubá",
        "state": "MG",
        "district": "Centro",
        "street": "Rua Coronel Isac Cabido",
        "zipcode": "36500-070"
    },
    {
        "city": "Ubá",
        "state": "MG",
        "district": "Residencial Altair Rocha",
        "street": "Rua Valdir Pierandrei Fazolla",
        "zipcode": "36502-334"
    },
    {
        "city": "Ubá",
        "state": "MG",
        "district": "Jardim Primavera",
        "street": "Rua Reginaldo dos Santos Machudo",
        "zipcode": "36505-184"
    },
    {
        "city": "Ubá",
        "state": "MG",
        "district": "São Francisco de Assis",
        "street": "Rua Francisco Teixeira de Abreu",
        "zipcode": "36502-300"
    },
    {
        "city": "Ubá",
        "state": "MG",
        "district": "São Francisco de Assis",
        "street": "Rua Camilo José da Silva",
        "zipcode": "36502-316"
    },
    {
        "city": "Ubá",
        "state": "MG",
        "district": "Vila Mariah",
        "street": "Rua Gameleira",
        "zipcode": "36504-142"
    },
    {
        "city": "Ubá",
        "state": "MG",
        "district": "Bom Pastor",
        "street": "Rua José Ozório Pereira",
        "zipcode": "36504-190"
    },
    {
        "city": "Ubá",
        "state": "MG",
        "district": "São Sebastião",
        "street": "Rua São Sebastião",
        "zipcode": "36505-010"
    },
    {
        "city": "Ubá",
        "state": "MG",
        "district": "Louriçal",
        "street": "Rua Santa Luzia",
        "zipcode": "36505-030"
    },
    {
        "city": "Ubá",
        "state": "MG",
        "district": "Louriçal",
        "street": "Rua Luizinha Pacheco",
        "zipcode": "36505-064"
    },
    {
        "city": "Ubá",
        "state": "MG",
        "district": "Jardim Esperança",
        "street": "Rua Realino Sebastião Firmiano",
        "zipcode": "36505-306"
    },
    {
        "city": "Ubá",
        "state": "MG",
        "district": "São Francisco de Assis",
        "street": "Rua José Machado",
        "zipcode": "36502-318"
    },
    {
        "city": "Ubá",
        "state": "MG",
        "district": "São Sebastião",
        "street": "Rua Cônego Vidal",
        "zipcode": "36505-020"
    },
    {
        "city": "Ubá",
        "state": "MG",
        "district": "São Sebastião",
        "street": "Rua dos Vicentinos",
        "zipcode": "36505-024"
    },
    {
        "city": "Ubá",
        "state": "MG",
        "district": "Louriçal",
        "street": "Rua Cristiano da Mota Júnior",
        "zipcode": "36505-044"
    },
    {
        "city": "Ubá",
        "state": "MG",
        "district": "Tanquinho João Teixeira",
        "street": "Rua Bom Jesus",
        "zipcode": "36505-344"
    },
    {
        "city": "Ubá",
        "state": "MG",
        "district": "Cidade Carinho II",
        "street": "Rua Um",
        "zipcode": "36504-276"
    },
    {
        "city": "Ubá",
        "state": "MG",
        "district": "Jardim Primavera",
        "street": "Rua Lilina Rinaldi",
        "zipcode": "36505-188"
    },
    {
        "city": "Ubá",
        "state": "MG",
        "district": "São José",
        "street": "Rua Arlindo Duarte Sol (Lot. Residencial Novo Horizonte)",
        "zipcode": "36501-169"
    },
    {
        "city": "Ubá",
        "state": "MG",
        "district": "Industrial",
        "street": "Rua Engenheiro Manoel Gonçalves Coelho",
        "zipcode": "36502-070"
    },
    {
        "city": "Ubá",
        "state": "MG",
        "district": "Industrial",
        "street": "Rua Marieta Campos",
        "zipcode": "36502-074"
    },
    {
        "city": "Ubá",
        "state": "MG",
        "district": "Paulino Fernandes III",
        "street": "Rua G",
        "zipcode": "36503-082"
    },
    {
        "city": "Ubá",
        "state": "MG",
        "district": "Residencial São José",
        "street": "Rua Paulo Larocca",
        "zipcode": "36503-100"
    },
    {
        "city": "Ubá",
        "state": "MG",
        "district": "Residencial São José",
        "street": "Rua José Vieira de Almeida",
        "zipcode": "36503-106"
    },
    {
        "city": "Ubá",
        "state": "MG",
        "district": "Ponte Preta",
        "street": "Rua José da Costa Marques",
        "zipcode": "36503-116"
    },
    {
        "city": "Ubá",
        "state": "MG",
        "district": "Vila Mariah",
        "street": "Rua Pau Brasil",
        "zipcode": "36504-154"
    },
    {
        "city": "Ubá",
        "state": "MG",
        "district": "Antônio Maranhão",
        "street": "Rua Mercedes Nunes Pessoa",
        "zipcode": "36506-162"
    },
    {
        "city": "Ubá",
        "state": "MG",
        "district": "Dico Teixeira",
        "street": "Rua Juiz Massillon Resende Teixeira",
        "zipcode": "36506-072"
    },
    {
        "city": "Ubá",
        "state": "MG",
        "district": "Santa Alice",
        "street": "Vila Nossa Senhora do Carmo",
        "zipcode": "36506-092"
    },
    {
        "city": "Ubá",
        "state": "MG",
        "district": "Residencial Rosa de Toledo",
        "street": "Rua Rubens Peron",
        "zipcode": "36506-256"
    },
    {
        "city": "Ubá",
        "state": "MG",
        "district": "Residencial Pires da Luz",
        "street": "Rua Mário Espósito",
        "zipcode": "36506-320"
    },
    {
        "city": "Ubá",
        "state": "MG",
        "district": "Bela Vista",
        "street": "Rua Silvério Lima",
        "zipcode": "36507-004"
    },
    {
        "city": "Ubá",
        "state": "MG",
        "district": "Alto Santa Cruz",
        "street": "Rua Vereador Lauro Baltar",
        "zipcode": "36507-056"
    },
    {
        "city": "Ubá",
        "state": "MG",
        "district": "Derminas",
        "street": "Rua Tenente Caio Xavier de Castro",
        "zipcode": "36507-060"
    },
    {
        "city": "Ubá",
        "state": "MG",
        "district": "San Raphael II",
        "street": "Rua F",
        "zipcode": "36507-206"
    },
    {
        "city": "Ubá",
        "state": "MG",
        "district": "Santa Edwiges II",
        "street": "Rua Laura Nicolato",
        "zipcode": "36505-220"
    },
    {
        "city": "Ubá",
        "state": "MG",
        "district": "Santa Edwiges",
        "street": "Rua Geraldo Magela Fernandes",
        "zipcode": "36505-260"
    },
    {
        "city": "Ubá",
        "state": "MG",
        "district": "Antônio Maranhão",
        "street": "Avenida Cícero Silveira",
        "zipcode": "36506-152"
    },
    {
        "city": "Ubá",
        "state": "MG",
        "district": "Santana",
        "street": "Avenida Juscelino Kubitscheck",
        "zipcode": "36506-062"
    },
    {
        "city": "Ubá",
        "state": "MG",
        "district": "Antonina Coelho",
        "street": "Avenida Álvaro Bigonha",
        "zipcode": "36506-200"
    },
    {
        "city": "Ubá",
        "state": "MG",
        "district": "Residencial Rosa de Toledo",
        "street": "Avenida Doutor Gastão Rosa de Toledo",
        "zipcode": "36506-250"
    },
    {
        "city": "Ubá",
        "state": "MG",
        "district": "Antônio Maranhão",
        "street": "Rua Ademir Batista de Paula",
        "zipcode": "36506-158"
    },
    {
        "city": "Ubá",
        "state": "MG",
        "district": "Loteamento Santos Dumont",
        "street": "Rua Alexandre Laktim",
        "zipcode": "36503-332"
    },
    {
        "city": "Ubá",
        "state": "MG",
        "district": "Jardim Primavera",
        "street": "Rua Délio Couto Malta",
        "zipcode": "36505-190"
    },
    {
        "city": "Ubá",
        "state": "MG",
        "district": "Santana",
        "street": "Rua Altivo Brandão",
        "zipcode": "36506-040"
    },
    {
        "city": "Ubá",
        "state": "MG",
        "district": "Antônio Maranhão",
        "street": "Rua Antônio Carlos do Amaral",
        "zipcode": "36506-174"
    },
    {
        "city": "Ubá",
        "state": "MG",
        "district": "Santa Cândida",
        "street": "Rua E",
        "zipcode": "36505-370"
    },
    {
        "city": "Ubá",
        "state": "MG",
        "district": "Chiquito Gazolla",
        "street": "Rua Espírito Santo",
        "zipcode": "36506-112"
    },
    {
        "city": "Ubá",
        "state": "MG",
        "district": "Eldorado",
        "street": "Rua Doutor Demóstenes Martins de Oliveira",
        "zipcode": "36504-110"
    },
    {
        "city": "Ubá",
        "state": "MG",
        "district": "Residencial Jardim Europa",
        "street": "Rua F",
        "zipcode": "36505-160"
    },
    {
        "city": "Ubá",
        "state": "MG",
        "district": "Santa Edwiges",
        "street": "Rua Doutor Luiz Carlos Rinco",
        "zipcode": "36505-266"
    },
    {
        "city": "Ubá",
        "state": "MG",
        "district": "Dico Teixeira",
        "street": "Rua Dico Teixeira",
        "zipcode": "36506-070"
    },
    {
        "city": "Ubá",
        "state": "MG",
        "district": "Antonina Coelho",
        "street": "Rua Domingos Muzitano",
        "zipcode": "36506-210"
    },
    {
        "city": "Ubá",
        "state": "MG",
        "district": "Santa Rosa",
        "street": "Rua Esmeralda",
        "zipcode": "36506-338"
    },
    {
        "city": "Ubá",
        "state": "MG",
        "district": "Tanquinho João Teixeira",
        "street": "Rua João Paulo II",
        "zipcode": "36505-348"
    },
    {
        "city": "Ubá",
        "state": "MG",
        "district": "Chiquito Gazolla",
        "street": "Rua Mato Grosso",
        "zipcode": "36506-120"
    },
    {
        "city": "Ubá",
        "state": "MG",
        "district": "Antonina Coelho",
        "street": "Rua Mires Simões",
        "zipcode": "36506-202"
    },
    {
        "city": "Ubá",
        "state": "MG",
        "district": "Bela Vista",
        "street": "Rua José Augusto Condé",
        "zipcode": "36507-002"
    },
    {
        "city": "Ubá",
        "state": "MG",
        "district": "São João",
        "street": "Rua José Amaral",
        "zipcode": "36507-094"
    },
    {
        "city": "Ubá",
        "state": "MG",
        "district": "San Raphael II",
        "street": "Rua Marcionília Maria Moreira da Silva",
        "zipcode": "36507-192"
    },
    {
        "city": "Ubá",
        "state": "MG",
        "district": "Chiquito Gazolla",
        "street": "Rua Pernambuco",
        "zipcode": "36506-104"
    },
    {
        "city": "Ubá",
        "state": "MG",
        "district": "Residencial Pires da Luz",
        "street": "Rua Pedro Rodrigues Duque",
        "zipcode": "36506-310"
    },
    {
        "city": "Ubá",
        "state": "MG",
        "district": "Residencial Pires da Luz",
        "street": "Rua Prefeito Adolfo Nicolato",
        "zipcode": "36506-314"
    },
    {
        "city": "Ubá",
        "state": "MG",
        "district": "Lavapés",
        "street": "Rua Oswaldo Bressan",
        "zipcode": "36507-160"
    },
    {
        "city": "Ubá",
        "state": "MG",
        "district": "Loteamento Santos Dumont",
        "street": "Rua Jésus Tavares Pereira",
        "zipcode": "36503-334"
    },
    {
        "city": "Ubá",
        "state": "MG",
        "district": "São Domingos",
        "street": "Rua Valdemar de Oliveira Rocha",
        "zipcode": "36504-028"
    },
    {
        "city": "Ubá",
        "state": "MG",
        "district": "São Domingos",
        "street": "Rua Galdino José de Oliveira",
        "zipcode": "36504-004"
    },
    {
        "city": "Ubá",
        "state": "MG",
        "district": "São Domingos",
        "street": "Rua São Marcos",
        "zipcode": "36504-056"
    },
    {
        "city": "Ubá",
        "state": "MG",
        "district": "Mangueira Rural",
        "street": "Rua José Ângelo Sperandio",
        "zipcode": "36503-272"
    },
    {
        "city": "Ubá",
        "state": "MG",
        "district": "da Luz",
        "street": "Beco Nania Medice",
        "zipcode": "36504-206"
    },
    {
        "city": "Ubá",
        "state": "MG",
        "district": "Universitário",
        "street": "Rua Gabriel de Lucca",
        "zipcode": "36506-190"
    },
    {
        "city": "Ubá",
        "state": "MG",
        "district": "Peluso",
        "street": "Rua Germano Leite",
        "zipcode": "36507-040"
    },
    {
        "city": "Ubá",
        "state": "MG",
        "district": "Alto Santa Cruz",
        "street": "Rua Francisco de Lucas Filho",
        "zipcode": "36507-054"
    },
    {
        "city": "Ubá",
        "state": "MG",
        "district": "Derminas",
        "street": "Rua José Martins Silveira",
        "zipcode": "36507-062"
    },
    {
        "city": "Ubá",
        "state": "MG",
        "district": "San Raphael I",
        "street": "Rua Braz Theodoro Affonso de Filippo",
        "zipcode": "36507-182"
    },
    {
        "city": "Ubá",
        "state": "MG",
        "district": "San Raphael II",
        "street": "Rua Cecília Médice Tonieto",
        "zipcode": "36507-200"
    },
    {
        "city": "Ubá",
        "state": "MG",
        "district": "Industrial",
        "street": "Praça Francisco Parma",
        "zipcode": "36502-066"
    },
    {
        "city": "Ubá",
        "state": "MG",
        "district": "Universitário",
        "street": "Avenida Senador Levindo Coelho",
        "zipcode": "36506-180"
    },
    {
        "city": "Ubá",
        "state": "MG",
        "district": "São José",
        "street": "Rua Walter Gravina (Lot. Residencial Novo Horizonte)",
        "zipcode": "36501-163"
    },
    {
        "city": "Ubá",
        "state": "MG",
        "district": "San Raphael III",
        "street": "Rua E",
        "zipcode": "36507-240"
    },
    {
        "city": "Ubá",
        "state": "MG",
        "district": "Pedro Miquelito",
        "street": "Rua Maria Coeli Miquelito",
        "zipcode": "36507-262"
    },
    {
        "city": "Ubá",
        "state": "MG",
        "district": "Vale do Ipê",
        "street": "Rua São Luiz",
        "zipcode": "36507-286"
    },
    {
        "city": "Ubá",
        "state": "MG",
        "district": "Vale do Ipê",
        "street": "Rua Rio de Janeiro",
        "zipcode": "36507-292"
    },
    {
        "city": "Ubá",
        "state": "MG",
        "district": "Residencial Quinze de Novembro",
        "street": "Rua Antônio José Khouri",
        "zipcode": "36501-052"
    },
    {
        "city": "Ubá",
        "state": "MG",
        "district": "Paulino Fernandes III",
        "street": "Rua Luiza Teixeira da Silveira",
        "zipcode": "36503-086"
    },
    {
        "city": "Ubá",
        "state": "MG",
        "district": "Santa Edwiges II",
        "street": "Rua F",
        "zipcode": "36505-232"
    },
    {
        "city": "Ubá",
        "state": "MG",
        "district": "Seminário",
        "street": "Rua Doutor Adjalme da Silva Botelho",
        "zipcode": "36506-022"
    },
    {
        "city": "Ubá",
        "state": "MG",
        "district": "Santana",
        "street": "Rua Santa Clara",
        "zipcode": "36506-052"
    },
    {
        "city": "Ubá",
        "state": "MG",
        "district": "Vila Franel",
        "street": "Rua Vereador José Albino de Saouza",
        "zipcode": "36507-150"
    },
    {
        "city": "Ubá",
        "state": "MG",
        "district": "Cidade Jardim",
        "street": "Alameda dos Lírios",
        "zipcode": "36507-324"
    },
    {
        "city": "Ubá",
        "state": "MG",
        "district": "Cidade Jardim",
        "street": "Rua João Mariel",
        "zipcode": "36507-328"
    },
    {
        "city": "Ubá",
        "state": "MG",
        "district": "Cittá de Lucca",
        "street": "Rua Antônio Lombardi",
        "zipcode": "36507-354"
    },
    {
        "city": "Ubá",
        "state": "MG",
        "district": "Paulino Fernandes",
        "street": "Rua Esperantista Edina de Barros Reis",
        "zipcode": "36503-074"
    },
    {
        "city": "Ubá",
        "state": "MG",
        "district": "São João",
        "street": "Rua Cleber Lopes de Faria",
        "zipcode": "36507-100"
    },
    {
        "city": "Ubá",
        "state": "MG",
        "district": "São João",
        "street": "Rua Sebastião Telles da Costa",
        "zipcode": "36507-122"
    },
    {
        "city": "Ubá",
        "state": "MG",
        "district": "Lavapés",
        "street": "Vila Amábili rosignoli",
        "zipcode": "36507-170"
    },
    {
        "city": "Ubá",
        "state": "MG",
        "district": "Fazendinha",
        "street": "Rua Romênia",
        "zipcode": "36506-278"
    },
    {
        "city": "Ubá",
        "state": "MG",
        "district": "Tanquinho Doutor José Cavaliere",
        "street": "Rua Genésio Costa de Oliveira",
        "zipcode": "36505-286"
    },
    {
        "city": "Ubá",
        "state": "MG",
        "district": "Habitat I",
        "street": "Avenida Juscelino Kubitscheck",
        "zipcode": "36507-250"
    },
    {
        "city": "Ubá",
        "state": "MG",
        "district": "Antonina Coelho",
        "street": "Avenida Pedro Pires Mota",
        "zipcode": "36506-214"
    },
    {
        "city": "Ubá",
        "state": "MG",
        "district": "Cidade Jardim",
        "street": "Alameda das Crisálidas",
        "zipcode": "36507-302"
    },
    {
        "city": "Ubá",
        "state": "MG",
        "district": "Cidade Jardim",
        "street": "Alameda dos Gerânios",
        "zipcode": "36507-310"
    },
    {
        "city": "Ubá",
        "state": "MG",
        "district": "Cidade Jardim",
        "street": "Alameda das Hortências",
        "zipcode": "36507-318"
    },
    {
        "city": "Ubá",
        "state": "MG",
        "district": "Habitat I",
        "street": "Rua Antônio Xavier da Silva",
        "zipcode": "36507-254"
    },
    {
        "city": "Ubá",
        "state": "MG",
        "district": "Fazendinha",
        "street": "Rua Argélia",
        "zipcode": "36506-276"
    },
    {
        "city": "Ubá",
        "state": "MG",
        "district": "Fazendinha",
        "street": "Rua Argentina",
        "zipcode": "36506-292"
    },
    {
        "city": "Ubá",
        "state": "MG",
        "district": "Cittá de Lucca",
        "street": "Rua Antônio Negri",
        "zipcode": "36507-368"
    },
    {
        "city": "Ubá",
        "state": "MG",
        "district": "Residencial Rosa de Toledo",
        "street": "Rua B",
        "zipcode": "36506-264"
    },
    {
        "city": "Ubá",
        "state": "MG",
        "district": "Cittá de Lucca",
        "street": "Rua Ângelo Sartori Filho",
        "zipcode": "36507-364"
    },
    {
        "city": "Ubá",
        "state": "MG",
        "district": "Residencial Quinze de Novembro",
        "street": "Rua H",
        "zipcode": "36501-054"
    },
    {
        "city": "Ubá",
        "state": "MG",
        "district": "Loteamento Santos Dumont",
        "street": "Rua Nair de Freitas Barletta",
        "zipcode": "36503-336"
    },
    {
        "city": "Ubá",
        "state": "MG",
        "district": "Antonina Coelho",
        "street": "Rua Doutor João Moreira Barletta",
        "zipcode": "36506-218"
    },
    {
        "city": "Ubá",
        "state": "MG",
        "district": "Residencial Pires da Luz",
        "street": "Rua Doutor Erasmo Furtado de Mendonça",
        "zipcode": "36506-308"
    },
    {
        "city": "Ubá",
        "state": "MG",
        "district": "Santa Cruz",
        "street": "Rua Esperanto",
        "zipcode": "36507-074"
    },
    {
        "city": "Ubá",
        "state": "MG",
        "district": "Vale do Ipê",
        "street": "Rua Jesus Salustiano",
        "zipcode": "36507-284"
    },
    {
        "city": "Ubá",
        "state": "MG",
        "district": "Antônio Bigonha",
        "street": "Rua José Dias de Andrade",
        "zipcode": "36506-242"
    },
    {
        "city": "Ubá",
        "state": "MG",
        "district": "São João",
        "street": "Rua José Andrade da Silva",
        "zipcode": "36507-104"
    },
    {
        "city": "Ubá",
        "state": "MG",
        "district": "Laurindo de Castro",
        "street": "Rua Maria da Conceição Rodrigues",
        "zipcode": "36507-136"
    },
    {
        "city": "Ubá",
        "state": "MG",
        "district": "Meu Sonho",
        "street": "Rua Jomil Candian",
        "zipcode": "36503-218"
    },
    {
        "city": "Ubá",
        "state": "MG",
        "district": "Santa Edwiges",
        "street": "Rua Maria Lolita de Oliveira Fernandes",
        "zipcode": "36505-272"
    },
    {
        "city": "Ubá",
        "state": "MG",
        "district": "Antonina Coelho",
        "street": "Rua Otacilio Coutinho",
        "zipcode": "36506-212"
    },
    {
        "city": "Ubá",
        "state": "MG",
        "district": "San Raphael I",
        "street": "Avenida Jesus Brandão",
        "zipcode": "36507-180"
    },
    {
        "city": "Ubá",
        "state": "MG",
        "district": "Cittá de Lucca",
        "street": "Rua Padre Anchieta",
        "zipcode": "36507-348"
    },
    {
        "city": "Ubá",
        "state": "MG",
        "district": "Laurindo de Castro",
        "street": "Rua Pedro Paiva",
        "zipcode": "36507-138"
    },
    {
        "city": "Ubá",
        "state": "MG",
        "district": "Louriçal",
        "street": "Rua Luiz Bigonha",
        "zipcode": "36505-050"
    },
    {
        "city": "Ubá",
        "state": "MG",
        "district": "Santa Luzia",
        "street": "Rua Virgínia Brandão",
        "zipcode": "36506-006"
    },
    {
        "city": "Ubá",
        "state": "MG",
        "district": "San Raphael III",
        "street": "Rua F",
        "zipcode": "36507-228"
    },
    {
        "city": "Ubá",
        "state": "MG",
        "district": "Vale do Ipê",
        "street": "Rua Victório Migliorini",
        "zipcode": "36507-288"
    },
    {
        "city": "Ubá",
        "state": "MG",
        "district": "Vale do Ipê",
        "street": "Avenida Juscelino Kubitscheck",
        "zipcode": "36507-296"
    },
    {
        "city": "Ubá",
        "state": "MG",
        "district": "Antonina Coelho",
        "street": "Avenida Senador Levindo Coelho",
        "zipcode": "36506-230"
    },
    {
        "city": "Ubá",
        "state": "MG",
        "district": "Laurindo de Castro",
        "street": "Via Luciano Alfenas",
        "zipcode": "36507-144"
    },
    {
        "city": "Ubá",
        "state": "MG",
        "district": "Peluso",
        "street": "Rua do Livramento",
        "zipcode": "36507-028"
    },
    {
        "city": "Ubá",
        "state": "MG",
        "district": "Centro",
        "street": "Rua Dona Mariana",
        "zipcode": "36500-092"
    },
    {
        "city": "Ubá",
        "state": "MG",
        "district": "Mangueira Rural",
        "street": "Rua Antônio Barbosa",
        "zipcode": "36503-276"
    },
    {
        "city": "Ubá",
        "state": "MG",
        "district": "Vale do Ipê",
        "street": "Rua Bruxelas",
        "zipcode": "36507-294"
    },
    {
        "city": "Ubá",
        "state": "MG",
        "district": "Centro",
        "street": "Rua Cônego Abreu e Silva 55 Loja 04 e 05",
        "zipcode": "36500-972"
    },
    {
        "city": "Ubá",
        "state": "MG",
        "district": "Jardim Glória",
        "street": "Praça Agenor Barbosa",
        "zipcode": "36500-146"
    },
    {
        "city": "Ubá",
        "state": "MG",
        "district": "Quinta das Paineiras",
        "street": "Rua A",
        "zipcode": "36502-260"
    },
    {
        "city": "Ubá",
        "state": "MG",
        "district": "Industrial",
        "street": "Rua Antônio Pereira da Cruz",
        "zipcode": "36502-072"
    },
    {
        "city": "Ubá",
        "state": "MG",
        "district": "Centro",
        "street": "Praça Guido Marliere",
        "zipcode": "36500-018"
    },
    {
        "city": "Ubá",
        "state": "MG",
        "district": "Centro",
        "street": "Rua Duque de Caxias",
        "zipcode": "36500-021"
    },
    {
        "city": "Ubá",
        "state": "MG",
        "district": "Centro",
        "street": "Rua Capitão Ananias Teixeira de Abreu",
        "zipcode": "36500-112"
    },
    {
        "city": "Ubá",
        "state": "MG",
        "district": "Centro",
        "street": "Rua Monsenhor Paiva Campos",
        "zipcode": "36500-068"
    },
    {
        "city": "Ubá",
        "state": "MG",
        "district": "Centro",
        "street": "Travessa José Michelli",
        "zipcode": "36500-102"
    },
    {
        "city": "Ubá",
        "state": "MG",
        "district": "Residencial Altair Rocha",
        "street": "Rua Francisco Teixeira de Abreu",
        "zipcode": "36502-344"
    },
    {
        "city": "Ubá",
        "state": "MG",
        "district": "São Francisco de Assis",
        "street": "Rua Elisa de Freitas Araújo",
        "zipcode": "36502-312"
    },
    {
        "city": "Ubá",
        "state": "MG",
        "district": "Cidade Carinho II",
        "street": "Rua Dois",
        "zipcode": "36504-278"
    },
    {
        "city": "Ubá",
        "state": "MG",
        "district": "Louriçal",
        "street": "Rua Nicolau Caneschi",
        "zipcode": "36505-078"
    },
    {
        "city": "Ubá",
        "state": "MG",
        "district": "Santa Edwiges",
        "street": "Rua Aristolina Ferreira Maciel",
        "zipcode": "36505-268"
    },
    {
        "city": "Ubá",
        "state": "MG",
        "district": "Santa Luzia",
        "street": "Travessa Pedro Biscotto",
        "zipcode": "36506-010"
    },
    {
        "city": "Ubá",
        "state": "MG",
        "district": "Santa Edwiges",
        "street": "Rua Joaquim Guilherme de Azevedo",
        "zipcode": "36505-248"
    },
    {
        "city": "Ubá",
        "state": "MG",
        "district": "Tanquinho Doutor José Cavaliere",
        "street": "Rua Bertholdo Maria da Costa",
        "zipcode": "36505-292"
    },
    {
        "city": "Ubá",
        "state": "MG",
        "district": "Antonina Coelho",
        "street": "Rua Farmacêutico José Gonzaga de Araújo Porto",
        "zipcode": "36506-204"
    },
    {
        "city": "Ubá",
        "state": "MG",
        "district": "Colina do Jardim Glória",
        "street": "Rua Anselmo Martins Teixeira",
        "zipcode": "36500-136"
    },
    {
        "city": "Ubá",
        "state": "MG",
        "district": "Colina do Jardim Glória",
        "street": "Rua Antônio Yllídio Pereira",
        "zipcode": "36500-132"
    },
    {
        "city": "Ubá",
        "state": "MG",
        "district": "Santa Edwiges",
        "street": "Avenida Elpídia da Silva Fagundes",
        "zipcode": "36505-270"
    },
    {
        "city": "Ubá",
        "state": "MG",
        "district": "Cidade Jardim",
        "street": "Avenida Juscelino Kubitscheck",
        "zipcode": "36507-330"
    },
    {
        "city": "Ubá",
        "state": "MG",
        "district": "Galdino Alvim",
        "street": "Rua Irineu Gomes da Silva",
        "zipcode": "36500-162"
    },
    {
        "city": "Ubá",
        "state": "MG",
        "district": "Portal das Mangueiras",
        "street": "Rua dos Flamboyants",
        "zipcode": "36500-320"
    },
    {
        "city": "Ubá",
        "state": "MG",
        "district": "Louriçal",
        "street": "Rua Durval Francisco de Assis",
        "zipcode": "36505-032"
    },
    {
        "city": "Ubá",
        "state": "MG",
        "district": "Waldemar de Castro",
        "street": "Rua Dom Silvério",
        "zipcode": "36505-144"
    },
    {
        "city": "Ubá",
        "state": "MG",
        "district": "Residencial Rosa de Toledo",
        "street": "Rua Isabel Coelho de Souza",
        "zipcode": "36506-258"
    },
    {
        "city": "Ubá",
        "state": "MG",
        "district": "São Judas Tadeu",
        "street": "Rua Mariel Benjamin dos Santos",
        "zipcode": "36502-284"
    },
    {
        "city": "Ubá",
        "state": "MG",
        "district": "Louriçal",
        "street": "Rua Monsenhor Raimundo Nonato",
        "zipcode": "36505-058"
    },
    {
        "city": "Ubá",
        "state": "MG",
        "district": "Jardim Esperança",
        "street": "Rua Maria do Carmo Medice de Oliveira",
        "zipcode": "36505-308"
    },
    {
        "city": "Ubá",
        "state": "MG",
        "district": "Residencial Quinze de Novembro",
        "street": "Rua Antônio Njaim Atalla",
        "zipcode": "36501-046"
    },
    {
        "city": "Ubá",
        "state": "MG",
        "district": "Santa Bernadete",
        "street": "Via João Célio Schetino Filho",
        "zipcode": "36502-170"
    },
    {
        "city": "Ubá",
        "state": "MG",
        "district": "Santa Clara",
        "street": "Rua José Lourenço de Oliveira",
        "zipcode": "36504-084"
    },
    {
        "city": "Ubá",
        "state": "MG",
        "district": "Jardim Inês Groppo",
        "street": "Rua Luciano Groppo",
        "zipcode": "36503-000"
    },
    {
        "city": "Ubá",
        "state": "MG",
        "district": "Bom Pastor",
        "street": "Rua Cid da Silveira Campos",
        "zipcode": "36504-192"
    },
    {
        "city": "Ubá",
        "state": "MG",
        "district": "Palmeiras",
        "street": "Rua Vera Lúcia Barbosa de Castro",
        "zipcode": "36502-236"
    },
    {
        "city": "Ubá",
        "state": "MG",
        "district": "Dico Teixeira",
        "street": "Rua Farmacêutico Mário Soares Teixeira",
        "zipcode": "36506-080"
    },
    {
        "city": "Ubá",
        "state": "MG",
        "district": "Residencial Pires da Luz",
        "street": "Rua Cosmo Campanha",
        "zipcode": "36506-312"
    },
    {
        "city": "Ubá",
        "state": "MG",
        "district": "Residencial Pires da Luz",
        "street": "Avenida Rubens Baião",
        "zipcode": "36506-306"
    },
    {
        "city": "Ubá",
        "state": "MG",
        "district": "Residencial Pires da Luz",
        "street": "Rua Francisco Rodrigues de Araújo",
        "zipcode": "36506-316"
    },
    {
        "city": "Ubá",
        "state": "MG",
        "district": "Santa Edwiges II",
        "street": "Avenida Elpídia da Silva Fagundes",
        "zipcode": "36505-230"
    },
    {
        "city": "Ubá",
        "state": "MG",
        "district": "São José",
        "street": "Rua Izolina Dias de Siqueira (Lot. Residencial Novo Horizonte)",
        "zipcode": "36501-168"
    }
]