[
    {
        "city": "Vespasiano",
        "state": "MG",
        "district": "",
        "street": "",
        "zipcode": "33200-000"
    },
    {
        "city": "Vespasiano",
        "state": "MG",
        "district": "Centro",
        "street": "Rua São Vicente 13",
        "zipcode": "33200-978"
    },
    {
        "city": "Vespasiano",
        "state": "MG",
        "district": "Centro",
        "street": "Rua João Salomão 37",
        "zipcode": "33200-979"
    },
    {
        "city": "Vespasiano",
        "state": "MG",
        "district": "Centro",
        "street": "Rua Vereador Dumas Chalita 50",
        "zipcode": "33200-970"
    },
    {
        "city": "Vespasiano",
        "state": "MG",
        "district": "Campesino",
        "street": "Rua Coronel Virgílio Machado s/n",
        "zipcode": "33200-976"
    },
    {
        "city": "Vespasiano",
        "state": "MG",
        "district": "Morro Alto",
        "street": "Avenida Coletora II 509",
        "zipcode": "33200-971"
    },
    {
        "city": "Vespasiano",
        "state": "MG",
        "district": "Centro",
        "street": "Rua Sete de Setembro",
        "zipcode": "33200-977"
    },
    {
        "city": "Vespasiano",
        "state": "MG",
        "district": "Jardim da Glória",
        "street": "Rua Jaú 107 Loja 2",
        "zipcode": "33201-970"
    },
    {
        "city": "Vespasiano",
        "state": "MG",
        "district": "Morro Alto",
        "street": "Avenida Um 550",
        "zipcode": "33200-900"
    }
]