[
    {
        "city": "Viçosa",
        "state": "MG",
        "district": "São José",
        "street": "Rua Isolina Pires",
        "zipcode": "36574-368"
    },
    {
        "city": "Viçosa",
        "state": "MG",
        "district": "Bom Jesus",
        "street": "Rua Projetada 10",
        "zipcode": "36570-370"
    },
    {
        "city": "Viçosa",
        "state": "MG",
        "district": "Inácio Martins",
        "street": "Travessa Rita de Oliveira Pimentel",
        "zipcode": "36574-278"
    },
    {
        "city": "Viçosa",
        "state": "MG",
        "district": "Acamari",
        "street": "Rua F",
        "zipcode": "36570-448"
    },
    {
        "city": "Viçosa",
        "state": "MG",
        "district": "São José",
        "street": "Rua Dona Petronila Arruda",
        "zipcode": "36574-362"
    },
    {
        "city": "Viçosa",
        "state": "MG",
        "district": "São José do Triunfo",
        "street": "Praça Luiza R. Lopes s/n",
        "zipcode": "36570-976"
    },
    {
        "city": "Viçosa",
        "state": "MG",
        "district": "Ramos",
        "street": "Praça Ramos",
        "zipcode": "36570-256"
    },
    {
        "city": "Viçosa",
        "state": "MG",
        "district": "Santa Clara",
        "street": "Avenida Vicentina Quintão de Barros",
        "zipcode": "36572-102"
    },
    {
        "city": "Viçosa",
        "state": "MG",
        "district": "Nova Viçosa",
        "street": "Rua José Rocha Santana",
        "zipcode": "36572-378"
    },
    {
        "city": "Viçosa",
        "state": "MG",
        "district": "Nova Viçosa",
        "street": "Rua Santana do Garambel",
        "zipcode": "36572-374"
    },
    {
        "city": "Viçosa",
        "state": "MG",
        "district": "Boa Vista",
        "street": "Rua Primeiro de Maio",
        "zipcode": "36574-310"
    },
    {
        "city": "Viçosa",
        "state": "MG",
        "district": "Quintas Guimarães Ferreira",
        "street": "Rua Sebastião Resende Andrade",
        "zipcode": "36570-422"
    },
    {
        "city": "Viçosa",
        "state": "MG",
        "district": "Inácio Martins",
        "street": "Rua João Pinheiro de Freitas",
        "zipcode": "36574-246"
    },
    {
        "city": "Viçosa",
        "state": "MG",
        "district": "Nova Viçosa",
        "street": "Rua José Borges Pinheiro",
        "zipcode": "36572-310"
    },
    {
        "city": "Viçosa",
        "state": "MG",
        "district": "João Braz da Costa Val",
        "street": "Rua São Geraldo",
        "zipcode": "36576-164"
    },
    {
        "city": "Viçosa",
        "state": "MG",
        "district": "Boa Vista",
        "street": "Rua Doze de Outubro",
        "zipcode": "36574-312"
    },
    {
        "city": "Viçosa",
        "state": "MG",
        "district": "Estrelas",
        "street": "Rua Alípio Peres",
        "zipcode": "36572-232"
    },
    {
        "city": "Viçosa",
        "state": "MG",
        "district": "Vau Açu",
        "street": "Rua Dona Amélia",
        "zipcode": "36574-338"
    },
    {
        "city": "Viçosa",
        "state": "MG",
        "district": "Centro",
        "street": "Beco Um",
        "zipcode": "36570-115"
    },
    {
        "city": "Viçosa",
        "state": "MG",
        "district": "Centro",
        "street": "Praça Doutor Cristóvão Lopes Carvalho",
        "zipcode": "36570-091"
    },
    {
        "city": "Viçosa",
        "state": "MG",
        "district": "São Sebastião",
        "street": "Avenida das Arábias",
        "zipcode": "36574-090"
    },
    {
        "city": "Viçosa",
        "state": "MG",
        "district": "Fátima",
        "street": "Beco José Maria",
        "zipcode": "36572-180"
    },
    {
        "city": "Viçosa",
        "state": "MG",
        "district": "Silvestre",
        "street": "Avenida Coronel Aristides Bittencourt",
        "zipcode": "36576-356"
    },
    {
        "city": "Viçosa",
        "state": "MG",
        "district": "Ramos",
        "street": "Praça Antônio Augusto de Araújo",
        "zipcode": "36570-252"
    },
    {
        "city": "Viçosa",
        "state": "MG",
        "district": "Clélia Bernardes",
        "street": "Praça João da Costa Dias",
        "zipcode": "36570-292"
    },
    {
        "city": "Viçosa",
        "state": "MG",
        "district": "Lourdes",
        "street": "Praça Abdala Simão",
        "zipcode": "36572-018"
    },
    {
        "city": "Viçosa",
        "state": "MG",
        "district": "Fátima",
        "street": "Avenida Bruno Martinho",
        "zipcode": "36572-122"
    },
    {
        "city": "Viçosa",
        "state": "MG",
        "district": "Centro",
        "street": "Avenida Peter Henry Rolfs",
        "zipcode": "36570-087"
    },
    {
        "city": "Viçosa",
        "state": "MG",
        "district": "Vereda do Bosque",
        "street": "Rua Alex Doroffef",
        "zipcode": "36570-174"
    },
    {
        "city": "Viçosa",
        "state": "MG",
        "district": "Inconfidência",
        "street": "Avenida dos Inconfidentes",
        "zipcode": "36576-280"
    },
    {
        "city": "Viçosa",
        "state": "MG",
        "district": "Silvestre",
        "street": "Avenida Maria de Paula Santana",
        "zipcode": "36576-340"
    },
    {
        "city": "Viçosa",
        "state": "MG",
        "district": "Novo Silvestre",
        "street": "Avenida Professor Cid Martins Batista",
        "zipcode": "36576-406"
    },
    {
        "city": "Viçosa",
        "state": "MG",
        "district": "Vereda do Bosque",
        "street": "Alameda Roystonea",
        "zipcode": "36570-188"
    },
    {
        "city": "Viçosa",
        "state": "MG",
        "district": "Centro",
        "street": "Avenida Bueno Brandão",
        "zipcode": "36570-047"
    },
    {
        "city": "Viçosa",
        "state": "MG",
        "district": "Centro",
        "street": "Alameda Barquete Jorge",
        "zipcode": "36570-067"
    },
    {
        "city": "Viçosa",
        "state": "MG",
        "district": "Centro",
        "street": "Avenida Bueno Brandão",
        "zipcode": "36570-970"
    },
    {
        "city": "Viçosa",
        "state": "MG",
        "district": "Nova Viçosa",
        "street": "Rua Antônio Júlio",
        "zipcode": "36572-436"
    },
    {
        "city": "Viçosa",
        "state": "MG",
        "district": "João Mariano",
        "street": "Beco João Mariano",
        "zipcode": "36574-170"
    },
    {
        "city": "Viçosa",
        "state": "MG",
        "district": "Centro",
        "street": "Praça Emílio Jardim",
        "zipcode": "36570-041"
    },
    {
        "city": "Viçosa",
        "state": "MG",
        "district": "Arduíno Bolívar",
        "street": "Rua do Contorno",
        "zipcode": "36574-340"
    },
    {
        "city": "Viçosa",
        "state": "MG",
        "district": "São José",
        "street": "Rua Tieta",
        "zipcode": "36574-394"
    },
    {
        "city": "Viçosa",
        "state": "MG",
        "district": "Centro",
        "street": "Praça Mário Del Giudice",
        "zipcode": "36570-049"
    },
    {
        "city": "Viçosa",
        "state": "MG",
        "district": "Centro",
        "street": "Praça Maestro Hervé Cordovil",
        "zipcode": "36570-053"
    },
    {
        "city": "Viçosa",
        "state": "MG",
        "district": "Centro",
        "street": "Avenida Presidente Humberto de Alencar Castelo Branco",
        "zipcode": "36570-073"
    },
    {
        "city": "Viçosa",
        "state": "MG",
        "district": "Centro",
        "street": "Avenida Santa Rita Centro",
        "zipcode": "36570-099"
    },
    {
        "city": "Viçosa",
        "state": "MG",
        "district": "Centro",
        "street": "Beco Dois",
        "zipcode": "36570-117"
    },
    {
        "city": "Viçosa",
        "state": "MG",
        "district": "Centro",
        "street": "Beco Três",
        "zipcode": "36570-119"
    },
    {
        "city": "Viçosa",
        "state": "MG",
        "district": "Centro",
        "street": "Beco Quatro",
        "zipcode": "36570-121"
    },
    {
        "city": "Viçosa",
        "state": "MG",
        "district": "Sagrados Corações",
        "street": "Avenida Brasil",
        "zipcode": "36570-140"
    },
    {
        "city": "Viçosa",
        "state": "MG",
        "district": "Clélia Bernardes",
        "street": "Avenida Olívia de Castro Almeida",
        "zipcode": "36570-280"
    },
    {
        "city": "Viçosa",
        "state": "MG",
        "district": "Bom Jesus",
        "street": "Beco Santo Antônio",
        "zipcode": "36570-352"
    },
    {
        "city": "Viçosa",
        "state": "MG",
        "district": "Lourdes",
        "street": "Avenida Bernardes Filho",
        "zipcode": "36572-016"
    },
    {
        "city": "Viçosa",
        "state": "MG",
        "district": "Santa Clara",
        "street": "Praça Levindo Coelho",
        "zipcode": "36572-084"
    },
    {
        "city": "Viçosa",
        "state": "MG",
        "district": "Santa Clara",
        "street": "Rua Adezílio Bicalho",
        "zipcode": "36572-112"
    },
    {
        "city": "Viçosa",
        "state": "MG",
        "district": "Fátima",
        "street": "Praça José Santana",
        "zipcode": "36572-186"
    },
    {
        "city": "Viçosa",
        "state": "MG",
        "district": "Fátima",
        "street": "Rua Antônio Cesário Fialho",
        "zipcode": "36572-188"
    },
    {
        "city": "Viçosa",
        "state": "MG",
        "district": "Sagrada Família",
        "street": "Rua Alagoas",
        "zipcode": "36572-218"
    },
    {
        "city": "Viçosa",
        "state": "MG",
        "district": "Nova Viçosa",
        "street": "Rua Antônio Ferreira da Silva",
        "zipcode": "36572-304"
    },
    {
        "city": "Viçosa",
        "state": "MG",
        "district": "Nova Era",
        "street": "Rua Alino Correia Borges",
        "zipcode": "36574-188"
    },
    {
        "city": "Viçosa",
        "state": "MG",
        "district": "Nova Era",
        "street": "Rua Amador Bezerra Rego",
        "zipcode": "36574-202"
    },
    {
        "city": "Viçosa",
        "state": "MG",
        "district": "Vau Açu",
        "street": "Avenida Gumercindo Iglesias",
        "zipcode": "36574-320"
    },
    {
        "city": "Viçosa",
        "state": "MG",
        "district": "São José",
        "street": "Beco Santo Agostinho",
        "zipcode": "36574-392"
    },
    {
        "city": "Viçosa",
        "state": "MG",
        "district": "Nova Viçosa",
        "street": "Avenida Agenor Pires Dantas",
        "zipcode": "36572-362"
    },
    {
        "city": "Viçosa",
        "state": "MG",
        "district": "Santo Antônio",
        "street": "Avenida Joaquim Lopes de Faria",
        "zipcode": "36576-001"
    },
    {
        "city": "Viçosa",
        "state": "MG",
        "district": "Santo Antônio",
        "street": "Avenida Presidente Humberto de Alencar Castelo Branco",
        "zipcode": "36576-042"
    },
    {
        "city": "Viçosa",
        "state": "MG",
        "district": "Santo Antônio",
        "street": "Avenida Maria de Paula Santana",
        "zipcode": "36576-056"
    },
    {
        "city": "Viçosa",
        "state": "MG",
        "district": "João Braz da Costa Val",
        "street": "Avenida Maria de Paula Santana",
        "zipcode": "36576-178"
    },
    {
        "city": "Viçosa",
        "state": "MG",
        "district": "Área Rural de Viçosa",
        "street": "Área Rural",
        "zipcode": "36578-899"
    },
    {
        "city": "Viçosa",
        "state": "MG",
        "district": "Silvestre",
        "street": "Rua Alex Doroffef",
        "zipcode": "36576-366"
    },
    {
        "city": "Viçosa",
        "state": "MG",
        "district": "Parque do Ipê",
        "street": "Rua Aléa do Otti",
        "zipcode": "36576-300"
    },
    {
        "city": "Viçosa",
        "state": "MG",
        "district": "Nova Viçosa",
        "street": "Rua Adília Marques Parreiras",
        "zipcode": "36572-398"
    },
    {
        "city": "Viçosa",
        "state": "MG",
        "district": "Centro",
        "street": "Praça W",
        "zipcode": "36570-133"
    },
    {
        "city": "Viçosa",
        "state": "MG",
        "district": "Centro",
        "street": "Praça Silviano Brandão.",
        "zipcode": "36570-035"
    },
    {
        "city": "Viçosa",
        "state": "MG",
        "district": "Nova Era",
        "street": "Beco do Adão",
        "zipcode": "36574-194"
    },
    {
        "city": "Viçosa",
        "state": "MG",
        "district": "Centro",
        "street": "Rua Ana Koester",
        "zipcode": "36570-127"
    },
    {
        "city": "Viçosa",
        "state": "MG",
        "district": "Sagrados Corações",
        "street": "Rua Cimba Trigueira Jacebá",
        "zipcode": "36570-142"
    },
    {
        "city": "Viçosa",
        "state": "MG",
        "district": "Jardins do Vale",
        "street": "Rua Alice Ferreira Mendes",
        "zipcode": "36570-464"
    },
    {
        "city": "Viçosa",
        "state": "MG",
        "district": "Fátima",
        "street": "Rua Didico Bonicontro",
        "zipcode": "36572-152"
    },
    {
        "city": "Viçosa",
        "state": "MG",
        "district": "Estrelas",
        "street": "Rua do Conforto",
        "zipcode": "36572-236"
    },
    {
        "city": "Viçosa",
        "state": "MG",
        "district": "Nova Viçosa",
        "street": "Rua Alípio Augusto",
        "zipcode": "36572-396"
    },
    {
        "city": "Viçosa",
        "state": "MG",
        "district": "Vale do Sol",
        "street": "Avenida do Contorno",
        "zipcode": "36574-140"
    },
    {
        "city": "Viçosa",
        "state": "MG",
        "district": "Bela Vista",
        "street": "Rua Ana Cardoso Machado",
        "zipcode": "36570-216"
    },
    {
        "city": "Viçosa",
        "state": "MG",
        "district": "Bom Jesus",
        "street": "Rua Antônio de Pádua Santana",
        "zipcode": "36570-342"
    },
    {
        "city": "Viçosa",
        "state": "MG",
        "district": "Bom Jesus",
        "street": "Rua Alice Moreira Pinheiro",
        "zipcode": "36570-350"
    },
    {
        "city": "Viçosa",
        "state": "MG",
        "district": "Acamari",
        "street": "Rua A",
        "zipcode": "36570-440"
    },
    {
        "city": "Viçosa",
        "state": "MG",
        "district": "Nova Viçosa",
        "street": "Rua Alexandre Ferreira da Silva",
        "zipcode": "36572-420"
    },
    {
        "city": "Viçosa",
        "state": "MG",
        "district": "São Francisco de Assis",
        "street": "Rua Alexandre Miguel Said Aad",
        "zipcode": "36574-038"
    },
    {
        "city": "Viçosa",
        "state": "MG",
        "district": "São Francisco de Assis",
        "street": "Rua Aníbal Pereira Santiago",
        "zipcode": "36574-056"
    },
    {
        "city": "Viçosa",
        "state": "MG",
        "district": "Fuad Chequer",
        "street": "Rua Anita Chequer",
        "zipcode": "36574-134"
    },
    {
        "city": "Viçosa",
        "state": "MG",
        "district": "Inácio Martins",
        "street": "Rua Alaíde Josafá Pinheiro",
        "zipcode": "36574-234"
    },
    {
        "city": "Viçosa",
        "state": "MG",
        "district": "Inácio Martins",
        "street": "Rua Antônio Ivo Valente",
        "zipcode": "36574-258"
    },
    {
        "city": "Viçosa",
        "state": "MG",
        "district": "Barrinha",
        "street": "Rua Alexina Maria do Carmo",
        "zipcode": "36574-442"
    },
    {
        "city": "Viçosa",
        "state": "MG",
        "district": "Centro",
        "street": "Rua Antônio Vitim",
        "zipcode": "36570-025"
    },
    {
        "city": "Viçosa",
        "state": "MG",
        "district": "Centro",
        "street": "Rua Arthur Bernardes",
        "zipcode": "36570-061"
    },
    {
        "city": "Viçosa",
        "state": "MG",
        "district": "Centro",
        "street": "Rua Cesar Santana",
        "zipcode": "36570-083"
    },
    {
        "city": "Viçosa",
        "state": "MG",
        "district": "Centro",
        "street": "Rua Carmita Pacheco",
        "zipcode": "36570-095"
    },
    {
        "city": "Viçosa",
        "state": "MG",
        "district": "Sagrados Corações",
        "street": "Rua Antônio Dias",
        "zipcode": "36570-150"
    },
    {
        "city": "Viçosa",
        "state": "MG",
        "district": "Ramos",
        "street": "Rua Antônio Santana Gomide",
        "zipcode": "36570-232"
    },
    {
        "city": "Viçosa",
        "state": "MG",
        "district": "Ramos",
        "street": "Rua Carlos Pinto",
        "zipcode": "36570-234"
    },
    {
        "city": "Viçosa",
        "state": "MG",
        "district": "Bom Jesus",
        "street": "Rua Castrolino Assis Castro",
        "zipcode": "36570-366"
    },
    {
        "city": "Viçosa",
        "state": "MG",
        "district": "Acamari",
        "street": "Rua B",
        "zipcode": "36570-442"
    },
    {
        "city": "Viçosa",
        "state": "MG",
        "district": "Acamari",
        "street": "Rua D",
        "zipcode": "36570-444"
    },
    {
        "city": "Viçosa",
        "state": "MG",
        "district": "Acamari",
        "street": "Rua C",
        "zipcode": "36570-446"
    },
    {
        "city": "Viçosa",
        "state": "MG",
        "district": "Lourdes",
        "street": "Rua Agnelo Gomes da Silva",
        "zipcode": "36572-002"
    },
    {
        "city": "Viçosa",
        "state": "MG",
        "district": "Lourdes",
        "street": "Rua Clovis Clodoveu de Castro",
        "zipcode": "36572-020"
    },
    {
        "city": "Viçosa",
        "state": "MG",
        "district": "Betânia",
        "street": "Rua Capitão Arnaldo",
        "zipcode": "36572-056"
    },
    {
        "city": "Viçosa",
        "state": "MG",
        "district": "Santa Clara",
        "street": "Rua Bernardino Francisco Costa",
        "zipcode": "36572-064"
    },
    {
        "city": "Viçosa",
        "state": "MG",
        "district": "Fátima",
        "street": "Rua Constantino Isidorio Neves",
        "zipcode": "36572-140"
    },
    {
        "city": "Viçosa",
        "state": "MG",
        "district": "Fátima",
        "street": "Rua Brasiliana",
        "zipcode": "36572-144"
    },
    {
        "city": "Viçosa",
        "state": "MG",
        "district": "Fátima",
        "street": "Rua Cristóvão Longuinho Santana",
        "zipcode": "36572-176"
    },
    {
        "city": "Viçosa",
        "state": "MG",
        "district": "Conceição",
        "street": "Rua Conceição",
        "zipcode": "36572-200"
    },
    {
        "city": "Viçosa",
        "state": "MG",
        "district": "Sagrada Família",
        "street": "Rua Ceará",
        "zipcode": "36572-220"
    },
    {
        "city": "Viçosa",
        "state": "MG",
        "district": "Estrelas",
        "street": "Rua das Estrelas",
        "zipcode": "36572-230"
    },
    {
        "city": "Viçosa",
        "state": "MG",
        "district": "Estrelas",
        "street": "Rua Carlos Lacerda",
        "zipcode": "36572-246"
    },
    {
        "city": "Viçosa",
        "state": "MG",
        "district": "Nova Viçosa",
        "street": "Rua Antônio Valério Pinheiro",
        "zipcode": "36572-300"
    },
    {
        "city": "Viçosa",
        "state": "MG",
        "district": "Nova Viçosa",
        "street": "Rua Assad Nazar",
        "zipcode": "36572-382"
    },
    {
        "city": "Viçosa",
        "state": "MG",
        "district": "São Francisco de Assis",
        "street": "Rua Arthur Lehner de Souza",
        "zipcode": "36574-052"
    },
    {
        "city": "Viçosa",
        "state": "MG",
        "district": "Prefeito Moacir Andrade",
        "street": "Rua Abdo Mucci",
        "zipcode": "36574-290"
    },
    {
        "city": "Viçosa",
        "state": "MG",
        "district": "Prefeito Moacir Andrade",
        "street": "Rua Carlos Augusto Gouveia",
        "zipcode": "36574-298"
    },
    {
        "city": "Viçosa",
        "state": "MG",
        "district": "Santo Antônio",
        "street": "Rua Angelina Bernardes Souza Lima",
        "zipcode": "36576-024"
    },
    {
        "city": "Viçosa",
        "state": "MG",
        "district": "Bom Jesus",
        "street": "Rua Custódio Parreira",
        "zipcode": "36570-362"
    },
    {
        "city": "Viçosa",
        "state": "MG",
        "district": "Recanto da Serra",
        "street": "Rua A",
        "zipcode": "36576-220"
    },
    {
        "city": "Viçosa",
        "state": "MG",
        "district": "Centro",
        "street": "Rua Feijó Bhering",
        "zipcode": "36570-085"
    },
    {
        "city": "Viçosa",
        "state": "MG",
        "district": "Centro",
        "street": "Rua Elvira Vieira",
        "zipcode": "36570-003"
    },
    {
        "city": "Viçosa",
        "state": "MG",
        "district": "Centro",
        "street": "Rua Floriano Peixoto",
        "zipcode": "36570-043"
    },
    {
        "city": "Viçosa",
        "state": "MG",
        "district": "Bela Vista",
        "street": "Rua Emídio Aniceto Dornelas",
        "zipcode": "36570-222"
    },
    {
        "city": "Viçosa",
        "state": "MG",
        "district": "Centro",
        "street": "Rua dos Passos",
        "zipcode": "36570-005"
    },
    {
        "city": "Viçosa",
        "state": "MG",
        "district": "Nova Era",
        "street": "Rua Dom Silvério",
        "zipcode": "36574-186"
    },
    {
        "city": "Viçosa",
        "state": "MG",
        "district": "Bela Vista",
        "street": "Rua do Pintinho",
        "zipcode": "36570-210"
    },
    {
        "city": "Viçosa",
        "state": "MG",
        "district": "Bom Jesus",
        "street": "Rua Dona Luzia Duarte Pontes",
        "zipcode": "36570-326"
    },
    {
        "city": "Viçosa",
        "state": "MG",
        "district": "Lourdes",
        "street": "Rua Dona Sinhá",
        "zipcode": "36572-008"
    },
    {
        "city": "Viçosa",
        "state": "MG",
        "district": "Betânia",
        "street": "Rua Doutor Felicíssimo",
        "zipcode": "36572-050"
    },
    {
        "city": "Viçosa",
        "state": "MG",
        "district": "Conceição",
        "street": "Rua Dois Irmãos",
        "zipcode": "36572-202"
    },
    {
        "city": "Viçosa",
        "state": "MG",
        "district": "Sagrada Família",
        "street": "Rua Dona Zair Santos",
        "zipcode": "36572-210"
    },
    {
        "city": "Viçosa",
        "state": "MG",
        "district": "Nova Viçosa",
        "street": "Rua Florindo Comastre",
        "zipcode": "36572-324"
    },
    {
        "city": "Viçosa",
        "state": "MG",
        "district": "Nova Viçosa",
        "street": "Rua Deco Vidigal",
        "zipcode": "36572-338"
    },
    {
        "city": "Viçosa",
        "state": "MG",
        "district": "Morada do Sol II",
        "street": "Rua Chico Xavier",
        "zipcode": "36574-070"
    },
    {
        "city": "Viçosa",
        "state": "MG",
        "district": "Fuad Chequer",
        "street": "Rua Benjamim do Carmo",
        "zipcode": "36574-130"
    },
    {
        "city": "Viçosa",
        "state": "MG",
        "district": "Prefeito Moacir Andrade",
        "street": "Rua Alcino Parreira de Souza",
        "zipcode": "36574-296"
    },
    {
        "city": "Viçosa",
        "state": "MG",
        "district": "Barrinha",
        "street": "Rua Almiro Molica",
        "zipcode": "36574-440"
    },
    {
        "city": "Viçosa",
        "state": "MG",
        "district": "Ramos",
        "street": "Rua Doutor João Alfredo",
        "zipcode": "36570-254"
    },
    {
        "city": "Viçosa",
        "state": "MG",
        "district": "Ramos",
        "street": "Rua Elvira Santana",
        "zipcode": "36570-270"
    },
    {
        "city": "Viçosa",
        "state": "MG",
        "district": "Clélia Bernardes",
        "street": "Rua Doutor José Teotônio Pacheco",
        "zipcode": "36570-284"
    },
    {
        "city": "Viçosa",
        "state": "MG",
        "district": "Bom Jesus",
        "street": "Rua Dom Viçoso",
        "zipcode": "36570-346"
    },
    {
        "city": "Viçosa",
        "state": "MG",
        "district": "Fátima",
        "street": "Rua Egídio Santana",
        "zipcode": "36572-146"
    },
    {
        "city": "Viçosa",
        "state": "MG",
        "district": "Fátima",
        "street": "Rua Eça de Queiroz",
        "zipcode": "36572-172"
    },
    {
        "city": "Viçosa",
        "state": "MG",
        "district": "Nova Viçosa",
        "street": "Rua Cirilo da Paixão",
        "zipcode": "36572-294"
    },
    {
        "city": "Viçosa",
        "state": "MG",
        "district": "Nova Viçosa",
        "street": "Rua Aziz Alexandre",
        "zipcode": "36572-296"
    },
    {
        "city": "Viçosa",
        "state": "MG",
        "district": "Nova Viçosa",
        "street": "Rua Chotaro Shymoia",
        "zipcode": "36572-322"
    },
    {
        "city": "Viçosa",
        "state": "MG",
        "district": "Nova Viçosa",
        "street": "Rua Efigênia Soares Silva",
        "zipcode": "36572-328"
    },
    {
        "city": "Viçosa",
        "state": "MG",
        "district": "Nova Viçosa",
        "street": "Rua David Salomão",
        "zipcode": "36572-342"
    },
    {
        "city": "Viçosa",
        "state": "MG",
        "district": "Nova Viçosa",
        "street": "Rua Cláudio José Mariano da Costa",
        "zipcode": "36572-386"
    },
    {
        "city": "Viçosa",
        "state": "MG",
        "district": "Nova Viçosa",
        "street": "Rua Filomena Petrilha",
        "zipcode": "36572-418"
    },
    {
        "city": "Viçosa",
        "state": "MG",
        "district": "Maria Eugênia",
        "street": "Rua Doutor José Mayrink",
        "zipcode": "36574-026"
    },
    {
        "city": "Viçosa",
        "state": "MG",
        "district": "São Francisco de Assis",
        "street": "Rua Fernando Monteiro Rocha",
        "zipcode": "36574-034"
    },
    {
        "city": "Viçosa",
        "state": "MG",
        "district": "São Francisco de Assis",
        "street": "Rua Doutor Zilmar Sari",
        "zipcode": "36574-040"
    },
    {
        "city": "Viçosa",
        "state": "MG",
        "district": "São Francisco de Assis",
        "street": "Rua Dandara Guimarães de Almeida",
        "zipcode": "36574-046"
    },
    {
        "city": "Viçosa",
        "state": "MG",
        "district": "União",
        "street": "Rua Eurico Marangon",
        "zipcode": "36574-110"
    },
    {
        "city": "Viçosa",
        "state": "MG",
        "district": "União",
        "street": "Rua F",
        "zipcode": "36574-118"
    },
    {
        "city": "Viçosa",
        "state": "MG",
        "district": "União",
        "street": "Rua Drumont",
        "zipcode": "36574-120"
    },
    {
        "city": "Viçosa",
        "state": "MG",
        "district": "Fuad Chequer",
        "street": "Rua Cônego Modesto Paiva",
        "zipcode": "36574-136"
    },
    {
        "city": "Viçosa",
        "state": "MG",
        "district": "Vale do Sol",
        "street": "Rua E",
        "zipcode": "36574-142"
    },
    {
        "city": "Viçosa",
        "state": "MG",
        "district": "Vale do Sol",
        "street": "Rua F",
        "zipcode": "36574-144"
    },
    {
        "city": "Viçosa",
        "state": "MG",
        "district": "Vale do Sol",
        "street": "Rua Elisa Maria da Silva",
        "zipcode": "36574-164"
    },
    {
        "city": "Viçosa",
        "state": "MG",
        "district": "Nova Era",
        "street": "Rua Cirilo do Carmo",
        "zipcode": "36574-182"
    },
    {
        "city": "Viçosa",
        "state": "MG",
        "district": "Boa Vista",
        "street": "Rua Boa Vista",
        "zipcode": "36574-316"
    },
    {
        "city": "Viçosa",
        "state": "MG",
        "district": "Vau Açu",
        "street": "Rua Conceição Iglesias",
        "zipcode": "36574-336"
    },
    {
        "city": "Viçosa",
        "state": "MG",
        "district": "São José",
        "street": "Rua Dona Inês de Castro",
        "zipcode": "36574-364"
    },
    {
        "city": "Viçosa",
        "state": "MG",
        "district": "São José",
        "street": "Rua Antônio Pinto Leão",
        "zipcode": "36574-370"
    },
    {
        "city": "Viçosa",
        "state": "MG",
        "district": "São José",
        "street": "Rua Conselheiro Lafaiete",
        "zipcode": "36574-372"
    },
    {
        "city": "Viçosa",
        "state": "MG",
        "district": "São José",
        "street": "Rua Aristeu Fernandes",
        "zipcode": "36574-374"
    },
    {
        "city": "Viçosa",
        "state": "MG",
        "district": "Cidade Nova",
        "street": "Rua Assembléia",
        "zipcode": "36574-414"
    },
    {
        "city": "Viçosa",
        "state": "MG",
        "district": "Lourdes",
        "street": "Rua Capitão José Maria",
        "zipcode": "36572-001"
    },
    {
        "city": "Viçosa",
        "state": "MG",
        "district": "Bela Vista",
        "street": "Rua Francisco Sales",
        "zipcode": "36570-226"
    },
    {
        "city": "Viçosa",
        "state": "MG",
        "district": "Ramos",
        "street": "Rua Francisco Machado",
        "zipcode": "36570-244"
    },
    {
        "city": "Viçosa",
        "state": "MG",
        "district": "Bom Jesus",
        "street": "Rua Francisco Marino da Silva",
        "zipcode": "36570-368"
    },
    {
        "city": "Viçosa",
        "state": "MG",
        "district": "Acamari",
        "street": "Rua G",
        "zipcode": "36570-450"
    },
    {
        "city": "Viçosa",
        "state": "MG",
        "district": "Santa Clara",
        "street": "Rua Gabriel Brumano",
        "zipcode": "36572-072"
    },
    {
        "city": "Viçosa",
        "state": "MG",
        "district": "Santa Clara",
        "street": "Rua Ivone Lentine",
        "zipcode": "36572-076"
    },
    {
        "city": "Viçosa",
        "state": "MG",
        "district": "Fátima",
        "street": "Rua Gama",
        "zipcode": "36572-130"
    },
    {
        "city": "Viçosa",
        "state": "MG",
        "district": "Santo Antônio",
        "street": "Rua do Caju",
        "zipcode": "36576-038"
    },
    {
        "city": "Viçosa",
        "state": "MG",
        "district": "Fátima",
        "street": "Rua Geraldo Calixto",
        "zipcode": "36572-148"
    },
    {
        "city": "Viçosa",
        "state": "MG",
        "district": "Fátima",
        "street": "Rua Hélio Stanciola",
        "zipcode": "36572-150"
    },
    {
        "city": "Viçosa",
        "state": "MG",
        "district": "Fátima",
        "street": "Rua Goiânia",
        "zipcode": "36572-154"
    },
    {
        "city": "Viçosa",
        "state": "MG",
        "district": "Sagrada Família",
        "street": "Rua Goiás",
        "zipcode": "36572-222"
    },
    {
        "city": "Viçosa",
        "state": "MG",
        "district": "Nova Viçosa",
        "street": "Rua Germano de Carvalho",
        "zipcode": "36572-412"
    },
    {
        "city": "Viçosa",
        "state": "MG",
        "district": "São Sebastião",
        "street": "Rua Guarani",
        "zipcode": "36574-100"
    },
    {
        "city": "Viçosa",
        "state": "MG",
        "district": "Ramos",
        "street": "Rua Gim Ramos",
        "zipcode": "36570-258"
    },
    {
        "city": "Viçosa",
        "state": "MG",
        "district": "Bom Jesus",
        "street": "Rua Jesus Felipe",
        "zipcode": "36570-304"
    },
    {
        "city": "Viçosa",
        "state": "MG",
        "district": "Bom Jesus",
        "street": "Rua Geraldo Ribeiro",
        "zipcode": "36570-332"
    },
    {
        "city": "Viçosa",
        "state": "MG",
        "district": "Fátima",
        "street": "Rua Gersonito Serafim Mendes",
        "zipcode": "36572-134"
    },
    {
        "city": "Viçosa",
        "state": "MG",
        "district": "Estrelas",
        "street": "Rua G",
        "zipcode": "36572-260"
    },
    {
        "city": "Viçosa",
        "state": "MG",
        "district": "Nova Viçosa",
        "street": "Rua General Mourão Filho",
        "zipcode": "36572-306"
    },
    {
        "city": "Viçosa",
        "state": "MG",
        "district": "Nova Viçosa",
        "street": "Rua Francisco Elesbão de Araújo",
        "zipcode": "36572-352"
    },
    {
        "city": "Viçosa",
        "state": "MG",
        "district": "Nova Viçosa",
        "street": "Rua Geraldo Rodrigues da Cunha",
        "zipcode": "36572-354"
    },
    {
        "city": "Viçosa",
        "state": "MG",
        "district": "Nova Viçosa",
        "street": "Rua João Bosco Resende de Andrade",
        "zipcode": "36572-384"
    },
    {
        "city": "Viçosa",
        "state": "MG",
        "district": "Nova Viçosa",
        "street": "Rua Halfa Chequer",
        "zipcode": "36572-392"
    },
    {
        "city": "Viçosa",
        "state": "MG",
        "district": "Nova Viçosa",
        "street": "Rua Jacinto Gomide",
        "zipcode": "36572-430"
    },
    {
        "city": "Viçosa",
        "state": "MG",
        "district": "Nova Viçosa",
        "street": "Rua Francisco Marinho Santos Filho",
        "zipcode": "36572-434"
    },
    {
        "city": "Viçosa",
        "state": "MG",
        "district": "São Francisco de Assis",
        "street": "Rua Francisco Antônio Souza Campos",
        "zipcode": "36574-042"
    },
    {
        "city": "Viçosa",
        "state": "MG",
        "district": "São Sebastião",
        "street": "Rua Guararapes",
        "zipcode": "36574-092"
    },
    {
        "city": "Viçosa",
        "state": "MG",
        "district": "União",
        "street": "Rua G",
        "zipcode": "36574-114"
    },
    {
        "city": "Viçosa",
        "state": "MG",
        "district": "Nova Era",
        "street": "Rua Honorina de Jesus",
        "zipcode": "36574-212"
    },
    {
        "city": "Viçosa",
        "state": "MG",
        "district": "Nova Era",
        "street": "Rua Francisco de Souza Fortes",
        "zipcode": "36574-214"
    },
    {
        "city": "Viçosa",
        "state": "MG",
        "district": "Inácio Martins",
        "street": "Rua João de Souza Pimentel",
        "zipcode": "36574-286"
    },
    {
        "city": "Viçosa",
        "state": "MG",
        "district": "Vau Açu",
        "street": "Rua Francisco Marques",
        "zipcode": "36574-326"
    },
    {
        "city": "Viçosa",
        "state": "MG",
        "district": "Inácio Martins",
        "street": "Rua Irineu Tomaz de Paula",
        "zipcode": "36574-236"
    },
    {
        "city": "Viçosa",
        "state": "MG",
        "district": "Cidade Nova",
        "street": "Rua Francisco de Souza Fortes",
        "zipcode": "36574-400"
    },
    {
        "city": "Viçosa",
        "state": "MG",
        "district": "Cidade Nova",
        "street": "Rua Benjamim de Oliveira",
        "zipcode": "36574-410"
    },
    {
        "city": "Viçosa",
        "state": "MG",
        "district": "Barrinha",
        "street": "Rua Ignácia de Oliveira Amaral",
        "zipcode": "36574-436"
    },
    {
        "city": "Viçosa",
        "state": "MG",
        "district": "Santo Antônio",
        "street": "Rua Formiga",
        "zipcode": "36576-002"
    },
    {
        "city": "Viçosa",
        "state": "MG",
        "district": "Santo Antônio",
        "street": "Rua João Batista de Oliveira",
        "zipcode": "36576-006"
    },
    {
        "city": "Viçosa",
        "state": "MG",
        "district": "Santo Antônio",
        "street": "Rua Doutor Emerick",
        "zipcode": "36576-012"
    },
    {
        "city": "Viçosa",
        "state": "MG",
        "district": "Santo Antônio",
        "street": "Rua Dona Mariquinha Maciel",
        "zipcode": "36576-022"
    },
    {
        "city": "Viçosa",
        "state": "MG",
        "district": "Santo Antônio",
        "street": "Rua Cajuri",
        "zipcode": "36576-064"
    },
    {
        "city": "Viçosa",
        "state": "MG",
        "district": "Santo Antônio",
        "street": "Rua João Batista da Costa",
        "zipcode": "36576-080"
    },
    {
        "city": "Viçosa",
        "state": "MG",
        "district": "Santo Antônio",
        "street": "Rua Eloy Saraiva",
        "zipcode": "36576-086"
    },
    {
        "city": "Viçosa",
        "state": "MG",
        "district": "Santo Antônio",
        "street": "Rua Chiquito Frontino",
        "zipcode": "36576-114"
    },
    {
        "city": "Viçosa",
        "state": "MG",
        "district": "Júlia Mollá",
        "street": "Rua Dalva Barduni Borges",
        "zipcode": "36576-148"
    },
    {
        "city": "Viçosa",
        "state": "MG",
        "district": "João Braz da Costa Val",
        "street": "Rua Coimbra",
        "zipcode": "36576-168"
    },
    {
        "city": "Viçosa",
        "state": "MG",
        "district": "João Braz da Costa Val",
        "street": "Rua Cristóvão Colombo",
        "zipcode": "36576-184"
    },
    {
        "city": "Viçosa",
        "state": "MG",
        "district": "Recanto da Serra",
        "street": "Rua C",
        "zipcode": "36576-224"
    },
    {
        "city": "Viçosa",
        "state": "MG",
        "district": "Recanto da Serra",
        "street": "Rua D",
        "zipcode": "36576-226"
    },
    {
        "city": "Viçosa",
        "state": "MG",
        "district": "Inconfidência",
        "street": "Rua Bárbara Heliodora",
        "zipcode": "36576-284"
    },
    {
        "city": "Viçosa",
        "state": "MG",
        "district": "Silvestre",
        "street": "Rua Camilo Rosa de Oliveira",
        "zipcode": "36576-342"
    },
    {
        "city": "Viçosa",
        "state": "MG",
        "district": "Nova Viçosa",
        "street": "Rua Joaquim Moreira",
        "zipcode": "36572-400"
    },
    {
        "city": "Viçosa",
        "state": "MG",
        "district": "Nova Viçosa",
        "street": "Rua José de Oliveira Andrade",
        "zipcode": "36572-440"
    },
    {
        "city": "Viçosa",
        "state": "MG",
        "district": "Vereda do Bosque",
        "street": "Rua José Filomeno Gouveia",
        "zipcode": "36570-178"
    },
    {
        "city": "Viçosa",
        "state": "MG",
        "district": "Vereda do Bosque",
        "street": "Rua Jorge Theotônio Teixeira",
        "zipcode": "36570-186"
    },
    {
        "city": "Viçosa",
        "state": "MG",
        "district": "Ramos",
        "street": "Rua José Almeida Ramos",
        "zipcode": "36570-260"
    },
    {
        "city": "Viçosa",
        "state": "MG",
        "district": "Bom Jesus",
        "street": "Rua José Lopes de Oliveira",
        "zipcode": "36570-340"
    },
    {
        "city": "Viçosa",
        "state": "MG",
        "district": "Betânia",
        "street": "Rua Joaquim Francisco de Souza",
        "zipcode": "36572-046"
    },
    {
        "city": "Viçosa",
        "state": "MG",
        "district": "Santa Clara",
        "street": "Rua José Euclides Santana",
        "zipcode": "36572-108"
    },
    {
        "city": "Viçosa",
        "state": "MG",
        "district": "Nova Viçosa",
        "street": "Rua José Borges Santana",
        "zipcode": "36572-368"
    },
    {
        "city": "Viçosa",
        "state": "MG",
        "district": "Nova Viçosa",
        "street": "Rua José Dias Duarte",
        "zipcode": "36572-372"
    },
    {
        "city": "Viçosa",
        "state": "MG",
        "district": "Centro",
        "street": "Rua José da Cruz Reis",
        "zipcode": "36570-071"
    },
    {
        "city": "Viçosa",
        "state": "MG",
        "district": "Centro",
        "street": "Rua José Antônio Rodrigues",
        "zipcode": "36570-077"
    },
    {
        "city": "Viçosa",
        "state": "MG",
        "district": "Sagrados Corações",
        "street": "Rua José Carlos Dias",
        "zipcode": "36570-144"
    },
    {
        "city": "Viçosa",
        "state": "MG",
        "district": "Bom Jesus",
        "street": "Rua José Antônio Pontes",
        "zipcode": "36570-338"
    },
    {
        "city": "Viçosa",
        "state": "MG",
        "district": "Bom Jesus",
        "street": "Rua José Damásio de Arruda",
        "zipcode": "36570-372"
    },
    {
        "city": "Viçosa",
        "state": "MG",
        "district": "Rua Nova",
        "street": "Rua João Gregório dos Santos",
        "zipcode": "36570-400"
    },
    {
        "city": "Viçosa",
        "state": "MG",
        "district": "Rua Nova",
        "street": "Rua José de Castro",
        "zipcode": "36570-404"
    },
    {
        "city": "Viçosa",
        "state": "MG",
        "district": "Quintas Guimarães Ferreira",
        "street": "Rua João Lopes Rosado",
        "zipcode": "36570-420"
    },
    {
        "city": "Viçosa",
        "state": "MG",
        "district": "Lourdes",
        "street": "Rua João Maffia",
        "zipcode": "36572-024"
    },
    {
        "city": "Viçosa",
        "state": "MG",
        "district": "Santa Clara",
        "street": "Rua José Dias do Carmo",
        "zipcode": "36572-070"
    },
    {
        "city": "Viçosa",
        "state": "MG",
        "district": "Santa Clara",
        "street": "Rua José Guimarães de Souza",
        "zipcode": "36572-080"
    },
    {
        "city": "Viçosa",
        "state": "MG",
        "district": "Santa Clara",
        "street": "Rua José de Freitas Filho",
        "zipcode": "36572-100"
    },
    {
        "city": "Viçosa",
        "state": "MG",
        "district": "Fátima",
        "street": "Rua José de Alencar",
        "zipcode": "36572-170"
    },
    {
        "city": "Viçosa",
        "state": "MG",
        "district": "Estrelas",
        "street": "Rua José Guy da Costa",
        "zipcode": "36572-234"
    },
    {
        "city": "Viçosa",
        "state": "MG",
        "district": "Nova Viçosa",
        "street": "Rua José Cassimiro da Silva",
        "zipcode": "36572-334"
    },
    {
        "city": "Viçosa",
        "state": "MG",
        "district": "Nova Viçosa",
        "street": "Rua José Lopes de Carvalho",
        "zipcode": "36572-370"
    },
    {
        "city": "Viçosa",
        "state": "MG",
        "district": "Nova Viçosa",
        "street": "Rua José Augusto de Castro",
        "zipcode": "36572-442"
    },
    {
        "city": "Viçosa",
        "state": "MG",
        "district": "Nova Viçosa",
        "street": "Rua José Gregório",
        "zipcode": "36572-444"
    },
    {
        "city": "Viçosa",
        "state": "MG",
        "district": "JK",
        "street": "Rua João Valadares Gomes",
        "zipcode": "36574-004"
    },
    {
        "city": "Viçosa",
        "state": "MG",
        "district": "Prefeito Moacir Andrade",
        "street": "Rua Jornalista Fernando Ribeiro",
        "zipcode": "36574-292"
    },
    {
        "city": "Viçosa",
        "state": "MG",
        "district": "São José",
        "street": "Rua João Ludugerio Miranda",
        "zipcode": "36574-384"
    },
    {
        "city": "Viçosa",
        "state": "MG",
        "district": "Barrinha",
        "street": "Rua José Edmar Amaral",
        "zipcode": "36574-420"
    },
    {
        "city": "Viçosa",
        "state": "MG",
        "district": "Barrinha",
        "street": "Rua Joaquim Paulino Mariano",
        "zipcode": "36574-428"
    },
    {
        "city": "Viçosa",
        "state": "MG",
        "district": "Barrinha",
        "street": "Rua José Garcia Filho",
        "zipcode": "36574-450"
    },
    {
        "city": "Viçosa",
        "state": "MG",
        "district": "Bom Jesus",
        "street": "Rua Joaquim Castro Rocha de Oliveira",
        "zipcode": "36570-322"
    },
    {
        "city": "Viçosa",
        "state": "MG",
        "district": "Bom Jesus",
        "street": "Rua José de Castro Cardoso",
        "zipcode": "36570-374"
    },
    {
        "city": "Viçosa",
        "state": "MG",
        "district": "Santo Antônio",
        "street": "Rua Duque de Caxias",
        "zipcode": "36576-088"
    },
    {
        "city": "Viçosa",
        "state": "MG",
        "district": "Santo Antônio",
        "street": "Rua José Manoel Cabral",
        "zipcode": "36576-092"
    },
    {
        "city": "Viçosa",
        "state": "MG",
        "district": "Santo Antônio",
        "street": "Rua Dona Boneca",
        "zipcode": "36576-094"
    },
    {
        "city": "Viçosa",
        "state": "MG",
        "district": "Santo Antônio",
        "street": "Rua Janaína",
        "zipcode": "36576-100"
    },
    {
        "city": "Viçosa",
        "state": "MG",
        "district": "Santo Antônio",
        "street": "Rua Hélio de Souza Lima",
        "zipcode": "36576-102"
    },
    {
        "city": "Viçosa",
        "state": "MG",
        "district": "Santo Antônio",
        "street": "Rua Dona Mariinha",
        "zipcode": "36576-112"
    },
    {
        "city": "Viçosa",
        "state": "MG",
        "district": "Santo Antônio",
        "street": "Rua Israel Pinheiro",
        "zipcode": "36576-118"
    },
    {
        "city": "Viçosa",
        "state": "MG",
        "district": "Júlia Mollá",
        "street": "Rua H",
        "zipcode": "36576-136"
    },
    {
        "city": "Viçosa",
        "state": "MG",
        "district": "Júlia Mollá",
        "street": "Rua E2",
        "zipcode": "36576-142"
    },
    {
        "city": "Viçosa",
        "state": "MG",
        "district": "Júlia Mollá",
        "street": "Rua E1",
        "zipcode": "36576-144"
    },
    {
        "city": "Viçosa",
        "state": "MG",
        "district": "João Braz da Costa Val",
        "street": "Rua Jequeri",
        "zipcode": "36576-166"
    },
    {
        "city": "Viçosa",
        "state": "MG",
        "district": "Violeira",
        "street": "Rua Irene Soares de Freitas",
        "zipcode": "36576-232"
    },
    {
        "city": "Viçosa",
        "state": "MG",
        "district": "Liberdade 1",
        "street": "Rua Expedito da Paixão",
        "zipcode": "36576-260"
    },
    {
        "city": "Viçosa",
        "state": "MG",
        "district": "Parque do Ipê",
        "street": "Rua Dois",
        "zipcode": "36576-302"
    },
    {
        "city": "Viçosa",
        "state": "MG",
        "district": "Silvestre",
        "street": "Rua Emílio Nassif",
        "zipcode": "36576-374"
    },
    {
        "city": "Viçosa",
        "state": "MG",
        "district": "Ramos",
        "street": "Rua Juquinha Brumano",
        "zipcode": "36570-268"
    },
    {
        "city": "Viçosa",
        "state": "MG",
        "district": "Bom Jesus",
        "street": "Rua José Rigueira Filho",
        "zipcode": "36570-318"
    },
    {
        "city": "Viçosa",
        "state": "MG",
        "district": "Bom Jesus",
        "street": "Rua Lúcia Mota",
        "zipcode": "36570-330"
    },
    {
        "city": "Viçosa",
        "state": "MG",
        "district": "Bom Jesus",
        "street": "Rua José Romualdo de Lima",
        "zipcode": "36570-376"
    },
    {
        "city": "Viçosa",
        "state": "MG",
        "district": "Betânia",
        "street": "Rua Madre Maria das Neves",
        "zipcode": "36572-040"
    },
    {
        "city": "Viçosa",
        "state": "MG",
        "district": "Santa Clara",
        "street": "Rua José Schitini Rubim",
        "zipcode": "36572-062"
    },
    {
        "city": "Viçosa",
        "state": "MG",
        "district": "Santa Clara",
        "street": "Rua José Sabino Alves",
        "zipcode": "36572-066"
    },
    {
        "city": "Viçosa",
        "state": "MG",
        "district": "Santa Clara",
        "street": "Rua José Silva Lima",
        "zipcode": "36572-078"
    },
    {
        "city": "Viçosa",
        "state": "MG",
        "district": "Centro",
        "street": "Rua Padre Serafim",
        "zipcode": "36570-093"
    },
    {
        "city": "Viçosa",
        "state": "MG",
        "district": "Bom Jesus",
        "street": "Rua Manoel Clemente",
        "zipcode": "36570-336"
    },
    {
        "city": "Viçosa",
        "state": "MG",
        "district": "Nova Viçosa",
        "street": "Rua José Rocha Filho",
        "zipcode": "36572-332"
    },
    {
        "city": "Viçosa",
        "state": "MG",
        "district": "Lourdes",
        "street": "Rua Maestro João Salgado Amorim",
        "zipcode": "36572-028"
    },
    {
        "city": "Viçosa",
        "state": "MG",
        "district": "Fátima",
        "street": "Rua Machado de Assis",
        "zipcode": "36572-166"
    },
    {
        "city": "Viçosa",
        "state": "MG",
        "district": "Estrelas",
        "street": "Rua Maria Barbosa Santos",
        "zipcode": "36572-268"
    },
    {
        "city": "Viçosa",
        "state": "MG",
        "district": "Nova Viçosa",
        "street": "Rua Maria Aparecida do Carmo",
        "zipcode": "36572-284"
    },
    {
        "city": "Viçosa",
        "state": "MG",
        "district": "Nova Viçosa",
        "street": "Rua Maria Aparecida Santana",
        "zipcode": "36572-286"
    },
    {
        "city": "Viçosa",
        "state": "MG",
        "district": "Nova Viçosa",
        "street": "Rua Maria Clementina Ladeira",
        "zipcode": "36572-302"
    },
    {
        "city": "Viçosa",
        "state": "MG",
        "district": "Nova Viçosa",
        "street": "Rua José Soares Silva",
        "zipcode": "36572-314"
    },
    {
        "city": "Viçosa",
        "state": "MG",
        "district": "Nova Viçosa",
        "street": "Rua José Mendes Cardoso",
        "zipcode": "36572-320"
    },
    {
        "city": "Viçosa",
        "state": "MG",
        "district": "Nova Viçosa",
        "street": "Rua Maria Arcanjo Chagas",
        "zipcode": "36572-376"
    },
    {
        "city": "Viçosa",
        "state": "MG",
        "district": "Nova Viçosa",
        "street": "Rua Louis Mitchel",
        "zipcode": "36572-390"
    },
    {
        "city": "Viçosa",
        "state": "MG",
        "district": "Nova Viçosa",
        "street": "Rua José Mendes Ferreira",
        "zipcode": "36572-424"
    },
    {
        "city": "Viçosa",
        "state": "MG",
        "district": "Nova Viçosa",
        "street": "Rua Maria Caetano",
        "zipcode": "36572-448"
    },
    {
        "city": "Viçosa",
        "state": "MG",
        "district": "JK",
        "street": "Rua Márcio Araújo",
        "zipcode": "36574-008"
    },
    {
        "city": "Viçosa",
        "state": "MG",
        "district": "São Francisco de Assis",
        "street": "Rua Maria da Conceição Araújo",
        "zipcode": "36574-050"
    },
    {
        "city": "Viçosa",
        "state": "MG",
        "district": "Vale do Sol",
        "street": "Rua Manoelita Lopes da Silva",
        "zipcode": "36574-158"
    },
    {
        "city": "Viçosa",
        "state": "MG",
        "district": "Inácio Martins",
        "street": "Rua Luiz Pimentel",
        "zipcode": "36574-240"
    },
    {
        "city": "Viçosa",
        "state": "MG",
        "district": "Inácio Martins",
        "street": "Rua José Soares Valente",
        "zipcode": "36574-250"
    },
    {
        "city": "Viçosa",
        "state": "MG",
        "district": "Inácio Martins",
        "street": "Rua Luiz Antônio Vieira",
        "zipcode": "36574-252"
    },
    {
        "city": "Viçosa",
        "state": "MG",
        "district": "São José",
        "street": "Rua Manuel Venutte",
        "zipcode": "36574-360"
    },
    {
        "city": "Viçosa",
        "state": "MG",
        "district": "Cidade Nova",
        "street": "Rua Luiz Pimentel",
        "zipcode": "36574-408"
    },
    {
        "city": "Viçosa",
        "state": "MG",
        "district": "Barrinha",
        "street": "Rua José Milton Amaral",
        "zipcode": "36574-426"
    },
    {
        "city": "Viçosa",
        "state": "MG",
        "district": "Barrinha",
        "street": "Rua Lourdes de Freitas Castro",
        "zipcode": "36574-452"
    },
    {
        "city": "Viçosa",
        "state": "MG",
        "district": "Santo Antônio",
        "street": "Rua José Simeão da Cunha",
        "zipcode": "36576-020"
    },
    {
        "city": "Viçosa",
        "state": "MG",
        "district": "Santo Antônio",
        "street": "Rua Laura Freitas Ribeiro",
        "zipcode": "36576-034"
    },
    {
        "city": "Viçosa",
        "state": "MG",
        "district": "Santo Antônio",
        "street": "Rua Marcos Rodrigues de Arruda",
        "zipcode": "36576-036"
    },
    {
        "city": "Viçosa",
        "state": "MG",
        "district": "Santo Antônio",
        "street": "Rua José Timóteo Silva",
        "zipcode": "36576-040"
    },
    {
        "city": "Viçosa",
        "state": "MG",
        "district": "Santo Antônio",
        "street": "Rua Maria Célia Gonçalves Faustino",
        "zipcode": "36576-084"
    },
    {
        "city": "Viçosa",
        "state": "MG",
        "district": "Santo Antônio",
        "street": "Rua José Soares",
        "zipcode": "36576-090"
    },
    {
        "city": "Viçosa",
        "state": "MG",
        "district": "Santo Antônio",
        "street": "Rua Juquinha de Paula",
        "zipcode": "36576-106"
    },
    {
        "city": "Viçosa",
        "state": "MG",
        "district": "Júlia Mollá",
        "street": "Rua Juquinha Condé",
        "zipcode": "36576-134"
    },
    {
        "city": "Viçosa",
        "state": "MG",
        "district": "Violeira",
        "street": "Rua José Lopes Rosado",
        "zipcode": "36576-234"
    },
    {
        "city": "Viçosa",
        "state": "MG",
        "district": "Violeira",
        "street": "Rua Maria da Conceição Silva",
        "zipcode": "36576-236"
    },
    {
        "city": "Viçosa",
        "state": "MG",
        "district": "Violeira",
        "street": "Rua Lino Lopes Rosado",
        "zipcode": "36576-240"
    },
    {
        "city": "Viçosa",
        "state": "MG",
        "district": "Inconfidência",
        "street": "Rua Liberdade",
        "zipcode": "36576-292"
    },
    {
        "city": "Viçosa",
        "state": "MG",
        "district": "Residencial Silvestre",
        "street": "Rua José Faria",
        "zipcode": "36576-324"
    },
    {
        "city": "Viçosa",
        "state": "MG",
        "district": "Residencial Silvestre",
        "street": "Rua José Marcos Bhering",
        "zipcode": "36576-328"
    },
    {
        "city": "Viçosa",
        "state": "MG",
        "district": "Silvestre",
        "street": "Rua José Apolônio Alves",
        "zipcode": "36576-348"
    },
    {
        "city": "Viçosa",
        "state": "MG",
        "district": "Silvestre",
        "street": "Rua João Alves Moreira",
        "zipcode": "36576-372"
    },
    {
        "city": "Viçosa",
        "state": "MG",
        "district": "Silvestre",
        "street": "Rua José Inácio Vargas",
        "zipcode": "36576-376"
    },
    {
        "city": "Viçosa",
        "state": "MG",
        "district": "Silvestre",
        "street": "Rua Joaquim Alves",
        "zipcode": "36576-382"
    },
    {
        "city": "Viçosa",
        "state": "MG",
        "district": "Novo Silvestre",
        "street": "Rua Geraldo Camilo Fialho",
        "zipcode": "36576-412"
    },
    {
        "city": "Viçosa",
        "state": "MG",
        "district": "Novo Silvestre",
        "street": "Rua João Félix",
        "zipcode": "36576-420"
    },
    {
        "city": "Viçosa",
        "state": "MG",
        "district": "Sagrados Corações",
        "street": "Rua Nossa Senhora do Carmo",
        "zipcode": "36570-156"
    },
    {
        "city": "Viçosa",
        "state": "MG",
        "district": "Centro",
        "street": "Rua Santo Antônio",
        "zipcode": "36570-123"
    },
    {
        "city": "Viçosa",
        "state": "MG",
        "district": "Ramos",
        "street": "Rua Salvador DAntonino",
        "zipcode": "36570-262"
    },
    {
        "city": "Viçosa",
        "state": "MG",
        "district": "Centro",
        "street": "Rua Senador Vaz de Melo",
        "zipcode": "36570-059"
    },
    {
        "city": "Viçosa",
        "state": "MG",
        "district": "Bom Jesus",
        "street": "Rua Novo Horizonte",
        "zipcode": "36570-312"
    },
    {
        "city": "Viçosa",
        "state": "MG",
        "district": "Lourdes",
        "street": "Rua Papa João XXIII",
        "zipcode": "36572-006"
    },
    {
        "city": "Viçosa",
        "state": "MG",
        "district": "Vau Açu",
        "street": "Rua Nossa Senhora de Lourdes",
        "zipcode": "36574-328"
    },
    {
        "city": "Viçosa",
        "state": "MG",
        "district": "Belvedere",
        "street": "Rua Paulo Mário Del Giudice",
        "zipcode": "36570-200"
    },
    {
        "city": "Viçosa",
        "state": "MG",
        "district": "Belvedere",
        "street": "Rua Otávio das Silva Araújo",
        "zipcode": "36570-202"
    },
    {
        "city": "Viçosa",
        "state": "MG",
        "district": "Bela Vista",
        "street": "Rua Nossa Senhora de Fátima",
        "zipcode": "36570-218"
    },
    {
        "city": "Viçosa",
        "state": "MG",
        "district": "Ramos",
        "street": "Rua Padre Anchieta",
        "zipcode": "36570-242"
    },
    {
        "city": "Viçosa",
        "state": "MG",
        "district": "Clélia Bernardes",
        "street": "Rua Pedro Gomide Filho",
        "zipcode": "36570-288"
    },
    {
        "city": "Viçosa",
        "state": "MG",
        "district": "Bom Jesus",
        "street": "Rua Nossa Senhora das Graças",
        "zipcode": "36570-300"
    },
    {
        "city": "Viçosa",
        "state": "MG",
        "district": "Bom Jesus",
        "street": "Rua Nossa Senhora Aparecida",
        "zipcode": "36570-308"
    },
    {
        "city": "Viçosa",
        "state": "MG",
        "district": "Bom Jesus",
        "street": "Rua Oliveira",
        "zipcode": "36570-354"
    },
    {
        "city": "Viçosa",
        "state": "MG",
        "district": "Santa Clara",
        "street": "Rua Otávio Batista Coelho",
        "zipcode": "36572-074"
    },
    {
        "city": "Viçosa",
        "state": "MG",
        "district": "Sagrada Família",
        "street": "Rua Paraná",
        "zipcode": "36572-212"
    },
    {
        "city": "Viçosa",
        "state": "MG",
        "district": "Sagrada Família",
        "street": "Rua Paraíba",
        "zipcode": "36572-214"
    },
    {
        "city": "Viçosa",
        "state": "MG",
        "district": "Estrelas",
        "street": "Rua Olavo Bilac",
        "zipcode": "36572-254"
    },
    {
        "city": "Viçosa",
        "state": "MG",
        "district": "Nova Viçosa",
        "street": "Rua Nicolau Marinho",
        "zipcode": "36572-340"
    },
    {
        "city": "Viçosa",
        "state": "MG",
        "district": "JK",
        "street": "Rua Morro do Cruzeiro",
        "zipcode": "36574-001"
    },
    {
        "city": "Viçosa",
        "state": "MG",
        "district": "Maria Eugênia",
        "street": "Rua Marly Azevedo",
        "zipcode": "36574-022"
    },
    {
        "city": "Viçosa",
        "state": "MG",
        "district": "Nova Era",
        "street": "Rua Padre Antônio Pinto",
        "zipcode": "36574-204"
    },
    {
        "city": "Viçosa",
        "state": "MG",
        "district": "Nova Era",
        "street": "Rua Padre Álvaro Correa Borges",
        "zipcode": "36574-206"
    },
    {
        "city": "Viçosa",
        "state": "MG",
        "district": "Ramos",
        "street": "Rua Professor Frederico Vanetti",
        "zipcode": "36570-248"
    },
    {
        "city": "Viçosa",
        "state": "MG",
        "district": "Estrelas",
        "street": "Rua Princesa Izabel",
        "zipcode": "36572-242"
    },
    {
        "city": "Viçosa",
        "state": "MG",
        "district": "Centro",
        "street": "Rua Professor Sebastião Lopes de Carvalho",
        "zipcode": "36570-051"
    },
    {
        "city": "Viçosa",
        "state": "MG",
        "district": "Centro",
        "street": "Rua Maria Geralda Paranhos",
        "zipcode": "36570-131"
    },
    {
        "city": "Viçosa",
        "state": "MG",
        "district": "Clélia Bernardes",
        "street": "Rua Nagib Balut",
        "zipcode": "36570-298"
    },
    {
        "city": "Viçosa",
        "state": "MG",
        "district": "Romão dos Reis",
        "street": "Rua Maria Rodrigues Freitas",
        "zipcode": "36570-390"
    },
    {
        "city": "Viçosa",
        "state": "MG",
        "district": "Romão dos Reis",
        "street": "Rua Modesto Apolinário",
        "zipcode": "36570-394"
    },
    {
        "city": "Viçosa",
        "state": "MG",
        "district": "Sagrada Família",
        "street": "Rua Mato Grosso",
        "zipcode": "36572-224"
    },
    {
        "city": "Viçosa",
        "state": "MG",
        "district": "Nova Viçosa",
        "street": "Rua Marinez Alves Torres",
        "zipcode": "36572-288"
    },
    {
        "city": "Viçosa",
        "state": "MG",
        "district": "Nova Viçosa",
        "street": "Rua Maria Janotte",
        "zipcode": "36572-290"
    },
    {
        "city": "Viçosa",
        "state": "MG",
        "district": "Nova Viçosa",
        "street": "Rua Maria Muanis",
        "zipcode": "36572-388"
    },
    {
        "city": "Viçosa",
        "state": "MG",
        "district": "Inácio Martins",
        "street": "Rua Nair do Carmo Teixeira",
        "zipcode": "36574-282"
    },
    {
        "city": "Viçosa",
        "state": "MG",
        "district": "Inácio Martins",
        "street": "Rua Maura Pimentel Vieira",
        "zipcode": "36574-288"
    },
    {
        "city": "Viçosa",
        "state": "MG",
        "district": "Vau Açu",
        "street": "Rua Maria Marques",
        "zipcode": "36574-324"
    },
    {
        "city": "Viçosa",
        "state": "MG",
        "district": "Vau Açu",
        "street": "Rua Maria Maximiana",
        "zipcode": "36574-330"
    },
    {
        "city": "Viçosa",
        "state": "MG",
        "district": "Barrinha",
        "street": "Rua Padre Antônio Mendes",
        "zipcode": "36574-434"
    },
    {
        "city": "Viçosa",
        "state": "MG",
        "district": "Barrinha",
        "street": "Rua Maria Rodrigues Lehner",
        "zipcode": "36574-454"
    },
    {
        "city": "Viçosa",
        "state": "MG",
        "district": "Barrinha",
        "street": "Rua Maria Tatão de Freitas",
        "zipcode": "36574-456"
    },
    {
        "city": "Viçosa",
        "state": "MG",
        "district": "Santo Antônio",
        "street": "Rua Paris",
        "zipcode": "36576-004"
    },
    {
        "city": "Viçosa",
        "state": "MG",
        "district": "Santo Antônio",
        "street": "Rua Mário Dutra dos Santos",
        "zipcode": "36576-008"
    },
    {
        "city": "Viçosa",
        "state": "MG",
        "district": "Santo Antônio",
        "street": "Rua Nasser Simão Muanis",
        "zipcode": "36576-026"
    },
    {
        "city": "Viçosa",
        "state": "MG",
        "district": "João Braz da Costa Val",
        "street": "Rua Pedra do Anta",
        "zipcode": "36576-172"
    },
    {
        "city": "Viçosa",
        "state": "MG",
        "district": "João Braz da Costa Val",
        "street": "Rua Pero Vaz de Caminha",
        "zipcode": "36576-180"
    },
    {
        "city": "Viçosa",
        "state": "MG",
        "district": "João Braz da Costa Val",
        "street": "Rua Pedro Álvares Cabral",
        "zipcode": "36576-190"
    },
    {
        "city": "Viçosa",
        "state": "MG",
        "district": "Liberdade 1",
        "street": "Rua Olinda Martins DAntônio",
        "zipcode": "36576-264"
    },
    {
        "city": "Viçosa",
        "state": "MG",
        "district": "Residencial Silvestre",
        "street": "Rua Maria das Dores Gonçalves",
        "zipcode": "36576-322"
    },
    {
        "city": "Viçosa",
        "state": "MG",
        "district": "Silvestre",
        "street": "Rua Luiza Lopes Gouveia",
        "zipcode": "36576-350"
    },
    {
        "city": "Viçosa",
        "state": "MG",
        "district": "Silvestre",
        "street": "Rua Misael Lustosa",
        "zipcode": "36576-388"
    },
    {
        "city": "Viçosa",
        "state": "MG",
        "district": "Novo Silvestre",
        "street": "Rua Luiza Lopes Gouveia",
        "zipcode": "36576-418"
    },
    {
        "city": "Viçosa",
        "state": "MG",
        "district": "Centro",
        "street": "Travessa José Antônio Rodrigues",
        "zipcode": "36570-079"
    },
    {
        "city": "Viçosa",
        "state": "MG",
        "district": "Centro",
        "street": "Travessa José Valentino da Cruz",
        "zipcode": "36570-089"
    },
    {
        "city": "Viçosa",
        "state": "MG",
        "district": "Centro",
        "street": "Travessa Doutor Felício Brandi",
        "zipcode": "36570-097"
    },
    {
        "city": "Viçosa",
        "state": "MG",
        "district": "Sagrados Corações",
        "street": "Travessa Campo Belo",
        "zipcode": "36570-146"
    },
    {
        "city": "Viçosa",
        "state": "MG",
        "district": "Bela Vista",
        "street": "Travessa Bela Vista",
        "zipcode": "36570-220"
    },
    {
        "city": "Viçosa",
        "state": "MG",
        "district": "Ramos",
        "street": "Rua Verano Faria",
        "zipcode": "36570-238"
    },
    {
        "city": "Viçosa",
        "state": "MG",
        "district": "Ramos",
        "street": "Travessa Doutor Sílvio Romeu Cesar de Araújo",
        "zipcode": "36570-240"
    },
    {
        "city": "Viçosa",
        "state": "MG",
        "district": "Bom Jesus",
        "street": "Rua Triunfo Trindade",
        "zipcode": "36570-320"
    },
    {
        "city": "Viçosa",
        "state": "MG",
        "district": "Bom Jesus",
        "street": "Rua São Pedro",
        "zipcode": "36570-356"
    },
    {
        "city": "Viçosa",
        "state": "MG",
        "district": "Bom Jesus",
        "street": "Rua Randolfo Lopes de Faria",
        "zipcode": "36570-364"
    },
    {
        "city": "Viçosa",
        "state": "MG",
        "district": "Betânia",
        "street": "Rua Rio Doce",
        "zipcode": "36572-044"
    },
    {
        "city": "Viçosa",
        "state": "MG",
        "district": "Santa Clara",
        "street": "Rua Raul de Campos",
        "zipcode": "36572-114"
    },
    {
        "city": "Viçosa",
        "state": "MG",
        "district": "Belvedere",
        "street": "Rua Sebastião Ferreira da Silva",
        "zipcode": "36570-204"
    },
    {
        "city": "Viçosa",
        "state": "MG",
        "district": "Bom Jesus",
        "street": "Rua Senhor do Bonfim",
        "zipcode": "36570-358"
    },
    {
        "city": "Viçosa",
        "state": "MG",
        "district": "Sagrados Corações",
        "street": "Travessa Copacabana",
        "zipcode": "36570-154"
    },
    {
        "city": "Viçosa",
        "state": "MG",
        "district": "Clélia Bernardes",
        "street": "Rua Professor Carlos Socias Schlottfeldt",
        "zipcode": "36570-290"
    },
    {
        "city": "Viçosa",
        "state": "MG",
        "district": "Bom Jesus",
        "street": "Travessa Geraldo Ribeiro",
        "zipcode": "36570-334"
    },
    {
        "city": "Viçosa",
        "state": "MG",
        "district": "Lourdes",
        "street": "Rua Professor Arlindo de Paula Gonçalves",
        "zipcode": "36572-026"
    },
    {
        "city": "Viçosa",
        "state": "MG",
        "district": "Santa Clara",
        "street": "Rua Raimundo Albino Moreira",
        "zipcode": "36572-086"
    },
    {
        "city": "Viçosa",
        "state": "MG",
        "district": "Nova Viçosa",
        "street": "Rua Rahmi Curi",
        "zipcode": "36572-316"
    },
    {
        "city": "Viçosa",
        "state": "MG",
        "district": "Nova Viçosa",
        "street": "Rua Rafael da Silva Araújo",
        "zipcode": "36572-394"
    },
    {
        "city": "Viçosa",
        "state": "MG",
        "district": "Nova Viçosa",
        "street": "Rua Ricardo Alves da Silva",
        "zipcode": "36572-432"
    },
    {
        "city": "Viçosa",
        "state": "MG",
        "district": "Inácio Martins",
        "street": "Rua Rosângela Maria Vieira da Costa",
        "zipcode": "36574-254"
    },
    {
        "city": "Viçosa",
        "state": "MG",
        "district": "Inácio Martins",
        "street": "Rua Santa Edwiges",
        "zipcode": "36574-268"
    },
    {
        "city": "Viçosa",
        "state": "MG",
        "district": "Arduíno Bolívar",
        "street": "Rua São Paulo",
        "zipcode": "36574-348"
    },
    {
        "city": "Viçosa",
        "state": "MG",
        "district": "Arduíno Bolívar",
        "street": "Rua São Mateus",
        "zipcode": "36574-352"
    },
    {
        "city": "Viçosa",
        "state": "MG",
        "district": "Cidade Nova",
        "street": "Rua Quito Valente",
        "zipcode": "36574-406"
    },
    {
        "city": "Viçosa",
        "state": "MG",
        "district": "Bom Jesus",
        "street": "Rua São Vicente",
        "zipcode": "36570-348"
    },
    {
        "city": "Viçosa",
        "state": "MG",
        "district": "Fátima",
        "street": "Rua Rui Barbosa",
        "zipcode": "36572-160"
    },
    {
        "city": "Viçosa",
        "state": "MG",
        "district": "Estrelas",
        "street": "Rua São Bento",
        "zipcode": "36572-240"
    },
    {
        "city": "Viçosa",
        "state": "MG",
        "district": "Estrelas",
        "street": "Rua São Carlos",
        "zipcode": "36572-248"
    },
    {
        "city": "Viçosa",
        "state": "MG",
        "district": "Estrelas",
        "street": "Rua Santa Bárbara",
        "zipcode": "36572-270"
    },
    {
        "city": "Viçosa",
        "state": "MG",
        "district": "Vale do Sol",
        "street": "Rua Reinaldo de Jesus Araújo",
        "zipcode": "36574-150"
    },
    {
        "city": "Viçosa",
        "state": "MG",
        "district": "Inácio Martins",
        "street": "Rua São Lucas",
        "zipcode": "36574-222"
    },
    {
        "city": "Viçosa",
        "state": "MG",
        "district": "Inácio Martins",
        "street": "Rua Rita de Fátima Vieira",
        "zipcode": "36574-224"
    },
    {
        "city": "Viçosa",
        "state": "MG",
        "district": "Inácio Martins",
        "street": "Rua Quatro",
        "zipcode": "36574-264"
    },
    {
        "city": "Viçosa",
        "state": "MG",
        "district": "Inácio Martins",
        "street": "Rua Santa Lúcia",
        "zipcode": "36574-280"
    },
    {
        "city": "Viçosa",
        "state": "MG",
        "district": "Arduíno Bolívar",
        "street": "Rua São Tiago",
        "zipcode": "36574-342"
    },
    {
        "city": "Viçosa",
        "state": "MG",
        "district": "Arduíno Bolívar",
        "street": "Rua Santo André",
        "zipcode": "36574-346"
    },
    {
        "city": "Viçosa",
        "state": "MG",
        "district": "Arduíno Bolívar",
        "street": "Rua São Tomé",
        "zipcode": "36574-350"
    },
    {
        "city": "Viçosa",
        "state": "MG",
        "district": "Inácio Martins",
        "street": "Rua Professor Miguel Ribon",
        "zipcode": "36574-230"
    },
    {
        "city": "Viçosa",
        "state": "MG",
        "district": "Inácio Martins",
        "street": "Rua Rafael Arcanjo de Freitas",
        "zipcode": "36574-220"
    },
    {
        "city": "Viçosa",
        "state": "MG",
        "district": "Barrinha",
        "street": "Rua Professor Erly Dias Brandão",
        "zipcode": "36574-446"
    },
    {
        "city": "Viçosa",
        "state": "MG",
        "district": "Santo Antônio",
        "street": "Rua Professora Maria Lucas",
        "zipcode": "36576-060"
    },
    {
        "city": "Viçosa",
        "state": "MG",
        "district": "Santo Antônio",
        "street": "Rua São Miguel",
        "zipcode": "36576-062"
    },
    {
        "city": "Viçosa",
        "state": "MG",
        "district": "João Braz da Costa Val",
        "street": "Rua Santa Inês",
        "zipcode": "36576-196"
    },
    {
        "city": "Viçosa",
        "state": "MG",
        "district": "João Braz da Costa Val",
        "street": "Rua São Silvestre",
        "zipcode": "36576-198"
    },
    {
        "city": "Viçosa",
        "state": "MG",
        "district": "João Braz da Costa Val",
        "street": "Rua Santo Antônio",
        "zipcode": "36576-208"
    },
    {
        "city": "Viçosa",
        "state": "MG",
        "district": "João Braz da Costa Val",
        "street": "Rua Santa Maria",
        "zipcode": "36576-214"
    },
    {
        "city": "Viçosa",
        "state": "MG",
        "district": "Silvestre",
        "street": "Rua Professora Maria Gonçalves Maciel",
        "zipcode": "36576-362"
    },
    {
        "city": "Viçosa",
        "state": "MG",
        "district": "Silvestre",
        "street": "Rua Maria Madalena Lustosa",
        "zipcode": "36576-390"
    },
    {
        "city": "Viçosa",
        "state": "MG",
        "district": "Novo Silvestre",
        "street": "Rua São Vicente",
        "zipcode": "36576-434"
    },
    {
        "city": "Viçosa",
        "state": "MG",
        "district": "Centro",
        "street": "Rua José Edmar Amaral s/n",
        "zipcode": "36570-974"
    },
    {
        "city": "Viçosa",
        "state": "MG",
        "district": "Centro",
        "street": "Rua Buenos Aires 197",
        "zipcode": "36570-975"
    },
    {
        "city": "Viçosa",
        "state": "MG",
        "district": "",
        "street": "",
        "zipcode": "36570-000"
    },
    {
        "city": "Viçosa",
        "state": "MG",
        "district": "Bela Vista",
        "street": "Travessa Pergentino Rodrigues",
        "zipcode": "36570-214"
    },
    {
        "city": "Viçosa",
        "state": "MG",
        "district": "Clélia Bernardes",
        "street": "Travessa Irmã Francisca",
        "zipcode": "36570-296"
    },
    {
        "city": "Viçosa",
        "state": "MG",
        "district": "Santa Clara",
        "street": "Rua Sofia Bernardes",
        "zipcode": "36572-116"
    },
    {
        "city": "Viçosa",
        "state": "MG",
        "district": "Fátima",
        "street": "Rua Sobradinho",
        "zipcode": "36572-138"
    },
    {
        "city": "Viçosa",
        "state": "MG",
        "district": "Nova Viçosa",
        "street": "Rua Sebastião Soares Rodrigues",
        "zipcode": "36572-318"
    },
    {
        "city": "Viçosa",
        "state": "MG",
        "district": "São Francisco de Assis",
        "street": "Rua Vicenzo Dantonino",
        "zipcode": "36574-058"
    },
    {
        "city": "Viçosa",
        "state": "MG",
        "district": "Inácio Martins",
        "street": "Travessa B",
        "zipcode": "36574-270"
    },
    {
        "city": "Viçosa",
        "state": "MG",
        "district": "Boa Vista",
        "street": "Rua Sete de Setembro",
        "zipcode": "36574-318"
    },
    {
        "city": "Viçosa",
        "state": "MG",
        "district": "São José",
        "street": "Rua Sebastião Maria",
        "zipcode": "36574-388"
    },
    {
        "city": "Viçosa",
        "state": "MG",
        "district": "João Braz da Costa Val",
        "street": "Rua Vasco da Gama",
        "zipcode": "36576-182"
    },
    {
        "city": "Viçosa",
        "state": "MG",
        "district": "Silvestre",
        "street": "Rua Sílvio Batista",
        "zipcode": "36576-368"
    },
    {
        "city": "Viçosa",
        "state": "MG",
        "district": "Lourdes",
        "street": "Rua Doutor Joaquim Fernandes Braga",
        "zipcode": "36572-030"
    },
    {
        "city": "Viçosa",
        "state": "MG",
        "district": "Santa Clara",
        "street": "Rua Padre José Francisco da Silva",
        "zipcode": "36572-104"
    },
    {
        "city": "Viçosa",
        "state": "MG",
        "district": "Fátima",
        "street": "Rua Tim Lisboa",
        "zipcode": "36572-132"
    },
    {
        "city": "Viçosa",
        "state": "MG",
        "district": "Fátima",
        "street": "Rua Sebastião Cupertino",
        "zipcode": "36572-178"
    },
    {
        "city": "Viçosa",
        "state": "MG",
        "district": "Vale do Sol",
        "street": "Rua T",
        "zipcode": "36574-148"
    },
    {
        "city": "Viçosa",
        "state": "MG",
        "district": "Bom Jesus",
        "street": "Rua Bárbara Simonini",
        "zipcode": "36570-310"
    },
    {
        "city": "Viçosa",
        "state": "MG",
        "district": "Rua Nova",
        "street": "Travessa João Gregório dos Santos",
        "zipcode": "36570-402"
    },
    {
        "city": "Viçosa",
        "state": "MG",
        "district": "Lourdes",
        "street": "Rua Silva Pontes",
        "zipcode": "36572-004"
    },
    {
        "city": "Viçosa",
        "state": "MG",
        "district": "Lourdes",
        "street": "Travessa Joana Darc",
        "zipcode": "36572-012"
    },
    {
        "city": "Viçosa",
        "state": "MG",
        "district": "Santa Clara",
        "street": "Rua Dona Dalica",
        "zipcode": "36572-118"
    },
    {
        "city": "Viçosa",
        "state": "MG",
        "district": "Fátima",
        "street": "Rua Três Poderes",
        "zipcode": "36572-124"
    },
    {
        "city": "Viçosa",
        "state": "MG",
        "district": "Fátima",
        "street": "Travessa Quatro",
        "zipcode": "36572-156"
    },
    {
        "city": "Viçosa",
        "state": "MG",
        "district": "Fátima",
        "street": "Rua Maria das Neves de Jesus",
        "zipcode": "36572-174"
    },
    {
        "city": "Viçosa",
        "state": "MG",
        "district": "Fátima",
        "street": "Travessa João Franklim Fontes",
        "zipcode": "36572-184"
    },
    {
        "city": "Viçosa",
        "state": "MG",
        "district": "Sagrada Família",
        "street": "Rua Vicente de Paula",
        "zipcode": "36572-216"
    },
    {
        "city": "Viçosa",
        "state": "MG",
        "district": "Estrelas",
        "street": "Travessa Diamantina",
        "zipcode": "36572-258"
    },
    {
        "city": "Viçosa",
        "state": "MG",
        "district": "Inácio Martins",
        "street": "Rua Rita de Oliveira Pimentel",
        "zipcode": "36574-284"
    },
    {
        "city": "Viçosa",
        "state": "MG",
        "district": "Nova Viçosa",
        "street": "Rua Vicente Brustoline",
        "zipcode": "36572-330"
    },
    {
        "city": "Viçosa",
        "state": "MG",
        "district": "JK",
        "street": "Rua Terezinha Araújo",
        "zipcode": "36574-010"
    },
    {
        "city": "Viçosa",
        "state": "MG",
        "district": "São Francisco de Assis",
        "street": "Rua Vereador José Chequer",
        "zipcode": "36574-030"
    },
    {
        "city": "Viçosa",
        "state": "MG",
        "district": "São Francisco de Assis",
        "street": "Rua Vereador Ruy Barbosa de Assis Castro",
        "zipcode": "36574-044"
    },
    {
        "city": "Viçosa",
        "state": "MG",
        "district": "São Francisco de Assis",
        "street": "Rua Vereador Chiquito Izidoro",
        "zipcode": "36574-048"
    },
    {
        "city": "Viçosa",
        "state": "MG",
        "district": "São Sebastião",
        "street": "Rua Tamoios",
        "zipcode": "36574-094"
    },
    {
        "city": "Viçosa",
        "state": "MG",
        "district": "União",
        "street": "Travessa G",
        "zipcode": "36574-116"
    },
    {
        "city": "Viçosa",
        "state": "MG",
        "district": "Vale do Sol",
        "street": "Travessa D",
        "zipcode": "36574-146"
    },
    {
        "city": "Viçosa",
        "state": "MG",
        "district": "Nova Era",
        "street": "Rua Vicente da Paixão",
        "zipcode": "36574-210"
    },
    {
        "city": "Viçosa",
        "state": "MG",
        "district": "Cidade Nova",
        "street": "Travessa Francisca Rodrigues",
        "zipcode": "36574-402"
    },
    {
        "city": "Viçosa",
        "state": "MG",
        "district": "Santo Antônio",
        "street": "Rua Joaquim Policarpo",
        "zipcode": "36576-032"
    },
    {
        "city": "Viçosa",
        "state": "MG",
        "district": "Santo Antônio",
        "street": "Rua Vereador Gilberto Valério Pinheiro",
        "zipcode": "36576-046"
    },
    {
        "city": "Viçosa",
        "state": "MG",
        "district": "Santo Antônio",
        "street": "Rua Tunico Bernardo",
        "zipcode": "36576-082"
    },
    {
        "city": "Viçosa",
        "state": "MG",
        "district": "Boa Vista",
        "street": "Travessa Doze de Outubro",
        "zipcode": "36574-314"
    },
    {
        "city": "Viçosa",
        "state": "MG",
        "district": "Júlia Mollá",
        "street": "Rua Um",
        "zipcode": "36576-150"
    },
    {
        "city": "Viçosa",
        "state": "MG",
        "district": "João Braz da Costa Val",
        "street": "Rua Senador Firmino",
        "zipcode": "36576-162"
    },
    {
        "city": "Viçosa",
        "state": "MG",
        "district": "João Braz da Costa Val",
        "street": "Rua Tiradentes",
        "zipcode": "36576-212"
    },
    {
        "city": "Viçosa",
        "state": "MG",
        "district": "Inconfidência",
        "street": "Rua Toledo Piza",
        "zipcode": "36576-282"
    },
    {
        "city": "Viçosa",
        "state": "MG",
        "district": "Silvestre",
        "street": "Rua Sebastião Morais",
        "zipcode": "36576-364"
    },
    {
        "city": "Viçosa",
        "state": "MG",
        "district": "Parque do Ipê",
        "street": "Rua Três",
        "zipcode": "36576-304"
    },
    {
        "city": "Viçosa",
        "state": "MG",
        "district": "João Braz da Costa Val",
        "street": "Travessa Santo Antônio",
        "zipcode": "36576-210"
    },
    {
        "city": "Viçosa",
        "state": "MG",
        "district": "Estrelas",
        "street": "Travessa Princesa Izabel",
        "zipcode": "36572-244"
    },
    {
        "city": "Viçosa",
        "state": "MG",
        "district": "Nova Viçosa",
        "street": "Rua João Martins de Oliveira Chaves",
        "zipcode": "36572-350"
    },
    {
        "city": "Viçosa",
        "state": "MG",
        "district": "Nova Viçosa",
        "street": "Rua José Lopes Valente",
        "zipcode": "36572-380"
    },
    {
        "city": "Viçosa",
        "state": "MG",
        "district": "Nova Viçosa",
        "street": "Rua Leônidas da Silva Bonicontro",
        "zipcode": "36572-414"
    },
    {
        "city": "Viçosa",
        "state": "MG",
        "district": "JK",
        "street": "Travessa Morro do Cruzeiro",
        "zipcode": "36574-002"
    },
    {
        "city": "Viçosa",
        "state": "MG",
        "district": "São Sebastião",
        "street": "Rua Eurico de Sales Tibúrcio",
        "zipcode": "36574-108"
    },
    {
        "city": "Viçosa",
        "state": "MG",
        "district": "Vale do Sol",
        "street": "Rua Maria de Castro Silva",
        "zipcode": "36574-162"
    },
    {
        "city": "Viçosa",
        "state": "MG",
        "district": "Nova Era",
        "street": "Rua Moacyr Fortunato de Souza",
        "zipcode": "36574-196"
    },
    {
        "city": "Viçosa",
        "state": "MG",
        "district": "Nova Era",
        "street": "Travessa Jacob Lopes de Castro",
        "zipcode": "36574-216"
    },
    {
        "city": "Viçosa",
        "state": "MG",
        "district": "Inácio Martins",
        "street": "Travessa Geraldo Teixeira Sales",
        "zipcode": "36574-232"
    },
    {
        "city": "Viçosa",
        "state": "MG",
        "district": "Inácio Martins",
        "street": "Rua Francisco Rodrigues do Amaral",
        "zipcode": "36574-238"
    },
    {
        "city": "Viçosa",
        "state": "MG",
        "district": "Inácio Martins",
        "street": "Travessa São Judas Tadeu",
        "zipcode": "36574-242"
    },
    {
        "city": "Viçosa",
        "state": "MG",
        "district": "Vau Açu",
        "street": "Travessa Paulina Cunha Batalha",
        "zipcode": "36574-334"
    },
    {
        "city": "Viçosa",
        "state": "MG",
        "district": "São José",
        "street": "Rua Cônego José Ermelindo de Souza",
        "zipcode": "36574-366"
    },
    {
        "city": "Viçosa",
        "state": "MG",
        "district": "São José",
        "street": "Travessa Santa Clara",
        "zipcode": "36574-380"
    },
    {
        "city": "Viçosa",
        "state": "MG",
        "district": "São José",
        "street": "Travessa Sebastião Maria",
        "zipcode": "36574-390"
    },
    {
        "city": "Viçosa",
        "state": "MG",
        "district": "São José",
        "street": "Travessa Maria Izabel",
        "zipcode": "36574-396"
    },
    {
        "city": "Viçosa",
        "state": "MG",
        "district": "São José",
        "street": "Rua Hermínia Isabel Costa",
        "zipcode": "36574-398"
    },
    {
        "city": "Viçosa",
        "state": "MG",
        "district": "Barrinha",
        "street": "Rua Margarida Maria Alacoque Amaral",
        "zipcode": "36574-430"
    },
    {
        "city": "Viçosa",
        "state": "MG",
        "district": "Barrinha",
        "street": "Rua José Ubirajara Euclydes",
        "zipcode": "36574-460"
    },
    {
        "city": "Viçosa",
        "state": "MG",
        "district": "Santo Antônio",
        "street": "Rua Amantino Martins Azevedo",
        "zipcode": "36576-014"
    },
    {
        "city": "Viçosa",
        "state": "MG",
        "district": "Santo Antônio",
        "street": "Rua Pio Poleto",
        "zipcode": "36576-058"
    },
    {
        "city": "Viçosa",
        "state": "MG",
        "district": "Santo Antônio",
        "street": "Rua Arlindo Pereira Conceição",
        "zipcode": "36576-074"
    },
    {
        "city": "Viçosa",
        "state": "MG",
        "district": "Santo Antônio",
        "street": "Travessa José Medina Floresta",
        "zipcode": "36576-098"
    },
    {
        "city": "Viçosa",
        "state": "MG",
        "district": "João Braz da Costa Val",
        "street": "Rua Dom João VI",
        "zipcode": "36576-186"
    },
    {
        "city": "Viçosa",
        "state": "MG",
        "district": "Violeira",
        "street": "Travessa Lino Lopes Rosado",
        "zipcode": "36576-242"
    },
    {
        "city": "Viçosa",
        "state": "MG",
        "district": "Novo Silvestre",
        "street": "Travessa João Lino",
        "zipcode": "36576-428"
    },
    {
        "city": "Viçosa",
        "state": "MG",
        "district": "Centro",
        "street": "Praça Emílio Jardim",
        "zipcode": "36570-972"
    },
    {
        "city": "Viçosa",
        "state": "MG",
        "district": "Santo Antônio",
        "street": "Avenida Governador Ozanan Coelho",
        "zipcode": "36576-052"
    },
    {
        "city": "Viçosa",
        "state": "MG",
        "district": "Centro",
        "street": "Avenida Peter Henry Rolfs",
        "zipcode": "36570-977"
    },
    {
        "city": "Viçosa",
        "state": "MG",
        "district": "Fátima",
        "street": "Rua Planaltina",
        "zipcode": "36572-136"
    },
    {
        "city": "Viçosa",
        "state": "MG",
        "district": "Nova Era",
        "street": "Avenida Jacob Lopes de Castro",
        "zipcode": "36574-192"
    },
    {
        "city": "Viçosa",
        "state": "MG",
        "district": "Conceição",
        "street": "Avenida Altamiro da Conceição Saraiva",
        "zipcode": "36572-204"
    },
    {
        "city": "Viçosa",
        "state": "MG",
        "district": "São Francisco de Assis",
        "street": "Rua Sargento Guido",
        "zipcode": "36574-060"
    },
    {
        "city": "Viçosa",
        "state": "MG",
        "district": "Inácio Martins",
        "street": "Rua Francisco Vieira da Silva",
        "zipcode": "36574-228"
    },
    {
        "city": "Viçosa",
        "state": "MG",
        "district": "Santo Antônio",
        "street": "Rua Attanor Ribeiro",
        "zipcode": "36576-048"
    },
    {
        "city": "Viçosa",
        "state": "MG",
        "district": "João Braz da Costa Val",
        "street": "Praça Tiradentes",
        "zipcode": "36576-202"
    },
    {
        "city": "Viçosa",
        "state": "MG",
        "district": "Liberdade 2",
        "street": "Rua Maria de Lourdes Fialho Lopes",
        "zipcode": "36576-270"
    },
    {
        "city": "Viçosa",
        "state": "MG",
        "district": "Silvestre",
        "street": "Rua Juquinha Moreira",
        "zipcode": "36576-354"
    },
    {
        "city": "Viçosa",
        "state": "MG",
        "district": "Silvestre",
        "street": "Rua Jonas Pereira da Silva",
        "zipcode": "36576-358"
    },
    {
        "city": "Viçosa",
        "state": "MG",
        "district": "Novo Silvestre",
        "street": "Rua Francisca Lopes de Faria",
        "zipcode": "36576-414"
    },
    {
        "city": "Viçosa",
        "state": "MG",
        "district": "Novo Silvestre",
        "street": "Rua João Lino",
        "zipcode": "36576-426"
    },
    {
        "city": "Viçosa",
        "state": "MG",
        "district": "Centro",
        "street": "Rua Luis Megale",
        "zipcode": "36570-109"
    },
    {
        "city": "Viçosa",
        "state": "MG",
        "district": "Nova Viçosa",
        "street": "Rua Maria Marciano Pinheiro",
        "zipcode": "36572-280"
    },
    {
        "city": "Viçosa",
        "state": "MG",
        "district": "Nova Viçosa",
        "street": "Rua Joaquina Cardoso",
        "zipcode": "36572-312"
    },
    {
        "city": "Viçosa",
        "state": "MG",
        "district": "Barrinha",
        "street": "Rua José Felício do Vale",
        "zipcode": "36574-424"
    },
    {
        "city": "Viçosa",
        "state": "MG",
        "district": "Barrinha",
        "street": "Rua Darcy Bessone",
        "zipcode": "36574-462"
    },
    {
        "city": "Viçosa",
        "state": "MG",
        "district": "Bom Jesus",
        "street": "Rua Cantionílio Braz Fernandes",
        "zipcode": "36570-316"
    },
    {
        "city": "Viçosa",
        "state": "MG",
        "district": "Santo Antônio",
        "street": "Rua Araponga",
        "zipcode": "36576-066"
    },
    {
        "city": "Viçosa",
        "state": "MG",
        "district": "Santo Antônio",
        "street": "Travessa Juscelino Kubitschek",
        "zipcode": "36576-122"
    },
    {
        "city": "Viçosa",
        "state": "MG",
        "district": "Júlia Mollá",
        "street": "Rua Doutor José Felimino de Oliveira",
        "zipcode": "36576-130"
    },
    {
        "city": "Viçosa",
        "state": "MG",
        "district": "João Braz da Costa Val",
        "street": "Rua Porto Firme",
        "zipcode": "36576-160"
    },
    {
        "city": "Viçosa",
        "state": "MG",
        "district": "João Braz da Costa Val",
        "street": "Rua Ervália",
        "zipcode": "36576-174"
    },
    {
        "city": "Viçosa",
        "state": "MG",
        "district": "João Braz da Costa Val",
        "street": "Travessa Três",
        "zipcode": "36576-194"
    },
    {
        "city": "Viçosa",
        "state": "MG",
        "district": "João Braz da Costa Val",
        "street": "Rua Santa Luzia",
        "zipcode": "36576-200"
    },
    {
        "city": "Viçosa",
        "state": "MG",
        "district": "Recanto da Serra",
        "street": "Rua B",
        "zipcode": "36576-222"
    },
    {
        "city": "Viçosa",
        "state": "MG",
        "district": "Recanto da Serra",
        "street": "Travessa Quinquim Fontes",
        "zipcode": "36576-228"
    },
    {
        "city": "Viçosa",
        "state": "MG",
        "district": "Violeira",
        "street": "Avenida Miguel Umbelino Magalhães",
        "zipcode": "36576-230"
    },
    {
        "city": "Viçosa",
        "state": "MG",
        "district": "Violeira",
        "street": "Rua Francisco Lopes Galvão",
        "zipcode": "36576-238"
    },
    {
        "city": "Viçosa",
        "state": "MG",
        "district": "Violeira",
        "street": "Travessa Três",
        "zipcode": "36576-246"
    },
    {
        "city": "Viçosa",
        "state": "MG",
        "district": "Violeira",
        "street": "Rua B",
        "zipcode": "36576-250"
    },
    {
        "city": "Viçosa",
        "state": "MG",
        "district": "Liberdade 1",
        "street": "Rua José Serafim da Silva",
        "zipcode": "36576-266"
    },
    {
        "city": "Viçosa",
        "state": "MG",
        "district": "Liberdade 2",
        "street": "Rua Ovídio Lopes Bhering",
        "zipcode": "36576-272"
    },
    {
        "city": "Viçosa",
        "state": "MG",
        "district": "Inconfidência",
        "street": "Rua Alvarenga Peixoto",
        "zipcode": "36576-288"
    },
    {
        "city": "Viçosa",
        "state": "MG",
        "district": "Inconfidência",
        "street": "Rua Tomáz Antônio Gonzaga",
        "zipcode": "36576-294"
    },
    {
        "city": "Viçosa",
        "state": "MG",
        "district": "Inconfidência",
        "street": "Rua Cláudio Manoel",
        "zipcode": "36576-298"
    },
    {
        "city": "Viçosa",
        "state": "MG",
        "district": "Parque do Ipê",
        "street": "Rua Quatro",
        "zipcode": "36576-306"
    },
    {
        "city": "Viçosa",
        "state": "MG",
        "district": "Residencial Silvestre",
        "street": "Rua José Martins",
        "zipcode": "36576-326"
    },
    {
        "city": "Viçosa",
        "state": "MG",
        "district": "Silvestre",
        "street": "Rua Joaquim Ferreira Leandro",
        "zipcode": "36576-360"
    },
    {
        "city": "Viçosa",
        "state": "MG",
        "district": "Silvestre",
        "street": "Rua Amil Muanis",
        "zipcode": "36576-370"
    },
    {
        "city": "Viçosa",
        "state": "MG",
        "district": "Silvestre",
        "street": "Rua Serafim Pinho Ferreira",
        "zipcode": "36576-378"
    },
    {
        "city": "Viçosa",
        "state": "MG",
        "district": "Silvestre",
        "street": "Rua Maria da Purificação Lustosa",
        "zipcode": "36576-380"
    },
    {
        "city": "Viçosa",
        "state": "MG",
        "district": "Novo Silvestre",
        "street": "Rua Santiago",
        "zipcode": "36576-402"
    },
    {
        "city": "Viçosa",
        "state": "MG",
        "district": "Novo Silvestre",
        "street": "Rua do Italiano",
        "zipcode": "36576-404"
    },
    {
        "city": "Viçosa",
        "state": "MG",
        "district": "Novo Silvestre",
        "street": "Rua Francisco de Assis Lino",
        "zipcode": "36576-416"
    },
    {
        "city": "Viçosa",
        "state": "MG",
        "district": "Novo Silvestre",
        "street": "Rua José Lopes de faria",
        "zipcode": "36576-432"
    },
    {
        "city": "Viçosa",
        "state": "MG",
        "district": "Centro",
        "street": "Rua Buenos Aires",
        "zipcode": "36576-971"
    },
    {
        "city": "Viçosa",
        "state": "MG",
        "district": "Silvestre",
        "street": "Rua Juquinha Moreira",
        "zipcode": "36576-973"
    },
    {
        "city": "Viçosa",
        "state": "MG",
        "district": "Centro",
        "street": "Alameda Albano Braga",
        "zipcode": "36570-111"
    },
    {
        "city": "Viçosa",
        "state": "MG",
        "district": "Monte Verde",
        "street": "Rua A",
        "zipcode": "36570-430"
    },
    {
        "city": "Viçosa",
        "state": "MG",
        "district": "Centro",
        "street": "Rua Benedito Valadares",
        "zipcode": "36570-039"
    },
    {
        "city": "Viçosa",
        "state": "MG",
        "district": "Violeira",
        "street": "Rua A",
        "zipcode": "36576-248"
    },
    {
        "city": "Viçosa",
        "state": "MG",
        "district": "Centro",
        "street": "Rua São José",
        "zipcode": "36570-113"
    },
    {
        "city": "Viçosa",
        "state": "MG",
        "district": "Clélia Bernardes",
        "street": "Rua Fuad Chequer",
        "zipcode": "36570-282"
    },
    {
        "city": "Viçosa",
        "state": "MG",
        "district": "Santa Clara",
        "street": "Rua José Zaidan",
        "zipcode": "36572-082"
    },
    {
        "city": "Viçosa",
        "state": "MG",
        "district": "Centro",
        "street": "Rua Josele Aguiar Neves",
        "zipcode": "36570-007"
    },
    {
        "city": "Viçosa",
        "state": "MG",
        "district": "Bom Jesus",
        "street": "Rua Josefino Filho de Freitas",
        "zipcode": "36570-324"
    },
    {
        "city": "Viçosa",
        "state": "MG",
        "district": "Fuad Chequer",
        "street": "Rua Joventino de Alencar",
        "zipcode": "36574-132"
    },
    {
        "city": "Viçosa",
        "state": "MG",
        "district": "Centro",
        "street": "Rua Prefeito João Francisco",
        "zipcode": "36570-033"
    },
    {
        "city": "Viçosa",
        "state": "MG",
        "district": "Clélia Bernardes",
        "street": "Rua Presidente Médici",
        "zipcode": "36570-286"
    },
    {
        "city": "Viçosa",
        "state": "MG",
        "district": "Betânia",
        "street": "Rua Prefeito Parrique",
        "zipcode": "36572-052"
    },
    {
        "city": "Viçosa",
        "state": "MG",
        "district": "Fátima",
        "street": "Rua Prefeito Moacir Dias Andrade",
        "zipcode": "36572-190"
    },
    {
        "city": "Viçosa",
        "state": "MG",
        "district": "Santa Clara",
        "street": "Rua Prefeito Carlos Raimundo Torres",
        "zipcode": "36572-092"
    },
    {
        "city": "Viçosa",
        "state": "MG",
        "district": "Estrelas",
        "street": "Rua Jovelino Gonçalves",
        "zipcode": "36572-264"
    },
    {
        "city": "Viçosa",
        "state": "MG",
        "district": "Nova Viçosa",
        "street": "Rua Maria Ester dos Anjos",
        "zipcode": "36572-426"
    },
    {
        "city": "Viçosa",
        "state": "MG",
        "district": "JK",
        "street": "Rua Maria Euzébia",
        "zipcode": "36574-006"
    },
    {
        "city": "Viçosa",
        "state": "MG",
        "district": "São Francisco de Assis",
        "street": "Rua Julieta de Freitas",
        "zipcode": "36574-054"
    },
    {
        "city": "Viçosa",
        "state": "MG",
        "district": "Inácio Martins",
        "street": "Rua Jorge Antônio da Silva",
        "zipcode": "36574-248"
    },
    {
        "city": "Viçosa",
        "state": "MG",
        "district": "São José",
        "street": "Rua José Wenceslau da Arruda",
        "zipcode": "36574-376"
    },
    {
        "city": "Viçosa",
        "state": "MG",
        "district": "Barrinha",
        "street": "Rua Maria Gabriela de Jesus",
        "zipcode": "36574-432"
    },
    {
        "city": "Viçosa",
        "state": "MG",
        "district": "Santo Antônio",
        "street": "Rua Josino Lopes Ladeira",
        "zipcode": "36576-070"
    },
    {
        "city": "Viçosa",
        "state": "MG",
        "district": "Santo Antônio",
        "street": "Rua Jorge Ramos",
        "zipcode": "36576-104"
    },
    {
        "city": "Viçosa",
        "state": "MG",
        "district": "Santo Antônio",
        "street": "Rua José Vidigal",
        "zipcode": "36576-110"
    },
    {
        "city": "Viçosa",
        "state": "MG",
        "district": "Centro",
        "street": "Vila Giannetti",
        "zipcode": "36570-075"
    },
    {
        "city": "Viçosa",
        "state": "MG",
        "district": "Vereda do Bosque",
        "street": "Vila Castelo",
        "zipcode": "36570-182"
    },
    {
        "city": "Viçosa",
        "state": "MG",
        "district": "São José",
        "street": "Rua São Geraldo",
        "zipcode": "36574-382"
    },
    {
        "city": "Viçosa",
        "state": "MG",
        "district": "Centro",
        "street": "Vila São Sebastião",
        "zipcode": "36570-105"
    },
    {
        "city": "Viçosa",
        "state": "MG",
        "district": "Estrelas",
        "street": "Rua Wenceslau Braz",
        "zipcode": "36572-252"
    },
    {
        "city": "Viçosa",
        "state": "MG",
        "district": "Vale do Sol",
        "street": "Rua William Martins Ramos",
        "zipcode": "36574-152"
    },
    {
        "city": "Viçosa",
        "state": "MG",
        "district": "Nova Era",
        "street": "Rua São João Batista",
        "zipcode": "36574-200"
    },
    {
        "city": "Viçosa",
        "state": "MG",
        "district": "Arduíno Bolívar",
        "street": "Rua São Judas Tadeu",
        "zipcode": "36574-354"
    },
    {
        "city": "Viçosa",
        "state": "MG",
        "district": "Fátima",
        "street": "Rua Zé de Tata",
        "zipcode": "36572-126"
    },
    {
        "city": "Viçosa",
        "state": "MG",
        "district": "Inácio Martins",
        "street": "Travessa A",
        "zipcode": "36574-272"
    },
    {
        "city": "Viçosa",
        "state": "MG",
        "district": "Arduíno Bolívar",
        "street": "Rua São Francisco",
        "zipcode": "36574-344"
    },
    {
        "city": "Viçosa",
        "state": "MG",
        "district": "Barrinha",
        "street": "Rua Yolanda Soares",
        "zipcode": "36574-444"
    },
    {
        "city": "Viçosa",
        "state": "MG",
        "district": "Barrinha",
        "street": "Rua Wanor Feijó",
        "zipcode": "36574-448"
    },
    {
        "city": "Viçosa",
        "state": "MG",
        "district": "Santo Antônio",
        "street": "Travessa Um",
        "zipcode": "36576-018"
    },
    {
        "city": "Viçosa",
        "state": "MG",
        "district": "Santo Antônio",
        "street": "Rua Z",
        "zipcode": "36576-120"
    },
    {
        "city": "Viçosa",
        "state": "MG",
        "district": "Estrelas",
        "street": "Rua Diamantina",
        "zipcode": "36572-256"
    },
    {
        "city": "Viçosa",
        "state": "MG",
        "district": "João Braz da Costa Val",
        "street": "Rua São Francisco de Assis",
        "zipcode": "36576-206"
    },
    {
        "city": "Viçosa",
        "state": "MG",
        "district": "Violeira",
        "street": "Travessa Um",
        "zipcode": "36576-244"
    },
    {
        "city": "Viçosa",
        "state": "MG",
        "district": "Novo Silvestre",
        "street": "Travessa Um",
        "zipcode": "36576-424"
    },
    {
        "city": "Viçosa",
        "state": "MG",
        "district": "Santa Clara",
        "street": "Praça Fernando Vidigal de Carvalho",
        "zipcode": "36572-110"
    },
    {
        "city": "Viçosa",
        "state": "MG",
        "district": "Centro",
        "street": "Rua Virgilio Val",
        "zipcode": "36570-023"
    },
    {
        "city": "Viçosa",
        "state": "MG",
        "district": "Betânia",
        "street": "Travessa Doutor Felicíssimo",
        "zipcode": "36572-048"
    },
    {
        "city": "Viçosa",
        "state": "MG",
        "district": "Santa Clara",
        "street": "Rua Plínio Dias Andrade",
        "zipcode": "36572-088"
    },
    {
        "city": "Viçosa",
        "state": "MG",
        "district": "Santa Clara",
        "street": "Avenida Juscelino Kubitschek de Oliveira",
        "zipcode": "36572-096"
    },
    {
        "city": "Viçosa",
        "state": "MG",
        "district": "São Francisco de Assis",
        "street": "Rua Professora Valéria Martins de Freitas",
        "zipcode": "36574-036"
    },
    {
        "city": "Viçosa",
        "state": "MG",
        "district": "Estrelas",
        "street": "Rua São Dimas",
        "zipcode": "36572-262"
    },
    {
        "city": "Viçosa",
        "state": "MG",
        "district": "Nova Viçosa",
        "street": "Rua Vitor de Carvalho",
        "zipcode": "36572-298"
    },
    {
        "city": "Viçosa",
        "state": "MG",
        "district": "São Sebastião",
        "street": "Rua Tupinanbás",
        "zipcode": "36574-098"
    },
    {
        "city": "Viçosa",
        "state": "MG",
        "district": "Centro",
        "street": "Rua Afonso Pena",
        "zipcode": "36570-015"
    },
    {
        "city": "Viçosa",
        "state": "MG",
        "district": "Centro",
        "street": "Travessa José Carlos da Cruz",
        "zipcode": "36570-011"
    },
    {
        "city": "Viçosa",
        "state": "MG",
        "district": "Centro",
        "street": "Travessa Simonini",
        "zipcode": "36570-021"
    },
    {
        "city": "Viçosa",
        "state": "MG",
        "district": "Centro",
        "street": "Rua Tenente Kummel",
        "zipcode": "36570-031"
    },
    {
        "city": "Viçosa",
        "state": "MG",
        "district": "Centro",
        "street": "Travessa Purdue",
        "zipcode": "36570-107"
    },
    {
        "city": "Viçosa",
        "state": "MG",
        "district": "Bela Vista",
        "street": "Travessa do Pintinho",
        "zipcode": "36570-224"
    },
    {
        "city": "Viçosa",
        "state": "MG",
        "district": "Centro",
        "street": "Beco dos Passos",
        "zipcode": "36570-001"
    },
    {
        "city": "Viçosa",
        "state": "MG",
        "district": "Ramos",
        "street": "Rua Doutor Raimundo Alves Torres",
        "zipcode": "36570-230"
    },
    {
        "city": "Viçosa",
        "state": "MG",
        "district": "Bom Jesus",
        "street": "Rua Getúlio Vargas",
        "zipcode": "36570-302"
    },
    {
        "city": "Viçosa",
        "state": "MG",
        "district": "Bom Jesus",
        "street": "Rua Manoel Soares de Freitas",
        "zipcode": "36570-328"
    },
    {
        "city": "Viçosa",
        "state": "MG",
        "district": "Santa Clara",
        "street": "Rua Ezequiel Pinto",
        "zipcode": "36572-090"
    },
    {
        "city": "Viçosa",
        "state": "MG",
        "district": "Centro",
        "street": "Rua dos Estudantes",
        "zipcode": "36570-081"
    },
    {
        "city": "Viçosa",
        "state": "MG",
        "district": "Centro",
        "street": "Rua Dona Gertrudes",
        "zipcode": "36570-019"
    },
    {
        "city": "Viçosa",
        "state": "MG",
        "district": "Centro",
        "street": "Rua Doutor Horta",
        "zipcode": "36570-045"
    },
    {
        "city": "Viçosa",
        "state": "MG",
        "district": "Centro",
        "street": "Praça do Rosário",
        "zipcode": "36570-063"
    },
    {
        "city": "Viçosa",
        "state": "MG",
        "district": "Centro",
        "street": "Rua Augusta Siqueira",
        "zipcode": "36570-125"
    },
    {
        "city": "Viçosa",
        "state": "MG",
        "district": "Centro",
        "street": "Rua José dos Santos",
        "zipcode": "36570-135"
    },
    {
        "city": "Viçosa",
        "state": "MG",
        "district": "Estrelas",
        "street": "Rua do Sol",
        "zipcode": "36572-250"
    },
    {
        "city": "Viçosa",
        "state": "MG",
        "district": "Centro",
        "street": "Rua Santana",
        "zipcode": "36570-009"
    },
    {
        "city": "Viçosa",
        "state": "MG",
        "district": "Centro",
        "street": "Rua Alexandre Ferreira Mendes",
        "zipcode": "36570-017"
    },
    {
        "city": "Viçosa",
        "state": "MG",
        "district": "Centro",
        "street": "Rua Álvaro Gouveia",
        "zipcode": "36570-027"
    },
    {
        "city": "Viçosa",
        "state": "MG",
        "district": "Centro",
        "street": "Alameda Fábio Ribeiro Gomes",
        "zipcode": "36570-029"
    },
    {
        "city": "Viçosa",
        "state": "MG",
        "district": "Centro",
        "street": "Rua Presidente Tancredo Neves",
        "zipcode": "36570-057"
    },
    {
        "city": "Viçosa",
        "state": "MG",
        "district": "Ramos",
        "street": "Avenida Professor Alberto Álvaro Pacheco",
        "zipcode": "36570-236"
    },
    {
        "city": "Viçosa",
        "state": "MG",
        "district": "Ramos",
        "street": "Rua Professor Sílvio Starling Brandão",
        "zipcode": "36570-264"
    },
    {
        "city": "Viçosa",
        "state": "MG",
        "district": "Lourdes",
        "street": "Rua Professora Argina Silvina Ferreira",
        "zipcode": "36572-010"
    },
    {
        "city": "Viçosa",
        "state": "MG",
        "district": "Centro",
        "street": "Rua Doutor Brito",
        "zipcode": "36570-013"
    },
    {
        "city": "Viçosa",
        "state": "MG",
        "district": "Centro",
        "street": "Rua Benjamim Araújo",
        "zipcode": "36570-037"
    },
    {
        "city": "Viçosa",
        "state": "MG",
        "district": "Centro",
        "street": "Rua José Braz da Costa Val",
        "zipcode": "36570-069"
    },
    {
        "city": "Viçosa",
        "state": "MG",
        "district": "Centro",
        "street": "Rua Gomes Barbosa",
        "zipcode": "36570-101"
    },
    {
        "city": "Viçosa",
        "state": "MG",
        "district": "Centro",
        "street": "Travessa Francisco Gouveia",
        "zipcode": "36570-103"
    },
    {
        "city": "Viçosa",
        "state": "MG",
        "district": "Sagrados Corações",
        "street": "Rua Rosa Mística",
        "zipcode": "36570-148"
    },
    {
        "city": "Viçosa",
        "state": "MG",
        "district": "Sagrados Corações",
        "street": "Rua Ipanema",
        "zipcode": "36570-152"
    },
    {
        "city": "Viçosa",
        "state": "MG",
        "district": "Vereda do Bosque",
        "street": "Rua Mariquinha Freitas Castro Araújo",
        "zipcode": "36570-180"
    },
    {
        "city": "Viçosa",
        "state": "MG",
        "district": "Bom Jesus",
        "street": "Rua Mimi Pacheco",
        "zipcode": "36570-306"
    },
    {
        "city": "Viçosa",
        "state": "MG",
        "district": "Bom Jesus",
        "street": "Travessa Félix",
        "zipcode": "36570-344"
    },
    {
        "city": "Viçosa",
        "state": "MG",
        "district": "Jardins do Vale",
        "street": "Rua Joaquim Ferreira Coelho",
        "zipcode": "36570-460"
    },
    {
        "city": "Viçosa",
        "state": "MG",
        "district": "Santa Clara",
        "street": "Rua Francisco Ferreira de Paula",
        "zipcode": "36572-068"
    },
    {
        "city": "Viçosa",
        "state": "MG",
        "district": "Fátima",
        "street": "Rua Rosalina Silva Santos",
        "zipcode": "36572-142"
    },
    {
        "city": "Viçosa",
        "state": "MG",
        "district": "Vila Alves",
        "street": "Vila Alves",
        "zipcode": "36570-410"
    },
    {
        "city": "Viçosa",
        "state": "MG",
        "district": "Estrelas",
        "street": "Travessa Dona Mariazinha",
        "zipcode": "36572-274"
    },
    {
        "city": "Viçosa",
        "state": "MG",
        "district": "Ramos",
        "street": "Rua Antônio Torres",
        "zipcode": "36570-250"
    },
    {
        "city": "Viçosa",
        "state": "MG",
        "district": "Bom Jesus",
        "street": "Rua Nossa Senhora do Carmo",
        "zipcode": "36570-360"
    },
    {
        "city": "Viçosa",
        "state": "MG",
        "district": "Fátima",
        "street": "Rua Núcleo Bandeirante",
        "zipcode": "36572-128"
    },
    {
        "city": "Viçosa",
        "state": "MG",
        "district": "Nova Viçosa",
        "street": "Rua da Acácia",
        "zipcode": "36572-336"
    },
    {
        "city": "Viçosa",
        "state": "MG",
        "district": "Nova Viçosa",
        "street": "Rua Joaquim Nogueira",
        "zipcode": "36572-366"
    },
    {
        "city": "Viçosa",
        "state": "MG",
        "district": "Nova Viçosa",
        "street": "Rua José da Cruz Reis",
        "zipcode": "36572-416"
    },
    {
        "city": "Viçosa",
        "state": "MG",
        "district": "JK",
        "street": "Rua Nhanhá Simonine",
        "zipcode": "36574-012"
    },
    {
        "city": "Viçosa",
        "state": "MG",
        "district": "Campus Universitário",
        "street": "Avenida Peter Henry Rolfs",
        "zipcode": "36570-900"
    },
    {
        "city": "Viçosa",
        "state": "MG",
        "district": "Betânia",
        "street": "Praça Dezesseis de Julho",
        "zipcode": "36572-042"
    },
    {
        "city": "Viçosa",
        "state": "MG",
        "district": "Betânia",
        "street": "Rua Antonelli Bhering",
        "zipcode": "36572-054"
    },
    {
        "city": "Viçosa",
        "state": "MG",
        "district": "Estrelas",
        "street": "Rua Ana Amélia",
        "zipcode": "36572-238"
    },
    {
        "city": "Viçosa",
        "state": "MG",
        "district": "Estrelas",
        "street": "Rua Raimundo de Freitas",
        "zipcode": "36572-266"
    },
    {
        "city": "Viçosa",
        "state": "MG",
        "district": "Nova Viçosa",
        "street": "Rua Amintas Alves de Souza",
        "zipcode": "36572-356"
    },
    {
        "city": "Viçosa",
        "state": "MG",
        "district": "Maria Eugênia",
        "street": "Rua Adelino Azevedo",
        "zipcode": "36574-024"
    },
    {
        "city": "Viçosa",
        "state": "MG",
        "district": "São Francisco de Assis",
        "street": "Rua Vereador Euter Paniago",
        "zipcode": "36574-032"
    },
    {
        "city": "Viçosa",
        "state": "MG",
        "district": "Loteamento Jardim Europa",
        "street": "Rua A",
        "zipcode": "36574-080"
    },
    {
        "city": "Viçosa",
        "state": "MG",
        "district": "São Sebastião",
        "street": "Rua Santa Terezinha",
        "zipcode": "36574-106"
    },
    {
        "city": "Viçosa",
        "state": "MG",
        "district": "Bela Vista",
        "street": "Rua Cabo Tomaz",
        "zipcode": "36570-212"
    },
    {
        "city": "Viçosa",
        "state": "MG",
        "district": "Bom Jesus",
        "street": "Rua Abdo Zaharan",
        "zipcode": "36570-314"
    },
    {
        "city": "Viçosa",
        "state": "MG",
        "district": "Bom Jesus",
        "street": "Rua José de Araújo",
        "zipcode": "36570-378"
    },
    {
        "city": "Viçosa",
        "state": "MG",
        "district": "Jardins do Vale",
        "street": "Rua José Ferreira Coelho",
        "zipcode": "36570-462"
    },
    {
        "city": "Viçosa",
        "state": "MG",
        "district": "Jardins do Vale",
        "street": "Rua Maria Custódia Ferreira",
        "zipcode": "36570-466"
    },
    {
        "city": "Viçosa",
        "state": "MG",
        "district": "Condomínio Residencial Octávio Pacheco",
        "street": "Rua B",
        "zipcode": "36570-482"
    },
    {
        "city": "Viçosa",
        "state": "MG",
        "district": "Lourdes",
        "street": "Travessa Juquinha do Pau Dalho",
        "zipcode": "36572-014"
    },
    {
        "city": "Viçosa",
        "state": "MG",
        "district": "Lourdes",
        "street": "Rua Tabelião Machado",
        "zipcode": "36572-022"
    },
    {
        "city": "Viçosa",
        "state": "MG",
        "district": "Santa Clara",
        "street": "Rua Chico Mendes",
        "zipcode": "36572-060"
    },
    {
        "city": "Viçosa",
        "state": "MG",
        "district": "Santa Clara",
        "street": "Rua Joaquim Andrade",
        "zipcode": "36572-098"
    },
    {
        "city": "Viçosa",
        "state": "MG",
        "district": "Santa Clara",
        "street": "Rua Horácio Borges",
        "zipcode": "36572-106"
    },
    {
        "city": "Viçosa",
        "state": "MG",
        "district": "Fátima",
        "street": "Travessa Seis",
        "zipcode": "36572-158"
    },
    {
        "city": "Viçosa",
        "state": "MG",
        "district": "Fátima",
        "street": "Rua Marcos Vinicíus",
        "zipcode": "36572-162"
    },
    {
        "city": "Viçosa",
        "state": "MG",
        "district": "Fátima",
        "street": "Rua Vinicius de Morais",
        "zipcode": "36572-164"
    },
    {
        "city": "Viçosa",
        "state": "MG",
        "district": "Fátima",
        "street": "Rua Castro Alves",
        "zipcode": "36572-168"
    },
    {
        "city": "Viçosa",
        "state": "MG",
        "district": "Fátima",
        "street": "Rua João Franklim Fontes",
        "zipcode": "36572-182"
    },
    {
        "city": "Viçosa",
        "state": "MG",
        "district": "Estrelas",
        "street": "Travessa Santa Bárbara",
        "zipcode": "36572-272"
    },
    {
        "city": "Viçosa",
        "state": "MG",
        "district": "Nova Viçosa",
        "street": "Travessa Maria Marciano Pinheiro",
        "zipcode": "36572-282"
    },
    {
        "city": "Viçosa",
        "state": "MG",
        "district": "Nova Viçosa",
        "street": "Rua Laura Uchoa Cintra",
        "zipcode": "36572-292"
    },
    {
        "city": "Viçosa",
        "state": "MG",
        "district": "Nova Viçosa",
        "street": "Rua Francisco Santana",
        "zipcode": "36572-326"
    },
    {
        "city": "Viçosa",
        "state": "MG",
        "district": "Nova Viçosa",
        "street": "Rua Maria dos Anjos Chagas",
        "zipcode": "36572-358"
    },
    {
        "city": "Viçosa",
        "state": "MG",
        "district": "Nova Viçosa",
        "street": "Rua Manuel Neves Pinheiro",
        "zipcode": "36572-360"
    },
    {
        "city": "Viçosa",
        "state": "MG",
        "district": "Nova Viçosa",
        "street": "Rua Maria Francisca Amorim",
        "zipcode": "36572-364"
    },
    {
        "city": "Viçosa",
        "state": "MG",
        "district": "Acamari",
        "street": "Rua E",
        "zipcode": "36570-452"
    },
    {
        "city": "Viçosa",
        "state": "MG",
        "district": "Nova Viçosa",
        "street": "Rua Gilberto Melo",
        "zipcode": "36572-410"
    },
    {
        "city": "Viçosa",
        "state": "MG",
        "district": "Nova Viçosa",
        "street": "Rua Bernardina Xavier",
        "zipcode": "36572-422"
    },
    {
        "city": "Viçosa",
        "state": "MG",
        "district": "Nova Viçosa",
        "street": "Rua Francisco Damasceno",
        "zipcode": "36572-438"
    },
    {
        "city": "Viçosa",
        "state": "MG",
        "district": "Maria Eugênia",
        "street": "Rua Fabiano Janotte",
        "zipcode": "36574-020"
    },
    {
        "city": "Viçosa",
        "state": "MG",
        "district": "União",
        "street": "Rua Maria Auxiliadora de Souza Castro",
        "zipcode": "36574-112"
    },
    {
        "city": "Viçosa",
        "state": "MG",
        "district": "Nova Era",
        "street": "Travessa Moacyr Fortunato de Souza",
        "zipcode": "36574-198"
    },
    {
        "city": "Viçosa",
        "state": "MG",
        "district": "Barrinha",
        "street": "Rua Mário Abdo",
        "zipcode": "36574-458"
    },
    {
        "city": "Viçosa",
        "state": "MG",
        "district": "Nova Era",
        "street": "Rua João Paulino Gouveia",
        "zipcode": "36574-208"
    },
    {
        "city": "Viçosa",
        "state": "MG",
        "district": "Nova Era",
        "street": "Rua Antônio Camilo Lelis",
        "zipcode": "36574-184"
    },
    {
        "city": "Viçosa",
        "state": "MG",
        "district": "Inácio Martins",
        "street": "Travessa Sebastião Augusto de Oliveira",
        "zipcode": "36574-276"
    },
    {
        "city": "Viçosa",
        "state": "MG",
        "district": "São José",
        "street": "Rua Santos Dumont",
        "zipcode": "36574-386"
    },
    {
        "city": "Viçosa",
        "state": "MG",
        "district": "Cidade Nova",
        "street": "Travessa José Rodrigues",
        "zipcode": "36574-412"
    },
    {
        "city": "Viçosa",
        "state": "MG",
        "district": "Barrinha",
        "street": "Rua Antônio Amaral",
        "zipcode": "36574-438"
    },
    {
        "city": "Viçosa",
        "state": "MG",
        "district": "São Sebastião",
        "street": "Rua Tupis",
        "zipcode": "36574-096"
    },
    {
        "city": "Viçosa",
        "state": "MG",
        "district": "São Sebastião",
        "street": "Rua Doutor José Norberto Vaz de Melo",
        "zipcode": "36574-104"
    },
    {
        "city": "Viçosa",
        "state": "MG",
        "district": "Vale do Sol",
        "street": "Rua São Dimas",
        "zipcode": "36574-156"
    },
    {
        "city": "Viçosa",
        "state": "MG",
        "district": "Nova Era",
        "street": "Rua Benevuto Saraiva",
        "zipcode": "36574-180"
    },
    {
        "city": "Viçosa",
        "state": "MG",
        "district": "Inácio Martins",
        "street": "Rua Raimundo Luiz dos Santos",
        "zipcode": "36574-226"
    },
    {
        "city": "Viçosa",
        "state": "MG",
        "district": "Inácio Martins",
        "street": "Rua Maria das Neves Costa Amaral",
        "zipcode": "36574-244"
    },
    {
        "city": "Viçosa",
        "state": "MG",
        "district": "Inácio Martins",
        "street": "Rua Antônio Vitor de Oliveira",
        "zipcode": "36574-256"
    },
    {
        "city": "Viçosa",
        "state": "MG",
        "district": "Inácio Martins",
        "street": "Rua Paulo Cesar Vieira",
        "zipcode": "36574-260"
    },
    {
        "city": "Viçosa",
        "state": "MG",
        "district": "Inácio Martins",
        "street": "Travessa Bromélia",
        "zipcode": "36574-262"
    },
    {
        "city": "Viçosa",
        "state": "MG",
        "district": "Inácio Martins",
        "street": "Rua Francisco Antônio Rodrigues",
        "zipcode": "36574-266"
    },
    {
        "city": "Viçosa",
        "state": "MG",
        "district": "Inácio Martins",
        "street": "Rua Sebastião Augusto de Oliveira",
        "zipcode": "36574-274"
    },
    {
        "city": "Viçosa",
        "state": "MG",
        "district": "Vau Açu",
        "street": "Rua Paulina Cunha Batalha",
        "zipcode": "36574-332"
    },
    {
        "city": "Viçosa",
        "state": "MG",
        "district": "Cidade Nova",
        "street": "Rua Leonor de Oliveira",
        "zipcode": "36574-404"
    },
    {
        "city": "Viçosa",
        "state": "MG",
        "district": "Barrinha",
        "street": "Rua Emílio de Souza Pimentel",
        "zipcode": "36574-422"
    },
    {
        "city": "Viçosa",
        "state": "MG",
        "district": "Santo Antônio",
        "street": "Rua Luiz Bhering",
        "zipcode": "36576-010"
    },
    {
        "city": "Viçosa",
        "state": "MG",
        "district": "Santo Antônio",
        "street": "Rua Vereador Almiro Pontes",
        "zipcode": "36576-028"
    },
    {
        "city": "Viçosa",
        "state": "MG",
        "district": "Santo Antônio",
        "street": "Rua Dona Carlota",
        "zipcode": "36576-030"
    },
    {
        "city": "Viçosa",
        "state": "MG",
        "district": "Santo Antônio",
        "street": "Travessa Presidente Humberto de Alencar Castelo Branco",
        "zipcode": "36576-044"
    },
    {
        "city": "Viçosa",
        "state": "MG",
        "district": "Santo Antônio",
        "street": "Rua Antônio Lopes Leles Valente",
        "zipcode": "36576-050"
    },
    {
        "city": "Viçosa",
        "state": "MG",
        "district": "Santo Antônio",
        "street": "Rua Georgina Teixeira de Figueiredo",
        "zipcode": "36576-054"
    },
    {
        "city": "Viçosa",
        "state": "MG",
        "district": "Nova Era",
        "street": "Rua Guanabara",
        "zipcode": "36574-190"
    },
    {
        "city": "Viçosa",
        "state": "MG",
        "district": "Santo Antônio",
        "street": "Rua Juscelino Kubitschek",
        "zipcode": "36576-072"
    },
    {
        "city": "Viçosa",
        "state": "MG",
        "district": "Santo Antônio",
        "street": "Rua R",
        "zipcode": "36576-076"
    },
    {
        "city": "Viçosa",
        "state": "MG",
        "district": "Santo Antônio",
        "street": "Rua São Judas",
        "zipcode": "36576-078"
    },
    {
        "city": "Viçosa",
        "state": "MG",
        "district": "Santo Antônio",
        "street": "Rua José Medina Floresta",
        "zipcode": "36576-096"
    },
    {
        "city": "Viçosa",
        "state": "MG",
        "district": "Santo Antônio",
        "street": "Rua Lindolfo Rocha de Oliveira",
        "zipcode": "36576-108"
    },
    {
        "city": "Viçosa",
        "state": "MG",
        "district": "Santo Antônio",
        "street": "Rua Dona Militina",
        "zipcode": "36576-116"
    },
    {
        "city": "Viçosa",
        "state": "MG",
        "district": "Júlia Mollá",
        "street": "Rua G",
        "zipcode": "36576-138"
    },
    {
        "city": "Viçosa",
        "state": "MG",
        "district": "Residencial Silvestre",
        "street": "Avenida Gumercindo Iglesias",
        "zipcode": "36576-330"
    },
    {
        "city": "Viçosa",
        "state": "MG",
        "district": "Silvestre",
        "street": "Rua Manoel Hipólito",
        "zipcode": "36576-346"
    },
    {
        "city": "Viçosa",
        "state": "MG",
        "district": "Residencial Silvestre",
        "street": "Rua Santinha Brustoline",
        "zipcode": "36576-320"
    },
    {
        "city": "Viçosa",
        "state": "MG",
        "district": "João Braz da Costa Val",
        "street": "Rua da Mantiqueira",
        "zipcode": "36576-216"
    },
    {
        "city": "Viçosa",
        "state": "MG",
        "district": "Júlia Mollá",
        "street": "Rua D",
        "zipcode": "36576-140"
    },
    {
        "city": "Viçosa",
        "state": "MG",
        "district": "Júlia Mollá",
        "street": "Rua José Basílio de Figueiredo Júnior",
        "zipcode": "36576-146"
    },
    {
        "city": "Viçosa",
        "state": "MG",
        "district": "João Braz da Costa Val",
        "street": "Rua Paula Cândido",
        "zipcode": "36576-170"
    },
    {
        "city": "Viçosa",
        "state": "MG",
        "district": "João Braz da Costa Val",
        "street": "Rua Teixeiras",
        "zipcode": "36576-176"
    },
    {
        "city": "Viçosa",
        "state": "MG",
        "district": "João Braz da Costa Val",
        "street": "Rua Dona Leopoldina",
        "zipcode": "36576-188"
    },
    {
        "city": "Viçosa",
        "state": "MG",
        "district": "João Braz da Costa Val",
        "street": "Rua Rui Barbosa",
        "zipcode": "36576-204"
    },
    {
        "city": "Viçosa",
        "state": "MG",
        "district": "Liberdade 1",
        "street": "Rua Gerhardus Lambertus Voorpostel",
        "zipcode": "36576-262"
    },
    {
        "city": "Viçosa",
        "state": "MG",
        "district": "Liberdade 1",
        "street": "Rua D",
        "zipcode": "36576-268"
    },
    {
        "city": "Viçosa",
        "state": "MG",
        "district": "Inconfidência",
        "street": "Rua Maria Dorotéia",
        "zipcode": "36576-286"
    },
    {
        "city": "Viçosa",
        "state": "MG",
        "district": "Inconfidência",
        "street": "Rua Padre Rolim",
        "zipcode": "36576-290"
    },
    {
        "city": "Viçosa",
        "state": "MG",
        "district": "Inconfidência",
        "street": "Rua Álvares Maciel",
        "zipcode": "36576-296"
    },
    {
        "city": "Viçosa",
        "state": "MG",
        "district": "Silvestre",
        "street": "Travessa Camilo Rosa de Oliveira",
        "zipcode": "36576-352"
    },
    {
        "city": "Viçosa",
        "state": "MG",
        "district": "Silvestre",
        "street": "Rua José Arimatéia Lustosa",
        "zipcode": "36576-384"
    },
    {
        "city": "Viçosa",
        "state": "MG",
        "district": "Silvestre",
        "street": "Travessa José Arimatéia Lustosa",
        "zipcode": "36576-386"
    },
    {
        "city": "Viçosa",
        "state": "MG",
        "district": "Silvestre",
        "street": "Rua Ernestina Batista",
        "zipcode": "36576-392"
    },
    {
        "city": "Viçosa",
        "state": "MG",
        "district": "Novo Silvestre",
        "street": "Rua Buenos Aires",
        "zipcode": "36576-408"
    },
    {
        "city": "Viçosa",
        "state": "MG",
        "district": "Novo Silvestre",
        "street": "Rua Papa João Paulo I",
        "zipcode": "36576-422"
    },
    {
        "city": "Viçosa",
        "state": "MG",
        "district": "Novo Silvestre",
        "street": "Rua Maria Altina",
        "zipcode": "36576-430"
    },
    {
        "city": "Viçosa",
        "state": "MG",
        "district": "Silvestre",
        "street": "Rua José Camilo Fialho",
        "zipcode": "36576-344"
    },
    {
        "city": "Viçosa",
        "state": "MG",
        "district": "Novo Silvestre",
        "street": "Travessa Buenos Aires",
        "zipcode": "36576-410"
    },
    {
        "city": "Viçosa",
        "state": "MG",
        "district": "São José",
        "street": "Avenida Jacob Lopes de Castro",
        "zipcode": "36574-378"
    },
    {
        "city": "Viçosa",
        "state": "MG",
        "district": "Santa Clara",
        "street": "Rua Francisco Dourado Fontenele",
        "zipcode": "36572-094"
    },
    {
        "city": "Viçosa",
        "state": "MG",
        "district": "Rua Nova",
        "street": "Avenida Prefeito Geraldo Eustáquio Reis",
        "zipcode": "36570-406"
    },
    {
        "city": "Viçosa",
        "state": "MG",
        "district": "Ramos",
        "street": "Praça Alice Vaz de Melo Loureiro",
        "zipcode": "36570-246"
    },
    {
        "city": "Viçosa",
        "state": "MG",
        "district": "Santo Antônio",
        "street": "Rua A",
        "zipcode": "36576-124"
    },
    {
        "city": "Viçosa",
        "state": "MG",
        "district": "João Braz da Costa Val",
        "street": "Praça Tiradentes",
        "zipcode": "36576-972"
    },
    {
        "city": "Viçosa",
        "state": "MG",
        "district": "São Sebastião",
        "street": "Rua Aimorés",
        "zipcode": "36574-102"
    },
    {
        "city": "Viçosa",
        "state": "MG",
        "district": "Centro",
        "street": "Travessa João Carlos Belo Lisboa",
        "zipcode": "36570-055"
    },
    {
        "city": "Viçosa",
        "state": "MG",
        "district": "Centro",
        "street": "Travessa Sagrados Corações",
        "zipcode": "36570-065"
    },
    {
        "city": "Viçosa",
        "state": "MG",
        "district": "Vereda do Bosque",
        "street": "Travessa Castelo",
        "zipcode": "36570-184"
    },
    {
        "city": "Viçosa",
        "state": "MG",
        "district": "Centro",
        "street": "Rua Santa Luzia",
        "zipcode": "36570-129"
    },
    {
        "city": "Viçosa",
        "state": "MG",
        "district": "Vereda do Bosque",
        "street": "Rua Geninho Lentine",
        "zipcode": "36570-170"
    },
    {
        "city": "Viçosa",
        "state": "MG",
        "district": "Ramos",
        "street": "Rua José Ubaldo Paiva",
        "zipcode": "36570-266"
    },
    {
        "city": "Viçosa",
        "state": "MG",
        "district": "Vale do Sol",
        "street": "Rua José Lopes da Silva",
        "zipcode": "36574-154"
    },
    {
        "city": "Viçosa",
        "state": "MG",
        "district": "Vereda do Bosque",
        "street": "Rua Doutor Milton Bandeira",
        "zipcode": "36570-172"
    },
    {
        "city": "Viçosa",
        "state": "MG",
        "district": "Clélia Bernardes",
        "street": "Rua João José de Araújo",
        "zipcode": "36570-294"
    },
    {
        "city": "Viçosa",
        "state": "MG",
        "district": "Romão dos Reis",
        "street": "Avenida Prefeito Geraldo Eustáquio Reis",
        "zipcode": "36570-396"
    },
    {
        "city": "Viçosa",
        "state": "MG",
        "district": "Vereda do Bosque",
        "street": "Rua Professora Lígia Araújo",
        "zipcode": "36570-176"
    },
    {
        "city": "Viçosa",
        "state": "MG",
        "district": "Condomínio Residencial Octávio Pacheco",
        "street": "Rua A",
        "zipcode": "36570-480"
    },
    {
        "city": "Viçosa",
        "state": "MG",
        "district": "Fátima",
        "street": "Avenida Padre Geraldo Martins Paiva",
        "zipcode": "36572-120"
    },
    {
        "city": "Viçosa",
        "state": "MG",
        "district": "Nova Viçosa",
        "street": "Rua Antônio Fortes dos Santos",
        "zipcode": "36572-308"
    },
    {
        "city": "Viçosa",
        "state": "MG",
        "district": "Bom Jesus",
        "street": "Rua José Antônio Teixeira",
        "zipcode": "36570-380"
    },
    {
        "city": "Viçosa",
        "state": "MG",
        "district": "Romão dos Reis",
        "street": "Travessa Romão dos Reis",
        "zipcode": "36570-392"
    },
    {
        "city": "Viçosa",
        "state": "MG",
        "district": "Nova Viçosa",
        "street": "Rua Luciana Monteiro Fonseca",
        "zipcode": "36572-428"
    },
    {
        "city": "Viçosa",
        "state": "MG",
        "district": "Nova Viçosa",
        "street": "Rua José Teotônio Pachceco",
        "zipcode": "36572-446"
    },
    {
        "city": "Viçosa",
        "state": "MG",
        "district": "Vale do Sol",
        "street": "Rua Raimundo NOnato da Paixão",
        "zipcode": "36574-160"
    },
    {
        "city": "Viçosa",
        "state": "MG",
        "district": "Prefeito Moacir Andrade",
        "street": "Rua Professor Fernando Rocha",
        "zipcode": "36574-294"
    },
    {
        "city": "Viçosa",
        "state": "MG",
        "district": "Vau Açu",
        "street": "Rua Antônio Raimundo Faustino",
        "zipcode": "36574-322"
    },
    {
        "city": "Viçosa",
        "state": "MG",
        "district": "Santo Antônio",
        "street": "Rua Dona Violeta Vasconcelos Souza Carmo",
        "zipcode": "36576-016"
    },
    {
        "city": "Viçosa",
        "state": "MG",
        "district": "Santo Antônio",
        "street": "Travessa Josino Lopes Ladeira",
        "zipcode": "36576-068"
    },
    {
        "city": "Viçosa",
        "state": "MG",
        "district": "Júlia Mollá",
        "street": "Rua José Virgílio Fontes",
        "zipcode": "36576-132"
    },
    {
        "city": "Viçosa",
        "state": "MG",
        "district": "João Braz da Costa Val",
        "street": "Rua Domiciano Lopes de Faria",
        "zipcode": "36576-192"
    },
    {
        "city": "Viçosa",
        "state": "MG",
        "district": "Novo Silvestre",
        "street": "Avenida Oraida Mendes de Castro",
        "zipcode": "36576-400"
    },
    {
        "city": "Viçosa",
        "state": "MG",
        "district": "João Braz",
        "street": "Praça Tiradentes 50",
        "zipcode": "36570-971"
    },
    {
        "city": "Viçosa",
        "state": "MG",
        "district": "Centro",
        "street": "Rua João Bosco R. Andrade 200",
        "zipcode": "36570-973"
    }
]