[
    {
        "city": "Brasilia",
        "state": "DF",
        "district": "Setor De Autarquias Sul",
        "street": "Setor Saus",
        "zipcode": "70070-000"
    },
    {
        "city": "Brasilia",
        "state": "DF",
        "district": "Asa Norte",
        "street": "Alameda C.universitario (Unb)",
        "zipcode": "70900-000"
    },
    {
        "city": "Brasilia",
        "state": "DF",
        "district": "Asa Sul",
        "street": "Quadra Seps 702/902",
        "zipcode": "70390-038"
    },
    {
        "city": "Brasilia",
        "state": "DF",
        "district": "Asa Norte",
        "street": "Bloco Sepn 702 Bloco B",
        "zipcode": "70720-720"
    },
    {
        "city": "Brasilia",
        "state": "DF",
        "district": "Asa Norte",
        "street": "Bloco Sepn 702 Bloco C",
        "zipcode": "70720-730"
    },
    {
        "city": "Brasilia",
        "state": "DF",
        "district": "Setor De Grandes Areas Norte (Leste)",
        "street": "Quadra Sgan 611",
        "zipcode": "70860-110"
    },
    {
        "city": "Brasilia",
        "state": "DF",
        "district": "Setor Bancario Norte",
        "street": "Setor Sbn",
        "zipcode": "70040-000"
    },
    {
        "city": "Brasilia",
        "state": "DF",
        "district": "Asa Norte",
        "street": "Bloco Sepn 702 Bloco A",
        "zipcode": "70720-710"
    },
    {
        "city": "Brasilia",
        "state": "DF",
        "district": "Setor De Grandes Areas Norte (Leste)",
        "street": "Quadra Sgan 608",
        "zipcode": "70850-080"
    },
    {
        "city": "Brasilia",
        "state": "DF",
        "district": "Asa Norte",
        "street": "Setor Srpn",
        "zipcode": "70620-100"
    },
    {
        "city": "Brasilia",
        "state": "DF",
        "district": "Setor De Grandes Areas Norte (Leste)",
        "street": "Quadra Sgan 610",
        "zipcode": "70860-100"
    },
    {
        "city": "Brasilia",
        "state": "DF",
        "district": "Setor De Grandes Areas Norte (Leste)",
        "street": "Quadra Sgan 612",
        "zipcode": "70860-120"
    },
    {
        "city": "Brasilia",
        "state": "DF",
        "district": "Asa Norte",
        "street": "Quadra Sepn 702",
        "zipcode": "70720-700"
    },
    {
        "city": "Brasilia",
        "state": "DF",
        "district": "Setor De Grandes Areas Norte (Leste)",
        "street": "Quadra Sgan 606",
        "zipcode": "70840-060"
    },
    {
        "city": "Brasilia",
        "state": "DF",
        "district": "Setor Bancario Sul",
        "street": "Setor Sbs",
        "zipcode": "70070-100"
    },
    {
        "city": "Brasilia",
        "state": "DF",
        "district": "Setor De Grandes Areas Norte (Leste)",
        "street": "Quadra Sgan 604",
        "zipcode": "70840-040"
    },
    {
        "city": "Brasilia",
        "state": "DF",
        "district": "Setor De Grandes Areas Norte (Leste)",
        "street": "Quadra Sgan 607",
        "zipcode": "70850-070"
    },
    {
        "city": "Brasilia",
        "state": "DF",
        "district": "Setor De Grandes Areas Norte (Leste)",
        "street": "Quadra Sgan 609",
        "zipcode": "70850-090"
    },
    {
        "city": "Brasilia",
        "state": "DF",
        "district": "Setor De Autarquias Norte",
        "street": "Setor Saun",
        "zipcode": "70040-200"
    },
    {
        "city": "Brasilia",
        "state": "DF",
        "district": "Vila Planalto",
        "street": "Vila Planalto",
        "zipcode": "70800-000"
    },
    {
        "city": "Brasilia",
        "state": "DF",
        "district": "Setor De Grandes Areas Norte (Leste)",
        "street": "Quadra Sgan 603",
        "zipcode": "70830-030"
    },
    {
        "city": "Brasilia",
        "state": "DF",
        "district": "Setor De Grandes Areas Norte (Leste)",
        "street": "Quadra Sgan 605",
        "zipcode": "70840-050"
    }
]