[
    {
        "city": "Cruzeiro",
        "state": "DF",
        "district": "Cruzeiro Velho",
        "street": "Setor Setor Escolar",
        "zipcode": "70640-001"
    },
    {
        "city": "Cruzeiro",
        "state": "DF",
        "district": "Setor Sudoeste",
        "street": "Quadra Qrsw 01 (Comercio Local)",
        "zipcode": "70675-150"
    },
    {
        "city": "Cruzeiro",
        "state": "DF",
        "district": "Setor Sudoeste",
        "street": "Quadra Qrsw 03 (Comercio Local)",
        "zipcode": "70675-350"
    },
    {
        "city": "Cruzeiro",
        "state": "DF",
        "district": "Setor Sudoeste",
        "street": "Quadra Qrsw 06 (Comercio Local)",
        "zipcode": "70675-650"
    },
    {
        "city": "Cruzeiro",
        "state": "DF",
        "district": "Setor Sudoeste",
        "street": "Quadra Qrsw 02 (Comercio Local)",
        "zipcode": "70675-250"
    },
    {
        "city": "Cruzeiro",
        "state": "DF",
        "district": "Cruzeiro Novo",
        "street": "Bloco Shces Q 0903 Bloco",
        "zipcode": "70655-033"
    },
    {
        "city": "Cruzeiro",
        "state": "DF",
        "district": "Setor Sudoeste",
        "street": "Quadra Qrsw 04 (Comercio Local)",
        "zipcode": "70675-450"
    },
    {
        "city": "Cruzeiro",
        "state": "DF",
        "district": "Setor Sudoeste",
        "street": "Quadra Qrsw 08 (Comercio Local)",
        "zipcode": "70675-850"
    }
]