[
    {
        "city": "Gama",
        "state": "DF",
        "district": "Area Alfa",
        "street": "Loteamento Area Alfa",
        "zipcode": "72433-000"
    },
    {
        "city": "Gama",
        "state": "DF",
        "district": "Setor Sul",
        "street": "Alameda Q 010 Areas Especiais",
        "zipcode": "72415-521"
    },
    {
        "city": "Gama",
        "state": "DF",
        "district": "Setor Sul",
        "street": "Alameda Q 006 Areas Especiais",
        "zipcode": "72415-330"
    },
    {
        "city": "Gama",
        "state": "DF",
        "district": "Setor Sul",
        "street": "Conjunto Q 015 Comercio Local",
        "zipcode": "72410-820"
    },
    {
        "city": "Gama",
        "state": "DF",
        "district": "Setor Leste",
        "street": "Quadra Q 050",
        "zipcode": "72455-500"
    },
    {
        "city": "Gama",
        "state": "DF",
        "district": "Setor Sul",
        "street": "Alameda Q 012 Areas Especiais",
        "zipcode": "72415-630"
    },
    {
        "city": "Gama",
        "state": "DF",
        "district": "Setor Norte",
        "street": "Alameda Q 002 Areas Especiais",
        "zipcode": "72430-230"
    },
    {
        "city": "Gama",
        "state": "DF",
        "district": "Setor Sul",
        "street": "Alameda Q 009 Areas Especiais",
        "zipcode": "72410-530"
    },
    {
        "city": "Gama",
        "state": "DF",
        "district": "Setor Central",
        "street": "Setor Scc",
        "zipcode": "72404-000"
    },
    {
        "city": "Gama",
        "state": "DF",
        "district": "Setor Norte",
        "street": "Alameda Q 001 Areas Especiais",
        "zipcode": "72430-130"
    },
    {
        "city": "Gama",
        "state": "DF",
        "district": "Setor Sul",
        "street": "Alameda Q 011 Areas Especiais",
        "zipcode": "72410-630"
    },
    {
        "city": "Gama",
        "state": "DF",
        "district": "Setor Sul",
        "street": "Alameda Q 008 Areas Especiais",
        "zipcode": "72415-430"
    },
    {
        "city": "Gama",
        "state": "DF",
        "district": "Setor Sul",
        "street": "Quadra Eq 13/15 Comercio Local",
        "zipcode": "72410-720"
    },
    {
        "city": "Gama",
        "state": "DF",
        "district": "Setor Oeste",
        "street": "Alameda Areas Especiais",
        "zipcode": "72425-000"
    },
    {
        "city": "Gama",
        "state": "DF",
        "district": "Setor Sul",
        "street": "Alameda Q 005 Areas Especiais",
        "zipcode": "72410-330"
    },
    {
        "city": "Gama",
        "state": "DF",
        "district": "Setor Sul",
        "street": "Quadra Q 012 Comercial Local",
        "zipcode": "72415-620"
    }
]