[
    {
        "city": "Lago Sul",
        "state": "DF",
        "district": "Setor De Habitacoes Individuais Sul",
        "street": "Condomínio Mansoes Rurais Do Lago Sul",
        "zipcode": "71680-609"
    },
    {
        "city": "Lago Sul",
        "state": "DF",
        "district": "Setor De Habitacoes Individuais Sul",
        "street": "Quadra Shis Qi 09 Comercio Local",
        "zipcode": "71625-000"
    },
    {
        "city": "Lago Sul",
        "state": "DF",
        "district": "Setor De Habitacoes Individuais Sul",
        "street": "Quadra Shis Qi 13 Comercio Local",
        "zipcode": "71635-500"
    },
    {
        "city": "Lago Sul",
        "state": "DF",
        "district": "Setor De Habitacoes Individuais Sul",
        "street": "Quadra Shis Qi 15",
        "zipcode": "71635-200"
    },
    {
        "city": "Lago Sul",
        "state": "DF",
        "district": "Setor De Habitacoes Individuais Sul",
        "street": "Condomínio Villages Da Alvorada",
        "zipcode": "71680-351"
    },
    {
        "city": "Lago Sul",
        "state": "DF",
        "district": "Setor De Habitacoes Individuais Sul",
        "street": "Condomínio Mansoes Rural Do Lago Sul",
        "zipcode": "71680-607"
    },
    {
        "city": "Lago Sul",
        "state": "DF",
        "district": "Setor De Habitacoes Individuais Sul",
        "street": "Condomínio Rural Prive Do Lago Sul",
        "zipcode": "71680-602"
    },
    {
        "city": "Lago Sul",
        "state": "DF",
        "district": "Setor De Habitacoes Individuais Sul",
        "street": "Conjunto Shis Qi 27 Comercio Local",
        "zipcode": "71675-500"
    },
    {
        "city": "Lago Sul",
        "state": "DF",
        "district": "Setor De Habitacoes Individuais Sul",
        "street": "Condomínio Sao Francisco Ii",
        "zipcode": "71680-605"
    },
    {
        "city": "Lago Sul",
        "state": "DF",
        "district": "Setor De Habitacoes Individuais Sul",
        "street": "Condomínio Do Trevo",
        "zipcode": "71680-600"
    },
    {
        "city": "Lago Sul",
        "state": "DF",
        "district": "Setor De Habitacoes Individuais Sul",
        "street": "Conjunto Shis Qi 29 Comercio Local",
        "zipcode": "71675-550"
    },
    {
        "city": "Lago Sul",
        "state": "DF",
        "district": "Setor De Habitacoes Individuais Sul",
        "street": "Quadra Shis Ql 16 Comercio Local",
        "zipcode": "71640-500"
    },
    {
        "city": "Lago Sul",
        "state": "DF",
        "district": "Setor De Habitacoes Individuais Sul",
        "street": "Quadra Shis Qi 28 Comercio Local",
        "zipcode": "71670-500"
    },
    {
        "city": "Lago Sul",
        "state": "DF",
        "district": "Setor De Habitacoes Individuais Sul",
        "street": "Quadra Shis Qi 05",
        "zipcode": "71615-005"
    },
    {
        "city": "Lago Sul",
        "state": "DF",
        "district": "Setor De Habitacoes Individuais Sul",
        "street": "Condomínio Santa Barbara",
        "zipcode": "71680-603"
    }
]