[
    {
        "city": "Nucleo Bandeirante",
        "state": "DF",
        "district": "Nucleo Bandeirante",
        "street": "Avenida Central",
        "zipcode": "71710-000"
    },
    {
        "city": "Nucleo Bandeirante",
        "state": "DF",
        "district": "Nucleo Bandeirante",
        "street": "Avenida Contorno",
        "zipcode": "71705-000"
    },
    {
        "city": "Nucleo Bandeirante",
        "state": "DF",
        "district": "Nucleo Bandeirante",
        "street": "Avenida Dom Bosco",
        "zipcode": "71715-500"
    },
    {
        "city": "Nucleo Bandeirante",
        "state": "DF",
        "district": "Nucleo Bandeirante",
        "street": "Avenida Terceira Area Especial 13",
        "zipcode": "71720-591"
    },
    {
        "city": "Nucleo Bandeirante",
        "state": "DF",
        "district": "Nucleo Bandeirante",
        "street": "Avenida Segunda",
        "zipcode": "71715-000"
    },
    {
        "city": "Nucleo Bandeirante",
        "state": "DF",
        "district": "Setor De Oficinas",
        "street": "Setor Setor De Oficinas",
        "zipcode": "71705-520"
    },
    {
        "city": "Nucleo Bandeirante",
        "state": "DF",
        "district": "Nucleo Bandeirante",
        "street": "Avenida Terceira",
        "zipcode": "71720-000"
    },
    {
        "city": "Nucleo Bandeirante",
        "state": "DF",
        "district": "Nucleo Bandeirante",
        "street": "Avenida Segunda Bloco 1685",
        "zipcode": "71715-055"
    },
    {
        "city": "Nucleo Bandeirante",
        "state": "DF",
        "district": "Nucleo Bandeirante",
        "street": "Avenida Terc. Area Esp. (Mercado Nucleo Bandeirante)",
        "zipcode": "71720-540"
    }
]