[
    {
        "city": "Riacho Fundo",
        "state": "DF",
        "district": "Riacho Fundo Ii",
        "street": "Quadra Qn 05",
        "zipcode": "71880-500"
    },
    {
        "city": "Riacho Fundo",
        "state": "DF",
        "district": "Riacho Fundo",
        "street": "Bloco Qs 02 Cls Bloco B (Comercio)",
        "zipcode": "71820-502"
    },
    {
        "city": "Riacho Fundo",
        "state": "DF",
        "district": "Riacho Fundo",
        "street": "Pra√ßa Qn 01 Praca",
        "zipcode": "71805-150"
    },
    {
        "city": "Riacho Fundo",
        "state": "DF",
        "district": "Riacho Fundo",
        "street": "Bloco Qs 02 Cls Bloco A (Comercio)",
        "zipcode": "71820-501"
    },
    {
        "city": "Riacho Fundo",
        "state": "DF",
        "district": "Riacho Fundo",
        "street": "Bloco Qn 01 Bloco 10 (Comercio)",
        "zipcode": "71805-503"
    },
    {
        "city": "Riacho Fundo",
        "state": "DF",
        "district": "Riacho Fundo",
        "street": "Bloco Qn 01 Bloco 27 (Comercio)",
        "zipcode": "71805-506"
    },
    {
        "city": "Riacho Fundo",
        "state": "DF",
        "district": "Riacho Fundo",
        "street": "Bloco Qn 01 Bloco 23 (Comercio)",
        "zipcode": "71805-505"
    },
    {
        "city": "Riacho Fundo",
        "state": "DF",
        "district": "Riacho Fundo",
        "street": "Bloco Qn 01 Bloco 01 (Comercio)",
        "zipcode": "71805-501"
    },
    {
        "city": "Riacho Fundo",
        "state": "DF",
        "district": "Riacho Fundo",
        "street": "Bloco Qn 01 Bloco 06 (Comercio)",
        "zipcode": "71805-502"
    },
    {
        "city": "Riacho Fundo",
        "state": "DF",
        "district": "Riacho Fundo",
        "street": "Bloco Qn 01 Bloco 19 (Comercio)",
        "zipcode": "71805-504"
    }
]