[
    {
        "city": "Samambaia",
        "state": "DF",
        "district": "Samambaia Sul",
        "street": "Conjunto Sm",
        "zipcode": "72313-405"
    },
    {
        "city": "Samambaia",
        "state": "DF",
        "district": "Samambaia Norte",
        "street": "Conjunto Sm",
        "zipcode": "72320-405"
    },
    {
        "city": "Samambaia",
        "state": "DF",
        "district": "Samambaia Sul",
        "street": "Conjunto Qn 317 Conjunto 15",
        "zipcode": "72307-715"
    },
    {
        "city": "Samambaia",
        "state": "DF",
        "district": "Samambaia Norte",
        "street": "Conjunto Sm",
        "zipcode": "72320-415"
    },
    {
        "city": "Samambaia",
        "state": "DF",
        "district": "Samambaia Sul",
        "street": "Bloco Qs 111 Bloco 09 (Comercio)",
        "zipcode": "72301-559"
    },
    {
        "city": "Samambaia",
        "state": "DF",
        "district": "Samambaia Norte",
        "street": "Conjunto Sm",
        "zipcode": "72320-407"
    },
    {
        "city": "Samambaia",
        "state": "DF",
        "district": "Samambaia Sul",
        "street": "Conjunto Qn 319 Conjunto 11",
        "zipcode": "72309-011"
    },
    {
        "city": "Samambaia",
        "state": "DF",
        "district": "Samambaia Sul",
        "street": "Conjunto Sm",
        "zipcode": "72313-401"
    },
    {
        "city": "Samambaia",
        "state": "DF",
        "district": "Samambaia Sul",
        "street": "Conjunto Sm",
        "zipcode": "72313-404"
    },
    {
        "city": "Samambaia",
        "state": "DF",
        "district": "Samambaia Norte",
        "street": "Conjunto Sm",
        "zipcode": "72320-412"
    },
    {
        "city": "Samambaia",
        "state": "DF",
        "district": "Samambaia Sul",
        "street": "Conjunto Qn 319 Conjunto 12",
        "zipcode": "72309-012"
    },
    {
        "city": "Samambaia",
        "state": "DF",
        "district": "Samambaia Norte",
        "street": "Conjunto Sm",
        "zipcode": "72320-404"
    },
    {
        "city": "Samambaia",
        "state": "DF",
        "district": "Samambaia Sul",
        "street": "Bloco Qs 111 Bloco 08 (Comercio)",
        "zipcode": "72301-558"
    },
    {
        "city": "Samambaia",
        "state": "DF",
        "district": "Samambaia Norte",
        "street": "Conjunto Sm",
        "zipcode": "72320-410"
    },
    {
        "city": "Samambaia",
        "state": "DF",
        "district": "Samambaia Norte",
        "street": "Conjunto Sm",
        "zipcode": "72320-417"
    },
    {
        "city": "Samambaia",
        "state": "DF",
        "district": "Samambaia",
        "street": "Alameda Qr 402 Area Especial (Caesb)",
        "zipcode": "72318-034"
    },
    {
        "city": "Samambaia",
        "state": "DF",
        "district": "Samambaia Sul",
        "street": "Bloco Qs 107 Cs (Comercio)",
        "zipcode": "72301-529"
    },
    {
        "city": "Samambaia",
        "state": "DF",
        "district": "Samambaia Sul",
        "street": "Conjunto Sm",
        "zipcode": "72313-403"
    },
    {
        "city": "Samambaia",
        "state": "DF",
        "district": "Samambaia Norte",
        "street": "Conjunto Sm",
        "zipcode": "72320-414"
    },
    {
        "city": "Samambaia",
        "state": "DF",
        "district": "Samambaia Sul",
        "street": "Conjunto Sm",
        "zipcode": "72313-402"
    },
    {
        "city": "Samambaia",
        "state": "DF",
        "district": "Samambaia Norte",
        "street": "Conjunto Sm",
        "zipcode": "72320-411"
    },
    {
        "city": "Samambaia",
        "state": "DF",
        "district": "Samambaia Sul",
        "street": "Bloco Qs 111 Bloco 07 (Comercio)",
        "zipcode": "72301-557"
    },
    {
        "city": "Samambaia",
        "state": "DF",
        "district": "Samambaia Sul",
        "street": "Bloco Qs 111 Bloco 06 (Comercio)",
        "zipcode": "72301-556"
    },
    {
        "city": "Samambaia",
        "state": "DF",
        "district": "Samambaia Norte",
        "street": "Conjunto Sm",
        "zipcode": "72320-402"
    },
    {
        "city": "Samambaia",
        "state": "DF",
        "district": "Samambaia Norte",
        "street": "Conjunto Sm",
        "zipcode": "72320-418"
    },
    {
        "city": "Samambaia",
        "state": "DF",
        "district": "Samambaia Norte",
        "street": "Conjunto Sm",
        "zipcode": "72320-422"
    },
    {
        "city": "Samambaia",
        "state": "DF",
        "district": "Samambaia Sul",
        "street": "Conjunto Qn 325 Conjunto 11",
        "zipcode": "72309-711"
    },
    {
        "city": "Samambaia",
        "state": "DF",
        "district": "Samambaia Sul",
        "street": "Bloco Qs 125 Bloco 11 (Comercio)",
        "zipcode": "72303-521"
    },
    {
        "city": "Samambaia",
        "state": "DF",
        "district": "Samambaia Norte",
        "street": "Conjunto Sm",
        "zipcode": "72320-401"
    },
    {
        "city": "Samambaia",
        "state": "DF",
        "district": "Samambaia Sul",
        "street": "Conjunto Sm",
        "zipcode": "72313-406"
    },
    {
        "city": "Samambaia",
        "state": "DF",
        "district": "Samambaia Sul",
        "street": "Conjunto Qn 323 Conjunto 07",
        "zipcode": "72309-407"
    },
    {
        "city": "Samambaia",
        "state": "DF",
        "district": "Samambaia Norte",
        "street": "Conjunto Sm",
        "zipcode": "72320-408"
    },
    {
        "city": "Samambaia",
        "state": "DF",
        "district": "Samambaia Norte",
        "street": "Conjunto Sm",
        "zipcode": "72320-421"
    },
    {
        "city": "Samambaia",
        "state": "DF",
        "district": "Samambaia Norte",
        "street": "Conjunto Sm",
        "zipcode": "72320-420"
    }
]