[
    {
        "city": "Santa Maria",
        "state": "DF",
        "district": "Santa Maria",
        "street": "Bloco Eq 417/418/517/518 Bloco F",
        "zipcode": "72547-336"
    },
    {
        "city": "Santa Maria",
        "state": "DF",
        "district": "Santa Maria",
        "street": "Bloco Eq 417/418/517/518 Bloco H",
        "zipcode": "72547-338"
    },
    {
        "city": "Santa Maria",
        "state": "DF",
        "district": "Santa Maria",
        "street": "Bloco Eq 417/418/517/518 Bloco I",
        "zipcode": "72547-339"
    },
    {
        "city": "Santa Maria",
        "state": "DF",
        "district": "Sitio Do Gama",
        "street": "Alameda Qbr 06 Area Especial",
        "zipcode": "72594-450"
    },
    {
        "city": "Santa Maria",
        "state": "DF",
        "district": "Santa Maria",
        "street": "Bloco Eq 417/418/517/518 Bloco G",
        "zipcode": "72547-337"
    },
    {
        "city": "Santa Maria",
        "state": "DF",
        "district": "Santa Maria",
        "street": "Condom√≠nio Sitio Do Gama",
        "zipcode": "72590-000"
    },
    {
        "city": "Santa Maria",
        "state": "DF",
        "district": "Santa Maria",
        "street": "Bloco Eq 417/418/517/518 Bloco J",
        "zipcode": "72547-340"
    },
    {
        "city": "Santa Maria",
        "state": "DF",
        "district": "Santa Maria",
        "street": "Bloco Eq 417/418/517/518 Bloco C",
        "zipcode": "72547-333"
    },
    {
        "city": "Santa Maria",
        "state": "DF",
        "district": "Santa Maria",
        "street": "Bloco Eq 417/418/517/518 Bloco A",
        "zipcode": "72547-331"
    },
    {
        "city": "Santa Maria",
        "state": "DF",
        "district": "Santa Maria",
        "street": "Bloco Eq 417/418/517/518 Bloco B",
        "zipcode": "72547-332"
    },
    {
        "city": "Santa Maria",
        "state": "DF",
        "district": "Santa Maria",
        "street": "Bloco Eq 417/418/517/518 Bloco D",
        "zipcode": "72547-334"
    },
    {
        "city": "Santa Maria",
        "state": "DF",
        "district": "Santa Maria",
        "street": "Bloco Eq 417/418/517/518 Bloco E",
        "zipcode": "72547-335"
    }
]