[
    {
        "city": "Sao Sebastiao",
        "state": "DF",
        "district": "Setor Residencial Oeste",
        "street": "Quadra 202",
        "zipcode": "71692-105"
    },
    {
        "city": "Sao Sebastiao",
        "state": "DF",
        "district": "Setor Residencial Oeste",
        "street": "Quadra 103",
        "zipcode": "71692-103"
    },
    {
        "city": "Sao Sebastiao",
        "state": "DF",
        "district": "Setor Residencial Oeste",
        "street": "Quadra 203",
        "zipcode": "71692-106"
    },
    {
        "city": "Sao Sebastiao",
        "state": "DF",
        "district": "Centro",
        "street": "Avenida Comercial Centro",
        "zipcode": "71691-001"
    },
    {
        "city": "Sao Sebastiao",
        "state": "DF",
        "district": "Centro",
        "street": "Rua Da Gameleira",
        "zipcode": "71691-049"
    },
    {
        "city": "Sao Sebastiao",
        "state": "DF",
        "district": "Centro",
        "street": "Rua Da Ponte",
        "zipcode": "71691-048"
    },
    {
        "city": "Sao Sebastiao",
        "state": "DF",
        "district": "Centro",
        "street": "Rua Sao Sebastiao",
        "zipcode": "71691-031"
    },
    {
        "city": "Sao Sebastiao",
        "state": "DF",
        "district": "Bela Vista",
        "street": "Quadra 06 Conjunto M",
        "zipcode": "71694-101"
    },
    {
        "city": "Sao Sebastiao",
        "state": "DF",
        "district": "Residencial Do Bosque",
        "street": "Avenida Comercial",
        "zipcode": "71694-048"
    }
]