[
    {
        "city": "Sobradinho",
        "state": "DF",
        "district": "Sobradinho",
        "street": "Condomínio Jardim Ipanema",
        "zipcode": "73070-024"
    },
    {
        "city": "Sobradinho",
        "state": "DF",
        "district": "Sobradinho",
        "street": "Condomínio Recanto Do Mene B",
        "zipcode": "73070-004"
    },
    {
        "city": "Sobradinho",
        "state": "DF",
        "district": "Sobradinho",
        "street": "Condomínio Alvorecer Dos Passaros",
        "zipcode": "73070-011"
    },
    {
        "city": "Sobradinho",
        "state": "DF",
        "district": "Sobradinho",
        "street": "Condomínio Versalhes",
        "zipcode": "73070-007"
    },
    {
        "city": "Sobradinho",
        "state": "DF",
        "district": "Sobradinho Ii",
        "street": "Setor Setor De Mansoes De Sobradinho",
        "zipcode": "73080-000"
    },
    {
        "city": "Sobradinho",
        "state": "DF",
        "district": "Sobradinho",
        "street": "Condomínio Serra Dourada",
        "zipcode": "73070-050"
    },
    {
        "city": "Sobradinho",
        "state": "DF",
        "district": "Sobradinho",
        "street": "Condomínio Bela Vista",
        "zipcode": "73070-034"
    },
    {
        "city": "Sobradinho",
        "state": "DF",
        "district": "Sobradinho",
        "street": "Quadra Q 001 Comercio Local",
        "zipcode": "73020-500"
    },
    {
        "city": "Sobradinho",
        "state": "DF",
        "district": "Sobradinho",
        "street": "Condomínio Asa Branca/porto Real",
        "zipcode": "73017-011"
    },
    {
        "city": "Sobradinho",
        "state": "DF",
        "district": "Sobradinho",
        "street": "Condomínio Vivendas Da Serra Ii",
        "zipcode": "73070-014"
    },
    {
        "city": "Sobradinho",
        "state": "DF",
        "district": "Sobradinho",
        "street": "Quadra Q 011 Comercio Local",
        "zipcode": "73040-500"
    },
    {
        "city": "Sobradinho",
        "state": "DF",
        "district": "Sobradinho",
        "street": "Quadra Q 005 Comercio Local",
        "zipcode": "73030-530"
    },
    {
        "city": "Sobradinho",
        "state": "DF",
        "district": "Sobradinho",
        "street": "Condomínio Vivendas Bela Vista",
        "zipcode": "73070-018"
    },
    {
        "city": "Sobradinho",
        "state": "DF",
        "district": "Sobradinho",
        "street": "Condomínio Vivendas Friburgo",
        "zipcode": "73070-013"
    },
    {
        "city": "Sobradinho",
        "state": "DF",
        "district": "Sobradinho",
        "street": "Alameda Q 04 Areas Especiais",
        "zipcode": "73025-640"
    },
    {
        "city": "Sobradinho",
        "state": "DF",
        "district": "Sobradinho",
        "street": "Alameda Q 16 Areas Especiais",
        "zipcode": "73050-660"
    },
    {
        "city": "Sobradinho",
        "state": "DF",
        "district": "Sobradinho",
        "street": "Condomínio Vivendas Paraiso",
        "zipcode": "73070-020"
    },
    {
        "city": "Sobradinho",
        "state": "DF",
        "district": "Sobradinho",
        "street": "Quadra Q 009 Comercio Local",
        "zipcode": "73035-530"
    },
    {
        "city": "Sobradinho",
        "state": "DF",
        "district": "Sobradinho",
        "street": "Condomínio Contagem",
        "zipcode": "73070-003"
    },
    {
        "city": "Sobradinho",
        "state": "DF",
        "district": "Sobradinho",
        "street": "Condomínio Sobradinho Dos Melos Ii",
        "zipcode": "73017-003"
    },
    {
        "city": "Sobradinho",
        "state": "DF",
        "district": "Sobradinho",
        "street": "Alameda Q 09 Areas Especiais",
        "zipcode": "73035-690"
    },
    {
        "city": "Sobradinho",
        "state": "DF",
        "district": "Sobradinho",
        "street": "Condomínio Mansoes Entre Lagos Ii",
        "zipcode": "73017-005"
    },
    {
        "city": "Sobradinho",
        "state": "DF",
        "district": "Sobradinho",
        "street": "Condomínio Mansoes Entre Lagos I",
        "zipcode": "73017-004"
    },
    {
        "city": "Sobradinho",
        "state": "DF",
        "district": "Sobradinho",
        "street": "Condomínio Mansoes Entre Lagos Iv",
        "zipcode": "73017-007"
    },
    {
        "city": "Sobradinho",
        "state": "DF",
        "district": "Sobradinho",
        "street": "Condomínio Jardim Europa",
        "zipcode": "73070-012"
    },
    {
        "city": "Sobradinho",
        "state": "DF",
        "district": "Sobradinho",
        "street": "Alameda Q 01 Areas Especiais",
        "zipcode": "73020-601"
    },
    {
        "city": "Sobradinho",
        "state": "DF",
        "district": "Sobradinho",
        "street": "Quadra Q 013 Comercio Local",
        "zipcode": "73040-510"
    },
    {
        "city": "Sobradinho",
        "state": "DF",
        "district": "Sobradinho",
        "street": "Quadra Q 006 Comercio Local",
        "zipcode": "73025-530"
    },
    {
        "city": "Sobradinho",
        "state": "DF",
        "district": "Sobradinho",
        "street": "Alameda Q 05 Areas Especiais",
        "zipcode": "73030-650"
    },
    {
        "city": "Sobradinho",
        "state": "DF",
        "district": "Sobradinho",
        "street": "Condomínio Vivendas Colorado I",
        "zipcode": "73070-015"
    },
    {
        "city": "Sobradinho",
        "state": "DF",
        "district": "Sobradinho",
        "street": "Quadra Q 003 Comercio Local",
        "zipcode": "73030-500"
    },
    {
        "city": "Sobradinho",
        "state": "DF",
        "district": "Sobradinho",
        "street": "Quadra Q 016 Comercio Local",
        "zipcode": "73050-510"
    },
    {
        "city": "Sobradinho",
        "state": "DF",
        "district": "Sobradinho",
        "street": "Alameda Q 03 Areas Especiais",
        "zipcode": "73030-630"
    },
    {
        "city": "Sobradinho",
        "state": "DF",
        "district": "Sobradinho",
        "street": "Alameda Area Especial Para Industria 02",
        "zipcode": "73015-629"
    },
    {
        "city": "Sobradinho",
        "state": "DF",
        "district": "Sobradinho",
        "street": "Alameda Q 17 Areas Especiais",
        "zipcode": "73045-670"
    },
    {
        "city": "Sobradinho",
        "state": "DF",
        "district": "Sobradinho",
        "street": "Quadra Q 004 Comercio Local",
        "zipcode": "73025-500"
    },
    {
        "city": "Sobradinho",
        "state": "DF",
        "district": "Sobradinho",
        "street": "Alameda Q 07 Areas Especiais",
        "zipcode": "73035-078"
    },
    {
        "city": "Sobradinho",
        "state": "DF",
        "district": "Sobradinho",
        "street": "Quadra Q 007 Comercio Local",
        "zipcode": "73035-510"
    },
    {
        "city": "Sobradinho",
        "state": "DF",
        "district": "Sobradinho",
        "street": "Condomínio Recanto Do Mene A",
        "zipcode": "73070-001"
    },
    {
        "city": "Sobradinho",
        "state": "DF",
        "district": "Sobradinho",
        "street": "Quadra Q 009 Comercio Local",
        "zipcode": "73035-520"
    },
    {
        "city": "Sobradinho",
        "state": "DF",
        "district": "Sobradinho",
        "street": "Condomínio Sobradinho Dos Melos I",
        "zipcode": "73017-002"
    },
    {
        "city": "Sobradinho",
        "state": "DF",
        "district": "Sobradinho",
        "street": "Alameda Q 08 Areas Especiais",
        "zipcode": "73005-680"
    },
    {
        "city": "Sobradinho",
        "state": "DF",
        "district": "Sobradinho",
        "street": "Condomínio Parque Dos Buritis",
        "zipcode": "73017-008"
    },
    {
        "city": "Sobradinho",
        "state": "DF",
        "district": "Sobradinho",
        "street": "Condomínio Rio Negro",
        "zipcode": "73070-002"
    },
    {
        "city": "Sobradinho",
        "state": "DF",
        "district": "Sobradinho",
        "street": "Alameda Q 14 Areas Especiais",
        "zipcode": "73050-640"
    },
    {
        "city": "Sobradinho",
        "state": "DF",
        "district": "Sobradinho",
        "street": "Condomínio Rk",
        "zipcode": "73017-010"
    },
    {
        "city": "Sobradinho",
        "state": "DF",
        "district": "Sobradinho",
        "street": "Quadra Q 003 Comercio Local",
        "zipcode": "73030-510"
    },
    {
        "city": "Sobradinho",
        "state": "DF",
        "district": "Sobradinho",
        "street": "Condomínio Vivendas Colorado Ii",
        "zipcode": "73070-016"
    },
    {
        "city": "Sobradinho",
        "state": "DF",
        "district": "Sobradinho",
        "street": "Alameda Q 10 Areas Especiais",
        "zipcode": "73005-600"
    },
    {
        "city": "Sobradinho",
        "state": "DF",
        "district": "Sobradinho",
        "street": "Alameda Q 13 Areas Especiais",
        "zipcode": "73040-139"
    },
    {
        "city": "Sobradinho",
        "state": "DF",
        "district": "Sobradinho",
        "street": "Condomínio Sal Da Terra",
        "zipcode": "73070-049"
    },
    {
        "city": "Sobradinho",
        "state": "DF",
        "district": "Sobradinho",
        "street": "Condomínio Residencial Sobradinho I",
        "zipcode": "73070-010"
    },
    {
        "city": "Sobradinho",
        "state": "DF",
        "district": "Sobradinho",
        "street": "Quadra Q 005 Comercio Local",
        "zipcode": "73030-520"
    },
    {
        "city": "Sobradinho",
        "state": "DF",
        "district": "Sobradinho",
        "street": "Quadra Q 010 Comercio Local",
        "zipcode": "73005-530"
    },
    {
        "city": "Sobradinho",
        "state": "DF",
        "district": "Sobradinho",
        "street": "Quadra Q 012 Comercio Local",
        "zipcode": "73010-500"
    },
    {
        "city": "Sobradinho",
        "state": "DF",
        "district": "Sobradinho",
        "street": "Condomínio Mansoes Entre Lagos Iii",
        "zipcode": "73017-006"
    },
    {
        "city": "Sobradinho",
        "state": "DF",
        "district": "Sobradinho",
        "street": "Estrada Parque Do Contorno",
        "zipcode": "73065-000"
    },
    {
        "city": "Sobradinho",
        "state": "DF",
        "district": "Sobradinho",
        "street": "Condomínio Vivendas Campestre",
        "zipcode": "73070-019"
    },
    {
        "city": "Sobradinho",
        "state": "DF",
        "district": "Sobradinho",
        "street": "Condomínio Imperio Dos Nobres",
        "zipcode": "73017-009"
    },
    {
        "city": "Sobradinho",
        "state": "DF",
        "district": "Sobradinho",
        "street": "Quadra Q 010 Comercio Local",
        "zipcode": "73005-540"
    },
    {
        "city": "Sobradinho",
        "state": "DF",
        "district": "Sobradinho",
        "street": "Condomínio Residencial Sobradinho Iii",
        "zipcode": "73070-008"
    },
    {
        "city": "Sobradinho",
        "state": "DF",
        "district": "Sobradinho",
        "street": "Condomínio Residencial Sobradinho Ii",
        "zipcode": "73070-009"
    },
    {
        "city": "Sobradinho",
        "state": "DF",
        "district": "Sobradinho",
        "street": "Alameda Q 18 Areas Especiais",
        "zipcode": "73050-680"
    },
    {
        "city": "Sobradinho",
        "state": "DF",
        "district": "Sobradinho",
        "street": "Quadra Q 015 Comercio Local",
        "zipcode": "73045-500"
    },
    {
        "city": "Sobradinho",
        "state": "DF",
        "district": "Sobradinho",
        "street": "Condomínio Mansoes Sul Americana",
        "zipcode": "73017-001"
    },
    {
        "city": "Sobradinho",
        "state": "DF",
        "district": "Sobradinho",
        "street": "Condomínio Vivendas Da Serra I",
        "zipcode": "73070-025"
    },
    {
        "city": "Sobradinho",
        "state": "DF",
        "district": "Sobradinho",
        "street": "Alameda Q 06 Areas Especiais",
        "zipcode": "73025-660"
    },
    {
        "city": "Sobradinho",
        "state": "DF",
        "district": "Sobradinho",
        "street": "Condomínio Quintas Do Tocantis",
        "zipcode": "73070-042"
    },
    {
        "city": "Sobradinho",
        "state": "DF",
        "district": "Sobradinho",
        "street": "Condomínio Residencial Villa Verde",
        "zipcode": "73070-031"
    },
    {
        "city": "Sobradinho",
        "state": "DF",
        "district": "Sobradinho",
        "street": "Condomínio Residencial Morada",
        "zipcode": "73070-046"
    },
    {
        "city": "Sobradinho",
        "state": "DF",
        "district": "Sobradinho",
        "street": "Condomínio Morada Dos Nobres",
        "zipcode": "73070-028"
    },
    {
        "city": "Sobradinho",
        "state": "DF",
        "district": "Sobradinho",
        "street": "Condomínio Sobradinho Novo Etapa Ii",
        "zipcode": "73070-051"
    },
    {
        "city": "Sobradinho",
        "state": "DF",
        "district": "Sobradinho",
        "street": "Alameda Q 15 Areas Especiais",
        "zipcode": "73045-650"
    },
    {
        "city": "Sobradinho",
        "state": "DF",
        "district": "Sobradinho",
        "street": "Condomínio Jardim America",
        "zipcode": "73070-023"
    },
    {
        "city": "Sobradinho",
        "state": "DF",
        "district": "Sobradinho",
        "street": "Condomínio Residencial Vivendas Alvorada",
        "zipcode": "73070-033"
    },
    {
        "city": "Sobradinho",
        "state": "DF",
        "district": "Sobradinho",
        "street": "Condomínio Jardim Europa Ii",
        "zipcode": "73070-044"
    },
    {
        "city": "Sobradinho",
        "state": "DF",
        "district": "Sobradinho",
        "street": "Quadra Q 006 Comercio Local",
        "zipcode": "73025-520"
    },
    {
        "city": "Sobradinho",
        "state": "DF",
        "district": "Sobradinho",
        "street": "Condomínio Colorado I",
        "zipcode": "73070-035"
    },
    {
        "city": "Sobradinho",
        "state": "DF",
        "district": "Sobradinho",
        "street": "Condomínio Vivendas Serranas",
        "zipcode": "73070-027"
    },
    {
        "city": "Sobradinho",
        "state": "DF",
        "district": "Sobradinho",
        "street": "Condomínio Engenho Velho",
        "zipcode": "73070-036"
    },
    {
        "city": "Sobradinho",
        "state": "DF",
        "district": "Sobradinho",
        "street": "Condomínio Vivendas Alvorada Ii",
        "zipcode": "73070-022"
    },
    {
        "city": "Sobradinho",
        "state": "DF",
        "district": "Sobradinho",
        "street": "Condomínio Jardim Petropolis",
        "zipcode": "73070-005"
    },
    {
        "city": "Sobradinho",
        "state": "DF",
        "district": "Sobradinho",
        "street": "Condomínio Mansoes Colorado",
        "zipcode": "73070-030"
    },
    {
        "city": "Sobradinho",
        "state": "DF",
        "district": "Sobradinho",
        "street": "Condomínio Meu Sonho",
        "zipcode": "73070-021"
    },
    {
        "city": "Sobradinho",
        "state": "DF",
        "district": "Sobradinho",
        "street": "Condomínio Itapua",
        "zipcode": "73070-039"
    },
    {
        "city": "Sobradinho",
        "state": "DF",
        "district": "Sobradinho",
        "street": "Condomínio Fibral",
        "zipcode": "73070-037"
    },
    {
        "city": "Sobradinho",
        "state": "DF",
        "district": "Sobradinho",
        "street": "Condomínio Residencial Vila Rica",
        "zipcode": "73070-048"
    },
    {
        "city": "Sobradinho",
        "state": "DF",
        "district": "Sobradinho",
        "street": "Quadra Q 007 Comercio Local",
        "zipcode": "73035-500"
    },
    {
        "city": "Sobradinho",
        "state": "DF",
        "district": "Sobradinho",
        "street": "Condomínio Vivendas Alvorada I",
        "zipcode": "73070-053"
    },
    {
        "city": "Sobradinho",
        "state": "DF",
        "district": "Sobradinho",
        "street": "Condomínio Lago Azul",
        "zipcode": "73070-017"
    },
    {
        "city": "Sobradinho",
        "state": "DF",
        "district": "Sobradinho",
        "street": "Condomínio Residencial Petropolis",
        "zipcode": "73070-054"
    },
    {
        "city": "Sobradinho",
        "state": "DF",
        "district": "Sobradinho",
        "street": "Condomínio Prive Chacara Catavento",
        "zipcode": "73070-032"
    },
    {
        "city": "Sobradinho",
        "state": "DF",
        "district": "Sobradinho",
        "street": "Condomínio Mansoes Petropolis",
        "zipcode": "73070-040"
    },
    {
        "city": "Sobradinho",
        "state": "DF",
        "district": "Sobradinho",
        "street": "Quadra Q 004 Comercio Local",
        "zipcode": "73025-510"
    },
    {
        "city": "Sobradinho",
        "state": "DF",
        "district": "Sobradinho",
        "street": "Condomínio Bem Estar",
        "zipcode": "73070-006"
    },
    {
        "city": "Sobradinho",
        "state": "DF",
        "district": "Sobradinho",
        "street": "Condomínio Recanto Dos Nobres",
        "zipcode": "73070-026"
    },
    {
        "city": "Sobradinho",
        "state": "DF",
        "district": "Sobradinho",
        "street": "Condomínio Prive Mansoes Colorado",
        "zipcode": "73070-041"
    },
    {
        "city": "Sobradinho",
        "state": "DF",
        "district": "Sobradinho",
        "street": "Condomínio Visao Da Serra",
        "zipcode": "73070-052"
    },
    {
        "city": "Sobradinho",
        "state": "DF",
        "district": "Sobradinho",
        "street": "Quadra Q 014 Comercio Local",
        "zipcode": "73050-500"
    },
    {
        "city": "Sobradinho",
        "state": "DF",
        "district": "Sobradinho",
        "street": "Condomínio Bianca",
        "zipcode": "73070-029"
    },
    {
        "city": "Sobradinho",
        "state": "DF",
        "district": "Sobradinho",
        "street": "Condomínio Residencial Planalto",
        "zipcode": "73070-047"
    },
    {
        "city": "Sobradinho",
        "state": "DF",
        "district": "Sobradinho",
        "street": "Condomínio Halley",
        "zipcode": "73070-038"
    }
]