[
    {
        "city": "Taguatinga",
        "state": "DF",
        "district": "Taguatinga Norte",
        "street": "Setor Oficinas E Com. Afim Setor Aux. De Garagens",
        "zipcode": "72130-750"
    },
    {
        "city": "Taguatinga",
        "state": "DF",
        "district": "Aguas Claras",
        "street": "Quadra Qs 03",
        "zipcode": "72030-130"
    },
    {
        "city": "Taguatinga",
        "state": "DF",
        "district": "Taguatinga Norte",
        "street": "Alameda Areas Especiais",
        "zipcode": "72130-500"
    },
    {
        "city": "Taguatinga",
        "state": "DF",
        "district": "Aguas Claras",
        "street": "Quadra Qs 09",
        "zipcode": "72030-190"
    },
    {
        "city": "Taguatinga",
        "state": "DF",
        "district": "Aguas Claras",
        "street": "Quadra Qs 10",
        "zipcode": "72030-200"
    },
    {
        "city": "Taguatinga",
        "state": "DF",
        "district": "Aguas Claras",
        "street": "Quadra Qs 01",
        "zipcode": "72030-110"
    },
    {
        "city": "Taguatinga",
        "state": "DF",
        "district": "Aguas Claras",
        "street": "Quadra Qs 06",
        "zipcode": "72030-160"
    },
    {
        "city": "Taguatinga",
        "state": "DF",
        "district": "Aguas Claras",
        "street": "Quadra Qs 05",
        "zipcode": "72030-150"
    },
    {
        "city": "Taguatinga",
        "state": "DF",
        "district": "Aguas Claras",
        "street": "Quadra Qs 07",
        "zipcode": "72030-170"
    },
    {
        "city": "Taguatinga",
        "state": "DF",
        "district": "Taguatinga Sul",
        "street": "Setor Qsd (Setor De Oficinas)",
        "zipcode": "72020-600"
    },
    {
        "city": "Taguatinga",
        "state": "DF",
        "district": "Aguas Claras",
        "street": "Quadra Qs 08",
        "zipcode": "72030-180"
    },
    {
        "city": "Taguatinga",
        "state": "DF",
        "district": "Aguas Claras",
        "street": "Quadra Qs 02",
        "zipcode": "72030-120"
    },
    {
        "city": "Taguatinga",
        "state": "DF",
        "district": "Taguatinga Sul",
        "street": "Loteamento Aguas Claras",
        "zipcode": "72030-100"
    }
]