[
    {
        "city": "Águas Claras (Viamão)",
        "state": "RS",
        "district": "Centro",
        "street": "Rodovia RS 040 Km 26 s/n",
        "zipcode": "94760-970"
    },
    {
        "city": "Águas Claras (Viamão)",
        "state": "RS",
        "district": null,
        "street": "Rodovia RS 040 Km 30",
        "zipcode": "94760-995"
    },
    {
        "city": "Águas Claras (Viamão)",
        "state": "RS",
        "district": "",
        "street": "",
        "zipcode": "94760-000"
    },
    {
        "city": "Águas Claras (Viamão)",
        "state": "RS",
        "district": null,
        "street": "Estrada do Quilombo Gomes e Silva",
        "zipcode": "94761-990"
    },
    {
        "city": "Águas Claras (Viamão)",
        "state": "RS",
        "district": null,
        "street": "Rodovia RS",
        "zipcode": "94760-992"
    },
    {
        "city": "Águas Claras (Viamão)",
        "state": "RS",
        "district": null,
        "street": "Rodovia RS",
        "zipcode": "94760-991"
    },
    {
        "city": "Águas Claras (Viamão)",
        "state": "RS",
        "district": null,
        "street": "Rodovia RS",
        "zipcode": "94760-993"
    },
    {
        "city": "Águas Claras (Viamão)",
        "state": "RS",
        "district": null,
        "street": "RS",
        "zipcode": "94760-997"
    },
    {
        "city": "Águas Claras (Viamão)",
        "state": "RS",
        "district": null,
        "street": "Rodovia RS",
        "zipcode": "94760-994"
    },
    {
        "city": "Águas Claras (Viamão)",
        "state": "RS",
        "district": null,
        "street": "RS",
        "zipcode": "94760-996"
    },
    {
        "city": "Águas Claras (Viamão)",
        "state": "RS",
        "district": null,
        "street": "Estrada da Pimenta",
        "zipcode": "94760-998"
    },
    {
        "city": "Águas Claras (Viamão)",
        "state": "RS",
        "district": null,
        "street": "Rodovia RS",
        "zipcode": "94760-990"
    }
]