[
    {
        "city": "Alegrete",
        "state": "RS",
        "district": "Prado",
        "street": "Rua Farrapos",
        "zipcode": "97543-250"
    },
    {
        "city": "Alegrete",
        "state": "RS",
        "district": "Centro",
        "street": "Rua Tiradentes",
        "zipcode": "97542-590"
    },
    {
        "city": "Alegrete",
        "state": "RS",
        "district": "Airton Senna",
        "street": "Rua H",
        "zipcode": "97546-139"
    },
    {
        "city": "Alegrete",
        "state": "RS",
        "district": "Airton Senna",
        "street": "Rua J",
        "zipcode": "97546-133"
    },
    {
        "city": "Alegrete",
        "state": "RS",
        "district": "Grande",
        "street": "Travessa Oito",
        "zipcode": "97543-059"
    },
    {
        "city": "Alegrete",
        "state": "RS",
        "district": "Grande",
        "street": "Travessa Cinco",
        "zipcode": "97543-041"
    },
    {
        "city": "Alegrete",
        "state": "RS",
        "district": "Boa Vista",
        "street": "Rua F",
        "zipcode": "97542-523"
    },
    {
        "city": "Alegrete",
        "state": "RS",
        "district": "Assunção",
        "street": "Rua Allan Kardec",
        "zipcode": "97543-020"
    },
    {
        "city": "Alegrete",
        "state": "RS",
        "district": "Assunção",
        "street": "Rua Anita Garibaldi",
        "zipcode": "97543-030"
    },
    {
        "city": "Alegrete",
        "state": "RS",
        "district": "Centro",
        "street": "Avenida Assis Brasil",
        "zipcode": "97543-001"
    },
    {
        "city": "Alegrete",
        "state": "RS",
        "district": "Kennedy",
        "street": "Rua Átila Etchepare",
        "zipcode": "97545-090"
    },
    {
        "city": "Alegrete",
        "state": "RS",
        "district": "Dr. Romário A de Oliveira",
        "street": "Rua Otávio Emídio Guterres",
        "zipcode": "97547-310"
    },
    {
        "city": "Alegrete",
        "state": "RS",
        "district": "Boa Vista",
        "street": "Rua Pandiá Calógeras",
        "zipcode": "97542-490"
    },
    {
        "city": "Alegrete",
        "state": "RS",
        "district": "São João",
        "street": "Rua Pedro Oliveira Palma",
        "zipcode": "97542-510"
    },
    {
        "city": "Alegrete",
        "state": "RS",
        "district": "Macedo",
        "street": "Rua Presidente Tancredo Neves",
        "zipcode": "97542-560"
    },
    {
        "city": "Alegrete",
        "state": "RS",
        "district": "Centro",
        "street": "Largo Recanto da Várzea",
        "zipcode": "97542-540"
    },
    {
        "city": "Alegrete",
        "state": "RS",
        "district": "Boa Vista",
        "street": "Rua Sumerval Maia de Andrade Neves",
        "zipcode": "97542-550"
    },
    {
        "city": "Alegrete",
        "state": "RS",
        "district": "Prado",
        "street": "Rua Tupi",
        "zipcode": "97543-630"
    },
    {
        "city": "Alegrete",
        "state": "RS",
        "district": "Boa Vista",
        "street": "Rua Dorvalino Vargas",
        "zipcode": "97542-610"
    },
    {
        "city": "Alegrete",
        "state": "RS",
        "district": "Centro",
        "street": "Rua Waldemar Masson",
        "zipcode": "97542-630"
    },
    {
        "city": "Alegrete",
        "state": "RS",
        "district": "Boa Vista",
        "street": "Rua Willy Steihorst",
        "zipcode": "97542-640"
    },
    {
        "city": "Alegrete",
        "state": "RS",
        "district": "Izabel",
        "street": "Rua Padre Manoel Landel de Moura",
        "zipcode": "97542-480"
    },
    {
        "city": "Alegrete",
        "state": "RS",
        "district": "Macedo",
        "street": "Rua Pedro Félix Corrêa",
        "zipcode": "97542-585"
    },
    {
        "city": "Alegrete",
        "state": "RS",
        "district": "Boa Vista",
        "street": "Rua Vanda de Souza Trindade",
        "zipcode": "97542-495"
    },
    {
        "city": "Alegrete",
        "state": "RS",
        "district": "Centro",
        "street": "Praça General Osório",
        "zipcode": "97542-320"
    },
    {
        "city": "Alegrete",
        "state": "RS",
        "district": "Liberdade",
        "street": "Rua Imbé",
        "zipcode": "97543-300"
    },
    {
        "city": "Alegrete",
        "state": "RS",
        "district": "Prado",
        "street": "Rua Índia Ponaim",
        "zipcode": "97543-320"
    },
    {
        "city": "Alegrete",
        "state": "RS",
        "district": "Progresso",
        "street": "Rua Jacques DAvray",
        "zipcode": "97543-330"
    },
    {
        "city": "Alegrete",
        "state": "RS",
        "district": "Progresso",
        "street": "Rua Juca Ruivo",
        "zipcode": "97543-350"
    },
    {
        "city": "Alegrete",
        "state": "RS",
        "district": "Liberdade",
        "street": "Avenida Liberdade",
        "zipcode": "97543-370"
    },
    {
        "city": "Alegrete",
        "state": "RS",
        "district": "Tancredo Neves",
        "street": "Rua Manoel José da Silveira",
        "zipcode": "97542-420"
    },
    {
        "city": "Alegrete",
        "state": "RS",
        "district": "Palma",
        "street": "Rua Ângelo Gomes",
        "zipcode": "97547-430"
    },
    {
        "city": "Alegrete",
        "state": "RS",
        "district": "Palma",
        "street": "Rua João Paulo Teixeira Fagundes",
        "zipcode": "97547-460"
    },
    {
        "city": "Alegrete",
        "state": "RS",
        "district": "Prado",
        "street": "Praça Marcírio Paim Brites",
        "zipcode": "97543-400"
    },
    {
        "city": "Alegrete",
        "state": "RS",
        "district": "Cidade Alta",
        "street": "Rua Marechal Floriano",
        "zipcode": "97542-430"
    },
    {
        "city": "Alegrete",
        "state": "RS",
        "district": "Rui Ramos",
        "street": "Rua Mário Guterres",
        "zipcode": "97541-380"
    },
    {
        "city": "Alegrete",
        "state": "RS",
        "district": "Centro",
        "street": "Rua Mariz e Barros",
        "zipcode": "97542-450"
    },
    {
        "city": "Alegrete",
        "state": "RS",
        "district": "Vila Nova",
        "street": "Rua Murilo Nunes de Oliveira",
        "zipcode": "97541-390"
    },
    {
        "city": "Alegrete",
        "state": "RS",
        "district": "Centro",
        "street": "Praça Oswaldo Aranha",
        "zipcode": "97541-540"
    },
    {
        "city": "Alegrete",
        "state": "RS",
        "district": "Liberdade",
        "street": "Praça da Paz",
        "zipcode": "97543-430"
    },
    {
        "city": "Alegrete",
        "state": "RS",
        "district": "Centro",
        "street": "Rua Presidente Dutra",
        "zipcode": "97541-440"
    },
    {
        "city": "Alegrete",
        "state": "RS",
        "district": "Centro",
        "street": "Rua Presidente Franklin Roosevelt",
        "zipcode": "97541-450"
    },
    {
        "city": "Alegrete",
        "state": "RS",
        "district": "Progresso",
        "street": "Rua Rincão dos Poetas",
        "zipcode": "97543-450"
    },
    {
        "city": "Alegrete",
        "state": "RS",
        "district": "Canudos",
        "street": "Rua Ritinha Freitas Valle",
        "zipcode": "97541-460"
    },
    {
        "city": "Alegrete",
        "state": "RS",
        "district": "Renascer",
        "street": "Rua Paulo Freire",
        "zipcode": "97545-823"
    },
    {
        "city": "Alegrete",
        "state": "RS",
        "district": "Vila Nova",
        "street": "Beco Vereador Carbonel",
        "zipcode": "97541-514"
    },
    {
        "city": "Alegrete",
        "state": "RS",
        "district": "Joaquim Fonseca Milano",
        "street": "Rua Manoel dos Anjos",
        "zipcode": "97542-175"
    },
    {
        "city": "Alegrete",
        "state": "RS",
        "district": "Medianeira",
        "street": "Rua B",
        "zipcode": "97543-512"
    },
    {
        "city": "Alegrete",
        "state": "RS",
        "district": "Cidade Alta",
        "street": "Beco Trezentos e Trinta e Um",
        "zipcode": "97543-475"
    },
    {
        "city": "Alegrete",
        "state": "RS",
        "district": "Progresso",
        "street": "Rua Sabino Pinto",
        "zipcode": "97543-490"
    },
    {
        "city": "Alegrete",
        "state": "RS",
        "district": "Canudos",
        "street": "Rua Salvador Pinheiro Machado",
        "zipcode": "97541-470"
    },
    {
        "city": "Alegrete",
        "state": "RS",
        "district": "Medianeira",
        "street": "Rua Santa Maria",
        "zipcode": "97543-510"
    },
    {
        "city": "Alegrete",
        "state": "RS",
        "district": "Cidade Alta",
        "street": "Rua Santos Dumont",
        "zipcode": "97543-530"
    },
    {
        "city": "Alegrete",
        "state": "RS",
        "district": "Saudade",
        "street": "Avenida da Saudade",
        "zipcode": "97543-550"
    },
    {
        "city": "Alegrete",
        "state": "RS",
        "district": "Progresso",
        "street": "Rua Tapejara",
        "zipcode": "97543-570"
    },
    {
        "city": "Alegrete",
        "state": "RS",
        "district": "Prado",
        "street": "Rua Tapira",
        "zipcode": "97543-580"
    },
    {
        "city": "Alegrete",
        "state": "RS",
        "district": "Centro",
        "street": "Rua Venâncio Aires",
        "zipcode": "97541-500"
    },
    {
        "city": "Alegrete",
        "state": "RS",
        "district": "Vila Nova",
        "street": "Rua Werner Schilichting",
        "zipcode": "97541-530"
    },
    {
        "city": "Alegrete",
        "state": "RS",
        "district": "Prado",
        "street": "Rua Olegário Vítor de Andrade",
        "zipcode": "97543-420"
    },
    {
        "city": "Alegrete",
        "state": "RS",
        "district": "Nilo Soares Gonçalves",
        "street": "Rua Blau Nunes",
        "zipcode": "97546-489"
    },
    {
        "city": "Alegrete",
        "state": "RS",
        "district": "Vera Cruz",
        "street": "Rua Chile",
        "zipcode": "97544-120"
    },
    {
        "city": "Alegrete",
        "state": "RS",
        "district": "Vila Nova",
        "street": "Rua Beira Rio",
        "zipcode": "97541-052"
    },
    {
        "city": "Alegrete",
        "state": "RS",
        "district": "Prado",
        "street": "Rua Índia Camaco",
        "zipcode": "97543-310"
    },
    {
        "city": "Alegrete",
        "state": "RS",
        "district": "Centro",
        "street": "Rua Visconde de Tamandaré",
        "zipcode": "97541-520"
    },
    {
        "city": "Alegrete",
        "state": "RS",
        "district": "Tancredo Neves",
        "street": "Rua Carlos da Rocha Regina",
        "zipcode": "97542-425"
    },
    {
        "city": "Alegrete",
        "state": "RS",
        "district": "Liberdade",
        "street": "Rua Madalena Caferati Soltau",
        "zipcode": "97543-375"
    },
    {
        "city": "Alegrete",
        "state": "RS",
        "district": "Liberdade",
        "street": "Rua Ângelo Murussi",
        "zipcode": "97543-365"
    },
    {
        "city": "Alegrete",
        "state": "RS",
        "district": "Jardim Planalto",
        "street": "Rua Alberto Xavier",
        "zipcode": "97545-040"
    },
    {
        "city": "Alegrete",
        "state": "RS",
        "district": "Prado",
        "street": "Avenida Brás Faraco",
        "zipcode": "97543-090"
    },
    {
        "city": "Alegrete",
        "state": "RS",
        "district": "Cidade Alta",
        "street": "Rua Brigadeiro Olivério",
        "zipcode": "97543-100"
    },
    {
        "city": "Alegrete",
        "state": "RS",
        "district": "Prado",
        "street": "Rua Caraíba",
        "zipcode": "97543-120"
    },
    {
        "city": "Alegrete",
        "state": "RS",
        "district": "Vila Nova",
        "street": "Rua Celestino Prunes",
        "zipcode": "97541-080"
    },
    {
        "city": "Alegrete",
        "state": "RS",
        "district": "Centro",
        "street": "Rua Coronel Cabrita",
        "zipcode": "97541-100"
    },
    {
        "city": "Alegrete",
        "state": "RS",
        "district": "Centro",
        "street": "Rua Coronel Luiz Ignácio Jacques",
        "zipcode": "97541-110"
    },
    {
        "city": "Alegrete",
        "state": "RS",
        "district": "Canjiqueira",
        "street": "Rua Coronel Mário Neves Galvão",
        "zipcode": "97543-200"
    },
    {
        "city": "Alegrete",
        "state": "RS",
        "district": "Rui Ramos",
        "street": "Rua Delfino Antunes",
        "zipcode": "97541-120"
    },
    {
        "city": "Alegrete",
        "state": "RS",
        "district": "Independência",
        "street": "Rua Dom Luiz Felipe de Nadal",
        "zipcode": "97543-230"
    },
    {
        "city": "Alegrete",
        "state": "RS",
        "district": "Centro",
        "street": "Avenida Doutor Lauro Dorneles",
        "zipcode": "97541-150"
    },
    {
        "city": "Alegrete",
        "state": "RS",
        "district": "Vila Nova",
        "street": "Rua Duque de Caxias",
        "zipcode": "97541-170"
    },
    {
        "city": "Alegrete",
        "state": "RS",
        "district": "Vila Nova",
        "street": "Rua Eljo Ribeiro Lima",
        "zipcode": "97541-180"
    },
    {
        "city": "Alegrete",
        "state": "RS",
        "district": "Canudos",
        "street": "Travessa Alvorada",
        "zipcode": "97541-477"
    },
    {
        "city": "Alegrete",
        "state": "RS",
        "district": "Airton Senna",
        "street": "Rua Iro da Costa Guedes",
        "zipcode": "97546-134"
    },
    {
        "city": "Alegrete",
        "state": "RS",
        "district": "Nilo Soares Gonçalves",
        "street": "Rua Índio Angüera",
        "zipcode": "97546-484"
    },
    {
        "city": "Alegrete",
        "state": "RS",
        "district": "Nilo Soares Gonçalves",
        "street": "Rua Índio Bororé",
        "zipcode": "97546-482"
    },
    {
        "city": "Alegrete",
        "state": "RS",
        "district": "Ibirapuitã",
        "street": "Rua Luciano França",
        "zipcode": "97546-375"
    },
    {
        "city": "Alegrete",
        "state": "RS",
        "district": "Macedo",
        "street": "Rua Professora Hilda Naimayer Padula",
        "zipcode": "97542-595"
    },
    {
        "city": "Alegrete",
        "state": "RS",
        "district": "Grande",
        "street": "Rua Policarpo Pereira da Costa",
        "zipcode": "97543-057"
    },
    {
        "city": "Alegrete",
        "state": "RS",
        "district": "Boa Vista",
        "street": "Estrada Masgrau",
        "zipcode": "97542-460"
    },
    {
        "city": "Alegrete",
        "state": "RS",
        "district": "Renascer",
        "street": "Rua Nora Dornelles",
        "zipcode": "97545-820"
    },
    {
        "city": "Alegrete",
        "state": "RS",
        "district": "Airton Senna",
        "street": "Rua Luiza Rodrigues Guterres",
        "zipcode": "97546-137"
    },
    {
        "city": "Alegrete",
        "state": "RS",
        "district": "Vila Nova",
        "street": "Rua Ernesto Vitório Refatti",
        "zipcode": "97541-190"
    },
    {
        "city": "Alegrete",
        "state": "RS",
        "district": "Centro",
        "street": "Rua Euclides da Cunha",
        "zipcode": "97541-200"
    },
    {
        "city": "Alegrete",
        "state": "RS",
        "district": "Vera Cruz",
        "street": "Rua Fetzalan de Almeida",
        "zipcode": "97544-220"
    },
    {
        "city": "Alegrete",
        "state": "RS",
        "district": "Centro",
        "street": "Avenida Freitas Vale",
        "zipcode": "97541-230"
    },
    {
        "city": "Alegrete",
        "state": "RS",
        "district": "Centro",
        "street": "Rua General Sampaio",
        "zipcode": "97541-260"
    },
    {
        "city": "Alegrete",
        "state": "RS",
        "district": "Vera Cruz",
        "street": "Rua Honorato Rezende",
        "zipcode": "97544-250"
    },
    {
        "city": "Alegrete",
        "state": "RS",
        "district": "Joaquim Fonseca Milano",
        "street": "Rua Jacomino Grillo",
        "zipcode": "97544-260"
    },
    {
        "city": "Alegrete",
        "state": "RS",
        "district": "Vila Nova",
        "street": "Rua Joaquim Astrar",
        "zipcode": "97541-290"
    },
    {
        "city": "Alegrete",
        "state": "RS",
        "district": "Centro",
        "street": "Rua José Bonifácio",
        "zipcode": "97541-310"
    },
    {
        "city": "Alegrete",
        "state": "RS",
        "district": "Vila Nova",
        "street": "Rua José do Patrocínio",
        "zipcode": "97541-320"
    },
    {
        "city": "Alegrete",
        "state": "RS",
        "district": "Joaquim Fonseca Milano",
        "street": "Rua Júlio dos Santos Rigol",
        "zipcode": "97544-280"
    },
    {
        "city": "Alegrete",
        "state": "RS",
        "district": "Restinga",
        "street": "Rua Júlio Ruas",
        "zipcode": "97542-380"
    },
    {
        "city": "Alegrete",
        "state": "RS",
        "district": "Centro",
        "street": "Rua Luiz de Freitas",
        "zipcode": "97541-350"
    },
    {
        "city": "Alegrete",
        "state": "RS",
        "district": "Izabel",
        "street": "Rua Mahatma Gandhi",
        "zipcode": "97542-400"
    },
    {
        "city": "Alegrete",
        "state": "RS",
        "district": "Vila Nova",
        "street": "Rua Manoel Mano",
        "zipcode": "97541-360"
    },
    {
        "city": "Alegrete",
        "state": "RS",
        "district": "Vera Cruz",
        "street": "Rua Marcírio Rodrigues de Almeida",
        "zipcode": "97544-300"
    },
    {
        "city": "Alegrete",
        "state": "RS",
        "district": "Cidade Alta",
        "street": "Rua Maurício Cardoso",
        "zipcode": "97545-000"
    },
    {
        "city": "Alegrete",
        "state": "RS",
        "district": "Canudos",
        "street": "Rua João Antônio Pinto Mengotti",
        "zipcode": "97541-474"
    },
    {
        "city": "Alegrete",
        "state": "RS",
        "district": "Vila Nova",
        "street": "Beco Carlos Gomes",
        "zipcode": "97541-063"
    },
    {
        "city": "Alegrete",
        "state": "RS",
        "district": "Sepé Tiaraju",
        "street": "Rua Tia Lourdes de Oliveira",
        "zipcode": "97544-228"
    },
    {
        "city": "Alegrete",
        "state": "RS",
        "district": "Sepé Tiaraju",
        "street": "Travessa Quatro",
        "zipcode": "97544-244"
    },
    {
        "city": "Alegrete",
        "state": "RS",
        "district": "Liberdade",
        "street": "Rua Orimando Durgante",
        "zipcode": "97544-413"
    },
    {
        "city": "Alegrete",
        "state": "RS",
        "district": "Medianeira",
        "street": "Rua Leonor Martins Balk",
        "zipcode": "97543-514"
    },
    {
        "city": "Alegrete",
        "state": "RS",
        "district": "Vera Cruz",
        "street": "Rua México",
        "zipcode": "97544-330"
    },
    {
        "city": "Alegrete",
        "state": "RS",
        "district": "Vera Cruz",
        "street": "Rua Panamá",
        "zipcode": "97544-380"
    },
    {
        "city": "Alegrete",
        "state": "RS",
        "district": "Vera Cruz",
        "street": "Rua Peru",
        "zipcode": "97544-400"
    },
    {
        "city": "Alegrete",
        "state": "RS",
        "district": "Joaquim Fonseca Milano",
        "street": "Rua Saint Clair Dorneles Hernandes",
        "zipcode": "97544-450"
    },
    {
        "city": "Alegrete",
        "state": "RS",
        "district": "Vera Cruz",
        "street": "Rua Treze de Maio",
        "zipcode": "97544-480"
    },
    {
        "city": "Alegrete",
        "state": "RS",
        "district": "Vera Cruz",
        "street": "Rua Venezuela",
        "zipcode": "97544-510"
    },
    {
        "city": "Alegrete",
        "state": "RS",
        "district": "Emílio Zuneda",
        "street": "Rua Vereador Gustavo Perfeito",
        "zipcode": "97544-520"
    },
    {
        "city": "Alegrete",
        "state": "RS",
        "district": "Joaquim Fonseca Milano",
        "street": "Rua Zezé de Oliveira",
        "zipcode": "97544-540"
    },
    {
        "city": "Alegrete",
        "state": "RS",
        "district": "Cidade Alta",
        "street": "Rua Carlos Pedroso da Silveira",
        "zipcode": "97543-140"
    },
    {
        "city": "Alegrete",
        "state": "RS",
        "district": "Emílio Zuneda",
        "street": "Rua Tenente Juvenal Nascimento",
        "zipcode": "97544-470"
    },
    {
        "city": "Alegrete",
        "state": "RS",
        "district": "Vila Nova",
        "street": "Rua Antônio Gomes",
        "zipcode": "97541-325"
    },
    {
        "city": "Alegrete",
        "state": "RS",
        "district": "Vila Nova",
        "street": "Rua Adolfo Souto Corrêa",
        "zipcode": "97541-020"
    },
    {
        "city": "Alegrete",
        "state": "RS",
        "district": "Centro",
        "street": "Rua dos Andradas",
        "zipcode": "97541-000"
    },
    {
        "city": "Alegrete",
        "state": "RS",
        "district": "Centro",
        "street": "Rua Barão do Amazonas",
        "zipcode": "97542-100"
    },
    {
        "city": "Alegrete",
        "state": "RS",
        "district": "Cidade Alta",
        "street": "Rua Bento Gonçalves",
        "zipcode": "97542-130"
    },
    {
        "city": "Alegrete",
        "state": "RS",
        "district": "Vila Nova",
        "street": "Rua Benvindo Moutinho",
        "zipcode": "97541-050"
    },
    {
        "city": "Alegrete",
        "state": "RS",
        "district": "Vila Nova",
        "street": "Rua Carlos Gomes",
        "zipcode": "97541-060"
    },
    {
        "city": "Alegrete",
        "state": "RS",
        "district": "Cidade Alta",
        "street": "Rua Conde de Porto Alegre",
        "zipcode": "97542-160"
    },
    {
        "city": "Alegrete",
        "state": "RS",
        "district": "Centro",
        "street": "Rua David Canabarro",
        "zipcode": "97542-180"
    },
    {
        "city": "Alegrete",
        "state": "RS",
        "district": "Centro",
        "street": "Rua Demétrio Ribeiro",
        "zipcode": "97542-200"
    },
    {
        "city": "Alegrete",
        "state": "RS",
        "district": "Emílio Zuneda",
        "street": "Praça Deputado Raul Pila",
        "zipcode": "97544-130"
    },
    {
        "city": "Alegrete",
        "state": "RS",
        "district": "São João",
        "street": "Rua Doutor Emílio Zuneda",
        "zipcode": "97542-220"
    },
    {
        "city": "Alegrete",
        "state": "RS",
        "district": "Cidade Alta",
        "street": "Rua Doutor Severino Ribeiro",
        "zipcode": "97542-230"
    },
    {
        "city": "Alegrete",
        "state": "RS",
        "district": "Boa Vista",
        "street": "Rua Eduardo Ferreira Ramos",
        "zipcode": "97542-250"
    },
    {
        "city": "Alegrete",
        "state": "RS",
        "district": "Macedo",
        "street": "Rua Ernesto Paulo de Souza",
        "zipcode": "97542-270"
    },
    {
        "city": "Alegrete",
        "state": "RS",
        "district": "Centro",
        "street": "Rua Expedicionário Cannes",
        "zipcode": "97542-290"
    },
    {
        "city": "Alegrete",
        "state": "RS",
        "district": "Macedo",
        "street": "Rua Jayme Fontoura",
        "zipcode": "97542-330"
    },
    {
        "city": "Alegrete",
        "state": "RS",
        "district": "Boa Vista",
        "street": "Rua João Artigas Mitidieri Irizaga",
        "zipcode": "97542-340"
    },
    {
        "city": "Alegrete",
        "state": "RS",
        "district": "Vila Nova",
        "street": "Rua Borge Bolina da Silva",
        "zipcode": "97541-295"
    },
    {
        "city": "Alegrete",
        "state": "RS",
        "district": "Kennedy",
        "street": "Rua João de Re",
        "zipcode": "97545-290"
    },
    {
        "city": "Alegrete",
        "state": "RS",
        "district": "Novo Lar",
        "street": "Rua João Pessoa",
        "zipcode": "97545-310"
    },
    {
        "city": "Alegrete",
        "state": "RS",
        "district": "Novo Lar",
        "street": "Rua João Salomão",
        "zipcode": "97545-320"
    },
    {
        "city": "Alegrete",
        "state": "RS",
        "district": "Militar",
        "street": "Rua José de Abreu",
        "zipcode": "97545-350"
    },
    {
        "city": "Alegrete",
        "state": "RS",
        "district": "Piola",
        "street": "Rua Luiz Vaz de Camões",
        "zipcode": "97545-390"
    },
    {
        "city": "Alegrete",
        "state": "RS",
        "district": "Lara",
        "street": "Rua Major Feliciano Rodrigues",
        "zipcode": "97545-410"
    },
    {
        "city": "Alegrete",
        "state": "RS",
        "district": "Piola",
        "street": "Rua Marechal Castelo Branco",
        "zipcode": "97545-430"
    },
    {
        "city": "Alegrete",
        "state": "RS",
        "district": "Militar",
        "street": "Avenida Marechal Mallet",
        "zipcode": "97545-440"
    },
    {
        "city": "Alegrete",
        "state": "RS",
        "district": "Lara",
        "street": "Avenida Marechal Rondon",
        "zipcode": "97545-450"
    },
    {
        "city": "Alegrete",
        "state": "RS",
        "district": "Jardim Planalto",
        "street": "Rua Odorico Gonçalves Ramos",
        "zipcode": "97545-500"
    },
    {
        "city": "Alegrete",
        "state": "RS",
        "district": "Inez",
        "street": "Rua Osvaldo Dorneles",
        "zipcode": "97545-520"
    },
    {
        "city": "Alegrete",
        "state": "RS",
        "district": "Pedreiras",
        "street": "Avenida Pedreiras",
        "zipcode": "97545-570"
    },
    {
        "city": "Alegrete",
        "state": "RS",
        "district": "Piola",
        "street": "Rua Pedro Carneiro Pereira",
        "zipcode": "97545-590"
    },
    {
        "city": "Alegrete",
        "state": "RS",
        "district": "Gamino",
        "street": "Avenida Poço de Bombas",
        "zipcode": "97545-610"
    },
    {
        "city": "Alegrete",
        "state": "RS",
        "district": "Gamino",
        "street": "Rua Presidente Vargas",
        "zipcode": "97545-630"
    },
    {
        "city": "Alegrete",
        "state": "RS",
        "district": "Olhos DAgua de Natal",
        "street": "Rua Primavera",
        "zipcode": "97545-640"
    },
    {
        "city": "Alegrete",
        "state": "RS",
        "district": "Gamino",
        "street": "Rua Ronaldo Fialho Kurtz",
        "zipcode": "97545-680"
    },
    {
        "city": "Alegrete",
        "state": "RS",
        "district": "Inez",
        "street": "Rua Salustiano Ferreira da Costa",
        "zipcode": "97545-690"
    },
    {
        "city": "Alegrete",
        "state": "RS",
        "district": "Prado",
        "street": "Rua Tupinambá",
        "zipcode": "97543-640"
    },
    {
        "city": "Alegrete",
        "state": "RS",
        "district": "Inez",
        "street": "Rua Pedro Rui",
        "zipcode": "97545-580"
    },
    {
        "city": "Alegrete",
        "state": "RS",
        "district": "Anita Garibaldi",
        "street": "Rua Brasil",
        "zipcode": "97545-377"
    },
    {
        "city": "Alegrete",
        "state": "RS",
        "district": "Praça da Lagoa",
        "street": "Rua Trinta e Dois",
        "zipcode": "97545-552"
    },
    {
        "city": "Alegrete",
        "state": "RS",
        "district": "Emílio Zuneda",
        "street": "Rua Engenheiro Antônio Joaquim Fialho",
        "zipcode": "97544-190"
    },
    {
        "city": "Alegrete",
        "state": "RS",
        "district": "Fronteira Oeste",
        "street": "Rua Luiz Araújo Filho",
        "zipcode": "97545-370"
    },
    {
        "city": "Alegrete",
        "state": "RS",
        "district": "Novo Lar",
        "street": "Rua Senador Men de Sá",
        "zipcode": "97545-700"
    },
    {
        "city": "Alegrete",
        "state": "RS",
        "district": "Macedo",
        "street": "Rua Ema Luzia de Souza",
        "zipcode": "97542-275"
    },
    {
        "city": "Alegrete",
        "state": "RS",
        "district": "Boa Vista",
        "street": "Rua Miguel Carvalho",
        "zipcode": "97542-335"
    },
    {
        "city": "Alegrete",
        "state": "RS",
        "district": "Grande",
        "street": "Rua Manoel Soares de Oliveira",
        "zipcode": "97543-055"
    },
    {
        "city": "Alegrete",
        "state": "RS",
        "district": "Grande",
        "street": "Rua Glorialdo Marques da Silva",
        "zipcode": "97543-054"
    },
    {
        "city": "Alegrete",
        "state": "RS",
        "district": "Vera Cruz",
        "street": "Rua João da Cunha Vargas",
        "zipcode": "97544-270"
    },
    {
        "city": "Alegrete",
        "state": "RS",
        "district": "Vera Cruz",
        "street": "Rua Paraguai",
        "zipcode": "97544-390"
    },
    {
        "city": "Alegrete",
        "state": "RS",
        "district": "Grande",
        "street": "Rua Danilo Pinto",
        "zipcode": "97543-048"
    },
    {
        "city": "Alegrete",
        "state": "RS",
        "district": "Centro",
        "street": "Rua Barão de Cerro Largo",
        "zipcode": "97542-080"
    },
    {
        "city": "Alegrete",
        "state": "RS",
        "district": "Vera Cruz",
        "street": "Travessa Barão do Rio Branco",
        "zipcode": "97544-060"
    },
    {
        "city": "Alegrete",
        "state": "RS",
        "district": "Vera Cruz",
        "street": "Rua Bolívia",
        "zipcode": "97544-090"
    },
    {
        "city": "Alegrete",
        "state": "RS",
        "district": "Macedo",
        "street": "Rua Carioca",
        "zipcode": "97542-140"
    },
    {
        "city": "Alegrete",
        "state": "RS",
        "district": "Militar",
        "street": "Rua Coronel Jim",
        "zipcode": "97545-160"
    },
    {
        "city": "Alegrete",
        "state": "RS",
        "district": "Promorar",
        "street": "Rua Danilo Severo dos Santos",
        "zipcode": "97546-150"
    },
    {
        "city": "Alegrete",
        "state": "RS",
        "district": "Piola",
        "street": "Rua Daniro Antunes da Silva",
        "zipcode": "97545-170"
    },
    {
        "city": "Alegrete",
        "state": "RS",
        "district": "Inez",
        "street": "Rua Doutor Miguel Olive Leite",
        "zipcode": "97545-190"
    },
    {
        "city": "Alegrete",
        "state": "RS",
        "district": "Piola",
        "street": "Rua Érico Veríssimo",
        "zipcode": "97545-220"
    },
    {
        "city": "Alegrete",
        "state": "RS",
        "district": "Jardim Planalto",
        "street": "Avenida Esmeraldo Gamino",
        "zipcode": "97545-230"
    },
    {
        "city": "Alegrete",
        "state": "RS",
        "district": "Promorar",
        "street": "Rua Euclides Brás",
        "zipcode": "97546-190"
    },
    {
        "city": "Alegrete",
        "state": "RS",
        "district": "Centenário",
        "street": "Rua Flores da Cunha",
        "zipcode": "97546-210"
    },
    {
        "city": "Alegrete",
        "state": "RS",
        "district": "Nova Brasília",
        "street": "Rua Gentil João Pedroso",
        "zipcode": "97546-240"
    },
    {
        "city": "Alegrete",
        "state": "RS",
        "district": "Nova Brasília",
        "street": "Rua Gentil Pedroso",
        "zipcode": "97546-250"
    },
    {
        "city": "Alegrete",
        "state": "RS",
        "district": "Ibirapuitã",
        "street": "Rua Irmãos Timbaúva",
        "zipcode": "97546-290"
    },
    {
        "city": "Alegrete",
        "state": "RS",
        "district": "Centenário",
        "street": "Rua Jararaca",
        "zipcode": "97546-310"
    },
    {
        "city": "Alegrete",
        "state": "RS",
        "district": "Ibirapuitã",
        "street": "Rua João de Deus Barros Peres",
        "zipcode": "97546-320"
    },
    {
        "city": "Alegrete",
        "state": "RS",
        "district": "Ibirapuitã",
        "street": "Rua João Galant",
        "zipcode": "97546-330"
    },
    {
        "city": "Alegrete",
        "state": "RS",
        "district": "Ibirapuitã",
        "street": "Rua João Pedro de Souza",
        "zipcode": "97546-340"
    },
    {
        "city": "Alegrete",
        "state": "RS",
        "district": "Ibirapuitã",
        "street": "Rua Justo França",
        "zipcode": "97546-370"
    },
    {
        "city": "Alegrete",
        "state": "RS",
        "district": "Centro",
        "street": "Travessa Barão de Cerro Largo",
        "zipcode": "97542-090"
    },
    {
        "city": "Alegrete",
        "state": "RS",
        "district": "Centenário",
        "street": "Rua Caiboaté",
        "zipcode": "97546-100"
    },
    {
        "city": "Alegrete",
        "state": "RS",
        "district": "Ibirapuitã",
        "street": "Avenida Caverá",
        "zipcode": "97546-140"
    },
    {
        "city": "Alegrete",
        "state": "RS",
        "district": "Lara",
        "street": "Rua Frederico Ortiz",
        "zipcode": "97545-260"
    },
    {
        "city": "Alegrete",
        "state": "RS",
        "district": "Kennedy",
        "street": "Praça Silvestre de Mello Iarto",
        "zipcode": "97545-620"
    },
    {
        "city": "Alegrete",
        "state": "RS",
        "district": "Emílio Zuneda",
        "street": "Rua Marieta Ribeiro Almeida",
        "zipcode": "97544-320"
    },
    {
        "city": "Alegrete",
        "state": "RS",
        "district": "Nova Brasília",
        "street": "Rua Eleodoro Prates Garcia",
        "zipcode": "97546-145"
    },
    {
        "city": "Alegrete",
        "state": "RS",
        "district": "Airton Senna",
        "street": "Rua Constantino da Costa Leite",
        "zipcode": "97546-087"
    },
    {
        "city": "Alegrete",
        "state": "RS",
        "district": "Getúlio Vargas",
        "street": "Rua Apolônio Ortiz Cadigune",
        "zipcode": "97546-095"
    },
    {
        "city": "Alegrete",
        "state": "RS",
        "district": "Grande",
        "street": "Rua Timóteo Bomback",
        "zipcode": "97543-053"
    },
    {
        "city": "Alegrete",
        "state": "RS",
        "district": "Grande",
        "street": "Rua Emílio Ricciardi",
        "zipcode": "97543-046"
    },
    {
        "city": "Alegrete",
        "state": "RS",
        "district": "Piola",
        "street": "Rua Telemaco Ruas",
        "zipcode": "97545-224"
    },
    {
        "city": "Alegrete",
        "state": "RS",
        "district": "Nova Brasília",
        "street": "Rua Professora Angela Beatriz Guterres Vasconcelos",
        "zipcode": "97546-363"
    },
    {
        "city": "Alegrete",
        "state": "RS",
        "district": "Airton Senna",
        "street": "Rua Florisbela Nunes dos Santos",
        "zipcode": "97546-138"
    },
    {
        "city": "Alegrete",
        "state": "RS",
        "district": "Vera Cruz",
        "street": "Rua Euclides Dorneles",
        "zipcode": "97544-095"
    },
    {
        "city": "Alegrete",
        "state": "RS",
        "district": "Sepé Tiaraju",
        "street": "Rua Jorge Borges Machado",
        "zipcode": "97544-226"
    },
    {
        "city": "Alegrete",
        "state": "RS",
        "district": "Grande",
        "street": "Travessa Sete",
        "zipcode": "97543-052"
    },
    {
        "city": "Alegrete",
        "state": "RS",
        "district": "Grande",
        "street": "Travessa Seis",
        "zipcode": "97543-051"
    },
    {
        "city": "Alegrete",
        "state": "RS",
        "district": "Grande",
        "street": "Travessa Três",
        "zipcode": "97543-045"
    },
    {
        "city": "Alegrete",
        "state": "RS",
        "district": "Grande",
        "street": "Travessa Dois",
        "zipcode": "97543-047"
    },
    {
        "city": "Alegrete",
        "state": "RS",
        "district": "Grande",
        "street": "Travessa Um",
        "zipcode": "97543-049"
    },
    {
        "city": "Alegrete",
        "state": "RS",
        "district": "Nova Brasília",
        "street": "Rua José Bianque Damasceno",
        "zipcode": "97546-365"
    },
    {
        "city": "Alegrete",
        "state": "RS",
        "district": "Getúlio Vargas",
        "street": "Rua Juvenal Toledo de Oliveira",
        "zipcode": "97546-367"
    },
    {
        "city": "Alegrete",
        "state": "RS",
        "district": "Airton Senna",
        "street": "Rua Policarpo Rodrigues",
        "zipcode": "97546-369"
    },
    {
        "city": "Alegrete",
        "state": "RS",
        "district": "Promorar",
        "street": "Rua Alencar da Silva Bica",
        "zipcode": "97546-020"
    },
    {
        "city": "Alegrete",
        "state": "RS",
        "district": "Joaquim Fonseca Milano",
        "street": "Rua Alfredo Gonçalves Filho",
        "zipcode": "97544-010"
    },
    {
        "city": "Alegrete",
        "state": "RS",
        "district": "Santos Dumont",
        "street": "Rua Amapá",
        "zipcode": "97547-030"
    },
    {
        "city": "Alegrete",
        "state": "RS",
        "district": "Balneário Caverá",
        "street": "Rua Anacleto Cadore",
        "zipcode": "97546-700"
    },
    {
        "city": "Alegrete",
        "state": "RS",
        "district": "Centenário",
        "street": "Rua Anita Píccoli",
        "zipcode": "97546-050"
    },
    {
        "city": "Alegrete",
        "state": "RS",
        "district": "Macedo",
        "street": "Rua Antenor Santos Menezes",
        "zipcode": "97542-050"
    },
    {
        "city": "Alegrete",
        "state": "RS",
        "district": "Capão do Angico",
        "street": "Rua Araçá",
        "zipcode": "97547-070"
    },
    {
        "city": "Alegrete",
        "state": "RS",
        "district": "Centenário",
        "street": "Rua Auta Ferreira de Souza",
        "zipcode": "97546-070"
    },
    {
        "city": "Alegrete",
        "state": "RS",
        "district": "Santos Dumont",
        "street": "Rua Bahia",
        "zipcode": "97547-090"
    },
    {
        "city": "Alegrete",
        "state": "RS",
        "district": "Macedo",
        "street": "Rua Ciro Adir Martins Lopes",
        "zipcode": "97542-070"
    },
    {
        "city": "Alegrete",
        "state": "RS",
        "district": "Grande",
        "street": "Rua Wilson Canto",
        "zipcode": "97543-056"
    },
    {
        "city": "Alegrete",
        "state": "RS",
        "district": "Nova Brasília",
        "street": "Avenida Brigada Militar",
        "zipcode": "97546-080"
    },
    {
        "city": "Alegrete",
        "state": "RS",
        "district": "Capão do Angico",
        "street": "Rua Butiá",
        "zipcode": "97547-110"
    },
    {
        "city": "Alegrete",
        "state": "RS",
        "district": "Airton Senna",
        "street": "Praça Castelo Branco",
        "zipcode": "97546-130"
    },
    {
        "city": "Alegrete",
        "state": "RS",
        "district": "Capão do Angico",
        "street": "Rua Cedro",
        "zipcode": "97547-140"
    },
    {
        "city": "Alegrete",
        "state": "RS",
        "district": "Balneário Caverá",
        "street": "Rua Celanira Souza Lara",
        "zipcode": "97546-620"
    },
    {
        "city": "Alegrete",
        "state": "RS",
        "district": "Santos Dumont",
        "street": "Avenida Inácio Campos de Menezes",
        "zipcode": "97547-150"
    },
    {
        "city": "Alegrete",
        "state": "RS",
        "district": "Capão do Angico",
        "street": "Rua Crisântemo",
        "zipcode": "97547-160"
    },
    {
        "city": "Alegrete",
        "state": "RS",
        "district": "Liberdade",
        "street": "Rua Ernani Schmitt",
        "zipcode": "97543-660"
    },
    {
        "city": "Alegrete",
        "state": "RS",
        "district": "Capão do Angico",
        "street": "Rua Espinilho",
        "zipcode": "97547-180"
    },
    {
        "city": "Alegrete",
        "state": "RS",
        "district": "Santos Dumont",
        "street": "Rua Espírito Santo",
        "zipcode": "97547-190"
    },
    {
        "city": "Alegrete",
        "state": "RS",
        "district": "Promorar",
        "street": "Rua Florentino Irizaga",
        "zipcode": "97546-200"
    },
    {
        "city": "Alegrete",
        "state": "RS",
        "district": "Promorar",
        "street": "Rua Gaudêncio Mota",
        "zipcode": "97546-230"
    },
    {
        "city": "Alegrete",
        "state": "RS",
        "district": "Liberdade",
        "street": "Rua General Antônio Freitas Vale",
        "zipcode": "97543-670"
    },
    {
        "city": "Alegrete",
        "state": "RS",
        "district": "Santos Dumont",
        "street": "Rua Goiás",
        "zipcode": "97547-220"
    },
    {
        "city": "Alegrete",
        "state": "RS",
        "district": "Balneário Caverá",
        "street": "Rua Raimundo Luís Marinho Carvalho",
        "zipcode": "97546-580"
    },
    {
        "city": "Alegrete",
        "state": "RS",
        "district": "Santos Dumont",
        "street": "Avenida República Riograndense",
        "zipcode": "97547-000"
    },
    {
        "city": "Alegrete",
        "state": "RS",
        "district": "Balneário Caverá",
        "street": "Rua Zulmira Ferreira da Costa",
        "zipcode": "97546-630"
    },
    {
        "city": "Alegrete",
        "state": "RS",
        "district": "Ibirapuitã",
        "street": "Avenida Ibicui",
        "zipcode": "97546-000"
    },
    {
        "city": "Alegrete",
        "state": "RS",
        "district": "Promorar",
        "street": "Rua Albino Rodrigues Severo",
        "zipcode": "97546-010"
    },
    {
        "city": "Alegrete",
        "state": "RS",
        "district": "Gamino",
        "street": "Rua Alcides Barboza da Fontoura",
        "zipcode": "97545-493"
    },
    {
        "city": "Alegrete",
        "state": "RS",
        "district": "Joaquim Fonseca Milano",
        "street": "Rua Dionízio Machado de Oliveira",
        "zipcode": "97544-150"
    },
    {
        "city": "Alegrete",
        "state": "RS",
        "district": "Joaquim Fonseca Milano",
        "street": "Rua Dionízio da Costa Leite",
        "zipcode": "97544-140"
    },
    {
        "city": "Alegrete",
        "state": "RS",
        "district": "Olhos DAgua de Natal",
        "street": "Rua Quatrocentos e Quarenta e Seis",
        "zipcode": "97545-543"
    },
    {
        "city": "Alegrete",
        "state": "RS",
        "district": "Sepé Tiaraju",
        "street": "Rua Fernando Ribeiro Xarão",
        "zipcode": "97544-223"
    },
    {
        "city": "Alegrete",
        "state": "RS",
        "district": "Nova Brasília",
        "street": "Rua Izabel Garaialde Peres",
        "zipcode": "97546-085"
    },
    {
        "city": "Alegrete",
        "state": "RS",
        "district": "Getúlio Vargas",
        "street": "Rua Francelino José da Silva",
        "zipcode": "97546-083"
    },
    {
        "city": "Alegrete",
        "state": "RS",
        "district": "Segabinazi",
        "street": "Rua C",
        "zipcode": "97547-046"
    },
    {
        "city": "Alegrete",
        "state": "RS",
        "district": "Segabinazi",
        "street": "Rua E",
        "zipcode": "97547-042"
    },
    {
        "city": "Alegrete",
        "state": "RS",
        "district": "Segabinazi",
        "street": "Rua L",
        "zipcode": "97547-043"
    },
    {
        "city": "Alegrete",
        "state": "RS",
        "district": "Centenário",
        "street": "Rua D Dois",
        "zipcode": "97546-621"
    },
    {
        "city": "Alegrete",
        "state": "RS",
        "district": "Centenário",
        "street": "Rua C Dois",
        "zipcode": "97546-623"
    },
    {
        "city": "Alegrete",
        "state": "RS",
        "district": "Centenário",
        "street": "Rua C Três",
        "zipcode": "97546-625"
    },
    {
        "city": "Alegrete",
        "state": "RS",
        "district": "Anita Garibaldi",
        "street": "Rua Nova Conquista",
        "zipcode": "97545-379"
    },
    {
        "city": "Alegrete",
        "state": "RS",
        "district": "Balneário Caverá",
        "street": "Rua L Um",
        "zipcode": "97546-672"
    },
    {
        "city": "Alegrete",
        "state": "RS",
        "district": "Balneário Caverá",
        "street": "Rua J Um",
        "zipcode": "97546-674"
    },
    {
        "city": "Alegrete",
        "state": "RS",
        "district": "Balneário Caverá",
        "street": "Rua I Um",
        "zipcode": "97546-675"
    },
    {
        "city": "Alegrete",
        "state": "RS",
        "district": "Balneário Caverá",
        "street": "Rua H Um",
        "zipcode": "97546-676"
    },
    {
        "city": "Alegrete",
        "state": "RS",
        "district": "Balneário Caverá",
        "street": "Rua J Dois",
        "zipcode": "97546-760"
    },
    {
        "city": "Alegrete",
        "state": "RS",
        "district": "Balneário Caverá",
        "street": "Rua H Dois",
        "zipcode": "97546-758"
    },
    {
        "city": "Alegrete",
        "state": "RS",
        "district": "Balneário Caverá",
        "street": "Avenida H",
        "zipcode": "97546-753"
    },
    {
        "city": "Alegrete",
        "state": "RS",
        "district": "Centenário",
        "street": "Rua Dois",
        "zipcode": "97546-627"
    },
    {
        "city": "Alegrete",
        "state": "RS",
        "district": "Prado",
        "street": "Rua Tapajós",
        "zipcode": "97543-590"
    },
    {
        "city": "Alegrete",
        "state": "RS",
        "district": "Novo Lar",
        "street": "Rua Barão do Ibirocai",
        "zipcode": "97545-100"
    },
    {
        "city": "Alegrete",
        "state": "RS",
        "district": "Dr. Romário A de Oliveira",
        "street": "Rua Irene da Costa Sbrissa",
        "zipcode": "97547-520"
    },
    {
        "city": "Alegrete",
        "state": "RS",
        "district": "Dr. Romário A de Oliveira",
        "street": "Rua Jesus M. da Silva",
        "zipcode": "97547-500"
    },
    {
        "city": "Alegrete",
        "state": "RS",
        "district": "Santos Dumont",
        "street": "Rua Minas Gerais",
        "zipcode": "97547-300"
    },
    {
        "city": "Alegrete",
        "state": "RS",
        "district": "Dr. Romário A de Oliveira",
        "street": "Rua Paulo Jacques",
        "zipcode": "97547-530"
    },
    {
        "city": "Alegrete",
        "state": "RS",
        "district": "Santos Dumont",
        "street": "Rua Pernambuco",
        "zipcode": "97547-340"
    },
    {
        "city": "Alegrete",
        "state": "RS",
        "district": "Ibirapuitã",
        "street": "Rua Quaraí",
        "zipcode": "97546-430"
    },
    {
        "city": "Alegrete",
        "state": "RS",
        "district": "Santos Dumont",
        "street": "Rua Santa Catarina",
        "zipcode": "97547-370"
    },
    {
        "city": "Alegrete",
        "state": "RS",
        "district": "Ibirapuitã",
        "street": "Rua Santiago",
        "zipcode": "97546-490"
    },
    {
        "city": "Alegrete",
        "state": "RS",
        "district": "Ibirapuitã",
        "street": "Rua São Borja",
        "zipcode": "97546-500"
    },
    {
        "city": "Alegrete",
        "state": "RS",
        "district": "Ibirapuitã",
        "street": "Rua São Sebastião",
        "zipcode": "97546-520"
    },
    {
        "city": "Alegrete",
        "state": "RS",
        "district": "Piola",
        "street": "Rodovia BR",
        "zipcode": "97545-120"
    },
    {
        "city": "Alegrete",
        "state": "RS",
        "district": "Jardim Planalto",
        "street": "Rua Jangota Pereira Costa",
        "zipcode": "97545-280"
    },
    {
        "city": "Alegrete",
        "state": "RS",
        "district": "Airton Senna",
        "street": "Rua Maria Avelina Ferreira Rosli",
        "zipcode": "97546-135"
    },
    {
        "city": "Alegrete",
        "state": "RS",
        "district": "Santos Dumont",
        "street": "Rua Sergipe",
        "zipcode": "97547-380"
    },
    {
        "city": "Alegrete",
        "state": "RS",
        "district": "Promorar",
        "street": "Rua Silvana Maria Elizalde",
        "zipcode": "97546-530"
    },
    {
        "city": "Alegrete",
        "state": "RS",
        "district": "Centenário",
        "street": "Rua Tenente",
        "zipcode": "97546-540"
    },
    {
        "city": "Alegrete",
        "state": "RS",
        "district": "Ibirapuitã",
        "street": "Rua Tiaraju",
        "zipcode": "97547-400"
    },
    {
        "city": "Alegrete",
        "state": "RS",
        "district": "Capão do Angico",
        "street": "Rua Timbaúva",
        "zipcode": "97547-410"
    },
    {
        "city": "Alegrete",
        "state": "RS",
        "district": "Ibirapuitã",
        "street": "Rua Uruguaiana",
        "zipcode": "97546-560"
    },
    {
        "city": "Alegrete",
        "state": "RS",
        "district": "Dr. Romário A de Oliveira",
        "street": "Rua Vereador Salatie Antunes da Silva",
        "zipcode": "97547-510"
    },
    {
        "city": "Alegrete",
        "state": "RS",
        "district": "Favila",
        "street": "Rua Vicente de Souza Machado",
        "zipcode": "97547-420"
    },
    {
        "city": "Alegrete",
        "state": "RS",
        "district": "Cidade Alta",
        "street": "Rua Doutor Eduardo Faraco",
        "zipcode": "97543-650"
    },
    {
        "city": "Alegrete",
        "state": "RS",
        "district": "Capão do Angico",
        "street": "Rua das Palmeiras",
        "zipcode": "97547-320"
    },
    {
        "city": "Alegrete",
        "state": "RS",
        "district": "Saint Pastous",
        "street": "Rua Ana Percília Ferreira Rodrigues",
        "zipcode": "97547-570"
    },
    {
        "city": "Alegrete",
        "state": "RS",
        "district": "Nossa Senhora da Conceição Aparecida",
        "street": "Rua Alcy de Barros Passos",
        "zipcode": "97547-575"
    },
    {
        "city": "Alegrete",
        "state": "RS",
        "district": "Nossa Senhora da Conceição Aparecida",
        "street": "Rua Belo Almeida",
        "zipcode": "97547-577"
    },
    {
        "city": "Alegrete",
        "state": "RS",
        "district": "Saint Pastous",
        "street": "Rua Airton Senna",
        "zipcode": "97547-582"
    },
    {
        "city": "Alegrete",
        "state": "RS",
        "district": "Saint Pastous",
        "street": "Rua João Fagundes",
        "zipcode": "97547-584"
    },
    {
        "city": "Alegrete",
        "state": "RS",
        "district": "Balneário Caverá",
        "street": "Avenida Joaquim Pamim",
        "zipcode": "97546-455"
    },
    {
        "city": "Alegrete",
        "state": "RS",
        "district": "Nossa Senhora da Conceição Aparecida",
        "street": "Rua Joaquim Rodrigues Paim",
        "zipcode": "97547-590"
    },
    {
        "city": "Alegrete",
        "state": "RS",
        "district": "Saint Pastous",
        "street": "Rua Jorge José Boabaid",
        "zipcode": "97547-593"
    },
    {
        "city": "Alegrete",
        "state": "RS",
        "district": "Saint Pastous",
        "street": "Rua Manoel Correa Trindade",
        "zipcode": "97547-599"
    },
    {
        "city": "Alegrete",
        "state": "RS",
        "district": "Cidade Alta",
        "street": "Praça Bebedouro",
        "zipcode": "97545-110"
    },
    {
        "city": "Alegrete",
        "state": "RS",
        "district": "Saint Pastous",
        "street": "Rua Joaquim Aurélio Pedroso",
        "zipcode": "97547-587"
    },
    {
        "city": "Alegrete",
        "state": "RS",
        "district": "Joaquim Fonseca Milano",
        "street": "Rua Orestes Dorneles dos Santos",
        "zipcode": "97544-022"
    },
    {
        "city": "Alegrete",
        "state": "RS",
        "district": "Dr. Romário A de Oliveira",
        "street": "Rua Oscar José da Silva",
        "zipcode": "97547-603"
    },
    {
        "city": "Alegrete",
        "state": "RS",
        "district": "Nossa Senhora da Conceição Aparecida",
        "street": "Rua Raul da Costa Fontoura",
        "zipcode": "97547-613"
    },
    {
        "city": "Alegrete",
        "state": "RS",
        "district": "Nossa Senhora da Conceição Aparecida",
        "street": "Rua Adão Oribes da Silveira",
        "zipcode": "97547-580"
    },
    {
        "city": "Alegrete",
        "state": "RS",
        "district": "Saint Pastous",
        "street": "Rua Graciliano Alves Siqueira",
        "zipcode": "97547-583"
    },
    {
        "city": "Alegrete",
        "state": "RS",
        "district": "Ulisses Guimarães",
        "street": "Rua Expedicionário Mário Montanha",
        "zipcode": "97547-616"
    },
    {
        "city": "Alegrete",
        "state": "RS",
        "district": "Saint Pastous",
        "street": "Rua Isidoro Aurélio",
        "zipcode": "97547-627"
    },
    {
        "city": "Alegrete",
        "state": "RS",
        "district": "José de Abreu",
        "street": "Rua Mário Thaddeu",
        "zipcode": "97545-784"
    },
    {
        "city": "Alegrete",
        "state": "RS",
        "district": "José de Abreu",
        "street": "Rua Américo Martini",
        "zipcode": "97545-787"
    },
    {
        "city": "Alegrete",
        "state": "RS",
        "district": "Honório lemos",
        "street": "Rua Honorina Jaques",
        "zipcode": "97546-124"
    },
    {
        "city": "Alegrete",
        "state": "RS",
        "district": "Renascer",
        "street": "Rua Capitão Adão Correa",
        "zipcode": "97545-825"
    },
    {
        "city": "Alegrete",
        "state": "RS",
        "district": "Saint Pastous",
        "street": "Rua C",
        "zipcode": "97547-607"
    },
    {
        "city": "Alegrete",
        "state": "RS",
        "district": "Saint Pastous",
        "street": "Rua Olinto Alves Fernandes",
        "zipcode": "97547-585"
    },
    {
        "city": "Alegrete",
        "state": "RS",
        "district": "Saint Pastous",
        "street": "Rua Helio S Silveira",
        "zipcode": "97547-589"
    },
    {
        "city": "Alegrete",
        "state": "RS",
        "district": "Favila",
        "street": "Rua André Cortelini",
        "zipcode": "97547-050"
    },
    {
        "city": "Alegrete",
        "state": "RS",
        "district": "Progresso",
        "street": "Rua Antônio Brasil Milano",
        "zipcode": "97543-040"
    },
    {
        "city": "Alegrete",
        "state": "RS",
        "district": "Dr. Romário A de Oliveira",
        "street": "Rua Antônio Repetto Rogoski",
        "zipcode": "97547-490"
    },
    {
        "city": "Alegrete",
        "state": "RS",
        "district": "Balneário Caverá",
        "street": "Rua Antônio Salve Regina",
        "zipcode": "97546-660"
    },
    {
        "city": "Alegrete",
        "state": "RS",
        "district": "Cidade Alta",
        "street": "Avenida Assis Brasil",
        "zipcode": "97545-081"
    },
    {
        "city": "Alegrete",
        "state": "RS",
        "district": "Santos Dumont",
        "street": "Praça Bartolomeu de Gusmão",
        "zipcode": "97547-100"
    },
    {
        "city": "Alegrete",
        "state": "RS",
        "district": "Prado",
        "street": "Rua Canindé",
        "zipcode": "97543-110"
    },
    {
        "city": "Alegrete",
        "state": "RS",
        "district": "Santos Dumont",
        "street": "Rua Ceará",
        "zipcode": "97547-130"
    },
    {
        "city": "Alegrete",
        "state": "RS",
        "district": "Ibirapuitã",
        "street": "Rua Doutor Plínio Brasil Milano",
        "zipcode": "97546-180"
    },
    {
        "city": "Alegrete",
        "state": "RS",
        "district": "Capão do Angico",
        "street": "Rua dos Gladiolos",
        "zipcode": "97547-210"
    },
    {
        "city": "Alegrete",
        "state": "RS",
        "district": "Capão do Angico",
        "street": "Rua das Hortênsias",
        "zipcode": "97547-240"
    },
    {
        "city": "Alegrete",
        "state": "RS",
        "district": "Promorar",
        "street": "Rua Hugo Mário Giacomani",
        "zipcode": "97546-270"
    },
    {
        "city": "Alegrete",
        "state": "RS",
        "district": "Capão do Angico",
        "street": "Rua Ipê",
        "zipcode": "97547-250"
    },
    {
        "city": "Alegrete",
        "state": "RS",
        "district": "Balneário Caverá",
        "street": "Rua João Franco Antunes",
        "zipcode": "97546-610"
    },
    {
        "city": "Alegrete",
        "state": "RS",
        "district": "Izabel",
        "street": "Rua Jornalista Hipólito José da Costa",
        "zipcode": "97542-370"
    },
    {
        "city": "Alegrete",
        "state": "RS",
        "district": "Palma",
        "street": "Rua João Cândido de Souza Gomes",
        "zipcode": "97547-450"
    },
    {
        "city": "Alegrete",
        "state": "RS",
        "district": "Renascer",
        "street": "Rua Herbert de Souza",
        "zipcode": "97545-821"
    },
    {
        "city": "Alegrete",
        "state": "RS",
        "district": "Saint Pastous",
        "street": "Rua Carlos Vergottini",
        "zipcode": "97547-609"
    },
    {
        "city": "Alegrete",
        "state": "RS",
        "district": "Capão do Angico",
        "street": "Rua Madressilva",
        "zipcode": "97547-290"
    },
    {
        "city": "Alegrete",
        "state": "RS",
        "district": "Piola",
        "street": "Rua Marechal Artur da Costa e Silva",
        "zipcode": "97545-420"
    },
    {
        "city": "Alegrete",
        "state": "RS",
        "district": "Emílio Zuneda",
        "street": "Rua Maria B. Saldanha",
        "zipcode": "97544-310"
    },
    {
        "city": "Alegrete",
        "state": "RS",
        "district": "Centro",
        "street": "Rua Nossa Senhora do Carmo",
        "zipcode": "97541-410"
    },
    {
        "city": "Alegrete",
        "state": "RS",
        "district": "Balneário Caverá",
        "street": "Rua Palmira Rocha Regina",
        "zipcode": "97546-680"
    },
    {
        "city": "Alegrete",
        "state": "RS",
        "district": "Jardim Planalto",
        "street": "Rua Paulo Houayek",
        "zipcode": "97545-560"
    },
    {
        "city": "Alegrete",
        "state": "RS",
        "district": "Capão do Angico",
        "street": "Rua Pitangueira",
        "zipcode": "97547-350"
    },
    {
        "city": "Alegrete",
        "state": "RS",
        "district": "Ibirapuitã",
        "street": "Praça Presidente João Goulart",
        "zipcode": "97546-420"
    },
    {
        "city": "Alegrete",
        "state": "RS",
        "district": "Nova Brasília",
        "street": "Rua Rosa Cisiel Campanel",
        "zipcode": "97546-460"
    },
    {
        "city": "Alegrete",
        "state": "RS",
        "district": "Medianeira",
        "street": "Rua São Judas Tadeu",
        "zipcode": "97543-540"
    },
    {
        "city": "Alegrete",
        "state": "RS",
        "district": "Capão do Angico",
        "street": "Rua Laranjeiras",
        "zipcode": "97547-280"
    },
    {
        "city": "Alegrete",
        "state": "RS",
        "district": "Ibirapuitã",
        "street": "Avenida Tiaraju",
        "zipcode": "97546-550"
    },
    {
        "city": "Alegrete",
        "state": "RS",
        "district": "Promorar",
        "street": "Rua Gaudêncio Corrêa da Silva",
        "zipcode": "97546-220"
    },
    {
        "city": "Alegrete",
        "state": "RS",
        "district": "Restinga",
        "street": "Rua Amadeu Bicca de Medeiros",
        "zipcode": "97542-040"
    },
    {
        "city": "Alegrete",
        "state": "RS",
        "district": "Jardim Planalto",
        "street": "Rua Márcio Giovani F. Prates",
        "zipcode": "97545-775"
    },
    {
        "city": "Alegrete",
        "state": "RS",
        "district": "José de Abreu",
        "street": "Rua Verônica Martins",
        "zipcode": "97545-780"
    },
    {
        "city": "Alegrete",
        "state": "RS",
        "district": "Getúlio Vargas",
        "street": "Rua Doutor Ilson de Souza Nunes",
        "zipcode": "97546-368"
    },
    {
        "city": "Alegrete",
        "state": "RS",
        "district": "Segabinazi",
        "street": "Rua Euclides Ferreira da Silva",
        "zipcode": "97547-045"
    },
    {
        "city": "Alegrete",
        "state": "RS",
        "district": "Capão do Angico",
        "street": "Rua Gentil Francisco Carlesso",
        "zipcode": "97547-215"
    },
    {
        "city": "Alegrete",
        "state": "RS",
        "district": "Dr. Romário A de Oliveira",
        "street": "Rua Deraci da Silva Fagundes",
        "zipcode": "97547-502"
    },
    {
        "city": "Alegrete",
        "state": "RS",
        "district": "Centenário",
        "street": "Rua Vereador Evódio Ribeiro Severo",
        "zipcode": "97546-115"
    },
    {
        "city": "Alegrete",
        "state": "RS",
        "district": "Centenário",
        "street": "Avenida A",
        "zipcode": "97546-622"
    },
    {
        "city": "Alegrete",
        "state": "RS",
        "district": "Centenário",
        "street": "Rua B Dois",
        "zipcode": "97546-626"
    },
    {
        "city": "Alegrete",
        "state": "RS",
        "district": "Balneário Caverá",
        "street": "Rua João Tácito Sá e Silva",
        "zipcode": "97546-413"
    },
    {
        "city": "Alegrete",
        "state": "RS",
        "district": "Balneário Caverá",
        "street": "Rua José Antônio Galanena Colo",
        "zipcode": "97546-453"
    },
    {
        "city": "Alegrete",
        "state": "RS",
        "district": "Balneário Caverá",
        "street": "Rua K Um",
        "zipcode": "97546-673"
    },
    {
        "city": "Alegrete",
        "state": "RS",
        "district": "Balneário Caverá",
        "street": "Rua R Três",
        "zipcode": "97546-750"
    },
    {
        "city": "Alegrete",
        "state": "RS",
        "district": "Assunção",
        "street": "Beco Trezentos e Vinte e Cinco",
        "zipcode": "97543-347"
    },
    {
        "city": "Alegrete",
        "state": "RS",
        "district": "Honório lemos",
        "street": "Rua Ney dos Santos Leal",
        "zipcode": "97546-126"
    },
    {
        "city": "Alegrete",
        "state": "RS",
        "district": "Joaquim Fonseca Milano",
        "street": "Rua Alonso Medeiros",
        "zipcode": "97544-020"
    },
    {
        "city": "Alegrete",
        "state": "RS",
        "district": "Cidade Alta",
        "street": "Avenida Assis Brasil",
        "zipcode": "97545-080"
    },
    {
        "city": "Alegrete",
        "state": "RS",
        "district": "Centro",
        "street": "Rua Bento Manoel",
        "zipcode": "97543-070"
    },
    {
        "city": "Alegrete",
        "state": "RS",
        "district": "Joaquim Fonseca Milano",
        "street": "Rua Boaventura Paines",
        "zipcode": "97544-080"
    },
    {
        "city": "Alegrete",
        "state": "RS",
        "district": "Vera Cruz",
        "street": "Rua Carlos Ribeiro",
        "zipcode": "97544-110"
    },
    {
        "city": "Alegrete",
        "state": "RS",
        "district": "Ibirapuitã",
        "street": "Rua Castelo Branco",
        "zipcode": "97545-750"
    },
    {
        "city": "Alegrete",
        "state": "RS",
        "district": "Cidade Alta",
        "street": "Rua Coronel Alberto Dias dos Santos",
        "zipcode": "97543-180"
    },
    {
        "city": "Alegrete",
        "state": "RS",
        "district": "Lara",
        "street": "Rua Coronel Cássio Canto",
        "zipcode": "97545-130"
    },
    {
        "city": "Alegrete",
        "state": "RS",
        "district": "Progresso",
        "street": "Rua Corpo Santo",
        "zipcode": "97543-210"
    },
    {
        "city": "Alegrete",
        "state": "RS",
        "district": "Kennedy",
        "street": "Rua Doutor João Adolfo Martins",
        "zipcode": "97545-180"
    },
    {
        "city": "Alegrete",
        "state": "RS",
        "district": "Emílio Zuneda",
        "street": "Rua Engenheiro Ildo Meneghetti",
        "zipcode": "97544-200"
    },
    {
        "city": "Alegrete",
        "state": "RS",
        "district": "Jardim Planalto",
        "street": "Rua Etchepare",
        "zipcode": "97545-770"
    },
    {
        "city": "Alegrete",
        "state": "RS",
        "district": "Novo Lar",
        "street": "Rua Francisco de Sá Brito",
        "zipcode": "97545-250"
    },
    {
        "city": "Alegrete",
        "state": "RS",
        "district": "Progresso",
        "street": "Rua Hernani Schmitt",
        "zipcode": "97543-290"
    },
    {
        "city": "Alegrete",
        "state": "RS",
        "district": "Jardim Planalto",
        "street": "Rua João Pereira da Costa",
        "zipcode": "97545-300"
    },
    {
        "city": "Alegrete",
        "state": "RS",
        "district": "Inez",
        "street": "Rua Joaquina Ortiz Hovayek",
        "zipcode": "97545-330"
    },
    {
        "city": "Alegrete",
        "state": "RS",
        "district": "Cidade Alta",
        "street": "Rua Júlio de Castilhos",
        "zipcode": "97543-360"
    },
    {
        "city": "Alegrete",
        "state": "RS",
        "district": "Jardim Planalto",
        "street": "Rua Liberato José de Mello",
        "zipcode": "97545-360"
    },
    {
        "city": "Alegrete",
        "state": "RS",
        "district": "Progresso",
        "street": "Rua Machado de Assis",
        "zipcode": "97543-380"
    },
    {
        "city": "Alegrete",
        "state": "RS",
        "district": "Praça da Lagoa",
        "street": "Rua Martin Luther King",
        "zipcode": "97545-460"
    },
    {
        "city": "Alegrete",
        "state": "RS",
        "district": "Lara",
        "street": "Rua Mateus Ricciardi",
        "zipcode": "97545-480"
    },
    {
        "city": "Alegrete",
        "state": "RS",
        "district": "Nilo Soares Gonçalves",
        "street": "Rua Mãe do Ouro",
        "zipcode": "97546-474"
    },
    {
        "city": "Alegrete",
        "state": "RS",
        "district": "Nilo Soares Gonçalves",
        "street": "Avenida Rodrigo Cambará",
        "zipcode": "97546-478"
    },
    {
        "city": "Alegrete",
        "state": "RS",
        "district": "Favila",
        "street": "Rua Pedro Onofrio Schervensk",
        "zipcode": "97547-330"
    },
    {
        "city": "Alegrete",
        "state": "RS",
        "district": "Centenário",
        "street": "Rua Almiro da Costa Leite",
        "zipcode": "97546-055"
    },
    {
        "city": "Alegrete",
        "state": "RS",
        "district": "Vera Cruz",
        "street": "Rua Maximino Marinho",
        "zipcode": "97543-410"
    },
    {
        "city": "Alegrete",
        "state": "RS",
        "district": "Lara",
        "street": "Rua Oscar de Souza",
        "zipcode": "97545-510"
    },
    {
        "city": "Alegrete",
        "state": "RS",
        "district": "Joaquim Fonseca Milano",
        "street": "Rua Osório Lopes Pereira",
        "zipcode": "97544-370"
    },
    {
        "city": "Alegrete",
        "state": "RS",
        "district": "Saudade",
        "street": "Rua Planalto",
        "zipcode": "97545-600"
    },
    {
        "city": "Alegrete",
        "state": "RS",
        "district": "Piola",
        "street": "Rua Princesa Isabel",
        "zipcode": "97545-660"
    },
    {
        "city": "Alegrete",
        "state": "RS",
        "district": "Assunção",
        "street": "Rua Romário Morais Carvalho",
        "zipcode": "97543-460"
    },
    {
        "city": "Alegrete",
        "state": "RS",
        "district": "Cidade Alta",
        "street": "Rua Rui Barbosa",
        "zipcode": "97543-480"
    },
    {
        "city": "Alegrete",
        "state": "RS",
        "district": "Jardim Planalto",
        "street": "Rua Sílvio Danton Brunet Rodrigues",
        "zipcode": "97545-710"
    },
    {
        "city": "Alegrete",
        "state": "RS",
        "district": "Prado",
        "street": "Rua Timbira",
        "zipcode": "97543-620"
    },
    {
        "city": "Alegrete",
        "state": "RS",
        "district": "Vera Cruz",
        "street": "Rua Tuiuti",
        "zipcode": "97544-490"
    },
    {
        "city": "Alegrete",
        "state": "RS",
        "district": "Vera Cruz",
        "street": "Rua Colômbia",
        "zipcode": "97544-000"
    },
    {
        "city": "Alegrete",
        "state": "RS",
        "district": "Saudade",
        "street": "Rua Geni Mative Murussi",
        "zipcode": "97543-555"
    },
    {
        "city": "Alegrete",
        "state": "RS",
        "district": "Piola",
        "street": "Rua Manoel Pereira Belleza",
        "zipcode": "97545-425"
    },
    {
        "city": "Alegrete",
        "state": "RS",
        "district": "Grande",
        "street": "Rua Zacaria Vilaverde",
        "zipcode": "97543-575"
    },
    {
        "city": "Alegrete",
        "state": "RS",
        "district": "Getúlio Vargas",
        "street": "Rua Adélio Conceição Ávila",
        "zipcode": "97546-075"
    },
    {
        "city": "Alegrete",
        "state": "RS",
        "district": "Centro",
        "street": "Rua dos Andradas",
        "zipcode": "97541-001"
    },
    {
        "city": "Alegrete",
        "state": "RS",
        "district": "Ibirapuitã",
        "street": "Praça John Kennedy",
        "zipcode": "97546-350"
    },
    {
        "city": "Alegrete",
        "state": "RS",
        "district": "Nilo Soares Gonçalves",
        "street": "Rua São Sepé",
        "zipcode": "97546-475"
    },
    {
        "city": "Alegrete",
        "state": "RS",
        "district": "Nilo Soares Gonçalves",
        "street": "Rua Boiguaçu",
        "zipcode": "97546-488"
    },
    {
        "city": "Alegrete",
        "state": "RS",
        "district": "Promorar",
        "street": "Rua Querino de Araújo Carvalho",
        "zipcode": "97546-440"
    },
    {
        "city": "Alegrete",
        "state": "RS",
        "district": "Airton Senna",
        "street": "Rua Helena Galant Rodrigues",
        "zipcode": "97546-132"
    },
    {
        "city": "Alegrete",
        "state": "RS",
        "district": "Nilo Soares Gonçalves",
        "street": "Rua Bibiana Cambará",
        "zipcode": "97546-487"
    },
    {
        "city": "Alegrete",
        "state": "RS",
        "district": "Nossa Senhora da Conceição Aparecida",
        "street": "Rua Antônio Franqueira da Costa",
        "zipcode": "97547-440"
    },
    {
        "city": "Alegrete",
        "state": "RS",
        "district": "Renascer",
        "street": "Rua Poeta Mário Quintana",
        "zipcode": "97545-827"
    },
    {
        "city": "Alegrete",
        "state": "RS",
        "district": "Centenário",
        "street": "Rua W Um",
        "zipcode": "97546-624"
    },
    {
        "city": "Alegrete",
        "state": "RS",
        "district": "Balneário Caverá",
        "street": "Rua M Um",
        "zipcode": "97546-671"
    },
    {
        "city": "Alegrete",
        "state": "RS",
        "district": "Canudos",
        "street": "Rua Valdomiro Desiderio",
        "zipcode": "97541-468"
    },
    {
        "city": "Alegrete",
        "state": "RS",
        "district": "Restinga",
        "street": "Beco Novecentos e Dezesseis",
        "zipcode": "97542-033"
    },
    {
        "city": "Alegrete",
        "state": "RS",
        "district": "Sepé Tiaraju",
        "street": "Rua Pastor Naoli",
        "zipcode": "97544-247"
    },
    {
        "city": "Alegrete",
        "state": "RS",
        "district": "Cidade Alta",
        "street": "Largo Santo Antônio",
        "zipcode": "97542-234"
    },
    {
        "city": "Alegrete",
        "state": "RS",
        "district": "Boa Vista",
        "street": "Rua Professora Maria da Graça Neche Rohers",
        "zipcode": "97542-614"
    },
    {
        "city": "Alegrete",
        "state": "RS",
        "district": "Centro",
        "street": "Praça Oswaldo Aranha",
        "zipcode": "97541-972"
    },
    {
        "city": "Alegrete",
        "state": "RS",
        "district": "Centro",
        "street": "Rua Visconde de Tamandaré",
        "zipcode": "97541-973"
    },
    {
        "city": "Alegrete",
        "state": "RS",
        "district": "Capão do Angico",
        "street": "Praça Aristides Carvalho",
        "zipcode": "97547-060"
    },
    {
        "city": "Alegrete",
        "state": "RS",
        "district": "Balneário Caverá",
        "street": "Avenida Avelino Cassol",
        "zipcode": "97546-670"
    },
    {
        "city": "Alegrete",
        "state": "RS",
        "district": "Centro",
        "street": "Rua Barão de Cerro Largo",
        "zipcode": "97542-081"
    },
    {
        "city": "Alegrete",
        "state": "RS",
        "district": "Cidade Alta",
        "street": "Rua Barão do Rio Branco",
        "zipcode": "97542-110"
    },
    {
        "city": "Alegrete",
        "state": "RS",
        "district": "Centro",
        "street": "Rua Bento Manoel",
        "zipcode": "97541-040"
    },
    {
        "city": "Alegrete",
        "state": "RS",
        "district": "Macedo",
        "street": "Travessa Carioca",
        "zipcode": "97542-150"
    },
    {
        "city": "Alegrete",
        "state": "RS",
        "district": "Capão do Angico",
        "street": "Rua Carvalho",
        "zipcode": "97547-120"
    },
    {
        "city": "Alegrete",
        "state": "RS",
        "district": "Balneário Caverá",
        "street": "Rua Célio Alves Pahim",
        "zipcode": "97546-590"
    },
    {
        "city": "Alegrete",
        "state": "RS",
        "district": "Centro",
        "street": "Travessa David Canabarro",
        "zipcode": "97542-190"
    },
    {
        "city": "Alegrete",
        "state": "RS",
        "district": "São João",
        "street": "Rua Doutor Eduardo Vargas",
        "zipcode": "97542-210"
    },
    {
        "city": "Alegrete",
        "state": "RS",
        "district": "Centro",
        "street": "Rua Doutor Quintana",
        "zipcode": "97541-160"
    },
    {
        "city": "Alegrete",
        "state": "RS",
        "district": "Independência",
        "street": "Rua Doutor Virgílio Machado",
        "zipcode": "97542-240"
    },
    {
        "city": "Alegrete",
        "state": "RS",
        "district": "Centro",
        "street": "Avenida Doutor Eurípedes Brasil Milano",
        "zipcode": "97542-280"
    },
    {
        "city": "Alegrete",
        "state": "RS",
        "district": "Centro",
        "street": "Rua Gaspar Martins",
        "zipcode": "97542-000"
    },
    {
        "city": "Alegrete",
        "state": "RS",
        "district": "Capão do Angico",
        "street": "Praça Gazeta de Alegrete",
        "zipcode": "97547-200"
    },
    {
        "city": "Alegrete",
        "state": "RS",
        "district": "Centro",
        "street": "Rua General Arruda",
        "zipcode": "97541-240"
    },
    {
        "city": "Alegrete",
        "state": "RS",
        "district": "Centro",
        "street": "Rua General Vitorino",
        "zipcode": "97542-311"
    },
    {
        "city": "Alegrete",
        "state": "RS",
        "district": "Capão do Angico",
        "street": "Rua Guabiju",
        "zipcode": "97547-230"
    },
    {
        "city": "Alegrete",
        "state": "RS",
        "district": "Favila",
        "street": "Rua José Antônio Simon França",
        "zipcode": "97547-270"
    },
    {
        "city": "Alegrete",
        "state": "RS",
        "district": "São João",
        "street": "Rua Manoel Lino dos Santos",
        "zipcode": "97542-410"
    },
    {
        "city": "Alegrete",
        "state": "RS",
        "district": "Vila Nova",
        "street": "Praça Marechal Costa e Silva",
        "zipcode": "97541-370"
    },
    {
        "city": "Alegrete",
        "state": "RS",
        "district": "Centro",
        "street": "Rua Marquês de Alegrete",
        "zipcode": "97542-440"
    },
    {
        "city": "Alegrete",
        "state": "RS",
        "district": "Rui Ramos",
        "street": "Rua Pascoal Mitidieri",
        "zipcode": "97541-430"
    },
    {
        "city": "Alegrete",
        "state": "RS",
        "district": "Centro",
        "street": "Praça Presidente Getúlio Vargas",
        "zipcode": "97542-570"
    },
    {
        "city": "Alegrete",
        "state": "RS",
        "district": "Capão do Angico",
        "street": "Rua das Rosas",
        "zipcode": "97547-360"
    },
    {
        "city": "Alegrete",
        "state": "RS",
        "district": "Santos Dumont",
        "street": "Rua São Paulo",
        "zipcode": "97547-390"
    },
    {
        "city": "Alegrete",
        "state": "RS",
        "district": "Vila Nova",
        "street": "Rua Vereador Carbonel (Visconde de Tamandaré)",
        "zipcode": "97541-510"
    },
    {
        "city": "Alegrete",
        "state": "RS",
        "district": "Centro",
        "street": "Rua Vinte de Setembro",
        "zipcode": "97542-620"
    },
    {
        "city": "Alegrete",
        "state": "RS",
        "district": "Centro",
        "street": "Praça Doutor Alexandre Lisboa",
        "zipcode": "97541-140"
    },
    {
        "city": "Alegrete",
        "state": "RS",
        "district": "Centro",
        "street": "Rua Vasco Alves",
        "zipcode": "97542-600"
    },
    {
        "city": "Alegrete",
        "state": "RS",
        "district": "Vila Nova",
        "street": "Rua Lellis Ricciardi",
        "zipcode": "97541-340"
    },
    {
        "city": "Alegrete",
        "state": "RS",
        "district": "Izabel",
        "street": "Rua Alcides Farias Ribeiro",
        "zipcode": "97542-375"
    },
    {
        "city": "Alegrete",
        "state": "RS",
        "district": "Saint Pastous",
        "street": "Rua Major Hilário José da Silva",
        "zipcode": "97547-597"
    },
    {
        "city": "Alegrete",
        "state": "RS",
        "district": "Dr. Romário A de Oliveira",
        "street": "Rua Vereador Rui Barbosa da Silveira",
        "zipcode": "97547-620"
    },
    {
        "city": "Alegrete",
        "state": "RS",
        "district": "Lara",
        "street": "Rua Agapito Lara Rodrigues",
        "zipcode": "97545-020"
    },
    {
        "city": "Alegrete",
        "state": "RS",
        "district": "Santos Dumont",
        "street": "Rua Amazonas",
        "zipcode": "97547-040"
    },
    {
        "city": "Alegrete",
        "state": "RS",
        "district": "Novo Lar",
        "street": "Avenida Antônio José de Vargas",
        "zipcode": "97545-070"
    },
    {
        "city": "Alegrete",
        "state": "RS",
        "district": "Vera Cruz",
        "street": "Rua Argentina",
        "zipcode": "97544-040"
    },
    {
        "city": "Alegrete",
        "state": "RS",
        "district": "Joaquim Fonseca Milano",
        "street": "Rua Armando Grillo",
        "zipcode": "97544-050"
    },
    {
        "city": "Alegrete",
        "state": "RS",
        "district": "Sepé Tiaraju",
        "street": "Rua Tenente Frontino Pereira de Ávila",
        "zipcode": "97544-222"
    },
    {
        "city": "Alegrete",
        "state": "RS",
        "district": "Olhos DAgua de Natal",
        "street": "Rua Mil Cento e Trinta e Oito",
        "zipcode": "97545-644"
    },
    {
        "city": "Alegrete",
        "state": "RS",
        "district": "Nova Brasília",
        "street": "Rua Artur Argênico Garaialde Iarto",
        "zipcode": "97546-060"
    },
    {
        "city": "Alegrete",
        "state": "RS",
        "district": "Jardim Planalto",
        "street": "Rua Bernardo Mem de Sá",
        "zipcode": "97545-760"
    },
    {
        "city": "Alegrete",
        "state": "RS",
        "district": "Promorar",
        "street": "Rua Carlos Roberto Pinto Nogueira",
        "zipcode": "97546-120"
    },
    {
        "city": "Alegrete",
        "state": "RS",
        "district": "Balneário Caverá",
        "street": "Rua Doralino Pacheco",
        "zipcode": "97546-160"
    },
    {
        "city": "Alegrete",
        "state": "RS",
        "district": "Oswaldo Aranha",
        "street": "Rua Doutor Ciro Soares Leaes",
        "zipcode": "97546-170"
    },
    {
        "city": "Alegrete",
        "state": "RS",
        "district": "Lara",
        "street": "Rua Doutor Nilo Milano",
        "zipcode": "97545-200"
    },
    {
        "city": "Alegrete",
        "state": "RS",
        "district": "Joaquim Fonseca Milano",
        "street": "Rua Doutor Plínio Macedo",
        "zipcode": "97544-180"
    },
    {
        "city": "Alegrete",
        "state": "RS",
        "district": "Praça da Lagoa",
        "street": "Rua Euclides Lisboa",
        "zipcode": "97545-240"
    },
    {
        "city": "Alegrete",
        "state": "RS",
        "district": "Pedreiras",
        "street": "Beco Quatrocentos e Cinco",
        "zipcode": "97545-575"
    },
    {
        "city": "Alegrete",
        "state": "RS",
        "district": "Praça da Lagoa",
        "street": "Rua Trinta e Um",
        "zipcode": "97545-463"
    },
    {
        "city": "Alegrete",
        "state": "RS",
        "district": "Balneário Caverá",
        "street": "Rua R Um",
        "zipcode": "97546-754"
    },
    {
        "city": "Alegrete",
        "state": "RS",
        "district": "Sepé Tiaraju",
        "street": "Travessa Três",
        "zipcode": "97544-243"
    },
    {
        "city": "Alegrete",
        "state": "RS",
        "district": "Airton Senna",
        "street": "Rua U",
        "zipcode": "97546-477"
    },
    {
        "city": "Alegrete",
        "state": "RS",
        "district": "Prado",
        "street": "Rua Guarani",
        "zipcode": "97543-280"
    },
    {
        "city": "Alegrete",
        "state": "RS",
        "district": "Vera Cruz",
        "street": "Rua Haiti",
        "zipcode": "97544-240"
    },
    {
        "city": "Alegrete",
        "state": "RS",
        "district": "Ibirapuitã",
        "street": "Rua Honório Lemes",
        "zipcode": "97546-260"
    },
    {
        "city": "Alegrete",
        "state": "RS",
        "district": "Assunção",
        "street": "Rua João XXIII",
        "zipcode": "97543-340"
    },
    {
        "city": "Alegrete",
        "state": "RS",
        "district": "Novo Lar",
        "street": "Rua Luíza Freitas Valle Jacques",
        "zipcode": "97545-380"
    },
    {
        "city": "Alegrete",
        "state": "RS",
        "district": "Assunção",
        "street": "Rua Major João Cezimbra Jaques",
        "zipcode": "97543-390"
    },
    {
        "city": "Alegrete",
        "state": "RS",
        "district": "Promorar",
        "street": "Rua Mário Sabóia Bandeira Mello",
        "zipcode": "97546-400"
    },
    {
        "city": "Alegrete",
        "state": "RS",
        "district": "Praça da Lagoa",
        "street": "Rua Paul Harris",
        "zipcode": "97545-550"
    },
    {
        "city": "Alegrete",
        "state": "RS",
        "district": "Vera Cruz",
        "street": "Praça Quinze de Outubro",
        "zipcode": "97544-430"
    },
    {
        "city": "Alegrete",
        "state": "RS",
        "district": "Balneário Caverá",
        "street": "Rua Ramão Conceição Machado",
        "zipcode": "97546-450"
    },
    {
        "city": "Alegrete",
        "state": "RS",
        "district": "Ibirapuitã",
        "street": "Rua Rosário",
        "zipcode": "97546-470"
    },
    {
        "city": "Alegrete",
        "state": "RS",
        "district": "Prado",
        "street": "Rua Salamanca do Jaraú",
        "zipcode": "97543-500"
    },
    {
        "city": "Alegrete",
        "state": "RS",
        "district": "Ibirapuitã",
        "street": "Rua São Francisco",
        "zipcode": "97546-510"
    },
    {
        "city": "Alegrete",
        "state": "RS",
        "district": "Cidade Alta",
        "street": "Rua Sepé Tiaraju",
        "zipcode": "97543-560"
    },
    {
        "city": "Alegrete",
        "state": "RS",
        "district": "Vera Cruz",
        "street": "Rua Uruguai",
        "zipcode": "97544-500"
    },
    {
        "city": "Alegrete",
        "state": "RS",
        "district": "Inez",
        "street": "Rua Vicente Vargas de Carvalho",
        "zipcode": "97545-740"
    },
    {
        "city": "Alegrete",
        "state": "RS",
        "district": "Vera Cruz",
        "street": "Rua Vitorino Portela",
        "zipcode": "97544-530"
    },
    {
        "city": "Alegrete",
        "state": "RS",
        "district": "Militar",
        "street": "Rua Coronel Cavalcanti",
        "zipcode": "97545-140"
    },
    {
        "city": "Alegrete",
        "state": "RS",
        "district": "Nova Brasília",
        "street": "Rua José Lúcio Zácaro Faraco",
        "zipcode": "97546-360"
    },
    {
        "city": "Alegrete",
        "state": "RS",
        "district": "Vera Cruz",
        "street": "Rua Negrinho do Pastoreio",
        "zipcode": "97544-350"
    },
    {
        "city": "Alegrete",
        "state": "RS",
        "district": "Cidade Alta",
        "street": "Rua Pinheiro Machado",
        "zipcode": "97543-440"
    },
    {
        "city": "Alegrete",
        "state": "RS",
        "district": "Rui Ramos",
        "street": "Rua Jarbas M. Figueira",
        "zipcode": "97541-270"
    },
    {
        "city": "Alegrete",
        "state": "RS",
        "district": "Emílio Zuneda",
        "street": "Rua Senador Nilton Campos",
        "zipcode": "97544-460"
    },
    {
        "city": "Alegrete",
        "state": "RS",
        "district": "Balneário Caverá",
        "street": "Rua José Soares de Oliveira",
        "zipcode": "97546-690"
    },
    {
        "city": "Alegrete",
        "state": "RS",
        "district": "Liberdade",
        "street": "Rua João Conceição Nunes",
        "zipcode": "97543-385"
    },
    {
        "city": "Alegrete",
        "state": "RS",
        "district": "Medianeira",
        "street": "Rua Mariazinha Penna",
        "zipcode": "97543-515"
    },
    {
        "city": "Alegrete",
        "state": "RS",
        "district": "Alberto Grande",
        "street": "Rua Joaquim do Prado Lima",
        "zipcode": "97545-095"
    },
    {
        "city": "Alegrete",
        "state": "RS",
        "district": "José de Abreu",
        "street": "Rua Adolfo Fernandes Crespo",
        "zipcode": "97545-785"
    },
    {
        "city": "Alegrete",
        "state": "RS",
        "district": "José de Abreu",
        "street": "Rua José Ramos Lopes",
        "zipcode": "97545-790"
    },
    {
        "city": "Alegrete",
        "state": "RS",
        "district": "José de Abreu",
        "street": "Rua Evandro Luiz Rohde",
        "zipcode": "97545-795"
    },
    {
        "city": "Alegrete",
        "state": "RS",
        "district": "Restinga",
        "street": "Rua Alfeu Bicca de Medeiros",
        "zipcode": "97542-030"
    },
    {
        "city": "Alegrete",
        "state": "RS",
        "district": "Vila Nova",
        "street": "Rua Arthur Bento Hormain",
        "zipcode": "97541-030"
    },
    {
        "city": "Alegrete",
        "state": "RS",
        "district": "Centro",
        "street": "Avenida Assis Brasil",
        "zipcode": "97543-000"
    },
    {
        "city": "Alegrete",
        "state": "RS",
        "district": "Cidade Alta",
        "street": "Rua Barros Cassal",
        "zipcode": "97543-060"
    },
    {
        "city": "Alegrete",
        "state": "RS",
        "district": "Centro",
        "street": "Avenida Beira Trilho",
        "zipcode": "97542-120"
    },
    {
        "city": "Alegrete",
        "state": "RS",
        "district": "Centro",
        "street": "Rua Castro Alves",
        "zipcode": "97541-070"
    },
    {
        "city": "Alegrete",
        "state": "RS",
        "district": "Assunção",
        "street": "Rua Ciro de Andrade",
        "zipcode": "97543-160"
    },
    {
        "city": "Alegrete",
        "state": "RS",
        "district": "Vila Nova",
        "street": "Rua Constantino de Freitas",
        "zipcode": "97541-090"
    },
    {
        "city": "Alegrete",
        "state": "RS",
        "district": "Progresso",
        "street": "Rua Coronel Antônio Freitas Valle",
        "zipcode": "97543-190"
    },
    {
        "city": "Alegrete",
        "state": "RS",
        "district": "Cidade Alta",
        "street": "Rua Daltro Filho",
        "zipcode": "97542-170"
    },
    {
        "city": "Alegrete",
        "state": "RS",
        "district": "Nilo Soares Gonçalves",
        "street": "Rua Lendas do Jaraú",
        "zipcode": "97546-472"
    },
    {
        "city": "Alegrete",
        "state": "RS",
        "district": "Jardim Planalto",
        "street": "Rua Major Delfino Antunes da Silva",
        "zipcode": "97545-400"
    },
    {
        "city": "Alegrete",
        "state": "RS",
        "district": "Progresso",
        "street": "Rua Dionízio Vilarinho",
        "zipcode": "97543-220"
    },
    {
        "city": "Alegrete",
        "state": "RS",
        "district": "Macedo",
        "street": "Rua Emílio Alabi",
        "zipcode": "97542-260"
    },
    {
        "city": "Alegrete",
        "state": "RS",
        "district": "Vera Cruz",
        "street": "Rua Equador",
        "zipcode": "97544-210"
    },
    {
        "city": "Alegrete",
        "state": "RS",
        "district": "Segabinazi",
        "street": "Rua B",
        "zipcode": "97547-227"
    },
    {
        "city": "Alegrete",
        "state": "RS",
        "district": "São João",
        "street": "Rua Margarida Balbiano",
        "zipcode": "97542-222"
    },
    {
        "city": "Alegrete",
        "state": "RS",
        "district": "Assunção",
        "street": "Rua Juari Oliveira Leal",
        "zipcode": "97543-039"
    },
    {
        "city": "Alegrete",
        "state": "RS",
        "district": "Grande",
        "street": "Travessa Quatro",
        "zipcode": "97543-043"
    },
    {
        "city": "Alegrete",
        "state": "RS",
        "district": "Ulisses Guimarães",
        "street": "Rua Euclides Alves da Silva",
        "zipcode": "97547-635"
    },
    {
        "city": "Alegrete",
        "state": "RS",
        "district": "Centro",
        "street": "Rua Venâncio Aires",
        "zipcode": "97541-970"
    },
    {
        "city": "Alegrete",
        "state": "RS",
        "district": "Centro",
        "street": "Avenida Doutor Eurípedes Brasil Milano",
        "zipcode": "97543-240"
    },
    {
        "city": "Alegrete",
        "state": "RS",
        "district": "Rui Ramos",
        "street": "Rua Ezio Marchisio",
        "zipcode": "97541-220"
    },
    {
        "city": "Alegrete",
        "state": "RS",
        "district": "Assunção",
        "street": "Rua Fernando Ferrari",
        "zipcode": "97543-260"
    },
    {
        "city": "Alegrete",
        "state": "RS",
        "district": "Centro",
        "street": "Rua General Vitorino",
        "zipcode": "97542-310"
    },
    {
        "city": "Alegrete",
        "state": "RS",
        "district": "Centro",
        "street": "Rua João Batista Leal Pereira",
        "zipcode": "97542-350"
    },
    {
        "city": "Alegrete",
        "state": "RS",
        "district": "Vila Nova",
        "street": "Rua João Benício",
        "zipcode": "97541-280"
    },
    {
        "city": "Alegrete",
        "state": "RS",
        "district": "Macedo",
        "street": "Rua Nelci Fontoura Pedroso",
        "zipcode": "97542-470"
    },
    {
        "city": "Alegrete",
        "state": "RS",
        "district": "Olhos DAgua de Natal",
        "street": "Rua Outono",
        "zipcode": "97545-540"
    },
    {
        "city": "Alegrete",
        "state": "RS",
        "district": "Canudos",
        "street": "Rua Padre Caio",
        "zipcode": "97541-420"
    },
    {
        "city": "Alegrete",
        "state": "RS",
        "district": "Boa Vista",
        "street": "Rua Pedro Souza Bisch",
        "zipcode": "97542-520"
    },
    {
        "city": "Alegrete",
        "state": "RS",
        "district": "Restinga",
        "street": "Rua Quinze de Novembro",
        "zipcode": "97542-530"
    },
    {
        "city": "Alegrete",
        "state": "RS",
        "district": "Vila Nova",
        "street": "Rua Simplício Jacques",
        "zipcode": "97541-480"
    },
    {
        "city": "Alegrete",
        "state": "RS",
        "district": "Vila Nova",
        "street": "Rua Sofia de Brum",
        "zipcode": "97541-490"
    },
    {
        "city": "Alegrete",
        "state": "RS",
        "district": "Macedo",
        "street": "Rua Teotônio Vilela",
        "zipcode": "97542-580"
    },
    {
        "city": "Alegrete",
        "state": "RS",
        "district": "Centro",
        "street": "Rua Venâncio Aires",
        "zipcode": "97541-501"
    },
    {
        "city": "Alegrete",
        "state": "RS",
        "district": "Progresso",
        "street": "Rua Átila Casses",
        "zipcode": "97543-050"
    },
    {
        "city": "Alegrete",
        "state": "RS",
        "district": "Vera Cruz",
        "street": "Rua Domingos Rosso",
        "zipcode": "97544-160"
    },
    {
        "city": "Alegrete",
        "state": "RS",
        "district": "Macedo",
        "street": "Rua Marcel Alves",
        "zipcode": "97542-265"
    },
    {
        "city": "Alegrete",
        "state": "RS",
        "district": "Saint Pastous",
        "street": "Rua Clarêncio Antônio da Silveira",
        "zipcode": "97547-579"
    },
    {
        "city": "Alegrete",
        "state": "RS",
        "district": "Saint Pastous",
        "street": "Rua Salutiel Nascimento da Silveira",
        "zipcode": "97547-615"
    },
    {
        "city": "Alegrete",
        "state": "RS",
        "district": "Saint Pastous",
        "street": "Rua Francisco Felipe Soares",
        "zipcode": "97547-633"
    },
    {
        "city": "Alegrete",
        "state": "RS",
        "district": "Maria do Carmo",
        "street": "Rua Mirian Rejane Cardoso Vieira",
        "zipcode": "97545-302"
    },
    {
        "city": "Alegrete",
        "state": "RS",
        "district": "Atlântida",
        "street": "Rua Álvaro Ignácio de Medeiros",
        "zipcode": "97545-050"
    },
    {
        "city": "Alegrete",
        "state": "RS",
        "district": "Dr. Romário A de Oliveira",
        "street": "Rua Arlim Silva Pinheiro",
        "zipcode": "97547-480"
    },
    {
        "city": "Alegrete",
        "state": "RS",
        "district": "Prado",
        "street": "Rua Cariri",
        "zipcode": "97543-130"
    },
    {
        "city": "Alegrete",
        "state": "RS",
        "district": "Vera Cruz",
        "street": "Praça Borges de Medeiros",
        "zipcode": "97544-100"
    },
    {
        "city": "Alegrete",
        "state": "RS",
        "district": "Saint Pastous",
        "street": "Rua Eraclides Dutra",
        "zipcode": "97547-625"
    },
    {
        "city": "Alegrete",
        "state": "RS",
        "district": "Promorar",
        "street": "Rua Carlos Alberto Silva",
        "zipcode": "97546-110"
    },
    {
        "city": "Alegrete",
        "state": "RS",
        "district": "Prado",
        "street": "Rua Charrua",
        "zipcode": "97543-150"
    },
    {
        "city": "Alegrete",
        "state": "RS",
        "district": "Joaquim Fonseca Milano",
        "street": "Parque Doutor Breno da Silveira",
        "zipcode": "97544-170"
    },
    {
        "city": "Alegrete",
        "state": "RS",
        "district": "Progresso",
        "street": "Rua Fidêncio Caiboaté",
        "zipcode": "97543-270"
    },
    {
        "city": "Alegrete",
        "state": "RS",
        "district": "Oswaldo Aranha",
        "street": "Rua Inácio Lecuana",
        "zipcode": "97546-280"
    },
    {
        "city": "Alegrete",
        "state": "RS",
        "district": "Centro",
        "street": "Rua Joaquim Antônio",
        "zipcode": "97542-360"
    },
    {
        "city": "Alegrete",
        "state": "RS",
        "district": "Centro",
        "street": "Rua Joaquim Nabuco",
        "zipcode": "97541-300"
    },
    {
        "city": "Alegrete",
        "state": "RS",
        "district": "Novo Lar",
        "street": "Rua José Carvalho Portela",
        "zipcode": "97545-340"
    },
    {
        "city": "Alegrete",
        "state": "RS",
        "district": "Segabinazi",
        "street": "Rua José Carlos Casado",
        "zipcode": "97547-223"
    },
    {
        "city": "Alegrete",
        "state": "RS",
        "district": "Segabinazi",
        "street": "Rua D",
        "zipcode": "97547-044"
    },
    {
        "city": "Alegrete",
        "state": "RS",
        "district": "Favila",
        "street": "Rua Aurélio do Amaral",
        "zipcode": "97547-080"
    },
    {
        "city": "Alegrete",
        "state": "RS",
        "district": "Vera Cruz",
        "street": "Rua Paulo Pinto Freitas Valle",
        "zipcode": "97544-550"
    },
    {
        "city": "Alegrete",
        "state": "RS",
        "district": "Oswaldo Aranha",
        "street": "Rua Major Pedro Olímpio Pires",
        "zipcode": "97546-390"
    },
    {
        "city": "Alegrete",
        "state": "RS",
        "district": "Ibirapuitã",
        "street": "Rua Daniel Rodrigues Fernandes",
        "zipcode": "97546-373"
    },
    {
        "city": "Alegrete",
        "state": "RS",
        "district": "Fênix",
        "street": "Rua Homero Soltau Gamino",
        "zipcode": "97545-335"
    },
    {
        "city": "Alegrete",
        "state": "RS",
        "district": "Cidade Alta",
        "street": "Beco João Vieira de Abreu",
        "zipcode": "97543-565"
    },
    {
        "city": "Alegrete",
        "state": "RS",
        "district": "Segabinazi",
        "street": "Rua B (R A)",
        "zipcode": "97547-229"
    },
    {
        "city": "Alegrete",
        "state": "RS",
        "district": "Balneário Caverá",
        "street": "Rua G Dois",
        "zipcode": "97546-756"
    },
    {
        "city": "Alegrete",
        "state": "RS",
        "district": "Ibirapuitã",
        "street": "Rua Leona Arnoud",
        "zipcode": "97546-380"
    },
    {
        "city": "Alegrete",
        "state": "RS",
        "district": "Balneário Caverá",
        "street": "Rua Otacílio José Gonçalves",
        "zipcode": "97546-410"
    },
    {
        "city": "Alegrete",
        "state": "RS",
        "district": "Balneário Caverá",
        "street": "Rua Sebastião Pires de Freitas",
        "zipcode": "97546-710"
    },
    {
        "city": "Alegrete",
        "state": "RS",
        "district": "Prado",
        "street": "Rua Tapuia",
        "zipcode": "97543-600"
    },
    {
        "city": "Alegrete",
        "state": "RS",
        "district": "Balneário Caverá",
        "street": "Rua Tenente Alencastro Goulart Fabres",
        "zipcode": "97546-570"
    },
    {
        "city": "Alegrete",
        "state": "RS",
        "district": "Kennedy",
        "street": "Rua Vereador Álvares Gomes",
        "zipcode": "97545-730"
    },
    {
        "city": "Alegrete",
        "state": "RS",
        "district": "Jardim Planalto",
        "street": "Rua Amarante Paim Arrussul",
        "zipcode": "97545-060"
    },
    {
        "city": "Alegrete",
        "state": "RS",
        "district": "Dr. Romário A de Oliveira",
        "street": "Rua Francisco Pesce Padula",
        "zipcode": "97547-470"
    },
    {
        "city": "Alegrete",
        "state": "RS",
        "district": "Centro",
        "street": "Rua Vasco Alves",
        "zipcode": "97542-601"
    },
    {
        "city": "Alegrete",
        "state": "RS",
        "district": "Cidade Alta",
        "street": "Rua João de Oliveira Chaves",
        "zipcode": "97543-615"
    },
    {
        "city": "Alegrete",
        "state": "RS",
        "district": "Nossa Senhora da Conceição Aparecida",
        "street": "Rua Oscar Pereira Mafaldo",
        "zipcode": "97547-605"
    },
    {
        "city": "Alegrete",
        "state": "RS",
        "district": "Saint Pastous",
        "street": "Rua Almiro Caldeira",
        "zipcode": "97547-618"
    },
    {
        "city": "Alegrete",
        "state": "RS",
        "district": "Sepé Tiaraju",
        "street": "Rua Professora Angelica Beatriz P Arrussul",
        "zipcode": "97544-227"
    },
    {
        "city": "Alegrete",
        "state": "RS",
        "district": "Medianeira",
        "street": "Rua Ema Silveira Ribeiro",
        "zipcode": "97543-513"
    },
    {
        "city": "Alegrete",
        "state": "RS",
        "district": "Restinga",
        "street": "Rua Manoel Bica de Freitas",
        "zipcode": "97542-390"
    },
    {
        "city": "Alegrete",
        "state": "RS",
        "district": "Área Rural de Alegrete",
        "street": "Área Rural",
        "zipcode": "97551-899"
    },
    {
        "city": "Alegrete",
        "state": "RS",
        "district": "Maria do Carmo",
        "street": "Rua Sandra Mara Franklin",
        "zipcode": "97545-304"
    },
    {
        "city": "Alegrete",
        "state": "RS",
        "district": "Nilo Soares Gonçalves",
        "street": "Rua Visionários Zaoris",
        "zipcode": "97546-471"
    },
    {
        "city": "Alegrete",
        "state": "RS",
        "district": "Izabel",
        "street": "Rua Arnaldo Balve",
        "zipcode": "97542-060"
    },
    {
        "city": "Alegrete",
        "state": "RS",
        "district": "Prado",
        "street": "Rua Bororó",
        "zipcode": "97543-080"
    },
    {
        "city": "Alegrete",
        "state": "RS",
        "district": "Macedo",
        "street": "Rua Abrelino da Silva Vales",
        "zipcode": "97542-010"
    },
    {
        "city": "Alegrete",
        "state": "RS",
        "district": "Balneário Caverá",
        "street": "Rua Acácio do Prado Pedroso",
        "zipcode": "97546-640"
    },
    {
        "city": "Alegrete",
        "state": "RS",
        "district": "Capão do Angico",
        "street": "Rua Açucenas",
        "zipcode": "97547-010"
    },
    {
        "city": "Alegrete",
        "state": "RS",
        "district": "Rui Ramos",
        "street": "Rua Adão Alves Paim",
        "zipcode": "97541-010"
    },
    {
        "city": "Alegrete",
        "state": "RS",
        "district": "Jardim Planalto",
        "street": "Rua Adolfho Kurtz",
        "zipcode": "97545-010"
    },
    {
        "city": "Alegrete",
        "state": "RS",
        "district": "Dr. Romário A de Oliveira",
        "street": "Rua Afonso de Macedo Casado",
        "zipcode": "97547-550"
    },
    {
        "city": "Alegrete",
        "state": "RS",
        "district": "Kennedy",
        "street": "Rua Alberto Pasqualine",
        "zipcode": "97545-030"
    },
    {
        "city": "Alegrete",
        "state": "RS",
        "district": "Assunção",
        "street": "Rua Alceu Wamosy",
        "zipcode": "97543-010"
    },
    {
        "city": "Alegrete",
        "state": "RS",
        "district": "Emílio Zuneda",
        "street": "Rua Romário Araújo de Oliveira",
        "zipcode": "97544-440"
    },
    {
        "city": "Alegrete",
        "state": "RS",
        "district": "Militar",
        "street": "Rua Tenente Antônio João",
        "zipcode": "97545-720"
    },
    {
        "city": "Alegrete",
        "state": "RS",
        "district": "Centro",
        "street": "Rua Juscelino Kubitschek de Oliveira",
        "zipcode": "97541-330"
    },
    {
        "city": "Alegrete",
        "state": "RS",
        "district": "Airton Senna",
        "street": "Rua Eulália Gamino Grisoste",
        "zipcode": "97546-136"
    },
    {
        "city": "Alegrete",
        "state": "RS",
        "district": "Honório lemos",
        "street": "Rua Eva Soares Fernandes",
        "zipcode": "97546-128"
    },
    {
        "city": "Alegrete",
        "state": "RS",
        "district": "Segabinazi",
        "street": "Rua Clarito Machado Bitencourt",
        "zipcode": "97547-041"
    },
    {
        "city": "Alegrete",
        "state": "RS",
        "district": "Balneário Caverá",
        "street": "Avenida Afonso Ligorio",
        "zipcode": "97546-650"
    },
    {
        "city": "Alegrete",
        "state": "RS",
        "district": "Vera Cruz",
        "street": "Rua Bento Ávila Bicca",
        "zipcode": "97544-070"
    },
    {
        "city": "Alegrete",
        "state": "RS",
        "district": "Dr. Romário A de Oliveira",
        "street": "Praça Vereador Gaspar Martins da Silveira",
        "zipcode": "97547-617"
    },
    {
        "city": "Alegrete",
        "state": "RS",
        "district": "Favila",
        "street": "Rua Alcides Santana Magalhães",
        "zipcode": "97547-020"
    },
    {
        "city": "Alegrete",
        "state": "RS",
        "district": "Promorar",
        "street": "Rua Aloísio dos Santos Morais",
        "zipcode": "97546-040"
    },
    {
        "city": "Alegrete",
        "state": "RS",
        "district": "Vera Cruz",
        "street": "Rua das Américas",
        "zipcode": "97544-030"
    },
    {
        "city": "Alegrete",
        "state": "RS",
        "district": "Vera Cruz",
        "street": "Rua Professor Davi Aprígio da Cunha",
        "zipcode": "97544-420"
    },
    {
        "city": "Alegrete",
        "state": "RS",
        "district": "Sepé Tiaraju",
        "street": "Rua Yahia Ahamad",
        "zipcode": "97544-229"
    },
    {
        "city": "Alegrete",
        "state": "RS",
        "district": "Nilo Soares Gonçalves",
        "street": "Rua Y",
        "zipcode": "97546-483"
    },
    {
        "city": "Alegrete",
        "state": "RS",
        "district": "Grande",
        "street": "Rua Abílio Garavagno Medeiros",
        "zipcode": "97543-044"
    },
    {
        "city": "Alegrete",
        "state": "RS",
        "district": "Vila Nova",
        "street": "Rua Francisco Ferrão Netto",
        "zipcode": "97541-195"
    },
    {
        "city": "Alegrete",
        "state": "RS",
        "district": "Piola",
        "street": "Rua Alcides Barboza da Fontoura",
        "zipcode": "97545-592"
    },
    {
        "city": "Alegrete",
        "state": "RS",
        "district": "Centenário",
        "street": "Rua Almedorina Oliveira",
        "zipcode": "97546-030"
    },
    {
        "city": "Alegrete",
        "state": "RS",
        "district": "Honório lemos",
        "street": "Rua Araci Baez",
        "zipcode": "97546-125"
    },
    {
        "city": "Alegrete",
        "state": "RS",
        "district": "Saint Pastous",
        "street": "Rua Professor Nilsen Lautert Medeiros",
        "zipcode": "97547-610"
    },
    {
        "city": "Alegrete",
        "state": "RS",
        "district": "Independência",
        "street": "Rua Dona Mulatinha",
        "zipcode": "97542-304"
    },
    {
        "city": "Alegrete",
        "state": "RS",
        "district": "Nilo Soares Gonçalves",
        "street": "Rua Cerros Bravos",
        "zipcode": "97546-486"
    },
    {
        "city": "Alegrete",
        "state": "RS",
        "district": "Nilo Soares Gonçalves",
        "street": "Rua Noel Oliveira de Oliveira",
        "zipcode": "97546-481"
    },
    {
        "city": "Alegrete",
        "state": "RS",
        "district": "Dr. Romário A de Oliveira",
        "street": "Rua Juliana Nunes Barcelos",
        "zipcode": "97547-623"
    },
    {
        "city": "Alegrete",
        "state": "RS",
        "district": "Praça da Lagoa",
        "street": "Praça Mascarenhas de Moraes",
        "zipcode": "97545-470"
    },
    {
        "city": "Alegrete",
        "state": "RS",
        "district": "Militar",
        "street": "Rua Coronel Galvão",
        "zipcode": "97545-150"
    },
    {
        "city": "Alegrete",
        "state": "RS",
        "district": "Rui Ramos",
        "street": "Rua Demenciano B. Morais",
        "zipcode": "97541-130"
    },
    {
        "city": "Alegrete",
        "state": "RS",
        "district": "Centro",
        "street": "Avenida Doutor Lauro Dorneles",
        "zipcode": "97541-151"
    },
    {
        "city": "Alegrete",
        "state": "RS",
        "district": "Atlântida",
        "street": "Rua Doutor Syla Teixeira da Silva",
        "zipcode": "97545-210"
    },
    {
        "city": "Alegrete",
        "state": "RS",
        "district": "Favila",
        "street": "Rua Emílio Mitidieri Filho",
        "zipcode": "97547-170"
    },
    {
        "city": "Alegrete",
        "state": "RS",
        "district": "Centro",
        "street": "Avenida Doutor Eurípedes Brasil Milano",
        "zipcode": "97541-210"
    },
    {
        "city": "Alegrete",
        "state": "RS",
        "district": "Centro",
        "street": "Rua Gaspar Martins",
        "zipcode": "97542-001"
    },
    {
        "city": "Alegrete",
        "state": "RS",
        "district": "Centro",
        "street": "Rua General Neto",
        "zipcode": "97541-250"
    },
    {
        "city": "Alegrete",
        "state": "RS",
        "district": "Centro",
        "street": "Rua General Sampaio",
        "zipcode": "97541-261"
    },
    {
        "city": "Alegrete",
        "state": "RS",
        "district": "Jardim Planalto",
        "street": "Rua Ícaro Ferreira da Costa",
        "zipcode": "97545-270"
    },
    {
        "city": "Alegrete",
        "state": "RS",
        "district": "Capão do Angico",
        "street": "Rua Jacarandá",
        "zipcode": "97547-260"
    },
    {
        "city": "Alegrete",
        "state": "RS",
        "district": "Joaquim Fonseca Milano",
        "street": "Rua Lacy de Araújo Guterres",
        "zipcode": "97544-290"
    },
    {
        "city": "Alegrete",
        "state": "RS",
        "district": "Vera Cruz",
        "street": "Rua Nossa Senhora da Natividade",
        "zipcode": "97544-360"
    },
    {
        "city": "Alegrete",
        "state": "RS",
        "district": "Gamino",
        "street": "Rua Nova República",
        "zipcode": "97545-490"
    },
    {
        "city": "Alegrete",
        "state": "RS",
        "district": "Alberto Grande",
        "street": "Rua Primeiro de Maio",
        "zipcode": "97545-650"
    },
    {
        "city": "Alegrete",
        "state": "RS",
        "district": "Canjiqueira",
        "street": "Rua Romualdo Antunes Pinto",
        "zipcode": "97543-470"
    },
    {
        "city": "Alegrete",
        "state": "RS",
        "district": "Dr. Romário A de Oliveira",
        "street": "Rua Senador Daniel Krieger",
        "zipcode": "97547-560"
    },
    {
        "city": "Alegrete",
        "state": "RS",
        "district": "Cidade Alta",
        "street": "Rua Thimóteo Paim",
        "zipcode": "97543-610"
    },
    {
        "city": "Alegrete",
        "state": "RS",
        "district": "Centro",
        "street": "Avenida Alexandre Lisboa",
        "zipcode": "97542-020"
    },
    {
        "city": "Alegrete",
        "state": "RS",
        "district": "Joaquim Fonseca Milano",
        "street": "Rua Natálio Luiz Reginato",
        "zipcode": "97544-340"
    },
    {
        "city": "Alegrete",
        "state": "RS",
        "district": "Jardim Planalto",
        "street": "Rua Rivadávia Joaquim Rodrigues",
        "zipcode": "97545-670"
    },
    {
        "city": "Alegrete",
        "state": "RS",
        "district": "Boa Vista",
        "street": "Rua Maria Cristina F. Almeida",
        "zipcode": "97542-345"
    },
    {
        "city": "Alegrete",
        "state": "RS",
        "district": "Grande",
        "street": "Rua Joaquim Campos Leão",
        "zipcode": "97543-355"
    },
    {
        "city": "Alegrete",
        "state": "RS",
        "district": "Nossa Senhora da Conceição Aparecida",
        "street": "Rua Jari Rodrigues",
        "zipcode": "97547-586"
    },
    {
        "city": "Alegrete",
        "state": "RS",
        "district": "Nossa Senhora da Conceição Aparecida",
        "street": "Rua Abílio Nunes Quiroga",
        "zipcode": "97547-614"
    },
    {
        "city": "Alegrete",
        "state": "RS",
        "district": "Atlântida",
        "street": "Rua Ester Leal Santos",
        "zipcode": "97545-215"
    },
    {
        "city": "Alegrete",
        "state": "RS",
        "district": "Boa Vista",
        "street": "Praça José Pedroso de Albuquerque",
        "zipcode": "97542-552"
    },
    {
        "city": "Alegrete",
        "state": "RS",
        "district": "Boa Vista",
        "street": "Rua Antônio Pereira da Silva",
        "zipcode": "97542-612"
    },
    {
        "city": "Alegrete",
        "state": "RS",
        "district": "Boa Vista",
        "street": "Rua Dona Nelvy",
        "zipcode": "97542-348"
    },
    {
        "city": "Alegrete",
        "state": "RS",
        "district": "Segabinazi",
        "street": "Rua Altamiro Vargas",
        "zipcode": "97547-228"
    },
    {
        "city": "Alegrete",
        "state": "RS",
        "district": "Segabinazi",
        "street": "Rua H",
        "zipcode": "97547-049"
    },
    {
        "city": "Alegrete",
        "state": "RS",
        "district": "Honório lemos",
        "street": "Rua Antônio Cândido Oleques",
        "zipcode": "97546-123"
    },
    {
        "city": "Alegrete",
        "state": "RS",
        "district": "Olhos DAgua de Natal",
        "street": "Rua Trezentos e Setenta",
        "zipcode": "97545-642"
    },
    {
        "city": "Alegrete",
        "state": "RS",
        "district": "Fênix",
        "street": "Rua Professora Eloy Caldeira da Silva",
        "zipcode": "97545-337"
    },
    {
        "city": "Alegrete",
        "state": "RS",
        "district": "Balneário Caverá",
        "street": "Rua BR",
        "zipcode": "97546-677"
    },
    {
        "city": "Alegrete",
        "state": "RS",
        "district": "Balneário Caverá",
        "street": "Rua I Dois",
        "zipcode": "97546-752"
    },
    {
        "city": "Alegrete",
        "state": "RS",
        "district": "Izabel",
        "street": "Beco Quinhentos e Oitenta e Oito",
        "zipcode": "97542-484"
    },
    {
        "city": "Alegrete",
        "state": "RS",
        "district": "Medianeira",
        "street": "Rua F Novecentos e Quinze",
        "zipcode": "97543-511"
    },
    {
        "city": "Alegrete",
        "state": "RS",
        "district": "Nossa Senhora da Conceição Aparecida",
        "street": "Rua Aristides Figueira",
        "zipcode": "97547-576"
    },
    {
        "city": "Alegrete",
        "state": "RS",
        "district": "Honório lemos",
        "street": "Rua Adão Fontoura da Silva",
        "zipcode": "97546-127"
    },
    {
        "city": "Alegrete",
        "state": "RS",
        "district": "Liberdade",
        "street": "Rua Antônio Oliveira Moura",
        "zipcode": "97543-377"
    },
    {
        "city": "Alegrete",
        "state": "RS",
        "district": "Dr. Romário A de Oliveira",
        "street": "Rua Anaclides Severo Ribeiro",
        "zipcode": "97547-540"
    },
    {
        "city": "Alegrete",
        "state": "RS",
        "district": "Olhos DAgua de Natal",
        "street": "Rua Mil Cento e Trinta e Seis",
        "zipcode": "97545-646"
    },
    {
        "city": "Alegrete",
        "state": "RS",
        "district": "Centro",
        "street": "Calçadão Hélio Ricciardi dos Santos",
        "zipcode": "97542-572"
    },
    {
        "city": "Alegrete",
        "state": "RS",
        "district": "Assunção",
        "street": "Rua Anaurelino Lopes Neimaier",
        "zipcode": "97543-037"
    },
    {
        "city": "Alegrete",
        "state": "RS",
        "district": "Emílio Zuneda",
        "street": "Rua Professora Zulmira Barreto Contino",
        "zipcode": "97544-410"
    },
    {
        "city": "Alegrete",
        "state": "RS",
        "district": "Segabinazi",
        "street": "Rua Dirceu Gomes Dorneles",
        "zipcode": "97547-047"
    },
    {
        "city": "Alegrete",
        "state": "RS",
        "district": "Joaquim Fonseca Milano",
        "street": "Rua Francisco Vicente Fogliato",
        "zipcode": "97544-230"
    },
    {
        "city": "Alegrete",
        "state": "RS",
        "district": "Saint Pastous",
        "street": "Rua Armando Dornelles de Freitas",
        "zipcode": "97547-608"
    },
    {
        "city": "Alegrete",
        "state": "RS",
        "district": "Sepé Tiaraju",
        "street": "Rua Quinhentos e Sessenta",
        "zipcode": "97544-221"
    },
    {
        "city": "Alegrete",
        "state": "RS",
        "district": "Canudos",
        "street": "Rua Antonio Carlos Gomes Sauceda",
        "zipcode": "97541-475"
    },
    {
        "city": "Alegrete",
        "state": "RS",
        "district": "Nilo Soares Gonçalves",
        "street": "Rua Érico Veríssimo",
        "zipcode": "97546-476"
    },
    {
        "city": "Alegrete",
        "state": "RS",
        "district": "Nilo Soares Gonçalves",
        "street": "Rua Cidade Santa Fé",
        "zipcode": "97546-473"
    },
    {
        "city": "Alegrete",
        "state": "RS",
        "district": "Nova Brasília",
        "street": "Rodovia BR",
        "zipcode": "97546-090"
    },
    {
        "city": "Alegrete",
        "state": "RS",
        "district": "Nossa Senhora da Conceição Aparecida",
        "street": "Rua Euclides Alves Jacques",
        "zipcode": "97547-574"
    },
    {
        "city": "Alegrete",
        "state": "RS",
        "district": "Segabinazi",
        "street": "Rua Maria Máxima Bernardes Alviene",
        "zipcode": "97547-225"
    },
    {
        "city": "Alegrete",
        "state": "RS",
        "district": "Vila Nova",
        "street": "Praça Natalino Escarrone",
        "zipcode": "97541-400"
    },
    {
        "city": "Alegrete",
        "state": "RS",
        "district": "Jardim Planalto",
        "street": "Rua Otaviano Silveira da Costa",
        "zipcode": "97545-530"
    },
    {
        "city": "Alegrete",
        "state": "RS",
        "district": "Macedo",
        "street": "Rua Paraíso",
        "zipcode": "97542-500"
    },
    {
        "city": "Alegrete",
        "state": "RS",
        "district": "Medianeira",
        "street": "Rua Décio Pedroso Serpa",
        "zipcode": "97543-395"
    },
    {
        "city": "Alegrete",
        "state": "RS",
        "district": "Nilo Soares Gonçalves",
        "street": "Avenida Simões Lopes Neto",
        "zipcode": "97546-129"
    },
    {
        "city": "Alegrete",
        "state": "RS",
        "district": "Militar",
        "street": "Rua Marechal Mascarenhas de Moraes",
        "zipcode": "97545-445"
    },
    {
        "city": "Alegrete",
        "state": "RS",
        "district": "José de Abreu",
        "street": "Rua Pastor Manoel Pereira Dorneles",
        "zipcode": "97545-782"
    },
    {
        "city": "Alegrete",
        "state": "RS",
        "district": "Independência",
        "street": "Rua Francisca Pinto (Chiquinha Pinto)",
        "zipcode": "97542-300"
    },
    {
        "city": "Alegrete",
        "state": "RS",
        "district": "Sepé Tiaraju",
        "street": "Rua Aldelirio dos Santos Gonçalves",
        "zipcode": "97544-225"
    },
    {
        "city": "Alegrete",
        "state": "RS",
        "district": "Nossa Senhora da Conceição Aparecida",
        "street": "Rua João Pedro Nunes da Silveira",
        "zipcode": "97547-578"
    },
    {
        "city": "Alegrete",
        "state": "RS",
        "district": "Nilo Soares Gonçalves",
        "street": "Rua F",
        "zipcode": "97546-485"
    },
    {
        "city": "Alegrete",
        "state": "RS",
        "district": "Grande",
        "street": "Rua Valentim Campos Trindade",
        "zipcode": "97543-042"
    },
    {
        "city": "Alegrete",
        "state": "RS",
        "district": "Sepé Tiaraju",
        "street": "Rua Noema Domingues Pinheiro",
        "zipcode": "97544-224"
    },
    {
        "city": "Alegrete",
        "state": "RS",
        "district": "Olhos DAgua de Natal",
        "street": "Rua Mil Cento e Quarenta",
        "zipcode": "97545-545"
    },
    {
        "city": "Alegrete",
        "state": "RS",
        "district": "Airton Senna",
        "street": "Rua N",
        "zipcode": "97546-089"
    },
    {
        "city": "Alegrete",
        "state": "RS",
        "district": "Ibirapuitã",
        "street": "Rua Santana",
        "zipcode": "97546-480"
    },
    {
        "city": "Alegrete",
        "state": "RS",
        "district": "Promorar",
        "street": "Rua Itaqui",
        "zipcode": "97546-300"
    },
    {
        "city": "Alegrete",
        "state": "RS",
        "district": "Grande",
        "street": "Rua Yahia Ahamad",
        "zipcode": "97543-058"
    },
    {
        "city": "Alegrete",
        "state": "RS",
        "district": "Cidade Alta",
        "street": "Rua Santa Marta",
        "zipcode": "97543-520"
    }
]