[
    {
        "city": "Cachoeirinha",
        "state": "RS",
        "district": "Vila Anair",
        "street": "Rua Cairu",
        "zipcode": "94955-660"
    },
    {
        "city": "Cachoeirinha",
        "state": "RS",
        "district": "Vila Anair",
        "street": "Rua São Gabriel",
        "zipcode": "94955-472"
    },
    {
        "city": "Cachoeirinha",
        "state": "RS",
        "district": "Vila Anair",
        "street": "Rua Santa Rosa",
        "zipcode": "94955-730"
    },
    {
        "city": "Cachoeirinha",
        "state": "RS",
        "district": "Central Parque",
        "street": "Avenida Frederico Augusto Ritter",
        "zipcode": "94931-001"
    },
    {
        "city": "Cachoeirinha",
        "state": "RS",
        "district": "Chico Mendes",
        "street": "Rua Carruíra",
        "zipcode": "94967-152"
    },
    {
        "city": "Cachoeirinha",
        "state": "RS",
        "district": "Chico Mendes",
        "street": "Rua Aracuã",
        "zipcode": "94967-154"
    },
    {
        "city": "Cachoeirinha",
        "state": "RS",
        "district": "Jardim Betânia",
        "street": "Rua G (Res Cachoeirinha I)",
        "zipcode": "94970-707"
    },
    {
        "city": "Cachoeirinha",
        "state": "RS",
        "district": "Vila Mauá",
        "street": "Rua Dom Bosco",
        "zipcode": "94920-120"
    },
    {
        "city": "Cachoeirinha",
        "state": "RS",
        "district": "Central Parque",
        "street": "Rua Dois",
        "zipcode": "94931-021"
    },
    {
        "city": "Cachoeirinha",
        "state": "RS",
        "district": "Central Parque",
        "street": "Rua Dezesseis",
        "zipcode": "94931-070"
    },
    {
        "city": "Cachoeirinha",
        "state": "RS",
        "district": "Central Parque",
        "street": "Rua Dezessete",
        "zipcode": "94931-075"
    },
    {
        "city": "Cachoeirinha",
        "state": "RS",
        "district": "Central Parque",
        "street": "Rua Dezoito",
        "zipcode": "94931-122"
    },
    {
        "city": "Cachoeirinha",
        "state": "RS",
        "district": "Jardim Betânia",
        "street": "Rua D (Res Cachoeirinha I)",
        "zipcode": "94970-705"
    },
    {
        "city": "Cachoeirinha",
        "state": "RS",
        "district": "Jardim Betânia",
        "street": "Rua F (Res Cachoeirinha I)",
        "zipcode": "94970-708"
    },
    {
        "city": "Cachoeirinha",
        "state": "RS",
        "district": "Central Parque",
        "street": "Rua General Canabarro",
        "zipcode": "94931-032"
    },
    {
        "city": "Cachoeirinha",
        "state": "RS",
        "district": "Central Parque",
        "street": "Rua Frederico Augusto Hanemann",
        "zipcode": "94931-025"
    },
    {
        "city": "Cachoeirinha",
        "state": "RS",
        "district": "Jardim Betânia",
        "street": "Rua Graciano Silva Machado",
        "zipcode": "94970-704"
    },
    {
        "city": "Cachoeirinha",
        "state": "RS",
        "district": "Jardim Betânia",
        "street": "Rua Imperatriz",
        "zipcode": "94970-533"
    },
    {
        "city": "Cachoeirinha",
        "state": "RS",
        "district": "Vila Cachoeirinha",
        "street": "Beco Abott",
        "zipcode": "94910-010"
    },
    {
        "city": "Cachoeirinha",
        "state": "RS",
        "district": "Vila Cachoeirinha",
        "street": "Avenida Beira Rio",
        "zipcode": "94910-030"
    },
    {
        "city": "Cachoeirinha",
        "state": "RS",
        "district": "Vila Jardim América",
        "street": "Avenida Beira Rio",
        "zipcode": "94920-030"
    },
    {
        "city": "Cachoeirinha",
        "state": "RS",
        "district": "Cruzeiro",
        "street": "Avenida Cruzeiro",
        "zipcode": "94930-615"
    },
    {
        "city": "Cachoeirinha",
        "state": "RS",
        "district": "Central Parque",
        "street": "Avenida Olga Backer Ritter",
        "zipcode": "94931-035"
    },
    {
        "city": "Cachoeirinha",
        "state": "RS",
        "district": "Central Parque",
        "street": "Avenida Wilma Ritter Beiser",
        "zipcode": "94931-060"
    },
    {
        "city": "Cachoeirinha",
        "state": "RS",
        "district": "City",
        "street": "Avenida Mario Tavares Haussem",
        "zipcode": "94935-797"
    },
    {
        "city": "Cachoeirinha",
        "state": "RS",
        "district": "COHAB",
        "street": "Avenida Fernando Ferrari",
        "zipcode": "94935-800"
    },
    {
        "city": "Cachoeirinha",
        "state": "RS",
        "district": "Cedic",
        "street": "Avenida Frederico Augusto Ritter",
        "zipcode": "94930-380"
    },
    {
        "city": "Cachoeirinha",
        "state": "RS",
        "district": "Distrito Industrial",
        "street": "Avenida Frederico Augusto Ritter",
        "zipcode": "94931-200"
    },
    {
        "city": "Cachoeirinha",
        "state": "RS",
        "district": "Distrito Industrial Ritter",
        "street": "Avenida Frederico Augusto Ritter",
        "zipcode": "94935-211"
    },
    {
        "city": "Cachoeirinha",
        "state": "RS",
        "district": "City",
        "street": "Avenida Frederico Augusto Ritter",
        "zipcode": "94935-820"
    },
    {
        "city": "Cachoeirinha",
        "state": "RS",
        "district": "Vila Anair",
        "street": "Avenida Amazonas",
        "zipcode": "94955-030"
    },
    {
        "city": "Cachoeirinha",
        "state": "RS",
        "district": "Jardim do Bosque",
        "street": "Avenida Primavera",
        "zipcode": "94960-505"
    },
    {
        "city": "Cachoeirinha",
        "state": "RS",
        "district": "Souza Cruz",
        "street": "Avenida Frederico Augusto Ritter",
        "zipcode": "94970-470"
    },
    {
        "city": "Cachoeirinha",
        "state": "RS",
        "district": "Distrito Industrial",
        "street": "Rua Lenine Queiroz (Águas Mortas)",
        "zipcode": "94931-350"
    },
    {
        "city": "Cachoeirinha",
        "state": "RS",
        "district": "Parque da Matriz",
        "street": "Rua Leblon",
        "zipcode": "94950-535"
    },
    {
        "city": "Cachoeirinha",
        "state": "RS",
        "district": "Jardim do Bosque",
        "street": "Rua Orquídeas",
        "zipcode": "94960-450"
    },
    {
        "city": "Cachoeirinha",
        "state": "RS",
        "district": "Chico Mendes",
        "street": "Rua Martim Pescador",
        "zipcode": "94967-160"
    },
    {
        "city": "Cachoeirinha",
        "state": "RS",
        "district": "Jardim Betânia",
        "street": "Rua Oliveira Vieira Aguiar",
        "zipcode": "94970-702"
    },
    {
        "city": "Cachoeirinha",
        "state": "RS",
        "district": "Central Parque",
        "street": "Rua Um",
        "zipcode": "94931-090"
    },
    {
        "city": "Cachoeirinha",
        "state": "RS",
        "district": "Central Parque",
        "street": "Rua Treze",
        "zipcode": "94931-040"
    },
    {
        "city": "Cachoeirinha",
        "state": "RS",
        "district": "Central Parque",
        "street": "Rua Nove",
        "zipcode": "94931-043"
    },
    {
        "city": "Cachoeirinha",
        "state": "RS",
        "district": "Chico Mendes",
        "street": "Rua Chimango",
        "zipcode": "94967-162"
    },
    {
        "city": "Cachoeirinha",
        "state": "RS",
        "district": "Jardim Betânia",
        "street": "Rua Cuiabá",
        "zipcode": "94970-537"
    },
    {
        "city": "Cachoeirinha",
        "state": "RS",
        "district": "Vila Santo Ângelo",
        "street": "Rua Ruy Barbosa",
        "zipcode": "94920-510"
    },
    {
        "city": "Cachoeirinha",
        "state": "RS",
        "district": "Central Parque",
        "street": "Rua Quatorze",
        "zipcode": "94931-062"
    },
    {
        "city": "Cachoeirinha",
        "state": "RS",
        "district": "Central Parque",
        "street": "Rua Três",
        "zipcode": "94931-066"
    },
    {
        "city": "Cachoeirinha",
        "state": "RS",
        "district": "Central Parque",
        "street": "Rua Oito",
        "zipcode": "94931-073"
    },
    {
        "city": "Cachoeirinha",
        "state": "RS",
        "district": "Distrito Industrial",
        "street": "Rua Da Republica",
        "zipcode": "94930-607"
    },
    {
        "city": "Cachoeirinha",
        "state": "RS",
        "district": "Distrito Industrial",
        "street": "Rua Cidreira",
        "zipcode": "94930-610"
    },
    {
        "city": "Cachoeirinha",
        "state": "RS",
        "district": "Distrito Industrial",
        "street": "Rua Marquesa De Santos",
        "zipcode": "94930-592"
    },
    {
        "city": "Cachoeirinha",
        "state": "RS",
        "district": "Distrito Industrial",
        "street": "Rua Regencia",
        "zipcode": "94930-602"
    },
    {
        "city": "Cachoeirinha",
        "state": "RS",
        "district": "Distrito Industrial",
        "street": "Rua Dom Pedro I",
        "zipcode": "94930-582"
    },
    {
        "city": "Cachoeirinha",
        "state": "RS",
        "district": "Central Parque",
        "street": "Rua Vinte",
        "zipcode": "94931-126"
    },
    {
        "city": "Cachoeirinha",
        "state": "RS",
        "district": "Central Parque",
        "street": "Rua Vinte e Um",
        "zipcode": "94931-150"
    },
    {
        "city": "Cachoeirinha",
        "state": "RS",
        "district": "Central Parque",
        "street": "Rua Quatro",
        "zipcode": "94931-120"
    },
    {
        "city": "Cachoeirinha",
        "state": "RS",
        "district": "Central Parque",
        "street": "Rua Dezenove",
        "zipcode": "94931-100"
    },
    {
        "city": "Cachoeirinha",
        "state": "RS",
        "district": "Central Parque",
        "street": "Rua Dois",
        "zipcode": "94931-115"
    },
    {
        "city": "Cachoeirinha",
        "state": "RS",
        "district": "Central Parque",
        "street": "Rua Doze",
        "zipcode": "94931-027"
    },
    {
        "city": "Cachoeirinha",
        "state": "RS",
        "district": "Morada do Bosque",
        "street": "Avenida Anildo Gomes Alano",
        "zipcode": "94960-840"
    },
    {
        "city": "Cachoeirinha",
        "state": "RS",
        "district": "Vila Vista Alegre",
        "street": "Avenida José Brambila",
        "zipcode": "94955-570"
    },
    {
        "city": "Cachoeirinha",
        "state": "RS",
        "district": "Parque Espírito Santo",
        "street": "Rua Nova Dinamarca",
        "zipcode": "94965-610"
    },
    {
        "city": "Cachoeirinha",
        "state": "RS",
        "district": "Chico Mendes",
        "street": "Rua Pintassilgo",
        "zipcode": "94967-166"
    },
    {
        "city": "Cachoeirinha",
        "state": "RS",
        "district": "Jardim Betânia",
        "street": "Rua Palmas",
        "zipcode": "94970-535"
    },
    {
        "city": "Cachoeirinha",
        "state": "RS",
        "district": "Central Parque",
        "street": "Rua Quinze",
        "zipcode": "94931-068"
    },
    {
        "city": "Cachoeirinha",
        "state": "RS",
        "district": "Central Parque",
        "street": "Rua Seis",
        "zipcode": "94931-124"
    },
    {
        "city": "Cachoeirinha",
        "state": "RS",
        "district": "Chico Mendes",
        "street": "Rua Saracura",
        "zipcode": "94967-150"
    },
    {
        "city": "Cachoeirinha",
        "state": "RS",
        "district": "Chico Mendes",
        "street": "Rua Tesourinha",
        "zipcode": "94967-170"
    },
    {
        "city": "Cachoeirinha",
        "state": "RS",
        "district": "Chico Mendes",
        "street": "Rua Tangará",
        "zipcode": "94967-172"
    },
    {
        "city": "Cachoeirinha",
        "state": "RS",
        "district": "Souza Cruz",
        "street": "Avenida Frederico Augusto Ritter",
        "zipcode": "94970-740"
    },
    {
        "city": "Cachoeirinha",
        "state": "RS",
        "district": "Jardim do Bosque",
        "street": "Rua Guamirim",
        "zipcode": "94960-485"
    },
    {
        "city": "Cachoeirinha",
        "state": "RS",
        "district": "Jardim Betânia",
        "street": "Avenida da Federação",
        "zipcode": "94970-530"
    },
    {
        "city": "Cachoeirinha",
        "state": "RS",
        "district": "Nova Esperança",
        "street": "Rua Águia (Vl N Canarinho)",
        "zipcode": "94967-010"
    },
    {
        "city": "Cachoeirinha",
        "state": "RS",
        "district": "Jardim Betânia",
        "street": "Rua Alôncio Gomes Corrêa",
        "zipcode": "94970-706"
    },
    {
        "city": "Cachoeirinha",
        "state": "RS",
        "district": "Chico Mendes",
        "street": "Rua Maçanico",
        "zipcode": "94967-156"
    },
    {
        "city": "Cachoeirinha",
        "state": "RS",
        "district": "Parque Marechal Rondon",
        "street": "Rua Bulgária (Vl Canarinho)",
        "zipcode": "94965-275"
    },
    {
        "city": "Cachoeirinha",
        "state": "RS",
        "district": "Chico Mendes",
        "street": "Rua Azulão",
        "zipcode": "94967-164"
    },
    {
        "city": "Cachoeirinha",
        "state": "RS",
        "district": "Jardim do Bosque",
        "street": "Rua Cravina",
        "zipcode": "94960-515"
    },
    {
        "city": "Cachoeirinha",
        "state": "RS",
        "district": "Jardim Betânia",
        "street": "Rua Campo Grande",
        "zipcode": "94970-539"
    },
    {
        "city": "Cachoeirinha",
        "state": "RS",
        "district": "Jardim do Bosque",
        "street": "Rua dos Pedestres",
        "zipcode": "94960-460"
    },
    {
        "city": "Cachoeirinha",
        "state": "RS",
        "district": "Morada do Bosque",
        "street": "Rua José Amaro",
        "zipcode": "94960-854"
    },
    {
        "city": "Cachoeirinha",
        "state": "RS",
        "district": "Jardim do Bosque",
        "street": "Avenida Carvalho",
        "zipcode": "94960-567"
    },
    {
        "city": "Cachoeirinha",
        "state": "RS",
        "district": "Jardim Betânia",
        "street": "Rodovia RS 118",
        "zipcode": "94970-850"
    },
    {
        "city": "Cachoeirinha",
        "state": "RS",
        "district": "Morada do Bosque",
        "street": "Rua Otávio Saltiel Pereira",
        "zipcode": "94960-856"
    },
    {
        "city": "Cachoeirinha",
        "state": "RS",
        "district": "Vila Vista Alegre",
        "street": "Rua Duarte da Costa",
        "zipcode": "94945-170"
    },
    {
        "city": "Cachoeirinha",
        "state": "RS",
        "district": "Vila Vista Alegre",
        "street": "Rua Frei Caneca",
        "zipcode": "94945-210"
    },
    {
        "city": "Cachoeirinha",
        "state": "RS",
        "district": "Vila Monte Carlo",
        "street": "Rua João Adelino Pacheco de Moraes (J Atlântico)",
        "zipcode": "94940-150"
    },
    {
        "city": "Cachoeirinha",
        "state": "RS",
        "district": "Parque Granja Esperança",
        "street": "Rua Jardim das Flores",
        "zipcode": "94960-055"
    },
    {
        "city": "Cachoeirinha",
        "state": "RS",
        "district": "Vila Vista Alegre",
        "street": "Avenida José Brambila",
        "zipcode": "94945-000"
    },
    {
        "city": "Cachoeirinha",
        "state": "RS",
        "district": "Parque Granja Esperança",
        "street": "Rua Anildo Morais Pereira",
        "zipcode": "94960-070"
    },
    {
        "city": "Cachoeirinha",
        "state": "RS",
        "district": "Vila Vista Alegre",
        "street": "Rua Laçador",
        "zipcode": "94945-310"
    },
    {
        "city": "Cachoeirinha",
        "state": "RS",
        "district": "Parque da Matriz",
        "street": "Rua Madureira",
        "zipcode": "94950-230"
    },
    {
        "city": "Cachoeirinha",
        "state": "RS",
        "district": "Parque da Matriz",
        "street": "Rua José Raupp",
        "zipcode": "94950-843"
    },
    {
        "city": "Cachoeirinha",
        "state": "RS",
        "district": "Vila Vista Alegre",
        "street": "Rua Vinte e três (Jd Colinas)",
        "zipcode": "94945-412"
    },
    {
        "city": "Cachoeirinha",
        "state": "RS",
        "district": "Vila Vista Alegre",
        "street": "Travessa Frederico Henrique Roggen",
        "zipcode": "94945-203"
    },
    {
        "city": "Cachoeirinha",
        "state": "RS",
        "district": "Vila Vista Alegre",
        "street": "Rua Samuara",
        "zipcode": "94945-510"
    },
    {
        "city": "Cachoeirinha",
        "state": "RS",
        "district": "Vila Fátima",
        "street": "Rua Maranhão",
        "zipcode": "94955-230"
    },
    {
        "city": "Cachoeirinha",
        "state": "RS",
        "district": "Vila Monte Carlo",
        "street": "Rua Upamoroti",
        "zipcode": "94940-270"
    },
    {
        "city": "Cachoeirinha",
        "state": "RS",
        "district": "Parque da Matriz",
        "street": "Rua Teresópolis",
        "zipcode": "94950-420"
    },
    {
        "city": "Cachoeirinha",
        "state": "RS",
        "district": "Vila Anair",
        "street": "Rua Santa Cruz do Sul",
        "zipcode": "94955-654"
    },
    {
        "city": "Cachoeirinha",
        "state": "RS",
        "district": "Vila Bom Princípio",
        "street": "Rua Boa Vista",
        "zipcode": "94950-070"
    },
    {
        "city": "Cachoeirinha",
        "state": "RS",
        "district": "Parque da Matriz",
        "street": "Rua Concórdia",
        "zipcode": "94950-565"
    },
    {
        "city": "Cachoeirinha",
        "state": "RS",
        "district": "Vila Anair",
        "street": "Travessa Ponte",
        "zipcode": "94955-490"
    },
    {
        "city": "Cachoeirinha",
        "state": "RS",
        "district": "Parque Granja Esperança",
        "street": "Rua Carlos Souza Feijó",
        "zipcode": "94960-130"
    },
    {
        "city": "Cachoeirinha",
        "state": "RS",
        "district": "Vila Vista Alegre",
        "street": "Travessa Lisboa",
        "zipcode": "94945-350"
    },
    {
        "city": "Cachoeirinha",
        "state": "RS",
        "district": "Vila Vista Alegre",
        "street": "Rua México",
        "zipcode": "94945-390"
    },
    {
        "city": "Cachoeirinha",
        "state": "RS",
        "district": "Distrito Industrial",
        "street": "Avenida Frederico Augusto Ritter",
        "zipcode": "94931-800"
    },
    {
        "city": "Cachoeirinha",
        "state": "RS",
        "district": "Central Parque",
        "street": "Avenida Wilma Ritter Beiser",
        "zipcode": "94931-130"
    },
    {
        "city": "Cachoeirinha",
        "state": "RS",
        "district": "COHAB",
        "street": "Rua Antônio Jacob Renner",
        "zipcode": "94935-790"
    },
    {
        "city": "Cachoeirinha",
        "state": "RS",
        "district": "Parque Granja Esperança",
        "street": "Rua Alziro Correia da Silveira",
        "zipcode": "94960-040"
    },
    {
        "city": "Cachoeirinha",
        "state": "RS",
        "district": "COHAB",
        "street": "Rua Lídio Batista Soares (Vl Quitandinha)",
        "zipcode": "94935-410"
    },
    {
        "city": "Cachoeirinha",
        "state": "RS",
        "district": "Vila Bom Princípio",
        "street": "Rua Limoeiro",
        "zipcode": "94950-210"
    },
    {
        "city": "Cachoeirinha",
        "state": "RS",
        "district": "Vila Vista Alegre",
        "street": "Travessa Iraí",
        "zipcode": "94945-260"
    },
    {
        "city": "Cachoeirinha",
        "state": "RS",
        "district": "Vila Anair",
        "street": "Rua Quaraí",
        "zipcode": "94955-215"
    },
    {
        "city": "Cachoeirinha",
        "state": "RS",
        "district": "Vila Vista Alegre",
        "street": "Rua Padre José Anchieta",
        "zipcode": "94945-450"
    },
    {
        "city": "Cachoeirinha",
        "state": "RS",
        "district": "Parque da Matriz",
        "street": "Rua Maringá",
        "zipcode": "94950-260"
    },
    {
        "city": "Cachoeirinha",
        "state": "RS",
        "district": "Vila Parque Brasília",
        "street": "Rua São Cristóvão",
        "zipcode": "94935-640"
    },
    {
        "city": "Cachoeirinha",
        "state": "RS",
        "district": "Vila Princesa Izabel",
        "street": "Rua Osvaldo Borges de Ávila",
        "zipcode": "94940-077"
    },
    {
        "city": "Cachoeirinha",
        "state": "RS",
        "district": "Ponta Porã",
        "street": "Rua Pio XII",
        "zipcode": "94935-540"
    },
    {
        "city": "Cachoeirinha",
        "state": "RS",
        "district": "Central Parque",
        "street": "Rua Onze",
        "zipcode": "94931-039"
    },
    {
        "city": "Cachoeirinha",
        "state": "RS",
        "district": "Central Parque",
        "street": "Rua Cinco",
        "zipcode": "94931-064"
    },
    {
        "city": "Cachoeirinha",
        "state": "RS",
        "district": "Jardim Conquista",
        "street": "Rua I",
        "zipcode": "94930-767"
    },
    {
        "city": "Cachoeirinha",
        "state": "RS",
        "district": "Vila da Paz",
        "street": "Rua das Flores",
        "zipcode": "94930-415"
    },
    {
        "city": "Cachoeirinha",
        "state": "RS",
        "district": "Vila da Paz",
        "street": "Rua da Paz",
        "zipcode": "94930-585"
    },
    {
        "city": "Cachoeirinha",
        "state": "RS",
        "district": "Jardim Conquista",
        "street": "Rua F",
        "zipcode": "94930-760"
    },
    {
        "city": "Cachoeirinha",
        "state": "RS",
        "district": "Distrito Industrial",
        "street": "Rua Gildo de Freitas (Águas Mortas)",
        "zipcode": "94930-590"
    },
    {
        "city": "Cachoeirinha",
        "state": "RS",
        "district": "Vila Eunice Nova",
        "street": "Rua João de Azevedo Barbosa Filho",
        "zipcode": "94920-320"
    },
    {
        "city": "Cachoeirinha",
        "state": "RS",
        "district": "Vila Mauá",
        "street": "Rua Independência",
        "zipcode": "94920-310"
    },
    {
        "city": "Cachoeirinha",
        "state": "RS",
        "district": "Cedic",
        "street": "Avenida Tancredo Neves",
        "zipcode": "94930-540"
    },
    {
        "city": "Cachoeirinha",
        "state": "RS",
        "district": "Central Parque",
        "street": "Avenida Obedy Cândido Vieira",
        "zipcode": "94931-023"
    },
    {
        "city": "Cachoeirinha",
        "state": "RS",
        "district": "City",
        "street": "Avenida Frederico Augusto Ritter",
        "zipcode": "94935-794"
    },
    {
        "city": "Cachoeirinha",
        "state": "RS",
        "district": "Vila Veranópolis",
        "street": "Avenida General Anápio Gomes",
        "zipcode": "94920-270"
    },
    {
        "city": "Cachoeirinha",
        "state": "RS",
        "district": "Distrito Industrial",
        "street": "Avenida Frederico Augusto Ritter",
        "zipcode": "94930-598"
    },
    {
        "city": "Cachoeirinha",
        "state": "RS",
        "district": "Vila Carlos Antônio Wilkens",
        "street": "Rua Agrônomo Bonifácio Carvalho",
        "zipcode": "94930-030"
    },
    {
        "city": "Cachoeirinha",
        "state": "RS",
        "district": "Vila Carlos Antônio Wilkens",
        "street": "Rua Alvício Silva",
        "zipcode": "94930-050"
    },
    {
        "city": "Cachoeirinha",
        "state": "RS",
        "district": "Distrito Industrial",
        "street": "Estrada Senador Ney Brito (Águas Mortas)",
        "zipcode": "94930-510"
    },
    {
        "city": "Cachoeirinha",
        "state": "RS",
        "district": "City",
        "street": "Rua Maloha Haussem",
        "zipcode": "94935-793"
    },
    {
        "city": "Cachoeirinha",
        "state": "RS",
        "district": "Jardim Conquista",
        "street": "Rua Três",
        "zipcode": "94930-758"
    },
    {
        "city": "Cachoeirinha",
        "state": "RS",
        "district": "Vila Santo Ângelo",
        "street": "Rua Doutor Afonso Pena",
        "zipcode": "94920-140"
    },
    {
        "city": "Cachoeirinha",
        "state": "RS",
        "district": "Vila Eunice Nova",
        "street": "Rua Doutor Décio Martins Costa",
        "zipcode": "94920-170"
    },
    {
        "city": "Cachoeirinha",
        "state": "RS",
        "district": "Vila Veranópolis",
        "street": "Rua Marechal Eurico Gaspar Dutra",
        "zipcode": "94920-370"
    },
    {
        "city": "Cachoeirinha",
        "state": "RS",
        "district": "Vila Jardim América",
        "street": "Travessa Marechal Hermes da Fonseca",
        "zipcode": "94920-380"
    },
    {
        "city": "Cachoeirinha",
        "state": "RS",
        "district": "Vila Jardim América",
        "street": "Rua Ori Kindler",
        "zipcode": "94920-450"
    },
    {
        "city": "Cachoeirinha",
        "state": "RS",
        "district": "Vila Mauá",
        "street": "Rua Catão Roxo",
        "zipcode": "94920-060"
    },
    {
        "city": "Cachoeirinha",
        "state": "RS",
        "district": "Vila Eunice Nova",
        "street": "Travessa Salvador Canelas Sobrinho",
        "zipcode": "94920-530"
    },
    {
        "city": "Cachoeirinha",
        "state": "RS",
        "district": "Vila Santo Ângelo",
        "street": "Rua Santa Isabel",
        "zipcode": "94920-550"
    },
    {
        "city": "Cachoeirinha",
        "state": "RS",
        "district": "Vila Eunice Velha",
        "street": "Rua Pedro Lourenço Avila Marengo",
        "zipcode": "94920-680"
    },
    {
        "city": "Cachoeirinha",
        "state": "RS",
        "district": "Vila Eunice Velha",
        "street": "Travessa do Carmo",
        "zipcode": "94920-700"
    },
    {
        "city": "Cachoeirinha",
        "state": "RS",
        "district": "Vila Márcia",
        "street": "Rua Arnaldo Schuller",
        "zipcode": "94930-100"
    },
    {
        "city": "Cachoeirinha",
        "state": "RS",
        "district": "Vila Márcia",
        "street": "Rua Carlos Fraga",
        "zipcode": "94930-170"
    },
    {
        "city": "Cachoeirinha",
        "state": "RS",
        "district": "Cedic",
        "street": "Rua Donato da Silva Ramos",
        "zipcode": "94930-365"
    },
    {
        "city": "Cachoeirinha",
        "state": "RS",
        "district": "Jardim Conquista",
        "street": "Travessa J",
        "zipcode": "94930-782"
    },
    {
        "city": "Cachoeirinha",
        "state": "RS",
        "district": "Vila Carlos Antônio Wilkens",
        "street": "Rua Silvério Leopoldo",
        "zipcode": "94930-530"
    },
    {
        "city": "Cachoeirinha",
        "state": "RS",
        "district": "Vila Cachoeirinha",
        "street": "Rua Santa Bárbara",
        "zipcode": "94910-260"
    },
    {
        "city": "Cachoeirinha",
        "state": "RS",
        "district": "Vila da Paz",
        "street": "Rua Seis de Maio",
        "zipcode": "94930-345"
    },
    {
        "city": "Cachoeirinha",
        "state": "RS",
        "district": "Vila Veranópolis",
        "street": "Avenida General Flores da Cunha",
        "zipcode": "94910-001"
    },
    {
        "city": "Cachoeirinha",
        "state": "RS",
        "district": "Vila Cachoeirinha",
        "street": "Avenida General Flores da Cunha",
        "zipcode": "94910-003"
    },
    {
        "city": "Cachoeirinha",
        "state": "RS",
        "district": "Vila Cachoeirinha",
        "street": "Beco Luiz Schergl",
        "zipcode": "94910-150"
    },
    {
        "city": "Cachoeirinha",
        "state": "RS",
        "district": "Vila Cachoeirinha",
        "street": "Rua Imbuí",
        "zipcode": "94910-110"
    },
    {
        "city": "Cachoeirinha",
        "state": "RS",
        "district": "Vila Cachoeirinha",
        "street": "Rua Lupicínio Rodrigues",
        "zipcode": "94910-160"
    },
    {
        "city": "Cachoeirinha",
        "state": "RS",
        "district": "Vila Cachoeirinha",
        "street": "Rua São Vicente de Paula",
        "zipcode": "94910-190"
    },
    {
        "city": "Cachoeirinha",
        "state": "RS",
        "district": "Vila Cachoeirinha",
        "street": "Rua Tabajara",
        "zipcode": "94910-200"
    },
    {
        "city": "Cachoeirinha",
        "state": "RS",
        "district": "Jardim Conquista",
        "street": "Rua J",
        "zipcode": "94930-750"
    },
    {
        "city": "Cachoeirinha",
        "state": "RS",
        "district": "Jardim Conquista",
        "street": "Travessa B",
        "zipcode": "94930-751"
    },
    {
        "city": "Cachoeirinha",
        "state": "RS",
        "district": "Vila Fátima",
        "street": "Rua Bahia",
        "zipcode": "94955-070"
    },
    {
        "city": "Cachoeirinha",
        "state": "RS",
        "district": "Vila Anair",
        "street": "Rua Araça",
        "zipcode": "94955-060"
    },
    {
        "city": "Cachoeirinha",
        "state": "RS",
        "district": "COHAB",
        "street": "Rua Humaitá",
        "zipcode": "94935-250"
    },
    {
        "city": "Cachoeirinha",
        "state": "RS",
        "district": "Nova Esperança",
        "street": "Rua Gaivota",
        "zipcode": "94967-070"
    },
    {
        "city": "Cachoeirinha",
        "state": "RS",
        "district": "Chácara das Rosas",
        "street": "Rua Hibisco",
        "zipcode": "94967-346"
    },
    {
        "city": "Cachoeirinha",
        "state": "RS",
        "district": "Jardim Conquista",
        "street": "Rua Alceu de Lima Finger",
        "zipcode": "94930-788"
    },
    {
        "city": "Cachoeirinha",
        "state": "RS",
        "district": "Chácara das Rosas",
        "street": "Rua Sálvia",
        "zipcode": "94967-362"
    },
    {
        "city": "Cachoeirinha",
        "state": "RS",
        "district": "COHAB",
        "street": "Rua Santa Terezinha (Vl Quitandinha)",
        "zipcode": "94935-610"
    },
    {
        "city": "Cachoeirinha",
        "state": "RS",
        "district": "Vila Vista Alegre",
        "street": "Rua Marte",
        "zipcode": "94945-370"
    },
    {
        "city": "Cachoeirinha",
        "state": "RS",
        "district": "Jardim Conquista",
        "street": "Rua Quatro",
        "zipcode": "94930-770"
    },
    {
        "city": "Cachoeirinha",
        "state": "RS",
        "district": "Jardim Conquista",
        "street": "Travessa Lucena Müller",
        "zipcode": "94930-780"
    },
    {
        "city": "Cachoeirinha",
        "state": "RS",
        "district": "Jardim Conquista",
        "street": "Travessa Alcides Marino dos Santos",
        "zipcode": "94930-784"
    },
    {
        "city": "Cachoeirinha",
        "state": "RS",
        "district": "Vila Márcia",
        "street": "Rua Chile",
        "zipcode": "94930-180"
    },
    {
        "city": "Cachoeirinha",
        "state": "RS",
        "district": "Vila Fátima",
        "street": "Rua Goiás",
        "zipcode": "94955-180"
    },
    {
        "city": "Cachoeirinha",
        "state": "RS",
        "district": "Vila Parque Brasília",
        "street": "Rua do Parque",
        "zipcode": "94935-480"
    },
    {
        "city": "Cachoeirinha",
        "state": "RS",
        "district": "Vila Vista Alegre",
        "street": "Rua Dom João VI",
        "zipcode": "94945-160"
    },
    {
        "city": "Cachoeirinha",
        "state": "RS",
        "district": "Parque da Matriz",
        "street": "Rua Diadema",
        "zipcode": "94950-090"
    },
    {
        "city": "Cachoeirinha",
        "state": "RS",
        "district": "Vila Carlos Antônio Wilkens",
        "street": "Rua João Rodrigues",
        "zipcode": "94930-270"
    },
    {
        "city": "Cachoeirinha",
        "state": "RS",
        "district": "Vila Carlos Antônio Wilkens",
        "street": "Avenida Beira Rio",
        "zipcode": "94930-130"
    },
    {
        "city": "Cachoeirinha",
        "state": "RS",
        "district": "Distrito Industrial",
        "street": "Avenida das Indústrias (Cruzeiro)",
        "zipcode": "94930-230"
    },
    {
        "city": "Cachoeirinha",
        "state": "RS",
        "district": "Vila Vista Alegre",
        "street": "Avenida Cristóvão Colombo",
        "zipcode": "94945-150"
    },
    {
        "city": "Cachoeirinha",
        "state": "RS",
        "district": "Vila Anair",
        "street": "Beco Chuí",
        "zipcode": "94955-546"
    },
    {
        "city": "Cachoeirinha",
        "state": "RS",
        "district": "COHAB",
        "street": "Rua Alvarenga Peixoto",
        "zipcode": "94935-390"
    },
    {
        "city": "Cachoeirinha",
        "state": "RS",
        "district": "Parque da Matriz",
        "street": "Rua Aldoni Alves Carneiro",
        "zipcode": "94950-720"
    },
    {
        "city": "Cachoeirinha",
        "state": "RS",
        "district": "Morada do Bosque",
        "street": "Rua Adão José Haas",
        "zipcode": "94960-833"
    },
    {
        "city": "Cachoeirinha",
        "state": "RS",
        "district": "Vila Eunice Velha",
        "street": "Rua Luís Cardoso",
        "zipcode": "94920-350"
    },
    {
        "city": "Cachoeirinha",
        "state": "RS",
        "district": "Vila Márcia",
        "street": "Rua Luiz Henrique",
        "zipcode": "94930-320"
    },
    {
        "city": "Cachoeirinha",
        "state": "RS",
        "district": "COHAB",
        "street": "Rua Luiz Pasteur",
        "zipcode": "94935-420"
    },
    {
        "city": "Cachoeirinha",
        "state": "RS",
        "district": "Vila Anair",
        "street": "Rua Maria Paim",
        "zipcode": "94955-362"
    },
    {
        "city": "Cachoeirinha",
        "state": "RS",
        "district": "Chácara das Rosas",
        "street": "Rua Papiro",
        "zipcode": "94967-382"
    },
    {
        "city": "Cachoeirinha",
        "state": "RS",
        "district": "Meu Rincão",
        "street": "Rua Maricá",
        "zipcode": "94970-350"
    },
    {
        "city": "Cachoeirinha",
        "state": "RS",
        "district": "Vila Fátima",
        "street": "Rua São Salvador",
        "zipcode": "94955-390"
    },
    {
        "city": "Cachoeirinha",
        "state": "RS",
        "district": "Parque da Matriz",
        "street": "Rua Nero Caruso",
        "zipcode": "94950-850"
    },
    {
        "city": "Cachoeirinha",
        "state": "RS",
        "district": "Vila Fátima",
        "street": "Rua Pará",
        "zipcode": "94955-270"
    },
    {
        "city": "Cachoeirinha",
        "state": "RS",
        "district": "COHAB",
        "street": "Rua Otalíbio Silveira",
        "zipcode": "94935-470"
    },
    {
        "city": "Cachoeirinha",
        "state": "RS",
        "district": "Vila Vista Alegre",
        "street": "Travessa São Pedro",
        "zipcode": "94945-032"
    },
    {
        "city": "Cachoeirinha",
        "state": "RS",
        "district": "Ponta Porã",
        "street": "Rua Rio Branco",
        "zipcode": "94935-570"
    },
    {
        "city": "Cachoeirinha",
        "state": "RS",
        "district": "Parque da Matriz",
        "street": "Rua Nildo Delfino",
        "zipcode": "94950-745"
    },
    {
        "city": "Cachoeirinha",
        "state": "RS",
        "district": "Vila da Paz",
        "street": "Rua Querência",
        "zipcode": "94930-335"
    },
    {
        "city": "Cachoeirinha",
        "state": "RS",
        "district": "Jardim Conquista",
        "street": "Rua B",
        "zipcode": "94930-752"
    },
    {
        "city": "Cachoeirinha",
        "state": "RS",
        "district": "Meu Rincão",
        "street": "Rua Cipó",
        "zipcode": "94970-330"
    },
    {
        "city": "Cachoeirinha",
        "state": "RS",
        "district": "Jardim Betânia",
        "street": "Rua Pinto da Rocha",
        "zipcode": "94970-825"
    },
    {
        "city": "Cachoeirinha",
        "state": "RS",
        "district": "Morada do Bosque",
        "street": "Rua Carlos Braz da Silva",
        "zipcode": "94960-884"
    },
    {
        "city": "Cachoeirinha",
        "state": "RS",
        "district": "Vila Anair",
        "street": "Rua Passo Fundo",
        "zipcode": "94955-650"
    },
    {
        "city": "Cachoeirinha",
        "state": "RS",
        "district": "COHAB",
        "street": "Rua Cícero Marques",
        "zipcode": "94935-100"
    },
    {
        "city": "Cachoeirinha",
        "state": "RS",
        "district": "COHAB",
        "street": "Rua Tomé de Souza",
        "zipcode": "94935-370"
    },
    {
        "city": "Cachoeirinha",
        "state": "RS",
        "district": "COHAB",
        "street": "Travessa Manoel Pereira Pinto",
        "zipcode": "94935-430"
    },
    {
        "city": "Cachoeirinha",
        "state": "RS",
        "district": "Ponta Porã",
        "street": "Rua Novo Hamburgo",
        "zipcode": "94935-450"
    },
    {
        "city": "Cachoeirinha",
        "state": "RS",
        "district": "Vila Parque Brasília",
        "street": "Rua Page",
        "zipcode": "94935-490"
    },
    {
        "city": "Cachoeirinha",
        "state": "RS",
        "district": "Ponta Porã",
        "street": "Travessa Palmeira",
        "zipcode": "94935-510"
    },
    {
        "city": "Cachoeirinha",
        "state": "RS",
        "district": "COHAB",
        "street": "Rua São Bernardo (Vl Quitandinha)",
        "zipcode": "94935-670"
    },
    {
        "city": "Cachoeirinha",
        "state": "RS",
        "district": "COHAB",
        "street": "Rua Artur Emílio Ozzio (Vl City Nova)",
        "zipcode": "94935-750"
    },
    {
        "city": "Cachoeirinha",
        "state": "RS",
        "district": "Vila Vista Alegre",
        "street": "Rua Carlos Gomes",
        "zipcode": "94945-110"
    },
    {
        "city": "Cachoeirinha",
        "state": "RS",
        "district": "Vila Vista Alegre",
        "street": "Rua Nazaré",
        "zipcode": "94945-130"
    },
    {
        "city": "Cachoeirinha",
        "state": "RS",
        "district": "Ponta Porã",
        "street": "Travessa Ponta Porã",
        "zipcode": "94935-550"
    },
    {
        "city": "Cachoeirinha",
        "state": "RS",
        "district": "Vila Vista Alegre",
        "street": "Rua Caramuru",
        "zipcode": "94945-100"
    },
    {
        "city": "Cachoeirinha",
        "state": "RS",
        "district": "Vila Vista Alegre",
        "street": "Rua Criciúma",
        "zipcode": "94945-140"
    },
    {
        "city": "Cachoeirinha",
        "state": "RS",
        "district": "Vila Imbui",
        "street": "Rua Clóvis Pestana",
        "zipcode": "94920-080"
    },
    {
        "city": "Cachoeirinha",
        "state": "RS",
        "district": "Vila Imbui",
        "street": "Rua Rui Ramos",
        "zipcode": "94920-520"
    },
    {
        "city": "Cachoeirinha",
        "state": "RS",
        "district": "Vila Regina",
        "street": "Rua Modesto Lima",
        "zipcode": "94930-400"
    },
    {
        "city": "Cachoeirinha",
        "state": "RS",
        "district": "Vila da Paz",
        "street": "Rua Vinte e Nove de Setembro",
        "zipcode": "94930-405"
    },
    {
        "city": "Cachoeirinha",
        "state": "RS",
        "district": "Jardim Conquista",
        "street": "Rua Canaã",
        "zipcode": "94930-754"
    },
    {
        "city": "Cachoeirinha",
        "state": "RS",
        "district": "Vila Regina",
        "street": "Rua Edgar Bins",
        "zipcode": "94930-210"
    },
    {
        "city": "Cachoeirinha",
        "state": "RS",
        "district": "Vila Carlos Antônio Wilkens",
        "street": "Rua Nércio Xavier",
        "zipcode": "94930-420"
    },
    {
        "city": "Cachoeirinha",
        "state": "RS",
        "district": "Vila da Paz",
        "street": "Rua Emanuel Messias",
        "zipcode": "94930-425"
    },
    {
        "city": "Cachoeirinha",
        "state": "RS",
        "district": "Vila Silveira Martins",
        "street": "Rua Dalcira Francisca da Silva",
        "zipcode": "94940-290"
    },
    {
        "city": "Cachoeirinha",
        "state": "RS",
        "district": "Parque da Matriz",
        "street": "Rua Diamantina",
        "zipcode": "94950-100"
    },
    {
        "city": "Cachoeirinha",
        "state": "RS",
        "district": "Vila Bom Princípio",
        "street": "Rua Euclides da Cunha",
        "zipcode": "94950-120"
    },
    {
        "city": "Cachoeirinha",
        "state": "RS",
        "district": "Parque da Matriz",
        "street": "Rua Érico Veríssimo",
        "zipcode": "94950-110"
    },
    {
        "city": "Cachoeirinha",
        "state": "RS",
        "district": "Vila Eunice Nova",
        "street": "Rua Francisco Martins",
        "zipcode": "94920-260"
    },
    {
        "city": "Cachoeirinha",
        "state": "RS",
        "district": "Vila Imbui",
        "street": "Rua General João Alfredo",
        "zipcode": "94920-720"
    },
    {
        "city": "Cachoeirinha",
        "state": "RS",
        "district": "COHAB",
        "street": "Rua Francisco Mendes Sobrinho",
        "zipcode": "94935-210"
    },
    {
        "city": "Cachoeirinha",
        "state": "RS",
        "district": "Parque da Matriz",
        "street": "Rua Guaporé",
        "zipcode": "94950-150"
    },
    {
        "city": "Cachoeirinha",
        "state": "RS",
        "district": "Ponta Porã",
        "street": "Rua Iguaçu",
        "zipcode": "94935-260"
    },
    {
        "city": "Cachoeirinha",
        "state": "RS",
        "district": "Vila Parque Brasília",
        "street": "Rua Irmãos Veiga",
        "zipcode": "94935-280"
    },
    {
        "city": "Cachoeirinha",
        "state": "RS",
        "district": "COHAB",
        "street": "Rua Jacy Nunes da Silva",
        "zipcode": "94935-300"
    },
    {
        "city": "Cachoeirinha",
        "state": "RS",
        "district": "COHAB",
        "street": "Rua Joana Ramos",
        "zipcode": "94935-320"
    },
    {
        "city": "Cachoeirinha",
        "state": "RS",
        "district": "Vila Bom Princípio",
        "street": "Rua Ilhéus",
        "zipcode": "94950-170"
    },
    {
        "city": "Cachoeirinha",
        "state": "RS",
        "district": "Parque da Matriz",
        "street": "Rua Itaqui",
        "zipcode": "94950-190"
    },
    {
        "city": "Cachoeirinha",
        "state": "RS",
        "district": "Vila Imbui",
        "street": "Avenida General Flores da Cunha",
        "zipcode": "94910-002"
    },
    {
        "city": "Cachoeirinha",
        "state": "RS",
        "district": "Vila Regina",
        "street": "Avenida Fernando Ferrari",
        "zipcode": "94930-075"
    },
    {
        "city": "Cachoeirinha",
        "state": "RS",
        "district": "Distrito Industrial Ritter",
        "street": "Avenida Fritz Beiser",
        "zipcode": "94935-220"
    },
    {
        "city": "Cachoeirinha",
        "state": "RS",
        "district": "Vila Cachoeirinha",
        "street": "Beco Gerdau",
        "zipcode": "94910-025"
    },
    {
        "city": "Cachoeirinha",
        "state": "RS",
        "district": "Vila Carlos Antônio Wilkens",
        "street": "Rua Adil Soares",
        "zipcode": "94930-020"
    },
    {
        "city": "Cachoeirinha",
        "state": "RS",
        "district": "Vila Márcia",
        "street": "Rua Anita Garibaldi",
        "zipcode": "94930-060"
    },
    {
        "city": "Cachoeirinha",
        "state": "RS",
        "district": "Vila Regina",
        "street": "Rua Antônio Bastos",
        "zipcode": "94930-070"
    },
    {
        "city": "Cachoeirinha",
        "state": "RS",
        "district": "Vila Márcia",
        "street": "Rua Antônio Dias",
        "zipcode": "94930-080"
    },
    {
        "city": "Cachoeirinha",
        "state": "RS",
        "district": "COHAB",
        "street": "Rua Alzira Silveira",
        "zipcode": "94935-685"
    },
    {
        "city": "Cachoeirinha",
        "state": "RS",
        "district": "Vila Vista Alegre",
        "street": "Rua Aimoré",
        "zipcode": "94945-020"
    },
    {
        "city": "Cachoeirinha",
        "state": "RS",
        "district": "Vila Monte Carlo",
        "street": "Rua Xavantes",
        "zipcode": "94940-280"
    },
    {
        "city": "Cachoeirinha",
        "state": "RS",
        "district": "Vila Vista Alegre",
        "street": "Travessa Alegrete",
        "zipcode": "94945-030"
    },
    {
        "city": "Cachoeirinha",
        "state": "RS",
        "district": "Vila Monte Carlo",
        "street": "Rua Tupi",
        "zipcode": "94940-260"
    },
    {
        "city": "Cachoeirinha",
        "state": "RS",
        "district": "Vila Princesa Izabel",
        "street": "Rua Taquari",
        "zipcode": "94940-240"
    },
    {
        "city": "Cachoeirinha",
        "state": "RS",
        "district": "Vila Mauá",
        "street": "Rua Emílio Inácio dos Santos",
        "zipcode": "94920-230"
    },
    {
        "city": "Cachoeirinha",
        "state": "RS",
        "district": "Vila Eunice Nova",
        "street": "Rua Eulina Rosa Silveira Martins",
        "zipcode": "94920-240"
    },
    {
        "city": "Cachoeirinha",
        "state": "RS",
        "district": "Ponta Porã",
        "street": "Travessa Felisberto Manoel Martins",
        "zipcode": "94935-058"
    },
    {
        "city": "Cachoeirinha",
        "state": "RS",
        "district": "Vila Bom Princípio",
        "street": "Rua Valença",
        "zipcode": "94950-200"
    },
    {
        "city": "Cachoeirinha",
        "state": "RS",
        "district": "Vila Bom Princípio",
        "street": "Rua Bandeirantes",
        "zipcode": "94950-030"
    },
    {
        "city": "Cachoeirinha",
        "state": "RS",
        "district": "Parque da Matriz",
        "street": "Rua Belo Horizonte",
        "zipcode": "94950-060"
    },
    {
        "city": "Cachoeirinha",
        "state": "RS",
        "district": "Vila Bom Princípio",
        "street": "Rua Armindo S. Martins",
        "zipcode": "94950-025"
    },
    {
        "city": "Cachoeirinha",
        "state": "RS",
        "district": "Parque da Matriz",
        "street": "Rua Bangu",
        "zipcode": "94950-040"
    },
    {
        "city": "Cachoeirinha",
        "state": "RS",
        "district": "Parque da Matriz",
        "street": "Rua Botafogo",
        "zipcode": "94950-080"
    },
    {
        "city": "Cachoeirinha",
        "state": "RS",
        "district": "COHAB",
        "street": "Travessa Jerônimo Manoel da Silva",
        "zipcode": "94935-310"
    },
    {
        "city": "Cachoeirinha",
        "state": "RS",
        "district": "Vila Vista Alegre",
        "street": "Rua Araranguá",
        "zipcode": "94945-060"
    },
    {
        "city": "Cachoeirinha",
        "state": "RS",
        "district": "COHAB",
        "street": "Rua Pedro Hulmann",
        "zipcode": "94935-530"
    },
    {
        "city": "Cachoeirinha",
        "state": "RS",
        "district": "Vila Cachoeirinha",
        "street": "Rua Colorado",
        "zipcode": "94910-060"
    },
    {
        "city": "Cachoeirinha",
        "state": "RS",
        "district": "Vila Veranópolis",
        "street": "Travessa Café Filho",
        "zipcode": "94920-040"
    },
    {
        "city": "Cachoeirinha",
        "state": "RS",
        "district": "Vila Veranópolis",
        "street": "Rua Doutor Artur Bernardes",
        "zipcode": "94920-150"
    },
    {
        "city": "Cachoeirinha",
        "state": "RS",
        "district": "Vila Jardim América",
        "street": "Rua Doutor Nilo Peçanha",
        "zipcode": "94920-190"
    },
    {
        "city": "Cachoeirinha",
        "state": "RS",
        "district": "Vila Jardim América",
        "street": "Rua Doutor Rodrigues Alves",
        "zipcode": "94920-200"
    },
    {
        "city": "Cachoeirinha",
        "state": "RS",
        "district": "Vila Cachoeirinha",
        "street": "Rua Tamoios",
        "zipcode": "94910-210"
    },
    {
        "city": "Cachoeirinha",
        "state": "RS",
        "district": "Vila Cachoeirinha",
        "street": "Rua Dona Otília",
        "zipcode": "94910-270"
    },
    {
        "city": "Cachoeirinha",
        "state": "RS",
        "district": "Vila Eunice Velha",
        "street": "Rua Cilon Rosa",
        "zipcode": "94920-690"
    },
    {
        "city": "Cachoeirinha",
        "state": "RS",
        "district": "Vila Mauá",
        "street": "Rua Valter Jobim",
        "zipcode": "94920-710"
    },
    {
        "city": "Cachoeirinha",
        "state": "RS",
        "district": "Cedic",
        "street": "Rua Vereador Ruy Souza Feijó",
        "zipcode": "94930-005"
    },
    {
        "city": "Cachoeirinha",
        "state": "RS",
        "district": "Vila Cachoeirinha",
        "street": "Rua Vitória",
        "zipcode": "94910-240"
    },
    {
        "city": "Cachoeirinha",
        "state": "RS",
        "district": "Vila Eunice Velha",
        "street": "Rua Clóvis Velho",
        "zipcode": "94920-660"
    },
    {
        "city": "Cachoeirinha",
        "state": "RS",
        "district": "Ponta Porã",
        "street": "Rua Dezesseis de Fevereiro",
        "zipcode": "94935-110"
    },
    {
        "city": "Cachoeirinha",
        "state": "RS",
        "district": "COHAB",
        "street": "Rua Doutor Pedro Carneiro Pereira",
        "zipcode": "94935-140"
    },
    {
        "city": "Cachoeirinha",
        "state": "RS",
        "district": "Vila Parque Brasília",
        "street": "Rua Esperança",
        "zipcode": "94935-160"
    },
    {
        "city": "Cachoeirinha",
        "state": "RS",
        "district": "Vila Parque Brasília",
        "street": "Rua Fundos da Capela",
        "zipcode": "94935-180"
    },
    {
        "city": "Cachoeirinha",
        "state": "RS",
        "district": "Parque da Matriz",
        "street": "Rua Henrique Duarte Monteiro",
        "zipcode": "94950-845"
    },
    {
        "city": "Cachoeirinha",
        "state": "RS",
        "district": "Vila Cachoeirinha",
        "street": "Rua João Dias",
        "zipcode": "94910-120"
    },
    {
        "city": "Cachoeirinha",
        "state": "RS",
        "district": "Vila Cachoeirinha",
        "street": "Rua José Alfredo Becke",
        "zipcode": "94910-130"
    },
    {
        "city": "Cachoeirinha",
        "state": "RS",
        "district": "Vila Veranópolis",
        "street": "Rua João Pedro Alcântara",
        "zipcode": "94920-330"
    },
    {
        "city": "Cachoeirinha",
        "state": "RS",
        "district": "Vila Monte Carlo",
        "street": "Rua Iracema",
        "zipcode": "94940-130"
    },
    {
        "city": "Cachoeirinha",
        "state": "RS",
        "district": "Vila Princesa Izabel",
        "street": "Rua Jacui",
        "zipcode": "94940-140"
    },
    {
        "city": "Cachoeirinha",
        "state": "RS",
        "district": "Vila Anair",
        "street": "Rua Ivoti",
        "zipcode": "94955-610"
    },
    {
        "city": "Cachoeirinha",
        "state": "RS",
        "district": "Vila Anair",
        "street": "Rua Itajaí",
        "zipcode": "94955-620"
    },
    {
        "city": "Cachoeirinha",
        "state": "RS",
        "district": "Vila Monte Carlo",
        "street": "Avenida Monte Carlo",
        "zipcode": "94940-200"
    },
    {
        "city": "Cachoeirinha",
        "state": "RS",
        "district": "Vila Anair",
        "street": "Beco do Ávila",
        "zipcode": "94955-658"
    },
    {
        "city": "Cachoeirinha",
        "state": "RS",
        "district": "Ponta Porã",
        "street": "Rua Amapá",
        "zipcode": "94935-050"
    },
    {
        "city": "Cachoeirinha",
        "state": "RS",
        "district": "Vila Fátima",
        "street": "Rua Acre",
        "zipcode": "94955-010"
    },
    {
        "city": "Cachoeirinha",
        "state": "RS",
        "district": "Vila Fátima",
        "street": "Rua Alagoas",
        "zipcode": "94955-020"
    },
    {
        "city": "Cachoeirinha",
        "state": "RS",
        "district": "Ponta Porã",
        "street": "Rua Afonso Amaral",
        "zipcode": "94935-010"
    },
    {
        "city": "Cachoeirinha",
        "state": "RS",
        "district": "Parque da Matriz",
        "street": "Rua Luiz Domingos da Silva",
        "zipcode": "94950-820"
    },
    {
        "city": "Cachoeirinha",
        "state": "RS",
        "district": "Vila Vista Alegre",
        "street": "Rua Uirapuru",
        "zipcode": "94945-690"
    },
    {
        "city": "Cachoeirinha",
        "state": "RS",
        "district": "Vila Vista Alegre",
        "street": "Rua Tangará",
        "zipcode": "94945-700"
    },
    {
        "city": "Cachoeirinha",
        "state": "RS",
        "district": "Parque da Matriz",
        "street": "Rua Odil Silva de Oliveira",
        "zipcode": "94950-760"
    },
    {
        "city": "Cachoeirinha",
        "state": "RS",
        "district": "Vila Anair",
        "street": "Rua Rio Grande do Sul",
        "zipcode": "94955-025"
    },
    {
        "city": "Cachoeirinha",
        "state": "RS",
        "district": "Vila Anair",
        "street": "Rua Viamão",
        "zipcode": "94955-652"
    },
    {
        "city": "Cachoeirinha",
        "state": "RS",
        "district": "Parque da Matriz",
        "street": "Rua Norbeto Gomes da Silva",
        "zipcode": "94950-833"
    },
    {
        "city": "Cachoeirinha",
        "state": "RS",
        "district": "Vila Princesa Izabel",
        "street": "Rua Tupinambá",
        "zipcode": "94940-235"
    },
    {
        "city": "Cachoeirinha",
        "state": "RS",
        "district": "Vila Imbui",
        "street": "Rua Osvaldo Aranha",
        "zipcode": "94920-460"
    },
    {
        "city": "Cachoeirinha",
        "state": "RS",
        "district": "Vila Mauá",
        "street": "Travessa Mauá",
        "zipcode": "94920-595"
    },
    {
        "city": "Cachoeirinha",
        "state": "RS",
        "district": "Vila Regina",
        "street": "Travessa Vera Cruz",
        "zipcode": "94930-580"
    },
    {
        "city": "Cachoeirinha",
        "state": "RS",
        "district": "Vila Vista Alegre",
        "street": "Rua Araponga",
        "zipcode": "94945-680"
    },
    {
        "city": "Cachoeirinha",
        "state": "RS",
        "district": "Vila Anair",
        "street": "Rua Cerro Largo",
        "zipcode": "94955-670"
    },
    {
        "city": "Cachoeirinha",
        "state": "RS",
        "district": "Parque da Matriz",
        "street": "Rua Bertoldo Creps",
        "zipcode": "94950-830"
    },
    {
        "city": "Cachoeirinha",
        "state": "RS",
        "district": "Parque da Matriz",
        "street": "Rua Cláudio Fagundes dos Santos",
        "zipcode": "94950-835"
    },
    {
        "city": "Cachoeirinha",
        "state": "RS",
        "district": "COHAB",
        "street": "Rua Augusto Correia Freitas",
        "zipcode": "94935-080"
    },
    {
        "city": "Cachoeirinha",
        "state": "RS",
        "district": "Vila Parque Brasília",
        "street": "Rua São Tomé",
        "zipcode": "94935-660"
    },
    {
        "city": "Cachoeirinha",
        "state": "RS",
        "district": "Vila Princesa Izabel",
        "street": "Rua Manatá",
        "zipcode": "94940-190"
    },
    {
        "city": "Cachoeirinha",
        "state": "RS",
        "district": "Vila Cachoeirinha",
        "street": "Rua Everaldo Marques da Silva",
        "zipcode": "94910-080"
    },
    {
        "city": "Cachoeirinha",
        "state": "RS",
        "district": "Vila Cachoeirinha",
        "street": "Rua Papa João XXIII",
        "zipcode": "94910-170"
    },
    {
        "city": "Cachoeirinha",
        "state": "RS",
        "district": "Vila Cachoeirinha",
        "street": "Rua Santa Clara",
        "zipcode": "94910-180"
    },
    {
        "city": "Cachoeirinha",
        "state": "RS",
        "district": "Vila Veranópolis",
        "street": "Rua Nereu Ramos",
        "zipcode": "94920-430"
    },
    {
        "city": "Cachoeirinha",
        "state": "RS",
        "district": "Vila Eunice Velha",
        "street": "Rua Nicolau Rosa",
        "zipcode": "94920-440"
    },
    {
        "city": "Cachoeirinha",
        "state": "RS",
        "district": "Vila Veranópolis",
        "street": "Rua Prudente de Morais",
        "zipcode": "94920-490"
    },
    {
        "city": "Cachoeirinha",
        "state": "RS",
        "district": "Vila Jardim América",
        "street": "Rua Quinze de Novembro",
        "zipcode": "94920-500"
    },
    {
        "city": "Cachoeirinha",
        "state": "RS",
        "district": "Vila Santo Ângelo",
        "street": "Rua Santa Maria",
        "zipcode": "94920-545"
    },
    {
        "city": "Cachoeirinha",
        "state": "RS",
        "district": "Vila Santo Ângelo",
        "street": "Rua Santo Ângelo",
        "zipcode": "94920-560"
    },
    {
        "city": "Cachoeirinha",
        "state": "RS",
        "district": "Vila Imbui",
        "street": "Rua São José",
        "zipcode": "94920-580"
    },
    {
        "city": "Cachoeirinha",
        "state": "RS",
        "district": "Vila Mauá",
        "street": "Rua São Judas Tadeu",
        "zipcode": "94920-590"
    },
    {
        "city": "Cachoeirinha",
        "state": "RS",
        "district": "Vila Jardim América",
        "street": "Rua Vinte e Um de Abril",
        "zipcode": "94920-650"
    },
    {
        "city": "Cachoeirinha",
        "state": "RS",
        "district": "Cruzeiro",
        "street": "Rua Willy Teichmann",
        "zipcode": "94930-635"
    },
    {
        "city": "Cachoeirinha",
        "state": "RS",
        "district": "Jardim Vitória",
        "street": "Rua Brasil Aquino Pedroso",
        "zipcode": "94930-700"
    },
    {
        "city": "Cachoeirinha",
        "state": "RS",
        "district": "Jardim Vitória",
        "street": "Rua Pompilho Costa Fialho",
        "zipcode": "94930-720"
    },
    {
        "city": "Cachoeirinha",
        "state": "RS",
        "district": "Vila Eunice Velha",
        "street": "Rua Teodomiro Porto",
        "zipcode": "94920-640"
    },
    {
        "city": "Cachoeirinha",
        "state": "RS",
        "district": "Jardim do Bosque",
        "street": "Rua do Bosque",
        "zipcode": "94960-457"
    },
    {
        "city": "Cachoeirinha",
        "state": "RS",
        "district": "Vila Monte Carlo",
        "street": "Rua Fermino Correa da Gama",
        "zipcode": "94940-073"
    },
    {
        "city": "Cachoeirinha",
        "state": "RS",
        "district": "Vila Silveira Martins",
        "street": "Rua Flávio Catanhede",
        "zipcode": "94940-090"
    },
    {
        "city": "Cachoeirinha",
        "state": "RS",
        "district": "COHAB",
        "street": "Rua Geni Clara da Silva",
        "zipcode": "94935-720"
    },
    {
        "city": "Cachoeirinha",
        "state": "RS",
        "district": "Parque Granja Esperança",
        "street": "Rua João Oscar de Oliveira",
        "zipcode": "94960-330"
    },
    {
        "city": "Cachoeirinha",
        "state": "RS",
        "district": "Parque Granja Esperança",
        "street": "Rua José Alves Pereira",
        "zipcode": "94960-340"
    },
    {
        "city": "Cachoeirinha",
        "state": "RS",
        "district": "Parque Granja Esperança",
        "street": "Rua Ingá",
        "zipcode": "94960-425"
    },
    {
        "city": "Cachoeirinha",
        "state": "RS",
        "district": "Jardim do Bosque",
        "street": "Rua Jambo",
        "zipcode": "94960-462"
    },
    {
        "city": "Cachoeirinha",
        "state": "RS",
        "district": "Vila Vista Alegre",
        "street": "Rua Laguna",
        "zipcode": "94945-320"
    },
    {
        "city": "Cachoeirinha",
        "state": "RS",
        "district": "Vila Vista Alegre",
        "street": "Rua Lima e Silva",
        "zipcode": "94945-330"
    },
    {
        "city": "Cachoeirinha",
        "state": "RS",
        "district": "Parque da Matriz",
        "street": "Rua Juarez Cardoso Evaldt",
        "zipcode": "94950-573"
    },
    {
        "city": "Cachoeirinha",
        "state": "RS",
        "district": "Parque Granja Esperança",
        "street": "Rua José Antônio Rodrigues",
        "zipcode": "94960-350"
    },
    {
        "city": "Cachoeirinha",
        "state": "RS",
        "district": "Parque Granja Esperança",
        "street": "Rua José Fidêncio Maia",
        "zipcode": "94960-360"
    },
    {
        "city": "Cachoeirinha",
        "state": "RS",
        "district": "Parque Granja Esperança",
        "street": "Rua Lalau Miranda",
        "zipcode": "94960-380"
    },
    {
        "city": "Cachoeirinha",
        "state": "RS",
        "district": "Parque Granja Esperança",
        "street": "Rua Ligustro",
        "zipcode": "94960-405"
    },
    {
        "city": "Cachoeirinha",
        "state": "RS",
        "district": "Parque Granja Esperança",
        "street": "Rua Quiri",
        "zipcode": "94960-422"
    },
    {
        "city": "Cachoeirinha",
        "state": "RS",
        "district": "Parque Granja Esperança",
        "street": "Rua Nelida Passos Dias",
        "zipcode": "94960-430"
    },
    {
        "city": "Cachoeirinha",
        "state": "RS",
        "district": "Jardim do Bosque",
        "street": "Rua Peroba",
        "zipcode": "94960-445"
    },
    {
        "city": "Cachoeirinha",
        "state": "RS",
        "district": "Parque Granja Esperança",
        "street": "Rua Murta",
        "zipcode": "94960-417"
    },
    {
        "city": "Cachoeirinha",
        "state": "RS",
        "district": "Vila Vista Alegre",
        "street": "Travessa Liberdade",
        "zipcode": "94945-360"
    },
    {
        "city": "Cachoeirinha",
        "state": "RS",
        "district": "Vila Vista Alegre",
        "street": "Rua São Pedro",
        "zipcode": "94945-530"
    },
    {
        "city": "Cachoeirinha",
        "state": "RS",
        "district": "Vila Vista Alegre",
        "street": "Rua Vista Alegre",
        "zipcode": "94945-545"
    },
    {
        "city": "Cachoeirinha",
        "state": "RS",
        "district": "Vila Vista Alegre",
        "street": "Rua Sabiá",
        "zipcode": "94945-660"
    },
    {
        "city": "Cachoeirinha",
        "state": "RS",
        "district": "Parque da Matriz",
        "street": "Rua Parati",
        "zipcode": "94950-557"
    },
    {
        "city": "Cachoeirinha",
        "state": "RS",
        "district": "Parque da Matriz",
        "street": "Rua Paquetá",
        "zipcode": "94950-572"
    },
    {
        "city": "Cachoeirinha",
        "state": "RS",
        "district": "Vila Anair",
        "street": "Rua São Borja",
        "zipcode": "94955-580"
    },
    {
        "city": "Cachoeirinha",
        "state": "RS",
        "district": "Parque Granja Esperança",
        "street": "Rua Tuia",
        "zipcode": "94960-415"
    },
    {
        "city": "Cachoeirinha",
        "state": "RS",
        "district": "Vila Vista Alegre",
        "street": "Travessa São Mateus",
        "zipcode": "94945-600"
    },
    {
        "city": "Cachoeirinha",
        "state": "RS",
        "district": "Ponta Porã",
        "street": "Rua Santos Dumont",
        "zipcode": "94935-690"
    },
    {
        "city": "Cachoeirinha",
        "state": "RS",
        "district": "Vila Vista Alegre",
        "street": "Rua Torres",
        "zipcode": "94945-550"
    },
    {
        "city": "Cachoeirinha",
        "state": "RS",
        "district": "Vila Vista Alegre",
        "street": "Rua Brasil",
        "zipcode": "94945-590"
    },
    {
        "city": "Cachoeirinha",
        "state": "RS",
        "district": "Vila Anair",
        "street": "Rua Vasconcelos",
        "zipcode": "94955-590"
    },
    {
        "city": "Cachoeirinha",
        "state": "RS",
        "district": "Jardim do Bosque",
        "street": "Rua Timbauva",
        "zipcode": "94960-447"
    },
    {
        "city": "Cachoeirinha",
        "state": "RS",
        "district": "Jardim do Bosque",
        "street": "Rua Casuarina",
        "zipcode": "94960-467"
    },
    {
        "city": "Cachoeirinha",
        "state": "RS",
        "district": "Vila Vista Alegre",
        "street": "Rua Curió",
        "zipcode": "94945-650"
    },
    {
        "city": "Cachoeirinha",
        "state": "RS",
        "district": "Parque da Matriz",
        "street": "Rua Cascável",
        "zipcode": "94950-540"
    },
    {
        "city": "Cachoeirinha",
        "state": "RS",
        "district": "Parque da Matriz",
        "street": "Rua Caboçu",
        "zipcode": "94950-555"
    },
    {
        "city": "Cachoeirinha",
        "state": "RS",
        "district": "Parque da Matriz",
        "street": "Rua Congonhas",
        "zipcode": "94950-562"
    },
    {
        "city": "Cachoeirinha",
        "state": "RS",
        "district": "Jardim do Bosque",
        "street": "Rua Catiguá",
        "zipcode": "94960-435"
    },
    {
        "city": "Cachoeirinha",
        "state": "RS",
        "district": "COHAB",
        "street": "Rua Trinta e Um de Outubro",
        "zipcode": "94935-710"
    },
    {
        "city": "Cachoeirinha",
        "state": "RS",
        "district": "Vila Princesa Izabel",
        "street": "Rua Cai",
        "zipcode": "94940-030"
    },
    {
        "city": "Cachoeirinha",
        "state": "RS",
        "district": "Vila Monte Carlo",
        "street": "Rua Caiapó",
        "zipcode": "94940-040"
    },
    {
        "city": "Cachoeirinha",
        "state": "RS",
        "district": "Vila Monte Carlo",
        "street": "Rua Charrua",
        "zipcode": "94940-060"
    },
    {
        "city": "Cachoeirinha",
        "state": "RS",
        "district": "Vila Monte Carlo",
        "street": "Rua Coroados",
        "zipcode": "94940-070"
    },
    {
        "city": "Cachoeirinha",
        "state": "RS",
        "district": "Vila Princesa Izabel",
        "street": "Rua Clarissa Breier dos Santos",
        "zipcode": "94940-233"
    },
    {
        "city": "Cachoeirinha",
        "state": "RS",
        "district": "Vila Vista Alegre",
        "street": "Rua Manoel Rosa",
        "zipcode": "94945-380"
    },
    {
        "city": "Cachoeirinha",
        "state": "RS",
        "district": "Vila Vista Alegre",
        "street": "Rua Monte Castelo",
        "zipcode": "94945-400"
    },
    {
        "city": "Cachoeirinha",
        "state": "RS",
        "district": "Vila Vista Alegre",
        "street": "Rua Missões",
        "zipcode": "94945-410"
    },
    {
        "city": "Cachoeirinha",
        "state": "RS",
        "district": "Vila Vista Alegre",
        "street": "Rua Pindorama",
        "zipcode": "94945-470"
    },
    {
        "city": "Cachoeirinha",
        "state": "RS",
        "district": "Vila Vista Alegre",
        "street": "Rua Planalto",
        "zipcode": "94945-480"
    },
    {
        "city": "Cachoeirinha",
        "state": "RS",
        "district": "Vila Vista Alegre",
        "street": "Rua Tiaraju",
        "zipcode": "94945-540"
    },
    {
        "city": "Cachoeirinha",
        "state": "RS",
        "district": "Vila Vista Alegre",
        "street": "Rua Mantiqueira",
        "zipcode": "94945-580"
    },
    {
        "city": "Cachoeirinha",
        "state": "RS",
        "district": "COHAB",
        "street": "Travessa da Igreja",
        "zipcode": "94935-760"
    },
    {
        "city": "Cachoeirinha",
        "state": "RS",
        "district": "Vila Anair",
        "street": "Rua Cabriuva",
        "zipcode": "94955-100"
    },
    {
        "city": "Cachoeirinha",
        "state": "RS",
        "district": "Vila Anair",
        "street": "Rua Cedro",
        "zipcode": "94955-120"
    },
    {
        "city": "Cachoeirinha",
        "state": "RS",
        "district": "Vila Anair",
        "street": "Rua Eucaliptos",
        "zipcode": "94955-160"
    },
    {
        "city": "Cachoeirinha",
        "state": "RS",
        "district": "Vila Fátima",
        "street": "Rua Fernando Noronha",
        "zipcode": "94955-170"
    },
    {
        "city": "Cachoeirinha",
        "state": "RS",
        "district": "Vila Anair",
        "street": "Rua João Paulo II",
        "zipcode": "94955-200"
    },
    {
        "city": "Cachoeirinha",
        "state": "RS",
        "district": "Parque Granja Esperança",
        "street": "Rua Emílio Alcides da Rosa",
        "zipcode": "94960-802"
    },
    {
        "city": "Cachoeirinha",
        "state": "RS",
        "district": "Vila Vista Alegre",
        "street": "Rua Frei Mojica",
        "zipcode": "94945-220"
    },
    {
        "city": "Cachoeirinha",
        "state": "RS",
        "district": "Vila Vista Alegre",
        "street": "Rua Guarujá",
        "zipcode": "94945-240"
    },
    {
        "city": "Cachoeirinha",
        "state": "RS",
        "district": "Parque da Matriz",
        "street": "Rua Itapetininga",
        "zipcode": "94950-430"
    },
    {
        "city": "Cachoeirinha",
        "state": "RS",
        "district": "Parque da Matriz",
        "street": "Rua Itapema",
        "zipcode": "94950-577"
    },
    {
        "city": "Cachoeirinha",
        "state": "RS",
        "district": "Parque da Matriz",
        "street": "Rua Jacarepagua",
        "zipcode": "94950-582"
    },
    {
        "city": "Cachoeirinha",
        "state": "RS",
        "district": "Vila Fátima",
        "street": "Avenida São João",
        "zipcode": "94955-370"
    },
    {
        "city": "Cachoeirinha",
        "state": "RS",
        "district": "Vila Anair",
        "street": "Beco da Figueira",
        "zipcode": "94955-338"
    },
    {
        "city": "Cachoeirinha",
        "state": "RS",
        "district": "Parque da Matriz",
        "street": "Rua Adão dos Santos",
        "zipcode": "94950-571"
    },
    {
        "city": "Cachoeirinha",
        "state": "RS",
        "district": "Vila Fátima",
        "street": "Beco Serafim",
        "zipcode": "94955-500"
    },
    {
        "city": "Cachoeirinha",
        "state": "RS",
        "district": "Jardim Vitória",
        "street": "Rua José Rauil da Fonseca",
        "zipcode": "94930-710"
    },
    {
        "city": "Cachoeirinha",
        "state": "RS",
        "district": "Parque da Matriz",
        "street": "Rua Lindolfo Wagner",
        "zipcode": "94950-585"
    },
    {
        "city": "Cachoeirinha",
        "state": "RS",
        "district": "Morada do Bosque",
        "street": "Rua José Oledir Ramos",
        "zipcode": "94960-845"
    },
    {
        "city": "Cachoeirinha",
        "state": "RS",
        "district": "Morada do Bosque",
        "street": "Rua Juan Albino Nunez Ayala",
        "zipcode": "94960-847"
    },
    {
        "city": "Cachoeirinha",
        "state": "RS",
        "district": "Vila Anair",
        "street": "Rua Mangueira",
        "zipcode": "94955-334"
    },
    {
        "city": "Cachoeirinha",
        "state": "RS",
        "district": "Vila Anair",
        "street": "Rua Pitangueira",
        "zipcode": "94955-336"
    },
    {
        "city": "Cachoeirinha",
        "state": "RS",
        "district": "Vila Anair",
        "street": "Rua Quinze de Maio",
        "zipcode": "94955-340"
    },
    {
        "city": "Cachoeirinha",
        "state": "RS",
        "district": "Vila Anair",
        "street": "Rua Palmeira das Missões",
        "zipcode": "94955-474"
    },
    {
        "city": "Cachoeirinha",
        "state": "RS",
        "district": "Parque Granja Esperança",
        "street": "Rua Manoel Antônio Idalino",
        "zipcode": "94960-818"
    },
    {
        "city": "Cachoeirinha",
        "state": "RS",
        "district": "Parque Marechal Rondon",
        "street": "Rua Nova Romênia",
        "zipcode": "94965-423"
    },
    {
        "city": "Cachoeirinha",
        "state": "RS",
        "district": "Parque da Matriz",
        "street": "Rua Poços de Caldas",
        "zipcode": "94950-340"
    },
    {
        "city": "Cachoeirinha",
        "state": "RS",
        "district": "Parque da Matriz",
        "street": "Rua Tijuca",
        "zipcode": "94950-400"
    },
    {
        "city": "Cachoeirinha",
        "state": "RS",
        "district": "Parque da Matriz",
        "street": "Rua Trinta e Três",
        "zipcode": "94950-425"
    },
    {
        "city": "Cachoeirinha",
        "state": "RS",
        "district": "Parque da Matriz",
        "street": "Rua Ribeirão Preto",
        "zipcode": "94950-460"
    },
    {
        "city": "Cachoeirinha",
        "state": "RS",
        "district": "Parque da Matriz",
        "street": "Rua Panorama",
        "zipcode": "94950-480"
    },
    {
        "city": "Cachoeirinha",
        "state": "RS",
        "district": "Vila Fátima",
        "street": "Rua Paraíba",
        "zipcode": "94955-290"
    },
    {
        "city": "Cachoeirinha",
        "state": "RS",
        "district": "Vila Anair",
        "street": "Rua Setenta",
        "zipcode": "94955-366"
    },
    {
        "city": "Cachoeirinha",
        "state": "RS",
        "district": "Vila Anair",
        "street": "Travessa I",
        "zipcode": "94955-435"
    },
    {
        "city": "Cachoeirinha",
        "state": "RS",
        "district": "Vila Fátima",
        "street": "Rua Tubarão",
        "zipcode": "94955-450"
    },
    {
        "city": "Cachoeirinha",
        "state": "RS",
        "district": "Vila Anair",
        "street": "Rua Vinte e Cinco de Dezembro",
        "zipcode": "94955-470"
    },
    {
        "city": "Cachoeirinha",
        "state": "RS",
        "district": "Parque Granja Esperança",
        "street": "Rua Tapes",
        "zipcode": "94960-710"
    },
    {
        "city": "Cachoeirinha",
        "state": "RS",
        "district": "Parque Granja Esperança",
        "street": "Rua Treze de Maio",
        "zipcode": "94960-725"
    },
    {
        "city": "Cachoeirinha",
        "state": "RS",
        "district": "Parque da Matriz",
        "street": "Rua Araçatuba",
        "zipcode": "94950-520"
    },
    {
        "city": "Cachoeirinha",
        "state": "RS",
        "district": "Vila Fátima",
        "street": "Rua Piauí",
        "zipcode": "94955-320"
    },
    {
        "city": "Cachoeirinha",
        "state": "RS",
        "district": "Parque Marechal Rondon",
        "street": "Rua Romênia",
        "zipcode": "94965-420"
    },
    {
        "city": "Cachoeirinha",
        "state": "RS",
        "district": "Parque Granja Esperança",
        "street": "Rua Cacequi",
        "zipcode": "94960-620"
    },
    {
        "city": "Cachoeirinha",
        "state": "RS",
        "district": "Parque Granja Esperança",
        "street": "Rua Camaquã",
        "zipcode": "94960-712"
    },
    {
        "city": "Cachoeirinha",
        "state": "RS",
        "district": "Parque Marechal Rondon",
        "street": "Travessa Santos",
        "zipcode": "94965-395"
    },
    {
        "city": "Cachoeirinha",
        "state": "RS",
        "district": "Nova Esperança",
        "street": "Rua Arara (Vl N Canarinho)",
        "zipcode": "94967-040"
    },
    {
        "city": "Cachoeirinha",
        "state": "RS",
        "district": "Parque Espírito Santo",
        "street": "Rua Porto Alegre",
        "zipcode": "94965-400"
    },
    {
        "city": "Cachoeirinha",
        "state": "RS",
        "district": "Parque Marechal Rondon",
        "street": "Travessa Monte Claro",
        "zipcode": "94965-425"
    },
    {
        "city": "Cachoeirinha",
        "state": "RS",
        "district": "Parque da Matriz",
        "street": "Rua Morumbi",
        "zipcode": "94950-290"
    },
    {
        "city": "Cachoeirinha",
        "state": "RS",
        "district": "Parque da Matriz",
        "street": "Rua Carlos Leopoldo Schüller",
        "zipcode": "94950-595"
    },
    {
        "city": "Cachoeirinha",
        "state": "RS",
        "district": "Vila Fátima",
        "street": "Travessa São Paulo",
        "zipcode": "94955-380"
    },
    {
        "city": "Cachoeirinha",
        "state": "RS",
        "district": "Vila Fátima",
        "street": "Travessa Sergipe",
        "zipcode": "94955-420"
    },
    {
        "city": "Cachoeirinha",
        "state": "RS",
        "district": "Vila Anair",
        "street": "Travessa União",
        "zipcode": "94955-542"
    },
    {
        "city": "Cachoeirinha",
        "state": "RS",
        "district": "Vila Anair",
        "street": "Travessa Vinte Nove de Março",
        "zipcode": "94955-544"
    },
    {
        "city": "Cachoeirinha",
        "state": "RS",
        "district": "Cruzeiro",
        "street": "Rua Paulo Renato Ketzer de Souza",
        "zipcode": "94930-632"
    },
    {
        "city": "Cachoeirinha",
        "state": "RS",
        "district": "Vila Anair",
        "street": "Rua Estrela",
        "zipcode": "94955-150"
    },
    {
        "city": "Cachoeirinha",
        "state": "RS",
        "district": "Vila Anair",
        "street": "Rua Caxias",
        "zipcode": "94955-110"
    },
    {
        "city": "Cachoeirinha",
        "state": "RS",
        "district": "Parque Granja Esperança",
        "street": "Rua das Hortênsias",
        "zipcode": "94960-290"
    },
    {
        "city": "Cachoeirinha",
        "state": "RS",
        "district": "Parque Granja Esperança",
        "street": "Rua Darci José Pacheco",
        "zipcode": "94960-150"
    },
    {
        "city": "Cachoeirinha",
        "state": "RS",
        "district": "Morada do Bosque",
        "street": "Rua Darci Michel",
        "zipcode": "94960-838"
    },
    {
        "city": "Cachoeirinha",
        "state": "RS",
        "district": "Parque da Matriz",
        "street": "Rua Emília Gaúna Bochehin",
        "zipcode": "94950-545"
    },
    {
        "city": "Cachoeirinha",
        "state": "RS",
        "district": "Parque Granja Esperança",
        "street": "Rua Dona Isaura",
        "zipcode": "94960-170"
    },
    {
        "city": "Cachoeirinha",
        "state": "RS",
        "district": "Parque Granja Esperança",
        "street": "Rua Figueira",
        "zipcode": "94960-220"
    },
    {
        "city": "Cachoeirinha",
        "state": "RS",
        "district": "Parque Granja Esperança",
        "street": "Rua Firmino José Teixeira",
        "zipcode": "94960-230"
    },
    {
        "city": "Cachoeirinha",
        "state": "RS",
        "district": "Parque Granja Esperança",
        "street": "Rua Flamboia",
        "zipcode": "94960-240"
    },
    {
        "city": "Cachoeirinha",
        "state": "RS",
        "district": "Jardim do Bosque",
        "street": "Rua Estremosa",
        "zipcode": "94960-577"
    },
    {
        "city": "Cachoeirinha",
        "state": "RS",
        "district": "Parque Granja Esperança",
        "street": "Rua Dona Palmira",
        "zipcode": "94960-180"
    },
    {
        "city": "Cachoeirinha",
        "state": "RS",
        "district": "Parque Granja Esperança",
        "street": "Rua Florêncio Rosa da Silveira",
        "zipcode": "94960-250"
    },
    {
        "city": "Cachoeirinha",
        "state": "RS",
        "district": "Parque Granja Esperança",
        "street": "Rua Holmerindo Vieira Aguiar",
        "zipcode": "94960-280"
    },
    {
        "city": "Cachoeirinha",
        "state": "RS",
        "district": "Nova Cachoeirinha",
        "street": "Rua Fortaleza",
        "zipcode": "94965-170"
    },
    {
        "city": "Cachoeirinha",
        "state": "RS",
        "district": "Parque Marechal Rondon",
        "street": "Rua França",
        "zipcode": "94965-180"
    },
    {
        "city": "Cachoeirinha",
        "state": "RS",
        "district": "Nova Cachoeirinha",
        "street": "Rua Gravatal",
        "zipcode": "94965-190"
    },
    {
        "city": "Cachoeirinha",
        "state": "RS",
        "district": "Nova Cachoeirinha",
        "street": "Rua Hawaí",
        "zipcode": "94965-230"
    },
    {
        "city": "Cachoeirinha",
        "state": "RS",
        "district": "Parque da Matriz",
        "street": "Rua Iguatemi",
        "zipcode": "94950-470"
    },
    {
        "city": "Cachoeirinha",
        "state": "RS",
        "district": "Parque Marechal Rondon",
        "street": "Rua Irlanda",
        "zipcode": "94965-280"
    },
    {
        "city": "Cachoeirinha",
        "state": "RS",
        "district": "Parque Marechal Rondon",
        "street": "Rua Itália",
        "zipcode": "94965-300"
    },
    {
        "city": "Cachoeirinha",
        "state": "RS",
        "district": "Vila Anair",
        "street": "Beco do Luiz",
        "zipcode": "94955-220"
    },
    {
        "city": "Cachoeirinha",
        "state": "RS",
        "district": "Jardim do Bosque",
        "street": "Rua Macieira",
        "zipcode": "94960-595"
    },
    {
        "city": "Cachoeirinha",
        "state": "RS",
        "district": "Parque Espírito Santo",
        "street": "Rua José Rodrigues",
        "zipcode": "94965-320"
    },
    {
        "city": "Cachoeirinha",
        "state": "RS",
        "district": "Jardim do Bosque",
        "street": "Rua Nogueira",
        "zipcode": "94960-597"
    },
    {
        "city": "Cachoeirinha",
        "state": "RS",
        "district": "Morada do Bosque",
        "street": "Rua Olavo da Silva Ribeiro",
        "zipcode": "94960-834"
    },
    {
        "city": "Cachoeirinha",
        "state": "RS",
        "district": "Vila Fátima",
        "street": "Rua Peru",
        "zipcode": "94965-360"
    },
    {
        "city": "Cachoeirinha",
        "state": "RS",
        "district": "Parque Marechal Rondon",
        "street": "Rua Polônia",
        "zipcode": "94965-390"
    },
    {
        "city": "Cachoeirinha",
        "state": "RS",
        "district": "Jardim Betânia",
        "street": "Rua Nova Cidreira",
        "zipcode": "94970-762"
    },
    {
        "city": "Cachoeirinha",
        "state": "RS",
        "district": "Vila Fátima",
        "street": "Rua Paraguai",
        "zipcode": "94965-380"
    },
    {
        "city": "Cachoeirinha",
        "state": "RS",
        "district": "Jardim Betânia",
        "street": "Rua Remanso",
        "zipcode": "94970-758"
    },
    {
        "city": "Cachoeirinha",
        "state": "RS",
        "district": "Vila Fátima",
        "street": "Rua Mato Grosso",
        "zipcode": "94955-250"
    },
    {
        "city": "Cachoeirinha",
        "state": "RS",
        "district": "Parque Granja Esperança",
        "street": "Rua Vereador Osvaldo Correa",
        "zipcode": "94960-590"
    },
    {
        "city": "Cachoeirinha",
        "state": "RS",
        "district": "Parque da Matriz",
        "street": "Rua Realengo",
        "zipcode": "94950-360"
    },
    {
        "city": "Cachoeirinha",
        "state": "RS",
        "district": "Parque da Matriz",
        "street": "Rua Paranavaí",
        "zipcode": "94950-440"
    },
    {
        "city": "Cachoeirinha",
        "state": "RS",
        "district": "Vila Anair",
        "street": "Rua Paranaguá",
        "zipcode": "94955-280"
    },
    {
        "city": "Cachoeirinha",
        "state": "RS",
        "district": "Vila Princesa Izabel",
        "street": "Rua Stipe Boric",
        "zipcode": "94940-075"
    },
    {
        "city": "Cachoeirinha",
        "state": "RS",
        "district": "Vila Anair",
        "street": "Rua Canela",
        "zipcode": "94955-225"
    },
    {
        "city": "Cachoeirinha",
        "state": "RS",
        "district": "Parque da Matriz",
        "street": "Rua Santos",
        "zipcode": "94950-405"
    },
    {
        "city": "Cachoeirinha",
        "state": "RS",
        "district": "Nova Cachoeirinha",
        "street": "Travessa Guatemala",
        "zipcode": "94965-220"
    },
    {
        "city": "Cachoeirinha",
        "state": "RS",
        "district": "Jardim Betânia",
        "street": "Rua Rondinha",
        "zipcode": "94970-720"
    },
    {
        "city": "Cachoeirinha",
        "state": "RS",
        "district": "Jardim Betânia",
        "street": "Rua Miramar",
        "zipcode": "94970-766"
    },
    {
        "city": "Cachoeirinha",
        "state": "RS",
        "district": "Jardim Betânia",
        "street": "Rua Tramandaí",
        "zipcode": "94970-750"
    },
    {
        "city": "Cachoeirinha",
        "state": "RS",
        "district": "Jardim do Bosque",
        "street": "Rua Canjerana",
        "zipcode": "94960-587"
    },
    {
        "city": "Cachoeirinha",
        "state": "RS",
        "district": "Parque Marechal Rondon",
        "street": "Rua Canarinho",
        "zipcode": "94965-293"
    },
    {
        "city": "Cachoeirinha",
        "state": "RS",
        "district": "Jardim Betânia",
        "street": "Rua Nova Albatroz",
        "zipcode": "94970-752"
    },
    {
        "city": "Cachoeirinha",
        "state": "RS",
        "district": "Jardim Betânia",
        "street": "Rua Xangri",
        "zipcode": "94970-760"
    },
    {
        "city": "Cachoeirinha",
        "state": "RS",
        "district": "Jardim Betânia",
        "street": "Rua Cidreira",
        "zipcode": "94970-770"
    },
    {
        "city": "Cachoeirinha",
        "state": "RS",
        "district": "Parque da Matriz",
        "street": "Rua Ouro Preto",
        "zipcode": "94950-310"
    },
    {
        "city": "Cachoeirinha",
        "state": "RS",
        "district": "Vila Bom Princípio",
        "street": "Travessa Rio Grande",
        "zipcode": "94950-370"
    },
    {
        "city": "Cachoeirinha",
        "state": "RS",
        "district": "Parque da Matriz",
        "street": "Rua Mogi",
        "zipcode": "94950-270"
    },
    {
        "city": "Cachoeirinha",
        "state": "RS",
        "district": "City",
        "street": "Rua Vitino Zucatti",
        "zipcode": "94935-796"
    },
    {
        "city": "Cachoeirinha",
        "state": "RS",
        "district": "City",
        "street": "Rua Vereador Inocêncio Telles Moreira",
        "zipcode": "94935-798"
    },
    {
        "city": "Cachoeirinha",
        "state": "RS",
        "district": "Parque Granja Esperança",
        "street": "Rua D (M Bosque)",
        "zipcode": "94960-056"
    },
    {
        "city": "Cachoeirinha",
        "state": "RS",
        "district": "Jardim Betânia",
        "street": "Rua Curumim",
        "zipcode": "94970-650"
    },
    {
        "city": "Cachoeirinha",
        "state": "RS",
        "district": "Parque Espírito Santo",
        "street": "Rua Duque de Caxias",
        "zipcode": "94965-085"
    },
    {
        "city": "Cachoeirinha",
        "state": "RS",
        "district": "Vila Fátima",
        "street": "Rua Equador",
        "zipcode": "94965-120"
    },
    {
        "city": "Cachoeirinha",
        "state": "RS",
        "district": "Parque Marechal Rondon",
        "street": "Rua Espanha",
        "zipcode": "94965-130"
    },
    {
        "city": "Cachoeirinha",
        "state": "RS",
        "district": "Nova Cachoeirinha",
        "street": "Rua Eldorado",
        "zipcode": "94965-110"
    },
    {
        "city": "Cachoeirinha",
        "state": "RS",
        "district": "Sítio Ipiranga",
        "street": "Rua Dom Pedro I",
        "zipcode": "94970-210"
    },
    {
        "city": "Cachoeirinha",
        "state": "RS",
        "district": "Parque Marechal Rondon",
        "street": "Rua Holanda",
        "zipcode": "94965-240"
    },
    {
        "city": "Cachoeirinha",
        "state": "RS",
        "district": "Parque Marechal Rondon",
        "street": "Rua Hungria",
        "zipcode": "94965-260"
    },
    {
        "city": "Cachoeirinha",
        "state": "RS",
        "district": "Parque Marechal Rondon",
        "street": "Rua Inglaterra",
        "zipcode": "94965-270"
    },
    {
        "city": "Cachoeirinha",
        "state": "RS",
        "district": "Parque Marechal Rondon",
        "street": "Rua Israel",
        "zipcode": "94965-290"
    },
    {
        "city": "Cachoeirinha",
        "state": "RS",
        "district": "Parque Marechal Rondon",
        "street": "Rua Iuguslávia",
        "zipcode": "94965-310"
    },
    {
        "city": "Cachoeirinha",
        "state": "RS",
        "district": "Jardim Betânia",
        "street": "Rua Imbé",
        "zipcode": "94970-500"
    },
    {
        "city": "Cachoeirinha",
        "state": "RS",
        "district": "Jardim Betânia",
        "street": "Rua Jardim do Édem",
        "zipcode": "94970-560"
    },
    {
        "city": "Cachoeirinha",
        "state": "RS",
        "district": "Sítio Ipiranga",
        "street": "Rua Imperador",
        "zipcode": "94970-240"
    },
    {
        "city": "Cachoeirinha",
        "state": "RS",
        "district": "Jardim Betânia",
        "street": "Rua Imara",
        "zipcode": "94970-510"
    },
    {
        "city": "Cachoeirinha",
        "state": "RS",
        "district": "Parque Granja Esperança",
        "street": "Rua André de Souza Dias",
        "zipcode": "94960-403"
    },
    {
        "city": "Cachoeirinha",
        "state": "RS",
        "district": "Jardim do Bosque",
        "street": "Rua Acácia",
        "zipcode": "94960-545"
    },
    {
        "city": "Cachoeirinha",
        "state": "RS",
        "district": "Jardim do Bosque",
        "street": "Rua Alamo",
        "zipcode": "94960-555"
    },
    {
        "city": "Cachoeirinha",
        "state": "RS",
        "district": "Parque Granja Esperança",
        "street": "Rua Ana Lui",
        "zipcode": "94960-050"
    },
    {
        "city": "Cachoeirinha",
        "state": "RS",
        "district": "Parque Granja Esperança",
        "street": "Rua Ângelo Rocha",
        "zipcode": "94960-060"
    },
    {
        "city": "Cachoeirinha",
        "state": "RS",
        "district": "Sítio Ipiranga",
        "street": "Estrada Sítio Ipiranga",
        "zipcode": "94970-380"
    },
    {
        "city": "Cachoeirinha",
        "state": "RS",
        "district": "Parque Granja Esperança",
        "street": "Rua Antônio Silveira Bento",
        "zipcode": "94960-080"
    },
    {
        "city": "Cachoeirinha",
        "state": "RS",
        "district": "Jardim Betânia",
        "street": "Rua Lami",
        "zipcode": "94970-600"
    },
    {
        "city": "Cachoeirinha",
        "state": "RS",
        "district": "Sítio Túnel Verde",
        "street": "Rua Kaufman",
        "zipcode": "94970-440"
    },
    {
        "city": "Cachoeirinha",
        "state": "RS",
        "district": "Parque Granja Esperança",
        "street": "Rua Osmar Silva de Oliveira",
        "zipcode": "94960-806"
    },
    {
        "city": "Cachoeirinha",
        "state": "RS",
        "district": "Parque Marechal Rondon",
        "street": "Rua Noruega",
        "zipcode": "94965-370"
    },
    {
        "city": "Cachoeirinha",
        "state": "RS",
        "district": "Parque Espírito Santo",
        "street": "Rua Nova França",
        "zipcode": "94965-630"
    },
    {
        "city": "Cachoeirinha",
        "state": "RS",
        "district": "Jardim Betânia",
        "street": "Rua Noiva do Mar",
        "zipcode": "94970-570"
    },
    {
        "city": "Cachoeirinha",
        "state": "RS",
        "district": "Jardim Betânia",
        "street": "Rua Oásis",
        "zipcode": "94970-660"
    },
    {
        "city": "Cachoeirinha",
        "state": "RS",
        "district": "Jardim Betânia",
        "street": "Rua Rainha do Mar",
        "zipcode": "94970-710"
    },
    {
        "city": "Cachoeirinha",
        "state": "RS",
        "district": "Jardim Betânia",
        "street": "Rua Mariluz",
        "zipcode": "94970-640"
    },
    {
        "city": "Cachoeirinha",
        "state": "RS",
        "district": "Jardim do Bosque",
        "street": "Rua Timbo",
        "zipcode": "94960-565"
    },
    {
        "city": "Cachoeirinha",
        "state": "RS",
        "district": "Parque Granja Esperança",
        "street": "Rua Sebaldo Bolzer",
        "zipcode": "94960-550"
    },
    {
        "city": "Cachoeirinha",
        "state": "RS",
        "district": "Parque Granja Esperança",
        "street": "Rua Maria Ana da Costa",
        "zipcode": "94960-800"
    },
    {
        "city": "Cachoeirinha",
        "state": "RS",
        "district": "Nova Cachoeirinha",
        "street": "Travessa Honduras",
        "zipcode": "94965-250"
    },
    {
        "city": "Cachoeirinha",
        "state": "RS",
        "district": "Parque Marechal Rondon",
        "street": "Rua Turquia (Vl Canarinho)",
        "zipcode": "94965-285"
    },
    {
        "city": "Cachoeirinha",
        "state": "RS",
        "district": "Parque Espírito Santo",
        "street": "Rua Servidão",
        "zipcode": "94965-450"
    },
    {
        "city": "Cachoeirinha",
        "state": "RS",
        "district": "Parque Espírito Santo",
        "street": "Rua Sapucaia do Sul",
        "zipcode": "94965-504"
    },
    {
        "city": "Cachoeirinha",
        "state": "RS",
        "district": "Vila Fátima",
        "street": "Rua Uruguai",
        "zipcode": "94965-540"
    },
    {
        "city": "Cachoeirinha",
        "state": "RS",
        "district": "Jardim Betânia",
        "street": "Rua Sereia do Mar",
        "zipcode": "94970-580"
    },
    {
        "city": "Cachoeirinha",
        "state": "RS",
        "district": "Meu Rincão",
        "street": "Rua Nova Pinheiros",
        "zipcode": "94970-300"
    },
    {
        "city": "Cachoeirinha",
        "state": "RS",
        "district": "Sítio Túnel Verde",
        "street": "Rua Tamanduá",
        "zipcode": "94970-420"
    },
    {
        "city": "Cachoeirinha",
        "state": "RS",
        "district": "Nova Cachoeirinha",
        "street": "Rua Canadá",
        "zipcode": "94965-070"
    },
    {
        "city": "Cachoeirinha",
        "state": "RS",
        "district": "Nova Cachoeirinha",
        "street": "Rua Colômbia",
        "zipcode": "94965-090"
    },
    {
        "city": "Cachoeirinha",
        "state": "RS",
        "district": "Meu Rincão",
        "street": "Rua Coqueiros",
        "zipcode": "94970-340"
    },
    {
        "city": "Cachoeirinha",
        "state": "RS",
        "district": "Jardim Betânia",
        "street": "Rua Líbero Badaró",
        "zipcode": "94970-815"
    },
    {
        "city": "Cachoeirinha",
        "state": "RS",
        "district": "Parque Granja Esperança",
        "street": "Rua Bernardino Freitas",
        "zipcode": "94960-100"
    },
    {
        "city": "Cachoeirinha",
        "state": "RS",
        "district": "Jardim do Bosque",
        "street": "Rua Aroeira",
        "zipcode": "94960-535"
    },
    {
        "city": "Cachoeirinha",
        "state": "RS",
        "district": "Jardim do Bosque",
        "street": "Rua Cipreste",
        "zipcode": "94960-557"
    },
    {
        "city": "Cachoeirinha",
        "state": "RS",
        "district": "Jardim do Bosque",
        "street": "Rua Batinga",
        "zipcode": "94960-562"
    },
    {
        "city": "Cachoeirinha",
        "state": "RS",
        "district": "Jardim do Bosque",
        "street": "Rua Cerejeira",
        "zipcode": "94960-572"
    },
    {
        "city": "Cachoeirinha",
        "state": "RS",
        "district": "Morada do Bosque",
        "street": "Rua Deli Silveira Nunes",
        "zipcode": "94960-866"
    },
    {
        "city": "Cachoeirinha",
        "state": "RS",
        "district": "Vila Fátima",
        "street": "Rua Deputado Manoel Gonçalves Júnior",
        "zipcode": "94965-530"
    },
    {
        "city": "Cachoeirinha",
        "state": "RS",
        "district": "Jardim do Bosque",
        "street": "Rua dos Plátanos",
        "zipcode": "94960-507"
    },
    {
        "city": "Cachoeirinha",
        "state": "RS",
        "district": "Jardim do Bosque",
        "street": "Rua Grevilha",
        "zipcode": "94960-477"
    },
    {
        "city": "Cachoeirinha",
        "state": "RS",
        "district": "Jardim do Bosque",
        "street": "Rua Grapia",
        "zipcode": "94960-582"
    },
    {
        "city": "Cachoeirinha",
        "state": "RS",
        "district": "Jardim do Bosque",
        "street": "Rua Guatambu",
        "zipcode": "94960-482"
    },
    {
        "city": "Cachoeirinha",
        "state": "RS",
        "district": "Parque Granja Esperança",
        "street": "Rua Ivan Carlos Paulo",
        "zipcode": "94960-310"
    },
    {
        "city": "Cachoeirinha",
        "state": "RS",
        "district": "Parque Granja Esperança",
        "street": "Rua Jamelão",
        "zipcode": "94960-412"
    },
    {
        "city": "Cachoeirinha",
        "state": "RS",
        "district": "Morada do Bosque",
        "street": "Rua Itália Dallanora Rocha",
        "zipcode": "94960-886"
    },
    {
        "city": "Cachoeirinha",
        "state": "RS",
        "district": "Sítio Túnel Verde",
        "street": "Rua Javali",
        "zipcode": "94970-410"
    },
    {
        "city": "Cachoeirinha",
        "state": "RS",
        "district": "Jardim Betânia",
        "street": "Rua Itapuã",
        "zipcode": "94970-540"
    },
    {
        "city": "Cachoeirinha",
        "state": "RS",
        "district": "Jardim Betânia",
        "street": "Rua Itapeva",
        "zipcode": "94970-764"
    },
    {
        "city": "Cachoeirinha",
        "state": "RS",
        "district": "Parque Granja Esperança",
        "street": "Avenida Senador Teotônio Brandão Vilela",
        "zipcode": "94960-570"
    },
    {
        "city": "Cachoeirinha",
        "state": "RS",
        "district": "Jardim do Bosque",
        "street": "Rua Alecrim",
        "zipcode": "94960-552"
    },
    {
        "city": "Cachoeirinha",
        "state": "RS",
        "district": "Morada do Bosque",
        "street": "Rua Alvício Ilustre de Souza",
        "zipcode": "94960-852"
    },
    {
        "city": "Cachoeirinha",
        "state": "RS",
        "district": "Morada do Bosque",
        "street": "Rua Adão Dias Portal",
        "zipcode": "94960-878"
    },
    {
        "city": "Cachoeirinha",
        "state": "RS",
        "district": "Jardim do Bosque",
        "street": "Rua Amoreira",
        "zipcode": "94960-547"
    },
    {
        "city": "Cachoeirinha",
        "state": "RS",
        "district": "Parque Granja Esperança",
        "street": "Rua Juscelino Kubitschek de Oliveira",
        "zipcode": "94960-370"
    },
    {
        "city": "Cachoeirinha",
        "state": "RS",
        "district": "Morada do Bosque",
        "street": "Rua José Ângelo Bernardo",
        "zipcode": "94960-863"
    },
    {
        "city": "Cachoeirinha",
        "state": "RS",
        "district": "Morada do Bosque",
        "street": "Rua José Goulart",
        "zipcode": "94960-868"
    },
    {
        "city": "Cachoeirinha",
        "state": "RS",
        "district": "Jardim Betânia",
        "street": "Rua Magistério",
        "zipcode": "94970-630"
    },
    {
        "city": "Cachoeirinha",
        "state": "RS",
        "district": "Jardim do Bosque",
        "street": "Rua Paineira",
        "zipcode": "94960-497"
    },
    {
        "city": "Cachoeirinha",
        "state": "RS",
        "district": "Parque Granja Esperança",
        "street": "Rua República do Piratini",
        "zipcode": "94960-520"
    },
    {
        "city": "Cachoeirinha",
        "state": "RS",
        "district": "Parque Granja Esperança",
        "street": "Rua Paraíso",
        "zipcode": "94960-640"
    },
    {
        "city": "Cachoeirinha",
        "state": "RS",
        "district": "Parque Granja Esperança",
        "street": "Rua Manoel Selau",
        "zipcode": "94960-816"
    },
    {
        "city": "Cachoeirinha",
        "state": "RS",
        "district": "Morada do Bosque",
        "street": "Rua Otto Espíndola",
        "zipcode": "94960-842"
    },
    {
        "city": "Cachoeirinha",
        "state": "RS",
        "district": "Nova Cachoeirinha",
        "street": "Rua Nicarágua",
        "zipcode": "94965-015"
    },
    {
        "city": "Cachoeirinha",
        "state": "RS",
        "district": "Nova Cachoeirinha",
        "street": "Rua Pinhal",
        "zipcode": "94965-160"
    },
    {
        "city": "Cachoeirinha",
        "state": "RS",
        "district": "Parque Espírito Santo",
        "street": "Rua Nova Espanha",
        "zipcode": "94965-620"
    },
    {
        "city": "Cachoeirinha",
        "state": "RS",
        "district": "Sítio Ipiranga",
        "street": "Rua Marquesa de Santos",
        "zipcode": "94970-200"
    },
    {
        "city": "Cachoeirinha",
        "state": "RS",
        "district": "Sítio Ipiranga",
        "street": "Rua Regência",
        "zipcode": "94970-230"
    },
    {
        "city": "Cachoeirinha",
        "state": "RS",
        "district": "Vila Fátima",
        "street": "Rua Petri",
        "zipcode": "94965-550"
    },
    {
        "city": "Cachoeirinha",
        "state": "RS",
        "district": "Parque Granja Esperança",
        "street": "Rua Vereador Mário Rosa",
        "zipcode": "94960-580"
    },
    {
        "city": "Cachoeirinha",
        "state": "RS",
        "district": "Parque Marechal Rondon",
        "street": "Travessa dos Tucanos",
        "zipcode": "94965-035"
    },
    {
        "city": "Cachoeirinha",
        "state": "RS",
        "district": "Parque da Matriz",
        "street": "Rua Nilton Teixeira",
        "zipcode": "94950-410"
    },
    {
        "city": "Cachoeirinha",
        "state": "RS",
        "district": "Parque Granja Esperança",
        "street": "Rua Padre Geremias",
        "zipcode": "94960-427"
    },
    {
        "city": "Cachoeirinha",
        "state": "RS",
        "district": "Jardim Betânia",
        "street": "Rua Salinas",
        "zipcode": "94970-730"
    },
    {
        "city": "Cachoeirinha",
        "state": "RS",
        "district": "Jardim Betânia",
        "street": "Rua Verde Mar",
        "zipcode": "94970-756"
    },
    {
        "city": "Cachoeirinha",
        "state": "RS",
        "district": "Vila Fátima",
        "street": "Rua Aquino",
        "zipcode": "94965-560"
    },
    {
        "city": "Cachoeirinha",
        "state": "RS",
        "district": "Parque Espírito Santo",
        "street": "Travessa Rio Grande do Sul",
        "zipcode": "94965-500"
    },
    {
        "city": "Cachoeirinha",
        "state": "RS",
        "district": "Parque Espírito Santo",
        "street": "Travessa Santa Rita",
        "zipcode": "94965-505"
    },
    {
        "city": "Cachoeirinha",
        "state": "RS",
        "district": "Vila Fátima",
        "street": "Travessa do Povo",
        "zipcode": "94965-575"
    },
    {
        "city": "Cachoeirinha",
        "state": "RS",
        "district": "Parque Granja Esperança",
        "street": "Rua Palmito",
        "zipcode": "94960-720"
    },
    {
        "city": "Cachoeirinha",
        "state": "RS",
        "district": "Morada do Bosque",
        "street": "Rua Aristides Osório Francisco",
        "zipcode": "94960-862"
    },
    {
        "city": "Cachoeirinha",
        "state": "RS",
        "district": "Nova Cachoeirinha",
        "street": "Rua Argentina",
        "zipcode": "94965-010"
    },
    {
        "city": "Cachoeirinha",
        "state": "RS",
        "district": "Nova Cachoeirinha",
        "street": "Rua Áustria",
        "zipcode": "94965-020"
    },
    {
        "city": "Cachoeirinha",
        "state": "RS",
        "district": "Parque Marechal Rondon",
        "street": "Rua Bélgica",
        "zipcode": "94965-030"
    },
    {
        "city": "Cachoeirinha",
        "state": "RS",
        "district": "Parque Espírito Santo",
        "street": "Rua Borges de Medeiros",
        "zipcode": "94965-050"
    },
    {
        "city": "Cachoeirinha",
        "state": "RS",
        "district": "Jardim Betânia",
        "street": "Rua Atlântida",
        "zipcode": "94970-680"
    },
    {
        "city": "Cachoeirinha",
        "state": "RS",
        "district": "Jardim do Bosque",
        "street": "Rua Pinheiro",
        "zipcode": "94960-437"
    },
    {
        "city": "Cachoeirinha",
        "state": "RS",
        "district": "Jardim do Bosque",
        "street": "Rua Araticum",
        "zipcode": "94960-542"
    },
    {
        "city": "Cachoeirinha",
        "state": "RS",
        "district": "Jardim do Bosque",
        "street": "Rua Corticeira",
        "zipcode": "94960-465"
    },
    {
        "city": "Cachoeirinha",
        "state": "RS",
        "district": "Vila Fátima",
        "street": "Rua Ceará",
        "zipcode": "94955-090"
    },
    {
        "city": "Cachoeirinha",
        "state": "RS",
        "district": "Parque Granja Esperança",
        "street": "Rua das Camélias",
        "zipcode": "94960-110"
    },
    {
        "city": "Cachoeirinha",
        "state": "RS",
        "district": "Parque da Matriz",
        "street": "Rua Flamengo",
        "zipcode": "94950-130"
    },
    {
        "city": "Cachoeirinha",
        "state": "RS",
        "district": "Parque Granja Esperança",
        "street": "Rua Fidel Zanchetta",
        "zipcode": "94960-210"
    },
    {
        "city": "Cachoeirinha",
        "state": "RS",
        "district": "Parque Marechal Rondon",
        "street": "Rua Domingos Signore",
        "zipcode": "94965-580"
    },
    {
        "city": "Cachoeirinha",
        "state": "RS",
        "district": "Jardim do Bosque",
        "street": "Rua Hortênsia (Nsa Sra Navegantes)",
        "zipcode": "94960-527"
    },
    {
        "city": "Cachoeirinha",
        "state": "RS",
        "district": "Morada do Bosque",
        "street": "Rua Gentil Teixeira de Mendonça",
        "zipcode": "94960-832"
    },
    {
        "city": "Cachoeirinha",
        "state": "RS",
        "district": "Jardim do Bosque",
        "street": "Rua Grandiuva",
        "zipcode": "94960-487"
    },
    {
        "city": "Cachoeirinha",
        "state": "RS",
        "district": "Nova Esperança",
        "street": "Rua Gavião (Vl N Canarinho)",
        "zipcode": "94967-080"
    },
    {
        "city": "Cachoeirinha",
        "state": "RS",
        "district": "Jardim do Bosque",
        "street": "Rua Goiabeira",
        "zipcode": "94960-492"
    },
    {
        "city": "Cachoeirinha",
        "state": "RS",
        "district": "Parque Granja Esperança",
        "street": "Rua Florentina de Souza Rodrigues",
        "zipcode": "94960-808"
    },
    {
        "city": "Cachoeirinha",
        "state": "RS",
        "district": "Morada do Bosque",
        "street": "Rua Jorge Plínio Silva de Souza",
        "zipcode": "94960-870"
    },
    {
        "city": "Cachoeirinha",
        "state": "RS",
        "district": "Parque da Matriz",
        "street": "Rua Anápolis",
        "zipcode": "94950-552"
    },
    {
        "city": "Cachoeirinha",
        "state": "RS",
        "district": "Vila Anair",
        "street": "Beco do Silva",
        "zipcode": "94955-332"
    },
    {
        "city": "Cachoeirinha",
        "state": "RS",
        "district": "Vila Anair",
        "street": "Rua Agudo",
        "zipcode": "94955-560"
    },
    {
        "city": "Cachoeirinha",
        "state": "RS",
        "district": "Parque Granja Esperança",
        "street": "Rua Alcides Mendes",
        "zipcode": "94960-030"
    },
    {
        "city": "Cachoeirinha",
        "state": "RS",
        "district": "Vila Vista Alegre",
        "street": "Rua José do Patrocínio",
        "zipcode": "94945-280"
    },
    {
        "city": "Cachoeirinha",
        "state": "RS",
        "district": "Vila Vista Alegre",
        "street": "Rua Lindóia",
        "zipcode": "94945-340"
    },
    {
        "city": "Cachoeirinha",
        "state": "RS",
        "district": "Ponta Porã",
        "street": "Rua José Carlos da Silva",
        "zipcode": "94935-340"
    },
    {
        "city": "Cachoeirinha",
        "state": "RS",
        "district": "Parque Granja Esperança",
        "street": "Rua José de Alencar",
        "zipcode": "94960-186"
    },
    {
        "city": "Cachoeirinha",
        "state": "RS",
        "district": "Morada do Bosque",
        "street": "Rua Lourdes Helena Dias",
        "zipcode": "94960-837"
    },
    {
        "city": "Cachoeirinha",
        "state": "RS",
        "district": "Morada do Bosque",
        "street": "Rua Leonelo Mafassioli",
        "zipcode": "94960-850"
    },
    {
        "city": "Cachoeirinha",
        "state": "RS",
        "district": "Parque Espírito Santo",
        "street": "Rua Nova Holanda",
        "zipcode": "94965-600"
    },
    {
        "city": "Cachoeirinha",
        "state": "RS",
        "district": "Vila Vista Alegre",
        "street": "Travessa do Rosário",
        "zipcode": "94945-500"
    },
    {
        "city": "Cachoeirinha",
        "state": "RS",
        "district": "Vila Vista Alegre",
        "street": "Rua Sete Quedas",
        "zipcode": "94945-520"
    },
    {
        "city": "Cachoeirinha",
        "state": "RS",
        "district": "Vila Vista Alegre",
        "street": "Travessa Brasil",
        "zipcode": "94945-582"
    },
    {
        "city": "Cachoeirinha",
        "state": "RS",
        "district": "Vila Bom Princípio",
        "street": "Rua Salgueiro",
        "zipcode": "94950-380"
    },
    {
        "city": "Cachoeirinha",
        "state": "RS",
        "district": "Parque da Matriz",
        "street": "Rua Rio Claro",
        "zipcode": "94950-450"
    },
    {
        "city": "Cachoeirinha",
        "state": "RS",
        "district": "Parque da Matriz",
        "street": "Rua Natalício Alves",
        "zipcode": "94950-837"
    },
    {
        "city": "Cachoeirinha",
        "state": "RS",
        "district": "Vila Fátima",
        "street": "Rua Pernambuco",
        "zipcode": "94955-310"
    },
    {
        "city": "Cachoeirinha",
        "state": "RS",
        "district": "Vila Fátima",
        "street": "Rua Rio Grande do Norte",
        "zipcode": "94955-350"
    },
    {
        "city": "Cachoeirinha",
        "state": "RS",
        "district": "Vila Anair",
        "street": "Rua Rondônia",
        "zipcode": "94955-360"
    },
    {
        "city": "Cachoeirinha",
        "state": "RS",
        "district": "Vila Fátima",
        "street": "Rua Santa Catarina",
        "zipcode": "94955-400"
    },
    {
        "city": "Cachoeirinha",
        "state": "RS",
        "district": "Parque da Matriz",
        "street": "Rua Roseli Nunes",
        "zipcode": "94950-750"
    },
    {
        "city": "Cachoeirinha",
        "state": "RS",
        "district": "Parque da Matriz",
        "street": "Rua Zulmira Rodrigues da Silva",
        "zipcode": "94950-827"
    },
    {
        "city": "Cachoeirinha",
        "state": "RS",
        "district": "Parque da Matriz",
        "street": "Rua Barão de Cotegipe",
        "zipcode": "94950-050"
    },
    {
        "city": "Cachoeirinha",
        "state": "RS",
        "district": "Morada do Bosque",
        "street": "Rua Cicília Pedroso dos Santos",
        "zipcode": "94960-881"
    },
    {
        "city": "Cachoeirinha",
        "state": "RS",
        "district": "Vila Bom Princípio",
        "street": "Rua Santa Inês",
        "zipcode": "94950-390"
    },
    {
        "city": "Cachoeirinha",
        "state": "RS",
        "district": "Morada do Bosque",
        "street": "Rua Carlos Adão Azes de Almeida",
        "zipcode": "94960-883"
    },
    {
        "city": "Cachoeirinha",
        "state": "RS",
        "district": "Parque Marechal Rondon",
        "street": "Travessa Maciel",
        "zipcode": "94965-465"
    },
    {
        "city": "Cachoeirinha",
        "state": "RS",
        "district": "Nova Esperança",
        "street": "Rua Bem",
        "zipcode": "94967-000"
    },
    {
        "city": "Cachoeirinha",
        "state": "RS",
        "district": "Parque da Matriz",
        "street": "Rua Monteiro Lobato",
        "zipcode": "94950-280"
    },
    {
        "city": "Cachoeirinha",
        "state": "RS",
        "district": "Parque da Matriz",
        "street": "Rua Bonsucesso",
        "zipcode": "94950-490"
    },
    {
        "city": "Cachoeirinha",
        "state": "RS",
        "district": "Parque da Matriz",
        "street": "Rua Candeias",
        "zipcode": "94950-530"
    },
    {
        "city": "Cachoeirinha",
        "state": "RS",
        "district": "Parque da Matriz",
        "street": "Rua Corcovado",
        "zipcode": "94950-550"
    },
    {
        "city": "Cachoeirinha",
        "state": "RS",
        "district": "Vila Anair",
        "street": "Rua Uruguaiana",
        "zipcode": "94955-210"
    },
    {
        "city": "Cachoeirinha",
        "state": "RS",
        "district": "Vila Anair",
        "street": "Rua Caiçara",
        "zipcode": "94955-630"
    },
    {
        "city": "Cachoeirinha",
        "state": "RS",
        "district": "Vila Anair",
        "street": "Rua Rolante",
        "zipcode": "94955-750"
    },
    {
        "city": "Cachoeirinha",
        "state": "RS",
        "district": "Parque Granja Esperança",
        "street": "Rua Beno Niderauer",
        "zipcode": "94960-090"
    },
    {
        "city": "Cachoeirinha",
        "state": "RS",
        "district": "Parque da Matriz",
        "street": "Rua Pacaembu",
        "zipcode": "94950-320"
    },
    {
        "city": "Cachoeirinha",
        "state": "RS",
        "district": "Parque da Matriz",
        "street": "Rua Copacabana",
        "zipcode": "94950-575"
    },
    {
        "city": "Cachoeirinha",
        "state": "RS",
        "district": "Jardim do Bosque",
        "street": "Rua Caqui",
        "zipcode": "94960-512"
    },
    {
        "city": "Cachoeirinha",
        "state": "RS",
        "district": "Chácara das Rosas",
        "street": "Rua Brinco de Princesa",
        "zipcode": "94967-392"
    },
    {
        "city": "Cachoeirinha",
        "state": "RS",
        "district": "Chácara das Rosas",
        "street": "Rua Bromélia",
        "zipcode": "94967-477"
    },
    {
        "city": "Cachoeirinha",
        "state": "RS",
        "district": "Parque da Matriz",
        "street": "Rua Delcio José Cordova",
        "zipcode": "94950-847"
    },
    {
        "city": "Cachoeirinha",
        "state": "RS",
        "district": "Chácara das Rosas",
        "street": "Rua Dália",
        "zipcode": "94967-470"
    },
    {
        "city": "Cachoeirinha",
        "state": "RS",
        "district": "City",
        "street": "Rua Dona Cecília",
        "zipcode": "94935-130"
    },
    {
        "city": "Cachoeirinha",
        "state": "RS",
        "district": "Vila Vista Alegre",
        "street": "Rua dos Gaúchos",
        "zipcode": "94945-230"
    },
    {
        "city": "Cachoeirinha",
        "state": "RS",
        "district": "Jardim Conquista",
        "street": "Rua G",
        "zipcode": "94930-763"
    },
    {
        "city": "Cachoeirinha",
        "state": "RS",
        "district": "Jardim Conquista",
        "street": "Rua H",
        "zipcode": "94930-765"
    },
    {
        "city": "Cachoeirinha",
        "state": "RS",
        "district": "Ponta Porã",
        "street": "Rua Honório Lemos",
        "zipcode": "94935-240"
    },
    {
        "city": "Cachoeirinha",
        "state": "RS",
        "district": "Vila Monte Carlo",
        "street": "Rua Guaianá",
        "zipcode": "94940-110"
    },
    {
        "city": "Cachoeirinha",
        "state": "RS",
        "district": "Chácara das Rosas",
        "street": "Rua Gota de Orvalho",
        "zipcode": "94967-394"
    },
    {
        "city": "Cachoeirinha",
        "state": "RS",
        "district": "Chácara das Rosas",
        "street": "Rua Gardênia",
        "zipcode": "94967-433"
    },
    {
        "city": "Cachoeirinha",
        "state": "RS",
        "district": "Jardim do Bosque",
        "street": "Rua Flor",
        "zipcode": "94960-525"
    },
    {
        "city": "Cachoeirinha",
        "state": "RS",
        "district": "Chácara das Rosas",
        "street": "Rua Flor",
        "zipcode": "94967-455"
    },
    {
        "city": "Cachoeirinha",
        "state": "RS",
        "district": "COHAB",
        "street": "Rua Jacob Vontobel",
        "zipcode": "94935-290"
    },
    {
        "city": "Cachoeirinha",
        "state": "RS",
        "district": "COHAB",
        "street": "Rua Joaquim Nabuco",
        "zipcode": "94935-330"
    },
    {
        "city": "Cachoeirinha",
        "state": "RS",
        "district": "Parque Granja Esperança",
        "street": "Rua Ipê",
        "zipcode": "94960-395"
    },
    {
        "city": "Cachoeirinha",
        "state": "RS",
        "district": "Vila Bom Princípio",
        "street": "Rua Itaberaba",
        "zipcode": "94950-180"
    },
    {
        "city": "Cachoeirinha",
        "state": "RS",
        "district": "Chácara das Rosas",
        "street": "Rua Jasmim",
        "zipcode": "94967-460"
    },
    {
        "city": "Cachoeirinha",
        "state": "RS",
        "district": "Vila Anair",
        "street": "Beco do João",
        "zipcode": "94955-494"
    },
    {
        "city": "Cachoeirinha",
        "state": "RS",
        "district": "Vila Vista Alegre",
        "street": "Rua Abrahão Lincoln",
        "zipcode": "94945-010"
    },
    {
        "city": "Cachoeirinha",
        "state": "RS",
        "district": "Vila Anair",
        "street": "Beco Esperança",
        "zipcode": "94955-367"
    },
    {
        "city": "Cachoeirinha",
        "state": "RS",
        "district": "Morada do Bosque",
        "street": "Rua Adelaide Helegda Rolim de Moura",
        "zipcode": "94960-844"
    },
    {
        "city": "Cachoeirinha",
        "state": "RS",
        "district": "Chácara das Rosas",
        "street": "Rua Alfazema",
        "zipcode": "94967-396"
    },
    {
        "city": "Cachoeirinha",
        "state": "RS",
        "district": "Chácara das Rosas",
        "street": "Rua Amor",
        "zipcode": "94967-445"
    },
    {
        "city": "Cachoeirinha",
        "state": "RS",
        "district": "Morada do Bosque",
        "street": "Rua Lotário Orlando Diel Martinez",
        "zipcode": "94960-880"
    },
    {
        "city": "Cachoeirinha",
        "state": "RS",
        "district": "Chácara das Rosas",
        "street": "Rua Lírio",
        "zipcode": "94967-435"
    },
    {
        "city": "Cachoeirinha",
        "state": "RS",
        "district": "Chácara das Rosas",
        "street": "Rua Magnólia",
        "zipcode": "94967-437"
    },
    {
        "city": "Cachoeirinha",
        "state": "RS",
        "district": "Jardim do Bosque",
        "street": "Rua Quaresmeira",
        "zipcode": "94960-452"
    },
    {
        "city": "Cachoeirinha",
        "state": "RS",
        "district": "Parque Granja Esperança",
        "street": "Rua Professora Lígia Irene Silveira Luz",
        "zipcode": "94960-052"
    },
    {
        "city": "Cachoeirinha",
        "state": "RS",
        "district": "Chácara das Rosas",
        "street": "Rua Orquídea",
        "zipcode": "94967-450"
    },
    {
        "city": "Cachoeirinha",
        "state": "RS",
        "district": "Jardim Betânia",
        "street": "Rua Pereira Pinto",
        "zipcode": "94970-810"
    },
    {
        "city": "Cachoeirinha",
        "state": "RS",
        "district": "Vila Vista Alegre",
        "street": "Travessa Antônio Nunes",
        "zipcode": "94945-040"
    },
    {
        "city": "Cachoeirinha",
        "state": "RS",
        "district": "Vila Princesa Izabel",
        "street": "Travessa Clovis Barboza da Silva",
        "zipcode": "94940-037"
    },
    {
        "city": "Cachoeirinha",
        "state": "RS",
        "district": "Vila Vista Alegre",
        "street": "Travessa Fernando Machado",
        "zipcode": "94945-190"
    },
    {
        "city": "Cachoeirinha",
        "state": "RS",
        "district": "Parque Marechal Rondon",
        "street": "Travessa do Arvoredo",
        "zipcode": "94965-037"
    },
    {
        "city": "Cachoeirinha",
        "state": "RS",
        "district": "Jardim Betânia",
        "street": "Rua Clara Nunes",
        "zipcode": "94970-805"
    },
    {
        "city": "Cachoeirinha",
        "state": "RS",
        "district": "Chácara das Rosas",
        "street": "Rua Cravo",
        "zipcode": "94967-473"
    },
    {
        "city": "Cachoeirinha",
        "state": "RS",
        "district": "Chácara das Rosas",
        "street": "Rua Coroa Imperial",
        "zipcode": "94967-475"
    },
    {
        "city": "Cachoeirinha",
        "state": "RS",
        "district": "Nova Esperança",
        "street": "Rua Pardal",
        "zipcode": "94967-110"
    },
    {
        "city": "Cachoeirinha",
        "state": "RS",
        "district": "Chácara das Rosas",
        "street": "Rua Boca de Leão",
        "zipcode": "94967-465"
    },
    {
        "city": "Cachoeirinha",
        "state": "RS",
        "district": "Vila Vista Alegre",
        "street": "Rua Colibri",
        "zipcode": "94945-670"
    },
    {
        "city": "Cachoeirinha",
        "state": "RS",
        "district": "Vila Parque Brasília",
        "street": "Rua Osório Correia",
        "zipcode": "94935-460"
    },
    {
        "city": "Cachoeirinha",
        "state": "RS",
        "district": "COHAB",
        "street": "Rua Samuel Madureira Coelho",
        "zipcode": "94935-590"
    },
    {
        "city": "Cachoeirinha",
        "state": "RS",
        "district": "COHAB",
        "street": "Rua São Luiz",
        "zipcode": "94935-680"
    },
    {
        "city": "Cachoeirinha",
        "state": "RS",
        "district": "City",
        "street": "Rua Vereador Ivo Pereira",
        "zipcode": "94935-799"
    },
    {
        "city": "Cachoeirinha",
        "state": "RS",
        "district": "Vila Monte Carlo",
        "street": "Rua Cariri",
        "zipcode": "94940-050"
    },
    {
        "city": "Cachoeirinha",
        "state": "RS",
        "district": "COHAB",
        "street": "Rua Santiago (Vl City Nova)",
        "zipcode": "94935-620"
    },
    {
        "city": "Cachoeirinha",
        "state": "RS",
        "district": "City",
        "street": "Rua Santo Antônio (Vl City Velha)",
        "zipcode": "94935-630"
    },
    {
        "city": "Cachoeirinha",
        "state": "RS",
        "district": "Vila Vista Alegre",
        "street": "Rua Assunção",
        "zipcode": "94945-090"
    },
    {
        "city": "Cachoeirinha",
        "state": "RS",
        "district": "Jardim Vitória",
        "street": "Rua Olegário Ramiro Beck",
        "zipcode": "94930-740"
    },
    {
        "city": "Cachoeirinha",
        "state": "RS",
        "district": "Vila Regina",
        "street": "Rua Padre Reus",
        "zipcode": "94930-460"
    },
    {
        "city": "Cachoeirinha",
        "state": "RS",
        "district": "Vila City",
        "street": "Avenida Francisco Brochado da Rocha",
        "zipcode": "94901-971"
    },
    {
        "city": "Cachoeirinha",
        "state": "RS",
        "district": "Distrito Industrial",
        "street": "Avenida das Indústrias",
        "zipcode": "94930-970"
    },
    {
        "city": "Cachoeirinha",
        "state": "RS",
        "district": "Parque Marechal Rondon",
        "street": "Rua Dinamarca",
        "zipcode": "94965-100"
    },
    {
        "city": "Cachoeirinha",
        "state": "RS",
        "district": "Sítio Ipiranga",
        "street": "Rua da República",
        "zipcode": "94970-220"
    },
    {
        "city": "Cachoeirinha",
        "state": "RS",
        "district": "Chácara das Rosas",
        "street": "Rua Dormideira",
        "zipcode": "94967-384"
    },
    {
        "city": "Cachoeirinha",
        "state": "RS",
        "district": "Parque da Matriz",
        "street": "Rua Fraga",
        "zipcode": "94950-140"
    },
    {
        "city": "Cachoeirinha",
        "state": "RS",
        "district": "Parque Espírito Santo",
        "street": "Rua Grécia",
        "zipcode": "94965-200"
    },
    {
        "city": "Cachoeirinha",
        "state": "RS",
        "district": "Chácara das Rosas",
        "street": "Rua Flor de Lótus",
        "zipcode": "94967-453"
    },
    {
        "city": "Cachoeirinha",
        "state": "RS",
        "district": "Sítio Túnel Verde",
        "street": "Rua Guará",
        "zipcode": "94970-430"
    },
    {
        "city": "Cachoeirinha",
        "state": "RS",
        "district": "Nova Cachoeirinha",
        "street": "Rua Japão",
        "zipcode": "94965-195"
    },
    {
        "city": "Cachoeirinha",
        "state": "RS",
        "district": "Chácara das Rosas",
        "street": "Rua Jade Vermelha",
        "zipcode": "94967-348"
    },
    {
        "city": "Cachoeirinha",
        "state": "RS",
        "district": "Chácara das Rosas",
        "street": "Rua Íris Azul",
        "zipcode": "94967-368"
    },
    {
        "city": "Cachoeirinha",
        "state": "RS",
        "district": "Cedic",
        "street": "Rua Ítalo Raffo",
        "zipcode": "94930-240"
    },
    {
        "city": "Cachoeirinha",
        "state": "RS",
        "district": "Jardim Betânia",
        "street": "Beco da Sereia",
        "zipcode": "94970-633"
    },
    {
        "city": "Cachoeirinha",
        "state": "RS",
        "district": "Vila Jardim América",
        "street": "Largo dos Müller",
        "zipcode": "94920-420"
    },
    {
        "city": "Cachoeirinha",
        "state": "RS",
        "district": "Distrito Industrial",
        "street": "Estrada Antônio José do Nascimento",
        "zipcode": "94930-090"
    },
    {
        "city": "Cachoeirinha",
        "state": "RS",
        "district": "Cedic",
        "street": "Beco Sesi",
        "zipcode": "94930-390"
    },
    {
        "city": "Cachoeirinha",
        "state": "RS",
        "district": "Distrito Industrial",
        "street": "Estrada Manoel José do Nascimento (Águas Mortas)",
        "zipcode": "94930-340"
    },
    {
        "city": "Cachoeirinha",
        "state": "RS",
        "district": "Vila Cachoeirinha",
        "street": "Rua José de Medeiros",
        "zipcode": "94910-140"
    },
    {
        "city": "Cachoeirinha",
        "state": "RS",
        "district": "Chácara das Rosas",
        "street": "Rua Lavanda",
        "zipcode": "94967-360"
    },
    {
        "city": "Cachoeirinha",
        "state": "RS",
        "district": "Jardim Betânia",
        "street": "Rua Laranjal",
        "zipcode": "94970-610"
    },
    {
        "city": "Cachoeirinha",
        "state": "RS",
        "district": "Parque Espírito Santo",
        "street": "Rua Manoel Inácio Nunes",
        "zipcode": "94965-340"
    },
    {
        "city": "Cachoeirinha",
        "state": "RS",
        "district": "Chácara das Rosas",
        "street": "Rua Prímula",
        "zipcode": "94967-366"
    },
    {
        "city": "Cachoeirinha",
        "state": "RS",
        "district": "Jardim Betânia",
        "street": "Rua Quintão",
        "zipcode": "94970-700"
    },
    {
        "city": "Cachoeirinha",
        "state": "RS",
        "district": "Jardim Betânia",
        "street": "Rua Nova Rondinha",
        "zipcode": "94970-754"
    },
    {
        "city": "Cachoeirinha",
        "state": "RS",
        "district": "Parque Marechal Rondon",
        "street": "Rua Nova Bélgica",
        "zipcode": "94965-590"
    },
    {
        "city": "Cachoeirinha",
        "state": "RS",
        "district": "Parque da Matriz",
        "street": "Rua Petrópolis",
        "zipcode": "94950-500"
    },
    {
        "city": "Cachoeirinha",
        "state": "RS",
        "district": "Nova Esperança",
        "street": "Travessa Sabiá Una",
        "zipcode": "94967-097"
    },
    {
        "city": "Cachoeirinha",
        "state": "RS",
        "district": "Vila Fátima",
        "street": "Rua Rio de Janeiro",
        "zipcode": "94965-410"
    },
    {
        "city": "Cachoeirinha",
        "state": "RS",
        "district": "Chácara das Rosas",
        "street": "Rua Zínia",
        "zipcode": "94967-358"
    },
    {
        "city": "Cachoeirinha",
        "state": "RS",
        "district": "Chácara das Rosas",
        "street": "Rua Pingo de Ouro",
        "zipcode": "94967-386"
    },
    {
        "city": "Cachoeirinha",
        "state": "RS",
        "district": "Jardim Betânia",
        "street": "Travessa da Sereia",
        "zipcode": "94970-615"
    },
    {
        "city": "Cachoeirinha",
        "state": "RS",
        "district": "Sítio Túnel Verde",
        "street": "Rua Túnel Verde",
        "zipcode": "94970-450"
    },
    {
        "city": "Cachoeirinha",
        "state": "RS",
        "district": "Jardim Betânia",
        "street": "Rua Nova Imbé",
        "zipcode": "94970-768"
    },
    {
        "city": "Cachoeirinha",
        "state": "RS",
        "district": "Parque Espírito Santo",
        "street": "Rua Bento Gonçalves",
        "zipcode": "94965-405"
    },
    {
        "city": "Cachoeirinha",
        "state": "RS",
        "district": "Nova Cachoeirinha",
        "street": "Rua Venezuela",
        "zipcode": "94965-470"
    },
    {
        "city": "Cachoeirinha",
        "state": "RS",
        "district": "Vila Márcia",
        "street": "Rua Moisés Santos",
        "zipcode": "94930-410"
    },
    {
        "city": "Cachoeirinha",
        "state": "RS",
        "district": "Nova Cachoeirinha",
        "street": "Rua Bolívia",
        "zipcode": "94965-040"
    },
    {
        "city": "Cachoeirinha",
        "state": "RS",
        "district": "Nova Cachoeirinha",
        "street": "Travessa Paraná",
        "zipcode": "94965-510"
    },
    {
        "city": "Cachoeirinha",
        "state": "RS",
        "district": "Chácara das Rosas",
        "street": "Rua Coroa de Cristo",
        "zipcode": "94967-356"
    },
    {
        "city": "Cachoeirinha",
        "state": "RS",
        "district": "Jardim Betânia",
        "street": "Rua Areias Brancas",
        "zipcode": "94970-550"
    },
    {
        "city": "Cachoeirinha",
        "state": "RS",
        "district": "Jardim Betânia",
        "street": "Rua Armação",
        "zipcode": "94970-575"
    },
    {
        "city": "Cachoeirinha",
        "state": "RS",
        "district": "Jardim Betânia",
        "street": "Rua Arroio Teixeira",
        "zipcode": "94970-690"
    },
    {
        "city": "Cachoeirinha",
        "state": "RS",
        "district": "COHAB",
        "street": "Rua Bruno Carlos Müller",
        "zipcode": "94935-090"
    },
    {
        "city": "Cachoeirinha",
        "state": "RS",
        "district": "Vila Jardim América",
        "street": "Travessa Marinha",
        "zipcode": "94920-384"
    },
    {
        "city": "Cachoeirinha",
        "state": "RS",
        "district": "Vila Jardim América",
        "street": "Travessa Piratini",
        "zipcode": "94920-470"
    },
    {
        "city": "Cachoeirinha",
        "state": "RS",
        "district": "Vila Mauá",
        "street": "Rua São Francisco",
        "zipcode": "94920-570"
    },
    {
        "city": "Cachoeirinha",
        "state": "RS",
        "district": "Vila Mauá",
        "street": "Rua São Roque",
        "zipcode": "94920-600"
    },
    {
        "city": "Cachoeirinha",
        "state": "RS",
        "district": "Vila Márcia",
        "street": "Rua Olavo Freitas",
        "zipcode": "94930-440"
    },
    {
        "city": "Cachoeirinha",
        "state": "RS",
        "district": "Cruzeiro",
        "street": "Rua Nelson Teichmann",
        "zipcode": "94930-625"
    },
    {
        "city": "Cachoeirinha",
        "state": "RS",
        "district": "Vila Cachoeirinha",
        "street": "Rua Timótheo Antônio de Souza",
        "zipcode": "94910-230"
    },
    {
        "city": "Cachoeirinha",
        "state": "RS",
        "district": "Vila Eunice Velha",
        "street": "Rua Arlindo Ferreira Soares",
        "zipcode": "94920-020"
    },
    {
        "city": "Cachoeirinha",
        "state": "RS",
        "district": "Ponta Porã",
        "street": "Rua Emílio José Martins",
        "zipcode": "94935-150"
    },
    {
        "city": "Cachoeirinha",
        "state": "RS",
        "district": "Parque da Matriz",
        "street": "Rua Domingos Dorivaldo Thiesen",
        "zipcode": "94950-590"
    },
    {
        "city": "Cachoeirinha",
        "state": "RS",
        "district": "Vila Bom Princípio",
        "street": "Rua Ernesto Che Guevara",
        "zipcode": "94950-725"
    },
    {
        "city": "Cachoeirinha",
        "state": "RS",
        "district": "Parque Granja Esperança",
        "street": "Rua Eugênio Monteiro",
        "zipcode": "94960-200"
    },
    {
        "city": "Cachoeirinha",
        "state": "RS",
        "district": "Parque Granja Esperança",
        "street": "Rua Ema Borges dos Santos",
        "zipcode": "94960-140"
    },
    {
        "city": "Cachoeirinha",
        "state": "RS",
        "district": "Parque da Matriz",
        "street": "Rua Francisco Dimer Raupp",
        "zipcode": "94950-840"
    },
    {
        "city": "Cachoeirinha",
        "state": "RS",
        "district": "Parque Granja Esperança",
        "street": "Rua Getúlio Vargas",
        "zipcode": "94960-270"
    },
    {
        "city": "Cachoeirinha",
        "state": "RS",
        "district": "Jardim do Bosque",
        "street": "Rua Guajuvira",
        "zipcode": "94960-455"
    },
    {
        "city": "Cachoeirinha",
        "state": "RS",
        "district": "Jardim do Bosque",
        "street": "Rua Guabirobeira",
        "zipcode": "94960-475"
    },
    {
        "city": "Cachoeirinha",
        "state": "RS",
        "district": "Jardim do Bosque",
        "street": "Rua Guabiju",
        "zipcode": "94960-442"
    },
    {
        "city": "Cachoeirinha",
        "state": "RS",
        "district": "Vila Eunice Velha",
        "street": "Avenida João Pessoa",
        "zipcode": "94920-340"
    },
    {
        "city": "Cachoeirinha",
        "state": "RS",
        "district": "Cruzeiro",
        "street": "Avenida Frederico Augusto Ritter",
        "zipcode": "94930-650"
    },
    {
        "city": "Cachoeirinha",
        "state": "RS",
        "district": "City",
        "street": "Avenida Francisco Brochado da Rocha",
        "zipcode": "94935-200"
    },
    {
        "city": "Cachoeirinha",
        "state": "RS",
        "district": "Nova Cachoeirinha",
        "street": "Avenida Marechal Rondon",
        "zipcode": "94965-000"
    },
    {
        "city": "Cachoeirinha",
        "state": "RS",
        "district": "Parque da Matriz",
        "street": "Avenida Panamericana",
        "zipcode": "94950-330"
    },
    {
        "city": "Cachoeirinha",
        "state": "RS",
        "district": "Vila Fátima",
        "street": "Beco Servidão Amizade",
        "zipcode": "94955-550"
    },
    {
        "city": "Cachoeirinha",
        "state": "RS",
        "district": "Parque Granja Esperança",
        "street": "Rua A (M Bosque)",
        "zipcode": "94960-335"
    },
    {
        "city": "Cachoeirinha",
        "state": "RS",
        "district": "Vila Jardim América",
        "street": "Rua Lindolfo Collor",
        "zipcode": "94920-670"
    },
    {
        "city": "Cachoeirinha",
        "state": "RS",
        "district": "Morada do Bosque",
        "street": "Rua José Antonio Lutzenberger",
        "zipcode": "94960-872"
    },
    {
        "city": "Cachoeirinha",
        "state": "RS",
        "district": "Morada do Bosque",
        "street": "Rua José Manoel Roxo",
        "zipcode": "94960-848"
    },
    {
        "city": "Cachoeirinha",
        "state": "RS",
        "district": "Vila Bom Princípio",
        "street": "Rua Luiz de Camões",
        "zipcode": "94950-220"
    },
    {
        "city": "Cachoeirinha",
        "state": "RS",
        "district": "Parque Granja Esperança",
        "street": "Rua Mario Quintana",
        "zipcode": "94960-182"
    },
    {
        "city": "Cachoeirinha",
        "state": "RS",
        "district": "Parque Granja Esperança",
        "street": "Rua Margarida",
        "zipcode": "94960-390"
    },
    {
        "city": "Cachoeirinha",
        "state": "RS",
        "district": "Parque Granja Esperança",
        "street": "Rua Maria de Medeiros",
        "zipcode": "94960-400"
    },
    {
        "city": "Cachoeirinha",
        "state": "RS",
        "district": "Parque Granja Esperança",
        "street": "Rua Pedro da Silva Bernardes",
        "zipcode": "94960-470"
    },
    {
        "city": "Cachoeirinha",
        "state": "RS",
        "district": "Vila Anair",
        "street": "Rua Montenegro",
        "zipcode": "94955-680"
    },
    {
        "city": "Cachoeirinha",
        "state": "RS",
        "district": "Morada do Bosque",
        "street": "Rua Nils Taranger",
        "zipcode": "94960-846"
    },
    {
        "city": "Cachoeirinha",
        "state": "RS",
        "district": "Morada do Bosque",
        "street": "Rua Manoel Cândido da Rosa",
        "zipcode": "94960-860"
    },
    {
        "city": "Cachoeirinha",
        "state": "RS",
        "district": "Vila Anair",
        "street": "Travessa Bitencourt",
        "zipcode": "94955-364"
    },
    {
        "city": "Cachoeirinha",
        "state": "RS",
        "district": "Vila Anair",
        "street": "Rua Sombrio",
        "zipcode": "94955-430"
    },
    {
        "city": "Cachoeirinha",
        "state": "RS",
        "district": "Vila Anair",
        "street": "Rua Sapucaia do Sul",
        "zipcode": "94955-700"
    },
    {
        "city": "Cachoeirinha",
        "state": "RS",
        "district": "Parque Granja Esperança",
        "street": "Rua Roque Pesenato",
        "zipcode": "94960-540"
    },
    {
        "city": "Cachoeirinha",
        "state": "RS",
        "district": "Parque Granja Esperança",
        "street": "Travessa Berlim",
        "zipcode": "94960-660"
    },
    {
        "city": "Cachoeirinha",
        "state": "RS",
        "district": "Vila Carlos Antônio Wilkens",
        "street": "Rua Manoel Moura",
        "zipcode": "94930-350"
    },
    {
        "city": "Cachoeirinha",
        "state": "RS",
        "district": "COHAB",
        "street": "Rua Arminda Lombardo",
        "zipcode": "94935-070"
    },
    {
        "city": "Cachoeirinha",
        "state": "RS",
        "district": "Vila Anair",
        "street": "Rua Vinte e Quatro de Outubro",
        "zipcode": "94955-480"
    },
    {
        "city": "Cachoeirinha",
        "state": "RS",
        "district": "Jardim do Bosque",
        "street": "Rua Tarumã",
        "zipcode": "94960-585"
    },
    {
        "city": "Cachoeirinha",
        "state": "RS",
        "district": "Vila Anair",
        "street": "Rua Vinte e Quatro de Agosto",
        "zipcode": "94955-640"
    },
    {
        "city": "Cachoeirinha",
        "state": "RS",
        "district": "Vila Anair",
        "street": "Travessa Feliz",
        "zipcode": "94955-740"
    },
    {
        "city": "Cachoeirinha",
        "state": "RS",
        "district": "Jardim do Bosque",
        "street": "Rua Salseiro",
        "zipcode": "94960-592"
    },
    {
        "city": "Cachoeirinha",
        "state": "RS",
        "district": "Parque da Matriz",
        "street": "Rua Bauru",
        "zipcode": "94950-510"
    },
    {
        "city": "Cachoeirinha",
        "state": "RS",
        "district": "Parque da Matriz",
        "street": "Rua Arpoador",
        "zipcode": "94950-567"
    },
    {
        "city": "Cachoeirinha",
        "state": "RS",
        "district": "Vila Anair",
        "street": "Travessa Pinho",
        "zipcode": "94955-330"
    },
    {
        "city": "Cachoeirinha",
        "state": "RS",
        "district": "Vila Anair",
        "street": "Travessa Palmeira das Missões",
        "zipcode": "94955-476"
    },
    {
        "city": "Cachoeirinha",
        "state": "RS",
        "district": "Parque da Matriz",
        "street": "Rua Maracanã",
        "zipcode": "94950-240"
    },
    {
        "city": "Cachoeirinha",
        "state": "RS",
        "district": "Jardim do Bosque",
        "street": "Rua Carobinha",
        "zipcode": "94960-502"
    },
    {
        "city": "Cachoeirinha",
        "state": "RS",
        "district": "Jardim do Bosque",
        "street": "Rua Bacopari",
        "zipcode": "94960-575"
    },
    {
        "city": "Cachoeirinha",
        "state": "RS",
        "district": "Vila Fátima",
        "street": "Rua Orleans",
        "zipcode": "94955-260"
    },
    {
        "city": "Cachoeirinha",
        "state": "RS",
        "district": "Vila Eunice Nova",
        "street": "Rua Maria Bernardina de Oliveira Maciel",
        "zipcode": "94920-390"
    },
    {
        "city": "Cachoeirinha",
        "state": "RS",
        "district": "Vila Jardim América",
        "street": "Rua Primeiro de Maio",
        "zipcode": "94920-480"
    },
    {
        "city": "Cachoeirinha",
        "state": "RS",
        "district": "Vila Jardim América",
        "street": "Rua Sete de Setembro",
        "zipcode": "94920-630"
    },
    {
        "city": "Cachoeirinha",
        "state": "RS",
        "district": "Vila Anair",
        "street": "Beco do Arroio",
        "zipcode": "94955-126"
    },
    {
        "city": "Cachoeirinha",
        "state": "RS",
        "district": "Vila Anair",
        "street": "Travessa Camboim",
        "zipcode": "94955-122"
    },
    {
        "city": "Cachoeirinha",
        "state": "RS",
        "district": "Vila Anair",
        "street": "Rua Jacarandá",
        "zipcode": "94955-190"
    },
    {
        "city": "Cachoeirinha",
        "state": "RS",
        "district": "Vila Santo Ângelo",
        "street": "Avenida General Flores da Cunha",
        "zipcode": "94910-970"
    },
    {
        "city": "Cachoeirinha",
        "state": "RS",
        "district": "Jardim Betânia",
        "street": "Rua Camboriú",
        "zipcode": "94970-800"
    },
    {
        "city": "Cachoeirinha",
        "state": "RS",
        "district": "Vila Parque Brasília",
        "street": "Rua Flávio Jardim",
        "zipcode": "94940-100"
    },
    {
        "city": "Cachoeirinha",
        "state": "RS",
        "district": "Vila Vista Alegre",
        "street": "Rua Estácio de Sá",
        "zipcode": "94945-180"
    },
    {
        "city": "Cachoeirinha",
        "state": "RS",
        "district": "Vila Cachoeirinha",
        "street": "Rua Gravataí",
        "zipcode": "94910-100"
    },
    {
        "city": "Cachoeirinha",
        "state": "RS",
        "district": "Vila Monte Carlo",
        "street": "Rua Goitacaz",
        "zipcode": "94940-120"
    },
    {
        "city": "Cachoeirinha",
        "state": "RS",
        "district": "Vila Vista Alegre",
        "street": "Rua Florianópolis",
        "zipcode": "94945-200"
    },
    {
        "city": "Cachoeirinha",
        "state": "RS",
        "district": "Vila Vista Alegre",
        "street": "Rua Ipanema",
        "zipcode": "94945-270"
    },
    {
        "city": "Cachoeirinha",
        "state": "RS",
        "district": "Vila Parque Brasília",
        "street": "Avenida Major Alberto Bins",
        "zipcode": "94935-440"
    },
    {
        "city": "Cachoeirinha",
        "state": "RS",
        "district": "Vila Vista Alegre",
        "street": "Rua Andorinha",
        "zipcode": "94945-630"
    },
    {
        "city": "Cachoeirinha",
        "state": "RS",
        "district": "COHAB",
        "street": "Rua José Fábio Silveira",
        "zipcode": "94935-350"
    },
    {
        "city": "Cachoeirinha",
        "state": "RS",
        "district": "Vila Vista Alegre",
        "street": "Rua Júlio de Castilhos",
        "zipcode": "94945-560"
    },
    {
        "city": "Cachoeirinha",
        "state": "RS",
        "district": "Parque da Matriz",
        "street": "Rua José Souza Jucowsi",
        "zipcode": "94950-855"
    },
    {
        "city": "Cachoeirinha",
        "state": "RS",
        "district": "Vila Regina",
        "street": "Rua Luiz Antônio Dias",
        "zipcode": "94930-310"
    },
    {
        "city": "Cachoeirinha",
        "state": "RS",
        "district": "Vila Vista Alegre",
        "street": "Rua Aparecida",
        "zipcode": "94945-050"
    },
    {
        "city": "Cachoeirinha",
        "state": "RS",
        "district": "Chácara das Rosas",
        "street": "Rua Malva",
        "zipcode": "94967-354"
    },
    {
        "city": "Cachoeirinha",
        "state": "RS",
        "district": "Meu Rincão",
        "street": "Rua Nova Aroeira",
        "zipcode": "94970-320"
    },
    {
        "city": "Cachoeirinha",
        "state": "RS",
        "district": "Vila Vista Alegre",
        "street": "Travessa Lajes",
        "zipcode": "94945-300"
    },
    {
        "city": "Cachoeirinha",
        "state": "RS",
        "district": "Vila Bom Princípio",
        "street": "Rua Vereador João Morais Pereira",
        "zipcode": "94950-730"
    },
    {
        "city": "Cachoeirinha",
        "state": "RS",
        "district": "Parque da Matriz",
        "street": "Rua Pastor Felisberto Soares Martins",
        "zipcode": "94950-832"
    },
    {
        "city": "Cachoeirinha",
        "state": "RS",
        "district": "Vila Fátima",
        "street": "Rua Vinte e Oito de Outubro",
        "zipcode": "94955-022"
    },
    {
        "city": "Cachoeirinha",
        "state": "RS",
        "district": "Vila Cachoeirinha",
        "street": "Rua Governador Mem de Sá",
        "zipcode": "94910-090"
    },
    {
        "city": "Cachoeirinha",
        "state": "RS",
        "district": "Vila Carlos Antônio Wilkens",
        "street": "Rua Domício Moraes",
        "zipcode": "94930-200"
    },
    {
        "city": "Cachoeirinha",
        "state": "RS",
        "district": "Vila Anair",
        "street": "Travessa Nossa Senhora das Graças",
        "zipcode": "94955-548"
    },
    {
        "city": "Cachoeirinha",
        "state": "RS",
        "district": "Chácara das Rosas",
        "street": "Rua Vitória Régia",
        "zipcode": "94967-388"
    },
    {
        "city": "Cachoeirinha",
        "state": "RS",
        "district": "Jardim Betânia",
        "street": "Rua Betânia",
        "zipcode": "94970-830"
    },
    {
        "city": "Cachoeirinha",
        "state": "RS",
        "district": "Chácara das Rosas",
        "street": "Rua Camomila",
        "zipcode": "94967-364"
    },
    {
        "city": "Cachoeirinha",
        "state": "RS",
        "district": "Vila Vista Alegre",
        "street": "Rua Beija",
        "zipcode": "94945-640"
    },
    {
        "city": "Cachoeirinha",
        "state": "RS",
        "district": "Vila Bom Princípio",
        "street": "Rua Margarida Alves",
        "zipcode": "94950-740"
    },
    {
        "city": "Cachoeirinha",
        "state": "RS",
        "district": "Vila Parque Brasília",
        "street": "Rua São Manoel",
        "zipcode": "94935-495"
    },
    {
        "city": "Cachoeirinha",
        "state": "RS",
        "district": "COHAB",
        "street": "Rua Paulo Sbardelotto",
        "zipcode": "94935-500"
    },
    {
        "city": "Cachoeirinha",
        "state": "RS",
        "district": "COHAB",
        "street": "Rua Santa Rita de Cássia",
        "zipcode": "94935-600"
    },
    {
        "city": "Cachoeirinha",
        "state": "RS",
        "district": "Vila Princesa Izabel",
        "street": "Rua Bororó",
        "zipcode": "94940-020"
    },
    {
        "city": "Cachoeirinha",
        "state": "RS",
        "district": "Vila Princesa Izabel",
        "street": "Travessa Alegria",
        "zipcode": "94940-035"
    },
    {
        "city": "Cachoeirinha",
        "state": "RS",
        "district": "Vila Silveira Martins",
        "street": "Rua Osvaldo Cruz",
        "zipcode": "94940-210"
    },
    {
        "city": "Cachoeirinha",
        "state": "RS",
        "district": "Vila Princesa Izabel",
        "street": "Rua Maratá",
        "zipcode": "94940-245"
    },
    {
        "city": "Cachoeirinha",
        "state": "RS",
        "district": "Vila Vista Alegre",
        "street": "Travessa Vargas",
        "zipcode": "94945-352"
    },
    {
        "city": "Cachoeirinha",
        "state": "RS",
        "district": "Vila Vista Alegre",
        "street": "Rua Redenção",
        "zipcode": "94945-490"
    },
    {
        "city": "Cachoeirinha",
        "state": "RS",
        "district": "Vila Vista Alegre",
        "street": "Rua Assis Brasil",
        "zipcode": "94945-570"
    },
    {
        "city": "Cachoeirinha",
        "state": "RS",
        "district": "Ponta Porã",
        "street": "Travessa Roma",
        "zipcode": "94935-580"
    },
    {
        "city": "Cachoeirinha",
        "state": "RS",
        "district": "Vila Vista Alegre",
        "street": "Rua Caruaru",
        "zipcode": "94945-120"
    },
    {
        "city": "Cachoeirinha",
        "state": "RS",
        "district": "Vila Cachoeirinha",
        "street": "Rua Maurílio Luiz da Silva (Ventania)",
        "zipcode": "94910-222"
    },
    {
        "city": "Cachoeirinha",
        "state": "RS",
        "district": "Vila Cachoeirinha",
        "street": "Rua Dom Sebastião",
        "zipcode": "94910-250"
    },
    {
        "city": "Cachoeirinha",
        "state": "RS",
        "district": "Vila Mauá",
        "street": "Rua Martinho Lutero",
        "zipcode": "94920-410"
    },
    {
        "city": "Cachoeirinha",
        "state": "RS",
        "district": "Vila Veranópolis",
        "street": "Rua Doutor Washington Luiz",
        "zipcode": "94920-210"
    },
    {
        "city": "Cachoeirinha",
        "state": "RS",
        "district": "Cedic",
        "street": "Rua Maurício Sirotski Sobrinho",
        "zipcode": "94930-370"
    },
    {
        "city": "Cachoeirinha",
        "state": "RS",
        "district": "Jardim Conquista",
        "street": "Rua São Jorge",
        "zipcode": "94930-520"
    },
    {
        "city": "Cachoeirinha",
        "state": "RS",
        "district": "Cruzeiro",
        "street": "Rua Ruben Bins Teichmann",
        "zipcode": "94930-634"
    },
    {
        "city": "Cachoeirinha",
        "state": "RS",
        "district": "Jardim Betânia",
        "street": "Rua Albatroz",
        "zipcode": "94970-790"
    },
    {
        "city": "Cachoeirinha",
        "state": "RS",
        "district": "Parque Granja Esperança",
        "street": "Rua Deputado Dorival Cândido Luz de Oliveira",
        "zipcode": "94960-160"
    },
    {
        "city": "Cachoeirinha",
        "state": "RS",
        "district": "Parque Granja Esperança",
        "street": "Rua Doutor Mário da Costa Pereira",
        "zipcode": "94960-190"
    },
    {
        "city": "Cachoeirinha",
        "state": "RS",
        "district": "Parque Granja Esperança",
        "street": "Rua Fernando Pessoa",
        "zipcode": "94960-184"
    },
    {
        "city": "Cachoeirinha",
        "state": "RS",
        "district": "Parque Marechal Rondon",
        "street": "Rua Escócia (Vl Canarinho)",
        "zipcode": "94965-295"
    },
    {
        "city": "Cachoeirinha",
        "state": "RS",
        "district": "Vila Vista Alegre",
        "street": "Rua Henrique Dias",
        "zipcode": "94945-250"
    },
    {
        "city": "Cachoeirinha",
        "state": "RS",
        "district": "Parque Granja Esperança",
        "street": "Rua Generino Manoel dos Santos",
        "zipcode": "94960-260"
    },
    {
        "city": "Cachoeirinha",
        "state": "RS",
        "district": "Vila Anair",
        "street": "Rua Guaiba",
        "zipcode": "94955-540"
    },
    {
        "city": "Cachoeirinha",
        "state": "RS",
        "district": "Jardim do Bosque",
        "street": "Rua Girassol (Nsa Sra Navegantes)",
        "zipcode": "94960-529"
    },
    {
        "city": "Cachoeirinha",
        "state": "RS",
        "district": "Chácara das Rosas",
        "street": "Rua Flor de Seda",
        "zipcode": "94967-352"
    },
    {
        "city": "Cachoeirinha",
        "state": "RS",
        "district": "Parque Espírito Santo",
        "street": "Rua Guanabara",
        "zipcode": "94965-480"
    },
    {
        "city": "Cachoeirinha",
        "state": "RS",
        "district": "Vila Bom Princípio",
        "street": "Rua Ijuí",
        "zipcode": "94950-160"
    },
    {
        "city": "Cachoeirinha",
        "state": "RS",
        "district": "Jardim Betânia",
        "street": "Rua Imbituba",
        "zipcode": "94970-620"
    },
    {
        "city": "Cachoeirinha",
        "state": "RS",
        "district": "Jardim Betânia",
        "street": "Rua João Tavares",
        "zipcode": "94970-823"
    },
    {
        "city": "Cachoeirinha",
        "state": "RS",
        "district": "Vila Vista Alegre",
        "street": "Avenida Nova Zelândia",
        "zipcode": "94945-440"
    },
    {
        "city": "Cachoeirinha",
        "state": "RS",
        "district": "Vila Fátima",
        "street": "Avenida Marechal Rondon",
        "zipcode": "94955-240"
    },
    {
        "city": "Cachoeirinha",
        "state": "RS",
        "district": "Vila Fátima",
        "street": "Avenida Vereador Manoel Gonçalves Júnior",
        "zipcode": "94955-460"
    },
    {
        "city": "Cachoeirinha",
        "state": "RS",
        "district": "Parque Marechal Rondon",
        "street": "Avenida Estados Unidos",
        "zipcode": "94965-150"
    },
    {
        "city": "Cachoeirinha",
        "state": "RS",
        "district": "Chácara das Rosas",
        "street": "Avenida Flores do Campo",
        "zipcode": "94967-405"
    },
    {
        "city": "Cachoeirinha",
        "state": "RS",
        "district": "Morada do Bosque",
        "street": "Rua Amadelino Vaz Garcia",
        "zipcode": "94960-839"
    },
    {
        "city": "Cachoeirinha",
        "state": "RS",
        "district": "Parque Granja Esperança",
        "street": "Rua Adriano Carvalho dos Santos",
        "zipcode": "94960-010"
    },
    {
        "city": "Cachoeirinha",
        "state": "RS",
        "district": "Meu Rincão",
        "street": "Estrada do Nazário",
        "zipcode": "94970-250"
    },
    {
        "city": "Cachoeirinha",
        "state": "RS",
        "district": "Jardim Betânia",
        "street": "Estrada dos Capistranos",
        "zipcode": "94970-460"
    },
    {
        "city": "Cachoeirinha",
        "state": "RS",
        "district": "Vila Regina",
        "street": "Rua Major Antônio Silveira de Lima",
        "zipcode": "94930-330"
    },
    {
        "city": "Cachoeirinha",
        "state": "RS",
        "district": "Morada do Bosque",
        "street": "Rua Luiz Borges Dimer",
        "zipcode": "94960-857"
    },
    {
        "city": "Cachoeirinha",
        "state": "RS",
        "district": "Morada do Bosque",
        "street": "Rua José Pereira de Andrade",
        "zipcode": "94960-864"
    },
    {
        "city": "Cachoeirinha",
        "state": "RS",
        "district": "Parque Granja Esperança",
        "street": "Rua José Rauil da Fonseca",
        "zipcode": "94960-432"
    },
    {
        "city": "Cachoeirinha",
        "state": "RS",
        "district": "Parque Espírito Santo",
        "street": "Rua Josefina Maria da Silva",
        "zipcode": "94965-330"
    },
    {
        "city": "Cachoeirinha",
        "state": "RS",
        "district": "Parque Granja Esperança",
        "street": "Rua Mário Teixeira de Souza",
        "zipcode": "94960-410"
    },
    {
        "city": "Cachoeirinha",
        "state": "RS",
        "district": "Parque Granja Esperança",
        "street": "Rua Manoel de Souza (Lot Res Moradas Bosque)",
        "zipcode": "94960-810"
    },
    {
        "city": "Cachoeirinha",
        "state": "RS",
        "district": "Parque Marechal Rondon",
        "street": "Rua Nova Escócia (Vl Canarinho)",
        "zipcode": "94965-297"
    },
    {
        "city": "Cachoeirinha",
        "state": "RS",
        "district": "Parque Marechal Rondon",
        "street": "Rua Malta (Vl Canarinho)",
        "zipcode": "94965-305"
    },
    {
        "city": "Cachoeirinha",
        "state": "RS",
        "district": "Jardim Betânia",
        "street": "Rua Plácido Mottin",
        "zipcode": "94970-820"
    },
    {
        "city": "Cachoeirinha",
        "state": "RS",
        "district": "Vila Anair",
        "street": "Rua São Leopoldo",
        "zipcode": "94955-710"
    },
    {
        "city": "Cachoeirinha",
        "state": "RS",
        "district": "Jardim do Bosque",
        "street": "Rua Samambaia (Nsa Sra Navegantes)",
        "zipcode": "94960-517"
    },
    {
        "city": "Cachoeirinha",
        "state": "RS",
        "district": "Parque Granja Esperança",
        "street": "Rua Rogério da Silva Oliveira",
        "zipcode": "94960-530"
    },
    {
        "city": "Cachoeirinha",
        "state": "RS",
        "district": "Vila Princesa Izabel",
        "street": "Rua Silvério Manoel da Silva",
        "zipcode": "94940-243"
    },
    {
        "city": "Cachoeirinha",
        "state": "RS",
        "district": "Jardim do Bosque",
        "street": "Rua Azaléia (Nsa Sra Navegantes)",
        "zipcode": "94960-532"
    },
    {
        "city": "Cachoeirinha",
        "state": "RS",
        "district": "Parque Marechal Rondon",
        "street": "Travessa Danubio",
        "zipcode": "94965-245"
    },
    {
        "city": "Cachoeirinha",
        "state": "RS",
        "district": "Parque Marechal Rondon",
        "street": "Rua Suíça",
        "zipcode": "94965-460"
    },
    {
        "city": "Cachoeirinha",
        "state": "RS",
        "district": "Parque Espírito Santo",
        "street": "Rua Minas Gerais",
        "zipcode": "94965-490"
    },
    {
        "city": "Cachoeirinha",
        "state": "RS",
        "district": "Chácara das Rosas",
        "street": "Rua Aparício Borges",
        "zipcode": "94967-610"
    },
    {
        "city": "Cachoeirinha",
        "state": "RS",
        "district": "Chácara das Rosas",
        "street": "Rua Aparício Borges",
        "zipcode": "94967-625"
    },
    {
        "city": "Cachoeirinha",
        "state": "RS",
        "district": "Vila Anair",
        "street": "Rua Barbacena",
        "zipcode": "94955-478"
    },
    {
        "city": "Cachoeirinha",
        "state": "RS",
        "district": "Jardim do Bosque",
        "street": "Rua Camboatá",
        "zipcode": "94960-472"
    },
    {
        "city": "Cachoeirinha",
        "state": "RS",
        "district": "Vila Bom Princípio",
        "street": "Rua Marau",
        "zipcode": "94950-250"
    },
    {
        "city": "Cachoeirinha",
        "state": "RS",
        "district": "Vila Anair",
        "street": "Rua Esteio",
        "zipcode": "94955-690"
    },
    {
        "city": "Cachoeirinha",
        "state": "RS",
        "district": "Vila Princesa Izabel",
        "street": "Rua Princesa Isabel",
        "zipcode": "94940-000"
    },
    {
        "city": "Cachoeirinha",
        "state": "RS",
        "district": "Chácara das Rosas",
        "street": "Rua Camélia",
        "zipcode": "94967-483"
    },
    {
        "city": "Cachoeirinha",
        "state": "RS",
        "district": "Chácara das Rosas",
        "street": "Rua Flor de Pessegueiro",
        "zipcode": "94967-380"
    },
    {
        "city": "Cachoeirinha",
        "state": "RS",
        "district": "Nova Esperança",
        "street": "Rua João de Barro",
        "zipcode": "94967-090"
    },
    {
        "city": "Cachoeirinha",
        "state": "RS",
        "district": "City",
        "street": "Rua Antônio Guilherme da Silva",
        "zipcode": "94935-795"
    },
    {
        "city": "Cachoeirinha",
        "state": "RS",
        "district": "Distrito Industrial",
        "street": "Estrada José Zingano (Águas Mortas)",
        "zipcode": "94930-280"
    },
    {
        "city": "Cachoeirinha",
        "state": "RS",
        "district": "Parque da Matriz",
        "street": "Rua Alenir Barcelos Cardoso",
        "zipcode": "94950-700"
    },
    {
        "city": "Cachoeirinha",
        "state": "RS",
        "district": "Meu Rincão",
        "street": "Estrada dos Caetanos",
        "zipcode": "94970-360"
    },
    {
        "city": "Cachoeirinha",
        "state": "RS",
        "district": "Chácara das Rosas",
        "street": "Rua Amarílis",
        "zipcode": "94967-430"
    },
    {
        "city": "Cachoeirinha",
        "state": "RS",
        "district": "Nova Esperança",
        "street": "Rua Quero",
        "zipcode": "94967-020"
    },
    {
        "city": "Cachoeirinha",
        "state": "RS",
        "district": "Nova Esperança",
        "street": "Rua Pica Pau",
        "zipcode": "94967-095"
    },
    {
        "city": "Cachoeirinha",
        "state": "RS",
        "district": "Chácara das Rosas",
        "street": "Rua Petúnia",
        "zipcode": "94967-443"
    },
    {
        "city": "Cachoeirinha",
        "state": "RS",
        "district": "Vila Vista Alegre",
        "street": "Travessa Afonsina Guimarães",
        "zipcode": "94945-215"
    },
    {
        "city": "Cachoeirinha",
        "state": "RS",
        "district": "Chácara das Rosas",
        "street": "Rua Sempre Viva",
        "zipcode": "94967-350"
    },
    {
        "city": "Cachoeirinha",
        "state": "RS",
        "district": "Chácara das Rosas",
        "street": "Rua Violeta",
        "zipcode": "94967-440"
    },
    {
        "city": "Cachoeirinha",
        "state": "RS",
        "district": "Chácara das Rosas",
        "street": "Rua Rosa Vermelha",
        "zipcode": "94967-485"
    },
    {
        "city": "Cachoeirinha",
        "state": "RS",
        "district": "Nova Esperança",
        "street": "Rua Sabiá",
        "zipcode": "94967-050"
    },
    {
        "city": "Cachoeirinha",
        "state": "RS",
        "district": "Chácara das Rosas",
        "street": "Rua Torênia",
        "zipcode": "94967-378"
    },
    {
        "city": "Cachoeirinha",
        "state": "RS",
        "district": "Nova Esperança",
        "street": "Rua Beija",
        "zipcode": "94967-026"
    },
    {
        "city": "Cachoeirinha",
        "state": "RS",
        "district": "Nova Esperança",
        "street": "Rua Canarinho",
        "zipcode": "94967-060"
    },
    {
        "city": "Cachoeirinha",
        "state": "RS",
        "district": "Chácara das Rosas",
        "street": "Rua Crisântemo Amarelo",
        "zipcode": "94967-376"
    },
    {
        "city": "Cachoeirinha",
        "state": "RS",
        "district": "Chácara das Rosas",
        "street": "Rua Copo de Leite",
        "zipcode": "94967-463"
    },
    {
        "city": "Cachoeirinha",
        "state": "RS",
        "district": "Chácara das Rosas",
        "street": "Rua Begônia",
        "zipcode": "94967-480"
    },
    {
        "city": "Cachoeirinha",
        "state": "RS",
        "district": "Parque da Matriz",
        "street": "Rua Cristino Machado da Silva",
        "zipcode": "94950-823"
    },
    {
        "city": "Cachoeirinha",
        "state": "RS",
        "district": "Vila da Paz",
        "street": "Rua Tom Jobim",
        "zipcode": "94930-215"
    },
    {
        "city": "Cachoeirinha",
        "state": "RS",
        "district": "Cedic",
        "street": "Rua Marcos Wainstein",
        "zipcode": "94930-360"
    },
    {
        "city": "Cachoeirinha",
        "state": "RS",
        "district": "Parque Marechal Rondon",
        "street": "Rua Jamaica",
        "zipcode": "94965-520"
    },
    {
        "city": "Cachoeirinha",
        "state": "RS",
        "district": "Vila Bom Princípio",
        "street": "Rua Pedro Silveira Magnus",
        "zipcode": "94950-735"
    },
    {
        "city": "Cachoeirinha",
        "state": "RS",
        "district": "Parque da Matriz",
        "street": "Rua Manoel Victorio Nunes",
        "zipcode": "94950-824"
    },
    {
        "city": "Cachoeirinha",
        "state": "RS",
        "district": "Vila Anair",
        "street": "Travessa Santos Dias",
        "zipcode": "94955-410"
    },
    {
        "city": "Cachoeirinha",
        "state": "RS",
        "district": "Vila Santo Ângelo",
        "street": "Rua Doutor Epitácio Pessoa",
        "zipcode": "94920-180"
    },
    {
        "city": "Cachoeirinha",
        "state": "RS",
        "district": "Vila Imbui",
        "street": "Rua Guarani",
        "zipcode": "94920-300"
    },
    {
        "city": "Cachoeirinha",
        "state": "RS",
        "district": "COHAB",
        "street": "Rua Almirante Barroso",
        "zipcode": "94935-360"
    },
    {
        "city": "Cachoeirinha",
        "state": "RS",
        "district": "Vila da Paz",
        "street": "Rua da Várzea",
        "zipcode": "94930-315"
    },
    {
        "city": "Cachoeirinha",
        "state": "RS",
        "district": "Vila Imbui",
        "street": "Rua General Vignole",
        "zipcode": "94920-280"
    },
    {
        "city": "Cachoeirinha",
        "state": "RS",
        "district": "Vila Santo Ângelo",
        "street": "Avenida General Flores da Cunha",
        "zipcode": "94910-000"
    },
    {
        "city": "Cachoeirinha",
        "state": "RS",
        "district": "Vila Eunice Nova",
        "street": "Avenida Coronel João Batista S. da Silveira e Souza",
        "zipcode": "94920-100"
    },
    {
        "city": "Cachoeirinha",
        "state": "RS",
        "district": "Vila Eunice Nova",
        "street": "Rua Alzira Batista Loung",
        "zipcode": "94920-010"
    },
    {
        "city": "Cachoeirinha",
        "state": "RS",
        "district": "Vila Cachoeirinha",
        "street": "Travessa Aracy",
        "zipcode": "94910-020"
    },
    {
        "city": "Cachoeirinha",
        "state": "RS",
        "district": "Vila Cachoeirinha",
        "street": "Rua Castro Alves",
        "zipcode": "94910-040"
    },
    {
        "city": "Cachoeirinha",
        "state": "RS",
        "district": "Vila Cachoeirinha",
        "street": "Rua Tapajós",
        "zipcode": "94910-220"
    },
    {
        "city": "Cachoeirinha",
        "state": "RS",
        "district": "Vila Eunice Nova",
        "street": "Travessa Elias Garcia dos Santos",
        "zipcode": "94920-220"
    },
    {
        "city": "Cachoeirinha",
        "state": "RS",
        "district": "Vila Eunice Nova",
        "street": "Rua Eurípedes Aurélio da Silva",
        "zipcode": "94920-250"
    },
    {
        "city": "Cachoeirinha",
        "state": "RS",
        "district": "Vila Regina",
        "street": "Rua Chapadão",
        "zipcode": "94920-325"
    },
    {
        "city": "Cachoeirinha",
        "state": "RS",
        "district": "Vila Santo Ângelo",
        "street": "Rua Doutor Campos Sales",
        "zipcode": "94920-160"
    },
    {
        "city": "Cachoeirinha",
        "state": "RS",
        "district": "Vila Carlos Antônio Wilkens",
        "street": "Rua Osório Dihl",
        "zipcode": "94930-450"
    },
    {
        "city": "Cachoeirinha",
        "state": "RS",
        "district": "Jardim Conquista",
        "street": "Rua Portugal",
        "zipcode": "94930-470"
    },
    {
        "city": "Cachoeirinha",
        "state": "RS",
        "district": "Vila da Paz",
        "street": "Rua Vereador José Stuart da Silva",
        "zipcode": "94930-550"
    },
    {
        "city": "Cachoeirinha",
        "state": "RS",
        "district": "Vila Carlos Antônio Wilkens",
        "street": "Rua Barão do Triunfo",
        "zipcode": "94930-570"
    },
    {
        "city": "Cachoeirinha",
        "state": "RS",
        "district": "Central Parque",
        "street": "Rua Dez",
        "zipcode": "94931-030"
    },
    {
        "city": "Cachoeirinha",
        "state": "RS",
        "district": "Vila Monte Carlo",
        "street": "Rua João Francisco da Silva (J Atlântico)",
        "zipcode": "94940-160"
    },
    {
        "city": "Cachoeirinha",
        "state": "RS",
        "district": "Vila Monte Carlo",
        "street": "Rua João Januário Nunes (J Atlântico)",
        "zipcode": "94940-170"
    },
    {
        "city": "Cachoeirinha",
        "state": "RS",
        "district": "Parque Granja Esperança",
        "street": "Rua Ignácio Thiele",
        "zipcode": "94960-300"
    },
    {
        "city": "Cachoeirinha",
        "state": "RS",
        "district": "Distrito Industrial",
        "street": "Avenida Frederico Augusto Ritter",
        "zipcode": "94931-790"
    },
    {
        "city": "Cachoeirinha",
        "state": "RS",
        "district": "Distrito Industrial Ritter",
        "street": "Avenida Clemente Cifali",
        "zipcode": "94935-225"
    },
    {
        "city": "Cachoeirinha",
        "state": "RS",
        "district": "Vila Silveira Martins",
        "street": "Avenida Telmo Silveira Dorneles",
        "zipcode": "94940-250"
    },
    {
        "city": "Cachoeirinha",
        "state": "RS",
        "district": "Vila Bom Princípio",
        "street": "Avenida General Flores da Cunha",
        "zipcode": "94950-001"
    },
    {
        "city": "Cachoeirinha",
        "state": "RS",
        "district": "Morada do Bosque",
        "street": "Avenida Rubens Agra Ohlweiler",
        "zipcode": "94960-882"
    },
    {
        "city": "Cachoeirinha",
        "state": "RS",
        "district": "Vila Bom Princípio",
        "street": "Rua Alagoinhas",
        "zipcode": "94950-010"
    },
    {
        "city": "Cachoeirinha",
        "state": "RS",
        "district": "Jardim do Bosque",
        "street": "Rua Abacateiro",
        "zipcode": "94960-537"
    },
    {
        "city": "Cachoeirinha",
        "state": "RS",
        "district": "Jardim Vitória",
        "street": "Rua José Ladislau de Oliveira Thedy",
        "zipcode": "94930-730"
    },
    {
        "city": "Cachoeirinha",
        "state": "RS",
        "district": "Vila Vista Alegre",
        "street": "Rua Laranjeira",
        "zipcode": "94945-432"
    },
    {
        "city": "Cachoeirinha",
        "state": "RS",
        "district": "Meu Rincão",
        "street": "Rua Nova Ipê",
        "zipcode": "94970-310"
    },
    {
        "city": "Cachoeirinha",
        "state": "RS",
        "district": "Vila Anair",
        "street": "Rua São Jerônimo",
        "zipcode": "94955-720"
    },
    {
        "city": "Cachoeirinha",
        "state": "RS",
        "district": "Parque Granja Esperança",
        "street": "Rua Oswaldino Olívio Selau",
        "zipcode": "94960-805"
    },
    {
        "city": "Cachoeirinha",
        "state": "RS",
        "district": "Vila Fátima",
        "street": "Travessa Fruteira",
        "zipcode": "94965-570"
    },
    {
        "city": "Cachoeirinha",
        "state": "RS",
        "district": "Parque Granja Esperança",
        "street": "Rua Caracas",
        "zipcode": "94960-630"
    },
    {
        "city": "Cachoeirinha",
        "state": "RS",
        "district": "Vila Vista Alegre",
        "street": "Rua Bento Gonzaga Ferreira",
        "zipcode": "94945-620"
    },
    {
        "city": "Cachoeirinha",
        "state": "RS",
        "district": "Jardim do Bosque",
        "street": "Rua Cajueiro",
        "zipcode": "94960-495"
    },
    {
        "city": "Cachoeirinha",
        "state": "RS",
        "district": "COHAB",
        "street": "Rua Simão Bolivar (Vl City N Fase)",
        "zipcode": "94935-700"
    },
    {
        "city": "Cachoeirinha",
        "state": "RS",
        "district": "Vila Vista Alegre",
        "street": "Travessa Souza",
        "zipcode": "94945-205"
    },
    {
        "city": "Cachoeirinha",
        "state": "RS",
        "district": "Vila Vista Alegre",
        "street": "Rua Nelson Oliveira Lopes",
        "zipcode": "94945-430"
    },
    {
        "city": "Cachoeirinha",
        "state": "RS",
        "district": "Vila Vista Alegre",
        "street": "Travessa Medianeira",
        "zipcode": "94945-572"
    },
    {
        "city": "Cachoeirinha",
        "state": "RS",
        "district": "Distrito Industrial",
        "street": "Rua Cristiano J. Nascimento (Águas Mortas)",
        "zipcode": "94930-595"
    },
    {
        "city": "Cachoeirinha",
        "state": "RS",
        "district": "Central Parque",
        "street": "Avenida Vereador Clóvis Elias Prytula",
        "zipcode": "94931-080"
    },
    {
        "city": "Cachoeirinha",
        "state": "RS",
        "district": "Vila Anair",
        "street": "Rua Angico",
        "zipcode": "94955-040"
    },
    {
        "city": "Cachoeirinha",
        "state": "RS",
        "district": "Vila Fátima",
        "street": "Rua Antônio Pereira Nunes",
        "zipcode": "94955-050"
    },
    {
        "city": "Cachoeirinha",
        "state": "RS",
        "district": "Central Parque",
        "street": "Rua Ary Rosa dos Santos",
        "zipcode": "94931-160"
    },
    {
        "city": "Cachoeirinha",
        "state": "RS",
        "district": "Vila Fátima",
        "street": "Rua Brasília",
        "zipcode": "94955-080"
    },
    {
        "city": "Cachoeirinha",
        "state": "RS",
        "district": "Vila Anair",
        "street": "Rua Criciumal",
        "zipcode": "94955-140"
    },
    {
        "city": "Cachoeirinha",
        "state": "RS",
        "district": "Vila Anair",
        "street": "Rua Curitiba",
        "zipcode": "94955-130"
    },
    {
        "city": "Cachoeirinha",
        "state": "RS",
        "district": "Vila Anair",
        "street": "Rua Doze de Outubro",
        "zipcode": "94955-205"
    },
    {
        "city": "Cachoeirinha",
        "state": "RS",
        "district": "Vila Anair",
        "street": "Travessa Quatro",
        "zipcode": "94955-128"
    },
    {
        "city": "Cachoeirinha",
        "state": "RS",
        "district": "Distrito Industrial",
        "street": "Rua Aparício Borges",
        "zipcode": "94930-597"
    },
    {
        "city": "Cachoeirinha",
        "state": "RS",
        "district": "Cohab",
        "street": "Rua Antonio Jacob Renner",
        "zipcode": "94935-060"
    },
    {
        "city": "Cachoeirinha",
        "state": "RS",
        "district": "Distrito Industrial",
        "street": "Avenida Frederico Augusto Ritter",
        "zipcode": "94930-000"
    },
    {
        "city": "Cachoeirinha",
        "state": "RS",
        "district": "Cohab",
        "street": "Rua Almirante Barroso",
        "zipcode": "94935-020"
    },
    {
        "city": "Cachoeirinha",
        "state": "RS",
        "district": "COHAB",
        "street": "Avenida Mario Tavares Haussem",
        "zipcode": "94935-971"
    },
    {
        "city": "Cachoeirinha",
        "state": "RS",
        "district": "Distrito Industrial",
        "street": "Rua Clara Nunes",
        "zipcode": "94930-155"
    },
    {
        "city": "Cachoeirinha",
        "state": "RS",
        "district": "Distrito Industrial",
        "street": "Estrada Capistranos",
        "zipcode": "94930-160"
    },
    {
        "city": "Cachoeirinha",
        "state": "RS",
        "district": "Distrito Industrial",
        "street": "Rua Placido Mottin",
        "zipcode": "94930-195"
    },
    {
        "city": "Cachoeirinha",
        "state": "RS",
        "district": "Distrito Industrial",
        "street": "Rua Xangrila",
        "zipcode": "94930-190"
    },
    {
        "city": "Cachoeirinha",
        "state": "RS",
        "district": "Distrito Industrial",
        "street": "Rua Salinas",
        "zipcode": "94930-500"
    },
    {
        "city": "Cachoeirinha",
        "state": "RS",
        "district": "Distrito Industrial",
        "street": "Rua Camboriu",
        "zipcode": "94930-140"
    },
    {
        "city": "Cachoeirinha",
        "state": "RS",
        "district": "Distrito Industrial",
        "street": "Rua Rondinha",
        "zipcode": "94930-490"
    },
    {
        "city": "Cachoeirinha",
        "state": "RS",
        "district": "Distrito Industrial",
        "street": "Rua Tramandai",
        "zipcode": "94930-560"
    },
    {
        "city": "Cachoeirinha",
        "state": "RS",
        "district": "Distrito Industrial",
        "street": "Rua Jurere",
        "zipcode": "94930-285"
    },
    {
        "city": "Cachoeirinha",
        "state": "RS",
        "district": "Distrito Industrial",
        "street": "Rua Lami",
        "zipcode": "94930-290"
    },
    {
        "city": "Cachoeirinha",
        "state": "RS",
        "district": "Distrito Industrial",
        "street": "Rua Oasis",
        "zipcode": "94930-430"
    },
    {
        "city": "Cachoeirinha",
        "state": "RS",
        "district": "Cohab",
        "street": "Rua Alvarenga Peixoto",
        "zipcode": "94935-030"
    },
    {
        "city": "Cachoeirinha",
        "state": "RS",
        "district": "Distrito Industrial",
        "street": "Rua Pereira Pinto",
        "zipcode": "94930-175"
    },
    {
        "city": "Cachoeirinha",
        "state": "RS",
        "district": "Vila Da Paz",
        "street": "Travessa Dos Operarios",
        "zipcode": "94930-575"
    },
    {
        "city": "Cachoeirinha",
        "state": "RS",
        "district": "Distrito Industrial",
        "street": "Rua Albatroz",
        "zipcode": "94930-040"
    },
    {
        "city": "Cachoeirinha",
        "state": "RS",
        "district": "Distrito Industrial",
        "street": "Rua Tamandua",
        "zipcode": "94930-627"
    },
    {
        "city": "Cachoeirinha",
        "state": "RS",
        "district": "Distrito Industrial",
        "street": "Rua Imara",
        "zipcode": "94930-265"
    },
    {
        "city": "Cachoeirinha",
        "state": "RS",
        "district": "Cohab",
        "street": "Rua Francisco Antonio",
        "zipcode": "94935-190"
    },
    {
        "city": "Cachoeirinha",
        "state": "RS",
        "district": "Distrito Industrial",
        "street": "Rua Cassino",
        "zipcode": "94930-630"
    },
    {
        "city": "Cachoeirinha",
        "state": "RS",
        "district": "Distrito Industrial",
        "street": "Rua Jardim Do Eden",
        "zipcode": "94930-260"
    },
    {
        "city": "Cachoeirinha",
        "state": "RS",
        "district": "Vila Fatima",
        "street": "Rua Missoes",
        "zipcode": "94955-600"
    },
    {
        "city": "Cachoeirinha",
        "state": "RS",
        "district": "Distrito Industrial",
        "street": "Rua Imbituba",
        "zipcode": "94930-305"
    },
    {
        "city": "Cachoeirinha",
        "state": "RS",
        "district": "Distrito Industrial",
        "street": "Rua Arroio Teixeira",
        "zipcode": "94930-110"
    },
    {
        "city": "Cachoeirinha",
        "state": "RS",
        "district": "Distrito Industrial",
        "street": "Rua Mara",
        "zipcode": "94930-620"
    },
    {
        "city": "Cachoeirinha",
        "state": "RS",
        "district": "Distrito Industrial",
        "street": "Rua Imbe",
        "zipcode": "94930-220"
    },
    {
        "city": "Cachoeirinha",
        "state": "RS",
        "district": "Vila Jardim America",
        "street": "Travessa Luiz Xv",
        "zipcode": "94920-360"
    },
    {
        "city": "Cachoeirinha",
        "state": "RS",
        "district": "Distrito Industrial",
        "street": "Rua Capao Da Canoa",
        "zipcode": "94930-150"
    },
    {
        "city": "Cachoeirinha",
        "state": "RS",
        "district": "Distrito Industrial",
        "street": "Rua Areias Brancas",
        "zipcode": "94930-045"
    },
    {
        "city": "Cachoeirinha",
        "state": "RS",
        "district": "Vila Santo Angelo",
        "street": "Rua Santa Ines",
        "zipcode": "94920-540"
    },
    {
        "city": "Cachoeirinha",
        "state": "RS",
        "district": "Vila Ponta Pora",
        "street": "Rua Vieira Caldas Junior",
        "zipcode": "94935-730"
    },
    {
        "city": "Cachoeirinha",
        "state": "RS",
        "district": "Distrito Industrial",
        "street": "Rua Rainha Do Mar",
        "zipcode": "94930-480"
    },
    {
        "city": "Cachoeirinha",
        "state": "RS",
        "district": "Vila Eunice Velha",
        "street": "Praça Mario Ferreira Brito",
        "zipcode": "94920-400"
    },
    {
        "city": "Cachoeirinha",
        "state": "RS",
        "district": "Vila Imbuhy",
        "street": "Rua Senador Joao Alberto",
        "zipcode": "94920-620"
    },
    {
        "city": "Cachoeirinha",
        "state": "RS",
        "district": "Vila City",
        "street": "Praça Getulio Vargas",
        "zipcode": "94935-230"
    },
    {
        "city": "Cachoeirinha",
        "state": "RS",
        "district": "Vila Eunice Velha",
        "street": "Rua Donario Almeida",
        "zipcode": "94920-130"
    },
    {
        "city": "Cachoeirinha",
        "state": "RS",
        "district": "Distrito Industrial",
        "street": "Avenida Obedy Cândido Vieira",
        "zipcode": "94930-660"
    },
    {
        "city": "Cachoeirinha",
        "state": "RS",
        "district": "Vila Imbui",
        "street": "Avenida General Flores da Cunha",
        "zipcode": "94901-970"
    },
    {
        "city": "Cachoeirinha",
        "state": "RS",
        "district": "Jardim Betânia",
        "street": "Rua Jurerê",
        "zipcode": "94970-670"
    },
    {
        "city": "Cachoeirinha",
        "state": "RS",
        "district": "Chácara das Rosas",
        "street": "Rua Cacto",
        "zipcode": "94967-390"
    },
    {
        "city": "Cachoeirinha",
        "state": "RS",
        "district": "Jardim Betânia",
        "street": "Rua Cassino",
        "zipcode": "94970-590"
    },
    {
        "city": "Cachoeirinha",
        "state": "RS",
        "district": "Jardim Betânia",
        "street": "Rua Capão da Canoa",
        "zipcode": "94970-780"
    },
    {
        "city": "Cachoeirinha",
        "state": "RS",
        "district": "Vila Santo Ângelo",
        "street": "Rua Delfim Moreira",
        "zipcode": "94920-110"
    },
    {
        "city": "Cachoeirinha",
        "state": "RS",
        "district": "Vila Parque Brasília",
        "street": "Rua Dom Feliciano",
        "zipcode": "94935-120"
    },
    {
        "city": "Cachoeirinha",
        "state": "RS",
        "district": "Vila Vista Alegre",
        "street": "Rua da Penha",
        "zipcode": "94945-460"
    },
    {
        "city": "Cachoeirinha",
        "state": "RS",
        "district": "Vila Parque Brasília",
        "street": "Rua do Abrigo",
        "zipcode": "94940-010"
    },
    {
        "city": "Cachoeirinha",
        "state": "RS",
        "district": "Parque da Matriz",
        "street": "Rua Deolindo Manoel Selao",
        "zipcode": "94950-705"
    },
    {
        "city": "Cachoeirinha",
        "state": "RS",
        "district": "Parque Granja Esperança",
        "street": "Rua Dois (M Bosque)",
        "zipcode": "94960-054"
    },
    {
        "city": "Cachoeirinha",
        "state": "RS",
        "district": "Vila Bom Princípio",
        "street": "Rua das Oliveiras",
        "zipcode": "94950-300"
    },
    {
        "city": "Cachoeirinha",
        "state": "RS",
        "district": "Distrito Industrial",
        "street": "Rua Euclides Gomes de Oliveira (Águas Mortas)",
        "zipcode": "94930-600"
    },
    {
        "city": "Cachoeirinha",
        "state": "RS",
        "district": "Vila Monte Carlo",
        "street": "Rua Ernesto Frield (J Atlântico)",
        "zipcode": "94940-080"
    },
    {
        "city": "Cachoeirinha",
        "state": "RS",
        "district": "Parque da Matriz",
        "street": "Rua Eloi Joalmes Teixeira",
        "zipcode": "94950-715"
    },
    {
        "city": "Cachoeirinha",
        "state": "RS",
        "district": "Parque Espírito Santo",
        "street": "Rua Espírito Santo",
        "zipcode": "94965-140"
    },
    {
        "city": "Cachoeirinha",
        "state": "RS",
        "district": "Nova Esperança",
        "street": "Rua Falcão (Vl N Canarinho)",
        "zipcode": "94967-030"
    },
    {
        "city": "Cachoeirinha",
        "state": "RS",
        "district": "Chácara das Rosas",
        "street": "Rua Flor de Laranjeira",
        "zipcode": "94967-457"
    },
    {
        "city": "Cachoeirinha",
        "state": "RS",
        "district": "Vila Imbui",
        "street": "Rua Governador Ernesto Dornelles",
        "zipcode": "94920-290"
    },
    {
        "city": "Cachoeirinha",
        "state": "RS",
        "district": "Vila Cachoeirinha",
        "street": "Rua Heini Renner",
        "zipcode": "94910-045"
    },
    {
        "city": "Cachoeirinha",
        "state": "RS",
        "district": "COHAB",
        "street": "Rua Francisco Antônio Vieira Caldas Júnior",
        "zipcode": "94935-520"
    },
    {
        "city": "Cachoeirinha",
        "state": "RS",
        "district": "Parque Granja Esperança",
        "street": "Rua João José Scheffer",
        "zipcode": "94960-812"
    },
    {
        "city": "Cachoeirinha",
        "state": "RS",
        "district": "Vila Regina",
        "street": "Avenida Frederico Augusto Ritter",
        "zipcode": "94930-464"
    },
    {
        "city": "Cachoeirinha",
        "state": "RS",
        "district": "Vila Parque Brasília",
        "street": "Avenida General Flores da Cunha",
        "zipcode": "94950-000"
    },
    {
        "city": "Cachoeirinha",
        "state": "RS",
        "district": "Parque Granja Esperança",
        "street": "Avenida Capitão Garibaldi Pinto dos Santos",
        "zipcode": "94960-120"
    },
    {
        "city": "Cachoeirinha",
        "state": "RS",
        "district": "Chácara das Rosas",
        "street": "Avenida Flores do Campo",
        "zipcode": "94967-398"
    },
    {
        "city": "Cachoeirinha",
        "state": "RS",
        "district": "Vila Carlos Antônio Wilkens",
        "street": "Rua Ademar Moura",
        "zipcode": "94930-010"
    },
    {
        "city": "Cachoeirinha",
        "state": "RS",
        "district": "Parque Granja Esperança",
        "street": "Beco Mathias Pedro Scheffer",
        "zipcode": "94960-420"
    },
    {
        "city": "Cachoeirinha",
        "state": "RS",
        "district": "Parque Granja Esperanca",
        "street": "Rua Ema Borges Dos Santos",
        "zipcode": "94960-600"
    },
    {
        "city": "Cachoeirinha",
        "state": "RS",
        "district": "Vila Vista Alegre",
        "street": "Praça Paulo Sbardellotto",
        "zipcode": "94945-610"
    },
    {
        "city": "Cachoeirinha",
        "state": "RS",
        "district": "Parque Granja Esperanca",
        "street": "Rua Osvaldo",
        "zipcode": "94960-680"
    },
    {
        "city": "Cachoeirinha",
        "state": "RS",
        "district": "Distrito Industrial",
        "street": "Rua Guara",
        "zipcode": "94930-612"
    },
    {
        "city": "Cachoeirinha",
        "state": "RS",
        "district": "Distrito Industrial",
        "street": "Rua Atlantida",
        "zipcode": "94930-120"
    },
    {
        "city": "Cachoeirinha",
        "state": "RS",
        "district": "Parque Granja Esperanca",
        "street": "Rua Presidente Castelo Branco",
        "zipcode": "94960-510"
    },
    {
        "city": "Cachoeirinha",
        "state": "RS",
        "district": "Cohab",
        "street": "Praça Progresso",
        "zipcode": "94935-560"
    },
    {
        "city": "Cachoeirinha",
        "state": "RS",
        "district": "Nova Fatima",
        "street": "Avenida Brasil",
        "zipcode": "94965-060"
    },
    {
        "city": "Cachoeirinha",
        "state": "RS",
        "district": "Distrito Industrial",
        "street": "Rua Quintao",
        "zipcode": "94930-640"
    },
    {
        "city": "Cachoeirinha",
        "state": "RS",
        "district": "Parque Da Matriz",
        "street": "Rua Cristalina",
        "zipcode": "94950-587"
    },
    {
        "city": "Cachoeirinha",
        "state": "RS",
        "district": "Vila Vista Alegre",
        "street": "Travessa Feliz",
        "zipcode": "94955-656"
    },
    {
        "city": "Cachoeirinha",
        "state": "RS",
        "district": "Cohab",
        "street": "Rua Tome De Souza",
        "zipcode": "94935-780"
    },
    {
        "city": "Cachoeirinha",
        "state": "RS",
        "district": "Vila Parque Brasilia",
        "street": "Rua Sao Jose",
        "zipcode": "94935-650"
    },
    {
        "city": "Cachoeirinha",
        "state": "RS",
        "district": "Vila City",
        "street": "Praça Independencia",
        "zipcode": "94935-270"
    },
    {
        "city": "Cachoeirinha",
        "state": "RS",
        "district": "Parque Da Matriz",
        "street": "Rua Presidente Vargas",
        "zipcode": "94950-350"
    },
    {
        "city": "Cachoeirinha",
        "state": "RS",
        "district": "Parque Espirito Santo",
        "street": "Rua Guaiba",
        "zipcode": "94965-210"
    },
    {
        "city": "Cachoeirinha",
        "state": "RS",
        "district": "Parque Granja Esperanca",
        "street": "Rua Nonoai",
        "zipcode": "94960-670"
    },
    {
        "city": "Cachoeirinha",
        "state": "RS",
        "district": "Parque Granja Esperanca",
        "street": "Rua Presidente Cafe Filho",
        "zipcode": "94960-500"
    },
    {
        "city": "Cachoeirinha",
        "state": "RS",
        "district": "Vila Silveira Martins",
        "street": "Rua José Antônio Duarte",
        "zipcode": "94940-180"
    },
    {
        "city": "Cachoeirinha",
        "state": "RS",
        "district": "Parque da Matriz",
        "street": "Rua José Rodrigues de Souza",
        "zipcode": "94950-825"
    },
    {
        "city": "Cachoeirinha",
        "state": "RS",
        "district": "Parque da Matriz",
        "street": "Rua Senador Luiz Carlos Prestes",
        "zipcode": "94950-710"
    },
    {
        "city": "Cachoeirinha",
        "state": "RS",
        "district": "Jardim do Bosque",
        "street": "Rua Tulipa (Nsa Sra Navegantes)",
        "zipcode": "94960-522"
    },
    {
        "city": "Cachoeirinha",
        "state": "RS",
        "district": "Parque Granja Esperança",
        "street": "Rua Pedro Gadeia Freitas",
        "zipcode": "94960-480"
    },
    {
        "city": "Cachoeirinha",
        "state": "RS",
        "district": "Parque Granja Esperanca",
        "street": "Rua Octaviano Matos De Mello",
        "zipcode": "94960-440"
    },
    {
        "city": "Cachoeirinha",
        "state": "RS",
        "district": "Parque Granja Esperanca",
        "street": "Rua Sao Miguel",
        "zipcode": "94960-730"
    },
    {
        "city": "Cachoeirinha",
        "state": "RS",
        "district": "Parque Granja Esperança",
        "street": "Rua Nildo Hainzereder Schutz",
        "zipcode": "94960-814"
    },
    {
        "city": "Cachoeirinha",
        "state": "RS",
        "district": "Parque Granja Esperança",
        "street": "Rua Possidônio Borges dos Santos",
        "zipcode": "94960-490"
    },
    {
        "city": "Cachoeirinha",
        "state": "RS",
        "district": "Parque Granja Esperança",
        "street": "Rua Sebastião Florentino da Silva",
        "zipcode": "94960-560"
    },
    {
        "city": "Cachoeirinha",
        "state": "RS",
        "district": "Parque Espírito Santo",
        "street": "Rua Canoas",
        "zipcode": "94965-080"
    },
    {
        "city": "Cachoeirinha",
        "state": "RS",
        "district": "Vila Bom Princípio",
        "street": "Rua Aparício Soares da Cunha",
        "zipcode": "94950-020"
    },
    {
        "city": "Cachoeirinha",
        "state": "RS",
        "district": "COHAB",
        "street": "Rua Vitorino José dos Santos (Vl Quitandinha)",
        "zipcode": "94935-740"
    },
    {
        "city": "Cachoeirinha",
        "state": "RS",
        "district": "Vila Princesa Izabel",
        "street": "Rua Pedro João Becker",
        "zipcode": "94940-230"
    },
    {
        "city": "Cachoeirinha",
        "state": "RS",
        "district": "Vila Vista Alegre",
        "street": "Rua Artidor Nascimento",
        "zipcode": "94945-070"
    },
    {
        "city": "Cachoeirinha",
        "state": "RS",
        "district": "Jardim Conquista",
        "street": "Travessa Valdomiro Corrêa Andrade",
        "zipcode": "94930-786"
    },
    {
        "city": "Cachoeirinha",
        "state": "RS",
        "district": "Vila Jardim America",
        "street": "Rua Campos Sales",
        "zipcode": "94920-050"
    },
    {
        "city": "Cachoeirinha",
        "state": "RS",
        "district": "Parque Granja Esperanca",
        "street": "Rua Pedro Curtis",
        "zipcode": "94960-650"
    },
    {
        "city": "Cachoeirinha",
        "state": "RS",
        "district": "Parque Granja Esperanca",
        "street": "Rua Arlindo Camilo Da Silva",
        "zipcode": "94960-020"
    },
    {
        "city": "Cachoeirinha",
        "state": "RS",
        "district": "Distrito Industrial",
        "street": "Rua Noiva Do Mar",
        "zipcode": "94930-435"
    },
    {
        "city": "Cachoeirinha",
        "state": "RS",
        "district": "Distrito Industrial",
        "street": "Rua Imperador",
        "zipcode": "94930-587"
    },
    {
        "city": "Cachoeirinha",
        "state": "RS",
        "district": "Cohab",
        "street": "Praça Liberdade",
        "zipcode": "94935-400"
    },
    {
        "city": "Cachoeirinha",
        "state": "RS",
        "district": "Distrito Industrial",
        "street": "Rua Betania",
        "zipcode": "94930-145"
    },
    {
        "city": "Cachoeirinha",
        "state": "RS",
        "district": "Parque Granja Esperanca",
        "street": "Rua Cruzeiro Do Sul",
        "zipcode": "94960-700"
    },
    {
        "city": "Cachoeirinha",
        "state": "RS",
        "district": "Distrito Industrial",
        "street": "Rua Kaufman",
        "zipcode": "94930-622"
    },
    {
        "city": "Cachoeirinha",
        "state": "RS",
        "district": "Vila Quitandinha",
        "street": "Avenida Lemente Ofal",
        "zipcode": "94935-770"
    },
    {
        "city": "Cachoeirinha",
        "state": "RS",
        "district": "Cohab",
        "street": "Rua Alzira Silveira",
        "zipcode": "94935-040"
    },
    {
        "city": "Cachoeirinha",
        "state": "RS",
        "district": "Distrito Industrial",
        "street": "Rua Sereia Do Mar",
        "zipcode": "94930-445"
    },
    {
        "city": "Cachoeirinha",
        "state": "RS",
        "district": "Vila Vista Alegre",
        "street": "Rua Nazare",
        "zipcode": "94945-420"
    },
    {
        "city": "Cachoeirinha",
        "state": "RS",
        "district": "Vila Silveira Martins",
        "street": "Praça Osvaldo Cruz",
        "zipcode": "94940-220"
    },
    {
        "city": "Cachoeirinha",
        "state": "RS",
        "district": "Parque Granja Esperança",
        "street": "Rua Vacaria",
        "zipcode": "94960-690"
    },
    {
        "city": "Cachoeirinha",
        "state": "RS",
        "district": "Distrito Industrial",
        "street": "Rua Ary Rosa dos Santos",
        "zipcode": "94930-605"
    },
    {
        "city": "Cachoeirinha",
        "state": "RS",
        "district": "Distrito Industrial",
        "street": "Rua Javali",
        "zipcode": "94930-617"
    },
    {
        "city": "Cachoeirinha",
        "state": "RS",
        "district": "Vila Vista Alegre",
        "street": "Rua Borges De Medeiros",
        "zipcode": "94960-610"
    },
    {
        "city": "Cachoeirinha",
        "state": "RS",
        "district": "Distrito Industrial",
        "street": "Rua Libero Badaro",
        "zipcode": "94930-165"
    },
    {
        "city": "Cachoeirinha",
        "state": "RS",
        "district": "Vila Anair",
        "street": "Beco União da Vitória",
        "zipcode": "94955-124"
    },
    {
        "city": "Cachoeirinha",
        "state": "RS",
        "district": "Distrito Industrial",
        "street": "Rua Itapua",
        "zipcode": "94930-250"
    },
    {
        "city": "Cachoeirinha",
        "state": "RS",
        "district": "Distrito Industrial",
        "street": "Rua Laranjal",
        "zipcode": "94930-300"
    },
    {
        "city": "Cachoeirinha",
        "state": "RS",
        "district": "Distrito Industrial",
        "street": "Rua Pinto Da Rocha",
        "zipcode": "94930-185"
    },
    {
        "city": "Cachoeirinha",
        "state": "RS",
        "district": "Parque Espirito Santo",
        "street": "Rua Manoel Monteiro Dias",
        "zipcode": "94965-350"
    },
    {
        "city": "Cachoeirinha",
        "state": "RS",
        "district": "Vila Imbuhy",
        "street": "Rua Ernesto Dornelles",
        "zipcode": "94920-090"
    },
    {
        "city": "Cachoeirinha",
        "state": "RS",
        "district": "Vila Da Paz",
        "street": "Rua Dezoito De Abril",
        "zipcode": "94930-465"
    },
    {
        "city": "Cachoeirinha",
        "state": "RS",
        "district": "Distrito Industrial",
        "street": "Avenida Vereador Clóvis Elias Prytula",
        "zipcode": "94930-680"
    },
    {
        "city": "Cachoeirinha",
        "state": "RS",
        "district": "Distrito Industrial",
        "street": "Rua Curumim",
        "zipcode": "94930-295"
    }
]