[
    {
        "city": "Cachoeira Do Sul",
        "state": "RS",
        "district": "Frota",
        "street": "Rua Edison Fernando Ferreira Lima",
        "zipcode": "96508-800"
    },
    {
        "city": "Cachoeira Do Sul",
        "state": "RS",
        "district": "Cohab",
        "street": "Quadra Quadras",
        "zipcode": "96503-730"
    },
    {
        "city": "Cachoeira Do Sul",
        "state": "RS",
        "district": "Marina",
        "street": "Rua Joao Pedro Moreira",
        "zipcode": "96505-750"
    },
    {
        "city": "Cachoeira Do Sul",
        "state": "RS",
        "district": "Augusta",
        "street": "Rua Das Nacoes Unidas",
        "zipcode": "96508-560"
    },
    {
        "city": "Cachoeira Do Sul",
        "state": "RS",
        "district": "Marina",
        "street": "Travessa Irapua",
        "zipcode": "96505-680"
    },
    {
        "city": "Cachoeira Do Sul",
        "state": "RS",
        "district": "Augusta",
        "street": "Rua Das Nacoes Unidas",
        "zipcode": "96508-561"
    },
    {
        "city": "Cachoeira Do Sul",
        "state": "RS",
        "district": "Parque Xangrila",
        "street": "Rua Canafistulas",
        "zipcode": "96508-710"
    },
    {
        "city": "Cachoeira Do Sul",
        "state": "RS",
        "district": "Santa Terezinha",
        "street": "Rua Arnoldo Muller",
        "zipcode": "96503-080"
    },
    {
        "city": "Cachoeira Do Sul",
        "state": "RS",
        "district": "Tupinamba",
        "street": "Rua Jose Custodio Leal",
        "zipcode": "96506-680"
    },
    {
        "city": "Cachoeira Do Sul",
        "state": "RS",
        "district": "Quinta Da Boa Vista",
        "street": "Rua Joao Ferreira Da Silva",
        "zipcode": "96505-070"
    }
]