[
    {
        "city": "Farroupilha",
        "state": "RS",
        "district": "América",
        "street": "Rua Gramado",
        "zipcode": "95179-040"
    },
    {
        "city": "Farroupilha",
        "state": "RS",
        "district": "Monte Pasqual",
        "street": "Rua São Gabriel",
        "zipcode": "95178-412"
    },
    {
        "city": "Farroupilha",
        "state": "RS",
        "district": "Centenário",
        "street": "Rua Caxias do Sul",
        "zipcode": "95177-180"
    },
    {
        "city": "Farroupilha",
        "state": "RS",
        "district": "Monte Verde",
        "street": "Rua José Olinto Volpini",
        "zipcode": "95181-626"
    },
    {
        "city": "Farroupilha",
        "state": "RS",
        "district": "Monte Verde",
        "street": "Avenida dos Imigrantes",
        "zipcode": "95181-560"
    },
    {
        "city": "Farroupilha",
        "state": "RS",
        "district": "Monte Verde",
        "street": "Rua Raineri Petrini",
        "zipcode": "95181-510"
    },
    {
        "city": "Farroupilha",
        "state": "RS",
        "district": "Monte Verde",
        "street": "Rua Rodolpho Abraham Felicetti",
        "zipcode": "95181-342"
    },
    {
        "city": "Farroupilha",
        "state": "RS",
        "district": "Monte Verde",
        "street": "Rua Antônio Minella",
        "zipcode": "95181-332"
    },
    {
        "city": "Farroupilha",
        "state": "RS",
        "district": "Primeiro de Maio",
        "street": "Rua Jacomina Veronese",
        "zipcode": "95181-208"
    },
    {
        "city": "Farroupilha",
        "state": "RS",
        "district": "Primeiro de Maio",
        "street": "Rua Achylles Fernando Bonfanti",
        "zipcode": "95181-212"
    },
    {
        "city": "Farroupilha",
        "state": "RS",
        "district": "Monte Verde",
        "street": "Rua Alice Gasperin",
        "zipcode": "95181-590"
    },
    {
        "city": "Farroupilha",
        "state": "RS",
        "district": "Imigrante",
        "street": "Rua Geoachino Silvestrin",
        "zipcode": "95180-326"
    },
    {
        "city": "Farroupilha",
        "state": "RS",
        "district": "São José",
        "street": "Rua Papa João XXIII",
        "zipcode": "95180-494"
    },
    {
        "city": "Farroupilha",
        "state": "RS",
        "district": "Imigrante",
        "street": "Rua Nova Petrópolis",
        "zipcode": "95180-252"
    },
    {
        "city": "Farroupilha",
        "state": "RS",
        "district": "Santo Antônio",
        "street": "Travessa Avelino Viero",
        "zipcode": "95181-062"
    },
    {
        "city": "Farroupilha",
        "state": "RS",
        "district": "São José",
        "street": "Rua Alexandre Bartelle",
        "zipcode": "95180-408"
    },
    {
        "city": "Farroupilha",
        "state": "RS",
        "district": "São José",
        "street": "Rua Pain Filho",
        "zipcode": "95180-406"
    },
    {
        "city": "Farroupilha",
        "state": "RS",
        "district": "Santo Antônio",
        "street": "Rua Raineri Petrini",
        "zipcode": "95181-060"
    },
    {
        "city": "Farroupilha",
        "state": "RS",
        "district": "Primeiro de Maio",
        "street": "Rua Wilson Tartarotti",
        "zipcode": "95181-182"
    },
    {
        "city": "Farroupilha",
        "state": "RS",
        "district": "São José",
        "street": "Rua Ruy Rosado de Aguiar",
        "zipcode": "95180-364"
    },
    {
        "city": "Farroupilha",
        "state": "RS",
        "district": "Primeiro de Maio",
        "street": "Rua Dalcy Ferrari de Andrade",
        "zipcode": "95181-184"
    },
    {
        "city": "Farroupilha",
        "state": "RS",
        "district": "América",
        "street": "Rua Luiz Cartano Branbilla",
        "zipcode": "95179-262"
    },
    {
        "city": "Farroupilha",
        "state": "RS",
        "district": "Imigrante",
        "street": "Rua Júlio de Castilhos",
        "zipcode": "95180-160"
    },
    {
        "city": "Farroupilha",
        "state": "RS",
        "district": "Volta Grande",
        "street": "Rua Cruz Alta",
        "zipcode": "95180-066"
    },
    {
        "city": "Farroupilha",
        "state": "RS",
        "district": "Imigrante",
        "street": "Rua Theodoro Sosa",
        "zipcode": "95180-172"
    },
    {
        "city": "Farroupilha",
        "state": "RS",
        "district": "América",
        "street": "Rua Raymundo Arrosi",
        "zipcode": "95179-086"
    },
    {
        "city": "Farroupilha",
        "state": "RS",
        "district": "América",
        "street": "Rua Ambrósio Crippa",
        "zipcode": "95179-090"
    },
    {
        "city": "Farroupilha",
        "state": "RS",
        "district": "Industrial",
        "street": "Rua A",
        "zipcode": "95178-226"
    },
    {
        "city": "Farroupilha",
        "state": "RS",
        "district": "Monte Pasqual",
        "street": "Rua Santo Augusto",
        "zipcode": "95178-408"
    },
    {
        "city": "Farroupilha",
        "state": "RS",
        "district": "Monte Pasqual",
        "street": "Rua Abramo Dal Molin",
        "zipcode": "95178-346"
    },
    {
        "city": "Farroupilha",
        "state": "RS",
        "district": "Monte Pasqual",
        "street": "Rua Germano Crippa",
        "zipcode": "95178-344"
    },
    {
        "city": "Farroupilha",
        "state": "RS",
        "district": "Monte Pasqual",
        "street": "Rua Manoel Pasqual",
        "zipcode": "95178-416"
    },
    {
        "city": "Farroupilha",
        "state": "RS",
        "district": "Monte Pasqual",
        "street": "Rua Santa Maria",
        "zipcode": "95178-400"
    },
    {
        "city": "Farroupilha",
        "state": "RS",
        "district": "Industrial",
        "street": "Rua Feliz",
        "zipcode": "95178-220"
    },
    {
        "city": "Farroupilha",
        "state": "RS",
        "district": "Monte Pasqual",
        "street": "Rua Arcangelo Milesi",
        "zipcode": "95178-326"
    },
    {
        "city": "Farroupilha",
        "state": "RS",
        "district": "Pio X",
        "street": "Rua General Osório",
        "zipcode": "95170-059"
    },
    {
        "city": "Farroupilha",
        "state": "RS",
        "district": "Medianeira",
        "street": "Rua Guaíba",
        "zipcode": "95177-062"
    },
    {
        "city": "Farroupilha",
        "state": "RS",
        "district": "Centro",
        "street": "Rua Arcangelo Chiele",
        "zipcode": "95170-460"
    },
    {
        "city": "Farroupilha",
        "state": "RS",
        "district": "Industrial",
        "street": "Rua Encantado",
        "zipcode": "95178-200"
    },
    {
        "city": "Farroupilha",
        "state": "RS",
        "district": "Industrial",
        "street": "Rua Amaro Azevedo",
        "zipcode": "95178-170"
    },
    {
        "city": "Farroupilha",
        "state": "RS",
        "district": "Centenário",
        "street": "Rua Guerino Tartarotti",
        "zipcode": "95177-208"
    },
    {
        "city": "Farroupilha",
        "state": "RS",
        "district": "Industrial",
        "street": "Rua João Fabbro Filho",
        "zipcode": "95178-176"
    },
    {
        "city": "Farroupilha",
        "state": "RS",
        "district": "Industrial",
        "street": "Rua Manoel Pasqual",
        "zipcode": "95178-110"
    },
    {
        "city": "Farroupilha",
        "state": "RS",
        "district": "Centenário",
        "street": "Rua Attilio Sebastião Todesco",
        "zipcode": "95177-248"
    },
    {
        "city": "Farroupilha",
        "state": "RS",
        "district": "Medianeira",
        "street": "Avenida Veneza",
        "zipcode": "95177-030"
    },
    {
        "city": "Farroupilha",
        "state": "RS",
        "district": "Santa Catarina",
        "street": "Rua Giovani Zanonato",
        "zipcode": "95176-166"
    },
    {
        "city": "Farroupilha",
        "state": "RS",
        "district": "Santa Catarina",
        "street": "Rua Espumoso",
        "zipcode": "95176-104"
    },
    {
        "city": "Farroupilha",
        "state": "RS",
        "district": "São Francisco",
        "street": "Rua Catuípe",
        "zipcode": "95171-063"
    },
    {
        "city": "Farroupilha",
        "state": "RS",
        "district": "Bela Vista",
        "street": "Rua Augusto Pessin",
        "zipcode": "95173-022"
    },
    {
        "city": "Farroupilha",
        "state": "RS",
        "district": "Bela Vista",
        "street": "Rua Domingos Mazzoco",
        "zipcode": "95173-026"
    },
    {
        "city": "Farroupilha",
        "state": "RS",
        "district": "Belvedere",
        "street": "Rua Cristiano Antônio Frederico Fetter",
        "zipcode": "95173-306"
    },
    {
        "city": "Farroupilha",
        "state": "RS",
        "district": "Belvedere",
        "street": "Rua João Barbizan",
        "zipcode": "95173-342"
    },
    {
        "city": "Farroupilha",
        "state": "RS",
        "district": "Santa Catarina",
        "street": "Rua Navílio Gasperin",
        "zipcode": "95176-116"
    },
    {
        "city": "Farroupilha",
        "state": "RS",
        "district": "São Roque",
        "street": "Rua Marechal Deodoro da Fonseca",
        "zipcode": "95176-018"
    },
    {
        "city": "Farroupilha",
        "state": "RS",
        "district": "Cinquentenário",
        "street": "Rua Mário Ely",
        "zipcode": "95174-320"
    },
    {
        "city": "Farroupilha",
        "state": "RS",
        "district": "Nova Vicenza",
        "street": "Rua João Carlos Frederico Fetter",
        "zipcode": "95174-118"
    },
    {
        "city": "Farroupilha",
        "state": "RS",
        "district": "Bela Vista",
        "street": "Rua Princesa Isabel",
        "zipcode": "95173-030"
    },
    {
        "city": "Farroupilha",
        "state": "RS",
        "district": "Bela Vista",
        "street": "Rua Santa Catarina",
        "zipcode": "95173-032"
    },
    {
        "city": "Farroupilha",
        "state": "RS",
        "district": "Belvedere",
        "street": "Rua Victório Tartarotti",
        "zipcode": "95173-288"
    },
    {
        "city": "Farroupilha",
        "state": "RS",
        "district": "Nova Vicenza",
        "street": "Rua Augusto Pestana",
        "zipcode": "95174-122"
    },
    {
        "city": "Farroupilha",
        "state": "RS",
        "district": "São Luiz",
        "street": "Rua João Farinon",
        "zipcode": "95170-746"
    },
    {
        "city": "Farroupilha",
        "state": "RS",
        "district": "Vicentina",
        "street": "Rua Júlio de Castilhos",
        "zipcode": "95172-039"
    },
    {
        "city": "Farroupilha",
        "state": "RS",
        "district": "Vicentina",
        "street": "Rua Guilherme Engers",
        "zipcode": "95172-051"
    },
    {
        "city": "Farroupilha",
        "state": "RS",
        "district": "Nova Vicenza",
        "street": "Rua Cachoeirinha",
        "zipcode": "95174-048"
    },
    {
        "city": "Farroupilha",
        "state": "RS",
        "district": "Pio X",
        "street": "Rua Planalto",
        "zipcode": "95170-074"
    },
    {
        "city": "Farroupilha",
        "state": "RS",
        "district": "Parque",
        "street": "Rua Abele José Deimoni",
        "zipcode": "95170-180"
    },
    {
        "city": "Farroupilha",
        "state": "RS",
        "district": "Planalto",
        "street": "Rua Santa Rita",
        "zipcode": "95170-360"
    },
    {
        "city": "Farroupilha",
        "state": "RS",
        "district": "Centro",
        "street": "Rua Quatorze de Julho",
        "zipcode": "95170-416"
    },
    {
        "city": "Farroupilha",
        "state": "RS",
        "district": "São Luiz",
        "street": "Rua Schneider",
        "zipcode": "95170-604"
    },
    {
        "city": "Farroupilha",
        "state": "RS",
        "district": "Parque",
        "street": "Rua Vicente Zamboni",
        "zipcode": "95170-164"
    },
    {
        "city": "Farroupilha",
        "state": "RS",
        "district": "Centro",
        "street": "Rua Treze de Maio",
        "zipcode": "95170-428"
    },
    {
        "city": "Farroupilha",
        "state": "RS",
        "district": "São Luiz",
        "street": "Rua Emílio Weissheimer",
        "zipcode": "95170-770"
    },
    {
        "city": "Farroupilha",
        "state": "RS",
        "district": "Belvedere",
        "street": "Rua Eulália Olympia Zamboni",
        "zipcode": "95173-424"
    },
    {
        "city": "Farroupilha",
        "state": "RS",
        "district": "Parque",
        "street": "Rua Marechal Deodoro da Fonseca",
        "zipcode": "95170-276"
    },
    {
        "city": "Farroupilha",
        "state": "RS",
        "district": "Centro",
        "street": "Rua Júlio de Castilhos",
        "zipcode": "95170-448"
    },
    {
        "city": "Farroupilha",
        "state": "RS",
        "district": "Centro",
        "street": "Rua Luiz Ornaghi",
        "zipcode": "95170-536"
    },
    {
        "city": "Farroupilha",
        "state": "RS",
        "district": "Monte Verde",
        "street": "Rua Luiz Zanfelice",
        "zipcode": "95181-380"
    },
    {
        "city": "Farroupilha",
        "state": "RS",
        "district": "Centenário",
        "street": "Rua Carlos Buscaino",
        "zipcode": "95177-204"
    },
    {
        "city": "Farroupilha",
        "state": "RS",
        "district": "Alvorada",
        "street": "Rua Prefeito Giacomo Valentin Luchese",
        "zipcode": "95178-494"
    },
    {
        "city": "Farroupilha",
        "state": "RS",
        "district": "Santa Catarina",
        "street": "Rua Orlindo Pedro Faé",
        "zipcode": "95176-230"
    },
    {
        "city": "Farroupilha",
        "state": "RS",
        "district": "Medianeira",
        "street": "Rua Treviso",
        "zipcode": "95177-048"
    },
    {
        "city": "Farroupilha",
        "state": "RS",
        "district": "Medianeira",
        "street": "Rua Rovigo",
        "zipcode": "95177-102"
    },
    {
        "city": "Farroupilha",
        "state": "RS",
        "district": "Cruzeiro",
        "street": "Rua Adelina Ângela Faé Guerra",
        "zipcode": "95176-296"
    },
    {
        "city": "Farroupilha",
        "state": "RS",
        "district": "Cruzeiro",
        "street": "Rua Domênico Fin",
        "zipcode": "95176-304"
    },
    {
        "city": "Farroupilha",
        "state": "RS",
        "district": "Cinquentenário",
        "street": "Rua Alício Octávio Maioli",
        "zipcode": "95174-354"
    },
    {
        "city": "Farroupilha",
        "state": "RS",
        "district": "Imigrante",
        "street": "Rua Pedro Grendene",
        "zipcode": "95180-158"
    },
    {
        "city": "Farroupilha",
        "state": "RS",
        "district": "Cinquentenário",
        "street": "Rua Augusto Lino Breitembach",
        "zipcode": "95174-214"
    },
    {
        "city": "Farroupilha",
        "state": "RS",
        "district": "América",
        "street": "Rua Tereza Reginato Binda",
        "zipcode": "95179-150"
    },
    {
        "city": "Farroupilha",
        "state": "RS",
        "district": "América",
        "street": "Rua Ricieri Anghinoni",
        "zipcode": "95179-012"
    },
    {
        "city": "Farroupilha",
        "state": "RS",
        "district": "Vicentina",
        "street": "Rua Egídio Zamboni",
        "zipcode": "95172-105"
    },
    {
        "city": "Farroupilha",
        "state": "RS",
        "district": "Nova Vicenza",
        "street": "Rua Alexandre Sachet",
        "zipcode": "95174-042"
    },
    {
        "city": "Farroupilha",
        "state": "RS",
        "district": "Pio X",
        "street": "Rua Rio Grande",
        "zipcode": "95170-077"
    },
    {
        "city": "Farroupilha",
        "state": "RS",
        "district": "Parque",
        "street": "Rua Prefeito Baungartner",
        "zipcode": "95170-156"
    },
    {
        "city": "Farroupilha",
        "state": "RS",
        "district": "Planalto",
        "street": "Rua José Francischini",
        "zipcode": "95170-328"
    },
    {
        "city": "Farroupilha",
        "state": "RS",
        "district": "Pio X",
        "street": "Rua Vinte e Cinco de Julho",
        "zipcode": "95170-095"
    },
    {
        "city": "Farroupilha",
        "state": "RS",
        "district": "Volta Grande",
        "street": "Rua Getúlio Vargas",
        "zipcode": "95180-070"
    },
    {
        "city": "Farroupilha",
        "state": "RS",
        "district": "América",
        "street": "Rua Olavo Cavalcanti",
        "zipcode": "95179-048"
    },
    {
        "city": "Farroupilha",
        "state": "RS",
        "district": "Centro",
        "street": "Rua Pinheiro Machado",
        "zipcode": "95170-432"
    },
    {
        "city": "Farroupilha",
        "state": "RS",
        "district": "Centro",
        "street": "Rua Ulysses João Castagna",
        "zipcode": "95170-512"
    },
    {
        "city": "Farroupilha",
        "state": "RS",
        "district": "São Luiz",
        "street": "Rua Waldemar José Dal Monte",
        "zipcode": "95170-802"
    },
    {
        "city": "Farroupilha",
        "state": "RS",
        "district": "Centro",
        "street": "Rua José Dalla Riva",
        "zipcode": "95170-408"
    },
    {
        "city": "Farroupilha",
        "state": "RS",
        "district": "São Luiz",
        "street": "Rua Coronel Pena de Moraes",
        "zipcode": "95170-850"
    },
    {
        "city": "Farroupilha",
        "state": "RS",
        "district": "Belvedere",
        "street": "Rua Amadeu Cotta",
        "zipcode": "95173-280"
    },
    {
        "city": "Farroupilha",
        "state": "RS",
        "district": "Vicentina",
        "street": "Rua Ítalo Zanella",
        "zipcode": "95172-006"
    },
    {
        "city": "Farroupilha",
        "state": "RS",
        "district": "Centenário",
        "street": "Rodovia ERS",
        "zipcode": "95177-150"
    },
    {
        "city": "Farroupilha",
        "state": "RS",
        "district": "São Roque",
        "street": "Avenida Veneza",
        "zipcode": "95176-056"
    },
    {
        "city": "Farroupilha",
        "state": "RS",
        "district": "Nova Vicenza",
        "street": "Rua Barracão",
        "zipcode": "95174-120"
    },
    {
        "city": "Farroupilha",
        "state": "RS",
        "district": "Planalto",
        "street": "Rua Três de Outubro",
        "zipcode": "95170-324"
    },
    {
        "city": "Farroupilha",
        "state": "RS",
        "district": "Centro",
        "street": "Rua Marechal Floriano Peixoto",
        "zipcode": "95170-420"
    },
    {
        "city": "Farroupilha",
        "state": "RS",
        "district": "Centro",
        "street": "Rua Romulo Noro",
        "zipcode": "95170-496"
    },
    {
        "city": "Farroupilha",
        "state": "RS",
        "district": "Centro",
        "street": "Rua Nataly Valentini",
        "zipcode": "95170-500"
    },
    {
        "city": "Farroupilha",
        "state": "RS",
        "district": "São Francisco",
        "street": "Rua João Luiz Cauduro",
        "zipcode": "95171-012"
    },
    {
        "city": "Farroupilha",
        "state": "RS",
        "district": "São Francisco",
        "street": "Rua Coronel Pena de Moraes",
        "zipcode": "95171-032"
    },
    {
        "city": "Farroupilha",
        "state": "RS",
        "district": "São Francisco",
        "street": "Rua Dyonisio Balthassar Maggioni",
        "zipcode": "95171-128"
    },
    {
        "city": "Farroupilha",
        "state": "RS",
        "district": "São Francisco",
        "street": "Rua Ari Reginatto",
        "zipcode": "95171-144"
    },
    {
        "city": "Farroupilha",
        "state": "RS",
        "district": "Vicentina",
        "street": "Rua Joaquim Beal",
        "zipcode": "95172-087"
    },
    {
        "city": "Farroupilha",
        "state": "RS",
        "district": "Cinquentenário",
        "street": "Rua Edmundo Hilgert",
        "zipcode": "95174-300"
    },
    {
        "city": "Farroupilha",
        "state": "RS",
        "district": "Monte Verde",
        "street": "Rua André Antônio Pezzi",
        "zipcode": "95181-480"
    },
    {
        "city": "Farroupilha",
        "state": "RS",
        "district": "Monte Verde",
        "street": "Rua Roberto Antônio Biondo",
        "zipcode": "95181-600"
    },
    {
        "city": "Farroupilha",
        "state": "RS",
        "district": "Imigrante",
        "street": "Rua Giovani Chies",
        "zipcode": "95180-320"
    },
    {
        "city": "Farroupilha",
        "state": "RS",
        "district": "Santa Catarina",
        "street": "Rua Prefeito Severino Braga Varela",
        "zipcode": "95176-220"
    },
    {
        "city": "Farroupilha",
        "state": "RS",
        "district": "Monte Verde",
        "street": "Rua A",
        "zipcode": "95181-486"
    },
    {
        "city": "Farroupilha",
        "state": "RS",
        "district": "Volta Grande",
        "street": "Rua Silveira Martins",
        "zipcode": "95180-058"
    },
    {
        "city": "Farroupilha",
        "state": "RS",
        "district": "Monte Pasqual",
        "street": "Rua São Borja",
        "zipcode": "95178-336"
    },
    {
        "city": "Farroupilha",
        "state": "RS",
        "district": "Monte Pasqual",
        "street": "Rua Ambrósio Pasqual",
        "zipcode": "95178-322"
    },
    {
        "city": "Farroupilha",
        "state": "RS",
        "district": "Alvorada",
        "street": "Rua Manoel Pasqual",
        "zipcode": "95178-484"
    },
    {
        "city": "Farroupilha",
        "state": "RS",
        "district": null,
        "street": null,
        "zipcode": "95180-000"
    },
    {
        "city": "Farroupilha",
        "state": "RS",
        "district": "Monte Verde",
        "street": "Rua Alcides Bartelli",
        "zipcode": "95181-410"
    },
    {
        "city": "Farroupilha",
        "state": "RS",
        "district": "Santo Antônio",
        "street": "Rodovia ERS",
        "zipcode": "95181-010"
    },
    {
        "city": "Farroupilha",
        "state": "RS",
        "district": "Parque",
        "street": "Rua Ivoti",
        "zipcode": "95170-268"
    },
    {
        "city": "Farroupilha",
        "state": "RS",
        "district": "São Luiz",
        "street": "Rua Vitório Dal Monte",
        "zipcode": "95170-738"
    },
    {
        "city": "Farroupilha",
        "state": "RS",
        "district": "América",
        "street": "Rua Alberto Matte",
        "zipcode": "95179-036"
    },
    {
        "city": "Farroupilha",
        "state": "RS",
        "district": "Centro",
        "street": "Rua Carlos Fetter",
        "zipcode": "95170-464"
    },
    {
        "city": "Farroupilha",
        "state": "RS",
        "district": "Centro",
        "street": "Rua Coronel Pena de Moraes 415",
        "zipcode": "95180-970"
    },
    {
        "city": "Farroupilha",
        "state": "RS",
        "district": "Primeiro de Maio",
        "street": "Rua Frederico Antônio Gandolfi",
        "zipcode": "95181-282"
    },
    {
        "city": "Farroupilha",
        "state": "RS",
        "district": "Primeiro de Maio",
        "street": "Rua Antônio Grendene",
        "zipcode": "95181-172"
    },
    {
        "city": "Farroupilha",
        "state": "RS",
        "district": "Primeiro de Maio",
        "street": "Rua Carlos Alberto Rovatti",
        "zipcode": "95181-166"
    },
    {
        "city": "Farroupilha",
        "state": "RS",
        "district": "Imigrante",
        "street": "Rua Bento Gonçalves",
        "zipcode": "95180-162"
    },
    {
        "city": "Farroupilha",
        "state": "RS",
        "district": "São José",
        "street": "Rua Antônio Covalan",
        "zipcode": "95180-484"
    },
    {
        "city": "Farroupilha",
        "state": "RS",
        "district": "Monte Verde",
        "street": "Rua Antônio Fioravante Pedó",
        "zipcode": "95181-340"
    },
    {
        "city": "Farroupilha",
        "state": "RS",
        "district": "São José",
        "street": "Rua Carlos Fanton",
        "zipcode": "95180-480"
    },
    {
        "city": "Farroupilha",
        "state": "RS",
        "district": "Primeiro de Maio",
        "street": "Rua Antônio Sachet",
        "zipcode": "95181-202"
    },
    {
        "city": "Farroupilha",
        "state": "RS",
        "district": "Imigrante",
        "street": "Rua Albino Melotto",
        "zipcode": "95180-152"
    },
    {
        "city": "Farroupilha",
        "state": "RS",
        "district": "São Marcos",
        "street": "Rua Principal",
        "zipcode": "95180-974"
    },
    {
        "city": "Farroupilha",
        "state": "RS",
        "district": "Monte Verde",
        "street": "Rua Antônio Hemkemaier",
        "zipcode": "95181-478"
    },
    {
        "city": "Farroupilha",
        "state": "RS",
        "district": "Primeiro de Maio",
        "street": "Rua Antônio Sachet",
        "zipcode": "95181-168"
    },
    {
        "city": "Farroupilha",
        "state": "RS",
        "district": "São José",
        "street": "Rua Ângelo Ferronatto",
        "zipcode": "95180-478"
    },
    {
        "city": "Farroupilha",
        "state": "RS",
        "district": "Imigrante",
        "street": "Rua Fridolino Althaus",
        "zipcode": "95180-316"
    },
    {
        "city": "Farroupilha",
        "state": "RS",
        "district": "Volta Grande",
        "street": "Rua Ângelo Rigatti",
        "zipcode": "95180-054"
    },
    {
        "city": "Farroupilha",
        "state": "RS",
        "district": "Monte Verde",
        "street": "Rua Carlos Nelson Bach",
        "zipcode": "95181-338"
    },
    {
        "city": "Farroupilha",
        "state": "RS",
        "district": "São José",
        "street": "Rua Eugênio de Nardi",
        "zipcode": "95180-490"
    },
    {
        "city": "Farroupilha",
        "state": "RS",
        "district": "São José",
        "street": "Rua Casca",
        "zipcode": "95180-410"
    },
    {
        "city": "Farroupilha",
        "state": "RS",
        "district": "São José",
        "street": "Rua Eulalia Rovatti",
        "zipcode": "95180-402"
    },
    {
        "city": "Farroupilha",
        "state": "RS",
        "district": "Primeiro de Maio",
        "street": "Rua Evandro Casagrande",
        "zipcode": "95181-210"
    },
    {
        "city": "Farroupilha",
        "state": "RS",
        "district": "Imigrante",
        "street": "Rua Edwino Bauth",
        "zipcode": "95180-332"
    },
    {
        "city": "Farroupilha",
        "state": "RS",
        "district": "Imigrante",
        "street": "Rua Faustino Gomes",
        "zipcode": "95180-166"
    },
    {
        "city": "Farroupilha",
        "state": "RS",
        "district": "Santo Antônio",
        "street": "Rua Edgar João Antônio Malinverno",
        "zipcode": "95181-032"
    },
    {
        "city": "Farroupilha",
        "state": "RS",
        "district": "São José",
        "street": "Rua Antônio Feltrin",
        "zipcode": "95180-394"
    },
    {
        "city": "Farroupilha",
        "state": "RS",
        "district": "Imigrante",
        "street": "Rua Felisbino Franschini",
        "zipcode": "95180-288"
    },
    {
        "city": "Farroupilha",
        "state": "RS",
        "district": "América",
        "street": "Rua Generino Romani",
        "zipcode": "95179-002"
    },
    {
        "city": "Farroupilha",
        "state": "RS",
        "district": "São José",
        "street": "Rua Muçum",
        "zipcode": "95180-470"
    },
    {
        "city": "Farroupilha",
        "state": "RS",
        "district": "Imigrante",
        "street": "Rua Lourdes Guerra",
        "zipcode": "95180-328"
    },
    {
        "city": "Farroupilha",
        "state": "RS",
        "district": "América",
        "street": "Rua Damião Colombo",
        "zipcode": "95179-144"
    },
    {
        "city": "Farroupilha",
        "state": "RS",
        "district": "América",
        "street": "Rua Florentino Luiz Perottoni",
        "zipcode": "95179-084"
    },
    {
        "city": "Farroupilha",
        "state": "RS",
        "district": "Imigrante",
        "street": "Rua Marcilio Rizzon",
        "zipcode": "95180-260"
    },
    {
        "city": "Farroupilha",
        "state": "RS",
        "district": "Volta Grande",
        "street": "Rua Angelo Gardini",
        "zipcode": "95180-020"
    },
    {
        "city": "Farroupilha",
        "state": "RS",
        "district": "América",
        "street": "Rua Ângelo Rebellato",
        "zipcode": "95179-264"
    },
    {
        "city": "Farroupilha",
        "state": "RS",
        "district": "América",
        "street": "Rua Antônio Guerra",
        "zipcode": "95179-260"
    },
    {
        "city": "Farroupilha",
        "state": "RS",
        "district": "Monte Verde",
        "street": "Rua Gerônimo Franceschini",
        "zipcode": "95181-484"
    },
    {
        "city": "Farroupilha",
        "state": "RS",
        "district": "Monte Verde",
        "street": "Rua Marilice Pessin Haubert",
        "zipcode": "95181-344"
    },
    {
        "city": "Farroupilha",
        "state": "RS",
        "district": "Monte Verde",
        "street": "Rua Lucindo Lodi",
        "zipcode": "95181-300"
    },
    {
        "city": "Farroupilha",
        "state": "RS",
        "district": "Primeiro de Maio",
        "street": "Rua Itacyr Raimundo Zatti",
        "zipcode": "95181-186"
    },
    {
        "city": "Farroupilha",
        "state": "RS",
        "district": "Primeiro de Maio",
        "street": "Rua Jacomina Veronese",
        "zipcode": "95181-174"
    },
    {
        "city": "Farroupilha",
        "state": "RS",
        "district": "Primeiro de Maio",
        "street": "Rua Lino Zanonatto",
        "zipcode": "95181-164"
    },
    {
        "city": "Farroupilha",
        "state": "RS",
        "district": "Monte Verde",
        "street": "Rua Leopoldo dos Santos",
        "zipcode": "95181-470"
    },
    {
        "city": "Farroupilha",
        "state": "RS",
        "district": "Monte Verde",
        "street": "Rua Josué Valandro",
        "zipcode": "95181-374"
    },
    {
        "city": "Farroupilha",
        "state": "RS",
        "district": "Primeiro de Maio",
        "street": "Rua Gilberto Broilo",
        "zipcode": "95181-160"
    },
    {
        "city": "Farroupilha",
        "state": "RS",
        "district": "Primeiro de Maio",
        "street": "Rua Maria Higina Gardini",
        "zipcode": "95181-152"
    },
    {
        "city": "Farroupilha",
        "state": "RS",
        "district": "Santo Antônio",
        "street": "Rua Lino Zanonatto",
        "zipcode": "95181-070"
    },
    {
        "city": "Farroupilha",
        "state": "RS",
        "district": "Santo Antônio",
        "street": "Rua João Gardini",
        "zipcode": "95181-040"
    },
    {
        "city": "Farroupilha",
        "state": "RS",
        "district": "São José",
        "street": "Rua Paulo Radaelli",
        "zipcode": "95180-482"
    },
    {
        "city": "Farroupilha",
        "state": "RS",
        "district": "São José",
        "street": "Rua José Rizzo",
        "zipcode": "95180-392"
    },
    {
        "city": "Farroupilha",
        "state": "RS",
        "district": "São José",
        "street": "Rua Pedro Koff",
        "zipcode": "95180-368"
    },
    {
        "city": "Farroupilha",
        "state": "RS",
        "district": "São José",
        "street": "Rua Pedro Mandelli",
        "zipcode": "95180-362"
    },
    {
        "city": "Farroupilha",
        "state": "RS",
        "district": "Santo Antônio",
        "street": "Rua Marcelino Mauri",
        "zipcode": "95181-068"
    },
    {
        "city": "Farroupilha",
        "state": "RS",
        "district": "São José",
        "street": "Rua Pedro Koff",
        "zipcode": "95180-412"
    },
    {
        "city": "Farroupilha",
        "state": "RS",
        "district": "São José",
        "street": "Rua Maximiliano Thomaz Dorigon",
        "zipcode": "95180-358"
    },
    {
        "city": "Farroupilha",
        "state": "RS",
        "district": "São José",
        "street": "Rua Nisio Lumbieri",
        "zipcode": "95180-352"
    },
    {
        "city": "Farroupilha",
        "state": "RS",
        "district": "América",
        "street": "Rua Dante Pedro Malinverno",
        "zipcode": "95179-142"
    },
    {
        "city": "Farroupilha",
        "state": "RS",
        "district": "América",
        "street": "Rua Celestino Tomazo Signori",
        "zipcode": "95179-082"
    },
    {
        "city": "Farroupilha",
        "state": "RS",
        "district": "América",
        "street": "Rua Francisco Baretta",
        "zipcode": "95179-046"
    },
    {
        "city": "Farroupilha",
        "state": "RS",
        "district": "América",
        "street": "Rua Francisco Baretta",
        "zipcode": "95179-020"
    },
    {
        "city": "Farroupilha",
        "state": "RS",
        "district": "América",
        "street": "Rua Carlos Pacini",
        "zipcode": "95179-016"
    },
    {
        "city": "Farroupilha",
        "state": "RS",
        "district": "Imigrante",
        "street": "Rua Carlos Fetter",
        "zipcode": "95180-250"
    },
    {
        "city": "Farroupilha",
        "state": "RS",
        "district": "Primeiro de Maio",
        "street": "Rua Raineri Petrini",
        "zipcode": "95181-176"
    },
    {
        "city": "Farroupilha",
        "state": "RS",
        "district": "Santo Antônio",
        "street": "Rua Piratini",
        "zipcode": "95181-064"
    },
    {
        "city": "Farroupilha",
        "state": "RS",
        "district": "Santo Antônio",
        "street": "Rua Pedro Osório",
        "zipcode": "95181-044"
    },
    {
        "city": "Farroupilha",
        "state": "RS",
        "district": "Imigrante",
        "street": "Rua Pedro Antonello",
        "zipcode": "95180-186"
    },
    {
        "city": "Farroupilha",
        "state": "RS",
        "district": "Imigrante",
        "street": "Rua Pedro Fagherazzi",
        "zipcode": "95180-182"
    },
    {
        "city": "Farroupilha",
        "state": "RS",
        "district": "Imigrante",
        "street": "Rua Miraguaí",
        "zipcode": "95180-176"
    },
    {
        "city": "Farroupilha",
        "state": "RS",
        "district": "Imigrante",
        "street": "Rua Pedro Gardini",
        "zipcode": "95180-156"
    },
    {
        "city": "Farroupilha",
        "state": "RS",
        "district": "Volta Grande",
        "street": "Rua Pedro Antonello",
        "zipcode": "95180-134"
    },
    {
        "city": "Farroupilha",
        "state": "RS",
        "district": "Santo Antônio",
        "street": "Rua Leopoldo Dabi Malinverno",
        "zipcode": "95181-038"
    },
    {
        "city": "Farroupilha",
        "state": "RS",
        "district": "Imigrante",
        "street": "Rua Pain Filho",
        "zipcode": "95180-240"
    },
    {
        "city": "Farroupilha",
        "state": "RS",
        "district": "Cinquentenário",
        "street": "Rua Alecrim",
        "zipcode": "95174-210"
    },
    {
        "city": "Farroupilha",
        "state": "RS",
        "district": "Monte Verde",
        "street": "Rua José Olinto Volpini",
        "zipcode": "95181-474"
    },
    {
        "city": "Farroupilha",
        "state": "RS",
        "district": "Imigrante",
        "street": "Rua Machadinho",
        "zipcode": "95180-220"
    },
    {
        "city": "Farroupilha",
        "state": "RS",
        "district": "América",
        "street": "Rua Raymundo Arrosi",
        "zipcode": "95179-044"
    },
    {
        "city": "Farroupilha",
        "state": "RS",
        "district": "Imigrante",
        "street": "Rua Rui Barbosa",
        "zipcode": "95180-242"
    },
    {
        "city": "Farroupilha",
        "state": "RS",
        "district": "Imigrante",
        "street": "Rua Willy Trost",
        "zipcode": "95180-150"
    },
    {
        "city": "Farroupilha",
        "state": "RS",
        "district": "Imigrante",
        "street": "Rua Thomas Edison",
        "zipcode": "95180-248"
    },
    {
        "city": "Farroupilha",
        "state": "RS",
        "district": "Imigrante",
        "street": "Rua Tiradentes",
        "zipcode": "95180-246"
    },
    {
        "city": "Farroupilha",
        "state": "RS",
        "district": "Volta Grande",
        "street": "Rua Raineri Petrini",
        "zipcode": "95180-050"
    },
    {
        "city": "Farroupilha",
        "state": "RS",
        "district": "América",
        "street": "Rua Venicio Strada",
        "zipcode": "95179-092"
    },
    {
        "city": "Farroupilha",
        "state": "RS",
        "district": "América",
        "street": "Rua Reinaldo Scherner",
        "zipcode": "95179-014"
    },
    {
        "city": "Farroupilha",
        "state": "RS",
        "district": "Monte Verde",
        "street": "Rua Luiz Zangalli",
        "zipcode": "95181-592"
    },
    {
        "city": "Farroupilha",
        "state": "RS",
        "district": "Primeiro de Maio",
        "street": "Rua Pedro Antonello",
        "zipcode": "95181-158"
    },
    {
        "city": "Farroupilha",
        "state": "RS",
        "district": "Belvedere",
        "street": "Rua Colorado",
        "zipcode": "95173-314"
    },
    {
        "city": "Farroupilha",
        "state": "RS",
        "district": "São José",
        "street": "Rua Tercílio de Mello",
        "zipcode": "95180-492"
    },
    {
        "city": "Farroupilha",
        "state": "RS",
        "district": "São José",
        "street": "Rua Santa Rosa",
        "zipcode": "95180-476"
    },
    {
        "city": "Farroupilha",
        "state": "RS",
        "district": "Imigrante",
        "street": "Rua Sete de Setembro",
        "zipcode": "95180-312"
    },
    {
        "city": "Farroupilha",
        "state": "RS",
        "district": "Monte Pasqual",
        "street": "Rodovia ERS",
        "zipcode": "95178-300"
    },
    {
        "city": "Farroupilha",
        "state": "RS",
        "district": "Industrial",
        "street": "Rodovia ERS",
        "zipcode": "95178-000"
    },
    {
        "city": "Farroupilha",
        "state": "RS",
        "district": "Ipanema",
        "street": "Rodovia ERS",
        "zipcode": "95177-330"
    },
    {
        "city": "Farroupilha",
        "state": "RS",
        "district": "Medianeira",
        "street": "Rodovia ERS",
        "zipcode": "95177-130"
    },
    {
        "city": "Farroupilha",
        "state": "RS",
        "district": "Primeiro de Maio",
        "street": "Rua Itacyr Raimundo Zatti",
        "zipcode": "95181-246"
    },
    {
        "city": "Farroupilha",
        "state": "RS",
        "district": "Monte Verde",
        "street": "Rua Orlando Victor Varaschini",
        "zipcode": "95181-376"
    },
    {
        "city": "Farroupilha",
        "state": "RS",
        "district": "Monte Verde",
        "street": "Rua Moacir José Bassotto",
        "zipcode": "95181-372"
    },
    {
        "city": "Farroupilha",
        "state": "RS",
        "district": "Santo Antônio",
        "street": "Rua José Fitarelli",
        "zipcode": "95181-042"
    },
    {
        "city": "Farroupilha",
        "state": "RS",
        "district": "Imigrante",
        "street": "Rua José Gildo Pereira Dias",
        "zipcode": "95180-318"
    },
    {
        "city": "Farroupilha",
        "state": "RS",
        "district": "Imigrante",
        "street": "Rua Gonçalves Dias",
        "zipcode": "95180-244"
    },
    {
        "city": "Farroupilha",
        "state": "RS",
        "district": "Imigrante",
        "street": "Rua José Rizzo",
        "zipcode": "95180-322"
    },
    {
        "city": "Farroupilha",
        "state": "RS",
        "district": "Monte Verde",
        "street": "Rua Thomas Peroni",
        "zipcode": "95181-598"
    },
    {
        "city": "Farroupilha",
        "state": "RS",
        "district": "Monte Verde",
        "street": "Rua Zulmir Toso",
        "zipcode": "95181-594"
    },
    {
        "city": "Farroupilha",
        "state": "RS",
        "district": "Monte Verde",
        "street": "Rua Severino José Fontanella",
        "zipcode": "95181-440"
    },
    {
        "city": "Farroupilha",
        "state": "RS",
        "district": "Monte Verde",
        "street": "Rua Reny Donde de Morais",
        "zipcode": "95181-330"
    },
    {
        "city": "Farroupilha",
        "state": "RS",
        "district": "Monte Verde",
        "street": "Rua Vicente Rodolpho Farinon",
        "zipcode": "95181-382"
    },
    {
        "city": "Farroupilha",
        "state": "RS",
        "district": "Primeiro de Maio",
        "street": "Rua Remigio Tartarotti",
        "zipcode": "95181-156"
    },
    {
        "city": "Farroupilha",
        "state": "RS",
        "district": "Primeiro de Maio",
        "street": "Rua Santiago",
        "zipcode": "95181-216"
    },
    {
        "city": "Farroupilha",
        "state": "RS",
        "district": "Santo Antônio",
        "street": "Rua Silvana Luiza Balbinot",
        "zipcode": "95181-034"
    },
    {
        "city": "Farroupilha",
        "state": "RS",
        "district": "Primeiro de Maio",
        "street": "Rua Rialdo Danilo Damin",
        "zipcode": "95181-280"
    },
    {
        "city": "Farroupilha",
        "state": "RS",
        "district": "São José",
        "street": "Rua Sobradinho",
        "zipcode": "95180-486"
    },
    {
        "city": "Farroupilha",
        "state": "RS",
        "district": "São José",
        "street": "Rua Soledade",
        "zipcode": "95180-472"
    },
    {
        "city": "Farroupilha",
        "state": "RS",
        "district": "São José",
        "street": "Rua Ruy Rosado de Aguiar",
        "zipcode": "95180-404"
    },
    {
        "city": "Farroupilha",
        "state": "RS",
        "district": "São José",
        "street": "Rua Vitalina Farias de Lima",
        "zipcode": "95180-400"
    },
    {
        "city": "Farroupilha",
        "state": "RS",
        "district": "Primeiro de Maio",
        "street": "Rua Sílvio Vicente Soprana",
        "zipcode": "95181-150"
    },
    {
        "city": "Farroupilha",
        "state": "RS",
        "district": "Santo Antônio",
        "street": "Rua Vicenso Calábria",
        "zipcode": "95181-036"
    },
    {
        "city": "Farroupilha",
        "state": "RS",
        "district": "Imigrante",
        "street": "Rua São João Batista",
        "zipcode": "95180-292"
    },
    {
        "city": "Farroupilha",
        "state": "RS",
        "district": "Imigrante",
        "street": "Rua Papa João XXIII",
        "zipcode": "95180-280"
    },
    {
        "city": "Farroupilha",
        "state": "RS",
        "district": "Imigrante",
        "street": "Rua Santo Leonardelli",
        "zipcode": "95180-262"
    },
    {
        "city": "Farroupilha",
        "state": "RS",
        "district": "Volta Grande",
        "street": "Rua Willy Trost",
        "zipcode": "95180-100"
    },
    {
        "city": "Farroupilha",
        "state": "RS",
        "district": "Volta Grande",
        "street": "Rua Vinte e Cinco de Julho",
        "zipcode": "95180-060"
    },
    {
        "city": "Farroupilha",
        "state": "RS",
        "district": "América",
        "street": "Rua Primo Binda",
        "zipcode": "95179-182"
    },
    {
        "city": "Farroupilha",
        "state": "RS",
        "district": "Primeiro de Maio",
        "street": "Rua Seberi",
        "zipcode": "95181-206"
    },
    {
        "city": "Farroupilha",
        "state": "RS",
        "district": "Primeiro de Maio",
        "street": "Rua Lucindo Lodi",
        "zipcode": "95181-286"
    },
    {
        "city": "Farroupilha",
        "state": "RS",
        "district": "São José",
        "street": "Rua Vilson Sandoval",
        "zipcode": "95180-474"
    },
    {
        "city": "Farroupilha",
        "state": "RS",
        "district": "São Roque",
        "street": "Avenida Veneza",
        "zipcode": "95176-053"
    },
    {
        "city": "Farroupilha",
        "state": "RS",
        "district": "Industrial",
        "street": "Rua Antônio Benevenutti",
        "zipcode": "95178-206"
    },
    {
        "city": "Farroupilha",
        "state": "RS",
        "district": "Industrial",
        "street": "Rua Felipe Tomas Chesini",
        "zipcode": "95178-194"
    },
    {
        "city": "Farroupilha",
        "state": "RS",
        "district": "Industrial",
        "street": "Rua Arthur Perottoni",
        "zipcode": "95178-190"
    },
    {
        "city": "Farroupilha",
        "state": "RS",
        "district": "Industrial",
        "street": "Rua Amadeu Dalla Riva",
        "zipcode": "95178-035"
    },
    {
        "city": "Farroupilha",
        "state": "RS",
        "district": "Cruzeiro",
        "street": "Rua Cachoeirinha",
        "zipcode": "95176-258"
    },
    {
        "city": "Farroupilha",
        "state": "RS",
        "district": "Medianeira",
        "street": "Rua Antônio Nervo",
        "zipcode": "95177-026"
    },
    {
        "city": "Farroupilha",
        "state": "RS",
        "district": "São Roque",
        "street": "Rua Bassano",
        "zipcode": "95176-026"
    },
    {
        "city": "Farroupilha",
        "state": "RS",
        "district": "Cinquentenário",
        "street": "Rua Armando Cláudio Hansen",
        "zipcode": "95174-325"
    },
    {
        "city": "Farroupilha",
        "state": "RS",
        "district": "Industrial",
        "street": "Rua Fernando João Bartelle",
        "zipcode": "95178-030"
    },
    {
        "city": "Farroupilha",
        "state": "RS",
        "district": "Cinquentenário",
        "street": "Rua Arthur Weirich Sobrinho",
        "zipcode": "95174-232"
    },
    {
        "city": "Farroupilha",
        "state": "RS",
        "district": "Cinquentenário",
        "street": "Rua Amandio Mendes Maciel",
        "zipcode": "95174-230"
    },
    {
        "city": "Farroupilha",
        "state": "RS",
        "district": "Bela Vista",
        "street": "Rua Brasília",
        "zipcode": "95173-042"
    },
    {
        "city": "Farroupilha",
        "state": "RS",
        "district": "Nova Vicenza",
        "street": "Rua Arcides Gardini",
        "zipcode": "95174-092"
    },
    {
        "city": "Farroupilha",
        "state": "RS",
        "district": "Industrial",
        "street": "Rua Amantino Bonetto",
        "zipcode": "95178-158"
    },
    {
        "city": "Farroupilha",
        "state": "RS",
        "district": "Cruzeiro",
        "street": "Rua André Pezzi",
        "zipcode": "95176-314"
    },
    {
        "city": "Farroupilha",
        "state": "RS",
        "district": "Cruzeiro",
        "street": "Rua Adelina Ângela Faé Guerra",
        "zipcode": "95176-250"
    },
    {
        "city": "Farroupilha",
        "state": "RS",
        "district": "Cinquentenário",
        "street": "Rua Ansélio Sachet",
        "zipcode": "95174-226"
    },
    {
        "city": "Farroupilha",
        "state": "RS",
        "district": "Cinquentenário",
        "street": "Rua Ajuricaba",
        "zipcode": "95174-202"
    },
    {
        "city": "Farroupilha",
        "state": "RS",
        "district": "Industrial",
        "street": "Rua Aléssio Cauduro",
        "zipcode": "95178-224"
    },
    {
        "city": "Farroupilha",
        "state": "RS",
        "district": "Ipanema",
        "street": "Rua Alfredo Raimundo Horn",
        "zipcode": "95177-390"
    },
    {
        "city": "Farroupilha",
        "state": "RS",
        "district": "Industrial",
        "street": "Rua Anibal Zanfelice",
        "zipcode": "95178-040"
    },
    {
        "city": "Farroupilha",
        "state": "RS",
        "district": "Ipanema",
        "street": "Rua Alberto Ferreira dos Reis",
        "zipcode": "95177-400"
    },
    {
        "city": "Farroupilha",
        "state": "RS",
        "district": "Centenário",
        "street": "Rua Ângelo Damiani",
        "zipcode": "95177-202"
    },
    {
        "city": "Farroupilha",
        "state": "RS",
        "district": "Medianeira",
        "street": "Rua Ângelo Venzon",
        "zipcode": "95177-116"
    },
    {
        "city": "Farroupilha",
        "state": "RS",
        "district": "Cruzeiro",
        "street": "Rua Angelo Faé",
        "zipcode": "95176-298"
    },
    {
        "city": "Farroupilha",
        "state": "RS",
        "district": "Medianeira",
        "street": "Rua Alexandre José Tróglio",
        "zipcode": "95177-046"
    },
    {
        "city": "Farroupilha",
        "state": "RS",
        "district": "Medianeira",
        "street": "Rua Bruno Broilo",
        "zipcode": "95177-108"
    },
    {
        "city": "Farroupilha",
        "state": "RS",
        "district": "Industrial",
        "street": "Rua Bom Princípio",
        "zipcode": "95178-214"
    },
    {
        "city": "Farroupilha",
        "state": "RS",
        "district": "Industrial",
        "street": "Rua Carlos Barbosa",
        "zipcode": "95178-146"
    },
    {
        "city": "Farroupilha",
        "state": "RS",
        "district": "Industrial",
        "street": "Rua Caetano Feltrin",
        "zipcode": "95178-045"
    },
    {
        "city": "Farroupilha",
        "state": "RS",
        "district": "Centenário",
        "street": "Rua Doutor Bonorino Butelli",
        "zipcode": "95177-242"
    },
    {
        "city": "Farroupilha",
        "state": "RS",
        "district": "Medianeira",
        "street": "Rua Beluno",
        "zipcode": "95177-114"
    },
    {
        "city": "Farroupilha",
        "state": "RS",
        "district": "Santa Rita",
        "street": "Rua Dalva Leonilla Cesca Ruaro",
        "zipcode": "95176-430"
    },
    {
        "city": "Farroupilha",
        "state": "RS",
        "district": "Santa Rita",
        "street": "Rua Bernardo Sipp",
        "zipcode": "95176-410"
    },
    {
        "city": "Farroupilha",
        "state": "RS",
        "district": "Cruzeiro",
        "street": "Rua Armiro Antônio Palavro",
        "zipcode": "95176-292"
    },
    {
        "city": "Farroupilha",
        "state": "RS",
        "district": "Belvedere",
        "street": "Rua Abramo Feltrin",
        "zipcode": "95173-292"
    },
    {
        "city": "Farroupilha",
        "state": "RS",
        "district": "Belvedere",
        "street": "Rua Amélia Bampi",
        "zipcode": "95173-296"
    },
    {
        "city": "Farroupilha",
        "state": "RS",
        "district": "Industrial",
        "street": "Rua Eduardo Pratti",
        "zipcode": "95178-192"
    },
    {
        "city": "Farroupilha",
        "state": "RS",
        "district": "Industrial",
        "street": "Rua Alegrete",
        "zipcode": "95178-174"
    },
    {
        "city": "Farroupilha",
        "state": "RS",
        "district": "Ipanema",
        "street": "Rua Constantino Firmino Concatto",
        "zipcode": "95177-350"
    },
    {
        "city": "Farroupilha",
        "state": "RS",
        "district": "Cruzeiro",
        "street": "Rua Alexandre Sachet",
        "zipcode": "95176-294"
    },
    {
        "city": "Farroupilha",
        "state": "RS",
        "district": "Cruzeiro",
        "street": "Rua Angelo Faé",
        "zipcode": "95176-260"
    },
    {
        "city": "Farroupilha",
        "state": "RS",
        "district": "Santa Catarina",
        "street": "Rua Alexandre Sachet",
        "zipcode": "95176-168"
    },
    {
        "city": "Farroupilha",
        "state": "RS",
        "district": "São Roque",
        "street": "Rua Assis Brasil",
        "zipcode": "95176-024"
    },
    {
        "city": "Farroupilha",
        "state": "RS",
        "district": "Cinquentenário",
        "street": "Rua Anthenor Ornaghi",
        "zipcode": "95174-352"
    },
    {
        "city": "Farroupilha",
        "state": "RS",
        "district": "Cinquentenário",
        "street": "Rodovia dos Romeiros",
        "zipcode": "95174-350"
    },
    {
        "city": "Farroupilha",
        "state": "RS",
        "district": "Nova Vicenza",
        "street": "Rua Alecrim",
        "zipcode": "95174-130"
    },
    {
        "city": "Farroupilha",
        "state": "RS",
        "district": "Nova Vicenza",
        "street": "Rua Alpestre",
        "zipcode": "95174-128"
    },
    {
        "city": "Farroupilha",
        "state": "RS",
        "district": "Nova Vicenza",
        "street": "Rua André Pezzi",
        "zipcode": "95174-046"
    },
    {
        "city": "Farroupilha",
        "state": "RS",
        "district": "São Francisco",
        "street": "Rua Bento Geraldo Pigozzi",
        "zipcode": "95171-060"
    },
    {
        "city": "Farroupilha",
        "state": "RS",
        "district": "São Francisco",
        "street": "Rua Benito José Fattori",
        "zipcode": "95171-136"
    },
    {
        "city": "Farroupilha",
        "state": "RS",
        "district": "Bela Vista",
        "street": "Rua Albino João Fetter",
        "zipcode": "95173-044"
    },
    {
        "city": "Farroupilha",
        "state": "RS",
        "district": "Ipanema",
        "street": "Rua Herbert Curt Haupt",
        "zipcode": "95177-352"
    },
    {
        "city": "Farroupilha",
        "state": "RS",
        "district": "Santa Catarina",
        "street": "Rua Ernesto Fetter",
        "zipcode": "95176-112"
    },
    {
        "city": "Farroupilha",
        "state": "RS",
        "district": "São Roque",
        "street": "Rua Ibirubá",
        "zipcode": "95176-014"
    },
    {
        "city": "Farroupilha",
        "state": "RS",
        "district": "São Roque",
        "street": "Rua João Risson",
        "zipcode": "95176-006"
    },
    {
        "city": "Farroupilha",
        "state": "RS",
        "district": "Cinquentenário",
        "street": "Rua Emílio Tisatto",
        "zipcode": "95174-272"
    },
    {
        "city": "Farroupilha",
        "state": "RS",
        "district": "Cinquentenário",
        "street": "Rua Edmundo Fuhr",
        "zipcode": "95174-218"
    },
    {
        "city": "Farroupilha",
        "state": "RS",
        "district": "Santa Catarina",
        "street": "Rua Cachoeirinha",
        "zipcode": "95176-176"
    },
    {
        "city": "Farroupilha",
        "state": "RS",
        "district": "Santa Catarina",
        "street": "Rua Domênico Fin",
        "zipcode": "95176-100"
    },
    {
        "city": "Farroupilha",
        "state": "RS",
        "district": "Cinquentenário",
        "street": "Rua Domingos Bridi Filho",
        "zipcode": "95174-206"
    },
    {
        "city": "Farroupilha",
        "state": "RS",
        "district": "Industrial",
        "street": "Rua Fioravante Bonetto",
        "zipcode": "95178-196"
    },
    {
        "city": "Farroupilha",
        "state": "RS",
        "district": "Santa Catarina",
        "street": "Rua Erexim",
        "zipcode": "95176-174"
    },
    {
        "city": "Farroupilha",
        "state": "RS",
        "district": "Santa Catarina",
        "street": "Rua Esmeralda",
        "zipcode": "95176-114"
    },
    {
        "city": "Farroupilha",
        "state": "RS",
        "district": "Santa Catarina",
        "street": "Rua Esteio",
        "zipcode": "95176-110"
    },
    {
        "city": "Farroupilha",
        "state": "RS",
        "district": "Medianeira",
        "street": "Rua Ferdinando Jaconi",
        "zipcode": "95177-042"
    },
    {
        "city": "Farroupilha",
        "state": "RS",
        "district": "Vicentina",
        "street": "Rua Carlos Beltrami",
        "zipcode": "95172-069"
    },
    {
        "city": "Farroupilha",
        "state": "RS",
        "district": "Bela Vista",
        "street": "Rua Condor",
        "zipcode": "95173-050"
    },
    {
        "city": "Farroupilha",
        "state": "RS",
        "district": "Bela Vista",
        "street": "Rua Colorado",
        "zipcode": "95173-054"
    },
    {
        "city": "Farroupilha",
        "state": "RS",
        "district": "Belvedere",
        "street": "Rua Darci Luiz Venzon",
        "zipcode": "95173-284"
    },
    {
        "city": "Farroupilha",
        "state": "RS",
        "district": "Nova Vicenza",
        "street": "Rua Domênico Fin",
        "zipcode": "95174-030"
    },
    {
        "city": "Farroupilha",
        "state": "RS",
        "district": "Nova Vicenza",
        "street": "Rua Craudino Fontanella",
        "zipcode": "95174-090"
    },
    {
        "city": "Farroupilha",
        "state": "RS",
        "district": "Medianeira",
        "street": "Rua Domênico Fin",
        "zipcode": "95177-040"
    },
    {
        "city": "Farroupilha",
        "state": "RS",
        "district": "Centenário",
        "street": "Rua Caetano Grendene",
        "zipcode": "95177-152"
    },
    {
        "city": "Farroupilha",
        "state": "RS",
        "district": "Industrial",
        "street": "Rua Gramado",
        "zipcode": "95178-218"
    },
    {
        "city": "Farroupilha",
        "state": "RS",
        "district": "Industrial",
        "street": "Rua Humberto Bertuol",
        "zipcode": "95178-142"
    },
    {
        "city": "Farroupilha",
        "state": "RS",
        "district": "Ipanema",
        "street": "Rua Guerino de Momi",
        "zipcode": "95177-398"
    },
    {
        "city": "Farroupilha",
        "state": "RS",
        "district": "Centenário",
        "street": "Rua Giruá",
        "zipcode": "95177-184"
    },
    {
        "city": "Farroupilha",
        "state": "RS",
        "district": "Medianeira",
        "street": "Rua Gravataí",
        "zipcode": "95177-100"
    },
    {
        "city": "Farroupilha",
        "state": "RS",
        "district": "Medianeira",
        "street": "Rua Horizontina",
        "zipcode": "95177-056"
    },
    {
        "city": "Farroupilha",
        "state": "RS",
        "district": "Cruzeiro",
        "street": "Rua Dante Sérgio Maccari",
        "zipcode": "95176-302"
    },
    {
        "city": "Farroupilha",
        "state": "RS",
        "district": "Industrial",
        "street": "Rua Constantino Gomes",
        "zipcode": "95178-112"
    },
    {
        "city": "Farroupilha",
        "state": "RS",
        "district": "Medianeira",
        "street": "Rua Ibiraiaras",
        "zipcode": "95177-112"
    },
    {
        "city": "Farroupilha",
        "state": "RS",
        "district": "Medianeira",
        "street": "Rua Guerino Antônio Giuliatto",
        "zipcode": "95177-024"
    },
    {
        "city": "Farroupilha",
        "state": "RS",
        "district": "Cruzeiro",
        "street": "Rua Giovani Zanonato",
        "zipcode": "95176-300"
    },
    {
        "city": "Farroupilha",
        "state": "RS",
        "district": "Industrial",
        "street": "Rua João Batista Molon",
        "zipcode": "95178-230"
    },
    {
        "city": "Farroupilha",
        "state": "RS",
        "district": "Ipanema",
        "street": "Rua José Alexandre Gazzoni",
        "zipcode": "95177-394"
    },
    {
        "city": "Farroupilha",
        "state": "RS",
        "district": "São Roque",
        "street": "Rua José Achiles Colombo",
        "zipcode": "95176-030"
    },
    {
        "city": "Farroupilha",
        "state": "RS",
        "district": "São Francisco",
        "street": "Rua Domingo Silvestrin",
        "zipcode": "95171-075"
    },
    {
        "city": "Farroupilha",
        "state": "RS",
        "district": "Belvedere",
        "street": "Rua Dom Ângelo Felix Mugnol",
        "zipcode": "95173-316"
    },
    {
        "city": "Farroupilha",
        "state": "RS",
        "district": "Medianeira",
        "street": "Rua Ernesto Fetter",
        "zipcode": "95177-028"
    },
    {
        "city": "Farroupilha",
        "state": "RS",
        "district": "Bela Vista",
        "street": "Rua Faustino Soprana",
        "zipcode": "95173-144"
    },
    {
        "city": "Farroupilha",
        "state": "RS",
        "district": "Belvedere",
        "street": "Rua Condor",
        "zipcode": "95173-364"
    },
    {
        "city": "Farroupilha",
        "state": "RS",
        "district": "Cinquentenário",
        "street": "Rua Eugênio Valentini",
        "zipcode": "95174-212"
    },
    {
        "city": "Farroupilha",
        "state": "RS",
        "district": "Belvedere",
        "street": "Rua Ezelino José João Beria",
        "zipcode": "95173-422"
    },
    {
        "city": "Farroupilha",
        "state": "RS",
        "district": "Nova Vicenza",
        "street": "Rua Campo Bom",
        "zipcode": "95174-110"
    },
    {
        "city": "Farroupilha",
        "state": "RS",
        "district": "São Luiz",
        "street": "Rua Carlos Maggioni",
        "zipcode": "95170-790"
    },
    {
        "city": "Farroupilha",
        "state": "RS",
        "district": "Centro",
        "street": "Rua Carlos Fetter",
        "zipcode": "95170-972"
    },
    {
        "city": "Farroupilha",
        "state": "RS",
        "district": "São Francisco",
        "street": "Rua Canoas",
        "zipcode": "95171-022"
    },
    {
        "city": "Farroupilha",
        "state": "RS",
        "district": "São Francisco",
        "street": "Rua Hilário Hilgert",
        "zipcode": "95171-024"
    },
    {
        "city": "Farroupilha",
        "state": "RS",
        "district": "São Francisco",
        "street": "Rua Carazinho",
        "zipcode": "95171-120"
    },
    {
        "city": "Farroupilha",
        "state": "RS",
        "district": "Vicentina",
        "street": "Rua Carlos Fetter",
        "zipcode": "95172-042"
    },
    {
        "city": "Farroupilha",
        "state": "RS",
        "district": "Bela Vista",
        "street": "Rua Cristiano Antônio Frederico Fetter",
        "zipcode": "95173-058"
    },
    {
        "city": "Farroupilha",
        "state": "RS",
        "district": "Bela Vista",
        "street": "Rua Emílio Fetter",
        "zipcode": "95173-038"
    },
    {
        "city": "Farroupilha",
        "state": "RS",
        "district": "São Roque",
        "street": "Rua Odilon Pratti",
        "zipcode": "95176-000"
    },
    {
        "city": "Farroupilha",
        "state": "RS",
        "district": "Cinquentenário",
        "street": "Rua Henrique Venzon",
        "zipcode": "95174-220"
    },
    {
        "city": "Farroupilha",
        "state": "RS",
        "district": "Medianeira",
        "street": "Rua Humaitá",
        "zipcode": "95177-052"
    },
    {
        "city": "Farroupilha",
        "state": "RS",
        "district": "Centenário",
        "street": "Rua Luiz Giacomel",
        "zipcode": "95177-210"
    },
    {
        "city": "Farroupilha",
        "state": "RS",
        "district": "Industrial",
        "street": "Rua Luiz Roso",
        "zipcode": "95178-116"
    },
    {
        "city": "Farroupilha",
        "state": "RS",
        "district": "Centenário",
        "street": "Rua Júlio Sonáglio",
        "zipcode": "95177-200"
    },
    {
        "city": "Farroupilha",
        "state": "RS",
        "district": "Medianeira",
        "street": "Rua Lajeado",
        "zipcode": "95177-050"
    },
    {
        "city": "Farroupilha",
        "state": "RS",
        "district": "Santa Catarina",
        "street": "Rua Luiz Rufatto",
        "zipcode": "95176-108"
    },
    {
        "city": "Farroupilha",
        "state": "RS",
        "district": "São Francisco",
        "street": "Rua Luiz Ornaghi",
        "zipcode": "95171-026"
    },
    {
        "city": "Farroupilha",
        "state": "RS",
        "district": "Industrial",
        "street": "Rua Nonoai",
        "zipcode": "95178-202"
    },
    {
        "city": "Farroupilha",
        "state": "RS",
        "district": "Santa Catarina",
        "street": "Rua Marcos Tonin",
        "zipcode": "95176-102"
    },
    {
        "city": "Farroupilha",
        "state": "RS",
        "district": "Cinquentenário",
        "street": "Rua Luiz Chies",
        "zipcode": "95174-228"
    },
    {
        "city": "Farroupilha",
        "state": "RS",
        "district": "Monte Pasqual",
        "street": "Rua José Maioli",
        "zipcode": "95178-414"
    },
    {
        "city": "Farroupilha",
        "state": "RS",
        "district": "Monte Pasqual",
        "street": "Rua José Maioli",
        "zipcode": "95178-340"
    },
    {
        "city": "Farroupilha",
        "state": "RS",
        "district": "Centenário",
        "street": "Rua José Tossin",
        "zipcode": "95177-206"
    },
    {
        "city": "Farroupilha",
        "state": "RS",
        "district": "Cruzeiro",
        "street": "Rua Natal João Cesca",
        "zipcode": "95176-308"
    },
    {
        "city": "Farroupilha",
        "state": "RS",
        "district": "Medianeira",
        "street": "Rua Marcos Tonin",
        "zipcode": "95177-044"
    },
    {
        "city": "Farroupilha",
        "state": "RS",
        "district": "São Roque",
        "street": "Rua Monte Grappa",
        "zipcode": "95176-008"
    },
    {
        "city": "Farroupilha",
        "state": "RS",
        "district": "São Roque",
        "street": "Rua Marcos Benevenutti",
        "zipcode": "95176-004"
    },
    {
        "city": "Farroupilha",
        "state": "RS",
        "district": "São Marcos",
        "street": "Rua João Cônego Cordeiro",
        "zipcode": "95175-410"
    },
    {
        "city": "Farroupilha",
        "state": "RS",
        "district": "Cinquentenário",
        "street": "Rua Jorge Zanatta",
        "zipcode": "95174-270"
    },
    {
        "city": "Farroupilha",
        "state": "RS",
        "district": "Santa Catarina",
        "street": "Rua João Settin",
        "zipcode": "95176-226"
    },
    {
        "city": "Farroupilha",
        "state": "RS",
        "district": "Cinquentenário",
        "street": "Rua José Pergher",
        "zipcode": "95174-208"
    },
    {
        "city": "Farroupilha",
        "state": "RS",
        "district": "São Luiz",
        "street": "Rua Isidoro Alfredo Marchetto",
        "zipcode": "95170-714"
    },
    {
        "city": "Farroupilha",
        "state": "RS",
        "district": "São Francisco",
        "street": "Rua Ludovico Merlin",
        "zipcode": "95171-016"
    },
    {
        "city": "Farroupilha",
        "state": "RS",
        "district": "Vicentina",
        "street": "Rua Isidoro Alfredo Marchetto",
        "zipcode": "95172-154"
    },
    {
        "city": "Farroupilha",
        "state": "RS",
        "district": "Vicentina",
        "street": "Rua João Albino Bender",
        "zipcode": "95172-075"
    },
    {
        "city": "Farroupilha",
        "state": "RS",
        "district": "Nova Vicenza",
        "street": "Rua Giovani Zanonato",
        "zipcode": "95174-038"
    },
    {
        "city": "Farroupilha",
        "state": "RS",
        "district": "Bela Vista",
        "street": "Rua Isidoro Marcos Chiele",
        "zipcode": "95173-120"
    },
    {
        "city": "Farroupilha",
        "state": "RS",
        "district": "Belvedere",
        "street": "Rua Firmino Dalzochio",
        "zipcode": "95173-428"
    },
    {
        "city": "Farroupilha",
        "state": "RS",
        "district": "Nova Vicenza",
        "street": "Rua Humberto Jaconi",
        "zipcode": "95174-006"
    },
    {
        "city": "Farroupilha",
        "state": "RS",
        "district": "Nova Vicenza",
        "street": "Rua Godofredo Santoro",
        "zipcode": "95174-032"
    },
    {
        "city": "Farroupilha",
        "state": "RS",
        "district": "Centro",
        "street": "Rua Marechal Deodoro da Fonseca",
        "zipcode": "95170-412"
    },
    {
        "city": "Farroupilha",
        "state": "RS",
        "district": "Centro",
        "street": "Rua Júlio de Castilhos",
        "zipcode": "95170-424"
    },
    {
        "city": "Farroupilha",
        "state": "RS",
        "district": "Centro",
        "street": "Rua José Hilghert",
        "zipcode": "95170-468"
    },
    {
        "city": "Farroupilha",
        "state": "RS",
        "district": "Centro",
        "street": "Rua Júlio de Castilhos",
        "zipcode": "95170-508"
    },
    {
        "city": "Farroupilha",
        "state": "RS",
        "district": "Centro",
        "street": "Rua João Nervo",
        "zipcode": "95170-520"
    },
    {
        "city": "Farroupilha",
        "state": "RS",
        "district": "São Luiz",
        "street": "Rua José Hilghert",
        "zipcode": "95170-726"
    },
    {
        "city": "Farroupilha",
        "state": "RS",
        "district": "São Luiz",
        "street": "Rua Francisco de Cesaro",
        "zipcode": "95170-758"
    },
    {
        "city": "Farroupilha",
        "state": "RS",
        "district": "São Luiz",
        "street": "Rua Giusepe Garibaldi",
        "zipcode": "95170-794"
    },
    {
        "city": "Farroupilha",
        "state": "RS",
        "district": "São Luiz",
        "street": "Rua Luiz Ornaghi",
        "zipcode": "95170-814"
    },
    {
        "city": "Farroupilha",
        "state": "RS",
        "district": "São Luiz",
        "street": "Rua Luiz Busetti",
        "zipcode": "95170-862"
    },
    {
        "city": "Farroupilha",
        "state": "RS",
        "district": "São Francisco",
        "street": "Rua Generoso David",
        "zipcode": "95171-002"
    },
    {
        "city": "Farroupilha",
        "state": "RS",
        "district": "São Francisco",
        "street": "Rua Genuíno Fontanella",
        "zipcode": "95171-072"
    },
    {
        "city": "Farroupilha",
        "state": "RS",
        "district": "Vicentina",
        "street": "Rua Giacomo Fiorencio Broilo",
        "zipcode": "95172-030"
    },
    {
        "city": "Farroupilha",
        "state": "RS",
        "district": "Vicentina",
        "street": "Rua Itto Fetter",
        "zipcode": "95172-108"
    },
    {
        "city": "Farroupilha",
        "state": "RS",
        "district": "Vicentina",
        "street": "Rua João Farinon",
        "zipcode": "95172-148"
    },
    {
        "city": "Farroupilha",
        "state": "RS",
        "district": "Vicentina",
        "street": "Rua Horácio Madalosso",
        "zipcode": "95172-156"
    },
    {
        "city": "Farroupilha",
        "state": "RS",
        "district": "Bela Vista",
        "street": "Rua Garibaldi",
        "zipcode": "95173-052"
    },
    {
        "city": "Farroupilha",
        "state": "RS",
        "district": "Centro",
        "street": "Rua Independência",
        "zipcode": "95170-436"
    },
    {
        "city": "Farroupilha",
        "state": "RS",
        "district": "São Francisco",
        "street": "Rua João Farinon",
        "zipcode": "95171-004"
    },
    {
        "city": "Farroupilha",
        "state": "RS",
        "district": "Bela Vista",
        "street": "Rua Guerino Pola",
        "zipcode": "95173-124"
    },
    {
        "city": "Farroupilha",
        "state": "RS",
        "district": "Bela Vista",
        "street": "Rua Francisco Frozzi",
        "zipcode": "95173-132"
    },
    {
        "city": "Farroupilha",
        "state": "RS",
        "district": "Cruzeiro",
        "street": "Rua Odilon Pratti",
        "zipcode": "95176-312"
    },
    {
        "city": "Farroupilha",
        "state": "RS",
        "district": "Santa Catarina",
        "street": "Rua Pedro José Dalsóchio",
        "zipcode": "95176-236"
    },
    {
        "city": "Farroupilha",
        "state": "RS",
        "district": "Monte Pasqual",
        "street": "Rua Sananduva",
        "zipcode": "95178-332"
    },
    {
        "city": "Farroupilha",
        "state": "RS",
        "district": "Monte Pasqual",
        "street": "Rua Rondinha",
        "zipcode": "95178-328"
    },
    {
        "city": "Farroupilha",
        "state": "RS",
        "district": "Monte Pasqual",
        "street": "Rua Roca Sales",
        "zipcode": "95178-324"
    },
    {
        "city": "Farroupilha",
        "state": "RS",
        "district": "Industrial",
        "street": "Rua Ronda Alta",
        "zipcode": "95178-222"
    },
    {
        "city": "Farroupilha",
        "state": "RS",
        "district": "Industrial",
        "street": "Rua Tapejara",
        "zipcode": "95178-216"
    },
    {
        "city": "Farroupilha",
        "state": "RS",
        "district": "Centenário",
        "street": "Rua Thomaz José Martins",
        "zipcode": "95177-240"
    },
    {
        "city": "Farroupilha",
        "state": "RS",
        "district": "Centenário",
        "street": "Rua Renato Luiz Chiele",
        "zipcode": "95177-250"
    },
    {
        "city": "Farroupilha",
        "state": "RS",
        "district": "Medianeira",
        "street": "Rua Rovigo",
        "zipcode": "95177-106"
    },
    {
        "city": "Farroupilha",
        "state": "RS",
        "district": "Centenário",
        "street": "Rua Serapião Floriano do Prado",
        "zipcode": "95177-158"
    },
    {
        "city": "Farroupilha",
        "state": "RS",
        "district": "Medianeira",
        "street": "Rua Rafael Maccari",
        "zipcode": "95177-060"
    },
    {
        "city": "Farroupilha",
        "state": "RS",
        "district": "Parque",
        "street": "Rua Tomaso Radaelli",
        "zipcode": "95170-226"
    },
    {
        "city": "Farroupilha",
        "state": "RS",
        "district": "Parque",
        "street": "Rua Raimondo Paschero",
        "zipcode": "95170-262"
    },
    {
        "city": "Farroupilha",
        "state": "RS",
        "district": "Pio X",
        "street": "Rua Nataly Valentini",
        "zipcode": "95170-122"
    },
    {
        "city": "Farroupilha",
        "state": "RS",
        "district": "Pio X",
        "street": "Rua Silveira Martins",
        "zipcode": "95170-050"
    },
    {
        "city": "Farroupilha",
        "state": "RS",
        "district": "Bela Vista",
        "street": "Rua Santa Catarina",
        "zipcode": "95173-056"
    },
    {
        "city": "Farroupilha",
        "state": "RS",
        "district": "Monte Verde",
        "street": "Avenida Perimetral",
        "zipcode": "95181-412"
    },
    {
        "city": "Farroupilha",
        "state": "RS",
        "district": "Belvedere",
        "street": "Rua Olavo Bilac",
        "zipcode": "95173-302"
    },
    {
        "city": "Farroupilha",
        "state": "RS",
        "district": "Nova Vicenza",
        "street": "Rua Monte Grappa",
        "zipcode": "95174-010"
    },
    {
        "city": "Farroupilha",
        "state": "RS",
        "district": "Nova Vicenza",
        "street": "Rua Pedro Giacomet",
        "zipcode": "95174-114"
    },
    {
        "city": "Farroupilha",
        "state": "RS",
        "district": "Belvedere",
        "street": "Rua Martins de Cesaro",
        "zipcode": "95173-304"
    },
    {
        "city": "Farroupilha",
        "state": "RS",
        "district": "Nova Vicenza",
        "street": "Rua Odilon Pratti",
        "zipcode": "95174-036"
    },
    {
        "city": "Farroupilha",
        "state": "RS",
        "district": "Cruzeiro",
        "street": "Rua Pedro José Dalsóchio",
        "zipcode": "95176-252"
    },
    {
        "city": "Farroupilha",
        "state": "RS",
        "district": "São Roque",
        "street": "Rua Olmate",
        "zipcode": "95176-016"
    },
    {
        "city": "Farroupilha",
        "state": "RS",
        "district": "Planalto",
        "street": "Rua Vereador Cibelli",
        "zipcode": "95170-332"
    },
    {
        "city": "Farroupilha",
        "state": "RS",
        "district": "Cruzeiro",
        "street": "Rua Policarpo Corteletti",
        "zipcode": "95176-290"
    },
    {
        "city": "Farroupilha",
        "state": "RS",
        "district": "Cruzeiro",
        "street": "Rua Plínio Sonaglio",
        "zipcode": "95176-254"
    },
    {
        "city": "Farroupilha",
        "state": "RS",
        "district": "Santa Catarina",
        "street": "Rua Plínio Sonaglio",
        "zipcode": "95176-228"
    },
    {
        "city": "Farroupilha",
        "state": "RS",
        "district": "Santa Catarina",
        "street": "Rua Policarpo Corteletti",
        "zipcode": "95176-172"
    },
    {
        "city": "Farroupilha",
        "state": "RS",
        "district": "São Roque",
        "street": "Rua Pedro Padovan",
        "zipcode": "95176-010"
    },
    {
        "city": "Farroupilha",
        "state": "RS",
        "district": "Parque",
        "street": "Rua Reamo Gazzoni",
        "zipcode": "95170-152"
    },
    {
        "city": "Farroupilha",
        "state": "RS",
        "district": "Bela Vista",
        "street": "Rua Stefano Crippa",
        "zipcode": "95173-028"
    },
    {
        "city": "Farroupilha",
        "state": "RS",
        "district": "Belvedere",
        "street": "Rua Luiz Pigozzi",
        "zipcode": "95173-290"
    },
    {
        "city": "Farroupilha",
        "state": "RS",
        "district": "Belvedere",
        "street": "Rua Pedro Marcheto",
        "zipcode": "95173-298"
    },
    {
        "city": "Farroupilha",
        "state": "RS",
        "district": "Belvedere",
        "street": "Rua Pedro Roberto Pergher",
        "zipcode": "95173-426"
    },
    {
        "city": "Farroupilha",
        "state": "RS",
        "district": "Nova Vicenza",
        "street": "Rua Odilon Pratti",
        "zipcode": "95174-012"
    },
    {
        "city": "Farroupilha",
        "state": "RS",
        "district": "Planalto",
        "street": "Rua Napoli",
        "zipcode": "95170-336"
    },
    {
        "city": "Farroupilha",
        "state": "RS",
        "district": "Centro",
        "street": "Rua Júlio de Castilhos",
        "zipcode": "95170-504"
    },
    {
        "city": "Farroupilha",
        "state": "RS",
        "district": "Bela Vista",
        "street": "Rua Paulo Tartarotti",
        "zipcode": "95173-148"
    },
    {
        "city": "Farroupilha",
        "state": "RS",
        "district": "São Francisco",
        "street": "Rua José Sachet",
        "zipcode": "95171-018"
    },
    {
        "city": "Farroupilha",
        "state": "RS",
        "district": "São Francisco",
        "street": "Rua José Eugênio Trubian",
        "zipcode": "95171-069"
    },
    {
        "city": "Farroupilha",
        "state": "RS",
        "district": "Vicentina",
        "street": "Rua Júlio de Castilhos",
        "zipcode": "95172-009"
    },
    {
        "city": "Farroupilha",
        "state": "RS",
        "district": "Vicentina",
        "street": "Rua Luiz Busetti",
        "zipcode": "95172-060"
    },
    {
        "city": "Farroupilha",
        "state": "RS",
        "district": "Vicentina",
        "street": "Rua Monsenhor Thiago Bombardelli",
        "zipcode": "95172-081"
    },
    {
        "city": "Farroupilha",
        "state": "RS",
        "district": "Vicentina",
        "street": "Rua Maria Mocelini",
        "zipcode": "95172-146"
    },
    {
        "city": "Farroupilha",
        "state": "RS",
        "district": "Vicentina",
        "street": "Rua Ludovico Merlin",
        "zipcode": "95172-150"
    },
    {
        "city": "Farroupilha",
        "state": "RS",
        "district": "Vicentina",
        "street": "Rua José Sachet",
        "zipcode": "95172-152"
    },
    {
        "city": "Farroupilha",
        "state": "RS",
        "district": "Bela Vista",
        "street": "Rua Luigi Gaviraghi",
        "zipcode": "95173-024"
    },
    {
        "city": "Farroupilha",
        "state": "RS",
        "district": "Bela Vista",
        "street": "Rua Minas Gerais",
        "zipcode": "95173-040"
    },
    {
        "city": "Farroupilha",
        "state": "RS",
        "district": "Vicentina",
        "street": "Rua Maria Alquatti Zanella",
        "zipcode": "95172-066"
    },
    {
        "city": "Farroupilha",
        "state": "RS",
        "district": "Vicentina",
        "street": "Rua José Leão Zamboni",
        "zipcode": "95172-102"
    },
    {
        "city": "Farroupilha",
        "state": "RS",
        "district": "Belvedere",
        "street": "Rua Paulo Tartarotti",
        "zipcode": "95173-250"
    },
    {
        "city": "Farroupilha",
        "state": "RS",
        "district": "Santa Rita",
        "street": "Rua Craudino Fontanella",
        "zipcode": "95176-350"
    },
    {
        "city": "Farroupilha",
        "state": "RS",
        "district": "Medianeira",
        "street": "Rua Trento",
        "zipcode": "95177-110"
    },
    {
        "city": "Farroupilha",
        "state": "RS",
        "district": "Santa Catarina",
        "street": "Rua Léo José Travi",
        "zipcode": "95176-222"
    },
    {
        "city": "Farroupilha",
        "state": "RS",
        "district": "São Roque",
        "street": "Rua Três Coroas",
        "zipcode": "95176-028"
    },
    {
        "city": "Farroupilha",
        "state": "RS",
        "district": "São Roque",
        "street": "Rua Viamão",
        "zipcode": "95176-022"
    },
    {
        "city": "Farroupilha",
        "state": "RS",
        "district": "São Roque",
        "street": "Rua Domênico Fin",
        "zipcode": "95176-002"
    },
    {
        "city": "Farroupilha",
        "state": "RS",
        "district": "América",
        "street": "Rua Plínio Trevisan",
        "zipcode": "95179-028"
    },
    {
        "city": "Farroupilha",
        "state": "RS",
        "district": "Industrial",
        "street": "Rua Veranópolis",
        "zipcode": "95178-150"
    },
    {
        "city": "Farroupilha",
        "state": "RS",
        "district": "Centenário",
        "street": "Rua Ulderico Cesare Lodi",
        "zipcode": "95177-156"
    },
    {
        "city": "Farroupilha",
        "state": "RS",
        "district": "Santa Rita",
        "street": "Rua Vêneto",
        "zipcode": "95176-370"
    },
    {
        "city": "Farroupilha",
        "state": "RS",
        "district": "Cruzeiro",
        "street": "Rua Vêneto",
        "zipcode": "95176-330"
    },
    {
        "city": "Farroupilha",
        "state": "RS",
        "district": "Cruzeiro",
        "street": "Rua Vacylly Brambilla",
        "zipcode": "95176-310"
    },
    {
        "city": "Farroupilha",
        "state": "RS",
        "district": "América",
        "street": "Rua Pedro Arrosi",
        "zipcode": "95179-024"
    },
    {
        "city": "Farroupilha",
        "state": "RS",
        "district": "Planalto",
        "street": "Rua Roma",
        "zipcode": "95170-344"
    },
    {
        "city": "Farroupilha",
        "state": "RS",
        "district": "São Luiz",
        "street": "Avenida Armando Antonello",
        "zipcode": "95170-810"
    },
    {
        "city": "Farroupilha",
        "state": "RS",
        "district": "São Luiz",
        "street": "Rua Waldemar Ramgrab",
        "zipcode": "95170-742"
    },
    {
        "city": "Farroupilha",
        "state": "RS",
        "district": "São Francisco",
        "street": "Rua Pedro Troes",
        "zipcode": "95171-010"
    },
    {
        "city": "Farroupilha",
        "state": "RS",
        "district": "Volta Grande",
        "street": "Rua Padre Dionísio Massignani",
        "zipcode": "95180-056"
    },
    {
        "city": "Farroupilha",
        "state": "RS",
        "district": "São Roque",
        "street": "Rua Toscana",
        "zipcode": "95176-012"
    },
    {
        "city": "Farroupilha",
        "state": "RS",
        "district": "Centro",
        "street": "Rua Thomas Edison",
        "zipcode": "95170-472"
    },
    {
        "city": "Farroupilha",
        "state": "RS",
        "district": "Imigrante",
        "street": "Avenida Paulo Broilo",
        "zipcode": "95180-254"
    },
    {
        "city": "Farroupilha",
        "state": "RS",
        "district": "América",
        "street": "Rua Ângelo Pezzi",
        "zipcode": "95179-148"
    },
    {
        "city": "Farroupilha",
        "state": "RS",
        "district": "América",
        "street": "Rua Dante Pedro Malinverno",
        "zipcode": "95179-080"
    },
    {
        "city": "Farroupilha",
        "state": "RS",
        "district": "Medianeira",
        "street": "Rua Francisco Balbinot",
        "zipcode": "95177-000"
    },
    {
        "city": "Farroupilha",
        "state": "RS",
        "district": "Imigrante",
        "street": "Travessa Machadinho",
        "zipcode": "95180-294"
    },
    {
        "city": "Farroupilha",
        "state": "RS",
        "district": "América",
        "street": "Rua Pascoal Crippa",
        "zipcode": "95179-110"
    },
    {
        "city": "Farroupilha",
        "state": "RS",
        "district": "Belvedere",
        "street": "Rua Olga Ramos Brentano",
        "zipcode": "95173-340"
    },
    {
        "city": "Farroupilha",
        "state": "RS",
        "district": "Volta Grande",
        "street": "Rua Pedro Gardini",
        "zipcode": "95180-072"
    },
    {
        "city": "Farroupilha",
        "state": "RS",
        "district": "Medianeira",
        "street": "Rua Martim Ramgrab",
        "zipcode": "95177-022"
    },
    {
        "city": "Farroupilha",
        "state": "RS",
        "district": "Planalto",
        "street": "Rua Trieste",
        "zipcode": "95170-340"
    },
    {
        "city": "Farroupilha",
        "state": "RS",
        "district": "Centro",
        "street": "Rua Rui Barbosa",
        "zipcode": "95170-440"
    },
    {
        "city": "Farroupilha",
        "state": "RS",
        "district": "Centro",
        "street": "Rua Tiradentes",
        "zipcode": "95170-444"
    },
    {
        "city": "Farroupilha",
        "state": "RS",
        "district": "São Luiz",
        "street": "Rua Quatorze de Julho",
        "zipcode": "95170-734"
    },
    {
        "city": "Farroupilha",
        "state": "RS",
        "district": "São Luiz",
        "street": "Rua Treze de Maio",
        "zipcode": "95170-754"
    },
    {
        "city": "Farroupilha",
        "state": "RS",
        "district": "São Luiz",
        "street": "Rua Pedro Troes",
        "zipcode": "95170-806"
    },
    {
        "city": "Farroupilha",
        "state": "RS",
        "district": "América",
        "street": "Rua Plínio Trevisan",
        "zipcode": "95179-094"
    },
    {
        "city": "Farroupilha",
        "state": "RS",
        "district": "Alvorada",
        "street": "Rua Prefeito João Grendene",
        "zipcode": "95178-490"
    },
    {
        "city": "Farroupilha",
        "state": "RS",
        "district": "Centenário",
        "street": "Rua Rovigo",
        "zipcode": "95177-154"
    },
    {
        "city": "Farroupilha",
        "state": "RS",
        "district": "Cinquentenário",
        "street": "Rua Victório Fagherazzi",
        "zipcode": "95174-222"
    },
    {
        "city": "Farroupilha",
        "state": "RS",
        "district": "Cinquentenário",
        "street": "Rua Ubaldo Zanellato",
        "zipcode": "95174-216"
    },
    {
        "city": "Farroupilha",
        "state": "RS",
        "district": "Vicentina",
        "street": "Rua Vicentina",
        "zipcode": "95172-140"
    },
    {
        "city": "Farroupilha",
        "state": "RS",
        "district": "Vicentina",
        "street": "Rua São Paulo",
        "zipcode": "95172-096"
    },
    {
        "city": "Farroupilha",
        "state": "RS",
        "district": "Belvedere",
        "street": "Rua Pedro Rigatti",
        "zipcode": "95173-346"
    },
    {
        "city": "Farroupilha",
        "state": "RS",
        "district": "Belvedere",
        "street": "Rua São João Calábria",
        "zipcode": "95173-420"
    },
    {
        "city": "Farroupilha",
        "state": "RS",
        "district": "Nova Vicenza",
        "street": "Rua Toscana",
        "zipcode": "95174-008"
    },
    {
        "city": "Farroupilha",
        "state": "RS",
        "district": "Nova Vicenza",
        "street": "Rua Policarpo Corteletti",
        "zipcode": "95174-044"
    },
    {
        "city": "Farroupilha",
        "state": "RS",
        "district": "Nova Vicenza",
        "street": "Rua Vicente Dal Molin",
        "zipcode": "95174-112"
    },
    {
        "city": "Farroupilha",
        "state": "RS",
        "district": "Vicentina",
        "street": "Rua Schneider",
        "zipcode": "95172-054"
    },
    {
        "city": "Farroupilha",
        "state": "RS",
        "district": "Vicentina",
        "street": "Rua Taquari",
        "zipcode": "95172-036"
    },
    {
        "city": "Farroupilha",
        "state": "RS",
        "district": "Nova Vicenza",
        "street": "Rua Vêneto",
        "zipcode": "95174-050"
    },
    {
        "city": "Farroupilha",
        "state": "RS",
        "district": "Vicentina",
        "street": "Rua Vicentina",
        "zipcode": "95172-093"
    },
    {
        "city": "Farroupilha",
        "state": "RS",
        "district": "Bela Vista",
        "street": "Rua Olavo Bilac",
        "zipcode": "95173-048"
    },
    {
        "city": "Farroupilha",
        "state": "RS",
        "district": "Parque",
        "street": "Rua Treze de Maio",
        "zipcode": "95170-210"
    },
    {
        "city": "Farroupilha",
        "state": "RS",
        "district": "América",
        "street": "Rua Vicente de Cesaro",
        "zipcode": "95179-010"
    },
    {
        "city": "Farroupilha",
        "state": "RS",
        "district": "Alvorada",
        "street": "Rua Sérgio Luiz Cignachi",
        "zipcode": "95178-496"
    },
    {
        "city": "Farroupilha",
        "state": "RS",
        "district": "Monte Pasqual",
        "street": "Rua Santo Ângelo",
        "zipcode": "95178-330"
    },
    {
        "city": "Farroupilha",
        "state": "RS",
        "district": "Monte Pasqual",
        "street": "Rua Santo Ângelo",
        "zipcode": "95178-406"
    },
    {
        "city": "Farroupilha",
        "state": "RS",
        "district": "Industrial",
        "street": "Rua Santa Maria",
        "zipcode": "95178-114"
    },
    {
        "city": "Farroupilha",
        "state": "RS",
        "district": "Monte Pasqual",
        "street": "Rua Santo Augusto",
        "zipcode": "95178-334"
    },
    {
        "city": "Farroupilha",
        "state": "RS",
        "district": "América",
        "street": "Rua Pedro Arrosi",
        "zipcode": "95179-042"
    },
    {
        "city": "Farroupilha",
        "state": "RS",
        "district": "América",
        "street": "Rua Modesto Piccolli",
        "zipcode": "95179-026"
    },
    {
        "city": "Farroupilha",
        "state": "RS",
        "district": "Belvedere",
        "street": "Rua Josué Antônio Minella",
        "zipcode": "95173-312"
    },
    {
        "city": "Farroupilha",
        "state": "RS",
        "district": "Belvedere",
        "street": "Rua Pedro Roberto Pergher",
        "zipcode": "95173-360"
    },
    {
        "city": "Farroupilha",
        "state": "RS",
        "district": "Nova Vicenza",
        "street": "Rua Valdir Varisco",
        "zipcode": "95174-004"
    },
    {
        "city": "Farroupilha",
        "state": "RS",
        "district": "Belvedere",
        "street": "Rua Ênio Joaquim Beltrami",
        "zipcode": "95173-430"
    },
    {
        "city": "Farroupilha",
        "state": "RS",
        "district": "Nova Vicenza",
        "street": "Rua Luiz Fagherazzi",
        "zipcode": "95174-116"
    },
    {
        "city": "Farroupilha",
        "state": "RS",
        "district": "América",
        "street": "Rua Heitor Fontanella",
        "zipcode": "95179-004"
    },
    {
        "city": "Farroupilha",
        "state": "RS",
        "district": "Cinquentenário",
        "street": "Rua Giacomo Mandelli Sobrinho",
        "zipcode": "95174-204"
    },
    {
        "city": "Farroupilha",
        "state": "RS",
        "district": "Nova Vicenza",
        "street": "Rua Ajuricaba",
        "zipcode": "95174-132"
    },
    {
        "city": "Farroupilha",
        "state": "RS",
        "district": "Nova Vicenza",
        "street": "Rua Giocondo Luiz Damin",
        "zipcode": "95174-002"
    },
    {
        "city": "Farroupilha",
        "state": "RS",
        "district": "São Luiz",
        "street": "Rua Emílio Theodomiro Denicol",
        "zipcode": "95170-762"
    },
    {
        "city": "Farroupilha",
        "state": "RS",
        "district": "Primeiro de Maio",
        "street": "Rua Augusto Crippa",
        "zipcode": "95181-204"
    },
    {
        "city": "Farroupilha",
        "state": "RS",
        "district": "Santo Antônio",
        "street": "Rua Arquimedes Perottoni",
        "zipcode": "95181-066"
    },
    {
        "city": "Farroupilha",
        "state": "RS",
        "district": "Parque",
        "street": "Rodovia RSC",
        "zipcode": "95170-274"
    },
    {
        "city": "Farroupilha",
        "state": "RS",
        "district": "Planalto",
        "street": "Rodovia RSC",
        "zipcode": "95170-304"
    },
    {
        "city": "Farroupilha",
        "state": "RS",
        "district": "Bela Vista",
        "street": "Rodovia RSC",
        "zipcode": "95173-000"
    },
    {
        "city": "Farroupilha",
        "state": "RS",
        "district": "Medianeira",
        "street": "Rodovia RSC",
        "zipcode": "95177-020"
    },
    {
        "city": "Farroupilha",
        "state": "RS",
        "district": "Monte Verde",
        "street": "Rua Aurora Argentina Dalla Riva Tartarotti",
        "zipcode": "95181-336"
    },
    {
        "city": "Farroupilha",
        "state": "RS",
        "district": "Santo Antônio",
        "street": "Rua Avelino Viero",
        "zipcode": "95181-046"
    },
    {
        "city": "Farroupilha",
        "state": "RS",
        "district": "São Roque",
        "street": "Rodovia RSC",
        "zipcode": "95176-032"
    },
    {
        "city": "Farroupilha",
        "state": "RS",
        "district": "Nova Vicenza",
        "street": "Rodovia RSC",
        "zipcode": "95174-000"
    },
    {
        "city": "Farroupilha",
        "state": "RS",
        "district": "Industrial",
        "street": "Rua Zélia Pratti",
        "zipcode": "95178-118"
    },
    {
        "city": "Farroupilha",
        "state": "RS",
        "district": "Primeiro de Maio",
        "street": "Rua Wilson Tartarotti",
        "zipcode": "95181-240"
    },
    {
        "city": "Farroupilha",
        "state": "RS",
        "district": "América",
        "street": "Rua Baldizar Maggioni",
        "zipcode": "95179-186"
    },
    {
        "city": "Farroupilha",
        "state": "RS",
        "district": "América",
        "street": "Rua Ambrósio Crippa",
        "zipcode": "95179-032"
    },
    {
        "city": "Farroupilha",
        "state": "RS",
        "district": "Alvorada",
        "street": "Rua Jacomo Calabria",
        "zipcode": "95178-492"
    },
    {
        "city": "Farroupilha",
        "state": "RS",
        "district": "Imigrante",
        "street": "Rua Zeno Eugênio Vizentin",
        "zipcode": "95180-258"
    },
    {
        "city": "Farroupilha",
        "state": "RS",
        "district": "Santa Catarina",
        "street": "Rua Aquilino Negri",
        "zipcode": "95176-162"
    },
    {
        "city": "Farroupilha",
        "state": "RS",
        "district": "Monte Verde",
        "street": "Rua Attilio Biaggio Massignan",
        "zipcode": "95181-378"
    },
    {
        "city": "Farroupilha",
        "state": "RS",
        "district": "Primeiro de Maio",
        "street": "Rua Augusto Crippa",
        "zipcode": "95181-180"
    },
    {
        "city": "Farroupilha",
        "state": "RS",
        "district": "América",
        "street": "Rua Aléssio Cauduro",
        "zipcode": "95179-038"
    },
    {
        "city": "Farroupilha",
        "state": "RS",
        "district": "Santo Antônio",
        "street": "Rua Ítalo Germano Bergamo",
        "zipcode": "95181-030"
    },
    {
        "city": "Farroupilha",
        "state": "RS",
        "district": "São José",
        "street": "Rua Ary Zanonatto",
        "zipcode": "95180-398"
    },
    {
        "city": "Farroupilha",
        "state": "RS",
        "district": "Imigrante",
        "street": "Rua Honorino Pandolfo",
        "zipcode": "95180-334"
    },
    {
        "city": "Farroupilha",
        "state": "RS",
        "district": "Imigrante",
        "street": "Rua Bazílio Chiele",
        "zipcode": "95180-314"
    },
    {
        "city": "Farroupilha",
        "state": "RS",
        "district": "Imigrante",
        "street": "Rua Guilherme Tomaz Vedovelli",
        "zipcode": "95180-154"
    },
    {
        "city": "Farroupilha",
        "state": "RS",
        "district": "Imigrante",
        "street": "Rua Guilherme Attílio Montovani Neto",
        "zipcode": "95180-266"
    },
    {
        "city": "Farroupilha",
        "state": "RS",
        "district": "América",
        "street": "Rua Carlos Baretta",
        "zipcode": "95179-050"
    },
    {
        "city": "Farroupilha",
        "state": "RS",
        "district": "América",
        "street": "Rua Arcolino Andrea Foresti",
        "zipcode": "95179-006"
    },
    {
        "city": "Farroupilha",
        "state": "RS",
        "district": "Monte Verde",
        "street": "Rua Zilá Luiz DÁvila",
        "zipcode": "95181-472"
    },
    {
        "city": "Farroupilha",
        "state": "RS",
        "district": "Volta Grande",
        "street": "Rua João Zanonatto",
        "zipcode": "95180-132"
    },
    {
        "city": "Farroupilha",
        "state": "RS",
        "district": "Imigrante",
        "street": "Rua João Zanonatto",
        "zipcode": "95180-184"
    },
    {
        "city": "Farroupilha",
        "state": "RS",
        "district": "América",
        "street": "Rua João Maggioni",
        "zipcode": "95179-008"
    },
    {
        "city": "Farroupilha",
        "state": "RS",
        "district": "Nova Vicenza",
        "street": "Rua Orlindo Meneguel",
        "zipcode": "95174-094"
    },
    {
        "city": "Farroupilha",
        "state": "RS",
        "district": "América",
        "street": "Rua João Roso",
        "zipcode": "95179-018"
    },
    {
        "city": "Farroupilha",
        "state": "RS",
        "district": "América",
        "street": "Rua Arsídio Dionysio Somacal",
        "zipcode": "95179-188"
    },
    {
        "city": "Farroupilha",
        "state": "RS",
        "district": "Bela Vista",
        "street": "Rua João Milesi",
        "zipcode": "95173-128"
    },
    {
        "city": "Farroupilha",
        "state": "RS",
        "district": "Monte Verde",
        "street": "Rua Domingos Pedro Buttelli",
        "zipcode": "95181-596"
    },
    {
        "city": "Farroupilha",
        "state": "RS",
        "district": "Monte Verde",
        "street": "Rodovia ERS",
        "zipcode": "95181-530"
    },
    {
        "city": "Farroupilha",
        "state": "RS",
        "district": "Monte Verde",
        "street": "Rua Edgide Alquatti Fagherazzi",
        "zipcode": "95181-334"
    },
    {
        "city": "Farroupilha",
        "state": "RS",
        "district": "Monte Verde",
        "street": "Rua Elisa Weissheimer Fetter",
        "zipcode": "95181-482"
    },
    {
        "city": "Farroupilha",
        "state": "RS",
        "district": "Monte Verde",
        "street": "Rua Aurora Argentina Dalla Riva Tartarotti",
        "zipcode": "95181-370"
    },
    {
        "city": "Farroupilha",
        "state": "RS",
        "district": "São José",
        "street": "Rua Cacequi",
        "zipcode": "95180-488"
    },
    {
        "city": "Farroupilha",
        "state": "RS",
        "district": "São José",
        "street": "Rua Alexandre Bartelle",
        "zipcode": "95180-366"
    },
    {
        "city": "Farroupilha",
        "state": "RS",
        "district": "Monte Verde",
        "street": "Rua Canguçu",
        "zipcode": "95181-414"
    },
    {
        "city": "Farroupilha",
        "state": "RS",
        "district": "Imigrante",
        "street": "Rua Serafina Correa",
        "zipcode": "95180-286"
    },
    {
        "city": "Farroupilha",
        "state": "RS",
        "district": "Imigrante",
        "street": "Rua Pain Filho",
        "zipcode": "95180-256"
    },
    {
        "city": "Farroupilha",
        "state": "RS",
        "district": "Imigrante",
        "street": "Rua Mata",
        "zipcode": "95180-178"
    },
    {
        "city": "Farroupilha",
        "state": "RS",
        "district": "Imigrante",
        "street": "Rua Sílvio Vicente Soprana",
        "zipcode": "95180-200"
    },
    {
        "city": "Farroupilha",
        "state": "RS",
        "district": "Monte Verde",
        "street": "Rua Afonso Fernandes de Mattos",
        "zipcode": "95181-476"
    },
    {
        "city": "Farroupilha",
        "state": "RS",
        "district": "São José",
        "street": "Rua Giovani Chies",
        "zipcode": "95180-390"
    },
    {
        "city": "Farroupilha",
        "state": "RS",
        "district": "Imigrante",
        "street": "Rua José Rizzo",
        "zipcode": "95180-282"
    },
    {
        "city": "Farroupilha",
        "state": "RS",
        "district": "Monte Verde",
        "street": "Rua Antônio Hemkemaier",
        "zipcode": "95181-622"
    },
    {
        "city": "Farroupilha",
        "state": "RS",
        "district": "Primeiro de Maio",
        "street": "Rua Arquimedes Perottoni",
        "zipcode": "95181-170"
    },
    {
        "city": "Farroupilha",
        "state": "RS",
        "district": "Área Rural de Farroupilha",
        "street": "Área Rural",
        "zipcode": "95181-899"
    },
    {
        "city": "Farroupilha",
        "state": "RS",
        "district": "Santo Antônio",
        "street": "Rua Angelo Gardini",
        "zipcode": "95181-014"
    },
    {
        "city": "Farroupilha",
        "state": "RS",
        "district": "Monte Verde",
        "street": "Rua André Antônio Pezzi",
        "zipcode": "95181-620"
    },
    {
        "city": "Farroupilha",
        "state": "RS",
        "district": "São José",
        "street": "Rua Padre Theodoro Portolan",
        "zipcode": "95180-396"
    },
    {
        "city": "Farroupilha",
        "state": "RS",
        "district": "Primeiro de Maio",
        "street": "Rua Achylles Fernando Bonfanti",
        "zipcode": "95181-178"
    },
    {
        "city": "Farroupilha",
        "state": "RS",
        "district": "Imigrante",
        "street": "Rua Flores da Cunha",
        "zipcode": "95180-284"
    },
    {
        "city": "Farroupilha",
        "state": "RS",
        "district": "Imigrante",
        "street": "Rua Gabriel Puhl",
        "zipcode": "95180-164"
    },
    {
        "city": "Farroupilha",
        "state": "RS",
        "district": "Monte Verde",
        "street": "Rua Elisa Weissheimer Fetter",
        "zipcode": "95181-602"
    },
    {
        "city": "Farroupilha",
        "state": "RS",
        "district": "Primeiro de Maio",
        "street": "Rua Isidoro Farinon",
        "zipcode": "95181-244"
    },
    {
        "city": "Farroupilha",
        "state": "RS",
        "district": "Primeiro de Maio",
        "street": "Rua Germano Osmarini",
        "zipcode": "95181-154"
    },
    {
        "city": "Farroupilha",
        "state": "RS",
        "district": "São José",
        "street": "Rua Dom João Batista Scalabrini",
        "zipcode": "95180-370"
    },
    {
        "city": "Farroupilha",
        "state": "RS",
        "district": "São José",
        "street": "Rua Marina Zini Soprana",
        "zipcode": "95180-360"
    },
    {
        "city": "Farroupilha",
        "state": "RS",
        "district": "Primeiro de Maio",
        "street": "Rua Delmo Kerber",
        "zipcode": "95181-162"
    },
    {
        "city": "Farroupilha",
        "state": "RS",
        "district": "São José",
        "street": "Rua José Rizzo",
        "zipcode": "95180-350"
    },
    {
        "city": "Farroupilha",
        "state": "RS",
        "district": "São José",
        "street": "Rua Honorino Pandolfo",
        "zipcode": "95180-354"
    },
    {
        "city": "Farroupilha",
        "state": "RS",
        "district": "Imigrante",
        "street": "Rua Bortolo Grendene",
        "zipcode": "95180-180"
    },
    {
        "city": "Farroupilha",
        "state": "RS",
        "district": "Imigrante",
        "street": "Rua Dona Pacífica",
        "zipcode": "95180-170"
    },
    {
        "city": "Farroupilha",
        "state": "RS",
        "district": "Imigrante",
        "street": "Rua Ziraldo Prezzi",
        "zipcode": "95180-324"
    },
    {
        "city": "Farroupilha",
        "state": "RS",
        "district": "Imigrante",
        "street": "Rua Pain Filho",
        "zipcode": "95180-168"
    },
    {
        "city": "Farroupilha",
        "state": "RS",
        "district": "Imigrante",
        "street": "Rua Trinta e Um de Março",
        "zipcode": "95180-290"
    },
    {
        "city": "Farroupilha",
        "state": "RS",
        "district": "Imigrante",
        "street": "Rua Primo Postali",
        "zipcode": "95180-174"
    },
    {
        "city": "Farroupilha",
        "state": "RS",
        "district": "São José",
        "street": "Rua Padre Theodoro Portolan",
        "zipcode": "95180-356"
    },
    {
        "city": "Farroupilha",
        "state": "RS",
        "district": "Volta Grande",
        "street": "Rua Pedro Fagherazzi",
        "zipcode": "95180-130"
    },
    {
        "city": "Farroupilha",
        "state": "RS",
        "district": "Volta Grande",
        "street": "Rua Silveira Martins",
        "zipcode": "95180-062"
    },
    {
        "city": "Farroupilha",
        "state": "RS",
        "district": "Volta Grande",
        "street": "Rua Pedro Grendene",
        "zipcode": "95180-052"
    },
    {
        "city": "Farroupilha",
        "state": "RS",
        "district": "Volta Grande",
        "street": "Rua Ardelino Sabóia Courtois",
        "zipcode": "95180-068"
    },
    {
        "city": "Farroupilha",
        "state": "RS",
        "district": "América",
        "street": "Estrada São para Miguel",
        "zipcode": "95179-190"
    },
    {
        "city": "Farroupilha",
        "state": "RS",
        "district": "Volta Grande",
        "street": "Rua Cristóvão Faria de Lima",
        "zipcode": "95180-064"
    },
    {
        "city": "Farroupilha",
        "state": "RS",
        "district": "Imigrante",
        "street": "Rua Luiz Sebben",
        "zipcode": "95180-310"
    },
    {
        "city": "Farroupilha",
        "state": "RS",
        "district": "América",
        "street": "Rua José César Mantovani",
        "zipcode": "95179-184"
    },
    {
        "city": "Farroupilha",
        "state": "RS",
        "district": "Medianeira",
        "street": "Avenida Deodoro Weissheimer",
        "zipcode": "95177-038"
    },
    {
        "city": "Farroupilha",
        "state": "RS",
        "district": "Medianeira",
        "street": "Avenida Veneza",
        "zipcode": "95177-118"
    },
    {
        "city": "Farroupilha",
        "state": "RS",
        "district": "São Roque",
        "street": "Avenida Deodoro Weissheimer",
        "zipcode": "95176-070"
    },
    {
        "city": "Farroupilha",
        "state": "RS",
        "district": "Centro",
        "street": "Rua Angelo Antonello",
        "zipcode": "95170-492"
    },
    {
        "city": "Farroupilha",
        "state": "RS",
        "district": "Centro",
        "street": "Avenida Paulo Broilo",
        "zipcode": "95170-540"
    },
    {
        "city": "Farroupilha",
        "state": "RS",
        "district": "São Luiz",
        "street": "Avenida Paulo Broilo",
        "zipcode": "95170-600"
    },
    {
        "city": "Farroupilha",
        "state": "RS",
        "district": "Vicentina",
        "street": "Avenida Santa Rita",
        "zipcode": "95172-000"
    },
    {
        "city": "Farroupilha",
        "state": "RS",
        "district": "Pio X",
        "street": "Rua Antônio Corte",
        "zipcode": "95170-098"
    },
    {
        "city": "Farroupilha",
        "state": "RS",
        "district": "Parque",
        "street": "Rodovia ERS",
        "zipcode": "95170-260"
    },
    {
        "city": "Farroupilha",
        "state": "RS",
        "district": "Nova Vicenza",
        "street": "Rodovia dos Romeiros",
        "zipcode": "95174-180"
    },
    {
        "city": "Farroupilha",
        "state": "RS",
        "district": "Cinquentenário",
        "street": "Avenida São Vicente",
        "zipcode": "95174-274"
    },
    {
        "city": "Farroupilha",
        "state": "RS",
        "district": "Belvedere",
        "street": "Rodovia dos Romeiros",
        "zipcode": "95173-390"
    },
    {
        "city": "Farroupilha",
        "state": "RS",
        "district": "Nova Vicenza",
        "street": "Avenida Prefeito Arno Domingos Busetti",
        "zipcode": "95174-134"
    },
    {
        "city": "Farroupilha",
        "state": "RS",
        "district": "Nova Vicenza",
        "street": "Avenida São Vicente",
        "zipcode": "95174-126"
    },
    {
        "city": "Farroupilha",
        "state": "RS",
        "district": "Nova Vicenza",
        "street": "Rua Aratiba",
        "zipcode": "95174-124"
    },
    {
        "city": "Farroupilha",
        "state": "RS",
        "district": "Bela Vista",
        "street": "Rodovia dos Romeiros",
        "zipcode": "95173-020"
    },
    {
        "city": "Farroupilha",
        "state": "RS",
        "district": "Industrial",
        "street": "Rua Libres Gavaraghi",
        "zipcode": "95178-172"
    },
    {
        "city": "Farroupilha",
        "state": "RS",
        "district": "Centenário",
        "street": "Rua Lidia Freitas Travi",
        "zipcode": "95177-246"
    },
    {
        "city": "Farroupilha",
        "state": "RS",
        "district": "São Luiz",
        "street": "Rua Alfonso Menegotto",
        "zipcode": "95170-778"
    },
    {
        "city": "Farroupilha",
        "state": "RS",
        "district": "São Luiz",
        "street": "Rua Ângelo Mário Schenato",
        "zipcode": "95170-782"
    },
    {
        "city": "Farroupilha",
        "state": "RS",
        "district": "São Francisco",
        "street": "Rua André de Conto",
        "zipcode": "95171-030"
    },
    {
        "city": "Farroupilha",
        "state": "RS",
        "district": "São Francisco",
        "street": "Rua Alceu Rufatto",
        "zipcode": "95171-140"
    },
    {
        "city": "Farroupilha",
        "state": "RS",
        "district": "São Francisco",
        "street": "Rua Amélia Grendene",
        "zipcode": "95171-148"
    },
    {
        "city": "Farroupilha",
        "state": "RS",
        "district": "Vicentina",
        "street": "Rua Ângelo Bartelle",
        "zipcode": "95172-012"
    },
    {
        "city": "Farroupilha",
        "state": "RS",
        "district": "Vicentina",
        "street": "Rua Ângelo Mário Schenato",
        "zipcode": "95172-072"
    },
    {
        "city": "Farroupilha",
        "state": "RS",
        "district": "Belvedere",
        "street": "Rua Clemente Ângelo Moroni",
        "zipcode": "95173-366"
    },
    {
        "city": "Farroupilha",
        "state": "RS",
        "district": "Pio X",
        "street": "Rua Ardelino Pozza",
        "zipcode": "95170-062"
    },
    {
        "city": "Farroupilha",
        "state": "RS",
        "district": "Pio X",
        "street": "Rua Carlos Egger",
        "zipcode": "95170-101"
    },
    {
        "city": "Farroupilha",
        "state": "RS",
        "district": "Pio X",
        "street": "Rua Cristóvão Faria de Lima",
        "zipcode": "95170-104"
    },
    {
        "city": "Farroupilha",
        "state": "RS",
        "district": "Pio X",
        "street": "Rua Ardelino Sabóia Courtois",
        "zipcode": "95170-110"
    },
    {
        "city": "Farroupilha",
        "state": "RS",
        "district": "Pio X",
        "street": "Rua Borges de Medeiros",
        "zipcode": "95170-113"
    },
    {
        "city": "Farroupilha",
        "state": "RS",
        "district": "Parque",
        "street": "Rua Coronel Pena de Moraes",
        "zipcode": "95170-154"
    },
    {
        "city": "Farroupilha",
        "state": "RS",
        "district": "Parque",
        "street": "Rua da República",
        "zipcode": "95170-160"
    },
    {
        "city": "Farroupilha",
        "state": "RS",
        "district": "Parque",
        "street": "Rua Castro Alves",
        "zipcode": "95170-218"
    },
    {
        "city": "Farroupilha",
        "state": "RS",
        "district": "Parque",
        "street": "Rua Ijuí",
        "zipcode": "95170-264"
    },
    {
        "city": "Farroupilha",
        "state": "RS",
        "district": "Parque",
        "street": "Rua José Reginato",
        "zipcode": "95170-270"
    },
    {
        "city": "Farroupilha",
        "state": "RS",
        "district": "Planalto",
        "street": "Rua Guido Lovatto",
        "zipcode": "95170-348"
    },
    {
        "city": "Farroupilha",
        "state": "RS",
        "district": "Parque",
        "street": "Rua João Beux",
        "zipcode": "95170-162"
    },
    {
        "city": "Farroupilha",
        "state": "RS",
        "district": "Pio X",
        "street": "Rodovia ERS",
        "zipcode": "95170-065"
    },
    {
        "city": "Farroupilha",
        "state": "RS",
        "district": "São Francisco",
        "street": "Rua Altamir Carlos Nervo",
        "zipcode": "95171-124"
    },
    {
        "city": "Farroupilha",
        "state": "RS",
        "district": "Planalto",
        "street": "Rua Jacob Zucco",
        "zipcode": "95170-352"
    },
    {
        "city": "Farroupilha",
        "state": "RS",
        "district": "Vicentina",
        "street": "Rua Anselmo Quaresmin",
        "zipcode": "95172-033"
    },
    {
        "city": "Farroupilha",
        "state": "RS",
        "district": "Centenário",
        "street": "Rua Jacob Alberto Brentano",
        "zipcode": "95177-244"
    },
    {
        "city": "Farroupilha",
        "state": "RS",
        "district": "Medianeira",
        "street": "Rua Jaguari",
        "zipcode": "95177-034"
    },
    {
        "city": "Farroupilha",
        "state": "RS",
        "district": "Medianeira",
        "street": "Rua Padova",
        "zipcode": "95177-054"
    },
    {
        "city": "Farroupilha",
        "state": "RS",
        "district": "Parque",
        "street": "Rua Itaqui",
        "zipcode": "95170-266"
    },
    {
        "city": "Farroupilha",
        "state": "RS",
        "district": "São Luiz",
        "street": "Rua Adolfo Bartelle",
        "zipcode": "95170-798"
    },
    {
        "city": "Farroupilha",
        "state": "RS",
        "district": "Vicentina",
        "street": "Rua João Albino Bender",
        "zipcode": "95172-057"
    },
    {
        "city": "Farroupilha",
        "state": "RS",
        "district": "Bela Vista",
        "street": "Rua João Antônio Letti Júnior",
        "zipcode": "95173-090"
    },
    {
        "city": "Farroupilha",
        "state": "RS",
        "district": "Parque",
        "street": "Rua Independência",
        "zipcode": "95170-166"
    },
    {
        "city": "Farroupilha",
        "state": "RS",
        "district": "Planalto",
        "street": "Rua Cenira Eunice Cambruzzi",
        "zipcode": "95170-308"
    },
    {
        "city": "Farroupilha",
        "state": "RS",
        "district": "Planalto",
        "street": "Rua Guilherme Tartarotti",
        "zipcode": "95170-320"
    },
    {
        "city": "Farroupilha",
        "state": "RS",
        "district": "Belvedere",
        "street": "Rua Izabel Italina Gramilha Faé",
        "zipcode": "95173-282"
    },
    {
        "city": "Farroupilha",
        "state": "RS",
        "district": "Belvedere",
        "street": "Rua Luciano Courtois",
        "zipcode": "95173-294"
    },
    {
        "city": "Farroupilha",
        "state": "RS",
        "district": "São Luiz",
        "street": "Rua Carlos Beltrami",
        "zipcode": "95170-616"
    },
    {
        "city": "Farroupilha",
        "state": "RS",
        "district": "Santa Catarina",
        "street": "Rua Leôncio Prestes dos Santos",
        "zipcode": "95176-178"
    },
    {
        "city": "Farroupilha",
        "state": "RS",
        "district": "Centro",
        "street": "Rua Barão do Rio Branco",
        "zipcode": "95170-404"
    },
    {
        "city": "Farroupilha",
        "state": "RS",
        "district": "Centro",
        "street": "Rua Atílio Zaniol",
        "zipcode": "95170-452"
    },
    {
        "city": "Farroupilha",
        "state": "RS",
        "district": "Centro",
        "street": "Rua Carlos Beltrami",
        "zipcode": "95170-456"
    },
    {
        "city": "Farroupilha",
        "state": "RS",
        "district": "Centro",
        "street": "Rua da República",
        "zipcode": "95170-476"
    },
    {
        "city": "Farroupilha",
        "state": "RS",
        "district": "Centro",
        "street": "Rua da República",
        "zipcode": "95170-484"
    },
    {
        "city": "Farroupilha",
        "state": "RS",
        "district": "Centro",
        "street": "Rua Onze de Dezembro",
        "zipcode": "95170-524"
    },
    {
        "city": "Farroupilha",
        "state": "RS",
        "district": "São Luiz",
        "street": "Rua Arcangelo Chiele",
        "zipcode": "95170-718"
    },
    {
        "city": "Farroupilha",
        "state": "RS",
        "district": "São Luiz",
        "street": "Rua João Abílio Werner",
        "zipcode": "95170-766"
    },
    {
        "city": "Farroupilha",
        "state": "RS",
        "district": "São Luiz",
        "street": "Rua Loreno Gasperin",
        "zipcode": "95170-786"
    },
    {
        "city": "Farroupilha",
        "state": "RS",
        "district": "São Francisco",
        "street": "Rua Ivanor Felicetti",
        "zipcode": "95171-132"
    },
    {
        "city": "Farroupilha",
        "state": "RS",
        "district": "Parque",
        "street": "Rua Giacomo Brutomezzo",
        "zipcode": "95170-220"
    },
    {
        "city": "Farroupilha",
        "state": "RS",
        "district": "Pio X",
        "street": "Rua Camilo Brasileiro",
        "zipcode": "95170-086"
    },
    {
        "city": "Farroupilha",
        "state": "RS",
        "district": "Bela Vista",
        "street": "Rua Paraná",
        "zipcode": "95173-036"
    },
    {
        "city": "Farroupilha",
        "state": "RS",
        "district": "Belvedere",
        "street": "Rua Onorino Faé",
        "zipcode": "95173-308"
    },
    {
        "city": "Farroupilha",
        "state": "RS",
        "district": "Santa Catarina",
        "street": "Rua Oscar Bertholdo",
        "zipcode": "95176-224"
    },
    {
        "city": "Farroupilha",
        "state": "RS",
        "district": "Centro",
        "street": "Rua Papa João XXIII",
        "zipcode": "95170-532"
    },
    {
        "city": "Farroupilha",
        "state": "RS",
        "district": "Nova Vicenza",
        "street": "Rua Padre Cosme Fiorini",
        "zipcode": "95174-034"
    },
    {
        "city": "Farroupilha",
        "state": "RS",
        "district": "Planalto",
        "street": "Travessa Lombardia",
        "zipcode": "95170-316"
    },
    {
        "city": "Farroupilha",
        "state": "RS",
        "district": "São Luiz",
        "street": "Rua Papa João XXIII",
        "zipcode": "95170-854"
    },
    {
        "city": "Farroupilha",
        "state": "RS",
        "district": "São Luiz",
        "street": "Rua Papa João XXIII",
        "zipcode": "95170-866"
    },
    {
        "city": "Farroupilha",
        "state": "RS",
        "district": "São Francisco",
        "street": "Rua Papa João XXIII",
        "zipcode": "95171-000"
    },
    {
        "city": "Farroupilha",
        "state": "RS",
        "district": "Parque",
        "street": "Rua Willy Fetter",
        "zipcode": "95170-222"
    },
    {
        "city": "Farroupilha",
        "state": "RS",
        "district": "Industrial",
        "street": "Rua André Colombo",
        "zipcode": "95178-212"
    },
    {
        "city": "Farroupilha",
        "state": "RS",
        "district": "Industrial",
        "street": "Rua São Leopoldo",
        "zipcode": "95178-154"
    },
    {
        "city": "Farroupilha",
        "state": "RS",
        "district": "Monte Pasqual",
        "street": "Rua João Fabbro Filho",
        "zipcode": "95178-434"
    },
    {
        "city": "Farroupilha",
        "state": "RS",
        "district": "Ipanema",
        "street": "Rua Gentil Avelino Borsoi",
        "zipcode": "95177-356"
    },
    {
        "city": "Farroupilha",
        "state": "RS",
        "district": "Alvorada",
        "street": "Rua Millo Ornaghi",
        "zipcode": "95178-488"
    },
    {
        "city": "Farroupilha",
        "state": "RS",
        "district": "Alvorada",
        "street": "Rua Severino Cândido Lodi",
        "zipcode": "95178-486"
    },
    {
        "city": "Farroupilha",
        "state": "RS",
        "district": "Monte Pasqual",
        "street": "Rua Rolante",
        "zipcode": "95178-342"
    },
    {
        "city": "Farroupilha",
        "state": "RS",
        "district": "Industrial",
        "street": "Rua Faustino José Paese",
        "zipcode": "95178-204"
    },
    {
        "city": "Farroupilha",
        "state": "RS",
        "district": "Alvorada",
        "street": "Rua Angelo Fanton",
        "zipcode": "95178-480"
    },
    {
        "city": "Farroupilha",
        "state": "RS",
        "district": "Monte Pasqual",
        "street": "Rua Pedro Pasqual Filho",
        "zipcode": "95178-320"
    },
    {
        "city": "Farroupilha",
        "state": "RS",
        "district": "Industrial",
        "street": "Avenida das Indústrias",
        "zipcode": "95178-070"
    },
    {
        "city": "Farroupilha",
        "state": "RS",
        "district": "Ipanema",
        "street": "Rua Ana Lúcia Turra",
        "zipcode": "95177-354"
    },
    {
        "city": "Farroupilha",
        "state": "RS",
        "district": "Monte Pasqual",
        "street": "Rua Hortêncio Maioli",
        "zipcode": "95178-430"
    },
    {
        "city": "Farroupilha",
        "state": "RS",
        "district": "Monte Pasqual",
        "street": "Rua Arcangelo Milesi",
        "zipcode": "95178-404"
    },
    {
        "city": "Farroupilha",
        "state": "RS",
        "district": "Industrial",
        "street": "Rua Canela",
        "zipcode": "95178-198"
    },
    {
        "city": "Farroupilha",
        "state": "RS",
        "district": "Industrial",
        "street": "Rua Domingos Roncatto",
        "zipcode": "95178-228"
    },
    {
        "city": "Farroupilha",
        "state": "RS",
        "district": "Industrial",
        "street": "Rua Guaporé",
        "zipcode": "95178-156"
    },
    {
        "city": "Farroupilha",
        "state": "RS",
        "district": "Ipanema",
        "street": "Rua Arminio Avelino Bortolossi",
        "zipcode": "95177-392"
    },
    {
        "city": "Farroupilha",
        "state": "RS",
        "district": "Alvorada",
        "street": "Rua João Fabbro Filho",
        "zipcode": "95178-450"
    },
    {
        "city": "Farroupilha",
        "state": "RS",
        "district": "Industrial",
        "street": "Rua Montenegro",
        "zipcode": "95178-148"
    },
    {
        "city": "Farroupilha",
        "state": "RS",
        "district": "Ipanema",
        "street": "Rua José Pegoraro",
        "zipcode": "95177-358"
    },
    {
        "city": "Farroupilha",
        "state": "RS",
        "district": "Alvorada",
        "street": "Rua Porto Alegre",
        "zipcode": "95178-482"
    },
    {
        "city": "Farroupilha",
        "state": "RS",
        "district": "Monte Pasqual",
        "street": "Rua São Gabriel",
        "zipcode": "95178-338"
    },
    {
        "city": "Farroupilha",
        "state": "RS",
        "district": "Santa Catarina",
        "street": "Rua Antônio Tedesco",
        "zipcode": "95176-106"
    },
    {
        "city": "Farroupilha",
        "state": "RS",
        "district": "Medianeira",
        "street": "Avenida Veneza",
        "zipcode": "95177-032"
    },
    {
        "city": "Farroupilha",
        "state": "RS",
        "district": "Cruzeiro",
        "street": "Rua Agostinho Rossi",
        "zipcode": "95176-306"
    },
    {
        "city": "Farroupilha",
        "state": "RS",
        "district": "Centenário",
        "street": "Beco Paulo Ferrari",
        "zipcode": "95177-182"
    },
    {
        "city": "Farroupilha",
        "state": "RS",
        "district": "Medianeira",
        "street": "Rua Caetano Grendene",
        "zipcode": "95177-104"
    },
    {
        "city": "Farroupilha",
        "state": "RS",
        "district": "Medianeira",
        "street": "Rua Ibiaçá",
        "zipcode": "95177-058"
    },
    {
        "city": "Farroupilha",
        "state": "RS",
        "district": "São Roque",
        "street": "Rua Antão de Jesus Batista",
        "zipcode": "95176-020"
    },
    {
        "city": "Farroupilha",
        "state": "RS",
        "district": "Cinquentenário",
        "street": "Avenida Prefeito Arno Domingos Busetti",
        "zipcode": "95174-200"
    },
    {
        "city": "Farroupilha",
        "state": "RS",
        "district": "São Francisco",
        "street": "Rua Adolfo Bartelle",
        "zipcode": "95171-066"
    },
    {
        "city": "Farroupilha",
        "state": "RS",
        "district": "Vicentina",
        "street": "Avenida Paulo Broilo",
        "zipcode": "95172-048"
    },
    {
        "city": "Farroupilha",
        "state": "RS",
        "district": "Vicentina",
        "street": "Rua Alfonso Menegotto",
        "zipcode": "95172-078"
    },
    {
        "city": "Farroupilha",
        "state": "RS",
        "district": "Vicentina",
        "street": "Rua Argens de Medeiros",
        "zipcode": "95172-003"
    },
    {
        "city": "Farroupilha",
        "state": "RS",
        "district": "Vicentina",
        "street": "Rua Maria Mocelini",
        "zipcode": "95172-045"
    },
    {
        "city": "Farroupilha",
        "state": "RS",
        "district": "São Francisco",
        "street": "Rua Vitório Dal Monte",
        "zipcode": "95171-014"
    },
    {
        "city": "Farroupilha",
        "state": "RS",
        "district": "Vicentina",
        "street": "Rua Rio de Janeiro",
        "zipcode": "95172-099"
    },
    {
        "city": "Farroupilha",
        "state": "RS",
        "district": "Bela Vista",
        "street": "Rua Constantina",
        "zipcode": "95173-046"
    },
    {
        "city": "Farroupilha",
        "state": "RS",
        "district": "Bela Vista",
        "street": "Rua Pedro Marcheto",
        "zipcode": "95173-060"
    },
    {
        "city": "Farroupilha",
        "state": "RS",
        "district": "São Luiz",
        "street": "Rua Rustico Gobato",
        "zipcode": "95170-750"
    },
    {
        "city": "Farroupilha",
        "state": "RS",
        "district": "São Luiz",
        "street": "Rua José Sachet",
        "zipcode": "95170-722"
    },
    {
        "city": "Farroupilha",
        "state": "RS",
        "district": "São Luiz",
        "street": "Rua Ludovico Merlin",
        "zipcode": "95170-730"
    },
    {
        "city": "Farroupilha",
        "state": "RS",
        "district": "Bela Vista",
        "street": "Rua Victório Tartarotti",
        "zipcode": "95173-140"
    },
    {
        "city": "Farroupilha",
        "state": "RS",
        "district": "Vicentina",
        "street": "Rua Vitório Dal Monte",
        "zipcode": "95172-142"
    },
    {
        "city": "Farroupilha",
        "state": "RS",
        "district": "São Luiz",
        "street": "Rua Arcangelo Chiele",
        "zipcode": "95170-608"
    },
    {
        "city": "Farroupilha",
        "state": "RS",
        "district": "São Luiz",
        "street": "Rua Horácio Madalosso",
        "zipcode": "95170-710"
    },
    {
        "city": "Farroupilha",
        "state": "RS",
        "district": "São Luiz",
        "street": "Rua Jacinto Capeletti",
        "zipcode": "95170-858"
    },
    {
        "city": "Farroupilha",
        "state": "RS",
        "district": "Centro",
        "street": "Rua Coronel Pena de Moraes",
        "zipcode": "95170-971"
    },
    {
        "city": "Farroupilha",
        "state": "RS",
        "district": "São Francisco",
        "street": "Rua Cerro Largo",
        "zipcode": "95171-020"
    },
    {
        "city": "Farroupilha",
        "state": "RS",
        "district": "Vicentina",
        "street": "Rua Júlio de Castilhos",
        "zipcode": "95172-084"
    },
    {
        "city": "Farroupilha",
        "state": "RS",
        "district": "Bela Vista",
        "street": "Rua Luigi Sperafico",
        "zipcode": "95173-034"
    },
    {
        "city": "Farroupilha",
        "state": "RS",
        "district": "Centro",
        "street": "Rua Pain Filho",
        "zipcode": "95170-516"
    },
    {
        "city": "Farroupilha",
        "state": "RS",
        "district": "Vicentina",
        "street": "Rua Guilherme Engers",
        "zipcode": "95172-144"
    },
    {
        "city": "Farroupilha",
        "state": "RS",
        "district": "Pio X",
        "street": "Rua Getúlio Vargas",
        "zipcode": "95170-116"
    },
    {
        "city": "Farroupilha",
        "state": "RS",
        "district": "Parque",
        "street": "Rua Alfredo Klein",
        "zipcode": "95170-228"
    },
    {
        "city": "Farroupilha",
        "state": "RS",
        "district": "Parque",
        "street": "Rua Barão do Rio Branco",
        "zipcode": "95170-158"
    },
    {
        "city": "Farroupilha",
        "state": "RS",
        "district": "Pio X",
        "street": "Rua Marino Chiele",
        "zipcode": "95170-056"
    },
    {
        "city": "Farroupilha",
        "state": "RS",
        "district": "Pio X",
        "street": "Rua Portão",
        "zipcode": "95170-071"
    },
    {
        "city": "Farroupilha",
        "state": "RS",
        "district": "Pio X",
        "street": "Rua São Jerônimo",
        "zipcode": "95170-080"
    },
    {
        "city": "Farroupilha",
        "state": "RS",
        "district": "Centro",
        "street": "Rua Três de Outubro",
        "zipcode": "95170-400"
    },
    {
        "city": "Farroupilha",
        "state": "RS",
        "district": "Parque",
        "street": "Rua Três de Outubro",
        "zipcode": "95170-216"
    },
    {
        "city": "Farroupilha",
        "state": "RS",
        "district": "Parque",
        "street": "Rua Humberto de Alencar Castelo Branco",
        "zipcode": "95170-272"
    },
    {
        "city": "Farroupilha",
        "state": "RS",
        "district": "Planalto",
        "street": "Rua Joaquim Nabuco",
        "zipcode": "95170-312"
    },
    {
        "city": "Farroupilha",
        "state": "RS",
        "district": "Parque",
        "street": "Rua José Dalla Riva",
        "zipcode": "95170-214"
    },
    {
        "city": "Farroupilha",
        "state": "RS",
        "district": "Planalto",
        "street": "Rua Doutor Jaime Rossler",
        "zipcode": "95170-356"
    },
    {
        "city": "Farroupilha",
        "state": "RS",
        "district": "Parque",
        "street": "Rua Quatorze de Julho",
        "zipcode": "95170-212"
    },
    {
        "city": "Farroupilha",
        "state": "RS",
        "district": "Belvedere",
        "street": "Rua Deolindo Varisco",
        "zipcode": "95173-300"
    },
    {
        "city": "Farroupilha",
        "state": "RS",
        "district": "Pio X",
        "street": "Rua Serafin Sperafico",
        "zipcode": "95170-083"
    },
    {
        "city": "Farroupilha",
        "state": "RS",
        "district": "Pio X",
        "street": "Rua Manoel Zangalli",
        "zipcode": "95170-092"
    },
    {
        "city": "Farroupilha",
        "state": "RS",
        "district": "Pio X",
        "street": "Rua Silveira Martins",
        "zipcode": "95170-107"
    },
    {
        "city": "Farroupilha",
        "state": "RS",
        "district": "Parque",
        "street": "Rua Nataly Valentini",
        "zipcode": "95170-150"
    },
    {
        "city": "Farroupilha",
        "state": "RS",
        "district": "Parque",
        "street": "Rua José Gasperin",
        "zipcode": "95170-224"
    },
    {
        "city": "Farroupilha",
        "state": "RS",
        "district": "Pio X",
        "street": "Rua Quaraí",
        "zipcode": "95170-010"
    },
    {
        "city": "Farroupilha",
        "state": "RS",
        "district": "Pio X",
        "street": "Rua Ernesto Tonet",
        "zipcode": "95170-068"
    },
    {
        "city": "Farroupilha",
        "state": "RS",
        "district": "Pio X",
        "street": "Rua Padre Dionísio Massignani",
        "zipcode": "95170-053"
    },
    {
        "city": "Farroupilha",
        "state": "RS",
        "district": "Vicentina",
        "street": "Rodovia RSC",
        "zipcode": "95172-090"
    },
    {
        "city": "Farroupilha",
        "state": "RS",
        "district": "Cinquentenário",
        "street": "Rua Cândido Acauan",
        "zipcode": "95174-224"
    },
    {
        "city": "Farroupilha",
        "state": "RS",
        "district": "Medianeira",
        "street": "Rua Beluno",
        "zipcode": "95177-036"
    },
    {
        "city": "Farroupilha",
        "state": "RS",
        "district": "Belvedere",
        "street": "Rua Luciano Courtois",
        "zipcode": "95173-310"
    },
    {
        "city": "Farroupilha",
        "state": "RS",
        "district": "Pio X",
        "street": "Rua Dom Pedro II",
        "zipcode": "95170-089"
    },
    {
        "city": "Farroupilha",
        "state": "RS",
        "district": "Centro",
        "street": "Rua Júlio de Castilhos",
        "zipcode": "95170-480"
    },
    {
        "city": "Farroupilha",
        "state": "RS",
        "district": "Belvedere",
        "street": "Rua Victório Firmino Casali",
        "zipcode": "95173-286"
    },
    {
        "city": "Farroupilha",
        "state": "RS",
        "district": "Belvedere",
        "street": "Rua Ênio Joaquim Beltrami",
        "zipcode": "95173-362"
    },
    {
        "city": "Farroupilha",
        "state": "RS",
        "district": "Nova Vicenza",
        "street": "Rua Humberto Jaconi",
        "zipcode": "95174-040"
    },
    {
        "city": "Farroupilha",
        "state": "RS",
        "district": "Planalto",
        "street": "Rua Júlio de Castilhos",
        "zipcode": "95170-364"
    },
    {
        "city": "Farroupilha",
        "state": "RS",
        "district": "Centro",
        "street": "Rua Gonçalves Dias",
        "zipcode": "95170-528"
    },
    {
        "city": "Farroupilha",
        "state": "RS",
        "district": "São Luiz",
        "street": "Rua Independência",
        "zipcode": "95170-774"
    },
    {
        "city": "Farroupilha",
        "state": "RS",
        "district": "São Francisco",
        "street": "Rua Arciso Silvestrin",
        "zipcode": "95171-006"
    },
    {
        "city": "Farroupilha",
        "state": "RS",
        "district": "Vicentina",
        "street": "Avenida Armando Antonello",
        "zipcode": "95172-063"
    },
    {
        "city": "Farroupilha",
        "state": "RS",
        "district": "São Luiz",
        "street": "Rua Luiz Busetti",
        "zipcode": "95170-612"
    },
    {
        "city": "Farroupilha",
        "state": "RS",
        "district": "Bela Vista",
        "street": "Rua Odila Luiza Malinverno Tartarotti",
        "zipcode": "95173-136"
    },
    {
        "city": "Farroupilha",
        "state": "RS",
        "district": "Pio X",
        "street": "Rua Pedro Grendene",
        "zipcode": "95170-119"
    },
    {
        "city": "Farroupilha",
        "state": "RS",
        "district": "Industrial",
        "street": "Rua Bom Jesus",
        "zipcode": "95178-144"
    },
    {
        "city": "Farroupilha",
        "state": "RS",
        "district": "Centro",
        "street": "Rua Carlos Feter 565",
        "zipcode": "95180-975"
    },
    {
        "city": "Farroupilha",
        "state": "RS",
        "district": "Industrial",
        "street": "Rua Torres",
        "zipcode": "95178-208"
    },
    {
        "city": "Farroupilha",
        "state": "RS",
        "district": "Ipanema",
        "street": "Rua João Batista Minella",
        "zipcode": "95177-396"
    },
    {
        "city": "Farroupilha",
        "state": "RS",
        "district": "Industrial",
        "street": "Rua Marau",
        "zipcode": "95178-152"
    },
    {
        "city": "Farroupilha",
        "state": "RS",
        "district": "Cruzeiro",
        "street": "Rua Oscar Bertholdo",
        "zipcode": "95176-256"
    },
    {
        "city": "Farroupilha",
        "state": "RS",
        "district": "Santa Catarina",
        "street": "Rua Adelina Ângela Faé Guerra",
        "zipcode": "95176-234"
    },
    {
        "city": "Farroupilha",
        "state": "RS",
        "district": "Santa Catarina",
        "street": "Rua Cézar José Francischini",
        "zipcode": "95176-232"
    },
    {
        "city": "Farroupilha",
        "state": "RS",
        "district": "Santa Catarina",
        "street": "Rua Cézar José Francischini",
        "zipcode": "95176-164"
    },
    {
        "city": "Farroupilha",
        "state": "RS",
        "district": "São Roque",
        "street": "Rua Francisco Balbinot",
        "zipcode": "95176-050"
    },
    {
        "city": "Farroupilha",
        "state": "RS",
        "district": "Primeiro de Maio",
        "street": "Rua Rosa Beltrame de Aguiar",
        "zipcode": "95181-284"
    },
    {
        "city": "Farroupilha",
        "state": "RS",
        "district": "Primeiro de Maio",
        "street": "Rua Dalcy Ferrari de Andrade",
        "zipcode": "95181-242"
    },
    {
        "city": "Farroupilha",
        "state": "RS",
        "district": "Imigrante",
        "street": "Rua Padre Plínio Bartelle",
        "zipcode": "95180-330"
    },
    {
        "city": "Farroupilha",
        "state": "RS",
        "district": "América",
        "street": "Rua Florentino Luiz Perottoni",
        "zipcode": "95179-140"
    },
    {
        "city": "Farroupilha",
        "state": "RS",
        "district": "América",
        "street": "Rua Luiz Onzi",
        "zipcode": "95179-146"
    },
    {
        "city": "Farroupilha",
        "state": "RS",
        "district": "América",
        "street": "Rua Vitória Stella Biason Vieceli",
        "zipcode": "95179-180"
    },
    {
        "city": "Farroupilha",
        "state": "RS",
        "district": "Monte Pasqual",
        "street": "Rua São Borja",
        "zipcode": "95178-410"
    },
    {
        "city": "Farroupilha",
        "state": "RS",
        "district": "Primeiro de Maio",
        "street": "Rua Pasqual Paraboni",
        "zipcode": "95181-200"
    },
    {
        "city": "Farroupilha",
        "state": "RS",
        "district": "Monte Pasqual",
        "street": "Rua Ambrósio Pasqual",
        "zipcode": "95178-402"
    },
    {
        "city": "Farroupilha",
        "state": "RS",
        "district": "Planalto",
        "street": "Rua Marechal Deodoro da Fonseca",
        "zipcode": "95170-300"
    },
    {
        "city": "Farroupilha",
        "state": "RS",
        "district": "Monte Verde",
        "street": "Rua Afonso Fernandes de Mattos",
        "zipcode": "95181-624"
    },
    {
        "city": "Farroupilha",
        "state": "RS",
        "district": "Primeiro de Maio",
        "street": "Rua Antônio Grendene",
        "zipcode": "95181-214"
    },
    {
        "city": "Farroupilha",
        "state": "RS",
        "district": "Volta Grande",
        "street": "Rodovia ERS",
        "zipcode": "95180-010"
    },
    {
        "city": "Farroupilha",
        "state": "RS",
        "district": "América",
        "street": "Rua André Colombo",
        "zipcode": "95179-034"
    },
    {
        "city": "Farroupilha",
        "state": "RS",
        "district": "América",
        "street": "Rua Aléssio Cauduro",
        "zipcode": "95179-030"
    },
    {
        "city": "Farroupilha",
        "state": "RS",
        "district": "América",
        "street": "Rodovia ERS",
        "zipcode": "95179-000"
    },
    {
        "city": "Farroupilha",
        "state": "RS",
        "district": "América",
        "street": "Rua Alberto Matte",
        "zipcode": "95179-088"
    },
    {
        "city": "Farroupilha",
        "state": "RS",
        "district": "Imigrante",
        "street": "Rua Pain Filho",
        "zipcode": "95180-264"
    },
    {
        "city": "Farroupilha",
        "state": "RS",
        "district": "América",
        "street": "Rua Modesto Piccolli",
        "zipcode": "95179-096"
    },
    {
        "city": "Farroupilha",
        "state": "RS",
        "district": "América",
        "street": "Rua João Roso",
        "zipcode": "95179-022"
    },
    {
        "city": "Farroupilha",
        "state": "RS",
        "district": "São Marcos",
        "street": "Rua João Cônego Cordeiro",
        "zipcode": "95175-980"
    },
    {
        "city": "Farroupilha",
        "state": "RS",
        "district": "Industrial",
        "street": "Rua Porto Alegre",
        "zipcode": "95178-210"
    },
    {
        "city": "Farroupilha",
        "state": "RS",
        "district": "São Francisco",
        "street": "Rua Waldemar José Dal Monte",
        "zipcode": "95171-008"
    },
    {
        "city": "Farroupilha",
        "state": "RS",
        "district": "Belvedere",
        "street": "Rua São João Calábria",
        "zipcode": "95173-344"
    },
    {
        "city": "Farroupilha",
        "state": "RS",
        "district": "Santa Catarina",
        "street": "Rua Erval",
        "zipcode": "95176-160"
    },
    {
        "city": "Farroupilha",
        "state": "RS",
        "district": "Ipanema",
        "street": "Rua Itália",
        "zipcode": "95177-402"
    },
    {
        "city": "Farroupilha",
        "state": "RS",
        "district": "Santa Catarina",
        "street": "Rua Adelina Ângela Faé Guerra",
        "zipcode": "95176-170"
    },
    {
        "city": "Farroupilha",
        "state": "RS",
        "district": "Centro",
        "street": "Rua Coronel Pena de Moraes",
        "zipcode": "95170-488"
    },
    {
        "city": "Farroupilha",
        "state": "RS",
        "district": "Industrial",
        "street": "Rua Vacaria",
        "zipcode": "95178-140"
    },
    {
        "city": "Farroupilha",
        "state": "RS",
        "district": "Monte Pasqual",
        "street": "Rua Vacaria",
        "zipcode": "95178-418"
    },
    {
        "city": "Farroupilha",
        "state": "RS",
        "district": null,
        "street": "Linha Rio Burati",
        "zipcode": "95180-992"
    },
    {
        "city": "Farroupilha",
        "state": "RS",
        "district": "São Francisco",
        "street": "Rua Celestina Arsego",
        "zipcode": "95171-028"
    }
]