[
    {
        "city": "Gravatai",
        "state": "RS",
        "district": "Central",
        "street": "Rua Libano",
        "zipcode": "94065-090"
    },
    {
        "city": "Gravatai",
        "state": "RS",
        "district": "Loteamento Umbu",
        "street": "Rua Vinte E Oito (Lot Umbu)",
        "zipcode": "94140-350"
    },
    {
        "city": "Gravatai",
        "state": "RS",
        "district": "Loteamento Umbu",
        "street": "Rua Sete (Lot Umbu)",
        "zipcode": "94140-070"
    },
    {
        "city": "Gravatai",
        "state": "RS",
        "district": "Loteamento Umbu",
        "street": "Rua Quatro (Lot Umbu)",
        "zipcode": "94140-040"
    },
    {
        "city": "Gravatai",
        "state": "RS",
        "district": "Loteamento Umbu",
        "street": "Rua Trinta E Tres (Lot Umbu)",
        "zipcode": "94140-140"
    },
    {
        "city": "Gravatai",
        "state": "RS",
        "district": "Loteamento Umbu",
        "street": "Rua Dez (Lot Umbu)",
        "zipcode": "94140-160"
    },
    {
        "city": "Gravatai",
        "state": "RS",
        "district": "Loteamento Umbu",
        "street": "Travessa Tres (Lot Umbu)",
        "zipcode": "94140-090"
    },
    {
        "city": "Gravatai",
        "state": "RS",
        "district": "Loteamento Umbu",
        "street": "Rua Doze (Lot Umbu)",
        "zipcode": "94140-180"
    },
    {
        "city": "Gravatai",
        "state": "RS",
        "district": "Loteamento Umbu",
        "street": "Rua Trinta E Dois (Lot Umbu)",
        "zipcode": "94140-130"
    },
    {
        "city": "Gravatai",
        "state": "RS",
        "district": "Sao Vicente",
        "street": "Rua Sao Vicente",
        "zipcode": "94060-090"
    },
    {
        "city": "Gravatai",
        "state": "RS",
        "district": "Loteamento Umbu",
        "street": "Rua Tres (Lot Umbu)",
        "zipcode": "94140-030"
    },
    {
        "city": "Gravatai",
        "state": "RS",
        "district": "Loteamento Umbu",
        "street": "Rua Dois (Lot Umbu)",
        "zipcode": "94140-020"
    },
    {
        "city": "Gravatai",
        "state": "RS",
        "district": "Loteamento Umbu",
        "street": "Rua Cinco (Lot Umbu)",
        "zipcode": "94140-050"
    },
    {
        "city": "Gravatai",
        "state": "RS",
        "district": "Loteamento Umbu",
        "street": "Travessa Seis (Lot Umbu)",
        "zipcode": "94140-260"
    },
    {
        "city": "Gravatai",
        "state": "RS",
        "district": "Loteamento Umbu",
        "street": "Rua Quarenta E Oito (Lot Umbu)",
        "zipcode": "94140-570"
    },
    {
        "city": "Gravatai",
        "state": "RS",
        "district": "Loteamento Umbu",
        "street": "Rua Quatorze (Lot Umbu)",
        "zipcode": "94140-200"
    },
    {
        "city": "Gravatai",
        "state": "RS",
        "district": "Loteamento Umbu",
        "street": "Avenida Tres (Lot Umbu)",
        "zipcode": "94140-080"
    },
    {
        "city": "Gravatai",
        "state": "RS",
        "district": "Loteamento Umbu",
        "street": "Travessa Quatro (Lot Umbu)",
        "zipcode": "94140-240"
    },
    {
        "city": "Gravatai",
        "state": "RS",
        "district": "Loteamento Umbu",
        "street": "Avenida Um (Lot Umbu)",
        "zipcode": "94140-000"
    },
    {
        "city": "Gravatai",
        "state": "RS",
        "district": "Loteamento Umbu",
        "street": "Rua Vinte E Cinco (Lot Umbu)",
        "zipcode": "94140-440"
    },
    {
        "city": "Gravatai",
        "state": "RS",
        "district": "Loteamento Umbu",
        "street": "Rua Onze (Lot Umbu)",
        "zipcode": "94140-170"
    },
    {
        "city": "Gravatai",
        "state": "RS",
        "district": "Loteamento Umbu",
        "street": "Travessa Oito (Lot Umbu)",
        "zipcode": "94140-280"
    },
    {
        "city": "Gravatai",
        "state": "RS",
        "district": "Loteamento Umbu",
        "street": "Travessa Nove (Lot Umbu)",
        "zipcode": "94140-400"
    },
    {
        "city": "Gravatai",
        "state": "RS",
        "district": "Loteamento Umbu",
        "street": "Rua Dezenove (Lot Umbu)",
        "zipcode": "94140-490"
    },
    {
        "city": "Gravatai",
        "state": "RS",
        "district": "Loteamento Umbu",
        "street": "Rua Cinquenta E Dois (Lot Umbu)",
        "zipcode": "94140-610"
    },
    {
        "city": "Gravatai",
        "state": "RS",
        "district": "Loteamento Umbu",
        "street": "Rua Trinta E Quatro (Lot Umbu)",
        "zipcode": "94140-390"
    },
    {
        "city": "Gravatai",
        "state": "RS",
        "district": "Loteamento Umbu",
        "street": "Rua Dezoito (Lot Umbu)",
        "zipcode": "94140-410"
    },
    {
        "city": "Gravatai",
        "state": "RS",
        "district": "Santa Cruz",
        "street": "Estrada Estrada Para Itacolomi",
        "zipcode": "94170-020"
    },
    {
        "city": "Gravatai",
        "state": "RS",
        "district": "Loteamento Umbu",
        "street": "Rua Quarenta E Um (Lot Umbu)",
        "zipcode": "94140-320"
    },
    {
        "city": "Gravatai",
        "state": "RS",
        "district": "Loteamento Umbu",
        "street": "Rua Trinta E Oito (Lot Umbu)",
        "zipcode": "94140-300"
    },
    {
        "city": "Gravatai",
        "state": "RS",
        "district": "Loteamento Umbu",
        "street": "Rua Quinze (Lot Umbu)",
        "zipcode": "94140-210"
    },
    {
        "city": "Gravatai",
        "state": "RS",
        "district": "Loteamento Umbu",
        "street": "Rua Vinte (Lot Umbu)",
        "zipcode": "94140-500"
    },
    {
        "city": "Gravatai",
        "state": "RS",
        "district": "Loteamento Umbu",
        "street": "Rua Vinte E Seis (Lot Umbu)",
        "zipcode": "94140-630"
    },
    {
        "city": "Gravatai",
        "state": "RS",
        "district": "Loteamento Umbu",
        "street": "Rua Trinta (Lot Umbu)",
        "zipcode": "94140-110"
    },
    {
        "city": "Gravatai",
        "state": "RS",
        "district": "Loteamento Umbu",
        "street": "Travessa Vinte E Um (Lot Umbu)",
        "zipcode": "94140-470"
    },
    {
        "city": "Gravatai",
        "state": "RS",
        "district": "Loteamento Umbu",
        "street": "Rua Dezesseis (Lot Umbu)",
        "zipcode": "94140-220"
    },
    {
        "city": "Gravatai",
        "state": "RS",
        "district": "Sitio Sobrado",
        "street": "Rodovia Rs",
        "zipcode": "94180-130"
    },
    {
        "city": "Gravatai",
        "state": "RS",
        "district": "Jardim Do Cedro",
        "street": "Rodovia Rs 030",
        "zipcode": "94197-130"
    },
    {
        "city": "Gravatai",
        "state": "RS",
        "district": "Loteamento Umbu",
        "street": "Rua Vinte E Tres (Lot Umbu)",
        "zipcode": "94140-510"
    },
    {
        "city": "Gravatai",
        "state": "RS",
        "district": "Loteamento Umbu",
        "street": "Rua Quarenta (Lot Umbu)",
        "zipcode": "94140-310"
    },
    {
        "city": "Gravatai",
        "state": "RS",
        "district": "Loteamento Umbu",
        "street": "Rua Vinte E Sete (Lot Umbu)",
        "zipcode": "94140-520"
    },
    {
        "city": "Gravatai",
        "state": "RS",
        "district": "Passo Da Caveira",
        "street": "Rodovia Rs",
        "zipcode": "94198-005"
    },
    {
        "city": "Gravatai",
        "state": "RS",
        "district": "Loteamento Umbu",
        "street": "Rua Vinte E Quatro (Lot Umbu)",
        "zipcode": "94140-430"
    },
    {
        "city": "Gravatai",
        "state": "RS",
        "district": "Loteamento Umbu",
        "street": "Rua Vinte E Seis (Lot Umbu)",
        "zipcode": "94140-450"
    },
    {
        "city": "Gravatai",
        "state": "RS",
        "district": "Loteamento Umbu",
        "street": "Travessa Um (Lot Umbu)",
        "zipcode": "94140-330"
    },
    {
        "city": "Gravatai",
        "state": "RS",
        "district": "Loteamento Umbu",
        "street": "Travessa Sete (Lot Umbu)",
        "zipcode": "94140-270"
    },
    {
        "city": "Gravatai",
        "state": "RS",
        "district": "Loteamento Umbu",
        "street": "Travessa Vinte E Tres (Lot Umbu)",
        "zipcode": "94140-620"
    },
    {
        "city": "Gravatai",
        "state": "RS",
        "district": "Loteamento Umbu",
        "street": "Rua Cinquenta E Um (Lot Umbu)",
        "zipcode": "94140-600"
    },
    {
        "city": "Gravatai",
        "state": "RS",
        "district": "Loteamento Umbu",
        "street": "Rua Dezessete (Lot Umbu)",
        "zipcode": "94140-230"
    },
    {
        "city": "Gravatai",
        "state": "RS",
        "district": "Loteamento Umbu",
        "street": "Travessa Dezenove (Lot Umbu)",
        "zipcode": "94140-460"
    },
    {
        "city": "Gravatai",
        "state": "RS",
        "district": "Santa Cruz",
        "street": "Estrada Itacolimi",
        "zipcode": "94170-450"
    },
    {
        "city": "Gravatai",
        "state": "RS",
        "district": "Vila Branca",
        "street": "Estrada Estrada Para Itacolomi",
        "zipcode": "94150-530"
    },
    {
        "city": "Gravatai",
        "state": "RS",
        "district": "Loteamento Umbu",
        "street": "Rua Um (Lot Umbu)",
        "zipcode": "94140-010"
    },
    {
        "city": "Gravatai",
        "state": "RS",
        "district": "Loteamento Umbu",
        "street": "Travessa Vinte E Sete (Lot Umbu)",
        "zipcode": "94140-550"
    },
    {
        "city": "Gravatai",
        "state": "RS",
        "district": "Loteamento Umbu",
        "street": "Rua Seis (Lot Umbu)",
        "zipcode": "94140-060"
    },
    {
        "city": "Gravatai",
        "state": "RS",
        "district": "Loteamento Umbu",
        "street": "Rua Vinte E Nove (Lot Umbu)",
        "zipcode": "94140-540"
    },
    {
        "city": "Gravatai",
        "state": "RS",
        "district": "Loteamento Umbu",
        "street": "Rua Quarenta E Tres (Lot Umbu)",
        "zipcode": "94140-340"
    },
    {
        "city": "Gravatai",
        "state": "RS",
        "district": "Loteamento Umbu",
        "street": "Rua Trinta E Um (Lot Umbu)",
        "zipcode": "94140-120"
    },
    {
        "city": "Gravatai",
        "state": "RS",
        "district": "Loteamento Umbu",
        "street": "Rua Quarenta E Seis (Lot Umbu)",
        "zipcode": "94140-420"
    },
    {
        "city": "Gravatai",
        "state": "RS",
        "district": "Passo Das Pedras",
        "street": "Rodovia Br",
        "zipcode": "94190-600"
    },
    {
        "city": "Gravatai",
        "state": "RS",
        "district": "Loteamento Umbu",
        "street": "Rua Quarenta E Sete (Lot Umbu)",
        "zipcode": "94140-480"
    },
    {
        "city": "Gravatai",
        "state": "RS",
        "district": "Loteamento Umbu",
        "street": "Rua Quarenta E Quatro (Lot Umbu)",
        "zipcode": "94140-370"
    },
    {
        "city": "Gravatai",
        "state": "RS",
        "district": "Loteamento Umbu",
        "street": "Rua Vinte E Um (Lot Umbu)",
        "zipcode": "94140-290"
    },
    {
        "city": "Gravatai",
        "state": "RS",
        "district": "Loteamento Umbu",
        "street": "Travessa Cinco (Lot Umbu)",
        "zipcode": "94140-250"
    },
    {
        "city": "Gravatai",
        "state": "RS",
        "district": "Loteamento Umbu",
        "street": "Rua Treze (Lot Umbu)",
        "zipcode": "94140-190"
    },
    {
        "city": "Gravatai",
        "state": "RS",
        "district": "Loteamento Umbu",
        "street": "Rua Cinquenta (Lot Umbu)",
        "zipcode": "94140-590"
    },
    {
        "city": "Gravatai",
        "state": "RS",
        "district": "Loteamento Umbu",
        "street": "Rua Quarenta E Nove (Lot Umbu)",
        "zipcode": "94140-580"
    },
    {
        "city": "Gravatai",
        "state": "RS",
        "district": "Salgado Filho",
        "street": "Rua Imperial",
        "zipcode": "94020-250"
    },
    {
        "city": "Gravatai",
        "state": "RS",
        "district": "Loteamento Umbu",
        "street": "Rua Vinte E Dois (Lot Umbu)",
        "zipcode": "94140-380"
    }
]