[
    {
        "city": "Guaíba",
        "state": "RS",
        "district": "Centro",
        "street": "Rua Serafim Silva 136",
        "zipcode": "92500-970"
    },
    {
        "city": "Guaíba",
        "state": "RS",
        "district": "Centro",
        "street": "Avenida Vinte de Setembro 803",
        "zipcode": "92500-971"
    },
    {
        "city": "Guaíba",
        "state": "RS",
        "district": "Centro",
        "street": "Rua Santa Catarina 271",
        "zipcode": "92500-972"
    },
    {
        "city": "Guaíba",
        "state": "RS",
        "district": "",
        "street": "",
        "zipcode": "92500-000"
    },
    {
        "city": "Guaíba",
        "state": "RS",
        "district": null,
        "street": "Distrito do Matias  s/n",
        "zipcode": "92500-992"
    },
    {
        "city": "Guaíba",
        "state": "RS",
        "district": null,
        "street": "Acesso da Antena",
        "zipcode": "92500-991"
    },
    {
        "city": "Guaíba",
        "state": "RS",
        "district": "Bom Fim",
        "street": "Avenida A (Lot Vera Cruz)",
        "zipcode": "92718-710"
    },
    {
        "city": "Guaíba",
        "state": "RS",
        "district": "Bom Fim",
        "street": "Avenida B (Lot S Francisco)",
        "zipcode": "92718-885"
    },
    {
        "city": "Guaíba",
        "state": "RS",
        "district": "Florida",
        "street": "Acesso Três (R João N Fontoura)",
        "zipcode": "92728-100"
    },
    {
        "city": "Guaíba",
        "state": "RS",
        "district": "Passo Fundo",
        "street": "Avenida Bom Retiro",
        "zipcode": "92729-710"
    },
    {
        "city": "Guaíba",
        "state": "RS",
        "district": "Altos da Alegria",
        "street": "Avenida Borregard",
        "zipcode": "92725-720"
    },
    {
        "city": "Guaíba",
        "state": "RS",
        "district": "Santa Rita",
        "street": "Avenida Comendador Ismael Chaves Barcellos",
        "zipcode": "92707-300"
    },
    {
        "city": "Guaíba",
        "state": "RS",
        "district": "Passo Fundo",
        "street": "Estrada RS",
        "zipcode": "92730-000"
    },
    {
        "city": "Guaíba",
        "state": "RS",
        "district": "Alegria",
        "street": "Avenida Brasil",
        "zipcode": "92727-020"
    },
    {
        "city": "Guaíba",
        "state": "RS",
        "district": "Florida",
        "street": "Acesso Um (R João N Fontoura)",
        "zipcode": "92728-080"
    },
    {
        "city": "Guaíba",
        "state": "RS",
        "district": "Altos da Alegria",
        "street": "Avenida B (Área Desenv Econômico)",
        "zipcode": "92725-200"
    },
    {
        "city": "Guaíba",
        "state": "RS",
        "district": "Alvorada",
        "street": "Avenida Doutor Aldo Sani",
        "zipcode": "92703-460"
    },
    {
        "city": "Guaíba",
        "state": "RS",
        "district": "Alvorada",
        "street": "Avenida Duque de Caxias",
        "zipcode": "92703-670"
    },
    {
        "city": "Guaíba",
        "state": "RS",
        "district": "Alvorada",
        "street": "Avenida Gomes Jardim",
        "zipcode": "92703-050"
    },
    {
        "city": "Guaíba",
        "state": "RS",
        "district": "Parque 35",
        "street": "Avenida Comendador Ismael Chaves Barcellos",
        "zipcode": "92706-260"
    },
    {
        "city": "Guaíba",
        "state": "RS",
        "district": "Chaves Barcellos",
        "street": "Avenida Doutor Nei Brito",
        "zipcode": "92710-700"
    },
    {
        "city": "Guaíba",
        "state": "RS",
        "district": "Santa Rita",
        "street": "Avenida João Arnaldo Gonsalez",
        "zipcode": "92708-820"
    },
    {
        "city": "Guaíba",
        "state": "RS",
        "district": "Santa Rita",
        "street": "Avenida João Arnaldo Gonsalez",
        "zipcode": "92708-755"
    },
    {
        "city": "Guaíba",
        "state": "RS",
        "district": "Área Rural de Guaíba",
        "street": "Área Rural",
        "zipcode": "92739-899"
    },
    {
        "city": "Guaíba",
        "state": "RS",
        "district": "Alvorada",
        "street": "Avenida Beira Rio",
        "zipcode": "92703-620"
    },
    {
        "city": "Guaíba",
        "state": "RS",
        "district": "Florida",
        "street": "Avenida General Flores da Cunha",
        "zipcode": "92728-000"
    },
    {
        "city": "Guaíba",
        "state": "RS",
        "district": "Florida",
        "street": "Avenida Independência",
        "zipcode": "92728-300"
    },
    {
        "city": "Guaíba",
        "state": "RS",
        "district": "Bom Fim",
        "street": "Avenida Encruzilhada do Sul",
        "zipcode": "92718-805"
    },
    {
        "city": "Guaíba",
        "state": "RS",
        "district": "Florida",
        "street": "Avenida Doutor Fernando Mendes Ribeiro",
        "zipcode": "92728-330"
    },
    {
        "city": "Guaíba",
        "state": "RS",
        "district": "Parque 35",
        "street": "Avenida João de Araújo Lessa",
        "zipcode": "92705-500"
    },
    {
        "city": "Guaíba",
        "state": "RS",
        "district": "Florida",
        "street": "Acesso Dois (R João N Fontoura)",
        "zipcode": "92728-090"
    },
    {
        "city": "Guaíba",
        "state": "RS",
        "district": "Coronel Nassuca",
        "street": "Avenida Dona Frutuosa",
        "zipcode": "92701-420"
    },
    {
        "city": "Guaíba",
        "state": "RS",
        "district": "Jardim dos Lagos",
        "street": "Acesso Condominial Milão",
        "zipcode": "92714-485"
    },
    {
        "city": "Guaíba",
        "state": "RS",
        "district": "Florida",
        "street": "Avenida dos Presidentes",
        "zipcode": "92728-310"
    },
    {
        "city": "Guaíba",
        "state": "RS",
        "district": "Florida",
        "street": "Avenida Borges de Medeiros",
        "zipcode": "92728-110"
    },
    {
        "city": "Guaíba",
        "state": "RS",
        "district": "Centro",
        "street": "Avenida Getúlio Vargas",
        "zipcode": "92704-535"
    },
    {
        "city": "Guaíba",
        "state": "RS",
        "district": "Alegria",
        "street": "Avenida Gomes Jardim",
        "zipcode": "92727-010"
    },
    {
        "city": "Guaíba",
        "state": "RS",
        "district": "Florida",
        "street": "Avenida Florida",
        "zipcode": "92728-170"
    },
    {
        "city": "Guaíba",
        "state": "RS",
        "district": "Santa Rita",
        "street": "Avenida Doutor Nei Brito",
        "zipcode": "92708-720"
    },
    {
        "city": "Guaíba",
        "state": "RS",
        "district": "Alegria",
        "street": "Avenida Alegria",
        "zipcode": "92727-090"
    },
    {
        "city": "Guaíba",
        "state": "RS",
        "district": "Santa Rita",
        "street": "Avenida Osvaldo Jardim",
        "zipcode": "92709-665"
    },
    {
        "city": "Guaíba",
        "state": "RS",
        "district": "Colina",
        "street": "Avenida Marechal Castelo Branco",
        "zipcode": "92700-525"
    },
    {
        "city": "Guaíba",
        "state": "RS",
        "district": "Parque 35",
        "street": "Avenida Nestor de Moura Jardim",
        "zipcode": "92705-200"
    },
    {
        "city": "Guaíba",
        "state": "RS",
        "district": "Jardim Iolanda",
        "street": "Avenida Luiz Andriotti",
        "zipcode": "92726-080"
    },
    {
        "city": "Guaíba",
        "state": "RS",
        "district": "Colina",
        "street": "Avenida Marechal Castelo Branco",
        "zipcode": "92700-360"
    },
    {
        "city": "Guaíba",
        "state": "RS",
        "district": "Centro",
        "street": "Avenida João Pessoa",
        "zipcode": "92704-540"
    },
    {
        "city": "Guaíba",
        "state": "RS",
        "district": "Centro",
        "street": "Avenida João de Araújo Lessa",
        "zipcode": "92704-310"
    },
    {
        "city": "Guaíba",
        "state": "RS",
        "district": "Alvorada",
        "street": "Avenida Marechal Castelo Branco",
        "zipcode": "92703-280"
    },
    {
        "city": "Guaíba",
        "state": "RS",
        "district": "Coronel Nassuca",
        "street": "Avenida Dona Frutuosa",
        "zipcode": "92701-700"
    },
    {
        "city": "Guaíba",
        "state": "RS",
        "district": "Bom Fim",
        "street": "Avenida Eletrical",
        "zipcode": "92718-080"
    },
    {
        "city": "Guaíba",
        "state": "RS",
        "district": "Colina",
        "street": "Avenida Lourival Luiz da Cunha",
        "zipcode": "92700-255"
    },
    {
        "city": "Guaíba",
        "state": "RS",
        "district": "Bom Fim",
        "street": "Avenida Eletrical",
        "zipcode": "92718-085"
    },
    {
        "city": "Guaíba",
        "state": "RS",
        "district": "Santa Rita",
        "street": "Avenida Lupicínio Rodrigues",
        "zipcode": "92708-765"
    },
    {
        "city": "Guaíba",
        "state": "RS",
        "district": "Florida",
        "street": "Avenida Farroupilha",
        "zipcode": "92728-320"
    },
    {
        "city": "Guaíba",
        "state": "RS",
        "district": "Parque 35",
        "street": "Avenida Nestor de Moura Jardim",
        "zipcode": "92705-100"
    },
    {
        "city": "Guaíba",
        "state": "RS",
        "district": "Santa Rita",
        "street": "Avenida Doutor Nei Brito",
        "zipcode": "92708-005"
    },
    {
        "city": "Guaíba",
        "state": "RS",
        "district": "Colina",
        "street": "Avenida Lourival Luiz da Cunha",
        "zipcode": "92700-350"
    },
    {
        "city": "Guaíba",
        "state": "RS",
        "district": "Santa Rita",
        "street": "Avenida Doutor Nei Brito",
        "zipcode": "92708-025"
    },
    {
        "city": "Guaíba",
        "state": "RS",
        "district": "Bom Fim",
        "street": "Avenida João Salazar",
        "zipcode": "92718-235"
    },
    {
        "city": "Guaíba",
        "state": "RS",
        "district": "Chaves Barcellos",
        "street": "Avenida Doutor Nei Brito",
        "zipcode": "92710-600"
    },
    {
        "city": "Guaíba",
        "state": "RS",
        "district": "Centro",
        "street": "Avenida Getúlio Vargas",
        "zipcode": "92704-000"
    },
    {
        "city": "Guaíba",
        "state": "RS",
        "district": "Santa Rita",
        "street": "Avenida Osvaldo Jardim",
        "zipcode": "92709-625"
    },
    {
        "city": "Guaíba",
        "state": "RS",
        "district": "Coronel Nassuca",
        "street": "Avenida Maurício Sirotsky Sobrinho",
        "zipcode": "92701-200"
    },
    {
        "city": "Guaíba",
        "state": "RS",
        "district": "Colina",
        "street": "Avenida Maurício Sirotsky Sobrinho",
        "zipcode": "92700-210"
    },
    {
        "city": "Guaíba",
        "state": "RS",
        "district": "Alegria",
        "street": "Avenida Oswaldo Aranha",
        "zipcode": "92727-370"
    },
    {
        "city": "Guaíba",
        "state": "RS",
        "district": "Santa Rita",
        "street": "Avenida Osvaldo Jardim",
        "zipcode": "92709-645"
    },
    {
        "city": "Guaíba",
        "state": "RS",
        "district": "Alegria",
        "street": "Avenida Liberdade",
        "zipcode": "92727-100"
    },
    {
        "city": "Guaíba",
        "state": "RS",
        "district": "Colina",
        "street": "Avenida Lourival Luiz da Cunha",
        "zipcode": "92700-235"
    },
    {
        "city": "Guaíba",
        "state": "RS",
        "district": "Colina",
        "street": "Avenida Professor João José Wust",
        "zipcode": "92700-565"
    },
    {
        "city": "Guaíba",
        "state": "RS",
        "district": "Bom Fim",
        "street": "Avenida João Salazar",
        "zipcode": "92718-230"
    },
    {
        "city": "Guaíba",
        "state": "RS",
        "district": "Santa Rita",
        "street": "Avenida Lupicínio Rodrigues",
        "zipcode": "92708-770"
    },
    {
        "city": "Guaíba",
        "state": "RS",
        "district": "Parque 35",
        "street": "Avenida Norberto Linck",
        "zipcode": "92706-010"
    },
    {
        "city": "Guaíba",
        "state": "RS",
        "district": "Colina",
        "street": "Avenida Vasco Alves Pereira",
        "zipcode": "92700-065"
    },
    {
        "city": "Guaíba",
        "state": "RS",
        "district": "Colina",
        "street": "Avenida Marechal Castelo Branco",
        "zipcode": "92700-425"
    },
    {
        "city": "Guaíba",
        "state": "RS",
        "district": "Colina",
        "street": "Avenida Professor João José Wust",
        "zipcode": "92700-570"
    },
    {
        "city": "Guaíba",
        "state": "RS",
        "district": "Colina",
        "street": "Avenida Marechal Castelo Branco",
        "zipcode": "92700-790"
    },
    {
        "city": "Guaíba",
        "state": "RS",
        "district": "Centro",
        "street": "Avenida Perimetral",
        "zipcode": "92704-710"
    },
    {
        "city": "Guaíba",
        "state": "RS",
        "district": "Alegria",
        "street": "Avenida República",
        "zipcode": "92727-040"
    },
    {
        "city": "Guaíba",
        "state": "RS",
        "district": "Colina",
        "street": "Avenida Maurício Sirotsky Sobrinho",
        "zipcode": "92700-270"
    },
    {
        "city": "Guaíba",
        "state": "RS",
        "district": "Centro",
        "street": "Avenida Nestor de Moura Jardim",
        "zipcode": "92704-300"
    },
    {
        "city": "Guaíba",
        "state": "RS",
        "district": "Parque 35",
        "street": "Avenida Sílvio de Freitas Remédio",
        "zipcode": "92705-700"
    },
    {
        "city": "Guaíba",
        "state": "RS",
        "district": "Passo Fundo",
        "street": "Avenida Matazo Kawano",
        "zipcode": "92729-210"
    },
    {
        "city": "Guaíba",
        "state": "RS",
        "district": "Colina",
        "street": "Avenida Nestor de Moura Jardim",
        "zipcode": "92700-010"
    },
    {
        "city": "Guaíba",
        "state": "RS",
        "district": "Parque 35",
        "street": "Avenida Norberto Linck",
        "zipcode": "92705-750"
    },
    {
        "city": "Guaíba",
        "state": "RS",
        "district": "Colina",
        "street": "Avenida Professor João José Wust",
        "zipcode": "92700-750"
    },
    {
        "city": "Guaíba",
        "state": "RS",
        "district": "Bom Fim",
        "street": "Avenida João Salazar",
        "zipcode": "92718-100"
    },
    {
        "city": "Guaíba",
        "state": "RS",
        "district": "Florida",
        "street": "Avenida Maurício Lessa",
        "zipcode": "92728-190"
    },
    {
        "city": "Guaíba",
        "state": "RS",
        "district": "Colina",
        "street": "Avenida Nestor de Moura Jardim",
        "zipcode": "92700-140"
    },
    {
        "city": "Guaíba",
        "state": "RS",
        "district": "Centro",
        "street": "Avenida Sete de Setembro",
        "zipcode": "92704-030"
    },
    {
        "city": "Guaíba",
        "state": "RS",
        "district": "Santa Rita",
        "street": "Bloco 105 (Cj Hab R C Gonçalves)",
        "zipcode": "92709-350"
    },
    {
        "city": "Guaíba",
        "state": "RS",
        "district": "Santa Rita",
        "street": "Bloco 149 (Cj Hab R C Gonçalves)",
        "zipcode": "92709-245"
    },
    {
        "city": "Guaíba",
        "state": "RS",
        "district": "Santa Rita",
        "street": "Bloco 197 (Cj Hab R C Gonçalves)",
        "zipcode": "92709-065"
    },
    {
        "city": "Guaíba",
        "state": "RS",
        "district": "Ermo",
        "street": "Avenida Vereador Breno Guimarães",
        "zipcode": "92702-420"
    },
    {
        "city": "Guaíba",
        "state": "RS",
        "district": "Colina",
        "street": "Avenida Walter Hoff",
        "zipcode": "92700-760"
    },
    {
        "city": "Guaíba",
        "state": "RS",
        "district": "Santa Rita",
        "street": "Bloco 17 (Cj Hab R C Gonçalves)",
        "zipcode": "92709-105"
    },
    {
        "city": "Guaíba",
        "state": "RS",
        "district": "Santa Rita",
        "street": "Bloco 141 (Cj Hab R C Gonçalves)",
        "zipcode": "92709-260"
    },
    {
        "city": "Guaíba",
        "state": "RS",
        "district": "Santa Rita",
        "street": "Bloco 159 (Cj Hab R C Gonçalves)",
        "zipcode": "92709-115"
    },
    {
        "city": "Guaíba",
        "state": "RS",
        "district": "Bom Fim",
        "street": "Avenida Zeferino da Boa Vista",
        "zipcode": "92718-025"
    },
    {
        "city": "Guaíba",
        "state": "RS",
        "district": "Centro",
        "street": "Avenida Perimetral",
        "zipcode": "92704-715"
    },
    {
        "city": "Guaíba",
        "state": "RS",
        "district": "Colina",
        "street": "Avenida Professor João José Wust",
        "zipcode": "92700-640"
    },
    {
        "city": "Guaíba",
        "state": "RS",
        "district": "Colina",
        "street": "Avenida Vasco Alves Pereira",
        "zipcode": "92700-190"
    },
    {
        "city": "Guaíba",
        "state": "RS",
        "district": "Santa Rita",
        "street": "Bloco 169 (Cj Hab R C Gonçalves)",
        "zipcode": "92709-150"
    },
    {
        "city": "Guaíba",
        "state": "RS",
        "district": "Santa Rita",
        "street": "Bloco 117 (Cj Hab R C Gonçalves)",
        "zipcode": "92709-375"
    },
    {
        "city": "Guaíba",
        "state": "RS",
        "district": "Bom Fim",
        "street": "Avenida Seu Lereno",
        "zipcode": "92718-110"
    },
    {
        "city": "Guaíba",
        "state": "RS",
        "district": "Santa Rita",
        "street": "Bloco 15 (Cj Hab R C Gonçalves)",
        "zipcode": "92709-110"
    },
    {
        "city": "Guaíba",
        "state": "RS",
        "district": "Santa Rita",
        "street": "Avenida Vereador Valdir Rodrigues Soares",
        "zipcode": "92708-745"
    },
    {
        "city": "Guaíba",
        "state": "RS",
        "district": "Coronel Nassuca",
        "street": "Avenida Vasco Alves Pereira",
        "zipcode": "92701-220"
    },
    {
        "city": "Guaíba",
        "state": "RS",
        "district": "Centro",
        "street": "Avenida Sete de Setembro",
        "zipcode": "92704-520"
    },
    {
        "city": "Guaíba",
        "state": "RS",
        "district": "Centro",
        "street": "Avenida Sete de Setembro",
        "zipcode": "92704-035"
    },
    {
        "city": "Guaíba",
        "state": "RS",
        "district": "Santa Rita",
        "street": "Beco Mato Alto",
        "zipcode": "92707-590"
    },
    {
        "city": "Guaíba",
        "state": "RS",
        "district": "Santa Rita",
        "street": "Bloco 133 (Cj Hab R C Gonçalves)",
        "zipcode": "92709-265"
    },
    {
        "city": "Guaíba",
        "state": "RS",
        "district": "Santa Rita",
        "street": "Bloco 135 (Cj Hab R C Gonçalves)",
        "zipcode": "92709-280"
    },
    {
        "city": "Guaíba",
        "state": "RS",
        "district": "Santa Rita",
        "street": "Bloco 177 (Cj Hab R C Gonçalves)",
        "zipcode": "92709-160"
    },
    {
        "city": "Guaíba",
        "state": "RS",
        "district": "Colina",
        "street": "Avenida Vasco Alves Pereira",
        "zipcode": "92700-185"
    },
    {
        "city": "Guaíba",
        "state": "RS",
        "district": "Santa Rita",
        "street": "Bloco 171 (Cj Hab R C Gonçalves)",
        "zipcode": "92709-145"
    },
    {
        "city": "Guaíba",
        "state": "RS",
        "district": "Santa Rita",
        "street": "Bloco 022 (Cj Hab R C Gonçalves)",
        "zipcode": "92708-695"
    },
    {
        "city": "Guaíba",
        "state": "RS",
        "district": "Santa Rita",
        "street": "Bloco 189 (Cj Hab R C Gonçalves)",
        "zipcode": "92709-165"
    },
    {
        "city": "Guaíba",
        "state": "RS",
        "district": "Santa Rita",
        "street": "Bloco 121 (Cj Hab R C Gonçalves)",
        "zipcode": "92709-385"
    },
    {
        "city": "Guaíba",
        "state": "RS",
        "district": "Santa Rita",
        "street": "Bloco 193 (Cj Hab R C Gonçalves)",
        "zipcode": "92709-075"
    },
    {
        "city": "Guaíba",
        "state": "RS",
        "district": "Santa Rita",
        "street": "Bloco 107 (Cj Hab R C Gonçalves)",
        "zipcode": "92709-345"
    },
    {
        "city": "Guaíba",
        "state": "RS",
        "district": "Santa Rita",
        "street": "Bloco 109 (Cj Hab R C Gonçalves)",
        "zipcode": "92709-340"
    },
    {
        "city": "Guaíba",
        "state": "RS",
        "district": "Santa Rita",
        "street": "Bloco 09 (Cj Hab R C Gonçalves)",
        "zipcode": "92709-305"
    },
    {
        "city": "Guaíba",
        "state": "RS",
        "district": "Santa Rita",
        "street": "Bloco 161 (Cj Hab R C Gonçalves)",
        "zipcode": "92709-130"
    },
    {
        "city": "Guaíba",
        "state": "RS",
        "district": "Santa Rita",
        "street": "Bloco 145 (Cj Hab R C Gonçalves)",
        "zipcode": "92709-235"
    },
    {
        "city": "Guaíba",
        "state": "RS",
        "district": "Santa Rita",
        "street": "Bloco 07 (Cj Hab R C Gonçalves)",
        "zipcode": "92709-310"
    },
    {
        "city": "Guaíba",
        "state": "RS",
        "district": "Santa Rita",
        "street": "Bloco 113 (Cj Hab R C Gonçalves)",
        "zipcode": "92709-360"
    },
    {
        "city": "Guaíba",
        "state": "RS",
        "district": "Santa Rita",
        "street": "Bloco 139 (Cj Hab R C Gonçalves)",
        "zipcode": "92709-255"
    },
    {
        "city": "Guaíba",
        "state": "RS",
        "district": "Santa Rita",
        "street": "Bloco 123 (Cj Hab R C Gonçalves)",
        "zipcode": "92709-380"
    },
    {
        "city": "Guaíba",
        "state": "RS",
        "district": "Santa Rita",
        "street": "Bloco 103 (Cj Hab R C Gonçalves)",
        "zipcode": "92709-335"
    },
    {
        "city": "Guaíba",
        "state": "RS",
        "district": "Santa Rita",
        "street": "Bloco 175 (Cj Hab R C Gonçalves)",
        "zipcode": "92709-155"
    },
    {
        "city": "Guaíba",
        "state": "RS",
        "district": "Bom Fim",
        "street": "Avenida Zeferino da Boa Vista",
        "zipcode": "92718-055"
    },
    {
        "city": "Guaíba",
        "state": "RS",
        "district": "Bom Fim",
        "street": "Beco Salazar (Lot Nova Guaíba)",
        "zipcode": "92718-225"
    },
    {
        "city": "Guaíba",
        "state": "RS",
        "district": "Santa Rita",
        "street": "Bloco 181 (Cj Hab R C Gonçalves)",
        "zipcode": "92709-175"
    },
    {
        "city": "Guaíba",
        "state": "RS",
        "district": "Santa Rita",
        "street": "Bloco 127 (Cj Hab R C Gonçalves)",
        "zipcode": "92709-290"
    },
    {
        "city": "Guaíba",
        "state": "RS",
        "district": "Bom Fim",
        "street": "Avenida Zeferino da Boa Vista",
        "zipcode": "92718-060"
    },
    {
        "city": "Guaíba",
        "state": "RS",
        "district": "Santa Rita",
        "street": "Bloco 157 (Cj Hab R C Gonçalves)",
        "zipcode": "92709-225"
    },
    {
        "city": "Guaíba",
        "state": "RS",
        "district": "Santa Rita",
        "street": "Bloco 125 (Cj Hab R C Gonçalves)",
        "zipcode": "92709-365"
    },
    {
        "city": "Guaíba",
        "state": "RS",
        "district": "Santa Rita",
        "street": "Bloco 19 (Cj Hab R C Gonçalves)",
        "zipcode": "92709-100"
    },
    {
        "city": "Guaíba",
        "state": "RS",
        "district": "Santa Rita",
        "street": "Bloco 185 (Cj Hab R C Gonçalves)",
        "zipcode": "92709-185"
    },
    {
        "city": "Guaíba",
        "state": "RS",
        "district": "Santa Rita",
        "street": "Bloco 167 (Cj Hab R C Gonçalves)",
        "zipcode": "92709-135"
    },
    {
        "city": "Guaíba",
        "state": "RS",
        "district": "Santa Rita",
        "street": "Bloco 153 (Cj Hab R C Gonçalves)",
        "zipcode": "92709-215"
    },
    {
        "city": "Guaíba",
        "state": "RS",
        "district": "Santa Rita",
        "street": "Bloco 163 (Cj Hab R C Gonçalves)",
        "zipcode": "92709-125"
    },
    {
        "city": "Guaíba",
        "state": "RS",
        "district": "Santa Rita",
        "street": "Avenida Vereador Valdir Rodrigues Soares",
        "zipcode": "92708-805"
    },
    {
        "city": "Guaíba",
        "state": "RS",
        "district": "Santa Rita",
        "street": "Bloco 115 (Cj Hab R C Gonçalves)",
        "zipcode": "92709-370"
    },
    {
        "city": "Guaíba",
        "state": "RS",
        "district": "Santa Rita",
        "street": "Bloco 111 (Cj Hab R C Gonçalves)",
        "zipcode": "92709-355"
    },
    {
        "city": "Guaíba",
        "state": "RS",
        "district": "Santa Rita",
        "street": "Bloco 13 (Cj Hab R C Gonçalves)",
        "zipcode": "92709-295"
    },
    {
        "city": "Guaíba",
        "state": "RS",
        "district": "Santa Rita",
        "street": "Bloco 151 (Cj Hab R C Gonçalves)",
        "zipcode": "92709-230"
    },
    {
        "city": "Guaíba",
        "state": "RS",
        "district": "Santa Rita",
        "street": "Bloco 143 (Cj Hab R C Gonçalves)",
        "zipcode": "92709-250"
    },
    {
        "city": "Guaíba",
        "state": "RS",
        "district": "Santa Rita",
        "street": "Bloco 179 (Cj Hab R C Gonçalves)",
        "zipcode": "92709-170"
    },
    {
        "city": "Guaíba",
        "state": "RS",
        "district": "Ermo",
        "street": "Beco da Servidão",
        "zipcode": "92702-080"
    },
    {
        "city": "Guaíba",
        "state": "RS",
        "district": "Santa Rita",
        "street": "Bloco 187 (Cj Hab R C Gonçalves)",
        "zipcode": "92709-180"
    },
    {
        "city": "Guaíba",
        "state": "RS",
        "district": "Santa Rita",
        "street": "Bloco 215 (Cj Hab R C Gonçalves)",
        "zipcode": "92709-030"
    },
    {
        "city": "Guaíba",
        "state": "RS",
        "district": "Santa Rita",
        "street": "Bloco 269 (Cj Hab R C Gonçalves)",
        "zipcode": "92708-655"
    },
    {
        "city": "Guaíba",
        "state": "RS",
        "district": "Santa Rita",
        "street": "Bloco 281 (Cj Hab R C Gonçalves)",
        "zipcode": "92708-620"
    },
    {
        "city": "Guaíba",
        "state": "RS",
        "district": "Santa Rita",
        "street": "Bloco 259 (Cj Hab R C Gonçalves)",
        "zipcode": "92708-645"
    },
    {
        "city": "Guaíba",
        "state": "RS",
        "district": "Santa Rita",
        "street": "Bloco 251 (Cj Hab R C Gonçalves)",
        "zipcode": "92708-690"
    },
    {
        "city": "Guaíba",
        "state": "RS",
        "district": "Santa Rita",
        "street": "Bloco 331 (Cj Hab R C Gonçalves)",
        "zipcode": "92708-470"
    },
    {
        "city": "Guaíba",
        "state": "RS",
        "district": "Santa Rita",
        "street": "Bloco 229 (Cj Hab R C Gonçalves)",
        "zipcode": "92709-400"
    },
    {
        "city": "Guaíba",
        "state": "RS",
        "district": "Santa Rita",
        "street": "Bloco 207 (Cj Hab R C Gonçalves)",
        "zipcode": "92709-050"
    },
    {
        "city": "Guaíba",
        "state": "RS",
        "district": "Santa Rita",
        "street": "Bloco 287 (Cj Hab R C Gonçalves)",
        "zipcode": "92708-610"
    },
    {
        "city": "Guaíba",
        "state": "RS",
        "district": "Santa Rita",
        "street": "Bloco 205 (Cj Hab R C Gonçalves)",
        "zipcode": "92709-060"
    },
    {
        "city": "Guaíba",
        "state": "RS",
        "district": "Santa Rita",
        "street": "Bloco 239 (Cj Hab R C Gonçalves)",
        "zipcode": "92709-195"
    },
    {
        "city": "Guaíba",
        "state": "RS",
        "district": "Santa Rita",
        "street": "Bloco 255 (Cj Hab R C Gonçalves)",
        "zipcode": "92708-675"
    },
    {
        "city": "Guaíba",
        "state": "RS",
        "district": "Santa Rita",
        "street": "Bloco 301 (Cj Hab R C Gonçalves)",
        "zipcode": "92708-565"
    },
    {
        "city": "Guaíba",
        "state": "RS",
        "district": "Santa Rita",
        "street": "Bloco 305 (Cj Hab R C Gonçalves)",
        "zipcode": "92708-550"
    },
    {
        "city": "Guaíba",
        "state": "RS",
        "district": "Santa Rita",
        "street": "Bloco 275 (Cj Hab R C Gonçalves)",
        "zipcode": "92708-640"
    },
    {
        "city": "Guaíba",
        "state": "RS",
        "district": "Santa Rita",
        "street": "Bloco 265 (Cj Hab R C Gonçalves)",
        "zipcode": "92708-670"
    },
    {
        "city": "Guaíba",
        "state": "RS",
        "district": "Santa Rita",
        "street": "Bloco 317 (Cj Hab R C Gonçalves)",
        "zipcode": "92708-520"
    },
    {
        "city": "Guaíba",
        "state": "RS",
        "district": "Santa Rita",
        "street": "Bloco 201 (Cj Hab R C Gonçalves)",
        "zipcode": "92709-085"
    },
    {
        "city": "Guaíba",
        "state": "RS",
        "district": "Santa Rita",
        "street": "Bloco 261 (Cj Hab R C Gonçalves)",
        "zipcode": "92708-600"
    },
    {
        "city": "Guaíba",
        "state": "RS",
        "district": "Santa Rita",
        "street": "Bloco 285 (Cj Hab R C Gonçalves)",
        "zipcode": "92708-605"
    },
    {
        "city": "Guaíba",
        "state": "RS",
        "district": "Santa Rita",
        "street": "Bloco 267 (Cj Hab R C Gonçalves)",
        "zipcode": "92708-665"
    },
    {
        "city": "Guaíba",
        "state": "RS",
        "district": "Santa Rita",
        "street": "Bloco 279 (Cj Hab R C Gonçalves)",
        "zipcode": "92708-625"
    },
    {
        "city": "Guaíba",
        "state": "RS",
        "district": "Santa Rita",
        "street": "Bloco 297 (Cj Hab R C Gonçalves)",
        "zipcode": "92708-575"
    },
    {
        "city": "Guaíba",
        "state": "RS",
        "district": "Santa Rita",
        "street": "Bloco 271 (Cj Hab R C Gonçalves)",
        "zipcode": "92708-660"
    },
    {
        "city": "Guaíba",
        "state": "RS",
        "district": "Santa Rita",
        "street": "Bloco 227 (Cj Hab R C Gonçalves)",
        "zipcode": "92709-405"
    },
    {
        "city": "Guaíba",
        "state": "RS",
        "district": "Santa Rita",
        "street": "Bloco 289 (Cj Hab R C Gonçalves)",
        "zipcode": "92708-590"
    },
    {
        "city": "Guaíba",
        "state": "RS",
        "district": "Santa Rita",
        "street": "Bloco 213 (Cj Hab R C Gonçalves)",
        "zipcode": "92709-045"
    },
    {
        "city": "Guaíba",
        "state": "RS",
        "district": "Santa Rita",
        "street": "Bloco 245 (Cj Hab R C Gonçalves)",
        "zipcode": "92708-715"
    },
    {
        "city": "Guaíba",
        "state": "RS",
        "district": "Santa Rita",
        "street": "Bloco 313 (Cj Hab R C Gonçalves)",
        "zipcode": "92708-525"
    },
    {
        "city": "Guaíba",
        "state": "RS",
        "district": "Santa Rita",
        "street": "Bloco 219 (Cj Hab R C Gonçalves)",
        "zipcode": "92709-020"
    },
    {
        "city": "Guaíba",
        "state": "RS",
        "district": "Santa Rita",
        "street": "Bloco 291 (Cj Hab R C Gonçalves)",
        "zipcode": "92708-595"
    },
    {
        "city": "Guaíba",
        "state": "RS",
        "district": "Santa Rita",
        "street": "Bloco 235 (Cj Hab R C Gonçalves)",
        "zipcode": "92709-205"
    },
    {
        "city": "Guaíba",
        "state": "RS",
        "district": "Santa Rita",
        "street": "Bloco 309 (Cj Hab R C Gonçalves)",
        "zipcode": "92708-535"
    },
    {
        "city": "Guaíba",
        "state": "RS",
        "district": "Santa Rita",
        "street": "Bloco 231 (Cj Hab R C Gonçalves)",
        "zipcode": "92709-395"
    },
    {
        "city": "Guaíba",
        "state": "RS",
        "district": "Santa Rita",
        "street": "Bloco 31 (Cj Hab R C Gonçalves)",
        "zipcode": "92709-615"
    },
    {
        "city": "Guaíba",
        "state": "RS",
        "district": "Santa Rita",
        "street": "Bloco 249 (Cj Hab R C Gonçalves)",
        "zipcode": "92708-700"
    },
    {
        "city": "Guaíba",
        "state": "RS",
        "district": "Santa Rita",
        "street": "Bloco 21 (Cj Hab R C Gonçalves)",
        "zipcode": "92709-095"
    },
    {
        "city": "Guaíba",
        "state": "RS",
        "district": "Santa Rita",
        "street": "Bloco 225 (Cj Hab R C Gonçalves)",
        "zipcode": "92709-410"
    },
    {
        "city": "Guaíba",
        "state": "RS",
        "district": "Santa Rita",
        "street": "Bloco 247 (Cj Hab R C Gonçalves)",
        "zipcode": "92708-395"
    },
    {
        "city": "Guaíba",
        "state": "RS",
        "district": "Santa Rita",
        "street": "Bloco 277 (Cj Hab R C Gonçalves)",
        "zipcode": "92708-630"
    },
    {
        "city": "Guaíba",
        "state": "RS",
        "district": "Santa Rita",
        "street": "Bloco 307 (Cj Hab R C Gonçalves)",
        "zipcode": "92708-545"
    },
    {
        "city": "Guaíba",
        "state": "RS",
        "district": "Santa Rita",
        "street": "Bloco 257 (Cj Hab R C Gonçalves)",
        "zipcode": "92708-650"
    },
    {
        "city": "Guaíba",
        "state": "RS",
        "district": "Santa Rita",
        "street": "Bloco 217 (Cj Hab R C Gonçalves)",
        "zipcode": "92709-015"
    },
    {
        "city": "Guaíba",
        "state": "RS",
        "district": "Santa Rita",
        "street": "Bloco 209 (Cj Hab R C Gonçalves)",
        "zipcode": "92709-035"
    },
    {
        "city": "Guaíba",
        "state": "RS",
        "district": "Santa Rita",
        "street": "Bloco 327 (Cj Hab R C Gonçalves)",
        "zipcode": "92708-485"
    },
    {
        "city": "Guaíba",
        "state": "RS",
        "district": "Santa Rita",
        "street": "Bloco 237 (Cj Hab R C Gonçalves)",
        "zipcode": "92709-200"
    },
    {
        "city": "Guaíba",
        "state": "RS",
        "district": "Santa Rita",
        "street": "Bloco 333 (Cj Hab R C Gonçalves)",
        "zipcode": "92708-460"
    },
    {
        "city": "Guaíba",
        "state": "RS",
        "district": "Santa Rita",
        "street": "Bloco 295 (Cj Hab R C Gonçalves)",
        "zipcode": "92708-580"
    },
    {
        "city": "Guaíba",
        "state": "RS",
        "district": "Santa Rita",
        "street": "Bloco 241 (Cj Hab R C Gonçalves)",
        "zipcode": "92709-010"
    },
    {
        "city": "Guaíba",
        "state": "RS",
        "district": "Santa Rita",
        "street": "Bloco 319 (Cj Hab R C Gonçalves)",
        "zipcode": "92708-515"
    },
    {
        "city": "Guaíba",
        "state": "RS",
        "district": "Santa Rita",
        "street": "Bloco 325 (Cj Hab R C Gonçalves)",
        "zipcode": "92708-490"
    },
    {
        "city": "Guaíba",
        "state": "RS",
        "district": "Santa Rita",
        "street": "Bloco 315 (Cj Hab R C Gonçalves)",
        "zipcode": "92708-530"
    },
    {
        "city": "Guaíba",
        "state": "RS",
        "district": "Pedras Brancas",
        "street": "Estrada A",
        "zipcode": "92722-370"
    },
    {
        "city": "Guaíba",
        "state": "RS",
        "district": "Santa Rita",
        "street": "Bloco 381 (Cj Hab R C Gonçalves)",
        "zipcode": "92708-505"
    },
    {
        "city": "Guaíba",
        "state": "RS",
        "district": "Santa Rita",
        "street": "Bloco 391 (Cj Hab R C Gonçalves)",
        "zipcode": "92708-375"
    },
    {
        "city": "Guaíba",
        "state": "RS",
        "district": "Chaves Barcellos",
        "street": "Rodovia BR",
        "zipcode": "92710-000"
    },
    {
        "city": "Guaíba",
        "state": "RS",
        "district": "Santa Rita",
        "street": "Bloco 389 (Cj Hab R C Gonçalves)",
        "zipcode": "92708-380"
    },
    {
        "city": "Guaíba",
        "state": "RS",
        "district": "Santa Rita",
        "street": "Bloco 349 (Cj Hab R C Gonçalves)",
        "zipcode": "92708-420"
    },
    {
        "city": "Guaíba",
        "state": "RS",
        "district": "Santa Rita",
        "street": "Rodovia BR",
        "zipcode": "92709-850"
    },
    {
        "city": "Guaíba",
        "state": "RS",
        "district": "Jardim dos Lagos",
        "street": "Estrada Granja Santa Rita",
        "zipcode": "92714-050"
    },
    {
        "city": "Guaíba",
        "state": "RS",
        "district": "Santa Rita",
        "street": "Bloco 393 (Cj Hab R C Gonçalves)",
        "zipcode": "92708-370"
    },
    {
        "city": "Guaíba",
        "state": "RS",
        "district": "Centro",
        "street": "Rua Bertino Varella",
        "zipcode": "92704-665"
    },
    {
        "city": "Guaíba",
        "state": "RS",
        "district": "Santa Rita",
        "street": "Bloco 395 (Cj Hab R C Gonçalves)",
        "zipcode": "92708-710"
    },
    {
        "city": "Guaíba",
        "state": "RS",
        "district": "Santa Rita",
        "street": "Bloco 365 (Cj Hab R C Gonçalves)",
        "zipcode": "92708-355"
    },
    {
        "city": "Guaíba",
        "state": "RS",
        "district": "Santa Rita",
        "street": "Bloco 81 (Cj Hab R C Gonçalves)",
        "zipcode": "92709-445"
    },
    {
        "city": "Guaíba",
        "state": "RS",
        "district": "Chaves Barcellos",
        "street": "Estrada Granja Santa Rita",
        "zipcode": "92710-100"
    },
    {
        "city": "Guaíba",
        "state": "RS",
        "district": "Santa Rita",
        "street": "Bloco 67 (Cj Hab R C Gonçalves)",
        "zipcode": "92709-480"
    },
    {
        "city": "Guaíba",
        "state": "RS",
        "district": "Santa Rita",
        "street": "Bloco 341 (Cj Hab R C Gonçalves)",
        "zipcode": "92708-445"
    },
    {
        "city": "Guaíba",
        "state": "RS",
        "district": "Santa Rita",
        "street": "Bloco 77 (Cj Hab R C Gonçalves)",
        "zipcode": "92709-435"
    },
    {
        "city": "Guaíba",
        "state": "RS",
        "district": "Santa Rita",
        "street": "Bloco 351 (Cj Hab R C Gonçalves)",
        "zipcode": "92708-415"
    },
    {
        "city": "Guaíba",
        "state": "RS",
        "district": "Pedras Brancas",
        "street": "Estrada das Capororocas",
        "zipcode": "92722-150"
    },
    {
        "city": "Guaíba",
        "state": "RS",
        "district": "Santa Rita",
        "street": "Estrada Teodoro Sampaio Rodrigues",
        "zipcode": "92708-000"
    },
    {
        "city": "Guaíba",
        "state": "RS",
        "district": "Santa Rita",
        "street": "Bloco 63 (Cj Hab R C Gonçalves)",
        "zipcode": "92709-470"
    },
    {
        "city": "Guaíba",
        "state": "RS",
        "district": "Santa Rita",
        "street": "Bloco 61 (Cj Hab R C Gonçalves)",
        "zipcode": "92709-475"
    },
    {
        "city": "Guaíba",
        "state": "RS",
        "district": "Santa Rita",
        "street": "Bloco 339 (Cj Hab R C Gonçalves)",
        "zipcode": "92708-455"
    },
    {
        "city": "Guaíba",
        "state": "RS",
        "district": "Santa Rita",
        "street": "Bloco 95 (Cj Hab R C Gonçalves)",
        "zipcode": "92709-315"
    },
    {
        "city": "Guaíba",
        "state": "RS",
        "district": "Santa Rita",
        "street": "Bloco 345 (Cj Hab R C Gonçalves)",
        "zipcode": "92708-425"
    },
    {
        "city": "Guaíba",
        "state": "RS",
        "district": "Chaves Barcellos",
        "street": "Rodovia BR",
        "zipcode": "92710-300"
    },
    {
        "city": "Guaíba",
        "state": "RS",
        "district": "Santa Rita",
        "street": "Bloco 73 (Cj Hab R C Gonçalves)",
        "zipcode": "92709-460"
    },
    {
        "city": "Guaíba",
        "state": "RS",
        "district": "Santa Rita",
        "street": "Bloco 353 (Cj Hab R C Gonçalves)",
        "zipcode": "92708-405"
    },
    {
        "city": "Guaíba",
        "state": "RS",
        "district": "Santa Rita",
        "street": "Bloco 373 (Cj Hab R C Gonçalves)",
        "zipcode": "92708-330"
    },
    {
        "city": "Guaíba",
        "state": "RS",
        "district": "Santa Rita",
        "street": "Bloco 343 (Cj Hab R C Gonçalves)",
        "zipcode": "92708-440"
    },
    {
        "city": "Guaíba",
        "state": "RS",
        "district": "Santa Rita",
        "street": "Bloco 71 (Cj Hab R C Gonçalves)",
        "zipcode": "92709-455"
    },
    {
        "city": "Guaíba",
        "state": "RS",
        "district": "Pedras Brancas",
        "street": "Estrada José Carlos Ferreira",
        "zipcode": "92722-320"
    },
    {
        "city": "Guaíba",
        "state": "RS",
        "district": "Santa Rita",
        "street": "Bloco 369 (Cj Hab R C Gonçalves)",
        "zipcode": "92708-345"
    },
    {
        "city": "Guaíba",
        "state": "RS",
        "district": "Parque 35",
        "street": "Estrada Granja Santa Rita",
        "zipcode": "92706-700"
    },
    {
        "city": "Guaíba",
        "state": "RS",
        "district": "Centro",
        "street": "Praça Nossa Senhora do Livramento",
        "zipcode": "92704-210"
    },
    {
        "city": "Guaíba",
        "state": "RS",
        "district": "Santa Rita",
        "street": "Bloco 75 (Cj Hab R C Gonçalves)",
        "zipcode": "92709-450"
    },
    {
        "city": "Guaíba",
        "state": "RS",
        "district": "Passo Fundo",
        "street": "Estrada Municipal Elzo Jardim",
        "zipcode": "92730-300"
    },
    {
        "city": "Guaíba",
        "state": "RS",
        "district": "Santa Rita",
        "street": "Bloco 359 (Cj Hab R C Gonçalves)",
        "zipcode": "92708-385"
    },
    {
        "city": "Guaíba",
        "state": "RS",
        "district": "Santa Rita",
        "street": "Bloco 97 (Cj Hab R C Gonçalves)",
        "zipcode": "92709-330"
    },
    {
        "city": "Guaíba",
        "state": "RS",
        "district": "Santa Rita",
        "street": "Bloco 361 (Cj Hab R C Gonçalves)",
        "zipcode": "92708-360"
    },
    {
        "city": "Guaíba",
        "state": "RS",
        "district": "Santa Rita",
        "street": "Bloco 385 (Cj Hab R C Gonçalves)",
        "zipcode": "92708-435"
    },
    {
        "city": "Guaíba",
        "state": "RS",
        "district": "Santa Rita",
        "street": "Bloco 87 (Cj Hab R C Gonçalves)",
        "zipcode": "92709-430"
    },
    {
        "city": "Guaíba",
        "state": "RS",
        "district": "Santa Rita",
        "street": "Bloco 65 (Cj Hab R C Gonçalves)",
        "zipcode": "92709-465"
    },
    {
        "city": "Guaíba",
        "state": "RS",
        "district": "Santa Rita",
        "street": "Bloco 383 (Cj Hab R C Gonçalves)",
        "zipcode": "92708-480"
    },
    {
        "city": "Guaíba",
        "state": "RS",
        "district": "Santa Rita",
        "street": "Bloco 379 (Cj Hab R C Gonçalves)",
        "zipcode": "92708-510"
    },
    {
        "city": "Guaíba",
        "state": "RS",
        "district": "Santa Rita",
        "street": "Bloco 375 (Cj Hab R C Gonçalves)",
        "zipcode": "92708-335"
    },
    {
        "city": "Guaíba",
        "state": "RS",
        "district": "Santa Rita",
        "street": "Bloco 363 (Cj Hab R C Gonçalves)",
        "zipcode": "92708-365"
    },
    {
        "city": "Guaíba",
        "state": "RS",
        "district": "Santa Rita",
        "street": "Bloco 355 (Cj Hab R C Gonçalves)",
        "zipcode": "92708-400"
    },
    {
        "city": "Guaíba",
        "state": "RS",
        "district": "Santa Rita",
        "street": "Estrada Granja Santa Rita",
        "zipcode": "92707-000"
    },
    {
        "city": "Guaíba",
        "state": "RS",
        "district": "Passo Fundo",
        "street": "Estrada da Fábrica",
        "zipcode": "92729-600"
    },
    {
        "city": "Guaíba",
        "state": "RS",
        "district": "Santa Rita",
        "street": "Bloco 99 (Cj Hab R C Gonçalves)",
        "zipcode": "92709-325"
    },
    {
        "city": "Guaíba",
        "state": "RS",
        "district": "Pedras Brancas",
        "street": "Estrada B",
        "zipcode": "92722-560"
    },
    {
        "city": "Guaíba",
        "state": "RS",
        "district": "Bom Fim",
        "street": "Rua B (Lot Nova Guaíba)",
        "zipcode": "92718-220"
    },
    {
        "city": "Guaíba",
        "state": "RS",
        "district": "Bom Fim",
        "street": "Rua B (Lot Vera Cruz)",
        "zipcode": "92718-610"
    },
    {
        "city": "Guaíba",
        "state": "RS",
        "district": "Colina",
        "street": "Rua Antão Magalhães",
        "zipcode": "92700-095"
    },
    {
        "city": "Guaíba",
        "state": "RS",
        "district": "Centro",
        "street": "Rua Bento Gonçalves",
        "zipcode": "92704-565"
    },
    {
        "city": "Guaíba",
        "state": "RS",
        "district": "Jardim dos Lagos",
        "street": "Rua Anita Garibaldi",
        "zipcode": "92714-620"
    },
    {
        "city": "Guaíba",
        "state": "RS",
        "district": "Jardim Iolanda",
        "street": "Rua Alzimiro Paz",
        "zipcode": "92726-530"
    },
    {
        "city": "Guaíba",
        "state": "RS",
        "district": "Coronel Nassuca",
        "street": "Rua Amapá",
        "zipcode": "92701-750"
    },
    {
        "city": "Guaíba",
        "state": "RS",
        "district": "Colina",
        "street": "Rodovia BR",
        "zipcode": "92700-505"
    },
    {
        "city": "Guaíba",
        "state": "RS",
        "district": "Florida",
        "street": "Rua Albino Hackmann",
        "zipcode": "92728-500"
    },
    {
        "city": "Guaíba",
        "state": "RS",
        "district": "Colina",
        "street": "Rua Artur Green",
        "zipcode": "92700-030"
    },
    {
        "city": "Guaíba",
        "state": "RS",
        "district": "Colina",
        "street": "Rua B",
        "zipcode": "92700-355"
    },
    {
        "city": "Guaíba",
        "state": "RS",
        "district": "Alvorada",
        "street": "Rua Avelino Py",
        "zipcode": "92703-750"
    },
    {
        "city": "Guaíba",
        "state": "RS",
        "district": "Jardim Iolanda",
        "street": "Rua B",
        "zipcode": "92726-170"
    },
    {
        "city": "Guaíba",
        "state": "RS",
        "district": "Colina",
        "street": "Rua Amizade",
        "zipcode": "92700-405"
    },
    {
        "city": "Guaíba",
        "state": "RS",
        "district": "Ermo",
        "street": "Rua Antônio Lopes Jardim",
        "zipcode": "92702-830"
    },
    {
        "city": "Guaíba",
        "state": "RS",
        "district": "Passo Fundo",
        "street": "Rua Adão Foques",
        "zipcode": "92729-000"
    },
    {
        "city": "Guaíba",
        "state": "RS",
        "district": "Passo Fundo",
        "street": "Rua Arly Rodrigues Borba",
        "zipcode": "92729-090"
    },
    {
        "city": "Guaíba",
        "state": "RS",
        "district": "Colina",
        "street": "Rua Assis Pereira Soares",
        "zipcode": "92700-200"
    },
    {
        "city": "Guaíba",
        "state": "RS",
        "district": "Jardim dos Lagos",
        "street": "Rua Ana Terra",
        "zipcode": "92714-355"
    },
    {
        "city": "Guaíba",
        "state": "RS",
        "district": "Colina",
        "street": "Rua Belmiro Andriotti",
        "zipcode": "92700-550"
    },
    {
        "city": "Guaíba",
        "state": "RS",
        "district": "Ermo",
        "street": "Rua Alcides Jardim de Oliveira",
        "zipcode": "92702-690"
    },
    {
        "city": "Guaíba",
        "state": "RS",
        "district": "Alvorada",
        "street": "Rua Almirante Barroso",
        "zipcode": "92703-640"
    },
    {
        "city": "Guaíba",
        "state": "RS",
        "district": "Parque 35",
        "street": "Rua Alagoas",
        "zipcode": "92705-730"
    },
    {
        "city": "Guaíba",
        "state": "RS",
        "district": "Altos da Alegria",
        "street": "Rodovia BR",
        "zipcode": "92725-000"
    },
    {
        "city": "Guaíba",
        "state": "RS",
        "district": "Jardim Iolanda",
        "street": "Rua A",
        "zipcode": "92726-160"
    },
    {
        "city": "Guaíba",
        "state": "RS",
        "district": "Jardim Iolanda",
        "street": "Rua Alfredo Silveira",
        "zipcode": "92726-520"
    },
    {
        "city": "Guaíba",
        "state": "RS",
        "district": "Alvorada",
        "street": "Rua Alfredo de Oliveira",
        "zipcode": "92703-730"
    },
    {
        "city": "Guaíba",
        "state": "RS",
        "district": "Centro",
        "street": "Rua Acre",
        "zipcode": "92704-370"
    },
    {
        "city": "Guaíba",
        "state": "RS",
        "district": "Florida",
        "street": "Rua Adão Eni Boeira Duarte",
        "zipcode": "92728-520"
    },
    {
        "city": "Guaíba",
        "state": "RS",
        "district": "Jardim Iolanda",
        "street": "Rua Adão Rabello Cezar",
        "zipcode": "92726-070"
    },
    {
        "city": "Guaíba",
        "state": "RS",
        "district": "Colina",
        "street": "Rua Aparício Castro",
        "zipcode": "92700-100"
    },
    {
        "city": "Guaíba",
        "state": "RS",
        "district": "Ermo",
        "street": "Rua Almirante Tamandaré",
        "zipcode": "92702-430"
    },
    {
        "city": "Guaíba",
        "state": "RS",
        "district": "Centro",
        "street": "Rua Arnaldo Tolotti",
        "zipcode": "92704-860"
    },
    {
        "city": "Guaíba",
        "state": "RS",
        "district": "Jardim Iolanda",
        "street": "Rua Artur F de Oliveira",
        "zipcode": "92726-600"
    },
    {
        "city": "Guaíba",
        "state": "RS",
        "district": "Jardim Iolanda",
        "street": "Rua Adão Foques",
        "zipcode": "92726-050"
    },
    {
        "city": "Guaíba",
        "state": "RS",
        "district": "Parque 35",
        "street": "Rua Bahia",
        "zipcode": "92705-710"
    },
    {
        "city": "Guaíba",
        "state": "RS",
        "district": "Colina",
        "street": "Rua Alfredo Abrahão",
        "zipcode": "92700-055"
    },
    {
        "city": "Guaíba",
        "state": "RS",
        "district": "Colina",
        "street": "Rua Allan Kardec",
        "zipcode": "92700-215"
    },
    {
        "city": "Guaíba",
        "state": "RS",
        "district": "Alegria",
        "street": "Rua Adão Foques",
        "zipcode": "92727-000"
    },
    {
        "city": "Guaíba",
        "state": "RS",
        "district": "Alegria",
        "street": "Rua Augusto da Costa Oliveira",
        "zipcode": "92727-310"
    },
    {
        "city": "Guaíba",
        "state": "RS",
        "district": "Altos da Alegria",
        "street": "Rua A (Área Desenv Econômico)",
        "zipcode": "92725-210"
    },
    {
        "city": "Guaíba",
        "state": "RS",
        "district": "Altos da Alegria",
        "street": "Rua Aroeira",
        "zipcode": "92725-740"
    },
    {
        "city": "Guaíba",
        "state": "RS",
        "district": "Bom Fim",
        "street": "Rua Alegrete",
        "zipcode": "92718-875"
    },
    {
        "city": "Guaíba",
        "state": "RS",
        "district": "Coronel Nassuca",
        "street": "Rua Atalante dos Santos",
        "zipcode": "92701-290"
    },
    {
        "city": "Guaíba",
        "state": "RS",
        "district": "Ermo",
        "street": "Rua Avelino Py",
        "zipcode": "92702-450"
    },
    {
        "city": "Guaíba",
        "state": "RS",
        "district": "Alvorada",
        "street": "Rua Alberto Pasqualine",
        "zipcode": "92703-600"
    },
    {
        "city": "Guaíba",
        "state": "RS",
        "district": "Jardim dos Lagos",
        "street": "Rua Angico",
        "zipcode": "92714-460"
    },
    {
        "city": "Guaíba",
        "state": "RS",
        "district": "Centro",
        "street": "Rua Avelino Ávila de Oliveira",
        "zipcode": "92704-685"
    },
    {
        "city": "Guaíba",
        "state": "RS",
        "district": "Pedras Brancas",
        "street": "Rodovia BR",
        "zipcode": "92722-000"
    },
    {
        "city": "Guaíba",
        "state": "RS",
        "district": "Jardim Iolanda",
        "street": "Rua Aires Fraga",
        "zipcode": "92726-010"
    },
    {
        "city": "Guaíba",
        "state": "RS",
        "district": "Colina",
        "street": "Rua B",
        "zipcode": "92700-395"
    },
    {
        "city": "Guaíba",
        "state": "RS",
        "district": "Alegria",
        "street": "Rua Apolo",
        "zipcode": "92727-230"
    },
    {
        "city": "Guaíba",
        "state": "RS",
        "district": "Colina",
        "street": "Rua A",
        "zipcode": "92700-175"
    },
    {
        "city": "Guaíba",
        "state": "RS",
        "district": "Centro",
        "street": "Rua Anacleto Prati",
        "zipcode": "92704-845"
    },
    {
        "city": "Guaíba",
        "state": "RS",
        "district": "Parque 35",
        "street": "Rodovia BR",
        "zipcode": "92705-000"
    },
    {
        "city": "Guaíba",
        "state": "RS",
        "district": "Centro",
        "street": "Rua Adão Couto",
        "zipcode": "92704-660"
    },
    {
        "city": "Guaíba",
        "state": "RS",
        "district": "Jardim dos Lagos",
        "street": "Rua Aparício Silva Rillo",
        "zipcode": "92714-580"
    },
    {
        "city": "Guaíba",
        "state": "RS",
        "district": "Bom Fim",
        "street": "Rua C (Lot Vera Cruz)",
        "zipcode": "92718-605"
    },
    {
        "city": "Guaíba",
        "state": "RS",
        "district": "Santa Rita",
        "street": "Rua Cinquenta (Cj Hab R C Gonçalves)",
        "zipcode": "92708-785"
    },
    {
        "city": "Guaíba",
        "state": "RS",
        "district": "Santa Rita",
        "street": "Rua Cinquenta e Três (Cj Hab R C Gonçalves)",
        "zipcode": "92708-800"
    },
    {
        "city": "Guaíba",
        "state": "RS",
        "district": "Bom Fim",
        "street": "Rua D (Lot Vera Cruz)",
        "zipcode": "92718-600"
    },
    {
        "city": "Guaíba",
        "state": "RS",
        "district": "Jardim Iolanda",
        "street": "Rua Cloaldo Bridi",
        "zipcode": "92726-150"
    },
    {
        "city": "Guaíba",
        "state": "RS",
        "district": "Jardim dos Lagos",
        "street": "Rua Daniel de Oliveira Rosa",
        "zipcode": "92714-385"
    },
    {
        "city": "Guaíba",
        "state": "RS",
        "district": "Coronel Nassuca",
        "street": "Rua Brasília",
        "zipcode": "92701-710"
    },
    {
        "city": "Guaíba",
        "state": "RS",
        "district": "Colina",
        "street": "Rua Carlos SantAnna",
        "zipcode": "92700-090"
    },
    {
        "city": "Guaíba",
        "state": "RS",
        "district": "Ermo",
        "street": "Rua Coronel Inácio de Quadros",
        "zipcode": "92702-070"
    },
    {
        "city": "Guaíba",
        "state": "RS",
        "district": "Centro",
        "street": "Rua Coronel Marcos de Andrade",
        "zipcode": "92704-655"
    },
    {
        "city": "Guaíba",
        "state": "RS",
        "district": "Santa Rita",
        "street": "Rua Curitiba",
        "zipcode": "92708-055"
    },
    {
        "city": "Guaíba",
        "state": "RS",
        "district": "Jardim dos Lagos",
        "street": "Rua Celina Rosa da Silva",
        "zipcode": "92714-415"
    },
    {
        "city": "Guaíba",
        "state": "RS",
        "district": "Colina",
        "street": "Rua B",
        "zipcode": "92700-155"
    },
    {
        "city": "Guaíba",
        "state": "RS",
        "district": "Colina",
        "street": "Rua D (N Sra Fátima)",
        "zipcode": "92700-400"
    },
    {
        "city": "Guaíba",
        "state": "RS",
        "district": "Colina",
        "street": "Rua C",
        "zipcode": "92700-280"
    },
    {
        "city": "Guaíba",
        "state": "RS",
        "district": "Passo Fundo",
        "street": "Rua Boqueirão",
        "zipcode": "92729-140"
    },
    {
        "city": "Guaíba",
        "state": "RS",
        "district": "Jardim dos Lagos",
        "street": "Rua Cenair Maicá",
        "zipcode": "92714-680"
    },
    {
        "city": "Guaíba",
        "state": "RS",
        "district": "Jardim Iolanda",
        "street": "Rua C",
        "zipcode": "92726-190"
    },
    {
        "city": "Guaíba",
        "state": "RS",
        "district": "Colina",
        "street": "Rua Celso Lopes",
        "zipcode": "92700-620"
    },
    {
        "city": "Guaíba",
        "state": "RS",
        "district": "Coronel Nassuca",
        "street": "Rua Coronel Inácio de Quadros",
        "zipcode": "92701-860"
    },
    {
        "city": "Guaíba",
        "state": "RS",
        "district": "Colina",
        "street": "Rua B",
        "zipcode": "92700-390"
    },
    {
        "city": "Guaíba",
        "state": "RS",
        "district": "Jardim Iolanda",
        "street": "Rua Capitão Pedro Timóteo da Rosa",
        "zipcode": "92726-180"
    },
    {
        "city": "Guaíba",
        "state": "RS",
        "district": "Colina",
        "street": "Rua Dante Razeira",
        "zipcode": "92700-035"
    },
    {
        "city": "Guaíba",
        "state": "RS",
        "district": "Florida",
        "street": "Rua Carlos Gomes",
        "zipcode": "92728-185"
    },
    {
        "city": "Guaíba",
        "state": "RS",
        "district": "Centro",
        "street": "Rua Bruno Comerlato",
        "zipcode": "92704-760"
    },
    {
        "city": "Guaíba",
        "state": "RS",
        "district": "Centro",
        "street": "Rua Coronel Manoel Rodrigues Filho",
        "zipcode": "92704-510"
    },
    {
        "city": "Guaíba",
        "state": "RS",
        "district": "Colina",
        "street": "Rua C",
        "zipcode": "92700-275"
    },
    {
        "city": "Guaíba",
        "state": "RS",
        "district": "Colina",
        "street": "Rua da Roseira",
        "zipcode": "92700-535"
    },
    {
        "city": "Guaíba",
        "state": "RS",
        "district": "Columbia City",
        "street": "Rua Colombo dos Santos Marquez",
        "zipcode": "92717-455"
    },
    {
        "city": "Guaíba",
        "state": "RS",
        "district": "Ermo",
        "street": "Rua Cláudio Pacheco",
        "zipcode": "92702-800"
    },
    {
        "city": "Guaíba",
        "state": "RS",
        "district": "Alvorada",
        "street": "Rua Castro Alves",
        "zipcode": "92703-790"
    },
    {
        "city": "Guaíba",
        "state": "RS",
        "district": "Jardim dos Lagos",
        "street": "Rua Capitão Rodrigo",
        "zipcode": "92714-480"
    },
    {
        "city": "Guaíba",
        "state": "RS",
        "district": "Jardim dos Lagos",
        "street": "Rua Cruz Alta",
        "zipcode": "92714-560"
    },
    {
        "city": "Guaíba",
        "state": "RS",
        "district": "Colina",
        "street": "Rua C",
        "zipcode": "92700-225"
    },
    {
        "city": "Guaíba",
        "state": "RS",
        "district": "Santa Rita",
        "street": "Rua da Antena",
        "zipcode": "92707-800"
    },
    {
        "city": "Guaíba",
        "state": "RS",
        "district": "Santa Rita",
        "street": "Rua Cinquenta e Cinco (Cj Hab R C Gonçalves)",
        "zipcode": "92708-825"
    },
    {
        "city": "Guaíba",
        "state": "RS",
        "district": "Centro",
        "street": "Rua Cônego Estanislau Scherer",
        "zipcode": "92704-560"
    },
    {
        "city": "Guaíba",
        "state": "RS",
        "district": "Bom Fim",
        "street": "Rua Cinco (Lot Nova Guaíba)",
        "zipcode": "92718-530"
    },
    {
        "city": "Guaíba",
        "state": "RS",
        "district": "Santa Rita",
        "street": "Rua Cinquenta e Quatro (Cj Hab R C Gonçalves)",
        "zipcode": "92708-810"
    },
    {
        "city": "Guaíba",
        "state": "RS",
        "district": "Colina",
        "street": "Rua da Balança",
        "zipcode": "92700-500"
    },
    {
        "city": "Guaíba",
        "state": "RS",
        "district": "Colina",
        "street": "Rua C",
        "zipcode": "92700-285"
    },
    {
        "city": "Guaíba",
        "state": "RS",
        "district": "Jardim dos Lagos",
        "street": "Rua César Passarinho",
        "zipcode": "92714-510"
    },
    {
        "city": "Guaíba",
        "state": "RS",
        "district": "Florida",
        "street": "Rua Caldas Júnior",
        "zipcode": "92728-360"
    },
    {
        "city": "Guaíba",
        "state": "RS",
        "district": "Passo Fundo",
        "street": "Rua das Flores",
        "zipcode": "92729-030"
    },
    {
        "city": "Guaíba",
        "state": "RS",
        "district": "Pedras Brancas",
        "street": "Rua Cinco",
        "zipcode": "92722-030"
    },
    {
        "city": "Guaíba",
        "state": "RS",
        "district": "Coronel Nassuca",
        "street": "Rua Ceará",
        "zipcode": "92701-730"
    },
    {
        "city": "Guaíba",
        "state": "RS",
        "district": "Centro",
        "street": "Rua Coronel Serafim Silva",
        "zipcode": "92704-645"
    },
    {
        "city": "Guaíba",
        "state": "RS",
        "district": "Colina",
        "street": "Rua Dante Massoni",
        "zipcode": "92700-510"
    },
    {
        "city": "Guaíba",
        "state": "RS",
        "district": "Santa Rita",
        "street": "Rua Cinquenta e Oito (Cj Hab R C Gonçalves)",
        "zipcode": "92708-840"
    },
    {
        "city": "Guaíba",
        "state": "RS",
        "district": "Bom Fim",
        "street": "Rua Cidreira",
        "zipcode": "92718-870"
    },
    {
        "city": "Guaíba",
        "state": "RS",
        "district": "Colina",
        "street": "Rua B",
        "zipcode": "92700-385"
    },
    {
        "city": "Guaíba",
        "state": "RS",
        "district": "Passo Fundo",
        "street": "Rua Carlos Motta",
        "zipcode": "92729-120"
    },
    {
        "city": "Guaíba",
        "state": "RS",
        "district": "Centro",
        "street": "Rua Carlo Ventura",
        "zipcode": "92704-730"
    },
    {
        "city": "Guaíba",
        "state": "RS",
        "district": "Santa Rita",
        "street": "Rua Cinquenta e Nove (Cj Hab R C Gonçalves)",
        "zipcode": "92708-850"
    },
    {
        "city": "Guaíba",
        "state": "RS",
        "district": "Colina",
        "street": "Rua B",
        "zipcode": "92700-230"
    },
    {
        "city": "Guaíba",
        "state": "RS",
        "district": "Bom Fim",
        "street": "Rua Caxias do Sul",
        "zipcode": "92718-865"
    },
    {
        "city": "Guaíba",
        "state": "RS",
        "district": "Ermo",
        "street": "Rua Coronel Inácio de Quadros",
        "zipcode": "92702-510"
    },
    {
        "city": "Guaíba",
        "state": "RS",
        "district": "Colina",
        "street": "Rua C",
        "zipcode": "92700-265"
    },
    {
        "city": "Guaíba",
        "state": "RS",
        "district": "Santa Rita",
        "street": "Rua Dois (Lot Ipê)",
        "zipcode": "92707-330"
    },
    {
        "city": "Guaíba",
        "state": "RS",
        "district": "Florida",
        "street": "Rua Dois (Lot Neiwa)",
        "zipcode": "92728-120"
    },
    {
        "city": "Guaíba",
        "state": "RS",
        "district": "Bom Fim",
        "street": "Rua E (Lot Nova Guaíba)",
        "zipcode": "92718-285"
    },
    {
        "city": "Guaíba",
        "state": "RS",
        "district": "Bom Fim",
        "street": "Rua E (Lot Vera Cruz)",
        "zipcode": "92718-595"
    },
    {
        "city": "Guaíba",
        "state": "RS",
        "district": "Bom Fim",
        "street": "Rua F (Lot Vera Cruz)",
        "zipcode": "92718-575"
    },
    {
        "city": "Guaíba",
        "state": "RS",
        "district": "Centro",
        "street": "Rua Doutor Nazário Leitão dos Santos",
        "zipcode": "92704-020"
    },
    {
        "city": "Guaíba",
        "state": "RS",
        "district": "Ermo",
        "street": "Rua Donário Inácio dos Santos",
        "zipcode": "92702-250"
    },
    {
        "city": "Guaíba",
        "state": "RS",
        "district": "Passo Fundo",
        "street": "Rua dos Crisântemos",
        "zipcode": "92729-270"
    },
    {
        "city": "Guaíba",
        "state": "RS",
        "district": "Colina",
        "street": "Rua Davino Teixeira",
        "zipcode": "92700-245"
    },
    {
        "city": "Guaíba",
        "state": "RS",
        "district": "Ermo",
        "street": "Rua Diógenes Duarte Rodrigues",
        "zipcode": "92702-560"
    },
    {
        "city": "Guaíba",
        "state": "RS",
        "district": "Colina",
        "street": "Rua Didi Pacheco",
        "zipcode": "92700-780"
    },
    {
        "city": "Guaíba",
        "state": "RS",
        "district": "Jardim dos Lagos",
        "street": "Rua Doutor Gabriel Coutinho",
        "zipcode": "92714-395"
    },
    {
        "city": "Guaíba",
        "state": "RS",
        "district": "Jardim Iolanda",
        "street": "Rua Doutor Francisco Manoel Rodrigues",
        "zipcode": "92726-100"
    },
    {
        "city": "Guaíba",
        "state": "RS",
        "district": "Centro",
        "street": "Rua Desembargador La Hire Guerra",
        "zipcode": "92704-735"
    },
    {
        "city": "Guaíba",
        "state": "RS",
        "district": "Ermo",
        "street": "Rua F (Lot Jd Panorama)",
        "zipcode": "92702-650"
    },
    {
        "city": "Guaíba",
        "state": "RS",
        "district": "Alegria",
        "street": "Rua Deputado Lauro Rodrigues",
        "zipcode": "92727-340"
    },
    {
        "city": "Guaíba",
        "state": "RS",
        "district": "Alvorada",
        "street": "Rua Evaristo Lopes",
        "zipcode": "92703-330"
    },
    {
        "city": "Guaíba",
        "state": "RS",
        "district": "Colina",
        "street": "Rua David Rios Pinto",
        "zipcode": "92700-375"
    },
    {
        "city": "Guaíba",
        "state": "RS",
        "district": "Alvorada",
        "street": "Rua Faustino Gomes",
        "zipcode": "92703-710"
    },
    {
        "city": "Guaíba",
        "state": "RS",
        "district": "Colina",
        "street": "Rua Dorvidio Correa da Silva",
        "zipcode": "92700-365"
    },
    {
        "city": "Guaíba",
        "state": "RS",
        "district": "Jardim dos Lagos",
        "street": "Rua Érico Veríssimo",
        "zipcode": "92714-615"
    },
    {
        "city": "Guaíba",
        "state": "RS",
        "district": "Pedras Brancas",
        "street": "Rua Dezessete",
        "zipcode": "92722-530"
    },
    {
        "city": "Guaíba",
        "state": "RS",
        "district": "Centro",
        "street": "Rua Doutor Lauro Azambuja",
        "zipcode": "92704-550"
    },
    {
        "city": "Guaíba",
        "state": "RS",
        "district": "Colina",
        "street": "Rua Doutor Antenor Caldas",
        "zipcode": "92700-120"
    },
    {
        "city": "Guaíba",
        "state": "RS",
        "district": "Ermo",
        "street": "Rua Dona Maria",
        "zipcode": "92702-090"
    },
    {
        "city": "Guaíba",
        "state": "RS",
        "district": "Ermo",
        "street": "Rua Evaristo Lopes",
        "zipcode": "92702-700"
    },
    {
        "city": "Guaíba",
        "state": "RS",
        "district": "Pedras Brancas",
        "street": "Rua Dezoito",
        "zipcode": "92722-540"
    },
    {
        "city": "Guaíba",
        "state": "RS",
        "district": "Ermo",
        "street": "Rua Farrapos",
        "zipcode": "92702-030"
    },
    {
        "city": "Guaíba",
        "state": "RS",
        "district": "Parque 35",
        "street": "Rua Doutor Montaury",
        "zipcode": "92706-000"
    },
    {
        "city": "Guaíba",
        "state": "RS",
        "district": "Colina",
        "street": "Rua Edmar Azeredo Coutinho",
        "zipcode": "92700-170"
    },
    {
        "city": "Guaíba",
        "state": "RS",
        "district": "Alegria",
        "street": "Rua Dona Lúcia",
        "zipcode": "92727-300"
    },
    {
        "city": "Guaíba",
        "state": "RS",
        "district": "Colina",
        "street": "Rua Dorvalino Terres",
        "zipcode": "92700-150"
    },
    {
        "city": "Guaíba",
        "state": "RS",
        "district": "Bom Fim",
        "street": "Rua Estância Velha",
        "zipcode": "92718-890"
    },
    {
        "city": "Guaíba",
        "state": "RS",
        "district": "Centro",
        "street": "Rua Doutor Gabriel A Fortuna",
        "zipcode": "92704-480"
    },
    {
        "city": "Guaíba",
        "state": "RS",
        "district": "Colina",
        "street": "Rua Dois (Moradas Colina)",
        "zipcode": "92700-290"
    },
    {
        "city": "Guaíba",
        "state": "RS",
        "district": "Pedras Brancas",
        "street": "Rua Dezesseis",
        "zipcode": "92722-400"
    },
    {
        "city": "Guaíba",
        "state": "RS",
        "district": "Centro",
        "street": "Rua Doutor Otávio Rocha",
        "zipcode": "92704-350"
    },
    {
        "city": "Guaíba",
        "state": "RS",
        "district": "Passo Fundo",
        "street": "Rua Eldorado",
        "zipcode": "92729-220"
    },
    {
        "city": "Guaíba",
        "state": "RS",
        "district": "Colina",
        "street": "Rua Doutor Antenor Caldas",
        "zipcode": "92700-415"
    },
    {
        "city": "Guaíba",
        "state": "RS",
        "district": "Colina",
        "street": "Rua Dona Lucy",
        "zipcode": "92700-050"
    },
    {
        "city": "Guaíba",
        "state": "RS",
        "district": "Passo Fundo",
        "street": "Rua Dezesseis",
        "zipcode": "92729-200"
    },
    {
        "city": "Guaíba",
        "state": "RS",
        "district": "Centro",
        "street": "Rua Doutor Montaury",
        "zipcode": "92704-640"
    },
    {
        "city": "Guaíba",
        "state": "RS",
        "district": "Centro",
        "street": "Rua Doutor Montaury",
        "zipcode": "92704-635"
    },
    {
        "city": "Guaíba",
        "state": "RS",
        "district": "Ermo",
        "street": "Rua David Canabarro",
        "zipcode": "92702-440"
    },
    {
        "city": "Guaíba",
        "state": "RS",
        "district": "Passo Fundo",
        "street": "Rua dos Gerânios",
        "zipcode": "92729-100"
    },
    {
        "city": "Guaíba",
        "state": "RS",
        "district": "Passo Fundo",
        "street": "Rua Elzo Jardim",
        "zipcode": "92729-260"
    },
    {
        "city": "Guaíba",
        "state": "RS",
        "district": "Colina",
        "street": "Rua Didi Pacheco",
        "zipcode": "92700-540"
    },
    {
        "city": "Guaíba",
        "state": "RS",
        "district": "Florida",
        "street": "Rua Deputado Lauro Rodrigues",
        "zipcode": "92728-060"
    },
    {
        "city": "Guaíba",
        "state": "RS",
        "district": "Pedras Brancas",
        "street": "Rua Dezenove",
        "zipcode": "92722-550"
    },
    {
        "city": "Guaíba",
        "state": "RS",
        "district": "Bom Fim",
        "street": "Rua Dois (Lot Vera Cruz)",
        "zipcode": "92718-580"
    },
    {
        "city": "Guaíba",
        "state": "RS",
        "district": "Parque 35",
        "street": "Rua Espírito Santo",
        "zipcode": "92705-550"
    },
    {
        "city": "Guaíba",
        "state": "RS",
        "district": "Jardim dos Lagos",
        "street": "Rua Everton Speck",
        "zipcode": "92714-365"
    },
    {
        "city": "Guaíba",
        "state": "RS",
        "district": "Centro",
        "street": "Rua Doutor Carlos de Moura e Cunha",
        "zipcode": "92704-750"
    },
    {
        "city": "Guaíba",
        "state": "RS",
        "district": "Colina",
        "street": "Rua Doutor Antenor Caldas",
        "zipcode": "92700-115"
    },
    {
        "city": "Guaíba",
        "state": "RS",
        "district": "Alegria",
        "street": "Rua Dona Tereza Spagiari",
        "zipcode": "92727-320"
    },
    {
        "city": "Guaíba",
        "state": "RS",
        "district": "Bom Fim",
        "street": "Rua Dom Feliciano",
        "zipcode": "92718-880"
    },
    {
        "city": "Guaíba",
        "state": "RS",
        "district": "Altos da Alegria",
        "street": "Rua Ipê Amarelo",
        "zipcode": "92725-730"
    },
    {
        "city": "Guaíba",
        "state": "RS",
        "district": "Santa Rita",
        "street": "Rua Jorge de Matos Savedra",
        "zipcode": "92708-815"
    },
    {
        "city": "Guaíba",
        "state": "RS",
        "district": "Alvorada",
        "street": "Rua Garibaldi",
        "zipcode": "92703-770"
    },
    {
        "city": "Guaíba",
        "state": "RS",
        "district": "Bom Fim",
        "street": "Rua I (Lot Nova Guaíba)",
        "zipcode": "92718-255"
    },
    {
        "city": "Guaíba",
        "state": "RS",
        "district": "Colina",
        "street": "Rua Flavio Santana",
        "zipcode": "92700-555"
    },
    {
        "city": "Guaíba",
        "state": "RS",
        "district": "Florida",
        "street": "Rua João Sebastião Gomes",
        "zipcode": "92728-510"
    },
    {
        "city": "Guaíba",
        "state": "RS",
        "district": "Colina",
        "street": "Rua Julio Rucziski",
        "zipcode": "92700-080"
    },
    {
        "city": "Guaíba",
        "state": "RS",
        "district": "Parque 35",
        "street": "Rua Guanabara",
        "zipcode": "92705-530"
    },
    {
        "city": "Guaíba",
        "state": "RS",
        "district": "Jardim dos Lagos",
        "street": "Rua Júlia Boff Guedes",
        "zipcode": "92714-390"
    },
    {
        "city": "Guaíba",
        "state": "RS",
        "district": "Colina",
        "street": "Rua João Arruda de Oliveira",
        "zipcode": "92700-370"
    },
    {
        "city": "Guaíba",
        "state": "RS",
        "district": "Coronel Nassuca",
        "street": "Rua Júlio Ostrowski",
        "zipcode": "92701-410"
    },
    {
        "city": "Guaíba",
        "state": "RS",
        "district": "Jardim Iolanda",
        "street": "Rua João Belchior M Goulart",
        "zipcode": "92726-360"
    },
    {
        "city": "Guaíba",
        "state": "RS",
        "district": "Jardim Iolanda",
        "street": "Rua Francisco Azeredo Coutinho",
        "zipcode": "92726-090"
    },
    {
        "city": "Guaíba",
        "state": "RS",
        "district": "Florida",
        "street": "Rua João Batista Luzardo",
        "zipcode": "92728-040"
    },
    {
        "city": "Guaíba",
        "state": "RS",
        "district": "Alvorada",
        "street": "Rua José de Alencar",
        "zipcode": "92703-590"
    },
    {
        "city": "Guaíba",
        "state": "RS",
        "district": "Alegria",
        "street": "Rua João Neves da Fontoura",
        "zipcode": "92727-330"
    },
    {
        "city": "Guaíba",
        "state": "RS",
        "district": "Bom Fim",
        "street": "Rua H (Lot Nova Guaíba)",
        "zipcode": "92718-250"
    },
    {
        "city": "Guaíba",
        "state": "RS",
        "district": "Bom Fim",
        "street": "Rua João Longuã",
        "zipcode": "92718-070"
    },
    {
        "city": "Guaíba",
        "state": "RS",
        "district": "Ermo",
        "street": "Rua Jorge Elejalde",
        "zipcode": "92702-100"
    },
    {
        "city": "Guaíba",
        "state": "RS",
        "district": "Passo Fundo",
        "street": "Rua Kyoto",
        "zipcode": "92729-240"
    },
    {
        "city": "Guaíba",
        "state": "RS",
        "district": "Coronel Nassuca",
        "street": "Rua Hermínio da Rocha Vilar",
        "zipcode": "92701-400"
    },
    {
        "city": "Guaíba",
        "state": "RS",
        "district": "Jardim dos Lagos",
        "street": "Rua João Carlos Androtti Silveira",
        "zipcode": "92714-550"
    },
    {
        "city": "Guaíba",
        "state": "RS",
        "district": "Florida",
        "street": "Rua Germânia",
        "zipcode": "92728-380"
    },
    {
        "city": "Guaíba",
        "state": "RS",
        "district": "Passo Fundo",
        "street": "Rua General Amaral Ferrador",
        "zipcode": "92729-730"
    },
    {
        "city": "Guaíba",
        "state": "RS",
        "district": "Coronel Nassuca",
        "street": "Rua General Neto",
        "zipcode": "92701-740"
    },
    {
        "city": "Guaíba",
        "state": "RS",
        "district": "Jardim dos Lagos",
        "street": "Rua Josué Guimarães",
        "zipcode": "92714-490"
    },
    {
        "city": "Guaíba",
        "state": "RS",
        "district": "Bom Fim",
        "street": "Rua J (Lot Nova Guaíba)",
        "zipcode": "92718-265"
    },
    {
        "city": "Guaíba",
        "state": "RS",
        "district": "Altos da Alegria",
        "street": "Rua Jacarandá",
        "zipcode": "92725-710"
    },
    {
        "city": "Guaíba",
        "state": "RS",
        "district": "Centro",
        "street": "Rua João P F Guimarães",
        "zipcode": "92704-005"
    },
    {
        "city": "Guaíba",
        "state": "RS",
        "district": "Coronel Nassuca",
        "street": "Rua José Pereira Lopes",
        "zipcode": "92701-820"
    },
    {
        "city": "Guaíba",
        "state": "RS",
        "district": "Coronel Nassuca",
        "street": "Rua Fernando Ferrari",
        "zipcode": "92701-770"
    },
    {
        "city": "Guaíba",
        "state": "RS",
        "district": "Altos da Alegria",
        "street": "Rua Ipê Roxo",
        "zipcode": "92725-770"
    },
    {
        "city": "Guaíba",
        "state": "RS",
        "district": "Alvorada",
        "street": "Rua General Daltro Filho",
        "zipcode": "92703-680"
    },
    {
        "city": "Guaíba",
        "state": "RS",
        "district": "Jardim dos Lagos",
        "street": "Rua Franque Andrei Beck Ribas",
        "zipcode": "92714-530"
    },
    {
        "city": "Guaíba",
        "state": "RS",
        "district": "Colina",
        "street": "Rua Jornal O Guaíba",
        "zipcode": "92700-195"
    },
    {
        "city": "Guaíba",
        "state": "RS",
        "district": "Altos da Alegria",
        "street": "Rua Flamboyant",
        "zipcode": "92725-760"
    },
    {
        "city": "Guaíba",
        "state": "RS",
        "district": "Jardim dos Lagos",
        "street": "Rua José Mendes",
        "zipcode": "92714-610"
    },
    {
        "city": "Guaíba",
        "state": "RS",
        "district": "Bom Fim",
        "street": "Rua Igrejinha",
        "zipcode": "92718-845"
    },
    {
        "city": "Guaíba",
        "state": "RS",
        "district": "Passo Fundo",
        "street": "Rua Flor do Conde",
        "zipcode": "92729-070"
    },
    {
        "city": "Guaíba",
        "state": "RS",
        "district": "Bom Fim",
        "street": "Rua G (Lot Vera Cruz)",
        "zipcode": "92718-585"
    },
    {
        "city": "Guaíba",
        "state": "RS",
        "district": "Santa Rita",
        "street": "Rua Goiânia",
        "zipcode": "92708-020"
    },
    {
        "city": "Guaíba",
        "state": "RS",
        "district": "Centro",
        "street": "Rua Joaquim Ribeiro",
        "zipcode": "92704-365"
    },
    {
        "city": "Guaíba",
        "state": "RS",
        "district": "Columbia City",
        "street": "Rua General Câmara",
        "zipcode": "92717-435"
    },
    {
        "city": "Guaíba",
        "state": "RS",
        "district": "Bom Fim",
        "street": "Rua G (Lot Nova Guaíba)",
        "zipcode": "92718-240"
    },
    {
        "city": "Guaíba",
        "state": "RS",
        "district": "Colina",
        "street": "Rua João de Araújo Cezar",
        "zipcode": "92700-165"
    },
    {
        "city": "Guaíba",
        "state": "RS",
        "district": "Centro",
        "street": "Rua Herbert Rhodenbuschu",
        "zipcode": "92704-725"
    },
    {
        "city": "Guaíba",
        "state": "RS",
        "district": "Florida",
        "street": "Rua João Neves da Fontoura",
        "zipcode": "92728-050"
    },
    {
        "city": "Guaíba",
        "state": "RS",
        "district": "Parque 35",
        "street": "Rua Ivo Lessa Silveira",
        "zipcode": "92706-200"
    },
    {
        "city": "Guaíba",
        "state": "RS",
        "district": "Colina",
        "street": "Rua João Uranga",
        "zipcode": "92700-615"
    },
    {
        "city": "Guaíba",
        "state": "RS",
        "district": "Centro",
        "street": "Rua Gaspar Martins",
        "zipcode": "92704-385"
    },
    {
        "city": "Guaíba",
        "state": "RS",
        "district": "Alvorada",
        "street": "Rua General Osório",
        "zipcode": "92703-690"
    },
    {
        "city": "Guaíba",
        "state": "RS",
        "district": "Parque 35",
        "street": "Rua Goiás",
        "zipcode": "92705-580"
    },
    {
        "city": "Guaíba",
        "state": "RS",
        "district": "Centro",
        "street": "Rua João Guntzel",
        "zipcode": "92704-755"
    },
    {
        "city": "Guaíba",
        "state": "RS",
        "district": "Centro",
        "street": "Rua João Vidal",
        "zipcode": "92704-840"
    },
    {
        "city": "Guaíba",
        "state": "RS",
        "district": "Bom Fim",
        "street": "Rua João Zeferino",
        "zipcode": "92718-040"
    },
    {
        "city": "Guaíba",
        "state": "RS",
        "district": "Colina",
        "street": "Rua João B Guimarães",
        "zipcode": "92700-025"
    },
    {
        "city": "Guaíba",
        "state": "RS",
        "district": "Columbia City",
        "street": "Rua Harry Green",
        "zipcode": "92717-490"
    },
    {
        "city": "Guaíba",
        "state": "RS",
        "district": "Bom Fim",
        "street": "Rua Itajaí",
        "zipcode": "92718-500"
    },
    {
        "city": "Guaíba",
        "state": "RS",
        "district": "Jardim dos Lagos",
        "street": "Rua Honório Lemos",
        "zipcode": "92714-605"
    },
    {
        "city": "Guaíba",
        "state": "RS",
        "district": "Santa Rita",
        "street": "Rua Oito (Lot Ipê)",
        "zipcode": "92707-530"
    },
    {
        "city": "Guaíba",
        "state": "RS",
        "district": "Bom Fim",
        "street": "Rua Oito (Lot Nova Guaíba)",
        "zipcode": "92718-205"
    },
    {
        "city": "Guaíba",
        "state": "RS",
        "district": "Jardim dos Lagos",
        "street": "Rua Maragatos",
        "zipcode": "92714-470"
    },
    {
        "city": "Guaíba",
        "state": "RS",
        "district": "Centro",
        "street": "Rua Onofre Pires",
        "zipcode": "92704-025"
    },
    {
        "city": "Guaíba",
        "state": "RS",
        "district": "Santa Rita",
        "street": "Rua Nova Esperança",
        "zipcode": "92708-295"
    },
    {
        "city": "Guaíba",
        "state": "RS",
        "district": "Jardim dos Lagos",
        "street": "Rua Noel Guarany",
        "zipcode": "92714-595"
    },
    {
        "city": "Guaíba",
        "state": "RS",
        "district": "Jardim dos Lagos",
        "street": "Rua O Tempo e o Vento",
        "zipcode": "92714-455"
    },
    {
        "city": "Guaíba",
        "state": "RS",
        "district": "Colina",
        "street": "Rua Lucas Quadros",
        "zipcode": "92700-130"
    },
    {
        "city": "Guaíba",
        "state": "RS",
        "district": "Ermo",
        "street": "Rua Mário Rios Pinto",
        "zipcode": "92702-770"
    },
    {
        "city": "Guaíba",
        "state": "RS",
        "district": "Florida",
        "street": "Rua Manoel Sebastião Gomes Filho",
        "zipcode": "92728-560"
    },
    {
        "city": "Guaíba",
        "state": "RS",
        "district": "Alvorada",
        "street": "Rua Maurício Borges",
        "zipcode": "92703-720"
    },
    {
        "city": "Guaíba",
        "state": "RS",
        "district": "Ermo",
        "street": "Rua Leonel Brizola",
        "zipcode": "92702-530"
    },
    {
        "city": "Guaíba",
        "state": "RS",
        "district": "Jardim dos Lagos",
        "street": "Rua Mário Quintana",
        "zipcode": "92714-575"
    },
    {
        "city": "Guaíba",
        "state": "RS",
        "district": "Coronel Nassuca",
        "street": "Rua Máximo Laviaguerre",
        "zipcode": "92701-300"
    },
    {
        "city": "Guaíba",
        "state": "RS",
        "district": "Jardim dos Lagos",
        "street": "Rua Leopoldo Rassier",
        "zipcode": "92714-630"
    },
    {
        "city": "Guaíba",
        "state": "RS",
        "district": "Passo Fundo",
        "street": "Rua Noé Alves Py",
        "zipcode": "92729-040"
    },
    {
        "city": "Guaíba",
        "state": "RS",
        "district": "Alegria",
        "street": "Rua Mario Fernandes da Cunha",
        "zipcode": "92727-220"
    },
    {
        "city": "Guaíba",
        "state": "RS",
        "district": "Pedras Brancas",
        "street": "Rua Nove",
        "zipcode": "92722-310"
    },
    {
        "city": "Guaíba",
        "state": "RS",
        "district": "Colina",
        "street": "Rua Manoel de Souza Rodrigues",
        "zipcode": "92700-595"
    },
    {
        "city": "Guaíba",
        "state": "RS",
        "district": "Jardim Iolanda",
        "street": "Rua Mário Marques",
        "zipcode": "92726-130"
    },
    {
        "city": "Guaíba",
        "state": "RS",
        "district": "Parque 35",
        "street": "Rua Mato Grosso do Sul",
        "zipcode": "92706-050"
    },
    {
        "city": "Guaíba",
        "state": "RS",
        "district": "Centro",
        "street": "Rua Mário Olavo Polanczyk",
        "zipcode": "92704-700"
    },
    {
        "city": "Guaíba",
        "state": "RS",
        "district": "Centro",
        "street": "Rua Noé Pinhatti",
        "zipcode": "92704-295"
    },
    {
        "city": "Guaíba",
        "state": "RS",
        "district": "Alvorada",
        "street": "Rua Marechal Floriano",
        "zipcode": "92703-630"
    },
    {
        "city": "Guaíba",
        "state": "RS",
        "district": "Centro",
        "street": "Rua Lothar Zenker",
        "zipcode": "92704-765"
    },
    {
        "city": "Guaíba",
        "state": "RS",
        "district": "Pedras Brancas",
        "street": "Rua Onze",
        "zipcode": "92722-340"
    },
    {
        "city": "Guaíba",
        "state": "RS",
        "district": "Bom Fim",
        "street": "Rua Montenegro",
        "zipcode": "92718-820"
    },
    {
        "city": "Guaíba",
        "state": "RS",
        "district": "Bom Fim",
        "street": "Rua M (Lot Nova Guaíba)",
        "zipcode": "92718-270"
    },
    {
        "city": "Guaíba",
        "state": "RS",
        "district": "Alvorada",
        "street": "Rua Manoel Rodrigues Gonçalves",
        "zipcode": "92703-560"
    },
    {
        "city": "Guaíba",
        "state": "RS",
        "district": "Centro",
        "street": "Rua Olavo Velloso Freitas",
        "zipcode": "92704-680"
    },
    {
        "city": "Guaíba",
        "state": "RS",
        "district": "Alvorada",
        "street": "Rua Machado de Assis",
        "zipcode": "92703-650"
    },
    {
        "city": "Guaíba",
        "state": "RS",
        "district": "Santa Rita",
        "street": "Rua Maceió",
        "zipcode": "92708-045"
    },
    {
        "city": "Guaíba",
        "state": "RS",
        "district": "Jardim Iolanda",
        "street": "Rua Natalino Vasconcelos Jardim",
        "zipcode": "92726-320"
    },
    {
        "city": "Guaíba",
        "state": "RS",
        "district": "Bom Fim",
        "street": "Rua Mostardas",
        "zipcode": "92718-810"
    },
    {
        "city": "Guaíba",
        "state": "RS",
        "district": "Passo Fundo",
        "street": "Rua Liberato Mattos Garcia",
        "zipcode": "92729-060"
    },
    {
        "city": "Guaíba",
        "state": "RS",
        "district": "Colina",
        "street": "Rua Olavo Machado Lessa",
        "zipcode": "92700-580"
    },
    {
        "city": "Guaíba",
        "state": "RS",
        "district": "Columbia City",
        "street": "Rua Mário Lessa",
        "zipcode": "92717-480"
    },
    {
        "city": "Guaíba",
        "state": "RS",
        "district": "Jardim Iolanda",
        "street": "Rua Menotti Bianchi",
        "zipcode": "92726-040"
    },
    {
        "city": "Guaíba",
        "state": "RS",
        "district": "Colina",
        "street": "Rua Nova",
        "zipcode": "92700-515"
    },
    {
        "city": "Guaíba",
        "state": "RS",
        "district": "Colina",
        "street": "Rua Luiz Green",
        "zipcode": "92700-040"
    },
    {
        "city": "Guaíba",
        "state": "RS",
        "district": "Santa Rita",
        "street": "Rua Manaus",
        "zipcode": "92708-015"
    },
    {
        "city": "Guaíba",
        "state": "RS",
        "district": "Jardim dos Lagos",
        "street": "Rua Odilon Cezar",
        "zipcode": "92714-535"
    },
    {
        "city": "Guaíba",
        "state": "RS",
        "district": "Florida",
        "street": "Rua Lindolfo Collor",
        "zipcode": "92728-030"
    },
    {
        "city": "Guaíba",
        "state": "RS",
        "district": "Santa Rita",
        "street": "Rua Miracema do Norte",
        "zipcode": "92708-060"
    },
    {
        "city": "Guaíba",
        "state": "RS",
        "district": "Colina",
        "street": "Rua Nossa Senhora de Fátima",
        "zipcode": "92700-625"
    },
    {
        "city": "Guaíba",
        "state": "RS",
        "district": "Colina",
        "street": "Rua Mario Jardim",
        "zipcode": "92700-610"
    },
    {
        "city": "Guaíba",
        "state": "RS",
        "district": "Passo Fundo",
        "street": "Rua Matias",
        "zipcode": "92729-170"
    },
    {
        "city": "Guaíba",
        "state": "RS",
        "district": "Ermo",
        "street": "Rua Lidônio Vinhas",
        "zipcode": "92702-820"
    },
    {
        "city": "Guaíba",
        "state": "RS",
        "district": "Coronel Nassuca",
        "street": "Rua Maranhão",
        "zipcode": "92701-810"
    },
    {
        "city": "Guaíba",
        "state": "RS",
        "district": "Bom Fim",
        "street": "Rua Lauro Cardoso Rocha",
        "zipcode": "92718-300"
    },
    {
        "city": "Guaíba",
        "state": "RS",
        "district": "Ermo",
        "street": "Rua Onofre Pires",
        "zipcode": "92702-310"
    },
    {
        "city": "Guaíba",
        "state": "RS",
        "district": "Passo Fundo",
        "street": "Rua Mariana Pimentel",
        "zipcode": "92729-130"
    },
    {
        "city": "Guaíba",
        "state": "RS",
        "district": "Bom Fim",
        "street": "Rua Livramento",
        "zipcode": "92718-850"
    },
    {
        "city": "Guaíba",
        "state": "RS",
        "district": "Passo Fundo",
        "street": "Rua Morro Santana",
        "zipcode": "92729-160"
    },
    {
        "city": "Guaíba",
        "state": "RS",
        "district": "Santa Rita",
        "street": "Rua M",
        "zipcode": "92709-685"
    },
    {
        "city": "Guaíba",
        "state": "RS",
        "district": "Pedras Brancas",
        "street": "Rua Oito",
        "zipcode": "92722-180"
    },
    {
        "city": "Guaíba",
        "state": "RS",
        "district": "Bom Fim",
        "street": "Rua O (Lot Nova Guaíba)",
        "zipcode": "92718-275"
    },
    {
        "city": "Guaíba",
        "state": "RS",
        "district": "Colina",
        "street": "Rua Neusa Goulart Brizola",
        "zipcode": "92700-545"
    },
    {
        "city": "Guaíba",
        "state": "RS",
        "district": "Jardim Iolanda",
        "street": "Rua Manuel Francisco das Neves",
        "zipcode": "92726-000"
    },
    {
        "city": "Guaíba",
        "state": "RS",
        "district": "Florida",
        "street": "Rua Quatro (Lot Neiwa)",
        "zipcode": "92728-130"
    },
    {
        "city": "Guaíba",
        "state": "RS",
        "district": "Pedras Brancas",
        "street": "Rua Quatro",
        "zipcode": "92722-010"
    },
    {
        "city": "Guaíba",
        "state": "RS",
        "district": "Ermo",
        "street": "Rua Pedras Brancas",
        "zipcode": "92702-000"
    },
    {
        "city": "Guaíba",
        "state": "RS",
        "district": "Centro",
        "street": "Rua Pery Berbigier",
        "zipcode": "92704-855"
    },
    {
        "city": "Guaíba",
        "state": "RS",
        "district": "Ermo",
        "street": "Rua Pastor Albert Ian Bagby",
        "zipcode": "92702-660"
    },
    {
        "city": "Guaíba",
        "state": "RS",
        "district": "Colina",
        "street": "Rua Oscar Norberto Tollens Linck",
        "zipcode": "92700-755"
    },
    {
        "city": "Guaíba",
        "state": "RS",
        "district": "Jardim dos Lagos",
        "street": "Rua Pedro Missioneiro",
        "zipcode": "92714-410"
    },
    {
        "city": "Guaíba",
        "state": "RS",
        "district": "Colina",
        "street": "Rua Professor Wilson Larré Pereira",
        "zipcode": "92700-765"
    },
    {
        "city": "Guaíba",
        "state": "RS",
        "district": "Florida",
        "street": "Rua Quinze de Novembro",
        "zipcode": "92728-340"
    },
    {
        "city": "Guaíba",
        "state": "RS",
        "district": "Alvorada",
        "street": "Rua Padre José Anchieta",
        "zipcode": "92703-570"
    },
    {
        "city": "Guaíba",
        "state": "RS",
        "district": "Pedras Brancas",
        "street": "Rua Otávio R Gonçalves",
        "zipcode": "92722-100"
    },
    {
        "city": "Guaíba",
        "state": "RS",
        "district": "Centro",
        "street": "Rua Pedras Brancas",
        "zipcode": "92704-195"
    },
    {
        "city": "Guaíba",
        "state": "RS",
        "district": "Coronel Nassuca",
        "street": "Rua Rio Branco",
        "zipcode": "92701-780"
    },
    {
        "city": "Guaíba",
        "state": "RS",
        "district": "Jardim dos Lagos",
        "street": "Rua Província de São Pedro",
        "zipcode": "92714-495"
    },
    {
        "city": "Guaíba",
        "state": "RS",
        "district": "Centro",
        "street": "Rua Quatorze de Outubro",
        "zipcode": "92704-500"
    },
    {
        "city": "Guaíba",
        "state": "RS",
        "district": "Columbia City",
        "street": "Rua Osvaldo Rodrigues de Lemos",
        "zipcode": "92717-850"
    },
    {
        "city": "Guaíba",
        "state": "RS",
        "district": "Bom Fim",
        "street": "Rua Ramão Corrêa",
        "zipcode": "92718-115"
    },
    {
        "city": "Guaíba",
        "state": "RS",
        "district": "Jardim Iolanda",
        "street": "Rua Oscar Hoff",
        "zipcode": "92726-140"
    },
    {
        "city": "Guaíba",
        "state": "RS",
        "district": "Santa Rita",
        "street": "Rua Quarenta e Quatro (Cj Hab R C Gonçalves)",
        "zipcode": "92708-730"
    },
    {
        "city": "Guaíba",
        "state": "RS",
        "district": "Santa Rita",
        "street": "Rua Quarenta e Nove (Cj Hab R C Gonçalves)",
        "zipcode": "92708-775"
    },
    {
        "city": "Guaíba",
        "state": "RS",
        "district": "Colina",
        "street": "Rua Professora Rosa Perachi",
        "zipcode": "92700-070"
    },
    {
        "city": "Guaíba",
        "state": "RS",
        "district": "Jardim dos Lagos",
        "street": "Rua República do Piratini",
        "zipcode": "92714-515"
    },
    {
        "city": "Guaíba",
        "state": "RS",
        "district": "Columbia City",
        "street": "Rua Professora Consuelo",
        "zipcode": "92717-460"
    },
    {
        "city": "Guaíba",
        "state": "RS",
        "district": "Bom Fim",
        "street": "Rua Quatro (Lot Nova Guaíba)",
        "zipcode": "92718-535"
    },
    {
        "city": "Guaíba",
        "state": "RS",
        "district": "Bom Fim",
        "street": "Rua Quatro (Lot Vera Cruz)",
        "zipcode": "92718-615"
    },
    {
        "city": "Guaíba",
        "state": "RS",
        "district": "Alegria",
        "street": "Rua Projetada Spaggiari",
        "zipcode": "92727-200"
    },
    {
        "city": "Guaíba",
        "state": "RS",
        "district": "Centro",
        "street": "Rua Padre José Eichelberg",
        "zipcode": "92704-485"
    },
    {
        "city": "Guaíba",
        "state": "RS",
        "district": "Florida",
        "street": "Rua Oswin Meyer",
        "zipcode": "92728-540"
    },
    {
        "city": "Guaíba",
        "state": "RS",
        "district": "Santa Rita",
        "street": "Rua Quarenta e Sete (Cj Hab R C Gonçalves)",
        "zipcode": "92708-750"
    },
    {
        "city": "Guaíba",
        "state": "RS",
        "district": "Alegria",
        "street": "Rua Raul Pilla",
        "zipcode": "92727-240"
    },
    {
        "city": "Guaíba",
        "state": "RS",
        "district": "Jardim Iolanda",
        "street": "Rua Professor João Nunes de Vargas",
        "zipcode": "92726-350"
    },
    {
        "city": "Guaíba",
        "state": "RS",
        "district": "Ermo",
        "street": "Rua Padre Cacique",
        "zipcode": "92702-140"
    },
    {
        "city": "Guaíba",
        "state": "RS",
        "district": "Santa Rita",
        "street": "Rua Padre Reus",
        "zipcode": "92708-725"
    },
    {
        "city": "Guaíba",
        "state": "RS",
        "district": "Bom Fim",
        "street": "Rua Quatro A (Lot Nova Guaíba)",
        "zipcode": "92718-525"
    },
    {
        "city": "Guaíba",
        "state": "RS",
        "district": "Jardim dos Lagos",
        "street": "Rua Professora Lícia Ervis",
        "zipcode": "92714-525"
    },
    {
        "city": "Guaíba",
        "state": "RS",
        "district": "Jardim Iolanda",
        "street": "Rua Quatro",
        "zipcode": "92726-370"
    },
    {
        "city": "Guaíba",
        "state": "RS",
        "district": "Coronel Nassuca",
        "street": "Rua Pernambuco",
        "zipcode": "92701-260"
    },
    {
        "city": "Guaíba",
        "state": "RS",
        "district": "Colina",
        "street": "Rua Otávio Rabelo Cezar",
        "zipcode": "92700-145"
    },
    {
        "city": "Guaíba",
        "state": "RS",
        "district": "Parque 35",
        "street": "Rua Paraná",
        "zipcode": "92705-520"
    },
    {
        "city": "Guaíba",
        "state": "RS",
        "district": "Coronel Nassuca",
        "street": "Rua Pará",
        "zipcode": "92701-800"
    },
    {
        "city": "Guaíba",
        "state": "RS",
        "district": "Ermo",
        "street": "Rua Pantaleão Telles",
        "zipcode": "92702-730"
    },
    {
        "city": "Guaíba",
        "state": "RS",
        "district": "Alvorada",
        "street": "Rua Pinheiro Machado",
        "zipcode": "92703-610"
    },
    {
        "city": "Guaíba",
        "state": "RS",
        "district": "Ermo",
        "street": "Rua Prefeito Arlindo Stringhini",
        "zipcode": "92702-460"
    },
    {
        "city": "Guaíba",
        "state": "RS",
        "district": "Bom Fim",
        "street": "Rua Pedro Caldas",
        "zipcode": "92718-045"
    },
    {
        "city": "Guaíba",
        "state": "RS",
        "district": "Centro",
        "street": "Rua Professor Manoel Barbosa",
        "zipcode": "92704-740"
    },
    {
        "city": "Guaíba",
        "state": "RS",
        "district": "Bom Fim",
        "street": "Rua Palmares",
        "zipcode": "92718-815"
    },
    {
        "city": "Guaíba",
        "state": "RS",
        "district": "Jardim dos Lagos",
        "street": "Rua Ricardo Bandeira Bressani",
        "zipcode": "92714-425"
    },
    {
        "city": "Guaíba",
        "state": "RS",
        "district": "Santa Rita",
        "street": "Rua Quarenta e Oito (Cj Hab R C Gonçalves)",
        "zipcode": "92708-760"
    },
    {
        "city": "Guaíba",
        "state": "RS",
        "district": "Bom Fim",
        "street": "Rua Q (Lot Nova Guaíba)",
        "zipcode": "92718-280"
    },
    {
        "city": "Guaíba",
        "state": "RS",
        "district": "Parque 35",
        "street": "Rua Paulo de Souza Jardim",
        "zipcode": "92705-020"
    },
    {
        "city": "Guaíba",
        "state": "RS",
        "district": "Ermo",
        "street": "Rua Prefeito Nelson Cornetet",
        "zipcode": "92702-500"
    },
    {
        "city": "Guaíba",
        "state": "RS",
        "district": "Columbia City",
        "street": "Rua Professor Luis Carlos Jardim",
        "zipcode": "92717-475"
    },
    {
        "city": "Guaíba",
        "state": "RS",
        "district": "Colina",
        "street": "Rua Pedro Rosa",
        "zipcode": "92700-180"
    },
    {
        "city": "Guaíba",
        "state": "RS",
        "district": "Jardim dos Lagos",
        "street": "Rua Paulo Ruschel",
        "zipcode": "92714-635"
    },
    {
        "city": "Guaíba",
        "state": "RS",
        "district": "Bom Fim",
        "street": "Rua Osvaldo Rodrigues de Lemos",
        "zipcode": "92718-000"
    },
    {
        "city": "Guaíba",
        "state": "RS",
        "district": "Centro",
        "street": "Rua Oswaldo Poeta",
        "zipcode": "92704-670"
    },
    {
        "city": "Guaíba",
        "state": "RS",
        "district": "Santa Rita",
        "street": "Rua Sete (Lot Ipê)",
        "zipcode": "92707-560"
    },
    {
        "city": "Guaíba",
        "state": "RS",
        "district": "Santa Rita",
        "street": "Rua Sessenta e Oito (Cj Hab R C Gonçalves)",
        "zipcode": "92709-675"
    },
    {
        "city": "Guaíba",
        "state": "RS",
        "district": "Jardim dos Lagos",
        "street": "Rua Santa Maria",
        "zipcode": "92714-350"
    },
    {
        "city": "Guaíba",
        "state": "RS",
        "district": "Parque 35",
        "street": "Rua São Paulo",
        "zipcode": "92705-540"
    },
    {
        "city": "Guaíba",
        "state": "RS",
        "district": "Colina",
        "street": "Rua Salustiano Avelino Ribeiro",
        "zipcode": "92700-420"
    },
    {
        "city": "Guaíba",
        "state": "RS",
        "district": "Centro",
        "street": "Rua Santa Catarina",
        "zipcode": "92704-315"
    },
    {
        "city": "Guaíba",
        "state": "RS",
        "district": "Bom Fim",
        "street": "Rua Siá Alice",
        "zipcode": "92718-075"
    },
    {
        "city": "Guaíba",
        "state": "RS",
        "district": "Centro",
        "street": "Rua Siracusa",
        "zipcode": "92704-825"
    },
    {
        "city": "Guaíba",
        "state": "RS",
        "district": "Jardim dos Lagos",
        "street": "Rua Santa Clara",
        "zipcode": "92714-565"
    },
    {
        "city": "Guaíba",
        "state": "RS",
        "district": "Centro",
        "street": "Rua Santa Terezinha",
        "zipcode": "92704-390"
    },
    {
        "city": "Guaíba",
        "state": "RS",
        "district": "Ermo",
        "street": "Rua Rodolfo Zenker",
        "zipcode": "92702-300"
    },
    {
        "city": "Guaíba",
        "state": "RS",
        "district": "Florida",
        "street": "Rua Rui Barbosa",
        "zipcode": "92728-350"
    },
    {
        "city": "Guaíba",
        "state": "RS",
        "district": "Jardim dos Lagos",
        "street": "Rua Simões Lopes Neto",
        "zipcode": "92714-400"
    },
    {
        "city": "Guaíba",
        "state": "RS",
        "district": "Ermo",
        "street": "Rua São Geraldo",
        "zipcode": "92702-470"
    },
    {
        "city": "Guaíba",
        "state": "RS",
        "district": "Centro",
        "street": "Rua São José",
        "zipcode": "92704-380"
    },
    {
        "city": "Guaíba",
        "state": "RS",
        "district": "Colina",
        "street": "Rua Sérgio Luiz Coutinho Garcia",
        "zipcode": "92700-785"
    },
    {
        "city": "Guaíba",
        "state": "RS",
        "district": "Centro",
        "street": "Rua Salvador Jardim",
        "zipcode": "92704-690"
    },
    {
        "city": "Guaíba",
        "state": "RS",
        "district": "Colina",
        "street": "Rua Sérgio Luiz Coutinho Garcia",
        "zipcode": "92700-530"
    },
    {
        "city": "Guaíba",
        "state": "RS",
        "district": "Jardim dos Lagos",
        "street": "Rua Romualdo da Rosa Furtado",
        "zipcode": "92714-370"
    },
    {
        "city": "Guaíba",
        "state": "RS",
        "district": "Ermo",
        "street": "Rua São Geraldo",
        "zipcode": "92702-320"
    },
    {
        "city": "Guaíba",
        "state": "RS",
        "district": "Columbia City",
        "street": "Rua Seu Onga",
        "zipcode": "92717-440"
    },
    {
        "city": "Guaíba",
        "state": "RS",
        "district": "Parque 35",
        "street": "Rua Santa Catarina",
        "zipcode": "92705-510"
    },
    {
        "city": "Guaíba",
        "state": "RS",
        "district": "Columbia City",
        "street": "Rua São Jerônimo",
        "zipcode": "92717-450"
    },
    {
        "city": "Guaíba",
        "state": "RS",
        "district": "Coronel Nassuca",
        "street": "Rua Rio Grande do Norte",
        "zipcode": "92701-830"
    },
    {
        "city": "Guaíba",
        "state": "RS",
        "district": "Santa Rita",
        "street": "Rua Sessenta (Cj Hab R C Gonçalves)",
        "zipcode": "92709-680"
    },
    {
        "city": "Guaíba",
        "state": "RS",
        "district": "Colina",
        "street": "Rua Salustiano Avelino Ribeiro",
        "zipcode": "92700-250"
    },
    {
        "city": "Guaíba",
        "state": "RS",
        "district": "Jardim Iolanda",
        "street": "Rua São Judas Tadeu",
        "zipcode": "92726-310"
    },
    {
        "city": "Guaíba",
        "state": "RS",
        "district": "Centro",
        "street": "Rua Santa Catarina",
        "zipcode": "92704-345"
    },
    {
        "city": "Guaíba",
        "state": "RS",
        "district": "Bom Fim",
        "street": "Rua Seu Onofre",
        "zipcode": "92718-090"
    },
    {
        "city": "Guaíba",
        "state": "RS",
        "district": "Passo Fundo",
        "street": "Rua Serrinha",
        "zipcode": "92729-190"
    },
    {
        "city": "Guaíba",
        "state": "RS",
        "district": "Santa Rita",
        "street": "Rua Sessenta e Sete (Cj Hab R C Gonçalves)",
        "zipcode": "92709-670"
    },
    {
        "city": "Guaíba",
        "state": "RS",
        "district": "Pedras Brancas",
        "street": "Rua Sete",
        "zipcode": "92722-110"
    },
    {
        "city": "Guaíba",
        "state": "RS",
        "district": "Jardim dos Lagos",
        "street": "Rua Simões Lopes Neto",
        "zipcode": "92714-600"
    },
    {
        "city": "Guaíba",
        "state": "RS",
        "district": "Centro",
        "street": "Rua Rodolfo Zenker",
        "zipcode": "92704-100"
    },
    {
        "city": "Guaíba",
        "state": "RS",
        "district": "Jardim dos Lagos",
        "street": "Rua Santa Maria",
        "zipcode": "92714-150"
    },
    {
        "city": "Guaíba",
        "state": "RS",
        "district": "Santa Rita",
        "street": "Rua Sessenta e Seis (Cj Hab R C Gonçalves)",
        "zipcode": "92709-660"
    },
    {
        "city": "Guaíba",
        "state": "RS",
        "district": "Jardim Iolanda",
        "street": "Rua Santo Onofre",
        "zipcode": "92726-500"
    },
    {
        "city": "Guaíba",
        "state": "RS",
        "district": "Alvorada",
        "street": "Rua São Geraldo",
        "zipcode": "92703-810"
    },
    {
        "city": "Guaíba",
        "state": "RS",
        "district": "Centro",
        "street": "Rua São José",
        "zipcode": "92704-555"
    },
    {
        "city": "Guaíba",
        "state": "RS",
        "district": "Parque 35",
        "street": "Rua Sergipe",
        "zipcode": "92705-740"
    },
    {
        "city": "Guaíba",
        "state": "RS",
        "district": "Bom Fim",
        "street": "Rua Soledade",
        "zipcode": "92718-835"
    },
    {
        "city": "Guaíba",
        "state": "RS",
        "district": "Jardim dos Lagos",
        "street": "Rua Santa Fé",
        "zipcode": "92714-500"
    },
    {
        "city": "Guaíba",
        "state": "RS",
        "district": "Jardim Iolanda",
        "street": "Rua Seis",
        "zipcode": "92726-330"
    },
    {
        "city": "Guaíba",
        "state": "RS",
        "district": "Centro",
        "street": "Rua Rondônia",
        "zipcode": "92704-375"
    },
    {
        "city": "Guaíba",
        "state": "RS",
        "district": "Ermo",
        "street": "Rua Santana",
        "zipcode": "92702-040"
    },
    {
        "city": "Guaíba",
        "state": "RS",
        "district": "Alegria",
        "street": "Rua Rui Barbosa",
        "zipcode": "92727-060"
    },
    {
        "city": "Guaíba",
        "state": "RS",
        "district": "Bom Fim",
        "street": "Rua São Lourenço",
        "zipcode": "92718-840"
    },
    {
        "city": "Guaíba",
        "state": "RS",
        "district": "Passo Fundo",
        "street": "Rua Terra Dura",
        "zipcode": "92729-150"
    },
    {
        "city": "Guaíba",
        "state": "RS",
        "district": "Santa Rita",
        "street": "Rua Teresina",
        "zipcode": "92708-040"
    },
    {
        "city": "Guaíba",
        "state": "RS",
        "district": "Pedras Brancas",
        "street": "Rua Seis",
        "zipcode": "92722-130"
    },
    {
        "city": "Guaíba",
        "state": "RS",
        "district": "Santa Rita",
        "street": "Rua Sessenta e Três (Cj Hab R C Gonçalves)",
        "zipcode": "92709-640"
    },
    {
        "city": "Guaíba",
        "state": "RS",
        "district": "Santa Rita",
        "street": "Rua Sessenta e Quatro (Cj Hab R C Gonçalves)",
        "zipcode": "92709-650"
    },
    {
        "city": "Guaíba",
        "state": "RS",
        "district": "Jardim dos Lagos",
        "street": "Rua Santa Maria",
        "zipcode": "92714-585"
    },
    {
        "city": "Guaíba",
        "state": "RS",
        "district": "Passo Fundo",
        "street": "Rua Sara Monte Verde",
        "zipcode": "92729-230"
    },
    {
        "city": "Guaíba",
        "state": "RS",
        "district": "Centro",
        "street": "Rua Santa Catarina",
        "zipcode": "92704-320"
    },
    {
        "city": "Guaíba",
        "state": "RS",
        "district": "Centro",
        "street": "Rua São Paulo",
        "zipcode": "92704-305"
    },
    {
        "city": "Guaíba",
        "state": "RS",
        "district": "Ermo",
        "street": "Rua São Geraldo",
        "zipcode": "92702-760"
    },
    {
        "city": "Guaíba",
        "state": "RS",
        "district": "Colina",
        "street": "Rua Ruy Souza SantAnna",
        "zipcode": "92700-220"
    },
    {
        "city": "Guaíba",
        "state": "RS",
        "district": "Santa Rita",
        "street": "Rua Três (Lot Ipê)",
        "zipcode": "92707-500"
    },
    {
        "city": "Guaíba",
        "state": "RS",
        "district": "Florida",
        "street": "Rua Um (Lot Neiwa)",
        "zipcode": "92728-150"
    },
    {
        "city": "Guaíba",
        "state": "RS",
        "district": "Jardim dos Lagos",
        "street": "Rua Waldomiro Boneberg",
        "zipcode": "92714-360"
    },
    {
        "city": "Guaíba",
        "state": "RS",
        "district": "Jardim dos Lagos",
        "street": "Rua Tatiana Kaminski Raab",
        "zipcode": "92714-540"
    },
    {
        "city": "Guaíba",
        "state": "RS",
        "district": "Passo Fundo",
        "street": "Rua Tóquio",
        "zipcode": "92729-250"
    },
    {
        "city": "Guaíba",
        "state": "RS",
        "district": "Santa Rita",
        "street": "Rua Vitória",
        "zipcode": "92708-035"
    },
    {
        "city": "Guaíba",
        "state": "RS",
        "district": "Centro",
        "street": "Rua Vinte de Setembro",
        "zipcode": "92704-355"
    },
    {
        "city": "Guaíba",
        "state": "RS",
        "district": "Ermo",
        "street": "Rua Walter Jobim",
        "zipcode": "92702-810"
    },
    {
        "city": "Guaíba",
        "state": "RS",
        "district": "Bom Fim",
        "street": "Rua Três (Lot Vera Cruz)",
        "zipcode": "92718-590"
    },
    {
        "city": "Guaíba",
        "state": "RS",
        "district": "Bom Fim",
        "street": "Travessa C (Lot Nova Guaíba)",
        "zipcode": "92718-510"
    },
    {
        "city": "Guaíba",
        "state": "RS",
        "district": "Colina",
        "street": "Rua X",
        "zipcode": "92700-630"
    },
    {
        "city": "Guaíba",
        "state": "RS",
        "district": "Pedras Brancas",
        "street": "Rua Vinte e Um",
        "zipcode": "92722-160"
    },
    {
        "city": "Guaíba",
        "state": "RS",
        "district": "Santa Rita",
        "street": "Travessa A",
        "zipcode": "92707-340"
    },
    {
        "city": "Guaíba",
        "state": "RS",
        "district": "Alegria",
        "street": "Rua Vitório CasaGrande",
        "zipcode": "92727-350"
    },
    {
        "city": "Guaíba",
        "state": "RS",
        "district": "Columbia City",
        "street": "Rua Triunfo",
        "zipcode": "92717-445"
    },
    {
        "city": "Guaíba",
        "state": "RS",
        "district": "Colina",
        "street": "Rua X",
        "zipcode": "92700-635"
    },
    {
        "city": "Guaíba",
        "state": "RS",
        "district": "Altos da Alegria",
        "street": "Rua Walter Jobim",
        "zipcode": "92725-700"
    },
    {
        "city": "Guaíba",
        "state": "RS",
        "district": "Bom Fim",
        "street": "Rua Um (Lot Vera Cruz)",
        "zipcode": "92718-570"
    },
    {
        "city": "Guaíba",
        "state": "RS",
        "district": "Colina",
        "street": "Rua Telmo Silva",
        "zipcode": "92700-105"
    },
    {
        "city": "Guaíba",
        "state": "RS",
        "district": "Bom Fim",
        "street": "Rua Tio Inica",
        "zipcode": "92718-050"
    },
    {
        "city": "Guaíba",
        "state": "RS",
        "district": "Pedras Brancas",
        "street": "Rua Vinte",
        "zipcode": "92722-170"
    },
    {
        "city": "Guaíba",
        "state": "RS",
        "district": "Pedras Brancas",
        "street": "Rua Treze",
        "zipcode": "92722-360"
    },
    {
        "city": "Guaíba",
        "state": "RS",
        "district": "Parque 35",
        "street": "Rua Tocantins",
        "zipcode": "92706-040"
    },
    {
        "city": "Guaíba",
        "state": "RS",
        "district": "Colina",
        "street": "Rua X",
        "zipcode": "92700-605"
    },
    {
        "city": "Guaíba",
        "state": "RS",
        "district": "Colina",
        "street": "Rua Vereador Leone da Cunha",
        "zipcode": "92700-600"
    },
    {
        "city": "Guaíba",
        "state": "RS",
        "district": "Bom Fim",
        "street": "Rua Três (Lot Nova Guaíba)",
        "zipcode": "92718-520"
    },
    {
        "city": "Guaíba",
        "state": "RS",
        "district": "Jardim dos Lagos",
        "street": "Rua Tio Bilia",
        "zipcode": "92714-650"
    },
    {
        "city": "Guaíba",
        "state": "RS",
        "district": "Colina",
        "street": "Rua Waltornilo Hagel Maciel",
        "zipcode": "92700-110"
    },
    {
        "city": "Guaíba",
        "state": "RS",
        "district": "Jardim Iolanda",
        "street": "Rua Waldomiro Rodrigues",
        "zipcode": "92726-120"
    },
    {
        "city": "Guaíba",
        "state": "RS",
        "district": "Bom Fim",
        "street": "Rua Tramandaí",
        "zipcode": "92718-800"
    },
    {
        "city": "Guaíba",
        "state": "RS",
        "district": "Santa Rita",
        "street": "Rua Ulisses de Souza Marçal",
        "zipcode": "92708-855"
    },
    {
        "city": "Guaíba",
        "state": "RS",
        "district": "Bom Fim",
        "street": "Rua Tio Nico",
        "zipcode": "92718-015"
    },
    {
        "city": "Guaíba",
        "state": "RS",
        "district": "Centro",
        "street": "Rua Victor Scalco",
        "zipcode": "92704-830"
    },
    {
        "city": "Guaíba",
        "state": "RS",
        "district": "Centro",
        "street": "Rua Vinte de Setembro",
        "zipcode": "92704-630"
    },
    {
        "city": "Guaíba",
        "state": "RS",
        "district": "Centro",
        "street": "Rua Venâncio Varella",
        "zipcode": "92704-015"
    },
    {
        "city": "Guaíba",
        "state": "RS",
        "district": "Pedras Brancas",
        "street": "Rua Trinta",
        "zipcode": "92722-500"
    },
    {
        "city": "Guaíba",
        "state": "RS",
        "district": "Bom Fim",
        "street": "Rua Vereador Augusto da Costa Oliveira",
        "zipcode": "92718-010"
    },
    {
        "city": "Guaíba",
        "state": "RS",
        "district": "Bom Fim",
        "street": "Rua Um (Lot Nova Guaíba)",
        "zipcode": "92718-515"
    },
    {
        "city": "Guaíba",
        "state": "RS",
        "district": "Pedras Brancas",
        "street": "Rua Três",
        "zipcode": "92722-020"
    },
    {
        "city": "Guaíba",
        "state": "RS",
        "district": "Bom Fim",
        "street": "Rua Zé Toureiro",
        "zipcode": "92718-020"
    },
    {
        "city": "Guaíba",
        "state": "RS",
        "district": "Centro",
        "street": "Rua Vinte de Setembro",
        "zipcode": "92704-360"
    },
    {
        "city": "Guaíba",
        "state": "RS",
        "district": "Santa Rita",
        "street": "Rua Wenceslau Fontoura",
        "zipcode": "92708-030"
    },
    {
        "city": "Guaíba",
        "state": "RS",
        "district": "Bom Fim",
        "street": "Travessa E (Lot Nova Guaíba)",
        "zipcode": "92718-295"
    },
    {
        "city": "Guaíba",
        "state": "RS",
        "district": "Colina",
        "street": "Rua X",
        "zipcode": "92700-585"
    },
    {
        "city": "Guaíba",
        "state": "RS",
        "district": "Colina",
        "street": "Rua Waldomiro Feijó",
        "zipcode": "92700-135"
    },
    {
        "city": "Guaíba",
        "state": "RS",
        "district": "Bom Fim",
        "street": "Travessa Cinco (Lot Nova Guaíba)",
        "zipcode": "92718-550"
    },
    {
        "city": "Guaíba",
        "state": "RS",
        "district": "Coronel Nassuca",
        "street": "Travessa da Ladeira",
        "zipcode": "92701-850"
    },
    {
        "city": "Guaíba",
        "state": "RS",
        "district": "Pedras Brancas",
        "street": "Rua Um",
        "zipcode": "92722-140"
    },
    {
        "city": "Guaíba",
        "state": "RS",
        "district": "Pedras Brancas",
        "street": "Rua Vinte e Três",
        "zipcode": "92722-300"
    },
    {
        "city": "Guaíba",
        "state": "RS",
        "district": "Bom Fim",
        "street": "Travessa B (Lot Nova Guaíba)",
        "zipcode": "92718-825"
    },
    {
        "city": "Guaíba",
        "state": "RS",
        "district": "Colina",
        "street": "Rua Y",
        "zipcode": "92700-800"
    },
    {
        "city": "Guaíba",
        "state": "RS",
        "district": "Santa Rita",
        "street": "Travessa da Antena",
        "zipcode": "92707-580"
    },
    {
        "city": "Guaíba",
        "state": "RS",
        "district": "Bom Fim",
        "street": "Rua Tio Cristo",
        "zipcode": "92718-035"
    },
    {
        "city": "Guaíba",
        "state": "RS",
        "district": "Centro",
        "street": "Rua Vinte de Setembro",
        "zipcode": "92704-695"
    },
    {
        "city": "Guaíba",
        "state": "RS",
        "district": "Colina",
        "street": "Rua X",
        "zipcode": "92700-590"
    },
    {
        "city": "Guaíba",
        "state": "RS",
        "district": "Coronel Nassuca",
        "street": "Rua Trinta e Um de Março",
        "zipcode": "92701-270"
    },
    {
        "city": "Guaíba",
        "state": "RS",
        "district": "Coronel Nassuca",
        "street": "Rua Waldomiro Worm",
        "zipcode": "92701-840"
    },
    {
        "city": "Guaíba",
        "state": "RS",
        "district": "Bom Fim",
        "street": "Travessa Três (Lot Nova Guaíba)",
        "zipcode": "92718-565"
    },
    {
        "city": "Guaíba",
        "state": "RS",
        "district": "Ermo",
        "street": "Travessa Inácio de Quadros",
        "zipcode": "92702-020"
    },
    {
        "city": "Guaíba",
        "state": "RS",
        "district": "Passo Fundo",
        "street": "Travessa Petim",
        "zipcode": "92729-180"
    },
    {
        "city": "Guaíba",
        "state": "RS",
        "district": "Ermo",
        "street": "Travessa Xavier",
        "zipcode": "92702-400"
    },
    {
        "city": "Guaíba",
        "state": "RS",
        "district": "Santa Rita",
        "street": "Travessa Um (Lot Ipê)",
        "zipcode": "92707-310"
    },
    {
        "city": "Guaíba",
        "state": "RS",
        "district": "Bom Fim",
        "street": "Travessa Oito (Lot Nova Guaíba)",
        "zipcode": "92718-210"
    },
    {
        "city": "Guaíba",
        "state": "RS",
        "district": "Centro",
        "street": "Travessa Pedras Brancas",
        "zipcode": "92704-200"
    },
    {
        "city": "Guaíba",
        "state": "RS",
        "district": "Santa Rita",
        "street": "Travessa Mato Alto",
        "zipcode": "92707-570"
    },
    {
        "city": "Guaíba",
        "state": "RS",
        "district": "Santa Rita",
        "street": "Travessa M",
        "zipcode": "92709-690"
    },
    {
        "city": "Guaíba",
        "state": "RS",
        "district": "Bom Fim",
        "street": "Travessa Sete (Lot Nova Guaíba)",
        "zipcode": "92718-540"
    },
    {
        "city": "Guaíba",
        "state": "RS",
        "district": "Ermo",
        "street": "Travessa Waldomiro Worm",
        "zipcode": "92702-050"
    },
    {
        "city": "Guaíba",
        "state": "RS",
        "district": "Passo Fundo",
        "street": "Travessa Um (Lot Bom Retiro)",
        "zipcode": "92729-700"
    },
    {
        "city": "Guaíba",
        "state": "RS",
        "district": "Florida",
        "street": "Travessa Francisco Manoel",
        "zipcode": "92728-180"
    },
    {
        "city": "Guaíba",
        "state": "RS",
        "district": "Alegria",
        "street": "Travessa Primavera",
        "zipcode": "92727-070"
    },
    {
        "city": "Guaíba",
        "state": "RS",
        "district": "Colina",
        "street": "Travessa Nova Esperança",
        "zipcode": "92700-520"
    },
    {
        "city": "Guaíba",
        "state": "RS",
        "district": "Ermo",
        "street": "Travessa Dona Gertrudes",
        "zipcode": "92702-110"
    },
    {
        "city": "Guaíba",
        "state": "RS",
        "district": "Bom Fim",
        "street": "Travessa Seis (Lot Nova Guaíba)",
        "zipcode": "92718-545"
    },
    {
        "city": "Guaíba",
        "state": "RS",
        "district": "Bom Fim",
        "street": "Travessa G (Lot Nova Guaíba)",
        "zipcode": "92718-245"
    },
    {
        "city": "Guaíba",
        "state": "RS",
        "district": "Santa Rita",
        "street": "Travessa Pinheiros",
        "zipcode": "92709-000"
    },
    {
        "city": "Guaíba",
        "state": "RS",
        "district": "Bom Fim",
        "street": "Travessa F (Lot Nova Guaíba)",
        "zipcode": "92718-290"
    },
    {
        "city": "Guaíba",
        "state": "RS",
        "district": "Bom Fim",
        "street": "Travessa Três (Lot Vera Cruz)",
        "zipcode": "92718-700"
    },
    {
        "city": "Guaíba",
        "state": "RS",
        "district": "Centro",
        "street": "Travessa José Stortti",
        "zipcode": "92704-335"
    },
    {
        "city": "Guaíba",
        "state": "RS",
        "district": "Ermo",
        "street": "Travessa João Roque",
        "zipcode": "92702-060"
    },
    {
        "city": "Guaíba",
        "state": "RS",
        "district": "Colina",
        "street": "Avenida Lourival Luiz da Cunha",
        "zipcode": "92700-240"
    },
    {
        "city": "Guaíba",
        "state": "RS",
        "district": "Chaves Barcellos",
        "street": "Avenida Doutor Nei Brito",
        "zipcode": "92710-500"
    },
    {
        "city": "Guaíba",
        "state": "RS",
        "district": "Centro",
        "street": "Avenida Comendador Ismael Chaves Barcellos",
        "zipcode": "92704-720"
    },
    {
        "city": "Guaíba",
        "state": "RS",
        "district": "Colina",
        "street": "Avenida Luiz Antônio Rodrigues da Luz",
        "zipcode": "92700-575"
    },
    {
        "city": "Guaíba",
        "state": "RS",
        "district": "Florida",
        "street": "Acesso Quatro (R João N Fontoura)",
        "zipcode": "92728-070"
    },
    {
        "city": "Guaíba",
        "state": "RS",
        "district": "Alegria",
        "street": "Avenida General Flores da Cunha",
        "zipcode": "92727-380"
    },
    {
        "city": "Guaíba",
        "state": "RS",
        "district": "Centro",
        "street": "Avenida Beira Rio",
        "zipcode": "92704-820"
    },
    {
        "city": "Guaíba",
        "state": "RS",
        "district": "Ermo",
        "street": "Avenida Marechal Castelo Branco",
        "zipcode": "92702-840"
    },
    {
        "city": "Guaíba",
        "state": "RS",
        "district": "Florida",
        "street": "Avenida Assis Brasil",
        "zipcode": "92728-010"
    },
    {
        "city": "Guaíba",
        "state": "RS",
        "district": "Bom Fim",
        "street": "Avenida João Salazar",
        "zipcode": "92718-105"
    },
    {
        "city": "Guaíba",
        "state": "RS",
        "district": "Chaves Barcellos",
        "street": "Avenida Doutor Nei Brito",
        "zipcode": "92710-800"
    },
    {
        "city": "Guaíba",
        "state": "RS",
        "district": "Ermo",
        "street": "Avenida Doutor Aldo Sani",
        "zipcode": "92702-780"
    },
    {
        "city": "Guaíba",
        "state": "RS",
        "district": "Alegria",
        "street": "Avenida Ministro Francisco Brochado da Rocha",
        "zipcode": "92727-050"
    },
    {
        "city": "Guaíba",
        "state": "RS",
        "district": "Alegria",
        "street": "Avenida Gutemberg",
        "zipcode": "92727-030"
    },
    {
        "city": "Guaíba",
        "state": "RS",
        "district": "Colina",
        "street": "Avenida Marechal Castelo Branco",
        "zipcode": "92700-805"
    },
    {
        "city": "Guaíba",
        "state": "RS",
        "district": "Centro",
        "street": "Rua Adão de Fraga",
        "zipcode": "92704-835"
    },
    {
        "city": "Guaíba",
        "state": "RS",
        "district": "Santa Rita",
        "street": "Bloco 253 (Cj Hab R C Gonçalves)",
        "zipcode": "92708-685"
    },
    {
        "city": "Guaíba",
        "state": "RS",
        "district": "Santa Rita",
        "street": "Bloco 211 (Cj Hab R C Gonçalves)",
        "zipcode": "92709-040"
    },
    {
        "city": "Guaíba",
        "state": "RS",
        "district": "Centro",
        "street": "Rua Aladim de Araújo Pinto",
        "zipcode": "92704-505"
    },
    {
        "city": "Guaíba",
        "state": "RS",
        "district": "Santa Rita",
        "street": "Bloco 233 (Cj Hab R C Gonçalves)",
        "zipcode": "92709-210"
    },
    {
        "city": "Guaíba",
        "state": "RS",
        "district": "Santa Rita",
        "street": "Bloco 397 (Cj Hab R C Gonçalves)",
        "zipcode": "92708-705"
    },
    {
        "city": "Guaíba",
        "state": "RS",
        "district": "Santa Rita",
        "street": "Bloco 293 (Cj Hab R C Gonçalves)",
        "zipcode": "92708-585"
    },
    {
        "city": "Guaíba",
        "state": "RS",
        "district": "Bom Fim",
        "street": "Avenida Zeferino da Boa Vista",
        "zipcode": "92718-030"
    },
    {
        "city": "Guaíba",
        "state": "RS",
        "district": "Jardim dos Lagos",
        "street": "Rodovia BR",
        "zipcode": "92714-000"
    },
    {
        "city": "Guaíba",
        "state": "RS",
        "district": "Santa Rita",
        "street": "Bloco 69 (Cj Hab R C Gonçalves)",
        "zipcode": "92709-485"
    },
    {
        "city": "Guaíba",
        "state": "RS",
        "district": "Pedras Brancas",
        "street": "Estrada D",
        "zipcode": "92722-520"
    },
    {
        "city": "Guaíba",
        "state": "RS",
        "district": "Santa Rita",
        "street": "Bloco 191 (Cj Hab R C Gonçalves)",
        "zipcode": "92709-090"
    },
    {
        "city": "Guaíba",
        "state": "RS",
        "district": "Coronel Nassuca",
        "street": "Avenida Nestor de Moura Jardim",
        "zipcode": "92701-230"
    },
    {
        "city": "Guaíba",
        "state": "RS",
        "district": "Santa Rita",
        "street": "Bloco 129 (Cj Hab R C Gonçalves)",
        "zipcode": "92709-275"
    },
    {
        "city": "Guaíba",
        "state": "RS",
        "district": "Pedras Brancas",
        "street": "Estrada José Carlos Ferreira",
        "zipcode": "92722-120"
    },
    {
        "city": "Guaíba",
        "state": "RS",
        "district": "Santa Rita",
        "street": "Bloco 165 (Cj Hab R C Gonçalves)",
        "zipcode": "92709-120"
    },
    {
        "city": "Guaíba",
        "state": "RS",
        "district": "Santa Rita",
        "street": "Bloco 283 (Cj Hab R C Gonçalves)",
        "zipcode": "92708-615"
    },
    {
        "city": "Guaíba",
        "state": "RS",
        "district": "Santa Rita",
        "street": "Bloco 377 (Cj Hab R C Gonçalves)",
        "zipcode": "92708-555"
    },
    {
        "city": "Guaíba",
        "state": "RS",
        "district": "Ermo",
        "street": "Avenida Vereador Breno Guimarães",
        "zipcode": "92702-120"
    },
    {
        "city": "Guaíba",
        "state": "RS",
        "district": "Santa Rita",
        "street": "Bloco 337 (Cj Hab R C Gonçalves)",
        "zipcode": "92708-450"
    },
    {
        "city": "Guaíba",
        "state": "RS",
        "district": "Santa Rita",
        "street": "Bloco 199 (Cj Hab R C Gonçalves)",
        "zipcode": "92709-080"
    },
    {
        "city": "Guaíba",
        "state": "RS",
        "district": "Colina",
        "street": "Avenida Vasco Alves Pereira",
        "zipcode": "92700-060"
    },
    {
        "city": "Guaíba",
        "state": "RS",
        "district": "Santa Rita",
        "street": "Bloco 137 (Cj Hab R C Gonçalves)",
        "zipcode": "92709-285"
    },
    {
        "city": "Guaíba",
        "state": "RS",
        "district": "Santa Rita",
        "street": "Bloco 321 (Cj Hab R C Gonçalves)",
        "zipcode": "92708-495"
    },
    {
        "city": "Guaíba",
        "state": "RS",
        "district": "Santa Rita",
        "street": "Bloco 243 (Cj Hab R C Gonçalves)",
        "zipcode": "92709-005"
    },
    {
        "city": "Guaíba",
        "state": "RS",
        "district": "Columbia City",
        "street": "Avenida Osvaldo Linck",
        "zipcode": "92717-465"
    },
    {
        "city": "Guaíba",
        "state": "RS",
        "district": "Santa Rita",
        "street": "Bloco 387 (Cj Hab R C Gonçalves)",
        "zipcode": "92708-410"
    },
    {
        "city": "Guaíba",
        "state": "RS",
        "district": "Santa Rita",
        "street": "Bloco 147 (Cj Hab R C Gonçalves)",
        "zipcode": "92709-240"
    },
    {
        "city": "Guaíba",
        "state": "RS",
        "district": "Santa Rita",
        "street": "Bloco 311 (Cj Hab R C Gonçalves)",
        "zipcode": "92708-540"
    },
    {
        "city": "Guaíba",
        "state": "RS",
        "district": "Bom Fim",
        "street": "Rodovia BR",
        "zipcode": "92718-065"
    },
    {
        "city": "Guaíba",
        "state": "RS",
        "district": "Santa Rita",
        "street": "Bloco 155 (Cj Hab R C Gonçalves)",
        "zipcode": "92709-220"
    },
    {
        "city": "Guaíba",
        "state": "RS",
        "district": "Santa Rita",
        "street": "Bloco 11 (Cj Hab R C Gonçalves)",
        "zipcode": "92709-300"
    },
    {
        "city": "Guaíba",
        "state": "RS",
        "district": "Santa Rita",
        "street": "Bloco 119 (Cj Hab R C Gonçalves)",
        "zipcode": "92709-390"
    },
    {
        "city": "Guaíba",
        "state": "RS",
        "district": "Santa Rita",
        "street": "Bloco 303 (Cj Hab R C Gonçalves)",
        "zipcode": "92708-560"
    },
    {
        "city": "Guaíba",
        "state": "RS",
        "district": "Passo Fundo",
        "street": "Estrada Geral Guaíba Barra do Ribeiro",
        "zipcode": "92729-400"
    },
    {
        "city": "Guaíba",
        "state": "RS",
        "district": "Santa Rita",
        "street": "Bloco 357 (Cj Hab R C Gonçalves)",
        "zipcode": "92708-390"
    },
    {
        "city": "Guaíba",
        "state": "RS",
        "district": "Coronel Nassuca",
        "street": "Rua Alceste Angelo Bringhenti",
        "zipcode": "92701-250"
    },
    {
        "city": "Guaíba",
        "state": "RS",
        "district": "Santa Rita",
        "street": "Bloco 273 (Cj Hab R C Gonçalves)",
        "zipcode": "92708-635"
    },
    {
        "city": "Guaíba",
        "state": "RS",
        "district": "Jardim dos Lagos",
        "street": "Avenida Ponche Verde",
        "zipcode": "92714-645"
    },
    {
        "city": "Guaíba",
        "state": "RS",
        "district": "Santa Rita",
        "street": "Bloco 367 (Cj Hab R C Gonçalves)",
        "zipcode": "92708-350"
    },
    {
        "city": "Guaíba",
        "state": "RS",
        "district": "Florida",
        "street": "Rua Adão Foques",
        "zipcode": "92728-160"
    },
    {
        "city": "Guaíba",
        "state": "RS",
        "district": "Santa Rita",
        "street": "Bloco 203 (Cj Hab R C Gonçalves)",
        "zipcode": "92709-055"
    },
    {
        "city": "Guaíba",
        "state": "RS",
        "district": "Centro",
        "street": "Avenida Sete de Setembro",
        "zipcode": "92704-515"
    },
    {
        "city": "Guaíba",
        "state": "RS",
        "district": "Santa Rita",
        "street": "Bloco 101 (Cj Hab R C Gonçalves)",
        "zipcode": "92709-320"
    },
    {
        "city": "Guaíba",
        "state": "RS",
        "district": "Santa Rita",
        "street": "Bloco 347 (Cj Hab R C Gonçalves)",
        "zipcode": "92708-430"
    },
    {
        "city": "Guaíba",
        "state": "RS",
        "district": "Santa Rita",
        "street": "Bloco 93 (Cj Hab R C Gonçalves)",
        "zipcode": "92709-425"
    },
    {
        "city": "Guaíba",
        "state": "RS",
        "district": "Santa Rita",
        "street": "Bloco 01 (Cj Hab R C Gonçalves)",
        "zipcode": "92709-620"
    },
    {
        "city": "Guaíba",
        "state": "RS",
        "district": "Santa Rita",
        "street": "Bloco 335 (Cj Hab R C Gonçalves)",
        "zipcode": "92708-465"
    },
    {
        "city": "Guaíba",
        "state": "RS",
        "district": "Chaves Barcellos",
        "street": "Rodovia BR",
        "zipcode": "92710-250"
    },
    {
        "city": "Guaíba",
        "state": "RS",
        "district": "Santa Rita",
        "street": "Bloco 33 (Cj Hab R C Gonçalves)",
        "zipcode": "92709-610"
    },
    {
        "city": "Guaíba",
        "state": "RS",
        "district": "Santa Rita",
        "street": "Bloco 79 (Cj Hab R C Gonçalves)",
        "zipcode": "92709-440"
    },
    {
        "city": "Guaíba",
        "state": "RS",
        "district": "Santa Rita",
        "street": "Bloco 263 (Cj Hab R C Gonçalves)",
        "zipcode": "92708-680"
    },
    {
        "city": "Guaíba",
        "state": "RS",
        "district": "Santa Rita",
        "street": "Bloco 173 (Cj Hab R C Gonçalves)",
        "zipcode": "92709-140"
    },
    {
        "city": "Guaíba",
        "state": "RS",
        "district": "Ermo",
        "street": "Rua B (Lot Jd Panorama)",
        "zipcode": "92702-680"
    },
    {
        "city": "Guaíba",
        "state": "RS",
        "district": "Bom Fim",
        "street": "Rua C (Lot Nova Guaíba)",
        "zipcode": "92718-830"
    },
    {
        "city": "Guaíba",
        "state": "RS",
        "district": "Santa Rita",
        "street": "Rua Cinco (Lot Ipê)",
        "zipcode": "92707-520"
    },
    {
        "city": "Guaíba",
        "state": "RS",
        "district": "Colina",
        "street": "Rua J (N Sra Fátima)",
        "zipcode": "92700-085"
    },
    {
        "city": "Guaíba",
        "state": "RS",
        "district": "Bom Fim",
        "street": "Rua do Gaúcho",
        "zipcode": "92718-200"
    },
    {
        "city": "Guaíba",
        "state": "RS",
        "district": "Santa Rita",
        "street": "Rua Cinquenta e Um (Cj Hab R C Gonçalves)",
        "zipcode": "92708-790"
    },
    {
        "city": "Guaíba",
        "state": "RS",
        "district": "Colina",
        "street": "Rua Argemiro Dornelles",
        "zipcode": "92700-125"
    },
    {
        "city": "Guaíba",
        "state": "RS",
        "district": "Jardim Iolanda",
        "street": "Rua Edecarlício da Silveira",
        "zipcode": "92726-300"
    },
    {
        "city": "Guaíba",
        "state": "RS",
        "district": "Jardim dos Lagos",
        "street": "Rua Fernandes Teixeira",
        "zipcode": "92714-380"
    },
    {
        "city": "Guaíba",
        "state": "RS",
        "district": "Passo Fundo",
        "street": "Rua das Rosas",
        "zipcode": "92729-020"
    },
    {
        "city": "Guaíba",
        "state": "RS",
        "district": "Ermo",
        "street": "Rua Joaquim de Almeida Lopes",
        "zipcode": "92702-410"
    },
    {
        "city": "Guaíba",
        "state": "RS",
        "district": "Ermo",
        "street": "Rua Fermino de Araújo Pinto",
        "zipcode": "92702-740"
    },
    {
        "city": "Guaíba",
        "state": "RS",
        "district": "Altos da Alegria",
        "street": "Rua Guajuvira",
        "zipcode": "92725-780"
    },
    {
        "city": "Guaíba",
        "state": "RS",
        "district": "Pedras Brancas",
        "street": "Rua Doze",
        "zipcode": "92722-350"
    },
    {
        "city": "Guaíba",
        "state": "RS",
        "district": "Pedras Brancas",
        "street": "Rua Dez",
        "zipcode": "92722-330"
    },
    {
        "city": "Guaíba",
        "state": "RS",
        "district": "Ermo",
        "street": "Rua Gastão Leão",
        "zipcode": "92702-750"
    },
    {
        "city": "Guaíba",
        "state": "RS",
        "district": "Santa Rita",
        "street": "Rua Hélio Ifran Pires",
        "zipcode": "92708-050"
    },
    {
        "city": "Guaíba",
        "state": "RS",
        "district": "Colina",
        "street": "Rua Doutor Antenor Caldas",
        "zipcode": "92700-410"
    },
    {
        "city": "Guaíba",
        "state": "RS",
        "district": "Colina",
        "street": "Rua João Poeta",
        "zipcode": "92700-020"
    },
    {
        "city": "Guaíba",
        "state": "RS",
        "district": "Colina",
        "street": "Rua de Acesso à Rótula",
        "zipcode": "92700-015"
    },
    {
        "city": "Guaíba",
        "state": "RS",
        "district": "Centro",
        "street": "Rua Bahia",
        "zipcode": "92704-325"
    },
    {
        "city": "Guaíba",
        "state": "RS",
        "district": "Jardim Iolanda",
        "street": "Rua Anchieta",
        "zipcode": "92726-020"
    },
    {
        "city": "Guaíba",
        "state": "RS",
        "district": "Jardim dos Lagos",
        "street": "Rua Bibiana",
        "zipcode": "92714-475"
    },
    {
        "city": "Guaíba",
        "state": "RS",
        "district": "Centro",
        "street": "Rua Artilino Antonio da Silva",
        "zipcode": "92704-495"
    },
    {
        "city": "Guaíba",
        "state": "RS",
        "district": "Coronel Nassuca",
        "street": "Rua Alvaro José Machado",
        "zipcode": "92701-240"
    },
    {
        "city": "Guaíba",
        "state": "RS",
        "district": "Ermo",
        "street": "Rua G (Lot Jd Panorama)",
        "zipcode": "92702-710"
    },
    {
        "city": "Guaíba",
        "state": "RS",
        "district": "Passo Fundo",
        "street": "Rua das Violetas",
        "zipcode": "92729-080"
    },
    {
        "city": "Guaíba",
        "state": "RS",
        "district": "Coronel Nassuca",
        "street": "Rua Farrapos",
        "zipcode": "92701-790"
    },
    {
        "city": "Guaíba",
        "state": "RS",
        "district": "Jardim Iolanda",
        "street": "Rua Dona Alaídes Larré Pereira",
        "zipcode": "92726-030"
    },
    {
        "city": "Guaíba",
        "state": "RS",
        "district": "Bom Fim",
        "street": "Rua Carazinho",
        "zipcode": "92718-855"
    },
    {
        "city": "Guaíba",
        "state": "RS",
        "district": "Ermo",
        "street": "Rua Coronel Inácio de Quadros",
        "zipcode": "92702-520"
    },
    {
        "city": "Guaíba",
        "state": "RS",
        "district": "Santa Rita",
        "street": "Rua Cinquenta e Dois (Cj Hab R C Gonçalves)",
        "zipcode": "92708-795"
    },
    {
        "city": "Guaíba",
        "state": "RS",
        "district": "Ermo",
        "street": "Rua Evaristo Lopes",
        "zipcode": "92702-790"
    },
    {
        "city": "Guaíba",
        "state": "RS",
        "district": "Altos da Alegria",
        "street": "Rua Cedro",
        "zipcode": "92725-750"
    },
    {
        "city": "Guaíba",
        "state": "RS",
        "district": "Centro",
        "street": "Rua Antônio Carlos da Silva Blaskoski",
        "zipcode": "92704-675"
    },
    {
        "city": "Guaíba",
        "state": "RS",
        "district": "Ermo",
        "street": "Rua Doutor Amaral",
        "zipcode": "92702-550"
    },
    {
        "city": "Guaíba",
        "state": "RS",
        "district": "Centro",
        "street": "Rua Doutor Montaury",
        "zipcode": "92704-650"
    },
    {
        "city": "Guaíba",
        "state": "RS",
        "district": "Jardim dos Lagos",
        "street": "Rua Bolívar",
        "zipcode": "92714-505"
    },
    {
        "city": "Guaíba",
        "state": "RS",
        "district": "Columbia City",
        "street": "Rua Bruno Linck",
        "zipcode": "92717-470"
    },
    {
        "city": "Guaíba",
        "state": "RS",
        "district": "Centro",
        "street": "Rua Donário Inácio dos Santos",
        "zipcode": "92704-105"
    },
    {
        "city": "Guaíba",
        "state": "RS",
        "district": "Bom Fim",
        "street": "Rua Criciuma",
        "zipcode": "92718-860"
    },
    {
        "city": "Guaíba",
        "state": "RS",
        "district": "Colina",
        "street": "Rua Humberto Campos",
        "zipcode": "92700-260"
    },
    {
        "city": "Guaíba",
        "state": "RS",
        "district": "Colina",
        "street": "Rua Belmiro Andriotti",
        "zipcode": "92700-775"
    },
    {
        "city": "Guaíba",
        "state": "RS",
        "district": "Bom Fim",
        "street": "Rua Dois (Lot Nova Guaíba)",
        "zipcode": "92718-215"
    },
    {
        "city": "Guaíba",
        "state": "RS",
        "district": "Jardim dos Lagos",
        "street": "Rua Carlos Reverbel",
        "zipcode": "92714-570"
    },
    {
        "city": "Guaíba",
        "state": "RS",
        "district": "Centro",
        "street": "Rua Coronel Evaristo Lopes dos Santos",
        "zipcode": "92704-850"
    },
    {
        "city": "Guaíba",
        "state": "RS",
        "district": "Jardim dos Lagos",
        "street": "Rua Cyro Freitas Remédios",
        "zipcode": "92714-375"
    },
    {
        "city": "Guaíba",
        "state": "RS",
        "district": "Centro",
        "street": "Rua General Neto",
        "zipcode": "92704-290"
    },
    {
        "city": "Guaíba",
        "state": "RS",
        "district": "Colina",
        "street": "Rua Cesar Verdi",
        "zipcode": "92700-045"
    },
    {
        "city": "Guaíba",
        "state": "RS",
        "district": "Jardim dos Lagos",
        "street": "Rua Dezessete de Dezembro",
        "zipcode": "92714-555"
    },
    {
        "city": "Guaíba",
        "state": "RS",
        "district": "Centro",
        "street": "Rua João José da Silveira",
        "zipcode": "92704-340"
    },
    {
        "city": "Guaíba",
        "state": "RS",
        "district": "Coronel Nassuca",
        "street": "Rua Assis Pereira Soares",
        "zipcode": "92701-210"
    },
    {
        "city": "Guaíba",
        "state": "RS",
        "district": "Bom Fim",
        "street": "Rua José Curto",
        "zipcode": "92718-095"
    },
    {
        "city": "Guaíba",
        "state": "RS",
        "district": "Jardim dos Lagos",
        "street": "Rua Érico Veríssimo",
        "zipcode": "92714-590"
    },
    {
        "city": "Guaíba",
        "state": "RS",
        "district": "Colina",
        "street": "Rua Flavio Santana",
        "zipcode": "92700-770"
    },
    {
        "city": "Guaíba",
        "state": "RS",
        "district": "Jardim dos Lagos",
        "street": "Rua Darcy Fagundes",
        "zipcode": "92714-685"
    },
    {
        "city": "Guaíba",
        "state": "RS",
        "district": "Alegria",
        "street": "Rua João Batista Luzardo",
        "zipcode": "92727-360"
    },
    {
        "city": "Guaíba",
        "state": "RS",
        "district": "Santa Rita",
        "street": "Rua M Dois (Cj Hab R C Gonçalves)",
        "zipcode": "92708-830"
    },
    {
        "city": "Guaíba",
        "state": "RS",
        "district": "Santa Rita",
        "street": "Rua Nove (Lot Ipê)",
        "zipcode": "92707-350"
    },
    {
        "city": "Guaíba",
        "state": "RS",
        "district": "Santa Rita",
        "street": "Rua Quatro (Lot Ipê)",
        "zipcode": "92707-510"
    },
    {
        "city": "Guaíba",
        "state": "RS",
        "district": "Santa Rita",
        "street": "Rua Seis (Lot Ipê)",
        "zipcode": "92707-550"
    },
    {
        "city": "Guaíba",
        "state": "RS",
        "district": "Florida",
        "street": "Rua Três (Lot Neiwa)",
        "zipcode": "92728-140"
    },
    {
        "city": "Guaíba",
        "state": "RS",
        "district": "Santa Rita",
        "street": "Rua Um (Lot Ipê)",
        "zipcode": "92707-320"
    },
    {
        "city": "Guaíba",
        "state": "RS",
        "district": "Coronel Nassuca",
        "street": "Rua Paraíba",
        "zipcode": "92701-280"
    },
    {
        "city": "Guaíba",
        "state": "RS",
        "district": "Parque 35",
        "street": "Rua Minas Gerais",
        "zipcode": "92705-720"
    },
    {
        "city": "Guaíba",
        "state": "RS",
        "district": "Centro",
        "street": "Rua Oscar Alves da Silva",
        "zipcode": "92704-010"
    },
    {
        "city": "Guaíba",
        "state": "RS",
        "district": "Jardim dos Lagos",
        "street": "Rua Lince Maurício dos Santos Lessa",
        "zipcode": "92714-420"
    },
    {
        "city": "Guaíba",
        "state": "RS",
        "district": "Colina",
        "street": "Rua K",
        "zipcode": "92700-160"
    },
    {
        "city": "Guaíba",
        "state": "RS",
        "district": "Altos da Alegria",
        "street": "Rua Timbaúva",
        "zipcode": "92725-790"
    },
    {
        "city": "Guaíba",
        "state": "RS",
        "district": "Parque 35",
        "street": "Rua Vinte de Setembro",
        "zipcode": "92706-230"
    },
    {
        "city": "Guaíba",
        "state": "RS",
        "district": "Coronel Nassuca",
        "street": "Rua Maneca Paiva",
        "zipcode": "92701-760"
    },
    {
        "city": "Guaíba",
        "state": "RS",
        "district": "Santa Rita",
        "street": "Rua Quarenta e Seis (Cj Hab R C Gonçalves)",
        "zipcode": "92708-740"
    },
    {
        "city": "Guaíba",
        "state": "RS",
        "district": "Alvorada",
        "street": "Rua Salgado Filho",
        "zipcode": "92703-660"
    },
    {
        "city": "Guaíba",
        "state": "RS",
        "district": "Coronel Nassuca",
        "street": "Rua Piauí",
        "zipcode": "92701-720"
    },
    {
        "city": "Guaíba",
        "state": "RS",
        "district": "Alvorada",
        "street": "Rua Manuel Francisco das Neves",
        "zipcode": "92703-000"
    },
    {
        "city": "Guaíba",
        "state": "RS",
        "district": "Coronel Nassuca",
        "street": "Rua Leonel Brizola",
        "zipcode": "92701-440"
    },
    {
        "city": "Guaíba",
        "state": "RS",
        "district": "Santa Rita",
        "street": "Rua M",
        "zipcode": "92709-750"
    },
    {
        "city": "Guaíba",
        "state": "RS",
        "district": "Bom Fim",
        "street": "Rua L (Lot Nova Guaíba)",
        "zipcode": "92718-260"
    },
    {
        "city": "Guaíba",
        "state": "RS",
        "district": "Centro",
        "street": "Rua Osmar Hoff Pacheco",
        "zipcode": "92704-745"
    },
    {
        "city": "Guaíba",
        "state": "RS",
        "district": "Parque 35",
        "street": "Rua Roraima",
        "zipcode": "92706-060"
    },
    {
        "city": "Guaíba",
        "state": "RS",
        "district": "Santa Rita",
        "street": "Rua Viviane Fagundes Boeira",
        "zipcode": "92708-835"
    },
    {
        "city": "Guaíba",
        "state": "RS",
        "district": "Alvorada",
        "street": "Rua São Geraldo",
        "zipcode": "92703-470"
    },
    {
        "city": "Guaíba",
        "state": "RS",
        "district": "Colina",
        "street": "Rua Olavo Machado Lessa",
        "zipcode": "92700-380"
    },
    {
        "city": "Guaíba",
        "state": "RS",
        "district": "Jardim Iolanda",
        "street": "Rua Professor David Riegel Neto",
        "zipcode": "92726-060"
    },
    {
        "city": "Guaíba",
        "state": "RS",
        "district": "Alvorada",
        "street": "Rua São Geraldo",
        "zipcode": "92703-700"
    },
    {
        "city": "Guaíba",
        "state": "RS",
        "district": "Centro",
        "street": "Rua Valdo Nóbrega Ribeiro",
        "zipcode": "92704-705"
    },
    {
        "city": "Guaíba",
        "state": "RS",
        "district": "Santa Rita",
        "street": "Rua Sessenta e Dois (Cj Hab R C Gonçalves)",
        "zipcode": "92709-635"
    },
    {
        "city": "Guaíba",
        "state": "RS",
        "district": "Bom Fim",
        "street": "Rua Noemia Coutinho da Rocha",
        "zipcode": "92718-505"
    },
    {
        "city": "Guaíba",
        "state": "RS",
        "district": "Bom Fim",
        "street": "Rua Mário Lessa",
        "zipcode": "92718-005"
    },
    {
        "city": "Guaíba",
        "state": "RS",
        "district": "Jardim dos Lagos",
        "street": "Rua Teixeirinha",
        "zipcode": "92714-625"
    },
    {
        "city": "Guaíba",
        "state": "RS",
        "district": "Jardim dos Lagos",
        "street": "Rua Santa Clara",
        "zipcode": "92714-465"
    },
    {
        "city": "Guaíba",
        "state": "RS",
        "district": "Jardim dos Lagos",
        "street": "Rua Nelson Lopes Machado",
        "zipcode": "92714-545"
    },
    {
        "city": "Guaíba",
        "state": "RS",
        "district": "Santa Rita",
        "street": "Rua Sessenta e Um (Cj Hab R C Gonçalves)",
        "zipcode": "92709-630"
    },
    {
        "city": "Guaíba",
        "state": "RS",
        "district": "Centro",
        "street": "Rua Vinte de Setembro",
        "zipcode": "92704-570"
    },
    {
        "city": "Guaíba",
        "state": "RS",
        "district": "Columbia City",
        "street": "Rua Seu Paciência",
        "zipcode": "92717-485"
    },
    {
        "city": "Guaíba",
        "state": "RS",
        "district": "Jardim dos Lagos",
        "street": "Rua O Tempo e o Vento",
        "zipcode": "92714-520"
    },
    {
        "city": "Guaíba",
        "state": "RS",
        "district": "Ermo",
        "street": "Rua Padre Cacique",
        "zipcode": "92702-150"
    },
    {
        "city": "Guaíba",
        "state": "RS",
        "district": "Santa Rita",
        "street": "Rua Paulo de Souza Jardim",
        "zipcode": "92709-800"
    },
    {
        "city": "Guaíba",
        "state": "RS",
        "district": "Florida",
        "street": "Rua Raymundo Meyer",
        "zipcode": "92728-530"
    },
    {
        "city": "Guaíba",
        "state": "RS",
        "district": "Alvorada",
        "street": "Rua Tiradentes",
        "zipcode": "92703-580"
    },
    {
        "city": "Guaíba",
        "state": "RS",
        "district": "Passo Fundo",
        "street": "Rua Sertão Santana",
        "zipcode": "92729-110"
    },
    {
        "city": "Guaíba",
        "state": "RS",
        "district": "Parque 35",
        "street": "Rua Mato Grosso",
        "zipcode": "92706-030"
    },
    {
        "city": "Guaíba",
        "state": "RS",
        "district": "Passo Fundo",
        "street": "Rua Mario Alves Py",
        "zipcode": "92729-050"
    },
    {
        "city": "Guaíba",
        "state": "RS",
        "district": "Pedras Brancas",
        "street": "Rua Trinta e Um",
        "zipcode": "92722-510"
    },
    {
        "city": "Guaíba",
        "state": "RS",
        "district": "Pedras Brancas",
        "street": "Rua Quinze",
        "zipcode": "92722-390"
    },
    {
        "city": "Guaíba",
        "state": "RS",
        "district": "Parque 35",
        "street": "Rua Rio de Janeiro",
        "zipcode": "92705-570"
    },
    {
        "city": "Guaíba",
        "state": "RS",
        "district": "Santa Rita",
        "street": "Rua Quarenta e Cinco (Cj Hab R C Gonçalves)",
        "zipcode": "92708-735"
    },
    {
        "city": "Guaíba",
        "state": "RS",
        "district": "Parque 35",
        "street": "Rua Santa Catarina",
        "zipcode": "92705-760"
    },
    {
        "city": "Guaíba",
        "state": "RS",
        "district": "Parque 35",
        "street": "Rua Rio Grande do Sul",
        "zipcode": "92706-020"
    },
    {
        "city": "Guaíba",
        "state": "RS",
        "district": "Jardim Iolanda",
        "street": "Rua Pedro Correa Dias",
        "zipcode": "92726-110"
    },
    {
        "city": "Guaíba",
        "state": "RS",
        "district": "Jardim dos Lagos",
        "street": "Rua Toríbio Cambará",
        "zipcode": "92714-405"
    },
    {
        "city": "Guaíba",
        "state": "RS",
        "district": "Centro",
        "street": "Rua Santo Erony Chemello",
        "zipcode": "92704-490"
    },
    {
        "city": "Guaíba",
        "state": "RS",
        "district": "Alegria",
        "street": "Travessa do Cachimbo",
        "zipcode": "92727-250"
    },
    {
        "city": "Guaíba",
        "state": "RS",
        "district": "Passo Fundo",
        "street": "Travessa Y",
        "zipcode": "92729-010"
    },
    {
        "city": "Guaíba",
        "state": "RS",
        "district": "Colina",
        "street": "Rua Walter de Souza Rodrigues",
        "zipcode": "92700-205"
    },
    {
        "city": "Guaíba",
        "state": "RS",
        "district": "Colina",
        "street": "Rua Y",
        "zipcode": "92700-795"
    },
    {
        "city": "Guaíba",
        "state": "RS",
        "district": "Alegria",
        "street": "Travessa Alegria",
        "zipcode": "92727-080"
    },
    {
        "city": "Guaíba",
        "state": "RS",
        "district": "Colina",
        "street": "Rua X",
        "zipcode": "92700-645"
    },
    {
        "city": "Guaíba",
        "state": "RS",
        "district": "Ermo",
        "street": "Travessa Fernando Augusto Jarros Worm",
        "zipcode": "92702-130"
    },
    {
        "city": "Guaíba",
        "state": "RS",
        "district": "Passo Fundo",
        "street": "Travessa Dois (Lot Bom Retiro)",
        "zipcode": "92729-720"
    },
    {
        "city": "Guaíba",
        "state": "RS",
        "district": "Bom Fim",
        "street": "Travessa Quatro (Lot Nova Guaíba)",
        "zipcode": "92718-560"
    },
    {
        "city": "Guaíba",
        "state": "RS",
        "district": "Centro",
        "street": "Travessa Chico Viola",
        "zipcode": "92704-530"
    },
    {
        "city": "Guaíba",
        "state": "RS",
        "district": "Santa Rita",
        "street": "Travessa Oito (Lot Ipê)",
        "zipcode": "92707-540"
    },
    {
        "city": "Guaíba",
        "state": "RS",
        "district": "Alvorada",
        "street": "Travessa Marcílio Dias",
        "zipcode": "92703-760"
    },
    {
        "city": "Guaíba",
        "state": "RS",
        "district": "Alvorada",
        "street": "Travessa Treze de Maio",
        "zipcode": "92703-780"
    },
    {
        "city": "Guaíba",
        "state": "RS",
        "district": "Centro",
        "street": "Rua Coronel Serafim Silva",
        "zipcode": "92704-970"
    },
    {
        "city": "Guaíba",
        "state": "RS",
        "district": "Parque 35",
        "street": "Rua Santa Catarina",
        "zipcode": "92705-970"
    },
    {
        "city": "Guaíba",
        "state": "RS",
        "district": "Columbia City",
        "street": "Rua A (Lot Kenji Usui)",
        "zipcode": "92717-065"
    },
    {
        "city": "Guaíba",
        "state": "RS",
        "district": "Columbia City",
        "street": "Rua A (Bom Fim Velho)",
        "zipcode": "92717-125"
    },
    {
        "city": "Guaíba",
        "state": "RS",
        "district": "Columbia City",
        "street": "Acesso AB (Bom Fim Velho)",
        "zipcode": "92717-180"
    },
    {
        "city": "Guaíba",
        "state": "RS",
        "district": "Columbia City",
        "street": "Rua Adão Rodrigues",
        "zipcode": "92717-095"
    },
    {
        "city": "Guaíba",
        "state": "RS",
        "district": "Columbia City",
        "street": "Rua Albino Krüger",
        "zipcode": "92717-040"
    },
    {
        "city": "Guaíba",
        "state": "RS",
        "district": "Columbia City",
        "street": "Rua Alcides Munhoz",
        "zipcode": "92717-030"
    },
    {
        "city": "Guaíba",
        "state": "RS",
        "district": "Jardim dos Lagos",
        "street": "Rua Antônio Caringe",
        "zipcode": "92714-730"
    },
    {
        "city": "Guaíba",
        "state": "RS",
        "district": "Santa Rita",
        "street": "Rua Antônio Ignácio Galeão",
        "zipcode": "92708-275"
    },
    {
        "city": "Guaíba",
        "state": "RS",
        "district": "Santa Rita",
        "street": "Rua Antônio Ignácio Galeão",
        "zipcode": "92708-135"
    },
    {
        "city": "Guaíba",
        "state": "RS",
        "district": "Santa Rita",
        "street": "Rua Antônio Ignácio Galeão",
        "zipcode": "92708-065"
    },
    {
        "city": "Guaíba",
        "state": "RS",
        "district": "Columbia City",
        "street": "Rua Antônio Martins",
        "zipcode": "92717-185"
    },
    {
        "city": "Guaíba",
        "state": "RS",
        "district": "Santa Rita",
        "street": "Rua Aracaju",
        "zipcode": "92708-225"
    },
    {
        "city": "Guaíba",
        "state": "RS",
        "district": "Santa Rita",
        "street": "Rua Aracaju",
        "zipcode": "92708-190"
    },
    {
        "city": "Guaíba",
        "state": "RS",
        "district": "Columbia City",
        "street": "Rua Arroio dos Ratos",
        "zipcode": "92717-420"
    },
    {
        "city": "Guaíba",
        "state": "RS",
        "district": "Columbia City",
        "street": "Rua Barra do Ribeiro",
        "zipcode": "92717-085"
    },
    {
        "city": "Guaíba",
        "state": "RS",
        "district": "Santa Rita",
        "street": "Rua Belém",
        "zipcode": "92708-270"
    },
    {
        "city": "Guaíba",
        "state": "RS",
        "district": "Santa Rita",
        "street": "Rua Belém",
        "zipcode": "92708-145"
    },
    {
        "city": "Guaíba",
        "state": "RS",
        "district": "Santa Rita",
        "street": "Avenida Belo Horizonte",
        "zipcode": "92708-285"
    },
    {
        "city": "Guaíba",
        "state": "RS",
        "district": "Santa Rita",
        "street": "Avenida Belo Horizonte",
        "zipcode": "92708-265"
    },
    {
        "city": "Guaíba",
        "state": "RS",
        "district": "Santa Rita",
        "street": "Avenida Belo Horizonte",
        "zipcode": "92708-235"
    },
    {
        "city": "Guaíba",
        "state": "RS",
        "district": "Santa Rita",
        "street": "Rua Boa Vista",
        "zipcode": "92708-260"
    },
    {
        "city": "Guaíba",
        "state": "RS",
        "district": "Santa Rita",
        "street": "Rua Boa Vista",
        "zipcode": "92708-150"
    },
    {
        "city": "Guaíba",
        "state": "RS",
        "district": "Columbia City",
        "street": "Rodovia BR",
        "zipcode": "92717-035"
    },
    {
        "city": "Guaíba",
        "state": "RS",
        "district": "Columbia City",
        "street": "Rua Butiá",
        "zipcode": "92717-075"
    },
    {
        "city": "Guaíba",
        "state": "RS",
        "district": "Columbia City",
        "street": "Rua C (Lot Kenji Usui)",
        "zipcode": "92717-060"
    },
    {
        "city": "Guaíba",
        "state": "RS",
        "district": "Columbia City",
        "street": "Rua Caçapava do Sul",
        "zipcode": "92717-070"
    },
    {
        "city": "Guaíba",
        "state": "RS",
        "district": "Columbia City",
        "street": "Rua Camaquã",
        "zipcode": "92717-090"
    },
    {
        "city": "Guaíba",
        "state": "RS",
        "district": "Santa Rita",
        "street": "Rua Campo Grande",
        "zipcode": "92708-105"
    },
    {
        "city": "Guaíba",
        "state": "RS",
        "district": "Santa Rita",
        "street": "Rua Campo Grande",
        "zipcode": "92708-110"
    },
    {
        "city": "Guaíba",
        "state": "RS",
        "district": "Santa Rita",
        "street": "Rua Carlos Nobre",
        "zipcode": "92708-215"
    },
    {
        "city": "Guaíba",
        "state": "RS",
        "district": "Santa Rita",
        "street": "Rua Carlos Nobre",
        "zipcode": "92708-195"
    },
    {
        "city": "Guaíba",
        "state": "RS",
        "district": "Columbia City",
        "street": "Rua Carolina Paz",
        "zipcode": "92717-115"
    },
    {
        "city": "Guaíba",
        "state": "RS",
        "district": "Columbia City",
        "street": "Rua São Cristóvão",
        "zipcode": "92717-010"
    },
    {
        "city": "Guaíba",
        "state": "RS",
        "district": "Santa Rita",
        "street": "Rua Cuiabá",
        "zipcode": "92708-290"
    },
    {
        "city": "Guaíba",
        "state": "RS",
        "district": "Columbia City",
        "street": "Rua D (Lot Kenji Usui)",
        "zipcode": "92717-055"
    },
    {
        "city": "Guaíba",
        "state": "RS",
        "district": "Jardim dos Lagos",
        "street": "Rua Darcy Azambuja",
        "zipcode": "92714-735"
    },
    {
        "city": "Guaíba",
        "state": "RS",
        "district": "Columbia City",
        "street": "Rua Dorival Bernardo da Luz",
        "zipcode": "92717-400"
    },
    {
        "city": "Guaíba",
        "state": "RS",
        "district": "Jardim dos Lagos",
        "street": "Rua Elis Regina",
        "zipcode": "92714-710"
    },
    {
        "city": "Guaíba",
        "state": "RS",
        "district": "Columbia City",
        "street": "Rua Evinha Rodrigues",
        "zipcode": "92717-120"
    },
    {
        "city": "Guaíba",
        "state": "RS",
        "district": "Columbia City",
        "street": "Rua F (Ramada)",
        "zipcode": "92717-045"
    },
    {
        "city": "Guaíba",
        "state": "RS",
        "district": "Santa Rita",
        "street": "Rua Florianópolis",
        "zipcode": "92708-250"
    },
    {
        "city": "Guaíba",
        "state": "RS",
        "district": "Santa Rita",
        "street": "Rua Florianópolis",
        "zipcode": "92708-160"
    },
    {
        "city": "Guaíba",
        "state": "RS",
        "district": "Santa Rita",
        "street": "Avenida Fortaleza",
        "zipcode": "92708-140"
    },
    {
        "city": "Guaíba",
        "state": "RS",
        "district": "Santa Rita",
        "street": "Avenida Fortaleza",
        "zipcode": "92708-165"
    },
    {
        "city": "Guaíba",
        "state": "RS",
        "district": "Santa Rita",
        "street": "Avenida Fortaleza",
        "zipcode": "92708-200"
    },
    {
        "city": "Guaíba",
        "state": "RS",
        "district": "Columbia City",
        "street": "Rua São Gabriel",
        "zipcode": "92717-005"
    },
    {
        "city": "Guaíba",
        "state": "RS",
        "district": "Jardim dos Lagos",
        "street": "Rua Gildo de Freitas",
        "zipcode": "92714-690"
    },
    {
        "city": "Guaíba",
        "state": "RS",
        "district": "Columbia City",
        "street": "Rua Henrique Levandowski",
        "zipcode": "92717-415"
    },
    {
        "city": "Guaíba",
        "state": "RS",
        "district": "Jardim dos Lagos",
        "street": "Rua Jaime Caetano Braum",
        "zipcode": "92714-740"
    },
    {
        "city": "Guaíba",
        "state": "RS",
        "district": "Columbia City",
        "street": "Rua João Albino Ledur",
        "zipcode": "92717-110"
    },
    {
        "city": "Guaíba",
        "state": "RS",
        "district": "Columbia City",
        "street": "Rua São João",
        "zipcode": "92717-025"
    },
    {
        "city": "Guaíba",
        "state": "RS",
        "district": "Columbia City",
        "street": "Rua José Valdir Garcia",
        "zipcode": "92717-020"
    },
    {
        "city": "Guaíba",
        "state": "RS",
        "district": "Columbia City",
        "street": "Rua Vereador Juca Lessa",
        "zipcode": "92717-410"
    },
    {
        "city": "Guaíba",
        "state": "RS",
        "district": "Columbia City",
        "street": "Rua Kenji Usui",
        "zipcode": "92717-050"
    },
    {
        "city": "Guaíba",
        "state": "RS",
        "district": "Santa Rita",
        "street": "Avenida Lupicínio Rodrigues",
        "zipcode": "92708-240"
    },
    {
        "city": "Guaíba",
        "state": "RS",
        "district": "Santa Rita",
        "street": "Avenida Lupicínio Rodrigues",
        "zipcode": "92708-245"
    },
    {
        "city": "Guaíba",
        "state": "RS",
        "district": "Santa Rita",
        "street": "Avenida Lupicínio Rodrigues",
        "zipcode": "92708-170"
    },
    {
        "city": "Guaíba",
        "state": "RS",
        "district": "Santa Rita",
        "street": "Avenida Lupicínio Rodrigues",
        "zipcode": "92708-175"
    },
    {
        "city": "Guaíba",
        "state": "RS",
        "district": "Santa Rita",
        "street": "Avenida Macapá",
        "zipcode": "92708-210"
    },
    {
        "city": "Guaíba",
        "state": "RS",
        "district": "Santa Rita",
        "street": "Rua Maceió",
        "zipcode": "92708-255"
    },
    {
        "city": "Guaíba",
        "state": "RS",
        "district": "Santa Rita",
        "street": "Rua Maceió",
        "zipcode": "92708-155"
    },
    {
        "city": "Guaíba",
        "state": "RS",
        "district": "Columbia City",
        "street": "Rua Santa Maria",
        "zipcode": "92717-000"
    },
    {
        "city": "Guaíba",
        "state": "RS",
        "district": "Columbia City",
        "street": "Rua Santa Maria",
        "zipcode": "92717-190"
    },
    {
        "city": "Guaíba",
        "state": "RS",
        "district": "Columbia City",
        "street": "Rua Santa Maria",
        "zipcode": "92717-250"
    },
    {
        "city": "Guaíba",
        "state": "RS",
        "district": "Jardim dos Lagos",
        "street": "Rua Santa Maria",
        "zipcode": "92714-745"
    },
    {
        "city": "Guaíba",
        "state": "RS",
        "district": "Columbia City",
        "street": "Rua Santa Maria",
        "zipcode": "92717-310"
    },
    {
        "city": "Guaíba",
        "state": "RS",
        "district": "Santa Rita",
        "street": "Rua Soldado Mário Luis Souza Soares",
        "zipcode": "92708-100"
    },
    {
        "city": "Guaíba",
        "state": "RS",
        "district": "Jardim dos Lagos",
        "street": "Rua Maestro Mendanha",
        "zipcode": "92714-725"
    },
    {
        "city": "Guaíba",
        "state": "RS",
        "district": "Columbia City",
        "street": "Rua Mercedes Rosales",
        "zipcode": "92717-105"
    },
    {
        "city": "Guaíba",
        "state": "RS",
        "district": "Santa Rita",
        "street": "Rua Natal",
        "zipcode": "92708-280"
    },
    {
        "city": "Guaíba",
        "state": "RS",
        "district": "Santa Rita",
        "street": "Rua Natal",
        "zipcode": "92708-130"
    },
    {
        "city": "Guaíba",
        "state": "RS",
        "district": "Santa Rita",
        "street": "Rua Natal",
        "zipcode": "92708-070"
    },
    {
        "city": "Guaíba",
        "state": "RS",
        "district": "Santa Rita",
        "street": "Travessa Nei Brito",
        "zipcode": "92708-220"
    },
    {
        "city": "Guaíba",
        "state": "RS",
        "district": "Santa Rita",
        "street": "Avenida Doutor Nei Brito",
        "zipcode": "92708-205"
    },
    {
        "city": "Guaíba",
        "state": "RS",
        "district": "Jardim dos Lagos",
        "street": "Rua Noel Guarany",
        "zipcode": "92714-695"
    },
    {
        "city": "Guaíba",
        "state": "RS",
        "district": "Columbia City",
        "street": "Avenida Osvaldo Linck",
        "zipcode": "92717-405"
    },
    {
        "city": "Guaíba",
        "state": "RS",
        "district": "Jardim dos Lagos",
        "street": "Rua Pedro Raymundo",
        "zipcode": "92714-705"
    },
    {
        "city": "Guaíba",
        "state": "RS",
        "district": "Columbia City",
        "street": "Avenida São Pedro",
        "zipcode": "92717-015"
    },
    {
        "city": "Guaíba",
        "state": "RS",
        "district": "Jardim dos Lagos",
        "street": "Avenida Ponche Verde",
        "zipcode": "92714-720"
    },
    {
        "city": "Guaíba",
        "state": "RS",
        "district": "Jardim dos Lagos",
        "street": "Avenida Ponche Verde",
        "zipcode": "92714-715"
    },
    {
        "city": "Guaíba",
        "state": "RS",
        "district": "Santa Rita",
        "street": "Avenida Recife",
        "zipcode": "92708-120"
    },
    {
        "city": "Guaíba",
        "state": "RS",
        "district": "Santa Rita",
        "street": "Avenida Recife",
        "zipcode": "92708-125"
    },
    {
        "city": "Guaíba",
        "state": "RS",
        "district": "Santa Rita",
        "street": "Avenida Recife",
        "zipcode": "92708-115"
    },
    {
        "city": "Guaíba",
        "state": "RS",
        "district": "Santa Rita",
        "street": "Avenida Recife",
        "zipcode": "92708-185"
    },
    {
        "city": "Guaíba",
        "state": "RS",
        "district": "Jardim dos Lagos",
        "street": "Rua Sepé Tiaraju",
        "zipcode": "92714-700"
    },
    {
        "city": "Guaíba",
        "state": "RS",
        "district": "Columbia City",
        "street": "Rua Severo Barbosa",
        "zipcode": "92717-100"
    },
    {
        "city": "Guaíba",
        "state": "RS",
        "district": "Columbia City",
        "street": "Rua Tapes",
        "zipcode": "92717-080"
    },
    {
        "city": "Guaíba",
        "state": "RS",
        "district": "Columbia City",
        "street": "Avenida Doutor Urias Lugon",
        "zipcode": "92717-430"
    },
    {
        "city": "Guaíba",
        "state": "RS",
        "district": "Columbia City",
        "street": "Avenida Doutor Urias Lugon",
        "zipcode": "92717-425"
    },
    {
        "city": "Guaíba",
        "state": "RS",
        "district": "Santa Rita",
        "street": "Rua Wenceslau Fontoura",
        "zipcode": "92708-230"
    },
    {
        "city": "Guaíba",
        "state": "RS",
        "district": "Santa Rita",
        "street": "Rua Wenceslau Fontoura",
        "zipcode": "92708-180"
    },
    {
        "city": "Guaíba",
        "state": "RS",
        "district": "Santa Rita",
        "street": "Bloco 03 (Cj Hab R C Gonçalves)",
        "zipcode": "92709-500"
    },
    {
        "city": "Guaíba",
        "state": "RS",
        "district": "Santa Rita",
        "street": "Bloco 05 (Cj Hab R C Gonçalves)",
        "zipcode": "92709-495"
    },
    {
        "city": "Guaíba",
        "state": "RS",
        "district": "Santa Rita",
        "street": "Bloco 23 (Cj Hab R C Gonçalves)",
        "zipcode": "92709-595"
    },
    {
        "city": "Guaíba",
        "state": "RS",
        "district": "Santa Rita",
        "street": "Bloco 24 (Cj Hab R C Gonçalves)",
        "zipcode": "92709-590"
    },
    {
        "city": "Guaíba",
        "state": "RS",
        "district": "Santa Rita",
        "street": "Bloco 25 (Cj Hab R C Gonçalves)",
        "zipcode": "92709-510"
    },
    {
        "city": "Guaíba",
        "state": "RS",
        "district": "Santa Rita",
        "street": "Bloco 27 (Cj Hab R C Gonçalves)",
        "zipcode": "92709-605"
    },
    {
        "city": "Guaíba",
        "state": "RS",
        "district": "Santa Rita",
        "street": "Bloco 29 (Cj Hab R C Gonçalves)",
        "zipcode": "92709-515"
    },
    {
        "city": "Guaíba",
        "state": "RS",
        "district": "Santa Rita",
        "street": "Bloco 35 (Cj Hab R C Gonçalves)",
        "zipcode": "92709-600"
    },
    {
        "city": "Guaíba",
        "state": "RS",
        "district": "Santa Rita",
        "street": "Bloco 36 (Cj Hab R C Gonçalves)",
        "zipcode": "92709-585"
    },
    {
        "city": "Guaíba",
        "state": "RS",
        "district": "Santa Rita",
        "street": "Bloco 37 (Cj Hab R C Gonçalves)",
        "zipcode": "92709-525"
    },
    {
        "city": "Guaíba",
        "state": "RS",
        "district": "Santa Rita",
        "street": "Bloco 39 (Cj Hab R C Gonçalves)",
        "zipcode": "92709-520"
    },
    {
        "city": "Guaíba",
        "state": "RS",
        "district": "Santa Rita",
        "street": "Bloco 41 (Cj Hab R C Gonçalves)",
        "zipcode": "92709-580"
    },
    {
        "city": "Guaíba",
        "state": "RS",
        "district": "Santa Rita",
        "street": "Bloco 43 (Cj Hab R C Gonçalves)",
        "zipcode": "92709-550"
    },
    {
        "city": "Guaíba",
        "state": "RS",
        "district": "Santa Rita",
        "street": "Bloco 45 (Cj Hab R C Gonçalves)",
        "zipcode": "92709-545"
    },
    {
        "city": "Guaíba",
        "state": "RS",
        "district": "Santa Rita",
        "street": "Bloco 47 (Cj Hab R C Gonçalves)",
        "zipcode": "92709-540"
    },
    {
        "city": "Guaíba",
        "state": "RS",
        "district": "Santa Rita",
        "street": "Bloco 49 (Cj Hab R C Gonçalves)",
        "zipcode": "92709-560"
    },
    {
        "city": "Guaíba",
        "state": "RS",
        "district": "Santa Rita",
        "street": "Bloco 51 (Cj Hab R C Gonçalves)",
        "zipcode": "92709-575"
    },
    {
        "city": "Guaíba",
        "state": "RS",
        "district": "Santa Rita",
        "street": "Bloco 53 (Cj Hab R C Gonçalves)",
        "zipcode": "92709-570"
    },
    {
        "city": "Guaíba",
        "state": "RS",
        "district": "Santa Rita",
        "street": "Bloco 55 (Cj Hab R C Gonçalves)",
        "zipcode": "92709-505"
    },
    {
        "city": "Guaíba",
        "state": "RS",
        "district": "Santa Rita",
        "street": "Bloco 57 (Cj Hab R C Gonçalves)",
        "zipcode": "92709-555"
    },
    {
        "city": "Guaíba",
        "state": "RS",
        "district": "Santa Rita",
        "street": "Bloco 59 (Cj Hab R C Gonçalves)",
        "zipcode": "92709-490"
    },
    {
        "city": "Guaíba",
        "state": "RS",
        "district": "Santa Rita",
        "street": "Bloco 83 (Cj Hab R C Gonçalves)",
        "zipcode": "92709-530"
    },
    {
        "city": "Guaíba",
        "state": "RS",
        "district": "Santa Rita",
        "street": "Bloco 85 (Cj Hab R C Gonçalves)",
        "zipcode": "92709-535"
    },
    {
        "city": "Guaíba",
        "state": "RS",
        "district": "Santa Rita",
        "street": "Bloco 223 (Cj Hab R C Gonçalves)",
        "zipcode": "92709-565"
    },
    {
        "city": "Guaíba",
        "state": "RS",
        "district": "Florida",
        "street": "Rua Raul Pilla",
        "zipcode": "92728-020"
    },
    {
        "city": "Guaíba",
        "state": "RS",
        "district": "Colina",
        "street": "Rua Sócrates Centeno Rodrigues Barbosa",
        "zipcode": "92700-075"
    },
    {
        "city": "Guaíba",
        "state": "RS",
        "district": "Centro",
        "street": "Rua José Stortti",
        "zipcode": "92704-330"
    },
    {
        "city": "Guaíba",
        "state": "RS",
        "district": "Ermo",
        "street": "Rua São Geraldo",
        "zipcode": "92702-490"
    },
    {
        "city": "Guaíba",
        "state": "RS",
        "district": "Chaves Barcellos",
        "street": "Avenida Comendador Ismael Chaves Barcellos",
        "zipcode": "92711-000"
    },
    {
        "city": "Guaíba",
        "state": "RS",
        "district": "Alvorada",
        "street": "Rua Olavo Bilac",
        "zipcode": "92703-800"
    },
    {
        "city": "Guaíba",
        "state": "RS",
        "district": "Ermo",
        "street": "Rua Evaristo Lopes",
        "zipcode": "92702-720"
    },
    {
        "city": "Guaíba",
        "state": "RS",
        "district": "Santa Rita",
        "street": "Rua Hélio Ifran Pires",
        "zipcode": "92708-010"
    },
    {
        "city": "Guaíba",
        "state": "RS",
        "district": "Pedras Brancas",
        "street": "Rua Trinta e Dois",
        "zipcode": "92722-570"
    },
    {
        "city": "Guaíba",
        "state": "RS",
        "district": "Santa Rita",
        "street": "Avenida Vereador Valdir Rodrigues Soares",
        "zipcode": "92708-845"
    },
    {
        "city": "Guaíba",
        "state": "RS",
        "district": "Santa Rita",
        "street": "Bloco 195 (Cj Hab R C Gonçalves)",
        "zipcode": "92709-070"
    },
    {
        "city": "Guaíba",
        "state": "RS",
        "district": "Florida",
        "street": "Rua Adolfo Manoel Sebastião",
        "zipcode": "92728-550"
    },
    {
        "city": "Guaíba",
        "state": "RS",
        "district": "Ermo",
        "street": "Rua Coronel Inácio de Quadros",
        "zipcode": "92702-010"
    },
    {
        "city": "Guaíba",
        "state": "RS",
        "district": "Santa Rita",
        "street": "Bloco 323 (Cj Hab R C Gonçalves)",
        "zipcode": "92708-500"
    },
    {
        "city": "Guaíba",
        "state": "RS",
        "district": "Colina",
        "street": "Rua Professor Wilson Larré Pereira",
        "zipcode": "92700-560"
    },
    {
        "city": "Guaíba",
        "state": "RS",
        "district": "Alegria",
        "street": "Rua Lindolfo Collor",
        "zipcode": "92727-210"
    },
    {
        "city": "Guaíba",
        "state": "RS",
        "district": "Santa Rita",
        "street": "Rua Sessenta e Cinco (Cj Hab R C Gonçalves)",
        "zipcode": "92709-655"
    },
    {
        "city": "Guaíba",
        "state": "RS",
        "district": "Jardim Iolanda",
        "street": "Rua Teofilo Vasconcelos Jardim",
        "zipcode": "92726-510"
    },
    {
        "city": "Guaíba",
        "state": "RS",
        "district": "Altos da Alegria",
        "street": "Rua da Balança",
        "zipcode": "92725-100"
    },
    {
        "city": "Guaíba",
        "state": "RS",
        "district": "Pedras Brancas",
        "street": "Rua Quatorze",
        "zipcode": "92722-380"
    },
    {
        "city": "Guaíba",
        "state": "RS",
        "district": "Santa Rita",
        "street": "Bloco 89 (Cj Hab R C Gonçalves)",
        "zipcode": "92709-415"
    },
    {
        "city": "Guaíba",
        "state": "RS",
        "district": "Coronel Nassuca",
        "street": "Avenida Marechal Castelo Branco",
        "zipcode": "92701-000"
    },
    {
        "city": "Guaíba",
        "state": "RS",
        "district": "Santa Rita",
        "street": "Bloco 221 (Cj Hab R C Gonçalves)",
        "zipcode": "92709-025"
    },
    {
        "city": "Guaíba",
        "state": "RS",
        "district": "Santa Rita",
        "street": "Bloco 91 (Cj Hab R C Gonçalves)",
        "zipcode": "92709-420"
    },
    {
        "city": "Guaíba",
        "state": "RS",
        "district": "Centro",
        "street": "Travessa Alfredo Desidério de Souza",
        "zipcode": "92704-525"
    },
    {
        "city": "Guaíba",
        "state": "RS",
        "district": "Parque 35",
        "street": "Avenida João de Araújo Lessa",
        "zipcode": "92705-560"
    },
    {
        "city": "Guaíba",
        "state": "RS",
        "district": "Santa Rita",
        "street": "Bloco 299 (Cj Hab R C Gonçalves)",
        "zipcode": "92708-570"
    },
    {
        "city": "Guaíba",
        "state": "RS",
        "district": "Centro",
        "street": "Rua Padre Cacique",
        "zipcode": "92704-190"
    },
    {
        "city": "Guaíba",
        "state": "RS",
        "district": "Coronel Nassuca",
        "street": "Rua Coronel Inácio de Quadros",
        "zipcode": "92701-430"
    },
    {
        "city": "Guaíba",
        "state": "RS",
        "district": "Centro",
        "street": "Rua Otaviano Manoel de Oliveira Junior",
        "zipcode": "92704-545"
    },
    {
        "city": "Guaíba",
        "state": "RS",
        "district": "Bom Fim",
        "street": "Rua Nova (Lot Nova Guaíba)",
        "zipcode": "92718-555"
    },
    {
        "city": "Guaíba",
        "state": "RS",
        "district": "Alvorada",
        "street": "Rua São Geraldo",
        "zipcode": "92703-740"
    },
    {
        "city": "Guaíba",
        "state": "RS",
        "district": "Santa Rita",
        "street": "Bloco 131 (Cj Hab R C Gonçalves)",
        "zipcode": "92709-270"
    },
    {
        "city": "Guaíba",
        "state": "RS",
        "district": "Ermo",
        "street": "Rua Arcelino José da Silveira",
        "zipcode": "92702-540"
    },
    {
        "city": "Guaíba",
        "state": "RS",
        "district": "Santa Rita",
        "street": "Avenida João Arnaldo Gonsalez",
        "zipcode": "92708-780"
    },
    {
        "city": "Guaíba",
        "state": "RS",
        "district": "Jardim dos Lagos",
        "street": "Rua Fioravante da Silva",
        "zipcode": "92714-450"
    },
    {
        "city": "Guaíba",
        "state": "RS",
        "district": "Florida",
        "street": "Rua Ipiranga",
        "zipcode": "92728-370"
    },
    {
        "city": "Guaíba",
        "state": "RS",
        "district": "Ermo",
        "street": "Rua Felinto Chacon",
        "zipcode": "92702-670"
    },
    {
        "city": "Guaíba",
        "state": "RS",
        "district": "Coronel Nassuca",
        "street": "Avenida Maurício Sirotsky Sobrinho",
        "zipcode": "92701-100"
    },
    {
        "city": "Guaíba",
        "state": "RS",
        "district": "Santa Rita",
        "street": "Bloco 329 (Cj Hab R C Gonçalves)",
        "zipcode": "92708-475"
    },
    {
        "city": "Guaíba",
        "state": "RS",
        "district": "Santa Rita",
        "street": "Bloco 183 (Cj Hab R C Gonçalves)",
        "zipcode": "92709-190"
    },
    {
        "city": "Guaíba",
        "state": "RS",
        "district": "Centro",
        "street": "Rua Pedras Brancas",
        "zipcode": "92704-205"
    },
    {
        "city": "Guaíba",
        "state": "RS",
        "district": "Jardim dos Lagos",
        "street": "Avenida Ponche Verde",
        "zipcode": "92714-640"
    },
    {
        "city": "Guaíba",
        "state": "RS",
        "district": "Santa Rita",
        "street": "Bloco 371 (Cj Hab R C Gonçalves)",
        "zipcode": "92708-340"
    },
    {
        "city": "Guaíba",
        "state": "RS",
        "district": "Jardim Iolanda",
        "street": "Rua David Gomes Duarte",
        "zipcode": "92726-340"
    },
    {
        "city": "Guaíba",
        "state": "RS",
        "district": "Parque 35",
        "street": "Rua São Paulo",
        "zipcode": "92705-300"
    },
    {
        "city": "Guaíba",
        "state": "RS",
        "district": "Passo Fundo",
        "street": "Rodovia BR",
        "zipcode": "92730-600"
    },
    {
        "city": "Guaíba",
        "state": "RS",
        "district": "Ermo",
        "street": "Rua Alfredo de Oliveira",
        "zipcode": "92702-480"
    }
]