[
    {
        "city": "Itapuã (Viamão)",
        "state": "RS",
        "district": null,
        "street": "Rua da Figueira nº 10",
        "zipcode": "94750-990"
    },
    {
        "city": "Itapuã (Viamão)",
        "state": "RS",
        "district": "",
        "street": "",
        "zipcode": "94750-000"
    },
    {
        "city": "Itapuã (Viamão)",
        "state": "RS",
        "district": null,
        "street": "Rodovia Frei Pacífico s/nº",
        "zipcode": "94750-992"
    },
    {
        "city": "Itapuã (Viamão)",
        "state": "RS",
        "district": null,
        "street": "Estrada da Reforma",
        "zipcode": "94750-997"
    },
    {
        "city": "Itapuã (Viamão)",
        "state": "RS",
        "district": "Centro",
        "street": "Rua Coronel José Tristão de Fraga",
        "zipcode": "94750-970"
    },
    {
        "city": "Itapuã (Viamão)",
        "state": "RS",
        "district": null,
        "street": "Estrada da Reforma",
        "zipcode": "94750-995"
    },
    {
        "city": "Itapuã (Viamão)",
        "state": "RS",
        "district": null,
        "street": "Estrada da Reforma",
        "zipcode": "94750-996"
    },
    {
        "city": "Itapuã (Viamão)",
        "state": "RS",
        "district": null,
        "street": "Estrada da Reforma",
        "zipcode": "94750-994"
    }
]