[
    {
        "city": "Palmeira das Missões",
        "state": "RS",
        "district": "São Bento",
        "street": "Rua Principal",
        "zipcode": "98300-977"
    },
    {
        "city": "Palmeira das Missões",
        "state": "RS",
        "district": "Quebrados",
        "street": "Rua Benjamin Constant",
        "zipcode": "98300-976"
    },
    {
        "city": "Palmeira das Missões",
        "state": "RS",
        "district": "Distrito Santa Rosa",
        "street": "Rua Principal",
        "zipcode": "98300-972"
    },
    {
        "city": "Palmeira das Missões",
        "state": "RS",
        "district": "Centro",
        "street": "Avenida Independência",
        "zipcode": "98300-971"
    },
    {
        "city": "Palmeira das Missões",
        "state": "RS",
        "district": "Centro",
        "street": "Avenida Independência",
        "zipcode": "98300-970"
    },
    {
        "city": "Palmeira das Missões",
        "state": "RS",
        "district": "Distrito Industrial",
        "street": "Rodovia RS",
        "zipcode": "98300-975"
    },
    {
        "city": "Palmeira das Missões",
        "state": "RS",
        "district": "Potreiro Bonito",
        "street": "Rodovia RS",
        "zipcode": "98300-974"
    },
    {
        "city": "Palmeira das Missões",
        "state": "RS",
        "district": "",
        "street": "",
        "zipcode": "98300-000"
    }
]