[
    {
        "city": "Pareci Novo",
        "state": "RS",
        "district": "Centro",
        "street": "Rua Alonso Remi Dietrich",
        "zipcode": "95783-971"
    },
    {
        "city": "Pareci Novo",
        "state": "RS",
        "district": "",
        "street": "",
        "zipcode": "95783-000"
    },
    {
        "city": "Pareci Novo",
        "state": "RS",
        "district": null,
        "street": "Estrada Despique",
        "zipcode": "95783-990"
    },
    {
        "city": "Pareci Novo",
        "state": "RS",
        "district": null,
        "street": "Rua 20 de Mar√ßo",
        "zipcode": "95783-991"
    },
    {
        "city": "Pareci Novo",
        "state": "RS",
        "district": null,
        "street": "Monsenhor Frank",
        "zipcode": "95783-992"
    },
    {
        "city": "Pareci Novo",
        "state": "RS",
        "district": null,
        "street": "Estrada Despique",
        "zipcode": "95783-994"
    },
    {
        "city": "Pareci Novo",
        "state": "RS",
        "district": null,
        "street": "Estrada Despique",
        "zipcode": "95783-995"
    },
    {
        "city": "Pareci Novo",
        "state": "RS",
        "district": null,
        "street": "Rua dos Viveiros",
        "zipcode": "95783-993"
    }
]