[
    {
        "city": "Santo Antônio da Patrulha",
        "state": "RS",
        "district": "",
        "street": "",
        "zipcode": "95500-000"
    },
    {
        "city": "Santo Antônio da Patrulha",
        "state": "RS",
        "district": null,
        "street": "RS",
        "zipcode": "95500-994"
    },
    {
        "city": "Santo Antônio da Patrulha",
        "state": "RS",
        "district": null,
        "street": "RS",
        "zipcode": "95500-991"
    },
    {
        "city": "Santo Antônio da Patrulha",
        "state": "RS",
        "district": null,
        "street": "RS",
        "zipcode": "95500-992"
    },
    {
        "city": "Santo Antônio da Patrulha",
        "state": "RS",
        "district": null,
        "street": "Estr Catanduvinha",
        "zipcode": "95500-995"
    },
    {
        "city": "Santo Antônio da Patrulha",
        "state": "RS",
        "district": "Centro",
        "street": "Rua Capitão Antônio Nunes Benfica",
        "zipcode": "95500-971"
    },
    {
        "city": "Santo Antônio da Patrulha",
        "state": "RS",
        "district": "Pitangueiras",
        "street": "Rua Francisco J. Lopes 555 Loja 16",
        "zipcode": "95500-970"
    },
    {
        "city": "Santo Antônio da Patrulha",
        "state": "RS",
        "district": null,
        "street": "Rodovia RS",
        "zipcode": "95500-996"
    }
]