[
    {
        "city": "Santa Rosa",
        "state": "RS",
        "district": "Planalto",
        "street": "Rua Piauí",
        "zipcode": "98794-240"
    },
    {
        "city": "Santa Rosa",
        "state": "RS",
        "district": "Central",
        "street": "Rua Jorge Kunde",
        "zipcode": "98787-050"
    },
    {
        "city": "Santa Rosa",
        "state": "RS",
        "district": "Centro",
        "street": "Rua Tiradentes",
        "zipcode": "98780-013"
    },
    {
        "city": "Santa Rosa",
        "state": "RS",
        "district": "Centro",
        "street": "Rua Piauí",
        "zipcode": "98780-010"
    },
    {
        "city": "Santa Rosa",
        "state": "RS",
        "district": "Central",
        "street": "Rua Garibaldi",
        "zipcode": "98787-568"
    },
    {
        "city": "Santa Rosa",
        "state": "RS",
        "district": "Central",
        "street": "Rua Sol",
        "zipcode": "98788-126"
    },
    {
        "city": "Santa Rosa",
        "state": "RS",
        "district": "Planalto",
        "street": "Rua SD 599",
        "zipcode": "98794-350"
    },
    {
        "city": "Santa Rosa",
        "state": "RS",
        "district": "Sulina",
        "street": "Rua dos Palmitos",
        "zipcode": "98796-202"
    },
    {
        "city": "Santa Rosa",
        "state": "RS",
        "district": "Sulina",
        "street": "Rua Tupanciretã",
        "zipcode": "98796-236"
    },
    {
        "city": "Santa Rosa",
        "state": "RS",
        "district": "Cruzeiro",
        "street": "Rua Portugal",
        "zipcode": "98789-410"
    },
    {
        "city": "Santa Rosa",
        "state": "RS",
        "district": "Planalto",
        "street": "Rua Simões Lopes Neto",
        "zipcode": "98794-034"
    },
    {
        "city": "Santa Rosa",
        "state": "RS",
        "district": "Timbaúva",
        "street": "Rua Pirajá",
        "zipcode": "98781-113"
    },
    {
        "city": "Santa Rosa",
        "state": "RS",
        "district": "Central",
        "street": "Travessa Humberto Schubert",
        "zipcode": "98787-714"
    },
    {
        "city": "Santa Rosa",
        "state": "RS",
        "district": "Cruzeiro",
        "street": "Rua Limoeiro",
        "zipcode": "98789-070"
    },
    {
        "city": "Santa Rosa",
        "state": "RS",
        "district": "Sulina",
        "street": "Rua A (Vl Nova)",
        "zipcode": "98796-050"
    },
    {
        "city": "Santa Rosa",
        "state": "RS",
        "district": "São Francisco",
        "street": "Rua C",
        "zipcode": "98792-220"
    },
    {
        "city": "Santa Rosa",
        "state": "RS",
        "district": "Cruzeiro",
        "street": "Rua Beira Rio",
        "zipcode": "98790-342"
    },
    {
        "city": "Santa Rosa",
        "state": "RS",
        "district": "Industrial",
        "street": "Rua SD 430",
        "zipcode": "98795-090"
    },
    {
        "city": "Santa Rosa",
        "state": "RS",
        "district": "Cruzeiro",
        "street": "Rua SD 422",
        "zipcode": "98790-690"
    },
    {
        "city": "Santa Rosa",
        "state": "RS",
        "district": "Industrial",
        "street": "Estrada SD 429",
        "zipcode": "98795-020"
    },
    {
        "city": "Santa Rosa",
        "state": "RS",
        "district": "Industrial",
        "street": "Rua SD 428",
        "zipcode": "98794-880"
    },
    {
        "city": "Santa Rosa",
        "state": "RS",
        "district": "Planalto",
        "street": "Rua Turmalina",
        "zipcode": "98794-414"
    },
    {
        "city": "Santa Rosa",
        "state": "RS",
        "district": null,
        "street": null,
        "zipcode": "98900-000"
    },
    {
        "city": "Santa Rosa",
        "state": "RS",
        "district": "Planalto",
        "street": "Rua Benjamin Menzel",
        "zipcode": "98794-176"
    },
    {
        "city": "Santa Rosa",
        "state": "RS",
        "district": "Planalto",
        "street": "Travessa Rondônia",
        "zipcode": "98794-172"
    },
    {
        "city": "Santa Rosa",
        "state": "RS",
        "district": "Planalto",
        "street": "Rua José Ferreira de Oliveira",
        "zipcode": "98794-168"
    },
    {
        "city": "Santa Rosa",
        "state": "RS",
        "district": "Planalto",
        "street": "Travessa Ana Terra",
        "zipcode": "98794-140"
    },
    {
        "city": "Santa Rosa",
        "state": "RS",
        "district": "Cruzeiro",
        "street": "Avenida Expedicionário Weber",
        "zipcode": "98790-174"
    },
    {
        "city": "Santa Rosa",
        "state": "RS",
        "district": "Cruzeiro",
        "street": "Rua Florisbelo Borges",
        "zipcode": "98789-150"
    },
    {
        "city": "Santa Rosa",
        "state": "RS",
        "district": "Cruzeiro",
        "street": "Rua Urano",
        "zipcode": "98789-012"
    },
    {
        "city": "Santa Rosa",
        "state": "RS",
        "district": "Central",
        "street": "Travessa Ornélio de Souza",
        "zipcode": "98787-712"
    },
    {
        "city": "Santa Rosa",
        "state": "RS",
        "district": "Central",
        "street": "Travessa Salgado Filho",
        "zipcode": "98787-056"
    },
    {
        "city": "Santa Rosa",
        "state": "RS",
        "district": "Central",
        "street": "Rua Heitor Scalco",
        "zipcode": "98787-052"
    },
    {
        "city": "Santa Rosa",
        "state": "RS",
        "district": "Central",
        "street": "Avenida Perimetral",
        "zipcode": "98787-012"
    },
    {
        "city": "Santa Rosa",
        "state": "RS",
        "district": "Central",
        "street": "Rua Augusto Krebs",
        "zipcode": "98787-054"
    },
    {
        "city": "Santa Rosa",
        "state": "RS",
        "district": "Central",
        "street": "Rua Rodolfo Schadeck",
        "zipcode": "98787-010"
    },
    {
        "city": "Santa Rosa",
        "state": "RS",
        "district": "Glória",
        "street": "Rodovia RS",
        "zipcode": "98785-860"
    },
    {
        "city": "Santa Rosa",
        "state": "RS",
        "district": "Central",
        "street": "Rua Ângelo Zenni",
        "zipcode": "98787-006"
    },
    {
        "city": "Santa Rosa",
        "state": "RS",
        "district": "Glória",
        "street": "Rua Salvador Inácio da Silva",
        "zipcode": "98785-006"
    },
    {
        "city": "Santa Rosa",
        "state": "RS",
        "district": "Glória",
        "street": "Rua José Alfredo Nedel",
        "zipcode": "98785-003"
    },
    {
        "city": "Santa Rosa",
        "state": "RS",
        "district": "Timbaúva",
        "street": "Rua Doutor Egon Lang",
        "zipcode": "98781-388"
    },
    {
        "city": "Santa Rosa",
        "state": "RS",
        "district": "Timbaúva",
        "street": "Rua Esperança",
        "zipcode": "98781-086"
    },
    {
        "city": "Santa Rosa",
        "state": "RS",
        "district": "Centro",
        "street": "Avenida Santa Cruz",
        "zipcode": "98780-744"
    },
    {
        "city": "Santa Rosa",
        "state": "RS",
        "district": "Planalto",
        "street": "Rua Natalvino Carpenedo",
        "zipcode": "98794-134"
    },
    {
        "city": "Santa Rosa",
        "state": "RS",
        "district": "Cruzeiro",
        "street": "Rua Oito (Lot Cresol II)",
        "zipcode": "98790-706"
    },
    {
        "city": "Santa Rosa",
        "state": "RS",
        "district": "Cruzeiro",
        "street": "Rua Edmundo Pilz",
        "zipcode": "98790-300"
    },
    {
        "city": "Santa Rosa",
        "state": "RS",
        "district": "Cruzeiro",
        "street": "Rua Eduardo Meneghel",
        "zipcode": "98789-826"
    },
    {
        "city": "Santa Rosa",
        "state": "RS",
        "district": "Cruzeiro",
        "street": "Avenida Buricá",
        "zipcode": "98790-068"
    },
    {
        "city": "Santa Rosa",
        "state": "RS",
        "district": "Cruzeiro",
        "street": "Rua Sul",
        "zipcode": "98789-352"
    },
    {
        "city": "Santa Rosa",
        "state": "RS",
        "district": "Cruzeiro",
        "street": "Avenida Augusto Pestana",
        "zipcode": "98789-816"
    },
    {
        "city": "Santa Rosa",
        "state": "RS",
        "district": "Cruzeiro",
        "street": "Travessa Manaus",
        "zipcode": "98789-574"
    },
    {
        "city": "Santa Rosa",
        "state": "RS",
        "district": "Cruzeiro",
        "street": "Rua Anselmo Maschio",
        "zipcode": "98789-204"
    },
    {
        "city": "Santa Rosa",
        "state": "RS",
        "district": "Cruzeiro",
        "street": "Travessa Aurélio Walter",
        "zipcode": "98789-198"
    },
    {
        "city": "Santa Rosa",
        "state": "RS",
        "district": "Central",
        "street": "Rua Raul Gomes de Medeiros",
        "zipcode": "98788-030"
    },
    {
        "city": "Santa Rosa",
        "state": "RS",
        "district": "Central",
        "street": "Rua Olivio Pinto",
        "zipcode": "98787-770"
    },
    {
        "city": "Santa Rosa",
        "state": "RS",
        "district": "Central",
        "street": "Avenida Coronel Bráulio de Oliveira",
        "zipcode": "98787-740"
    },
    {
        "city": "Santa Rosa",
        "state": "RS",
        "district": "Central",
        "street": "Rua Marcos Griza",
        "zipcode": "98787-696"
    },
    {
        "city": "Santa Rosa",
        "state": "RS",
        "district": "Central",
        "street": "Rua A (R José Bonifácio)",
        "zipcode": "98787-600"
    },
    {
        "city": "Santa Rosa",
        "state": "RS",
        "district": "Central",
        "street": "Rua José Bonifácio",
        "zipcode": "98787-518"
    },
    {
        "city": "Santa Rosa",
        "state": "RS",
        "district": "Central",
        "street": "Rua José Bonifácio",
        "zipcode": "98787-454"
    },
    {
        "city": "Santa Rosa",
        "state": "RS",
        "district": "Central",
        "street": "Rua Santo Cristo",
        "zipcode": "98787-410"
    },
    {
        "city": "Santa Rosa",
        "state": "RS",
        "district": "Central",
        "street": "Avenida Coronel Bráulio de Oliveira",
        "zipcode": "98787-406"
    },
    {
        "city": "Santa Rosa",
        "state": "RS",
        "district": "Glória",
        "street": "Rua Vinte e Quatro de Outubro",
        "zipcode": "98785-352"
    },
    {
        "city": "Santa Rosa",
        "state": "RS",
        "district": "Central",
        "street": "Rua dos Farrapos",
        "zipcode": "98787-400"
    },
    {
        "city": "Santa Rosa",
        "state": "RS",
        "district": "Glória",
        "street": "Rua Bem Te Vi",
        "zipcode": "98785-292"
    },
    {
        "city": "Santa Rosa",
        "state": "RS",
        "district": "Glória",
        "street": "Alameda dos Eucaliptos",
        "zipcode": "98785-112"
    },
    {
        "city": "Santa Rosa",
        "state": "RS",
        "district": "Glória",
        "street": "Avenida Santa Cruz",
        "zipcode": "98785-033"
    },
    {
        "city": "Santa Rosa",
        "state": "RS",
        "district": "Guia Lopes",
        "street": "Travessa Dois (Lot Kunz)",
        "zipcode": "98783-702"
    },
    {
        "city": "Santa Rosa",
        "state": "RS",
        "district": "Glória",
        "street": "Rua Fernando Albino",
        "zipcode": "98785-000"
    },
    {
        "city": "Santa Rosa",
        "state": "RS",
        "district": "Timbaúva",
        "street": "Rua Ferdinando D Ambroso",
        "zipcode": "98781-308"
    },
    {
        "city": "Santa Rosa",
        "state": "RS",
        "district": "Timbaúva",
        "street": "Rua Doutor Francisco Timm",
        "zipcode": "98781-260"
    },
    {
        "city": "Santa Rosa",
        "state": "RS",
        "district": "Timbaúva",
        "street": "Travessa A (R Dr Francisco Timm)",
        "zipcode": "98781-206"
    },
    {
        "city": "Santa Rosa",
        "state": "RS",
        "district": "Timbaúva",
        "street": "Rua Arno Günther Seibert",
        "zipcode": "98781-328"
    },
    {
        "city": "Santa Rosa",
        "state": "RS",
        "district": "Timbaúva",
        "street": "Rua Professor Toríbio dos Santos Antunes",
        "zipcode": "98781-052"
    },
    {
        "city": "Santa Rosa",
        "state": "RS",
        "district": "Centro",
        "street": "Rua Doutor Francisco Timm",
        "zipcode": "98780-868"
    },
    {
        "city": "Santa Rosa",
        "state": "RS",
        "district": "Centro",
        "street": "Avenida Inhacorá",
        "zipcode": "98780-818"
    },
    {
        "city": "Santa Rosa",
        "state": "RS",
        "district": "Centro",
        "street": "Rua Guaporé",
        "zipcode": "98780-824"
    },
    {
        "city": "Santa Rosa",
        "state": "RS",
        "district": "Centro",
        "street": "Rua Doutor Francisco Timm",
        "zipcode": "98780-803"
    },
    {
        "city": "Santa Rosa",
        "state": "RS",
        "district": "Centro",
        "street": "Rua Guaporé",
        "zipcode": "98780-756"
    },
    {
        "city": "Santa Rosa",
        "state": "RS",
        "district": "Centro",
        "street": "Rua Doutor Francisco Timm",
        "zipcode": "98780-064"
    },
    {
        "city": "Santa Rosa",
        "state": "RS",
        "district": "Centro",
        "street": "Rua Palmeiras",
        "zipcode": "98780-062"
    },
    {
        "city": "Santa Rosa",
        "state": "RS",
        "district": "Centro",
        "street": "Rua Santa Rosa",
        "zipcode": "98780-060"
    },
    {
        "city": "Santa Rosa",
        "state": "RS",
        "district": "Centro",
        "street": "Rua São Luiz",
        "zipcode": "98780-058"
    },
    {
        "city": "Santa Rosa",
        "state": "RS",
        "district": "Centro",
        "street": "Rua Caxias",
        "zipcode": "98780-056"
    },
    {
        "city": "Santa Rosa",
        "state": "RS",
        "district": "Centro",
        "street": "Travessa Giruá",
        "zipcode": "98780-054"
    },
    {
        "city": "Santa Rosa",
        "state": "RS",
        "district": "Centro",
        "street": "Rua Giruá",
        "zipcode": "98780-050"
    },
    {
        "city": "Santa Rosa",
        "state": "RS",
        "district": "Centro",
        "street": "Rua Cecília Meireles",
        "zipcode": "98780-016"
    },
    {
        "city": "Santa Rosa",
        "state": "RS",
        "district": "Centro",
        "street": "Rua São Salvador",
        "zipcode": "98780-007"
    },
    {
        "city": "Santa Rosa",
        "state": "RS",
        "district": "Centro",
        "street": "Rua Antônio Scalco",
        "zipcode": "98780-004"
    },
    {
        "city": "Santa Rosa",
        "state": "RS",
        "district": "Centro",
        "street": "Rua Giruá",
        "zipcode": "98780-052"
    },
    {
        "city": "Santa Rosa",
        "state": "RS",
        "district": "Auxiliadora",
        "street": "Rua Santa Marta",
        "zipcode": "98796-702"
    },
    {
        "city": "Santa Rosa",
        "state": "RS",
        "district": "Auxiliadora",
        "street": "Rua São Vicente",
        "zipcode": "98796-700"
    },
    {
        "city": "Santa Rosa",
        "state": "RS",
        "district": "Auxiliadora",
        "street": "Rua São Joaquim",
        "zipcode": "98796-698"
    },
    {
        "city": "Santa Rosa",
        "state": "RS",
        "district": "Auxiliadora",
        "street": "Rua Nossa Senhora da Saúde",
        "zipcode": "98796-696"
    },
    {
        "city": "Santa Rosa",
        "state": "RS",
        "district": "Auxiliadora",
        "street": "Rua São Cosme e Damião",
        "zipcode": "98796-692"
    },
    {
        "city": "Santa Rosa",
        "state": "RS",
        "district": "Auxiliadora",
        "street": "Rua São Francisco de Assis",
        "zipcode": "98796-690"
    },
    {
        "city": "Santa Rosa",
        "state": "RS",
        "district": "Auxiliadora",
        "street": "Rua Guamirim",
        "zipcode": "98796-668"
    },
    {
        "city": "Santa Rosa",
        "state": "RS",
        "district": "Auxiliadora",
        "street": "Rodovia RS",
        "zipcode": "98796-610"
    },
    {
        "city": "Santa Rosa",
        "state": "RS",
        "district": "Auxiliadora",
        "street": "Rua Rafael Pinto Bandeira",
        "zipcode": "98796-597"
    },
    {
        "city": "Santa Rosa",
        "state": "RS",
        "district": "Auxiliadora",
        "street": "Rua Sargento Sílvio Hollenbach",
        "zipcode": "98796-594"
    },
    {
        "city": "Santa Rosa",
        "state": "RS",
        "district": "Auxiliadora",
        "street": "Rua São Judas Tadeu",
        "zipcode": "98796-708"
    },
    {
        "city": "Santa Rosa",
        "state": "RS",
        "district": "Auxiliadora",
        "street": "Rua São Guido",
        "zipcode": "98796-704"
    },
    {
        "city": "Santa Rosa",
        "state": "RS",
        "district": "Auxiliadora",
        "street": "Rua das Canelas",
        "zipcode": "98796-666"
    },
    {
        "city": "Santa Rosa",
        "state": "RS",
        "district": "Auxiliadora",
        "street": "Rua da Marcela",
        "zipcode": "98796-662"
    },
    {
        "city": "Santa Rosa",
        "state": "RS",
        "district": "Auxiliadora",
        "street": "Rua do Timbó",
        "zipcode": "98796-660"
    },
    {
        "city": "Santa Rosa",
        "state": "RS",
        "district": "Auxiliadora",
        "street": "Rua do Carvoeiro",
        "zipcode": "98796-591"
    },
    {
        "city": "Santa Rosa",
        "state": "RS",
        "district": "Auxiliadora",
        "street": "Rodovia RS",
        "zipcode": "98796-730"
    },
    {
        "city": "Santa Rosa",
        "state": "RS",
        "district": "Centro",
        "street": "Rua General Bandeira",
        "zipcode": "98780-823"
    },
    {
        "city": "Santa Rosa",
        "state": "RS",
        "district": "Centro",
        "street": "Rua Bernardo Efing",
        "zipcode": "98780-194"
    },
    {
        "city": "Santa Rosa",
        "state": "RS",
        "district": "Centro",
        "street": "Rua Bertholdo Leusin",
        "zipcode": "98780-188"
    },
    {
        "city": "Santa Rosa",
        "state": "RS",
        "district": "Centro",
        "street": "Rua das Missões",
        "zipcode": "98780-204"
    },
    {
        "city": "Santa Rosa",
        "state": "RS",
        "district": "Centro",
        "street": "Rua Presidente Castelo Branco",
        "zipcode": "98780-200"
    },
    {
        "city": "Santa Rosa",
        "state": "RS",
        "district": "Centro",
        "street": "Rua São Miguel",
        "zipcode": "98780-196"
    },
    {
        "city": "Santa Rosa",
        "state": "RS",
        "district": "Centro",
        "street": "Rua Minas Gerais",
        "zipcode": "98780-190"
    },
    {
        "city": "Santa Rosa",
        "state": "RS",
        "district": "Centro",
        "street": "Rua São Luiz",
        "zipcode": "98780-186"
    },
    {
        "city": "Santa Rosa",
        "state": "RS",
        "district": "Centro",
        "street": "Rua Paraná",
        "zipcode": "98780-184"
    },
    {
        "city": "Santa Rosa",
        "state": "RS",
        "district": "Centro",
        "street": "Rua Três de Novembro",
        "zipcode": "98780-180"
    },
    {
        "city": "Santa Rosa",
        "state": "RS",
        "district": "Centro",
        "street": "Beco da Natal",
        "zipcode": "98780-159"
    },
    {
        "city": "Santa Rosa",
        "state": "RS",
        "district": "Centro",
        "street": "Rua Natal",
        "zipcode": "98780-156"
    },
    {
        "city": "Santa Rosa",
        "state": "RS",
        "district": "Centro",
        "street": "Travessa Brasília",
        "zipcode": "98780-153"
    },
    {
        "city": "Santa Rosa",
        "state": "RS",
        "district": "Centro",
        "street": "Avenida Santa Cruz",
        "zipcode": "98780-150"
    },
    {
        "city": "Santa Rosa",
        "state": "RS",
        "district": "Centro",
        "street": "Rua Santa Rosa",
        "zipcode": "98780-127"
    },
    {
        "city": "Santa Rosa",
        "state": "RS",
        "district": "Centro",
        "street": "Rua Guilherme Balze",
        "zipcode": "98780-202"
    },
    {
        "city": "Santa Rosa",
        "state": "RS",
        "district": "Centro",
        "street": "Rua Princesa Isabel",
        "zipcode": "98780-192"
    },
    {
        "city": "Santa Rosa",
        "state": "RS",
        "district": "Centro",
        "street": "Avenida América",
        "zipcode": "98780-124"
    },
    {
        "city": "Santa Rosa",
        "state": "RS",
        "district": "Centro",
        "street": "Rua Minas Gerais",
        "zipcode": "98780-118"
    },
    {
        "city": "Santa Rosa",
        "state": "RS",
        "district": "Centro",
        "street": "Rua São Francisco",
        "zipcode": "98780-112"
    },
    {
        "city": "Santa Rosa",
        "state": "RS",
        "district": "Central",
        "street": "Rua Lisboa",
        "zipcode": "98787-176"
    },
    {
        "city": "Santa Rosa",
        "state": "RS",
        "district": "Centro",
        "street": "Rua Santos Dumont",
        "zipcode": "98780-109"
    },
    {
        "city": "Santa Rosa",
        "state": "RS",
        "district": "Centro",
        "street": "Praça da Bandeira",
        "zipcode": "98780-103"
    },
    {
        "city": "Santa Rosa",
        "state": "RS",
        "district": "Centro",
        "street": "Avenida Rio Branco",
        "zipcode": "98780-100"
    },
    {
        "city": "Santa Rosa",
        "state": "RS",
        "district": "Centro",
        "street": "Rua Guaporé",
        "zipcode": "98780-082"
    },
    {
        "city": "Santa Rosa",
        "state": "RS",
        "district": "Centro",
        "street": "Rua Sinval Saldanha",
        "zipcode": "98780-080"
    },
    {
        "city": "Santa Rosa",
        "state": "RS",
        "district": "Centro",
        "street": "Rua Santo Ângelo",
        "zipcode": "98780-076"
    },
    {
        "city": "Santa Rosa",
        "state": "RS",
        "district": "Centro",
        "street": "Rua Boa Vista",
        "zipcode": "98780-066"
    },
    {
        "city": "Santa Rosa",
        "state": "RS",
        "district": "Centro",
        "street": "Rua Zeferino Soares",
        "zipcode": "98780-198"
    },
    {
        "city": "Santa Rosa",
        "state": "RS",
        "district": "Centro",
        "street": "Rua Cristóvão Colombo",
        "zipcode": "98780-106"
    },
    {
        "city": "Santa Rosa",
        "state": "RS",
        "district": "Centro",
        "street": "Praça da Independência",
        "zipcode": "98780-074"
    },
    {
        "city": "Santa Rosa",
        "state": "RS",
        "district": "Centro",
        "street": "Travessa Acre",
        "zipcode": "98780-121"
    },
    {
        "city": "Santa Rosa",
        "state": "RS",
        "district": "Centro",
        "street": "Rua João Dahne",
        "zipcode": "98780-072"
    },
    {
        "city": "Santa Rosa",
        "state": "RS",
        "district": "Centro",
        "street": "Rua Santo Ângelo",
        "zipcode": "98780-068"
    },
    {
        "city": "Santa Rosa",
        "state": "RS",
        "district": "Centro",
        "street": "Rua João Dahne",
        "zipcode": "98780-078"
    },
    {
        "city": "Santa Rosa",
        "state": "RS",
        "district": "Auxiliadora",
        "street": "Rua David Canabarro",
        "zipcode": "98796-582"
    },
    {
        "city": "Santa Rosa",
        "state": "RS",
        "district": "Auxiliadora",
        "street": "Travessa Mãe Margarida",
        "zipcode": "98796-579"
    },
    {
        "city": "Santa Rosa",
        "state": "RS",
        "district": "Auxiliadora",
        "street": "Travessa Harmonia",
        "zipcode": "98796-576"
    },
    {
        "city": "Santa Rosa",
        "state": "RS",
        "district": "Auxiliadora",
        "street": "Rua Sepé Tiaraju",
        "zipcode": "98796-570"
    },
    {
        "city": "Santa Rosa",
        "state": "RS",
        "district": "Auxiliadora",
        "street": "Travessa Norberto Flores Pinto",
        "zipcode": "98796-556"
    },
    {
        "city": "Santa Rosa",
        "state": "RS",
        "district": "Auxiliadora",
        "street": "Rua Ana Terra",
        "zipcode": "98796-548"
    },
    {
        "city": "Santa Rosa",
        "state": "RS",
        "district": "Auxiliadora",
        "street": "Rua Negrinho do Pastoreio",
        "zipcode": "98796-552"
    },
    {
        "city": "Santa Rosa",
        "state": "RS",
        "district": "Auxiliadora",
        "street": "Rua SD 591",
        "zipcode": "98796-536"
    },
    {
        "city": "Santa Rosa",
        "state": "RS",
        "district": "Auxiliadora",
        "street": "Rua Roraima",
        "zipcode": "98796-532"
    },
    {
        "city": "Santa Rosa",
        "state": "RS",
        "district": "Auxiliadora",
        "street": "Rua SD 578",
        "zipcode": "98796-528"
    },
    {
        "city": "Santa Rosa",
        "state": "RS",
        "district": "Auxiliadora",
        "street": "Rua SD 583",
        "zipcode": "98796-520"
    },
    {
        "city": "Santa Rosa",
        "state": "RS",
        "district": "Sulina",
        "street": "Rodovia RS",
        "zipcode": "98796-480"
    },
    {
        "city": "Santa Rosa",
        "state": "RS",
        "district": "Sulina",
        "street": "Beco da Sulina",
        "zipcode": "98796-450"
    },
    {
        "city": "Santa Rosa",
        "state": "RS",
        "district": "Sulina",
        "street": "Rodovia RS",
        "zipcode": "98796-440"
    },
    {
        "city": "Santa Rosa",
        "state": "RS",
        "district": "Sulina",
        "street": "Rua Edwino Fenner",
        "zipcode": "98796-306"
    },
    {
        "city": "Santa Rosa",
        "state": "RS",
        "district": "Auxiliadora",
        "street": "Rua Padre Mansueto Tress",
        "zipcode": "98796-544"
    },
    {
        "city": "Santa Rosa",
        "state": "RS",
        "district": "Auxiliadora",
        "street": "Rua SD 577",
        "zipcode": "98796-540"
    },
    {
        "city": "Santa Rosa",
        "state": "RS",
        "district": "Auxiliadora",
        "street": "Rua A (Vl Bom Retiro)",
        "zipcode": "98796-524"
    },
    {
        "city": "Santa Rosa",
        "state": "RS",
        "district": "Sulina",
        "street": "Rodovia RS",
        "zipcode": "98796-360"
    },
    {
        "city": "Santa Rosa",
        "state": "RS",
        "district": "Sulina",
        "street": "Travessa Uruguaiana",
        "zipcode": "98796-304"
    },
    {
        "city": "Santa Rosa",
        "state": "RS",
        "district": "Auxiliadora",
        "street": "Rua José do Paulino",
        "zipcode": "98796-588"
    },
    {
        "city": "Santa Rosa",
        "state": "RS",
        "district": "Sulina",
        "street": "Estrada Lajeado",
        "zipcode": "98796-410"
    },
    {
        "city": "Santa Rosa",
        "state": "RS",
        "district": "Centro",
        "street": "Rua Concórdia",
        "zipcode": "98780-349"
    },
    {
        "city": "Santa Rosa",
        "state": "RS",
        "district": "Centro",
        "street": "Avenida Osmar Trommenschlager",
        "zipcode": "98780-500"
    },
    {
        "city": "Santa Rosa",
        "state": "RS",
        "district": "Centro",
        "street": "Rua José Bonifácio",
        "zipcode": "98780-403"
    },
    {
        "city": "Santa Rosa",
        "state": "RS",
        "district": "Centro",
        "street": "Avenida Expedicionário Weber",
        "zipcode": "98780-400"
    },
    {
        "city": "Santa Rosa",
        "state": "RS",
        "district": "Centro",
        "street": "Alameda das Flores",
        "zipcode": "98780-355"
    },
    {
        "city": "Santa Rosa",
        "state": "RS",
        "district": "Centro",
        "street": "Rua Antônio Carlos Borges",
        "zipcode": "98780-352"
    },
    {
        "city": "Santa Rosa",
        "state": "RS",
        "district": "Centro",
        "street": "Rua Henrique Martin",
        "zipcode": "98780-346"
    },
    {
        "city": "Santa Rosa",
        "state": "RS",
        "district": "Centro",
        "street": "Rua Oscar Seger",
        "zipcode": "98780-343"
    },
    {
        "city": "Santa Rosa",
        "state": "RS",
        "district": "Centro",
        "street": "Avenida Expedicionário Weber",
        "zipcode": "98780-340"
    },
    {
        "city": "Santa Rosa",
        "state": "RS",
        "district": "Centro",
        "street": "Travessa Brasil",
        "zipcode": "98780-337"
    },
    {
        "city": "Santa Rosa",
        "state": "RS",
        "district": "Centro",
        "street": "Rua Rio Grande",
        "zipcode": "98780-334"
    },
    {
        "city": "Santa Rosa",
        "state": "RS",
        "district": "Centro",
        "street": "Rua Júlio Leopoldo Rauber",
        "zipcode": "98780-331"
    },
    {
        "city": "Santa Rosa",
        "state": "RS",
        "district": "Centro",
        "street": "Rua Guerino Rigo",
        "zipcode": "98780-328"
    },
    {
        "city": "Santa Rosa",
        "state": "RS",
        "district": "Centro",
        "street": "Travessa Expedicionário Izidro Leal",
        "zipcode": "98780-406"
    },
    {
        "city": "Santa Rosa",
        "state": "RS",
        "district": "Centro",
        "street": "Avenida América",
        "zipcode": "98780-325"
    },
    {
        "city": "Santa Rosa",
        "state": "RS",
        "district": "Centro",
        "street": "Rua Alfredo Heimerdinger",
        "zipcode": "98780-316"
    },
    {
        "city": "Santa Rosa",
        "state": "RS",
        "district": "Centro",
        "street": "Rua Dom João VI",
        "zipcode": "98780-313"
    },
    {
        "city": "Santa Rosa",
        "state": "RS",
        "district": "Centro",
        "street": "Rua Adão Ribeiro Monteiro",
        "zipcode": "98780-245"
    },
    {
        "city": "Santa Rosa",
        "state": "RS",
        "district": "Centro",
        "street": "Rua Miguel Alberto Rigo",
        "zipcode": "98780-242"
    },
    {
        "city": "Santa Rosa",
        "state": "RS",
        "district": "Centro",
        "street": "Rua Pedro Weber",
        "zipcode": "98780-239"
    },
    {
        "city": "Santa Rosa",
        "state": "RS",
        "district": "Centro",
        "street": "Rua Waldemar Bernardo Leusin",
        "zipcode": "98780-236"
    },
    {
        "city": "Santa Rosa",
        "state": "RS",
        "district": "Centro",
        "street": "Rua José Lavarda",
        "zipcode": "98780-233"
    },
    {
        "city": "Santa Rosa",
        "state": "RS",
        "district": "Centro",
        "street": "Avenida América",
        "zipcode": "98780-230"
    },
    {
        "city": "Santa Rosa",
        "state": "RS",
        "district": "Centro",
        "street": "Travessa DAER",
        "zipcode": "98780-208"
    },
    {
        "city": "Santa Rosa",
        "state": "RS",
        "district": "Centro",
        "street": "Avenida América",
        "zipcode": "98780-206"
    },
    {
        "city": "Santa Rosa",
        "state": "RS",
        "district": "Centro",
        "street": "Rua Santos Dumont",
        "zipcode": "98780-322"
    },
    {
        "city": "Santa Rosa",
        "state": "RS",
        "district": "Centro",
        "street": "Rua Santa Rosa",
        "zipcode": "98780-319"
    },
    {
        "city": "Santa Rosa",
        "state": "RS",
        "district": "Centro",
        "street": "Avenida Júlio Fehlauer",
        "zipcode": "98780-310"
    },
    {
        "city": "Santa Rosa",
        "state": "RS",
        "district": "Centro",
        "street": "Rua Tereza Heimerdinger",
        "zipcode": "98780-248"
    },
    {
        "city": "Santa Rosa",
        "state": "RS",
        "district": "Sulina",
        "street": "Rua Itajaí",
        "zipcode": "98796-298"
    },
    {
        "city": "Santa Rosa",
        "state": "RS",
        "district": "Sulina",
        "street": "Rua Blumenau",
        "zipcode": "98796-296"
    },
    {
        "city": "Santa Rosa",
        "state": "RS",
        "district": "Sulina",
        "street": "Rua Fortaleza",
        "zipcode": "98796-294"
    },
    {
        "city": "Santa Rosa",
        "state": "RS",
        "district": "Sulina",
        "street": "Rua Belo Horizonte",
        "zipcode": "98796-302"
    },
    {
        "city": "Santa Rosa",
        "state": "RS",
        "district": "Sulina",
        "street": "Rua João Pedro Timm",
        "zipcode": "98796-288"
    },
    {
        "city": "Santa Rosa",
        "state": "RS",
        "district": "Sulina",
        "street": "Rua Caminho Oeste",
        "zipcode": "98796-284"
    },
    {
        "city": "Santa Rosa",
        "state": "RS",
        "district": "Sulina",
        "street": "Rua Livramento",
        "zipcode": "98796-282"
    },
    {
        "city": "Santa Rosa",
        "state": "RS",
        "district": "Sulina",
        "street": "Rua Getúlio Garcia dos Santos",
        "zipcode": "98796-260"
    },
    {
        "city": "Santa Rosa",
        "state": "RS",
        "district": "Sulina",
        "street": "Rua Guilherme Kroth",
        "zipcode": "98796-258"
    },
    {
        "city": "Santa Rosa",
        "state": "RS",
        "district": "Sulina",
        "street": "Rua Santa Maria",
        "zipcode": "98796-252"
    },
    {
        "city": "Santa Rosa",
        "state": "RS",
        "district": "Sulina",
        "street": "Rua Santa Vitória",
        "zipcode": "98796-250"
    },
    {
        "city": "Santa Rosa",
        "state": "RS",
        "district": "Sulina",
        "street": "Rua São Gabriel",
        "zipcode": "98796-246"
    },
    {
        "city": "Santa Rosa",
        "state": "RS",
        "district": "Sulina",
        "street": "Travessa Getúlio Garcia dos Santos",
        "zipcode": "98796-280"
    },
    {
        "city": "Santa Rosa",
        "state": "RS",
        "district": "Sulina",
        "street": "Rua São Borja",
        "zipcode": "98796-256"
    },
    {
        "city": "Santa Rosa",
        "state": "RS",
        "district": "Sulina",
        "street": "Rua Jaguarão",
        "zipcode": "98796-254"
    },
    {
        "city": "Santa Rosa",
        "state": "RS",
        "district": "Sulina",
        "street": "Travessa Tapes",
        "zipcode": "98796-248"
    },
    {
        "city": "Santa Rosa",
        "state": "RS",
        "district": "Sulina",
        "street": "Rua Carazinho",
        "zipcode": "98796-244"
    },
    {
        "city": "Santa Rosa",
        "state": "RS",
        "district": "Sulina",
        "street": "Rua Taquari",
        "zipcode": "98796-240"
    },
    {
        "city": "Santa Rosa",
        "state": "RS",
        "district": "Sulina",
        "street": "Rua Carlos Bergmann",
        "zipcode": "98796-228"
    },
    {
        "city": "Santa Rosa",
        "state": "RS",
        "district": "Sulina",
        "street": "Travessa Augusto Reinher",
        "zipcode": "98796-224"
    },
    {
        "city": "Santa Rosa",
        "state": "RS",
        "district": "Sulina",
        "street": "Rua dos Plátanos",
        "zipcode": "98796-205"
    },
    {
        "city": "Santa Rosa",
        "state": "RS",
        "district": "Sulina",
        "street": "Travessa Cristóvão Leopoldo Meinertz",
        "zipcode": "98796-234"
    },
    {
        "city": "Santa Rosa",
        "state": "RS",
        "district": "Sulina",
        "street": "Beco Cristóvão Leopoldo",
        "zipcode": "98796-232"
    },
    {
        "city": "Santa Rosa",
        "state": "RS",
        "district": "Sulina",
        "street": "Rua Paris",
        "zipcode": "98796-199"
    },
    {
        "city": "Santa Rosa",
        "state": "RS",
        "district": "Sulina",
        "street": "Travessa Dois (Vl Sta Inêz)",
        "zipcode": "98796-193"
    },
    {
        "city": "Santa Rosa",
        "state": "RS",
        "district": "Sulina",
        "street": "Rua Esmeralda",
        "zipcode": "98796-190"
    },
    {
        "city": "Santa Rosa",
        "state": "RS",
        "district": "Sulina",
        "street": "Rua Raul Leite",
        "zipcode": "98796-174"
    },
    {
        "city": "Santa Rosa",
        "state": "RS",
        "district": "Sulina",
        "street": "Rua Plácido de Castro",
        "zipcode": "98796-170"
    },
    {
        "city": "Santa Rosa",
        "state": "RS",
        "district": "Sulina",
        "street": "Avenida Borges de Medeiros",
        "zipcode": "98796-140"
    },
    {
        "city": "Santa Rosa",
        "state": "RS",
        "district": "Sulina",
        "street": "Rua Uruguaiana",
        "zipcode": "98796-242"
    },
    {
        "city": "Santa Rosa",
        "state": "RS",
        "district": "Sulina",
        "street": "Rua Edwino Fenner",
        "zipcode": "98796-220"
    },
    {
        "city": "Santa Rosa",
        "state": "RS",
        "district": "Centro",
        "street": "Rua Aliança",
        "zipcode": "98780-582"
    },
    {
        "city": "Santa Rosa",
        "state": "RS",
        "district": "Centro",
        "street": "Rua Raul de Andrade",
        "zipcode": "98780-579"
    },
    {
        "city": "Santa Rosa",
        "state": "RS",
        "district": "Centro",
        "street": "Rua Pastor Alberto Lehenbauer",
        "zipcode": "98780-573"
    },
    {
        "city": "Santa Rosa",
        "state": "RS",
        "district": "Centro",
        "street": "Rua Luiz Dinon",
        "zipcode": "98780-570"
    },
    {
        "city": "Santa Rosa",
        "state": "RS",
        "district": "Centro",
        "street": "Travessa General Osório",
        "zipcode": "98780-603"
    },
    {
        "city": "Santa Rosa",
        "state": "RS",
        "district": "Centro",
        "street": "Rua General Osório",
        "zipcode": "98780-600"
    },
    {
        "city": "Santa Rosa",
        "state": "RS",
        "district": "Centro",
        "street": "Rua Bento Martins",
        "zipcode": "98780-564"
    },
    {
        "city": "Santa Rosa",
        "state": "RS",
        "district": "Centro",
        "street": "Rua Paraguai",
        "zipcode": "98780-552"
    },
    {
        "city": "Santa Rosa",
        "state": "RS",
        "district": "Centro",
        "street": "Rua Sergipe",
        "zipcode": "98780-549"
    },
    {
        "city": "Santa Rosa",
        "state": "RS",
        "district": "Centro",
        "street": "Rua General Osório",
        "zipcode": "98780-546"
    },
    {
        "city": "Santa Rosa",
        "state": "RS",
        "district": "Centro",
        "street": "Rua Coronel Borges Fortes",
        "zipcode": "98780-543"
    },
    {
        "city": "Santa Rosa",
        "state": "RS",
        "district": "Centro",
        "street": "Rua Duque de Caxias",
        "zipcode": "98780-540"
    },
    {
        "city": "Santa Rosa",
        "state": "RS",
        "district": "Centro",
        "street": "Travessa Egon Kunde",
        "zipcode": "98780-509"
    },
    {
        "city": "Santa Rosa",
        "state": "RS",
        "district": "Centro",
        "street": "Travessa Ernesto Engel",
        "zipcode": "98780-506"
    },
    {
        "city": "Santa Rosa",
        "state": "RS",
        "district": "Centro",
        "street": "Avenida Érico Veríssimo",
        "zipcode": "98780-576"
    },
    {
        "city": "Santa Rosa",
        "state": "RS",
        "district": "Centro",
        "street": "Rua Pautilho Palhares",
        "zipcode": "98780-567"
    },
    {
        "city": "Santa Rosa",
        "state": "RS",
        "district": "Centro",
        "street": "Rua Almirante Tamandaré",
        "zipcode": "98780-558"
    },
    {
        "city": "Santa Rosa",
        "state": "RS",
        "district": "Centro",
        "street": "Rua Teixeira Mendes",
        "zipcode": "98780-555"
    },
    {
        "city": "Santa Rosa",
        "state": "RS",
        "district": "Centro",
        "street": "Travessa Padre Arcângelo Moratelli",
        "zipcode": "98780-561"
    },
    {
        "city": "Santa Rosa",
        "state": "RS",
        "district": "Sulina",
        "street": "Rua Sarandi",
        "zipcode": "98796-100"
    },
    {
        "city": "Santa Rosa",
        "state": "RS",
        "district": "Sulina",
        "street": "Travessa Moura",
        "zipcode": "98796-078"
    },
    {
        "city": "Santa Rosa",
        "state": "RS",
        "district": "Sulina",
        "street": "Rua Caminho Leste",
        "zipcode": "98796-074"
    },
    {
        "city": "Santa Rosa",
        "state": "RS",
        "district": "Sulina",
        "street": "Travessa Borges de Medeiros",
        "zipcode": "98796-058"
    },
    {
        "city": "Santa Rosa",
        "state": "RS",
        "district": "Sulina",
        "street": "Beco da Medeiros",
        "zipcode": "98796-056"
    },
    {
        "city": "Santa Rosa",
        "state": "RS",
        "district": "Sulina",
        "street": "Travessa Sul",
        "zipcode": "98796-104"
    },
    {
        "city": "Santa Rosa",
        "state": "RS",
        "district": "Sulina",
        "street": "Travessa Leste",
        "zipcode": "98796-070"
    },
    {
        "city": "Santa Rosa",
        "state": "RS",
        "district": "Industrial",
        "street": "Rodovia RS",
        "zipcode": "98794-790"
    },
    {
        "city": "Santa Rosa",
        "state": "RS",
        "district": "Industrial",
        "street": "Rua Guilherme Foliatti",
        "zipcode": "98794-760"
    },
    {
        "city": "Santa Rosa",
        "state": "RS",
        "district": "Industrial",
        "street": "Rua SD 410",
        "zipcode": "98794-685"
    },
    {
        "city": "Santa Rosa",
        "state": "RS",
        "district": "Planalto",
        "street": "Rodovia RS",
        "zipcode": "98794-540"
    },
    {
        "city": "Santa Rosa",
        "state": "RS",
        "district": "Planalto",
        "street": "Estrada Lajeado",
        "zipcode": "98794-500"
    },
    {
        "city": "Santa Rosa",
        "state": "RS",
        "district": "Planalto",
        "street": "Rodovia RS",
        "zipcode": "98794-440"
    },
    {
        "city": "Santa Rosa",
        "state": "RS",
        "district": "Industrial",
        "street": "Rua Alfredo dos Santos",
        "zipcode": "98794-654"
    },
    {
        "city": "Santa Rosa",
        "state": "RS",
        "district": "Timbaúva",
        "street": "Rua da Vertente",
        "zipcode": "98781-101"
    },
    {
        "city": "Santa Rosa",
        "state": "RS",
        "district": "Timbaúva",
        "street": "Rua Montenegro",
        "zipcode": "98781-098"
    },
    {
        "city": "Santa Rosa",
        "state": "RS",
        "district": "Timbaúva",
        "street": "Avenida Perimetral",
        "zipcode": "98781-200"
    },
    {
        "city": "Santa Rosa",
        "state": "RS",
        "district": "Timbaúva",
        "street": "Rua Erechim",
        "zipcode": "98781-210"
    },
    {
        "city": "Santa Rosa",
        "state": "RS",
        "district": "Centro",
        "street": "Rua Buriti",
        "zipcode": "98780-753"
    },
    {
        "city": "Santa Rosa",
        "state": "RS",
        "district": "Centro",
        "street": "Avenida Santa Cruz",
        "zipcode": "98780-750"
    },
    {
        "city": "Santa Rosa",
        "state": "RS",
        "district": "Centro",
        "street": "Travessa Dom Pedro II",
        "zipcode": "98780-747"
    },
    {
        "city": "Santa Rosa",
        "state": "RS",
        "district": "Centro",
        "street": "Avenida Rio Branco",
        "zipcode": "98780-738"
    },
    {
        "city": "Santa Rosa",
        "state": "RS",
        "district": "Centro",
        "street": "Travessa Scherer",
        "zipcode": "98780-720"
    },
    {
        "city": "Santa Rosa",
        "state": "RS",
        "district": "Centro",
        "street": "Rua Osvaldo Cruz",
        "zipcode": "98780-717"
    },
    {
        "city": "Santa Rosa",
        "state": "RS",
        "district": "Centro",
        "street": "Travessa Eugênio Marks",
        "zipcode": "98780-714"
    },
    {
        "city": "Santa Rosa",
        "state": "RS",
        "district": "Centro",
        "street": "Rua Olavo Bilac",
        "zipcode": "98780-711"
    },
    {
        "city": "Santa Rosa",
        "state": "RS",
        "district": "Centro",
        "street": "Rua Buenos Aires",
        "zipcode": "98780-735"
    },
    {
        "city": "Santa Rosa",
        "state": "RS",
        "district": "Centro",
        "street": "Avenida Rio Branco",
        "zipcode": "98780-699"
    },
    {
        "city": "Santa Rosa",
        "state": "RS",
        "district": "Centro",
        "street": "Rua Buenos Aires",
        "zipcode": "98780-696"
    },
    {
        "city": "Santa Rosa",
        "state": "RS",
        "district": "Centro",
        "street": "Rua Coronel Borges Fortes",
        "zipcode": "98780-693"
    },
    {
        "city": "Santa Rosa",
        "state": "RS",
        "district": "Centro",
        "street": "Rua Teixeira Mendes",
        "zipcode": "98780-690"
    },
    {
        "city": "Santa Rosa",
        "state": "RS",
        "district": "Centro",
        "street": "Rua Rui Barbosa",
        "zipcode": "98780-687"
    },
    {
        "city": "Santa Rosa",
        "state": "RS",
        "district": "Centro",
        "street": "Rua Coelho Neto",
        "zipcode": "98780-684"
    },
    {
        "city": "Santa Rosa",
        "state": "RS",
        "district": "Guia Lopes",
        "street": "Rua SD 506",
        "zipcode": "98783-280"
    },
    {
        "city": "Santa Rosa",
        "state": "RS",
        "district": "Centro",
        "street": "Avenida Tuparendi",
        "zipcode": "98780-681"
    },
    {
        "city": "Santa Rosa",
        "state": "RS",
        "district": "Centro",
        "street": "Beco Maróstega",
        "zipcode": "98780-678"
    },
    {
        "city": "Santa Rosa",
        "state": "RS",
        "district": "Centro",
        "street": "Avenida Tuparendi",
        "zipcode": "98780-675"
    },
    {
        "city": "Santa Rosa",
        "state": "RS",
        "district": "Centro",
        "street": "Rua Euclides da Cunha",
        "zipcode": "98780-672"
    },
    {
        "city": "Santa Rosa",
        "state": "RS",
        "district": "Centro",
        "street": "Rua General Rondon",
        "zipcode": "98780-666"
    },
    {
        "city": "Santa Rosa",
        "state": "RS",
        "district": "Centro",
        "street": "Rua Bento Gonçalves",
        "zipcode": "98780-663"
    },
    {
        "city": "Santa Rosa",
        "state": "RS",
        "district": "Centro",
        "street": "Avenida Rio Branco",
        "zipcode": "98780-702"
    },
    {
        "city": "Santa Rosa",
        "state": "RS",
        "district": "Centro",
        "street": "Rua João Macluf",
        "zipcode": "98780-669"
    },
    {
        "city": "Santa Rosa",
        "state": "RS",
        "district": "Centro",
        "street": "Rua Germano Mayer",
        "zipcode": "98780-660"
    },
    {
        "city": "Santa Rosa",
        "state": "RS",
        "district": "Centro",
        "street": "Rua Nolar Kruel",
        "zipcode": "98780-633"
    },
    {
        "city": "Santa Rosa",
        "state": "RS",
        "district": "Centro",
        "street": "Avenida Tuparendi",
        "zipcode": "98780-630"
    },
    {
        "city": "Santa Rosa",
        "state": "RS",
        "district": "Centro",
        "street": "Rua Bichoff",
        "zipcode": "98780-627"
    },
    {
        "city": "Santa Rosa",
        "state": "RS",
        "district": "Centro",
        "street": "Rua Mário de Andrade",
        "zipcode": "98780-624"
    },
    {
        "city": "Santa Rosa",
        "state": "RS",
        "district": "Centro",
        "street": "Rua Almirante Barroso",
        "zipcode": "98780-609"
    },
    {
        "city": "Santa Rosa",
        "state": "RS",
        "district": "Centro",
        "street": "Travessa Butantã",
        "zipcode": "98780-708"
    },
    {
        "city": "Santa Rosa",
        "state": "RS",
        "district": "Centro",
        "street": "Praça Dez de Agosto",
        "zipcode": "98780-705"
    },
    {
        "city": "Santa Rosa",
        "state": "RS",
        "district": "Industrial",
        "street": "Rua Benvindo Rota Giordani",
        "zipcode": "98794-656"
    },
    {
        "city": "Santa Rosa",
        "state": "RS",
        "district": "Industrial",
        "street": "Rua Ivo Romeu Lozekan",
        "zipcode": "98794-652"
    },
    {
        "city": "Santa Rosa",
        "state": "RS",
        "district": "Industrial",
        "street": "Rua Arnaldo Raiter",
        "zipcode": "98794-650"
    },
    {
        "city": "Santa Rosa",
        "state": "RS",
        "district": "Central",
        "street": "Rua Tapera",
        "zipcode": "98787-420"
    },
    {
        "city": "Santa Rosa",
        "state": "RS",
        "district": "Industrial",
        "street": "Rua Célia da Silva Argolo",
        "zipcode": "98794-648"
    },
    {
        "city": "Santa Rosa",
        "state": "RS",
        "district": "Industrial",
        "street": "Rua Alzibio Alvanoz",
        "zipcode": "98794-646"
    },
    {
        "city": "Santa Rosa",
        "state": "RS",
        "district": "Industrial",
        "street": "Rua Antônio Tolentino do Amaral",
        "zipcode": "98794-642"
    },
    {
        "city": "Santa Rosa",
        "state": "RS",
        "district": "Industrial",
        "street": "Travessa Guilherme Foliatti",
        "zipcode": "98794-764"
    },
    {
        "city": "Santa Rosa",
        "state": "RS",
        "district": "Industrial",
        "street": "Rua SD 411",
        "zipcode": "98794-690"
    },
    {
        "city": "Santa Rosa",
        "state": "RS",
        "district": "Timbaúva",
        "street": "Rua SD 394",
        "zipcode": "98781-790"
    },
    {
        "city": "Santa Rosa",
        "state": "RS",
        "district": "Timbaúva",
        "street": "Rua SD 544",
        "zipcode": "98781-600"
    },
    {
        "city": "Santa Rosa",
        "state": "RS",
        "district": "Timbaúva",
        "street": "Rodovia RS",
        "zipcode": "98781-590"
    },
    {
        "city": "Santa Rosa",
        "state": "RS",
        "district": "Timbaúva",
        "street": "Rua Edite Falabretti",
        "zipcode": "98781-536"
    },
    {
        "city": "Santa Rosa",
        "state": "RS",
        "district": "Timbaúva",
        "street": "Rua Vale do Sol",
        "zipcode": "98781-532"
    },
    {
        "city": "Santa Rosa",
        "state": "RS",
        "district": "Timbaúva",
        "street": "Rua Tenente Ricardo Marques",
        "zipcode": "98781-528"
    },
    {
        "city": "Santa Rosa",
        "state": "RS",
        "district": "Timbaúva",
        "street": "Rua Maria Grando Parise",
        "zipcode": "98781-524"
    },
    {
        "city": "Santa Rosa",
        "state": "RS",
        "district": "Timbaúva",
        "street": "Rua Alfredo Albino Meinertz",
        "zipcode": "98781-520"
    },
    {
        "city": "Santa Rosa",
        "state": "RS",
        "district": "Timbaúva",
        "street": "Rodovia RS",
        "zipcode": "98781-660"
    },
    {
        "city": "Santa Rosa",
        "state": "RS",
        "district": "Timbaúva",
        "street": "Rua João Oswino Meinerz",
        "zipcode": "98781-484"
    },
    {
        "city": "Santa Rosa",
        "state": "RS",
        "district": "Timbaúva",
        "street": "Travessa João Hoffmann Filho",
        "zipcode": "98781-400"
    },
    {
        "city": "Santa Rosa",
        "state": "RS",
        "district": "Timbaúva",
        "street": "Rua Ipê (R Erechim)",
        "zipcode": "98781-208"
    },
    {
        "city": "Santa Rosa",
        "state": "RS",
        "district": "Timbaúva",
        "street": "Rua Urucataí",
        "zipcode": "98781-104"
    },
    {
        "city": "Santa Rosa",
        "state": "RS",
        "district": "Timbaúva",
        "street": "Rodovia RS",
        "zipcode": "98781-720"
    },
    {
        "city": "Santa Rosa",
        "state": "RS",
        "district": "Timbaúva",
        "street": "Rua Timbó",
        "zipcode": "98781-089"
    },
    {
        "city": "Santa Rosa",
        "state": "RS",
        "district": "Timbaúva",
        "street": "Rua do Retorno",
        "zipcode": "98781-083"
    },
    {
        "city": "Santa Rosa",
        "state": "RS",
        "district": "Timbaúva",
        "street": "Rua Pirapó",
        "zipcode": "98781-054"
    },
    {
        "city": "Santa Rosa",
        "state": "RS",
        "district": "Timbaúva",
        "street": "Rua João Daniel Grings",
        "zipcode": "98781-048"
    },
    {
        "city": "Santa Rosa",
        "state": "RS",
        "district": "Timbaúva",
        "street": "Travessa Francisco Schitler",
        "zipcode": "98781-046"
    },
    {
        "city": "Santa Rosa",
        "state": "RS",
        "district": "Timbaúva",
        "street": "Travessa Francisco Giordani",
        "zipcode": "98781-044"
    },
    {
        "city": "Santa Rosa",
        "state": "RS",
        "district": "Timbaúva",
        "street": "Rua Eucaliptos",
        "zipcode": "98781-095"
    },
    {
        "city": "Santa Rosa",
        "state": "RS",
        "district": "Centro",
        "street": "Rua Mauá",
        "zipcode": "98780-865"
    },
    {
        "city": "Santa Rosa",
        "state": "RS",
        "district": "Centro",
        "street": "Rua Sertão",
        "zipcode": "98780-862"
    },
    {
        "city": "Santa Rosa",
        "state": "RS",
        "district": "Centro",
        "street": "Rua General Rondon",
        "zipcode": "98780-856"
    },
    {
        "city": "Santa Rosa",
        "state": "RS",
        "district": "Centro",
        "street": "Rua Euclides da Cunha",
        "zipcode": "98780-853"
    },
    {
        "city": "Santa Rosa",
        "state": "RS",
        "district": "Centro",
        "street": "Rua Fernando Albino",
        "zipcode": "98780-850"
    },
    {
        "city": "Santa Rosa",
        "state": "RS",
        "district": "Centro",
        "street": "Travessa Pessegueirinho",
        "zipcode": "98780-827"
    },
    {
        "city": "Santa Rosa",
        "state": "RS",
        "district": "Timbaúva",
        "street": "Rua Fernando Ferrari",
        "zipcode": "98781-040"
    },
    {
        "city": "Santa Rosa",
        "state": "RS",
        "district": "Timbaúva",
        "street": "Rua Edwino Fenner",
        "zipcode": "98781-000"
    },
    {
        "city": "Santa Rosa",
        "state": "RS",
        "district": "Centro",
        "street": "Rua Etore Alberto Beltrame",
        "zipcode": "98780-812"
    },
    {
        "city": "Santa Rosa",
        "state": "RS",
        "district": "Centro",
        "street": "Rua Etore Alberto Beltrame",
        "zipcode": "98780-809"
    },
    {
        "city": "Santa Rosa",
        "state": "RS",
        "district": "Centro",
        "street": "Rua Caxias",
        "zipcode": "98780-800"
    },
    {
        "city": "Santa Rosa",
        "state": "RS",
        "district": "Centro",
        "street": "Travessa Guaíba",
        "zipcode": "98780-777"
    },
    {
        "city": "Santa Rosa",
        "state": "RS",
        "district": "Centro",
        "street": "Rua Fernando Ferrari",
        "zipcode": "98780-774"
    },
    {
        "city": "Santa Rosa",
        "state": "RS",
        "district": "Centro",
        "street": "Rua Fernando Ferrari",
        "zipcode": "98780-768"
    },
    {
        "city": "Santa Rosa",
        "state": "RS",
        "district": "Centro",
        "street": "Rua Comandaí",
        "zipcode": "98780-759"
    },
    {
        "city": "Santa Rosa",
        "state": "RS",
        "district": "Centro",
        "street": "Rua Fernando Albino",
        "zipcode": "98780-815"
    },
    {
        "city": "Santa Rosa",
        "state": "RS",
        "district": "Centro",
        "street": "Travessa República",
        "zipcode": "98780-806"
    },
    {
        "city": "Santa Rosa",
        "state": "RS",
        "district": "Centro",
        "street": "Travessa Sílvio Pulcinelli",
        "zipcode": "98780-741"
    },
    {
        "city": "Santa Rosa",
        "state": "RS",
        "district": "Centro",
        "street": "Avenida América",
        "zipcode": "98780-732"
    },
    {
        "city": "Santa Rosa",
        "state": "RS",
        "district": "Centro",
        "street": "Avenida Inhacorá",
        "zipcode": "98780-723"
    },
    {
        "city": "Santa Rosa",
        "state": "RS",
        "district": "Centro",
        "street": "Rua Almirante Cabral",
        "zipcode": "98780-726"
    },
    {
        "city": "Santa Rosa",
        "state": "RS",
        "district": "Industrial",
        "street": "Rua SD 600",
        "zipcode": "98794-640"
    },
    {
        "city": "Santa Rosa",
        "state": "RS",
        "district": "Planalto",
        "street": "Rua Topázio",
        "zipcode": "98794-418"
    },
    {
        "city": "Santa Rosa",
        "state": "RS",
        "district": "Planalto",
        "street": "Rua Turquesa",
        "zipcode": "98794-416"
    },
    {
        "city": "Santa Rosa",
        "state": "RS",
        "district": "Planalto",
        "street": "Rua Pitangueiras",
        "zipcode": "98794-332"
    },
    {
        "city": "Santa Rosa",
        "state": "RS",
        "district": "Planalto",
        "street": "Rua Safira",
        "zipcode": "98794-412"
    },
    {
        "city": "Santa Rosa",
        "state": "RS",
        "district": "Planalto",
        "street": "Rua Rubi",
        "zipcode": "98794-410"
    },
    {
        "city": "Santa Rosa",
        "state": "RS",
        "district": "Planalto",
        "street": "Rua SD 601",
        "zipcode": "98794-354"
    },
    {
        "city": "Santa Rosa",
        "state": "RS",
        "district": "Planalto",
        "street": "Travessa Guabiju",
        "zipcode": "98794-328"
    },
    {
        "city": "Santa Rosa",
        "state": "RS",
        "district": "Planalto",
        "street": "Rua B (R Ernesto Jesse)",
        "zipcode": "98794-298"
    },
    {
        "city": "Santa Rosa",
        "state": "RS",
        "district": "Planalto",
        "street": "Rua B (R José Straub)",
        "zipcode": "98794-294"
    },
    {
        "city": "Santa Rosa",
        "state": "RS",
        "district": "Guia Lopes",
        "street": "Estrada Cinco",
        "zipcode": "98783-420"
    },
    {
        "city": "Santa Rosa",
        "state": "RS",
        "district": "Guia Lopes",
        "street": "Rua Cinco (Lot Capelari)",
        "zipcode": "98783-396"
    },
    {
        "city": "Santa Rosa",
        "state": "RS",
        "district": "Guia Lopes",
        "street": "Rua Um (Lot Capelari)",
        "zipcode": "98783-394"
    },
    {
        "city": "Santa Rosa",
        "state": "RS",
        "district": "Guia Lopes",
        "street": "Rua Dois (Lot Capelari)",
        "zipcode": "98783-390"
    },
    {
        "city": "Santa Rosa",
        "state": "RS",
        "district": "Guia Lopes",
        "street": "Rodovia BR",
        "zipcode": "98783-360"
    },
    {
        "city": "Santa Rosa",
        "state": "RS",
        "district": "Guia Lopes",
        "street": "Rua Seis (Lot Paiva Klein)",
        "zipcode": "98783-422"
    },
    {
        "city": "Santa Rosa",
        "state": "RS",
        "district": "Guia Lopes",
        "street": "Rua SD 516",
        "zipcode": "98783-328"
    },
    {
        "city": "Santa Rosa",
        "state": "RS",
        "district": "Guia Lopes",
        "street": "Rua SD 519",
        "zipcode": "98783-322"
    },
    {
        "city": "Santa Rosa",
        "state": "RS",
        "district": "Guia Lopes",
        "street": "Rua SD 520",
        "zipcode": "98783-320"
    },
    {
        "city": "Santa Rosa",
        "state": "RS",
        "district": "Guia Lopes",
        "street": "Rua SD 556",
        "zipcode": "98783-282"
    },
    {
        "city": "Santa Rosa",
        "state": "RS",
        "district": "Guia Lopes",
        "street": "Rua Um (Lot A Gisela R Bieler)",
        "zipcode": "98783-266"
    },
    {
        "city": "Santa Rosa",
        "state": "RS",
        "district": "Guia Lopes",
        "street": "Rua Cinco (Lot Elpídio J. Meinenz)",
        "zipcode": "98783-190"
    },
    {
        "city": "Santa Rosa",
        "state": "RS",
        "district": "Guia Lopes",
        "street": "Rua Quatro (Lot Elpídio J. Meinenz)",
        "zipcode": "98783-188"
    },
    {
        "city": "Santa Rosa",
        "state": "RS",
        "district": "Guia Lopes",
        "street": "Rua SD 518",
        "zipcode": "98783-332"
    },
    {
        "city": "Santa Rosa",
        "state": "RS",
        "district": "Guia Lopes",
        "street": "Rua Dois (Lot A Gisela R Bieler)",
        "zipcode": "98783-264"
    },
    {
        "city": "Santa Rosa",
        "state": "RS",
        "district": "Guia Lopes",
        "street": "Rua SD 521",
        "zipcode": "98783-330"
    },
    {
        "city": "Santa Rosa",
        "state": "RS",
        "district": "Guia Lopes",
        "street": "Rua SD 515",
        "zipcode": "98783-324"
    },
    {
        "city": "Santa Rosa",
        "state": "RS",
        "district": "Guia Lopes",
        "street": "Rua SD 491",
        "zipcode": "98783-260"
    },
    {
        "city": "Santa Rosa",
        "state": "RS",
        "district": "Guia Lopes",
        "street": "Rodovia BR",
        "zipcode": "98783-220"
    },
    {
        "city": "Santa Rosa",
        "state": "RS",
        "district": "Timbaúva",
        "street": "Rua Gaspar Cláudio Seibert",
        "zipcode": "98781-340"
    },
    {
        "city": "Santa Rosa",
        "state": "RS",
        "district": "Timbaúva",
        "street": "Rua Paulina Matte",
        "zipcode": "98781-336"
    },
    {
        "city": "Santa Rosa",
        "state": "RS",
        "district": "Timbaúva",
        "street": "Rua Armindo Hofmeister",
        "zipcode": "98781-396"
    },
    {
        "city": "Santa Rosa",
        "state": "RS",
        "district": "Timbaúva",
        "street": "Rua Alberto Matte",
        "zipcode": "98781-332"
    },
    {
        "city": "Santa Rosa",
        "state": "RS",
        "district": "Timbaúva",
        "street": "Rua Dona Graciosa",
        "zipcode": "98781-312"
    },
    {
        "city": "Santa Rosa",
        "state": "RS",
        "district": "Timbaúva",
        "street": "Rua Professora Iris Maria Belaus",
        "zipcode": "98781-304"
    },
    {
        "city": "Santa Rosa",
        "state": "RS",
        "district": "Timbaúva",
        "street": "Rua Remus Lunardi",
        "zipcode": "98781-300"
    },
    {
        "city": "Santa Rosa",
        "state": "RS",
        "district": "Timbaúva",
        "street": "Rua Professora Ivone Timm",
        "zipcode": "98781-264"
    },
    {
        "city": "Santa Rosa",
        "state": "RS",
        "district": "Timbaúva",
        "street": "Rua Artur Silva Ribas",
        "zipcode": "98781-262"
    },
    {
        "city": "Santa Rosa",
        "state": "RS",
        "district": "Timbaúva",
        "street": "Rua Apolo",
        "zipcode": "98781-222"
    },
    {
        "city": "Santa Rosa",
        "state": "RS",
        "district": "Timbaúva",
        "street": "Rua Fernando Albino",
        "zipcode": "98781-220"
    },
    {
        "city": "Santa Rosa",
        "state": "RS",
        "district": "Timbaúva",
        "street": "Rua Alberto Lehenbauer",
        "zipcode": "98781-218"
    },
    {
        "city": "Santa Rosa",
        "state": "RS",
        "district": "Timbaúva",
        "street": "Rua Doutor Vicente Cardoso",
        "zipcode": "98781-384"
    },
    {
        "city": "Santa Rosa",
        "state": "RS",
        "district": "Timbaúva",
        "street": "Rua Werner Pilz",
        "zipcode": "98781-380"
    },
    {
        "city": "Santa Rosa",
        "state": "RS",
        "district": "Timbaúva",
        "street": "Travessa Rosário",
        "zipcode": "98781-320"
    },
    {
        "city": "Santa Rosa",
        "state": "RS",
        "district": "Timbaúva",
        "street": "Rua José Scalco",
        "zipcode": "98781-316"
    },
    {
        "city": "Santa Rosa",
        "state": "RS",
        "district": "Timbaúva",
        "street": "Rua Timbaúva",
        "zipcode": "98781-216"
    },
    {
        "city": "Santa Rosa",
        "state": "RS",
        "district": "Timbaúva",
        "street": "Travessa Fausto de Oliveira",
        "zipcode": "98781-214"
    },
    {
        "city": "Santa Rosa",
        "state": "RS",
        "district": "Timbaúva",
        "street": "Rua Pércio Bueno",
        "zipcode": "98781-324"
    },
    {
        "city": "Santa Rosa",
        "state": "RS",
        "district": "Timbaúva",
        "street": "Travessa C (R Pirapó)",
        "zipcode": "98781-204"
    },
    {
        "city": "Santa Rosa",
        "state": "RS",
        "district": "Timbaúva",
        "street": "Travessa B (R Pirapó)",
        "zipcode": "98781-202"
    },
    {
        "city": "Santa Rosa",
        "state": "RS",
        "district": "Centro",
        "street": "Travessa Gustavo Bessel",
        "zipcode": "98780-859"
    },
    {
        "city": "Santa Rosa",
        "state": "RS",
        "district": "Planalto",
        "street": "Rua dos Ariticuns",
        "zipcode": "98794-314"
    },
    {
        "city": "Santa Rosa",
        "state": "RS",
        "district": "Planalto",
        "street": "Rua Guabirobas",
        "zipcode": "98794-312"
    },
    {
        "city": "Santa Rosa",
        "state": "RS",
        "district": "Planalto",
        "street": "Travessa Batinga",
        "zipcode": "98794-324"
    },
    {
        "city": "Santa Rosa",
        "state": "RS",
        "district": "Planalto",
        "street": "Rua dos Butiás",
        "zipcode": "98794-316"
    },
    {
        "city": "Santa Rosa",
        "state": "RS",
        "district": "Planalto",
        "street": "Travessa Auxiliadora",
        "zipcode": "98794-272"
    },
    {
        "city": "Santa Rosa",
        "state": "RS",
        "district": "Planalto",
        "street": "Rua Peru",
        "zipcode": "98794-246"
    },
    {
        "city": "Santa Rosa",
        "state": "RS",
        "district": "Planalto",
        "street": "Travessa Espírito Santo",
        "zipcode": "98794-244"
    },
    {
        "city": "Santa Rosa",
        "state": "RS",
        "district": "Planalto",
        "street": "Rua SD 399",
        "zipcode": "98794-242"
    },
    {
        "city": "Santa Rosa",
        "state": "RS",
        "district": "Planalto",
        "street": "Rua Espírito Santo",
        "zipcode": "98794-238"
    },
    {
        "city": "Santa Rosa",
        "state": "RS",
        "district": "Planalto",
        "street": "Rua Recife",
        "zipcode": "98794-236"
    },
    {
        "city": "Santa Rosa",
        "state": "RS",
        "district": "Planalto",
        "street": "Rua Sinval Saldanha",
        "zipcode": "98794-228"
    },
    {
        "city": "Santa Rosa",
        "state": "RS",
        "district": "Planalto",
        "street": "Rua Chile",
        "zipcode": "98794-226"
    },
    {
        "city": "Santa Rosa",
        "state": "RS",
        "district": "Planalto",
        "street": "Rua Dezenove de Novembro",
        "zipcode": "98794-182"
    },
    {
        "city": "Santa Rosa",
        "state": "RS",
        "district": "Planalto",
        "street": "Rua Ernesto Jesse",
        "zipcode": "98794-296"
    },
    {
        "city": "Santa Rosa",
        "state": "RS",
        "district": "Planalto",
        "street": "Rua José Straub",
        "zipcode": "98794-292"
    },
    {
        "city": "Santa Rosa",
        "state": "RS",
        "district": "Planalto",
        "street": "Rua Benvindo Rota Giordani",
        "zipcode": "98794-290"
    },
    {
        "city": "Santa Rosa",
        "state": "RS",
        "district": "Planalto",
        "street": "Rua Rio de Janeiro",
        "zipcode": "98794-232"
    },
    {
        "city": "Santa Rosa",
        "state": "RS",
        "district": "Planalto",
        "street": "Rua Belém",
        "zipcode": "98794-230"
    },
    {
        "city": "Santa Rosa",
        "state": "RS",
        "district": "Planalto",
        "street": "Rua Recife",
        "zipcode": "98794-208"
    },
    {
        "city": "Santa Rosa",
        "state": "RS",
        "district": "Planalto",
        "street": "Rua Rio de Janeiro",
        "zipcode": "98794-204"
    },
    {
        "city": "Santa Rosa",
        "state": "RS",
        "district": "Planalto",
        "street": "Rua São Pedro",
        "zipcode": "98794-200"
    },
    {
        "city": "Santa Rosa",
        "state": "RS",
        "district": "Planalto",
        "street": "Rua Professora Themis Grando",
        "zipcode": "98794-186"
    },
    {
        "city": "Santa Rosa",
        "state": "RS",
        "district": "Planalto",
        "street": "Rua Guanabara",
        "zipcode": "98794-184"
    },
    {
        "city": "Santa Rosa",
        "state": "RS",
        "district": "Planalto",
        "street": "Rua Rondônia",
        "zipcode": "98794-180"
    },
    {
        "city": "Santa Rosa",
        "state": "RS",
        "district": "Planalto",
        "street": "Rua Vegílio Lunardi",
        "zipcode": "98794-178"
    },
    {
        "city": "Santa Rosa",
        "state": "RS",
        "district": "Planalto",
        "street": "Rua São Paulo",
        "zipcode": "98794-222"
    },
    {
        "city": "Santa Rosa",
        "state": "RS",
        "district": "Planalto",
        "street": "Rua João Magalhães Filho",
        "zipcode": "98794-174"
    },
    {
        "city": "Santa Rosa",
        "state": "RS",
        "district": "Planalto",
        "street": "Rua Padre Réus",
        "zipcode": "98794-132"
    },
    {
        "city": "Santa Rosa",
        "state": "RS",
        "district": "Planalto",
        "street": "Rua José Aristimunho",
        "zipcode": "98794-130"
    },
    {
        "city": "Santa Rosa",
        "state": "RS",
        "district": "Planalto",
        "street": "Rua Albino Minks",
        "zipcode": "98794-116"
    },
    {
        "city": "Santa Rosa",
        "state": "RS",
        "district": "Planalto",
        "street": "Rua Otto Weiss",
        "zipcode": "98794-113"
    },
    {
        "city": "Santa Rosa",
        "state": "RS",
        "district": "Planalto",
        "street": "Rua Antonio Piekala",
        "zipcode": "98794-110"
    },
    {
        "city": "Santa Rosa",
        "state": "RS",
        "district": "Planalto",
        "street": "Rua Santa Rita",
        "zipcode": "98794-096"
    },
    {
        "city": "Santa Rosa",
        "state": "RS",
        "district": "Planalto",
        "street": "Rua João Straub",
        "zipcode": "98794-206"
    },
    {
        "city": "Santa Rosa",
        "state": "RS",
        "district": "Planalto",
        "street": "Rua Oito de Maio",
        "zipcode": "98794-136"
    },
    {
        "city": "Santa Rosa",
        "state": "RS",
        "district": "Planalto",
        "street": "Rua Santo Agostinho",
        "zipcode": "98794-094"
    },
    {
        "city": "Santa Rosa",
        "state": "RS",
        "district": "Planalto",
        "street": "Rua Santa Inês",
        "zipcode": "98794-078"
    },
    {
        "city": "Santa Rosa",
        "state": "RS",
        "district": "Planalto",
        "street": "Rua dos Carvalhos",
        "zipcode": "98794-076"
    },
    {
        "city": "Santa Rosa",
        "state": "RS",
        "district": "Planalto",
        "street": "Rua Maria Goretti",
        "zipcode": "98794-074"
    },
    {
        "city": "Santa Rosa",
        "state": "RS",
        "district": "Planalto",
        "street": "Rua São Rafael",
        "zipcode": "98794-072"
    },
    {
        "city": "Santa Rosa",
        "state": "RS",
        "district": "Planalto",
        "street": "Rua São Sebastião",
        "zipcode": "98794-068"
    },
    {
        "city": "Santa Rosa",
        "state": "RS",
        "district": "Planalto",
        "street": "Rua Irmã Gilberta",
        "zipcode": "98794-062"
    },
    {
        "city": "Santa Rosa",
        "state": "RS",
        "district": "Planalto",
        "street": "Rua São Cristóvão",
        "zipcode": "98794-060"
    },
    {
        "city": "Santa Rosa",
        "state": "RS",
        "district": "Planalto",
        "street": "Rua São Domingos",
        "zipcode": "98794-070"
    },
    {
        "city": "Santa Rosa",
        "state": "RS",
        "district": "Planalto",
        "street": "Rua Santa Clara",
        "zipcode": "98794-066"
    },
    {
        "city": "Santa Rosa",
        "state": "RS",
        "district": "Planalto",
        "street": "Rua Santa Cecília",
        "zipcode": "98794-064"
    },
    {
        "city": "Santa Rosa",
        "state": "RS",
        "district": "Planalto",
        "street": "Rua Bela Vista",
        "zipcode": "98794-038"
    },
    {
        "city": "Santa Rosa",
        "state": "RS",
        "district": "Guia Lopes",
        "street": "Rua das Orquídeas",
        "zipcode": "98783-484"
    },
    {
        "city": "Santa Rosa",
        "state": "RS",
        "district": "Guia Lopes",
        "street": "Rua Um (Lot Paiva Klein)",
        "zipcode": "98783-454"
    },
    {
        "city": "Santa Rosa",
        "state": "RS",
        "district": "Guia Lopes",
        "street": "Rua dos Girassóis",
        "zipcode": "98783-482"
    },
    {
        "city": "Santa Rosa",
        "state": "RS",
        "district": "Guia Lopes",
        "street": "Rua Quatro (Lot Paiva Klein)",
        "zipcode": "98783-456"
    },
    {
        "city": "Santa Rosa",
        "state": "RS",
        "district": "Planalto",
        "street": "Rua Pará",
        "zipcode": "98794-162"
    },
    {
        "city": "Santa Rosa",
        "state": "RS",
        "district": "Planalto",
        "street": "Rua Cecília Meireles",
        "zipcode": "98794-160"
    },
    {
        "city": "Santa Rosa",
        "state": "RS",
        "district": "Planalto",
        "street": "Rua A (R Cecília Meireles)",
        "zipcode": "98794-146"
    },
    {
        "city": "Santa Rosa",
        "state": "RS",
        "district": "Planalto",
        "street": "Rua Pastor Krieser",
        "zipcode": "98794-036"
    },
    {
        "city": "Santa Rosa",
        "state": "RS",
        "district": "Planalto",
        "street": "Rua Doze de Outubro",
        "zipcode": "98794-142"
    },
    {
        "city": "Santa Rosa",
        "state": "RS",
        "district": "Figueira",
        "street": "Estrada Cruzeiro Lajeado",
        "zipcode": "98792-810"
    },
    {
        "city": "Santa Rosa",
        "state": "RS",
        "district": "Figueira",
        "street": "Rua Soldado",
        "zipcode": "98792-760"
    },
    {
        "city": "Santa Rosa",
        "state": "RS",
        "district": "Figueira",
        "street": "Rua Expedicionário Cabo Martim Arthur Krieser",
        "zipcode": "98792-758"
    },
    {
        "city": "Santa Rosa",
        "state": "RS",
        "district": "Figueira",
        "street": "Rua Soldado",
        "zipcode": "98792-756"
    },
    {
        "city": "Santa Rosa",
        "state": "RS",
        "district": "Figueira",
        "street": "Rua Soldado",
        "zipcode": "98792-754"
    },
    {
        "city": "Santa Rosa",
        "state": "RS",
        "district": "Figueira",
        "street": "Rua Soldado",
        "zipcode": "98792-750"
    },
    {
        "city": "Santa Rosa",
        "state": "RS",
        "district": "Figueira",
        "street": "Rua Soldado",
        "zipcode": "98792-746"
    },
    {
        "city": "Santa Rosa",
        "state": "RS",
        "district": "Planalto",
        "street": "Rua Arnoldo König",
        "zipcode": "98794-032"
    },
    {
        "city": "Santa Rosa",
        "state": "RS",
        "district": "Planalto",
        "street": "Rua Benvindo Rota Giordani",
        "zipcode": "98794-030"
    },
    {
        "city": "Santa Rosa",
        "state": "RS",
        "district": "Planalto",
        "street": "Avenida Borges de Medeiros",
        "zipcode": "98794-000"
    },
    {
        "city": "Santa Rosa",
        "state": "RS",
        "district": "Figueira",
        "street": "Rua Soldado",
        "zipcode": "98792-744"
    },
    {
        "city": "Santa Rosa",
        "state": "RS",
        "district": "Figueira",
        "street": "Rua Soldado",
        "zipcode": "98792-742"
    },
    {
        "city": "Santa Rosa",
        "state": "RS",
        "district": "Figueira",
        "street": "Rua Vasco da Gama",
        "zipcode": "98792-629"
    },
    {
        "city": "Santa Rosa",
        "state": "RS",
        "district": "Figueira",
        "street": "Rua Engenheiro Heinz Walter Franke",
        "zipcode": "98792-626"
    },
    {
        "city": "Santa Rosa",
        "state": "RS",
        "district": "Figueira",
        "street": "Rua São José",
        "zipcode": "98792-620"
    },
    {
        "city": "Santa Rosa",
        "state": "RS",
        "district": "Figueira",
        "street": "Avenida América",
        "zipcode": "98792-590"
    },
    {
        "city": "Santa Rosa",
        "state": "RS",
        "district": "Figueira",
        "street": "Rua SD 412",
        "zipcode": "98792-370"
    },
    {
        "city": "Santa Rosa",
        "state": "RS",
        "district": "Figueira",
        "street": "Rua Guaíra Norte",
        "zipcode": "98792-544"
    },
    {
        "city": "Santa Rosa",
        "state": "RS",
        "district": "Figueira",
        "street": "Rua Guaíra Sul",
        "zipcode": "98792-540"
    },
    {
        "city": "Santa Rosa",
        "state": "RS",
        "district": "Figueira",
        "street": "Rua SD 413",
        "zipcode": "98792-430"
    },
    {
        "city": "Santa Rosa",
        "state": "RS",
        "district": "Figueira",
        "street": "Rua SD 598",
        "zipcode": "98792-420"
    },
    {
        "city": "Santa Rosa",
        "state": "RS",
        "district": "Glória",
        "street": "Rua Germano Mayer",
        "zipcode": "98785-103"
    },
    {
        "city": "Santa Rosa",
        "state": "RS",
        "district": "Guia Lopes",
        "street": "Rua Dois (Lot Cascata)",
        "zipcode": "98783-844"
    },
    {
        "city": "Santa Rosa",
        "state": "RS",
        "district": "Guia Lopes",
        "street": "Rua Quatro (Lot Cascata)",
        "zipcode": "98783-842"
    },
    {
        "city": "Santa Rosa",
        "state": "RS",
        "district": "Guia Lopes",
        "street": "Rua Um (Lot Cascata)",
        "zipcode": "98783-840"
    },
    {
        "city": "Santa Rosa",
        "state": "RS",
        "district": "Guia Lopes",
        "street": "Estrada Seis",
        "zipcode": "98783-780"
    },
    {
        "city": "Santa Rosa",
        "state": "RS",
        "district": "Guia Lopes",
        "street": "Travessa Oito (Lot Kunz)",
        "zipcode": "98783-714"
    },
    {
        "city": "Santa Rosa",
        "state": "RS",
        "district": "Planalto",
        "street": "Rua Guaporeti",
        "zipcode": "98794-330"
    },
    {
        "city": "Santa Rosa",
        "state": "RS",
        "district": "Guia Lopes",
        "street": "Travessa Sete (Lot Kunz)",
        "zipcode": "98783-712"
    },
    {
        "city": "Santa Rosa",
        "state": "RS",
        "district": "Guia Lopes",
        "street": "Travessa Seis (Lot Kunz)",
        "zipcode": "98783-710"
    },
    {
        "city": "Santa Rosa",
        "state": "RS",
        "district": "Guia Lopes",
        "street": "Travessa Três (Lot Kunz)",
        "zipcode": "98783-704"
    },
    {
        "city": "Santa Rosa",
        "state": "RS",
        "district": "Guia Lopes",
        "street": "Rua Três (Lot Cascata)",
        "zipcode": "98783-846"
    },
    {
        "city": "Santa Rosa",
        "state": "RS",
        "district": "Guia Lopes",
        "street": "Rodovia BR",
        "zipcode": "98783-810"
    },
    {
        "city": "Santa Rosa",
        "state": "RS",
        "district": "Guia Lopes",
        "street": "Travessa Cinco (Lot Kunz)",
        "zipcode": "98783-708"
    },
    {
        "city": "Santa Rosa",
        "state": "RS",
        "district": "Guia Lopes",
        "street": "Rua SD 590",
        "zipcode": "98783-638"
    },
    {
        "city": "Santa Rosa",
        "state": "RS",
        "district": "Guia Lopes",
        "street": "Rua SD 529",
        "zipcode": "98783-636"
    },
    {
        "city": "Santa Rosa",
        "state": "RS",
        "district": "Guia Lopes",
        "street": "Rodovia BR",
        "zipcode": "98783-550"
    },
    {
        "city": "Santa Rosa",
        "state": "RS",
        "district": "Guia Lopes",
        "street": "Estrada Saída para Tarumã",
        "zipcode": "98783-520"
    },
    {
        "city": "Santa Rosa",
        "state": "RS",
        "district": "Guia Lopes",
        "street": "Rodovia BR",
        "zipcode": "98783-660"
    },
    {
        "city": "Santa Rosa",
        "state": "RS",
        "district": "Guia Lopes",
        "street": "Rua SD 588",
        "zipcode": "98783-634"
    },
    {
        "city": "Santa Rosa",
        "state": "RS",
        "district": "Guia Lopes",
        "street": "Rua SD 587",
        "zipcode": "98783-632"
    },
    {
        "city": "Santa Rosa",
        "state": "RS",
        "district": "Guia Lopes",
        "street": "Rua SD 528",
        "zipcode": "98783-630"
    },
    {
        "city": "Santa Rosa",
        "state": "RS",
        "district": "Guia Lopes",
        "street": "Rua SD 524",
        "zipcode": "98783-590"
    },
    {
        "city": "Santa Rosa",
        "state": "RS",
        "district": "Guia Lopes",
        "street": "Rua das Dálias",
        "zipcode": "98783-488"
    },
    {
        "city": "Santa Rosa",
        "state": "RS",
        "district": "Figueira",
        "street": "Rua dos Papagaios",
        "zipcode": "98792-315"
    },
    {
        "city": "Santa Rosa",
        "state": "RS",
        "district": "Figueira",
        "street": "Rua SD 414",
        "zipcode": "98792-312"
    },
    {
        "city": "Santa Rosa",
        "state": "RS",
        "district": "Figueira",
        "street": "Rua dos Ximangos",
        "zipcode": "98792-306"
    },
    {
        "city": "Santa Rosa",
        "state": "RS",
        "district": "Figueira",
        "street": "Rua dos Rouxinóis",
        "zipcode": "98792-303"
    },
    {
        "city": "Santa Rosa",
        "state": "RS",
        "district": "Figueira",
        "street": "Rua das Gaivotas",
        "zipcode": "98792-300"
    },
    {
        "city": "Santa Rosa",
        "state": "RS",
        "district": "São Francisco",
        "street": "Rua das Gaivotas",
        "zipcode": "98792-288"
    },
    {
        "city": "Santa Rosa",
        "state": "RS",
        "district": "São Francisco",
        "street": "Rua dos Azulões",
        "zipcode": "98792-274"
    },
    {
        "city": "Santa Rosa",
        "state": "RS",
        "district": "São Francisco",
        "street": "Rua dos Papagaios",
        "zipcode": "98792-270"
    },
    {
        "city": "Santa Rosa",
        "state": "RS",
        "district": "Figueira",
        "street": "Rua SD 415",
        "zipcode": "98792-340"
    },
    {
        "city": "Santa Rosa",
        "state": "RS",
        "district": "Figueira",
        "street": "Rua dos Flamingos",
        "zipcode": "98792-309"
    },
    {
        "city": "Santa Rosa",
        "state": "RS",
        "district": "São Francisco",
        "street": "Rua das Arapongas",
        "zipcode": "98792-284"
    },
    {
        "city": "Santa Rosa",
        "state": "RS",
        "district": "São Francisco",
        "street": "Rua das Calhandras",
        "zipcode": "98792-282"
    },
    {
        "city": "Santa Rosa",
        "state": "RS",
        "district": "São Francisco",
        "street": "Rua dos Rouxinóis",
        "zipcode": "98792-280"
    },
    {
        "city": "Santa Rosa",
        "state": "RS",
        "district": "São Francisco",
        "street": "Rua das Águias",
        "zipcode": "98792-272"
    },
    {
        "city": "Santa Rosa",
        "state": "RS",
        "district": "São Francisco",
        "street": "Rua Darci Bastos",
        "zipcode": "98792-192"
    },
    {
        "city": "Santa Rosa",
        "state": "RS",
        "district": "São Francisco",
        "street": "Rua Ângelo Mattiazi",
        "zipcode": "98792-190"
    },
    {
        "city": "Santa Rosa",
        "state": "RS",
        "district": "São Francisco",
        "street": "Rua das Araras",
        "zipcode": "98792-286"
    },
    {
        "city": "Santa Rosa",
        "state": "RS",
        "district": "São Francisco",
        "street": "Rua das Calopsistas",
        "zipcode": "98792-278"
    },
    {
        "city": "Santa Rosa",
        "state": "RS",
        "district": "São Francisco",
        "street": "Rua Estanislau Kwiatkowski",
        "zipcode": "98792-170"
    },
    {
        "city": "Santa Rosa",
        "state": "RS",
        "district": "Central",
        "street": "Rua Anchieta",
        "zipcode": "98787-566"
    },
    {
        "city": "Santa Rosa",
        "state": "RS",
        "district": "São Francisco",
        "street": "Rua das Violetas",
        "zipcode": "98792-142"
    },
    {
        "city": "Santa Rosa",
        "state": "RS",
        "district": "São Francisco",
        "street": "Rua das Magnólias",
        "zipcode": "98792-140"
    },
    {
        "city": "Santa Rosa",
        "state": "RS",
        "district": "São Francisco",
        "street": "Rua dos Lírios",
        "zipcode": "98792-138"
    },
    {
        "city": "Santa Rosa",
        "state": "RS",
        "district": "São Francisco",
        "street": "Avenida das Camélias",
        "zipcode": "98792-134"
    },
    {
        "city": "Santa Rosa",
        "state": "RS",
        "district": "São Francisco",
        "street": "Rua Três de Novembro",
        "zipcode": "98792-100"
    },
    {
        "city": "Santa Rosa",
        "state": "RS",
        "district": "São Francisco",
        "street": "Rua dos Biguás",
        "zipcode": "98792-276"
    },
    {
        "city": "Santa Rosa",
        "state": "RS",
        "district": "São Francisco",
        "street": "Rua das Rosas",
        "zipcode": "98792-150"
    },
    {
        "city": "Santa Rosa",
        "state": "RS",
        "district": "São Francisco",
        "street": "Rua das Margaridas",
        "zipcode": "98792-130"
    },
    {
        "city": "Santa Rosa",
        "state": "RS",
        "district": "São Francisco",
        "street": "Rua Lajes",
        "zipcode": "98792-098"
    },
    {
        "city": "Santa Rosa",
        "state": "RS",
        "district": "São Francisco",
        "street": "Rua Doze de Outubro",
        "zipcode": "98792-096"
    },
    {
        "city": "Santa Rosa",
        "state": "RS",
        "district": "São Francisco",
        "street": "Rua Padre Eduardo Bogo",
        "zipcode": "98792-173"
    },
    {
        "city": "Santa Rosa",
        "state": "RS",
        "district": "São Francisco",
        "street": "Rua Azaléias",
        "zipcode": "98792-136"
    },
    {
        "city": "Santa Rosa",
        "state": "RS",
        "district": "São Francisco",
        "street": "Rua das Hortênsias",
        "zipcode": "98792-132"
    },
    {
        "city": "Santa Rosa",
        "state": "RS",
        "district": "São Francisco",
        "street": "Rua Carvalho Turra",
        "zipcode": "98792-094"
    },
    {
        "city": "Santa Rosa",
        "state": "RS",
        "district": "Glória",
        "street": "Rua Canários",
        "zipcode": "98785-289"
    },
    {
        "city": "Santa Rosa",
        "state": "RS",
        "district": "Glória",
        "street": "Rua João de Barro",
        "zipcode": "98785-283"
    },
    {
        "city": "Santa Rosa",
        "state": "RS",
        "district": "Glória",
        "street": "Rua Pelotas",
        "zipcode": "98785-145"
    },
    {
        "city": "Santa Rosa",
        "state": "RS",
        "district": "Glória",
        "street": "Rua José Bonifácio",
        "zipcode": "98785-280"
    },
    {
        "city": "Santa Rosa",
        "state": "RS",
        "district": "Glória",
        "street": "Rua Castro Alves",
        "zipcode": "98785-256"
    },
    {
        "city": "Santa Rosa",
        "state": "RS",
        "district": "Glória",
        "street": "Rua Quero",
        "zipcode": "98785-250"
    },
    {
        "city": "Santa Rosa",
        "state": "RS",
        "district": "Glória",
        "street": "Travessa Um (R Elias Oliveiras)",
        "zipcode": "98785-216"
    },
    {
        "city": "Santa Rosa",
        "state": "RS",
        "district": "Glória",
        "street": "Rua Elias de Oliveira",
        "zipcode": "98785-213"
    },
    {
        "city": "Santa Rosa",
        "state": "RS",
        "district": "Glória",
        "street": "Rua João de Barro",
        "zipcode": "98785-265"
    },
    {
        "city": "Santa Rosa",
        "state": "RS",
        "district": "Glória",
        "street": "Rua Pedro Américo",
        "zipcode": "98785-262"
    },
    {
        "city": "Santa Rosa",
        "state": "RS",
        "district": "Glória",
        "street": "Rua Antônio Arturo Petry",
        "zipcode": "98785-072"
    },
    {
        "city": "Santa Rosa",
        "state": "RS",
        "district": "Glória",
        "street": "Rua Sabiá",
        "zipcode": "98785-277"
    },
    {
        "city": "Santa Rosa",
        "state": "RS",
        "district": "Glória",
        "street": "Travessa dos Pardais",
        "zipcode": "98785-274"
    },
    {
        "city": "Santa Rosa",
        "state": "RS",
        "district": "Glória",
        "street": "Travessa dos Cardeais",
        "zipcode": "98785-268"
    },
    {
        "city": "Santa Rosa",
        "state": "RS",
        "district": "Glória",
        "street": "Rua Jorge Vieira Marques",
        "zipcode": "98785-060"
    },
    {
        "city": "Santa Rosa",
        "state": "RS",
        "district": "Glória",
        "street": "Rua Mercúrio",
        "zipcode": "98785-012"
    },
    {
        "city": "Santa Rosa",
        "state": "RS",
        "district": "Glória",
        "street": "Rua Altivo da Costa Lira",
        "zipcode": "98785-009"
    },
    {
        "city": "Santa Rosa",
        "state": "RS",
        "district": "Glória",
        "street": "Rua Apolo",
        "zipcode": "98785-018"
    },
    {
        "city": "Santa Rosa",
        "state": "RS",
        "district": "Glória",
        "street": "Rua Guaporé",
        "zipcode": "98785-030"
    },
    {
        "city": "Santa Rosa",
        "state": "RS",
        "district": "São Francisco",
        "street": "Rua Minas Gerais",
        "zipcode": "98792-090"
    },
    {
        "city": "Santa Rosa",
        "state": "RS",
        "district": "São Francisco",
        "street": "Rua Cascavel",
        "zipcode": "98792-086"
    },
    {
        "city": "Santa Rosa",
        "state": "RS",
        "district": "São Francisco",
        "street": "Rua Toledo",
        "zipcode": "98792-084"
    },
    {
        "city": "Santa Rosa",
        "state": "RS",
        "district": "São Francisco",
        "street": "Rua Arajá",
        "zipcode": "98792-088"
    },
    {
        "city": "Santa Rosa",
        "state": "RS",
        "district": "São Francisco",
        "street": "Rua Gonçalves Dias",
        "zipcode": "98792-082"
    },
    {
        "city": "Santa Rosa",
        "state": "RS",
        "district": "São Francisco",
        "street": "Rua Vasco da Gama",
        "zipcode": "98792-080"
    },
    {
        "city": "Santa Rosa",
        "state": "RS",
        "district": "São Francisco",
        "street": "Rua Presidente Castelo Branco",
        "zipcode": "98792-062"
    },
    {
        "city": "Santa Rosa",
        "state": "RS",
        "district": "São Francisco",
        "street": "Travessa Dani",
        "zipcode": "98792-058"
    },
    {
        "city": "Santa Rosa",
        "state": "RS",
        "district": "São Francisco",
        "street": "Estrada Saída Lajeado Figueira",
        "zipcode": "98792-054"
    },
    {
        "city": "Santa Rosa",
        "state": "RS",
        "district": "São Francisco",
        "street": "Rua São Bento",
        "zipcode": "98792-036"
    },
    {
        "city": "Santa Rosa",
        "state": "RS",
        "district": "São Francisco",
        "street": "Rua Guaíra",
        "zipcode": "98792-030"
    },
    {
        "city": "Santa Rosa",
        "state": "RS",
        "district": "São Francisco",
        "street": "Avenida América",
        "zipcode": "98792-000"
    },
    {
        "city": "Santa Rosa",
        "state": "RS",
        "district": "São Francisco",
        "street": "Rua SD 412",
        "zipcode": "98792-050"
    },
    {
        "city": "Santa Rosa",
        "state": "RS",
        "district": "São Francisco",
        "street": "Rua Sepé Tiaraju",
        "zipcode": "98792-032"
    },
    {
        "city": "Santa Rosa",
        "state": "RS",
        "district": "Cruzeiro",
        "street": "Rodovia BR",
        "zipcode": "98790-790"
    },
    {
        "city": "Santa Rosa",
        "state": "RS",
        "district": "Cruzeiro",
        "street": "Rua Seis (Lot Cresol II)",
        "zipcode": "98790-702"
    },
    {
        "city": "Santa Rosa",
        "state": "RS",
        "district": "Cruzeiro",
        "street": "Rua Cinco (Lot Cresol II)",
        "zipcode": "98790-700"
    },
    {
        "city": "Santa Rosa",
        "state": "RS",
        "district": "Cruzeiro",
        "street": "Rua Quatro (Lot Cresol II)",
        "zipcode": "98790-698"
    },
    {
        "city": "Santa Rosa",
        "state": "RS",
        "district": "Cruzeiro",
        "street": "Rua Germano Benno Schwertz",
        "zipcode": "98790-475"
    },
    {
        "city": "Santa Rosa",
        "state": "RS",
        "district": "Cruzeiro",
        "street": "Rua Arthur Pulrolnik",
        "zipcode": "98790-465"
    },
    {
        "city": "Santa Rosa",
        "state": "RS",
        "district": "Cruzeiro",
        "street": "Rua José Maicá",
        "zipcode": "98790-390"
    },
    {
        "city": "Santa Rosa",
        "state": "RS",
        "district": "São Francisco",
        "street": "Rua Guimarães Rosa",
        "zipcode": "98792-038"
    },
    {
        "city": "Santa Rosa",
        "state": "RS",
        "district": "Cruzeiro",
        "street": "Rodovia BR",
        "zipcode": "98790-850"
    },
    {
        "city": "Santa Rosa",
        "state": "RS",
        "district": "Cruzeiro",
        "street": "Avenida Coronel Bráulio de Oliveira",
        "zipcode": "98790-460"
    },
    {
        "city": "Santa Rosa",
        "state": "RS",
        "district": "Glória",
        "street": "Rua Onze de Junho",
        "zipcode": "98785-389"
    },
    {
        "city": "Santa Rosa",
        "state": "RS",
        "district": "Glória",
        "street": "Rua Arsênio Zorzan Sobrinho",
        "zipcode": "98785-386"
    },
    {
        "city": "Santa Rosa",
        "state": "RS",
        "district": "Glória",
        "street": "Rua Bento Martins",
        "zipcode": "98785-380"
    },
    {
        "city": "Santa Rosa",
        "state": "RS",
        "district": "Glória",
        "street": "Alameda Constantino Liberali",
        "zipcode": "98785-358"
    },
    {
        "city": "Santa Rosa",
        "state": "RS",
        "district": "Glória",
        "street": "Rua Ludwig Waldow",
        "zipcode": "98785-383"
    },
    {
        "city": "Santa Rosa",
        "state": "RS",
        "district": "Glória",
        "street": "Rua Frederico Luiz Von Eye",
        "zipcode": "98785-169"
    },
    {
        "city": "Santa Rosa",
        "state": "RS",
        "district": "Glória",
        "street": "Rua São Wladimir",
        "zipcode": "98785-166"
    },
    {
        "city": "Santa Rosa",
        "state": "RS",
        "district": "Glória",
        "street": "Rua Inês Perini",
        "zipcode": "98785-160"
    },
    {
        "city": "Santa Rosa",
        "state": "RS",
        "district": "Glória",
        "street": "Travessa Dois (R Elias Oliveira)",
        "zipcode": "98785-219"
    },
    {
        "city": "Santa Rosa",
        "state": "RS",
        "district": "Glória",
        "street": "Rua Valter Schubert",
        "zipcode": "98785-163"
    },
    {
        "city": "Santa Rosa",
        "state": "RS",
        "district": "Glória",
        "street": "Rua Vinícius de Moraes",
        "zipcode": "98785-157"
    },
    {
        "city": "Santa Rosa",
        "state": "RS",
        "district": "Glória",
        "street": "Rua Ipê",
        "zipcode": "98785-151"
    },
    {
        "city": "Santa Rosa",
        "state": "RS",
        "district": "Glória",
        "street": "Rua Fredolin Schulz",
        "zipcode": "98785-148"
    },
    {
        "city": "Santa Rosa",
        "state": "RS",
        "district": "Glória",
        "street": "Rua Tílias",
        "zipcode": "98785-100"
    },
    {
        "city": "Santa Rosa",
        "state": "RS",
        "district": "Glória",
        "street": "Rua Professor José Maria Hansel",
        "zipcode": "98785-142"
    },
    {
        "city": "Santa Rosa",
        "state": "RS",
        "district": "Glória",
        "street": "Rua Bom Fim",
        "zipcode": "98785-139"
    },
    {
        "city": "Santa Rosa",
        "state": "RS",
        "district": "Glória",
        "street": "Rua Aliança",
        "zipcode": "98785-130"
    },
    {
        "city": "Santa Rosa",
        "state": "RS",
        "district": "Glória",
        "street": "Avenida Tuparendi",
        "zipcode": "98785-109"
    },
    {
        "city": "Santa Rosa",
        "state": "RS",
        "district": "Glória",
        "street": "Rua Quinze de Novembro",
        "zipcode": "98785-069"
    },
    {
        "city": "Santa Rosa",
        "state": "RS",
        "district": "Glória",
        "street": "Travessa Colúmbia",
        "zipcode": "98785-024"
    },
    {
        "city": "Santa Rosa",
        "state": "RS",
        "district": "Glória",
        "street": "Travessa Júpiter",
        "zipcode": "98785-015"
    },
    {
        "city": "Santa Rosa",
        "state": "RS",
        "district": "Glória",
        "street": "Rua Piratini",
        "zipcode": "98785-136"
    },
    {
        "city": "Santa Rosa",
        "state": "RS",
        "district": "Glória",
        "street": "Rua Vênus",
        "zipcode": "98785-027"
    },
    {
        "city": "Santa Rosa",
        "state": "RS",
        "district": "Glória",
        "street": "Travessa Zeus",
        "zipcode": "98785-021"
    },
    {
        "city": "Santa Rosa",
        "state": "RS",
        "district": "Guia Lopes",
        "street": "Rua SD 538",
        "zipcode": "98783-870"
    },
    {
        "city": "Santa Rosa",
        "state": "RS",
        "district": "Cruzeiro",
        "street": "Rua Sorocaba",
        "zipcode": "98790-242"
    },
    {
        "city": "Santa Rosa",
        "state": "RS",
        "district": "Cruzeiro",
        "street": "Travessa Aracaju (Vl Progresso)",
        "zipcode": "98790-240"
    },
    {
        "city": "Santa Rosa",
        "state": "RS",
        "district": "Cruzeiro",
        "street": "Rua Ipanema",
        "zipcode": "98790-238"
    },
    {
        "city": "Santa Rosa",
        "state": "RS",
        "district": "Cruzeiro",
        "street": "Rua Progresso",
        "zipcode": "98790-236"
    },
    {
        "city": "Santa Rosa",
        "state": "RS",
        "district": "Cruzeiro",
        "street": "Travessa A (R Júlio Gaviragui)",
        "zipcode": "98790-234"
    },
    {
        "city": "Santa Rosa",
        "state": "RS",
        "district": "Cruzeiro",
        "street": "Travessa Curitibanos",
        "zipcode": "98790-232"
    },
    {
        "city": "Santa Rosa",
        "state": "RS",
        "district": "Cruzeiro",
        "street": "Rua Amizade",
        "zipcode": "98790-292"
    },
    {
        "city": "Santa Rosa",
        "state": "RS",
        "district": "Cruzeiro",
        "street": "Rua Canarana",
        "zipcode": "98790-248"
    },
    {
        "city": "Santa Rosa",
        "state": "RS",
        "district": "Cruzeiro",
        "street": "Travessa Aracaju (Vl COHAB)",
        "zipcode": "98790-246"
    },
    {
        "city": "Santa Rosa",
        "state": "RS",
        "district": "Central",
        "street": "Rua SD 584",
        "zipcode": "98788-074"
    },
    {
        "city": "Santa Rosa",
        "state": "RS",
        "district": "Cruzeiro",
        "street": "Rua Domingos dos Santos Ximenes",
        "zipcode": "98790-204"
    },
    {
        "city": "Santa Rosa",
        "state": "RS",
        "district": "Cruzeiro",
        "street": "Rua João Rodrigues",
        "zipcode": "98790-202"
    },
    {
        "city": "Santa Rosa",
        "state": "RS",
        "district": "Cruzeiro",
        "street": "Rua A (Lot Irineu Dreschler)",
        "zipcode": "98790-148"
    },
    {
        "city": "Santa Rosa",
        "state": "RS",
        "district": "Cruzeiro",
        "street": "Rua Júlio Gaviraghi",
        "zipcode": "98790-146"
    },
    {
        "city": "Santa Rosa",
        "state": "RS",
        "district": "Cruzeiro",
        "street": "Rua Willy Gonçalves Dias",
        "zipcode": "98790-140"
    },
    {
        "city": "Santa Rosa",
        "state": "RS",
        "district": "Cruzeiro",
        "street": "Travessa Dois (Lot Cresol)",
        "zipcode": "98790-138"
    },
    {
        "city": "Santa Rosa",
        "state": "RS",
        "district": "Cruzeiro",
        "street": "Rua Ceará",
        "zipcode": "98790-136"
    },
    {
        "city": "Santa Rosa",
        "state": "RS",
        "district": "Cruzeiro",
        "street": "Travessa Buricá",
        "zipcode": "98790-130"
    },
    {
        "city": "Santa Rosa",
        "state": "RS",
        "district": "Cruzeiro",
        "street": "Rua Júlio Gaviraghi",
        "zipcode": "98790-172"
    },
    {
        "city": "Santa Rosa",
        "state": "RS",
        "district": "Cruzeiro",
        "street": "Rua Alberto Breno Ludwig",
        "zipcode": "98790-066"
    },
    {
        "city": "Santa Rosa",
        "state": "RS",
        "district": "Cruzeiro",
        "street": "Rua Novo Hamburgo",
        "zipcode": "98790-064"
    },
    {
        "city": "Santa Rosa",
        "state": "RS",
        "district": "Cruzeiro",
        "street": "Rua Júlio Zülke",
        "zipcode": "98789-690"
    },
    {
        "city": "Santa Rosa",
        "state": "RS",
        "district": "Cruzeiro",
        "street": "Travessa Jacob Rabuske",
        "zipcode": "98789-686"
    },
    {
        "city": "Santa Rosa",
        "state": "RS",
        "district": "Cruzeiro",
        "street": "Rua José Luiz de Vargas",
        "zipcode": "98789-684"
    },
    {
        "city": "Santa Rosa",
        "state": "RS",
        "district": "Cruzeiro",
        "street": "Rua Serafina da Rosa",
        "zipcode": "98789-682"
    },
    {
        "city": "Santa Rosa",
        "state": "RS",
        "district": "Cruzeiro",
        "street": "Rua Marechal Hermes",
        "zipcode": "98789-780"
    },
    {
        "city": "Santa Rosa",
        "state": "RS",
        "district": "Cruzeiro",
        "street": "Rua Wálter Glier",
        "zipcode": "98789-688"
    },
    {
        "city": "Santa Rosa",
        "state": "RS",
        "district": "Cruzeiro",
        "street": "Rua Canarinho",
        "zipcode": "98790-294"
    },
    {
        "city": "Santa Rosa",
        "state": "RS",
        "district": "Central",
        "street": "Rua Primeiro de Maio",
        "zipcode": "98787-140"
    },
    {
        "city": "Santa Rosa",
        "state": "RS",
        "district": "Central",
        "street": "Rua São José",
        "zipcode": "98787-130"
    },
    {
        "city": "Santa Rosa",
        "state": "RS",
        "district": "Central",
        "street": "Rua São Leopoldo",
        "zipcode": "98787-136"
    },
    {
        "city": "Santa Rosa",
        "state": "RS",
        "district": "Central",
        "street": "Rua Cairú",
        "zipcode": "98787-134"
    },
    {
        "city": "Santa Rosa",
        "state": "RS",
        "district": "Central",
        "street": "Avenida Expedicionário Weber",
        "zipcode": "98787-132"
    },
    {
        "city": "Santa Rosa",
        "state": "RS",
        "district": "Central",
        "street": "Rua Reinoldo Jaeger",
        "zipcode": "98787-064"
    },
    {
        "city": "Santa Rosa",
        "state": "RS",
        "district": "Central",
        "street": "Rua Anselmo Quintino Zanella",
        "zipcode": "98787-062"
    },
    {
        "city": "Santa Rosa",
        "state": "RS",
        "district": "Glória",
        "street": "Rua Arnaldo Gassen",
        "zipcode": "98785-498"
    },
    {
        "city": "Santa Rosa",
        "state": "RS",
        "district": "Glória",
        "street": "Acesso Henrique Gassen",
        "zipcode": "98785-490"
    },
    {
        "city": "Santa Rosa",
        "state": "RS",
        "district": "Glória",
        "street": "Rua Fenasoja",
        "zipcode": "98785-442"
    },
    {
        "city": "Santa Rosa",
        "state": "RS",
        "district": "Glória",
        "street": "Rua Dez de Agosto",
        "zipcode": "98785-439"
    },
    {
        "city": "Santa Rosa",
        "state": "RS",
        "district": "Glória",
        "street": "Rua Musicanto",
        "zipcode": "98785-436"
    },
    {
        "city": "Santa Rosa",
        "state": "RS",
        "district": "Glória",
        "street": "Avenida Tuparendi",
        "zipcode": "98785-395"
    },
    {
        "city": "Santa Rosa",
        "state": "RS",
        "district": "Glória",
        "street": "Rua Otto Mayer",
        "zipcode": "98785-392"
    },
    {
        "city": "Santa Rosa",
        "state": "RS",
        "district": "Glória",
        "street": "Rua Treze de Maio",
        "zipcode": "98785-350"
    },
    {
        "city": "Santa Rosa",
        "state": "RS",
        "district": "Glória",
        "street": "Rua Campeira",
        "zipcode": "98785-433"
    },
    {
        "city": "Santa Rosa",
        "state": "RS",
        "district": "Glória",
        "street": "Rua Josefina Petry",
        "zipcode": "98785-310"
    },
    {
        "city": "Santa Rosa",
        "state": "RS",
        "district": "Glória",
        "street": "Rua Crescencio Oliveira da Silva",
        "zipcode": "98785-307"
    },
    {
        "city": "Santa Rosa",
        "state": "RS",
        "district": "Glória",
        "street": "Travessa A (Lot Silva III)",
        "zipcode": "98785-304"
    },
    {
        "city": "Santa Rosa",
        "state": "RS",
        "district": "Glória",
        "street": "Rua Quero",
        "zipcode": "98785-301"
    },
    {
        "city": "Santa Rosa",
        "state": "RS",
        "district": "Glória",
        "street": "Rua Constante Werenchuk",
        "zipcode": "98785-298"
    },
    {
        "city": "Santa Rosa",
        "state": "RS",
        "district": "Glória",
        "street": "Rua Nicolau Budzinski",
        "zipcode": "98785-295"
    },
    {
        "city": "Santa Rosa",
        "state": "RS",
        "district": "Glória",
        "street": "Rua Getúlio Noily Falabretti",
        "zipcode": "98785-494"
    },
    {
        "city": "Santa Rosa",
        "state": "RS",
        "district": "Glória",
        "street": "Rua dos Pardais",
        "zipcode": "98785-346"
    },
    {
        "city": "Santa Rosa",
        "state": "RS",
        "district": "Glória",
        "street": "Rua Fredolino Steffen",
        "zipcode": "98785-342"
    },
    {
        "city": "Santa Rosa",
        "state": "RS",
        "district": "Cruzeiro",
        "street": "Travessa Pereira",
        "zipcode": "98790-142"
    },
    {
        "city": "Santa Rosa",
        "state": "RS",
        "district": "Cruzeiro",
        "street": "Travessa Júlio Gaviraghi",
        "zipcode": "98790-132"
    },
    {
        "city": "Santa Rosa",
        "state": "RS",
        "district": "Cruzeiro",
        "street": "Travessa José Pereira da Silva",
        "zipcode": "98790-170"
    },
    {
        "city": "Santa Rosa",
        "state": "RS",
        "district": "Cruzeiro",
        "street": "Travessa Norte (Vl Pereira)",
        "zipcode": "98790-062"
    },
    {
        "city": "Santa Rosa",
        "state": "RS",
        "district": "Cruzeiro",
        "street": "Rua Tótilas Carvalho",
        "zipcode": "98789-820"
    },
    {
        "city": "Santa Rosa",
        "state": "RS",
        "district": "Cruzeiro",
        "street": "Rua Dezenove de Janeiro",
        "zipcode": "98789-818"
    },
    {
        "city": "Santa Rosa",
        "state": "RS",
        "district": "Cruzeiro",
        "street": "Rua Professor Mário Lazaretti",
        "zipcode": "98789-678"
    },
    {
        "city": "Santa Rosa",
        "state": "RS",
        "district": "Cruzeiro",
        "street": "Rua José Miguel Alfredo Rauber",
        "zipcode": "98789-676"
    },
    {
        "city": "Santa Rosa",
        "state": "RS",
        "district": "Cruzeiro",
        "street": "Rua Abílio Schwerz",
        "zipcode": "98789-674"
    },
    {
        "city": "Santa Rosa",
        "state": "RS",
        "district": "Cruzeiro",
        "street": "Rua Germano Müller",
        "zipcode": "98789-672"
    },
    {
        "city": "Santa Rosa",
        "state": "RS",
        "district": "Cruzeiro",
        "street": "Beco Antunes",
        "zipcode": "98789-586"
    },
    {
        "city": "Santa Rosa",
        "state": "RS",
        "district": "Cruzeiro",
        "street": "Rua Saída Lajeado Bonito",
        "zipcode": "98789-870"
    },
    {
        "city": "Santa Rosa",
        "state": "RS",
        "district": "Central",
        "street": "Rua SD 585",
        "zipcode": "98788-070"
    },
    {
        "city": "Santa Rosa",
        "state": "RS",
        "district": "Cruzeiro",
        "street": "Rua Professora Lurdes Heinze",
        "zipcode": "98789-680"
    },
    {
        "city": "Santa Rosa",
        "state": "RS",
        "district": "Cruzeiro",
        "street": "Rua Alfredo Rauber",
        "zipcode": "98789-670"
    },
    {
        "city": "Santa Rosa",
        "state": "RS",
        "district": "Cruzeiro",
        "street": "Rua Pedro Antunes",
        "zipcode": "98789-584"
    },
    {
        "city": "Santa Rosa",
        "state": "RS",
        "district": "Cruzeiro",
        "street": "Travessa União",
        "zipcode": "98789-578"
    },
    {
        "city": "Santa Rosa",
        "state": "RS",
        "district": "Cruzeiro",
        "street": "Rua Isabel de Oliveira Vinas",
        "zipcode": "98789-570"
    },
    {
        "city": "Santa Rosa",
        "state": "RS",
        "district": "Cruzeiro",
        "street": "Rua Eurico de Morais",
        "zipcode": "98789-540"
    },
    {
        "city": "Santa Rosa",
        "state": "RS",
        "district": "Cruzeiro",
        "street": "Rua Alvorecer",
        "zipcode": "98789-514"
    },
    {
        "city": "Santa Rosa",
        "state": "RS",
        "district": "Cruzeiro",
        "street": "Rua Quinze de Novembro",
        "zipcode": "98789-512"
    },
    {
        "city": "Santa Rosa",
        "state": "RS",
        "district": "Cruzeiro",
        "street": "Avenida Augusto Pestana",
        "zipcode": "98789-510"
    },
    {
        "city": "Santa Rosa",
        "state": "RS",
        "district": "Cruzeiro",
        "street": "Travessa Emília de Oliveira Motta",
        "zipcode": "98789-572"
    },
    {
        "city": "Santa Rosa",
        "state": "RS",
        "district": "Cruzeiro",
        "street": "Rua dos Pinhais",
        "zipcode": "98789-516"
    },
    {
        "city": "Santa Rosa",
        "state": "RS",
        "district": "Cruzeiro",
        "street": "Rua José Pedroso Morais Neto",
        "zipcode": "98789-576"
    },
    {
        "city": "Santa Rosa",
        "state": "RS",
        "district": "Central",
        "street": "Rua Guarani",
        "zipcode": "98787-402"
    },
    {
        "city": "Santa Rosa",
        "state": "RS",
        "district": "Central",
        "street": "Rua Porto Alegre",
        "zipcode": "98787-404"
    },
    {
        "city": "Santa Rosa",
        "state": "RS",
        "district": "Central",
        "street": "Travessa Uruguai",
        "zipcode": "98787-386"
    },
    {
        "city": "Santa Rosa",
        "state": "RS",
        "district": "Central",
        "street": "Rua Dezesseis de Abril",
        "zipcode": "98787-382"
    },
    {
        "city": "Santa Rosa",
        "state": "RS",
        "district": "Central",
        "street": "Rua Dezesseis de Abril",
        "zipcode": "98787-352"
    },
    {
        "city": "Santa Rosa",
        "state": "RS",
        "district": "Central",
        "street": "Rua Tuiutí",
        "zipcode": "98787-350"
    },
    {
        "city": "Santa Rosa",
        "state": "RS",
        "district": "Central",
        "street": "Rua Santa Catarina",
        "zipcode": "98787-346"
    },
    {
        "city": "Santa Rosa",
        "state": "RS",
        "district": "Central",
        "street": "Rua Guarani",
        "zipcode": "98787-344"
    },
    {
        "city": "Santa Rosa",
        "state": "RS",
        "district": "Central",
        "street": "Rua Júlio de Castilhos",
        "zipcode": "98787-338"
    },
    {
        "city": "Santa Rosa",
        "state": "RS",
        "district": "Central",
        "street": "Rua Quatorze de Julho",
        "zipcode": "98787-334"
    },
    {
        "city": "Santa Rosa",
        "state": "RS",
        "district": "Central",
        "street": "Rua Vinte de Setembro",
        "zipcode": "98787-330"
    },
    {
        "city": "Santa Rosa",
        "state": "RS",
        "district": "Central",
        "street": "Rua Major Santos",
        "zipcode": "98787-328"
    },
    {
        "city": "Santa Rosa",
        "state": "RS",
        "district": "Central",
        "street": "Rua Major Lulú",
        "zipcode": "98787-326"
    },
    {
        "city": "Santa Rosa",
        "state": "RS",
        "district": "Central",
        "street": "Rua Itapema",
        "zipcode": "98787-266"
    },
    {
        "city": "Santa Rosa",
        "state": "RS",
        "district": "Central",
        "street": "Rua Luxemburgo",
        "zipcode": "98787-180"
    },
    {
        "city": "Santa Rosa",
        "state": "RS",
        "district": "Central",
        "street": "Travessa Dal Agnese",
        "zipcode": "98787-170"
    },
    {
        "city": "Santa Rosa",
        "state": "RS",
        "district": "Central",
        "street": "Travessa A (Res Sta Helena)",
        "zipcode": "98787-148"
    },
    {
        "city": "Santa Rosa",
        "state": "RS",
        "district": "Central",
        "street": "Rua Santa Catarina",
        "zipcode": "98787-394"
    },
    {
        "city": "Santa Rosa",
        "state": "RS",
        "district": "Central",
        "street": "Rua Santo Cristo",
        "zipcode": "98787-332"
    },
    {
        "city": "Santa Rosa",
        "state": "RS",
        "district": "Central",
        "street": "Rua Sol Poente",
        "zipcode": "98787-260"
    },
    {
        "city": "Santa Rosa",
        "state": "RS",
        "district": "Central",
        "street": "Rua Cracóvia",
        "zipcode": "98787-184"
    },
    {
        "city": "Santa Rosa",
        "state": "RS",
        "district": "Central",
        "street": "Rua Veneza",
        "zipcode": "98787-182"
    },
    {
        "city": "Santa Rosa",
        "state": "RS",
        "district": "Central",
        "street": "Rua Mônaco",
        "zipcode": "98787-172"
    },
    {
        "city": "Santa Rosa",
        "state": "RS",
        "district": "Cruzeiro",
        "street": "Rua Oeste",
        "zipcode": "98789-320"
    },
    {
        "city": "Santa Rosa",
        "state": "RS",
        "district": "Central",
        "street": "Rua Riachuelo",
        "zipcode": "98787-392"
    },
    {
        "city": "Santa Rosa",
        "state": "RS",
        "district": "Central",
        "street": "Rua Tuiutí",
        "zipcode": "98787-390"
    },
    {
        "city": "Santa Rosa",
        "state": "RS",
        "district": "Central",
        "street": "Rua Dom Bosco",
        "zipcode": "98787-146"
    },
    {
        "city": "Santa Rosa",
        "state": "RS",
        "district": "Cruzeiro",
        "street": "Rua Domingo Espíndola Fonseca",
        "zipcode": "98789-412"
    },
    {
        "city": "Santa Rosa",
        "state": "RS",
        "district": "Cruzeiro",
        "street": "Rua Palestina",
        "zipcode": "98789-400"
    },
    {
        "city": "Santa Rosa",
        "state": "RS",
        "district": "Cruzeiro",
        "street": "Rua Affonso Giordani",
        "zipcode": "98789-368"
    },
    {
        "city": "Santa Rosa",
        "state": "RS",
        "district": "Cruzeiro",
        "street": "Rua Pedro Schwertz",
        "zipcode": "98789-346"
    },
    {
        "city": "Santa Rosa",
        "state": "RS",
        "district": "Cruzeiro",
        "street": "Rua Pedro Arno Mergen",
        "zipcode": "98789-344"
    },
    {
        "city": "Santa Rosa",
        "state": "RS",
        "district": "Cruzeiro",
        "street": "Rua Lajeado Reginaldo",
        "zipcode": "98789-340"
    },
    {
        "city": "Santa Rosa",
        "state": "RS",
        "district": "Cruzeiro",
        "street": "Rua Albino Reckziegel",
        "zipcode": "98789-338"
    },
    {
        "city": "Santa Rosa",
        "state": "RS",
        "district": "Cruzeiro",
        "street": "Rua São Lucas",
        "zipcode": "98789-330"
    },
    {
        "city": "Santa Rosa",
        "state": "RS",
        "district": "Cruzeiro",
        "street": "Rua Suíça",
        "zipcode": "98789-408"
    },
    {
        "city": "Santa Rosa",
        "state": "RS",
        "district": "Cruzeiro",
        "street": "Rua Egito",
        "zipcode": "98789-406"
    },
    {
        "city": "Santa Rosa",
        "state": "RS",
        "district": "Cruzeiro",
        "street": "Rua Bélgica",
        "zipcode": "98789-404"
    },
    {
        "city": "Santa Rosa",
        "state": "RS",
        "district": "Cruzeiro",
        "street": "Rua Líbano",
        "zipcode": "98789-402"
    },
    {
        "city": "Santa Rosa",
        "state": "RS",
        "district": "Cruzeiro",
        "street": "Rua da Liberdade",
        "zipcode": "98789-356"
    },
    {
        "city": "Santa Rosa",
        "state": "RS",
        "district": "Cruzeiro",
        "street": "Rua Flores da Cunha",
        "zipcode": "98789-354"
    },
    {
        "city": "Santa Rosa",
        "state": "RS",
        "district": "Cruzeiro",
        "street": "Travessa Norte",
        "zipcode": "98789-350"
    },
    {
        "city": "Santa Rosa",
        "state": "RS",
        "district": "Cruzeiro",
        "street": "Rua Norte",
        "zipcode": "98789-348"
    },
    {
        "city": "Santa Rosa",
        "state": "RS",
        "district": "Cruzeiro",
        "street": "Rua Bela União",
        "zipcode": "98789-332"
    },
    {
        "city": "Santa Rosa",
        "state": "RS",
        "district": "Cruzeiro",
        "street": "Rua Senador Pinheiro",
        "zipcode": "98789-322"
    },
    {
        "city": "Santa Rosa",
        "state": "RS",
        "district": "Cruzeiro",
        "street": "Avenida Pedro Schwertz",
        "zipcode": "98789-270"
    },
    {
        "city": "Santa Rosa",
        "state": "RS",
        "district": "Cruzeiro",
        "street": "Rua Lajeado Faxinal",
        "zipcode": "98789-336"
    },
    {
        "city": "Santa Rosa",
        "state": "RS",
        "district": "Cruzeiro",
        "street": "Avenida América",
        "zipcode": "98789-260"
    },
    {
        "city": "Santa Rosa",
        "state": "RS",
        "district": "Cruzeiro",
        "street": "Rua Natálio Giraldon",
        "zipcode": "98789-216"
    },
    {
        "city": "Santa Rosa",
        "state": "RS",
        "district": "Cruzeiro",
        "street": "Rua Heni Coelho Leite",
        "zipcode": "98789-214"
    },
    {
        "city": "Santa Rosa",
        "state": "RS",
        "district": "Cruzeiro",
        "street": "Rua Milton Schubert",
        "zipcode": "98789-212"
    },
    {
        "city": "Santa Rosa",
        "state": "RS",
        "district": "Cruzeiro",
        "street": "Rua Lupicínio Rodrigues",
        "zipcode": "98789-210"
    },
    {
        "city": "Santa Rosa",
        "state": "RS",
        "district": "Cruzeiro",
        "street": "Rua Bruno Schittler",
        "zipcode": "98789-208"
    },
    {
        "city": "Santa Rosa",
        "state": "RS",
        "district": "Cruzeiro",
        "street": "Rua Lajeado Pessegueiro",
        "zipcode": "98789-342"
    },
    {
        "city": "Santa Rosa",
        "state": "RS",
        "district": "Cruzeiro",
        "street": "Rua São Carlos",
        "zipcode": "98789-326"
    },
    {
        "city": "Santa Rosa",
        "state": "RS",
        "district": "Cruzeiro",
        "street": "Rua José Germano Stammel",
        "zipcode": "98789-220"
    },
    {
        "city": "Santa Rosa",
        "state": "RS",
        "district": "Central",
        "street": "Rua Pedro Américo",
        "zipcode": "98787-556"
    },
    {
        "city": "Santa Rosa",
        "state": "RS",
        "district": "Central",
        "street": "Rua Telmo Correa",
        "zipcode": "98787-522"
    },
    {
        "city": "Santa Rosa",
        "state": "RS",
        "district": "Central",
        "street": "Rua José Menuci",
        "zipcode": "98787-514"
    },
    {
        "city": "Santa Rosa",
        "state": "RS",
        "district": "Central",
        "street": "Rua Dez de Novembro",
        "zipcode": "98787-510"
    },
    {
        "city": "Santa Rosa",
        "state": "RS",
        "district": "Central",
        "street": "Rua Venâncio Aires",
        "zipcode": "98787-480"
    },
    {
        "city": "Santa Rosa",
        "state": "RS",
        "district": "Central",
        "street": "Rua José Bonifácio",
        "zipcode": "98787-552"
    },
    {
        "city": "Santa Rosa",
        "state": "RS",
        "district": "Central",
        "street": "Rua Castro Alves",
        "zipcode": "98787-550"
    },
    {
        "city": "Santa Rosa",
        "state": "RS",
        "district": "Central",
        "street": "Rua Liton Lanes Pilau",
        "zipcode": "98787-524"
    },
    {
        "city": "Santa Rosa",
        "state": "RS",
        "district": "Central",
        "street": "Rua Dom Pedro I",
        "zipcode": "98787-470"
    },
    {
        "city": "Santa Rosa",
        "state": "RS",
        "district": "Central",
        "street": "Rua Gonçalves Dias",
        "zipcode": "98787-468"
    },
    {
        "city": "Santa Rosa",
        "state": "RS",
        "district": "Central",
        "street": "Rua Dez de Novembro",
        "zipcode": "98787-466"
    },
    {
        "city": "Santa Rosa",
        "state": "RS",
        "district": "Central",
        "street": "Rua Marquês do Herval",
        "zipcode": "98787-462"
    },
    {
        "city": "Santa Rosa",
        "state": "RS",
        "district": "Central",
        "street": "Rua Pedro Flores",
        "zipcode": "98787-460"
    },
    {
        "city": "Santa Rosa",
        "state": "RS",
        "district": "Central",
        "street": "Rua Marquês do Herval",
        "zipcode": "98787-478"
    },
    {
        "city": "Santa Rosa",
        "state": "RS",
        "district": "Central",
        "street": "Rua Ijuí",
        "zipcode": "98787-458"
    },
    {
        "city": "Santa Rosa",
        "state": "RS",
        "district": "Central",
        "street": "Rua Cruzeiro do Sul",
        "zipcode": "98787-452"
    },
    {
        "city": "Santa Rosa",
        "state": "RS",
        "district": "Central",
        "street": "Rua Doutor Accioly",
        "zipcode": "98787-418"
    },
    {
        "city": "Santa Rosa",
        "state": "RS",
        "district": "Central",
        "street": "Rua Uruguai",
        "zipcode": "98787-408"
    },
    {
        "city": "Santa Rosa",
        "state": "RS",
        "district": "Central",
        "street": "Rua dos Farrapos",
        "zipcode": "98787-422"
    },
    {
        "city": "Santa Rosa",
        "state": "RS",
        "district": "Central",
        "street": "Rua Riachuelo",
        "zipcode": "98787-412"
    },
    {
        "city": "Santa Rosa",
        "state": "RS",
        "district": "Cruzeiro",
        "street": "Rua São João",
        "zipcode": "98789-194"
    },
    {
        "city": "Santa Rosa",
        "state": "RS",
        "district": "Cruzeiro",
        "street": "Rua Tarquino Oliveira",
        "zipcode": "98789-192"
    },
    {
        "city": "Santa Rosa",
        "state": "RS",
        "district": "Cruzeiro",
        "street": "Rua Germano Dockhorn",
        "zipcode": "98789-190"
    },
    {
        "city": "Santa Rosa",
        "state": "RS",
        "district": "Cruzeiro",
        "street": "Rua São Francisco",
        "zipcode": "98789-200"
    },
    {
        "city": "Santa Rosa",
        "state": "RS",
        "district": "Cruzeiro",
        "street": "Rua Nossa Senhora Aparecida",
        "zipcode": "98789-180"
    },
    {
        "city": "Santa Rosa",
        "state": "RS",
        "district": "Cruzeiro",
        "street": "Rua Pedro Madril",
        "zipcode": "98789-152"
    },
    {
        "city": "Santa Rosa",
        "state": "RS",
        "district": "Cruzeiro",
        "street": "Rua Olavo Paz da Silva",
        "zipcode": "98789-148"
    },
    {
        "city": "Santa Rosa",
        "state": "RS",
        "district": "Cruzeiro",
        "street": "Rua Joaquim Rodrigues",
        "zipcode": "98789-136"
    },
    {
        "city": "Santa Rosa",
        "state": "RS",
        "district": "Cruzeiro",
        "street": "Rua São João",
        "zipcode": "98789-134"
    },
    {
        "city": "Santa Rosa",
        "state": "RS",
        "district": "Cruzeiro",
        "street": "Rua Nossa Senhora Aparecida",
        "zipcode": "98789-144"
    },
    {
        "city": "Santa Rosa",
        "state": "RS",
        "district": "Cruzeiro",
        "street": "Rua Tarquino Oliveira",
        "zipcode": "98789-130"
    },
    {
        "city": "Santa Rosa",
        "state": "RS",
        "district": "Cruzeiro",
        "street": "Rua Germano Dockhorn",
        "zipcode": "98789-126"
    },
    {
        "city": "Santa Rosa",
        "state": "RS",
        "district": "Cruzeiro",
        "street": "Rua José Meneghetti",
        "zipcode": "98789-124"
    },
    {
        "city": "Santa Rosa",
        "state": "RS",
        "district": "Cruzeiro",
        "street": "Rua Tarquino Oliveira",
        "zipcode": "98789-104"
    },
    {
        "city": "Santa Rosa",
        "state": "RS",
        "district": "Cruzeiro",
        "street": "Rua Vinte e Dois de Agosto",
        "zipcode": "98789-202"
    },
    {
        "city": "Santa Rosa",
        "state": "RS",
        "district": "Cruzeiro",
        "street": "Rua São João",
        "zipcode": "98789-100"
    },
    {
        "city": "Santa Rosa",
        "state": "RS",
        "district": "Cruzeiro",
        "street": "Rua Judite Silveira dos Santos",
        "zipcode": "98789-018"
    },
    {
        "city": "Santa Rosa",
        "state": "RS",
        "district": "Cruzeiro",
        "street": "Rua Estrela Guia",
        "zipcode": "98789-010"
    },
    {
        "city": "Santa Rosa",
        "state": "RS",
        "district": "Cruzeiro",
        "street": "Rua Itapema",
        "zipcode": "98789-008"
    },
    {
        "city": "Santa Rosa",
        "state": "RS",
        "district": "Cruzeiro",
        "street": "Rua Marinho Pereira da Silva",
        "zipcode": "98789-002"
    },
    {
        "city": "Santa Rosa",
        "state": "RS",
        "district": "Cruzeiro",
        "street": "Rua Lamar Arbello",
        "zipcode": "98789-020"
    },
    {
        "city": "Santa Rosa",
        "state": "RS",
        "district": "Cruzeiro",
        "street": "Rua Sol Poente",
        "zipcode": "98789-006"
    },
    {
        "city": "Santa Rosa",
        "state": "RS",
        "district": "Central",
        "street": "Rua SD 548",
        "zipcode": "98788-180"
    },
    {
        "city": "Santa Rosa",
        "state": "RS",
        "district": "Central",
        "street": "Rua Saturno",
        "zipcode": "98788-124"
    },
    {
        "city": "Santa Rosa",
        "state": "RS",
        "district": "Cruzeiro",
        "street": "Rua Marcelino Tonel",
        "zipcode": "98789-140"
    },
    {
        "city": "Santa Rosa",
        "state": "RS",
        "district": "Cruzeiro",
        "street": "Travessa José Luiz Fortes Rodrigues",
        "zipcode": "98789-138"
    },
    {
        "city": "Santa Rosa",
        "state": "RS",
        "district": "Cruzeiro",
        "street": "Rua Três Marias",
        "zipcode": "98789-024"
    },
    {
        "city": "Santa Rosa",
        "state": "RS",
        "district": "Central",
        "street": "Rua Érico Goulart",
        "zipcode": "98787-778"
    },
    {
        "city": "Santa Rosa",
        "state": "RS",
        "district": "Central",
        "street": "Rua Jacó Stepanienco",
        "zipcode": "98787-774"
    },
    {
        "city": "Santa Rosa",
        "state": "RS",
        "district": "Central",
        "street": "Rua Domingos Serafim",
        "zipcode": "98787-772"
    },
    {
        "city": "Santa Rosa",
        "state": "RS",
        "district": "Central",
        "street": "Rua João Alberto Schmitt",
        "zipcode": "98787-702"
    },
    {
        "city": "Santa Rosa",
        "state": "RS",
        "district": "Central",
        "street": "Rua Quintino Bortoli",
        "zipcode": "98787-700"
    },
    {
        "city": "Santa Rosa",
        "state": "RS",
        "district": "Central",
        "street": "Rua José Castilhos",
        "zipcode": "98787-698"
    },
    {
        "city": "Santa Rosa",
        "state": "RS",
        "district": "Central",
        "street": "Rua Doutor Accioly",
        "zipcode": "98787-690"
    },
    {
        "city": "Santa Rosa",
        "state": "RS",
        "district": "Central",
        "street": "Rua José Maicá",
        "zipcode": "98787-830"
    },
    {
        "city": "Santa Rosa",
        "state": "RS",
        "district": "Central",
        "street": "Rua Fidélix Marostega",
        "zipcode": "98787-780"
    },
    {
        "city": "Santa Rosa",
        "state": "RS",
        "district": "Central",
        "street": "Rua Manoel Ferreira Brandão Filho",
        "zipcode": "98787-660"
    },
    {
        "city": "Santa Rosa",
        "state": "RS",
        "district": "Central",
        "street": "Rua Constante Werenchuk",
        "zipcode": "98787-604"
    },
    {
        "city": "Santa Rosa",
        "state": "RS",
        "district": "Central",
        "street": "Rua José Bonifácio",
        "zipcode": "98787-602"
    },
    {
        "city": "Santa Rosa",
        "state": "RS",
        "district": "Central",
        "street": "Rua Barão do Rio Branco",
        "zipcode": "98787-572"
    },
    {
        "city": "Santa Rosa",
        "state": "RS",
        "district": "Central",
        "street": "Rua José de Alencar",
        "zipcode": "98787-570"
    },
    {
        "city": "Santa Rosa",
        "state": "RS",
        "district": "Central",
        "street": "Rua Eça de Queiroz",
        "zipcode": "98787-564"
    },
    {
        "city": "Santa Rosa",
        "state": "RS",
        "district": "Central",
        "street": "Rua Paulino de Souza",
        "zipcode": "98787-704"
    },
    {
        "city": "Santa Rosa",
        "state": "RS",
        "district": "Central",
        "street": "Rua Independência",
        "zipcode": "98787-562"
    },
    {
        "city": "Santa Rosa",
        "state": "RS",
        "district": "Central",
        "street": "Travessa Gonçalves",
        "zipcode": "98787-560"
    },
    {
        "city": "Santa Rosa",
        "state": "RS",
        "district": "Cruzeiro",
        "street": "Rua Netuno",
        "zipcode": "98789-016"
    },
    {
        "city": "Santa Rosa",
        "state": "RS",
        "district": "Central",
        "street": "Rua Marte",
        "zipcode": "98788-122"
    },
    {
        "city": "Santa Rosa",
        "state": "RS",
        "district": "Sulina",
        "street": "Rua do Moinho",
        "zipcode": "98796-222"
    },
    {
        "city": "Santa Rosa",
        "state": "RS",
        "district": "Industrial",
        "street": "Avenida Expedicionário Fernando Hartmann",
        "zipcode": "98794-768"
    },
    {
        "city": "Santa Rosa",
        "state": "RS",
        "district": "Industrial",
        "street": "Rua Teolina Pereira da Silva",
        "zipcode": "98794-644"
    },
    {
        "city": "Santa Rosa",
        "state": "RS",
        "district": "Planalto",
        "street": "Rua Araça",
        "zipcode": "98794-326"
    },
    {
        "city": "Santa Rosa",
        "state": "RS",
        "district": "Planalto",
        "street": "Rua Agostinho Zenni",
        "zipcode": "98794-166"
    },
    {
        "city": "Santa Rosa",
        "state": "RS",
        "district": "Planalto",
        "street": "Rua Professor Liberato Salzano",
        "zipcode": "98794-164"
    },
    {
        "city": "Santa Rosa",
        "state": "RS",
        "district": "Cruzeiro",
        "street": "Rua Mário Maróstega",
        "zipcode": "98790-306"
    },
    {
        "city": "Santa Rosa",
        "state": "RS",
        "district": "Cruzeiro",
        "street": "Rua Carlos Heinze",
        "zipcode": "98789-102"
    },
    {
        "city": "Santa Rosa",
        "state": "RS",
        "district": "Cruzeiro",
        "street": "Rua Ângelo Massaia",
        "zipcode": "98789-032"
    },
    {
        "city": "Santa Rosa",
        "state": "RS",
        "district": "Cruzeiro",
        "street": "Rua Alfa Centauro",
        "zipcode": "98789-022"
    },
    {
        "city": "Santa Rosa",
        "state": "RS",
        "district": "Cruzeiro",
        "street": "Rua Rosa dos Ventos",
        "zipcode": "98789-014"
    },
    {
        "city": "Santa Rosa",
        "state": "RS",
        "district": "Central",
        "street": "Rua Terra",
        "zipcode": "98788-120"
    },
    {
        "city": "Santa Rosa",
        "state": "RS",
        "district": "Central",
        "street": "Rua Uruguai",
        "zipcode": "98787-710"
    },
    {
        "city": "Santa Rosa",
        "state": "RS",
        "district": "Central",
        "street": "Rua Argentina",
        "zipcode": "98787-694"
    },
    {
        "city": "Santa Rosa",
        "state": "RS",
        "district": "Central",
        "street": "Rua Vicente Zoehler",
        "zipcode": "98787-708"
    },
    {
        "city": "Santa Rosa",
        "state": "RS",
        "district": "Central",
        "street": "Rua Valdir Motta da Costa",
        "zipcode": "98787-706"
    },
    {
        "city": "Santa Rosa",
        "state": "RS",
        "district": "Central",
        "street": "Rua C (R Manoel Ferreira)",
        "zipcode": "98787-662"
    },
    {
        "city": "Santa Rosa",
        "state": "RS",
        "district": "Central",
        "street": "Rua B (R Manoel Ferreira)",
        "zipcode": "98787-666"
    },
    {
        "city": "Santa Rosa",
        "state": "RS",
        "district": "Central",
        "street": "Rua A (R Manoel Ferreira)",
        "zipcode": "98787-664"
    },
    {
        "city": "Santa Rosa",
        "state": "RS",
        "district": "Central",
        "street": "Rodovia BR",
        "zipcode": "98787-890"
    },
    {
        "city": "Santa Rosa",
        "state": "RS",
        "district": "Central",
        "street": "Rua Joaquim Nabuco",
        "zipcode": "98787-554"
    },
    {
        "city": "Santa Rosa",
        "state": "RS",
        "district": "Central",
        "street": "Rua Farroupilha",
        "zipcode": "98787-456"
    },
    {
        "city": "Santa Rosa",
        "state": "RS",
        "district": "Central",
        "street": "Avenida Expedicionário Weber",
        "zipcode": "98787-450"
    },
    {
        "city": "Santa Rosa",
        "state": "RS",
        "district": "Central",
        "street": "Avenida Expedicionário Weber",
        "zipcode": "98787-424"
    },
    {
        "city": "Santa Rosa",
        "state": "RS",
        "district": "Central",
        "street": "Rua Argentina",
        "zipcode": "98787-414"
    },
    {
        "city": "Santa Rosa",
        "state": "RS",
        "district": "Central",
        "street": "Rua General Câmara",
        "zipcode": "98787-398"
    },
    {
        "city": "Santa Rosa",
        "state": "RS",
        "district": "Central",
        "street": "Travessa Passo da Viola",
        "zipcode": "98787-324"
    },
    {
        "city": "Santa Rosa",
        "state": "RS",
        "district": "Central",
        "street": "Avenida Expedicionário Weber",
        "zipcode": "98787-290"
    },
    {
        "city": "Santa Rosa",
        "state": "RS",
        "district": "Central",
        "street": "Rua Carlos Heinze",
        "zipcode": "98787-268"
    },
    {
        "city": "Santa Rosa",
        "state": "RS",
        "district": "Central",
        "street": "Rua Munique",
        "zipcode": "98787-186"
    },
    {
        "city": "Santa Rosa",
        "state": "RS",
        "district": "Central",
        "street": "Rua Barcelona",
        "zipcode": "98787-178"
    },
    {
        "city": "Santa Rosa",
        "state": "RS",
        "district": "Central",
        "street": "Rua Doutor Accioly",
        "zipcode": "98787-396"
    },
    {
        "city": "Santa Rosa",
        "state": "RS",
        "district": "Central",
        "street": "Rua Arthur José Werlang",
        "zipcode": "98787-144"
    },
    {
        "city": "Santa Rosa",
        "state": "RS",
        "district": "Central",
        "street": "Rua Clóvis Pedroso",
        "zipcode": "98787-142"
    },
    {
        "city": "Santa Rosa",
        "state": "RS",
        "district": "Glória",
        "street": "Passarela Darcila Santos da Silva",
        "zipcode": "98785-344"
    },
    {
        "city": "Santa Rosa",
        "state": "RS",
        "district": "Glória",
        "street": "Rua Lauro Cardoso",
        "zipcode": "98785-340"
    },
    {
        "city": "Santa Rosa",
        "state": "RS",
        "district": "Glória",
        "street": "Rua André Lachnoff",
        "zipcode": "98785-313"
    },
    {
        "city": "Santa Rosa",
        "state": "RS",
        "district": "Glória",
        "street": "Rua José Humberto Massulini",
        "zipcode": "98785-106"
    },
    {
        "city": "Santa Rosa",
        "state": "RS",
        "district": "Glória",
        "street": "Travessa Schalenberger",
        "zipcode": "98785-066"
    },
    {
        "city": "Santa Rosa",
        "state": "RS",
        "district": "Guia Lopes",
        "street": "Rua Dois (Lot Paiva Klein)",
        "zipcode": "98783-450"
    },
    {
        "city": "Santa Rosa",
        "state": "RS",
        "district": "Guia Lopes",
        "street": "Rua Três (Lot Elpídio J. Meinenz)",
        "zipcode": "98783-186"
    },
    {
        "city": "Santa Rosa",
        "state": "RS",
        "district": "Timbaúva",
        "street": "Rua Doutor Francisco Timm",
        "zipcode": "98781-404"
    },
    {
        "city": "Santa Rosa",
        "state": "RS",
        "district": "Timbaúva",
        "street": "Rua Mauá",
        "zipcode": "98781-212"
    },
    {
        "city": "Santa Rosa",
        "state": "RS",
        "district": "Timbaúva",
        "street": "Avenida Inhacorá",
        "zipcode": "98781-116"
    },
    {
        "city": "Santa Rosa",
        "state": "RS",
        "district": "Timbaúva",
        "street": "Rua Pedro Paulo Reihner",
        "zipcode": "98781-050"
    },
    {
        "city": "Santa Rosa",
        "state": "RS",
        "district": "Centro",
        "street": "Avenida Rio Grande do Sul",
        "zipcode": "98780-765"
    },
    {
        "city": "Santa Rosa",
        "state": "RS",
        "district": "Centro",
        "street": "Avenida Rio Grande do Sul",
        "zipcode": "98780-762"
    },
    {
        "city": "Santa Rosa",
        "state": "RS",
        "district": "Centro",
        "street": "Avenida Perimetral",
        "zipcode": "98780-871"
    },
    {
        "city": "Santa Rosa",
        "state": "RS",
        "district": "Cruzeiro",
        "street": "Rua Cruz Alta",
        "zipcode": "98789-116"
    },
    {
        "city": "Santa Rosa",
        "state": "RS",
        "district": "Centro",
        "street": "Avenida Santa Cruz",
        "zipcode": "98780-821"
    },
    {
        "city": "Santa Rosa",
        "state": "RS",
        "district": "Sulina",
        "street": "Rua Sulina",
        "zipcode": "98796-226"
    },
    {
        "city": "Santa Rosa",
        "state": "RS",
        "district": "Sulina",
        "street": "Rua Santa Rosa",
        "zipcode": "98796-004"
    },
    {
        "city": "Santa Rosa",
        "state": "RS",
        "district": "Industrial",
        "street": "Rodovia RS",
        "zipcode": "98795-250"
    },
    {
        "city": "Santa Rosa",
        "state": "RS",
        "district": "Industrial",
        "street": "Estrada Linha Faxinal",
        "zipcode": "98795-180"
    },
    {
        "city": "Santa Rosa",
        "state": "RS",
        "district": "Industrial",
        "street": "Estrada Lajeado",
        "zipcode": "98794-850"
    },
    {
        "city": "Santa Rosa",
        "state": "RS",
        "district": "Sulina",
        "street": "Travessa Passarela",
        "zipcode": "98796-052"
    },
    {
        "city": "Santa Rosa",
        "state": "RS",
        "district": "Planalto",
        "street": "Acesso CRER",
        "zipcode": "98794-570"
    },
    {
        "city": "Santa Rosa",
        "state": "RS",
        "district": "Sulina",
        "street": "Rua João Dahne",
        "zipcode": "98796-000"
    },
    {
        "city": "Santa Rosa",
        "state": "RS",
        "district": "São Francisco",
        "street": "Rua Elemar Sanfelice",
        "zipcode": "98792-194"
    },
    {
        "city": "Santa Rosa",
        "state": "RS",
        "district": "Cruzeiro",
        "street": "Travessa Jamaica",
        "zipcode": "98790-302"
    },
    {
        "city": "Santa Rosa",
        "state": "RS",
        "district": "Cruzeiro",
        "street": "Rua Santo Antônio",
        "zipcode": "98789-782"
    },
    {
        "city": "Santa Rosa",
        "state": "RS",
        "district": "Cruzeiro",
        "street": "Rua Leopoldo Oliveira",
        "zipcode": "98789-582"
    },
    {
        "city": "Santa Rosa",
        "state": "RS",
        "district": "Cruzeiro",
        "street": "Rua Lajeado Capim",
        "zipcode": "98789-334"
    },
    {
        "city": "Santa Rosa",
        "state": "RS",
        "district": "Cruzeiro",
        "street": "Rua Vida Nova",
        "zipcode": "98789-146"
    },
    {
        "city": "Santa Rosa",
        "state": "RS",
        "district": "Glória",
        "street": "Rodovia RS",
        "zipcode": "98785-840"
    },
    {
        "city": "Santa Rosa",
        "state": "RS",
        "district": "Glória",
        "street": "Rua SD 545",
        "zipcode": "98785-810"
    },
    {
        "city": "Santa Rosa",
        "state": "RS",
        "district": "Glória",
        "street": "Rua Armindo Küger",
        "zipcode": "98785-710"
    },
    {
        "city": "Santa Rosa",
        "state": "RS",
        "district": "Glória",
        "street": "Rua SD 547",
        "zipcode": "98785-610"
    },
    {
        "city": "Santa Rosa",
        "state": "RS",
        "district": "Glória",
        "street": "Estrada Pastor Georg Albert Ziegler",
        "zipcode": "98785-600"
    },
    {
        "city": "Santa Rosa",
        "state": "RS",
        "district": "Glória",
        "street": "Rua Quatro (Lot Res Parque)",
        "zipcode": "98785-506"
    },
    {
        "city": "Santa Rosa",
        "state": "RS",
        "district": "Glória",
        "street": "Rua Três (Lot Res Parque)",
        "zipcode": "98785-502"
    },
    {
        "city": "Santa Rosa",
        "state": "RS",
        "district": "Glória",
        "street": "Rodovia BR",
        "zipcode": "98785-760"
    },
    {
        "city": "Santa Rosa",
        "state": "RS",
        "district": "Glória",
        "street": "Rua SD 548",
        "zipcode": "98785-620"
    },
    {
        "city": "Santa Rosa",
        "state": "RS",
        "district": "Guia Lopes",
        "street": "Rua Dois (Lot Aristeo)",
        "zipcode": "98783-113"
    },
    {
        "city": "Santa Rosa",
        "state": "RS",
        "district": "Guia Lopes",
        "street": "Rua Um (Lot Aristeo)",
        "zipcode": "98783-110"
    },
    {
        "city": "Santa Rosa",
        "state": "RS",
        "district": "Guia Lopes",
        "street": "Estrada Dois",
        "zipcode": "98783-080"
    },
    {
        "city": "Santa Rosa",
        "state": "RS",
        "district": "Timbaúva",
        "street": "Estrada Dois",
        "zipcode": "98781-800"
    },
    {
        "city": "Santa Rosa",
        "state": "RS",
        "district": "Timbaúva",
        "street": "Rua SD 396",
        "zipcode": "98781-795"
    },
    {
        "city": "Santa Rosa",
        "state": "RS",
        "district": "Guia Lopes",
        "street": "Estrada Um",
        "zipcode": "98783-050"
    },
    {
        "city": "Santa Rosa",
        "state": "RS",
        "district": "Timbaúva",
        "street": "Estrada Um",
        "zipcode": "98781-870"
    },
    {
        "city": "Santa Rosa",
        "state": "RS",
        "district": "Timbaúva",
        "street": "Rua SD 433",
        "zipcode": "98781-810"
    },
    {
        "city": "Santa Rosa",
        "state": "RS",
        "district": "Timbaúva",
        "street": "Rua SD 397",
        "zipcode": "98781-805"
    },
    {
        "city": "Santa Rosa",
        "state": "RS",
        "district": "Timbaúva",
        "street": "Rua Doutor Jardel Nélio Meinerz",
        "zipcode": "98781-476"
    },
    {
        "city": "Santa Rosa",
        "state": "RS",
        "district": "Timbaúva",
        "street": "Rua Gerson Lunardi",
        "zipcode": "98781-472"
    },
    {
        "city": "Santa Rosa",
        "state": "RS",
        "district": "Timbaúva",
        "street": "Rua Alfredo Leandro Carlsson",
        "zipcode": "98781-468"
    },
    {
        "city": "Santa Rosa",
        "state": "RS",
        "district": "Timbaúva",
        "street": "Rua Santos Dias",
        "zipcode": "98781-464"
    },
    {
        "city": "Santa Rosa",
        "state": "RS",
        "district": "Timbaúva",
        "street": "Rua Roberto Schaff",
        "zipcode": "98781-460"
    },
    {
        "city": "Santa Rosa",
        "state": "RS",
        "district": "Timbaúva",
        "street": "Rua Roberto Jesse",
        "zipcode": "98781-416"
    },
    {
        "city": "Santa Rosa",
        "state": "RS",
        "district": "Timbaúva",
        "street": "Rua Chico Mendes",
        "zipcode": "98781-412"
    },
    {
        "city": "Santa Rosa",
        "state": "RS",
        "district": "Timbaúva",
        "street": "Travessa Roberto Schaff",
        "zipcode": "98781-408"
    },
    {
        "city": "Santa Rosa",
        "state": "RS",
        "district": "Timbaúva",
        "street": "Rua Bauru",
        "zipcode": "98781-107"
    },
    {
        "city": "Santa Rosa",
        "state": "RS",
        "district": "Timbaúva",
        "street": "Rua Beck Fenner",
        "zipcode": "98781-010"
    },
    {
        "city": "Santa Rosa",
        "state": "RS",
        "district": "Timbaúva",
        "street": "Rua Açude",
        "zipcode": "98781-092"
    },
    {
        "city": "Santa Rosa",
        "state": "RS",
        "district": "Timbaúva",
        "street": "Rua Bangú",
        "zipcode": "98781-042"
    },
    {
        "city": "Santa Rosa",
        "state": "RS",
        "district": "Centro",
        "street": "Praça Berlim",
        "zipcode": "98780-771"
    },
    {
        "city": "Santa Rosa",
        "state": "RS",
        "district": "Centro",
        "street": "Rua Vila Lobos",
        "zipcode": "98780-621"
    },
    {
        "city": "Santa Rosa",
        "state": "RS",
        "district": "Centro",
        "street": "Rua Marcílio Dias",
        "zipcode": "98780-615"
    },
    {
        "city": "Santa Rosa",
        "state": "RS",
        "district": "Centro",
        "street": "Travessa Riachuelo",
        "zipcode": "98780-612"
    },
    {
        "city": "Santa Rosa",
        "state": "RS",
        "district": "Centro",
        "street": "Travessa Pedro Álvares Cabral",
        "zipcode": "98780-618"
    },
    {
        "city": "Santa Rosa",
        "state": "RS",
        "district": "Figueira",
        "street": "Rua Guaíra",
        "zipcode": "98792-638"
    },
    {
        "city": "Santa Rosa",
        "state": "RS",
        "district": "Figueira",
        "street": "Rua Vilson Carpenedo",
        "zipcode": "98792-635"
    },
    {
        "city": "Santa Rosa",
        "state": "RS",
        "district": "Figueira",
        "street": "Rua Arno Volkweis",
        "zipcode": "98792-632"
    },
    {
        "city": "Santa Rosa",
        "state": "RS",
        "district": "Figueira",
        "street": "Rua João Dani",
        "zipcode": "98792-623"
    },
    {
        "city": "Santa Rosa",
        "state": "RS",
        "district": "São Francisco",
        "street": "Rua Estanislau Kwiatkowski",
        "zipcode": "98792-250"
    },
    {
        "city": "Santa Rosa",
        "state": "RS",
        "district": "São Francisco",
        "street": "Rua Waldomiro Alves",
        "zipcode": "98792-218"
    },
    {
        "city": "Santa Rosa",
        "state": "RS",
        "district": "São Francisco",
        "street": "Rua Ondina Vargas dos Reis",
        "zipcode": "98792-216"
    },
    {
        "city": "Santa Rosa",
        "state": "RS",
        "district": "São Francisco",
        "street": "Rua Adolfo Hegele",
        "zipcode": "98792-214"
    },
    {
        "city": "Santa Rosa",
        "state": "RS",
        "district": "São Francisco",
        "street": "Rua Francisco Dani",
        "zipcode": "98792-212"
    },
    {
        "city": "Santa Rosa",
        "state": "RS",
        "district": "São Francisco",
        "street": "Rua Gonçalino Pereira da Silva",
        "zipcode": "98792-210"
    },
    {
        "city": "Santa Rosa",
        "state": "RS",
        "district": "São Francisco",
        "street": "Rua Alecrim",
        "zipcode": "98792-196"
    },
    {
        "city": "Santa Rosa",
        "state": "RS",
        "district": "São Francisco",
        "street": "Rua Reinoldo Pudell",
        "zipcode": "98792-148"
    },
    {
        "city": "Santa Rosa",
        "state": "RS",
        "district": "São Francisco",
        "street": "Rua das Gérberas",
        "zipcode": "98792-146"
    },
    {
        "city": "Santa Rosa",
        "state": "RS",
        "district": "São Francisco",
        "street": "Rua Petúnia",
        "zipcode": "98792-144"
    },
    {
        "city": "Santa Rosa",
        "state": "RS",
        "district": "São Francisco",
        "street": "Travessa Alecrim",
        "zipcode": "98792-198"
    },
    {
        "city": "Santa Rosa",
        "state": "RS",
        "district": "Cruzeiro",
        "street": "Rua Três (Lot Cresol II)",
        "zipcode": "98790-696"
    },
    {
        "city": "Santa Rosa",
        "state": "RS",
        "district": "Cruzeiro",
        "street": "Rua Um (Lot Cresol II)",
        "zipcode": "98790-692"
    },
    {
        "city": "Santa Rosa",
        "state": "RS",
        "district": "Cruzeiro",
        "street": "Rua Professor Luiz Klesta",
        "zipcode": "98790-350"
    },
    {
        "city": "Santa Rosa",
        "state": "RS",
        "district": "Cruzeiro",
        "street": "Rua Oscar Rockenbach",
        "zipcode": "98790-348"
    },
    {
        "city": "Santa Rosa",
        "state": "RS",
        "district": "Cruzeiro",
        "street": "Avenida Irio Saueressig",
        "zipcode": "98790-346"
    },
    {
        "city": "Santa Rosa",
        "state": "RS",
        "district": "Cruzeiro",
        "street": "Rua Vivaldino Marques da Piedade",
        "zipcode": "98790-344"
    },
    {
        "city": "Santa Rosa",
        "state": "RS",
        "district": "Cruzeiro",
        "street": "Rua Hector Motta",
        "zipcode": "98790-340"
    },
    {
        "city": "Santa Rosa",
        "state": "RS",
        "district": "Cruzeiro",
        "street": "Rua José Kurylo",
        "zipcode": "98790-312"
    },
    {
        "city": "Santa Rosa",
        "state": "RS",
        "district": "Cruzeiro",
        "street": "Rua Tiradentes",
        "zipcode": "98790-308"
    },
    {
        "city": "Santa Rosa",
        "state": "RS",
        "district": "Cruzeiro",
        "street": "Rua São Jorge",
        "zipcode": "98790-310"
    },
    {
        "city": "Santa Rosa",
        "state": "RS",
        "district": "Cruzeiro",
        "street": "Avenida Augusto Pestana",
        "zipcode": "98790-060"
    },
    {
        "city": "Santa Rosa",
        "state": "RS",
        "district": "Cruzeiro",
        "street": "Estrada Cruzeiro Lajeado",
        "zipcode": "98789-860"
    },
    {
        "city": "Santa Rosa",
        "state": "RS",
        "district": "Cruzeiro",
        "street": "Rua Ângelo Pisoni",
        "zipcode": "98789-824"
    },
    {
        "city": "Santa Rosa",
        "state": "RS",
        "district": "Cruzeiro",
        "street": "Rua Adolfo Octávio Friderichs",
        "zipcode": "98789-822"
    },
    {
        "city": "Santa Rosa",
        "state": "RS",
        "district": "Cruzeiro",
        "street": "Rua Emília Taborda de Oliveira",
        "zipcode": "98789-784"
    },
    {
        "city": "Santa Rosa",
        "state": "RS",
        "district": "Cruzeiro",
        "street": "Rua dos Angicos",
        "zipcode": "98790-470"
    },
    {
        "city": "Santa Rosa",
        "state": "RS",
        "district": "Cruzeiro",
        "street": "Rua da Figueira",
        "zipcode": "98789-786"
    },
    {
        "city": "Santa Rosa",
        "state": "RS",
        "district": "Central",
        "street": "Rua Aristóteles Capaverde",
        "zipcode": "98787-516"
    },
    {
        "city": "Santa Rosa",
        "state": "RS",
        "district": "Central",
        "street": "Avenida Coronel Bráulio de Oliveira",
        "zipcode": "98787-348"
    },
    {
        "city": "Santa Rosa",
        "state": "RS",
        "district": "Central",
        "street": "Avenida Coronel Bráulio de Oliveira",
        "zipcode": "98787-342"
    },
    {
        "city": "Santa Rosa",
        "state": "RS",
        "district": "Central",
        "street": "Rua Capitão Numas",
        "zipcode": "98787-322"
    },
    {
        "city": "Santa Rosa",
        "state": "RS",
        "district": "Central",
        "street": "Rua Amizade",
        "zipcode": "98787-320"
    },
    {
        "city": "Santa Rosa",
        "state": "RS",
        "district": "Central",
        "street": "Avenida Expedicionário Weber",
        "zipcode": "98787-292"
    },
    {
        "city": "Santa Rosa",
        "state": "RS",
        "district": "Central",
        "street": "Rua Argentina",
        "zipcode": "98787-388"
    },
    {
        "city": "Santa Rosa",
        "state": "RS",
        "district": "Central",
        "street": "Avenida Coronel Bráulio de Oliveira",
        "zipcode": "98787-380"
    },
    {
        "city": "Santa Rosa",
        "state": "RS",
        "district": "Glória",
        "street": "Rua Alfredo Bürkle",
        "zipcode": "98785-354"
    },
    {
        "city": "Santa Rosa",
        "state": "RS",
        "district": "Guia Lopes",
        "street": "Rua SD 517",
        "zipcode": "98783-326"
    },
    {
        "city": "Santa Rosa",
        "state": "RS",
        "district": "Industrial",
        "street": "Acesso CRER",
        "zipcode": "98794-600"
    },
    {
        "city": "Santa Rosa",
        "state": "RS",
        "district": "Guia Lopes",
        "street": "Rua Dois (Lot Elpídio J. Meinenz)",
        "zipcode": "98783-184"
    },
    {
        "city": "Santa Rosa",
        "state": "RS",
        "district": "Guia Lopes",
        "street": "Rua Um (Lot Demétrio)",
        "zipcode": "98783-180"
    },
    {
        "city": "Santa Rosa",
        "state": "RS",
        "district": "Guia Lopes",
        "street": "Rua SD 501",
        "zipcode": "98783-192"
    },
    {
        "city": "Santa Rosa",
        "state": "RS",
        "district": "Guia Lopes",
        "street": "Estrada Quatro",
        "zipcode": "98783-116"
    },
    {
        "city": "Santa Rosa",
        "state": "RS",
        "district": "Guia Lopes",
        "street": "Rua Um (Lot Elpídio J. Meinenz)",
        "zipcode": "98783-182"
    },
    {
        "city": "Santa Rosa",
        "state": "RS",
        "district": "Centro",
        "street": "Avenida Rio Branco",
        "zipcode": "98780-970"
    },
    {
        "city": "Santa Rosa",
        "state": "RS",
        "district": "Cruzeiro",
        "street": "Rua Pedro Maciel Cézar",
        "zipcode": "98789-362"
    },
    {
        "city": "Santa Rosa",
        "state": "RS",
        "district": "Cruzeiro",
        "street": "Rua Estrela",
        "zipcode": "98789-360"
    },
    {
        "city": "Santa Rosa",
        "state": "RS",
        "district": "Cruzeiro",
        "street": "Rua Afonso Ritter",
        "zipcode": "98789-358"
    },
    {
        "city": "Santa Rosa",
        "state": "RS",
        "district": "Cruzeiro",
        "street": "Avenida Flores da Cunha",
        "zipcode": "98789-188"
    },
    {
        "city": "Santa Rosa",
        "state": "RS",
        "district": "Cruzeiro",
        "street": "Rua Cândido Freire",
        "zipcode": "98789-196"
    },
    {
        "city": "Santa Rosa",
        "state": "RS",
        "district": "Cruzeiro",
        "street": "Avenida Flores da Cunha",
        "zipcode": "98789-186"
    },
    {
        "city": "Santa Rosa",
        "state": "RS",
        "district": "Cruzeiro",
        "street": "Avenida Fermino de Paula",
        "zipcode": "98789-182"
    },
    {
        "city": "Santa Rosa",
        "state": "RS",
        "district": "Cruzeiro",
        "street": "Rua Assis Brasil",
        "zipcode": "98789-154"
    },
    {
        "city": "Santa Rosa",
        "state": "RS",
        "district": "Cruzeiro",
        "street": "Rua Estanislau Kotlinski",
        "zipcode": "98789-128"
    },
    {
        "city": "Santa Rosa",
        "state": "RS",
        "district": "Cruzeiro",
        "street": "Avenida Flores da Cunha",
        "zipcode": "98789-122"
    },
    {
        "city": "Santa Rosa",
        "state": "RS",
        "district": "Cruzeiro",
        "street": "Rua Ângelo Menuci",
        "zipcode": "98789-118"
    },
    {
        "city": "Santa Rosa",
        "state": "RS",
        "district": "Cruzeiro",
        "street": "Rua Estrela Dalva",
        "zipcode": "98789-026"
    },
    {
        "city": "Santa Rosa",
        "state": "RS",
        "district": "Cruzeiro",
        "street": "Avenida Flores da Cunha",
        "zipcode": "98789-114"
    },
    {
        "city": "Santa Rosa",
        "state": "RS",
        "district": "Cruzeiro",
        "street": "Rua Ângelo Cordenonsi",
        "zipcode": "98789-132"
    },
    {
        "city": "Santa Rosa",
        "state": "RS",
        "district": "Cruzeiro",
        "street": "Rua Carlos Heinze",
        "zipcode": "98789-004"
    },
    {
        "city": "Santa Rosa",
        "state": "RS",
        "district": "Cruzeiro",
        "street": "Avenida Expedicionário Weber",
        "zipcode": "98789-000"
    },
    {
        "city": "Santa Rosa",
        "state": "RS",
        "district": "Central",
        "street": "Estrada Velha para Tuparendi",
        "zipcode": "98788-100"
    },
    {
        "city": "Santa Rosa",
        "state": "RS",
        "district": "Central",
        "street": "Estrada Vicinal",
        "zipcode": "98788-040"
    },
    {
        "city": "Santa Rosa",
        "state": "RS",
        "district": "Central",
        "street": "Rua Amélio Petrazzini",
        "zipcode": "98787-692"
    },
    {
        "city": "Santa Rosa",
        "state": "RS",
        "district": "Central",
        "street": "Rodovia BR",
        "zipcode": "98788-010"
    },
    {
        "city": "Santa Rosa",
        "state": "RS",
        "district": "Central",
        "street": "Rua Apolo Batista Paz",
        "zipcode": "98787-520"
    },
    {
        "city": "Santa Rosa",
        "state": "RS",
        "district": "Central",
        "street": "Rua Almirante Barroso",
        "zipcode": "98787-476"
    },
    {
        "city": "Santa Rosa",
        "state": "RS",
        "district": "Central",
        "street": "Rua Amazonas",
        "zipcode": "98787-474"
    },
    {
        "city": "Santa Rosa",
        "state": "RS",
        "district": "Central",
        "street": "Praça Júlio Leopoldo Rauber",
        "zipcode": "98787-558"
    },
    {
        "city": "Santa Rosa",
        "state": "RS",
        "district": "Central",
        "street": "Beco Weber",
        "zipcode": "98787-002"
    },
    {
        "city": "Santa Rosa",
        "state": "RS",
        "district": "Central",
        "street": "Rua Almirante Barroso",
        "zipcode": "98787-464"
    },
    {
        "city": "Santa Rosa",
        "state": "RS",
        "district": "Central",
        "street": "Rua Casemiro de Abreu",
        "zipcode": "98787-482"
    },
    {
        "city": "Santa Rosa",
        "state": "RS",
        "district": "Cruzeiro",
        "street": "Rua São Gabriel",
        "zipcode": "98789-328"
    },
    {
        "city": "Santa Rosa",
        "state": "RS",
        "district": "Centro",
        "street": "Rua Caxias",
        "zipcode": "98780-971"
    },
    {
        "city": "Santa Rosa",
        "state": "RS",
        "district": "Central",
        "street": "Rua Vinte e Um de Abril",
        "zipcode": "98787-058"
    },
    {
        "city": "Santa Rosa",
        "state": "RS",
        "district": "Planalto",
        "street": "Rua Sinval Saldanha",
        "zipcode": "98794-202"
    },
    {
        "city": "Santa Rosa",
        "state": "RS",
        "district": "Cruzeiro",
        "street": "Rua Curitiba",
        "zipcode": "98790-230"
    },
    {
        "city": "Santa Rosa",
        "state": "RS",
        "district": "Cruzeiro",
        "street": "Travessa Três de Outubro",
        "zipcode": "98790-200"
    },
    {
        "city": "Santa Rosa",
        "state": "RS",
        "district": "Cruzeiro",
        "street": "Avenida Augusto Pestana",
        "zipcode": "98789-814"
    },
    {
        "city": "Santa Rosa",
        "state": "RS",
        "district": "Planalto",
        "street": "Rua Benvindo Rota Giordani",
        "zipcode": "98794-270"
    },
    {
        "city": "Santa Rosa",
        "state": "RS",
        "district": "Planalto",
        "street": "Rua dos Coqueiros",
        "zipcode": "98794-310"
    },
    {
        "city": "Santa Rosa",
        "state": "RS",
        "district": "Glória",
        "street": "Travessa das Andorinhas",
        "zipcode": "98785-271"
    },
    {
        "city": "Santa Rosa",
        "state": "RS",
        "district": "Glória",
        "street": "Rua Beija",
        "zipcode": "98785-286"
    },
    {
        "city": "Santa Rosa",
        "state": "RS",
        "district": "Glória",
        "street": "Rua B (Vl Balneária)",
        "zipcode": "98785-253"
    },
    {
        "city": "Santa Rosa",
        "state": "RS",
        "district": "Glória",
        "street": "Rua Bom Fim",
        "zipcode": "98785-210"
    },
    {
        "city": "Santa Rosa",
        "state": "RS",
        "district": "Glória",
        "street": "Rua Sete de Setembro",
        "zipcode": "98785-075"
    },
    {
        "city": "Santa Rosa",
        "state": "RS",
        "district": "Glória",
        "street": "Rua Germano Mayer",
        "zipcode": "98785-063"
    },
    {
        "city": "Santa Rosa",
        "state": "RS",
        "district": "Glória",
        "street": "Rua Alegrete",
        "zipcode": "98785-133"
    },
    {
        "city": "Santa Rosa",
        "state": "RS",
        "district": "Planalto",
        "street": "Rua João Straub",
        "zipcode": "98794-234"
    },
    {
        "city": "Santa Rosa",
        "state": "RS",
        "district": "Central",
        "street": "Rua Taquara",
        "zipcode": "98787-336"
    },
    {
        "city": "Santa Rosa",
        "state": "RS",
        "district": "Área Rural de Santa Rosa",
        "street": "Área Rural",
        "zipcode": "98797-899"
    },
    {
        "city": "Santa Rosa",
        "state": "RS",
        "district": "Industrial",
        "street": "Rua Horizonte Romano Bendlin",
        "zipcode": "98794-762"
    },
    {
        "city": "Santa Rosa",
        "state": "RS",
        "district": "Industrial",
        "street": "Rua Benvindo Rota Giordani",
        "zipcode": "98794-740"
    },
    {
        "city": "Santa Rosa",
        "state": "RS",
        "district": "Cruzeiro",
        "street": "Rua Três de Outubro",
        "zipcode": "98789-810"
    },
    {
        "city": "Santa Rosa",
        "state": "RS",
        "district": "Figueira",
        "street": "Rua Soldado",
        "zipcode": "98792-740"
    },
    {
        "city": "Santa Rosa",
        "state": "RS",
        "district": "Cruzeiro",
        "street": "Rua Vitorino Weber",
        "zipcode": "98790-352"
    },
    {
        "city": "Santa Rosa",
        "state": "RS",
        "district": "Auxiliadora",
        "street": "Estrada Lajeado",
        "zipcode": "98796-780"
    },
    {
        "city": "Santa Rosa",
        "state": "RS",
        "district": "Auxiliadora",
        "street": "Rua São Roque",
        "zipcode": "98796-706"
    },
    {
        "city": "Santa Rosa",
        "state": "RS",
        "district": "Auxiliadora",
        "street": "Rua São Miguel Arcanjo",
        "zipcode": "98796-694"
    },
    {
        "city": "Santa Rosa",
        "state": "RS",
        "district": "Auxiliadora",
        "street": "Rua dos Uvais",
        "zipcode": "98796-664"
    },
    {
        "city": "Santa Rosa",
        "state": "RS",
        "district": "Auxiliadora",
        "street": "Rua Dez de Agosto",
        "zipcode": "98796-585"
    },
    {
        "city": "Santa Rosa",
        "state": "RS",
        "district": "Auxiliadora",
        "street": "Rua Santa Terezinha",
        "zipcode": "98796-573"
    },
    {
        "city": "Santa Rosa",
        "state": "RS",
        "district": "Auxiliadora",
        "street": "Rodovia RS",
        "zipcode": "98796-500"
    },
    {
        "city": "Santa Rosa",
        "state": "RS",
        "district": "Sulina",
        "street": "Rua João Tomasi",
        "zipcode": "98796-300"
    },
    {
        "city": "Santa Rosa",
        "state": "RS",
        "district": "Sulina",
        "street": "Rua Augusto Júlio Matter",
        "zipcode": "98796-292"
    },
    {
        "city": "Santa Rosa",
        "state": "RS",
        "district": "Sulina",
        "street": "Rua Pedro Geraldo dos Santos",
        "zipcode": "98796-290"
    },
    {
        "city": "Santa Rosa",
        "state": "RS",
        "district": "Sulina",
        "street": "Rua Projetada",
        "zipcode": "98796-286"
    },
    {
        "city": "Santa Rosa",
        "state": "RS",
        "district": "Sulina",
        "street": "Rodovia BR",
        "zipcode": "98796-330"
    },
    {
        "city": "Santa Rosa",
        "state": "RS",
        "district": "Sulina",
        "street": "Rua Cristóvão Leopoldo Meinertz",
        "zipcode": "98796-230"
    },
    {
        "city": "Santa Rosa",
        "state": "RS",
        "district": "Sulina",
        "street": "Travessa Um (Vl Sta Inêz)",
        "zipcode": "98796-196"
    },
    {
        "city": "Santa Rosa",
        "state": "RS",
        "district": "Sulina",
        "street": "Rua Caminho Suleste",
        "zipcode": "98796-108"
    },
    {
        "city": "Santa Rosa",
        "state": "RS",
        "district": "Sulina",
        "street": "Rua João Felipe dos Santos",
        "zipcode": "98796-238"
    },
    {
        "city": "Santa Rosa",
        "state": "RS",
        "district": "Sulina",
        "street": "Rua Medeiros",
        "zipcode": "98796-054"
    },
    {
        "city": "Santa Rosa",
        "state": "RS",
        "district": "Sulina",
        "street": "Rua Giruá",
        "zipcode": "98796-008"
    },
    {
        "city": "Santa Rosa",
        "state": "RS",
        "district": "Industrial",
        "street": "Estrada SD 431",
        "zipcode": "98795-050"
    },
    {
        "city": "Santa Rosa",
        "state": "RS",
        "district": "Industrial",
        "street": "Travessa Gilmar Feltraco",
        "zipcode": "98794-772"
    },
    {
        "city": "Santa Rosa",
        "state": "RS",
        "district": "Industrial",
        "street": "Estrada Cruzeiro Lajeado",
        "zipcode": "98795-140"
    },
    {
        "city": "Santa Rosa",
        "state": "RS",
        "district": "Industrial",
        "street": "Travessa Giácomin Paza",
        "zipcode": "98794-770"
    },
    {
        "city": "Santa Rosa",
        "state": "RS",
        "district": "Industrial",
        "street": "Travessa Giácomo Griza",
        "zipcode": "98794-766"
    },
    {
        "city": "Santa Rosa",
        "state": "RS",
        "district": "Industrial",
        "street": "Rodovia RS",
        "zipcode": "98794-620"
    },
    {
        "city": "Santa Rosa",
        "state": "RS",
        "district": "Planalto",
        "street": "Rua Benvindo Rota Giordani",
        "zipcode": "98794-380"
    },
    {
        "city": "Santa Rosa",
        "state": "RS",
        "district": "Planalto",
        "street": "Rodovia RS",
        "zipcode": "98794-470"
    },
    {
        "city": "Santa Rosa",
        "state": "RS",
        "district": "Planalto",
        "street": "Rua das Margaridas",
        "zipcode": "98794-322"
    },
    {
        "city": "Santa Rosa",
        "state": "RS",
        "district": "Planalto",
        "street": "Alameda das Jabuticabas",
        "zipcode": "98794-320"
    },
    {
        "city": "Santa Rosa",
        "state": "RS",
        "district": "Planalto",
        "street": "Rua das Cerejeiras",
        "zipcode": "98794-318"
    },
    {
        "city": "Santa Rosa",
        "state": "RS",
        "district": "Planalto",
        "street": "Rua Cecília Meireles",
        "zipcode": "98794-224"
    },
    {
        "city": "Santa Rosa",
        "state": "RS",
        "district": "Planalto",
        "street": "Rua Demétrio Ribeiro",
        "zipcode": "98794-170"
    },
    {
        "city": "Santa Rosa",
        "state": "RS",
        "district": "Planalto",
        "street": "Rua Brasília",
        "zipcode": "98794-220"
    },
    {
        "city": "Santa Rosa",
        "state": "RS",
        "district": "Planalto",
        "street": "Rua Pastor Apolos Baptista Paz",
        "zipcode": "98794-138"
    },
    {
        "city": "Santa Rosa",
        "state": "RS",
        "district": "Planalto",
        "street": "Rua Santo Afonso",
        "zipcode": "98794-092"
    },
    {
        "city": "Santa Rosa",
        "state": "RS",
        "district": "Planalto",
        "street": "Rua Nossa Senhora Medianeira",
        "zipcode": "98794-090"
    },
    {
        "city": "Santa Rosa",
        "state": "RS",
        "district": "Planalto",
        "street": "Rua São Paulo",
        "zipcode": "98794-144"
    },
    {
        "city": "Santa Rosa",
        "state": "RS",
        "district": "Figueira",
        "street": "Rua Soldado",
        "zipcode": "98792-752"
    },
    {
        "city": "Santa Rosa",
        "state": "RS",
        "district": "Figueira",
        "street": "Rua Soldado",
        "zipcode": "98792-748"
    },
    {
        "city": "Santa Rosa",
        "state": "RS",
        "district": "Figueira",
        "street": "Avenida América",
        "zipcode": "98792-710"
    },
    {
        "city": "Santa Rosa",
        "state": "RS",
        "district": "Figueira",
        "street": "Estrada Saída Lajeado Figueira",
        "zipcode": "98792-480"
    },
    {
        "city": "Santa Rosa",
        "state": "RS",
        "district": "São Francisco",
        "street": "Rua Conde de Porto Alegre",
        "zipcode": "98792-176"
    },
    {
        "city": "Santa Rosa",
        "state": "RS",
        "district": "São Francisco",
        "street": "Rua Guaíra",
        "zipcode": "98792-092"
    },
    {
        "city": "Santa Rosa",
        "state": "RS",
        "district": "São Francisco",
        "street": "Rua Sagrada Família",
        "zipcode": "98792-034"
    },
    {
        "city": "Santa Rosa",
        "state": "RS",
        "district": "Cruzeiro",
        "street": "Rua Dois (Lot Cresol II)",
        "zipcode": "98790-694"
    },
    {
        "city": "Santa Rosa",
        "state": "RS",
        "district": "Cruzeiro",
        "street": "Rodovia BR",
        "zipcode": "98790-520"
    },
    {
        "city": "Santa Rosa",
        "state": "RS",
        "district": "Cruzeiro",
        "street": "Rodovia BR",
        "zipcode": "98790-530"
    },
    {
        "city": "Santa Rosa",
        "state": "RS",
        "district": "Cruzeiro",
        "street": "Rua Itajaí",
        "zipcode": "98790-304"
    },
    {
        "city": "Santa Rosa",
        "state": "RS",
        "district": "Cruzeiro",
        "street": "Travessa Hawaí",
        "zipcode": "98790-298"
    },
    {
        "city": "Santa Rosa",
        "state": "RS",
        "district": "Cruzeiro",
        "street": "Rua Pintassilgo",
        "zipcode": "98790-296"
    },
    {
        "city": "Santa Rosa",
        "state": "RS",
        "district": "Cruzeiro",
        "street": "Rua Marechal Floriano",
        "zipcode": "98790-244"
    },
    {
        "city": "Santa Rosa",
        "state": "RS",
        "district": "Cruzeiro",
        "street": "Travessa Tiradentes",
        "zipcode": "98790-144"
    },
    {
        "city": "Santa Rosa",
        "state": "RS",
        "district": "Cruzeiro",
        "street": "Travessa Três de Maio",
        "zipcode": "98790-134"
    },
    {
        "city": "Santa Rosa",
        "state": "RS",
        "district": "Cruzeiro",
        "street": "Avenida Expedicionário Weber",
        "zipcode": "98790-290"
    },
    {
        "city": "Santa Rosa",
        "state": "RS",
        "district": "Cruzeiro",
        "street": "Rua André Kotlinski Filho",
        "zipcode": "98790-250"
    },
    {
        "city": "Santa Rosa",
        "state": "RS",
        "district": "Cruzeiro",
        "street": "Rua Vinte de Setembro",
        "zipcode": "98789-812"
    },
    {
        "city": "Santa Rosa",
        "state": "RS",
        "district": "Cruzeiro",
        "street": "Rua Emília de Oliveira Motta",
        "zipcode": "98789-580"
    },
    {
        "city": "Santa Rosa",
        "state": "RS",
        "district": "Cruzeiro",
        "street": "Travessa Bom Jesus",
        "zipcode": "98789-366"
    },
    {
        "city": "Santa Rosa",
        "state": "RS",
        "district": "Cruzeiro",
        "street": "Rua Manoel Diniz Lemos",
        "zipcode": "98789-364"
    },
    {
        "city": "Santa Rosa",
        "state": "RS",
        "district": "Cruzeiro",
        "street": "Rua Lajeado Tigre",
        "zipcode": "98789-324"
    },
    {
        "city": "Santa Rosa",
        "state": "RS",
        "district": "Cruzeiro",
        "street": "Rua Roque Gonzales",
        "zipcode": "98789-206"
    },
    {
        "city": "Santa Rosa",
        "state": "RS",
        "district": "Cruzeiro",
        "street": "Travessa Ignácio Pinto Sobrinho",
        "zipcode": "98789-218"
    },
    {
        "city": "Santa Rosa",
        "state": "RS",
        "district": "Cruzeiro",
        "street": "Rua Lupicínio Rodrigues",
        "zipcode": "98789-142"
    },
    {
        "city": "Santa Rosa",
        "state": "RS",
        "district": "Cruzeiro",
        "street": "Avenida Flores da Cunha",
        "zipcode": "98789-112"
    },
    {
        "city": "Santa Rosa",
        "state": "RS",
        "district": "Cruzeiro",
        "street": "Travessa Aquino",
        "zipcode": "98789-072"
    },
    {
        "city": "Santa Rosa",
        "state": "RS",
        "district": "Cruzeiro",
        "street": "Rua Titã",
        "zipcode": "98789-028"
    },
    {
        "city": "Santa Rosa",
        "state": "RS",
        "district": "Cruzeiro",
        "street": "Travessa Ferroviária",
        "zipcode": "98789-184"
    },
    {
        "city": "Santa Rosa",
        "state": "RS",
        "district": "Cruzeiro",
        "street": "Rua Ijuí",
        "zipcode": "98789-110"
    },
    {
        "city": "Santa Rosa",
        "state": "RS",
        "district": "Cruzeiro",
        "street": "Rua Germano Dockhorn",
        "zipcode": "98789-108"
    },
    {
        "city": "Santa Rosa",
        "state": "RS",
        "district": "Cruzeiro",
        "street": "Avenida Expedicionário Weber",
        "zipcode": "98789-106"
    },
    {
        "city": "Santa Rosa",
        "state": "RS",
        "district": "Cruzeiro",
        "street": "Rua Sírius",
        "zipcode": "98789-030"
    },
    {
        "city": "Santa Rosa",
        "state": "RS",
        "district": "Cruzeiro",
        "street": "Avenida Flores da Cunha",
        "zipcode": "98789-120"
    },
    {
        "city": "Santa Rosa",
        "state": "RS",
        "district": "Central",
        "street": "Rua Vilmar Hartemink",
        "zipcode": "98787-776"
    },
    {
        "city": "Santa Rosa",
        "state": "RS",
        "district": "Central",
        "street": "Rua Bernardo Guimarães",
        "zipcode": "98787-512"
    },
    {
        "city": "Santa Rosa",
        "state": "RS",
        "district": "Central",
        "street": "Rua Pedro Américo (Vl Flores)",
        "zipcode": "98787-472"
    },
    {
        "city": "Santa Rosa",
        "state": "RS",
        "district": "Central",
        "street": "Rua Taquara",
        "zipcode": "98787-416"
    },
    {
        "city": "Santa Rosa",
        "state": "RS",
        "district": "Central",
        "street": "Rua Porto Alegre",
        "zipcode": "98787-340"
    },
    {
        "city": "Santa Rosa",
        "state": "RS",
        "district": "Central",
        "street": "Rua Urano",
        "zipcode": "98787-262"
    },
    {
        "city": "Santa Rosa",
        "state": "RS",
        "district": "Central",
        "street": "Rua Toscana",
        "zipcode": "98787-174"
    },
    {
        "city": "Santa Rosa",
        "state": "RS",
        "district": "Central",
        "street": "Rua Rosalino Rigo",
        "zipcode": "98787-060"
    },
    {
        "city": "Santa Rosa",
        "state": "RS",
        "district": "Central",
        "street": "Rua Francisco Meinertz",
        "zipcode": "98787-008"
    },
    {
        "city": "Santa Rosa",
        "state": "RS",
        "district": "Glória",
        "street": "Rua SD 544",
        "zipcode": "98785-850"
    },
    {
        "city": "Santa Rosa",
        "state": "RS",
        "district": "Central",
        "street": "Rua Uruguai",
        "zipcode": "98787-384"
    },
    {
        "city": "Santa Rosa",
        "state": "RS",
        "district": "Central",
        "street": "Rua Estrela Guia",
        "zipcode": "98787-264"
    },
    {
        "city": "Santa Rosa",
        "state": "RS",
        "district": "Central",
        "street": "Rua Panambi",
        "zipcode": "98787-138"
    },
    {
        "city": "Santa Rosa",
        "state": "RS",
        "district": "Glória",
        "street": "Rodovia BR",
        "zipcode": "98785-560"
    },
    {
        "city": "Santa Rosa",
        "state": "RS",
        "district": "Central",
        "street": "Avenida Expedicionário Weber",
        "zipcode": "98787-000"
    },
    {
        "city": "Santa Rosa",
        "state": "RS",
        "district": "Glória",
        "street": "Avenida Benvenuto de Conti",
        "zipcode": "98785-430"
    },
    {
        "city": "Santa Rosa",
        "state": "RS",
        "district": "Glória",
        "street": "Travessa Appolônio Zorzan",
        "zipcode": "98785-356"
    },
    {
        "city": "Santa Rosa",
        "state": "RS",
        "district": "Central",
        "street": "Avenida América",
        "zipcode": "98787-090"
    },
    {
        "city": "Santa Rosa",
        "state": "RS",
        "district": "Central",
        "street": "Rua Sebastião Mattiazzi",
        "zipcode": "98787-004"
    },
    {
        "city": "Santa Rosa",
        "state": "RS",
        "district": "Glória",
        "street": "Rua Frederico Luiz Von Eye",
        "zipcode": "98785-348"
    },
    {
        "city": "Santa Rosa",
        "state": "RS",
        "district": "Glória",
        "street": "Rua José Bonifácio",
        "zipcode": "98785-259"
    },
    {
        "city": "Santa Rosa",
        "state": "RS",
        "district": "Glória",
        "street": "Rua Bento Martins",
        "zipcode": "98785-154"
    },
    {
        "city": "Santa Rosa",
        "state": "RS",
        "district": "Guia Lopes",
        "street": "Rodovia BR",
        "zipcode": "98783-750"
    },
    {
        "city": "Santa Rosa",
        "state": "RS",
        "district": "Guia Lopes",
        "street": "Travessa Quatro (Lot Kunz)",
        "zipcode": "98783-706"
    },
    {
        "city": "Santa Rosa",
        "state": "RS",
        "district": "Guia Lopes",
        "street": "Estrada Municipal João Carlos de Lima",
        "zipcode": "98783-700"
    },
    {
        "city": "Santa Rosa",
        "state": "RS",
        "district": "Guia Lopes",
        "street": "Rua das Bromélias",
        "zipcode": "98783-486"
    },
    {
        "city": "Santa Rosa",
        "state": "RS",
        "district": "Guia Lopes",
        "street": "Rua Três (Lot Paiva Klein)",
        "zipcode": "98783-458"
    },
    {
        "city": "Santa Rosa",
        "state": "RS",
        "district": "Guia Lopes",
        "street": "Rua SD 526",
        "zipcode": "98783-592"
    },
    {
        "city": "Santa Rosa",
        "state": "RS",
        "district": "Guia Lopes",
        "street": "Rua Quatro (Lot Capelari)",
        "zipcode": "98783-392"
    },
    {
        "city": "Santa Rosa",
        "state": "RS",
        "district": "Guia Lopes",
        "street": "Rodovia BR",
        "zipcode": "98783-860"
    },
    {
        "city": "Santa Rosa",
        "state": "RS",
        "district": "Guia Lopes",
        "street": "Rua das Gardênias",
        "zipcode": "98783-480"
    },
    {
        "city": "Santa Rosa",
        "state": "RS",
        "district": "Guia Lopes",
        "street": "Rua Cinco (Lot Paiva Klein)",
        "zipcode": "98783-452"
    },
    {
        "city": "Santa Rosa",
        "state": "RS",
        "district": "Guia Lopes",
        "street": "Rua Três (Lot Capelari)",
        "zipcode": "98783-398"
    },
    {
        "city": "Santa Rosa",
        "state": "RS",
        "district": "Guia Lopes",
        "street": "Rua SD 633",
        "zipcode": "98783-150"
    },
    {
        "city": "Santa Rosa",
        "state": "RS",
        "district": "Guia Lopes",
        "street": "Rodovia BR",
        "zipcode": "98783-020"
    },
    {
        "city": "Santa Rosa",
        "state": "RS",
        "district": "Timbaúva",
        "street": "Rua SD 393",
        "zipcode": "98781-785"
    },
    {
        "city": "Santa Rosa",
        "state": "RS",
        "district": "Guia Lopes",
        "street": "Rua SD 498",
        "zipcode": "98783-262"
    },
    {
        "city": "Santa Rosa",
        "state": "RS",
        "district": "Timbaúva",
        "street": "Rua SD 392",
        "zipcode": "98781-780"
    },
    {
        "city": "Santa Rosa",
        "state": "RS",
        "district": "Timbaúva",
        "street": "Rua Arthur Ambros",
        "zipcode": "98781-480"
    },
    {
        "city": "Santa Rosa",
        "state": "RS",
        "district": "Timbaúva",
        "street": "Rua Walmiro da Costa Lyra",
        "zipcode": "98781-392"
    },
    {
        "city": "Santa Rosa",
        "state": "RS",
        "district": "Timbaúva",
        "street": "Rua Adão Bakof",
        "zipcode": "98781-266"
    },
    {
        "city": "Santa Rosa",
        "state": "RS",
        "district": "Timbaúva",
        "street": "Rodovia BR",
        "zipcode": "98781-840"
    },
    {
        "city": "Santa Rosa",
        "state": "RS",
        "district": "Timbaúva",
        "street": "Rua Edwino Fenner",
        "zipcode": "98781-080"
    },
    {
        "city": "Santa Rosa",
        "state": "RS",
        "district": "Centro",
        "street": "Praça da Bandeira",
        "zipcode": "98780-972"
    },
    {
        "city": "Santa Rosa",
        "state": "RS",
        "district": "Centro",
        "street": "Travessa Silva Paes",
        "zipcode": "98780-606"
    },
    {
        "city": "Santa Rosa",
        "state": "RS",
        "district": "Centro",
        "street": "Avenida América",
        "zipcode": "98780-729"
    },
    {
        "city": "Santa Rosa",
        "state": "RS",
        "district": "Centro",
        "street": "Rua Bento Martins",
        "zipcode": "98780-503"
    },
    {
        "city": "Santa Rosa",
        "state": "RS",
        "district": "Centro",
        "street": "Rua Sebastião Mattiazzi",
        "zipcode": "98780-358"
    },
    {
        "city": "Santa Rosa",
        "state": "RS",
        "district": "Centro",
        "street": "Rua Doralino Leusin",
        "zipcode": "98780-182"
    },
    {
        "city": "Santa Rosa",
        "state": "RS",
        "district": "Centro",
        "street": "Rua Armando Roos Hagg",
        "zipcode": "98780-115"
    },
    {
        "city": "Santa Rosa",
        "state": "RS",
        "district": "Centro",
        "street": "Avenida Borges de Medeiros",
        "zipcode": "98780-001"
    },
    {
        "city": "Santa Rosa",
        "state": "RS",
        "district": "Centro",
        "street": "Rua João Dahne",
        "zipcode": "98780-070"
    },
    {
        "city": "Santa Rosa",
        "state": "RS",
        "district": "Centro",
        "street": "Avenida Rio Branco 740",
        "zipcode": "98900-970"
    },
    {
        "city": "Santa Rosa",
        "state": "RS",
        "district": "Centro",
        "street": "Rua Caxias 20",
        "zipcode": "98900-976"
    },
    {
        "city": "Santa Rosa",
        "state": "RS",
        "district": "Centro",
        "street": "Praça da Bandeira 26",
        "zipcode": "98900-972"
    },
    {
        "city": "Santa Rosa",
        "state": "RS",
        "district": "Timbaúva",
        "street": "Rua Ipê (Av Inhacorá)",
        "zipcode": "98781-110"
    },
    {
        "city": "Santa Rosa",
        "state": "RS",
        "district": "Industrial",
        "street": "Rua Estanislau Kwiatkowski",
        "zipcode": "98794-680"
    },
    {
        "city": "Santa Rosa",
        "state": "RS",
        "district": "Figueira",
        "street": "Rua E (Lot Alto América)",
        "zipcode": "98792-641"
    },
    {
        "city": "Santa Rosa",
        "state": "RS",
        "district": "Cruzeiro",
        "street": "Rua Sete (Lot Cresol II)",
        "zipcode": "98790-704"
    },
    {
        "city": "Santa Rosa",
        "state": "RS",
        "district": "Cruzeiro",
        "street": "Rua SD 390",
        "zipcode": "98790-840"
    }
]