[
    {
        "city": "São Lourenço do Sul",
        "state": "RS",
        "district": "",
        "street": "",
        "zipcode": "96170-000"
    },
    {
        "city": "São Lourenço do Sul",
        "state": "RS",
        "district": "Centro",
        "street": "Rua Senador Pinheiro Machado",
        "zipcode": "96170-970"
    },
    {
        "city": "São Lourenço do Sul",
        "state": "RS",
        "district": "Bom Jesus",
        "street": "Distrito Quatro s/n",
        "zipcode": "96170-971"
    },
    {
        "city": "São Lourenço do Sul",
        "state": "RS",
        "district": "Santa Isabel",
        "street": "Distrito Santa Isabel s/n",
        "zipcode": "96170-976"
    },
    {
        "city": "São Lourenço do Sul",
        "state": "RS",
        "district": "Santa Tereza",
        "street": "Distrito Santa Tereza",
        "zipcode": "96170-977"
    },
    {
        "city": "São Lourenço do Sul",
        "state": "RS",
        "district": "Harmonia",
        "street": "Rua Harmonia",
        "zipcode": "96170-980"
    },
    {
        "city": "São Lourenço do Sul",
        "state": "RS",
        "district": "São João da Reserva",
        "street": "Distrito São João da Reserva",
        "zipcode": "96170-978"
    },
    {
        "city": "São Lourenço do Sul",
        "state": "RS",
        "district": "Distrito Faxinal",
        "street": "Rua Principal",
        "zipcode": "96170-981"
    },
    {
        "city": "São Lourenço do Sul",
        "state": "RS",
        "district": "Campos Quevedo",
        "street": "Estrada Canta Galo",
        "zipcode": "96170-974"
    },
    {
        "city": "São Lourenço do Sul",
        "state": "RS",
        "district": "Picada da Esperança",
        "street": "Distrito Picada Esperança",
        "zipcode": "96170-975"
    }
]