[
    {
        "city": "São Gabriel",
        "state": "RS",
        "district": "Mariana",
        "street": "Rua Guabiju",
        "zipcode": "97313-024"
    },
    {
        "city": "São Gabriel",
        "state": "RS",
        "district": "Centro",
        "street": "Avenida das Acácias",
        "zipcode": "97300-450"
    },
    {
        "city": "São Gabriel",
        "state": "RS",
        "district": "Vila Maria",
        "street": "Avenida das Acácias",
        "zipcode": "97300-500"
    },
    {
        "city": "São Gabriel",
        "state": "RS",
        "district": "Zona Sul",
        "street": "Avenida Antônio Trilha",
        "zipcode": "97304-000"
    },
    {
        "city": "São Gabriel",
        "state": "RS",
        "district": "Zona Sul",
        "street": "Avenida Antônio Trilha",
        "zipcode": "97304-062"
    },
    {
        "city": "São Gabriel",
        "state": "RS",
        "district": "Bela Vista",
        "street": "Avenida Antônio Trilha",
        "zipcode": "97304-460"
    },
    {
        "city": "São Gabriel",
        "state": "RS",
        "district": "Gabrielense",
        "street": "Avenida Antônio Trilha",
        "zipcode": "97306-010"
    },
    {
        "city": "São Gabriel",
        "state": "RS",
        "district": "Gabrielense",
        "street": "Avenida Antônio Trilha",
        "zipcode": "97306-064"
    },
    {
        "city": "São Gabriel",
        "state": "RS",
        "district": "Universitário",
        "street": "Avenida A",
        "zipcode": "97306-814"
    },
    {
        "city": "São Gabriel",
        "state": "RS",
        "district": "Santo Antônio",
        "street": "Avenida Antônio Trilha",
        "zipcode": "97310-010"
    },
    {
        "city": "São Gabriel",
        "state": "RS",
        "district": "Santo Antônio",
        "street": "Avenida Francisco Gonçalves Chagas",
        "zipcode": "97310-082"
    },
    {
        "city": "São Gabriel",
        "state": "RS",
        "district": "Santo Antônio",
        "street": "Avenida Francisco Gonçalves Chagas",
        "zipcode": "97310-085"
    },
    {
        "city": "São Gabriel",
        "state": "RS",
        "district": "São Sebastião",
        "street": "Avenida Francisco Gonçalves Chagas",
        "zipcode": "97310-182"
    },
    {
        "city": "São Gabriel",
        "state": "RS",
        "district": "Vivenda",
        "street": "Avenida Francisco Gonçalves Chagas",
        "zipcode": "97310-200"
    },
    {
        "city": "São Gabriel",
        "state": "RS",
        "district": "Vila Trindade",
        "street": "Avenida Francisco Gonçalves Chagas",
        "zipcode": "97310-660"
    },
    {
        "city": "São Gabriel",
        "state": "RS",
        "district": "Vargas",
        "street": "Avenida Francisco Gonçalves Chagas",
        "zipcode": "97310-700"
    },
    {
        "city": "São Gabriel",
        "state": "RS",
        "district": "Jardim Europa",
        "street": "Rua E",
        "zipcode": "97304-184"
    },
    {
        "city": "São Gabriel",
        "state": "RS",
        "district": "Santo Antônio",
        "street": "Avenida Francisco Gonçalves Chagas",
        "zipcode": "97310-046"
    },
    {
        "city": "São Gabriel",
        "state": "RS",
        "district": "Vargas",
        "street": "Avenida Francisco Gonçalves Chagas",
        "zipcode": "97310-762"
    },
    {
        "city": "São Gabriel",
        "state": "RS",
        "district": "Vargas",
        "street": "Avenida Francisco Hermenegildo da Silva",
        "zipcode": "97310-780"
    },
    {
        "city": "São Gabriel",
        "state": "RS",
        "district": "Cidade Nova",
        "street": "Avenida Francisco Hermenegildo da Silva",
        "zipcode": "97310-815"
    },
    {
        "city": "São Gabriel",
        "state": "RS",
        "district": "Esplanada",
        "street": "Avenida Francisco Hermenegildo da Silva",
        "zipcode": "97311-000"
    },
    {
        "city": "São Gabriel",
        "state": "RS",
        "district": "Vieira",
        "street": "Avenida Francisco Hermenegildo da Silva",
        "zipcode": "97311-200"
    },
    {
        "city": "São Gabriel",
        "state": "RS",
        "district": "Vieira",
        "street": "Avenida Francisco Gonçalves Chagas",
        "zipcode": "97311-420"
    },
    {
        "city": "São Gabriel",
        "state": "RS",
        "district": "Mariana",
        "street": "Avenida Francisco Gonçalves Chagas",
        "zipcode": "97313-020"
    },
    {
        "city": "São Gabriel",
        "state": "RS",
        "district": "Jardim Primavera",
        "street": "Avenida Francisco Gonçalves Chagas",
        "zipcode": "97313-180"
    },
    {
        "city": "São Gabriel",
        "state": "RS",
        "district": "Independência",
        "street": "Avenida Francisco Gonçalves Chagas",
        "zipcode": "97313-200"
    },
    {
        "city": "São Gabriel",
        "state": "RS",
        "district": "Independência",
        "street": "Avenida Francisco Hermenegildo da Silva",
        "zipcode": "97313-272"
    },
    {
        "city": "São Gabriel",
        "state": "RS",
        "district": "Independência",
        "street": "Avenida Francisco Gonçalves Chagas",
        "zipcode": "97313-460"
    },
    {
        "city": "São Gabriel",
        "state": "RS",
        "district": "São Clemente",
        "street": "Avenida Antônio Mercado",
        "zipcode": "97314-086"
    },
    {
        "city": "São Gabriel",
        "state": "RS",
        "district": "Centro",
        "street": "Avenida Julio de Castilhos",
        "zipcode": "97300-110"
    },
    {
        "city": "São Gabriel",
        "state": "RS",
        "district": "Centro",
        "street": "Avenida General Marques",
        "zipcode": "97300-242"
    },
    {
        "city": "São Gabriel",
        "state": "RS",
        "district": "Centro",
        "street": "Avenida General Marques",
        "zipcode": "97300-364"
    },
    {
        "city": "São Gabriel",
        "state": "RS",
        "district": "Centro",
        "street": "Praça Fernando Abbott",
        "zipcode": "97300-422"
    },
    {
        "city": "São Gabriel",
        "state": "RS",
        "district": "Baltar",
        "street": "Avenida Presidente Getúlio Vargas",
        "zipcode": "97300-802"
    },
    {
        "city": "São Gabriel",
        "state": "RS",
        "district": "Baltar",
        "street": "Avenida Presidente Getúlio Vargas",
        "zipcode": "97300-816"
    },
    {
        "city": "São Gabriel",
        "state": "RS",
        "district": "Bomfim",
        "street": "Corredor da Casa Branca",
        "zipcode": "97301-100"
    },
    {
        "city": "São Gabriel",
        "state": "RS",
        "district": "Bomfim",
        "street": "Avenida Manoel Antônio de Macedo",
        "zipcode": "97301-270"
    },
    {
        "city": "São Gabriel",
        "state": "RS",
        "district": "Bomfim",
        "street": "Beco Forno de Cal",
        "zipcode": "97301-370"
    },
    {
        "city": "São Gabriel",
        "state": "RS",
        "district": "Morro do Sabiá",
        "street": "Corredor de Bagé",
        "zipcode": "97302-140"
    },
    {
        "city": "São Gabriel",
        "state": "RS",
        "district": "Morro do Sabiá",
        "street": "Rodovia BR",
        "zipcode": "97302-190"
    },
    {
        "city": "São Gabriel",
        "state": "RS",
        "district": "Morro do Sabiá",
        "street": "Rodovia BR",
        "zipcode": "97302-300"
    },
    {
        "city": "São Gabriel",
        "state": "RS",
        "district": "Morro do Sabiá",
        "street": "Rodovia BR",
        "zipcode": "97302-400"
    },
    {
        "city": "São Gabriel",
        "state": "RS",
        "district": "Morro do Sabiá",
        "street": "Rodovia BR",
        "zipcode": "97302-450"
    },
    {
        "city": "São Gabriel",
        "state": "RS",
        "district": "Morro do Sabiá",
        "street": "Rodovia BR",
        "zipcode": "97302-500"
    },
    {
        "city": "São Gabriel",
        "state": "RS",
        "district": "Jardim Europa",
        "street": "Rodovia BR",
        "zipcode": "97304-270"
    },
    {
        "city": "São Gabriel",
        "state": "RS",
        "district": "Bela Vista",
        "street": "Rodovia BR",
        "zipcode": "97304-300"
    },
    {
        "city": "São Gabriel",
        "state": "RS",
        "district": "Bela Vista",
        "street": "Rodovia BR",
        "zipcode": "97304-320"
    },
    {
        "city": "São Gabriel",
        "state": "RS",
        "district": "Élbio Vieira Vargas",
        "street": "Avenida São Pedro",
        "zipcode": "97306-324"
    },
    {
        "city": "São Gabriel",
        "state": "RS",
        "district": "Élbio Vieira Vargas",
        "street": "Avenida São Pedro",
        "zipcode": "97306-434"
    },
    {
        "city": "São Gabriel",
        "state": "RS",
        "district": "Universitário",
        "street": "Corredor Invernada Nacional",
        "zipcode": "97306-710"
    },
    {
        "city": "São Gabriel",
        "state": "RS",
        "district": "Universitário",
        "street": "Corredor do Copo Sujo",
        "zipcode": "97306-770"
    },
    {
        "city": "São Gabriel",
        "state": "RS",
        "district": "Universitário",
        "street": "Corredor da Palmeira",
        "zipcode": "97307-036"
    },
    {
        "city": "São Gabriel",
        "state": "RS",
        "district": "Corredor da Balança",
        "street": "Corredor da Balança",
        "zipcode": "97308-120"
    },
    {
        "city": "São Gabriel",
        "state": "RS",
        "district": "Corredor da Balança",
        "street": "Corredor da Ponte Branca",
        "zipcode": "97308-190"
    },
    {
        "city": "São Gabriel",
        "state": "RS",
        "district": "São Sebastião",
        "street": "Corredor da Figueira",
        "zipcode": "97310-150"
    },
    {
        "city": "São Gabriel",
        "state": "RS",
        "district": "São Sebastião",
        "street": "Corredor Farroupilha",
        "zipcode": "97310-172"
    },
    {
        "city": "São Gabriel",
        "state": "RS",
        "district": "Leal",
        "street": "Avenida Pelotas",
        "zipcode": "97310-580"
    },
    {
        "city": "São Gabriel",
        "state": "RS",
        "district": "Vila Trindade",
        "street": "Avenida Pelotas",
        "zipcode": "97310-600"
    },
    {
        "city": "São Gabriel",
        "state": "RS",
        "district": "Centro",
        "street": "Praça Camilo Mércio",
        "zipcode": "97300-362"
    },
    {
        "city": "São Gabriel",
        "state": "RS",
        "district": "Morro do Sabiá",
        "street": "Rodovia BR",
        "zipcode": "97302-250"
    },
    {
        "city": "São Gabriel",
        "state": "RS",
        "district": "Cidade Nova",
        "street": "Avenida Pelotas",
        "zipcode": "97310-821"
    },
    {
        "city": "São Gabriel",
        "state": "RS",
        "district": "Cidade Nova",
        "street": "Avenida Pelotas",
        "zipcode": "97310-839"
    },
    {
        "city": "São Gabriel",
        "state": "RS",
        "district": "Esplanada",
        "street": "Avenida Pelotas",
        "zipcode": "97311-035"
    },
    {
        "city": "São Gabriel",
        "state": "RS",
        "district": "Novo Horizonte",
        "street": "Avenida Pelotas",
        "zipcode": "97311-105"
    },
    {
        "city": "São Gabriel",
        "state": "RS",
        "district": "Novo Horizonte",
        "street": "Prolongamento da Francisco Hermenegildo da Silva",
        "zipcode": "97311-170"
    },
    {
        "city": "São Gabriel",
        "state": "RS",
        "district": "Independência",
        "street": "Avenida Ipiranga",
        "zipcode": "97313-320"
    },
    {
        "city": "São Gabriel",
        "state": "RS",
        "district": "Independência",
        "street": "Avenida Tiradentes",
        "zipcode": "97313-332"
    },
    {
        "city": "São Gabriel",
        "state": "RS",
        "district": "3 de Outubro",
        "street": "Avenida Antônio Mercado",
        "zipcode": "97314-230"
    },
    {
        "city": "São Gabriel",
        "state": "RS",
        "district": "São Gregório",
        "street": "Avenida Antônio Mercado",
        "zipcode": "97314-250"
    },
    {
        "city": "São Gabriel",
        "state": "RS",
        "district": "Medeiros",
        "street": "Avenida Antônio Mercado",
        "zipcode": "97314-321"
    },
    {
        "city": "São Gabriel",
        "state": "RS",
        "district": "Menino Jesus",
        "street": "Avenida Antônio Mercado",
        "zipcode": "97314-500"
    },
    {
        "city": "São Gabriel",
        "state": "RS",
        "district": "Área Rural de São Gabriel",
        "street": "Área Rural",
        "zipcode": "97315-899"
    },
    {
        "city": "São Gabriel",
        "state": "RS",
        "district": "Centro",
        "street": "Rua Alice Ramos de Lima",
        "zipcode": "97300-314"
    },
    {
        "city": "São Gabriel",
        "state": "RS",
        "district": "Centro",
        "street": "Rua Andrade Neves",
        "zipcode": "97300-434"
    },
    {
        "city": "São Gabriel",
        "state": "RS",
        "district": "Vila Maria",
        "street": "Rua Antônio Arraché",
        "zipcode": "97300-534"
    },
    {
        "city": "São Gabriel",
        "state": "RS",
        "district": "Bomfim",
        "street": "Rua Alzira Ciofi Bisogno",
        "zipcode": "97301-510"
    },
    {
        "city": "São Gabriel",
        "state": "RS",
        "district": "Zona Sul",
        "street": "Rua André Ramos",
        "zipcode": "97304-124"
    },
    {
        "city": "São Gabriel",
        "state": "RS",
        "district": "Jardim Europa",
        "street": "Rua Alemanha",
        "zipcode": "97304-216"
    },
    {
        "city": "São Gabriel",
        "state": "RS",
        "district": "Trilha",
        "street": "Rodovia RS",
        "zipcode": "97304-740"
    },
    {
        "city": "São Gabriel",
        "state": "RS",
        "district": "Trilha",
        "street": "Rodovia RS",
        "zipcode": "97304-770"
    },
    {
        "city": "São Gabriel",
        "state": "RS",
        "district": "Gabrielense",
        "street": "Rua Antenor Maldonado",
        "zipcode": "97306-008"
    },
    {
        "city": "São Gabriel",
        "state": "RS",
        "district": "Gabrielense",
        "street": "Rodovia RS",
        "zipcode": "97306-090"
    },
    {
        "city": "São Gabriel",
        "state": "RS",
        "district": "Gabrielense",
        "street": "Rua Antônio Bergamo",
        "zipcode": "97306-160"
    },
    {
        "city": "São Gabriel",
        "state": "RS",
        "district": "Gabrielense",
        "street": "Rua Acimar Aresco Moreira",
        "zipcode": "97306-168"
    },
    {
        "city": "São Gabriel",
        "state": "RS",
        "district": "San Isidro",
        "street": "Rodovia BR",
        "zipcode": "97306-650"
    },
    {
        "city": "São Gabriel",
        "state": "RS",
        "district": "San Isidro",
        "street": "Rodovia BR",
        "zipcode": "97306-680"
    },
    {
        "city": "São Gabriel",
        "state": "RS",
        "district": "Universitário",
        "street": "Rodovia BR",
        "zipcode": "97306-880"
    },
    {
        "city": "São Gabriel",
        "state": "RS",
        "district": "Universitário",
        "street": "Rodovia BR",
        "zipcode": "97306-890"
    },
    {
        "city": "São Gabriel",
        "state": "RS",
        "district": "Universitário",
        "street": "Rua A",
        "zipcode": "97307-024"
    },
    {
        "city": "São Gabriel",
        "state": "RS",
        "district": "Corredor da Balança",
        "street": "Rodovia BR",
        "zipcode": "97308-300"
    },
    {
        "city": "São Gabriel",
        "state": "RS",
        "district": "Santo Antônio",
        "street": "Rodovia BR",
        "zipcode": "97310-091"
    },
    {
        "city": "São Gabriel",
        "state": "RS",
        "district": "Vivenda",
        "street": "Rodovia BR",
        "zipcode": "97310-250"
    },
    {
        "city": "São Gabriel",
        "state": "RS",
        "district": "São Bento",
        "street": "Rua Anastácio Soares Leal",
        "zipcode": "97310-420"
    },
    {
        "city": "São Gabriel",
        "state": "RS",
        "district": "Leal",
        "street": "Rodovia BR",
        "zipcode": "97310-450"
    },
    {
        "city": "São Gabriel",
        "state": "RS",
        "district": "Vivenda",
        "street": "Rua Antônio Pedro Bitencourt",
        "zipcode": "97310-293"
    },
    {
        "city": "São Gabriel",
        "state": "RS",
        "district": "Baltar",
        "street": "Rua Alfredo Porciúncula",
        "zipcode": "97300-860"
    },
    {
        "city": "São Gabriel",
        "state": "RS",
        "district": "Dr Dácio",
        "street": "Rua Accioli de Souza Nunes",
        "zipcode": "97306-518"
    },
    {
        "city": "São Gabriel",
        "state": "RS",
        "district": "Universitário",
        "street": "Rua Aloisio Macedo",
        "zipcode": "97307-020"
    },
    {
        "city": "São Gabriel",
        "state": "RS",
        "district": "Vargas",
        "street": "Rua Alcides Maia",
        "zipcode": "97310-710"
    },
    {
        "city": "São Gabriel",
        "state": "RS",
        "district": "Cidade Nova",
        "street": "Rua Alegrete",
        "zipcode": "97310-842"
    },
    {
        "city": "São Gabriel",
        "state": "RS",
        "district": "Vieira",
        "street": "Rua A (Lot Sta Casa)",
        "zipcode": "97311-266"
    },
    {
        "city": "São Gabriel",
        "state": "RS",
        "district": "Vieira",
        "street": "Rua Alcides Gomes Varela",
        "zipcode": "97311-330"
    },
    {
        "city": "São Gabriel",
        "state": "RS",
        "district": "Jardim Primavera",
        "street": "Rua Amábile Pascotin",
        "zipcode": "97313-106"
    },
    {
        "city": "São Gabriel",
        "state": "RS",
        "district": "Jardim Primavera",
        "street": "Rua Alcir Lopes Nunes",
        "zipcode": "97313-152"
    },
    {
        "city": "São Gabriel",
        "state": "RS",
        "district": "Independência",
        "street": "Rua Alagoas",
        "zipcode": "97313-292"
    },
    {
        "city": "São Gabriel",
        "state": "RS",
        "district": "Independência",
        "street": "Avenida Tiradentes",
        "zipcode": "97313-340"
    },
    {
        "city": "São Gabriel",
        "state": "RS",
        "district": "Independência",
        "street": "Avenida Ipiranga",
        "zipcode": "97313-400"
    },
    {
        "city": "São Gabriel",
        "state": "RS",
        "district": "São Clemente",
        "street": "Rua Alfredo Bento Pereira",
        "zipcode": "97314-052"
    },
    {
        "city": "São Gabriel",
        "state": "RS",
        "district": "São Clemente",
        "street": "Rua Adão Machado",
        "zipcode": "97314-056"
    },
    {
        "city": "São Gabriel",
        "state": "RS",
        "district": "São Clemente",
        "street": "Rua Alfredo Bento Pereira",
        "zipcode": "97314-064"
    },
    {
        "city": "São Gabriel",
        "state": "RS",
        "district": "São Clemente",
        "street": "Rua Aninha Neto",
        "zipcode": "97314-080"
    },
    {
        "city": "São Gabriel",
        "state": "RS",
        "district": "3 de Outubro",
        "street": "Rua Abel Correa da Silva",
        "zipcode": "97314-104"
    },
    {
        "city": "São Gabriel",
        "state": "RS",
        "district": "3 de Outubro",
        "street": "Rua Antônio Maria de Avila",
        "zipcode": "97314-120"
    },
    {
        "city": "São Gabriel",
        "state": "RS",
        "district": "3 de Outubro",
        "street": "Beco da Laurentino Batista",
        "zipcode": "97314-166"
    },
    {
        "city": "São Gabriel",
        "state": "RS",
        "district": "São Gregório",
        "street": "Rua Alfredo Gomes Gonçalves",
        "zipcode": "97314-260"
    },
    {
        "city": "São Gabriel",
        "state": "RS",
        "district": "São Gregório",
        "street": "Rua Agostinho Paz Medeiros",
        "zipcode": "97314-280"
    },
    {
        "city": "São Gabriel",
        "state": "RS",
        "district": "Medeiros",
        "street": "Rua Agostinho Paz Medeiros",
        "zipcode": "97314-306"
    },
    {
        "city": "São Gabriel",
        "state": "RS",
        "district": "Andrade",
        "street": "Rua Acioly Vaz de Andrade",
        "zipcode": "97314-354"
    },
    {
        "city": "São Gabriel",
        "state": "RS",
        "district": "Andrade",
        "street": "Rua Aldino Jesuíno de Souza",
        "zipcode": "97314-374"
    },
    {
        "city": "São Gabriel",
        "state": "RS",
        "district": "Andrade",
        "street": "Rua Albino Biscaglia",
        "zipcode": "97314-390"
    },
    {
        "city": "São Gabriel",
        "state": "RS",
        "district": "Centro",
        "street": "Rua Barão de Cambay",
        "zipcode": "97300-064"
    },
    {
        "city": "São Gabriel",
        "state": "RS",
        "district": "Centro",
        "street": "Rua Celestino Cavalheiro",
        "zipcode": "97300-072"
    },
    {
        "city": "São Gabriel",
        "state": "RS",
        "district": "Centro",
        "street": "Rua Coronel Soares",
        "zipcode": "97300-076"
    },
    {
        "city": "São Gabriel",
        "state": "RS",
        "district": "Centro",
        "street": "Rua Barão de Cambay",
        "zipcode": "97300-114"
    },
    {
        "city": "São Gabriel",
        "state": "RS",
        "district": "Centro",
        "street": "Rua Coronel Sezefredo",
        "zipcode": "97300-120"
    },
    {
        "city": "São Gabriel",
        "state": "RS",
        "district": "Centro",
        "street": "Rua Carlos Antunes",
        "zipcode": "97300-140"
    },
    {
        "city": "São Gabriel",
        "state": "RS",
        "district": "Centro",
        "street": "Rua Bernardo Fernandes Barbosa",
        "zipcode": "97300-164"
    },
    {
        "city": "São Gabriel",
        "state": "RS",
        "district": "Centro",
        "street": "Rua Barão de São Gabriel",
        "zipcode": "97300-218"
    },
    {
        "city": "São Gabriel",
        "state": "RS",
        "district": "Centro",
        "street": "Rua Barão de São Gabriel",
        "zipcode": "97300-438"
    },
    {
        "city": "São Gabriel",
        "state": "RS",
        "district": "Vila Maria",
        "street": "Rua Celestino Borges Filho",
        "zipcode": "97300-568"
    },
    {
        "city": "São Gabriel",
        "state": "RS",
        "district": "Vila Maria",
        "street": "Rua Barão de São Gabriel",
        "zipcode": "97300-670"
    },
    {
        "city": "São Gabriel",
        "state": "RS",
        "district": "Baltar",
        "street": "Rua Carlos Lock",
        "zipcode": "97300-712"
    },
    {
        "city": "São Gabriel",
        "state": "RS",
        "district": "Baltar",
        "street": "Rua Belmonte Neves dos Santos",
        "zipcode": "97300-808"
    },
    {
        "city": "São Gabriel",
        "state": "RS",
        "district": "Bomfim",
        "street": "Rua Carlos Galdino Menezes da Silva",
        "zipcode": "97301-420"
    },
    {
        "city": "São Gabriel",
        "state": "RS",
        "district": "Zona Sul",
        "street": "Rua Boaventura Ferreira da Silva",
        "zipcode": "97304-008"
    },
    {
        "city": "São Gabriel",
        "state": "RS",
        "district": "Jardim Europa",
        "street": "Rua Bulgária",
        "zipcode": "97304-186"
    },
    {
        "city": "São Gabriel",
        "state": "RS",
        "district": "Jardim Europa",
        "street": "Rua Bélgica",
        "zipcode": "97304-212"
    },
    {
        "city": "São Gabriel",
        "state": "RS",
        "district": "Santa Isabel",
        "street": "Rua Cândida Prates da Silveira",
        "zipcode": "97304-505"
    },
    {
        "city": "São Gabriel",
        "state": "RS",
        "district": "Gabrielense",
        "street": "Rua Antônio Vieira",
        "zipcode": "97306-052"
    },
    {
        "city": "São Gabriel",
        "state": "RS",
        "district": "Universitário",
        "street": "Rua B",
        "zipcode": "97307-028"
    },
    {
        "city": "São Gabriel",
        "state": "RS",
        "district": "Universitário",
        "street": "Rua C",
        "zipcode": "97307-032"
    },
    {
        "city": "São Gabriel",
        "state": "RS",
        "district": "Vivenda",
        "street": "Rua Capitão Alamir Alencar Mesquita",
        "zipcode": "97310-296"
    },
    {
        "city": "São Gabriel",
        "state": "RS",
        "district": "Centro",
        "street": "Rua Brandão Júnior",
        "zipcode": "97300-082"
    },
    {
        "city": "São Gabriel",
        "state": "RS",
        "district": "Centro",
        "street": "Rua Brandina Mello",
        "zipcode": "97300-432"
    },
    {
        "city": "São Gabriel",
        "state": "RS",
        "district": "Gabrielense",
        "street": "Rua Antônio Yung",
        "zipcode": "97306-042"
    },
    {
        "city": "São Gabriel",
        "state": "RS",
        "district": "Gabrielense",
        "street": "Rua Brigido Araújo Vargas",
        "zipcode": "97306-120"
    },
    {
        "city": "São Gabriel",
        "state": "RS",
        "district": "Vivenda",
        "street": "Rua Bagé",
        "zipcode": "97310-299"
    },
    {
        "city": "São Gabriel",
        "state": "RS",
        "district": "Vivenda",
        "street": "Rua Arthur Bettega",
        "zipcode": "97310-329"
    },
    {
        "city": "São Gabriel",
        "state": "RS",
        "district": "Jardim das Hortênsias",
        "street": "Rua Bagé",
        "zipcode": "97310-371"
    },
    {
        "city": "São Gabriel",
        "state": "RS",
        "district": "Vila Trindade",
        "street": "Rua Bagé",
        "zipcode": "97310-642"
    },
    {
        "city": "São Gabriel",
        "state": "RS",
        "district": "Vila Trindade",
        "street": "Rua Cachoeira do Sul",
        "zipcode": "97310-654"
    },
    {
        "city": "São Gabriel",
        "state": "RS",
        "district": "Cidade Nova",
        "street": "Rua Caçapava do Sul",
        "zipcode": "97310-803"
    },
    {
        "city": "São Gabriel",
        "state": "RS",
        "district": "Cidade Nova",
        "street": "Rua Cachoeira do Sul",
        "zipcode": "97310-818"
    },
    {
        "city": "São Gabriel",
        "state": "RS",
        "district": "Cidade Nova",
        "street": "Rua Cacequi",
        "zipcode": "97310-833"
    },
    {
        "city": "São Gabriel",
        "state": "RS",
        "district": "Vieira",
        "street": "Rua C (Lot Sta Casa)",
        "zipcode": "97311-258"
    },
    {
        "city": "São Gabriel",
        "state": "RS",
        "district": "Vieira",
        "street": "Rua B (Lot Sta Casa)",
        "zipcode": "97311-262"
    },
    {
        "city": "São Gabriel",
        "state": "RS",
        "district": "Mariana",
        "street": "Rua Catuçaba",
        "zipcode": "97313-048"
    },
    {
        "city": "São Gabriel",
        "state": "RS",
        "district": "Mariana",
        "street": "Rua Cambaizinho",
        "zipcode": "97313-072"
    },
    {
        "city": "São Gabriel",
        "state": "RS",
        "district": "Independência",
        "street": "Rua Artur Camargo",
        "zipcode": "97313-290"
    },
    {
        "city": "São Gabriel",
        "state": "RS",
        "district": "Independência",
        "street": "Rua Bahia",
        "zipcode": "97313-330"
    },
    {
        "city": "São Gabriel",
        "state": "RS",
        "district": "Independência",
        "street": "Rua Ceará",
        "zipcode": "97313-348"
    },
    {
        "city": "São Gabriel",
        "state": "RS",
        "district": "Independência",
        "street": "Rua Ceará",
        "zipcode": "97313-402"
    },
    {
        "city": "São Gabriel",
        "state": "RS",
        "district": "São Clemente",
        "street": "Rua Candida Aloy",
        "zipcode": "97314-008"
    },
    {
        "city": "São Gabriel",
        "state": "RS",
        "district": "São Clemente",
        "street": "Rua Carlos Traub",
        "zipcode": "97314-010"
    },
    {
        "city": "São Gabriel",
        "state": "RS",
        "district": "São Clemente",
        "street": "Rua Capitão Urbano",
        "zipcode": "97314-030"
    },
    {
        "city": "São Gabriel",
        "state": "RS",
        "district": "3 de Outubro",
        "street": "Rua Borges de Abreu",
        "zipcode": "97314-112"
    },
    {
        "city": "São Gabriel",
        "state": "RS",
        "district": "3 de Outubro",
        "street": "Rua Carlos Pereira",
        "zipcode": "97314-150"
    },
    {
        "city": "São Gabriel",
        "state": "RS",
        "district": "São Gregório",
        "street": "Rua Carlos Pereira",
        "zipcode": "97314-254"
    },
    {
        "city": "São Gabriel",
        "state": "RS",
        "district": "Medeiros",
        "street": "Rua Capitão Napoleão Berbegier",
        "zipcode": "97314-330"
    },
    {
        "city": "São Gabriel",
        "state": "RS",
        "district": "Andrade",
        "street": "Rua B (Lot Brasil)",
        "zipcode": "97314-450"
    },
    {
        "city": "São Gabriel",
        "state": "RS",
        "district": "Centro",
        "street": "Rua Deocleciano Azambuja",
        "zipcode": "97300-138"
    },
    {
        "city": "São Gabriel",
        "state": "RS",
        "district": "Centro",
        "street": "Rua Gabriel Coimbra Meyer",
        "zipcode": "97300-144"
    },
    {
        "city": "São Gabriel",
        "state": "RS",
        "district": "Centro",
        "street": "Rua Coronel Tristão Pinto",
        "zipcode": "97300-214"
    },
    {
        "city": "São Gabriel",
        "state": "RS",
        "district": "Centro",
        "street": "Rua Coronel Sezefredo",
        "zipcode": "97300-222"
    },
    {
        "city": "São Gabriel",
        "state": "RS",
        "district": "Centro",
        "street": "Rua Duque de Caxias",
        "zipcode": "97300-226"
    },
    {
        "city": "São Gabriel",
        "state": "RS",
        "district": "Centro",
        "street": "Rua Coronel Soares",
        "zipcode": "97300-228"
    },
    {
        "city": "São Gabriel",
        "state": "RS",
        "district": "Centro",
        "street": "Rua Coronel Tristão Pinto",
        "zipcode": "97300-232"
    },
    {
        "city": "São Gabriel",
        "state": "RS",
        "district": "Centro",
        "street": "Rua Doutor Jonathas Abbott",
        "zipcode": "97300-246"
    },
    {
        "city": "São Gabriel",
        "state": "RS",
        "district": "Centro",
        "street": "Rua Doutor Jayme O Maciel",
        "zipcode": "97300-316"
    },
    {
        "city": "São Gabriel",
        "state": "RS",
        "district": "Centro",
        "street": "Rua Desembargador Paulo Ribeiro",
        "zipcode": "97300-318"
    },
    {
        "city": "São Gabriel",
        "state": "RS",
        "district": "Centro",
        "street": "Rua Doutor Francisco de Paula Moreira Leivas",
        "zipcode": "97300-354"
    },
    {
        "city": "São Gabriel",
        "state": "RS",
        "district": "Centro",
        "street": "Rua Doutor Jonathas Abbott",
        "zipcode": "97300-356"
    },
    {
        "city": "São Gabriel",
        "state": "RS",
        "district": "Centro",
        "street": "Rua Coronel Soares",
        "zipcode": "97300-372"
    },
    {
        "city": "São Gabriel",
        "state": "RS",
        "district": "Centro",
        "street": "Rua Duque de Caxias",
        "zipcode": "97300-376"
    },
    {
        "city": "São Gabriel",
        "state": "RS",
        "district": "Centro",
        "street": "Rua Duque de Caxias",
        "zipcode": "97300-420"
    },
    {
        "city": "São Gabriel",
        "state": "RS",
        "district": "Centro",
        "street": "Rua Edmundo Berchon",
        "zipcode": "97300-446"
    },
    {
        "city": "São Gabriel",
        "state": "RS",
        "district": "Vila Maria",
        "street": "Rua Francisco Menna Barreto",
        "zipcode": "97300-504"
    },
    {
        "city": "São Gabriel",
        "state": "RS",
        "district": "Vila Maria",
        "street": "Rua Dilomar Machado Lemos",
        "zipcode": "97300-536"
    },
    {
        "city": "São Gabriel",
        "state": "RS",
        "district": "Baltar",
        "street": "Rua Dezoito do Forte",
        "zipcode": "97300-806"
    },
    {
        "city": "São Gabriel",
        "state": "RS",
        "district": "Bomfim",
        "street": "Rua Coronel Antônio Menna Gonçalves",
        "zipcode": "97301-562"
    },
    {
        "city": "São Gabriel",
        "state": "RS",
        "district": "Zona Sul",
        "street": "Rua Doutor Dácio Assis Brasil",
        "zipcode": "97304-002"
    },
    {
        "city": "São Gabriel",
        "state": "RS",
        "district": "Gabrielense",
        "street": "Rua Dom Ângelo Feliz Mugnol",
        "zipcode": "97306-046"
    },
    {
        "city": "São Gabriel",
        "state": "RS",
        "district": "Gabrielense",
        "street": "Rua Clara Nunes",
        "zipcode": "97306-066"
    },
    {
        "city": "São Gabriel",
        "state": "RS",
        "district": "Gabrielense",
        "street": "Rua Domingos dos Santos Avila",
        "zipcode": "97306-070"
    },
    {
        "city": "São Gabriel",
        "state": "RS",
        "district": "Gabrielense",
        "street": "Rua Clara Nunes",
        "zipcode": "97306-098"
    },
    {
        "city": "São Gabriel",
        "state": "RS",
        "district": "Dr Dácio",
        "street": "Rua Claudionor de Castro Pereira",
        "zipcode": "97306-514"
    },
    {
        "city": "São Gabriel",
        "state": "RS",
        "district": "Dr Dácio",
        "street": "Rua Doralice do Monte Santos",
        "zipcode": "97306-522"
    },
    {
        "city": "São Gabriel",
        "state": "RS",
        "district": "Dr Dácio",
        "street": "Rua Dorval Mozart Santos Oliveira",
        "zipcode": "97306-526"
    },
    {
        "city": "São Gabriel",
        "state": "RS",
        "district": "Santo Antônio",
        "street": "Rua Celmo dos Santos",
        "zipcode": "97310-019"
    },
    {
        "city": "São Gabriel",
        "state": "RS",
        "district": "Santo Antônio",
        "street": "Rua Damasio Trindade",
        "zipcode": "97310-022"
    },
    {
        "city": "São Gabriel",
        "state": "RS",
        "district": "Santo Antônio",
        "street": "Rua Doutor Astarita",
        "zipcode": "97310-055"
    },
    {
        "city": "São Gabriel",
        "state": "RS",
        "district": "São Sebastião",
        "street": "Rua Dom Félix de Azara",
        "zipcode": "97310-154"
    },
    {
        "city": "São Gabriel",
        "state": "RS",
        "district": "Centro",
        "street": "Rua Heron Domingues",
        "zipcode": "97300-156"
    },
    {
        "city": "São Gabriel",
        "state": "RS",
        "district": "Centro",
        "street": "Rua Germano Lobato",
        "zipcode": "97300-358"
    },
    {
        "city": "São Gabriel",
        "state": "RS",
        "district": "Centro",
        "street": "Rua General Mallet",
        "zipcode": "97300-360"
    },
    {
        "city": "São Gabriel",
        "state": "RS",
        "district": "Vila Maria",
        "street": "Rua General Portugal",
        "zipcode": "97300-506"
    },
    {
        "city": "São Gabriel",
        "state": "RS",
        "district": "Centro",
        "street": "Rua Coronel Tristão Pinto",
        "zipcode": "97300-258"
    },
    {
        "city": "São Gabriel",
        "state": "RS",
        "district": "Baltar",
        "street": "Rua Clarestino Bento",
        "zipcode": "97300-704"
    },
    {
        "city": "São Gabriel",
        "state": "RS",
        "district": "Jardim Europa",
        "street": "Rua Dinamarca",
        "zipcode": "97304-154"
    },
    {
        "city": "São Gabriel",
        "state": "RS",
        "district": "Cidade Nova",
        "street": "Rua Dom Pedrito",
        "zipcode": "97310-860"
    },
    {
        "city": "São Gabriel",
        "state": "RS",
        "district": "Mariana",
        "street": "Rua do Salso",
        "zipcode": "97313-028"
    },
    {
        "city": "São Gabriel",
        "state": "RS",
        "district": "Mariana",
        "street": "Rua Cerro do Ouro",
        "zipcode": "97313-064"
    },
    {
        "city": "São Gabriel",
        "state": "RS",
        "district": "Independência",
        "street": "Rua Doutor Torquato Arleo Petrarca",
        "zipcode": "97313-230"
    },
    {
        "city": "São Gabriel",
        "state": "RS",
        "district": "Independência",
        "street": "Rua Coronel Hermenegildo Laureano",
        "zipcode": "97313-234"
    },
    {
        "city": "São Gabriel",
        "state": "RS",
        "district": "Independência",
        "street": "Rua Doutor Tito Torres",
        "zipcode": "97313-246"
    },
    {
        "city": "São Gabriel",
        "state": "RS",
        "district": "Independência",
        "street": "Rua Coimbra Gonçalves",
        "zipcode": "97313-288"
    },
    {
        "city": "São Gabriel",
        "state": "RS",
        "district": "Menino Jesus",
        "street": "Rua Doze de Outubro",
        "zipcode": "97314-512"
    },
    {
        "city": "São Gabriel",
        "state": "RS",
        "district": "Menino Jesus",
        "street": "Rua Dezenove de Novembro",
        "zipcode": "97314-514"
    },
    {
        "city": "São Gabriel",
        "state": "RS",
        "district": "Menino Jesus",
        "street": "Rua dos Pinheiros",
        "zipcode": "97314-552"
    },
    {
        "city": "São Gabriel",
        "state": "RS",
        "district": "Vila Maria",
        "street": "Rua Edmundo Berchon",
        "zipcode": "97300-572"
    },
    {
        "city": "São Gabriel",
        "state": "RS",
        "district": "Baltar",
        "street": "Rua Francisco Sampaio",
        "zipcode": "97300-720"
    },
    {
        "city": "São Gabriel",
        "state": "RS",
        "district": "Bomfim",
        "street": "Rua Felipe Victor Aguiar",
        "zipcode": "97301-558"
    },
    {
        "city": "São Gabriel",
        "state": "RS",
        "district": "Morro do Sabiá",
        "street": "Rua Francisco da Silva",
        "zipcode": "97302-070"
    },
    {
        "city": "São Gabriel",
        "state": "RS",
        "district": "Zona Sul",
        "street": "Rua Espanha",
        "zipcode": "97304-120"
    },
    {
        "city": "São Gabriel",
        "state": "RS",
        "district": "Jardim Europa",
        "street": "Rua Finlândia",
        "zipcode": "97304-164"
    },
    {
        "city": "São Gabriel",
        "state": "RS",
        "district": "Jardim Europa",
        "street": "Rua França",
        "zipcode": "97304-214"
    },
    {
        "city": "São Gabriel",
        "state": "RS",
        "district": "Gabrielense",
        "street": "Rua Gabriel Antônio do Nascimento",
        "zipcode": "97306-014"
    },
    {
        "city": "São Gabriel",
        "state": "RS",
        "district": "Gabrielense",
        "street": "Rua Ernesto Barbosa de Godoy",
        "zipcode": "97306-056"
    },
    {
        "city": "São Gabriel",
        "state": "RS",
        "district": "Gabrielense",
        "street": "Rua Ernesto Magno da Silveira Jacobsen",
        "zipcode": "97306-092"
    },
    {
        "city": "São Gabriel",
        "state": "RS",
        "district": "Gabrielense",
        "street": "Rua Eleandro Munhoz",
        "zipcode": "97306-100"
    },
    {
        "city": "São Gabriel",
        "state": "RS",
        "district": "Universitário",
        "street": "Rua G",
        "zipcode": "97306-818"
    },
    {
        "city": "São Gabriel",
        "state": "RS",
        "district": "Santo Antônio",
        "street": "Rua Gabriel Abbib",
        "zipcode": "97310-097"
    },
    {
        "city": "São Gabriel",
        "state": "RS",
        "district": "São Sebastião",
        "street": "Rua Francisco Rodolfo Sinch",
        "zipcode": "97310-174"
    },
    {
        "city": "São Gabriel",
        "state": "RS",
        "district": "Centro",
        "street": "Rua João Pedro de Moraes",
        "zipcode": "97300-026"
    },
    {
        "city": "São Gabriel",
        "state": "RS",
        "district": "Centro",
        "street": "Rua José Lourenço Lisboa",
        "zipcode": "97300-134"
    },
    {
        "city": "São Gabriel",
        "state": "RS",
        "district": "Centro",
        "street": "Rua João Manoel",
        "zipcode": "97300-260"
    },
    {
        "city": "São Gabriel",
        "state": "RS",
        "district": "Vila Maria",
        "street": "Rua General Câmara",
        "zipcode": "97300-600"
    },
    {
        "city": "São Gabriel",
        "state": "RS",
        "district": "Baltar",
        "street": "Rua Genésio Jardim",
        "zipcode": "97300-708"
    },
    {
        "city": "São Gabriel",
        "state": "RS",
        "district": "Baltar",
        "street": "Rua João Carlos Rodrigues",
        "zipcode": "97300-724"
    },
    {
        "city": "São Gabriel",
        "state": "RS",
        "district": "Baltar",
        "street": "Rua José Narciso Antunes",
        "zipcode": "97300-760"
    },
    {
        "city": "São Gabriel",
        "state": "RS",
        "district": "Bomfim",
        "street": "Rua Inácio Bandeira de Souza",
        "zipcode": "97301-380"
    },
    {
        "city": "São Gabriel",
        "state": "RS",
        "district": "Bomfim",
        "street": "Rua Jaime Lemos de Menezes",
        "zipcode": "97301-520"
    },
    {
        "city": "São Gabriel",
        "state": "RS",
        "district": "Zona Sul",
        "street": "Rua General Bento Gonçalves",
        "zipcode": "97304-060"
    },
    {
        "city": "São Gabriel",
        "state": "RS",
        "district": "Zona Sul",
        "street": "Rua João Francisco Pimentel",
        "zipcode": "97304-126"
    },
    {
        "city": "São Gabriel",
        "state": "RS",
        "district": "Jardim Europa",
        "street": "Rua Irlanda",
        "zipcode": "97304-158"
    },
    {
        "city": "São Gabriel",
        "state": "RS",
        "district": "Jardim Europa",
        "street": "Rua Itália",
        "zipcode": "97304-210"
    },
    {
        "city": "São Gabriel",
        "state": "RS",
        "district": "Bela Vista",
        "street": "Rua João Paulo I",
        "zipcode": "97304-432"
    },
    {
        "city": "São Gabriel",
        "state": "RS",
        "district": "Dr Dácio",
        "street": "Rua Hildebrando Fagundes",
        "zipcode": "97306-590"
    },
    {
        "city": "São Gabriel",
        "state": "RS",
        "district": "Universitário",
        "street": "Rua H",
        "zipcode": "97306-810"
    },
    {
        "city": "São Gabriel",
        "state": "RS",
        "district": "Santo Antônio",
        "street": "Rua Hildegardes B Chagas",
        "zipcode": "97310-025"
    },
    {
        "city": "São Gabriel",
        "state": "RS",
        "district": "Centro",
        "street": "Rua General Câmara",
        "zipcode": "97300-442"
    },
    {
        "city": "São Gabriel",
        "state": "RS",
        "district": "Centro",
        "street": "Rua João Manoel",
        "zipcode": "97300-234"
    },
    {
        "city": "São Gabriel",
        "state": "RS",
        "district": "Bomfim",
        "street": "Rua Francisco da Silva",
        "zipcode": "97301-550"
    },
    {
        "city": "São Gabriel",
        "state": "RS",
        "district": "Zona Sul",
        "street": "Rua Gelsa Barros Machado",
        "zipcode": "97304-038"
    },
    {
        "city": "São Gabriel",
        "state": "RS",
        "district": "Jardim das Hortênsias",
        "street": "Rua Hermes Teixeira",
        "zipcode": "97310-362"
    },
    {
        "city": "São Gabriel",
        "state": "RS",
        "district": "Leal",
        "street": "Rua Haide Moreira",
        "zipcode": "97310-470"
    },
    {
        "city": "São Gabriel",
        "state": "RS",
        "district": "Vargas",
        "street": "Rua Fernando Ferrari",
        "zipcode": "97310-753"
    },
    {
        "city": "São Gabriel",
        "state": "RS",
        "district": "Esplanada",
        "street": "Rua Evaristo Marques",
        "zipcode": "97311-070"
    },
    {
        "city": "São Gabriel",
        "state": "RS",
        "district": "Vieira",
        "street": "Rua E (Lot Sta Casa)",
        "zipcode": "97311-252"
    },
    {
        "city": "São Gabriel",
        "state": "RS",
        "district": "Vieira",
        "street": "Rua F (Lot Sta Casa)",
        "zipcode": "97311-256"
    },
    {
        "city": "São Gabriel",
        "state": "RS",
        "district": "Vieira",
        "street": "Rua H (Lot Sta Casa)",
        "zipcode": "97311-290"
    },
    {
        "city": "São Gabriel",
        "state": "RS",
        "district": "Jardim Primavera",
        "street": "Rua Eloisa Amélia Ricciardi Weber",
        "zipcode": "97313-144"
    },
    {
        "city": "São Gabriel",
        "state": "RS",
        "district": "Jardim Primavera",
        "street": "Rua Genésio José Possebom",
        "zipcode": "97313-146"
    },
    {
        "city": "São Gabriel",
        "state": "RS",
        "district": "Independência",
        "street": "Rua Goiás",
        "zipcode": "97313-350"
    },
    {
        "city": "São Gabriel",
        "state": "RS",
        "district": "São Clemente",
        "street": "Rua Hamilton Alves Perotoni",
        "zipcode": "97314-014"
    },
    {
        "city": "São Gabriel",
        "state": "RS",
        "district": "São Clemente",
        "street": "Rua Florindo Nunes",
        "zipcode": "97314-066"
    },
    {
        "city": "São Gabriel",
        "state": "RS",
        "district": "São Gregório",
        "street": "Rua Fernando Pereira Dorneles",
        "zipcode": "97314-282"
    },
    {
        "city": "São Gabriel",
        "state": "RS",
        "district": "Medeiros",
        "street": "Rua Galdino Alves Dias",
        "zipcode": "97314-315"
    },
    {
        "city": "São Gabriel",
        "state": "RS",
        "district": "Andrade",
        "street": "Rua Francisco Brasil",
        "zipcode": "97314-378"
    },
    {
        "city": "São Gabriel",
        "state": "RS",
        "district": "Centro",
        "street": "Rua Mascaranhas de Moraes",
        "zipcode": "97300-068"
    },
    {
        "city": "São Gabriel",
        "state": "RS",
        "district": "Centro",
        "street": "Rua Maurício Cardoso",
        "zipcode": "97300-116"
    },
    {
        "city": "São Gabriel",
        "state": "RS",
        "district": "Centro",
        "street": "Rua Maurício Cardoso",
        "zipcode": "97300-118"
    },
    {
        "city": "São Gabriel",
        "state": "RS",
        "district": "Centro",
        "street": "Rua Maurício Cardoso",
        "zipcode": "97300-152"
    },
    {
        "city": "São Gabriel",
        "state": "RS",
        "district": "Centro",
        "street": "Rua Maurício Cardoso",
        "zipcode": "97300-154"
    },
    {
        "city": "São Gabriel",
        "state": "RS",
        "district": "Centro",
        "street": "Rua Juca Tigre",
        "zipcode": "97300-210"
    },
    {
        "city": "São Gabriel",
        "state": "RS",
        "district": "Centro",
        "street": "Rua Loyde Rita Neves",
        "zipcode": "97300-248"
    },
    {
        "city": "São Gabriel",
        "state": "RS",
        "district": "Centro",
        "street": "Rua Major Faeco",
        "zipcode": "97300-310"
    },
    {
        "city": "São Gabriel",
        "state": "RS",
        "district": "Centro",
        "street": "Rua Mascaranhas de Moraes",
        "zipcode": "97300-370"
    },
    {
        "city": "São Gabriel",
        "state": "RS",
        "district": "Vila Maria",
        "street": "Rua Mario Torres",
        "zipcode": "97300-530"
    },
    {
        "city": "São Gabriel",
        "state": "RS",
        "district": "Baltar",
        "street": "Rua Manoel Francisco Martins Júnior",
        "zipcode": "97300-768"
    },
    {
        "city": "São Gabriel",
        "state": "RS",
        "district": "Baltar",
        "street": "Rua Luiz Fernando da Silva Mazzini",
        "zipcode": "97300-814"
    },
    {
        "city": "São Gabriel",
        "state": "RS",
        "district": "Zona Sul",
        "street": "Rua Manoela Cunha Teixeira",
        "zipcode": "97304-036"
    },
    {
        "city": "São Gabriel",
        "state": "RS",
        "district": "Zona Sul",
        "street": "Rua Lateral",
        "zipcode": "97304-092"
    },
    {
        "city": "São Gabriel",
        "state": "RS",
        "district": "Bela Vista",
        "street": "Rua Marister Capiotti",
        "zipcode": "97304-470"
    },
    {
        "city": "São Gabriel",
        "state": "RS",
        "district": "Gabrielense",
        "street": "Rua João Manoel Trassante",
        "zipcode": "97306-044"
    },
    {
        "city": "São Gabriel",
        "state": "RS",
        "district": "Gabrielense",
        "street": "Rua Homero Gonçalves",
        "zipcode": "97306-054"
    },
    {
        "city": "São Gabriel",
        "state": "RS",
        "district": "Gabrielense",
        "street": "Rua Joel Lucas Moreira",
        "zipcode": "97306-062"
    },
    {
        "city": "São Gabriel",
        "state": "RS",
        "district": "Gabrielense",
        "street": "Rua Ivonir Ribeiro Dias",
        "zipcode": "97306-096"
    },
    {
        "city": "São Gabriel",
        "state": "RS",
        "district": "Gabrielense",
        "street": "Rua João Paulo Antunes",
        "zipcode": "97306-132"
    },
    {
        "city": "São Gabriel",
        "state": "RS",
        "district": "Santo Antônio",
        "street": "Rua Jonas Anadir Cunha",
        "zipcode": "97310-031"
    },
    {
        "city": "São Gabriel",
        "state": "RS",
        "district": "Santo Antônio",
        "street": "Rua José Lourenço Lisboa",
        "zipcode": "97310-058"
    },
    {
        "city": "São Gabriel",
        "state": "RS",
        "district": "Santo Antônio",
        "street": "Rua João Nunes dos Santos",
        "zipcode": "97310-106"
    },
    {
        "city": "São Gabriel",
        "state": "RS",
        "district": "Santo Antônio",
        "street": "Rua José Antônio Araújo",
        "zipcode": "97310-109"
    },
    {
        "city": "São Gabriel",
        "state": "RS",
        "district": "São Sebastião",
        "street": "Rua João Ivo Menna Barreto",
        "zipcode": "97310-180"
    },
    {
        "city": "São Gabriel",
        "state": "RS",
        "district": "Vivenda",
        "street": "Rua Jornalista Ciro Jardim",
        "zipcode": "97310-290"
    },
    {
        "city": "São Gabriel",
        "state": "RS",
        "district": "Vivenda",
        "street": "Rua I",
        "zipcode": "97310-305"
    },
    {
        "city": "São Gabriel",
        "state": "RS",
        "district": "Bela Vista",
        "street": "Rua Lucilia Fagundes",
        "zipcode": "97304-466"
    },
    {
        "city": "São Gabriel",
        "state": "RS",
        "district": "Élbio Vieira Vargas",
        "street": "Rua Homero Gonçalves",
        "zipcode": "97306-370"
    },
    {
        "city": "São Gabriel",
        "state": "RS",
        "district": "Jardim das Hortênsias",
        "street": "Rua Homero Valério da Costa Saporiti",
        "zipcode": "97310-356"
    },
    {
        "city": "São Gabriel",
        "state": "RS",
        "district": "Vila Trindade",
        "street": "Rua Ilo Nunes de Oliveira",
        "zipcode": "97310-603"
    },
    {
        "city": "São Gabriel",
        "state": "RS",
        "district": "Vila Trindade",
        "street": "Rua João Lorenzoni",
        "zipcode": "97310-606"
    },
    {
        "city": "São Gabriel",
        "state": "RS",
        "district": "Vila Trindade",
        "street": "Rua Inocêncio Chaves Prates",
        "zipcode": "97310-612"
    },
    {
        "city": "São Gabriel",
        "state": "RS",
        "district": "Vila Trindade",
        "street": "Rua João Baldissera",
        "zipcode": "97310-651"
    },
    {
        "city": "São Gabriel",
        "state": "RS",
        "district": "Vargas",
        "street": "Rua Jorge Suchy",
        "zipcode": "97310-759"
    },
    {
        "city": "São Gabriel",
        "state": "RS",
        "district": "Esplanada",
        "street": "Rua João Manoel Posada",
        "zipcode": "97311-074"
    },
    {
        "city": "São Gabriel",
        "state": "RS",
        "district": "Esplanada",
        "street": "Rua João Santiago",
        "zipcode": "97311-076"
    },
    {
        "city": "São Gabriel",
        "state": "RS",
        "district": "Esplanada",
        "street": "Rua João Antônio Moreira",
        "zipcode": "97311-084"
    },
    {
        "city": "São Gabriel",
        "state": "RS",
        "district": "Novo Horizonte",
        "street": "Rua José Carlos Mendes Melo",
        "zipcode": "97311-150"
    },
    {
        "city": "São Gabriel",
        "state": "RS",
        "district": "Vieira",
        "street": "Rua João Antônio Moreira",
        "zipcode": "97311-250"
    },
    {
        "city": "São Gabriel",
        "state": "RS",
        "district": "Vieira",
        "street": "Rua I (Lot Sta Casa)",
        "zipcode": "97311-264"
    },
    {
        "city": "São Gabriel",
        "state": "RS",
        "district": "Vieira",
        "street": "Rua Ilo Rodrigues",
        "zipcode": "97311-332"
    },
    {
        "city": "São Gabriel",
        "state": "RS",
        "district": "São Clemente",
        "street": "Rua João Pedro de Moraes",
        "zipcode": "97314-006"
    },
    {
        "city": "São Gabriel",
        "state": "RS",
        "district": "São Clemente",
        "street": "Rua José Ferreira Cardoso",
        "zipcode": "97314-012"
    },
    {
        "city": "São Gabriel",
        "state": "RS",
        "district": "3 de Outubro",
        "street": "Rua João Manoel",
        "zipcode": "97314-108"
    },
    {
        "city": "São Gabriel",
        "state": "RS",
        "district": "Medeiros",
        "street": "Rua Honorio Proença",
        "zipcode": "97314-303"
    },
    {
        "city": "São Gabriel",
        "state": "RS",
        "district": "Medeiros",
        "street": "Rua João Francisco Dalforno",
        "zipcode": "97314-312"
    },
    {
        "city": "São Gabriel",
        "state": "RS",
        "district": "Andrade",
        "street": "Rua Iara Corrêa de Andrade",
        "zipcode": "97314-350"
    },
    {
        "city": "São Gabriel",
        "state": "RS",
        "district": "Menino Jesus",
        "street": "Rua José Emilio Correa",
        "zipcode": "97314-568"
    },
    {
        "city": "São Gabriel",
        "state": "RS",
        "district": "Santa Isabel",
        "street": "Rua Mário Alves de Oliveira",
        "zipcode": "97304-515"
    },
    {
        "city": "São Gabriel",
        "state": "RS",
        "district": "Santa Isabel",
        "street": "Rua Maria Amália Siqueira Prates",
        "zipcode": "97304-520"
    },
    {
        "city": "São Gabriel",
        "state": "RS",
        "district": "Santa Isabel",
        "street": "Rua Marcelo Cortiana",
        "zipcode": "97304-530"
    },
    {
        "city": "São Gabriel",
        "state": "RS",
        "district": "Santa Isabel",
        "street": "Rua Liara Souto Pereira",
        "zipcode": "97304-535"
    },
    {
        "city": "São Gabriel",
        "state": "RS",
        "district": "Gabrielense",
        "street": "Rua Mário Avancini dos Santos",
        "zipcode": "97306-002"
    },
    {
        "city": "São Gabriel",
        "state": "RS",
        "district": "Gabrielense",
        "street": "Rua Levi Santos Godoy",
        "zipcode": "97306-058"
    },
    {
        "city": "São Gabriel",
        "state": "RS",
        "district": "Dr Dácio",
        "street": "Rua Manoel Xavier de Freitas",
        "zipcode": "97306-510"
    },
    {
        "city": "São Gabriel",
        "state": "RS",
        "district": "Dr Dácio",
        "street": "Rua Miguel Santana",
        "zipcode": "97306-530"
    },
    {
        "city": "São Gabriel",
        "state": "RS",
        "district": "",
        "street": "Rua Miguel Santana",
        "zipcode": "97306-990"
    },
    {
        "city": "São Gabriel",
        "state": "RS",
        "district": "Santo Antônio",
        "street": "Rua Major Bento Lopes de Andrade",
        "zipcode": "97310-061"
    },
    {
        "city": "São Gabriel",
        "state": "RS",
        "district": "Santo Antônio",
        "street": "Rua Maurício Cardoso",
        "zipcode": "97310-064"
    },
    {
        "city": "São Gabriel",
        "state": "RS",
        "district": "Santo Antônio",
        "street": "Rua Marechal Rondon",
        "zipcode": "97310-103"
    },
    {
        "city": "São Gabriel",
        "state": "RS",
        "district": "Vivenda",
        "street": "Rua Milton de Faria Borges",
        "zipcode": "97310-204"
    },
    {
        "city": "São Gabriel",
        "state": "RS",
        "district": "Centro",
        "street": "Rua Paul Harris",
        "zipcode": "97300-142"
    },
    {
        "city": "São Gabriel",
        "state": "RS",
        "district": "Centro",
        "street": "Rua Ney Faria Correa",
        "zipcode": "97300-256"
    },
    {
        "city": "São Gabriel",
        "state": "RS",
        "district": "Centro",
        "street": "Rua Plácido de Castro",
        "zipcode": "97300-352"
    },
    {
        "city": "São Gabriel",
        "state": "RS",
        "district": "Centro",
        "street": "Rua Plácido de Castro",
        "zipcode": "97300-436"
    },
    {
        "city": "São Gabriel",
        "state": "RS",
        "district": "Baltar",
        "street": "Rua Nestor Quintana da Costa",
        "zipcode": "97300-810"
    },
    {
        "city": "São Gabriel",
        "state": "RS",
        "district": "Zona Sul",
        "street": "Rua Nadir Rodrigues Ferreira",
        "zipcode": "97304-122"
    },
    {
        "city": "São Gabriel",
        "state": "RS",
        "district": "Bela Vista",
        "street": "Rua Ney Jobim Cardoso",
        "zipcode": "97304-474"
    },
    {
        "city": "São Gabriel",
        "state": "RS",
        "district": "Gabrielense",
        "street": "Rua Oitenta",
        "zipcode": "97306-124"
    },
    {
        "city": "São Gabriel",
        "state": "RS",
        "district": "São Bento",
        "street": "Rua Oswaldo Simões de Carvalho Nobre",
        "zipcode": "97310-404"
    },
    {
        "city": "São Gabriel",
        "state": "RS",
        "district": "Vargas",
        "street": "Rua Monte Real",
        "zipcode": "97310-704"
    },
    {
        "city": "São Gabriel",
        "state": "RS",
        "district": "Vargas",
        "street": "Rua Oscar Luiz Eifler",
        "zipcode": "97310-756"
    },
    {
        "city": "São Gabriel",
        "state": "RS",
        "district": "Vargas",
        "street": "Rua Otávio Vargas",
        "zipcode": "97310-774"
    },
    {
        "city": "São Gabriel",
        "state": "RS",
        "district": "Centro",
        "street": "Rua Oliverio Miguel Notarjágamos",
        "zipcode": "97300-166"
    },
    {
        "city": "São Gabriel",
        "state": "RS",
        "district": "Jardim Europa",
        "street": "Rua Noruega",
        "zipcode": "97304-152"
    },
    {
        "city": "São Gabriel",
        "state": "RS",
        "district": "Gabrielense",
        "street": "Rua Leonardo Lopes",
        "zipcode": "97306-006"
    },
    {
        "city": "São Gabriel",
        "state": "RS",
        "district": "Santo Antônio",
        "street": "Rua Monte Líbano",
        "zipcode": "97310-034"
    },
    {
        "city": "São Gabriel",
        "state": "RS",
        "district": "São Sebastião",
        "street": "Rua Matheus Focaccia",
        "zipcode": "97310-170"
    },
    {
        "city": "São Gabriel",
        "state": "RS",
        "district": "Vivenda",
        "street": "Rua Maria Izabel Meyer de Almeida Soares",
        "zipcode": "97310-323"
    },
    {
        "city": "São Gabriel",
        "state": "RS",
        "district": "Jardim das Hortênsias",
        "street": "Rua Marechal Hermes da Fonseca",
        "zipcode": "97310-359"
    },
    {
        "city": "São Gabriel",
        "state": "RS",
        "district": "São Bento",
        "street": "Rua Marechal Hermes da Fonseca",
        "zipcode": "97310-412"
    },
    {
        "city": "São Gabriel",
        "state": "RS",
        "district": "São Bento",
        "street": "Rua Milton César Valério Gonçalves",
        "zipcode": "97310-416"
    },
    {
        "city": "São Gabriel",
        "state": "RS",
        "district": "Vargas",
        "street": "Rua Manoel Luiz Bragança",
        "zipcode": "97310-708"
    },
    {
        "city": "São Gabriel",
        "state": "RS",
        "district": "Vargas",
        "street": "Rua Maestro Ariston Custodio da Silva",
        "zipcode": "97310-765"
    },
    {
        "city": "São Gabriel",
        "state": "RS",
        "district": "Cidade Nova",
        "street": "Rua Lavras do Sul",
        "zipcode": "97310-806"
    },
    {
        "city": "São Gabriel",
        "state": "RS",
        "district": "Cidade Nova",
        "street": "Rua Livramento",
        "zipcode": "97310-836"
    },
    {
        "city": "São Gabriel",
        "state": "RS",
        "district": "Cidade Nova",
        "street": "Rua Mimosa Salgado",
        "zipcode": "97310-854"
    },
    {
        "city": "São Gabriel",
        "state": "RS",
        "district": "Esplanada",
        "street": "Rua Pedro Nunes Goulart",
        "zipcode": "97311-030"
    },
    {
        "city": "São Gabriel",
        "state": "RS",
        "district": "Novo Horizonte",
        "street": "Rua Martins Rodrigues da Silva",
        "zipcode": "97311-158"
    },
    {
        "city": "São Gabriel",
        "state": "RS",
        "district": "Novo Horizonte",
        "street": "Rua Louzy Cabral Maciel",
        "zipcode": "97311-162"
    },
    {
        "city": "São Gabriel",
        "state": "RS",
        "district": "Independência",
        "street": "Rua Marechal Deodoro da Fonseca",
        "zipcode": "97313-274"
    },
    {
        "city": "São Gabriel",
        "state": "RS",
        "district": "Independência",
        "street": "Rua Lúcio Cabral",
        "zipcode": "97313-276"
    },
    {
        "city": "São Gabriel",
        "state": "RS",
        "district": "Independência",
        "street": "Rua Marechal Hermes",
        "zipcode": "97313-286"
    },
    {
        "city": "São Gabriel",
        "state": "RS",
        "district": "São Clemente",
        "street": "Rua Maurício Cardoso",
        "zipcode": "97314-002"
    },
    {
        "city": "São Gabriel",
        "state": "RS",
        "district": "3 de Outubro",
        "street": "Rua Maria de Avila Amaral",
        "zipcode": "97314-124"
    },
    {
        "city": "São Gabriel",
        "state": "RS",
        "district": "3 de Outubro",
        "street": "Rua Manoel Carroceiro",
        "zipcode": "97314-154"
    },
    {
        "city": "São Gabriel",
        "state": "RS",
        "district": "3 de Outubro",
        "street": "Rua Laurentino Batista",
        "zipcode": "97314-164"
    },
    {
        "city": "São Gabriel",
        "state": "RS",
        "district": "Centro",
        "street": "Rua República do Líbano",
        "zipcode": "97300-070"
    },
    {
        "city": "São Gabriel",
        "state": "RS",
        "district": "Baltar",
        "street": "Rua Ruth Pizzaro da Silveira",
        "zipcode": "97300-818"
    },
    {
        "city": "São Gabriel",
        "state": "RS",
        "district": "Bomfim",
        "street": "Rua Ramon Monteavaro",
        "zipcode": "97301-554"
    },
    {
        "city": "São Gabriel",
        "state": "RS",
        "district": "Bela Vista",
        "street": "Rua Rosa Helena Portin",
        "zipcode": "97304-428"
    },
    {
        "city": "São Gabriel",
        "state": "RS",
        "district": "Élbio Vieira Vargas",
        "street": "Rua São Jorge",
        "zipcode": "97306-304"
    },
    {
        "city": "São Gabriel",
        "state": "RS",
        "district": "Élbio Vieira Vargas",
        "street": "Rua Santo Ângelo",
        "zipcode": "97306-308"
    },
    {
        "city": "São Gabriel",
        "state": "RS",
        "district": "Élbio Vieira Vargas",
        "street": "Rua São Simão",
        "zipcode": "97306-310"
    },
    {
        "city": "São Gabriel",
        "state": "RS",
        "district": "Élbio Vieira Vargas",
        "street": "Rua Santa Rosa",
        "zipcode": "97306-314"
    },
    {
        "city": "São Gabriel",
        "state": "RS",
        "district": "Élbio Vieira Vargas",
        "street": "Rua São Benedito",
        "zipcode": "97306-316"
    },
    {
        "city": "São Gabriel",
        "state": "RS",
        "district": "Élbio Vieira Vargas",
        "street": "Rua Santa Helena",
        "zipcode": "97306-320"
    },
    {
        "city": "São Gabriel",
        "state": "RS",
        "district": "Élbio Vieira Vargas",
        "street": "Rua São João",
        "zipcode": "97306-326"
    },
    {
        "city": "São Gabriel",
        "state": "RS",
        "district": "Élbio Vieira Vargas",
        "street": "Rua São Vicente",
        "zipcode": "97306-330"
    },
    {
        "city": "São Gabriel",
        "state": "RS",
        "district": "Élbio Vieira Vargas",
        "street": "Rua São Luiz",
        "zipcode": "97306-332"
    },
    {
        "city": "São Gabriel",
        "state": "RS",
        "district": "Élbio Vieira Vargas",
        "street": "Rua São José",
        "zipcode": "97306-336"
    },
    {
        "city": "São Gabriel",
        "state": "RS",
        "district": "Élbio Vieira Vargas",
        "street": "Rua Santa Terezinha",
        "zipcode": "97306-338"
    },
    {
        "city": "São Gabriel",
        "state": "RS",
        "district": "Élbio Vieira Vargas",
        "street": "Rua São Nicolau",
        "zipcode": "97306-342"
    },
    {
        "city": "São Gabriel",
        "state": "RS",
        "district": "Élbio Vieira Vargas",
        "street": "Rua São Domingos",
        "zipcode": "97306-344"
    },
    {
        "city": "São Gabriel",
        "state": "RS",
        "district": "Élbio Vieira Vargas",
        "street": "Rua Santa Cecília",
        "zipcode": "97306-348"
    },
    {
        "city": "São Gabriel",
        "state": "RS",
        "district": "Élbio Vieira Vargas",
        "street": "Rua São Tomé",
        "zipcode": "97306-350"
    },
    {
        "city": "São Gabriel",
        "state": "RS",
        "district": "Santo Antônio",
        "street": "Rua Reinaldo Capiotti",
        "zipcode": "97310-067"
    },
    {
        "city": "São Gabriel",
        "state": "RS",
        "district": "Vivenda",
        "street": "Rua Rosinha Russomano Focaccia",
        "zipcode": "97310-326"
    },
    {
        "city": "São Gabriel",
        "state": "RS",
        "district": "Jardim das Hortênsias",
        "street": "Rua Sebastião Menna Barreto",
        "zipcode": "97310-368"
    },
    {
        "city": "São Gabriel",
        "state": "RS",
        "district": "Jardim das Hortênsias",
        "street": "Rua Sebastião Menna Barreto",
        "zipcode": "97310-374"
    },
    {
        "city": "São Gabriel",
        "state": "RS",
        "district": "Novo Horizonte",
        "street": "Rua Pacífico Barcelos",
        "zipcode": "97311-166"
    },
    {
        "city": "São Gabriel",
        "state": "RS",
        "district": "Mariana",
        "street": "Rua Posto Branco",
        "zipcode": "97313-032"
    },
    {
        "city": "São Gabriel",
        "state": "RS",
        "district": "Élbio Vieira Vargas",
        "street": "Rua São Lourenço",
        "zipcode": "97306-300"
    },
    {
        "city": "São Gabriel",
        "state": "RS",
        "district": "Élbio Vieira Vargas",
        "street": "Rua Santo Onofre",
        "zipcode": "97306-322"
    },
    {
        "city": "São Gabriel",
        "state": "RS",
        "district": "Independência",
        "street": "Rua Professor Lucrécio",
        "zipcode": "97313-242"
    },
    {
        "city": "São Gabriel",
        "state": "RS",
        "district": "Independência",
        "street": "Rua Padre Cruz Jobim",
        "zipcode": "97313-278"
    },
    {
        "city": "São Gabriel",
        "state": "RS",
        "district": "Independência",
        "street": "Rua Pará",
        "zipcode": "97313-324"
    },
    {
        "city": "São Gabriel",
        "state": "RS",
        "district": "Independência",
        "street": "Rua Paraná",
        "zipcode": "97313-326"
    },
    {
        "city": "São Gabriel",
        "state": "RS",
        "district": "Independência",
        "street": "Rua Paraíba",
        "zipcode": "97313-364"
    },
    {
        "city": "São Gabriel",
        "state": "RS",
        "district": "Independência",
        "street": "Rua Minas Gerais",
        "zipcode": "97313-390"
    },
    {
        "city": "São Gabriel",
        "state": "RS",
        "district": "Independência",
        "street": "Rua Pernambuco",
        "zipcode": "97313-396"
    },
    {
        "city": "São Gabriel",
        "state": "RS",
        "district": "São Clemente",
        "street": "Rua Pedro Santos Petinga",
        "zipcode": "97314-032"
    },
    {
        "city": "São Gabriel",
        "state": "RS",
        "district": "São Clemente",
        "street": "Rua Professor Jacobed",
        "zipcode": "97314-034"
    },
    {
        "city": "São Gabriel",
        "state": "RS",
        "district": "3 de Outubro",
        "street": "Rua Porfírio Metello",
        "zipcode": "97314-156"
    },
    {
        "city": "São Gabriel",
        "state": "RS",
        "district": "São Gregório",
        "street": "Rua Nery Machado Bittencourt",
        "zipcode": "97314-262"
    },
    {
        "city": "São Gabriel",
        "state": "RS",
        "district": "Medeiros",
        "street": "Rua Neymar Yrigaray da Silva",
        "zipcode": "97314-324"
    },
    {
        "city": "São Gabriel",
        "state": "RS",
        "district": "Medeiros",
        "street": "Rua Octaviano Norberto",
        "zipcode": "97314-327"
    },
    {
        "city": "São Gabriel",
        "state": "RS",
        "district": "Andrade",
        "street": "Rua Neymar Yrigaray da Silva",
        "zipcode": "97314-358"
    },
    {
        "city": "São Gabriel",
        "state": "RS",
        "district": "Menino Jesus",
        "street": "Rua Onze de Junho",
        "zipcode": "97314-502"
    },
    {
        "city": "São Gabriel",
        "state": "RS",
        "district": "Menino Jesus",
        "street": "Rua Primeiro de Maio",
        "zipcode": "97314-516"
    },
    {
        "city": "São Gabriel",
        "state": "RS",
        "district": "Menino Jesus",
        "street": "Rua Nadir Teixeira da Silva",
        "zipcode": "97314-550"
    },
    {
        "city": "São Gabriel",
        "state": "RS",
        "district": "Menino Jesus",
        "street": "Rua Olmiro Silva Moreira",
        "zipcode": "97314-556"
    },
    {
        "city": "São Gabriel",
        "state": "RS",
        "district": "Menino Jesus",
        "street": "Rua Nove (Lot Beira Rio)",
        "zipcode": "97314-562"
    },
    {
        "city": "São Gabriel",
        "state": "RS",
        "district": "Independência",
        "street": "Rua Nery Machado Bittencourt",
        "zipcode": "97313-344"
    },
    {
        "city": "São Gabriel",
        "state": "RS",
        "district": "Centro",
        "street": "Travessa Isaías Evangelista",
        "zipcode": "97300-122"
    },
    {
        "city": "São Gabriel",
        "state": "RS",
        "district": "Centro",
        "street": "Travessa Marechal Fabio Azambuja",
        "zipcode": "97300-254"
    },
    {
        "city": "São Gabriel",
        "state": "RS",
        "district": "Vila Maria",
        "street": "Rua Silvio Borges",
        "zipcode": "97300-564"
    },
    {
        "city": "São Gabriel",
        "state": "RS",
        "district": "Vila Maria",
        "street": "Travessa Celestino Borges",
        "zipcode": "97300-605"
    },
    {
        "city": "São Gabriel",
        "state": "RS",
        "district": "Bomfim",
        "street": "Travessa da Lagoa",
        "zipcode": "97301-200"
    },
    {
        "city": "São Gabriel",
        "state": "RS",
        "district": "Bomfim",
        "street": "Travessa Francisco da Silva",
        "zipcode": "97301-566"
    },
    {
        "city": "São Gabriel",
        "state": "RS",
        "district": "Zona Sul",
        "street": "Rua Suely Barbosa Abreu",
        "zipcode": "97304-030"
    },
    {
        "city": "São Gabriel",
        "state": "RS",
        "district": "Bela Vista",
        "street": "Rua Tobias Chimendes",
        "zipcode": "97304-476"
    },
    {
        "city": "São Gabriel",
        "state": "RS",
        "district": "Gabrielense",
        "street": "Rua Walter Ávila",
        "zipcode": "97306-004"
    },
    {
        "city": "São Gabriel",
        "state": "RS",
        "district": "Dr Dácio",
        "street": "Travessa Claudia Pereira",
        "zipcode": "97306-610"
    },
    {
        "city": "São Gabriel",
        "state": "RS",
        "district": "Dr Dácio",
        "street": "Travessa Miguel Santana",
        "zipcode": "97306-620"
    },
    {
        "city": "São Gabriel",
        "state": "RS",
        "district": "Santo Antônio",
        "street": "Rua Tiba Azambuja",
        "zipcode": "97310-040"
    },
    {
        "city": "São Gabriel",
        "state": "RS",
        "district": "Vivenda",
        "street": "Rua Telmo Borda Menezes",
        "zipcode": "97310-302"
    },
    {
        "city": "São Gabriel",
        "state": "RS",
        "district": "Vivenda",
        "street": "Rua Zezinho Condessa",
        "zipcode": "97310-317"
    },
    {
        "city": "São Gabriel",
        "state": "RS",
        "district": "Jardim das Hortênsias",
        "street": "Rua Rosinha Russomano Focaccia",
        "zipcode": "97310-377"
    },
    {
        "city": "São Gabriel",
        "state": "RS",
        "district": "Leal",
        "street": "Rua Sebastião Menna Barreto",
        "zipcode": "97310-525"
    },
    {
        "city": "São Gabriel",
        "state": "RS",
        "district": "Vila Trindade",
        "street": "Rua Rosinha Russomano Focaccia",
        "zipcode": "97310-609"
    },
    {
        "city": "São Gabriel",
        "state": "RS",
        "district": "Vila Trindade",
        "street": "Travessa Jorge Fontoura Rocha",
        "zipcode": "97310-630"
    },
    {
        "city": "São Gabriel",
        "state": "RS",
        "district": "Vila Trindade",
        "street": "Rua Sebastião Menna Barreto",
        "zipcode": "97310-633"
    },
    {
        "city": "São Gabriel",
        "state": "RS",
        "district": "Vila Trindade",
        "street": "Rua Santa Margarida",
        "zipcode": "97310-636"
    },
    {
        "city": "São Gabriel",
        "state": "RS",
        "district": "Vargas",
        "street": "Rua Theodoro Lamatabois",
        "zipcode": "97310-702"
    },
    {
        "city": "São Gabriel",
        "state": "RS",
        "district": "Vargas",
        "street": "Rua Rolino Leonardo Vieira",
        "zipcode": "97310-768"
    },
    {
        "city": "São Gabriel",
        "state": "RS",
        "district": "Cidade Nova",
        "street": "Rua Rosário do Sul",
        "zipcode": "97310-809"
    },
    {
        "city": "São Gabriel",
        "state": "RS",
        "district": "Cidade Nova",
        "street": "Rua Santa Maria",
        "zipcode": "97310-824"
    },
    {
        "city": "São Gabriel",
        "state": "RS",
        "district": "Cidade Nova",
        "street": "Rua Uruguaiana",
        "zipcode": "97310-830"
    },
    {
        "city": "São Gabriel",
        "state": "RS",
        "district": "Novo Horizonte",
        "street": "Rua Samir Rodrigues Samhan",
        "zipcode": "97311-154"
    },
    {
        "city": "São Gabriel",
        "state": "RS",
        "district": "Vieira",
        "street": "Rua Tenente Arlindo de Oliveira Montanha",
        "zipcode": "97311-334"
    },
    {
        "city": "São Gabriel",
        "state": "RS",
        "district": "Mariana",
        "street": "Rua Vacacaí",
        "zipcode": "97313-016"
    },
    {
        "city": "São Gabriel",
        "state": "RS",
        "district": "Centro",
        "street": "Travessa Osvaldo Passos Dutra",
        "zipcode": "97300-158"
    },
    {
        "city": "São Gabriel",
        "state": "RS",
        "district": "Centro",
        "street": "Travessa Senador Salgado Filho",
        "zipcode": "97300-426"
    },
    {
        "city": "São Gabriel",
        "state": "RS",
        "district": "Centro",
        "street": "Travessa Padre Leonel França",
        "zipcode": "97300-428"
    },
    {
        "city": "São Gabriel",
        "state": "RS",
        "district": "Baltar",
        "street": "Travessa Simão Maria de Souza",
        "zipcode": "97300-812"
    },
    {
        "city": "São Gabriel",
        "state": "RS",
        "district": "Santo Antônio",
        "street": "Travessa Tomas Pereira Valle",
        "zipcode": "97310-043"
    },
    {
        "city": "São Gabriel",
        "state": "RS",
        "district": "Santo Antônio",
        "street": "Rua Umar Gabriel Kurban",
        "zipcode": "97310-100"
    },
    {
        "city": "São Gabriel",
        "state": "RS",
        "district": "Leal",
        "street": "Rua Sebastião Menna Barreto",
        "zipcode": "97310-520"
    },
    {
        "city": "São Gabriel",
        "state": "RS",
        "district": "Leal",
        "street": "Travessa Um",
        "zipcode": "97310-535"
    },
    {
        "city": "São Gabriel",
        "state": "RS",
        "district": "Vila Trindade",
        "street": "Rua Santa Maria",
        "zipcode": "97310-648"
    },
    {
        "city": "São Gabriel",
        "state": "RS",
        "district": "Mariana",
        "street": "Travessa Sodré",
        "zipcode": "97313-004"
    },
    {
        "city": "São Gabriel",
        "state": "RS",
        "district": "Mariana",
        "street": "Rua Romeu Siqueira",
        "zipcode": "97313-040"
    },
    {
        "city": "São Gabriel",
        "state": "RS",
        "district": "Mariana",
        "street": "Travessa das Canas",
        "zipcode": "97313-044"
    },
    {
        "city": "São Gabriel",
        "state": "RS",
        "district": "Mariana",
        "street": "Travessa Caiboaté",
        "zipcode": "97313-056"
    },
    {
        "city": "São Gabriel",
        "state": "RS",
        "district": "Independência",
        "street": "Rua Sargento Ciro Trindade de Simão",
        "zipcode": "97313-280"
    },
    {
        "city": "São Gabriel",
        "state": "RS",
        "district": "Independência",
        "street": "Rua Santa Catarina",
        "zipcode": "97313-342"
    },
    {
        "city": "São Gabriel",
        "state": "RS",
        "district": "Independência",
        "street": "Rua Santa Catarina",
        "zipcode": "97313-356"
    },
    {
        "city": "São Gabriel",
        "state": "RS",
        "district": "3 de Outubro",
        "street": "Rua Ramiro Gonçalves",
        "zipcode": "97314-160"
    },
    {
        "city": "São Gabriel",
        "state": "RS",
        "district": "Andrade",
        "street": "Rua Ramiro da Silva Meneghello",
        "zipcode": "97314-398"
    },
    {
        "city": "São Gabriel",
        "state": "RS",
        "district": "Menino Jesus",
        "street": "Rua Quinze de Dezembro",
        "zipcode": "97314-518"
    },
    {
        "city": "São Gabriel",
        "state": "RS",
        "district": "Menino Jesus",
        "street": "Rua Regina Helena Abreu Altíssimo",
        "zipcode": "97314-566"
    },
    {
        "city": "São Gabriel",
        "state": "RS",
        "district": "Mariana",
        "street": "Rua Suspiro",
        "zipcode": "97313-060"
    },
    {
        "city": "São Gabriel",
        "state": "RS",
        "district": "Jardim Primavera",
        "street": "Travessa Sete",
        "zipcode": "97313-140"
    },
    {
        "city": "São Gabriel",
        "state": "RS",
        "district": "Jardim Primavera",
        "street": "Rua Trinta e Um de Maio",
        "zipcode": "97313-154"
    },
    {
        "city": "São Gabriel",
        "state": "RS",
        "district": "Independência",
        "street": "Rua Sergipe",
        "zipcode": "97313-354"
    },
    {
        "city": "São Gabriel",
        "state": "RS",
        "district": "Independência",
        "street": "Rua Sete de Setembro",
        "zipcode": "97313-362"
    },
    {
        "city": "São Gabriel",
        "state": "RS",
        "district": "São Clemente",
        "street": "Travessa Marina Silveira",
        "zipcode": "97314-054"
    },
    {
        "city": "São Gabriel",
        "state": "RS",
        "district": "São Clemente",
        "street": "Travessa Floriano Pinheiro Nunes",
        "zipcode": "97314-082"
    },
    {
        "city": "São Gabriel",
        "state": "RS",
        "district": "3 de Outubro",
        "street": "Rua Vergílio Silva",
        "zipcode": "97314-152"
    },
    {
        "city": "São Gabriel",
        "state": "RS",
        "district": "3 de Outubro",
        "street": "Rua Tabelião Martins",
        "zipcode": "97314-162"
    },
    {
        "city": "São Gabriel",
        "state": "RS",
        "district": "Medeiros",
        "street": "Travessa Heraldo Prates Bento Pereira",
        "zipcode": "97314-300"
    },
    {
        "city": "São Gabriel",
        "state": "RS",
        "district": "Andrade",
        "street": "Rua Sete de Setembro",
        "zipcode": "97314-370"
    },
    {
        "city": "São Gabriel",
        "state": "RS",
        "district": "Andrade",
        "street": "Rua Vereador Elta Obaldia",
        "zipcode": "97314-382"
    },
    {
        "city": "São Gabriel",
        "state": "RS",
        "district": "Menino Jesus",
        "street": "Rua Vinte de Setembro",
        "zipcode": "97314-504"
    },
    {
        "city": "São Gabriel",
        "state": "RS",
        "district": "Menino Jesus",
        "street": "Rua Vinte e Um de Abril",
        "zipcode": "97314-508"
    },
    {
        "city": "São Gabriel",
        "state": "RS",
        "district": "Menino Jesus",
        "street": "Rua Vinte e Cinco de Dezembro",
        "zipcode": "97314-510"
    },
    {
        "city": "São Gabriel",
        "state": "RS",
        "district": "Menino Jesus",
        "street": "Travessa Primeiro de Janeiro",
        "zipcode": "97314-526"
    },
    {
        "city": "São Gabriel",
        "state": "RS",
        "district": "Menino Jesus",
        "street": "Rua Três (Lot Beira Rio)",
        "zipcode": "97314-554"
    },
    {
        "city": "São Gabriel",
        "state": "RS",
        "district": "Centro",
        "street": "Avenida General Marques",
        "zipcode": "97300-010"
    },
    {
        "city": "São Gabriel",
        "state": "RS",
        "district": "Centro",
        "street": "Avenida Julio de Castilhos",
        "zipcode": "97300-080"
    },
    {
        "city": "São Gabriel",
        "state": "RS",
        "district": "Centro",
        "street": "Rua Adel Bento Pereira",
        "zipcode": "97300-132"
    },
    {
        "city": "São Gabriel",
        "state": "RS",
        "district": "Centro",
        "street": "Avenida Antônio Trilha",
        "zipcode": "97300-160"
    },
    {
        "city": "São Gabriel",
        "state": "RS",
        "district": "Centro",
        "street": "Rua Barão de Cambay",
        "zipcode": "97300-024"
    },
    {
        "city": "São Gabriel",
        "state": "RS",
        "district": "Centro",
        "street": "Rua Celestino Cavalheiro",
        "zipcode": "97300-028"
    },
    {
        "city": "São Gabriel",
        "state": "RS",
        "district": "Centro",
        "street": "Rua Carlos Cândido Pereira",
        "zipcode": "97300-078"
    },
    {
        "city": "São Gabriel",
        "state": "RS",
        "district": "Centro",
        "street": "Rua Celestino Cavalheiro",
        "zipcode": "97300-112"
    },
    {
        "city": "São Gabriel",
        "state": "RS",
        "district": "Centro",
        "street": "Rua Barão de São Gabriel",
        "zipcode": "97300-124"
    },
    {
        "city": "São Gabriel",
        "state": "RS",
        "district": "Centro",
        "street": "Rua Boaventura Ferreira da Silva",
        "zipcode": "97300-168"
    },
    {
        "city": "São Gabriel",
        "state": "RS",
        "district": "Centro",
        "street": "Rua Duque de Caxias",
        "zipcode": "97300-224"
    },
    {
        "city": "São Gabriel",
        "state": "RS",
        "district": "Centro",
        "street": "Rua Joaquim Francisco de Assis Brasil",
        "zipcode": "97300-020"
    },
    {
        "city": "São Gabriel",
        "state": "RS",
        "district": "Centro",
        "street": "Rua Maria Barros Salgado",
        "zipcode": "97300-022"
    },
    {
        "city": "São Gabriel",
        "state": "RS",
        "district": "Centro",
        "street": "Rua Maurício Cardoso",
        "zipcode": "97300-060"
    },
    {
        "city": "São Gabriel",
        "state": "RS",
        "district": "Centro",
        "street": "Rua General Câmara",
        "zipcode": "97300-126"
    },
    {
        "city": "São Gabriel",
        "state": "RS",
        "district": "Centro",
        "street": "Rua Matheus Focaccia",
        "zipcode": "97300-128"
    },
    {
        "city": "São Gabriel",
        "state": "RS",
        "district": "Centro",
        "street": "Rua João Manoel",
        "zipcode": "97300-220"
    },
    {
        "city": "São Gabriel",
        "state": "RS",
        "district": "Centro",
        "street": "Rua Treze de Maio",
        "zipcode": "97300-136"
    },
    {
        "city": "São Gabriel",
        "state": "RS",
        "district": "Centro",
        "street": "Rua Professor Hostin",
        "zipcode": "97300-146"
    },
    {
        "city": "São Gabriel",
        "state": "RS",
        "district": "Centro",
        "street": "Rua Reinaldo Capiotti",
        "zipcode": "97300-150"
    },
    {
        "city": "São Gabriel",
        "state": "RS",
        "district": "Centro",
        "street": "Rua Doutor Jonathas Abbott",
        "zipcode": "97300-012"
    },
    {
        "city": "São Gabriel",
        "state": "RS",
        "district": "Centro",
        "street": "Rua Maurício Cardoso",
        "zipcode": "97300-014"
    },
    {
        "city": "São Gabriel",
        "state": "RS",
        "district": "Centro",
        "street": "Rua Rivera",
        "zipcode": "97300-032"
    },
    {
        "city": "São Gabriel",
        "state": "RS",
        "district": "Centro",
        "street": "Rua Marlene Launes Lopes",
        "zipcode": "97300-084"
    },
    {
        "city": "São Gabriel",
        "state": "RS",
        "district": "Centro",
        "street": "Rua Celestino Cavalheiro",
        "zipcode": "97300-212"
    },
    {
        "city": "São Gabriel",
        "state": "RS",
        "district": "Centro",
        "street": "Rua Abel Correa da Silva",
        "zipcode": "97300-252"
    },
    {
        "city": "São Gabriel",
        "state": "RS",
        "district": "Centro",
        "street": "Avenida Presidente Getúlio Vargas",
        "zipcode": "97300-374"
    },
    {
        "city": "São Gabriel",
        "state": "RS",
        "district": "Baltar",
        "street": "Prolongamento da Clarestino Bento",
        "zipcode": "97300-868"
    },
    {
        "city": "São Gabriel",
        "state": "RS",
        "district": "Bomfim",
        "street": "Avenida Desembargador Tito Prates",
        "zipcode": "97301-320"
    },
    {
        "city": "São Gabriel",
        "state": "RS",
        "district": "Bomfim",
        "street": "Avenida Manoel Antônio de Macedo",
        "zipcode": "97301-500"
    },
    {
        "city": "São Gabriel",
        "state": "RS",
        "district": "Morro do Sabiá",
        "street": "Rodovia BR",
        "zipcode": "97302-150"
    },
    {
        "city": "São Gabriel",
        "state": "RS",
        "district": "Morro do Sabiá",
        "street": "Rodovia BR",
        "zipcode": "97302-350"
    },
    {
        "city": "São Gabriel",
        "state": "RS",
        "district": "Zona Sul",
        "street": "Rua Afif Abrão Rade",
        "zipcode": "97304-004"
    },
    {
        "city": "São Gabriel",
        "state": "RS",
        "district": "Zona Sul",
        "street": "Rodovia BR",
        "zipcode": "97304-090"
    },
    {
        "city": "São Gabriel",
        "state": "RS",
        "district": "Centro",
        "street": "Rua Celestino Cavalheiro",
        "zipcode": "97300-230"
    },
    {
        "city": "São Gabriel",
        "state": "RS",
        "district": "Centro",
        "street": "Rua Celestino Cavalheiro",
        "zipcode": "97300-250"
    },
    {
        "city": "São Gabriel",
        "state": "RS",
        "district": "Centro",
        "street": "Rua Doutor Emanuel Fernandes Barbosa",
        "zipcode": "97300-320"
    },
    {
        "city": "São Gabriel",
        "state": "RS",
        "district": "Centro",
        "street": "Rua Doutor Francisco de Paula Moreira Leivas",
        "zipcode": "97300-366"
    },
    {
        "city": "São Gabriel",
        "state": "RS",
        "district": "Centro",
        "street": "Rua Coronel Sezefredo",
        "zipcode": "97300-424"
    },
    {
        "city": "São Gabriel",
        "state": "RS",
        "district": "Centro",
        "street": "Rua Barão de São Gabriel",
        "zipcode": "97300-440"
    },
    {
        "city": "São Gabriel",
        "state": "RS",
        "district": "Vila Maria",
        "street": "Rua Fernando de Lima Machado",
        "zipcode": "97300-538"
    },
    {
        "city": "São Gabriel",
        "state": "RS",
        "district": "Baltar",
        "street": "Rua Armando Farias",
        "zipcode": "97300-716"
    },
    {
        "city": "São Gabriel",
        "state": "RS",
        "district": "Baltar",
        "street": "Rua Carlos Augusto de Figueiredo Menezes",
        "zipcode": "97300-864"
    },
    {
        "city": "São Gabriel",
        "state": "RS",
        "district": "Centro",
        "street": "Rua Coronel Soares",
        "zipcode": "97300-970"
    },
    {
        "city": "São Gabriel",
        "state": "RS",
        "district": "Bomfim",
        "street": "Rua Francisco da Silva",
        "zipcode": "97301-410"
    },
    {
        "city": "São Gabriel",
        "state": "RS",
        "district": "Morro do Sabiá",
        "street": "Rua Francisco da Silva",
        "zipcode": "97302-000"
    },
    {
        "city": "São Gabriel",
        "state": "RS",
        "district": "Zona Sul",
        "street": "Rua Dea Saldanha Firpo",
        "zipcode": "97304-006"
    },
    {
        "city": "São Gabriel",
        "state": "RS",
        "district": "Zona Sul",
        "street": "Rua Aristides Munhoz das Chagas",
        "zipcode": "97304-128"
    },
    {
        "city": "São Gabriel",
        "state": "RS",
        "district": "Jardim Europa",
        "street": "Rua Espanha",
        "zipcode": "97304-150"
    },
    {
        "city": "São Gabriel",
        "state": "RS",
        "district": "Centro",
        "street": "Rua General Mallet",
        "zipcode": "97300-236"
    },
    {
        "city": "São Gabriel",
        "state": "RS",
        "district": "Centro",
        "street": "Rua Mascaranhas de Moraes",
        "zipcode": "97300-238"
    },
    {
        "city": "São Gabriel",
        "state": "RS",
        "district": "Centro",
        "street": "Rua Laurindo Lopes Nunes",
        "zipcode": "97300-368"
    },
    {
        "city": "São Gabriel",
        "state": "RS",
        "district": "Centro",
        "street": "Rua General Portugal",
        "zipcode": "97300-448"
    },
    {
        "city": "São Gabriel",
        "state": "RS",
        "district": "Vila Maria",
        "street": "Rua Homero Veiga de Macedo",
        "zipcode": "97300-560"
    },
    {
        "city": "São Gabriel",
        "state": "RS",
        "district": "Bomfim",
        "street": "Rua Isaías Moreira Rodrigues",
        "zipcode": "97301-190"
    },
    {
        "city": "São Gabriel",
        "state": "RS",
        "district": "Bomfim",
        "street": "Rua Maria de Lourdes Pires",
        "zipcode": "97301-470"
    },
    {
        "city": "São Gabriel",
        "state": "RS",
        "district": "Zona Sul",
        "street": "Rua Jackson Lemos Menezes",
        "zipcode": "97304-034"
    },
    {
        "city": "São Gabriel",
        "state": "RS",
        "district": "Jardim Europa",
        "street": "Rua Homero Veiga de Macedo",
        "zipcode": "97304-180"
    },
    {
        "city": "São Gabriel",
        "state": "RS",
        "district": "Jardim Europa",
        "street": "Rua Lourdes Machado de Abreu",
        "zipcode": "97304-182"
    },
    {
        "city": "São Gabriel",
        "state": "RS",
        "district": "Centro",
        "street": "Rua Tito Prates Filho",
        "zipcode": "97300-312"
    },
    {
        "city": "São Gabriel",
        "state": "RS",
        "district": "Centro",
        "street": "Rua Propício Menna",
        "zipcode": "97300-350"
    },
    {
        "city": "São Gabriel",
        "state": "RS",
        "district": "Vila Maria",
        "street": "Travessa Grécia Franco de Moraes",
        "zipcode": "97300-502"
    },
    {
        "city": "São Gabriel",
        "state": "RS",
        "district": "Baltar",
        "street": "Rua Propício Menna",
        "zipcode": "97300-700"
    },
    {
        "city": "São Gabriel",
        "state": "RS",
        "district": "Baltar",
        "street": "Travessa Osvaldo Joaquim da Silva",
        "zipcode": "97300-804"
    },
    {
        "city": "São Gabriel",
        "state": "RS",
        "district": "Bomfim",
        "street": "Rua Wolmer Norberto Porciúncula",
        "zipcode": "97301-240"
    },
    {
        "city": "São Gabriel",
        "state": "RS",
        "district": "Zona Sul",
        "street": "Rua Onésimo Laureano",
        "zipcode": "97304-032"
    },
    {
        "city": "São Gabriel",
        "state": "RS",
        "district": "Jardim Europa",
        "street": "Rua Portugal",
        "zipcode": "97304-156"
    },
    {
        "city": "São Gabriel",
        "state": "RS",
        "district": "Jardim Europa",
        "street": "Rua Suécia",
        "zipcode": "97304-160"
    },
    {
        "city": "São Gabriel",
        "state": "RS",
        "district": "Jardim Europa",
        "street": "Rua Romênia",
        "zipcode": "97304-162"
    },
    {
        "city": "São Gabriel",
        "state": "RS",
        "district": "Centro",
        "street": "Rua General Mallet",
        "zipcode": "97300-430"
    },
    {
        "city": "São Gabriel",
        "state": "RS",
        "district": "Baltar",
        "street": "Rua José Roberto Ledesma Nunes",
        "zipcode": "97300-764"
    },
    {
        "city": "São Gabriel",
        "state": "RS",
        "district": "Jardim Europa",
        "street": "Avenida das Acácias",
        "zipcode": "97304-166"
    },
    {
        "city": "São Gabriel",
        "state": "RS",
        "district": "Bela Vista",
        "street": "Avenida Antônio Trilha",
        "zipcode": "97304-462"
    },
    {
        "city": "São Gabriel",
        "state": "RS",
        "district": "Gabrielense",
        "street": "Rodovia RS",
        "zipcode": "97306-128"
    },
    {
        "city": "São Gabriel",
        "state": "RS",
        "district": "Dr Dácio",
        "street": "Avenida São Pedro",
        "zipcode": "97306-450"
    },
    {
        "city": "São Gabriel",
        "state": "RS",
        "district": "Dr Dácio",
        "street": "Rodovia BR",
        "zipcode": "97306-630"
    },
    {
        "city": "São Gabriel",
        "state": "RS",
        "district": "Universitário",
        "street": "Rodovia BR",
        "zipcode": "97306-700"
    },
    {
        "city": "São Gabriel",
        "state": "RS",
        "district": "Universitário",
        "street": "Avenida B",
        "zipcode": "97306-822"
    },
    {
        "city": "São Gabriel",
        "state": "RS",
        "district": "Corredor da Balança",
        "street": "Rodovia BR",
        "zipcode": "97308-000"
    },
    {
        "city": "São Gabriel",
        "state": "RS",
        "district": "Corredor da Balança",
        "street": "Corredor do Piraí",
        "zipcode": "97308-020"
    },
    {
        "city": "São Gabriel",
        "state": "RS",
        "district": "Corredor da Balança",
        "street": "Rodovia BR",
        "zipcode": "97308-320"
    },
    {
        "city": "São Gabriel",
        "state": "RS",
        "district": "Santo Antônio",
        "street": "Avenida Antônio Trilha",
        "zipcode": "97310-028"
    },
    {
        "city": "São Gabriel",
        "state": "RS",
        "district": "Bela Vista",
        "street": "Rua Carlos Eduardo Pizzarro de Silveira",
        "zipcode": "97304-468"
    },
    {
        "city": "São Gabriel",
        "state": "RS",
        "district": "Gabrielense",
        "street": "Rua Aristóteles Vaz de Carvalho e Silva",
        "zipcode": "97306-040"
    },
    {
        "city": "São Gabriel",
        "state": "RS",
        "district": "Gabrielense",
        "street": "Rua Celina Barbosa",
        "zipcode": "97306-050"
    },
    {
        "city": "São Gabriel",
        "state": "RS",
        "district": "Gabrielense",
        "street": "Rua Celmo Pinto",
        "zipcode": "97306-072"
    },
    {
        "city": "São Gabriel",
        "state": "RS",
        "district": "Élbio Vieira Vargas",
        "street": "Rua Clara Nunes",
        "zipcode": "97306-354"
    },
    {
        "city": "São Gabriel",
        "state": "RS",
        "district": "Élbio Vieira Vargas",
        "street": "Rua Gabriel Antônio do Nascimento",
        "zipcode": "97306-400"
    },
    {
        "city": "São Gabriel",
        "state": "RS",
        "district": "Universitário",
        "street": "Rua E",
        "zipcode": "97306-830"
    },
    {
        "city": "São Gabriel",
        "state": "RS",
        "district": "Santo Antônio",
        "street": "Rua Dom Félix de Azara",
        "zipcode": "97310-076"
    },
    {
        "city": "São Gabriel",
        "state": "RS",
        "district": "Bela Vista",
        "street": "Rua Guilherme de Quadros",
        "zipcode": "97304-464"
    },
    {
        "city": "São Gabriel",
        "state": "RS",
        "district": "Bela Vista",
        "street": "Rua João Batista Moreira",
        "zipcode": "97304-472"
    },
    {
        "city": "São Gabriel",
        "state": "RS",
        "district": "Santa Isabel",
        "street": "Rua Manoel Henrique Kluwe",
        "zipcode": "97304-510"
    },
    {
        "city": "São Gabriel",
        "state": "RS",
        "district": "Santa Isabel",
        "street": "Rua Martin Lopes da Rosa",
        "zipcode": "97304-525"
    },
    {
        "city": "São Gabriel",
        "state": "RS",
        "district": "Trilha",
        "street": "Rua Liara Souto Pereira",
        "zipcode": "97304-650"
    },
    {
        "city": "São Gabriel",
        "state": "RS",
        "district": "Gabrielense",
        "street": "Rua Homero Gonçalves",
        "zipcode": "97306-048"
    },
    {
        "city": "São Gabriel",
        "state": "RS",
        "district": "Gabrielense",
        "street": "Rua Homero Gonçalves",
        "zipcode": "97306-068"
    },
    {
        "city": "São Gabriel",
        "state": "RS",
        "district": "Gabrielense",
        "street": "Rua João Antônio Motta",
        "zipcode": "97306-102"
    },
    {
        "city": "São Gabriel",
        "state": "RS",
        "district": "Gabrielense",
        "street": "Rua Leandro da Silva Delolmo Ledesma",
        "zipcode": "97306-164"
    },
    {
        "city": "São Gabriel",
        "state": "RS",
        "district": "Élbio Vieira Vargas",
        "street": "Rua Miguel Santana",
        "zipcode": "97306-430"
    },
    {
        "city": "São Gabriel",
        "state": "RS",
        "district": "Dr Dácio",
        "street": "Rua Inocêncio Rodrigues",
        "zipcode": "97306-560"
    },
    {
        "city": "São Gabriel",
        "state": "RS",
        "district": "Santo Antônio",
        "street": "Rua Maria Adelaide",
        "zipcode": "97310-052"
    },
    {
        "city": "São Gabriel",
        "state": "RS",
        "district": "Santo Antônio",
        "street": "Rua Matheus Focaccia",
        "zipcode": "97310-070"
    },
    {
        "city": "São Gabriel",
        "state": "RS",
        "district": "Santo Antônio",
        "street": "Rua José Bonifácio",
        "zipcode": "97310-073"
    },
    {
        "city": "São Gabriel",
        "state": "RS",
        "district": "Gabrielense",
        "street": "Rua Sargento Rubem Barbosa da Silva",
        "zipcode": "97306-060"
    },
    {
        "city": "São Gabriel",
        "state": "RS",
        "district": "Gabrielense",
        "street": "Rua Wenceslau Costa",
        "zipcode": "97306-094"
    },
    {
        "city": "São Gabriel",
        "state": "RS",
        "district": "Élbio Vieira Vargas",
        "street": "Rua São Jerônimo",
        "zipcode": "97306-306"
    },
    {
        "city": "São Gabriel",
        "state": "RS",
        "district": "Élbio Vieira Vargas",
        "street": "Rua São Francisco",
        "zipcode": "97306-312"
    },
    {
        "city": "São Gabriel",
        "state": "RS",
        "district": "Élbio Vieira Vargas",
        "street": "Rua Santa Bárbara",
        "zipcode": "97306-318"
    },
    {
        "city": "São Gabriel",
        "state": "RS",
        "district": "Élbio Vieira Vargas",
        "street": "Rua Santa Luzia",
        "zipcode": "97306-328"
    },
    {
        "city": "São Gabriel",
        "state": "RS",
        "district": "Élbio Vieira Vargas",
        "street": "Rua São Rafael",
        "zipcode": "97306-334"
    },
    {
        "city": "São Gabriel",
        "state": "RS",
        "district": "Élbio Vieira Vargas",
        "street": "Rua São Caetano",
        "zipcode": "97306-340"
    },
    {
        "city": "São Gabriel",
        "state": "RS",
        "district": "Élbio Vieira Vargas",
        "street": "Rua São Miguel",
        "zipcode": "97306-352"
    },
    {
        "city": "São Gabriel",
        "state": "RS",
        "district": "Santo Antônio",
        "street": "Rua Peri da Cunha Gonçalves",
        "zipcode": "97310-016"
    },
    {
        "city": "São Gabriel",
        "state": "RS",
        "district": "Santo Antônio",
        "street": "Travessa Edmundo Bittencourt",
        "zipcode": "97310-037"
    },
    {
        "city": "São Gabriel",
        "state": "RS",
        "district": "Santo Antônio",
        "street": "Rua Sinhá Abbott",
        "zipcode": "97310-049"
    },
    {
        "city": "São Gabriel",
        "state": "RS",
        "district": "Gabrielense",
        "street": "Rodovia BR",
        "zipcode": "97306-000"
    },
    {
        "city": "São Gabriel",
        "state": "RS",
        "district": "Élbio Vieira Vargas",
        "street": "Rua São Marcos",
        "zipcode": "97306-346"
    },
    {
        "city": "São Gabriel",
        "state": "RS",
        "district": "Santo Antônio",
        "street": "Rua Danglar dos Santos Mello",
        "zipcode": "97310-013"
    },
    {
        "city": "São Gabriel",
        "state": "RS",
        "district": "Santo Antônio",
        "street": "Avenida Francisco Gonçalves Chagas",
        "zipcode": "97310-088"
    },
    {
        "city": "São Gabriel",
        "state": "RS",
        "district": "Jardim das Hortênsias",
        "street": "Avenida Presidente Juscelino Kubitschek",
        "zipcode": "97310-365"
    },
    {
        "city": "São Gabriel",
        "state": "RS",
        "district": "Vila Trindade",
        "street": "Avenida Pelotas",
        "zipcode": "97310-657"
    },
    {
        "city": "São Gabriel",
        "state": "RS",
        "district": "Santo Antônio",
        "street": "Rua Gelsa Corrês Cunha",
        "zipcode": "97310-094"
    },
    {
        "city": "São Gabriel",
        "state": "RS",
        "district": "São Sebastião",
        "street": "Rua Inocêncio Cunha",
        "zipcode": "97310-178"
    },
    {
        "city": "São Gabriel",
        "state": "RS",
        "district": "Centro",
        "street": "Rua Maurício Cardoso",
        "zipcode": "97300-016"
    },
    {
        "city": "São Gabriel",
        "state": "RS",
        "district": "Centro",
        "street": "Rua General Câmara",
        "zipcode": "97300-216"
    },
    {
        "city": "São Gabriel",
        "state": "RS",
        "district": "Vivenda",
        "street": "Rua Mauro Aloízio Lauxen",
        "zipcode": "97310-311"
    },
    {
        "city": "São Gabriel",
        "state": "RS",
        "district": "São Sebastião",
        "street": "Rua Sebastião Menna Barreto",
        "zipcode": "97310-176"
    },
    {
        "city": "São Gabriel",
        "state": "RS",
        "district": "Vivenda",
        "street": "Rua Vereador Carlos Alberto Abrianos Moreira",
        "zipcode": "97310-308"
    },
    {
        "city": "São Gabriel",
        "state": "RS",
        "district": "São Bento",
        "street": "Rua Sebastião Menna Barreto",
        "zipcode": "97310-400"
    },
    {
        "city": "São Gabriel",
        "state": "RS",
        "district": "Leal",
        "street": "Rua Santa Margarida",
        "zipcode": "97310-530"
    },
    {
        "city": "São Gabriel",
        "state": "RS",
        "district": "Vila Trindade",
        "street": "Rua Telesflor Delolmo Ledesma",
        "zipcode": "97310-615"
    },
    {
        "city": "São Gabriel",
        "state": "RS",
        "district": "Vila Trindade",
        "street": "Rua Priamo Barros Maciel",
        "zipcode": "97310-618"
    },
    {
        "city": "São Gabriel",
        "state": "RS",
        "district": "Vila Trindade",
        "street": "Rua Sebastião Menna Barreto",
        "zipcode": "97310-627"
    },
    {
        "city": "São Gabriel",
        "state": "RS",
        "district": "Vargas",
        "street": "Rua Sebastião Menna Barreto",
        "zipcode": "97310-706"
    },
    {
        "city": "São Gabriel",
        "state": "RS",
        "district": "Cidade Nova",
        "street": "Rua Rosário do Sul",
        "zipcode": "97310-851"
    },
    {
        "city": "São Gabriel",
        "state": "RS",
        "district": "Esplanada",
        "street": "Rua Sônia da Costa Marchioro",
        "zipcode": "97311-078"
    },
    {
        "city": "São Gabriel",
        "state": "RS",
        "district": "Esplanada",
        "street": "Rua Oito",
        "zipcode": "97311-080"
    },
    {
        "city": "São Gabriel",
        "state": "RS",
        "district": "Mariana",
        "street": "Rua Professora Maria Dorotéia de Souza",
        "zipcode": "97313-008"
    },
    {
        "city": "São Gabriel",
        "state": "RS",
        "district": "Mariana",
        "street": "Travessa Chicoral",
        "zipcode": "97313-012"
    },
    {
        "city": "São Gabriel",
        "state": "RS",
        "district": "Vivenda",
        "street": "Rua Cândida Franco Brenner",
        "zipcode": "97310-314"
    },
    {
        "city": "São Gabriel",
        "state": "RS",
        "district": "Jardim das Hortênsias",
        "street": "Avenida Francisco Gonçalves Chagas",
        "zipcode": "97310-350"
    },
    {
        "city": "São Gabriel",
        "state": "RS",
        "district": "Jardim das Hortênsias",
        "street": "Rua Arthur Bettega",
        "zipcode": "97310-353"
    },
    {
        "city": "São Gabriel",
        "state": "RS",
        "district": "São Bento",
        "street": "Rua Antônio José Rodrigues",
        "zipcode": "97310-424"
    },
    {
        "city": "São Gabriel",
        "state": "RS",
        "district": "Leal",
        "street": "Rua João Antônio Moreira",
        "zipcode": "97310-460"
    },
    {
        "city": "São Gabriel",
        "state": "RS",
        "district": "Vila Trindade",
        "street": "Rua Jurema Barros Maciel",
        "zipcode": "97310-624"
    },
    {
        "city": "São Gabriel",
        "state": "RS",
        "district": "Vila Trindade",
        "street": "Rua Heleno Miranda da Silva",
        "zipcode": "97310-639"
    },
    {
        "city": "São Gabriel",
        "state": "RS",
        "district": "Vila Trindade",
        "street": "Rua João Freitas",
        "zipcode": "97310-645"
    },
    {
        "city": "São Gabriel",
        "state": "RS",
        "district": "Vargas",
        "street": "Rua Brandão Júnior",
        "zipcode": "97310-750"
    },
    {
        "city": "São Gabriel",
        "state": "RS",
        "district": "Vargas",
        "street": "Rua Alcides Maia",
        "zipcode": "97310-771"
    },
    {
        "city": "São Gabriel",
        "state": "RS",
        "district": "Vargas",
        "street": "Rua Mario de Lima Lucas",
        "zipcode": "97310-777"
    },
    {
        "city": "São Gabriel",
        "state": "RS",
        "district": "Cidade Nova",
        "street": "Avenida Francisco Gonçalves Chagas",
        "zipcode": "97310-800"
    },
    {
        "city": "São Gabriel",
        "state": "RS",
        "district": "Cidade Nova",
        "street": "Rua Mimosa Salgado",
        "zipcode": "97310-812"
    },
    {
        "city": "São Gabriel",
        "state": "RS",
        "district": "Cidade Nova",
        "street": "Rua Bagé",
        "zipcode": "97310-827"
    },
    {
        "city": "São Gabriel",
        "state": "RS",
        "district": "Cidade Nova",
        "street": "Rua Caçapava do Sul",
        "zipcode": "97310-845"
    },
    {
        "city": "São Gabriel",
        "state": "RS",
        "district": "Cidade Nova",
        "street": "Rua Lavras do Sul",
        "zipcode": "97310-848"
    },
    {
        "city": "São Gabriel",
        "state": "RS",
        "district": "Cidade Nova",
        "street": "Avenida Francisco Hermenegildo da Silva",
        "zipcode": "97310-857"
    },
    {
        "city": "São Gabriel",
        "state": "RS",
        "district": "Esplanada",
        "street": "Rua João Cabral",
        "zipcode": "97311-040"
    },
    {
        "city": "São Gabriel",
        "state": "RS",
        "district": "Esplanada",
        "street": "Rua Florício Salvadé",
        "zipcode": "97311-072"
    },
    {
        "city": "São Gabriel",
        "state": "RS",
        "district": "Esplanada",
        "street": "Rua João Miguel Abib",
        "zipcode": "97311-082"
    },
    {
        "city": "São Gabriel",
        "state": "RS",
        "district": "Novo Horizonte",
        "street": "Rua João Antônio Moreira",
        "zipcode": "97311-100"
    },
    {
        "city": "São Gabriel",
        "state": "RS",
        "district": "Vieira",
        "street": "Rua D (Lot Sta Casa)",
        "zipcode": "97311-254"
    },
    {
        "city": "São Gabriel",
        "state": "RS",
        "district": "Vieira",
        "street": "Rua G (Lot Sta Casa)",
        "zipcode": "97311-260"
    },
    {
        "city": "São Gabriel",
        "state": "RS",
        "district": "Vieira",
        "street": "Avenida do Cemitério",
        "zipcode": "97311-294"
    },
    {
        "city": "São Gabriel",
        "state": "RS",
        "district": "Vieira",
        "street": "Prolongamento da Francisco Hermenegildo da Silva",
        "zipcode": "97311-310"
    },
    {
        "city": "São Gabriel",
        "state": "RS",
        "district": "Vieira",
        "street": "Rua Anita Antunes Borges",
        "zipcode": "97311-336"
    },
    {
        "city": "São Gabriel",
        "state": "RS",
        "district": "Mariana",
        "street": "Avenida Francisco Hermenegildo da Silva",
        "zipcode": "97313-000"
    },
    {
        "city": "São Gabriel",
        "state": "RS",
        "district": "Mariana",
        "street": "Rua Inhatium",
        "zipcode": "97313-036"
    },
    {
        "city": "São Gabriel",
        "state": "RS",
        "district": "Mariana",
        "street": "Travessa Palmas",
        "zipcode": "97313-052"
    },
    {
        "city": "São Gabriel",
        "state": "RS",
        "district": "Mariana",
        "street": "Rua Batovi",
        "zipcode": "97313-068"
    },
    {
        "city": "São Gabriel",
        "state": "RS",
        "district": "Mariana",
        "street": "Rua Sepé Tiaraju",
        "zipcode": "97313-076"
    },
    {
        "city": "São Gabriel",
        "state": "RS",
        "district": "Jardim Primavera",
        "street": "Rua Eusébio Pascotin",
        "zipcode": "97313-112"
    },
    {
        "city": "São Gabriel",
        "state": "RS",
        "district": "Jardim Primavera",
        "street": "Travessa Antônio Pascotin",
        "zipcode": "97313-115"
    },
    {
        "city": "São Gabriel",
        "state": "RS",
        "district": "Jardim Primavera",
        "street": "Rua Doutor Leonidas Aveleda",
        "zipcode": "97313-142"
    },
    {
        "city": "São Gabriel",
        "state": "RS",
        "district": "Jardim Primavera",
        "street": "Rua Marilise Reis Dotto",
        "zipcode": "97313-148"
    },
    {
        "city": "São Gabriel",
        "state": "RS",
        "district": "Jardim Primavera",
        "street": "Rua Armindo Antônio Vargas",
        "zipcode": "97313-150"
    },
    {
        "city": "São Gabriel",
        "state": "RS",
        "district": "Independência",
        "street": "Rua Celso Schröder",
        "zipcode": "97313-238"
    },
    {
        "city": "São Gabriel",
        "state": "RS",
        "district": "Independência",
        "street": "Rua Joaquim Francisco de Assis Brasil",
        "zipcode": "97313-282"
    },
    {
        "city": "São Gabriel",
        "state": "RS",
        "district": "Independência",
        "street": "Rua Henrique Rocha",
        "zipcode": "97313-284"
    },
    {
        "city": "São Gabriel",
        "state": "RS",
        "district": "Independência",
        "street": "Rua Pernambuco",
        "zipcode": "97313-322"
    },
    {
        "city": "São Gabriel",
        "state": "RS",
        "district": "Independência",
        "street": "Rua Minas Gerais",
        "zipcode": "97313-328"
    },
    {
        "city": "São Gabriel",
        "state": "RS",
        "district": "Independência",
        "street": "Rua Amazonas",
        "zipcode": "97313-334"
    },
    {
        "city": "São Gabriel",
        "state": "RS",
        "district": "Independência",
        "street": "Rua Maranhão",
        "zipcode": "97313-336"
    },
    {
        "city": "São Gabriel",
        "state": "RS",
        "district": "Independência",
        "street": "Rua São Paulo",
        "zipcode": "97313-338"
    },
    {
        "city": "São Gabriel",
        "state": "RS",
        "district": "Independência",
        "street": "Rua Sergipe",
        "zipcode": "97313-346"
    },
    {
        "city": "São Gabriel",
        "state": "RS",
        "district": "Independência",
        "street": "Avenida Tiradentes",
        "zipcode": "97313-352"
    },
    {
        "city": "São Gabriel",
        "state": "RS",
        "district": "Independência",
        "street": "Rua São Paulo",
        "zipcode": "97313-358"
    },
    {
        "city": "São Gabriel",
        "state": "RS",
        "district": "Independência",
        "street": "Rua Bahia",
        "zipcode": "97313-360"
    },
    {
        "city": "São Gabriel",
        "state": "RS",
        "district": "Independência",
        "street": "Rua Paraná",
        "zipcode": "97313-392"
    },
    {
        "city": "São Gabriel",
        "state": "RS",
        "district": "Independência",
        "street": "Rua Sete de Setembro",
        "zipcode": "97313-398"
    },
    {
        "city": "São Gabriel",
        "state": "RS",
        "district": "Independência",
        "street": "Rua Nabor Theodoro Lemos",
        "zipcode": "97313-404"
    },
    {
        "city": "São Gabriel",
        "state": "RS",
        "district": "Independência",
        "street": "Rua Antônio Silvestre Gonçalves dos Santos",
        "zipcode": "97313-406"
    },
    {
        "city": "São Gabriel",
        "state": "RS",
        "district": "São Clemente",
        "street": "Rua Maurício Cardoso",
        "zipcode": "97314-004"
    },
    {
        "city": "São Gabriel",
        "state": "RS",
        "district": "São Clemente",
        "street": "Rua Nery Machado Bittencourt",
        "zipcode": "97314-050"
    },
    {
        "city": "São Gabriel",
        "state": "RS",
        "district": "São Clemente",
        "street": "Rua André Adolfo Silveira",
        "zipcode": "97314-060"
    },
    {
        "city": "São Gabriel",
        "state": "RS",
        "district": "São Clemente",
        "street": "Rua Egídio Brenner",
        "zipcode": "97314-062"
    },
    {
        "city": "São Gabriel",
        "state": "RS",
        "district": "São Clemente",
        "street": "Rua Abel Correa da Silva",
        "zipcode": "97314-084"
    },
    {
        "city": "São Gabriel",
        "state": "RS",
        "district": "3 de Outubro",
        "street": "Avenida Antônio Mercado",
        "zipcode": "97314-100"
    },
    {
        "city": "São Gabriel",
        "state": "RS",
        "district": "3 de Outubro",
        "street": "Rua José Assis Brasil",
        "zipcode": "97314-116"
    },
    {
        "city": "São Gabriel",
        "state": "RS",
        "district": "3 de Outubro",
        "street": "Rua Tobias Marques",
        "zipcode": "97314-158"
    },
    {
        "city": "São Gabriel",
        "state": "RS",
        "district": "São Gregório",
        "street": "Rua Alfredo Bento Pereira",
        "zipcode": "97314-256"
    },
    {
        "city": "São Gabriel",
        "state": "RS",
        "district": "São Gregório",
        "street": "Rua Aristo Machado",
        "zipcode": "97314-258"
    },
    {
        "city": "São Gabriel",
        "state": "RS",
        "district": "São Gregório",
        "street": "Travessa Heraldo Prates Bento Pereira",
        "zipcode": "97314-284"
    },
    {
        "city": "São Gabriel",
        "state": "RS",
        "district": "Medeiros",
        "street": "Rua Fernando Pereira Dorneles",
        "zipcode": "97314-309"
    },
    {
        "city": "São Gabriel",
        "state": "RS",
        "district": "Medeiros",
        "street": "Rua Octaviano Norberto",
        "zipcode": "97314-318"
    },
    {
        "city": "São Gabriel",
        "state": "RS",
        "district": "Medeiros",
        "street": "Rua Acioly Vaz de Andrade",
        "zipcode": "97314-333"
    },
    {
        "city": "São Gabriel",
        "state": "RS",
        "district": "Medeiros",
        "street": "Rua Iara Corrêa de Andrade",
        "zipcode": "97314-336"
    },
    {
        "city": "São Gabriel",
        "state": "RS",
        "district": "Andrade",
        "street": "Rua Doutor Bráulio dos Santos Alvarez",
        "zipcode": "97314-386"
    },
    {
        "city": "São Gabriel",
        "state": "RS",
        "district": "Andrade",
        "street": "Rua Luiz Gonzaga de Campos Garcia",
        "zipcode": "97314-394"
    },
    {
        "city": "São Gabriel",
        "state": "RS",
        "district": "Andrade",
        "street": "Rua Antão Vergílio Xisto",
        "zipcode": "97314-402"
    },
    {
        "city": "São Gabriel",
        "state": "RS",
        "district": "Andrade",
        "street": "Avenida Antônio Mercado",
        "zipcode": "97314-454"
    },
    {
        "city": "São Gabriel",
        "state": "RS",
        "district": "Menino Jesus",
        "street": "Rua Vinte e Quatro de Maio",
        "zipcode": "97314-506"
    },
    {
        "city": "São Gabriel",
        "state": "RS",
        "district": "Menino Jesus",
        "street": "Rua Dezesseis de Novembro",
        "zipcode": "97314-520"
    },
    {
        "city": "São Gabriel",
        "state": "RS",
        "district": "Menino Jesus",
        "street": "Rua Vinte e Cinco de Agosto",
        "zipcode": "97314-522"
    },
    {
        "city": "São Gabriel",
        "state": "RS",
        "district": "Jardim Primavera",
        "street": "Rua Amália Pascotin",
        "zipcode": "97313-109"
    },
    {
        "city": "São Gabriel",
        "state": "RS",
        "district": "Menino Jesus",
        "street": "Rua Primeiro de Janeiro",
        "zipcode": "97314-524"
    },
    {
        "city": "São Gabriel",
        "state": "RS",
        "district": "Menino Jesus",
        "street": "Rua Sete (Lot Beira Rio)",
        "zipcode": "97314-558"
    },
    {
        "city": "São Gabriel",
        "state": "RS",
        "district": "Menino Jesus",
        "street": "Rua Oito (Lot Beira Rio)",
        "zipcode": "97314-560"
    },
    {
        "city": "São Gabriel",
        "state": "RS",
        "district": "Menino Jesus",
        "street": "Rua Seis (Lot Beira Rio)",
        "zipcode": "97314-564"
    },
    {
        "city": "São Gabriel",
        "state": "RS",
        "district": "Menino Jesus",
        "street": "Rua Érico Barbosa de Godoy",
        "zipcode": "97314-570"
    },
    {
        "city": "São Gabriel",
        "state": "RS",
        "district": null,
        "street": "Rua Miguel Santana",
        "zipcode": "97300-991"
    },
    {
        "city": "São Gabriel",
        "state": "RS",
        "district": "",
        "street": "",
        "zipcode": "97300-000"
    },
    {
        "city": "São Gabriel",
        "state": "RS",
        "district": "Centro",
        "street": "Rua Maurício Cardoso",
        "zipcode": "97300-971"
    },
    {
        "city": "São Gabriel",
        "state": "RS",
        "district": "Independência",
        "street": "Rua Pará",
        "zipcode": "97313-394"
    },
    {
        "city": "São Gabriel",
        "state": "RS",
        "district": "São Clemente",
        "street": "Rua Carlos Pereira",
        "zipcode": "97314-058"
    },
    {
        "city": "São Gabriel",
        "state": "RS",
        "district": "Centro",
        "street": "Avenida General Marques",
        "zipcode": "97300-030"
    },
    {
        "city": "São Gabriel",
        "state": "RS",
        "district": "Centro",
        "street": "Rua Angelino Capiotti",
        "zipcode": "97300-148"
    },
    {
        "city": "São Gabriel",
        "state": "RS",
        "district": "Centro",
        "street": "Avenida Antônio Trilha",
        "zipcode": "97300-162"
    },
    {
        "city": "São Gabriel",
        "state": "RS",
        "district": "Centro",
        "street": "Avenida General Marques",
        "zipcode": "97300-244"
    },
    {
        "city": "São Gabriel",
        "state": "RS",
        "district": "Bela Vista",
        "street": "Corredor João Batista Moreira",
        "zipcode": "97304-424"
    },
    {
        "city": "São Gabriel",
        "state": "RS",
        "district": "Santo Antônio",
        "street": "Corredor da Figueira",
        "zipcode": "97310-079"
    },
    {
        "city": "São Gabriel",
        "state": "RS",
        "district": "São Bento",
        "street": "Avenida Presidente Juscelino Kubitschek",
        "zipcode": "97310-408"
    },
    {
        "city": "São Gabriel",
        "state": "RS",
        "district": "Centro",
        "street": "Rua Djalma Gomes da Silveira",
        "zipcode": "97300-018"
    },
    {
        "city": "São Gabriel",
        "state": "RS",
        "district": "Centro",
        "street": "Rua Contabilista Fernando Correia",
        "zipcode": "97300-130"
    },
    {
        "city": "São Gabriel",
        "state": "RS",
        "district": "Vila Maria",
        "street": "Rua Edmundo Berchon",
        "zipcode": "97300-532"
    },
    {
        "city": "São Gabriel",
        "state": "RS",
        "district": "Gabrielense",
        "street": "Rua Aristóteles Vaz de Carvalho e Silva",
        "zipcode": "97306-012"
    },
    {
        "city": "São Gabriel",
        "state": "RS",
        "district": "Élbio Vieira Vargas",
        "street": "Rua Aristóteles Vaz de Carvalho e Silva",
        "zipcode": "97306-404"
    },
    {
        "city": "São Gabriel",
        "state": "RS",
        "district": "Centro",
        "street": "Rua Maurício Cardoso",
        "zipcode": "97300-062"
    },
    {
        "city": "São Gabriel",
        "state": "RS",
        "district": "Centro",
        "street": "Rua Mascaranhas de Moraes",
        "zipcode": "97300-066"
    },
    {
        "city": "São Gabriel",
        "state": "RS",
        "district": "Centro",
        "street": "Rua Mascaranhas de Moraes",
        "zipcode": "97300-240"
    },
    {
        "city": "São Gabriel",
        "state": "RS",
        "district": "Centro",
        "street": "Rua General Câmara",
        "zipcode": "97300-444"
    },
    {
        "city": "São Gabriel",
        "state": "RS",
        "district": "Vila Maria",
        "street": "Rua General Câmara",
        "zipcode": "97300-610"
    },
    {
        "city": "São Gabriel",
        "state": "RS",
        "district": "Bela Vista",
        "street": "Rua João Batista Moreira",
        "zipcode": "97304-420"
    },
    {
        "city": "São Gabriel",
        "state": "RS",
        "district": "Centro",
        "street": "Travessa Ferroviário",
        "zipcode": "97300-086"
    },
    {
        "city": "São Gabriel",
        "state": "RS",
        "district": "Élbio Vieira Vargas",
        "street": "Rua Santa Rita de Cássia",
        "zipcode": "97306-302"
    },
    {
        "city": "São Gabriel",
        "state": "RS",
        "district": "Vila Trindade",
        "street": "Rua Santa Margarida",
        "zipcode": "97310-621"
    },
    {
        "city": "São Gabriel",
        "state": "RS",
        "district": "Baltar",
        "street": "Rua Plácido de Castro",
        "zipcode": "97300-800"
    },
    {
        "city": "São Gabriel",
        "state": "RS",
        "district": "Vivenda",
        "street": "Rua Homero Valério da Costa Saporiti",
        "zipcode": "97310-320"
    },
    {
        "city": "São Gabriel",
        "state": "RS",
        "district": "Jardim Primavera",
        "street": "Rua Antônio Pascotin",
        "zipcode": "97313-100"
    },
    {
        "city": "São Gabriel",
        "state": "RS",
        "district": "Independência",
        "street": "Avenida Francisco Gonçalves Chagas",
        "zipcode": "97313-270"
    },
    {
        "city": "São Gabriel",
        "state": "RS",
        "district": "São Clemente",
        "street": "Rua Joaquim Francisco de Assis Brasil",
        "zipcode": "97314-000"
    },
    {
        "city": "São Gabriel",
        "state": "RS",
        "district": "São Gregório",
        "street": "Rua Nery Machado Bittencourt",
        "zipcode": "97314-252"
    },
    {
        "city": "São Gabriel",
        "state": "RS",
        "district": "Andrade",
        "street": "Rua Octaviano Norberto",
        "zipcode": "97314-366"
    },
    {
        "city": "São Gabriel",
        "state": "RS",
        "district": "Bomfim",
        "street": "Rua João Antônio Veiga",
        "zipcode": "97301-140"
    },
    {
        "city": "São Gabriel",
        "state": "RS",
        "district": "Menino Jesus",
        "street": "Prolongamento da Primeiro de Janeiro",
        "zipcode": "97314-528"
    },
    {
        "city": "São Gabriel",
        "state": "RS",
        "district": "Andrade",
        "street": "Rua Octaviano Norberto",
        "zipcode": "97314-362"
    },
    {
        "city": "São Gabriel",
        "state": "RS",
        "district": "Jardim Primavera",
        "street": "Rua Rafael Pascotin",
        "zipcode": "97313-103"
    },
    {
        "city": "São Gabriel",
        "state": "RS",
        "district": "Santa Isabel",
        "street": "Rua Alcides Macedo",
        "zipcode": "97304-500"
    },
    {
        "city": "São Gabriel",
        "state": "RS",
        "district": "Centro",
        "street": "Praça Tunuca Silveira",
        "zipcode": "97300-074"
    },
    {
        "city": "São Gabriel",
        "state": "RS",
        "district": "Universitário",
        "street": "Rua M",
        "zipcode": "97306-826"
    },
    {
        "city": "São Gabriel",
        "state": "RS",
        "district": "Baltar",
        "street": "Rua Bento Martins",
        "zipcode": "97300-772"
    },
    {
        "city": "São Gabriel",
        "state": "RS",
        "district": "Baltar",
        "street": "Rua Adão Sidnei Siqueira de Oliveira",
        "zipcode": "97300-728"
    }
]