[
    {
        "city": "São Sebastião do Caí",
        "state": "RS",
        "district": "",
        "street": "",
        "zipcode": "95760-000"
    },
    {
        "city": "São Sebastião do Caí",
        "state": "RS",
        "district": null,
        "street": "Rua Nelson Holf",
        "zipcode": "95760-990"
    },
    {
        "city": "São Sebastião do Caí",
        "state": "RS",
        "district": null,
        "street": "Estrada da Tafona",
        "zipcode": "95760-996"
    },
    {
        "city": "São Sebastião do Caí",
        "state": "RS",
        "district": null,
        "street": "RS",
        "zipcode": "95760-994"
    },
    {
        "city": "São Sebastião do Caí",
        "state": "RS",
        "district": null,
        "street": "Rua da Vigia",
        "zipcode": "95760-992"
    },
    {
        "city": "São Sebastião do Caí",
        "state": "RS",
        "district": "",
        "street": "Estrada Geral Caí",
        "zipcode": "95760-997"
    },
    {
        "city": "São Sebastião do Caí",
        "state": "RS",
        "district": "Centro",
        "street": "Rua Tiradentes 843 Loja 02",
        "zipcode": "95760-970"
    },
    {
        "city": "São Sebastião do Caí",
        "state": "RS",
        "district": null,
        "street": "Rua Principal",
        "zipcode": "95760-995"
    }
]