[
    {
        "city": "Sao Leopoldo",
        "state": "RS",
        "district": "Feitoria",
        "street": "Rua Gilberto Galhardo",
        "zipcode": "93050-275"
    },
    {
        "city": "Sao Leopoldo",
        "state": "RS",
        "district": "Feitoria",
        "street": "Rua Rio Sao Mateus",
        "zipcode": "93145-610"
    },
    {
        "city": "Sao Leopoldo",
        "state": "RS",
        "district": "Feitoria",
        "street": "Rua Carlos Frederico Kemmer",
        "zipcode": "93050-250"
    },
    {
        "city": "Sao Leopoldo",
        "state": "RS",
        "district": "Feitoria",
        "street": "Rua Jose Schumacher",
        "zipcode": "93050-285"
    },
    {
        "city": "Sao Leopoldo",
        "state": "RS",
        "district": "Feitoria",
        "street": "Rua Lafayete R. Pinto",
        "zipcode": "93050-260"
    },
    {
        "city": "Sao Leopoldo",
        "state": "RS",
        "district": "Feitoria",
        "street": "Rua Eduardo Samara",
        "zipcode": "93050-270"
    },
    {
        "city": "Sao Leopoldo",
        "state": "RS",
        "district": "Feitoria",
        "street": "Rua Marisa Faller",
        "zipcode": "93052-680"
    },
    {
        "city": "Sao Leopoldo",
        "state": "RS",
        "district": "Duque De Caxias",
        "street": "Rua E (Jd Imigrante)",
        "zipcode": "93035-490"
    },
    {
        "city": "Sao Leopoldo",
        "state": "RS",
        "district": "Pinheiro",
        "street": "Avenida Alta Tensao",
        "zipcode": "93042-280"
    }
]