[
    {
        "city": "Sapucaia do Sul",
        "state": "RS",
        "district": "Ipiranga",
        "street": "Rua Tenente Portela",
        "zipcode": "93230-432"
    },
    {
        "city": "Sapucaia do Sul",
        "state": "RS",
        "district": "Jardim",
        "street": "Passeio São João Bosco",
        "zipcode": "93220-780"
    },
    {
        "city": "Sapucaia do Sul",
        "state": "RS",
        "district": "Pasqualini",
        "street": "Rua Avaí",
        "zipcode": "93224-612"
    },
    {
        "city": "Sapucaia do Sul",
        "state": "RS",
        "district": "Vargas",
        "street": "Rua Rouxinol",
        "zipcode": "93222-724"
    },
    {
        "city": "Sapucaia do Sul",
        "state": "RS",
        "district": "Vargas",
        "street": "Rua Pintassilgo",
        "zipcode": "93222-722"
    },
    {
        "city": "Sapucaia do Sul",
        "state": "RS",
        "district": "Pasqualini",
        "street": "Rua Jari",
        "zipcode": "93224-669"
    },
    {
        "city": "Sapucaia do Sul",
        "state": "RS",
        "district": "Vargas",
        "street": "Rua da Saíra",
        "zipcode": "93222-762"
    },
    {
        "city": "Sapucaia do Sul",
        "state": "RS",
        "district": "Costa do Morro",
        "street": "Rua das Dálias (Lot N Horizonte)",
        "zipcode": "93234-090"
    },
    {
        "city": "Sapucaia do Sul",
        "state": "RS",
        "district": "Costa do Morro",
        "street": "Rua das Mãos Dadas (Lot N Horizonte)",
        "zipcode": "93234-076"
    },
    {
        "city": "Sapucaia do Sul",
        "state": "RS",
        "district": "Ipiranga",
        "street": "Rua Ivo Mário dos Santos Mensch (Lot Rec Rosas)",
        "zipcode": "93230-525"
    },
    {
        "city": "Sapucaia do Sul",
        "state": "RS",
        "district": "Jardim",
        "street": "Beco Pedro Porfirio de Souza",
        "zipcode": "93220-016"
    },
    {
        "city": "Sapucaia do Sul",
        "state": "RS",
        "district": "Vargas",
        "street": "Rua Bela Vista",
        "zipcode": "93222-830"
    },
    {
        "city": "Sapucaia do Sul",
        "state": "RS",
        "district": "Pasqualini",
        "street": "Travessa Sossego",
        "zipcode": "93224-572"
    },
    {
        "city": "Sapucaia do Sul",
        "state": "RS",
        "district": "Lomba da Palmeira",
        "street": "Rua Gonçalino Lucas",
        "zipcode": "93225-300"
    },
    {
        "city": "Sapucaia do Sul",
        "state": "RS",
        "district": "Vargas",
        "street": "Rua Cuiabá",
        "zipcode": "93219-080"
    },
    {
        "city": "Sapucaia do Sul",
        "state": "RS",
        "district": "Lomba da Palmeira",
        "street": "Rua Rio Solimões",
        "zipcode": "93225-406"
    },
    {
        "city": "Sapucaia do Sul",
        "state": "RS",
        "district": "Vargas",
        "street": "Rua Paraíba",
        "zipcode": "93222-629"
    },
    {
        "city": "Sapucaia do Sul",
        "state": "RS",
        "district": "Centro",
        "street": "Travessa Mauá",
        "zipcode": "93214-543"
    },
    {
        "city": "Sapucaia do Sul",
        "state": "RS",
        "district": "Sete",
        "street": "Travessa da Figueira",
        "zipcode": "93224-566"
    },
    {
        "city": "Sapucaia do Sul",
        "state": "RS",
        "district": "Nova Sapucaia",
        "street": "Avenida Coronel Theodomiro Porto da Fonseca",
        "zipcode": "93226-343"
    },
    {
        "city": "Sapucaia do Sul",
        "state": "RS",
        "district": "Jardim",
        "street": "Travessa Avelino Silveira",
        "zipcode": "93222-010"
    },
    {
        "city": "Sapucaia do Sul",
        "state": "RS",
        "district": "Nova Sapucaia",
        "street": "Rua Brasiliêncio Rodrigues da Silva",
        "zipcode": "93230-100"
    },
    {
        "city": "Sapucaia do Sul",
        "state": "RS",
        "district": "Nova Sapucaia",
        "street": "Rua Dorival de Mattos",
        "zipcode": "93228-000"
    },
    {
        "city": "Sapucaia do Sul",
        "state": "RS",
        "district": "Pasqualini",
        "street": "Rua Francisco Montana",
        "zipcode": "93224-090"
    },
    {
        "city": "Sapucaia do Sul",
        "state": "RS",
        "district": "Centro",
        "street": "Avenida João Pereira de Vargas",
        "zipcode": "93220-190"
    },
    {
        "city": "Sapucaia do Sul",
        "state": "RS",
        "district": "Capão da Cruz",
        "street": "Rua Líbero Badaró",
        "zipcode": "93224-180"
    },
    {
        "city": "Sapucaia do Sul",
        "state": "RS",
        "district": "Centro",
        "street": "Rua Maceió",
        "zipcode": "93218-230"
    },
    {
        "city": "Sapucaia do Sul",
        "state": "RS",
        "district": "Capão da Cruz",
        "street": "Rua Otília Silveira Camboim",
        "zipcode": "93226-170"
    },
    {
        "city": "Sapucaia do Sul",
        "state": "RS",
        "district": "Walderez",
        "street": "Rua Santo Onofre",
        "zipcode": "93226-510"
    },
    {
        "city": "Sapucaia do Sul",
        "state": "RS",
        "district": "São José",
        "street": "Elevada Theodolino Paim Dutra",
        "zipcode": "93218-440"
    },
    {
        "city": "Sapucaia do Sul",
        "state": "RS",
        "district": "Vargas",
        "street": "Rua Visconde de Cairu",
        "zipcode": "93222-250"
    },
    {
        "city": "Sapucaia do Sul",
        "state": "RS",
        "district": "Centro",
        "street": "Rua Pinto Bandeira",
        "zipcode": "93220-320"
    },
    {
        "city": "Sapucaia do Sul",
        "state": "RS",
        "district": "Walderez",
        "street": "Rua Vereador Carlos Ely Bilhão",
        "zipcode": "93226-502"
    },
    {
        "city": "Sapucaia do Sul",
        "state": "RS",
        "district": "Santa Catarina",
        "street": "Avenida Acoriana",
        "zipcode": "93218-000"
    },
    {
        "city": "Sapucaia do Sul",
        "state": "RS",
        "district": "COHAB",
        "street": "Avenida Alfredo Scharlau",
        "zipcode": "93212-480"
    },
    {
        "city": "Sapucaia do Sul",
        "state": "RS",
        "district": "Piratini",
        "street": "Travessa Almirante Barroso",
        "zipcode": "93216-020"
    },
    {
        "city": "Sapucaia do Sul",
        "state": "RS",
        "district": "Piratini",
        "street": "Rua Anita Garibaldi",
        "zipcode": "93216-030"
    },
    {
        "city": "Sapucaia do Sul",
        "state": "RS",
        "district": "Piratini",
        "street": "Travessa Antilhas",
        "zipcode": "93216-040"
    },
    {
        "city": "Sapucaia do Sul",
        "state": "RS",
        "district": "Piratini",
        "street": "Rua Aristides Timotheo da Costa",
        "zipcode": "93216-080"
    },
    {
        "city": "Sapucaia do Sul",
        "state": "RS",
        "district": "Santa Catarina",
        "street": "Rua Barão do Rio Branco",
        "zipcode": "93214-340"
    },
    {
        "city": "Sapucaia do Sul",
        "state": "RS",
        "district": "Piratini",
        "street": "Travessa Bororós",
        "zipcode": "93214-350"
    },
    {
        "city": "Sapucaia do Sul",
        "state": "RS",
        "district": "Capão da Cruz",
        "street": "Avenida Coronel Theodomiro Porto da Fonseca",
        "zipcode": "93230-440"
    },
    {
        "city": "Sapucaia do Sul",
        "state": "RS",
        "district": "Centro",
        "street": "Passeio Vista Alegre",
        "zipcode": "93220-440"
    },
    {
        "city": "Sapucaia do Sul",
        "state": "RS",
        "district": "São Jorge",
        "street": "Rua Gomercindo G. Cardoso",
        "zipcode": "93212-240"
    },
    {
        "city": "Sapucaia do Sul",
        "state": "RS",
        "district": "Costa do Morro",
        "street": "Rua Vitor Hugo (Lot N Horizonte)",
        "zipcode": "93234-070"
    },
    {
        "city": "Sapucaia do Sul",
        "state": "RS",
        "district": "Vargas",
        "street": "Rua Naziazeno",
        "zipcode": "93222-834"
    },
    {
        "city": "Sapucaia do Sul",
        "state": "RS",
        "district": "Zoológico",
        "street": "Travessa Santa Cruz",
        "zipcode": "93211-714"
    },
    {
        "city": "Sapucaia do Sul",
        "state": "RS",
        "district": "Sete",
        "street": "Beco Pedro Martins",
        "zipcode": "93220-155"
    },
    {
        "city": "Sapucaia do Sul",
        "state": "RS",
        "district": "Pasqualini",
        "street": "Rua Dona Ernestina",
        "zipcode": "93224-498"
    },
    {
        "city": "Sapucaia do Sul",
        "state": "RS",
        "district": "Ipiranga",
        "street": "Rua José Nunes",
        "zipcode": "93230-438"
    },
    {
        "city": "Sapucaia do Sul",
        "state": "RS",
        "district": "Vargas",
        "street": "Rua Caçapava",
        "zipcode": "93222-470"
    },
    {
        "city": "Sapucaia do Sul",
        "state": "RS",
        "district": "Dihel",
        "street": "Rua do Passeio",
        "zipcode": "93214-250"
    },
    {
        "city": "Sapucaia do Sul",
        "state": "RS",
        "district": "Boa Vista",
        "street": "Rua Erna Faber Becker",
        "zipcode": "93230-718"
    },
    {
        "city": "Sapucaia do Sul",
        "state": "RS",
        "district": "COHAB",
        "street": "Avenida Copacabana",
        "zipcode": "93216-120"
    },
    {
        "city": "Sapucaia do Sul",
        "state": "RS",
        "district": "Piratini",
        "street": "Rua Cristóvão Colombo",
        "zipcode": "93216-130"
    },
    {
        "city": "Sapucaia do Sul",
        "state": "RS",
        "district": "COHAB",
        "street": "Rua Darcy Stroher",
        "zipcode": "93216-150"
    },
    {
        "city": "Sapucaia do Sul",
        "state": "RS",
        "district": "COHAB",
        "street": "Rua David Machado",
        "zipcode": "93212-540"
    },
    {
        "city": "Sapucaia do Sul",
        "state": "RS",
        "district": "Santa Catarina",
        "street": "Rua Dona Inês",
        "zipcode": "93214-380"
    },
    {
        "city": "Sapucaia do Sul",
        "state": "RS",
        "district": "COHAB",
        "street": "Rua Doralino de Oliveira",
        "zipcode": "93212-550"
    },
    {
        "city": "Sapucaia do Sul",
        "state": "RS",
        "district": "COHAB",
        "street": "Rua Fernando Higino de Oliveira",
        "zipcode": "93216-220"
    },
    {
        "city": "Sapucaia do Sul",
        "state": "RS",
        "district": "Piratini",
        "street": "Travessa Goitacas",
        "zipcode": "93214-420"
    },
    {
        "city": "Sapucaia do Sul",
        "state": "RS",
        "district": "Boa Vista",
        "street": "Rua Ermelino Thomasia",
        "zipcode": "93230-722"
    },
    {
        "city": "Sapucaia do Sul",
        "state": "RS",
        "district": "Jardim",
        "street": "Rua Fredolino Francisco",
        "zipcode": "93220-042"
    },
    {
        "city": "Sapucaia do Sul",
        "state": "RS",
        "district": "Vargas",
        "street": "Travessa Santa Madalena",
        "zipcode": "93222-140"
    },
    {
        "city": "Sapucaia do Sul",
        "state": "RS",
        "district": "Santa Catarina",
        "street": "Rua Guerreiro Lima",
        "zipcode": "93214-430"
    },
    {
        "city": "Sapucaia do Sul",
        "state": "RS",
        "district": "Três Portos",
        "street": "Rua Ijuí",
        "zipcode": "93212-560"
    },
    {
        "city": "Sapucaia do Sul",
        "state": "RS",
        "district": "Santa Catarina",
        "street": "Rua Independência",
        "zipcode": "93214-440"
    },
    {
        "city": "Sapucaia do Sul",
        "state": "RS",
        "district": "Vargas",
        "street": "Rua João Guedes Filho",
        "zipcode": "93222-647"
    },
    {
        "city": "Sapucaia do Sul",
        "state": "RS",
        "district": "Vargas",
        "street": "Rua Terezina",
        "zipcode": "93219-086"
    },
    {
        "city": "Sapucaia do Sul",
        "state": "RS",
        "district": "Centro",
        "street": "Rua Nossa Senhora das Graças",
        "zipcode": "93220-971"
    },
    {
        "city": "Sapucaia do Sul",
        "state": "RS",
        "district": "Centro",
        "street": "Rua Ipiranga",
        "zipcode": "93214-450"
    },
    {
        "city": "Sapucaia do Sul",
        "state": "RS",
        "district": "Três Portos",
        "street": "Rua João Olímpio da Silveira",
        "zipcode": "93212-590"
    },
    {
        "city": "Sapucaia do Sul",
        "state": "RS",
        "district": "Horto Florestal",
        "street": "Rua Lima e Silva",
        "zipcode": "93212-600"
    },
    {
        "city": "Sapucaia do Sul",
        "state": "RS",
        "district": "COHAB",
        "street": "Rua Monteiro Lobato",
        "zipcode": "93212-620"
    },
    {
        "city": "Sapucaia do Sul",
        "state": "RS",
        "district": "Fortuna",
        "street": "Rua Panambi",
        "zipcode": "93212-650"
    },
    {
        "city": "Sapucaia do Sul",
        "state": "RS",
        "district": "Dihel",
        "street": "Rua Pelotas",
        "zipcode": "93214-270"
    },
    {
        "city": "Sapucaia do Sul",
        "state": "RS",
        "district": "Centro",
        "street": "Travessa Piratini",
        "zipcode": "93214-510"
    },
    {
        "city": "Sapucaia do Sul",
        "state": "RS",
        "district": "Vacchi",
        "street": "Rua Primo Vacchi",
        "zipcode": "93214-290"
    },
    {
        "city": "Sapucaia do Sul",
        "state": "RS",
        "district": "Dihel",
        "street": "Rua Rio Grande",
        "zipcode": "93210-200"
    },
    {
        "city": "Sapucaia do Sul",
        "state": "RS",
        "district": "COHAB",
        "street": "Rua Rodolfo Hickmann",
        "zipcode": "93212-400"
    },
    {
        "city": "Sapucaia do Sul",
        "state": "RS",
        "district": "Centro",
        "street": "Rua Rui Barbosa",
        "zipcode": "93214-540"
    },
    {
        "city": "Sapucaia do Sul",
        "state": "RS",
        "district": "Fortuna",
        "street": "Avenida Sebastião Faut",
        "zipcode": "93212-420"
    },
    {
        "city": "Sapucaia do Sul",
        "state": "RS",
        "district": "Santa Catarina",
        "street": "Rua Sete de Setembro",
        "zipcode": "93214-560"
    },
    {
        "city": "Sapucaia do Sul",
        "state": "RS",
        "district": "Piratini",
        "street": "Rua Sílvio Sanson",
        "zipcode": "93214-570"
    },
    {
        "city": "Sapucaia do Sul",
        "state": "RS",
        "district": "Centro",
        "street": "Rua Theófilo Souto Maior",
        "zipcode": "93214-580"
    },
    {
        "city": "Sapucaia do Sul",
        "state": "RS",
        "district": "Horto Florestal",
        "street": "Rua Tocantins",
        "zipcode": "93212-680"
    },
    {
        "city": "Sapucaia do Sul",
        "state": "RS",
        "district": "Fortuna",
        "street": "Rua Tupanciretã",
        "zipcode": "93212-450"
    },
    {
        "city": "Sapucaia do Sul",
        "state": "RS",
        "district": "Fortuna",
        "street": "Rua Veranópolis",
        "zipcode": "93212-460"
    },
    {
        "city": "Sapucaia do Sul",
        "state": "RS",
        "district": "COHAB",
        "street": "Rua Antônio Pavani",
        "zipcode": "93216-070"
    },
    {
        "city": "Sapucaia do Sul",
        "state": "RS",
        "district": "Três Portos",
        "street": "Rua Iraí",
        "zipcode": "93212-570"
    },
    {
        "city": "Sapucaia do Sul",
        "state": "RS",
        "district": "COHAB",
        "street": "Rua Nelson Mattos",
        "zipcode": "93212-630"
    },
    {
        "city": "Sapucaia do Sul",
        "state": "RS",
        "district": "Piratini",
        "street": "Rua Edgar Gerhke",
        "zipcode": "93216-180"
    },
    {
        "city": "Sapucaia do Sul",
        "state": "RS",
        "district": "COHAB",
        "street": "Rua Arlindo Baierle",
        "zipcode": "93212-500"
    },
    {
        "city": "Sapucaia do Sul",
        "state": "RS",
        "district": "Silva",
        "street": "Travessa Serafim José de Andrade",
        "zipcode": "93214-310"
    },
    {
        "city": "Sapucaia do Sul",
        "state": "RS",
        "district": "São José",
        "street": "Travessa da Alegria",
        "zipcode": "93218-020"
    },
    {
        "city": "Sapucaia do Sul",
        "state": "RS",
        "district": "Dihel",
        "street": "Rua Amapá",
        "zipcode": "93210-040"
    },
    {
        "city": "Sapucaia do Sul",
        "state": "RS",
        "district": "Centro",
        "street": "Rua Aracaju",
        "zipcode": "93218-040"
    },
    {
        "city": "Sapucaia do Sul",
        "state": "RS",
        "district": "Getúlio Vargas",
        "street": "Rua Araújo Lima",
        "zipcode": "93210-050"
    },
    {
        "city": "Sapucaia do Sul",
        "state": "RS",
        "district": "Três Portos",
        "street": "Rodovia BR",
        "zipcode": "93212-220"
    },
    {
        "city": "Sapucaia do Sul",
        "state": "RS",
        "district": "Freitas",
        "street": "Rua Capitão Raimundo",
        "zipcode": "93218-060"
    },
    {
        "city": "Sapucaia do Sul",
        "state": "RS",
        "district": "Dihel",
        "street": "Rua Delfim Moreira",
        "zipcode": "93210-070"
    },
    {
        "city": "Sapucaia do Sul",
        "state": "RS",
        "district": "Getúlio Vargas",
        "street": "Rua Diogo Feijó",
        "zipcode": "93210-080"
    },
    {
        "city": "Sapucaia do Sul",
        "state": "RS",
        "district": "Freitas",
        "street": "Rua Dona Antônia",
        "zipcode": "93218-090"
    },
    {
        "city": "Sapucaia do Sul",
        "state": "RS",
        "district": "Freitas",
        "street": "Rua Doutor Amado",
        "zipcode": "93218-120"
    },
    {
        "city": "Sapucaia do Sul",
        "state": "RS",
        "district": "Dihel",
        "street": "Travessa Doutor Mário Sperb",
        "zipcode": "93210-110"
    },
    {
        "city": "Sapucaia do Sul",
        "state": "RS",
        "district": "São José",
        "street": "Rua Emília Silva",
        "zipcode": "93218-160"
    },
    {
        "city": "Sapucaia do Sul",
        "state": "RS",
        "district": "Silva",
        "street": "Rua Estácio de Sá",
        "zipcode": "93210-120"
    },
    {
        "city": "Sapucaia do Sul",
        "state": "RS",
        "district": "Fortuna",
        "street": "Rua Formigueiro",
        "zipcode": "93212-210"
    },
    {
        "city": "Sapucaia do Sul",
        "state": "RS",
        "district": "Centro",
        "street": "Rua Vitalino Batista de Andrade",
        "zipcode": "93214-590"
    },
    {
        "city": "Sapucaia do Sul",
        "state": "RS",
        "district": "Santa Catarina",
        "street": "Praça João Pessoa",
        "zipcode": "93214-480"
    },
    {
        "city": "Sapucaia do Sul",
        "state": "RS",
        "district": "Centro",
        "street": "Passeio Ipê",
        "zipcode": "93220-160"
    },
    {
        "city": "Sapucaia do Sul",
        "state": "RS",
        "district": "Getúlio Vargas",
        "street": "Rua Governador Palheta",
        "zipcode": "93210-130"
    },
    {
        "city": "Sapucaia do Sul",
        "state": "RS",
        "district": "Fortuna",
        "street": "Rua Guilhermino Dias",
        "zipcode": "93212-250"
    },
    {
        "city": "Sapucaia do Sul",
        "state": "RS",
        "district": "Colonial",
        "street": "Rua Impel",
        "zipcode": "93212-280"
    },
    {
        "city": "Sapucaia do Sul",
        "state": "RS",
        "district": "COHAB",
        "street": "Rua João Pedro da Silva",
        "zipcode": "93212-290"
    },
    {
        "city": "Sapucaia do Sul",
        "state": "RS",
        "district": "São Jorge",
        "street": "Rua João Teixeira da Silva",
        "zipcode": "93212-300"
    },
    {
        "city": "Sapucaia do Sul",
        "state": "RS",
        "district": "São José",
        "street": "Rua Jorge Lacerda",
        "zipcode": "93218-200"
    },
    {
        "city": "Sapucaia do Sul",
        "state": "RS",
        "district": "Fortuna",
        "street": "Avenida Juvêncio Fragoso",
        "zipcode": "93212-310"
    },
    {
        "city": "Sapucaia do Sul",
        "state": "RS",
        "district": "Colonial",
        "street": "Rua Kurashiki",
        "zipcode": "93212-320"
    },
    {
        "city": "Sapucaia do Sul",
        "state": "RS",
        "district": "Santa Catarina",
        "street": "Praça João Freitas Filho",
        "zipcode": "93214-470"
    },
    {
        "city": "Sapucaia do Sul",
        "state": "RS",
        "district": "Horto Florestal",
        "street": "Rua da Lapa",
        "zipcode": "93212-340"
    },
    {
        "city": "Sapucaia do Sul",
        "state": "RS",
        "district": "Vacchi",
        "street": "Rua Machado de Assis",
        "zipcode": "93214-190"
    },
    {
        "city": "Sapucaia do Sul",
        "state": "RS",
        "district": "Zoológico",
        "street": "Rua Barros Cassal",
        "zipcode": "93211-704"
    },
    {
        "city": "Sapucaia do Sul",
        "state": "RS",
        "district": "Zoológico",
        "street": "Rua das Bananeiras",
        "zipcode": "93211-708"
    },
    {
        "city": "Sapucaia do Sul",
        "state": "RS",
        "district": "Zoológico",
        "street": "Rua Soledade",
        "zipcode": "93211-718"
    },
    {
        "city": "Sapucaia do Sul",
        "state": "RS",
        "district": "São José",
        "street": "Rua Marcílio Dias",
        "zipcode": "93218-260"
    },
    {
        "city": "Sapucaia do Sul",
        "state": "RS",
        "district": "Colonial",
        "street": "Rua Marcolino Flores",
        "zipcode": "93212-370"
    },
    {
        "city": "Sapucaia do Sul",
        "state": "RS",
        "district": "São José",
        "street": "Rua Monte Pascoal",
        "zipcode": "93218-280"
    },
    {
        "city": "Sapucaia do Sul",
        "state": "RS",
        "district": "Silva",
        "street": "Rua Nereu Ramos",
        "zipcode": "93210-000"
    },
    {
        "city": "Sapucaia do Sul",
        "state": "RS",
        "district": "Centro",
        "street": "Rua Octávio Santos",
        "zipcode": "93218-300"
    },
    {
        "city": "Sapucaia do Sul",
        "state": "RS",
        "district": "Vacchi",
        "street": "Rua Olavo Bilac",
        "zipcode": "93214-240"
    },
    {
        "city": "Sapucaia do Sul",
        "state": "RS",
        "district": "Freitas",
        "street": "Rua Oliveira Braga",
        "zipcode": "93218-310"
    },
    {
        "city": "Sapucaia do Sul",
        "state": "RS",
        "district": "São José",
        "street": "Rua Passo Fundo",
        "zipcode": "93218-330"
    },
    {
        "city": "Sapucaia do Sul",
        "state": "RS",
        "district": "Jardim",
        "street": "Travessa Paulo Thiessen",
        "zipcode": "93220-310"
    },
    {
        "city": "Sapucaia do Sul",
        "state": "RS",
        "district": "Vacchi",
        "street": "Rua Pedro Álvares Cabral",
        "zipcode": "93214-260"
    },
    {
        "city": "Sapucaia do Sul",
        "state": "RS",
        "district": "Centro",
        "street": "Rua Peri Batista",
        "zipcode": "93218-340"
    },
    {
        "city": "Sapucaia do Sul",
        "state": "RS",
        "district": "Dihel",
        "street": "Rua Pinheiro Machado",
        "zipcode": "93210-180"
    },
    {
        "city": "Sapucaia do Sul",
        "state": "RS",
        "district": "Freitas",
        "street": "Avenida Rubem Berta",
        "zipcode": "93218-350"
    },
    {
        "city": "Sapucaia do Sul",
        "state": "RS",
        "district": "Silva",
        "street": "Rua Rui Ramos",
        "zipcode": "93210-250"
    },
    {
        "city": "Sapucaia do Sul",
        "state": "RS",
        "district": "Piratini",
        "street": "Rua Santos Dumont",
        "zipcode": "93216-520"
    },
    {
        "city": "Sapucaia do Sul",
        "state": "RS",
        "district": "COHAB",
        "street": "Travessa Nelson Polet Severo",
        "zipcode": "93216-540"
    },
    {
        "city": "Sapucaia do Sul",
        "state": "RS",
        "district": "Freitas",
        "street": "Rua General Freitas",
        "zipcode": "93218-170"
    },
    {
        "city": "Sapucaia do Sul",
        "state": "RS",
        "district": "Kurashiki",
        "street": "Rua Bento Gonçalves",
        "zipcode": "93216-530"
    },
    {
        "city": "Sapucaia do Sul",
        "state": "RS",
        "district": "São José",
        "street": "Rua Manoel Tavares",
        "zipcode": "93218-250"
    },
    {
        "city": "Sapucaia do Sul",
        "state": "RS",
        "district": "Dihel",
        "street": "Rua Rodrigues Alves",
        "zipcode": "93210-220"
    },
    {
        "city": "Sapucaia do Sul",
        "state": "RS",
        "district": "Fortuna",
        "street": "Rua Girua",
        "zipcode": "93212-230"
    },
    {
        "city": "Sapucaia do Sul",
        "state": "RS",
        "district": "Freitas",
        "street": "Rua Doutor Júlio Casado",
        "zipcode": "93218-140"
    },
    {
        "city": "Sapucaia do Sul",
        "state": "RS",
        "district": "Colonial",
        "street": "Rua Alcides Pressoto",
        "zipcode": "93212-030"
    },
    {
        "city": "Sapucaia do Sul",
        "state": "RS",
        "district": "Fortuna",
        "street": "Rua Alecrim",
        "zipcode": "93212-040"
    },
    {
        "city": "Sapucaia do Sul",
        "state": "RS",
        "district": "Colonial",
        "street": "Rua Alviso Caligaro",
        "zipcode": "93212-060"
    },
    {
        "city": "Sapucaia do Sul",
        "state": "RS",
        "district": "COHAB",
        "street": "Rua Antônio Vieira",
        "zipcode": "93212-080"
    },
    {
        "city": "Sapucaia do Sul",
        "state": "RS",
        "district": "Fortuna",
        "street": "Rua Aratiba",
        "zipcode": "93212-090"
    },
    {
        "city": "Sapucaia do Sul",
        "state": "RS",
        "district": "Fortuna",
        "street": "Rua Candelária",
        "zipcode": "93212-120"
    },
    {
        "city": "Sapucaia do Sul",
        "state": "RS",
        "district": "Fortuna",
        "street": "Rua Canguçu",
        "zipcode": "93212-130"
    },
    {
        "city": "Sapucaia do Sul",
        "state": "RS",
        "district": "Centro",
        "street": "Rua Capitão Camboim",
        "zipcode": "93220-070"
    },
    {
        "city": "Sapucaia do Sul",
        "state": "RS",
        "district": "Centro",
        "street": "Rua Coronel João Corrêa",
        "zipcode": "93220-100"
    },
    {
        "city": "Sapucaia do Sul",
        "state": "RS",
        "district": "Kurashiki",
        "street": "Rua David Canabarro",
        "zipcode": "93212-160"
    },
    {
        "city": "Sapucaia do Sul",
        "state": "RS",
        "district": "Centro",
        "street": "Rua Deputado Ataíde Pacheco",
        "zipcode": "93220-120"
    },
    {
        "city": "Sapucaia do Sul",
        "state": "RS",
        "district": "Vacchi",
        "street": "Rua Dona Leopoldina",
        "zipcode": "93214-090"
    },
    {
        "city": "Sapucaia do Sul",
        "state": "RS",
        "district": "Colonial",
        "street": "Rua Edy Ely Scopel",
        "zipcode": "93212-180"
    },
    {
        "city": "Sapucaia do Sul",
        "state": "RS",
        "district": "Fortuna",
        "street": "Rua Erexim",
        "zipcode": "93212-190"
    },
    {
        "city": "Sapucaia do Sul",
        "state": "RS",
        "district": "Vacchi",
        "street": "Rua Frei Caneca",
        "zipcode": "93214-120"
    },
    {
        "city": "Sapucaia do Sul",
        "state": "RS",
        "district": "Jardim",
        "street": "Rua General Daltro Filho",
        "zipcode": "93220-140"
    },
    {
        "city": "Sapucaia do Sul",
        "state": "RS",
        "district": "Santa Catarina",
        "street": "Rua Henrique Dias",
        "zipcode": "93214-130"
    },
    {
        "city": "Sapucaia do Sul",
        "state": "RS",
        "district": "Centro",
        "street": "Travessa João Barden",
        "zipcode": "93220-180"
    },
    {
        "city": "Sapucaia do Sul",
        "state": "RS",
        "district": "Jardim",
        "street": "Travessa João Pessoa",
        "zipcode": "93220-200"
    },
    {
        "city": "Sapucaia do Sul",
        "state": "RS",
        "district": "Carioca",
        "street": "Rua Carioca",
        "zipcode": "93211-699"
    },
    {
        "city": "Sapucaia do Sul",
        "state": "RS",
        "district": "Paraíso",
        "street": "Rua Laurentino Juliano",
        "zipcode": "93220-220"
    },
    {
        "city": "Sapucaia do Sul",
        "state": "RS",
        "district": "Jardim",
        "street": "Travessa Justino",
        "zipcode": "93220-144"
    },
    {
        "city": "Sapucaia do Sul",
        "state": "RS",
        "district": "Vacchi",
        "street": "Rua José Lisboa",
        "zipcode": "93214-085"
    },
    {
        "city": "Sapucaia do Sul",
        "state": "RS",
        "district": "Colonial",
        "street": "Rua do Cambará",
        "zipcode": "93212-014"
    },
    {
        "city": "Sapucaia do Sul",
        "state": "RS",
        "district": "Jardim",
        "street": "Travessa Pedro Porfirio de Souza",
        "zipcode": "93220-014"
    },
    {
        "city": "Sapucaia do Sul",
        "state": "RS",
        "district": "Jardim",
        "street": "Rua Chico Mendes",
        "zipcode": "93220-046"
    },
    {
        "city": "Sapucaia do Sul",
        "state": "RS",
        "district": "Sete",
        "street": "Rua Primavera",
        "zipcode": "93220-143"
    },
    {
        "city": "Sapucaia do Sul",
        "state": "RS",
        "district": "Fortuna",
        "street": "Rua Hugo Cardoso",
        "zipcode": "93212-156"
    },
    {
        "city": "Sapucaia do Sul",
        "state": "RS",
        "district": "Fortuna",
        "street": "Rua Danilo Wolff",
        "zipcode": "93212-128"
    },
    {
        "city": "Sapucaia do Sul",
        "state": "RS",
        "district": "Fortuna",
        "street": "Rua Audelino Godoy",
        "zipcode": "93212-124"
    },
    {
        "city": "Sapucaia do Sul",
        "state": "RS",
        "district": "Fortuna",
        "street": "Rua Pedro Maciel Pereira",
        "zipcode": "93212-194"
    },
    {
        "city": "Sapucaia do Sul",
        "state": "RS",
        "district": "Dihel",
        "street": "Rua Luiz Gschwenter",
        "zipcode": "93214-180"
    },
    {
        "city": "Sapucaia do Sul",
        "state": "RS",
        "district": "Centro",
        "street": "Rua Manoel Serafim",
        "zipcode": "93220-250"
    },
    {
        "city": "Sapucaia do Sul",
        "state": "RS",
        "district": "Centro",
        "street": "Rua Monte Castelo",
        "zipcode": "93220-260"
    },
    {
        "city": "Sapucaia do Sul",
        "state": "RS",
        "district": "Centro",
        "street": "Rua Nossa Senhora das Graças",
        "zipcode": "93220-280"
    },
    {
        "city": "Sapucaia do Sul",
        "state": "RS",
        "district": "Jardim",
        "street": "Rua Osvaldo Cruz",
        "zipcode": "93220-290"
    },
    {
        "city": "Sapucaia do Sul",
        "state": "RS",
        "district": "Piratini",
        "street": "Rua das Rosas",
        "zipcode": "93216-420"
    },
    {
        "city": "Sapucaia do Sul",
        "state": "RS",
        "district": "Vargas",
        "street": "Travessa São Pedro",
        "zipcode": "93222-220"
    },
    {
        "city": "Sapucaia do Sul",
        "state": "RS",
        "district": "Vargas",
        "street": "Rua São Vendelino",
        "zipcode": "93222-230"
    },
    {
        "city": "Sapucaia do Sul",
        "state": "RS",
        "district": "Vargas",
        "street": "Rua Tapes",
        "zipcode": "93222-240"
    },
    {
        "city": "Sapucaia do Sul",
        "state": "RS",
        "district": "Centro",
        "street": "Rua Ulisses Cabral",
        "zipcode": "93220-000"
    },
    {
        "city": "Sapucaia do Sul",
        "state": "RS",
        "district": "COHAB",
        "street": "Rua Waldemar Boa Vista",
        "zipcode": "93216-500"
    },
    {
        "city": "Sapucaia do Sul",
        "state": "RS",
        "district": "COHAB",
        "street": "Rua Walter Neves",
        "zipcode": "93216-510"
    },
    {
        "city": "Sapucaia do Sul",
        "state": "RS",
        "district": "Piratini",
        "street": "Travessa Santa Rita",
        "zipcode": "93216-440"
    },
    {
        "city": "Sapucaia do Sul",
        "state": "RS",
        "district": "Centro",
        "street": "Avenida Lúcio Bittencourt",
        "zipcode": "93214-170"
    },
    {
        "city": "Sapucaia do Sul",
        "state": "RS",
        "district": "Colonial",
        "street": "Rua Alfaiate Reis",
        "zipcode": "93212-050"
    },
    {
        "city": "Sapucaia do Sul",
        "state": "RS",
        "district": "COHAB",
        "street": "Rua Vereador Geraldo Alves",
        "zipcode": "93216-480"
    },
    {
        "city": "Sapucaia do Sul",
        "state": "RS",
        "district": "COHAB",
        "street": "Rua Tercilio João Alves",
        "zipcode": "93216-470"
    },
    {
        "city": "Sapucaia do Sul",
        "state": "RS",
        "district": "Silva",
        "street": "Travessa Armando Viegas",
        "zipcode": "93214-020"
    },
    {
        "city": "Sapucaia do Sul",
        "state": "RS",
        "district": "Dihel",
        "street": "Rua Campos Sales",
        "zipcode": "93214-040"
    },
    {
        "city": "Sapucaia do Sul",
        "state": "RS",
        "district": "Dihel",
        "street": "Rua Capitão Fabre",
        "zipcode": "93214-050"
    },
    {
        "city": "Sapucaia do Sul",
        "state": "RS",
        "district": "Vargas",
        "street": "Rua Cascata",
        "zipcode": "93222-030"
    },
    {
        "city": "Sapucaia do Sul",
        "state": "RS",
        "district": "Santa Catarina",
        "street": "Avenida Castro Alves",
        "zipcode": "93214-060"
    },
    {
        "city": "Sapucaia do Sul",
        "state": "RS",
        "district": "Vargas",
        "street": "Rua Firmo Pereira de Vargas",
        "zipcode": "93222-060"
    },
    {
        "city": "Sapucaia do Sul",
        "state": "RS",
        "district": "Sete",
        "street": "Rua João Braz Oliveira Rodrigues",
        "zipcode": "93222-100"
    },
    {
        "city": "Sapucaia do Sul",
        "state": "RS",
        "district": "Piratini",
        "street": "Rua João Cândido",
        "zipcode": "93216-280"
    },
    {
        "city": "Sapucaia do Sul",
        "state": "RS",
        "district": "Piratini",
        "street": "Rua João XXIII",
        "zipcode": "93216-290"
    },
    {
        "city": "Sapucaia do Sul",
        "state": "RS",
        "district": "COHAB",
        "street": "Rua José de Alencar",
        "zipcode": "93216-300"
    },
    {
        "city": "Sapucaia do Sul",
        "state": "RS",
        "district": "Piratini",
        "street": "Rua Marquês do Herval",
        "zipcode": "93216-340"
    },
    {
        "city": "Sapucaia do Sul",
        "state": "RS",
        "district": "Primor",
        "street": "Rua Montenegro",
        "zipcode": "93220-670"
    },
    {
        "city": "Sapucaia do Sul",
        "state": "RS",
        "district": "COHAB",
        "street": "Rua Odorio Victorino Machado",
        "zipcode": "93216-350"
    },
    {
        "city": "Sapucaia do Sul",
        "state": "RS",
        "district": "COHAB",
        "street": "Rua Ozório da Silva",
        "zipcode": "93216-380"
    },
    {
        "city": "Sapucaia do Sul",
        "state": "RS",
        "district": "Piratini",
        "street": "Travessa Pátria",
        "zipcode": "93216-400"
    },
    {
        "city": "Sapucaia do Sul",
        "state": "RS",
        "district": "Vargas",
        "street": "Rua Portão",
        "zipcode": "93222-130"
    },
    {
        "city": "Sapucaia do Sul",
        "state": "RS",
        "district": "Jardim",
        "street": "Rua Rosário",
        "zipcode": "93220-700"
    },
    {
        "city": "Sapucaia do Sul",
        "state": "RS",
        "district": "Paraíso",
        "street": "Rua Mário Bandeira",
        "zipcode": "93220-756"
    },
    {
        "city": "Sapucaia do Sul",
        "state": "RS",
        "district": "São José",
        "street": "Rua Acácia Negra (Lot Jd Anchieta)",
        "zipcode": "93218-615"
    },
    {
        "city": "Sapucaia do Sul",
        "state": "RS",
        "district": "São José",
        "street": "Rua Jatobá (Lot Jd Anchieta)",
        "zipcode": "93218-635"
    },
    {
        "city": "Sapucaia do Sul",
        "state": "RS",
        "district": "São José",
        "street": "Rua Sibipiruna (Lot Jd Anchieta)",
        "zipcode": "93218-640"
    },
    {
        "city": "Sapucaia do Sul",
        "state": "RS",
        "district": "São José",
        "street": "Rua Timbaúva (Lot Jd Anchieta)",
        "zipcode": "93218-645"
    },
    {
        "city": "Sapucaia do Sul",
        "state": "RS",
        "district": "Colonial",
        "street": "Avenida Isdralit",
        "zipcode": "93212-000"
    },
    {
        "city": "Sapucaia do Sul",
        "state": "RS",
        "district": "Fortuna",
        "street": "Rua Wildomar Ferreira Duarte",
        "zipcode": "93212-152"
    },
    {
        "city": "Sapucaia do Sul",
        "state": "RS",
        "district": "COHAB",
        "street": "Rua Marciano Machado (Lot S Carlos)",
        "zipcode": "93216-564"
    },
    {
        "city": "Sapucaia do Sul",
        "state": "RS",
        "district": "Centro",
        "street": "Viaduto Albino Trein",
        "zipcode": "93220-020"
    },
    {
        "city": "Sapucaia do Sul",
        "state": "RS",
        "district": "Silva",
        "street": "Praça do Expedicionário",
        "zipcode": "93214-100"
    },
    {
        "city": "Sapucaia do Sul",
        "state": "RS",
        "district": "São José",
        "street": "Rua Flamboyant (Lot Jd Anchieta)",
        "zipcode": "93218-650"
    },
    {
        "city": "Sapucaia do Sul",
        "state": "RS",
        "district": "São José",
        "street": "Rua Lagustre (Lot Jd Anchieta)",
        "zipcode": "93218-665"
    },
    {
        "city": "Sapucaia do Sul",
        "state": "RS",
        "district": "Vargas",
        "street": "Rua Gralha Azul",
        "zipcode": "93222-754"
    },
    {
        "city": "Sapucaia do Sul",
        "state": "RS",
        "district": "Vargas",
        "street": "Rua Andorinha",
        "zipcode": "93222-768"
    },
    {
        "city": "Sapucaia do Sul",
        "state": "RS",
        "district": "Vargas",
        "street": "Rua Cardeal",
        "zipcode": "93222-756"
    },
    {
        "city": "Sapucaia do Sul",
        "state": "RS",
        "district": "Vargas",
        "street": "Rua Colibri",
        "zipcode": "93222-774"
    },
    {
        "city": "Sapucaia do Sul",
        "state": "RS",
        "district": "Vargas",
        "street": "Rua Siriema",
        "zipcode": "93222-764"
    },
    {
        "city": "Sapucaia do Sul",
        "state": "RS",
        "district": "Sete",
        "street": "Travessa Santa Cruz",
        "zipcode": "93222-105"
    },
    {
        "city": "Sapucaia do Sul",
        "state": "RS",
        "district": "Zoológico",
        "street": "Travessa Sinuelo",
        "zipcode": "93211-726"
    },
    {
        "city": "Sapucaia do Sul",
        "state": "RS",
        "district": "Vargas",
        "street": "Rua Porto Velho",
        "zipcode": "93219-090"
    },
    {
        "city": "Sapucaia do Sul",
        "state": "RS",
        "district": "Vargas",
        "street": "Rua Belo Horizonte",
        "zipcode": "93219-076"
    },
    {
        "city": "Sapucaia do Sul",
        "state": "RS",
        "district": "Vargas",
        "street": "Rua Campo Grande",
        "zipcode": "93219-070"
    },
    {
        "city": "Sapucaia do Sul",
        "state": "RS",
        "district": "Primor",
        "street": "Rua São João",
        "zipcode": "93220-720"
    },
    {
        "city": "Sapucaia do Sul",
        "state": "RS",
        "district": "Vargas",
        "street": "Rua São Manoel",
        "zipcode": "93222-200"
    },
    {
        "city": "Sapucaia do Sul",
        "state": "RS",
        "district": "Primor",
        "street": "Travessa Saudade",
        "zipcode": "93220-740"
    },
    {
        "city": "Sapucaia do Sul",
        "state": "RS",
        "district": "Dihel",
        "street": "Rua Tiradentes",
        "zipcode": "93214-000"
    },
    {
        "city": "Sapucaia do Sul",
        "state": "RS",
        "district": "Paraíso",
        "street": "Rua Três de Maio",
        "zipcode": "93220-750"
    },
    {
        "city": "Sapucaia do Sul",
        "state": "RS",
        "district": "Horto Florestal",
        "street": "Rua Valdir Magnante",
        "zipcode": "93212-740"
    },
    {
        "city": "Sapucaia do Sul",
        "state": "RS",
        "district": "Paraíso",
        "street": "Rua Vera Cruz",
        "zipcode": "93220-760"
    },
    {
        "city": "Sapucaia do Sul",
        "state": "RS",
        "district": "Vargas",
        "street": "Rua Vinte e Cinco de Julho",
        "zipcode": "93222-000"
    },
    {
        "city": "Sapucaia do Sul",
        "state": "RS",
        "district": "Jardim",
        "street": "Rua Mariano Canto",
        "zipcode": "93222-110"
    },
    {
        "city": "Sapucaia do Sul",
        "state": "RS",
        "district": "Vargas",
        "street": "Rua Fernão de Sá",
        "zipcode": "93222-050"
    },
    {
        "city": "Sapucaia do Sul",
        "state": "RS",
        "district": "COHAB",
        "street": "Rua Olinto Fagan",
        "zipcode": "93216-360"
    },
    {
        "city": "Sapucaia do Sul",
        "state": "RS",
        "district": "Capão da Cruz",
        "street": "Rua Argentina",
        "zipcode": "93226-010"
    },
    {
        "city": "Sapucaia do Sul",
        "state": "RS",
        "district": "Primor",
        "street": "Rua Augusto César Saraiva",
        "zipcode": "93220-490"
    },
    {
        "city": "Sapucaia do Sul",
        "state": "RS",
        "district": "Primor",
        "street": "Rua Coronel Genuíno",
        "zipcode": "93220-520"
    },
    {
        "city": "Sapucaia do Sul",
        "state": "RS",
        "district": "Primor",
        "street": "Rua Dois Amigos",
        "zipcode": "93220-530"
    },
    {
        "city": "Sapucaia do Sul",
        "state": "RS",
        "district": "Primor",
        "street": "Rua Dois de Novembro",
        "zipcode": "93220-540"
    },
    {
        "city": "Sapucaia do Sul",
        "state": "RS",
        "district": "Piratini",
        "street": "Rua Fernando Ferrari",
        "zipcode": "93216-210"
    },
    {
        "city": "Sapucaia do Sul",
        "state": "RS",
        "district": "COHAB",
        "street": "Rua Gávea",
        "zipcode": "93216-230"
    },
    {
        "city": "Sapucaia do Sul",
        "state": "RS",
        "district": "COHAB",
        "street": "Rua Hugo Lima",
        "zipcode": "93216-250"
    },
    {
        "city": "Sapucaia do Sul",
        "state": "RS",
        "district": "Freitas",
        "street": "Rua Ildefonso Pinto",
        "zipcode": "93216-260"
    },
    {
        "city": "Sapucaia do Sul",
        "state": "RS",
        "district": "Camboim",
        "street": "Rua Itália Baierle",
        "zipcode": "93224-460"
    },
    {
        "city": "Sapucaia do Sul",
        "state": "RS",
        "district": "Paraíso",
        "street": "Rua Jorge Assun",
        "zipcode": "93220-600"
    },
    {
        "city": "Sapucaia do Sul",
        "state": "RS",
        "district": "Primor",
        "street": "Rua José Felippe",
        "zipcode": "93220-610"
    },
    {
        "city": "Sapucaia do Sul",
        "state": "RS",
        "district": "Pasqualini",
        "street": "Rua José Loureiro da Silva",
        "zipcode": "93224-470"
    },
    {
        "city": "Sapucaia do Sul",
        "state": "RS",
        "district": "Pasqualini",
        "street": "Rua Laçador",
        "zipcode": "93224-480"
    },
    {
        "city": "Sapucaia do Sul",
        "state": "RS",
        "district": "Vargas",
        "street": "Rua Lagoa Vermelha",
        "zipcode": "93222-520"
    },
    {
        "city": "Sapucaia do Sul",
        "state": "RS",
        "district": "Pasqualini",
        "street": "Rua Leopoldo Johann",
        "zipcode": "93224-490"
    },
    {
        "city": "Sapucaia do Sul",
        "state": "RS",
        "district": "Centro",
        "street": "Rua Manoel Athanazio Dias",
        "zipcode": "93220-630"
    },
    {
        "city": "Sapucaia do Sul",
        "state": "RS",
        "district": "Sete",
        "street": "Rua Mário de Paula",
        "zipcode": "93224-500"
    },
    {
        "city": "Sapucaia do Sul",
        "state": "RS",
        "district": "Centro",
        "street": "Rua Martim Afonso de Souza",
        "zipcode": "93220-650"
    },
    {
        "city": "Sapucaia do Sul",
        "state": "RS",
        "district": "Primor",
        "street": "Rua Men de Sá",
        "zipcode": "93220-660"
    },
    {
        "city": "Sapucaia do Sul",
        "state": "RS",
        "district": "Pasqualini",
        "street": "Rua Nordeste",
        "zipcode": "93224-540"
    },
    {
        "city": "Sapucaia do Sul",
        "state": "RS",
        "district": "Pasqualini",
        "street": "Rua Nossa Senhora de Fátima",
        "zipcode": "93224-550"
    },
    {
        "city": "Sapucaia do Sul",
        "state": "RS",
        "district": "Capão da Cruz",
        "street": "Rua Primeiro de Maio",
        "zipcode": "93226-000"
    },
    {
        "city": "Sapucaia do Sul",
        "state": "RS",
        "district": "Vargas",
        "street": "Rua Alziro Pedro da Silva",
        "zipcode": "93222-627"
    },
    {
        "city": "Sapucaia do Sul",
        "state": "RS",
        "district": "Vargas",
        "street": "Rua Madre Paulina",
        "zipcode": "93222-623"
    },
    {
        "city": "Sapucaia do Sul",
        "state": "RS",
        "district": "Vargas",
        "street": "Rua Nossa Senhora dos Navegantes",
        "zipcode": "93222-613"
    },
    {
        "city": "Sapucaia do Sul",
        "state": "RS",
        "district": "Vargas",
        "street": "Rua Santo Expedito",
        "zipcode": "93222-610"
    },
    {
        "city": "Sapucaia do Sul",
        "state": "RS",
        "district": "Vargas",
        "street": "Rua Anaurelino Cruz Primo",
        "zipcode": "93222-607"
    },
    {
        "city": "Sapucaia do Sul",
        "state": "RS",
        "district": "Vargas",
        "street": "Rua Rosa Elvira Kleinubing",
        "zipcode": "93222-643"
    },
    {
        "city": "Sapucaia do Sul",
        "state": "RS",
        "district": "Vargas",
        "street": "Rua Clara Nunes",
        "zipcode": "93222-640"
    },
    {
        "city": "Sapucaia do Sul",
        "state": "RS",
        "district": "Vargas",
        "street": "Rua Vitor Mateus Teixeira",
        "zipcode": "93222-617"
    },
    {
        "city": "Sapucaia do Sul",
        "state": "RS",
        "district": "Vargas",
        "street": "Rua Beija",
        "zipcode": "93222-728"
    },
    {
        "city": "Sapucaia do Sul",
        "state": "RS",
        "district": "Vargas",
        "street": "Rua Bem",
        "zipcode": "93222-750"
    },
    {
        "city": "Sapucaia do Sul",
        "state": "RS",
        "district": "Vargas",
        "street": "Rua das Cravinas",
        "zipcode": "93222-732"
    },
    {
        "city": "Sapucaia do Sul",
        "state": "RS",
        "district": "Vargas",
        "street": "Rua do Azulão",
        "zipcode": "93222-752"
    },
    {
        "city": "Sapucaia do Sul",
        "state": "RS",
        "district": "Pasqualini",
        "street": "Travessa Feliz",
        "zipcode": "93224-524"
    },
    {
        "city": "Sapucaia do Sul",
        "state": "RS",
        "district": "Pasqualini",
        "street": "Travessa Vitória",
        "zipcode": "93224-526"
    },
    {
        "city": "Sapucaia do Sul",
        "state": "RS",
        "district": "Vargas",
        "street": "Avenida Valdemimo Rodrigues Machado",
        "zipcode": "93222-630"
    },
    {
        "city": "Sapucaia do Sul",
        "state": "RS",
        "district": "Capão da Cruz",
        "street": "Rua Homero Motta Goulart",
        "zipcode": "93226-052"
    },
    {
        "city": "Sapucaia do Sul",
        "state": "RS",
        "district": "Lomba da Palmeira",
        "street": "Rua Rio Xingu",
        "zipcode": "93225-403"
    },
    {
        "city": "Sapucaia do Sul",
        "state": "RS",
        "district": "Centro",
        "street": "Passarela Dario Juliano",
        "zipcode": "93220-770"
    },
    {
        "city": "Sapucaia do Sul",
        "state": "RS",
        "district": "Vargas",
        "street": "Rua Pernambuco",
        "zipcode": "93222-642"
    },
    {
        "city": "Sapucaia do Sul",
        "state": "RS",
        "district": "Vargas",
        "street": "Rua Santana",
        "zipcode": "93222-540"
    },
    {
        "city": "Sapucaia do Sul",
        "state": "RS",
        "district": "São José",
        "street": "Rua São Jorge",
        "zipcode": "93218-410"
    },
    {
        "city": "Sapucaia do Sul",
        "state": "RS",
        "district": "São José",
        "street": "Rua São Vicente de Paula",
        "zipcode": "93218-420"
    },
    {
        "city": "Sapucaia do Sul",
        "state": "RS",
        "district": "Jardim",
        "street": "Passagem Sapucaia",
        "zipcode": "93220-410"
    },
    {
        "city": "Sapucaia do Sul",
        "state": "RS",
        "district": "Centro",
        "street": "Rua Tenente Inácio",
        "zipcode": "93220-420"
    },
    {
        "city": "Sapucaia do Sul",
        "state": "RS",
        "district": "Sete",
        "street": "Rua Barão de Itararé",
        "zipcode": "93224-380"
    },
    {
        "city": "Sapucaia do Sul",
        "state": "RS",
        "district": "Vargas",
        "street": "Rua Bento Gonçalves",
        "zipcode": "93222-460"
    },
    {
        "city": "Sapucaia do Sul",
        "state": "RS",
        "district": "Vargas",
        "street": "Rua Camaquã",
        "zipcode": "93222-480"
    },
    {
        "city": "Sapucaia do Sul",
        "state": "RS",
        "district": "Pasqualini",
        "street": "Rua Campo Verde",
        "zipcode": "93224-400"
    },
    {
        "city": "Sapucaia do Sul",
        "state": "RS",
        "district": "Vargas",
        "street": "Rua Dona Amélia Lucas",
        "zipcode": "93222-370"
    },
    {
        "city": "Sapucaia do Sul",
        "state": "RS",
        "district": "Camboim",
        "street": "Rua Edison Passos",
        "zipcode": "93224-420"
    },
    {
        "city": "Sapucaia do Sul",
        "state": "RS",
        "district": "Pasqualini",
        "street": "Rua Esmeralda",
        "zipcode": "93224-430"
    },
    {
        "city": "Sapucaia do Sul",
        "state": "RS",
        "district": "Sete",
        "street": "Rua Evaldo da Rosa",
        "zipcode": "93224-440"
    },
    {
        "city": "Sapucaia do Sul",
        "state": "RS",
        "district": "Vargas",
        "street": "Rua Gaspar de Lemos",
        "zipcode": "93222-380"
    },
    {
        "city": "Sapucaia do Sul",
        "state": "RS",
        "district": "Vargas",
        "street": "Rua João Ramalho",
        "zipcode": "93222-300"
    },
    {
        "city": "Sapucaia do Sul",
        "state": "RS",
        "district": "Vargas",
        "street": "Rua das Missões",
        "zipcode": "93222-400"
    },
    {
        "city": "Sapucaia do Sul",
        "state": "RS",
        "district": "Camboim",
        "street": "Rua Olavo Camboim",
        "zipcode": "93224-220"
    },
    {
        "city": "Sapucaia do Sul",
        "state": "RS",
        "district": "Nova Sapucaia",
        "street": "Rua Padre Cacique",
        "zipcode": "93226-550"
    },
    {
        "city": "Sapucaia do Sul",
        "state": "RS",
        "district": "Vargas",
        "street": "Rua Paes Lemes",
        "zipcode": "93222-320"
    },
    {
        "city": "Sapucaia do Sul",
        "state": "RS",
        "district": "Vargas",
        "street": "Travessa da Penha",
        "zipcode": "93222-410"
    },
    {
        "city": "Sapucaia do Sul",
        "state": "RS",
        "district": "Pasqualini",
        "street": "Travessa Pero Vaz de Caminha",
        "zipcode": "93224-240"
    },
    {
        "city": "Sapucaia do Sul",
        "state": "RS",
        "district": "Camboim",
        "street": "Rua Pestalozzi",
        "zipcode": "93224-250"
    },
    {
        "city": "Sapucaia do Sul",
        "state": "RS",
        "district": "Vargas",
        "street": "Rua Raposo Tavares",
        "zipcode": "93222-330"
    },
    {
        "city": "Sapucaia do Sul",
        "state": "RS",
        "district": "Nova Sapucaia",
        "street": "Rua Rio de Janeiro",
        "zipcode": "93224-290"
    },
    {
        "city": "Sapucaia do Sul",
        "state": "RS",
        "district": "Jardim",
        "street": "Rua Salgado Filho",
        "zipcode": "93220-370"
    },
    {
        "city": "Sapucaia do Sul",
        "state": "RS",
        "district": "Vargas",
        "street": "Rua Santa Luzia",
        "zipcode": "93222-340"
    },
    {
        "city": "Sapucaia do Sul",
        "state": "RS",
        "district": "Capão da Cruz",
        "street": "Rua São Lázaro",
        "zipcode": "93226-520"
    },
    {
        "city": "Sapucaia do Sul",
        "state": "RS",
        "district": "Sete",
        "street": "Rua São Lucas",
        "zipcode": "93224-310"
    },
    {
        "city": "Sapucaia do Sul",
        "state": "RS",
        "district": "Camboim",
        "street": "Rua São Sebastião",
        "zipcode": "93224-320"
    },
    {
        "city": "Sapucaia do Sul",
        "state": "RS",
        "district": "Vargas",
        "street": "Rua Três Coroas",
        "zipcode": "93222-440"
    },
    {
        "city": "Sapucaia do Sul",
        "state": "RS",
        "district": "Camboim",
        "street": "Rua Vereador Paulo Antônio Fraga",
        "zipcode": "93224-340"
    },
    {
        "city": "Sapucaia do Sul",
        "state": "RS",
        "district": "Boa Vista",
        "street": "Rua Vicente Viegas",
        "zipcode": "93230-360"
    },
    {
        "city": "Sapucaia do Sul",
        "state": "RS",
        "district": "Boa Vista",
        "street": "Rua Victor Meireles",
        "zipcode": "93230-370"
    },
    {
        "city": "Sapucaia do Sul",
        "state": "RS",
        "district": "Nova Sapucaia",
        "street": "Rua Princesa Isabel",
        "zipcode": "93224-280"
    },
    {
        "city": "Sapucaia do Sul",
        "state": "RS",
        "district": "Walderez",
        "street": "Rua Santa Bárbara",
        "zipcode": "93226-500"
    },
    {
        "city": "Sapucaia do Sul",
        "state": "RS",
        "district": "Walderez",
        "street": "Rua Albino de Anunciação",
        "zipcode": "93226-505"
    },
    {
        "city": "Sapucaia do Sul",
        "state": "RS",
        "district": "Capão da Cruz",
        "street": "Rua Chile (Lot P. Simon)",
        "zipcode": "93226-475"
    },
    {
        "city": "Sapucaia do Sul",
        "state": "RS",
        "district": "Sete",
        "street": "Rua Canízio",
        "zipcode": "93224-303"
    },
    {
        "city": "Sapucaia do Sul",
        "state": "RS",
        "district": "São José",
        "street": "Rua Corticeira (Lot Jd Anchieta)",
        "zipcode": "93218-690"
    },
    {
        "city": "Sapucaia do Sul",
        "state": "RS",
        "district": "São José",
        "street": "Rua Aroeira (Lot Jd Anchieta)",
        "zipcode": "93218-600"
    },
    {
        "city": "Sapucaia do Sul",
        "state": "RS",
        "district": "São José",
        "street": "Rua Chuva de Ouro (Lot Jd Anchieta)",
        "zipcode": "93218-660"
    },
    {
        "city": "Sapucaia do Sul",
        "state": "RS",
        "district": "Vargas",
        "street": "Rua Dorcelina Falador",
        "zipcode": "93222-633"
    },
    {
        "city": "Sapucaia do Sul",
        "state": "RS",
        "district": "Pasqualini",
        "street": "Rua Paulo Oscar da Motta (Lot Três Figueiras)",
        "zipcode": "93224-472"
    },
    {
        "city": "Sapucaia do Sul",
        "state": "RS",
        "district": "Pasqualini",
        "street": "Rua Cleni Vasconcelos de Oliveira (Lot Três Figueiras)",
        "zipcode": "93224-473"
    },
    {
        "city": "Sapucaia do Sul",
        "state": "RS",
        "district": "Capão da Cruz",
        "street": "Rua Campo Bom (Lot P. Simon)",
        "zipcode": "93226-477"
    },
    {
        "city": "Sapucaia do Sul",
        "state": "RS",
        "district": "Vargas",
        "street": "Travessa São Caetano",
        "zipcode": "93222-434"
    },
    {
        "city": "Sapucaia do Sul",
        "state": "RS",
        "district": "Lomba da Palmeira",
        "street": "Rua Novo Milenio",
        "zipcode": "93225-314"
    },
    {
        "city": "Sapucaia do Sul",
        "state": "RS",
        "district": "Lomba da Palmeira",
        "street": "Rua das Lages",
        "zipcode": "93225-316"
    },
    {
        "city": "Sapucaia do Sul",
        "state": "RS",
        "district": "Lomba da Palmeira",
        "street": "Rua Rio Paranapanema",
        "zipcode": "93225-413"
    },
    {
        "city": "Sapucaia do Sul",
        "state": "RS",
        "district": "Vargas",
        "street": "Rua Medianeira",
        "zipcode": "93222-362"
    },
    {
        "city": "Sapucaia do Sul",
        "state": "RS",
        "district": "Walderez",
        "street": "Rua Antônio Azevedo Martins",
        "zipcode": "93226-507"
    },
    {
        "city": "Sapucaia do Sul",
        "state": "RS",
        "district": "São José",
        "street": "Rua do Cedro (Lot Jd Anchieta)",
        "zipcode": "93218-620"
    },
    {
        "city": "Sapucaia do Sul",
        "state": "RS",
        "district": "Paraíso",
        "street": "Rua Alagoas",
        "zipcode": "93224-020"
    },
    {
        "city": "Sapucaia do Sul",
        "state": "RS",
        "district": "Boa Vista",
        "street": "Rua Bonita",
        "zipcode": "93230-090"
    },
    {
        "city": "Sapucaia do Sul",
        "state": "RS",
        "district": "Nova Sapucaia",
        "street": "Rua Carlos Fantinel",
        "zipcode": "93230-110"
    },
    {
        "city": "Sapucaia do Sul",
        "state": "RS",
        "district": "Capão da Cruz",
        "street": "Rua Emílio Janga",
        "zipcode": "93224-050"
    },
    {
        "city": "Sapucaia do Sul",
        "state": "RS",
        "district": "Boa Vista",
        "street": "Rua Euclides da Cunha",
        "zipcode": "93230-140"
    },
    {
        "city": "Sapucaia do Sul",
        "state": "RS",
        "district": "Boa Vista",
        "street": "Rua Euzébio de Queiros",
        "zipcode": "93230-150"
    },
    {
        "city": "Sapucaia do Sul",
        "state": "RS",
        "district": "Nova Sapucaia",
        "street": "Rua Fernando Noronha",
        "zipcode": "93224-070"
    },
    {
        "city": "Sapucaia do Sul",
        "state": "RS",
        "district": "Boa Vista",
        "street": "Avenida Flores da Cunha",
        "zipcode": "93230-170"
    },
    {
        "city": "Sapucaia do Sul",
        "state": "RS",
        "district": "Camboim",
        "street": "Rua Germano Hauschild",
        "zipcode": "93224-100"
    },
    {
        "city": "Sapucaia do Sul",
        "state": "RS",
        "district": "Nova Sapucaia",
        "street": "Rua João Fernandes da Cunha",
        "zipcode": "93224-130"
    },
    {
        "city": "Sapucaia do Sul",
        "state": "RS",
        "district": "Boa Vista",
        "street": "Rua João Fulgêncio",
        "zipcode": "93230-200"
    },
    {
        "city": "Sapucaia do Sul",
        "state": "RS",
        "district": "Camboim",
        "street": "Rua João Silveira Camboim",
        "zipcode": "93224-140"
    },
    {
        "city": "Sapucaia do Sul",
        "state": "RS",
        "district": "Boa Vista",
        "street": "Rua João Sperb Dias",
        "zipcode": "93230-220"
    },
    {
        "city": "Sapucaia do Sul",
        "state": "RS",
        "district": "Camboim",
        "street": "Rua José do Patrocínio",
        "zipcode": "93224-160"
    },
    {
        "city": "Sapucaia do Sul",
        "state": "RS",
        "district": "Nova Sapucaia",
        "street": "Rua Leverino Brasil",
        "zipcode": "93230-260"
    },
    {
        "city": "Sapucaia do Sul",
        "state": "RS",
        "district": "Camboim",
        "street": "Rua Maranhão",
        "zipcode": "93224-190"
    },
    {
        "city": "Sapucaia do Sul",
        "state": "RS",
        "district": "Capão da Cruz",
        "street": "Rua Nações Unidas",
        "zipcode": "93226-460"
    },
    {
        "city": "Sapucaia do Sul",
        "state": "RS",
        "district": "Nova Sapucaia",
        "street": "Rua Orlindo Nedel",
        "zipcode": "93230-290"
    },
    {
        "city": "Sapucaia do Sul",
        "state": "RS",
        "district": "Boa Vista",
        "street": "Rua Presidente João Goulart",
        "zipcode": "93230-310"
    },
    {
        "city": "Sapucaia do Sul",
        "state": "RS",
        "district": "Boa Vista",
        "street": "Rua Quintino Bocaiúva",
        "zipcode": "93230-320"
    },
    {
        "city": "Sapucaia do Sul",
        "state": "RS",
        "district": "Nova Sapucaia",
        "street": "Rua Ulisses Gazzana",
        "zipcode": "93230-350"
    },
    {
        "city": "Sapucaia do Sul",
        "state": "RS",
        "district": "Boa Vista",
        "street": "Rua Fagundes Varela",
        "zipcode": "93230-160"
    },
    {
        "city": "Sapucaia do Sul",
        "state": "RS",
        "district": "Pasqualini",
        "street": "Rua Hergasto Crespo",
        "zipcode": "93224-110"
    },
    {
        "city": "Sapucaia do Sul",
        "state": "RS",
        "district": "Nova Sapucaia",
        "street": "Rua Modesto Dias",
        "zipcode": "93224-210"
    },
    {
        "city": "Sapucaia do Sul",
        "state": "RS",
        "district": "Lomba da Palmeira",
        "street": "Rua Alfredinho (Lot Jd América)",
        "zipcode": "93225-110"
    },
    {
        "city": "Sapucaia do Sul",
        "state": "RS",
        "district": "Lomba da Palmeira",
        "street": "Rua Anália Teixeira (Lot Jd América)",
        "zipcode": "93225-040"
    },
    {
        "city": "Sapucaia do Sul",
        "state": "RS",
        "district": "Lomba da Palmeira",
        "street": "Rua Gildo de Freitas (Lot Jd América)",
        "zipcode": "93225-135"
    },
    {
        "city": "Sapucaia do Sul",
        "state": "RS",
        "district": "Lomba da Palmeira",
        "street": "Rua Osmar Weeck (Lot Jd América)",
        "zipcode": "93225-060"
    },
    {
        "city": "Sapucaia do Sul",
        "state": "RS",
        "district": "Lomba da Palmeira",
        "street": "Rua Paulo Sérgio Gusmão (Lot Jd América)",
        "zipcode": "93225-020"
    },
    {
        "city": "Sapucaia do Sul",
        "state": "RS",
        "district": "Lomba da Palmeira",
        "street": "Rua Waldemar da Rosa (Lot Jd América)",
        "zipcode": "93225-010"
    },
    {
        "city": "Sapucaia do Sul",
        "state": "RS",
        "district": "Boa Vista",
        "street": "Rua Albert Einsten",
        "zipcode": "93230-193"
    },
    {
        "city": "Sapucaia do Sul",
        "state": "RS",
        "district": "Boa Vista",
        "street": "Rua Tom Jobim",
        "zipcode": "93230-199"
    },
    {
        "city": "Sapucaia do Sul",
        "state": "RS",
        "district": "Capão da Cruz",
        "street": "Rua Álvaro Viegas",
        "zipcode": "93226-485"
    },
    {
        "city": "Sapucaia do Sul",
        "state": "RS",
        "district": "Lomba da Palmeira",
        "street": "Rua Osmar Fauth",
        "zipcode": "93224-740"
    },
    {
        "city": "Sapucaia do Sul",
        "state": "RS",
        "district": "Lomba da Palmeira",
        "street": "Rua Homero M Goulart",
        "zipcode": "93224-745"
    },
    {
        "city": "Sapucaia do Sul",
        "state": "RS",
        "district": "Lomba da Palmeira",
        "street": "Rua Zuleika Soares Marques",
        "zipcode": "93224-750"
    },
    {
        "city": "Sapucaia do Sul",
        "state": "RS",
        "district": "Lomba da Palmeira",
        "street": "Rua Alcides Prates da Silva (Lot Jd América)",
        "zipcode": "93225-047"
    },
    {
        "city": "Sapucaia do Sul",
        "state": "RS",
        "district": "Lomba da Palmeira",
        "street": "Rua Osmar Araújo (Lot Jd Europa)",
        "zipcode": "93224-742"
    },
    {
        "city": "Sapucaia do Sul",
        "state": "RS",
        "district": "Vargas",
        "street": "Rua Everes Augusto Figueiredo dos Santos",
        "zipcode": "93219-010"
    },
    {
        "city": "Sapucaia do Sul",
        "state": "RS",
        "district": "Lomba da Palmeira",
        "street": "Rua Nely Alves da Silva (Lot Jd América)",
        "zipcode": "93225-105"
    },
    {
        "city": "Sapucaia do Sul",
        "state": "RS",
        "district": "Lomba da Palmeira",
        "street": "Rua Rio Araguaia",
        "zipcode": "93225-410"
    },
    {
        "city": "Sapucaia do Sul",
        "state": "RS",
        "district": "Lomba da Palmeira",
        "street": "Rua Auri da Silveira Camboim (Lot Jd América)",
        "zipcode": "93225-065"
    },
    {
        "city": "Sapucaia do Sul",
        "state": "RS",
        "district": "Capão da Cruz",
        "street": "Rua França (Lot P. Simon)",
        "zipcode": "93226-467"
    },
    {
        "city": "Sapucaia do Sul",
        "state": "RS",
        "district": "Capão da Cruz",
        "street": "Rua Polônia (Lot P. Simon)",
        "zipcode": "93226-468"
    },
    {
        "city": "Sapucaia do Sul",
        "state": "RS",
        "district": "Capão da Cruz",
        "street": "Rua Veranópolis (Lot P. Simon)",
        "zipcode": "93226-474"
    },
    {
        "city": "Sapucaia do Sul",
        "state": "RS",
        "district": "Nova Sapucaia",
        "street": "Rua Rondônia",
        "zipcode": "93226-294"
    },
    {
        "city": "Sapucaia do Sul",
        "state": "RS",
        "district": "Boa Vista",
        "street": "Rua Santo André",
        "zipcode": "93230-870"
    },
    {
        "city": "Sapucaia do Sul",
        "state": "RS",
        "district": "Boa Vista",
        "street": "Rua Ana Neri",
        "zipcode": "93230-874"
    },
    {
        "city": "Sapucaia do Sul",
        "state": "RS",
        "district": "Boa Vista",
        "street": "Travessa Liberdade",
        "zipcode": "93230-876"
    },
    {
        "city": "Sapucaia do Sul",
        "state": "RS",
        "district": "Boa Vista",
        "street": "Travessa Charrua",
        "zipcode": "93230-882"
    },
    {
        "city": "Sapucaia do Sul",
        "state": "RS",
        "district": "Boa Vista",
        "street": "Rua Mário Totta",
        "zipcode": "93230-888"
    },
    {
        "city": "Sapucaia do Sul",
        "state": "RS",
        "district": "Nova Sapucaia",
        "street": "Rua Antônio Marcos Dias",
        "zipcode": "93230-030"
    },
    {
        "city": "Sapucaia do Sul",
        "state": "RS",
        "district": "Nova Sapucaia",
        "street": "Rua Argemiro Ribeiro Moreira",
        "zipcode": "93226-260"
    },
    {
        "city": "Sapucaia do Sul",
        "state": "RS",
        "district": "Boa Vista",
        "street": "Rua Arlindo José Gross",
        "zipcode": "93230-040"
    },
    {
        "city": "Sapucaia do Sul",
        "state": "RS",
        "district": "Pasqualini",
        "street": "Travessa Borba Gato",
        "zipcode": "93224-700"
    },
    {
        "city": "Sapucaia do Sul",
        "state": "RS",
        "district": "Nova Sapucaia",
        "street": "Rua Cabrália",
        "zipcode": "93226-280"
    },
    {
        "city": "Sapucaia do Sul",
        "state": "RS",
        "district": "Nova Sapucaia",
        "street": "Rua Djalma Sassi",
        "zipcode": "93224-680"
    },
    {
        "city": "Sapucaia do Sul",
        "state": "RS",
        "district": "Nova Sapucaia",
        "street": "Travessa Java",
        "zipcode": "93226-300"
    },
    {
        "city": "Sapucaia do Sul",
        "state": "RS",
        "district": "Capão da Cruz",
        "street": "Rua Laval de Mattos",
        "zipcode": "93226-440"
    },
    {
        "city": "Sapucaia do Sul",
        "state": "RS",
        "district": "Lomba da Palmeira",
        "street": "Rua Nestor Moraes",
        "zipcode": "93224-710"
    },
    {
        "city": "Sapucaia do Sul",
        "state": "RS",
        "district": "Ipiranga",
        "street": "Rua Nossa Senhora Aparecida",
        "zipcode": "93230-520"
    },
    {
        "city": "Sapucaia do Sul",
        "state": "RS",
        "district": "Ipiranga",
        "street": "Rua Oswaldo Dias",
        "zipcode": "93230-530"
    },
    {
        "city": "Sapucaia do Sul",
        "state": "RS",
        "district": "Nova Sapucaia",
        "street": "Travessa Ouro Preto",
        "zipcode": "93226-340"
    },
    {
        "city": "Sapucaia do Sul",
        "state": "RS",
        "district": "Capão da Cruz",
        "street": "Rua Padre Reus",
        "zipcode": "93226-350"
    },
    {
        "city": "Sapucaia do Sul",
        "state": "RS",
        "district": "Ipiranga",
        "street": "Rua Pereira de Vasconcelos",
        "zipcode": "93230-550"
    },
    {
        "city": "Sapucaia do Sul",
        "state": "RS",
        "district": "Nova Sapucaia",
        "street": "Avenida República",
        "zipcode": "93226-370"
    },
    {
        "city": "Sapucaia do Sul",
        "state": "RS",
        "district": "Nova Sapucaia",
        "street": "Rua Rio Negro",
        "zipcode": "93226-380"
    },
    {
        "city": "Sapucaia do Sul",
        "state": "RS",
        "district": "Camboim",
        "street": "Travessa São Lucas",
        "zipcode": "93224-620"
    },
    {
        "city": "Sapucaia do Sul",
        "state": "RS",
        "district": "Camboim",
        "street": "Rua São Paulo",
        "zipcode": "93224-630"
    },
    {
        "city": "Sapucaia do Sul",
        "state": "RS",
        "district": "Sete",
        "street": "Rua Sepé Tiaraju",
        "zipcode": "93224-640"
    },
    {
        "city": "Sapucaia do Sul",
        "state": "RS",
        "district": "Ipiranga",
        "street": "Rua dos Sinos",
        "zipcode": "93230-560"
    },
    {
        "city": "Sapucaia do Sul",
        "state": "RS",
        "district": "Nova Sapucaia",
        "street": "Rua Vasco de Ataide",
        "zipcode": "93226-400"
    },
    {
        "city": "Sapucaia do Sul",
        "state": "RS",
        "district": "Sete",
        "street": "Rua Vicente Tessadri",
        "zipcode": "93224-670"
    },
    {
        "city": "Sapucaia do Sul",
        "state": "RS",
        "district": "Boa Vista",
        "street": "Rua Arminda Vidal Wailer",
        "zipcode": "93230-050"
    },
    {
        "city": "Sapucaia do Sul",
        "state": "RS",
        "district": "Nova Sapucaia",
        "street": "Travessa Bandeirantes",
        "zipcode": "93226-270"
    },
    {
        "city": "Sapucaia do Sul",
        "state": "RS",
        "district": "Pasqualini",
        "street": "Rua Danilo Strapazzon",
        "zipcode": "93224-663"
    },
    {
        "city": "Sapucaia do Sul",
        "state": "RS",
        "district": "Lomba da Palmeira",
        "street": "Rua Reni Afonso Ribeiro (Jd Europa)",
        "zipcode": "93224-730"
    },
    {
        "city": "Sapucaia do Sul",
        "state": "RS",
        "district": "Boa Vista",
        "street": "Rua Lions Club",
        "zipcode": "93230-059"
    },
    {
        "city": "Sapucaia do Sul",
        "state": "RS",
        "district": "Ipiranga",
        "street": "Rua Planalto",
        "zipcode": "93230-495"
    },
    {
        "city": "Sapucaia do Sul",
        "state": "RS",
        "district": "Ipiranga",
        "street": "Rua John Kennedy Junior",
        "zipcode": "93230-497"
    },
    {
        "city": "Sapucaia do Sul",
        "state": "RS",
        "district": "Ipiranga",
        "street": "Rua Nova Esperança",
        "zipcode": "93230-498"
    },
    {
        "city": "Sapucaia do Sul",
        "state": "RS",
        "district": "Ipiranga",
        "street": "Rua Vinte e Três de Maio",
        "zipcode": "93230-499"
    },
    {
        "city": "Sapucaia do Sul",
        "state": "RS",
        "district": "Ipiranga",
        "street": "Rua Airton Senna",
        "zipcode": "93230-512"
    },
    {
        "city": "Sapucaia do Sul",
        "state": "RS",
        "district": "Boa Vista",
        "street": "Rua Feliciano A de Araújo",
        "zipcode": "93230-608"
    },
    {
        "city": "Sapucaia do Sul",
        "state": "RS",
        "district": "Boa Vista",
        "street": "Avenida Juventino Machado",
        "zipcode": "93230-620"
    },
    {
        "city": "Sapucaia do Sul",
        "state": "RS",
        "district": "Boa Vista",
        "street": "Rua Otacílio C Duarte",
        "zipcode": "93230-642"
    },
    {
        "city": "Sapucaia do Sul",
        "state": "RS",
        "district": "Nova Sapucaia",
        "street": "Rua Oscar Burzlati",
        "zipcode": "93226-292"
    },
    {
        "city": "Sapucaia do Sul",
        "state": "RS",
        "district": "Ipiranga",
        "street": "Rua Arno Kirsch",
        "zipcode": "93230-562"
    },
    {
        "city": "Sapucaia do Sul",
        "state": "RS",
        "district": "Boa Vista",
        "street": "Rua Santos Dumont",
        "zipcode": "93230-864"
    },
    {
        "city": "Sapucaia do Sul",
        "state": "RS",
        "district": "Boa Vista",
        "street": "Rua Padre Landel de Moura",
        "zipcode": "93230-878"
    },
    {
        "city": "Sapucaia do Sul",
        "state": "RS",
        "district": "Boa Vista",
        "street": "Beco Tatuíra",
        "zipcode": "93230-890"
    },
    {
        "city": "Sapucaia do Sul",
        "state": "RS",
        "district": "Boa Vista",
        "street": "Rua Zuleika Pinto da Silva",
        "zipcode": "93230-610"
    },
    {
        "city": "Sapucaia do Sul",
        "state": "RS",
        "district": "Boa Vista",
        "street": "Rua Antenor da Silva",
        "zipcode": "93230-616"
    },
    {
        "city": "Sapucaia do Sul",
        "state": "RS",
        "district": "Boa Vista",
        "street": "Rua Thales Alves de Souza",
        "zipcode": "93230-618"
    },
    {
        "city": "Sapucaia do Sul",
        "state": "RS",
        "district": "Boa Vista",
        "street": "Rua Vitorino Begnini",
        "zipcode": "93230-622"
    },
    {
        "city": "Sapucaia do Sul",
        "state": "RS",
        "district": "Boa Vista",
        "street": "Rua Olga de Souza Cardoso",
        "zipcode": "93230-628"
    },
    {
        "city": "Sapucaia do Sul",
        "state": "RS",
        "district": "Boa Vista",
        "street": "Rua Emilia Bilert Schmidt",
        "zipcode": "93230-630"
    },
    {
        "city": "Sapucaia do Sul",
        "state": "RS",
        "district": "Boa Vista",
        "street": "Rua Julieta Lemos Saeger",
        "zipcode": "93230-634"
    },
    {
        "city": "Sapucaia do Sul",
        "state": "RS",
        "district": "Boa Vista",
        "street": "Rua João Alves Coelho",
        "zipcode": "93230-638"
    },
    {
        "city": "Sapucaia do Sul",
        "state": "RS",
        "district": "Boa Vista",
        "street": "Rua Gaspar Martins",
        "zipcode": "93230-852"
    },
    {
        "city": "Sapucaia do Sul",
        "state": "RS",
        "district": "Boa Vista",
        "street": "Rua Guarani",
        "zipcode": "93230-854"
    },
    {
        "city": "Sapucaia do Sul",
        "state": "RS",
        "district": "Boa Vista",
        "street": "Rua Ulisses Guimarães",
        "zipcode": "93230-856"
    },
    {
        "city": "Sapucaia do Sul",
        "state": "RS",
        "district": "Boa Vista",
        "street": "Rua Tomas Edson",
        "zipcode": "93230-850"
    },
    {
        "city": "Sapucaia do Sul",
        "state": "RS",
        "district": "Nova Sapucaia",
        "street": "Rua Avelino de Araújo",
        "zipcode": "93230-410"
    },
    {
        "city": "Sapucaia do Sul",
        "state": "RS",
        "district": "Nova Sapucaia",
        "street": "Rua Avelino Gonçalves de Lima",
        "zipcode": "93228-040"
    },
    {
        "city": "Sapucaia do Sul",
        "state": "RS",
        "district": "Boa Vista",
        "street": "Rua Clóvis Ely",
        "zipcode": "93230-000"
    },
    {
        "city": "Sapucaia do Sul",
        "state": "RS",
        "district": "Walderez",
        "street": "Rua Cruz Alta",
        "zipcode": "93228-080"
    },
    {
        "city": "Sapucaia do Sul",
        "state": "RS",
        "district": "Ipiranga",
        "street": "Rua Dionísio Moraes",
        "zipcode": "93230-450"
    },
    {
        "city": "Sapucaia do Sul",
        "state": "RS",
        "district": "Walderez",
        "street": "Rua Dom Pedrito",
        "zipcode": "93228-100"
    },
    {
        "city": "Sapucaia do Sul",
        "state": "RS",
        "district": "Ipiranga",
        "street": "Rua Dona Maria da Glória",
        "zipcode": "93230-460"
    },
    {
        "city": "Sapucaia do Sul",
        "state": "RS",
        "district": "Ipiranga",
        "street": "Rua Ernesto Recktenwald",
        "zipcode": "93230-470"
    },
    {
        "city": "Sapucaia do Sul",
        "state": "RS",
        "district": "Ipiranga",
        "street": "Travessa Esperança",
        "zipcode": "93230-480"
    },
    {
        "city": "Sapucaia do Sul",
        "state": "RS",
        "district": "Nova Sapucaia",
        "street": "Rua Estevan Nunes de Vargas",
        "zipcode": "93228-110"
    },
    {
        "city": "Sapucaia do Sul",
        "state": "RS",
        "district": "Walderez",
        "street": "Rua Evaristo da Veiga",
        "zipcode": "93228-120"
    },
    {
        "city": "Sapucaia do Sul",
        "state": "RS",
        "district": "Passo de Sapucaia",
        "street": "Rua Gramado",
        "zipcode": "93228-130"
    },
    {
        "city": "Sapucaia do Sul",
        "state": "RS",
        "district": "Nova Sapucaia",
        "street": "Avenida João Pereira de Vargas",
        "zipcode": "93230-210"
    },
    {
        "city": "Sapucaia do Sul",
        "state": "RS",
        "district": "Nova Sapucaia",
        "street": "Rua Lidovino Fanton",
        "zipcode": "93228-160"
    },
    {
        "city": "Sapucaia do Sul",
        "state": "RS",
        "district": "Capão da Cruz",
        "street": "Rua Madre Joana Angélica",
        "zipcode": "93226-150"
    },
    {
        "city": "Sapucaia do Sul",
        "state": "RS",
        "district": "Ipiranga",
        "street": "Rua Manoel Ferreira Cardoso",
        "zipcode": "93230-500"
    },
    {
        "city": "Sapucaia do Sul",
        "state": "RS",
        "district": "Capão da Cruz",
        "street": "Rua Maria de Lurdes Fontoura da Silva",
        "zipcode": "93226-160"
    },
    {
        "city": "Sapucaia do Sul",
        "state": "RS",
        "district": "Nova Sapucaia",
        "street": "Rua Maria Silveira",
        "zipcode": "93228-200"
    },
    {
        "city": "Sapucaia do Sul",
        "state": "RS",
        "district": "Nova Sapucaia",
        "street": "Rua Otacílio da Cunha",
        "zipcode": "93228-210"
    },
    {
        "city": "Sapucaia do Sul",
        "state": "RS",
        "district": "Capão da Cruz",
        "street": "Travessa Paineira",
        "zipcode": "93226-180"
    },
    {
        "city": "Sapucaia do Sul",
        "state": "RS",
        "district": "Ipiranga",
        "street": "Rua Paulo Couto",
        "zipcode": "93230-540"
    },
    {
        "city": "Sapucaia do Sul",
        "state": "RS",
        "district": "Nova Sapucaia",
        "street": "Rua Pedro Lima",
        "zipcode": "93230-300"
    },
    {
        "city": "Sapucaia do Sul",
        "state": "RS",
        "district": "Capão da Cruz",
        "street": "Rua Pero Lopes de Souza",
        "zipcode": "93226-190"
    },
    {
        "city": "Sapucaia do Sul",
        "state": "RS",
        "district": "Walderez",
        "street": "Rua Rio Madeira",
        "zipcode": "93228-240"
    },
    {
        "city": "Sapucaia do Sul",
        "state": "RS",
        "district": "Capão da Cruz",
        "street": "Rodovia RS",
        "zipcode": "93226-210"
    },
    {
        "city": "Sapucaia do Sul",
        "state": "RS",
        "district": "Walderez",
        "street": "Rua São Benedito",
        "zipcode": "93228-250"
    },
    {
        "city": "Sapucaia do Sul",
        "state": "RS",
        "district": "Walderez",
        "street": "Rua São Bento",
        "zipcode": "93228-260"
    },
    {
        "city": "Sapucaia do Sul",
        "state": "RS",
        "district": "Boa Vista",
        "street": "Rua São Jerônimo",
        "zipcode": "93230-340"
    },
    {
        "city": "Sapucaia do Sul",
        "state": "RS",
        "district": "Passo de Sapucaia",
        "street": "Rua Tomaz Edison",
        "zipcode": "93228-290"
    },
    {
        "city": "Sapucaia do Sul",
        "state": "RS",
        "district": "Boa Vista",
        "street": "Rua Waldemar Pereira de Vargas",
        "zipcode": "93230-380"
    },
    {
        "city": "Sapucaia do Sul",
        "state": "RS",
        "district": "Ipiranga",
        "street": "Rua Cabo Verde",
        "zipcode": "93230-430"
    },
    {
        "city": "Sapucaia do Sul",
        "state": "RS",
        "district": "Walderez",
        "street": "Rua José Antônio Saraiva",
        "zipcode": "93228-150"
    },
    {
        "city": "Sapucaia do Sul",
        "state": "RS",
        "district": "Walderez",
        "street": "Rua Washington Luiz",
        "zipcode": "93228-320"
    },
    {
        "city": "Sapucaia do Sul",
        "state": "RS",
        "district": "Walderez",
        "street": "Rua Livramento",
        "zipcode": "93228-170"
    },
    {
        "city": "Sapucaia do Sul",
        "state": "RS",
        "district": "Ipiranga",
        "street": "Rua Leopoldo Vieira (Lot Rec Rosas)",
        "zipcode": "93230-529"
    },
    {
        "city": "Sapucaia do Sul",
        "state": "RS",
        "district": "Ipiranga",
        "street": "Rua Balduino Menezes dos Santos (Lot Rec Rosas)",
        "zipcode": "93230-526"
    },
    {
        "city": "Sapucaia do Sul",
        "state": "RS",
        "district": "Nova Sapucaia",
        "street": "Rua Eloiba Torquato",
        "zipcode": "93228-316"
    },
    {
        "city": "Sapucaia do Sul",
        "state": "RS",
        "district": "Costa do Morro",
        "street": "Travessa Balneário (Lot N Horizonte)",
        "zipcode": "93234-134"
    },
    {
        "city": "Sapucaia do Sul",
        "state": "RS",
        "district": "Ipiranga",
        "street": "Rua José Alvides Schenatto (Lot Rec Rosas)",
        "zipcode": "93230-524"
    },
    {
        "city": "Sapucaia do Sul",
        "state": "RS",
        "district": "Costa do Morro",
        "street": "Rua das Hortênsias (Lot N Horizonte)",
        "zipcode": "93234-000"
    },
    {
        "city": "Sapucaia do Sul",
        "state": "RS",
        "district": "Costa do Morro",
        "street": "Rua Clodovino Soares (Lot N Horizonte)",
        "zipcode": "93234-102"
    },
    {
        "city": "Sapucaia do Sul",
        "state": "RS",
        "district": "Costa do Morro",
        "street": "Rua Coronel Maciel (Lot N Horizonte)",
        "zipcode": "93234-100"
    },
    {
        "city": "Sapucaia do Sul",
        "state": "RS",
        "district": "Nova Sapucaia",
        "street": "Rua Osvaldo Ernesto Renner",
        "zipcode": "93226-330"
    },
    {
        "city": "Sapucaia do Sul",
        "state": "RS",
        "district": "Ipiranga",
        "street": "Travessa Brasilia",
        "zipcode": "93230-422"
    },
    {
        "city": "Sapucaia do Sul",
        "state": "RS",
        "district": "Ipiranga",
        "street": "Rua da Realidade",
        "zipcode": "93230-486"
    },
    {
        "city": "Sapucaia do Sul",
        "state": "RS",
        "district": "Ipiranga",
        "street": "Rua John Lennon",
        "zipcode": "93230-494"
    },
    {
        "city": "Sapucaia do Sul",
        "state": "RS",
        "district": "Ipiranga",
        "street": "Rua Panorama",
        "zipcode": "93230-496"
    },
    {
        "city": "Sapucaia do Sul",
        "state": "RS",
        "district": "Ipiranga",
        "street": "Rua Vinicius de Morais",
        "zipcode": "93230-516"
    },
    {
        "city": "Sapucaia do Sul",
        "state": "RS",
        "district": "Boa Vista",
        "street": "Rua Benjamin Constant",
        "zipcode": "93230-080"
    },
    {
        "city": "Sapucaia do Sul",
        "state": "RS",
        "district": "COHAB",
        "street": "Rua Capitão Marcelino da Costa Leite",
        "zipcode": "93216-100"
    },
    {
        "city": "Sapucaia do Sul",
        "state": "RS",
        "district": "Capão da Cruz",
        "street": "Rua Carlos Gomes",
        "zipcode": "93226-030"
    },
    {
        "city": "Sapucaia do Sul",
        "state": "RS",
        "district": "Capão da Cruz",
        "street": "Rua Dante Macari",
        "zipcode": "93226-060"
    },
    {
        "city": "Sapucaia do Sul",
        "state": "RS",
        "district": "Capão da Cruz",
        "street": "Rua Dona Josefina",
        "zipcode": "93226-070"
    },
    {
        "city": "Sapucaia do Sul",
        "state": "RS",
        "district": "Camboim",
        "street": "Rua Elizeu Terto da Silva",
        "zipcode": "93226-090"
    },
    {
        "city": "Sapucaia do Sul",
        "state": "RS",
        "district": "Boa Vista",
        "street": "Rua Frei Henrique de Coimbra",
        "zipcode": "93230-180"
    },
    {
        "city": "Sapucaia do Sul",
        "state": "RS",
        "district": "Dihel",
        "street": "Rua Imperatriz Tereza Maria Cristina",
        "zipcode": "93214-140"
    },
    {
        "city": "Sapucaia do Sul",
        "state": "RS",
        "district": "Boa Vista",
        "street": "Rua Monte Alegre",
        "zipcode": "93230-726"
    },
    {
        "city": "Sapucaia do Sul",
        "state": "RS",
        "district": "Capão da Cruz",
        "street": "Travessa Louro",
        "zipcode": "93226-140"
    },
    {
        "city": "Sapucaia do Sul",
        "state": "RS",
        "district": "Passo de Sapucaia",
        "street": "Rua Luiz Lopes",
        "zipcode": "93228-190"
    },
    {
        "city": "Sapucaia do Sul",
        "state": "RS",
        "district": "Nova Sapucaia",
        "street": "Rua Marciano Caetano da Silveira",
        "zipcode": "93224-200"
    },
    {
        "city": "Sapucaia do Sul",
        "state": "RS",
        "district": "Nova Sapucaia",
        "street": "Rua Mundo Novo",
        "zipcode": "93226-320"
    },
    {
        "city": "Sapucaia do Sul",
        "state": "RS",
        "district": "Capão da Cruz",
        "street": "Rua Novo Hamburgo",
        "zipcode": "93226-470"
    },
    {
        "city": "Sapucaia do Sul",
        "state": "RS",
        "district": "Sete",
        "street": "Rua Octacílio José Lucas",
        "zipcode": "93224-560"
    },
    {
        "city": "Sapucaia do Sul",
        "state": "RS",
        "district": "Três Portos",
        "street": "Rua Osvaldo Aranha",
        "zipcode": "93212-640"
    },
    {
        "city": "Sapucaia do Sul",
        "state": "RS",
        "district": "Walderez",
        "street": "Rua Reino Unido",
        "zipcode": "93228-230"
    },
    {
        "city": "Sapucaia do Sul",
        "state": "RS",
        "district": "Pasqualini",
        "street": "Rua Ruben Braum",
        "zipcode": "93224-610"
    },
    {
        "city": "Sapucaia do Sul",
        "state": "RS",
        "district": "Capão da Cruz",
        "street": "Rua Santa Terezinha",
        "zipcode": "93226-220"
    },
    {
        "city": "Sapucaia do Sul",
        "state": "RS",
        "district": "Capão da Cruz",
        "street": "Rua Tenente Timbauva",
        "zipcode": "93226-540"
    },
    {
        "city": "Sapucaia do Sul",
        "state": "RS",
        "district": "Nova Sapucaia",
        "street": "Rua Venâncio Aires",
        "zipcode": "93226-410"
    },
    {
        "city": "Sapucaia do Sul",
        "state": "RS",
        "district": "Nova Sapucaia",
        "street": "Rua Verena Alves",
        "zipcode": "93228-310"
    },
    {
        "city": "Sapucaia do Sul",
        "state": "RS",
        "district": "Capão da Cruz",
        "street": "Rua Vieira Gomes",
        "zipcode": "93226-250"
    },
    {
        "city": "Sapucaia do Sul",
        "state": "RS",
        "district": "São José",
        "street": "Avenida José Joaquim",
        "zipcode": "93218-210"
    },
    {
        "city": "Sapucaia do Sul",
        "state": "RS",
        "district": "Piratini",
        "street": "Avenida José Joaquim",
        "zipcode": "93216-310"
    },
    {
        "city": "Sapucaia do Sul",
        "state": "RS",
        "district": "Ipiranga",
        "street": "Rua do Tambo",
        "zipcode": "93228-270"
    },
    {
        "city": "Sapucaia do Sul",
        "state": "RS",
        "district": "Nova Sapucaia",
        "street": "Travessa Dílio Andreoti",
        "zipcode": "93228-090"
    },
    {
        "city": "Sapucaia do Sul",
        "state": "RS",
        "district": "Nova Sapucaia",
        "street": "Rua Cristiano Otoni",
        "zipcode": "93226-290"
    },
    {
        "city": "Sapucaia do Sul",
        "state": "RS",
        "district": "Lomba da Palmeira",
        "street": "Rua Nair da Silva Rufino (Lot Jd América)",
        "zipcode": "93225-050"
    },
    {
        "city": "Sapucaia do Sul",
        "state": "RS",
        "district": "Lomba da Palmeira",
        "street": "Rua Teixeirinha (Lot Jd América)",
        "zipcode": "93225-160"
    },
    {
        "city": "Sapucaia do Sul",
        "state": "RS",
        "district": "Vargas",
        "street": "Beco Assis Brasil",
        "zipcode": "93222-294"
    },
    {
        "city": "Sapucaia do Sul",
        "state": "RS",
        "district": "Vargas",
        "street": "Rua Chê Guevara",
        "zipcode": "93222-645"
    },
    {
        "city": "Sapucaia do Sul",
        "state": "RS",
        "district": "Pasqualini",
        "street": "Rua Adão Grisa (Lot Três Figueiras)",
        "zipcode": "93224-475"
    },
    {
        "city": "Sapucaia do Sul",
        "state": "RS",
        "district": "Capão da Cruz",
        "street": "Rua Garibaldi (Lot P. Simon)",
        "zipcode": "93226-462"
    },
    {
        "city": "Sapucaia do Sul",
        "state": "RS",
        "district": "Capão da Cruz",
        "street": "Rua Sapiranga (Lot P. Simon)",
        "zipcode": "93226-476"
    },
    {
        "city": "Sapucaia do Sul",
        "state": "RS",
        "district": "Lomba da Palmeira",
        "street": "Rua Eliandro Matias de Souza (Lot Jd América)",
        "zipcode": "93225-015"
    },
    {
        "city": "Sapucaia do Sul",
        "state": "RS",
        "district": "Walderez",
        "street": "Rua Martinho Sesterhenn",
        "zipcode": "93226-503"
    },
    {
        "city": "Sapucaia do Sul",
        "state": "RS",
        "district": "Vargas",
        "street": "Rua dos Tucanos",
        "zipcode": "93222-766"
    },
    {
        "city": "Sapucaia do Sul",
        "state": "RS",
        "district": "Vargas",
        "street": "Rua das Caturritas",
        "zipcode": "93222-760"
    },
    {
        "city": "Sapucaia do Sul",
        "state": "RS",
        "district": "Vargas",
        "street": "Rua dos Sabiás",
        "zipcode": "93222-730"
    },
    {
        "city": "Sapucaia do Sul",
        "state": "RS",
        "district": "Colonial",
        "street": "Rua do Jasmim",
        "zipcode": "93212-012"
    },
    {
        "city": "Sapucaia do Sul",
        "state": "RS",
        "district": "Boa Vista",
        "street": "Avenida do Arroio",
        "zipcode": "93230-060"
    },
    {
        "city": "Sapucaia do Sul",
        "state": "RS",
        "district": "Ipiranga",
        "street": "Rua Marieta Francisca Souza Silva (Lot Terra Nova)",
        "zipcode": "93230-483"
    },
    {
        "city": "Sapucaia do Sul",
        "state": "RS",
        "district": "Capão da Cruz",
        "street": "Beco Almeida João Saraiva",
        "zipcode": "93226-152"
    },
    {
        "city": "Sapucaia do Sul",
        "state": "RS",
        "district": "Boa Vista",
        "street": "Rua Waldemar J. Rickman",
        "zipcode": "93230-058"
    },
    {
        "city": "Sapucaia do Sul",
        "state": "RS",
        "district": "Ipiranga",
        "street": "Rua Heládio Medeiros de Azevedo (Lot Terra Nova)",
        "zipcode": "93230-485"
    },
    {
        "city": "Sapucaia do Sul",
        "state": "RS",
        "district": "Colonial",
        "street": "Rua das Palmas",
        "zipcode": "93212-018"
    },
    {
        "city": "Sapucaia do Sul",
        "state": "RS",
        "district": "Vargas",
        "street": "Rua Servidão",
        "zipcode": "93222-838"
    },
    {
        "city": "Sapucaia do Sul",
        "state": "RS",
        "district": "Zoológico",
        "street": "Rua do Pesqueiro",
        "zipcode": "93211-724"
    },
    {
        "city": "Sapucaia do Sul",
        "state": "RS",
        "district": "Sete",
        "street": "Travessa Elza",
        "zipcode": "93224-564"
    },
    {
        "city": "Sapucaia do Sul",
        "state": "RS",
        "district": "Pasqualini",
        "street": "Rua Jaguari",
        "zipcode": "93224-616"
    },
    {
        "city": "Sapucaia do Sul",
        "state": "RS",
        "district": "Pasqualini",
        "street": "Rua Araqua",
        "zipcode": "93224-360"
    },
    {
        "city": "Sapucaia do Sul",
        "state": "RS",
        "district": "Vargas",
        "street": "Rua Beira Campos",
        "zipcode": "93222-450"
    },
    {
        "city": "Sapucaia do Sul",
        "state": "RS",
        "district": "Pasqualini",
        "street": "Rua Dom Pedro I",
        "zipcode": "93224-410"
    },
    {
        "city": "Sapucaia do Sul",
        "state": "RS",
        "district": "Paraíso",
        "street": "Rua Dulcimar Cardoso",
        "zipcode": "93220-560"
    },
    {
        "city": "Sapucaia do Sul",
        "state": "RS",
        "district": "Vargas",
        "street": "Rua Farrapos",
        "zipcode": "93222-040"
    },
    {
        "city": "Sapucaia do Sul",
        "state": "RS",
        "district": "Vargas",
        "street": "Rua Gonçalo Coelho",
        "zipcode": "93222-290"
    },
    {
        "city": "Sapucaia do Sul",
        "state": "RS",
        "district": "Sete",
        "street": "Rua Humberto Felipe",
        "zipcode": "93224-450"
    },
    {
        "city": "Sapucaia do Sul",
        "state": "RS",
        "district": "Vargas",
        "street": "Rua Igrejinha",
        "zipcode": "93222-390"
    },
    {
        "city": "Sapucaia do Sul",
        "state": "RS",
        "district": "Paraíso",
        "street": "Rua Luiz Cardoso",
        "zipcode": "93220-620"
    },
    {
        "city": "Sapucaia do Sul",
        "state": "RS",
        "district": "Centro",
        "street": "Avenida Mauá",
        "zipcode": "93218-270"
    },
    {
        "city": "Sapucaia do Sul",
        "state": "RS",
        "district": "Capão da Cruz",
        "street": "Rua Nova Petrópolis (Lot P. Simon)",
        "zipcode": "93226-465"
    },
    {
        "city": "Sapucaia do Sul",
        "state": "RS",
        "district": "Jardim",
        "street": "Rua Maurício Cardoso",
        "zipcode": "93222-310"
    },
    {
        "city": "Sapucaia do Sul",
        "state": "RS",
        "district": "Pasqualini",
        "street": "Rua Minuano",
        "zipcode": "93224-520"
    },
    {
        "city": "Sapucaia do Sul",
        "state": "RS",
        "district": "Pasqualini",
        "street": "Rua Montesul",
        "zipcode": "93224-530"
    },
    {
        "city": "Sapucaia do Sul",
        "state": "RS",
        "district": "Camboim",
        "street": "Rua Pedro Porfírio de Souza",
        "zipcode": "93224-590"
    },
    {
        "city": "Sapucaia do Sul",
        "state": "RS",
        "district": "Primor",
        "street": "Avenida Primor",
        "zipcode": "93220-350"
    },
    {
        "city": "Sapucaia do Sul",
        "state": "RS",
        "district": "Centro",
        "street": "Rua Professor Francisco Brochado da Rocha",
        "zipcode": "93220-680"
    },
    {
        "city": "Sapucaia do Sul",
        "state": "RS",
        "district": "Sete",
        "street": "Rua Santa Cruz",
        "zipcode": "93224-300"
    },
    {
        "city": "Sapucaia do Sul",
        "state": "RS",
        "district": "Vargas",
        "street": "Rua Santa Maria",
        "zipcode": "93222-150"
    },
    {
        "city": "Sapucaia do Sul",
        "state": "RS",
        "district": "Vargas",
        "street": "Rua São Caetano",
        "zipcode": "93222-430"
    },
    {
        "city": "Sapucaia do Sul",
        "state": "RS",
        "district": "Primor",
        "street": "Travessa São Francisco de Assis",
        "zipcode": "93220-710"
    },
    {
        "city": "Sapucaia do Sul",
        "state": "RS",
        "district": "Centro",
        "street": "Rua Ubatuba de Farias",
        "zipcode": "93220-430"
    },
    {
        "city": "Sapucaia do Sul",
        "state": "RS",
        "district": "Sete",
        "street": "Rua União da Vitória",
        "zipcode": "93224-330"
    },
    {
        "city": "Sapucaia do Sul",
        "state": "RS",
        "district": "Colonial",
        "street": "Rua Vinte de Agosto",
        "zipcode": "93212-710"
    },
    {
        "city": "Sapucaia do Sul",
        "state": "RS",
        "district": "Vargas",
        "street": "Rua Paraná",
        "zipcode": "93222-530"
    },
    {
        "city": "Sapucaia do Sul",
        "state": "RS",
        "district": "Pasqualini",
        "street": "Rua Pedro Johann",
        "zipcode": "93224-230"
    },
    {
        "city": "Sapucaia do Sul",
        "state": "RS",
        "district": "Paraíso",
        "street": "Rua Amazonas",
        "zipcode": "93224-030"
    },
    {
        "city": "Sapucaia do Sul",
        "state": "RS",
        "district": "Ipiranga",
        "street": "Avenida Coronel Theodomiro Porto da Fonseca",
        "zipcode": "93230-457"
    },
    {
        "city": "Sapucaia do Sul",
        "state": "RS",
        "district": "Walderez",
        "street": "Rodovia RS",
        "zipcode": "93228-248"
    },
    {
        "city": "Sapucaia do Sul",
        "state": "RS",
        "district": "Jardim",
        "street": "Rua Arquibal Velinho",
        "zipcode": "93220-040"
    },
    {
        "city": "Sapucaia do Sul",
        "state": "RS",
        "district": "Dihel",
        "street": "Rua Bagé",
        "zipcode": "93214-030"
    },
    {
        "city": "Sapucaia do Sul",
        "state": "RS",
        "district": "Ipiranga",
        "street": "Rua Brasília",
        "zipcode": "93230-420"
    },
    {
        "city": "Sapucaia do Sul",
        "state": "RS",
        "district": "São José",
        "street": "Travessa do Carmo",
        "zipcode": "93218-070"
    },
    {
        "city": "Sapucaia do Sul",
        "state": "RS",
        "district": "COHAB",
        "street": "Rua Darcy Nunes",
        "zipcode": "93216-140"
    },
    {
        "city": "Sapucaia do Sul",
        "state": "RS",
        "district": "Centro",
        "street": "Travessa Democrata",
        "zipcode": "93214-360"
    },
    {
        "city": "Sapucaia do Sul",
        "state": "RS",
        "district": "Freitas",
        "street": "Rua Dona Ecilda",
        "zipcode": "93218-110"
    },
    {
        "city": "Sapucaia do Sul",
        "state": "RS",
        "district": "Freitas",
        "street": "Rua Doutor Otávio Azambuja",
        "zipcode": "93218-150"
    },
    {
        "city": "Sapucaia do Sul",
        "state": "RS",
        "district": "Paraíso",
        "street": "Rua Iracema Fernandes Lemes",
        "zipcode": "93220-758"
    },
    {
        "city": "Sapucaia do Sul",
        "state": "RS",
        "district": "Vargas",
        "street": "Rua Santo Ângelo",
        "zipcode": "93222-065"
    },
    {
        "city": "Sapucaia do Sul",
        "state": "RS",
        "district": "Lomba da Palmeira",
        "street": "Rua Inácio Maciel Medeiros (Lot Jd América)",
        "zipcode": "93225-103"
    },
    {
        "city": "Sapucaia do Sul",
        "state": "RS",
        "district": "São José",
        "street": "Rua Jacarandá (Lot Jd Anchieta)",
        "zipcode": "93218-630"
    },
    {
        "city": "Sapucaia do Sul",
        "state": "RS",
        "district": "São José",
        "street": "Rua Guajuvira (Lot Jd Anchieta)",
        "zipcode": "93218-605"
    },
    {
        "city": "Sapucaia do Sul",
        "state": "RS",
        "district": "São José",
        "street": "Rua Acácia Mimosa (Lot Jd Anchieta)",
        "zipcode": "93218-655"
    },
    {
        "city": "Sapucaia do Sul",
        "state": "RS",
        "district": "Vargas",
        "street": "Rua São Judas Tadeu",
        "zipcode": "93222-625"
    },
    {
        "city": "Sapucaia do Sul",
        "state": "RS",
        "district": "Ipiranga",
        "street": "Rua Rejane Reolom Zimmermann",
        "zipcode": "93230-434"
    },
    {
        "city": "Sapucaia do Sul",
        "state": "RS",
        "district": "Walderez",
        "street": "Rua Maria Alves da Silveira",
        "zipcode": "93226-512"
    },
    {
        "city": "Sapucaia do Sul",
        "state": "RS",
        "district": "Pasqualini",
        "street": "Rua Wanda Laura Beilfuss Gehrke (Lot Glória)",
        "zipcode": "93224-483"
    },
    {
        "city": "Sapucaia do Sul",
        "state": "RS",
        "district": "Pasqualini",
        "street": "Rua Paulo Roberto Weber dos Santos (Lot Glória)",
        "zipcode": "93224-478"
    },
    {
        "city": "Sapucaia do Sul",
        "state": "RS",
        "district": "Lomba da Palmeira",
        "street": "Rua Sueli Dias Ribeiro (Jd Europa)",
        "zipcode": "93224-715"
    },
    {
        "city": "Sapucaia do Sul",
        "state": "RS",
        "district": "Passo de Sapucaia",
        "street": "Rua Canela",
        "zipcode": "93228-060"
    },
    {
        "city": "Sapucaia do Sul",
        "state": "RS",
        "district": "Boa Vista",
        "street": "Praça Avelino Domingos da Silva",
        "zipcode": "93230-070"
    },
    {
        "city": "Sapucaia do Sul",
        "state": "RS",
        "district": "Sete",
        "street": "Travessa Senador Daltro Filho",
        "zipcode": "93222-012"
    },
    {
        "city": "Sapucaia do Sul",
        "state": "RS",
        "district": "Vargas",
        "street": "Rua Macapá",
        "zipcode": "93219-073"
    },
    {
        "city": "Sapucaia do Sul",
        "state": "RS",
        "district": "Piratini",
        "street": "Rua Doutor Silveira",
        "zipcode": "93216-170"
    },
    {
        "city": "Sapucaia do Sul",
        "state": "RS",
        "district": "COHAB",
        "street": "Rua Edemar Antunes",
        "zipcode": "93216-190"
    },
    {
        "city": "Sapucaia do Sul",
        "state": "RS",
        "district": "Santa Catarina",
        "street": "Rua Felipe Camarão",
        "zipcode": "93214-400"
    },
    {
        "city": "Sapucaia do Sul",
        "state": "RS",
        "district": "Silva",
        "street": "Rua Francisca Silva",
        "zipcode": "93214-110"
    },
    {
        "city": "Sapucaia do Sul",
        "state": "RS",
        "district": "Jardim",
        "street": "Rua Franklim Silva",
        "zipcode": "93220-130"
    },
    {
        "city": "Sapucaia do Sul",
        "state": "RS",
        "district": "Centro",
        "street": "Rua General Osório",
        "zipcode": "93214-410"
    },
    {
        "city": "Sapucaia do Sul",
        "state": "RS",
        "district": "Piratini",
        "street": "Rua João Rodrigues",
        "zipcode": "93216-000"
    },
    {
        "city": "Sapucaia do Sul",
        "state": "RS",
        "district": "Vacchi",
        "street": "Travessa John Kennedy",
        "zipcode": "93214-160"
    },
    {
        "city": "Sapucaia do Sul",
        "state": "RS",
        "district": "Paraíso",
        "street": "Rua José D Arimatéia",
        "zipcode": "93220-210"
    },
    {
        "city": "Sapucaia do Sul",
        "state": "RS",
        "district": "Horto Florestal",
        "street": "Rua Maria Quitéria",
        "zipcode": "93212-610"
    },
    {
        "city": "Sapucaia do Sul",
        "state": "RS",
        "district": "Centro",
        "street": "Rua Nossa Senhora da Conceição",
        "zipcode": "93220-270"
    },
    {
        "city": "Sapucaia do Sul",
        "state": "RS",
        "district": "COHAB",
        "street": "Rua Olivério Lemos da Silva",
        "zipcode": "93216-370"
    },
    {
        "city": "Sapucaia do Sul",
        "state": "RS",
        "district": "Centro",
        "street": "Rua Otaviano Silveira",
        "zipcode": "93214-500"
    },
    {
        "city": "Sapucaia do Sul",
        "state": "RS",
        "district": "São José",
        "street": "Rua Padre Antônio Vieira",
        "zipcode": "93218-320"
    },
    {
        "city": "Sapucaia do Sul",
        "state": "RS",
        "district": "São Jorge",
        "street": "Rua Pedro Zucoloto",
        "zipcode": "93212-660"
    },
    {
        "city": "Sapucaia do Sul",
        "state": "RS",
        "district": "Santa Catarina",
        "street": "Rua Pio XII",
        "zipcode": "93214-280"
    },
    {
        "city": "Sapucaia do Sul",
        "state": "RS",
        "district": "Jardim",
        "street": "Passeio Pistóia",
        "zipcode": "93220-330"
    },
    {
        "city": "Sapucaia do Sul",
        "state": "RS",
        "district": "Freitas",
        "street": "Rua Quirino de Andrade",
        "zipcode": "93216-410"
    },
    {
        "city": "Sapucaia do Sul",
        "state": "RS",
        "district": "Centro",
        "street": "Travessa Sant Ana",
        "zipcode": "93214-550"
    },
    {
        "city": "Sapucaia do Sul",
        "state": "RS",
        "district": "Freitas",
        "street": "Rua São Cristóvão",
        "zipcode": "93218-380"
    },
    {
        "city": "Sapucaia do Sul",
        "state": "RS",
        "district": "Piratini",
        "street": "Rua São José",
        "zipcode": "93216-450"
    },
    {
        "city": "Sapucaia do Sul",
        "state": "RS",
        "district": "Kurashiki",
        "street": "Rua Vinte de Setembro",
        "zipcode": "93212-720"
    },
    {
        "city": "Sapucaia do Sul",
        "state": "RS",
        "district": "Centro",
        "street": "Rua Casemiro de Abreu",
        "zipcode": "93220-090"
    },
    {
        "city": "Sapucaia do Sul",
        "state": "RS",
        "district": "Piratini",
        "street": "Rua Leão XIII",
        "zipcode": "93216-320"
    },
    {
        "city": "Sapucaia do Sul",
        "state": "RS",
        "district": "Centro",
        "street": "Travessa Cândida da Silva Silveira",
        "zipcode": "93220-060"
    },
    {
        "city": "Sapucaia do Sul",
        "state": "RS",
        "district": "Vacchi",
        "street": "Travessa Vasco da Gama",
        "zipcode": "93214-320"
    },
    {
        "city": "Sapucaia do Sul",
        "state": "RS",
        "district": "Nova Sapucaia",
        "street": "Avenida Coronel Theodomiro Porto da Fonseca",
        "zipcode": "93228-208"
    },
    {
        "city": "Sapucaia do Sul",
        "state": "RS",
        "district": "Capão da Cruz",
        "street": "Avenida Coronel Theodomiro Porto da Fonseca",
        "zipcode": "93226-423"
    },
    {
        "city": "Sapucaia do Sul",
        "state": "RS",
        "district": "Zoológico",
        "street": "Travessa Barros Cassal",
        "zipcode": "93211-722"
    },
    {
        "city": "Sapucaia do Sul",
        "state": "RS",
        "district": "Boa Vista",
        "street": "Rua Theodoro Rodrigues da Silveira",
        "zipcode": "93230-604"
    },
    {
        "city": "Sapucaia do Sul",
        "state": "RS",
        "district": "Boa Vista",
        "street": "Avenida Juventino Machado",
        "zipcode": "93230-600"
    },
    {
        "city": "Sapucaia do Sul",
        "state": "RS",
        "district": "Ipiranga",
        "street": "Rua da Esperança",
        "zipcode": "93230-488"
    },
    {
        "city": "Sapucaia do Sul",
        "state": "RS",
        "district": "Boa Vista",
        "street": "Rua Fortaleza",
        "zipcode": "93230-860"
    },
    {
        "city": "Sapucaia do Sul",
        "state": "RS",
        "district": "Boa Vista",
        "street": "Travessa Aurora",
        "zipcode": "93230-880"
    },
    {
        "city": "Sapucaia do Sul",
        "state": "RS",
        "district": "Boa Vista",
        "street": "Rua Rui Oliveira",
        "zipcode": "93230-624"
    },
    {
        "city": "Sapucaia do Sul",
        "state": "RS",
        "district": "Boa Vista",
        "street": "Rua Agostinho Vanio Cardoso",
        "zipcode": "93230-640"
    },
    {
        "city": "Sapucaia do Sul",
        "state": "RS",
        "district": "Boa Vista",
        "street": "Rua São Bernardo",
        "zipcode": "93230-858"
    },
    {
        "city": "Sapucaia do Sul",
        "state": "RS",
        "district": "Fortuna",
        "street": "Rua Áurea Camboim",
        "zipcode": "93212-126"
    },
    {
        "city": "Sapucaia do Sul",
        "state": "RS",
        "district": "Fortuna",
        "street": "Rua Renato Schmidt",
        "zipcode": "93212-198"
    },
    {
        "city": "Sapucaia do Sul",
        "state": "RS",
        "district": "Zoológico",
        "street": "Estrada Municipal Parque Zoológico",
        "zipcode": "93211-728"
    },
    {
        "city": "Sapucaia do Sul",
        "state": "RS",
        "district": "COHAB",
        "street": "Beco José Joaquim",
        "zipcode": "93212-505"
    },
    {
        "city": "Sapucaia do Sul",
        "state": "RS",
        "district": "Jardim",
        "street": "Travessa São Luiz",
        "zipcode": "93220-382"
    },
    {
        "city": "Sapucaia do Sul",
        "state": "RS",
        "district": "São Jorge",
        "street": "Travessa Siderúrgica",
        "zipcode": "93212-265"
    },
    {
        "city": "Sapucaia do Sul",
        "state": "RS",
        "district": "Capão da Cruz",
        "street": "Travessa Alvorada",
        "zipcode": "93226-072"
    },
    {
        "city": "Sapucaia do Sul",
        "state": "RS",
        "district": "Capão da Cruz",
        "street": "Rua São Geraldo",
        "zipcode": "93226-076"
    },
    {
        "city": "Sapucaia do Sul",
        "state": "RS",
        "district": "Capão da Cruz",
        "street": "Beco Esperança",
        "zipcode": "93226-088"
    },
    {
        "city": "Sapucaia do Sul",
        "state": "RS",
        "district": "Capão da Cruz",
        "street": "Beco Campo",
        "zipcode": "93226-084"
    },
    {
        "city": "Sapucaia do Sul",
        "state": "RS",
        "district": "Capão da Cruz",
        "street": "Beco União Vitória",
        "zipcode": "93226-086"
    },
    {
        "city": "Sapucaia do Sul",
        "state": "RS",
        "district": "Freitas",
        "street": "Rua Maria Anita Thiesen Fischer",
        "zipcode": "93218-148"
    },
    {
        "city": "Sapucaia do Sul",
        "state": "RS",
        "district": "COHAB",
        "street": "Travessa Butiá (Vl Feliz)",
        "zipcode": "93216-570"
    },
    {
        "city": "Sapucaia do Sul",
        "state": "RS",
        "district": "Centro",
        "street": "Rua Vitalino Batista de Andrade",
        "zipcode": "93214-544"
    },
    {
        "city": "Sapucaia do Sul",
        "state": "RS",
        "district": "Primor",
        "street": "Rodovia RS",
        "zipcode": "93220-544"
    },
    {
        "city": "Sapucaia do Sul",
        "state": "RS",
        "district": "Dihel",
        "street": "Travessa Aliança",
        "zipcode": "93210-030"
    },
    {
        "city": "Sapucaia do Sul",
        "state": "RS",
        "district": "Ipiranga",
        "street": "Rua Antônio da Silva Jardim",
        "zipcode": "93230-330"
    },
    {
        "city": "Sapucaia do Sul",
        "state": "RS",
        "district": "Dihel",
        "street": "Praça da Bíblia",
        "zipcode": "93212-100"
    },
    {
        "city": "Sapucaia do Sul",
        "state": "RS",
        "district": "Fortuna",
        "street": "Rua Catuípe",
        "zipcode": "93212-150"
    },
    {
        "city": "Sapucaia do Sul",
        "state": "RS",
        "district": "COHAB",
        "street": "Rua Jerônimo Pires de Almeida",
        "zipcode": "93216-270"
    },
    {
        "city": "Sapucaia do Sul",
        "state": "RS",
        "district": "Boa Vista",
        "street": "Rua José Carlos da Silveira",
        "zipcode": "93230-240"
    },
    {
        "city": "Sapucaia do Sul",
        "state": "RS",
        "district": "Boa Vista",
        "street": "Rua José Cazella Mônaco",
        "zipcode": "93230-250"
    },
    {
        "city": "Sapucaia do Sul",
        "state": "RS",
        "district": "Ipiranga",
        "street": "Travessa José Maciel Caetano",
        "zipcode": "93230-490"
    },
    {
        "city": "Sapucaia do Sul",
        "state": "RS",
        "district": "Silva",
        "street": "Avenida Leônidas de Souza",
        "zipcode": "93210-140"
    },
    {
        "city": "Sapucaia do Sul",
        "state": "RS",
        "district": "Getúlio Vargas",
        "street": "Rua Marquês de Caravelas",
        "zipcode": "93210-160"
    },
    {
        "city": "Sapucaia do Sul",
        "state": "RS",
        "district": "Getúlio Vargas",
        "street": "Rua Quinze de Novembro",
        "zipcode": "93210-190"
    },
    {
        "city": "Sapucaia do Sul",
        "state": "RS",
        "district": "Colonial",
        "street": "Rua Siderúrgica",
        "zipcode": "93212-430"
    },
    {
        "city": "Sapucaia do Sul",
        "state": "RS",
        "district": "Kurashiki",
        "street": "Rua Tomé de Souza",
        "zipcode": "93212-700"
    },
    {
        "city": "Sapucaia do Sul",
        "state": "RS",
        "district": "Jardim",
        "street": "Passagem Padre Alípio",
        "zipcode": "93220-300"
    },
    {
        "city": "Sapucaia do Sul",
        "state": "RS",
        "district": "Ipiranga",
        "street": "Rua Ana Rosa Silveira",
        "zipcode": "93230-580"
    },
    {
        "city": "Sapucaia do Sul",
        "state": "RS",
        "district": "COHAB",
        "street": "Rua Matheus Ribeiro",
        "zipcode": "93212-380"
    },
    {
        "city": "Sapucaia do Sul",
        "state": "RS",
        "district": "COHAB",
        "street": "Rua Celeste Catto",
        "zipcode": "93212-530"
    },
    {
        "city": "Sapucaia do Sul",
        "state": "RS",
        "district": "Dihel",
        "street": "Travessa São Carlos",
        "zipcode": "93210-230"
    },
    {
        "city": "Sapucaia do Sul",
        "state": "RS",
        "district": "Ipiranga",
        "street": "Avenida Coronel Theodomiro Porto da Fonseca",
        "zipcode": "93230-442"
    },
    {
        "city": "Sapucaia do Sul",
        "state": "RS",
        "district": "Boa Vista",
        "street": "Rua Valdir Pedro Martinelli",
        "zipcode": "93230-062"
    },
    {
        "city": "Sapucaia do Sul",
        "state": "RS",
        "district": "Lomba da Palmeira",
        "street": "Rua Ermelindo Thomasia",
        "zipcode": "93225-423"
    },
    {
        "city": "Sapucaia do Sul",
        "state": "RS",
        "district": "Lomba da Palmeira",
        "street": "Rua Pedro Júlio Côrrea",
        "zipcode": "93225-420"
    },
    {
        "city": "Sapucaia do Sul",
        "state": "RS",
        "district": "Boa Vista",
        "street": "Rua Gaurama",
        "zipcode": "93230-072"
    },
    {
        "city": "Sapucaia do Sul",
        "state": "RS",
        "district": "Boa Vista",
        "street": "Rua Santo Augusto",
        "zipcode": "93230-068"
    },
    {
        "city": "Sapucaia do Sul",
        "state": "RS",
        "district": "Boa Vista",
        "street": "Rua Candido Godói",
        "zipcode": "93230-066"
    },
    {
        "city": "Sapucaia do Sul",
        "state": "RS",
        "district": "Centro",
        "street": "Rua Rolante",
        "zipcode": "93214-542"
    },
    {
        "city": "Sapucaia do Sul",
        "state": "RS",
        "district": "Santa Catarina",
        "street": "Rua Vitalino Batista de Andrade",
        "zipcode": "93214-064"
    },
    {
        "city": "Sapucaia do Sul",
        "state": "RS",
        "district": "Santa Catarina",
        "street": "Rua Rolante",
        "zipcode": "93214-062"
    },
    {
        "city": "Sapucaia do Sul",
        "state": "RS",
        "district": "Três Portos",
        "street": "Rodovia RS",
        "zipcode": "93212-592"
    },
    {
        "city": "Sapucaia do Sul",
        "state": "RS",
        "district": "Boa Vista",
        "street": "Rua Davi Canabarro",
        "zipcode": "93230-076"
    },
    {
        "city": "Sapucaia do Sul",
        "state": "RS",
        "district": "Boa Vista",
        "street": "Rua Horizontina",
        "zipcode": "93230-067"
    },
    {
        "city": "Sapucaia do Sul",
        "state": "RS",
        "district": "Boa Vista",
        "street": "Rua São Luiz Gonzaga",
        "zipcode": "93230-065"
    },
    {
        "city": "Sapucaia do Sul",
        "state": "RS",
        "district": "Walderez",
        "street": "Rua Álvares de Azevedo",
        "zipcode": "93228-010"
    },
    {
        "city": "Sapucaia do Sul",
        "state": "RS",
        "district": "Lomba da Palmeira",
        "street": "Rua Gilberto Ferraz (Lot Jd América)",
        "zipcode": "93225-070"
    },
    {
        "city": "Sapucaia do Sul",
        "state": "RS",
        "district": "Walderez",
        "street": "Travessa Theodomiro Porto da Fonseca",
        "zipcode": "93226-501"
    },
    {
        "city": "Sapucaia do Sul",
        "state": "RS",
        "district": "Capão da Cruz",
        "street": "Rua Humaitá (Lot P. Simon)",
        "zipcode": "93226-473"
    },
    {
        "city": "Sapucaia do Sul",
        "state": "RS",
        "district": "COHAB",
        "street": "Rua Eva Irene T. Rodrigues (Lot S Carlos)",
        "zipcode": "93216-560"
    },
    {
        "city": "Sapucaia do Sul",
        "state": "RS",
        "district": "Lomba da Palmeira",
        "street": "Rua Nilo Pires de Lima",
        "zipcode": "93225-310"
    },
    {
        "city": "Sapucaia do Sul",
        "state": "RS",
        "district": "Lomba da Palmeira",
        "street": "Rua Ourico Nunes",
        "zipcode": "93225-312"
    },
    {
        "city": "Sapucaia do Sul",
        "state": "RS",
        "district": "Capão da Cruz",
        "street": "Travessa João Santos",
        "zipcode": "93226-074"
    },
    {
        "city": "Sapucaia do Sul",
        "state": "RS",
        "district": "Centro",
        "street": "Avenida Mauá",
        "zipcode": "93201-971"
    },
    {
        "city": "Sapucaia do Sul",
        "state": "RS",
        "district": "Nova Sapucaia",
        "street": "Avenida Américo Vespúcio",
        "zipcode": "93228-030"
    },
    {
        "city": "Sapucaia do Sul",
        "state": "RS",
        "district": "Ipiranga",
        "street": "Rua Cristal",
        "zipcode": "93230-428"
    },
    {
        "city": "Sapucaia do Sul",
        "state": "RS",
        "district": "Boa Vista",
        "street": "Rua Nova Araçã",
        "zipcode": "93230-706"
    },
    {
        "city": "Sapucaia do Sul",
        "state": "RS",
        "district": "Silva",
        "street": "Rua Manoel Johann",
        "zipcode": "93214-200"
    },
    {
        "city": "Sapucaia do Sul",
        "state": "RS",
        "district": "Capão da Cruz",
        "street": "Rua Arthur Bernardes",
        "zipcode": "93226-020"
    },
    {
        "city": "Sapucaia do Sul",
        "state": "RS",
        "district": "Walderez",
        "street": "Rua Bráulio Muniz",
        "zipcode": "93228-050"
    },
    {
        "city": "Sapucaia do Sul",
        "state": "RS",
        "district": "Capão da Cruz",
        "street": "Rua Hermes da Fonseca",
        "zipcode": "93226-120"
    },
    {
        "city": "Sapucaia do Sul",
        "state": "RS",
        "district": "Capão da Cruz",
        "street": "Rua Inspetor Ezequiel",
        "zipcode": "93226-130"
    },
    {
        "city": "Sapucaia do Sul",
        "state": "RS",
        "district": "Nova Sapucaia",
        "street": "Rua João Fernandes Primeiro",
        "zipcode": "93228-140"
    },
    {
        "city": "Sapucaia do Sul",
        "state": "RS",
        "district": "Nova Sapucaia",
        "street": "Rua Júlio de Castilhos",
        "zipcode": "93226-310"
    },
    {
        "city": "Sapucaia do Sul",
        "state": "RS",
        "district": "Nova Sapucaia",
        "street": "Travessa Pedro Américo",
        "zipcode": "93226-360"
    },
    {
        "city": "Sapucaia do Sul",
        "state": "RS",
        "district": "Capão da Cruz",
        "street": "Rua Prudente de Morais",
        "zipcode": "93226-200"
    },
    {
        "city": "Sapucaia do Sul",
        "state": "RS",
        "district": "Capão da Cruz",
        "street": "Rua Sancha de Tovar",
        "zipcode": "93226-490"
    },
    {
        "city": "Sapucaia do Sul",
        "state": "RS",
        "district": "Nova Sapucaia",
        "street": "Rua Trajano Proença de Abreu",
        "zipcode": "93228-300"
    },
    {
        "city": "Sapucaia do Sul",
        "state": "RS",
        "district": "Capão da Cruz",
        "street": "Rua Trindade",
        "zipcode": "93226-240"
    },
    {
        "city": "Sapucaia do Sul",
        "state": "RS",
        "district": "Nova Sapucaia",
        "street": "Rua Ursa Maior",
        "zipcode": "93226-390"
    },
    {
        "city": "Sapucaia do Sul",
        "state": "RS",
        "district": "Walderez",
        "street": "Avenida Capistrano de Abreu",
        "zipcode": "93228-070"
    },
    {
        "city": "Sapucaia do Sul",
        "state": "RS",
        "district": "Boa Vista",
        "street": "Rua João de Souza Garcia",
        "zipcode": "93230-190"
    },
    {
        "city": "Sapucaia do Sul",
        "state": "RS",
        "district": "Pasqualini",
        "street": "Rua do Passeio",
        "zipcode": "93228-220"
    },
    {
        "city": "Sapucaia do Sul",
        "state": "RS",
        "district": "Walderez",
        "street": "Rua Cassiano Camboim",
        "zipcode": "93226-515"
    },
    {
        "city": "Sapucaia do Sul",
        "state": "RS",
        "district": "Walderez",
        "street": "Rua Janeci Nascimento Homero",
        "zipcode": "93226-517"
    },
    {
        "city": "Sapucaia do Sul",
        "state": "RS",
        "district": "Capão da Cruz",
        "street": "Travessa Sanga Funda",
        "zipcode": "93226-078"
    },
    {
        "city": "Sapucaia do Sul",
        "state": "RS",
        "district": "Silva",
        "street": "Rua Rolante",
        "zipcode": "93214-022"
    },
    {
        "city": "Sapucaia do Sul",
        "state": "RS",
        "district": "Ipiranga",
        "street": "Rua Rio Claro",
        "zipcode": "93230-426"
    },
    {
        "city": "Sapucaia do Sul",
        "state": "RS",
        "district": "Boa Vista",
        "street": "Rua Café Filho",
        "zipcode": "93230-708"
    },
    {
        "city": "Sapucaia do Sul",
        "state": "RS",
        "district": "Lomba da Palmeira",
        "street": "Passagem Aida Vargas da Silva",
        "zipcode": "93225-108"
    },
    {
        "city": "Sapucaia do Sul",
        "state": "RS",
        "district": "Vargas",
        "street": "Rua Porto Xavier",
        "zipcode": "93219-050"
    },
    {
        "city": "Sapucaia do Sul",
        "state": "RS",
        "district": "Vargas",
        "street": "Rua Barão do Triunfo",
        "zipcode": "93219-056"
    },
    {
        "city": "Sapucaia do Sul",
        "state": "RS",
        "district": "Vargas",
        "street": "Rua Assis Brasil",
        "zipcode": "93222-360"
    },
    {
        "city": "Sapucaia do Sul",
        "state": "RS",
        "district": "Primor",
        "street": "Rua Atílio Vicente da Rosa",
        "zipcode": "93220-480"
    },
    {
        "city": "Sapucaia do Sul",
        "state": "RS",
        "district": "Pasqualini",
        "street": "Rua Caldas Júnior",
        "zipcode": "93224-390"
    },
    {
        "city": "Sapucaia do Sul",
        "state": "RS",
        "district": "Vargas",
        "street": "Rua Capitão Barros de Lima",
        "zipcode": "93222-020"
    },
    {
        "city": "Sapucaia do Sul",
        "state": "RS",
        "district": "Capão da Cruz",
        "street": "Rua Cariri",
        "zipcode": "93224-040"
    },
    {
        "city": "Sapucaia do Sul",
        "state": "RS",
        "district": "Primor",
        "street": "Rua Dom Carlos",
        "zipcode": "93220-550"
    },
    {
        "city": "Sapucaia do Sul",
        "state": "RS",
        "district": "Vargas",
        "street": "Rua Duarte da Costa",
        "zipcode": "93222-280"
    },
    {
        "city": "Sapucaia do Sul",
        "state": "RS",
        "district": "Vargas",
        "street": "Rua General Luz",
        "zipcode": "93222-070"
    },
    {
        "city": "Sapucaia do Sul",
        "state": "RS",
        "district": "Paraíso",
        "street": "Rua Goiás",
        "zipcode": "93224-690"
    },
    {
        "city": "Sapucaia do Sul",
        "state": "RS",
        "district": "Pasqualini",
        "street": "Travessa da Inconfidência",
        "zipcode": "93224-120"
    },
    {
        "city": "Sapucaia do Sul",
        "state": "RS",
        "district": "Jardim",
        "street": "Travessa Independência",
        "zipcode": "93220-150"
    },
    {
        "city": "Sapucaia do Sul",
        "state": "RS",
        "district": "Camboim",
        "street": "Avenida Justino Camboim",
        "zipcode": "93224-000"
    },
    {
        "city": "Sapucaia do Sul",
        "state": "RS",
        "district": "Nova Sapucaia",
        "street": "Rua Leopoldo Scharlau",
        "zipcode": "93224-170"
    },
    {
        "city": "Sapucaia do Sul",
        "state": "RS",
        "district": "Vargas",
        "street": "Rua Pacheco Neto",
        "zipcode": "93222-125"
    },
    {
        "city": "Sapucaia do Sul",
        "state": "RS",
        "district": "Paraíso",
        "street": "Rua Atalíbio Trindade Figueiredo",
        "zipcode": "93220-754"
    },
    {
        "city": "Sapucaia do Sul",
        "state": "RS",
        "district": "Sete",
        "street": "Rua da Paz",
        "zipcode": "93224-307"
    },
    {
        "city": "Sapucaia do Sul",
        "state": "RS",
        "district": "Lomba da Palmeira",
        "street": "Rua Anibal Martins (Jd Europa)",
        "zipcode": "93224-735"
    },
    {
        "city": "Sapucaia do Sul",
        "state": "RS",
        "district": "Vargas",
        "street": "Rua Raul Seixas",
        "zipcode": "93222-620"
    },
    {
        "city": "Sapucaia do Sul",
        "state": "RS",
        "district": "Vargas",
        "street": "Rua Santa Rita de Cássia",
        "zipcode": "93222-603"
    },
    {
        "city": "Sapucaia do Sul",
        "state": "RS",
        "district": "Vargas",
        "street": "Rua Frei Damião",
        "zipcode": "93222-650"
    },
    {
        "city": "Sapucaia do Sul",
        "state": "RS",
        "district": "Vargas",
        "street": "Rua Joraci da Cruz",
        "zipcode": "93222-635"
    },
    {
        "city": "Sapucaia do Sul",
        "state": "RS",
        "district": "Vargas",
        "street": "Rua dos Canários",
        "zipcode": "93222-734"
    },
    {
        "city": "Sapucaia do Sul",
        "state": "RS",
        "district": "Vargas",
        "street": "Rua dos Papagaios",
        "zipcode": "93222-758"
    },
    {
        "city": "Sapucaia do Sul",
        "state": "RS",
        "district": "Vargas",
        "street": "Rua João de Barro",
        "zipcode": "93222-700"
    },
    {
        "city": "Sapucaia do Sul",
        "state": "RS",
        "district": "Vargas",
        "street": "Rua das Gaivotas",
        "zipcode": "93222-772"
    },
    {
        "city": "Sapucaia do Sul",
        "state": "RS",
        "district": "Sete",
        "street": "Travessa Santa Cruz",
        "zipcode": "93222-103"
    },
    {
        "city": "Sapucaia do Sul",
        "state": "RS",
        "district": "Camboim",
        "street": "Rua Israel de Vargas",
        "zipcode": "93224-652"
    },
    {
        "city": "Sapucaia do Sul",
        "state": "RS",
        "district": "Pasqualini",
        "street": "Rua Santa Cecília",
        "zipcode": "93224-654"
    },
    {
        "city": "Sapucaia do Sul",
        "state": "RS",
        "district": "Freitas",
        "street": "Rua Euclides Correa Machado",
        "zipcode": "93218-142"
    },
    {
        "city": "Sapucaia do Sul",
        "state": "RS",
        "district": "Freitas",
        "street": "Rua Olavo Bertoldo da Silva",
        "zipcode": "93218-144"
    },
    {
        "city": "Sapucaia do Sul",
        "state": "RS",
        "district": "Jardim",
        "street": "Rua Liberato Salzano Vieira da Cunha",
        "zipcode": "93220-230"
    },
    {
        "city": "Sapucaia do Sul",
        "state": "RS",
        "district": "Centro",
        "street": "Rua Lindolfo Collor",
        "zipcode": "93220-240"
    },
    {
        "city": "Sapucaia do Sul",
        "state": "RS",
        "district": "São Jorge",
        "street": "Rua Dorvalina de Abreu Cardoso",
        "zipcode": "93212-170"
    },
    {
        "city": "Sapucaia do Sul",
        "state": "RS",
        "district": "Kurashiki",
        "street": "Rua Anita Garibaldi",
        "zipcode": "93212-070"
    },
    {
        "city": "Sapucaia do Sul",
        "state": "RS",
        "district": "Centro",
        "street": "Rua Marechal Deodoro",
        "zipcode": "93220-640"
    },
    {
        "city": "Sapucaia do Sul",
        "state": "RS",
        "district": "Vargas",
        "street": "Rua Marquês de Barbacena",
        "zipcode": "93222-120"
    },
    {
        "city": "Sapucaia do Sul",
        "state": "RS",
        "district": "Camboim",
        "street": "Rua Mato Grosso",
        "zipcode": "93224-510"
    },
    {
        "city": "Sapucaia do Sul",
        "state": "RS",
        "district": "Pasqualini",
        "street": "Rua Palmares",
        "zipcode": "93224-570"
    },
    {
        "city": "Sapucaia do Sul",
        "state": "RS",
        "district": "Camboim",
        "street": "Rua Pará",
        "zipcode": "93224-580"
    },
    {
        "city": "Sapucaia do Sul",
        "state": "RS",
        "district": "Camboim",
        "street": "Rua Piauí",
        "zipcode": "93224-260"
    },
    {
        "city": "Sapucaia do Sul",
        "state": "RS",
        "district": "Camboim",
        "street": "Rua Porto Alegre",
        "zipcode": "93224-270"
    },
    {
        "city": "Sapucaia do Sul",
        "state": "RS",
        "district": "Vargas",
        "street": "Rua Rosinha Joaquina da Silveira",
        "zipcode": "93222-420"
    },
    {
        "city": "Sapucaia do Sul",
        "state": "RS",
        "district": "Jardim",
        "street": "Rua Sananduva",
        "zipcode": "93220-380"
    },
    {
        "city": "Sapucaia do Sul",
        "state": "RS",
        "district": "Vargas",
        "street": "Rua São Marcos",
        "zipcode": "93222-210"
    },
    {
        "city": "Sapucaia do Sul",
        "state": "RS",
        "district": "Vargas",
        "street": "Rua Sobradinho",
        "zipcode": "93222-560"
    },
    {
        "city": "Sapucaia do Sul",
        "state": "RS",
        "district": "Vargas",
        "street": "Rua Thomaz Gerônimo",
        "zipcode": "93222-350"
    },
    {
        "city": "Sapucaia do Sul",
        "state": "RS",
        "district": "Pasqualini",
        "street": "Rua Tropeiros",
        "zipcode": "93224-660"
    },
    {
        "city": "Sapucaia do Sul",
        "state": "RS",
        "district": "Primor",
        "street": "Rua Riachuelo",
        "zipcode": "93220-690"
    },
    {
        "city": "Sapucaia do Sul",
        "state": "RS",
        "district": "Vargas",
        "street": "Rua São Cipriano",
        "zipcode": "93222-170"
    },
    {
        "city": "Sapucaia do Sul",
        "state": "RS",
        "district": "São José",
        "street": "Rua Almirante Tamandaré",
        "zipcode": "93218-030"
    },
    {
        "city": "Sapucaia do Sul",
        "state": "RS",
        "district": "Dihel",
        "street": "Rua Alvarenga Peixoto",
        "zipcode": "93214-010"
    },
    {
        "city": "Sapucaia do Sul",
        "state": "RS",
        "district": "COHAB",
        "street": "Rua Antônio Carvalho Bitencourt",
        "zipcode": "93216-060"
    },
    {
        "city": "Sapucaia do Sul",
        "state": "RS",
        "district": "Freitas",
        "street": "Rua Rodolfo José Thiesen",
        "zipcode": "93218-147"
    },
    {
        "city": "Sapucaia do Sul",
        "state": "RS",
        "district": "Centro",
        "street": "Rua Assis Brasil",
        "zipcode": "93220-050"
    },
    {
        "city": "Sapucaia do Sul",
        "state": "RS",
        "district": "São José",
        "street": "Travessa Assunção",
        "zipcode": "93218-050"
    },
    {
        "city": "Sapucaia do Sul",
        "state": "RS",
        "district": "Colonial",
        "street": "Avenida Borges de Medeiros",
        "zipcode": "93212-110"
    },
    {
        "city": "Sapucaia do Sul",
        "state": "RS",
        "district": "COHAB",
        "street": "Rua Capitão Mário Ferreira",
        "zipcode": "93216-110"
    },
    {
        "city": "Sapucaia do Sul",
        "state": "RS",
        "district": "Vacchi",
        "street": "Travessa Coelho Neto",
        "zipcode": "93214-070"
    },
    {
        "city": "Sapucaia do Sul",
        "state": "RS",
        "district": "Centro",
        "street": "Rua Coronel Serafim Pereira",
        "zipcode": "93220-110"
    },
    {
        "city": "Sapucaia do Sul",
        "state": "RS",
        "district": "Vacchi",
        "street": "Rua Dom Pedro II",
        "zipcode": "93214-080"
    },
    {
        "city": "Sapucaia do Sul",
        "state": "RS",
        "district": "Piratini",
        "street": "Rua Dona Francisca",
        "zipcode": "93216-160"
    },
    {
        "city": "Sapucaia do Sul",
        "state": "RS",
        "district": "Santa Catarina",
        "street": "Rua do Estádio",
        "zipcode": "93214-390"
    },
    {
        "city": "Sapucaia do Sul",
        "state": "RS",
        "district": "Colonial",
        "street": "Rua Febernati",
        "zipcode": "93212-200"
    },
    {
        "city": "Sapucaia do Sul",
        "state": "RS",
        "district": "COHAB",
        "street": "Rua Genuíno Sampaio",
        "zipcode": "93216-240"
    },
    {
        "city": "Sapucaia do Sul",
        "state": "RS",
        "district": "São Jorge",
        "street": "Avenida Hugo Gerdau",
        "zipcode": "93212-260"
    },
    {
        "city": "Sapucaia do Sul",
        "state": "RS",
        "district": "Centro",
        "street": "Rua João Celestino da Silva",
        "zipcode": "93214-460"
    },
    {
        "city": "Sapucaia do Sul",
        "state": "RS",
        "district": "Vacchi",
        "street": "Rua Joaquim Nabuco",
        "zipcode": "93214-150"
    },
    {
        "city": "Sapucaia do Sul",
        "state": "RS",
        "district": "Kurashiki",
        "street": "Rua José Bonifácio",
        "zipcode": "93212-760"
    },
    {
        "city": "Sapucaia do Sul",
        "state": "RS",
        "district": "Três Portos",
        "street": "Rua Lansul",
        "zipcode": "93212-330"
    },
    {
        "city": "Sapucaia do Sul",
        "state": "RS",
        "district": "Piratini",
        "street": "Rua Major Vítor Bressane",
        "zipcode": "93216-330"
    },
    {
        "city": "Sapucaia do Sul",
        "state": "RS",
        "district": "Vacchi",
        "street": "Rua Marquês de Montalvão",
        "zipcode": "93214-220"
    },
    {
        "city": "Sapucaia do Sul",
        "state": "RS",
        "district": "Silva",
        "street": "Rua Nóbrega",
        "zipcode": "93214-230"
    },
    {
        "city": "Sapucaia do Sul",
        "state": "RS",
        "district": "São José",
        "street": "Rua Guapuruvu (Lot Jd Anchieta)",
        "zipcode": "93218-625"
    },
    {
        "city": "Sapucaia do Sul",
        "state": "RS",
        "district": "São José",
        "street": "Rua Plátano (Lot Jd Anchieta)",
        "zipcode": "93218-675"
    },
    {
        "city": "Sapucaia do Sul",
        "state": "RS",
        "district": "São José",
        "street": "Rua Erva Mate (Lot Jd Anchieta)",
        "zipcode": "93218-680"
    },
    {
        "city": "Sapucaia do Sul",
        "state": "RS",
        "district": "Horto Florestal",
        "street": "Beco Um (da R Maria Quitéria)",
        "zipcode": "93212-608"
    },
    {
        "city": "Sapucaia do Sul",
        "state": "RS",
        "district": "Jardim",
        "street": "Rua Pedro Porfirio de Souza",
        "zipcode": "93220-012"
    },
    {
        "city": "Sapucaia do Sul",
        "state": "RS",
        "district": "Capão da Cruz",
        "street": "Rua Waldemar José Santos",
        "zipcode": "93220-753"
    },
    {
        "city": "Sapucaia do Sul",
        "state": "RS",
        "district": "Zoológico",
        "street": "Travessa Santa Rita",
        "zipcode": "93211-720"
    },
    {
        "city": "Sapucaia do Sul",
        "state": "RS",
        "district": "Pasqualini",
        "street": "Travessa Pinho",
        "zipcode": "93224-574"
    },
    {
        "city": "Sapucaia do Sul",
        "state": "RS",
        "district": "COHAB",
        "street": "Rua Fioravante Brasil",
        "zipcode": "93216-254"
    },
    {
        "city": "Sapucaia do Sul",
        "state": "RS",
        "district": "Vargas",
        "street": "Rua Santa Rita",
        "zipcode": "93219-093"
    },
    {
        "city": "Sapucaia do Sul",
        "state": "RS",
        "district": "Fortuna",
        "street": "Rua Paulo Barbieri de Moura",
        "zipcode": "93212-154"
    },
    {
        "city": "Sapucaia do Sul",
        "state": "RS",
        "district": "São Jorge",
        "street": "Travessa Hugo Gerdau",
        "zipcode": "93212-263"
    },
    {
        "city": "Sapucaia do Sul",
        "state": "RS",
        "district": "Freitas",
        "street": "Beco Doutor da Silveira",
        "zipcode": "93218-135"
    },
    {
        "city": "Sapucaia do Sul",
        "state": "RS",
        "district": "Freitas",
        "street": "Rua Nonoai",
        "zipcode": "93218-290"
    },
    {
        "city": "Sapucaia do Sul",
        "state": "RS",
        "district": "Piratini",
        "street": "Rua Palestina",
        "zipcode": "93216-390"
    },
    {
        "city": "Sapucaia do Sul",
        "state": "RS",
        "district": "São Jorge",
        "street": "Rua Pirelli Sul",
        "zipcode": "93212-390"
    },
    {
        "city": "Sapucaia do Sul",
        "state": "RS",
        "district": "São José",
        "street": "Rua Santo Inácio",
        "zipcode": "93218-370"
    },
    {
        "city": "Sapucaia do Sul",
        "state": "RS",
        "district": "São José",
        "street": "Rua São Domingos",
        "zipcode": "93218-390"
    },
    {
        "city": "Sapucaia do Sul",
        "state": "RS",
        "district": "São José",
        "street": "Rua São Francisco",
        "zipcode": "93218-400"
    },
    {
        "city": "Sapucaia do Sul",
        "state": "RS",
        "district": "Piratini",
        "street": "Rua São Leopoldo",
        "zipcode": "93216-460"
    },
    {
        "city": "Sapucaia do Sul",
        "state": "RS",
        "district": "Primor",
        "street": "Avenida Sapucaia",
        "zipcode": "93210-240"
    },
    {
        "city": "Sapucaia do Sul",
        "state": "RS",
        "district": "Colonial",
        "street": "Rua Trevo",
        "zipcode": "93212-440"
    },
    {
        "city": "Sapucaia do Sul",
        "state": "RS",
        "district": "Santa Catarina",
        "street": "Rua Wenceslau Braz",
        "zipcode": "93214-330"
    },
    {
        "city": "Sapucaia do Sul",
        "state": "RS",
        "district": "São José",
        "street": "Rua General Py",
        "zipcode": "93218-180"
    },
    {
        "city": "Sapucaia do Sul",
        "state": "RS",
        "district": "São José",
        "street": "Rua Major de Souza Lima",
        "zipcode": "93218-240"
    },
    {
        "city": "Sapucaia do Sul",
        "state": "RS",
        "district": "Vargas",
        "street": "Rua Alvorada",
        "zipcode": "93222-666"
    },
    {
        "city": "Sapucaia do Sul",
        "state": "RS",
        "district": "Vargas",
        "street": "Rua São Sepé",
        "zipcode": "93222-664"
    },
    {
        "city": "Sapucaia do Sul",
        "state": "RS",
        "district": "Vargas",
        "street": "Rua Cruzeiro do Sul",
        "zipcode": "93222-660"
    },
    {
        "city": "Sapucaia do Sul",
        "state": "RS",
        "district": "Vargas",
        "street": "Rua Presidente Castelo Branco",
        "zipcode": "93222-668"
    },
    {
        "city": "Sapucaia do Sul",
        "state": "RS",
        "district": "Vargas",
        "street": "Rua Parati",
        "zipcode": "93222-652"
    },
    {
        "city": "Sapucaia do Sul",
        "state": "RS",
        "district": "Boa Vista",
        "street": "Rua Barão de Cotegipe",
        "zipcode": "93230-074"
    },
    {
        "city": "Sapucaia do Sul",
        "state": "RS",
        "district": "Boa Vista",
        "street": "Rua José Salvador Maciel dos Santos",
        "zipcode": "93230-063"
    },
    {
        "city": "Sapucaia do Sul",
        "state": "RS",
        "district": "Vargas",
        "street": "Rua Antonio Prado",
        "zipcode": "93222-654"
    },
    {
        "city": "Sapucaia do Sul",
        "state": "RS",
        "district": "Vargas",
        "street": "Rua Pedro Osório",
        "zipcode": "93222-656"
    },
    {
        "city": "Sapucaia do Sul",
        "state": "RS",
        "district": "Sete",
        "street": "Rua Ari Cabral",
        "zipcode": "93224-370"
    },
    {
        "city": "Sapucaia do Sul",
        "state": "RS",
        "district": "Costa do Morro",
        "street": "Rua Azaléias (Lot N Horizonte)",
        "zipcode": "93234-140"
    },
    {
        "city": "Sapucaia do Sul",
        "state": "RS",
        "district": "COHAB",
        "street": "Rua Atílio Verardi",
        "zipcode": "93216-090"
    },
    {
        "city": "Sapucaia do Sul",
        "state": "RS",
        "district": "São Jorge",
        "street": "Rua Canoas",
        "zipcode": "93212-140"
    },
    {
        "city": "Sapucaia do Sul",
        "state": "RS",
        "district": "Centro",
        "street": "Rua Caramuru",
        "zipcode": "93220-510"
    },
    {
        "city": "Sapucaia do Sul",
        "state": "RS",
        "district": "Getúlio Vargas",
        "street": "Rua Dom João VI",
        "zipcode": "93210-090"
    },
    {
        "city": "Sapucaia do Sul",
        "state": "RS",
        "district": "Getúlio Vargas",
        "street": "Rua Doutor Lauro Dondonis",
        "zipcode": "93210-100"
    },
    {
        "city": "Sapucaia do Sul",
        "state": "RS",
        "district": "Freitas",
        "street": "Rua Heitor Jardim",
        "zipcode": "93218-190"
    },
    {
        "city": "Sapucaia do Sul",
        "state": "RS",
        "district": "Vargas",
        "street": "Rua Ivoti",
        "zipcode": "93222-090"
    },
    {
        "city": "Sapucaia do Sul",
        "state": "RS",
        "district": "Colonial",
        "street": "Rua João da Silva Brandão",
        "zipcode": "93212-580"
    },
    {
        "city": "Sapucaia do Sul",
        "state": "RS",
        "district": "Ipiranga",
        "street": "Rua João Vitoretti (Lot Terra Nova)",
        "zipcode": "93230-455"
    },
    {
        "city": "Sapucaia do Sul",
        "state": "RS",
        "district": "COHAB",
        "street": "Rua Rui Antônio de Oliveira (Lot S Carlos)",
        "zipcode": "93216-562"
    },
    {
        "city": "Sapucaia do Sul",
        "state": "RS",
        "district": "Vargas",
        "street": "Rua Manoel Paulino da Motta",
        "zipcode": "93222-800"
    },
    {
        "city": "Sapucaia do Sul",
        "state": "RS",
        "district": "Ipiranga",
        "street": "Rua Esplanada",
        "zipcode": "93230-493"
    },
    {
        "city": "Sapucaia do Sul",
        "state": "RS",
        "district": "Ipiranga",
        "street": "Rua Oscar Kauer",
        "zipcode": "93230-514"
    },
    {
        "city": "Sapucaia do Sul",
        "state": "RS",
        "district": "Boa Vista",
        "street": "Rua Roberto Moreira",
        "zipcode": "93230-056"
    },
    {
        "city": "Sapucaia do Sul",
        "state": "RS",
        "district": "Lomba da Palmeira",
        "street": "Rua Alvina Isehardt",
        "zipcode": "93225-304"
    },
    {
        "city": "Sapucaia do Sul",
        "state": "RS",
        "district": "Pasqualini",
        "street": "Rua Jacui",
        "zipcode": "93228-044"
    },
    {
        "city": "Sapucaia do Sul",
        "state": "RS",
        "district": "Boa Vista",
        "street": "Rua Dom Feliciano",
        "zipcode": "93230-868"
    },
    {
        "city": "Sapucaia do Sul",
        "state": "RS",
        "district": "Vargas",
        "street": "Rua Palmas",
        "zipcode": "93219-083"
    },
    {
        "city": "Sapucaia do Sul",
        "state": "RS",
        "district": "Fortuna",
        "street": "Rua Vandeni José Veronez",
        "zipcode": "93212-196"
    },
    {
        "city": "Sapucaia do Sul",
        "state": "RS",
        "district": "Vargas",
        "street": "Rua Minas Gerais",
        "zipcode": "93222-648"
    },
    {
        "city": "Sapucaia do Sul",
        "state": "RS",
        "district": "Freitas",
        "street": "Rua Maria Augusta Thiesen Friederich",
        "zipcode": "93218-145"
    },
    {
        "city": "Sapucaia do Sul",
        "state": "RS",
        "district": "Freitas",
        "street": "Rua Alcides Fernandes da Cunha",
        "zipcode": "93218-146"
    },
    {
        "city": "Sapucaia do Sul",
        "state": "RS",
        "district": "Boa Vista",
        "street": "Rua Luiz Gama",
        "zipcode": "93230-270"
    },
    {
        "city": "Sapucaia do Sul",
        "state": "RS",
        "district": "Dihel",
        "street": "Rua Nilo Peçanha",
        "zipcode": "93210-170"
    },
    {
        "city": "Sapucaia do Sul",
        "state": "RS",
        "district": "Centro",
        "street": "Rua Portugal",
        "zipcode": "93214-520"
    },
    {
        "city": "Sapucaia do Sul",
        "state": "RS",
        "district": "Boa Vista",
        "street": "Travessa Encruzilhada",
        "zipcode": "93230-866"
    },
    {
        "city": "Sapucaia do Sul",
        "state": "RS",
        "district": "Getúlio Vargas",
        "street": "Rua Capibaribe",
        "zipcode": "93212-520"
    },
    {
        "city": "Sapucaia do Sul",
        "state": "RS",
        "district": "Boa Vista",
        "street": "Rua Hélio Velinho",
        "zipcode": "93230-728"
    },
    {
        "city": "Sapucaia do Sul",
        "state": "RS",
        "district": "Capão da Cruz",
        "street": "Rua Enor Holmer (Lot Charrua)",
        "zipcode": "93226-013"
    },
    {
        "city": "Sapucaia do Sul",
        "state": "RS",
        "district": "Costa do Morro",
        "street": "Estrada dos Ramires",
        "zipcode": "93234-400"
    },
    {
        "city": "Sapucaia do Sul",
        "state": "RS",
        "district": "Costa do Morro",
        "street": "Estrada dos Ramires",
        "zipcode": "93234-500"
    },
    {
        "city": "Sapucaia do Sul",
        "state": "RS",
        "district": "Pasqualini",
        "street": "Rua Floriano Salgado Nunes",
        "zipcode": "93224-542"
    },
    {
        "city": "Sapucaia do Sul",
        "state": "RS",
        "district": "Santa Catarina",
        "street": "Praça Jorge Assum",
        "zipcode": "93214-490"
    },
    {
        "city": "Sapucaia do Sul",
        "state": "RS",
        "district": "Getúlio Vargas",
        "street": "Rua Afonso Pena",
        "zipcode": "93210-010"
    },
    {
        "city": "Sapucaia do Sul",
        "state": "RS",
        "district": "Vargas",
        "street": "Rua Guaporé",
        "zipcode": "93222-662"
    },
    {
        "city": "Sapucaia do Sul",
        "state": "RS",
        "district": "Lomba da Palmeira",
        "street": "Rua Darci Fagundes (Lot Jd América)",
        "zipcode": "93225-150"
    },
    {
        "city": "Sapucaia do Sul",
        "state": "RS",
        "district": "Vargas",
        "street": "Rua Arnaldo Eitelvan",
        "zipcode": "93222-605"
    },
    {
        "city": "Sapucaia do Sul",
        "state": "RS",
        "district": "Pasqualini",
        "street": "Rua Anjo Rafael (Parada dos Santos)",
        "zipcode": "93224-485"
    },
    {
        "city": "Sapucaia do Sul",
        "state": "RS",
        "district": "Ipiranga",
        "street": "Rua João Darcy da Silva Pires (Lot Rec Rosas)",
        "zipcode": "93230-528"
    },
    {
        "city": "Sapucaia do Sul",
        "state": "RS",
        "district": "Capão da Cruz",
        "street": "Rua Max Eugênio (Lot Charrua)",
        "zipcode": "93226-225"
    },
    {
        "city": "Sapucaia do Sul",
        "state": "RS",
        "district": "Colonial",
        "street": "Rua Nossa Senhora da Paz",
        "zipcode": "93212-016"
    },
    {
        "city": "Sapucaia do Sul",
        "state": "RS",
        "district": "Colonial",
        "street": "Rua Caetes",
        "zipcode": "93212-032"
    },
    {
        "city": "Sapucaia do Sul",
        "state": "RS",
        "district": "Nova Sapucaia",
        "street": "Rua Campeiro",
        "zipcode": "93228-314"
    },
    {
        "city": "Sapucaia do Sul",
        "state": "RS",
        "district": "Zoológico",
        "street": "Beco do Carioca",
        "zipcode": "93211-702"
    },
    {
        "city": "Sapucaia do Sul",
        "state": "RS",
        "district": "Costa do Morro",
        "street": "Rua dos Eucalíptos (Lot N Horizonte)",
        "zipcode": "93234-160"
    },
    {
        "city": "Sapucaia do Sul",
        "state": "RS",
        "district": "Ipiranga",
        "street": "Rua Edu Viegas da Silva (Lot Terra Nova)",
        "zipcode": "93230-489"
    },
    {
        "city": "Sapucaia do Sul",
        "state": "RS",
        "district": "Lomba da Palmeira",
        "street": "Rua Irmã Edviges (Lot Jd América)",
        "zipcode": "93225-130"
    },
    {
        "city": "Sapucaia do Sul",
        "state": "RS",
        "district": "Capão da Cruz",
        "street": "Rua Eldorado (Lot P. Simon)",
        "zipcode": "93226-471"
    },
    {
        "city": "Sapucaia do Sul",
        "state": "RS",
        "district": "Zoológico",
        "street": "Travessa Carioca",
        "zipcode": "93211-710"
    },
    {
        "city": "Sapucaia do Sul",
        "state": "RS",
        "district": "Boa Vista",
        "street": "Rua Nova Prata",
        "zipcode": "93230-730"
    },
    {
        "city": "Sapucaia do Sul",
        "state": "RS",
        "district": "Costa do Morro",
        "street": "Rua das Hortênsias (Lot N Horizonte)",
        "zipcode": "93234-104"
    },
    {
        "city": "Sapucaia do Sul",
        "state": "RS",
        "district": "Boa Vista",
        "street": "Rua Rio Tapajós",
        "zipcode": "93230-716"
    },
    {
        "city": "Sapucaia do Sul",
        "state": "RS",
        "district": "Piratini",
        "street": "Travessa Antenor da Silva",
        "zipcode": "93216-184"
    },
    {
        "city": "Sapucaia do Sul",
        "state": "RS",
        "district": "Jardim",
        "street": "Passeio Santo Ignácio de Loyola",
        "zipcode": "93220-390"
    },
    {
        "city": "Sapucaia do Sul",
        "state": "RS",
        "district": "Freitas",
        "street": "Travessa Lira",
        "zipcode": "93218-175"
    },
    {
        "city": "Sapucaia do Sul",
        "state": "RS",
        "district": "Boa Vista",
        "street": "Rua Duque de Caxias",
        "zipcode": "93230-130"
    },
    {
        "city": "Sapucaia do Sul",
        "state": "RS",
        "district": "Lomba da Palmeira",
        "street": "Rua Jaime Oscar da Silveira",
        "zipcode": "93225-427"
    },
    {
        "city": "Sapucaia do Sul",
        "state": "RS",
        "district": "Vargas",
        "street": "Rua São Gabriel",
        "zipcode": "93222-180"
    },
    {
        "city": "Sapucaia do Sul",
        "state": "RS",
        "district": "Vargas",
        "street": "Travessa Santa Rosa",
        "zipcode": "93222-160"
    },
    {
        "city": "Sapucaia do Sul",
        "state": "RS",
        "district": "Costa do Morro",
        "street": "Rua das Testemunhas (Lot N Horizonte)",
        "zipcode": "93234-168"
    },
    {
        "city": "Sapucaia do Sul",
        "state": "RS",
        "district": "Boa Vista",
        "street": "Travessa Tatuíra",
        "zipcode": "93230-892"
    },
    {
        "city": "Sapucaia do Sul",
        "state": "RS",
        "district": "Boa Vista",
        "street": "Rua Vera Cruz",
        "zipcode": "93230-720"
    },
    {
        "city": "Sapucaia do Sul",
        "state": "RS",
        "district": "Boa Vista",
        "street": "Rodovia RS",
        "zipcode": "93230-390"
    },
    {
        "city": "Sapucaia do Sul",
        "state": "RS",
        "district": "Boa Vista",
        "street": "Rua Gonçalina C. Oliveira",
        "zipcode": "93230-636"
    },
    {
        "city": "Sapucaia do Sul",
        "state": "RS",
        "district": "Camboim",
        "street": "Travessa Sergipe",
        "zipcode": "93224-650"
    },
    {
        "city": "Sapucaia do Sul",
        "state": "RS",
        "district": "Capão da Cruz",
        "street": "Rua Caxias do Sul",
        "zipcode": "93226-040"
    },
    {
        "city": "Sapucaia do Sul",
        "state": "RS",
        "district": "Vargas",
        "street": "Rua Corsan",
        "zipcode": "93222-500"
    },
    {
        "city": "Sapucaia do Sul",
        "state": "RS",
        "district": "Boa Vista",
        "street": "Rua Tapejara",
        "zipcode": "93230-734"
    },
    {
        "city": "Sapucaia do Sul",
        "state": "RS",
        "district": "Pasqualini",
        "street": "Rua Olívio Salomão Marques (Lot Glória)",
        "zipcode": "93224-487"
    },
    {
        "city": "Sapucaia do Sul",
        "state": "RS",
        "district": "Costa do Morro",
        "street": "Estrada dos Ramires",
        "zipcode": "93234-300"
    },
    {
        "city": "Sapucaia do Sul",
        "state": "RS",
        "district": "Boa Vista",
        "street": "Rua Rio Mamoré",
        "zipcode": "93230-732"
    },
    {
        "city": "Sapucaia do Sul",
        "state": "RS",
        "district": "Centro",
        "street": "Rua Arlindo Severino",
        "zipcode": "93220-074"
    },
    {
        "city": "Sapucaia do Sul",
        "state": "RS",
        "district": "Vargas",
        "street": "Rua Lajeadense",
        "zipcode": "93222-298"
    },
    {
        "city": "Sapucaia do Sul",
        "state": "RS",
        "district": "Costa do Morro",
        "street": "Rua do Patronato (Lot N Horizonte)",
        "zipcode": "93234-164"
    },
    {
        "city": "Sapucaia do Sul",
        "state": "RS",
        "district": "Boa Vista",
        "street": "Rua Osvaldina Rocha Coelho",
        "zipcode": "93230-606"
    },
    {
        "city": "Sapucaia do Sul",
        "state": "RS",
        "district": "Colonial",
        "street": "Rua Leduvino Lucas",
        "zipcode": "93212-350"
    },
    {
        "city": "Sapucaia do Sul",
        "state": "RS",
        "district": "Lomba da Palmeira",
        "street": "Rua Jayme Isidoro Colombo",
        "zipcode": "93225-062"
    },
    {
        "city": "Sapucaia do Sul",
        "state": "RS",
        "district": "Lomba da Palmeira",
        "street": "Passagem Antônio José Leandro",
        "zipcode": "93225-102"
    },
    {
        "city": "Sapucaia do Sul",
        "state": "RS",
        "district": "Sete",
        "street": "Travessa Avelino Batista",
        "zipcode": "93220-142"
    },
    {
        "city": "Sapucaia do Sul",
        "state": "RS",
        "district": "Fazenda dos Prazeres",
        "street": "Estrada da Pedreira",
        "zipcode": "93223-170"
    },
    {
        "city": "Sapucaia do Sul",
        "state": "RS",
        "district": "Boa Vista",
        "street": "Rua Antonio Apolinário Alves",
        "zipcode": "93230-714"
    },
    {
        "city": "Sapucaia do Sul",
        "state": "RS",
        "district": "Walderez",
        "street": "Rua Maria Carvalho Camboim",
        "zipcode": "93226-504"
    },
    {
        "city": "Sapucaia do Sul",
        "state": "RS",
        "district": "Pasqualini",
        "street": "Travessa Espirito Santo",
        "zipcode": "93224-522"
    },
    {
        "city": "Sapucaia do Sul",
        "state": "RS",
        "district": "Capão da Cruz",
        "street": "Rua Divo Fernandes Dias (Lot Charrua)",
        "zipcode": "93226-017"
    },
    {
        "city": "Sapucaia do Sul",
        "state": "RS",
        "district": "Vargas",
        "street": "Rua São Roque",
        "zipcode": "93222-550"
    },
    {
        "city": "Sapucaia do Sul",
        "state": "RS",
        "district": "Costa do Morro",
        "street": "Rua das Hortênsias (Lot N Horizonte)",
        "zipcode": "93234-150"
    },
    {
        "city": "Sapucaia do Sul",
        "state": "RS",
        "district": "Boa Vista",
        "street": "Rua Rejane Reolom Zimmermann",
        "zipcode": "93230-700"
    },
    {
        "city": "Sapucaia do Sul",
        "state": "RS",
        "district": "Boa Vista",
        "street": "Rua Jary Von Der Putten",
        "zipcode": "93230-712"
    },
    {
        "city": "Sapucaia do Sul",
        "state": "RS",
        "district": "Boa Vista",
        "street": "Rua Carlos Prestes",
        "zipcode": "93230-862"
    },
    {
        "city": "Sapucaia do Sul",
        "state": "RS",
        "district": "Três Portos",
        "street": "Avenida Luiz Pasteur",
        "zipcode": "93212-360"
    },
    {
        "city": "Sapucaia do Sul",
        "state": "RS",
        "district": "Capão da Cruz",
        "street": "Rua Esteio",
        "zipcode": "93226-100"
    },
    {
        "city": "Sapucaia do Sul",
        "state": "RS",
        "district": "Paraíso",
        "street": "Rua Estância Velha",
        "zipcode": "93220-580"
    },
    {
        "city": "Sapucaia do Sul",
        "state": "RS",
        "district": "Piratini",
        "street": "Rua Farroupilha",
        "zipcode": "93216-200"
    },
    {
        "city": "Sapucaia do Sul",
        "state": "RS",
        "district": "Silva",
        "street": "Rua Marechal Floriano Peixoto",
        "zipcode": "93214-210"
    },
    {
        "city": "Sapucaia do Sul",
        "state": "RS",
        "district": "Silva",
        "street": "Rua Santa Catarina",
        "zipcode": "93214-300"
    },
    {
        "city": "Sapucaia do Sul",
        "state": "RS",
        "district": "Vargas",
        "street": "Rua São Lourenço",
        "zipcode": "93222-190"
    },
    {
        "city": "Sapucaia do Sul",
        "state": "RS",
        "district": "Capão da Cruz",
        "street": "Rua São Miguel",
        "zipcode": "93226-530"
    },
    {
        "city": "Sapucaia do Sul",
        "state": "RS",
        "district": "Vargas",
        "street": "Rua Porto Mauá",
        "zipcode": "93219-060"
    },
    {
        "city": "Sapucaia do Sul",
        "state": "RS",
        "district": "Capão da Cruz",
        "street": "Travessa Esteio",
        "zipcode": "93226-082"
    },
    {
        "city": "Sapucaia do Sul",
        "state": "RS",
        "district": "Walderez",
        "street": "Avenida Luiz Pasteur",
        "zipcode": "93230-280"
    },
    {
        "city": "Sapucaia do Sul",
        "state": "RS",
        "district": "Walderez",
        "street": "Rua Taquara",
        "zipcode": "93228-280"
    },
    {
        "city": "Sapucaia do Sul",
        "state": "RS",
        "district": "Vargas",
        "street": "Travessa Mauá (Vl Garimpo)",
        "zipcode": "93222-822"
    },
    {
        "city": "Sapucaia do Sul",
        "state": "RS",
        "district": "Passo de Sapucaia",
        "street": "Rodovia RS",
        "zipcode": "93233-100"
    },
    {
        "city": "Sapucaia do Sul",
        "state": "RS",
        "district": "Nova Sapucaia",
        "street": "Rodovia RS",
        "zipcode": "93226-312"
    },
    {
        "city": "Sapucaia do Sul",
        "state": "RS",
        "district": "Ipiranga",
        "street": "Avenida Coronel Theodomiro Porto da Fonseca",
        "zipcode": "93230-478"
    },
    {
        "city": "Sapucaia do Sul",
        "state": "RS",
        "district": "Vargas",
        "street": "Rua Rio Mampituba",
        "zipcode": "93219-054"
    },
    {
        "city": "Sapucaia do Sul",
        "state": "RS",
        "district": "Getúlio Vargas",
        "street": "Rodovia RS",
        "zipcode": "93210-016"
    },
    {
        "city": "Sapucaia do Sul",
        "state": "RS",
        "district": "Vargas",
        "street": "Rua Restinga Seca",
        "zipcode": "93219-066"
    },
    {
        "city": "Sapucaia do Sul",
        "state": "RS",
        "district": "Ipiranga",
        "street": "Rua Caiçara",
        "zipcode": "93230-436"
    },
    {
        "city": "Sapucaia do Sul",
        "state": "RS",
        "district": "Getúlio Vargas",
        "street": "Rua Rodrigo Lobo",
        "zipcode": "93210-210"
    },
    {
        "city": "Sapucaia do Sul",
        "state": "RS",
        "district": "Lomba da Palmeira",
        "street": "Rua Alberto Menda Magrisso",
        "zipcode": "93225-425"
    },
    {
        "city": "Sapucaia do Sul",
        "state": "RS",
        "district": "Vargas",
        "street": "Rua Carlos Barbosa",
        "zipcode": "93222-658"
    },
    {
        "city": "Sapucaia do Sul",
        "state": "RS",
        "district": "Boa Vista",
        "street": "Rua Crissiumal",
        "zipcode": "93230-064"
    },
    {
        "city": "Sapucaia do Sul",
        "state": "RS",
        "district": "Vargas",
        "street": "Rua Cerro Alto",
        "zipcode": "93219-064"
    },
    {
        "city": "Sapucaia do Sul",
        "state": "RS",
        "district": "Nova Sapucaia",
        "street": "Avenida Coronel Theodomiro Porto da Fonseca",
        "zipcode": "93226-392"
    },
    {
        "city": "Sapucaia do Sul",
        "state": "RS",
        "district": "Costa do Morro",
        "street": "Rodovia RS",
        "zipcode": "93234-020"
    },
    {
        "city": "Sapucaia do Sul",
        "state": "RS",
        "district": "Ipiranga",
        "street": "Avenida Coronel Theodomiro Porto da Fonseca",
        "zipcode": "93230-555"
    },
    {
        "city": "Sapucaia do Sul",
        "state": "RS",
        "district": "Centro",
        "street": "Rua Rodrigues de Figueiredo",
        "zipcode": "93220-360"
    },
    {
        "city": "Sapucaia do Sul",
        "state": "RS",
        "district": "Centro",
        "street": "Avenida Rubem Berta",
        "zipcode": "93216-430"
    },
    {
        "city": "Sapucaia do Sul",
        "state": "RS",
        "district": "Boa Vista",
        "street": "Rua Abílio José Farias",
        "zipcode": "93230-010"
    },
    {
        "city": "Sapucaia do Sul",
        "state": "RS",
        "district": "COHAB",
        "street": "Rua Acácio Vitorino Machado",
        "zipcode": "93216-010"
    },
    {
        "city": "Sapucaia do Sul",
        "state": "RS",
        "district": "Nova Sapucaia",
        "street": "Rua Acre",
        "zipcode": "93224-010"
    },
    {
        "city": "Sapucaia do Sul",
        "state": "RS",
        "district": "Colonial",
        "street": "Rua Adão de Carvalho",
        "zipcode": "93212-010"
    },
    {
        "city": "Sapucaia do Sul",
        "state": "RS",
        "district": "Colonial",
        "street": "Rua Adelaide Correa",
        "zipcode": "93212-020"
    },
    {
        "city": "Sapucaia do Sul",
        "state": "RS",
        "district": "Freitas",
        "street": "Rua Afonso Ribeiro",
        "zipcode": "93218-010"
    },
    {
        "city": "Sapucaia do Sul",
        "state": "RS",
        "district": "Jardim",
        "street": "Rua Alberto Bins",
        "zipcode": "93220-010"
    },
    {
        "city": "Sapucaia do Sul",
        "state": "RS",
        "district": "Boa Vista",
        "street": "Rua Alcebíades Tavares",
        "zipcode": "93230-020"
    },
    {
        "city": "Sapucaia do Sul",
        "state": "RS",
        "district": "Dihel",
        "street": "Rua Alegrete",
        "zipcode": "93210-020"
    },
    {
        "city": "Sapucaia do Sul",
        "state": "RS",
        "district": "Primor",
        "street": "Travessa Alfândega",
        "zipcode": "93220-450"
    },
    {
        "city": "Sapucaia do Sul",
        "state": "RS",
        "district": "COHAB",
        "street": "Rua Alfredo dos Santos",
        "zipcode": "93212-470"
    },
    {
        "city": "Sapucaia do Sul",
        "state": "RS",
        "district": "Primor",
        "street": "Rua Alfredo Juliano",
        "zipcode": "93220-470"
    },
    {
        "city": "Sapucaia do Sul",
        "state": "RS",
        "district": "Nova Sapucaia",
        "street": "Rua Álvaro Pereira de Vargas",
        "zipcode": "93228-020"
    },
    {
        "city": "Sapucaia do Sul",
        "state": "RS",
        "district": "Vargas",
        "street": "Rua das Américas",
        "zipcode": "93222-260"
    },
    {
        "city": "Sapucaia do Sul",
        "state": "RS",
        "district": "Sete",
        "street": "Avenida Américo Vespúcio",
        "zipcode": "93224-350"
    },
    {
        "city": "Sapucaia do Sul",
        "state": "RS",
        "district": "Vargas",
        "street": "Avenida Américo Vespúcio",
        "zipcode": "93222-270"
    },
    {
        "city": "Sapucaia do Sul",
        "state": "RS",
        "district": "Kurashiki",
        "street": "Rua Anchieta",
        "zipcode": "93212-730"
    },
    {
        "city": "Sapucaia do Sul",
        "state": "RS",
        "district": "Capão da Cruz",
        "street": "Rua Ângelo Batista de Matos",
        "zipcode": "93226-420"
    },
    {
        "city": "Sapucaia do Sul",
        "state": "RS",
        "district": "Piratini",
        "street": "Travessa Antônio Afonso de Moraes",
        "zipcode": "93216-050"
    },
    {
        "city": "Sapucaia do Sul",
        "state": "RS",
        "district": "Jardim",
        "street": "Rua Antônio Rodrigues",
        "zipcode": "93220-030"
    },
    {
        "city": "Sapucaia do Sul",
        "state": "RS",
        "district": "Ipiranga",
        "street": "Rua Aristides Lobo",
        "zipcode": "93230-400"
    },
    {
        "city": "Sapucaia do Sul",
        "state": "RS",
        "district": "Vargas",
        "street": "Rua Carruira",
        "zipcode": "93222-770"
    },
    {
        "city": "Sapucaia do Sul",
        "state": "RS",
        "district": "Primor",
        "street": "Praça São José",
        "zipcode": "93220-730"
    },
    {
        "city": "Sapucaia do Sul",
        "state": "RS",
        "district": "Primor",
        "street": "Rua Barão de São Borja",
        "zipcode": "93210-060"
    },
    {
        "city": "Sapucaia do Sul",
        "state": "RS",
        "district": "Jardim",
        "street": "Rua Carlos Otaviano de Paula",
        "zipcode": "93220-080"
    },
    {
        "city": "Sapucaia do Sul",
        "state": "RS",
        "district": "Boa Vista",
        "street": "Rua Cipriano de Souza Garcia",
        "zipcode": "93230-120"
    },
    {
        "city": "Sapucaia do Sul",
        "state": "RS",
        "district": "Walderez",
        "street": "Avenida Coronel Theodomiro Porto da Fonseca",
        "zipcode": "93226-518"
    },
    {
        "city": "Sapucaia do Sul",
        "state": "RS",
        "district": "Pasqualini",
        "street": "Avenida Coronel Theodomiro Porto da Fonseca",
        "zipcode": "93224-665"
    },
    {
        "city": "Sapucaia do Sul",
        "state": "RS",
        "district": "Centro",
        "street": "Rua Desembargador Dantas",
        "zipcode": "93214-370"
    },
    {
        "city": "Sapucaia do Sul",
        "state": "RS",
        "district": "Freitas",
        "street": "Rua Doutor José Freitas",
        "zipcode": "93218-130"
    },
    {
        "city": "Sapucaia do Sul",
        "state": "RS",
        "district": "Capão da Cruz",
        "street": "Rua Gabriel Fernandes",
        "zipcode": "93226-110"
    },
    {
        "city": "Sapucaia do Sul",
        "state": "RS",
        "district": "Primor",
        "street": "Rua Gustavo Johann",
        "zipcode": "93220-590"
    },
    {
        "city": "Sapucaia do Sul",
        "state": "RS",
        "district": "Camboim",
        "street": "Avenida João Pereira de Vargas",
        "zipcode": "93224-150"
    },
    {
        "city": "Sapucaia do Sul",
        "state": "RS",
        "district": "Nova Sapucaia",
        "street": "Rua José Antônio Capela",
        "zipcode": "93230-230"
    },
    {
        "city": "Sapucaia do Sul",
        "state": "RS",
        "district": "Getúlio Vargas",
        "street": "Passagem Leônidas de Souza",
        "zipcode": "93210-150"
    },
    {
        "city": "Sapucaia do Sul",
        "state": "RS",
        "district": "Ipiranga",
        "street": "Travessa Manoel Godoy",
        "zipcode": "93230-510"
    },
    {
        "city": "Sapucaia do Sul",
        "state": "RS",
        "district": "COHAB",
        "street": "Rua Pedro Gravoski Filho",
        "zipcode": "93212-750"
    },
    {
        "city": "Sapucaia do Sul",
        "state": "RS",
        "district": "Centro",
        "street": "Rua Plácido de Castro",
        "zipcode": "93220-340"
    },
    {
        "city": "Sapucaia do Sul",
        "state": "RS",
        "district": "Capão da Cruz",
        "street": "Rua Rio Pardo",
        "zipcode": "93226-480"
    },
    {
        "city": "Sapucaia do Sul",
        "state": "RS",
        "district": "São Jorge",
        "street": "Rua Santo Ângelo",
        "zipcode": "93212-410"
    },
    {
        "city": "Sapucaia do Sul",
        "state": "RS",
        "district": "São José",
        "street": "Rua Santo Antônio",
        "zipcode": "93218-360"
    },
    {
        "city": "Sapucaia do Sul",
        "state": "RS",
        "district": "Jardim",
        "street": "Rua São Luiz",
        "zipcode": "93220-400"
    },
    {
        "city": "Sapucaia do Sul",
        "state": "RS",
        "district": "Capão da Cruz",
        "street": "Rua Silveira Martins",
        "zipcode": "93226-230"
    },
    {
        "city": "Sapucaia do Sul",
        "state": "RS",
        "district": "Ipiranga",
        "street": "Rua Tordesilhas",
        "zipcode": "93230-570"
    },
    {
        "city": "Sapucaia do Sul",
        "state": "RS",
        "district": "Três Portos",
        "street": "Rua Torpedeiro Bertioga",
        "zipcode": "93212-690"
    },
    {
        "city": "Sapucaia do Sul",
        "state": "RS",
        "district": "Capão da Cruz",
        "street": "Rua Doutor Lisboa",
        "zipcode": "93226-080"
    },
    {
        "city": "Sapucaia do Sul",
        "state": "RS",
        "district": "Freitas",
        "street": "Rua Dona Arlinda",
        "zipcode": "93218-100"
    },
    {
        "city": "Sapucaia do Sul",
        "state": "RS",
        "district": "Camboim",
        "street": "Rua Rio Grande do Norte",
        "zipcode": "93224-600"
    },
    {
        "city": "Sapucaia do Sul",
        "state": "RS",
        "district": "Lomba da Palmeira",
        "street": "Rua Aracy Rosa de Souza",
        "zipcode": "93224-720"
    },
    {
        "city": "Sapucaia do Sul",
        "state": "RS",
        "district": "Paraíso",
        "street": "Rua Nair Hickmann",
        "zipcode": "93220-751"
    },
    {
        "city": "Sapucaia do Sul",
        "state": "RS",
        "district": "Horto Florestal",
        "street": "Rua das Abelhas",
        "zipcode": "93212-605"
    },
    {
        "city": "Sapucaia do Sul",
        "state": "RS",
        "district": "Colonial",
        "street": "Avenida Industrial",
        "zipcode": "93212-711"
    },
    {
        "city": "Sapucaia do Sul",
        "state": "RS",
        "district": "Jardim",
        "street": "Rua Ademar C. da Silveira",
        "zipcode": "93220-146"
    },
    {
        "city": "Sapucaia do Sul",
        "state": "RS",
        "district": "Walderez",
        "street": "Rua José Saraiva",
        "zipcode": "93228-011"
    },
    {
        "city": "Sapucaia do Sul",
        "state": "RS",
        "district": "Lomba da Palmeira",
        "street": "Rua Anibal Francisco de Paula",
        "zipcode": "93225-524"
    },
    {
        "city": "Sapucaia do Sul",
        "state": "RS",
        "district": "Boa Vista",
        "street": "Rua Daniel José dos Santos",
        "zipcode": "93230-383"
    },
    {
        "city": "Sapucaia do Sul",
        "state": "RS",
        "district": "Lomba da Palmeira",
        "street": "Rua Joana Florentina de Souza",
        "zipcode": "93225-409"
    },
    {
        "city": "Sapucaia do Sul",
        "state": "RS",
        "district": "Lomba da Palmeira",
        "street": "Rua Elea Borges de Lemos",
        "zipcode": "93225-408"
    },
    {
        "city": "Sapucaia do Sul",
        "state": "RS",
        "district": "Vargas",
        "street": "Rua Comércio",
        "zipcode": "93222-490"
    },
    {
        "city": "Sapucaia do Sul",
        "state": "RS",
        "district": "Lomba da Palmeira",
        "street": "Avenida Albano Francisco da Silva (Lot Jd América)",
        "zipcode": "93225-115"
    },
    {
        "city": "Sapucaia do Sul",
        "state": "RS",
        "district": "Pasqualini",
        "street": "Rua Evaldo Antônio de Borba",
        "zipcode": "93224-555"
    },
    {
        "city": "Sapucaia do Sul",
        "state": "RS",
        "district": "Lomba da Palmeira",
        "street": "Rua Ana Rosa Rodrigues da Luz",
        "zipcode": "93225-363"
    },
    {
        "city": "Sapucaia do Sul",
        "state": "RS",
        "district": "Camboim",
        "street": "Rua Francisco Abreu",
        "zipcode": "93224-080"
    },
    {
        "city": "Sapucaia do Sul",
        "state": "RS",
        "district": "Lomba da Palmeira",
        "street": "Rua Eduardo Santa Rita Nunes",
        "zipcode": "93225-550"
    },
    {
        "city": "Sapucaia do Sul",
        "state": "RS",
        "district": "Lomba da Palmeira",
        "street": "Rua João Gilberto Mancuso Barbosa",
        "zipcode": "93225-520"
    },
    {
        "city": "Sapucaia do Sul",
        "state": "RS",
        "district": "Lomba da Palmeira",
        "street": "Rua Francisco de Assis Soares (Lot Jd América)",
        "zipcode": "93225-100"
    },
    {
        "city": "Sapucaia do Sul",
        "state": "RS",
        "district": "Lomba da Palmeira",
        "street": "Rua José Mendes (Lot Jd América)",
        "zipcode": "93225-145"
    },
    {
        "city": "Sapucaia do Sul",
        "state": "RS",
        "district": "Lomba da Palmeira",
        "street": "Rua Maria Célia da Rosa (Lot Jd América)",
        "zipcode": "93225-030"
    },
    {
        "city": "Sapucaia do Sul",
        "state": "RS",
        "district": "Lomba da Palmeira",
        "street": "Rua Nelson Souza (Lot Jd América)",
        "zipcode": "93225-165"
    },
    {
        "city": "Sapucaia do Sul",
        "state": "RS",
        "district": "Vargas",
        "street": "Beco Farrapos",
        "zipcode": "93222-045"
    },
    {
        "city": "Sapucaia do Sul",
        "state": "RS",
        "district": "Vargas",
        "street": "Beco General Luz",
        "zipcode": "93222-075"
    },
    {
        "city": "Sapucaia do Sul",
        "state": "RS",
        "district": "Pasqualini",
        "street": "Rua Ciro Silva",
        "zipcode": "93224-661"
    },
    {
        "city": "Sapucaia do Sul",
        "state": "RS",
        "district": "Vargas",
        "street": "Rua Porto Lucena",
        "zipcode": "93222-095"
    },
    {
        "city": "Sapucaia do Sul",
        "state": "RS",
        "district": "Capão da Cruz",
        "street": "Rua Botafogo",
        "zipcode": "93226-055"
    },
    {
        "city": "Sapucaia do Sul",
        "state": "RS",
        "district": "São José",
        "street": "Rua Ingá (Lot Jd Anchieta)",
        "zipcode": "93218-685"
    },
    {
        "city": "Sapucaia do Sul",
        "state": "RS",
        "district": "Vargas",
        "street": "Rua Marquês de Barbacena (Lot Popular N S Aparecida)",
        "zipcode": "93222-637"
    },
    {
        "city": "Sapucaia do Sul",
        "state": "RS",
        "district": "Pasqualini",
        "street": "Rua Estanislau Chalinski (Lot Três Figueiras)",
        "zipcode": "93224-486"
    },
    {
        "city": "Sapucaia do Sul",
        "state": "RS",
        "district": "Capão da Cruz",
        "street": "Rua Florianópolis (Lot P. Simon)",
        "zipcode": "93226-463"
    },
    {
        "city": "Sapucaia do Sul",
        "state": "RS",
        "district": "Ipiranga",
        "street": "Rua Tancredo Neves",
        "zipcode": "93230-492"
    },
    {
        "city": "Sapucaia do Sul",
        "state": "RS",
        "district": "COHAB",
        "street": "Travessa Juruna (Vl Feliz)",
        "zipcode": "93216-572"
    },
    {
        "city": "Sapucaia do Sul",
        "state": "RS",
        "district": "Ipiranga",
        "street": "Rua Dercy Machado Moraes (Lot Rec Rosas)",
        "zipcode": "93230-522"
    },
    {
        "city": "Sapucaia do Sul",
        "state": "RS",
        "district": "Zoológico",
        "street": "Rua Canto do Rio",
        "zipcode": "93211-712"
    },
    {
        "city": "Sapucaia do Sul",
        "state": "RS",
        "district": "Boa Vista",
        "street": "Rua Maria Ledi da Silva Ramos",
        "zipcode": "93230-054"
    },
    {
        "city": "Sapucaia do Sul",
        "state": "RS",
        "district": "Walderez",
        "street": "Avenida Luiz Pasteur",
        "zipcode": "93228-180"
    },
    {
        "city": "Sapucaia do Sul",
        "state": "RS",
        "district": "Pasqualini",
        "street": "Rua Mara Lúcia Souza de Mattos (Lot Três Figueiras)",
        "zipcode": "93224-474"
    },
    {
        "city": "Sapucaia do Sul",
        "state": "RS",
        "district": "Vargas",
        "street": "Rua Maria Delfina Marques de Paula",
        "zipcode": "93222-615"
    },
    {
        "city": "Sapucaia do Sul",
        "state": "RS",
        "district": "Pasqualini",
        "street": "Rua Valmir Rocha Andrade",
        "zipcode": "93224-557"
    },
    {
        "city": "Sapucaia do Sul",
        "state": "RS",
        "district": "Lomba da Palmeira",
        "street": "Rua Luiza Clarinda Thiesen",
        "zipcode": "93225-553"
    },
    {
        "city": "Sapucaia do Sul",
        "state": "RS",
        "district": "Jardim",
        "street": "Rua Pedro Martins",
        "zipcode": "93220-148"
    },
    {
        "city": "Sapucaia do Sul",
        "state": "RS",
        "district": "Lomba da Palmeira",
        "street": "Rua Anibaldo Lenhardt",
        "zipcode": "93225-535"
    },
    {
        "city": "Sapucaia do Sul",
        "state": "RS",
        "district": "Capão da Cruz",
        "street": "Rua Cezar Alves de Souza (Lot Charrua)",
        "zipcode": "93226-015"
    },
    {
        "city": "Sapucaia do Sul",
        "state": "RS",
        "district": "Lomba da Palmeira",
        "street": "Rua Pedro Reynaldo Scotá",
        "zipcode": "93225-533"
    },
    {
        "city": "Sapucaia do Sul",
        "state": "RS",
        "district": "Lomba da Palmeira",
        "street": "Rua Iltomar Ferri",
        "zipcode": "93225-361"
    },
    {
        "city": "Sapucaia do Sul",
        "state": "RS",
        "district": "Lomba da Palmeira",
        "street": "Rua Osvaldo Ferreira Maciel",
        "zipcode": "93225-357"
    },
    {
        "city": "Sapucaia do Sul",
        "state": "RS",
        "district": "Lomba da Palmeira",
        "street": "Rua Anna Lucas",
        "zipcode": "93225-407"
    },
    {
        "city": "Sapucaia do Sul",
        "state": "RS",
        "district": "Lomba da Palmeira",
        "street": "Rua Doracy Moraes Camboim (Lot Alto Colina)",
        "zipcode": "93224-732"
    },
    {
        "city": "Sapucaia do Sul",
        "state": "RS",
        "district": "Capão da Cruz",
        "street": "Avenida Luiz Pasteur",
        "zipcode": "93226-450"
    },
    {
        "city": "Sapucaia do Sul",
        "state": "RS",
        "district": "Lomba da Palmeira",
        "street": "Rua Celestino Franco Coutinho (Lot Jd América)",
        "zipcode": "93225-138"
    },
    {
        "city": "Sapucaia do Sul",
        "state": "RS",
        "district": "Boa Vista",
        "street": "Rua Mário Quintana",
        "zipcode": "93230-196"
    },
    {
        "city": "Sapucaia do Sul",
        "state": "RS",
        "district": "Boa Vista",
        "street": "Rua Helena Bolesta Galski",
        "zipcode": "93230-724"
    },
    {
        "city": "Sapucaia do Sul",
        "state": "RS",
        "district": "Lomba da Palmeira",
        "street": "Rua Democratino Alves Nunes",
        "zipcode": "93225-531"
    },
    {
        "city": "Sapucaia do Sul",
        "state": "RS",
        "district": "Lomba da Palmeira",
        "street": "Rua Germano Silvério Cardoso",
        "zipcode": "93225-351"
    },
    {
        "city": "Sapucaia do Sul",
        "state": "RS",
        "district": "Vargas",
        "street": "Travessa Guaíba",
        "zipcode": "93222-080"
    },
    {
        "city": "Sapucaia do Sul",
        "state": "RS",
        "district": "Silva",
        "street": "Rua Rolante",
        "zipcode": "93214-530"
    },
    {
        "city": "Sapucaia do Sul",
        "state": "RS",
        "district": "Walderez",
        "street": "Avenida Coronel Theodomiro Porto da Fonseca",
        "zipcode": "93226-430"
    },
    {
        "city": "Sapucaia do Sul",
        "state": "RS",
        "district": "COHAB",
        "street": "Rua Albertina da Silva Oliveira (Lot S Carlos)",
        "zipcode": "93216-568"
    },
    {
        "city": "Sapucaia do Sul",
        "state": "RS",
        "district": "COHAB",
        "street": "Rua Veriano José de Andrade",
        "zipcode": "93216-490"
    },
    {
        "city": "Sapucaia do Sul",
        "state": "RS",
        "district": "Pasqualini",
        "street": "Rua Claudete Catarina Bernardes Krentz",
        "zipcode": "93224-553"
    },
    {
        "city": "Sapucaia do Sul",
        "state": "RS",
        "district": "Capão da Cruz",
        "street": "Praça Alfredo Camboim",
        "zipcode": "93220-460"
    },
    {
        "city": "Sapucaia do Sul",
        "state": "RS",
        "district": "Boa Vista",
        "street": "Rua Rio Bonito",
        "zipcode": "93230-702"
    },
    {
        "city": "Sapucaia do Sul",
        "state": "RS",
        "district": "Paraíso",
        "street": "Rua Querino José Andrade Neto",
        "zipcode": "93220-752"
    },
    {
        "city": "Sapucaia do Sul",
        "state": "RS",
        "district": "São José",
        "street": "Rua Espatódia (Lot Jd Anchieta)",
        "zipcode": "93218-610"
    },
    {
        "city": "Sapucaia do Sul",
        "state": "RS",
        "district": "Capão da Cruz",
        "street": "Passeio Celuta",
        "zipcode": "93226-050"
    },
    {
        "city": "Sapucaia do Sul",
        "state": "RS",
        "district": "Capão da Cruz",
        "street": "Rua Jacob Schimidt (Lot Charrua)",
        "zipcode": "93226-223"
    },
    {
        "city": "Sapucaia do Sul",
        "state": "RS",
        "district": "Vargas",
        "street": "Rua José Joaquim Silveira",
        "zipcode": "93222-432"
    },
    {
        "city": "Sapucaia do Sul",
        "state": "RS",
        "district": "Três Portos",
        "street": "Avenida Leônidas de Souza",
        "zipcode": "93210-970"
    },
    {
        "city": "Sapucaia do Sul",
        "state": "RS",
        "district": "Costa do Morro",
        "street": "Rua das Camélias (Lot N Horizonte)",
        "zipcode": "93234-132"
    },
    {
        "city": "Sapucaia do Sul",
        "state": "RS",
        "district": "Lomba da Palmeira",
        "street": "Rua Rio Panaíba",
        "zipcode": "93225-400"
    },
    {
        "city": "Sapucaia do Sul",
        "state": "RS",
        "district": "Boa Vista",
        "street": "Rua Ailton Albuquerque Dias",
        "zipcode": "93230-704"
    },
    {
        "city": "Sapucaia do Sul",
        "state": "RS",
        "district": "Freitas",
        "street": "Praça Cláudio Veríssimo da Silva",
        "zipcode": "93218-080"
    },
    {
        "city": "Sapucaia do Sul",
        "state": "RS",
        "district": "Sete",
        "street": "Rua Edileida Greice Fagundes de Oliveira",
        "zipcode": "93220-145"
    },
    {
        "city": "Sapucaia do Sul",
        "state": "RS",
        "district": "Freitas",
        "street": "Travessa La Plata",
        "zipcode": "93218-220"
    },
    {
        "city": "Sapucaia do Sul",
        "state": "RS",
        "district": "Lomba da Palmeira",
        "street": "Rua Almiro Apolinário Nascimento (Jd Europa)",
        "zipcode": "93224-725"
    },
    {
        "city": "Sapucaia do Sul",
        "state": "RS",
        "district": "Ipiranga",
        "street": "Rua Eda Saeger Schmidt (Lot Terra Nova)",
        "zipcode": "93230-487"
    },
    {
        "city": "Sapucaia do Sul",
        "state": "RS",
        "district": "Boa Vista",
        "street": "Rua Marcelino Ramos",
        "zipcode": "93230-710"
    },
    {
        "city": "Sapucaia do Sul",
        "state": "RS",
        "district": "Lomba da Palmeira",
        "street": "Rua Osvaldo Florentino da Silva",
        "zipcode": "93225-359"
    },
    {
        "city": "Sapucaia do Sul",
        "state": "RS",
        "district": "Centro",
        "street": "Praça Bruno Sylvio Sperb",
        "zipcode": "93220-500"
    },
    {
        "city": "Sapucaia do Sul",
        "state": "RS",
        "district": "Ipiranga",
        "street": "Rua Professora Elenora Corrêa",
        "zipcode": "93230-424"
    },
    {
        "city": "Sapucaia do Sul",
        "state": "RS",
        "district": "Pasqualini",
        "street": "Rua Anjo Gabriel (Parada dos Anjos)",
        "zipcode": "93224-484"
    },
    {
        "city": "Sapucaia do Sul",
        "state": "RS",
        "district": "Jardim",
        "street": "Rua Fábio dos Santos",
        "zipcode": "93220-044"
    },
    {
        "city": "Sapucaia do Sul",
        "state": "RS",
        "district": "São José",
        "street": "Passeio Sial",
        "zipcode": "93218-430"
    },
    {
        "city": "Sapucaia do Sul",
        "state": "RS",
        "district": "Costa do Morro",
        "street": "Rua das Acácias (Lot N Horizonte)",
        "zipcode": "93234-130"
    },
    {
        "city": "Sapucaia do Sul",
        "state": "RS",
        "district": "Vargas",
        "street": "Rua Inácio Francisco Machado",
        "zipcode": "93222-510"
    },
    {
        "city": "Sapucaia do Sul",
        "state": "RS",
        "district": "Ipiranga",
        "street": "Rua Capitão Benício de Oliveira Cardoso (Lot Terra Nova)",
        "zipcode": "93230-453"
    },
    {
        "city": "Sapucaia do Sul",
        "state": "RS",
        "district": "Camboim",
        "street": "Rua Espírito Santo",
        "zipcode": "93224-060"
    },
    {
        "city": "Sapucaia do Sul",
        "state": "RS",
        "district": "Freitas",
        "street": "Rua Silma Joanna Thiesen da Cunha",
        "zipcode": "93218-143"
    },
    {
        "city": "Sapucaia do Sul",
        "state": "RS",
        "district": "São Jorge",
        "street": "Rua Ibiruba",
        "zipcode": "93212-270"
    },
    {
        "city": "Sapucaia do Sul",
        "state": "RS",
        "district": "Lomba da Palmeira",
        "street": "Rua Creusa de Araújo Becker",
        "zipcode": "93225-355"
    },
    {
        "city": "Sapucaia do Sul",
        "state": "RS",
        "district": "Primor",
        "street": "Praça Emancipação",
        "zipcode": "93220-570"
    },
    {
        "city": "Sapucaia do Sul",
        "state": "RS",
        "district": "Lomba da Palmeira",
        "street": "Rua Soeli Bitencourt Pedro",
        "zipcode": "93225-365"
    },
    {
        "city": "Sapucaia do Sul",
        "state": "RS",
        "district": "COHAB",
        "street": "Rua Jacy Fagundes de Fontoura (Lot S Carlos)",
        "zipcode": "93216-566"
    },
    {
        "city": "Sapucaia do Sul",
        "state": "RS",
        "district": "Paraíso",
        "street": "Praça João Antônio Dias",
        "zipcode": "93220-170"
    },
    {
        "city": "Sapucaia do Sul",
        "state": "RS",
        "district": "Pasqualini",
        "street": "Rua Mario Isaias Pereira da Silva (Lot Glória)",
        "zipcode": "93224-477"
    },
    {
        "city": "Sapucaia do Sul",
        "state": "RS",
        "district": "Pasqualini",
        "street": "Rua Anjo Mikael (Parada dos Anjos)",
        "zipcode": "93224-482"
    },
    {
        "city": "Sapucaia do Sul",
        "state": "RS",
        "district": "Lomba da Palmeira",
        "street": "Rua Jeferson Luiz Mello Carvalho (Lot Jd Europa)",
        "zipcode": "93224-744"
    }
]