[
    {
        "city": "Taquara",
        "state": "RS",
        "district": "Empresa",
        "street": "Rua Carazinho",
        "zipcode": "95603-372"
    },
    {
        "city": "Taquara",
        "state": "RS",
        "district": "Empresa",
        "street": "Rua Peru",
        "zipcode": "95603-618"
    },
    {
        "city": "Taquara",
        "state": "RS",
        "district": "Centro",
        "street": "Rua Gaspar Martins",
        "zipcode": "95600-108"
    },
    {
        "city": "Taquara",
        "state": "RS",
        "district": "Empresa",
        "street": "Rua Belmiro Kehl",
        "zipcode": "95603-634"
    },
    {
        "city": "Taquara",
        "state": "RS",
        "district": "Jardim do Prado",
        "street": "Rua Osvaldo Brandão",
        "zipcode": "95600-506"
    },
    {
        "city": "Taquara",
        "state": "RS",
        "district": "Recreio",
        "street": "Rua Erna Volkart",
        "zipcode": "95600-358"
    },
    {
        "city": "Taquara",
        "state": "RS",
        "district": "Centro",
        "street": "Rua Marechal Floriano",
        "zipcode": "95600-110"
    },
    {
        "city": "Taquara",
        "state": "RS",
        "district": "KM 4",
        "street": "Rua Santa Rosa",
        "zipcode": "95611-370"
    },
    {
        "city": "Taquara",
        "state": "RS",
        "district": "Santa Rosa",
        "street": "Rua São Cristóvão",
        "zipcode": "95609-132"
    },
    {
        "city": "Taquara",
        "state": "RS",
        "district": "Cruzeiro do Sul",
        "street": "Rua Vinte e Dois de Julho",
        "zipcode": "95601-274"
    },
    {
        "city": "Taquara",
        "state": "RS",
        "district": "Santa Terezinha",
        "street": "Rua Coronel Diniz",
        "zipcode": "95603-000"
    },
    {
        "city": "Taquara",
        "state": "RS",
        "district": "Santa Rosa",
        "street": "Rua Paulo Gonzaga",
        "zipcode": "95609-434"
    },
    {
        "city": "Taquara",
        "state": "RS",
        "district": "Jardim do Prado",
        "street": "Rua Ernesto Alves",
        "zipcode": "95600-402"
    },
    {
        "city": "Taquara",
        "state": "RS",
        "district": "Eldorado",
        "street": "Rua Otto Lamb",
        "zipcode": "95613-112"
    },
    {
        "city": "Taquara",
        "state": "RS",
        "district": "Santa Maria",
        "street": "Rua Tristão Monteiro",
        "zipcode": "95612-554"
    },
    {
        "city": "Taquara",
        "state": "RS",
        "district": "Morro da Cruz",
        "street": "Rua da Antena",
        "zipcode": "95611-104"
    },
    {
        "city": "Taquara",
        "state": "RS",
        "district": "Tucanos",
        "street": "Rua Armindo Eugênio Boher",
        "zipcode": "95607-570"
    },
    {
        "city": "Taquara",
        "state": "RS",
        "district": "Petrópolis",
        "street": "Rua Carlos Sperb",
        "zipcode": "95607-120"
    },
    {
        "city": "Taquara",
        "state": "RS",
        "district": "Petrópolis",
        "street": "Rua Caiçara",
        "zipcode": "95607-128"
    },
    {
        "city": "Taquara",
        "state": "RS",
        "district": "Petrópolis",
        "street": "Rua Bom Jesus",
        "zipcode": "95607-172"
    },
    {
        "city": "Taquara",
        "state": "RS",
        "district": "Petrópolis",
        "street": "Rua Bandeirantes",
        "zipcode": "95607-180"
    },
    {
        "city": "Taquara",
        "state": "RS",
        "district": "Tucanos",
        "street": "Rua Armindo Eugênio Boher",
        "zipcode": "95607-476"
    },
    {
        "city": "Taquara",
        "state": "RS",
        "district": "Tucanos",
        "street": "Rua Angelo Bizarro Bossle",
        "zipcode": "95607-578"
    },
    {
        "city": "Taquara",
        "state": "RS",
        "district": "Mundo Novo",
        "street": "Rua Arno Faiock",
        "zipcode": "95607-758"
    },
    {
        "city": "Taquara",
        "state": "RS",
        "district": "Mundo Novo",
        "street": "Rua Coronel Neves",
        "zipcode": "95607-776"
    },
    {
        "city": "Taquara",
        "state": "RS",
        "district": "KM 4",
        "street": "Rua Carlos Nunes",
        "zipcode": "95611-302"
    },
    {
        "city": "Taquara",
        "state": "RS",
        "district": "Nossa Senhora de Fátima",
        "street": "Rua Dona Ella",
        "zipcode": "95612-018"
    },
    {
        "city": "Taquara",
        "state": "RS",
        "district": "Eldorado",
        "street": "Rua Ervino Haag",
        "zipcode": "95613-124"
    },
    {
        "city": "Taquara",
        "state": "RS",
        "district": "Tucanos",
        "street": "Rua Armindo Eugênio Boher",
        "zipcode": "95607-572"
    },
    {
        "city": "Taquara",
        "state": "RS",
        "district": "Tucanos",
        "street": "Rua Coronel Neves",
        "zipcode": "95607-574"
    },
    {
        "city": "Taquara",
        "state": "RS",
        "district": "Empresa",
        "street": "Rua Arlindo Cândido Rangel",
        "zipcode": "95603-524"
    },
    {
        "city": "Taquara",
        "state": "RS",
        "district": "Petrópolis",
        "street": "Rua Guilherme Lahm",
        "zipcode": "95607-100"
    },
    {
        "city": "Taquara",
        "state": "RS",
        "district": "Tucanos",
        "street": "Rua Dorico Ferreira Paiva",
        "zipcode": "95607-480"
    },
    {
        "city": "Taquara",
        "state": "RS",
        "district": "Tucanos",
        "street": "Rua Flores da Cunha",
        "zipcode": "95607-486"
    },
    {
        "city": "Taquara",
        "state": "RS",
        "district": "Mundo Novo",
        "street": "Rua Darcy Ribeiro",
        "zipcode": "95607-788"
    },
    {
        "city": "Taquara",
        "state": "RS",
        "district": "Santa Rosa",
        "street": "Rua Antônio Hahn",
        "zipcode": "95609-002"
    },
    {
        "city": "Taquara",
        "state": "RS",
        "district": "Santa Rosa",
        "street": "Rua Aparicio Candido Teixeira",
        "zipcode": "95609-080"
    },
    {
        "city": "Taquara",
        "state": "RS",
        "district": "Santa Rosa",
        "street": "Rua Angelo Valentini",
        "zipcode": "95609-130"
    },
    {
        "city": "Taquara",
        "state": "RS",
        "district": "Medianeira",
        "street": "Rua Padre Tomé",
        "zipcode": "95605-044"
    },
    {
        "city": "Taquara",
        "state": "RS",
        "district": "Santa Rosa",
        "street": "Rua Roberto Landell de Moura",
        "zipcode": "95609-070"
    },
    {
        "city": "Taquara",
        "state": "RS",
        "district": "Santa Terezinha",
        "street": "Rua Propício Castro da Cunha",
        "zipcode": "95603-124"
    },
    {
        "city": "Taquara",
        "state": "RS",
        "district": "Santa Terezinha",
        "street": "Travessa Ludwig",
        "zipcode": "95603-184"
    },
    {
        "city": "Taquara",
        "state": "RS",
        "district": "Cruzeiro do Sul",
        "street": "Rua Anita Barok de Souza",
        "zipcode": "95601-570"
    },
    {
        "city": "Taquara",
        "state": "RS",
        "district": "Santa Terezinha",
        "street": "Rua Picada Gravatá",
        "zipcode": "95603-144"
    },
    {
        "city": "Taquara",
        "state": "RS",
        "district": "Santa Terezinha",
        "street": "Rua Gasparina Martins de Paiva",
        "zipcode": "95603-152"
    },
    {
        "city": "Taquara",
        "state": "RS",
        "district": "Empresa",
        "street": "Rua Osvaldo Aranha",
        "zipcode": "95603-612"
    },
    {
        "city": "Taquara",
        "state": "RS",
        "district": "Petrópolis",
        "street": "Rua Florisbela Torres",
        "zipcode": "95607-112"
    },
    {
        "city": "Taquara",
        "state": "RS",
        "district": "Ideal",
        "street": "Rua José Lauro Rauber",
        "zipcode": "95604-018"
    },
    {
        "city": "Taquara",
        "state": "RS",
        "district": "Petrópolis",
        "street": "Rua Boa Esperança",
        "zipcode": "95607-160"
    },
    {
        "city": "Taquara",
        "state": "RS",
        "district": "Mundo Novo",
        "street": "Rua Angelo Bizarro Bossle",
        "zipcode": "95607-650"
    },
    {
        "city": "Taquara",
        "state": "RS",
        "district": "Mundo Novo",
        "street": "Rua Picada Gravatá",
        "zipcode": "95607-722"
    },
    {
        "city": "Taquara",
        "state": "RS",
        "district": "Sagrada Família",
        "street": "Rua São Miguel",
        "zipcode": "95611-064"
    },
    {
        "city": "Taquara",
        "state": "RS",
        "district": "Cruzeiro do Sul",
        "street": "Rua Marechal Rondon",
        "zipcode": "95601-358"
    },
    {
        "city": "Taquara",
        "state": "RS",
        "district": "Empresa",
        "street": "Rua do DAER",
        "zipcode": "95603-310"
    },
    {
        "city": "Taquara",
        "state": "RS",
        "district": "Santa Rosa",
        "street": "Travessa Tristão Monteiro",
        "zipcode": "95609-250"
    },
    {
        "city": "Taquara",
        "state": "RS",
        "district": "Morro da Cruz",
        "street": "Rua Angenor Pires Carneiro",
        "zipcode": "95611-130"
    },
    {
        "city": "Taquara",
        "state": "RS",
        "district": "Nossa Senhora de Fátima",
        "street": "Rua Olinda Muller",
        "zipcode": "95612-032"
    },
    {
        "city": "Taquara",
        "state": "RS",
        "district": "Nossa Senhora de Fátima",
        "street": "Rua Pedro José Müller",
        "zipcode": "95612-036"
    },
    {
        "city": "Taquara",
        "state": "RS",
        "district": "Eldorado",
        "street": "Rua Ruy Carlos Bender",
        "zipcode": "95613-122"
    },
    {
        "city": "Taquara",
        "state": "RS",
        "district": "Medianeira",
        "street": "Rua Santo Augusto",
        "zipcode": "95605-266"
    },
    {
        "city": "Taquara",
        "state": "RS",
        "district": "Jardim do Prado",
        "street": "Rua Daniel Viana Barbosa",
        "zipcode": "95600-514"
    },
    {
        "city": "Taquara",
        "state": "RS",
        "district": "Jardim do Prado",
        "street": "Rua Barbosa Lessa",
        "zipcode": "95600-534"
    },
    {
        "city": "Taquara",
        "state": "RS",
        "district": "Jardim do Prado",
        "street": "Rua Caí",
        "zipcode": "95600-542"
    },
    {
        "city": "Taquara",
        "state": "RS",
        "district": "Jardim do Prado",
        "street": "Rua Erechim",
        "zipcode": "95600-554"
    },
    {
        "city": "Taquara",
        "state": "RS",
        "district": "Petrópolis",
        "street": "Rua Frederico Jacobus Junior",
        "zipcode": "95607-092"
    },
    {
        "city": "Taquara",
        "state": "RS",
        "district": "Santa Maria",
        "street": "Rua Osvaldo Martins Rangel",
        "zipcode": "95612-708"
    },
    {
        "city": "Taquara",
        "state": "RS",
        "district": "Eldorado",
        "street": "Rua Arsenor José Homem",
        "zipcode": "95613-100"
    },
    {
        "city": "Taquara",
        "state": "RS",
        "district": "Petrópolis",
        "street": "Rua Coronel Theobaldo Fleck",
        "zipcode": "95607-096"
    },
    {
        "city": "Taquara",
        "state": "RS",
        "district": "Nossa Senhora de Fátima",
        "street": "Rua dos Pinheirinhos",
        "zipcode": "95612-034"
    },
    {
        "city": "Taquara",
        "state": "RS",
        "district": "Nossa Senhora de Fátima",
        "street": "Rua Eloi Fernando Volkart",
        "zipcode": "95612-096"
    },
    {
        "city": "Taquara",
        "state": "RS",
        "district": "Nossa Senhora de Fátima",
        "street": "Rua João Edgar Scheffel",
        "zipcode": "95612-112"
    },
    {
        "city": "Taquara",
        "state": "RS",
        "district": "Fogão Gaúcho",
        "street": "Rua Gustavo Lauck",
        "zipcode": "95612-250"
    },
    {
        "city": "Taquara",
        "state": "RS",
        "district": "Fogão Gaúcho",
        "street": "Rua Fridolino Freiberger",
        "zipcode": "95612-312"
    },
    {
        "city": "Taquara",
        "state": "RS",
        "district": "Fogão Gaúcho",
        "street": "Rua Ilda Dillemburger",
        "zipcode": "95612-314"
    },
    {
        "city": "Taquara",
        "state": "RS",
        "district": "Santa Maria",
        "street": "Rua Doutor Luiz Carniel",
        "zipcode": "95612-704"
    },
    {
        "city": "Taquara",
        "state": "RS",
        "district": "Empresa",
        "street": "Rua Buenos Aires",
        "zipcode": "95603-534"
    },
    {
        "city": "Taquara",
        "state": "RS",
        "district": "Empresa",
        "street": "Rua Bolívia",
        "zipcode": "95603-628"
    },
    {
        "city": "Taquara",
        "state": "RS",
        "district": "Empresa",
        "street": "Rua Cantuário Abelardo Britto",
        "zipcode": "95603-630"
    },
    {
        "city": "Taquara",
        "state": "RS",
        "district": "Empresa",
        "street": "Rua Cesar Antonio Bauer",
        "zipcode": "95603-480"
    },
    {
        "city": "Taquara",
        "state": "RS",
        "district": "Nossa Senhora de Fátima",
        "street": "Rua Pastor Hermann Schafke",
        "zipcode": "95612-088"
    },
    {
        "city": "Taquara",
        "state": "RS",
        "district": "Nossa Senhora de Fátima",
        "street": "Rua Luiz Capovila",
        "zipcode": "95612-100"
    },
    {
        "city": "Taquara",
        "state": "RS",
        "district": "Nossa Senhora de Fátima",
        "street": "Rua Osmindo Alfredo Dietrich",
        "zipcode": "95612-104"
    },
    {
        "city": "Taquara",
        "state": "RS",
        "district": "Nossa Senhora de Fátima",
        "street": "Rua José Theomar Lehnen",
        "zipcode": "95612-108"
    },
    {
        "city": "Taquara",
        "state": "RS",
        "district": "Fogão Gaúcho",
        "street": "Rua Leonel de Moura Brizola",
        "zipcode": "95612-318"
    },
    {
        "city": "Taquara",
        "state": "RS",
        "district": "Santa Maria",
        "street": "Rua João Manoel Correa",
        "zipcode": "95612-640"
    },
    {
        "city": "Taquara",
        "state": "RS",
        "district": "Santa Maria",
        "street": "Rua Parobé",
        "zipcode": "95612-740"
    },
    {
        "city": "Taquara",
        "state": "RS",
        "district": "Eldorado",
        "street": "Rua José Carlos da Rosa",
        "zipcode": "95613-034"
    },
    {
        "city": "Taquara",
        "state": "RS",
        "district": "Eldorado",
        "street": "Rua Lagoa Vermelha",
        "zipcode": "95613-054"
    },
    {
        "city": "Taquara",
        "state": "RS",
        "district": "Nossa Senhora de Fátima",
        "street": "Rua Leonardo Altmeyer",
        "zipcode": "95612-038"
    },
    {
        "city": "Taquara",
        "state": "RS",
        "district": "Ideal",
        "street": "Rua Liberdade Nelson Mandela",
        "zipcode": "95604-010"
    },
    {
        "city": "Taquara",
        "state": "RS",
        "district": "Tucanos",
        "street": "Rua Nercílio Armindo Schein",
        "zipcode": "95607-370"
    },
    {
        "city": "Taquara",
        "state": "RS",
        "district": "Tucanos",
        "street": "Rua Pedro Emílio Martins",
        "zipcode": "95607-440"
    },
    {
        "city": "Taquara",
        "state": "RS",
        "district": "Tucanos",
        "street": "Rua Leopoldo Vivaldo Gelinger",
        "zipcode": "95607-472"
    },
    {
        "city": "Taquara",
        "state": "RS",
        "district": "Tucanos",
        "street": "Rua Santarém",
        "zipcode": "95607-484"
    },
    {
        "city": "Taquara",
        "state": "RS",
        "district": "Cruzeiro do Sul",
        "street": "Rua Castro Alves",
        "zipcode": "95601-322"
    },
    {
        "city": "Taquara",
        "state": "RS",
        "district": "Empresa",
        "street": "Rua Assunção",
        "zipcode": "95603-530"
    },
    {
        "city": "Taquara",
        "state": "RS",
        "district": "Nossa Senhora de Fátima",
        "street": "Rua Tristão Monteiro",
        "zipcode": "95612-064"
    },
    {
        "city": "Taquara",
        "state": "RS",
        "district": "Jardim do Prado",
        "street": "Rua Rio Branco",
        "zipcode": "95600-972"
    },
    {
        "city": "Taquara",
        "state": "RS",
        "district": "Jardim do Prado",
        "street": "Rua Ernesto Alves",
        "zipcode": "95600-482"
    },
    {
        "city": "Taquara",
        "state": "RS",
        "district": "Empresa",
        "street": "Rua Cambará do Sul",
        "zipcode": "95603-420"
    },
    {
        "city": "Taquara",
        "state": "RS",
        "district": "Tucanos",
        "street": "Rua Max Badermann",
        "zipcode": "95607-510"
    },
    {
        "city": "Taquara",
        "state": "RS",
        "district": "Tucanos",
        "street": "Rua Vinte e Quatro de Junho",
        "zipcode": "95607-514"
    },
    {
        "city": "Taquara",
        "state": "RS",
        "district": "Fogão Gaúcho",
        "street": "Rua Pedro José Müller",
        "zipcode": "95612-310"
    },
    {
        "city": "Taquara",
        "state": "RS",
        "district": "Fogão Gaúcho",
        "street": "Rua Rotary Club",
        "zipcode": "95612-316"
    },
    {
        "city": "Taquara",
        "state": "RS",
        "district": "Santa Maria",
        "street": "Rua José Bonifácio",
        "zipcode": "95612-712"
    },
    {
        "city": "Taquara",
        "state": "RS",
        "district": "Santa Maria",
        "street": "Rua Pastor Homero Severo Pinto",
        "zipcode": "95612-720"
    },
    {
        "city": "Taquara",
        "state": "RS",
        "district": "Santa Maria",
        "street": "Rua Três Coroas",
        "zipcode": "95612-736"
    },
    {
        "city": "Taquara",
        "state": "RS",
        "district": "Santa Maria",
        "street": "Rua Professora Noeli Klain",
        "zipcode": "95612-756"
    },
    {
        "city": "Taquara",
        "state": "RS",
        "district": "Eldorado",
        "street": "Rua Reinoldo Jaeger",
        "zipcode": "95613-102"
    },
    {
        "city": "Taquara",
        "state": "RS",
        "district": "Santa Maria",
        "street": "Rua Rio Grande do Sul",
        "zipcode": "95612-728"
    },
    {
        "city": "Taquara",
        "state": "RS",
        "district": "Empresa",
        "street": "Rua Olaria",
        "zipcode": "95603-426"
    },
    {
        "city": "Taquara",
        "state": "RS",
        "district": "Nossa Senhora de Fátima",
        "street": "Rua Pedro José Müller",
        "zipcode": "95612-028"
    },
    {
        "city": "Taquara",
        "state": "RS",
        "district": "Santa Rosa",
        "street": "Rua Haroldo Candemil Valim",
        "zipcode": "95609-500"
    },
    {
        "city": "Taquara",
        "state": "RS",
        "district": "Santa Rosa",
        "street": "Rua Nelson Darcy Blauth",
        "zipcode": "95609-502"
    },
    {
        "city": "Taquara",
        "state": "RS",
        "district": "Santa Rosa",
        "street": "Rua Santa Rosa",
        "zipcode": "95609-192"
    },
    {
        "city": "Taquara",
        "state": "RS",
        "district": "Santa Rosa",
        "street": "Rua Vicente Belotto",
        "zipcode": "95609-014"
    },
    {
        "city": "Taquara",
        "state": "RS",
        "district": "Santa Rosa",
        "street": "Rua Olivier de Oliveira Paz",
        "zipcode": "95609-060"
    },
    {
        "city": "Taquara",
        "state": "RS",
        "district": "Santa Rosa",
        "street": "Rua Lenira de Andrade Feix",
        "zipcode": "95609-074"
    },
    {
        "city": "Taquara",
        "state": "RS",
        "district": "Santa Rosa",
        "street": "Rua Nercílio Armindo Schein",
        "zipcode": "95609-340"
    },
    {
        "city": "Taquara",
        "state": "RS",
        "district": "Santa Rosa",
        "street": "Rua João Ferreira de Souza Netto",
        "zipcode": "95609-742"
    },
    {
        "city": "Taquara",
        "state": "RS",
        "district": "Santa Rosa",
        "street": "Rua Marina da Cunha Scheffel",
        "zipcode": "95609-758"
    },
    {
        "city": "Taquara",
        "state": "RS",
        "district": "Sagrada Família",
        "street": "Rua Martin Lutero",
        "zipcode": "95611-006"
    },
    {
        "city": "Taquara",
        "state": "RS",
        "district": "Sagrada Família",
        "street": "Rua João Brussius",
        "zipcode": "95611-012"
    },
    {
        "city": "Taquara",
        "state": "RS",
        "district": "Sagrada Família",
        "street": "Rua Nelson Renck",
        "zipcode": "95611-022"
    },
    {
        "city": "Taquara",
        "state": "RS",
        "district": "Morro da Cruz",
        "street": "Rua Martin Lutero",
        "zipcode": "95611-138"
    },
    {
        "city": "Taquara",
        "state": "RS",
        "district": "Nossa Senhora de Fátima",
        "street": "Rua José Júlio Müller",
        "zipcode": "95612-004"
    },
    {
        "city": "Taquara",
        "state": "RS",
        "district": "Nossa Senhora de Fátima",
        "street": "Rua Oscar Bauermann",
        "zipcode": "95612-020"
    },
    {
        "city": "Taquara",
        "state": "RS",
        "district": "Santa Rosa",
        "street": "Rua Myrtes Amoretti Bizarro",
        "zipcode": "95609-436"
    },
    {
        "city": "Taquara",
        "state": "RS",
        "district": "Empresa",
        "street": "Rua Tabajara",
        "zipcode": "95603-432"
    },
    {
        "city": "Taquara",
        "state": "RS",
        "district": "Mundo Novo",
        "street": "Rua Rudi Lindenmayer",
        "zipcode": "95607-710"
    },
    {
        "city": "Taquara",
        "state": "RS",
        "district": "Mundo Novo",
        "street": "Rua Santarém",
        "zipcode": "95607-720"
    },
    {
        "city": "Taquara",
        "state": "RS",
        "district": "Mundo Novo",
        "street": "Rua Mundo Novo",
        "zipcode": "95607-750"
    },
    {
        "city": "Taquara",
        "state": "RS",
        "district": "Mundo Novo",
        "street": "Rua Luiz Rangel",
        "zipcode": "95607-754"
    },
    {
        "city": "Taquara",
        "state": "RS",
        "district": "Mundo Novo",
        "street": "Rua Nivaldo Altmeyer",
        "zipcode": "95607-756"
    },
    {
        "city": "Taquara",
        "state": "RS",
        "district": "Mundo Novo",
        "street": "Rua Júlio Leitensdorf",
        "zipcode": "95607-772"
    },
    {
        "city": "Taquara",
        "state": "RS",
        "district": "Mundo Novo",
        "street": "Rua Urbano Schein",
        "zipcode": "95607-850"
    },
    {
        "city": "Taquara",
        "state": "RS",
        "district": "Santa Rosa",
        "street": "Rua Tristão Monteiro",
        "zipcode": "95609-008"
    },
    {
        "city": "Taquara",
        "state": "RS",
        "district": "Santa Rosa",
        "street": "Rua Santa Rosa",
        "zipcode": "95609-196"
    },
    {
        "city": "Taquara",
        "state": "RS",
        "district": "Santa Rosa",
        "street": "Rua Santa Rosa",
        "zipcode": "95609-570"
    },
    {
        "city": "Taquara",
        "state": "RS",
        "district": "Cruzeiro do Sul",
        "street": "Rua Ricardo Olm",
        "zipcode": "95601-494"
    },
    {
        "city": "Taquara",
        "state": "RS",
        "district": "Santa Terezinha",
        "street": "Rua São Paulo",
        "zipcode": "95603-008"
    },
    {
        "city": "Taquara",
        "state": "RS",
        "district": "Santa Terezinha",
        "street": "Rua Ruy Gaspar da Silva",
        "zipcode": "95603-176"
    },
    {
        "city": "Taquara",
        "state": "RS",
        "district": "Empresa",
        "street": "Rua Uruguai",
        "zipcode": "95603-320"
    },
    {
        "city": "Taquara",
        "state": "RS",
        "district": "Santa Terezinha",
        "street": "Rua Nilo Dias",
        "zipcode": "95603-192"
    },
    {
        "city": "Taquara",
        "state": "RS",
        "district": "Santa Terezinha",
        "street": "Rua Rodeio Bonito",
        "zipcode": "95603-200"
    },
    {
        "city": "Taquara",
        "state": "RS",
        "district": "Empresa",
        "street": "Rua Nerci Correia dos Santos",
        "zipcode": "95603-270"
    },
    {
        "city": "Taquara",
        "state": "RS",
        "district": "Empresa",
        "street": "Rua Paraguai",
        "zipcode": "95603-330"
    },
    {
        "city": "Taquara",
        "state": "RS",
        "district": "Empresa",
        "street": "Rua Nonoai",
        "zipcode": "95603-422"
    },
    {
        "city": "Taquara",
        "state": "RS",
        "district": "Mundo Novo",
        "street": "Rua Rodolfo Von Ihering",
        "zipcode": "95607-762"
    },
    {
        "city": "Taquara",
        "state": "RS",
        "district": "Santa Rosa",
        "street": "Rua Rogério Michel",
        "zipcode": "95609-120"
    },
    {
        "city": "Taquara",
        "state": "RS",
        "district": "Sagrada Família",
        "street": "Rua General Emílio Lúcio Esteves",
        "zipcode": "95611-018"
    },
    {
        "city": "Taquara",
        "state": "RS",
        "district": "Nossa Senhora de Fátima",
        "street": "Rua Fridolino Freiberger",
        "zipcode": "95612-026"
    },
    {
        "city": "Taquara",
        "state": "RS",
        "district": "Empresa",
        "street": "Rua Rockfeller",
        "zipcode": "95603-334"
    },
    {
        "city": "Taquara",
        "state": "RS",
        "district": "Empresa",
        "street": "Rua Roberto Halmel",
        "zipcode": "95603-300"
    },
    {
        "city": "Taquara",
        "state": "RS",
        "district": "Mundo Novo",
        "street": "Rua João Paulo Bossle",
        "zipcode": "95607-706"
    },
    {
        "city": "Taquara",
        "state": "RS",
        "district": "Santa Rosa",
        "street": "Rua Oscar Helberto Natus",
        "zipcode": "95609-004"
    },
    {
        "city": "Taquara",
        "state": "RS",
        "district": "Sagrada Família",
        "street": "Rua Maceió",
        "zipcode": "95611-008"
    },
    {
        "city": "Taquara",
        "state": "RS",
        "district": "KM 4",
        "street": "Rua Professor Romeu Ritter dos Reis",
        "zipcode": "95611-320"
    },
    {
        "city": "Taquara",
        "state": "RS",
        "district": "Nossa Senhora de Fátima",
        "street": "Travessa Três Passos",
        "zipcode": "95612-076"
    },
    {
        "city": "Taquara",
        "state": "RS",
        "district": "KM 4",
        "street": "Rua Silvana Iribarry",
        "zipcode": "95611-308"
    },
    {
        "city": "Taquara",
        "state": "RS",
        "district": "KM 4",
        "street": "Rua Sebastião Bristotti",
        "zipcode": "95611-610"
    },
    {
        "city": "Taquara",
        "state": "RS",
        "district": "Petrópolis",
        "street": "Rua Melvin Jones",
        "zipcode": "95607-104"
    },
    {
        "city": "Taquara",
        "state": "RS",
        "district": "Jardim do Prado",
        "street": "Rua Miguel Bauer",
        "zipcode": "95600-400"
    },
    {
        "city": "Taquara",
        "state": "RS",
        "district": "Jardim do Prado",
        "street": "Travessa Cruze",
        "zipcode": "95600-474"
    },
    {
        "city": "Taquara",
        "state": "RS",
        "district": "Jardim do Prado",
        "street": "Rua Rio Branco",
        "zipcode": "95600-486"
    },
    {
        "city": "Taquara",
        "state": "RS",
        "district": "Jardim do Prado",
        "street": "Rua Henrique Bauermann",
        "zipcode": "95600-490"
    },
    {
        "city": "Taquara",
        "state": "RS",
        "district": "Recreio",
        "street": "Rua Henrique Jacob Volkart",
        "zipcode": "95600-304"
    },
    {
        "city": "Taquara",
        "state": "RS",
        "district": "Recreio",
        "street": "Rua Henrique Bauermann",
        "zipcode": "95600-324"
    },
    {
        "city": "Taquara",
        "state": "RS",
        "district": "Jardim do Prado",
        "street": "Rua Pinheiro Machado",
        "zipcode": "95600-462"
    },
    {
        "city": "Taquara",
        "state": "RS",
        "district": "Centro",
        "street": "Rua João Godinho",
        "zipcode": "95600-126"
    },
    {
        "city": "Taquara",
        "state": "RS",
        "district": "Centro",
        "street": "Rua João Bayer",
        "zipcode": "95600-128"
    },
    {
        "city": "Taquara",
        "state": "RS",
        "district": "Morro do Leôncio",
        "street": "Rua João Renck",
        "zipcode": "95600-156"
    },
    {
        "city": "Taquara",
        "state": "RS",
        "district": "Morro do Leôncio",
        "street": "Rua João Hugo Kroeff",
        "zipcode": "95600-192"
    },
    {
        "city": "Taquara",
        "state": "RS",
        "district": "Petrópolis",
        "street": "Rua João Bayer",
        "zipcode": "95607-156"
    },
    {
        "city": "Taquara",
        "state": "RS",
        "district": "Petrópolis",
        "street": "Rua João Carlos Lehn",
        "zipcode": "95607-196"
    },
    {
        "city": "Taquara",
        "state": "RS",
        "district": "Empresa",
        "street": "Rua Orlando Krummenauer",
        "zipcode": "95603-436"
    },
    {
        "city": "Taquara",
        "state": "RS",
        "district": "Empresa",
        "street": "Rua Oswaldo de Souza",
        "zipcode": "95603-520"
    },
    {
        "city": "Taquara",
        "state": "RS",
        "district": "Empresa",
        "street": "Rua Quito",
        "zipcode": "95603-610"
    },
    {
        "city": "Taquara",
        "state": "RS",
        "district": "Empresa",
        "street": "Rua Pastor Luiz Antônio Rodrigues da Luz",
        "zipcode": "95603-614"
    },
    {
        "city": "Taquara",
        "state": "RS",
        "district": "Empresa",
        "street": "Rua Pedro Aluizio Arnhold",
        "zipcode": "95603-626"
    },
    {
        "city": "Taquara",
        "state": "RS",
        "district": "Empresa",
        "street": "Rua Osvaldo Aranha",
        "zipcode": "95603-640"
    },
    {
        "city": "Taquara",
        "state": "RS",
        "district": "Empresa",
        "street": "Rua Osmar Schaeffer",
        "zipcode": "95603-644"
    },
    {
        "city": "Taquara",
        "state": "RS",
        "district": "Ideal",
        "street": "Rua João Nicolau Dillenburg",
        "zipcode": "95604-020"
    },
    {
        "city": "Taquara",
        "state": "RS",
        "district": "Medianeira",
        "street": "Rua São Francisco de Paula",
        "zipcode": "95605-142"
    },
    {
        "city": "Taquara",
        "state": "RS",
        "district": "Medianeira",
        "street": "Rua Waldemar da Silva Luz",
        "zipcode": "95605-252"
    },
    {
        "city": "Taquara",
        "state": "RS",
        "district": "Medianeira",
        "street": "Rua Lidia Wanda Halmel Letti",
        "zipcode": "95605-256"
    },
    {
        "city": "Taquara",
        "state": "RS",
        "district": "Medianeira",
        "street": "Rua Tapajós",
        "zipcode": "95605-278"
    },
    {
        "city": "Taquara",
        "state": "RS",
        "district": "Medianeira",
        "street": "Rua José Luiz da Costa",
        "zipcode": "95605-282"
    },
    {
        "city": "Taquara",
        "state": "RS",
        "district": "Medianeira",
        "street": "Rua Madre Júlia",
        "zipcode": "95605-284"
    },
    {
        "city": "Taquara",
        "state": "RS",
        "district": "Medianeira",
        "street": "Rua Urbano Schein",
        "zipcode": "95605-380"
    },
    {
        "city": "Taquara",
        "state": "RS",
        "district": "Petrópolis",
        "street": "Rua Moinhos de Vento",
        "zipcode": "95607-020"
    },
    {
        "city": "Taquara",
        "state": "RS",
        "district": "Petrópolis",
        "street": "Rua Júlio Petersen",
        "zipcode": "95607-032"
    },
    {
        "city": "Taquara",
        "state": "RS",
        "district": "Petrópolis",
        "street": "Travessa Wilhelms",
        "zipcode": "95607-048"
    },
    {
        "city": "Taquara",
        "state": "RS",
        "district": "Petrópolis",
        "street": "Rua Primeiro de Maio",
        "zipcode": "95607-064"
    },
    {
        "city": "Taquara",
        "state": "RS",
        "district": "Petrópolis",
        "street": "Rua Xangrilá",
        "zipcode": "95607-144"
    },
    {
        "city": "Taquara",
        "state": "RS",
        "district": "Ideal",
        "street": "Rua Leopoldo Conrado",
        "zipcode": "95604-016"
    },
    {
        "city": "Taquara",
        "state": "RS",
        "district": "Petrópolis",
        "street": "Travessa Fischer",
        "zipcode": "95607-080"
    },
    {
        "city": "Taquara",
        "state": "RS",
        "district": "Petrópolis",
        "street": "Rua Oscar Linden",
        "zipcode": "95607-152"
    },
    {
        "city": "Taquara",
        "state": "RS",
        "district": "Petrópolis",
        "street": "Rua Oscar Waldemar Haubrich",
        "zipcode": "95607-200"
    },
    {
        "city": "Taquara",
        "state": "RS",
        "district": "Mundo Novo",
        "street": "Rua Wilson Ferreira",
        "zipcode": "95607-792"
    },
    {
        "city": "Taquara",
        "state": "RS",
        "district": "Santa Rosa",
        "street": "Rua Wilson Aguiar",
        "zipcode": "95609-114"
    },
    {
        "city": "Taquara",
        "state": "RS",
        "district": "Santa Rosa",
        "street": "Rua Willy Heidrich",
        "zipcode": "95609-118"
    },
    {
        "city": "Taquara",
        "state": "RS",
        "district": "Mundo Novo",
        "street": "Rua Wilma Krumennauer",
        "zipcode": "95607-718"
    },
    {
        "city": "Taquara",
        "state": "RS",
        "district": "Cruzeiro do Sul",
        "street": "Rua Soely Bergold",
        "zipcode": "95601-498"
    },
    {
        "city": "Taquara",
        "state": "RS",
        "district": "Medianeira",
        "street": "Rua Victor Hugo Raymundo",
        "zipcode": "95605-264"
    },
    {
        "city": "Taquara",
        "state": "RS",
        "district": "Petrópolis",
        "street": "Rua Milton Teixeira Brodbeck",
        "zipcode": "95607-024"
    },
    {
        "city": "Taquara",
        "state": "RS",
        "district": "Petrópolis",
        "street": "Rua Picada Gravatá",
        "zipcode": "95607-184"
    },
    {
        "city": "Taquara",
        "state": "RS",
        "district": "Petrópolis",
        "street": "Rua Santa Rosa",
        "zipcode": "95607-204"
    },
    {
        "city": "Taquara",
        "state": "RS",
        "district": "Morro do Leôncio",
        "street": "Rua Jacob Grun",
        "zipcode": "95600-162"
    },
    {
        "city": "Taquara",
        "state": "RS",
        "district": "Morro do Leôncio",
        "street": "Rua Júlio de Castilhos",
        "zipcode": "95600-220"
    },
    {
        "city": "Taquara",
        "state": "RS",
        "district": "Recreio",
        "street": "Rua Pedro Fernando Volkart",
        "zipcode": "95600-362"
    },
    {
        "city": "Taquara",
        "state": "RS",
        "district": "Jardim do Prado",
        "street": "Rua José Loureiro da Silva",
        "zipcode": "95600-466"
    },
    {
        "city": "Taquara",
        "state": "RS",
        "district": "Petrópolis",
        "street": "Rua Júlio Ostermann",
        "zipcode": "95607-088"
    },
    {
        "city": "Taquara",
        "state": "RS",
        "district": "Cruzeiro do Sul",
        "street": "Rua Três de Maio",
        "zipcode": "95601-278"
    },
    {
        "city": "Taquara",
        "state": "RS",
        "district": "Jardim do Prado",
        "street": "Rua Professor Rodolfo Dietschi",
        "zipcode": "95600-494"
    },
    {
        "city": "Taquara",
        "state": "RS",
        "district": "Jardim do Prado",
        "street": "Rua Tristão Monteiro",
        "zipcode": "95600-502"
    },
    {
        "city": "Taquara",
        "state": "RS",
        "district": "Jardim do Prado",
        "street": "Rua Marcelino Ramos",
        "zipcode": "95600-510"
    },
    {
        "city": "Taquara",
        "state": "RS",
        "district": "Jardim do Prado",
        "street": "Rua Rio Branco",
        "zipcode": "95600-518"
    },
    {
        "city": "Taquara",
        "state": "RS",
        "district": "Jardim do Prado",
        "street": "Rua Pastor Hermann Schafke",
        "zipcode": "95600-530"
    },
    {
        "city": "Taquara",
        "state": "RS",
        "district": "Jardim do Prado",
        "street": "Rua Guilherme Lahm",
        "zipcode": "95600-538"
    },
    {
        "city": "Taquara",
        "state": "RS",
        "district": "Jardim do Prado",
        "street": "Rua José Avelino Ostermann",
        "zipcode": "95600-566"
    },
    {
        "city": "Taquara",
        "state": "RS",
        "district": "Jardim do Prado",
        "street": "Rua Miguel Bauer",
        "zipcode": "95600-574"
    },
    {
        "city": "Taquara",
        "state": "RS",
        "district": "Medianeira",
        "street": "Rua Vereador Jozsef Cseke",
        "zipcode": "95605-130"
    },
    {
        "city": "Taquara",
        "state": "RS",
        "district": "Jardim do Prado",
        "street": "Rua Rio Grande",
        "zipcode": "95600-546"
    },
    {
        "city": "Taquara",
        "state": "RS",
        "district": "Empresa",
        "street": "Rua Luiz de Carvalho",
        "zipcode": "95603-306"
    },
    {
        "city": "Taquara",
        "state": "RS",
        "district": "Centro",
        "street": "Rua Pinheiro Machado",
        "zipcode": "95600-114"
    },
    {
        "city": "Taquara",
        "state": "RS",
        "district": "Centro",
        "street": "Rua Jacob Grun",
        "zipcode": "95600-124"
    },
    {
        "city": "Taquara",
        "state": "RS",
        "district": "Centro",
        "street": "Rua Marechal Floriano",
        "zipcode": "95600-032"
    },
    {
        "city": "Taquara",
        "state": "RS",
        "district": "Centro",
        "street": "Rua General Frota",
        "zipcode": "95600-072"
    },
    {
        "city": "Taquara",
        "state": "RS",
        "district": "Centro",
        "street": "Rua Rio Branco",
        "zipcode": "95600-074"
    },
    {
        "city": "Taquara",
        "state": "RS",
        "district": "Centro",
        "street": "Rua Júlio de Castilhos",
        "zipcode": "95600-080"
    },
    {
        "city": "Taquara",
        "state": "RS",
        "district": "Centro",
        "street": "Rua Tristão Monteiro",
        "zipcode": "95600-092"
    },
    {
        "city": "Taquara",
        "state": "RS",
        "district": "Centro",
        "street": "Rua Rio Branco",
        "zipcode": "95600-098"
    },
    {
        "city": "Taquara",
        "state": "RS",
        "district": "Centro",
        "street": "Rua Júlio de Castilhos",
        "zipcode": "95600-100"
    },
    {
        "city": "Taquara",
        "state": "RS",
        "district": "Cruzeiro do Sul",
        "street": "Rua Waldo Reihener",
        "zipcode": "95601-362"
    },
    {
        "city": "Taquara",
        "state": "RS",
        "district": "Santa Terezinha",
        "street": "Travessa Ostermann",
        "zipcode": "95603-028"
    },
    {
        "city": "Taquara",
        "state": "RS",
        "district": "Santa Terezinha",
        "street": "Rua Rio de Janeiro",
        "zipcode": "95603-116"
    },
    {
        "city": "Taquara",
        "state": "RS",
        "district": "Santa Terezinha",
        "street": "Travessa Breyer",
        "zipcode": "95603-140"
    },
    {
        "city": "Taquara",
        "state": "RS",
        "district": "Empresa",
        "street": "Travessa Ludwig",
        "zipcode": "95603-254"
    },
    {
        "city": "Taquara",
        "state": "RS",
        "district": "Cruzeiro do Sul",
        "street": "Rua Inocente Fernandes do Amaral",
        "zipcode": "95601-162"
    },
    {
        "city": "Taquara",
        "state": "RS",
        "district": "Cruzeiro do Sul",
        "street": "Rua José Bangel",
        "zipcode": "95601-250"
    },
    {
        "city": "Taquara",
        "state": "RS",
        "district": "Cruzeiro do Sul",
        "street": "Rua José Dias da Silva",
        "zipcode": "95601-254"
    },
    {
        "city": "Taquara",
        "state": "RS",
        "district": "Cruzeiro do Sul",
        "street": "Rua Pedro Oscar Schuck",
        "zipcode": "95601-262"
    },
    {
        "city": "Taquara",
        "state": "RS",
        "district": "Cruzeiro do Sul",
        "street": "Rua Sete de Agosto",
        "zipcode": "95601-270"
    },
    {
        "city": "Taquara",
        "state": "RS",
        "district": "Cruzeiro do Sul",
        "street": "Rua Princesa Isabel",
        "zipcode": "95601-314"
    },
    {
        "city": "Taquara",
        "state": "RS",
        "district": "Santa Terezinha",
        "street": "Rua Sergipe",
        "zipcode": "95603-012"
    },
    {
        "city": "Taquara",
        "state": "RS",
        "district": "Santa Terezinha",
        "street": "Rua Minas Gerais",
        "zipcode": "95603-020"
    },
    {
        "city": "Taquara",
        "state": "RS",
        "district": "Santa Terezinha",
        "street": "Rua Paraná",
        "zipcode": "95603-036"
    },
    {
        "city": "Taquara",
        "state": "RS",
        "district": "Santa Terezinha",
        "street": "Rua Manoel Oscar Kelsch",
        "zipcode": "95603-044"
    },
    {
        "city": "Taquara",
        "state": "RS",
        "district": "Santa Terezinha",
        "street": "Rua Mato Grosso",
        "zipcode": "95603-052"
    },
    {
        "city": "Taquara",
        "state": "RS",
        "district": "Santa Terezinha",
        "street": "Rua Maranhão",
        "zipcode": "95603-088"
    },
    {
        "city": "Taquara",
        "state": "RS",
        "district": "Santa Terezinha",
        "street": "Rua Paraíba",
        "zipcode": "95603-120"
    },
    {
        "city": "Taquara",
        "state": "RS",
        "district": "Santa Terezinha",
        "street": "Rua Piauí",
        "zipcode": "95603-136"
    },
    {
        "city": "Taquara",
        "state": "RS",
        "district": "Empresa",
        "street": "Rua Nelson Wilhelms",
        "zipcode": "95603-262"
    },
    {
        "city": "Taquara",
        "state": "RS",
        "district": "Empresa",
        "street": "Rua Olimpio Candido da Silva",
        "zipcode": "95603-308"
    },
    {
        "city": "Taquara",
        "state": "RS",
        "district": "Cruzeiro do Sul",
        "street": "Rua Orosolino Gonzaga da Rosa",
        "zipcode": "95601-342"
    },
    {
        "city": "Taquara",
        "state": "RS",
        "district": "Morro do Leôncio",
        "street": "Rua Júlio de Castilhos",
        "zipcode": "95600-190"
    },
    {
        "city": "Taquara",
        "state": "RS",
        "district": "Morro do Leôncio",
        "street": "Rua Quinze de Novembro",
        "zipcode": "95600-196"
    },
    {
        "city": "Taquara",
        "state": "RS",
        "district": "Ronda",
        "street": "Rua Sete de Setembro",
        "zipcode": "95600-850"
    },
    {
        "city": "Taquara",
        "state": "RS",
        "district": "Cruzeiro do Sul",
        "street": "Rua Sete de Setembro",
        "zipcode": "95601-000"
    },
    {
        "city": "Taquara",
        "state": "RS",
        "district": "Cruzeiro do Sul",
        "street": "Rua São João",
        "zipcode": "95601-070"
    },
    {
        "city": "Taquara",
        "state": "RS",
        "district": "Cruzeiro do Sul",
        "street": "Rua Treze de Maio",
        "zipcode": "95601-154"
    },
    {
        "city": "Taquara",
        "state": "RS",
        "district": "Santa Terezinha",
        "street": "Travessa Agenor",
        "zipcode": "95603-100"
    },
    {
        "city": "Taquara",
        "state": "RS",
        "district": "Recreio",
        "street": "Rua Professor Nestor Paulo Hartmann",
        "zipcode": "95600-308"
    },
    {
        "city": "Taquara",
        "state": "RS",
        "district": "Morro do Leôncio",
        "street": "Rua Vicente Luiz Ferreira",
        "zipcode": "95600-224"
    },
    {
        "city": "Taquara",
        "state": "RS",
        "district": "Jardim do Prado",
        "street": "Rua Theodoro Ritter",
        "zipcode": "95600-522"
    },
    {
        "city": "Taquara",
        "state": "RS",
        "district": "Centro",
        "street": "Rua Júlio de Castilhos",
        "zipcode": "95600-030"
    },
    {
        "city": "Taquara",
        "state": "RS",
        "district": "Centro",
        "street": "Rua Venâncio Aires",
        "zipcode": "95600-060"
    },
    {
        "city": "Taquara",
        "state": "RS",
        "district": "Nossa Senhora de Fátima",
        "street": "Rua Olinda Muller",
        "zipcode": "95612-116"
    },
    {
        "city": "Taquara",
        "state": "RS",
        "district": "Santa Rosa",
        "street": "Rua Gomercinda Martins Gonzaga",
        "zipcode": "95609-078"
    },
    {
        "city": "Taquara",
        "state": "RS",
        "district": "Mundo Novo",
        "street": "Rua José Raymundo",
        "zipcode": "95607-752"
    },
    {
        "city": "Taquara",
        "state": "RS",
        "district": "Petrópolis",
        "street": "Rua João Bayer",
        "zipcode": "95607-008"
    },
    {
        "city": "Taquara",
        "state": "RS",
        "district": "Centro",
        "street": "Rua Ernesto Negrini",
        "zipcode": "95600-014"
    },
    {
        "city": "Taquara",
        "state": "RS",
        "district": "Petrópolis",
        "street": "Rua Humberto Castelo Branco",
        "zipcode": "95607-028"
    },
    {
        "city": "Taquara",
        "state": "RS",
        "district": "Tucanos",
        "street": "Rua Honório Lemos",
        "zipcode": "95607-478"
    },
    {
        "city": "Taquara",
        "state": "RS",
        "district": "Mundo Novo",
        "street": "Rua Jacob Altenhofen",
        "zipcode": "95607-786"
    },
    {
        "city": "Taquara",
        "state": "RS",
        "district": "Morro da Cruz",
        "street": "Rua Jovino Vitorino da Silva",
        "zipcode": "95611-212"
    },
    {
        "city": "Taquara",
        "state": "RS",
        "district": "Santa Maria",
        "street": "Rua Osvaldo Brandão",
        "zipcode": "95612-558"
    },
    {
        "city": "Taquara",
        "state": "RS",
        "district": "Eldorado",
        "street": "Rua José Rosa de Borba",
        "zipcode": "95613-082"
    },
    {
        "city": "Taquara",
        "state": "RS",
        "district": "Medianeira",
        "street": "Rua Medianeira",
        "zipcode": "95605-254"
    },
    {
        "city": "Taquara",
        "state": "RS",
        "district": "Petrópolis",
        "street": "Rua Marechal Floriano",
        "zipcode": "95607-124"
    },
    {
        "city": "Taquara",
        "state": "RS",
        "district": "Mundo Novo",
        "street": "Rua João Emílio Diehl",
        "zipcode": "95607-708"
    },
    {
        "city": "Taquara",
        "state": "RS",
        "district": "Mundo Novo",
        "street": "Rua João Goulart",
        "zipcode": "95607-784"
    },
    {
        "city": "Taquara",
        "state": "RS",
        "district": "Santa Rosa",
        "street": "Rua Rodolfo Czermack",
        "zipcode": "95609-064"
    },
    {
        "city": "Taquara",
        "state": "RS",
        "district": "Santa Rosa",
        "street": "Travessa Reis",
        "zipcode": "95609-180"
    },
    {
        "city": "Taquara",
        "state": "RS",
        "district": "Santa Rosa",
        "street": "Rua Santa Rosa",
        "zipcode": "95609-754"
    },
    {
        "city": "Taquara",
        "state": "RS",
        "district": "Morro da Cruz",
        "street": "Rua Professora Liane Born Burgel",
        "zipcode": "95611-146"
    },
    {
        "city": "Taquara",
        "state": "RS",
        "district": "KM 4",
        "street": "Rua Rotaract Club",
        "zipcode": "95611-304"
    },
    {
        "city": "Taquara",
        "state": "RS",
        "district": "KM 4",
        "street": "Rua Vila Verde",
        "zipcode": "95611-460"
    },
    {
        "city": "Taquara",
        "state": "RS",
        "district": "Nossa Senhora de Fátima",
        "street": "Rua Tarcísio Fialho de Vargas",
        "zipcode": "95612-068"
    },
    {
        "city": "Taquara",
        "state": "RS",
        "district": "Fogão Gaúcho",
        "street": "Rua Sebastião Bristotti",
        "zipcode": "95612-420"
    },
    {
        "city": "Taquara",
        "state": "RS",
        "district": "Santa Maria",
        "street": "Rua Urbano Alves dos Santos",
        "zipcode": "95612-594"
    },
    {
        "city": "Taquara",
        "state": "RS",
        "district": "Santa Rosa",
        "street": "Rua Interact Club de Taquara",
        "zipcode": "95609-010"
    },
    {
        "city": "Taquara",
        "state": "RS",
        "district": "Ideal",
        "street": "Rua Sonia Leda Scheffel",
        "zipcode": "95604-008"
    },
    {
        "city": "Taquara",
        "state": "RS",
        "district": "Empresa",
        "street": "Rua Santo Antônio da Patrulha",
        "zipcode": "95603-650"
    },
    {
        "city": "Taquara",
        "state": "RS",
        "district": "Empresa",
        "street": "Rua Rolante",
        "zipcode": "95603-652"
    },
    {
        "city": "Taquara",
        "state": "RS",
        "district": "Tucanos",
        "street": "Rua Vinte e Cinco de Novembro",
        "zipcode": "95607-516"
    },
    {
        "city": "Taquara",
        "state": "RS",
        "district": "Santa Terezinha",
        "street": "Rua Sete de Setembro",
        "zipcode": "95603-172"
    },
    {
        "city": "Taquara",
        "state": "RS",
        "district": "Santa Terezinha",
        "street": "Rua Sete de Setembro",
        "zipcode": "95603-196"
    },
    {
        "city": "Taquara",
        "state": "RS",
        "district": "Tucanos",
        "street": "Rua Santa Rosa",
        "zipcode": "95607-290"
    },
    {
        "city": "Taquara",
        "state": "RS",
        "district": "Sagrada Família",
        "street": "Rua Santa Rita",
        "zipcode": "95611-060"
    },
    {
        "city": "Taquara",
        "state": "RS",
        "district": "Morro da Cruz",
        "street": "Travessa Reis",
        "zipcode": "95611-170"
    },
    {
        "city": "Taquara",
        "state": "RS",
        "district": "Empresa",
        "street": "Rua Venezuela",
        "zipcode": "95603-332"
    },
    {
        "city": "Taquara",
        "state": "RS",
        "district": "Santa Rosa",
        "street": "Rua dos Advogados",
        "zipcode": "95609-810"
    },
    {
        "city": "Taquara",
        "state": "RS",
        "district": "Santa Rosa",
        "street": "Rua dos Médicos",
        "zipcode": "95609-830"
    },
    {
        "city": "Taquara",
        "state": "RS",
        "district": "Santa Rosa",
        "street": "Rua General Emílio Lúcio Esteves",
        "zipcode": "95609-062"
    },
    {
        "city": "Taquara",
        "state": "RS",
        "district": "Santa Rosa",
        "street": "Rua Luiz Alfredo Schafer",
        "zipcode": "95609-750"
    },
    {
        "city": "Taquara",
        "state": "RS",
        "district": "Santa Rosa",
        "street": "Rua Cristóvão Colombo",
        "zipcode": "95609-110"
    },
    {
        "city": "Taquara",
        "state": "RS",
        "district": "Santa Rosa",
        "street": "Avenida Sebastião Amoretti",
        "zipcode": "95609-184"
    },
    {
        "city": "Taquara",
        "state": "RS",
        "district": "Santa Rosa",
        "street": "Rua Aristides Severo de Oliveira",
        "zipcode": "95609-746"
    },
    {
        "city": "Taquara",
        "state": "RS",
        "district": "Ideal",
        "street": "Avenida Albino Ebling",
        "zipcode": "95603-790"
    },
    {
        "city": "Taquara",
        "state": "RS",
        "district": "Medianeira",
        "street": "Rua Astrogildo Antônio da Silva",
        "zipcode": "95605-268"
    },
    {
        "city": "Taquara",
        "state": "RS",
        "district": "Sagrada Família",
        "street": "Rua Arnaldo da Costa Bard",
        "zipcode": "95611-014"
    },
    {
        "city": "Taquara",
        "state": "RS",
        "district": "Sagrada Família",
        "street": "Alameda dos Ipês",
        "zipcode": "95611-028"
    },
    {
        "city": "Taquara",
        "state": "RS",
        "district": "Área Rural de Taquara",
        "street": "Área Rural",
        "zipcode": "95613-899"
    },
    {
        "city": "Taquara",
        "state": "RS",
        "district": "Santa Rosa",
        "street": "Rua Jorge Alberto Petersen",
        "zipcode": "95609-430"
    },
    {
        "city": "Taquara",
        "state": "RS",
        "district": "Santa Rosa",
        "street": "Rua Alcides Amoretti",
        "zipcode": "95609-432"
    },
    {
        "city": "Taquara",
        "state": "RS",
        "district": "Empresa",
        "street": "Rua Chile",
        "zipcode": "95603-316"
    },
    {
        "city": "Taquara",
        "state": "RS",
        "district": "Santa Terezinha",
        "street": "Rua Amazonas",
        "zipcode": "95603-092"
    },
    {
        "city": "Taquara",
        "state": "RS",
        "district": "Medianeira",
        "street": "Avenida Albino Ebling",
        "zipcode": "95605-010"
    },
    {
        "city": "Taquara",
        "state": "RS",
        "district": "Jardim do Prado",
        "street": "Rua Tenente Portela",
        "zipcode": "95600-450"
    },
    {
        "city": "Taquara",
        "state": "RS",
        "district": "Jardim do Prado",
        "street": "Rua Marechal Floriano",
        "zipcode": "95600-470"
    },
    {
        "city": "Taquara",
        "state": "RS",
        "district": "Jardim do Prado",
        "street": "Rua Tristão Monteiro",
        "zipcode": "95600-498"
    },
    {
        "city": "Taquara",
        "state": "RS",
        "district": "Jardim do Prado",
        "street": "Rua Ervino Bach",
        "zipcode": "95600-526"
    },
    {
        "city": "Taquara",
        "state": "RS",
        "district": "Jardim do Prado",
        "street": "Rua Pinheiro Machado",
        "zipcode": "95600-558"
    },
    {
        "city": "Taquara",
        "state": "RS",
        "district": "Recreio",
        "street": "Rua Miguel Bauer",
        "zipcode": "95600-320"
    },
    {
        "city": "Taquara",
        "state": "RS",
        "district": "Cruzeiro do Sul",
        "street": "Rua Oito de Março",
        "zipcode": "95601-258"
    },
    {
        "city": "Taquara",
        "state": "RS",
        "district": "Centro",
        "street": "Rua Miguel Bauer",
        "zipcode": "95600-010"
    },
    {
        "city": "Taquara",
        "state": "RS",
        "district": "Centro",
        "street": "Rua Pinheiro Machado",
        "zipcode": "95600-026"
    },
    {
        "city": "Taquara",
        "state": "RS",
        "district": "Centro",
        "street": "Rua Doutor Edmundo Saft",
        "zipcode": "95600-062"
    },
    {
        "city": "Taquara",
        "state": "RS",
        "district": "Centro",
        "street": "Rua Tristão Monteiro",
        "zipcode": "95600-066"
    },
    {
        "city": "Taquara",
        "state": "RS",
        "district": "Centro",
        "street": "Rua Nelson Renck",
        "zipcode": "95600-082"
    },
    {
        "city": "Taquara",
        "state": "RS",
        "district": "Centro",
        "street": "Rua Guilherme Lahm",
        "zipcode": "95600-104"
    },
    {
        "city": "Taquara",
        "state": "RS",
        "district": "Centro",
        "street": "Rua Dezessete de Junho",
        "zipcode": "95600-106"
    },
    {
        "city": "Taquara",
        "state": "RS",
        "district": "Centro",
        "street": "Rua Júlio de Castilhos",
        "zipcode": "95600-122"
    },
    {
        "city": "Taquara",
        "state": "RS",
        "district": "Empresa",
        "street": "Rua Argentina",
        "zipcode": "95603-326"
    },
    {
        "city": "Taquara",
        "state": "RS",
        "district": "Empresa",
        "street": "Rua Brasília",
        "zipcode": "95603-532"
    },
    {
        "city": "Taquara",
        "state": "RS",
        "district": "Cruzeiro do Sul",
        "street": "Rua Treze de Maio",
        "zipcode": "95601-502"
    },
    {
        "city": "Taquara",
        "state": "RS",
        "district": "Santa Terezinha",
        "street": "Rua Santa Catarina",
        "zipcode": "95603-040"
    },
    {
        "city": "Taquara",
        "state": "RS",
        "district": "Empresa",
        "street": "Rua Vicente Dutra",
        "zipcode": "95603-368"
    },
    {
        "city": "Taquara",
        "state": "RS",
        "district": "Cruzeiro do Sul",
        "street": "Rua Joaquim Nabuco",
        "zipcode": "95601-330"
    },
    {
        "city": "Taquara",
        "state": "RS",
        "district": "Santa Terezinha",
        "street": "Rua Pernambuco",
        "zipcode": "95603-024"
    },
    {
        "city": "Taquara",
        "state": "RS",
        "district": "Santa Terezinha",
        "street": "Rua Pernambuco",
        "zipcode": "95603-080"
    },
    {
        "city": "Taquara",
        "state": "RS",
        "district": "Santa Terezinha",
        "street": "Rua Guanabara",
        "zipcode": "95603-112"
    },
    {
        "city": "Taquara",
        "state": "RS",
        "district": "Empresa",
        "street": "Rua Passo Fundo",
        "zipcode": "95603-360"
    },
    {
        "city": "Taquara",
        "state": "RS",
        "district": "Centro",
        "street": "Rua Tristão Monteiro",
        "zipcode": "95600-970"
    },
    {
        "city": "Taquara",
        "state": "RS",
        "district": "Morro do Leôncio",
        "street": "Rua João Bayer",
        "zipcode": "95600-160"
    },
    {
        "city": "Taquara",
        "state": "RS",
        "district": "Empresa",
        "street": "Rua Oswaldo Cruz",
        "zipcode": "95603-620"
    },
    {
        "city": "Taquara",
        "state": "RS",
        "district": "Recreio",
        "street": "Rua Pedro Ritter",
        "zipcode": "95600-312"
    },
    {
        "city": "Taquara",
        "state": "RS",
        "district": "Cruzeiro do Sul",
        "street": "Rua João Simão Thomaz",
        "zipcode": "95601-078"
    },
    {
        "city": "Taquara",
        "state": "RS",
        "district": "Cruzeiro do Sul",
        "street": "Rua Pastor Harder",
        "zipcode": "95601-490"
    },
    {
        "city": "Taquara",
        "state": "RS",
        "district": "Santa Terezinha",
        "street": "Rua Breno Oswaldo Ritter",
        "zipcode": "95603-016"
    },
    {
        "city": "Taquara",
        "state": "RS",
        "district": "Santa Terezinha",
        "street": "Rua Neusa Goulart Brizola",
        "zipcode": "95603-204"
    },
    {
        "city": "Taquara",
        "state": "RS",
        "district": "Medianeira",
        "street": "Rua Santo Antônio",
        "zipcode": "95605-258"
    },
    {
        "city": "Taquara",
        "state": "RS",
        "district": "Petrópolis",
        "street": "Rua Antônio Galvão",
        "zipcode": "95607-116"
    },
    {
        "city": "Taquara",
        "state": "RS",
        "district": "Medianeira",
        "street": "Rua Picada Gravatá",
        "zipcode": "95605-090"
    },
    {
        "city": "Taquara",
        "state": "RS",
        "district": "Eldorado",
        "street": "Rua Reinoldo Jaeger",
        "zipcode": "95613-126"
    },
    {
        "city": "Taquara",
        "state": "RS",
        "district": "Nossa Senhora de Fátima",
        "street": "Rua Tristão Monteiro",
        "zipcode": "95612-002"
    },
    {
        "city": "Taquara",
        "state": "RS",
        "district": "Santa Rosa",
        "street": "Rua Auto João Muratore",
        "zipcode": "95609-124"
    },
    {
        "city": "Taquara",
        "state": "RS",
        "district": "Santa Rosa",
        "street": "Rua José Muller Neto",
        "zipcode": "95609-126"
    },
    {
        "city": "Taquara",
        "state": "RS",
        "district": "Empresa",
        "street": "Rua Sarandi",
        "zipcode": "95603-656"
    },
    {
        "city": "Taquara",
        "state": "RS",
        "district": "Mundo Novo",
        "street": "Rua Armindo Eugênio Boher",
        "zipcode": "95607-600"
    },
    {
        "city": "Taquara",
        "state": "RS",
        "district": "Eldorado",
        "street": "Rua Diaconiza Luci Schmith",
        "zipcode": "95613-104"
    },
    {
        "city": "Taquara",
        "state": "RS",
        "district": "Santa Rosa",
        "street": "Rua Antônio Lehn",
        "zipcode": "95609-006"
    },
    {
        "city": "Taquara",
        "state": "RS",
        "district": "Santa Rosa",
        "street": "Rua Ody Valério Maciel",
        "zipcode": "95609-504"
    },
    {
        "city": "Taquara",
        "state": "RS",
        "district": "Sagrada Família",
        "street": "Rua Padre Afonso Kist",
        "zipcode": "95611-010"
    },
    {
        "city": "Taquara",
        "state": "RS",
        "district": "Sagrada Família",
        "street": "Rua Olinda Muller",
        "zipcode": "95611-066"
    },
    {
        "city": "Taquara",
        "state": "RS",
        "district": "Nossa Senhora de Fátima",
        "street": "Rua Olinda Muller",
        "zipcode": "95612-030"
    },
    {
        "city": "Taquara",
        "state": "RS",
        "district": "Medianeira",
        "street": "Rua Padre Tomé",
        "zipcode": "95605-274"
    },
    {
        "city": "Taquara",
        "state": "RS",
        "district": "Medianeira",
        "street": "Rua Zeferino Vicente Neves Filho",
        "zipcode": "95605-286"
    },
    {
        "city": "Taquara",
        "state": "RS",
        "district": "Petrópolis",
        "street": "Travessa Atlântica",
        "zipcode": "95607-036"
    },
    {
        "city": "Taquara",
        "state": "RS",
        "district": "Petrópolis",
        "street": "Rua Tiradentes",
        "zipcode": "95607-076"
    },
    {
        "city": "Taquara",
        "state": "RS",
        "district": "Petrópolis",
        "street": "Rua Pinheiro Machado",
        "zipcode": "95607-148"
    },
    {
        "city": "Taquara",
        "state": "RS",
        "district": "Petrópolis",
        "street": "Rua Olavo de Carvalho Freitas",
        "zipcode": "95607-164"
    },
    {
        "city": "Taquara",
        "state": "RS",
        "district": "Petrópolis",
        "street": "Rua Picada Gravatá",
        "zipcode": "95607-192"
    },
    {
        "city": "Taquara",
        "state": "RS",
        "district": "Tucanos",
        "street": "Travessa Tristão Monteiro",
        "zipcode": "95607-250"
    },
    {
        "city": "Taquara",
        "state": "RS",
        "district": "Tucanos",
        "street": "Rua Vinte e Oito de Junho",
        "zipcode": "95607-512"
    },
    {
        "city": "Taquara",
        "state": "RS",
        "district": "Mundo Novo",
        "street": "Rua Rainelso Fernando Spindler",
        "zipcode": "95607-724"
    },
    {
        "city": "Taquara",
        "state": "RS",
        "district": "Mundo Novo",
        "street": "Rua Mundo Novo",
        "zipcode": "95607-774"
    },
    {
        "city": "Taquara",
        "state": "RS",
        "district": "Santa Rosa",
        "street": "Rua Santa Rosa",
        "zipcode": "95609-000"
    },
    {
        "city": "Taquara",
        "state": "RS",
        "district": "Santa Rosa",
        "street": "Rua Selivio Herrmann",
        "zipcode": "95609-112"
    },
    {
        "city": "Taquara",
        "state": "RS",
        "district": "Santa Rosa",
        "street": "Rua Otalibio Antônio da Silva",
        "zipcode": "95609-016"
    },
    {
        "city": "Taquara",
        "state": "RS",
        "district": "Santa Maria",
        "street": "Rua Igrejinha",
        "zipcode": "95612-732"
    },
    {
        "city": "Taquara",
        "state": "RS",
        "district": "Eldorado",
        "street": "Rua Pedro Adriano de Oliveira",
        "zipcode": "95613-116"
    },
    {
        "city": "Taquara",
        "state": "RS",
        "district": "Ideal",
        "street": "Rua Sarandi",
        "zipcode": "95603-700"
    },
    {
        "city": "Taquara",
        "state": "RS",
        "district": "Empresa",
        "street": "Rua Waldomiro de Mello",
        "zipcode": "95603-622"
    },
    {
        "city": "Taquara",
        "state": "RS",
        "district": "Petrópolis",
        "street": "Rua Carlos Belinzoni",
        "zipcode": "95607-084"
    },
    {
        "city": "Taquara",
        "state": "RS",
        "district": "Tucanos",
        "street": "Rua Picada Gravatá",
        "zipcode": "95607-470"
    },
    {
        "city": "Taquara",
        "state": "RS",
        "district": "Santa Rosa",
        "street": "Rua Estevão Caetano Fontes",
        "zipcode": "95609-076"
    },
    {
        "city": "Taquara",
        "state": "RS",
        "district": "Sagrada Família",
        "street": "Rua Professora Liane Born Burgel",
        "zipcode": "95611-002"
    },
    {
        "city": "Taquara",
        "state": "RS",
        "district": "Sagrada Família",
        "street": "Rua Roberto Missel",
        "zipcode": "95611-062"
    },
    {
        "city": "Taquara",
        "state": "RS",
        "district": "Nossa Senhora de Fátima",
        "street": "Rua Ayrton Senna da Silva",
        "zipcode": "95612-006"
    },
    {
        "city": "Taquara",
        "state": "RS",
        "district": "Nossa Senhora de Fátima",
        "street": "Rua Venâncio Aires",
        "zipcode": "95612-012"
    },
    {
        "city": "Taquara",
        "state": "RS",
        "district": "Nossa Senhora de Fátima",
        "street": "Rua Wilibaldo Bernardo Samrsla",
        "zipcode": "95612-092"
    },
    {
        "city": "Taquara",
        "state": "RS",
        "district": "Nossa Senhora de Fátima",
        "street": "Rua Pedro José Müller",
        "zipcode": "95612-120"
    },
    {
        "city": "Taquara",
        "state": "RS",
        "district": "Santa Maria",
        "street": "Rua Rio Branco",
        "zipcode": "95612-550"
    },
    {
        "city": "Taquara",
        "state": "RS",
        "district": "Santa Maria",
        "street": "Rua Riozinho",
        "zipcode": "95612-724"
    },
    {
        "city": "Taquara",
        "state": "RS",
        "district": "Eldorado",
        "street": "Rua Sebastião Bristotti",
        "zipcode": "95613-030"
    },
    {
        "city": "Taquara",
        "state": "RS",
        "district": "Mundo Novo",
        "street": "Rua Francisco Holmer",
        "zipcode": "95607-778"
    },
    {
        "city": "Taquara",
        "state": "RS",
        "district": "Ideal",
        "street": "Rua Assis Brasil",
        "zipcode": "95604-000"
    },
    {
        "city": "Taquara",
        "state": "RS",
        "district": "Petrópolis",
        "street": "Rua Anita Garibaldi",
        "zipcode": "95607-176"
    },
    {
        "city": "Taquara",
        "state": "RS",
        "district": "Medianeira",
        "street": "Rua Germano Albino Rick",
        "zipcode": "95605-146"
    },
    {
        "city": "Taquara",
        "state": "RS",
        "district": "Eldorado",
        "street": "Rua Arthur José Wallauer",
        "zipcode": "95613-128"
    },
    {
        "city": "Taquara",
        "state": "RS",
        "district": "Medianeira",
        "street": "Rua Celeste Domingos Souza",
        "zipcode": "95605-262"
    },
    {
        "city": "Taquara",
        "state": "RS",
        "district": "Nossa Senhora de Fátima",
        "street": "Rua Leonardo Altmeyer",
        "zipcode": "95612-040"
    },
    {
        "city": "Taquara",
        "state": "RS",
        "district": "Petrópolis",
        "street": "Rua Coronel Diniz",
        "zipcode": "95607-000"
    },
    {
        "city": "Taquara",
        "state": "RS",
        "district": "Morro do Leôncio",
        "street": "Rua Manoel José de Medeiros Bedeco",
        "zipcode": "95600-230"
    },
    {
        "city": "Taquara",
        "state": "RS",
        "district": "Centro",
        "street": "Rua Bento Gonçalves",
        "zipcode": "95600-102"
    },
    {
        "city": "Taquara",
        "state": "RS",
        "district": "Morro do Leôncio",
        "street": "Rua Coronel Diniz",
        "zipcode": "95600-154"
    },
    {
        "city": "Taquara",
        "state": "RS",
        "district": "Picada Francesa",
        "street": "Avenida Oscar Martins Rangel",
        "zipcode": "95613-360"
    },
    {
        "city": "Taquara",
        "state": "RS",
        "district": "Fogão Gaúcho",
        "street": "Rua Doutor Edmundo Saft",
        "zipcode": "95612-370"
    },
    {
        "city": "Taquara",
        "state": "RS",
        "district": "Petrópolis",
        "street": "Rua Coronel Diniz",
        "zipcode": "95607-168"
    },
    {
        "city": "Taquara",
        "state": "RS",
        "district": "Eldorado",
        "street": "Rua Euclides Masera",
        "zipcode": "95613-050"
    },
    {
        "city": "Taquara",
        "state": "RS",
        "district": "Empresa",
        "street": "Rua Almiro Nunes Medeiros",
        "zipcode": "95603-318"
    },
    {
        "city": "Taquara",
        "state": "RS",
        "district": "Sagrada Família",
        "street": "Rua Doutor Adelino Eduardo Barth",
        "zipcode": "95611-004"
    },
    {
        "city": "Taquara",
        "state": "RS",
        "district": "Empresa",
        "street": "Rua Miraguaí",
        "zipcode": "95603-364"
    },
    {
        "city": "Taquara",
        "state": "RS",
        "district": "Eldorado",
        "street": "Rua Hugo Fischer",
        "zipcode": "95613-108"
    },
    {
        "city": "Taquara",
        "state": "RS",
        "district": null,
        "street": null,
        "zipcode": "95600-000"
    },
    {
        "city": "Taquara",
        "state": "RS",
        "district": "Nossa Senhora de Fátima",
        "street": "Avenida Oscar Martins Rangel",
        "zipcode": "95612-080"
    },
    {
        "city": "Taquara",
        "state": "RS",
        "district": "Fogão Gaúcho",
        "street": "Rua Adolfo Vicente Foscarini",
        "zipcode": "95612-322"
    },
    {
        "city": "Taquara",
        "state": "RS",
        "district": "Fogão Gaúcho",
        "street": "Rua Arlindo Smaniotto",
        "zipcode": "95612-324"
    },
    {
        "city": "Taquara",
        "state": "RS",
        "district": "Santa Maria",
        "street": "Avenida Fernando Ferrari",
        "zipcode": "95612-460"
    },
    {
        "city": "Taquara",
        "state": "RS",
        "district": "Eldorado",
        "street": "Rua Alex Sandro da Rosa",
        "zipcode": "95613-036"
    },
    {
        "city": "Taquara",
        "state": "RS",
        "district": "Eldorado",
        "street": "Rua Alcides Leal da Rosa",
        "zipcode": "95613-106"
    },
    {
        "city": "Taquara",
        "state": "RS",
        "district": "Eldorado",
        "street": "Rua Alfredo Emílio Ferrari",
        "zipcode": "95613-110"
    },
    {
        "city": "Taquara",
        "state": "RS",
        "district": "Santa Maria",
        "street": "Avenida Oscar Martins Rangel",
        "zipcode": "95612-450"
    },
    {
        "city": "Taquara",
        "state": "RS",
        "district": "Picada Francesa",
        "street": "Beco Osvaldo Fredolino Schnorr",
        "zipcode": "95613-190"
    },
    {
        "city": "Taquara",
        "state": "RS",
        "district": "Eldorado",
        "street": "Rua Airton da Rosa",
        "zipcode": "95613-032"
    },
    {
        "city": "Taquara",
        "state": "RS",
        "district": "Nossa Senhora de Fátima",
        "street": "Rua Carlos Kroeff",
        "zipcode": "95612-072"
    },
    {
        "city": "Taquara",
        "state": "RS",
        "district": "Fogão Gaúcho",
        "street": "Avenida Oscar Martins Rangel",
        "zipcode": "95612-150"
    },
    {
        "city": "Taquara",
        "state": "RS",
        "district": "Fogão Gaúcho",
        "street": "Rua Carolina Brodbeck",
        "zipcode": "95612-320"
    },
    {
        "city": "Taquara",
        "state": "RS",
        "district": "Santa Maria",
        "street": "Rua Dom Pedro II",
        "zipcode": "95612-716"
    },
    {
        "city": "Taquara",
        "state": "RS",
        "district": "Santa Maria",
        "street": "Rua Cincinato Cardoso",
        "zipcode": "95612-700"
    },
    {
        "city": "Taquara",
        "state": "RS",
        "district": "Santa Maria",
        "street": "Rua Adelmo Trott",
        "zipcode": "95612-748"
    },
    {
        "city": "Taquara",
        "state": "RS",
        "district": "Sagrada Família",
        "street": "Alameda das Acácias",
        "zipcode": "95611-024"
    },
    {
        "city": "Taquara",
        "state": "RS",
        "district": "Eldorado",
        "street": "Rua Dauto Inácio dos Santos",
        "zipcode": "95613-120"
    },
    {
        "city": "Taquara",
        "state": "RS",
        "district": "Eldorado",
        "street": "Rua Edvino Loth",
        "zipcode": "95613-118"
    },
    {
        "city": "Taquara",
        "state": "RS",
        "district": "KM 4",
        "street": "Rua Maria Irene Kroef Bangel",
        "zipcode": "95611-306"
    },
    {
        "city": "Taquara",
        "state": "RS",
        "district": "Eldorado",
        "street": "Rua Helio Pereira da Silva",
        "zipcode": "95613-130"
    },
    {
        "city": "Taquara",
        "state": "RS",
        "district": "Centro",
        "street": "Rua General Frota",
        "zipcode": "95600-024"
    },
    {
        "city": "Taquara",
        "state": "RS",
        "district": "Centro",
        "street": "Rua Guilherme Lahm",
        "zipcode": "95600-076"
    },
    {
        "city": "Taquara",
        "state": "RS",
        "district": "Centro",
        "street": "Rua Lothar de La Rue",
        "zipcode": "95600-088"
    },
    {
        "city": "Taquara",
        "state": "RS",
        "district": "Mundo Novo",
        "street": "Rua Adolfo Fernandes da Silva",
        "zipcode": "95607-704"
    },
    {
        "city": "Taquara",
        "state": "RS",
        "district": "Mundo Novo",
        "street": "Rua Alfredo Caloni",
        "zipcode": "95607-790"
    },
    {
        "city": "Taquara",
        "state": "RS",
        "district": "Santa Rosa",
        "street": "Rua Albano Möller",
        "zipcode": "95609-116"
    },
    {
        "city": "Taquara",
        "state": "RS",
        "district": "Santa Rosa",
        "street": "Rua Ademar Bühler",
        "zipcode": "95609-122"
    },
    {
        "city": "Taquara",
        "state": "RS",
        "district": "Sagrada Família",
        "street": "Rua Albano Emydio Eltz",
        "zipcode": "95611-020"
    },
    {
        "city": "Taquara",
        "state": "RS",
        "district": "Santa Rosa",
        "street": "Rua Amália Antônia Czermack",
        "zipcode": "95609-066"
    },
    {
        "city": "Taquara",
        "state": "RS",
        "district": "Pega Fogo (Distrito)",
        "street": "Estrada Pega Fogo",
        "zipcode": "95600-971"
    },
    {
        "city": "Taquara",
        "state": "RS",
        "district": "Cruzeiro do Sul",
        "street": "Rua André Rebechi",
        "zipcode": "95601-150"
    },
    {
        "city": "Taquara",
        "state": "RS",
        "district": "Jardim do Prado",
        "street": "Avenida Oscar Martins Rangel",
        "zipcode": "95600-562"
    },
    {
        "city": "Taquara",
        "state": "RS",
        "district": "Ronda",
        "street": "Avenida Fernando Ferrari",
        "zipcode": "95600-600"
    },
    {
        "city": "Taquara",
        "state": "RS",
        "district": "Ronda",
        "street": "Avenida Sebastião Amoretti",
        "zipcode": "95600-750"
    },
    {
        "city": "Taquara",
        "state": "RS",
        "district": "Eldorado",
        "street": "Rua Adalberto Pereira dos Santos",
        "zipcode": "95613-114"
    },
    {
        "city": "Taquara",
        "state": "RS",
        "district": "Ideal",
        "street": "Rua Accácio Belmiro Wagner",
        "zipcode": "95604-002"
    },
    {
        "city": "Taquara",
        "state": "RS",
        "district": "KM 4",
        "street": "Avenida Sebastião Amoretti",
        "zipcode": "95611-250"
    },
    {
        "city": "Taquara",
        "state": "RS",
        "district": "KM 4",
        "street": "Beco Osvaldo Fredolino Schnorr",
        "zipcode": "95611-510"
    },
    {
        "city": "Taquara",
        "state": "RS",
        "district": "Empresa",
        "street": "Rua Alziro Honório de Mattos",
        "zipcode": "95603-648"
    },
    {
        "city": "Taquara",
        "state": "RS",
        "district": "Cruzeiro do Sul",
        "street": "Rua Abilio Hugentobler",
        "zipcode": "95601-266"
    },
    {
        "city": "Taquara",
        "state": "RS",
        "district": "Cruzeiro do Sul",
        "street": "Avenida Sebastião Amoretti",
        "zipcode": "95601-440"
    },
    {
        "city": "Taquara",
        "state": "RS",
        "district": "Santa Terezinha",
        "street": "Avenida Albino Ebling",
        "zipcode": "95603-212"
    },
    {
        "city": "Taquara",
        "state": "RS",
        "district": "Empresa",
        "street": "Avenida Sebastião Amoretti",
        "zipcode": "95603-302"
    },
    {
        "city": "Taquara",
        "state": "RS",
        "district": "Sagrada Família",
        "street": "Alameda dos Pinheiros",
        "zipcode": "95611-026"
    },
    {
        "city": "Taquara",
        "state": "RS",
        "district": "Empresa",
        "street": "Rua Andreas Haiml",
        "zipcode": "95603-636"
    },
    {
        "city": "Taquara",
        "state": "RS",
        "district": "Nossa Senhora de Fátima",
        "street": "Rua Adolfo Faedrich",
        "zipcode": "95612-060"
    },
    {
        "city": "Taquara",
        "state": "RS",
        "district": "Recreio",
        "street": "Rua Carlos Sander",
        "zipcode": "95600-316"
    },
    {
        "city": "Taquara",
        "state": "RS",
        "district": "Recreio",
        "street": "Avenida Fernando Ferrari",
        "zipcode": "95600-300"
    },
    {
        "city": "Taquara",
        "state": "RS",
        "district": "Centro",
        "street": "Avenida Sebastião Amoretti",
        "zipcode": "95600-112"
    },
    {
        "city": "Taquara",
        "state": "RS",
        "district": "Morro do Leôncio",
        "street": "Avenida Sebastião Amoretti",
        "zipcode": "95600-150"
    },
    {
        "city": "Taquara",
        "state": "RS",
        "district": "Morro do Leôncio",
        "street": "Rua Anita Garibaldi",
        "zipcode": "95600-158"
    },
    {
        "city": "Taquara",
        "state": "RS",
        "district": "Morro do Leôncio",
        "street": "Rua Carlos Sander",
        "zipcode": "95600-228"
    },
    {
        "city": "Taquara",
        "state": "RS",
        "district": "Centro",
        "street": "Rua Coronel Evaristo",
        "zipcode": "95600-022"
    },
    {
        "city": "Taquara",
        "state": "RS",
        "district": "Centro",
        "street": "Rua Coronel João Pinto",
        "zipcode": "95600-078"
    },
    {
        "city": "Taquara",
        "state": "RS",
        "district": "Centro",
        "street": "Rua Arnaldo da Costa Bard",
        "zipcode": "95600-090"
    },
    {
        "city": "Taquara",
        "state": "RS",
        "district": "Centro",
        "street": "Rua Albino Lehnen",
        "zipcode": "95600-096"
    },
    {
        "city": "Taquara",
        "state": "RS",
        "district": "Centro",
        "street": "Rua Coronel João Pinto",
        "zipcode": "95600-028"
    },
    {
        "city": "Taquara",
        "state": "RS",
        "district": "Morro da Cruz",
        "street": "Rua Doutor Adelino Eduardo Barth",
        "zipcode": "95611-142"
    },
    {
        "city": "Taquara",
        "state": "RS",
        "district": "Tucanos",
        "street": "Rua Henrique Dias",
        "zipcode": "95607-482"
    },
    {
        "city": "Taquara",
        "state": "RS",
        "district": "Santa Maria",
        "street": "Rua Cassandra Fritscher",
        "zipcode": "95612-752"
    },
    {
        "city": "Taquara",
        "state": "RS",
        "district": "Ideal",
        "street": "Rua Almiro Alfredo Groess",
        "zipcode": "95604-028"
    },
    {
        "city": "Taquara",
        "state": "RS",
        "district": "Petrópolis",
        "street": "Avenida Sebastião Amoretti",
        "zipcode": "95607-004"
    },
    {
        "city": "Taquara",
        "state": "RS",
        "district": "Ideal",
        "street": "Rua Ana Emília Berg Godinho",
        "zipcode": "95604-014"
    },
    {
        "city": "Taquara",
        "state": "RS",
        "district": "KM 4",
        "street": "Rua dos Carteiros",
        "zipcode": "95611-318"
    },
    {
        "city": "Taquara",
        "state": "RS",
        "district": "Nossa Senhora de Fátima",
        "street": "Rua Dona Érica",
        "zipcode": "95612-014"
    },
    {
        "city": "Taquara",
        "state": "RS",
        "district": "Nossa Senhora de Fátima",
        "street": "Rua Emílio Kautzmann",
        "zipcode": "95612-016"
    },
    {
        "city": "Taquara",
        "state": "RS",
        "district": "Nossa Senhora de Fátima",
        "street": "Rua Ernesto Alves",
        "zipcode": "95612-022"
    },
    {
        "city": "Taquara",
        "state": "RS",
        "district": "Nossa Senhora de Fátima",
        "street": "Rua Doutor Edmundo Saft",
        "zipcode": "95612-024"
    },
    {
        "city": "Taquara",
        "state": "RS",
        "district": "Nossa Senhora de Fátima",
        "street": "Rua Ernesto Alves",
        "zipcode": "95612-000"
    },
    {
        "city": "Taquara",
        "state": "RS",
        "district": "KM 4",
        "street": "Rua dos Motoristas",
        "zipcode": "95611-310"
    },
    {
        "city": "Taquara",
        "state": "RS",
        "district": "KM 4",
        "street": "Rua dos Municipários",
        "zipcode": "95611-316"
    },
    {
        "city": "Taquara",
        "state": "RS",
        "district": "Petrópolis",
        "street": "Rua Alfredo Felipe Kraemer",
        "zipcode": "95607-132"
    },
    {
        "city": "Taquara",
        "state": "RS",
        "district": "Tucanos",
        "street": "Rua Idelfonso Pinto",
        "zipcode": "95607-474"
    },
    {
        "city": "Taquara",
        "state": "RS",
        "district": "Tucanos",
        "street": "Rua Eloy Teresinha Carniel Schein",
        "zipcode": "95607-518"
    },
    {
        "city": "Taquara",
        "state": "RS",
        "district": "Tucanos",
        "street": "Rua David Schein",
        "zipcode": "95607-576"
    },
    {
        "city": "Taquara",
        "state": "RS",
        "district": "Mundo Novo",
        "street": "Rua Honório Lemos",
        "zipcode": "95607-712"
    },
    {
        "city": "Taquara",
        "state": "RS",
        "district": "Mundo Novo",
        "street": "Rua Idelfonso Pinto",
        "zipcode": "95607-716"
    },
    {
        "city": "Taquara",
        "state": "RS",
        "district": "Mundo Novo",
        "street": "Rua Germano Paiva",
        "zipcode": "95607-764"
    },
    {
        "city": "Taquara",
        "state": "RS",
        "district": "Mundo Novo",
        "street": "Rua Flores da Cunha",
        "zipcode": "95607-766"
    },
    {
        "city": "Taquara",
        "state": "RS",
        "district": "Mundo Novo",
        "street": "Rua Helga Rosa Klein Marmitt",
        "zipcode": "95607-780"
    },
    {
        "city": "Taquara",
        "state": "RS",
        "district": "Santa Rosa",
        "street": "Rua dos Sapateiros",
        "zipcode": "95609-744"
    },
    {
        "city": "Taquara",
        "state": "RS",
        "district": "Sagrada Família",
        "street": "Rua Doutor Edmundo Saft",
        "zipcode": "95611-074"
    },
    {
        "city": "Taquara",
        "state": "RS",
        "district": "Morro da Cruz",
        "street": "Rua Doutor Edmundo Saft",
        "zipcode": "95611-100"
    },
    {
        "city": "Taquara",
        "state": "RS",
        "district": "Sagrada Família",
        "street": "Rua Doutor Edmundo Saft",
        "zipcode": "95611-072"
    },
    {
        "city": "Taquara",
        "state": "RS",
        "district": "Mundo Novo",
        "street": "Rua José Gonçalves Neves",
        "zipcode": "95607-700"
    },
    {
        "city": "Taquara",
        "state": "RS",
        "district": "Mundo Novo",
        "street": "Rua João Kuplick",
        "zipcode": "95607-770"
    },
    {
        "city": "Taquara",
        "state": "RS",
        "district": "Empresa",
        "street": "Rua Alziro Honório de Mattos",
        "zipcode": "95603-266"
    },
    {
        "city": "Taquara",
        "state": "RS",
        "district": "Ideal",
        "street": "Rua Análio Feijó Borges",
        "zipcode": "95604-006"
    },
    {
        "city": "Taquara",
        "state": "RS",
        "district": "KM 4",
        "street": "Rua dos Professores",
        "zipcode": "95611-314"
    },
    {
        "city": "Taquara",
        "state": "RS",
        "district": "Morro do Leôncio",
        "street": "Rua Balduino Ermel",
        "zipcode": "95600-194"
    },
    {
        "city": "Taquara",
        "state": "RS",
        "district": "Morro do Leôncio",
        "street": "Rua Antônio Benfica de Assis",
        "zipcode": "95600-222"
    },
    {
        "city": "Taquara",
        "state": "RS",
        "district": "Morro do Leôncio",
        "street": "Rua Coronel Evaristo",
        "zipcode": "95600-232"
    },
    {
        "city": "Taquara",
        "state": "RS",
        "district": "Recreio",
        "street": "Rua Carlos Sander",
        "zipcode": "95600-350"
    },
    {
        "city": "Taquara",
        "state": "RS",
        "district": "Mundo Novo",
        "street": "Rua Henrique Dias",
        "zipcode": "95607-702"
    },
    {
        "city": "Taquara",
        "state": "RS",
        "district": "Santa Rosa",
        "street": "Rua dos Metalúrgicos",
        "zipcode": "95609-752"
    },
    {
        "city": "Taquara",
        "state": "RS",
        "district": "Ideal",
        "street": "Rua General Vitorino",
        "zipcode": "95604-012"
    },
    {
        "city": "Taquara",
        "state": "RS",
        "district": "Empresa",
        "street": "Rua Miguel Frutuoso da Costa",
        "zipcode": "95603-428"
    },
    {
        "city": "Taquara",
        "state": "RS",
        "district": "Empresa",
        "street": "Rua João Adalberto Wichmmann",
        "zipcode": "95603-438"
    },
    {
        "city": "Taquara",
        "state": "RS",
        "district": "Empresa",
        "street": "Rua da Empresa",
        "zipcode": "95603-484"
    },
    {
        "city": "Taquara",
        "state": "RS",
        "district": "Empresa",
        "street": "Rua dos Maricás",
        "zipcode": "95603-314"
    },
    {
        "city": "Taquara",
        "state": "RS",
        "district": "Empresa",
        "street": "Rua Equador",
        "zipcode": "95603-328"
    },
    {
        "city": "Taquara",
        "state": "RS",
        "district": "Empresa",
        "street": "Rua Imbé",
        "zipcode": "95603-312"
    },
    {
        "city": "Taquara",
        "state": "RS",
        "district": "Jardim do Prado",
        "street": "Rua Francisco Emílio Muller",
        "zipcode": "95600-458"
    },
    {
        "city": "Taquara",
        "state": "RS",
        "district": "Jardim do Prado",
        "street": "Rua Guilherme Lahm",
        "zipcode": "95600-478"
    },
    {
        "city": "Taquara",
        "state": "RS",
        "district": "Jardim do Prado",
        "street": "Avenida Fernando Ferrari",
        "zipcode": "95600-570"
    },
    {
        "city": "Taquara",
        "state": "RS",
        "district": "Medianeira",
        "street": "Rua Flores da Cunha",
        "zipcode": "95605-138"
    },
    {
        "city": "Taquara",
        "state": "RS",
        "district": "Medianeira",
        "street": "Rua Carlos Von Koseritz",
        "zipcode": "95605-040"
    },
    {
        "city": "Taquara",
        "state": "RS",
        "district": "Medianeira",
        "street": "Rua Casemiro de Abreu",
        "zipcode": "95605-042"
    },
    {
        "city": "Taquara",
        "state": "RS",
        "district": "Medianeira",
        "street": "Rua Carlos Huf Filho",
        "zipcode": "95605-260"
    },
    {
        "city": "Taquara",
        "state": "RS",
        "district": "Empresa",
        "street": "Rua da Aeronáutica",
        "zipcode": "95603-488"
    },
    {
        "city": "Taquara",
        "state": "RS",
        "district": "Empresa",
        "street": "Rua Germano Riegel",
        "zipcode": "95603-492"
    },
    {
        "city": "Taquara",
        "state": "RS",
        "district": "Empresa",
        "street": "Rua Iraí",
        "zipcode": "95603-616"
    },
    {
        "city": "Taquara",
        "state": "RS",
        "district": "Empresa",
        "street": "Rua Frederico Westphalen",
        "zipcode": "95603-642"
    },
    {
        "city": "Taquara",
        "state": "RS",
        "district": "Ideal",
        "street": "Rua Hugo Arnhold",
        "zipcode": "95604-004"
    },
    {
        "city": "Taquara",
        "state": "RS",
        "district": "Ideal",
        "street": "Rua Francisco Alves",
        "zipcode": "95604-024"
    },
    {
        "city": "Taquara",
        "state": "RS",
        "district": "Petrópolis",
        "street": "Rua João Arthur Scheffel",
        "zipcode": "95607-012"
    },
    {
        "city": "Taquara",
        "state": "RS",
        "district": "Petrópolis",
        "street": "Rua Guilherme Lahm",
        "zipcode": "95607-052"
    },
    {
        "city": "Taquara",
        "state": "RS",
        "district": "Petrópolis",
        "street": "Rua Guilherme Lahm",
        "zipcode": "95607-056"
    },
    {
        "city": "Taquara",
        "state": "RS",
        "district": "Petrópolis",
        "street": "Rua Henrique Vidal Kohlrausch",
        "zipcode": "95607-060"
    },
    {
        "city": "Taquara",
        "state": "RS",
        "district": "Ideal",
        "street": "Rua Getúlio Vargas",
        "zipcode": "95604-026"
    },
    {
        "city": "Taquara",
        "state": "RS",
        "district": "Petrópolis",
        "street": "Rua Guilherme Lahm",
        "zipcode": "95607-108"
    },
    {
        "city": "Taquara",
        "state": "RS",
        "district": "Petrópolis",
        "street": "Rua Glaucus Saraiva",
        "zipcode": "95607-188"
    },
    {
        "city": "Taquara",
        "state": "RS",
        "district": "Santa Rosa",
        "street": "Rua Irma Bangel Huff",
        "zipcode": "95609-068"
    },
    {
        "city": "Taquara",
        "state": "RS",
        "district": "Santa Rosa",
        "street": "Rua Isolina Maria da Rosa",
        "zipcode": "95609-072"
    },
    {
        "city": "Taquara",
        "state": "RS",
        "district": "Santa Rosa",
        "street": "Rua Felipe Albino Schirmer",
        "zipcode": "95609-128"
    },
    {
        "city": "Taquara",
        "state": "RS",
        "district": "Santa Rosa",
        "street": "Rua General Osório",
        "zipcode": "95609-134"
    },
    {
        "city": "Taquara",
        "state": "RS",
        "district": "Santa Rosa",
        "street": "Rua dos Bancários",
        "zipcode": "95609-748"
    },
    {
        "city": "Taquara",
        "state": "RS",
        "district": "Santa Rosa",
        "street": "Rua João Luiz Nicolini",
        "zipcode": "95609-760"
    },
    {
        "city": "Taquara",
        "state": "RS",
        "district": "Mundo Novo",
        "street": "Rua Ernesto Bergold",
        "zipcode": "95607-760"
    },
    {
        "city": "Taquara",
        "state": "RS",
        "district": "Empresa",
        "street": "Rua Nelcio José Fagundes",
        "zipcode": "95603-522"
    },
    {
        "city": "Taquara",
        "state": "RS",
        "district": "Empresa",
        "street": "Rua Lima",
        "zipcode": "95603-536"
    },
    {
        "city": "Taquara",
        "state": "RS",
        "district": "Empresa",
        "street": "Rua Mascarenhas de Moraes",
        "zipcode": "95603-632"
    },
    {
        "city": "Taquara",
        "state": "RS",
        "district": "Empresa",
        "street": "Rua Seberi",
        "zipcode": "95603-646"
    },
    {
        "city": "Taquara",
        "state": "RS",
        "district": "Cruzeiro do Sul",
        "street": "Rua Gabe",
        "zipcode": "95601-338"
    },
    {
        "city": "Taquara",
        "state": "RS",
        "district": "Cruzeiro do Sul",
        "street": "Rua Cristino Souza",
        "zipcode": "95601-346"
    },
    {
        "city": "Taquara",
        "state": "RS",
        "district": "Cruzeiro do Sul",
        "street": "Rua Lothar Reinehr",
        "zipcode": "95601-350"
    },
    {
        "city": "Taquara",
        "state": "RS",
        "district": "Cruzeiro do Sul",
        "street": "Rua Ernesto Robinson",
        "zipcode": "95601-354"
    },
    {
        "city": "Taquara",
        "state": "RS",
        "district": "Cruzeiro do Sul",
        "street": "Rua Emílio Badermann",
        "zipcode": "95601-370"
    },
    {
        "city": "Taquara",
        "state": "RS",
        "district": "Santa Terezinha",
        "street": "Rua Adolfo Knauth",
        "zipcode": "95603-064"
    },
    {
        "city": "Taquara",
        "state": "RS",
        "district": "Santa Terezinha",
        "street": "Rua Adriano Martins Philereno",
        "zipcode": "95603-096"
    },
    {
        "city": "Taquara",
        "state": "RS",
        "district": "Santa Terezinha",
        "street": "Rua Amapá",
        "zipcode": "95603-108"
    },
    {
        "city": "Taquara",
        "state": "RS",
        "district": "Santa Terezinha",
        "street": "Rua Janira da Silva Rangel",
        "zipcode": "95603-180"
    },
    {
        "city": "Taquara",
        "state": "RS",
        "district": "Empresa",
        "street": "Rua México",
        "zipcode": "95603-322"
    },
    {
        "city": "Taquara",
        "state": "RS",
        "district": "Empresa",
        "street": "Rua João Antônio da Silva",
        "zipcode": "95603-624"
    },
    {
        "city": "Taquara",
        "state": "RS",
        "district": "Medianeira",
        "street": "Rua Guaranis",
        "zipcode": "95605-272"
    },
    {
        "city": "Taquara",
        "state": "RS",
        "district": "Medianeira",
        "street": "Rua Ivo Raymundo",
        "zipcode": "95605-250"
    },
    {
        "city": "Taquara",
        "state": "RS",
        "district": "Petrópolis",
        "street": "Rua Germano Ehrensperger Filho",
        "zipcode": "95607-140"
    },
    {
        "city": "Taquara",
        "state": "RS",
        "district": "Medianeira",
        "street": "Rua Balduino Anildo Dreger",
        "zipcode": "95605-276"
    },
    {
        "city": "Taquara",
        "state": "RS",
        "district": "Empresa",
        "street": "Rua Flavio da Silva Mariano",
        "zipcode": "95603-424"
    },
    {
        "city": "Taquara",
        "state": "RS",
        "district": "Santa Terezinha",
        "street": "Rua David Canabarro",
        "zipcode": "95603-156"
    },
    {
        "city": "Taquara",
        "state": "RS",
        "district": "Cruzeiro do Sul",
        "street": "Rua Guarací",
        "zipcode": "95601-318"
    },
    {
        "city": "Taquara",
        "state": "RS",
        "district": "Recreio",
        "street": "Rua Federação",
        "zipcode": "95600-366"
    },
    {
        "city": "Taquara",
        "state": "RS",
        "district": "Morro do Leôncio",
        "street": "Rua Federação",
        "zipcode": "95600-234"
    },
    {
        "city": "Taquara",
        "state": "RS",
        "district": "Centro",
        "street": "Rua Dezessete de Junho",
        "zipcode": "95600-116"
    },
    {
        "city": "Taquara",
        "state": "RS",
        "district": "Centro",
        "street": "Rua Coronel Flores",
        "zipcode": "95600-120"
    },
    {
        "city": "Taquara",
        "state": "RS",
        "district": "Morro do Leôncio",
        "street": "Rua Dezessete de Junho",
        "zipcode": "95600-152"
    },
    {
        "city": "Taquara",
        "state": "RS",
        "district": "Morro do Leôncio",
        "street": "Rua Darcy Uflacker Brack",
        "zipcode": "95600-226"
    },
    {
        "city": "Taquara",
        "state": "RS",
        "district": "Centro",
        "street": "Rua Federação",
        "zipcode": "95600-018"
    },
    {
        "city": "Taquara",
        "state": "RS",
        "district": "Centro",
        "street": "Rua Federação",
        "zipcode": "95600-020"
    },
    {
        "city": "Taquara",
        "state": "RS",
        "district": "Centro",
        "street": "Rua Ernesto Alves",
        "zipcode": "95600-034"
    },
    {
        "city": "Taquara",
        "state": "RS",
        "district": "Centro",
        "street": "Rua Federação",
        "zipcode": "95600-070"
    },
    {
        "city": "Taquara",
        "state": "RS",
        "district": "Centro",
        "street": "Rua General Emílio Lúcio Esteves",
        "zipcode": "95600-084"
    },
    {
        "city": "Taquara",
        "state": "RS",
        "district": "Centro",
        "street": "Rua Doutor Adelino Eduardo Barth",
        "zipcode": "95600-086"
    },
    {
        "city": "Taquara",
        "state": "RS",
        "district": "Morro do Leôncio",
        "street": "Avenida Fernando Ferrari",
        "zipcode": "95600-270"
    },
    {
        "city": "Taquara",
        "state": "RS",
        "district": "Recreio",
        "street": "Rua Ernesto Alves",
        "zipcode": "95600-354"
    },
    {
        "city": "Taquara",
        "state": "RS",
        "district": "Centro",
        "street": "Rua Federação",
        "zipcode": "95600-068"
    },
    {
        "city": "Taquara",
        "state": "RS",
        "district": "Eldorado",
        "street": "Avenida Oscar Martins Rangel",
        "zipcode": "95613-000"
    },
    {
        "city": "Taquara",
        "state": "RS",
        "district": "Petrópolis",
        "street": "Rua Alcides Levino Bauer",
        "zipcode": "95607-136"
    },
    {
        "city": "Taquara",
        "state": "RS",
        "district": "Sagrada Família",
        "street": "Avenida Sebastião Amoretti",
        "zipcode": "95611-000"
    },
    {
        "city": "Taquara",
        "state": "RS",
        "district": "KM 4",
        "street": "Rua Doutor Edmundo Saft",
        "zipcode": "95611-560"
    },
    {
        "city": "Taquara",
        "state": "RS",
        "district": "Fogão Gaúcho",
        "street": "Avenida FACCAT",
        "zipcode": "95612-190"
    },
    {
        "city": "Taquara",
        "state": "RS",
        "district": "Santa Maria",
        "street": "Rua Francisco Freitas",
        "zipcode": "95612-744"
    },
    {
        "city": "Taquara",
        "state": "RS",
        "district": "Empresa",
        "street": "Rua Alípio da Silva Rocha",
        "zipcode": "95603-324"
    },
    {
        "city": "Taquara",
        "state": "RS",
        "district": "Morro da Cruz",
        "street": "Rua Estácio de Sá",
        "zipcode": "95611-214"
    },
    {
        "city": "Taquara",
        "state": "RS",
        "district": "Morro da Cruz",
        "street": "Rua Doutor Edmundo Saft",
        "zipcode": "95611-230"
    },
    {
        "city": "Taquara",
        "state": "RS",
        "district": "Cruzeiro do Sul",
        "street": "Rua da Empresa",
        "zipcode": "95601-366"
    },
    {
        "city": "Taquara",
        "state": "RS",
        "district": "Santa Terezinha",
        "street": "Rua Espírito Santo",
        "zipcode": "95603-004"
    },
    {
        "city": "Taquara",
        "state": "RS",
        "district": "Santa Terezinha",
        "street": "Rua Bahia",
        "zipcode": "95603-048"
    },
    {
        "city": "Taquara",
        "state": "RS",
        "district": "Santa Terezinha",
        "street": "Rua Espírito Santo",
        "zipcode": "95603-056"
    },
    {
        "city": "Taquara",
        "state": "RS",
        "district": "Santa Terezinha",
        "street": "Rua Ceará",
        "zipcode": "95603-060"
    },
    {
        "city": "Taquara",
        "state": "RS",
        "district": "Santa Terezinha",
        "street": "Rua Eulália Fialho de Vargas",
        "zipcode": "95603-068"
    },
    {
        "city": "Taquara",
        "state": "RS",
        "district": "Santa Terezinha",
        "street": "Rua Felipe Ebling",
        "zipcode": "95603-072"
    },
    {
        "city": "Taquara",
        "state": "RS",
        "district": "Santa Terezinha",
        "street": "Rua Emílio Dreyer",
        "zipcode": "95603-076"
    },
    {
        "city": "Taquara",
        "state": "RS",
        "district": "Santa Terezinha",
        "street": "Rua Felipe Marx",
        "zipcode": "95603-128"
    },
    {
        "city": "Taquara",
        "state": "RS",
        "district": "Santa Terezinha",
        "street": "Rua Coronel Diniz",
        "zipcode": "95603-132"
    },
    {
        "city": "Taquara",
        "state": "RS",
        "district": "Santa Terezinha",
        "street": "Rua Farrapos",
        "zipcode": "95603-148"
    },
    {
        "city": "Taquara",
        "state": "RS",
        "district": "Santa Terezinha",
        "street": "Avenida Sebastião Amoretti",
        "zipcode": "95603-168"
    },
    {
        "city": "Taquara",
        "state": "RS",
        "district": "Cruzeiro do Sul",
        "street": "Rua Dezenove de Março",
        "zipcode": "95601-282"
    },
    {
        "city": "Taquara",
        "state": "RS",
        "district": "Cruzeiro do Sul",
        "street": "Rua Dassow",
        "zipcode": "95601-326"
    },
    {
        "city": "Taquara",
        "state": "RS",
        "district": "Mundo Novo",
        "street": "Rua Ejo Macedo",
        "zipcode": "95607-782"
    },
    {
        "city": "Taquara",
        "state": "RS",
        "district": "Ronda",
        "street": "Rua Federação",
        "zipcode": "95600-758"
    },
    {
        "city": "Taquara",
        "state": "RS",
        "district": "Cruzeiro do Sul",
        "street": "Rua Guilherme Kassner",
        "zipcode": "95601-334"
    },
    {
        "city": "Taquara",
        "state": "RS",
        "district": "Santa Terezinha",
        "street": "Rua Bahia",
        "zipcode": "95603-104"
    },
    {
        "city": "Taquara",
        "state": "RS",
        "district": "Santa Terezinha",
        "street": "Rua Alcenira Nunes",
        "zipcode": "95603-160"
    },
    {
        "city": "Taquara",
        "state": "RS",
        "district": "Empresa",
        "street": "Avenida Albino Ebling",
        "zipcode": "95603-250"
    },
    {
        "city": "Taquara",
        "state": "RS",
        "district": "Santa Terezinha",
        "street": "Rua Farrapos",
        "zipcode": "95603-164"
    },
    {
        "city": "Taquara",
        "state": "RS",
        "district": "Santa Rosa",
        "street": "Rua dos Comerciários",
        "zipcode": "95609-740"
    },
    {
        "city": "Taquara",
        "state": "RS",
        "district": "KM 4",
        "street": "Rua dos Agricultores",
        "zipcode": "95611-312"
    },
    {
        "city": "Taquara",
        "state": "RS",
        "district": "Jardim do Prado",
        "street": "Rua Marechal Floriano",
        "zipcode": "95600-550"
    },
    {
        "city": "Taquara",
        "state": "RS",
        "district": "Empresa",
        "street": "Rua La Paz",
        "zipcode": "95603-526"
    },
    {
        "city": "Taquara",
        "state": "RS",
        "district": "Medianeira",
        "street": "Rua Medianeira",
        "zipcode": "95605-270"
    },
    {
        "city": "Taquara",
        "state": "RS",
        "district": "Santa Terezinha",
        "street": "Rua Alagoas",
        "zipcode": "95603-032"
    },
    {
        "city": "Taquara",
        "state": "RS",
        "district": "Petrópolis",
        "street": "Rua Anita Garibaldi",
        "zipcode": "95607-016"
    },
    {
        "city": "Taquara",
        "state": "RS",
        "district": "Mundo Novo",
        "street": "Rua Alexandre Vargas",
        "zipcode": "95607-714"
    },
    {
        "city": "Taquara",
        "state": "RS",
        "district": "Empresa",
        "street": "Rua Dorothea Schaefke",
        "zipcode": "95603-638"
    },
    {
        "city": "Taquara",
        "state": "RS",
        "district": "Sagrada Família",
        "street": "Rua Felipe Werb Filho",
        "zipcode": "95611-016"
    },
    {
        "city": "Taquara",
        "state": "RS",
        "district": "Empresa",
        "street": "Rua Montevidéo",
        "zipcode": "95603-528"
    },
    {
        "city": "Taquara",
        "state": "RS",
        "district": "Empresa",
        "street": "Rua Ursulina Castro",
        "zipcode": "95603-304"
    },
    {
        "city": "Taquara",
        "state": "RS",
        "district": "Cruzeiro do Sul",
        "street": "Rua Quatro de Maio",
        "zipcode": "95601-286"
    },
    {
        "city": "Taquara",
        "state": "RS",
        "district": "Cruzeiro do Sul",
        "street": "Rua Treze de Maio",
        "zipcode": "95601-310"
    },
    {
        "city": "Taquara",
        "state": "RS",
        "district": "Tucanos",
        "street": "Rua Edgar Keller",
        "zipcode": "95607-520"
    },
    {
        "city": "Taquara",
        "state": "RS",
        "district": "Ronda",
        "street": "Rua Júlio de Castilhos",
        "zipcode": "95600-754"
    },
    {
        "city": "Taquara",
        "state": "RS",
        "district": "Cruzeiro do Sul",
        "street": "Rua Ignacinha Thomaz Rauber",
        "zipcode": "95601-074"
    },
    {
        "city": "Taquara",
        "state": "RS",
        "district": "Cruzeiro do Sul",
        "street": "Rua Simão João Thomaz",
        "zipcode": "95601-158"
    },
    {
        "city": "Taquara",
        "state": "RS",
        "district": "Morro da Cruz",
        "street": "Rua Adenir Bristotti da Silva",
        "zipcode": "95611-210"
    },
    {
        "city": "Taquara",
        "state": "RS",
        "district": "Centro",
        "street": "Rua Ivo Borges",
        "zipcode": "95600-094"
    },
    {
        "city": "Taquara",
        "state": "RS",
        "district": "Petrópolis",
        "street": "Rua Marechal Floriano",
        "zipcode": "95607-044"
    },
    {
        "city": "Taquara",
        "state": "RS",
        "district": "Petrópolis",
        "street": "Rua Fritz Anna",
        "zipcode": "95607-072"
    },
    {
        "city": "Taquara",
        "state": "RS",
        "district": "Medianeira",
        "street": "Rua Adelino Rodrigues",
        "zipcode": "95605-280"
    },
    {
        "city": "Taquara",
        "state": "RS",
        "district": "Empresa",
        "street": "Rua Oswaldo Cruz",
        "zipcode": "95603-434"
    },
    {
        "city": "Taquara",
        "state": "RS",
        "district": "Empresa",
        "street": "Rua Palmeira das Missões",
        "zipcode": "95603-654"
    },
    {
        "city": "Taquara",
        "state": "RS",
        "district": "Santa Terezinha",
        "street": "Rua Carlos Chagas",
        "zipcode": "95603-188"
    },
    {
        "city": "Taquara",
        "state": "RS",
        "district": "Santa Terezinha",
        "street": "Rua Goiás",
        "zipcode": "95603-084"
    },
    {
        "city": "Taquara",
        "state": "RS",
        "district": "Recreio",
        "street": "Rua Miguel Bauer",
        "zipcode": "95600-370"
    },
    {
        "city": "Taquara",
        "state": "RS",
        "district": "Jardim do Prado",
        "street": "Rua Henrique Bauermann",
        "zipcode": "95600-454"
    },
    {
        "city": "Taquara",
        "state": "RS",
        "district": "Cruzeiro do Sul",
        "street": "Rua Erothildes Gonzaga Rangel",
        "zipcode": "95601-082"
    },
    {
        "city": "Taquara",
        "state": "RS",
        "district": "Centro",
        "street": "Rua Bento Gonçalves",
        "zipcode": "95600-118"
    },
    {
        "city": "Taquara",
        "state": "RS",
        "district": "Centro",
        "street": "Rua Ernesto Alves",
        "zipcode": "95600-012"
    },
    {
        "city": "Taquara",
        "state": "RS",
        "district": "Centro",
        "street": "Rua Doutor Edmundo Saft",
        "zipcode": "95600-064"
    },
    {
        "city": "Taquara",
        "state": "RS",
        "district": "Eldorado",
        "street": "Rua Arthur José Wallauer",
        "zipcode": "95613-080"
    },
    {
        "city": "Taquara",
        "state": "RS",
        "district": "Mundo Novo",
        "street": "Rua Abilio Eltz",
        "zipcode": "95607-654"
    },
    {
        "city": "Taquara",
        "state": "RS",
        "district": "Morro da Cruz",
        "street": "Avenida Sebastião Amoretti",
        "zipcode": "95611-190"
    },
    {
        "city": "Taquara",
        "state": "RS",
        "district": "Nossa Senhora de Fátima",
        "street": "Rua Henrique Bauermann",
        "zipcode": "95612-010"
    },
    {
        "city": "Taquara",
        "state": "RS",
        "district": "Santa Rosa",
        "street": "Rua Albino Boes",
        "zipcode": "95609-438"
    },
    {
        "city": "Taquara",
        "state": "RS",
        "district": "Medianeira",
        "street": "Rua Germano Paiva",
        "zipcode": "95605-134"
    },
    {
        "city": "Taquara",
        "state": "RS",
        "district": "Mundo Novo",
        "street": "Rua Flores da Cunha",
        "zipcode": "95607-768"
    },
    {
        "city": "Taquara",
        "state": "RS",
        "district": "Sagrada Família",
        "street": "Rua Ernesto Alves",
        "zipcode": "95611-068"
    },
    {
        "city": "Taquara",
        "state": "RS",
        "district": "Morro da Cruz",
        "street": "Rua Padre Afonso Kist",
        "zipcode": "95611-134"
    },
    {
        "city": "Taquara",
        "state": "RS",
        "district": "Santa Rosa",
        "street": "Rua Osmar Alvício Stein",
        "zipcode": "95609-012"
    },
    {
        "city": "Taquara",
        "state": "RS",
        "district": "Petrópolis",
        "street": "Rua Pinheiro Machado",
        "zipcode": "95607-040"
    },
    {
        "city": "Taquara",
        "state": "RS",
        "district": "Petrópolis",
        "street": "Rua Tristão Monteiro",
        "zipcode": "95607-068"
    },
    {
        "city": "Taquara",
        "state": "RS",
        "district": "Empresa",
        "street": "Rua Juvêncio Francisco da Silva",
        "zipcode": "95603-258"
    },
    {
        "city": "Taquara",
        "state": "RS",
        "district": "Santa Terezinha",
        "street": "Rua Francisco de Assis Dias",
        "zipcode": "95603-208"
    },
    {
        "city": "Taquara",
        "state": "RS",
        "district": "Nossa Senhora de Fátima",
        "street": "Rua Carlos Kroeff",
        "zipcode": "95612-008"
    },
    {
        "city": "Taquara",
        "state": "RS",
        "district": "Empresa",
        "street": "Rua Selivio Haack",
        "zipcode": "95603-430"
    },
    {
        "city": "Taquara",
        "state": "RS",
        "district": "Sagrada Família",
        "street": "Rua Venâncio Aires",
        "zipcode": "95611-070"
    },
    {
        "city": "Taquara",
        "state": "RS",
        "district": "Nossa Senhora de Fátima",
        "street": "Rua Venâncio Aires",
        "zipcode": "95612-084"
    },
    {
        "city": "Taquara",
        "state": "RS",
        "district": "Santa Maria",
        "street": "Rua Francisco de Paula Godinho Neto",
        "zipcode": "95612-590"
    },
    {
        "city": "Taquara",
        "state": "RS",
        "district": "KM 4",
        "street": "Rua Professora Pascoalina Amoretti Faedrich",
        "zipcode": "95611-300"
    },
    {
        "city": "Taquara",
        "state": "RS",
        "district": "Jardim do Prado",
        "street": "Rua Cônego Pedro Bremm",
        "zipcode": "95600-404"
    },
    {
        "city": "Taquara",
        "state": "RS",
        "district": "Ideal",
        "street": "Rua Alziro Dillenburg",
        "zipcode": "95604-022"
    },
    {
        "city": "Taquara",
        "state": "RS",
        "district": "Santa Rosa",
        "street": "Rua dos Aposentados e Pensionistas",
        "zipcode": "95609-756"
    },
    {
        "city": "Taquara",
        "state": "RS",
        "district": "Santa Rosa",
        "street": "Rua Professora Pascoalina Amoretti Faedrich",
        "zipcode": "95609-188"
    },
    {
        "city": "Taquara",
        "state": "RS",
        "district": "Centro",
        "street": "Rua Cônego Pedro Bremm",
        "zipcode": "95600-016"
    }
]