[
    {
        "city": "Alagoinhas",
        "state": "BA",
        "district": "Alagoinhas Velha",
        "street": "Rua 5 de Novembro (Cj Jardim)",
        "zipcode": "48030-100"
    },
    {
        "city": "Alagoinhas",
        "state": "BA",
        "district": "Jardim Petrolar",
        "street": "Travessa Sao Benedito",
        "zipcode": "48005-550"
    },
    {
        "city": "Alagoinhas",
        "state": "BA",
        "district": "Santa Terezinha",
        "street": "Loteamento Santa Terezinha",
        "zipcode": "48011-000"
    },
    {
        "city": "Alagoinhas",
        "state": "BA",
        "district": "Jardim Petrolar",
        "street": "Rua Bahia",
        "zipcode": "48040-060"
    },
    {
        "city": "Alagoinhas",
        "state": "BA",
        "district": "Centro",
        "street": "Praça Graciliano Freitas",
        "zipcode": "48010-901"
    },
    {
        "city": "Alagoinhas",
        "state": "BA",
        "district": "Alagoinhas Velha",
        "street": "Rua E (Parque Verde)",
        "zipcode": "48030-573"
    },
    {
        "city": "Alagoinhas",
        "state": "BA",
        "district": "Jardim Petrolar",
        "street": "Travessa Treze De Junho",
        "zipcode": "48005-580"
    },
    {
        "city": "Alagoinhas",
        "state": "BA",
        "district": "Parque Vitória",
        "street": "Travessa Antônio Carlos Magalhães",
        "zipcode": "48070-010"
    },
    {
        "city": "Alagoinhas",
        "state": "BA",
        "district": "Alagoinhas Velha",
        "street": "Conjunto Inocoop II",
        "zipcode": "48030-310"
    },
    {
        "city": "Alagoinhas",
        "state": "BA",
        "district": "Centro",
        "street": "Praça do Parque Floresta",
        "zipcode": "48005-209"
    },
    {
        "city": "Alagoinhas",
        "state": "BA",
        "district": "Juracy Magalhaes",
        "street": "Rua Milton Ornelas",
        "zipcode": "48040-220"
    },
    {
        "city": "Alagoinhas",
        "state": "BA",
        "district": "Dois de Julho",
        "street": "Jardim São Francisco",
        "zipcode": "48051-330"
    },
    {
        "city": "Alagoinhas",
        "state": "BA",
        "district": "Alagoinhas Velha",
        "street": "Rua do Terminal Rodoviário",
        "zipcode": "48030-645"
    },
    {
        "city": "Alagoinhas",
        "state": "BA",
        "district": "Alagoinhas Velha",
        "street": "Rua Djalma Morais",
        "zipcode": "48030-090"
    },
    {
        "city": "Alagoinhas",
        "state": "BA",
        "district": "Juracy Magalhães",
        "street": "Loteamento Parque Alcântara",
        "zipcode": "48040-190"
    },
    {
        "city": "Alagoinhas",
        "state": "BA",
        "district": "Alagoinhas Velha",
        "street": "Travessa José Luiz Santos",
        "zipcode": "48030-460"
    },
    {
        "city": "Alagoinhas",
        "state": "BA",
        "district": "Centro",
        "street": "Rua Joaquim Nogueira",
        "zipcode": "48005-480"
    },
    {
        "city": "Alagoinhas",
        "state": "BA",
        "district": "Dois De Julho",
        "street": "Avenida Antonio Amorim",
        "zipcode": "48050-220"
    },
    {
        "city": "Alagoinhas",
        "state": "BA",
        "district": "Santa Terezinha",
        "street": "Rua Leovigildo Reis",
        "zipcode": "48011-240"
    },
    {
        "city": "Alagoinhas",
        "state": "BA",
        "district": "Silva Jardim",
        "street": "Rua Manoel Onofre",
        "zipcode": "48060-037"
    },
    {
        "city": "Alagoinhas",
        "state": "BA",
        "district": "Barreiro",
        "street": "Rua Pojuca",
        "zipcode": "48070-190"
    },
    {
        "city": "Alagoinhas",
        "state": "BA",
        "district": "Teresópolis",
        "street": "Rua Antônio Pinto Cardoso",
        "zipcode": "48080-230"
    },
    {
        "city": "Alagoinhas",
        "state": "BA",
        "district": "Barreiro",
        "street": "Rua Nazaré",
        "zipcode": "48070-330"
    },
    {
        "city": "Alagoinhas",
        "state": "BA",
        "district": "Mangalô",
        "street": "Rua São Luís",
        "zipcode": "48060-510"
    },
    {
        "city": "Alagoinhas",
        "state": "BA",
        "district": "Barreiro",
        "street": "Rua Esplanada",
        "zipcode": "48070-240"
    },
    {
        "city": "Alagoinhas",
        "state": "BA",
        "district": "Catu",
        "street": "Rua São Félix",
        "zipcode": "48090-040"
    },
    {
        "city": "Alagoinhas",
        "state": "BA",
        "district": "Centro",
        "street": "Rua Lauro de Freitas",
        "zipcode": "48005-015"
    },
    {
        "city": "Alagoinhas",
        "state": "BA",
        "district": "Kennedy",
        "street": "Parque Santa Bernadete",
        "zipcode": "48020-090"
    },
    {
        "city": "Alagoinhas",
        "state": "BA",
        "district": "Kennedy",
        "street": "Avenida Martuchelli",
        "zipcode": "48020-010"
    },
    {
        "city": "Alagoinhas",
        "state": "BA",
        "district": "Kennedy",
        "street": "Rua Chico Mendes",
        "zipcode": "48020-150"
    },
    {
        "city": "Alagoinhas",
        "state": "BA",
        "district": "Alagoinhas Velha",
        "street": "Parque Jardim América",
        "zipcode": "48030-120"
    },
    {
        "city": "Alagoinhas",
        "state": "BA",
        "district": "Alagoinhas Velha",
        "street": "Loteamento Parque Verde",
        "zipcode": "48030-570"
    },
    {
        "city": "Alagoinhas",
        "state": "BA",
        "district": "Dois de Julho",
        "street": "Travessa Ladislau Cavalcante",
        "zipcode": "48051-290"
    },
    {
        "city": "Alagoinhas",
        "state": "BA",
        "district": "Barreiro",
        "street": "Rua Irará",
        "zipcode": "48070-200"
    },
    {
        "city": "Alagoinhas",
        "state": "BA",
        "district": "Barreiro",
        "street": "Rua São Vicente",
        "zipcode": "48070-280"
    },
    {
        "city": "Alagoinhas",
        "state": "BA",
        "district": "Kennedy",
        "street": "Avenida Oscar Rabelo",
        "zipcode": "48020-610"
    },
    {
        "city": "Alagoinhas",
        "state": "BA",
        "district": "Centro",
        "street": "Avenida da Leste",
        "zipcode": "48010-170"
    },
    {
        "city": "Alagoinhas",
        "state": "BA",
        "district": "Catu",
        "street": "Rua Tiradentes",
        "zipcode": "48090-010"
    },
    {
        "city": "Alagoinhas",
        "state": "BA",
        "district": "Alagoinhas Velha",
        "street": "Rua Palha",
        "zipcode": "48030-490"
    },
    {
        "city": "Alagoinhas",
        "state": "BA",
        "district": "Alagoinhas Velha",
        "street": "Rua Manoel Romão",
        "zipcode": "48030-530"
    },
    {
        "city": "Alagoinhas",
        "state": "BA",
        "district": "Alagoinhas Velha",
        "street": "Travessa Rio Branco",
        "zipcode": "48030-465"
    },
    {
        "city": "Alagoinhas",
        "state": "BA",
        "district": "Santa Terezinha",
        "street": "Travessa Santa Terezinha",
        "zipcode": "48010-660"
    },
    {
        "city": "Alagoinhas",
        "state": "BA",
        "district": "Santa Terezinha",
        "street": "Rua São Benedito",
        "zipcode": "48010-630"
    },
    {
        "city": "Alagoinhas",
        "state": "BA",
        "district": "Santa Terezinha",
        "street": "Travessa São Benedito",
        "zipcode": "48010-620"
    },
    {
        "city": "Alagoinhas",
        "state": "BA",
        "district": "Santa Terezinha",
        "street": "Rua João Dantas",
        "zipcode": "48010-530"
    },
    {
        "city": "Alagoinhas",
        "state": "BA",
        "district": "Santa Terezinha",
        "street": "Rua Oriente",
        "zipcode": "48010-550"
    },
    {
        "city": "Alagoinhas",
        "state": "BA",
        "district": "Santa Terezinha",
        "street": "Rua São Crispim",
        "zipcode": "48010-590"
    },
    {
        "city": "Alagoinhas",
        "state": "BA",
        "district": "Santa Terezinha",
        "street": "Parque São Isidoro",
        "zipcode": "48010-600"
    },
    {
        "city": "Alagoinhas",
        "state": "BA",
        "district": "Santa Terezinha",
        "street": "Rua Otacílio Valverde",
        "zipcode": "48010-570"
    },
    {
        "city": "Alagoinhas",
        "state": "BA",
        "district": "Barreiro",
        "street": "Praça da Saudade",
        "zipcode": "48070-360"
    },
    {
        "city": "Alagoinhas",
        "state": "BA",
        "district": "Alagoinhas Velha",
        "street": "Praça Pedro Dórea",
        "zipcode": "48030-540"
    },
    {
        "city": "Alagoinhas",
        "state": "BA",
        "district": "Alagoinhas Velha",
        "street": "Travessa Tiago Correia",
        "zipcode": "48030-480"
    },
    {
        "city": "Alagoinhas",
        "state": "BA",
        "district": "Santa Terezinha",
        "street": "Rua Santa Clara",
        "zipcode": "48010-540"
    },
    {
        "city": "Alagoinhas",
        "state": "BA",
        "district": "Santa Terezinha",
        "street": "Rua Tupy Caldas",
        "zipcode": "48010-480"
    },
    {
        "city": "Alagoinhas",
        "state": "BA",
        "district": "Santa Terezinha",
        "street": "Rua Alto do Peru",
        "zipcode": "48010-450"
    },
    {
        "city": "Alagoinhas",
        "state": "BA",
        "district": "Santa Terezinha",
        "street": "Baixa São Lourenço",
        "zipcode": "48010-470"
    },
    {
        "city": "Alagoinhas",
        "state": "BA",
        "district": "Centro",
        "street": "Rua Marechal Bittencourt",
        "zipcode": "48010-410"
    },
    {
        "city": "Alagoinhas",
        "state": "BA",
        "district": "Santa Terezinha",
        "street": "Rua Marechal Floriano",
        "zipcode": "48010-420"
    },
    {
        "city": "Alagoinhas",
        "state": "BA",
        "district": "Santa Terezinha",
        "street": "Rua Joaquim Nabuco",
        "zipcode": "48010-430"
    },
    {
        "city": "Alagoinhas",
        "state": "BA",
        "district": "Centro",
        "street": "Praça Alcindo de Camargo",
        "zipcode": "48010-400"
    },
    {
        "city": "Alagoinhas",
        "state": "BA",
        "district": "Centro",
        "street": "Rua Francisco Batista",
        "zipcode": "48010-120"
    },
    {
        "city": "Alagoinhas",
        "state": "BA",
        "district": "Centro",
        "street": "Rua José Bonifácio",
        "zipcode": "48010-090"
    },
    {
        "city": "Alagoinhas",
        "state": "BA",
        "district": "Centro",
        "street": "Rua Coronel Anísio Cardoso",
        "zipcode": "48010-080"
    },
    {
        "city": "Alagoinhas",
        "state": "BA",
        "district": "Centro",
        "street": "Rua Dom Pedro II",
        "zipcode": "48010-050"
    },
    {
        "city": "Alagoinhas",
        "state": "BA",
        "district": "Centro",
        "street": "Rua João de Castro",
        "zipcode": "48010-060"
    },
    {
        "city": "Alagoinhas",
        "state": "BA",
        "district": "Centro",
        "street": "Rua Conselheiro Moura",
        "zipcode": "48010-030"
    },
    {
        "city": "Alagoinhas",
        "state": "BA",
        "district": "Centro",
        "street": "Parque Alagoinhas",
        "zipcode": "48005-470"
    },
    {
        "city": "Alagoinhas",
        "state": "BA",
        "district": "Centro",
        "street": "Rua Carlos Azevedo",
        "zipcode": "48005-410"
    },
    {
        "city": "Alagoinhas",
        "state": "BA",
        "district": "Centro",
        "street": "Rua Conselheiro Saraiva",
        "zipcode": "48010-020"
    },
    {
        "city": "Alagoinhas",
        "state": "BA",
        "district": "Centro",
        "street": "Rua Luís Viana",
        "zipcode": "48005-420"
    },
    {
        "city": "Alagoinhas",
        "state": "BA",
        "district": "Centro",
        "street": "Rua Manoel Vitorino",
        "zipcode": "48005-500"
    },
    {
        "city": "Alagoinhas",
        "state": "BA",
        "district": "Centro",
        "street": "Rua Quintino Bocaiúva",
        "zipcode": "48005-510"
    },
    {
        "city": "Alagoinhas",
        "state": "BA",
        "district": "Centro",
        "street": "Travessa Severino Vieira",
        "zipcode": "48005-400"
    },
    {
        "city": "Alagoinhas",
        "state": "BA",
        "district": "Centro",
        "street": "Avenida Severino Vieira",
        "zipcode": "48005-460"
    },
    {
        "city": "Alagoinhas",
        "state": "BA",
        "district": "Centro",
        "street": "Rua Conselheiro Franco",
        "zipcode": "48010-010"
    },
    {
        "city": "Alagoinhas",
        "state": "BA",
        "district": "Centro",
        "street": "Rua Lúcio Bento Cardoso",
        "zipcode": "48005-040"
    },
    {
        "city": "Alagoinhas",
        "state": "BA",
        "district": "Centro",
        "street": "Beco Rio Aramari",
        "zipcode": "48005-350"
    },
    {
        "city": "Alagoinhas",
        "state": "BA",
        "district": "Centro",
        "street": "Rua Sete de Setembro",
        "zipcode": "48005-060"
    },
    {
        "city": "Alagoinhas",
        "state": "BA",
        "district": "Centro",
        "street": "Travessa Vinte e Um de Abril",
        "zipcode": "48005-090"
    },
    {
        "city": "Alagoinhas",
        "state": "BA",
        "district": "Centro",
        "street": "Rua Carlos Gomes",
        "zipcode": "48005-010"
    },
    {
        "city": "Alagoinhas",
        "state": "BA",
        "district": "Centro",
        "street": "Rua Dom Pedro I",
        "zipcode": "48005-025"
    },
    {
        "city": "Alagoinhas",
        "state": "BA",
        "district": "Centro",
        "street": "Rua Brasilino Viegas",
        "zipcode": "48005-050"
    },
    {
        "city": "Alagoinhas",
        "state": "BA",
        "district": "Centro",
        "street": "Loteamento Parque Floresta",
        "zipcode": "48005-200"
    },
    {
        "city": "Alagoinhas",
        "state": "BA",
        "district": "Alagoinhas Velha",
        "street": "Conjunto Inocoop IV",
        "zipcode": "48030-575"
    },
    {
        "city": "Alagoinhas",
        "state": "BA",
        "district": "Dois de Julho",
        "street": "Parque Diesel",
        "zipcode": "48051-310"
    },
    {
        "city": "Alagoinhas",
        "state": "BA",
        "district": "Parque Vitória",
        "street": "Rua Antônio Balbino",
        "zipcode": "48070-070"
    },
    {
        "city": "Alagoinhas",
        "state": "BA",
        "district": "Centro",
        "street": "Parque José Dórea",
        "zipcode": "48005-100"
    },
    {
        "city": "Alagoinhas",
        "state": "BA",
        "district": "Parque Vitória",
        "street": "Rua Lomanto Júnior",
        "zipcode": "48070-050"
    },
    {
        "city": "Alagoinhas",
        "state": "BA",
        "district": "Centro",
        "street": "Praça José Joaquim Seabra",
        "zipcode": "48010-140"
    },
    {
        "city": "Alagoinhas",
        "state": "BA",
        "district": "Kennedy",
        "street": "Avenida Lafaiete",
        "zipcode": "48020-600"
    },
    {
        "city": "Alagoinhas",
        "state": "BA",
        "district": "Centro",
        "street": "Rua Marechal Deodoro",
        "zipcode": "48005-020"
    },
    {
        "city": "Alagoinhas",
        "state": "BA",
        "district": "Alagoinhas Velha",
        "street": "Travessa Santo Antônio",
        "zipcode": "48030-590"
    },
    {
        "city": "Alagoinhas",
        "state": "BA",
        "district": "Alagoinhas Velha",
        "street": "Rua São Roque",
        "zipcode": "48030-280"
    },
    {
        "city": "Alagoinhas",
        "state": "BA",
        "district": "Alagoinhas Velha",
        "street": "Rua Nova Aparecida",
        "zipcode": "48030-270"
    },
    {
        "city": "Alagoinhas",
        "state": "BA",
        "district": "Alagoinhas Velha",
        "street": "Rua Olindina",
        "zipcode": "48030-240"
    },
    {
        "city": "Alagoinhas",
        "state": "BA",
        "district": "Alagoinhas Velha",
        "street": "Rua Henrique Dias",
        "zipcode": "48030-220"
    },
    {
        "city": "Alagoinhas",
        "state": "BA",
        "district": "Alagoinhas Velha",
        "street": "Avenida Rio Branco",
        "zipcode": "48030-050"
    },
    {
        "city": "Alagoinhas",
        "state": "BA",
        "district": "Kennedy",
        "street": "Rua Areia Branca",
        "zipcode": "48020-660"
    },
    {
        "city": "Alagoinhas",
        "state": "BA",
        "district": "Kennedy",
        "street": "Rua Vinte e Cinco de Março",
        "zipcode": "48020-670"
    },
    {
        "city": "Alagoinhas",
        "state": "BA",
        "district": "Kennedy",
        "street": "Rua Paulo Afonso",
        "zipcode": "48020-650"
    },
    {
        "city": "Alagoinhas",
        "state": "BA",
        "district": "Kennedy",
        "street": "Rua Conselheiro Dantas",
        "zipcode": "48020-630"
    },
    {
        "city": "Alagoinhas",
        "state": "BA",
        "district": "Kennedy",
        "street": "Rua Geraldo Leal",
        "zipcode": "48020-590"
    },
    {
        "city": "Alagoinhas",
        "state": "BA",
        "district": "Kennedy",
        "street": "Rua José Joaquim Leal",
        "zipcode": "48020-510"
    },
    {
        "city": "Alagoinhas",
        "state": "BA",
        "district": "Kennedy",
        "street": "Travessa José Joaquim Leal",
        "zipcode": "48020-520"
    },
    {
        "city": "Alagoinhas",
        "state": "BA",
        "district": "Kennedy",
        "street": "Rua Quintino Leite",
        "zipcode": "48020-560"
    },
    {
        "city": "Alagoinhas",
        "state": "BA",
        "district": "Kennedy",
        "street": "Rua Simões Filho",
        "zipcode": "48020-540"
    },
    {
        "city": "Alagoinhas",
        "state": "BA",
        "district": "Kennedy",
        "street": "Rua Wilson W. Mota",
        "zipcode": "48020-490"
    },
    {
        "city": "Alagoinhas",
        "state": "BA",
        "district": "Kennedy",
        "street": "Rua Céu",
        "zipcode": "48020-140"
    },
    {
        "city": "Alagoinhas",
        "state": "BA",
        "district": "Kennedy",
        "street": "Rua Getúlio Vargas",
        "zipcode": "48020-170"
    },
    {
        "city": "Alagoinhas",
        "state": "BA",
        "district": "Kennedy",
        "street": "Travessa Paulo Afonso",
        "zipcode": "48020-200"
    },
    {
        "city": "Alagoinhas",
        "state": "BA",
        "district": "Centro",
        "street": "Parque José Dórea",
        "zipcode": "48005-904"
    },
    {
        "city": "Alagoinhas",
        "state": "BA",
        "district": "Kennedy",
        "street": "Travessa São José",
        "zipcode": "48020-220"
    },
    {
        "city": "Alagoinhas",
        "state": "BA",
        "district": "Kennedy",
        "street": "Rua Santa Brígida",
        "zipcode": "48020-100"
    },
    {
        "city": "Alagoinhas",
        "state": "BA",
        "district": "Kennedy",
        "street": "Rua São José",
        "zipcode": "48020-120"
    },
    {
        "city": "Alagoinhas",
        "state": "BA",
        "district": "Kennedy",
        "street": "Rua São Miguel",
        "zipcode": "48020-110"
    },
    {
        "city": "Alagoinhas",
        "state": "BA",
        "district": "Centro",
        "street": "Rua Mario César Almeida Pedreira",
        "zipcode": "48005-098"
    },
    {
        "city": "Alagoinhas",
        "state": "BA",
        "district": "Kennedy",
        "street": "Rua Alecrim",
        "zipcode": "48020-060"
    },
    {
        "city": "Alagoinhas",
        "state": "BA",
        "district": "Centro",
        "street": "Praça da Bandeira",
        "zipcode": "48005-170"
    },
    {
        "city": "Alagoinhas",
        "state": "BA",
        "district": "Centro",
        "street": "Praça Castro Leal",
        "zipcode": "48005-180"
    },
    {
        "city": "Alagoinhas",
        "state": "BA",
        "district": "Centro",
        "street": "Rua Conselheiro Couto",
        "zipcode": "48005-130"
    },
    {
        "city": "Alagoinhas",
        "state": "BA",
        "district": "Centro",
        "street": "Travessa Elvira Dórea",
        "zipcode": "48005-160"
    },
    {
        "city": "Alagoinhas",
        "state": "BA",
        "district": "Centro",
        "street": "Travessa José Dórea",
        "zipcode": "48005-120"
    },
    {
        "city": "Alagoinhas",
        "state": "BA",
        "district": "Centro",
        "street": "Rua José Olímpio",
        "zipcode": "48005-110"
    },
    {
        "city": "Alagoinhas",
        "state": "BA",
        "district": "Kennedy",
        "street": "Avenida Sacramento",
        "zipcode": "48020-080"
    },
    {
        "city": "Alagoinhas",
        "state": "BA",
        "district": "Kennedy",
        "street": "Rua Santa Helena",
        "zipcode": "48020-020"
    },
    {
        "city": "Alagoinhas",
        "state": "BA",
        "district": "Barreiro",
        "street": "Rua São Gabriel",
        "zipcode": "48071-260"
    },
    {
        "city": "Alagoinhas",
        "state": "BA",
        "district": "Kennedy",
        "street": "Avenida São João",
        "zipcode": "48020-050"
    },
    {
        "city": "Alagoinhas",
        "state": "BA",
        "district": "Santa Terezinha",
        "street": "Rua São Jorge",
        "zipcode": "48011-300"
    },
    {
        "city": "Alagoinhas",
        "state": "BA",
        "district": "Santa Terezinha",
        "street": "Rua São Lázaro",
        "zipcode": "48011-310"
    },
    {
        "city": "Alagoinhas",
        "state": "BA",
        "district": "Barreiro",
        "street": "Rua Vinte e Um de Setembro",
        "zipcode": "48071-000"
    },
    {
        "city": "Alagoinhas",
        "state": "BA",
        "district": "Centro",
        "street": "Praça Rui Barbosa",
        "zipcode": "48010-130"
    },
    {
        "city": "Alagoinhas",
        "state": "BA",
        "district": "Dois de Julho",
        "street": "Avenida Antônio Amorim",
        "zipcode": "48051-220"
    },
    {
        "city": "Alagoinhas",
        "state": "BA",
        "district": "Barreiro",
        "street": "Rua Camaçari",
        "zipcode": "48070-150"
    },
    {
        "city": "Alagoinhas",
        "state": "BA",
        "district": "Dois de Julho",
        "street": "Vila Conceição",
        "zipcode": "48051-240"
    },
    {
        "city": "Alagoinhas",
        "state": "BA",
        "district": "Silva Jardim",
        "street": "Parque São Cristóvão",
        "zipcode": "48060-100"
    },
    {
        "city": "Alagoinhas",
        "state": "BA",
        "district": "Dois de Julho",
        "street": "Travessa São Francisco",
        "zipcode": "48051-200"
    },
    {
        "city": "Alagoinhas",
        "state": "BA",
        "district": "Mangalô",
        "street": "Rua Thompson Flores",
        "zipcode": "48060-130"
    },
    {
        "city": "Alagoinhas",
        "state": "BA",
        "district": "Santa Isabel",
        "street": "Rua Alto Santo Antônio",
        "zipcode": "48050-160"
    },
    {
        "city": "Alagoinhas",
        "state": "BA",
        "district": "Dois de Julho",
        "street": "Travessa João Amorim",
        "zipcode": "48051-180"
    },
    {
        "city": "Alagoinhas",
        "state": "BA",
        "district": "Santa Isabel",
        "street": "Rua Maestro Laranjeiras",
        "zipcode": "48050-170"
    },
    {
        "city": "Alagoinhas",
        "state": "BA",
        "district": "Santa Isabel",
        "street": "Rua Rogaciano Guedes Vasconcelos",
        "zipcode": "48050-150"
    },
    {
        "city": "Alagoinhas",
        "state": "BA",
        "district": "Santa Isabel",
        "street": "Rua Santa Luzia",
        "zipcode": "48050-140"
    },
    {
        "city": "Alagoinhas",
        "state": "BA",
        "district": "Dois de Julho",
        "street": "Travessa Dois de Julho",
        "zipcode": "48051-190"
    },
    {
        "city": "Alagoinhas",
        "state": "BA",
        "district": "Santa Isabel",
        "street": "Travessa Alto do Corte",
        "zipcode": "48050-050"
    },
    {
        "city": "Alagoinhas",
        "state": "BA",
        "district": "Alagoinhas Velha",
        "street": "Rua José Luiz Santos",
        "zipcode": "48030-450"
    },
    {
        "city": "Alagoinhas",
        "state": "BA",
        "district": "Santa Terezinha",
        "street": "Loteamento Nosso Lar",
        "zipcode": "48011-290"
    },
    {
        "city": "Alagoinhas",
        "state": "BA",
        "district": "Alagoinhas Velha",
        "street": "Rua Albertina Espinheira",
        "zipcode": "48030-475"
    },
    {
        "city": "Alagoinhas",
        "state": "BA",
        "district": "Santa Isabel",
        "street": "Travessa Castro Alves",
        "zipcode": "48050-090"
    },
    {
        "city": "Alagoinhas",
        "state": "BA",
        "district": "Juracy Magalhães",
        "street": "Avenida Juracy Magalhães",
        "zipcode": "48040-210"
    },
    {
        "city": "Alagoinhas",
        "state": "BA",
        "district": "Juracy Magalhães",
        "street": "Rua Maurício Teles",
        "zipcode": "48040-300"
    },
    {
        "city": "Alagoinhas",
        "state": "BA",
        "district": "Juracy Magalhães",
        "street": "Rua Santa Cecília",
        "zipcode": "48040-180"
    },
    {
        "city": "Alagoinhas",
        "state": "BA",
        "district": "Juracy Magalhães",
        "street": "Rua Santa Maria",
        "zipcode": "48040-200"
    },
    {
        "city": "Alagoinhas",
        "state": "BA",
        "district": "Santa Isabel",
        "street": "Rua Alto do Corte",
        "zipcode": "48050-040"
    },
    {
        "city": "Alagoinhas",
        "state": "BA",
        "district": "Jardim Petrolar",
        "street": "Rua Duque de Caxias",
        "zipcode": "48031-090"
    },
    {
        "city": "Alagoinhas",
        "state": "BA",
        "district": "Jardim Petrolar",
        "street": "Rua Francisco de Assis",
        "zipcode": "48031-120"
    },
    {
        "city": "Alagoinhas",
        "state": "BA",
        "district": "Jardim Petrolar",
        "street": "Rua Jorge Amado",
        "zipcode": "48031-130"
    },
    {
        "city": "Alagoinhas",
        "state": "BA",
        "district": "Jardim Petrolar",
        "street": "Travessa Bahia",
        "zipcode": "48031-080"
    },
    {
        "city": "Alagoinhas",
        "state": "BA",
        "district": "Jardim Petrolar",
        "street": "Rua Bahia",
        "zipcode": "48031-060"
    },
    {
        "city": "Alagoinhas",
        "state": "BA",
        "district": "Jardim Petrolar",
        "street": "Travessa São José",
        "zipcode": "48031-030"
    },
    {
        "city": "Alagoinhas",
        "state": "BA",
        "district": "Jardim Petrolar",
        "street": "Travessa São Marcos",
        "zipcode": "48031-020"
    },
    {
        "city": "Alagoinhas",
        "state": "BA",
        "district": "Jardim Petrolar",
        "street": "Rua São Marcos",
        "zipcode": "48031-010"
    },
    {
        "city": "Alagoinhas",
        "state": "BA",
        "district": "Jardim Petrolar",
        "street": "Travessa São Benedito",
        "zipcode": "48030-700"
    },
    {
        "city": "Alagoinhas",
        "state": "BA",
        "district": "Jardim Petrolar",
        "street": "Avenida Severino Vieira",
        "zipcode": "48030-690"
    },
    {
        "city": "Alagoinhas",
        "state": "BA",
        "district": "Jardim Petrolar",
        "street": "Conjunto Urbis II",
        "zipcode": "48030-685"
    },
    {
        "city": "Alagoinhas",
        "state": "BA",
        "district": "Jardim Petrolar",
        "street": "Parque São Benedito",
        "zipcode": "48030-710"
    },
    {
        "city": "Alagoinhas",
        "state": "BA",
        "district": "Alagoinhas Velha",
        "street": "Rua Nossa Senhora da Conceição",
        "zipcode": "48030-600"
    },
    {
        "city": "Alagoinhas",
        "state": "BA",
        "district": "Jardim Petrolar",
        "street": "Rua Treze de Junho",
        "zipcode": "48030-660"
    },
    {
        "city": "Alagoinhas",
        "state": "BA",
        "district": "Catu",
        "street": "Travessa Conselheiro Junqueira",
        "zipcode": "48090-030"
    },
    {
        "city": "Alagoinhas",
        "state": "BA",
        "district": "Catu",
        "street": "Vila Laranjais",
        "zipcode": "48090-060"
    },
    {
        "city": "Alagoinhas",
        "state": "BA",
        "district": "Catu",
        "street": "Rua Conselheiro Junqueira",
        "zipcode": "48090-021"
    },
    {
        "city": "Alagoinhas",
        "state": "BA",
        "district": "Teresópolis",
        "street": "Rua Feiticeira",
        "zipcode": "48080-240"
    },
    {
        "city": "Alagoinhas",
        "state": "BA",
        "district": "Teresópolis",
        "street": "Travessa Antônio Pinto Cardoso",
        "zipcode": "48080-220"
    },
    {
        "city": "Alagoinhas",
        "state": "BA",
        "district": "Centro",
        "street": "Largo da Federação",
        "zipcode": "48010-160"
    },
    {
        "city": "Alagoinhas",
        "state": "BA",
        "district": "Teresópolis",
        "street": "Rua Celso Magalhães Dantas",
        "zipcode": "48080-190"
    },
    {
        "city": "Alagoinhas",
        "state": "BA",
        "district": "Teresópolis",
        "street": "Travessa Dez de Novembro",
        "zipcode": "48080-160"
    },
    {
        "city": "Alagoinhas",
        "state": "BA",
        "district": "Barreiro",
        "street": "Travessa Murilo Cavalcante",
        "zipcode": "48070-380"
    },
    {
        "city": "Alagoinhas",
        "state": "BA",
        "district": "Teresópolis",
        "street": "Rua Procópio da Silva",
        "zipcode": "48080-170"
    },
    {
        "city": "Alagoinhas",
        "state": "BA",
        "district": "Teresópolis",
        "street": "Rua Santa Catarina",
        "zipcode": "48080-200"
    },
    {
        "city": "Alagoinhas",
        "state": "BA",
        "district": "Teresópolis",
        "street": "Avenida Santa Inês",
        "zipcode": "48080-175"
    },
    {
        "city": "Alagoinhas",
        "state": "BA",
        "district": "Barreiro",
        "street": "Rua Santa Luz",
        "zipcode": "48070-350"
    },
    {
        "city": "Alagoinhas",
        "state": "BA",
        "district": "Teresópolis",
        "street": "Rua José Sobrinho da Silva",
        "zipcode": "48080-185"
    },
    {
        "city": "Alagoinhas",
        "state": "BA",
        "district": "Barreiro",
        "street": "Travessa do Avião",
        "zipcode": "48070-120"
    },
    {
        "city": "Alagoinhas",
        "state": "BA",
        "district": "Barreiro",
        "street": "Rua Dias DÁvila",
        "zipcode": "48070-140"
    },
    {
        "city": "Alagoinhas",
        "state": "BA",
        "district": "Parque Vitória",
        "street": "Rua Getúlio Vargas",
        "zipcode": "48070-040"
    },
    {
        "city": "Alagoinhas",
        "state": "BA",
        "district": "Barreiro",
        "street": "Rua Lamarão",
        "zipcode": "48070-340"
    },
    {
        "city": "Alagoinhas",
        "state": "BA",
        "district": "Barreiro",
        "street": "Rua Rio Real",
        "zipcode": "48070-230"
    },
    {
        "city": "Alagoinhas",
        "state": "BA",
        "district": "Barreiro",
        "street": "Travessa São Sebastião",
        "zipcode": "48070-300"
    },
    {
        "city": "Alagoinhas",
        "state": "BA",
        "district": "Barreiro",
        "street": "Rua São Sebastião",
        "zipcode": "48070-290"
    },
    {
        "city": "Alagoinhas",
        "state": "BA",
        "district": "Barreiro",
        "street": "Rua Serrinha",
        "zipcode": "48070-170"
    },
    {
        "city": "Alagoinhas",
        "state": "BA",
        "district": "Parque Vitória",
        "street": "Rua Simões Filho",
        "zipcode": "48070-080"
    },
    {
        "city": "Alagoinhas",
        "state": "BA",
        "district": "Mangalô",
        "street": "Loteamento Alto Coração de Jesus",
        "zipcode": "48060-530"
    },
    {
        "city": "Alagoinhas",
        "state": "BA",
        "district": "Mangalô",
        "street": "Travessa Thompson Flores",
        "zipcode": "48060-540"
    },
    {
        "city": "Alagoinhas",
        "state": "BA",
        "district": "Mangalô",
        "street": "Rua Baixa do Corte",
        "zipcode": "48060-460"
    },
    {
        "city": "Alagoinhas",
        "state": "BA",
        "district": "Mangalô",
        "street": "Rua Mangalô",
        "zipcode": "48060-480"
    },
    {
        "city": "Alagoinhas",
        "state": "BA",
        "district": "Mangalô",
        "street": "Rua Moreira",
        "zipcode": "48060-450"
    },
    {
        "city": "Alagoinhas",
        "state": "BA",
        "district": "Mangalô",
        "street": "Rua São José",
        "zipcode": "48060-500"
    },
    {
        "city": "Alagoinhas",
        "state": "BA",
        "district": "Centro",
        "street": "Praça Graciliano Freitas",
        "zipcode": "48010-110"
    },
    {
        "city": "Alagoinhas",
        "state": "BA",
        "district": "Santa Terezinha",
        "street": "Rua Leovigildo Reis",
        "zipcode": "48020-240"
    },
    {
        "city": "Alagoinhas",
        "state": "BA",
        "district": "Centro",
        "street": "Rua Maria Feijó",
        "zipcode": "48005-210"
    },
    {
        "city": "Alagoinhas",
        "state": "BA",
        "district": "Centro",
        "street": "Rua Alameda das Algarobas",
        "zipcode": "48005-230"
    },
    {
        "city": "Alagoinhas",
        "state": "BA",
        "district": "Mangalô",
        "street": "Parque Thompson Flores",
        "zipcode": "48060-140"
    },
    {
        "city": "Alagoinhas",
        "state": "BA",
        "district": "Mangalô",
        "street": "Rua São Braz",
        "zipcode": "48060-410"
    },
    {
        "city": "Alagoinhas",
        "state": "BA",
        "district": "Catu",
        "street": "Rua Conselheiro Junqueira",
        "zipcode": "48090-901"
    },
    {
        "city": "Alagoinhas",
        "state": "BA",
        "district": "Catu",
        "street": "Parque Imaculada Conceição",
        "zipcode": "48090-902"
    },
    {
        "city": "Alagoinhas",
        "state": "BA",
        "district": "Kennedy",
        "street": "Rua Conselheiro Antônio",
        "zipcode": "48020-160"
    },
    {
        "city": "Alagoinhas",
        "state": "BA",
        "district": "Centro",
        "street": "Rua Benjamin Constant",
        "zipcode": "48005-455"
    },
    {
        "city": "Alagoinhas",
        "state": "BA",
        "district": "Teresópolis",
        "street": "Rua Dom Avelar Brandão Vilela",
        "zipcode": "48080-150"
    },
    {
        "city": "Alagoinhas",
        "state": "BA",
        "district": "Teresópolis",
        "street": "Rua Garcia",
        "zipcode": "48080-180"
    },
    {
        "city": "Alagoinhas",
        "state": "BA",
        "district": "Alagoinhas Velha",
        "street": "Travessa Júlio Carmo",
        "zipcode": "48030-060"
    },
    {
        "city": "Alagoinhas",
        "state": "BA",
        "district": "Dois de Julho",
        "street": "Rua Ladislau Cavalcante",
        "zipcode": "48051-280"
    },
    {
        "city": "Alagoinhas",
        "state": "BA",
        "district": "Teresópolis",
        "street": "Alto Santo Antônio",
        "zipcode": "48080-210"
    },
    {
        "city": "Alagoinhas",
        "state": "BA",
        "district": "Santa Terezinha",
        "street": "Travessa São Crispim",
        "zipcode": "48010-640"
    },
    {
        "city": "Alagoinhas",
        "state": "BA",
        "district": "Alagoinhas Velha",
        "street": "Conjunto Inocoop III",
        "zipcode": "48030-080"
    },
    {
        "city": "Alagoinhas",
        "state": "BA",
        "district": "Alagoinhas Velha",
        "street": "Travessa Bispo José",
        "zipcode": "48030-230"
    },
    {
        "city": "Alagoinhas",
        "state": "BA",
        "district": "Dois de Julho",
        "street": "Avenida Cotovelo",
        "zipcode": "48051-230"
    },
    {
        "city": "Alagoinhas",
        "state": "BA",
        "district": "Centro",
        "street": "Avenida Lourival Batista",
        "zipcode": "48005-450"
    },
    {
        "city": "Alagoinhas",
        "state": "BA",
        "district": "Santa Isabel",
        "street": "Avenida Aurelina Freitas",
        "zipcode": "48050-110"
    },
    {
        "city": "Alagoinhas",
        "state": "BA",
        "district": "Alagoinhas Velha",
        "street": "Parque Havaí",
        "zipcode": "48030-210"
    },
    {
        "city": "Alagoinhas",
        "state": "BA",
        "district": "Alagoinhas Velha",
        "street": "Rua João de Deus Alves",
        "zipcode": "48030-580"
    },
    {
        "city": "Alagoinhas",
        "state": "BA",
        "district": "Santa Isabel",
        "street": "Travessa Apolônio Pita",
        "zipcode": "48050-070"
    },
    {
        "city": "Alagoinhas",
        "state": "BA",
        "district": "Santa Terezinha",
        "street": "Parque Alamedas",
        "zipcode": "48010-490"
    },
    {
        "city": "Alagoinhas",
        "state": "BA",
        "district": "Centro",
        "street": "Praça Mário Laert",
        "zipcode": "48005-530"
    },
    {
        "city": "Alagoinhas",
        "state": "BA",
        "district": "Kennedy",
        "street": "Praça Kennedy",
        "zipcode": "48020-500"
    },
    {
        "city": "Alagoinhas",
        "state": "BA",
        "district": "Alagoinhas Velha",
        "street": "Rua Genésio Almeida Nascimento",
        "zipcode": "48030-620"
    },
    {
        "city": "Alagoinhas",
        "state": "BA",
        "district": "Alagoinhas Velha",
        "street": "Loteamento Frei Leão",
        "zipcode": "48030-110"
    },
    {
        "city": "Alagoinhas",
        "state": "BA",
        "district": "Teresópolis",
        "street": "Rua Santo Antônio",
        "zipcode": "48080-130"
    },
    {
        "city": "Alagoinhas",
        "state": "BA",
        "district": "Teresópolis",
        "street": "Travessa Santo Antônio",
        "zipcode": "48080-120"
    },
    {
        "city": "Alagoinhas",
        "state": "BA",
        "district": "Teresópolis",
        "street": "Conjunto São Francisco",
        "zipcode": "48080-115"
    },
    {
        "city": "Alagoinhas",
        "state": "BA",
        "district": "Área Rural de Alagoinhas",
        "street": "Área Rural",
        "zipcode": "48099-899"
    },
    {
        "city": "Alagoinhas",
        "state": "BA",
        "district": "Jardim Pedro Braga",
        "street": "Rua Alfredo Garcia",
        "zipcode": "48080-070"
    },
    {
        "city": "Alagoinhas",
        "state": "BA",
        "district": "Barreiro",
        "street": "Travessa Antônio Carneiro",
        "zipcode": "48070-130"
    },
    {
        "city": "Alagoinhas",
        "state": "BA",
        "district": "Silva Jardim",
        "street": "Rua Artur Pereira de Oliveira",
        "zipcode": "48060-110"
    },
    {
        "city": "Alagoinhas",
        "state": "BA",
        "district": "Mangalô",
        "street": "Travessa Baixa da Candeia",
        "zipcode": "48060-440"
    },
    {
        "city": "Alagoinhas",
        "state": "BA",
        "district": "Jardim Pedro Braga",
        "street": "Rua Brasílio Xavier",
        "zipcode": "48080-060"
    },
    {
        "city": "Alagoinhas",
        "state": "BA",
        "district": "Barreiro",
        "street": "Alto Camaçari",
        "zipcode": "48070-160"
    },
    {
        "city": "Alagoinhas",
        "state": "BA",
        "district": "Santa Isabel",
        "street": "Rua Castro Alves",
        "zipcode": "48050-080"
    },
    {
        "city": "Alagoinhas",
        "state": "BA",
        "district": "Jardim Pedro Braga",
        "street": "Rua Eldorado",
        "zipcode": "48080-080"
    },
    {
        "city": "Alagoinhas",
        "state": "BA",
        "district": "Barreiro",
        "street": "Rua Francisco Cerqueira",
        "zipcode": "48070-210"
    },
    {
        "city": "Alagoinhas",
        "state": "BA",
        "district": "Silva Jardim",
        "street": "Rua Irineu de Castro",
        "zipcode": "48060-080"
    },
    {
        "city": "Alagoinhas",
        "state": "BA",
        "district": "Silva Jardim",
        "street": "Rua Joaquim Cravo",
        "zipcode": "48060-070"
    },
    {
        "city": "Alagoinhas",
        "state": "BA",
        "district": "Jardim Pedro Braga",
        "street": "Rua Josué Pimentel",
        "zipcode": "48080-090"
    },
    {
        "city": "Alagoinhas",
        "state": "BA",
        "district": "Mangalô",
        "street": "Travessa Mangalô",
        "zipcode": "48060-490"
    },
    {
        "city": "Alagoinhas",
        "state": "BA",
        "district": "Barreiro",
        "street": "Rua Nova Brasília",
        "zipcode": "48071-280"
    },
    {
        "city": "Alagoinhas",
        "state": "BA",
        "district": "Silva Jardim",
        "street": "Rua Otávio Mangabeira",
        "zipcode": "48060-060"
    },
    {
        "city": "Alagoinhas",
        "state": "BA",
        "district": "Parque Vitória",
        "street": "Rua Rui Barbosa",
        "zipcode": "48070-030"
    },
    {
        "city": "Alagoinhas",
        "state": "BA",
        "district": "Teresópolis",
        "street": "Baixa da Santinha",
        "zipcode": "48080-110"
    },
    {
        "city": "Alagoinhas",
        "state": "BA",
        "district": "Jardim Petrolar",
        "street": "Rua São José",
        "zipcode": "48031-050"
    },
    {
        "city": "Alagoinhas",
        "state": "BA",
        "district": "Silva Jardim",
        "street": "Rua Antônio Costa",
        "zipcode": "48060-095"
    },
    {
        "city": "Alagoinhas",
        "state": "BA",
        "district": "Barreiro",
        "street": "Rua dos Eucaliptos",
        "zipcode": "48070-310"
    },
    {
        "city": "Alagoinhas",
        "state": "BA",
        "district": "Barreiro",
        "street": "Rua Feira de Santana",
        "zipcode": "48070-410"
    },
    {
        "city": "Alagoinhas",
        "state": "BA",
        "district": "Santa Isabel",
        "street": "Rua Apolônio Pita",
        "zipcode": "48050-060"
    },
    {
        "city": "Alagoinhas",
        "state": "BA",
        "district": "Santa Isabel",
        "street": "Rua Benício de Macedo",
        "zipcode": "48050-120"
    },
    {
        "city": "Alagoinhas",
        "state": "BA",
        "district": "Dois de Julho",
        "street": "Avenida João Ramos",
        "zipcode": "48051-210"
    },
    {
        "city": "Alagoinhas",
        "state": "BA",
        "district": "Alagoinhas Velha",
        "street": "Rua Onório José Cunha",
        "zipcode": "48030-520"
    },
    {
        "city": "Alagoinhas",
        "state": "BA",
        "district": "Centro",
        "street": "Praça Padre Alfredo",
        "zipcode": "48005-105"
    },
    {
        "city": "Alagoinhas",
        "state": "BA",
        "district": "Juracy Magalhães",
        "street": "Rua Pedro Dantas",
        "zipcode": "48040-310"
    },
    {
        "city": "Alagoinhas",
        "state": "BA",
        "district": "Kennedy",
        "street": "Conjunto Rômulo Almeida",
        "zipcode": "48020-680"
    },
    {
        "city": "Alagoinhas",
        "state": "BA",
        "district": "Silva Jardim",
        "street": "Travessa Manoel Onofre",
        "zipcode": "48060-035"
    },
    {
        "city": "Alagoinhas",
        "state": "BA",
        "district": "Dois de Julho",
        "street": "Parque Nossa Senhora de Fátima",
        "zipcode": "48051-270"
    },
    {
        "city": "Alagoinhas",
        "state": "BA",
        "district": "Juracy Magalhães",
        "street": "Rua Philadelfo Neves",
        "zipcode": "48040-170"
    },
    {
        "city": "Alagoinhas",
        "state": "BA",
        "district": "Juracy Magalhães",
        "street": "Conjunto Pinto Aguiar",
        "zipcode": "48040-000"
    },
    {
        "city": "Alagoinhas",
        "state": "BA",
        "district": "Santa Isabel",
        "street": "Rua Quinze de Novembro",
        "zipcode": "48050-010"
    },
    {
        "city": "Alagoinhas",
        "state": "BA",
        "district": "Centro",
        "street": "Rua Rodrigues Lima",
        "zipcode": "48010-040"
    },
    {
        "city": "Alagoinhas",
        "state": "BA",
        "district": "Kennedy",
        "street": "Travessa Santa Brígida",
        "zipcode": "48020-210"
    },
    {
        "city": "Alagoinhas",
        "state": "BA",
        "district": "Jardim Petrolar",
        "street": "Rua Santo Cristo",
        "zipcode": "48031-040"
    },
    {
        "city": "Alagoinhas",
        "state": "BA",
        "district": "Jardim Petrolar",
        "street": "Rua Santos Dumont",
        "zipcode": "48031-100"
    },
    {
        "city": "Alagoinhas",
        "state": "BA",
        "district": "Barreiro",
        "street": "Rua São Guilherme",
        "zipcode": "48070-400"
    },
    {
        "city": "Alagoinhas",
        "state": "BA",
        "district": "Santa Terezinha",
        "street": "Rua São Lourenço",
        "zipcode": "48010-460"
    },
    {
        "city": "Alagoinhas",
        "state": "BA",
        "district": "Santa Terezinha",
        "street": "Avenida Silva",
        "zipcode": "48011-250"
    },
    {
        "city": "Alagoinhas",
        "state": "BA",
        "district": "Silva Jardim",
        "street": "Rua Silva Jardim",
        "zipcode": "48060-000"
    },
    {
        "city": "Alagoinhas",
        "state": "BA",
        "district": "Alagoinhas Velha",
        "street": "Rua Treze de Junho",
        "zipcode": "48030-560"
    },
    {
        "city": "Alagoinhas",
        "state": "BA",
        "district": "Centro",
        "street": "Rua Vinte e Quatro de Maio",
        "zipcode": "48010-000"
    },
    {
        "city": "Alagoinhas",
        "state": "BA",
        "district": "Centro",
        "street": "Rua Vinte e Um de Abril",
        "zipcode": "48005-070"
    },
    {
        "city": "Alagoinhas",
        "state": "BA",
        "district": "Alagoinhas Velha",
        "street": "Travessa São Geraldo",
        "zipcode": "48030-650"
    },
    {
        "city": "Alagoinhas",
        "state": "BA",
        "district": "Centro",
        "street": "Rua Pedro Ponde",
        "zipcode": "48010-150"
    },
    {
        "city": "Alagoinhas",
        "state": "BA",
        "district": "Dois de Julho",
        "street": "Rua Dois de Julho",
        "zipcode": "48051-000"
    },
    {
        "city": "Alagoinhas",
        "state": "BA",
        "district": "Alagoinhas Velha",
        "street": "Rua C (Parque. Verde)",
        "zipcode": "48030-565"
    },
    {
        "city": "Alagoinhas",
        "state": "BA",
        "district": "Juracy Magalhães",
        "street": "Avenida Juracy Magalhães",
        "zipcode": "48040-970"
    },
    {
        "city": "Alagoinhas",
        "state": "BA",
        "district": "Silva Jardim",
        "street": "Rua Álvaro Cavalcante Muller",
        "zipcode": "48060-043"
    },
    {
        "city": "Alagoinhas",
        "state": "BA",
        "district": "Kennedy",
        "street": "Rua Maria Quitéria",
        "zipcode": "48020-190"
    },
    {
        "city": "Alagoinhas",
        "state": "BA",
        "district": "Jardim Petrolar",
        "street": "Parque Regente",
        "zipcode": "48030-670"
    },
    {
        "city": "Alagoinhas",
        "state": "BA",
        "district": "Juracy Magalhães",
        "street": "Avenida Juracy Magalhães",
        "zipcode": "48040-900"
    },
    {
        "city": "Alagoinhas",
        "state": "BA",
        "district": "Alagoinhas Velha",
        "street": "Rua Dantas Bião",
        "zipcode": "48030-901"
    },
    {
        "city": "Alagoinhas",
        "state": "BA",
        "district": "Alagoinhas Velha",
        "street": "Rua Dantas Bião",
        "zipcode": "48030-902"
    },
    {
        "city": "Alagoinhas",
        "state": "BA",
        "district": "Kennedy",
        "street": "Travessa Conselheiro Dantas",
        "zipcode": "48020-640"
    },
    {
        "city": "Alagoinhas",
        "state": "BA",
        "district": "Alagoinhas Velha",
        "street": "Rua Dantas Bião",
        "zipcode": "48030-030"
    },
    {
        "city": "Alagoinhas",
        "state": "BA",
        "district": "Kennedy",
        "street": "Largo da Independência",
        "zipcode": "48020-480"
    },
    {
        "city": "Alagoinhas",
        "state": "BA",
        "district": "Santa Terezinha",
        "street": "Travessa João Dantas",
        "zipcode": "48011-280"
    },
    {
        "city": "Alagoinhas",
        "state": "BA",
        "district": "Santa Terezinha",
        "street": "Rua Moreira César",
        "zipcode": "48010-510"
    },
    {
        "city": "Alagoinhas",
        "state": "BA",
        "district": "Alagoinhas Velha",
        "street": "Rua Oito de Dezembro",
        "zipcode": "48030-260"
    },
    {
        "city": "Alagoinhas",
        "state": "BA",
        "district": "Alagoinhas Velha",
        "street": "Travessa Olindina",
        "zipcode": "48030-250"
    },
    {
        "city": "Alagoinhas",
        "state": "BA",
        "district": "Santa Terezinha",
        "street": "Travessa Padre Godinho",
        "zipcode": "48011-340"
    },
    {
        "city": "Alagoinhas",
        "state": "BA",
        "district": "Dois de Julho",
        "street": "Travessa Quatorze de Janeiro",
        "zipcode": "48051-260"
    },
    {
        "city": "Alagoinhas",
        "state": "BA",
        "district": "Santa Isabel",
        "street": "Travessa Quinze de Novembro",
        "zipcode": "48050-020"
    },
    {
        "city": "Alagoinhas",
        "state": "BA",
        "district": "Alagoinhas Velha",
        "street": "Estrada Rio Branco",
        "zipcode": "48030-070"
    },
    {
        "city": "Alagoinhas",
        "state": "BA",
        "district": "Kennedy",
        "street": "Travessa Rio Branco",
        "zipcode": "48020-530"
    },
    {
        "city": "Alagoinhas",
        "state": "BA",
        "district": "Jardim Petrolar",
        "street": "Rua Santa Bárbara",
        "zipcode": "48031-070"
    },
    {
        "city": "Alagoinhas",
        "state": "BA",
        "district": "Kennedy",
        "street": "Rua Santa Clara",
        "zipcode": "48020-040"
    },
    {
        "city": "Alagoinhas",
        "state": "BA",
        "district": "Santa Terezinha",
        "street": "Rua São Domingos",
        "zipcode": "48010-610"
    },
    {
        "city": "Alagoinhas",
        "state": "BA",
        "district": "Alagoinhas Velha",
        "street": "Avenida Ayrton Senna da Silva",
        "zipcode": "48030-640"
    },
    {
        "city": "Alagoinhas",
        "state": "BA",
        "district": "Santa Terezinha",
        "street": "Travessa São Jorge",
        "zipcode": "48011-330"
    },
    {
        "city": "Alagoinhas",
        "state": "BA",
        "district": "Alagoinhas Velha",
        "street": "Travessa São Roque",
        "zipcode": "48030-290"
    },
    {
        "city": "Alagoinhas",
        "state": "BA",
        "district": "Jardim Petrolar",
        "street": "Travessa Severino Vieira",
        "zipcode": "48030-705"
    },
    {
        "city": "Alagoinhas",
        "state": "BA",
        "district": "Dois de Julho",
        "street": "Rua Professor José Leite",
        "zipcode": "48051-360"
    },
    {
        "city": "Alagoinhas",
        "state": "BA",
        "district": "Alagoinhas Velha",
        "street": "Praça Manoel Fausto Alves",
        "zipcode": "48030-550"
    },
    {
        "city": "Alagoinhas",
        "state": "BA",
        "district": "Silva Jardim",
        "street": "Parque São José",
        "zipcode": "48060-040"
    },
    {
        "city": "Alagoinhas",
        "state": "BA",
        "district": "Silva Jardim",
        "street": "Rua José Costa Dórea",
        "zipcode": "48060-050"
    },
    {
        "city": "Alagoinhas",
        "state": "BA",
        "district": "Silva Jardim",
        "street": "Rua Amandina Ferreira de Carvalho",
        "zipcode": "48060-044"
    },
    {
        "city": "Alagoinhas",
        "state": "BA",
        "district": "Santa Terezinha",
        "street": "Rua Bela Vista",
        "zipcode": "48010-560"
    },
    {
        "city": "Alagoinhas",
        "state": "BA",
        "district": "Barreiro",
        "street": "Rua Margem da Linha",
        "zipcode": "48070-100"
    },
    {
        "city": "Alagoinhas",
        "state": "BA",
        "district": "Alagoinhas Velha",
        "street": "Conjunto Inocoop I",
        "zipcode": "48030-300"
    },
    {
        "city": "Alagoinhas",
        "state": "BA",
        "district": "Alagoinhas Velha",
        "street": "Travessa Genésio Almeida Nascimento",
        "zipcode": "48030-630"
    },
    {
        "city": "Alagoinhas",
        "state": "BA",
        "district": "Jardim Petrolar",
        "street": "Travessa Treze de Junho",
        "zipcode": "48030-715"
    },
    {
        "city": "Alagoinhas",
        "state": "BA",
        "district": "Jardim Petrolar",
        "street": "Rua Turmalina",
        "zipcode": "48031-140"
    },
    {
        "city": "Alagoinhas",
        "state": "BA",
        "district": "Jardim Petrolar",
        "street": "Conjunto Urbis I",
        "zipcode": "48030-680"
    },
    {
        "city": "Alagoinhas",
        "state": "BA",
        "district": "Kennedy",
        "street": "Rua Canavieiras",
        "zipcode": "48020-180"
    },
    {
        "city": "Alagoinhas",
        "state": "BA",
        "district": "Jardim Petrolar",
        "street": "Rua Minas Gerais",
        "zipcode": "48031-160"
    },
    {
        "city": "Alagoinhas",
        "state": "BA",
        "district": "Santa Isabel",
        "street": "Praça Santa Isabel",
        "zipcode": "48050-130"
    },
    {
        "city": "Alagoinhas",
        "state": "BA",
        "district": "Dois de Julho",
        "street": "Rua Dois de Julho",
        "zipcode": "48051-001"
    },
    {
        "city": "Alagoinhas",
        "state": "BA",
        "district": null,
        "street": "Rua Baixa da Candeia",
        "zipcode": "48000-993"
    },
    {
        "city": "Alagoinhas",
        "state": "BA",
        "district": "Catu",
        "street": "Rua Conselheiro Junqueira",
        "zipcode": "48090-900"
    },
    {
        "city": "Alagoinhas",
        "state": "BA",
        "district": "Centro",
        "street": "Avenida Juracy Magalhães",
        "zipcode": "48005-902"
    },
    {
        "city": "Alagoinhas",
        "state": "BA",
        "district": "Centro",
        "street": "Rua Conselheiro Couto",
        "zipcode": "48005-903"
    },
    {
        "city": "Alagoinhas",
        "state": "BA",
        "district": "Centro",
        "street": "Rua Amilton Couto",
        "zipcode": "48091-510"
    },
    {
        "city": "Alagoinhas",
        "state": "BA",
        "district": "Kennedy",
        "street": "Rua Artistas",
        "zipcode": "48020-550"
    },
    {
        "city": "Alagoinhas",
        "state": "BA",
        "district": "Barreiro",
        "street": "Rua do Avião",
        "zipcode": "48070-110"
    },
    {
        "city": "Alagoinhas",
        "state": "BA",
        "district": "Mangalô",
        "street": "Travessa Baixa do Corte",
        "zipcode": "48060-470"
    },
    {
        "city": "Alagoinhas",
        "state": "BA",
        "district": "Kennedy",
        "street": "Rua Campo do Pirinel",
        "zipcode": "48020-230"
    },
    {
        "city": "Alagoinhas",
        "state": "BA",
        "district": "Centro",
        "street": "Travessa Carlos Gomes",
        "zipcode": "48005-030"
    },
    {
        "city": "Alagoinhas",
        "state": "BA",
        "district": "Alagoinhas Velha",
        "street": "Rua Tiago Correia",
        "zipcode": "48030-470"
    },
    {
        "city": "Alagoinhas",
        "state": "BA",
        "district": "Silva Jardim",
        "street": "Rua Margem da Linha",
        "zipcode": "48060-045"
    },
    {
        "city": "Alagoinhas",
        "state": "BA",
        "district": "Centro",
        "street": "Praça Barão do Rio Branco",
        "zipcode": "48005-135"
    },
    {
        "city": "Alagoinhas",
        "state": "BA",
        "district": "Centro",
        "street": "Praça José Joaquim Seabra",
        "zipcode": "48005-970"
    },
    {
        "city": "Alagoinhas",
        "state": "BA",
        "district": null,
        "street": "Rua Margem da Linha Férrea",
        "zipcode": "48000-991"
    },
    {
        "city": "Alagoinhas",
        "state": "BA",
        "district": "Centro",
        "street": "Praça Graciliano Freitas",
        "zipcode": "48010-970"
    },
    {
        "city": "Alagoinhas",
        "state": "BA",
        "district": "Centro",
        "street": "Praça José Joaquim Seabra",
        "zipcode": "48010-900"
    },
    {
        "city": "Alagoinhas",
        "state": "BA",
        "district": "Alagoinhas Velha",
        "street": "Rua Ospírio Ramos",
        "zipcode": "48030-200"
    },
    {
        "city": "Alagoinhas",
        "state": "BA",
        "district": "Alagoinhas Velha",
        "street": "Travessa Pedro José Cunha",
        "zipcode": "48030-510"
    },
    {
        "city": "Alagoinhas",
        "state": "BA",
        "district": "Parque Vitória",
        "street": "Rua Castelo Branco",
        "zipcode": "48070-060"
    },
    {
        "city": "Alagoinhas",
        "state": "BA",
        "district": "Catu",
        "street": "Rua Conselheiro Junqueira",
        "zipcode": "48090-020"
    },
    {
        "city": "Alagoinhas",
        "state": "BA",
        "district": "Centro",
        "street": "Rua Elvira Dórea",
        "zipcode": "48005-150"
    },
    {
        "city": "Alagoinhas",
        "state": "BA",
        "district": "Barreiro",
        "street": "Travessa dos Eucaliptos",
        "zipcode": "48070-320"
    },
    {
        "city": "Alagoinhas",
        "state": "BA",
        "district": "Barreiro",
        "street": "Travessa Francisco Cerqueira",
        "zipcode": "48070-220"
    },
    {
        "city": "Alagoinhas",
        "state": "BA",
        "district": "Jardim Pedro Braga",
        "street": "Rua Francisco Farias",
        "zipcode": "48080-100"
    },
    {
        "city": "Alagoinhas",
        "state": "BA",
        "district": "Centro",
        "street": "Rua Joel de Carvalho",
        "zipcode": "48005-080"
    },
    {
        "city": "Alagoinhas",
        "state": "BA",
        "district": "Centro",
        "street": "Rua José Galdino Maia",
        "zipcode": "48005-140"
    },
    {
        "city": "Alagoinhas",
        "state": "BA",
        "district": "Centro",
        "street": "Avenida Juracy Magalhães",
        "zipcode": "48005-440"
    },
    {
        "city": "Alagoinhas",
        "state": "BA",
        "district": "Kennedy",
        "street": "Travessa Leovigildo Reis",
        "zipcode": "48020-620"
    },
    {
        "city": "Alagoinhas",
        "state": "BA",
        "district": "Teresópolis",
        "street": "Rua Manoel da Silva",
        "zipcode": "48080-195"
    },
    {
        "city": "Alagoinhas",
        "state": "BA",
        "district": "Teresópolis",
        "street": "Travessa Manoel Vitorino",
        "zipcode": "48080-140"
    },
    {
        "city": "Alagoinhas",
        "state": "BA",
        "district": "Catu",
        "street": "Rua Manoel Vitorino",
        "zipcode": "48090-070"
    },
    {
        "city": "Alagoinhas",
        "state": "BA",
        "district": "Centro",
        "street": "Rua Milton Ornelas",
        "zipcode": "48005-220"
    },
    {
        "city": "Alagoinhas",
        "state": "BA",
        "district": "Santa Terezinha",
        "street": "Rua Padre Godinho",
        "zipcode": "48011-320"
    },
    {
        "city": "Alagoinhas",
        "state": "BA",
        "district": "Jardim Pedro Braga",
        "street": "Rua Paz",
        "zipcode": "48080-050"
    },
    {
        "city": "Alagoinhas",
        "state": "BA",
        "district": "Centro",
        "street": "Travessa Quintino Bocaiúva",
        "zipcode": "48005-520"
    },
    {
        "city": "Alagoinhas",
        "state": "BA",
        "district": "Barreiro",
        "street": "Rua Renato Bittencourt",
        "zipcode": "48070-420"
    },
    {
        "city": "Alagoinhas",
        "state": "BA",
        "district": "Santa Terezinha",
        "street": "Rua Santa Rita",
        "zipcode": "48011-270"
    },
    {
        "city": "Alagoinhas",
        "state": "BA",
        "district": "Santa Terezinha",
        "street": "Rua Santa Terezinha",
        "zipcode": "48010-580"
    },
    {
        "city": "Alagoinhas",
        "state": "BA",
        "district": "Kennedy",
        "street": "Rua Santo Inácio",
        "zipcode": "48020-070"
    },
    {
        "city": "Alagoinhas",
        "state": "BA",
        "district": "Kennedy",
        "street": "Avenida São José",
        "zipcode": "48020-130"
    },
    {
        "city": "Alagoinhas",
        "state": "BA",
        "district": "Santa Terezinha",
        "street": "Travessa São Roque",
        "zipcode": "48010-440"
    },
    {
        "city": "Alagoinhas",
        "state": "BA",
        "district": "Jardim Pedro Braga",
        "street": "Rua Sátiro Dias",
        "zipcode": "48080-030"
    },
    {
        "city": "Alagoinhas",
        "state": "BA",
        "district": "Barreiro",
        "street": "Rua Senhor do Bonfim",
        "zipcode": "48070-260"
    },
    {
        "city": "Alagoinhas",
        "state": "BA",
        "district": "Barreiro",
        "street": "Travessa Serrinha",
        "zipcode": "48070-180"
    },
    {
        "city": "Alagoinhas",
        "state": "BA",
        "district": "Santa Terezinha",
        "street": "Travessa Silva",
        "zipcode": "48011-260"
    },
    {
        "city": "Alagoinhas",
        "state": "BA",
        "district": "Centro",
        "street": "Rua Treze de Maio",
        "zipcode": "48005-430"
    },
    {
        "city": "Alagoinhas",
        "state": "BA",
        "district": "Centro",
        "street": "Rua Deocleciano Barbosa",
        "zipcode": "48005-190"
    },
    {
        "city": "Alagoinhas",
        "state": "BA",
        "district": "Centro",
        "street": "Rua Ascendino Batista Cardoso",
        "zipcode": "48005-518"
    },
    {
        "city": "Alagoinhas",
        "state": "BA",
        "district": "Alagoinhas Velha",
        "street": "Rua Quinze Irmãos",
        "zipcode": "48030-569"
    },
    {
        "city": "Alagoinhas",
        "state": "BA",
        "district": "Centro",
        "street": "Travessa Alameda das Algarobas",
        "zipcode": "48005-240"
    },
    {
        "city": "Alagoinhas",
        "state": "BA",
        "district": null,
        "street": "Rua Galdêncio Vasconcelos",
        "zipcode": "48000-992"
    },
    {
        "city": "Alagoinhas",
        "state": "BA",
        "district": "Barreiro",
        "street": "Travessa Vinte e Um de Setembro",
        "zipcode": "48070-390"
    },
    {
        "city": "Alagoinhas",
        "state": "BA",
        "district": "Centro",
        "street": "Rua Visconde de São Lourenço",
        "zipcode": "48010-100"
    },
    {
        "city": "Alagoinhas",
        "state": "BA",
        "district": "Silva Jardim",
        "street": "Travessa Silva Jardim",
        "zipcode": "48060-030"
    },
    {
        "city": "Alagoinhas",
        "state": "BA",
        "district": "Silva Jardim",
        "street": "Rua Inácio Bastos",
        "zipcode": "48060-090"
    },
    {
        "city": "Alagoinhas",
        "state": "BA",
        "district": "Santa Terezinha",
        "street": "Rua Barão de Cotegipe",
        "zipcode": "48010-520"
    },
    {
        "city": "Alagoinhas",
        "state": "BA",
        "district": "Centro",
        "street": "Rua das Acácias",
        "zipcode": "48005-203"
    },
    {
        "city": "Alagoinhas",
        "state": "BA",
        "district": "Alagoinhas Velha",
        "street": "Rua A (Parque Verde)",
        "zipcode": "48030-574"
    },
    {
        "city": "Alagoinhas",
        "state": "BA",
        "district": "Mangalô",
        "street": "Travessa São Luís",
        "zipcode": "48060-520"
    },
    {
        "city": "Alagoinhas",
        "state": "BA",
        "district": "Catu",
        "street": "Rua Manoel Vitorino",
        "zipcode": "48005-905"
    },
    {
        "city": "Alagoinhas",
        "state": "BA",
        "district": "Alagoinhas Velha",
        "street": "Conjunto Alagoinhas IV",
        "zipcode": "48030-000"
    },
    {
        "city": "Alagoinhas",
        "state": "BA",
        "district": "Dois de Julho",
        "street": "Rua Álvaro Dantas",
        "zipcode": "48051-300"
    },
    {
        "city": "Alagoinhas",
        "state": "BA",
        "district": "Barreiro",
        "street": "Rua Antônio Carneiro",
        "zipcode": "48071-250"
    },
    {
        "city": "Alagoinhas",
        "state": "BA",
        "district": "Santa Isabel",
        "street": "Beco dos Ferroviários",
        "zipcode": "48050-100"
    },
    {
        "city": "Alagoinhas",
        "state": "BA",
        "district": "Catu",
        "street": "Parque Imaculada Conceição",
        "zipcode": "48090-050"
    },
    {
        "city": "Alagoinhas",
        "state": "BA",
        "district": "Jardim Petrolar",
        "street": "Rua Ipiranga",
        "zipcode": "48031-150"
    },
    {
        "city": "Alagoinhas",
        "state": "BA",
        "district": "Barreiro",
        "street": "Rua Lins Faria",
        "zipcode": "48070-370"
    },
    {
        "city": "Alagoinhas",
        "state": "BA",
        "district": "Centro",
        "street": "Rua Moreira Rego",
        "zipcode": "48005-125"
    },
    {
        "city": "Alagoinhas",
        "state": "BA",
        "district": "Barreiro",
        "street": "Rua Murilo Cavalcante",
        "zipcode": "48071-270"
    },
    {
        "city": "Alagoinhas",
        "state": "BA",
        "district": "Alagoinhas Velha",
        "street": "Travessa Nossa Senhora da Conceição",
        "zipcode": "48030-610"
    },
    {
        "city": "Alagoinhas",
        "state": "BA",
        "district": "Jardim Petrolar",
        "street": "Rua Novo Planeta",
        "zipcode": "48031-110"
    },
    {
        "city": "Alagoinhas",
        "state": "BA",
        "district": "Juracy Magalhães",
        "street": "Rua Padre Vieira",
        "zipcode": "48040-320"
    },
    {
        "city": "Alagoinhas",
        "state": "BA",
        "district": "Kennedy",
        "street": "Rua Parque das Jaqueiras",
        "zipcode": "48020-580"
    },
    {
        "city": "Alagoinhas",
        "state": "BA",
        "district": "Jardim Pedro Braga",
        "street": "Rua Alegria",
        "zipcode": "48080-040"
    },
    {
        "city": "Alagoinhas",
        "state": "BA",
        "district": "Alagoinhas Velha",
        "street": "Rua do Terminal Rodoviário",
        "zipcode": "48030-900"
    },
    {
        "city": "Alagoinhas",
        "state": "BA",
        "district": "Mangalô",
        "street": "Travessa São Braz",
        "zipcode": "48060-420"
    },
    {
        "city": "Alagoinhas",
        "state": "BA",
        "district": "Barreiro",
        "street": "Travessa Senhor do Bonfim",
        "zipcode": "48070-270"
    },
    {
        "city": "Alagoinhas",
        "state": "BA",
        "district": "Centro",
        "street": "Rua Soror Angélica",
        "zipcode": "48010-070"
    },
    {
        "city": "Alagoinhas",
        "state": "BA",
        "district": "Santa Terezinha",
        "street": "Rua Visconde Rio Branco",
        "zipcode": "48010-500"
    },
    {
        "city": "Alagoinhas",
        "state": "BA",
        "district": "Dois de Julho",
        "street": "Parque Senhor do Bonfim",
        "zipcode": "48051-320"
    },
    {
        "city": "Alagoinhas",
        "state": "BA",
        "district": "Centro",
        "street": "Rua Benjamin Constant",
        "zipcode": "48020-450"
    },
    {
        "city": "Alagoinhas",
        "state": "BA",
        "district": "Dois de Julho",
        "street": "Rua Itapicuru",
        "zipcode": "48051-340"
    },
    {
        "city": "Alagoinhas",
        "state": "BA",
        "district": "Santa Terezinha",
        "street": "Travessa Sao Jorge",
        "zipcode": "48020-330"
    },
    {
        "city": "Alagoinhas",
        "state": "BA",
        "district": "Santa Terezinha",
        "street": "Rua Sao Jorge",
        "zipcode": "48020-300"
    },
    {
        "city": "Alagoinhas",
        "state": "BA",
        "district": "Parque Alagoinhas",
        "street": "Praça Aristides Maltez",
        "zipcode": "48005-490"
    },
    {
        "city": "Alagoinhas",
        "state": "BA",
        "district": "Barreiro",
        "street": "Parque Inema",
        "zipcode": "48070-250"
    },
    {
        "city": "Alagoinhas",
        "state": "BA",
        "district": "Kennedy",
        "street": "Rua Ana Oliveira Campos",
        "zipcode": "48020-030"
    },
    {
        "city": "Alagoinhas",
        "state": "BA",
        "district": "Santa Terezinha",
        "street": "Loteamento Santa Terezinha",
        "zipcode": "48020-000"
    },
    {
        "city": "Alagoinhas",
        "state": "BA",
        "district": "Kennedy",
        "street": "Conjunto Inocoop Iv",
        "zipcode": "48020-570"
    },
    {
        "city": "Alagoinhas",
        "state": "BA",
        "district": "Jardim Petrolar",
        "street": "Travessa Severino Vieira",
        "zipcode": "48005-560"
    },
    {
        "city": "Alagoinhas",
        "state": "BA",
        "district": "Centro",
        "street": "Praça Aristides Maltez",
        "zipcode": "48091-490"
    },
    {
        "city": "Alagoinhas",
        "state": "BA",
        "district": "Jardim Petrolar",
        "street": "Conjunto Ii Etapa Urbis",
        "zipcode": "48005-001"
    },
    {
        "city": "Alagoinhas",
        "state": "BA",
        "district": "Alagoinhas Velha",
        "street": "Rua Pedro José Cunha",
        "zipcode": "48030-500"
    },
    {
        "city": "Alagoinhas",
        "state": "BA",
        "district": "Centro",
        "street": "Rua Carlos Rosas",
        "zipcode": "48091-500"
    },
    {
        "city": "Alagoinhas",
        "state": "BA",
        "district": null,
        "street": "Praça Basílio Rufino",
        "zipcode": "48000-990"
    },
    {
        "city": "Alagoinhas",
        "state": "BA",
        "district": "Santa Terezinha",
        "street": "Rua Padre Godinho",
        "zipcode": "48020-320"
    },
    {
        "city": "Alagoinhas",
        "state": "BA",
        "district": "Parque Vitória",
        "street": "Rua Joaquim Lopes",
        "zipcode": "48070-020"
    },
    {
        "city": "Alagoinhas",
        "state": "BA",
        "district": "Jardim Petrolar",
        "street": "Avenida Severino Vieira",
        "zipcode": "48005-461"
    },
    {
        "city": "Alagoinhas",
        "state": "BA",
        "district": "Teresópolis",
        "street": "Conjunto Frei Leão",
        "zipcode": "48080-300"
    },
    {
        "city": "Alagoinhas",
        "state": "BA",
        "district": "Jardim Petrolar",
        "street": "Parque Sao Benedito",
        "zipcode": "48005-570"
    },
    {
        "city": "Alagoinhas",
        "state": "BA",
        "district": "Jardim Petrolar",
        "street": "Rua Sao Marcos",
        "zipcode": "48040-010"
    },
    {
        "city": "Alagoinhas",
        "state": "BA",
        "district": "Juracy Magalhaes",
        "street": "Rua Padre Vieira",
        "zipcode": "48005-540"
    },
    {
        "city": "Alagoinhas",
        "state": "BA",
        "district": "Alagoinhas Velha",
        "street": "Travessa Rio Branco",
        "zipcode": "48020-460"
    },
    {
        "city": "Alagoinhas",
        "state": "BA",
        "district": "Santa Isabel",
        "street": "Rua Quinze De Novembro",
        "zipcode": "48060-010"
    },
    {
        "city": "Alagoinhas",
        "state": "BA",
        "district": "Silva Jardim",
        "street": "Rua Sátiro Dias",
        "zipcode": "48060-105"
    },
    {
        "city": "Alagoinhas",
        "state": "BA",
        "district": "Silva Jardim",
        "street": "Rua Manuel Rodrigues Bittencourt",
        "zipcode": "48060-099"
    },
    {
        "city": "Alagoinhas",
        "state": "BA",
        "district": "Silva Jardim",
        "street": "Rua João Batista",
        "zipcode": "48060-101"
    },
    {
        "city": "Alagoinhas",
        "state": "BA",
        "district": "Santa Terezinha",
        "street": "Rua Sao Lazaro",
        "zipcode": "48020-310"
    },
    {
        "city": "Alagoinhas",
        "state": "BA",
        "district": "Jardim Petrolar",
        "street": "Travessa Sao Marcos",
        "zipcode": "48040-020"
    },
    {
        "city": "Alagoinhas",
        "state": "BA",
        "district": "Centro",
        "street": "Travessa Quintino Bocaiuva",
        "zipcode": "48080-020"
    },
    {
        "city": "Alagoinhas",
        "state": "BA",
        "district": "Dois De Julho",
        "street": "Rua Prof. Jose Leite",
        "zipcode": "48050-360"
    },
    {
        "city": "Alagoinhas",
        "state": "BA",
        "district": "Dois De Julho",
        "street": "Vila Conceicao",
        "zipcode": "48050-240"
    },
    {
        "city": "Alagoinhas",
        "state": "BA",
        "district": "Jardim Petrolar",
        "street": "Rua Novo Planeta",
        "zipcode": "48040-110"
    },
    {
        "city": "Alagoinhas",
        "state": "BA",
        "district": "Teresopolis",
        "street": "Avenida Santa Ines",
        "zipcode": "48090-100"
    },
    {
        "city": "Alagoinhas",
        "state": "BA",
        "district": "Silva Jardim",
        "street": "Rua Antonio Costa",
        "zipcode": "48070-090"
    },
    {
        "city": "Alagoinhas",
        "state": "BA",
        "district": "Jardim Petrolar",
        "street": "Rua Duque De Caxias",
        "zipcode": "48040-090"
    },
    {
        "city": "Alagoinhas",
        "state": "BA",
        "district": "Dois De Julho",
        "street": "Avenida Cotuvelo",
        "zipcode": "48050-230"
    },
    {
        "city": "Alagoinhas",
        "state": "BA",
        "district": "Santa Isabel",
        "street": "Travessa Quinze De Novembro",
        "zipcode": "48060-020"
    },
    {
        "city": "Alagoinhas",
        "state": "BA",
        "district": "Dois De Julho",
        "street": "Avenida Joao Ramos",
        "zipcode": "48050-210"
    },
    {
        "city": "Alagoinhas",
        "state": "BA",
        "district": "Dois De Julho",
        "street": "Travessa Dois De Julho",
        "zipcode": "48050-190"
    },
    {
        "city": "Alagoinhas",
        "state": "BA",
        "district": "Jardim Petrolar",
        "street": "Rua Minas Gerais",
        "zipcode": "48040-160"
    },
    {
        "city": "Alagoinhas",
        "state": "BA",
        "district": "Jardim Petrolar",
        "street": "Rua Santa Barbara",
        "zipcode": "48040-070"
    },
    {
        "city": "Alagoinhas",
        "state": "BA",
        "district": "Dois De Julho",
        "street": "Travessa Ladislau Cavalcante",
        "zipcode": "48050-290"
    },
    {
        "city": "Alagoinhas",
        "state": "BA",
        "district": "Dois De Julho",
        "street": "Rua Dois De Julho",
        "zipcode": "48050-000"
    },
    {
        "city": "Alagoinhas",
        "state": "BA",
        "district": "Dois De Julho",
        "street": "Parque Senhor Do Bonfim",
        "zipcode": "48050-320"
    },
    {
        "city": "Alagoinhas",
        "state": "BA",
        "district": "Santa Terezinha",
        "street": "Travessa Silva",
        "zipcode": "48020-260"
    },
    {
        "city": "Alagoinhas",
        "state": "BA",
        "district": "Silva Jardim",
        "street": "Rua Álvaro Almeida Silva",
        "zipcode": "48060-039"
    },
    {
        "city": "Alagoinhas",
        "state": "BA",
        "district": "Alagoinhas Velha",
        "street": "Rua Albertina Espinheira",
        "zipcode": "48020-470"
    },
    {
        "city": "Alagoinhas",
        "state": "BA",
        "district": "Dois De Julho",
        "street": "Parque Nossa Senhora De Fatima",
        "zipcode": "48050-270"
    },
    {
        "city": "Alagoinhas",
        "state": "BA",
        "district": "Barreiro",
        "street": "Rua Vinte E Um De Setembro",
        "zipcode": "48070-000"
    },
    {
        "city": "Alagoinhas",
        "state": "BA",
        "district": "Teresopolis",
        "street": "Conjunto Sao Franciso",
        "zipcode": "48090-110"
    },
    {
        "city": "Alagoinhas",
        "state": "BA",
        "district": "Santa Terezinha",
        "street": "Travessa Joao Dantas",
        "zipcode": "48020-280"
    },
    {
        "city": "Alagoinhas",
        "state": "BA",
        "district": "Santa Terezinha",
        "street": "Rua Santa Rita",
        "zipcode": "48020-270"
    },
    {
        "city": "Alagoinhas",
        "state": "BA",
        "district": "Centro",
        "street": "Rua Dom Pedro I",
        "zipcode": "48030-020"
    },
    {
        "city": "Alagoinhas",
        "state": "BA",
        "district": "Barreiro",
        "street": "Rua Nova Brasilia",
        "zipcode": "48080-280"
    },
    {
        "city": "Alagoinhas",
        "state": "BA",
        "district": "Dois De Julho",
        "street": "Rua Itapicuru",
        "zipcode": "48050-340"
    },
    {
        "city": "Alagoinhas",
        "state": "BA",
        "district": "Centro",
        "street": "Rua 24 de Junho",
        "zipcode": "48005-207"
    },
    {
        "city": "Alagoinhas",
        "state": "BA",
        "district": "Barreiro",
        "street": "Rua San Diego",
        "zipcode": "48070-293"
    },
    {
        "city": "Alagoinhas",
        "state": "BA",
        "district": "Catu",
        "street": "Rua L",
        "zipcode": "48090-375"
    },
    {
        "city": "Alagoinhas",
        "state": "BA",
        "district": "Mangalô",
        "street": "Rua Baixa da Candeia",
        "zipcode": "48060-430"
    },
    {
        "city": "Alagoinhas",
        "state": "BA",
        "district": "Alagoinhas Velha",
        "street": "Travessa Dantas Bião",
        "zipcode": "48030-040"
    },
    {
        "city": "Alagoinhas",
        "state": "BA",
        "district": "Santa Terezinha",
        "street": "Travessa São Lourenço",
        "zipcode": "48010-650"
    },
    {
        "city": "Alagoinhas",
        "state": "BA",
        "district": "Dois de Julho",
        "street": "Rua Quatorze de Janeiro",
        "zipcode": "48051-250"
    },
    {
        "city": "Alagoinhas",
        "state": "BA",
        "district": "Jardim Petrolar",
        "street": "Rua Sao Jose",
        "zipcode": "48040-050"
    },
    {
        "city": "Alagoinhas",
        "state": "BA",
        "district": "Dois De Julho",
        "street": "Beco Rio Aramari",
        "zipcode": "48050-350"
    },
    {
        "city": "Alagoinhas",
        "state": "BA",
        "district": "Jardim Petrolar",
        "street": "Travessa Sao Jose",
        "zipcode": "48040-030"
    },
    {
        "city": "Alagoinhas",
        "state": "BA",
        "district": "Silva Jardim",
        "street": "Rua José Palmeira",
        "zipcode": "48060-097"
    },
    {
        "city": "Alagoinhas",
        "state": "BA",
        "district": "Silva Jardim",
        "street": "Rua Vale dos Lírios",
        "zipcode": "48060-103"
    },
    {
        "city": "Alagoinhas",
        "state": "BA",
        "district": "Dois De Julho",
        "street": "Rua Alvaro Dantas",
        "zipcode": "48050-300"
    },
    {
        "city": "Alagoinhas",
        "state": "BA",
        "district": "Jardim Petrolar",
        "street": "Rua Ipiranga",
        "zipcode": "48040-150"
    },
    {
        "city": "Alagoinhas",
        "state": "BA",
        "district": "Jardim Petrolar",
        "street": "Rua Francisco De Assis",
        "zipcode": "48040-120"
    },
    {
        "city": "Alagoinhas",
        "state": "BA",
        "district": "Silva Jardim",
        "street": "Rua Antônio Martins de Carvalho",
        "zipcode": "48060-041"
    },
    {
        "city": "Alagoinhas",
        "state": "BA",
        "district": "Jardim Petrolar",
        "street": "Rua Santos Dumont",
        "zipcode": "48040-100"
    },
    {
        "city": "Alagoinhas",
        "state": "BA",
        "district": "Barreiro",
        "street": "Rua Sao Gabriel",
        "zipcode": "48080-260"
    },
    {
        "city": "Alagoinhas",
        "state": "BA",
        "district": "Dois De Julho",
        "street": "Travessa Quatorze De Janeiro",
        "zipcode": "48050-260"
    },
    {
        "city": "Alagoinhas",
        "state": "BA",
        "district": "Jardim Petrolar",
        "street": "Rua Turmalina",
        "zipcode": "48040-140"
    },
    {
        "city": "Alagoinhas",
        "state": "BA",
        "district": "Dois De Julho",
        "street": "Travessa Sao Francisco",
        "zipcode": "48050-200"
    },
    {
        "city": "Alagoinhas",
        "state": "BA",
        "district": "Barreiro",
        "street": "Rua Antonio Carneiro",
        "zipcode": "48080-250"
    },
    {
        "city": "Alagoinhas",
        "state": "BA",
        "district": "Dois De Julho",
        "street": "Travessa Joao Amorim",
        "zipcode": "48050-180"
    },
    {
        "city": "Alagoinhas",
        "state": "BA",
        "district": "Teresopolis",
        "street": "Rua Manoel Da Silva",
        "zipcode": "48090-090"
    },
    {
        "city": "Alagoinhas",
        "state": "BA",
        "district": "Barreiro",
        "street": "Rua Murilo Cavalcante",
        "zipcode": "48080-270"
    },
    {
        "city": "Alagoinhas",
        "state": "BA",
        "district": "Teresopolis",
        "street": "Rua Jose Sobrinho Da Silva",
        "zipcode": "48090-080"
    },
    {
        "city": "Alagoinhas",
        "state": "BA",
        "district": "Jardim Petrolar",
        "street": "Rua Olavo Bilac",
        "zipcode": "48031-135"
    },
    {
        "city": "Alagoinhas",
        "state": "BA",
        "district": "Dois De Julho",
        "street": "Parque Diesel",
        "zipcode": "48050-310"
    },
    {
        "city": "Alagoinhas",
        "state": "BA",
        "district": "Dois De Julho",
        "street": "Rua Quatorze De Janeiro",
        "zipcode": "48050-250"
    },
    {
        "city": "Alagoinhas",
        "state": "BA",
        "district": "Centro",
        "street": "Rua Manoel Vitorino",
        "zipcode": "48080-000"
    },
    {
        "city": "Alagoinhas",
        "state": "BA",
        "district": "Silva Jardim",
        "street": "Rua Margem Da Linha",
        "zipcode": "48060-400"
    },
    {
        "city": "Alagoinhas",
        "state": "BA",
        "district": "Centro",
        "street": "Rua Lauro De Freitas",
        "zipcode": "48030-010"
    },
    {
        "city": "Alagoinhas",
        "state": "BA",
        "district": "Jardim Petrolar",
        "street": "Travessa Bahia",
        "zipcode": "48040-080"
    },
    {
        "city": "Alagoinhas",
        "state": "BA",
        "district": "Dois De Julho",
        "street": "Rua Ladislau Cavalcante",
        "zipcode": "48050-280"
    },
    {
        "city": "Alagoinhas",
        "state": "BA",
        "district": "Centro",
        "street": "Praça Barao Do Rio Branco",
        "zipcode": "48050-030"
    },
    {
        "city": "Alagoinhas",
        "state": "BA",
        "district": "Centro",
        "street": "Rua André Luiz",
        "zipcode": "48005-205"
    },
    {
        "city": "Alagoinhas",
        "state": "BA",
        "district": "Teresopolis",
        "street": "Conjunto Frei Leao",
        "zipcode": "48090-000"
    },
    {
        "city": "Alagoinhas",
        "state": "BA",
        "district": "Centro",
        "street": "Rua Quintino Bocaiuva",
        "zipcode": "48080-010"
    },
    {
        "city": "Alagoinhas",
        "state": "BA",
        "district": "Jardim Petrolar",
        "street": "Conjunto I Etapa Urbis",
        "zipcode": "48005-000"
    },
    {
        "city": "Alagoinhas",
        "state": "BA",
        "district": "Santa Terezinha",
        "street": "Loteamento Nosso Lar",
        "zipcode": "48020-290"
    },
    {
        "city": "Alagoinhas",
        "state": "BA",
        "district": "Jardim Petrolar",
        "street": "Rua Jorge Amado",
        "zipcode": "48040-130"
    },
    {
        "city": "Alagoinhas",
        "state": "BA",
        "district": "Mangalo",
        "street": "Travessa Manoel Onofre",
        "zipcode": "48060-120"
    },
    {
        "city": "Alagoinhas",
        "state": "BA",
        "district": "Dois De Julho",
        "street": "Jardim Sao Francisco",
        "zipcode": "48050-330"
    },
    {
        "city": "Alagoinhas",
        "state": "BA",
        "district": "Santa Terezinha",
        "street": "Avenida Silva",
        "zipcode": "48020-250"
    },
    {
        "city": "Alagoinhas",
        "state": "BA",
        "district": "Jardim Petrolar",
        "street": "Rua Santo Cristo",
        "zipcode": "48040-040"
    },
    {
        "city": "Alagoinhas",
        "state": "BA",
        "district": "Santa Terezinha",
        "street": "Travessa Padre Godinho",
        "zipcode": "48020-340"
    },
    {
        "city": "Alagoinhas",
        "state": "BA",
        "district": "Dois De Julho",
        "street": "Rua Dois De Julho",
        "zipcode": "48050-001"
    }
]