[
    {
        "city": "Campo Formoso",
        "state": "BA",
        "district": "Centro",
        "street": "Rua Celino da Silva Nunes s/n",
        "zipcode": "44797-970"
    },
    {
        "city": "Campo Formoso",
        "state": "BA",
        "district": "Brejão da Caatinga",
        "street": "Rua Principal s/n",
        "zipcode": "44790-975"
    },
    {
        "city": "Campo Formoso",
        "state": "BA",
        "district": "Brejo Grande",
        "street": "Rua Principal s/n",
        "zipcode": "44790-972"
    },
    {
        "city": "Campo Formoso",
        "state": "BA",
        "district": "Poços",
        "street": "Rua Sulplício José de Carvalho s/n",
        "zipcode": "44790-978"
    },
    {
        "city": "Campo Formoso",
        "state": "BA",
        "district": "Lage dos Negros",
        "street": "Rua Principal s/n",
        "zipcode": "44790-974"
    },
    {
        "city": "Campo Formoso",
        "state": "BA",
        "district": "",
        "street": "",
        "zipcode": "44790-000"
    },
    {
        "city": "Campo Formoso",
        "state": "BA",
        "district": "Centro",
        "street": "Rua Padre Bevenuto 11",
        "zipcode": "44790-970"
    },
    {
        "city": "Campo Formoso",
        "state": "BA",
        "district": "Tuiutiba",
        "street": "Praça do Comércio s/n",
        "zipcode": "44790-977"
    },
    {
        "city": "Campo Formoso",
        "state": "BA",
        "district": "São Tomé",
        "street": "Rua Principal s/n",
        "zipcode": "44790-976"
    },
    {
        "city": "Campo Formoso",
        "state": "BA",
        "district": "Araras",
        "street": "Rua Principal s/n",
        "zipcode": "44790-971"
    },
    {
        "city": "Campo Formoso",
        "state": "BA",
        "district": "Curral Velho",
        "street": "Rua Principal s/n",
        "zipcode": "44790-973"
    }
]