[
    {
        "city": "Candeias",
        "state": "BA",
        "district": "Nova Brasília",
        "street": "Rua Desembargador Teixeira de Freitas",
        "zipcode": "43810-235"
    },
    {
        "city": "Candeias",
        "state": "BA",
        "district": "Santo Antônio",
        "street": "Rua Santa Bárbara",
        "zipcode": "43825-130"
    },
    {
        "city": "Candeias",
        "state": "BA",
        "district": "Nova Brasília",
        "street": "Rua Estrada do Conselho",
        "zipcode": "43810-150"
    },
    {
        "city": "Candeias",
        "state": "BA",
        "district": "Nova Brasilia",
        "street": "Rua Desembargador Teixeira De Freitas",
        "zipcode": "43810-270"
    },
    {
        "city": "Candeias",
        "state": "BA",
        "district": "Malemba",
        "street": "Rua João Cândido",
        "zipcode": "43805-590"
    },
    {
        "city": "Candeias",
        "state": "BA",
        "district": "Nova Brasília",
        "street": "Rua do Asfalto",
        "zipcode": "43810-260"
    },
    {
        "city": "Candeias",
        "state": "BA",
        "district": "Malemba",
        "street": "Rua Iguaçu",
        "zipcode": "43805-600"
    },
    {
        "city": "Candeias",
        "state": "BA",
        "district": "Centro",
        "street": "Rua Antônio Pena",
        "zipcode": "43805-480"
    },
    {
        "city": "Candeias",
        "state": "BA",
        "district": "Nova Brasília",
        "street": "Rua Costa e Silva",
        "zipcode": "43810-170"
    },
    {
        "city": "Candeias",
        "state": "BA",
        "district": "Nova Candeias",
        "street": "Rua Jorge Amado",
        "zipcode": "43815-310"
    },
    {
        "city": "Candeias",
        "state": "BA",
        "district": "Triangulo",
        "street": "Rua Wanderley Araujo De Pinho",
        "zipcode": "43815-080"
    },
    {
        "city": "Candeias",
        "state": "BA",
        "district": "Nova Brasília",
        "street": "Travessa Desembargador Teixeira de Freitas",
        "zipcode": "43810-255"
    },
    {
        "city": "Candeias",
        "state": "BA",
        "district": "Pitanga",
        "street": "Rua Maceió",
        "zipcode": "43810-380"
    },
    {
        "city": "Candeias",
        "state": "BA",
        "district": "Centro",
        "street": "Rua Amazonas",
        "zipcode": "43805-080"
    },
    {
        "city": "Candeias",
        "state": "BA",
        "district": "Malemba",
        "street": "Rua Ana Nery",
        "zipcode": "43805-680"
    },
    {
        "city": "Candeias",
        "state": "BA",
        "district": "Triângulo",
        "street": "Rua Ana Nery",
        "zipcode": "43815-040"
    },
    {
        "city": "Candeias",
        "state": "BA",
        "district": "Triângulo",
        "street": "Rua Andaluzia",
        "zipcode": "43815-050"
    },
    {
        "city": "Candeias",
        "state": "BA",
        "district": "Centro",
        "street": "Rua Antônio Martins",
        "zipcode": "43805-230"
    },
    {
        "city": "Candeias",
        "state": "BA",
        "district": "Malemba",
        "street": "Rua Bela Vista",
        "zipcode": "43805-560"
    },
    {
        "city": "Candeias",
        "state": "BA",
        "district": "Malemba",
        "street": "Travessa Boa Vista",
        "zipcode": "43805-510"
    },
    {
        "city": "Candeias",
        "state": "BA",
        "district": "Malemba",
        "street": "Rua Boa Vista",
        "zipcode": "43805-520"
    },
    {
        "city": "Candeias",
        "state": "BA",
        "district": "Centro",
        "street": "Rua Cajueiro",
        "zipcode": "43805-340"
    },
    {
        "city": "Candeias",
        "state": "BA",
        "district": "Areia",
        "street": "Rua Calmon",
        "zipcode": "43825-210"
    },
    {
        "city": "Candeias",
        "state": "BA",
        "district": "Triângulo",
        "street": "Rua Camurugipe",
        "zipcode": "43815-065"
    },
    {
        "city": "Candeias",
        "state": "BA",
        "district": "Malemba",
        "street": "Rua Clarindo Santos",
        "zipcode": "43805-640"
    },
    {
        "city": "Candeias",
        "state": "BA",
        "district": "Malemba",
        "street": "Rua da Creche",
        "zipcode": "43805-710"
    },
    {
        "city": "Candeias",
        "state": "BA",
        "district": "Centro",
        "street": "Rua das Flores",
        "zipcode": "43810-020"
    },
    {
        "city": "Candeias",
        "state": "BA",
        "district": "Centro",
        "street": "Travessa das Flores",
        "zipcode": "43810-120"
    },
    {
        "city": "Candeias",
        "state": "BA",
        "district": "Centro",
        "street": "Rua das Fontes",
        "zipcode": "43810-030"
    },
    {
        "city": "Candeias",
        "state": "BA",
        "district": "Centro",
        "street": "Travessa das Fontes",
        "zipcode": "43810-130"
    },
    {
        "city": "Candeias",
        "state": "BA",
        "district": "Malemba",
        "street": "Rua Joana Angélica",
        "zipcode": "43805-570"
    },
    {
        "city": "Candeias",
        "state": "BA",
        "district": "Malemba",
        "street": "Rua da Ladeira",
        "zipcode": "43825-450"
    },
    {
        "city": "Candeias",
        "state": "BA",
        "district": "Malemba",
        "street": "Rua da Mangueira",
        "zipcode": "43805-650"
    },
    {
        "city": "Candeias",
        "state": "BA",
        "district": "Malemba",
        "street": "Praça Milton Bulcão",
        "zipcode": "43805-660"
    },
    {
        "city": "Candeias",
        "state": "BA",
        "district": "Nova Candeias",
        "street": "Rua Nazaré",
        "zipcode": "43815-180"
    },
    {
        "city": "Candeias",
        "state": "BA",
        "district": "Centro",
        "street": "Rua Nita Costa",
        "zipcode": "43805-470"
    },
    {
        "city": "Candeias",
        "state": "BA",
        "district": "Centro",
        "street": "Rua Nossa Senhora Aparecida",
        "zipcode": "43810-060"
    },
    {
        "city": "Candeias",
        "state": "BA",
        "district": "Centro",
        "street": "Rua Nossa Senhora das Candeias",
        "zipcode": "43805-440"
    },
    {
        "city": "Candeias",
        "state": "BA",
        "district": "Centro",
        "street": "Rua da Paz",
        "zipcode": "43805-320"
    },
    {
        "city": "Candeias",
        "state": "BA",
        "district": "Centro",
        "street": "Travessa São Francisco de Assis",
        "zipcode": "43810-010"
    },
    {
        "city": "Candeias",
        "state": "BA",
        "district": "Triângulo",
        "street": "Rua Princesa Izabel",
        "zipcode": "43815-030"
    },
    {
        "city": "Candeias",
        "state": "BA",
        "district": "Centro",
        "street": "Rua Quinze de Novembro",
        "zipcode": "43805-380"
    },
    {
        "city": "Candeias",
        "state": "BA",
        "district": "Centro",
        "street": "Rua Rio Prado",
        "zipcode": "43805-180"
    },
    {
        "city": "Candeias",
        "state": "BA",
        "district": "Centro",
        "street": "Rua Ruy Barbosa",
        "zipcode": "43805-100"
    },
    {
        "city": "Candeias",
        "state": "BA",
        "district": "Centro",
        "street": "Rua Santa Clara",
        "zipcode": "43805-370"
    },
    {
        "city": "Candeias",
        "state": "BA",
        "district": "Centro",
        "street": "Rua São Jorge",
        "zipcode": "43810-040"
    },
    {
        "city": "Candeias",
        "state": "BA",
        "district": "Centro",
        "street": "Travessa São Lázaro",
        "zipcode": "43805-050"
    },
    {
        "city": "Candeias",
        "state": "BA",
        "district": "Centro",
        "street": "Rua São Paulo",
        "zipcode": "43805-420"
    },
    {
        "city": "Candeias",
        "state": "BA",
        "district": "Malemba",
        "street": "Travessa São Roque",
        "zipcode": "43805-740"
    },
    {
        "city": "Candeias",
        "state": "BA",
        "district": "Malemba",
        "street": "Rua São Roque",
        "zipcode": "43825-440"
    },
    {
        "city": "Candeias",
        "state": "BA",
        "district": "Urbis I",
        "street": "Conjunto Urbis I",
        "zipcode": "43806-000"
    },
    {
        "city": "Candeias",
        "state": "BA",
        "district": "Centro",
        "street": "Travessa Vinte e Um de Abril",
        "zipcode": "43805-170"
    },
    {
        "city": "Candeias",
        "state": "BA",
        "district": "Centro",
        "street": "Rua Vinte e Um de Abril",
        "zipcode": "43805-160"
    },
    {
        "city": "Candeias",
        "state": "BA",
        "district": "Centro",
        "street": "Rua Esperança",
        "zipcode": "43805-120"
    },
    {
        "city": "Candeias",
        "state": "BA",
        "district": "Centro",
        "street": "Rua da Vitória",
        "zipcode": "43805-150"
    },
    {
        "city": "Candeias",
        "state": "BA",
        "district": "Centro",
        "street": "Rua Nova do Passé",
        "zipcode": "43805-110"
    },
    {
        "city": "Candeias",
        "state": "BA",
        "district": "Malemba",
        "street": "Rua dos Pinheiros",
        "zipcode": "43805-615"
    },
    {
        "city": "Candeias",
        "state": "BA",
        "district": "Distrito Industrial",
        "street": "Rodovia BR",
        "zipcode": "43813-400"
    },
    {
        "city": "Candeias",
        "state": "BA",
        "district": "Nova Brasília",
        "street": "Travessa A",
        "zipcode": "43810-190"
    },
    {
        "city": "Candeias",
        "state": "BA",
        "district": "Pitanga",
        "street": "Travessa Alagoas",
        "zipcode": "43810-340"
    },
    {
        "city": "Candeias",
        "state": "BA",
        "district": "Pitanga",
        "street": "Rua Alagoas",
        "zipcode": "43810-390"
    },
    {
        "city": "Candeias",
        "state": "BA",
        "district": "Malemba",
        "street": "Rua do Alecrim",
        "zipcode": "43825-360"
    },
    {
        "city": "Candeias",
        "state": "BA",
        "district": "Nova Brasília",
        "street": "Rua Antônio Aníbal Fracasso",
        "zipcode": "43810-180"
    },
    {
        "city": "Candeias",
        "state": "BA",
        "district": "Sarandy",
        "street": "Travessa Aracaju",
        "zipcode": "43820-400"
    },
    {
        "city": "Candeias",
        "state": "BA",
        "district": "Nova Candeias",
        "street": "Travessa Bahia",
        "zipcode": "43815-210"
    },
    {
        "city": "Candeias",
        "state": "BA",
        "district": "Santo Antônio",
        "street": "Rua Barão do Rio Branco",
        "zipcode": "43820-190"
    },
    {
        "city": "Candeias",
        "state": "BA",
        "district": "Sarandy",
        "street": "Rua Beco do Boi",
        "zipcode": "43820-480"
    },
    {
        "city": "Candeias",
        "state": "BA",
        "district": "Malemba",
        "street": "Travessa Bela Vista",
        "zipcode": "43825-430"
    },
    {
        "city": "Candeias",
        "state": "BA",
        "district": "Malemba",
        "street": "Rua Belo Jardim",
        "zipcode": "43825-400"
    },
    {
        "city": "Candeias",
        "state": "BA",
        "district": "Nova Candeias",
        "street": "Rua Boa Fé",
        "zipcode": "43815-410"
    },
    {
        "city": "Candeias",
        "state": "BA",
        "district": "Nova Brasília",
        "street": "Rua do Campo",
        "zipcode": "43810-230"
    },
    {
        "city": "Candeias",
        "state": "BA",
        "district": "Sarandy",
        "street": "Rua Caramuru",
        "zipcode": "43820-440"
    },
    {
        "city": "Candeias",
        "state": "BA",
        "district": "Pitanga",
        "street": "Rua Ceará",
        "zipcode": "43810-290"
    },
    {
        "city": "Candeias",
        "state": "BA",
        "district": "Pitanga",
        "street": "Rua Cruzador Bahia",
        "zipcode": "43810-360"
    },
    {
        "city": "Candeias",
        "state": "BA",
        "district": "Nova Candeias",
        "street": "Rua Espírito Santo",
        "zipcode": "43815-260"
    },
    {
        "city": "Candeias",
        "state": "BA",
        "district": "Santo Antônio",
        "street": "Rua Gaspar Dutra",
        "zipcode": "43820-090"
    },
    {
        "city": "Candeias",
        "state": "BA",
        "district": "Santo Antônio",
        "street": "Travessa Getúlio Vargas",
        "zipcode": "43820-160"
    },
    {
        "city": "Candeias",
        "state": "BA",
        "district": "Pitanga",
        "street": "Travessa Guanabara",
        "zipcode": "43810-410"
    },
    {
        "city": "Candeias",
        "state": "BA",
        "district": "Nova Brasília",
        "street": "Rua Irmã Dulce",
        "zipcode": "43810-240"
    },
    {
        "city": "Candeias",
        "state": "BA",
        "district": "Nova Candeias",
        "street": "Rua Itajubara",
        "zipcode": "43815-450"
    },
    {
        "city": "Candeias",
        "state": "BA",
        "district": "Santo Antônio",
        "street": "Rua Itororós",
        "zipcode": "43820-040"
    },
    {
        "city": "Candeias",
        "state": "BA",
        "district": "Santo Antônio",
        "street": "Rua Marechal Floriano Peixoto",
        "zipcode": "43820-020"
    },
    {
        "city": "Candeias",
        "state": "BA",
        "district": "Santo Antônio",
        "street": "Travessa Marechal Floriano Peixoto",
        "zipcode": "43820-210"
    },
    {
        "city": "Candeias",
        "state": "BA",
        "district": "Nova Brasília",
        "street": "Rua Miguel Calmon",
        "zipcode": "43810-220"
    },
    {
        "city": "Candeias",
        "state": "BA",
        "district": "Nova Candeias",
        "street": "Rua Nilo Peçanha",
        "zipcode": "43815-280"
    },
    {
        "city": "Candeias",
        "state": "BA",
        "district": "Pitanga",
        "street": "Rua Niterói",
        "zipcode": "43810-370"
    },
    {
        "city": "Candeias",
        "state": "BA",
        "district": "Santo Antônio",
        "street": "Rua Nova Pojuca",
        "zipcode": "43820-140"
    },
    {
        "city": "Candeias",
        "state": "BA",
        "district": "Sarandy",
        "street": "Rua Pará",
        "zipcode": "43820-460"
    },
    {
        "city": "Candeias",
        "state": "BA",
        "district": "Santo Antônio",
        "street": "Travessa do Pio",
        "zipcode": "43820-120"
    },
    {
        "city": "Candeias",
        "state": "BA",
        "district": "Santo Antônio",
        "street": "Rua do Pio",
        "zipcode": "43820-110"
    },
    {
        "city": "Candeias",
        "state": "BA",
        "district": "Santo Antônio",
        "street": "Rua Pojuca",
        "zipcode": "43820-080"
    },
    {
        "city": "Candeias",
        "state": "BA",
        "district": "Nova Candeias",
        "street": "Rua Professor Dásio",
        "zipcode": "43815-250"
    },
    {
        "city": "Candeias",
        "state": "BA",
        "district": "Nova Candeias",
        "street": "Travessa Professor Dásio",
        "zipcode": "43815-430"
    },
    {
        "city": "Candeias",
        "state": "BA",
        "district": "Nova Candeias",
        "street": "Rua Santos Dumont",
        "zipcode": "43815-340"
    },
    {
        "city": "Candeias",
        "state": "BA",
        "district": "Nova Candeias",
        "street": "Travessa Santos Dumont",
        "zipcode": "43815-350"
    },
    {
        "city": "Candeias",
        "state": "BA",
        "district": "Malemba",
        "street": "Rua São Braz",
        "zipcode": "43825-380"
    },
    {
        "city": "Candeias",
        "state": "BA",
        "district": "Centro",
        "street": "Rua São José",
        "zipcode": "43805-020"
    },
    {
        "city": "Candeias",
        "state": "BA",
        "district": "Centro",
        "street": "Travessa São José",
        "zipcode": "43805-030"
    },
    {
        "city": "Candeias",
        "state": "BA",
        "district": "Sarandy",
        "street": "Rua Senhor do Bonfim",
        "zipcode": "43820-470"
    },
    {
        "city": "Candeias",
        "state": "BA",
        "district": "Nova Candeias",
        "street": "Rua Tancredo Neves",
        "zipcode": "43815-360"
    },
    {
        "city": "Candeias",
        "state": "BA",
        "district": "Santo Antônio",
        "street": "Rua Tapajós",
        "zipcode": "43820-060"
    },
    {
        "city": "Candeias",
        "state": "BA",
        "district": "Santo Antônio",
        "street": "Rua Tingui",
        "zipcode": "43820-170"
    },
    {
        "city": "Candeias",
        "state": "BA",
        "district": "Sarandy",
        "street": "Rua Tiradentes",
        "zipcode": "43820-420"
    },
    {
        "city": "Candeias",
        "state": "BA",
        "district": "Centro",
        "street": "Rua Treze de Maio",
        "zipcode": "43805-000"
    },
    {
        "city": "Candeias",
        "state": "BA",
        "district": "Nova Candeias",
        "street": "Rua Visconde de Tunay",
        "zipcode": "43815-330"
    },
    {
        "city": "Candeias",
        "state": "BA",
        "district": "Nova Candeias",
        "street": "Travessa Boa Fé",
        "zipcode": "43815-290"
    },
    {
        "city": "Candeias",
        "state": "BA",
        "district": "Nova Candeias",
        "street": "Rua Campo Formoso",
        "zipcode": "43815-230"
    },
    {
        "city": "Candeias",
        "state": "BA",
        "district": "Centro",
        "street": "Praça Tiradentes",
        "zipcode": "43805-220"
    },
    {
        "city": "Candeias",
        "state": "BA",
        "district": "Sarandy",
        "street": "Rua Dom João VI",
        "zipcode": "43820-380"
    },
    {
        "city": "Candeias",
        "state": "BA",
        "district": "Nova Candeias",
        "street": "Rua São Félix",
        "zipcode": "43815-420"
    },
    {
        "city": "Candeias",
        "state": "BA",
        "district": "Centro",
        "street": "Rua Alto da Boa Vista",
        "zipcode": "43805-035"
    },
    {
        "city": "Candeias",
        "state": "BA",
        "district": "Pitanga",
        "street": "Rua Guanabara",
        "zipcode": "43810-310"
    },
    {
        "city": "Candeias",
        "state": "BA",
        "district": "Santo Antônio",
        "street": "Rua Alto da Capelinha",
        "zipcode": "43820-050"
    },
    {
        "city": "Candeias",
        "state": "BA",
        "district": "Santo Antônio",
        "street": "Rua Alto do Dendê",
        "zipcode": "43825-070"
    },
    {
        "city": "Candeias",
        "state": "BA",
        "district": "Triângulo",
        "street": "Travessa Andaluzia",
        "zipcode": "43815-060"
    },
    {
        "city": "Candeias",
        "state": "BA",
        "district": "Nova Candeias",
        "street": "Avenida Antônio Paterson",
        "zipcode": "43815-370"
    },
    {
        "city": "Candeias",
        "state": "BA",
        "district": "Sarandy",
        "street": "Rua Aracaju",
        "zipcode": "43820-390"
    },
    {
        "city": "Candeias",
        "state": "BA",
        "district": "Sarandy",
        "street": "Travessa Araújo Pinho",
        "zipcode": "43820-330"
    },
    {
        "city": "Candeias",
        "state": "BA",
        "district": "Santo Antônio",
        "street": "Travessa Barão do Rio Branco",
        "zipcode": "43825-120"
    },
    {
        "city": "Candeias",
        "state": "BA",
        "district": "Nova Candeias",
        "street": "Rua Bariloche",
        "zipcode": "43815-270"
    },
    {
        "city": "Candeias",
        "state": "BA",
        "district": "Areia",
        "street": "Travessa Calmon",
        "zipcode": "43825-220"
    },
    {
        "city": "Candeias",
        "state": "BA",
        "district": "Triângulo",
        "street": "Travessa Camurugipe",
        "zipcode": "43815-070"
    },
    {
        "city": "Candeias",
        "state": "BA",
        "district": "Sarandy",
        "street": "Avenida David Caldeira",
        "zipcode": "43820-280"
    },
    {
        "city": "Candeias",
        "state": "BA",
        "district": "Malemba",
        "street": "Travessa David Caldeira",
        "zipcode": "43825-250"
    },
    {
        "city": "Candeias",
        "state": "BA",
        "district": "Areia",
        "street": "Rua Dom Bosco",
        "zipcode": "43825-170"
    },
    {
        "city": "Candeias",
        "state": "BA",
        "district": "Centro",
        "street": "Rua Dom Pedro I",
        "zipcode": "43810-110"
    },
    {
        "city": "Candeias",
        "state": "BA",
        "district": "Nova Candeias",
        "street": "Rua Duarte da Costa",
        "zipcode": "43815-130"
    },
    {
        "city": "Candeias",
        "state": "BA",
        "district": "Santo Antônio",
        "street": "Rua Duque de Caxias",
        "zipcode": "43820-150"
    },
    {
        "city": "Candeias",
        "state": "BA",
        "district": "Nova Candeias",
        "street": "Travessa Espírito Santo",
        "zipcode": "43815-400"
    },
    {
        "city": "Candeias",
        "state": "BA",
        "district": "Santo Antônio",
        "street": "Travessa Gaspar Dutra",
        "zipcode": "43820-100"
    },
    {
        "city": "Candeias",
        "state": "BA",
        "district": "Areia",
        "street": "Rua Getúlio Vargas",
        "zipcode": "43825-141"
    },
    {
        "city": "Candeias",
        "state": "BA",
        "district": "Santo Antônio",
        "street": "Rua Getúlio Vargas",
        "zipcode": "43825-104"
    },
    {
        "city": "Candeias",
        "state": "BA",
        "district": "Areia",
        "street": "Travessa Getúlio Vargas",
        "zipcode": "43825-150"
    },
    {
        "city": "Candeias",
        "state": "BA",
        "district": "Nova Candeias",
        "street": "Travessa Itajubara",
        "zipcode": "43815-100"
    },
    {
        "city": "Candeias",
        "state": "BA",
        "district": "Sarandy",
        "street": "Travessa Itapoan",
        "zipcode": "43820-370"
    },
    {
        "city": "Candeias",
        "state": "BA",
        "district": "Sarandy",
        "street": "Rua Itapoan",
        "zipcode": "43820-360"
    },
    {
        "city": "Candeias",
        "state": "BA",
        "district": "Nova Candeias",
        "street": "Travessa Javari",
        "zipcode": "43815-090"
    },
    {
        "city": "Candeias",
        "state": "BA",
        "district": "Nova Brasília",
        "street": "Rua Joana DArc",
        "zipcode": "43810-250"
    },
    {
        "city": "Candeias",
        "state": "BA",
        "district": "Centro",
        "street": "Rua José Bonifácio",
        "zipcode": "43810-100"
    },
    {
        "city": "Candeias",
        "state": "BA",
        "district": "Malemba",
        "street": "Rua José Xavier",
        "zipcode": "43825-240"
    },
    {
        "city": "Candeias",
        "state": "BA",
        "district": "Pitanga",
        "street": "Rua Leste",
        "zipcode": "43810-280"
    },
    {
        "city": "Candeias",
        "state": "BA",
        "district": "Malemba",
        "street": "Rua Marechal Hermes",
        "zipcode": "43825-260"
    },
    {
        "city": "Candeias",
        "state": "BA",
        "district": "Centro",
        "street": "Travessa dos Missionários",
        "zipcode": "43805-460"
    },
    {
        "city": "Candeias",
        "state": "BA",
        "district": "Nova Candeias",
        "street": "Rua Oscar Seixas",
        "zipcode": "43815-170"
    },
    {
        "city": "Candeias",
        "state": "BA",
        "district": "Santo Antônio",
        "street": "Rua Padre Antônio Góes",
        "zipcode": "43820-220"
    },
    {
        "city": "Candeias",
        "state": "BA",
        "district": "Nova Candeias",
        "street": "Rua Paralela",
        "zipcode": "43815-160"
    },
    {
        "city": "Candeias",
        "state": "BA",
        "district": "Nova Candeias",
        "street": "Rua Roberto Marinho",
        "zipcode": "43815-320"
    },
    {
        "city": "Candeias",
        "state": "BA",
        "district": "Santo Antônio",
        "street": "Rua San Martins",
        "zipcode": "43825-020"
    },
    {
        "city": "Candeias",
        "state": "BA",
        "district": "Malemba",
        "street": "Rua Santa Isabel",
        "zipcode": "43825-290"
    },
    {
        "city": "Candeias",
        "state": "BA",
        "district": "Nova Candeias",
        "street": "Rua Santana",
        "zipcode": "43815-150"
    },
    {
        "city": "Candeias",
        "state": "BA",
        "district": "Sarandy",
        "street": "Rua Santo Amaro",
        "zipcode": "43820-290"
    },
    {
        "city": "Candeias",
        "state": "BA",
        "district": "Malemba",
        "street": "Rua São Bento",
        "zipcode": "43825-350"
    },
    {
        "city": "Candeias",
        "state": "BA",
        "district": "Sarandy",
        "street": "Rua São Francisco",
        "zipcode": "43820-300"
    },
    {
        "city": "Candeias",
        "state": "BA",
        "district": "Santo Antônio",
        "street": "Travessa São Geraldo",
        "zipcode": "43820-200"
    },
    {
        "city": "Candeias",
        "state": "BA",
        "district": "Centro",
        "street": "Travessa São Jorge",
        "zipcode": "43810-050"
    },
    {
        "city": "Candeias",
        "state": "BA",
        "district": "Malemba",
        "street": "Rua São Matheus",
        "zipcode": "43825-280"
    },
    {
        "city": "Candeias",
        "state": "BA",
        "district": "Malemba",
        "street": "Rua São Miguel",
        "zipcode": "43825-320"
    },
    {
        "city": "Candeias",
        "state": "BA",
        "district": "Sarandy",
        "street": "Rua São Roque",
        "zipcode": "43820-270"
    },
    {
        "city": "Candeias",
        "state": "BA",
        "district": "Sarandy",
        "street": "Rua Tomé de Souza",
        "zipcode": "43820-255"
    },
    {
        "city": "Candeias",
        "state": "BA",
        "district": "Santo Antônio",
        "street": "Travessa Trinta e Um de Março",
        "zipcode": "43820-230"
    },
    {
        "city": "Candeias",
        "state": "BA",
        "district": "Areia",
        "street": "Rua Voluntários da Pátria",
        "zipcode": "43825-180"
    },
    {
        "city": "Candeias",
        "state": "BA",
        "district": "Centro",
        "street": "Rua Cinco de Dezembro",
        "zipcode": "43805-400"
    },
    {
        "city": "Candeias",
        "state": "BA",
        "district": "Santo Antônio",
        "street": "Rua do Dendê",
        "zipcode": "43825-080"
    },
    {
        "city": "Candeias",
        "state": "BA",
        "district": "Sarandy",
        "street": "Rua Marechal Floriano Peixoto",
        "zipcode": "43820-265"
    },
    {
        "city": "Candeias",
        "state": "BA",
        "district": "Sarandy",
        "street": "Rua Sergipe",
        "zipcode": "43820-250"
    },
    {
        "city": "Candeias",
        "state": "BA",
        "district": null,
        "street": "Rua Ruy Barbosa",
        "zipcode": "43800-990"
    },
    {
        "city": "Candeias",
        "state": "BA",
        "district": null,
        "street": "Rua da Matriz",
        "zipcode": "43800-994"
    },
    {
        "city": "Candeias",
        "state": "BA",
        "district": "Centro",
        "street": "Praça Doutor Gualberto Dantas Fontes",
        "zipcode": "43805-902"
    },
    {
        "city": "Candeias",
        "state": "BA",
        "district": "Nova Candeias",
        "street": "Rua Bahia",
        "zipcode": "43815-200"
    },
    {
        "city": "Candeias",
        "state": "BA",
        "district": "Santo Antônio",
        "street": "Rua Barão do Rio Branco",
        "zipcode": "43825-010"
    },
    {
        "city": "Candeias",
        "state": "BA",
        "district": "Santo Antônio",
        "street": "Rua Campos Sales",
        "zipcode": "43820-130"
    },
    {
        "city": "Candeias",
        "state": "BA",
        "district": "Sarandy",
        "street": "Travessa Caramuru",
        "zipcode": "43820-450"
    },
    {
        "city": "Candeias",
        "state": "BA",
        "district": "Centro",
        "street": "Travessa Cinco de Dezembro",
        "zipcode": "43805-410"
    },
    {
        "city": "Candeias",
        "state": "BA",
        "district": "Nova Candeias",
        "street": "Rua Conselheiro Lafaiete",
        "zipcode": "43815-220"
    },
    {
        "city": "Candeias",
        "state": "BA",
        "district": "Centro",
        "street": "Rua Constantino Pacheco",
        "zipcode": "43805-310"
    },
    {
        "city": "Candeias",
        "state": "BA",
        "district": "Centro",
        "street": "Travessa do Cruzeiro",
        "zipcode": "43805-490"
    },
    {
        "city": "Candeias",
        "state": "BA",
        "district": "Malemba",
        "street": "Rua David Caldeira",
        "zipcode": "43825-310"
    },
    {
        "city": "Candeias",
        "state": "BA",
        "district": "Pitanga",
        "street": "Rua Desembargador Teixeira de Freitas",
        "zipcode": "43810-271"
    },
    {
        "city": "Candeias",
        "state": "BA",
        "district": "Centro",
        "street": "Rua Dois de Fevereiro",
        "zipcode": "43805-200"
    },
    {
        "city": "Candeias",
        "state": "BA",
        "district": "Centro",
        "street": "Praça Doutor Gualberto Dantas Fontes",
        "zipcode": "43805-010"
    },
    {
        "city": "Candeias",
        "state": "BA",
        "district": "Nova Candeias",
        "street": "Rua Egberto Ferreira",
        "zipcode": "43815-300"
    },
    {
        "city": "Candeias",
        "state": "BA",
        "district": "Nova Brasília",
        "street": "Rua Orácio Pinto",
        "zipcode": "43810-140"
    },
    {
        "city": "Candeias",
        "state": "BA",
        "district": "Centro",
        "street": "Rua Padre Nóbrega",
        "zipcode": "43810-090"
    },
    {
        "city": "Candeias",
        "state": "BA",
        "district": "Centro",
        "street": "Travessa Esperança",
        "zipcode": "43805-140"
    },
    {
        "city": "Candeias",
        "state": "BA",
        "district": "Malemba",
        "street": "Travessa do Estádio",
        "zipcode": "43805-670"
    },
    {
        "city": "Candeias",
        "state": "BA",
        "district": "Areia",
        "street": "Rua General Osório",
        "zipcode": "43825-160"
    },
    {
        "city": "Candeias",
        "state": "BA",
        "district": "Nova Candeias",
        "street": "Rua Javari",
        "zipcode": "43815-390"
    },
    {
        "city": "Candeias",
        "state": "BA",
        "district": "Pitanga",
        "street": "Travessa Joana DArc",
        "zipcode": "43810-420"
    },
    {
        "city": "Candeias",
        "state": "BA",
        "district": "Malemba",
        "street": "Rua João das Botas",
        "zipcode": "43825-390"
    },
    {
        "city": "Candeias",
        "state": "BA",
        "district": "Malemba",
        "street": "Rua José Xavier",
        "zipcode": "43805-580"
    },
    {
        "city": "Candeias",
        "state": "BA",
        "district": "Santo Antônio",
        "street": "Rua Marechal Deodoro",
        "zipcode": "43820-010"
    },
    {
        "city": "Candeias",
        "state": "BA",
        "district": "Nova Candeias",
        "street": "Rua Mundo Novo",
        "zipcode": "43815-240"
    },
    {
        "city": "Candeias",
        "state": "BA",
        "district": "Centro",
        "street": "Rua do Passé",
        "zipcode": "43805-090"
    },
    {
        "city": "Candeias",
        "state": "BA",
        "district": "Nova Candeias",
        "street": "Rua Presidente Médici",
        "zipcode": "43815-120"
    },
    {
        "city": "Candeias",
        "state": "BA",
        "district": "Triângulo",
        "street": "Rua Quatorze de Agosto",
        "zipcode": "43815-020"
    },
    {
        "city": "Candeias",
        "state": "BA",
        "district": "Pitanga",
        "street": "Rua Rio de Janeiro",
        "zipcode": "43810-350"
    },
    {
        "city": "Candeias",
        "state": "BA",
        "district": "Nova Candeias",
        "street": "Travessa Santana",
        "zipcode": "43815-440"
    },
    {
        "city": "Candeias",
        "state": "BA",
        "district": "Centro",
        "street": "Rua Santo Antônio",
        "zipcode": "43805-070"
    },
    {
        "city": "Candeias",
        "state": "BA",
        "district": "Centro",
        "street": "Rua São Bartolomeu",
        "zipcode": "43805-060"
    },
    {
        "city": "Candeias",
        "state": "BA",
        "district": "Pitanga",
        "street": "Rua São Luís",
        "zipcode": "43810-330"
    },
    {
        "city": "Candeias",
        "state": "BA",
        "district": "Centro",
        "street": "Travessa São Paulo",
        "zipcode": "43805-430"
    },
    {
        "city": "Candeias",
        "state": "BA",
        "district": "Sarandy",
        "street": "Travessa Sergipe",
        "zipcode": "43820-260"
    },
    {
        "city": "Candeias",
        "state": "BA",
        "district": "Centro",
        "street": "Travessa Sete de Setembro",
        "zipcode": "43805-360"
    },
    {
        "city": "Candeias",
        "state": "BA",
        "district": "Centro",
        "street": "Rua Sete de Setembro",
        "zipcode": "43805-350"
    },
    {
        "city": "Candeias",
        "state": "BA",
        "district": "Santo Antônio",
        "street": "Travessa Tapajós",
        "zipcode": "43820-070"
    },
    {
        "city": "Candeias",
        "state": "BA",
        "district": "Sarandy",
        "street": "Rua Tobias Barreto",
        "zipcode": "43820-310"
    },
    {
        "city": "Candeias",
        "state": "BA",
        "district": "Santo Antônio",
        "street": "Rua Trinta e Um de Março",
        "zipcode": "43820-240"
    },
    {
        "city": "Candeias",
        "state": "BA",
        "district": "Centro",
        "street": "Rua Vidal Negreiro",
        "zipcode": "43805-130"
    },
    {
        "city": "Candeias",
        "state": "BA",
        "district": "Santo Antônio",
        "street": "Rua Visconde de Tamandaré",
        "zipcode": "43825-100"
    },
    {
        "city": "Candeias",
        "state": "BA",
        "district": "Centro",
        "street": "Travessa Rio Prado",
        "zipcode": "43805-190"
    },
    {
        "city": "Candeias",
        "state": "BA",
        "district": "Malemba",
        "street": "Travessa do Poço",
        "zipcode": "43825-230"
    },
    {
        "city": "Candeias",
        "state": "BA",
        "district": "Malemba",
        "street": "Rua Santa Rita",
        "zipcode": "43825-330"
    },
    {
        "city": "Candeias",
        "state": "BA",
        "district": "Centro",
        "street": "Rua São Lázaro",
        "zipcode": "43805-040"
    },
    {
        "city": "Candeias",
        "state": "BA",
        "district": "Centro",
        "street": "Travessa Quinze de Novembro",
        "zipcode": "43805-390"
    },
    {
        "city": "Candeias",
        "state": "BA",
        "district": "Nova Candeias",
        "street": "Rua Sapeaçu",
        "zipcode": "43815-190"
    },
    {
        "city": "Candeias",
        "state": "BA",
        "district": "Distrito Industrial",
        "street": "Rodovia BA",
        "zipcode": "43813-300"
    },
    {
        "city": "Candeias",
        "state": "BA",
        "district": "Área Rural de Candeias",
        "street": "Área Rural",
        "zipcode": "43839-899"
    },
    {
        "city": "Candeias",
        "state": "BA",
        "district": null,
        "street": "Rua Frei Caneca",
        "zipcode": "43800-993"
    },
    {
        "city": "Candeias",
        "state": "BA",
        "district": "Centro",
        "street": "Praça Doutor Gualberto Dantas Fontes",
        "zipcode": "43805-901"
    },
    {
        "city": "Candeias",
        "state": "BA",
        "district": "Sarandy",
        "street": "Travessa Beco do Boi",
        "zipcode": "43820-490"
    },
    {
        "city": "Candeias",
        "state": "BA",
        "district": "Malemba",
        "street": "Rua Campo Grande",
        "zipcode": "43805-630"
    },
    {
        "city": "Candeias",
        "state": "BA",
        "district": "Centro",
        "street": "Rua Dom Gerônimo Tomé",
        "zipcode": "43805-330"
    },
    {
        "city": "Candeias",
        "state": "BA",
        "district": "Nova Brasília",
        "street": "Travessa Aliomar",
        "zipcode": "43810-210"
    },
    {
        "city": "Candeias",
        "state": "BA",
        "district": "Areia",
        "street": "Rua Dois de Julho",
        "zipcode": "43825-190"
    },
    {
        "city": "Candeias",
        "state": "BA",
        "district": "Santo Antônio",
        "street": "Rua do Brejo",
        "zipcode": "43825-090"
    },
    {
        "city": "Candeias",
        "state": "BA",
        "district": "Malemba",
        "street": "Travessa Floriano Ferreira",
        "zipcode": "43805-700"
    },
    {
        "city": "Candeias",
        "state": "BA",
        "district": "Malemba",
        "street": "Rua Floriano Ferreira",
        "zipcode": "43805-690"
    },
    {
        "city": "Candeias",
        "state": "BA",
        "district": "Pitanga",
        "street": "Rua do Asfalto",
        "zipcode": "43810-261"
    },
    {
        "city": "Candeias",
        "state": "BA",
        "district": "Sarandy",
        "street": "Rua Afonso Pena",
        "zipcode": "43820-430"
    },
    {
        "city": "Candeias",
        "state": "BA",
        "district": "Santo Antônio",
        "street": "Rua Lady Diane",
        "zipcode": "43825-040"
    },
    {
        "city": "Candeias",
        "state": "BA",
        "district": "Urbis II",
        "street": "Conjunto Urbis II",
        "zipcode": "43806-200"
    },
    {
        "city": "Candeias",
        "state": "BA",
        "district": "Malemba",
        "street": "Rua Machado de Assis",
        "zipcode": "43825-270"
    },
    {
        "city": "Candeias",
        "state": "BA",
        "district": "Santo Antônio",
        "street": "Rua Inaldo Oliveira",
        "zipcode": "43825-060"
    },
    {
        "city": "Candeias",
        "state": "BA",
        "district": "Malemba",
        "street": "Rua da Graça",
        "zipcode": "43805-620"
    },
    {
        "city": "Candeias",
        "state": "BA",
        "district": null,
        "street": "Rua Rio do Cunha",
        "zipcode": "43800-991"
    },
    {
        "city": "Candeias",
        "state": "BA",
        "district": "Malemba",
        "street": "Rua Teotônio Vilela",
        "zipcode": "43805-610"
    },
    {
        "city": "Candeias",
        "state": "BA",
        "district": "Sarandy",
        "street": "Praça Professora Alzira Ferreira",
        "zipcode": "43820-410"
    },
    {
        "city": "Candeias",
        "state": "BA",
        "district": "Santo Antônio",
        "street": "Rua dos Correios",
        "zipcode": "43825-030"
    },
    {
        "city": "Candeias",
        "state": "BA",
        "district": "Malemba",
        "street": "Travessa Iguaçu",
        "zipcode": "43805-730"
    },
    {
        "city": "Candeias",
        "state": "BA",
        "district": "Distrito Industrial",
        "street": "Via das Torres",
        "zipcode": "43813-100"
    },
    {
        "city": "Candeias",
        "state": "BA",
        "district": "Centro",
        "street": "Rua Padre Feijó",
        "zipcode": "43810-080"
    },
    {
        "city": "Candeias",
        "state": "BA",
        "district": "Malemba",
        "street": "Rua do Poço",
        "zipcode": "43825-420"
    },
    {
        "city": "Candeias",
        "state": "BA",
        "district": "Centro",
        "street": "Rua Presidente Kennedy",
        "zipcode": "43810-000"
    },
    {
        "city": "Candeias",
        "state": "BA",
        "district": "Santo Antônio",
        "street": "Rua São Geraldo",
        "zipcode": "43820-030"
    },
    {
        "city": "Candeias",
        "state": "BA",
        "district": "Sarandy",
        "street": "Travessa Tomé de Souza",
        "zipcode": "43820-350"
    },
    {
        "city": "Candeias",
        "state": "BA",
        "district": "Santo Antônio",
        "street": "Travessa Visconde de Tamandaré",
        "zipcode": "43820-180"
    },
    {
        "city": "Candeias",
        "state": "BA",
        "district": "Malemba",
        "street": "Rua São Vicente",
        "zipcode": "43825-370"
    },
    {
        "city": "Candeias",
        "state": "BA",
        "district": "Malemba",
        "street": "Travessa Joana Angélica",
        "zipcode": "43805-540"
    },
    {
        "city": "Candeias",
        "state": "BA",
        "district": "Nova Brasília",
        "street": "Rua B",
        "zipcode": "43810-200"
    },
    {
        "city": "Candeias",
        "state": "BA",
        "district": "Centro",
        "street": "Rua Joana Angélica",
        "zipcode": "43805-455"
    },
    {
        "city": "Candeias",
        "state": "BA",
        "district": "Triângulo",
        "street": "Avenida Antônio Paterson",
        "zipcode": "43815-055"
    },
    {
        "city": "Candeias",
        "state": "BA",
        "district": "Sarandy",
        "street": "Rua Wanderley de Araújo Pinho",
        "zipcode": "43820-320"
    },
    {
        "city": "Candeias",
        "state": "BA",
        "district": "Nova Brasília",
        "street": "Rua C",
        "zipcode": "43810-205"
    },
    {
        "city": "Candeias",
        "state": "BA",
        "district": "Centro",
        "street": "Rua Dois de Fevereiro",
        "zipcode": "43805-970"
    },
    {
        "city": "Candeias",
        "state": "BA",
        "district": null,
        "street": "Caminho 10",
        "zipcode": "43800-992"
    },
    {
        "city": "Candeias",
        "state": "BA",
        "district": "Centro",
        "street": "Rua dos Missionários",
        "zipcode": "43805-450"
    },
    {
        "city": "Candeias",
        "state": "BA",
        "district": "Pitanga",
        "street": "Rua Maranhão",
        "zipcode": "43810-320"
    },
    {
        "city": "Candeias",
        "state": "BA",
        "district": "Santo Antônio",
        "street": "Rua Princesa Leopoldina",
        "zipcode": "43825-110"
    },
    {
        "city": "Candeias",
        "state": "BA",
        "district": "Nova Candeias",
        "street": "Rua Santa Helena",
        "zipcode": "43815-110"
    },
    {
        "city": "Candeias",
        "state": "BA",
        "district": "Centro",
        "street": "Travessa Treze de Maio",
        "zipcode": "43805-210"
    },
    {
        "city": "Candeias",
        "state": "BA",
        "district": "Triângulo",
        "street": "Largo do Triângulo",
        "zipcode": "43815-010"
    },
    {
        "city": "Candeias",
        "state": "BA",
        "district": "Santo Antonio",
        "street": "Rua Getulio Vargas",
        "zipcode": "43825-140"
    },
    {
        "city": "Candeias",
        "state": "BA",
        "district": "Malemba",
        "street": "Loteamento Santa Cruz",
        "zipcode": "43805-625"
    },
    {
        "city": "Candeias",
        "state": "BA",
        "district": "Malemba",
        "street": "Rua São Gabriel",
        "zipcode": "43825-300"
    },
    {
        "city": "Candeias",
        "state": "BA",
        "district": "Malemba",
        "street": "Rua São Tomé",
        "zipcode": "43825-410"
    },
    {
        "city": "Candeias",
        "state": "BA",
        "district": "Centro",
        "street": "Praça Nossa Senhora das Candeias",
        "zipcode": "43805-465"
    },
    {
        "city": "Candeias",
        "state": "BA",
        "district": "Nova Candeias",
        "street": "Rua Camurugipe",
        "zipcode": "43815-380"
    },
    {
        "city": "Candeias",
        "state": "BA",
        "district": "Urbis I",
        "street": "Conjunto Urbis I",
        "zipcode": "43815-000"
    },
    {
        "city": "Candeias",
        "state": "BA",
        "district": "Malemba",
        "street": "Rua Nossa Senhora da Penha",
        "zipcode": "43825-340"
    },
    {
        "city": "Candeias",
        "state": "BA",
        "district": "Urbis Ii",
        "street": "Conjunto Urbis Ii",
        "zipcode": "43825-000"
    },
    {
        "city": "Candeias",
        "state": "BA",
        "district": "Sarandy",
        "street": "Favela Vila Itapagipe",
        "zipcode": "43820-340"
    },
    {
        "city": "Candeias",
        "state": "BA",
        "district": "Centro",
        "street": "Rua Milton Expedito",
        "zipcode": "43810-070"
    },
    {
        "city": "Candeias",
        "state": "BA",
        "district": "Malemba",
        "street": "Travessa da Graça",
        "zipcode": "43805-720"
    },
    {
        "city": "Candeias",
        "state": "BA",
        "district": "Sarandy",
        "street": "Rua Tome De Souza",
        "zipcode": "43820-000"
    },
    {
        "city": "Candeias",
        "state": "BA",
        "district": "Santo Antônio",
        "street": "Rua Fernão Dias",
        "zipcode": "43825-050"
    },
    {
        "city": "Candeias",
        "state": "BA",
        "district": "Distrito Industrial",
        "street": "Via Matoim",
        "zipcode": "43813-000"
    },
    {
        "city": "Candeias",
        "state": "BA",
        "district": "Centro",
        "street": "Travessa Bela Vista",
        "zipcode": "43805-500"
    },
    {
        "city": "Candeias",
        "state": "BA",
        "district": "Areia",
        "street": "Rua Primeiro de Maio",
        "zipcode": "43825-200"
    },
    {
        "city": "Candeias",
        "state": "BA",
        "district": "Pitanga",
        "street": "Rua Wanderley Araujo De Pinho",
        "zipcode": "43810-300"
    },
    {
        "city": "Candeias",
        "state": "BA",
        "district": "Distrito Industrial",
        "street": "Via Massuim",
        "zipcode": "43813-200"
    },
    {
        "city": "Candeias",
        "state": "BA",
        "district": "Centro",
        "street": "Rua Antonio Martins",
        "zipcode": "43805-550"
    },
    {
        "city": "Candeias",
        "state": "BA",
        "district": "Nova Brasília",
        "street": "Praça Maria Quitéria",
        "zipcode": "43810-160"
    },
    {
        "city": "Candeias",
        "state": "BA",
        "district": "Centro",
        "street": "Rua Alto Da Boa Vista",
        "zipcode": "43805-530"
    },
    {
        "city": "Candeias",
        "state": "BA",
        "district": "Pitanga",
        "street": "Travessa Desembargador Teixeira De Freitas",
        "zipcode": "43810-400"
    },
    {
        "city": "Candeias",
        "state": "BA",
        "district": "Nova Candeias",
        "street": "Travessa São Sebastião",
        "zipcode": "43815-140"
    },
    {
        "city": "Candeias",
        "state": "BA",
        "district": "Sarandy",
        "street": "Rua Marechal Floriano Peixoto",
        "zipcode": "43820-021"
    }
]