[
    {
        "city": "Eunapolis",
        "state": "BA",
        "district": "Cajueiro",
        "street": "Rua Jacaranda",
        "zipcode": "45825-200"
    },
    {
        "city": "Eunapolis",
        "state": "BA",
        "district": "Pequi",
        "street": "Praça Armando Ribeiro Carneiro",
        "zipcode": "45825-070"
    },
    {
        "city": "Eunapolis",
        "state": "BA",
        "district": "Santa Isabel",
        "street": "Rua Jose Lourenco",
        "zipcode": "45825-068"
    },
    {
        "city": "Eunapolis",
        "state": "BA",
        "district": "Industrial",
        "street": "Avenida Guanabara",
        "zipcode": "45823-000"
    },
    {
        "city": "Eunapolis",
        "state": "BA",
        "district": "Centro",
        "street": "Rua Guaratinga",
        "zipcode": "45821-350"
    },
    {
        "city": "Eunapolis",
        "state": "BA",
        "district": "Centro",
        "street": "Rua Beira Rio",
        "zipcode": "45821-360"
    },
    {
        "city": "Eunapolis",
        "state": "BA",
        "district": "Moises Reis",
        "street": "Rua Das Marias",
        "zipcode": "45821-750"
    },
    {
        "city": "Eunapolis",
        "state": "BA",
        "district": "Pequi",
        "street": "Travessa Bela Vista",
        "zipcode": "45824-030"
    },
    {
        "city": "Eunapolis",
        "state": "BA",
        "district": "Centro",
        "street": "Avenida Demetrio Couto Guerreire",
        "zipcode": "45821-310"
    },
    {
        "city": "Eunapolis",
        "state": "BA",
        "district": "Moises Reis",
        "street": "Rua Santa Catarina",
        "zipcode": "45821-770"
    },
    {
        "city": "Eunapolis",
        "state": "BA",
        "district": "Juca Rosa",
        "street": "Avenida Arnoldo Lima",
        "zipcode": "45823-321"
    },
    {
        "city": "Eunapolis",
        "state": "BA",
        "district": "Cajueiro",
        "street": "Travessa Do Motor",
        "zipcode": "45825-270"
    },
    {
        "city": "Eunapolis",
        "state": "BA",
        "district": "Pequi",
        "street": "Travessa Bela Vista",
        "zipcode": "45825-090"
    },
    {
        "city": "Eunapolis",
        "state": "BA",
        "district": "Centro",
        "street": "Praça Da Liberdade",
        "zipcode": "45821-320"
    },
    {
        "city": "Eunapolis",
        "state": "BA",
        "district": "Sapucaeira",
        "street": "Avenida Paulo Afonso",
        "zipcode": "45823-521"
    },
    {
        "city": "Eunapolis",
        "state": "BA",
        "district": "Centro",
        "street": "Avenida Norte",
        "zipcode": "45821-051"
    },
    {
        "city": "Eunapolis",
        "state": "BA",
        "district": "Doutor Gusmao",
        "street": "Rua Dos Artistas",
        "zipcode": "45821-111"
    },
    {
        "city": "Eunapolis",
        "state": "BA",
        "district": "Pequi",
        "street": "Rua Da Consolacao",
        "zipcode": "45824-120"
    },
    {
        "city": "Eunapolis",
        "state": "BA",
        "district": "Centro",
        "street": "Rua Vinte E Tres De Maio",
        "zipcode": "45821-330"
    },
    {
        "city": "Eunapolis",
        "state": "BA",
        "district": "Cajueiro",
        "street": "Rua Alagoas",
        "zipcode": "45825-320"
    },
    {
        "city": "Eunapolis",
        "state": "BA",
        "district": "Cajueiro",
        "street": "Travessa Jacaranda",
        "zipcode": "45825-400"
    },
    {
        "city": "Eunapolis",
        "state": "BA",
        "district": "Cajueiro",
        "street": "Rua Santa Maria",
        "zipcode": "45825-210"
    },
    {
        "city": "Eunapolis",
        "state": "BA",
        "district": "Minas Gerais",
        "street": "Loteamento Centauro Leste",
        "zipcode": "45825-560"
    },
    {
        "city": "Eunapolis",
        "state": "BA",
        "district": "Sapucaeira",
        "street": "Avenida Brasil",
        "zipcode": "45823-402"
    },
    {
        "city": "Eunapolis",
        "state": "BA",
        "district": "Cajueiro",
        "street": "Rua Antonio Dias",
        "zipcode": "45825-360"
    },
    {
        "city": "Eunapolis",
        "state": "BA",
        "district": "Cajueiro",
        "street": "Rua Jose Lourenco",
        "zipcode": "45825-067"
    },
    {
        "city": "Eunapolis",
        "state": "BA",
        "district": "Cajueiro",
        "street": "Rua Goias",
        "zipcode": "45825-310"
    },
    {
        "city": "Eunapolis",
        "state": "BA",
        "district": "Cajueiro",
        "street": "Rua Depra",
        "zipcode": "45825-290"
    },
    {
        "city": "Eunapolis",
        "state": "BA",
        "district": "Centro",
        "street": "Rua Pedro Calmon",
        "zipcode": "45821-370"
    },
    {
        "city": "Eunapolis",
        "state": "BA",
        "district": "Moises Reis",
        "street": "Rua Pioneiro",
        "zipcode": "45821-760"
    },
    {
        "city": "Eunapolis",
        "state": "BA",
        "district": "Moises Reis",
        "street": "Rua Aguas Claras",
        "zipcode": "45821-730"
    },
    {
        "city": "Eunapolis",
        "state": "BA",
        "district": "Pequi",
        "street": "Rodovia Br",
        "zipcode": "45825-060"
    },
    {
        "city": "Eunapolis",
        "state": "BA",
        "district": "Cajueiro",
        "street": "Rua Topazio",
        "zipcode": "45825-220"
    },
    {
        "city": "Eunapolis",
        "state": "BA",
        "district": "Cajueiro",
        "street": "Travessa Da Usina",
        "zipcode": "45825-280"
    },
    {
        "city": "Eunapolis",
        "state": "BA",
        "district": "Pequi",
        "street": "Avenida Brilhante",
        "zipcode": "45825-050"
    },
    {
        "city": "Eunapolis",
        "state": "BA",
        "district": "Cajueiro",
        "street": "Travessa Br",
        "zipcode": "45825-260"
    },
    {
        "city": "Eunapolis",
        "state": "BA",
        "district": "Cajueiro",
        "street": "Rua Mato Grosso",
        "zipcode": "45825-340"
    },
    {
        "city": "Eunapolis",
        "state": "BA",
        "district": "Centauro Oeste",
        "street": "Rua Itamaraju",
        "zipcode": "45821-090"
    },
    {
        "city": "Eunapolis",
        "state": "BA",
        "district": "Vivendas Costa Azul",
        "street": "Rua Espirito Santo",
        "zipcode": "45820-441"
    },
    {
        "city": "Eunapolis",
        "state": "BA",
        "district": "Minas Gerais",
        "street": "Loteamento Chacara Do Alecrim",
        "zipcode": "45824-480"
    },
    {
        "city": "Eunapolis",
        "state": "BA",
        "district": "Cajueiro",
        "street": "Rua Do Motor",
        "zipcode": "45825-250"
    },
    {
        "city": "Eunapolis",
        "state": "BA",
        "district": "Santa Isabel",
        "street": "Rodovia Br",
        "zipcode": "45825-062"
    },
    {
        "city": "Eunapolis",
        "state": "BA",
        "district": "Vivendas Costa Azul",
        "street": "Rua Padre Joao Gualberto Magalhaes",
        "zipcode": "45820-491"
    },
    {
        "city": "Eunapolis",
        "state": "BA",
        "district": "Cajueiro",
        "street": "Rodovia Br",
        "zipcode": "45825-061"
    },
    {
        "city": "Eunapolis",
        "state": "BA",
        "district": "Cajueiro",
        "street": "Rua Recife",
        "zipcode": "45825-330"
    },
    {
        "city": "Eunapolis",
        "state": "BA",
        "district": "Cajueiro",
        "street": "Rua Nilo Pecanha",
        "zipcode": "45825-380"
    },
    {
        "city": "Eunapolis",
        "state": "BA",
        "district": "Santa Isabel",
        "street": "Conjunto Urbis Iii",
        "zipcode": "45824-490"
    },
    {
        "city": "Eunapolis",
        "state": "BA",
        "district": "Cajueiro",
        "street": "Rua Marechal Deodoro",
        "zipcode": "45825-370"
    },
    {
        "city": "Eunapolis",
        "state": "BA",
        "district": "Moises Reis",
        "street": "Rua Marques De Tamandare",
        "zipcode": "45821-740"
    },
    {
        "city": "Eunapolis",
        "state": "BA",
        "district": "Juca Rosa",
        "street": "Rua Dom Vital",
        "zipcode": "45823-251"
    },
    {
        "city": "Eunapolis",
        "state": "BA",
        "district": "Pequi",
        "street": "Rua Itabira",
        "zipcode": "45825-040"
    },
    {
        "city": "Eunapolis",
        "state": "BA",
        "district": "Cajueiro",
        "street": "Rua Para",
        "zipcode": "45825-350"
    },
    {
        "city": "Eunapolis",
        "state": "BA",
        "district": "Juca Rosa",
        "street": "Avenida Guanabara",
        "zipcode": "45823-001"
    },
    {
        "city": "Eunapolis",
        "state": "BA",
        "district": "Cajueiro",
        "street": "Rua Nossa Senhora De Fatima",
        "zipcode": "45825-230"
    },
    {
        "city": "Eunapolis",
        "state": "BA",
        "district": "Pequi",
        "street": "Rua Dom Pedro I",
        "zipcode": "45824-111"
    },
    {
        "city": "Eunapolis",
        "state": "BA",
        "district": "Pequi",
        "street": "Rua Jose Lourenco",
        "zipcode": "45825-066"
    },
    {
        "city": "Eunapolis",
        "state": "BA",
        "district": "Cajueiro",
        "street": "Travessa Marechal Deodoro",
        "zipcode": "45825-390"
    },
    {
        "city": "Eunapolis",
        "state": "BA",
        "district": "Centauro Oeste",
        "street": "Rua B",
        "zipcode": "45821-300"
    },
    {
        "city": "Eunapolis",
        "state": "BA",
        "district": "Cajueiro",
        "street": "Rua Santa Rita De Cassia",
        "zipcode": "45825-300"
    },
    {
        "city": "Eunapolis",
        "state": "BA",
        "district": "Centro",
        "street": "Rua Filinto Vaz",
        "zipcode": "45821-340"
    },
    {
        "city": "Eunapolis",
        "state": "BA",
        "district": "Pequi",
        "street": "Avenida Santos Dumont",
        "zipcode": "45825-080"
    },
    {
        "city": "Eunapolis",
        "state": "BA",
        "district": "Vivendas Costa Azul",
        "street": "Rua Men De Sa",
        "zipcode": "45820-471"
    }
]