[
    {
        "city": "Itiúba",
        "state": "BA",
        "district": "Centro",
        "street": "Rua Joviniano de Carvalho 63",
        "zipcode": "48850-970"
    },
    {
        "city": "Itiúba",
        "state": "BA",
        "district": "Sítio dos Moços",
        "street": "Rua do Campo s/n",
        "zipcode": "48850-975"
    },
    {
        "city": "Itiúba",
        "state": "BA",
        "district": "Picos",
        "street": "Avenida Getúlio Vargas 255",
        "zipcode": "48850-977"
    },
    {
        "city": "Itiúba",
        "state": "BA",
        "district": "",
        "street": "",
        "zipcode": "48850-000"
    },
    {
        "city": "Itiúba",
        "state": "BA",
        "district": "Jacurici",
        "street": "Rua da Estação s/n",
        "zipcode": "48850-971"
    },
    {
        "city": "Itiúba",
        "state": "BA",
        "district": "Centro",
        "street": "Rua da Igreja s/n",
        "zipcode": "48850-978"
    },
    {
        "city": "Itiúba",
        "state": "BA",
        "district": "Cacimba",
        "street": "Rua da Igreja s/n",
        "zipcode": "48850-973"
    },
    {
        "city": "Itiúba",
        "state": "BA",
        "district": "Bela Vista de Covas",
        "street": "Fazenda Cajazeiras s/n",
        "zipcode": "48850-976"
    },
    {
        "city": "Itiúba",
        "state": "BA",
        "district": "Rômulo Campos",
        "street": "Praça da Matriz s/n",
        "zipcode": "48850-974"
    },
    {
        "city": "Itiúba",
        "state": "BA",
        "district": "Piaus",
        "street": "Praça do Comércio s/n",
        "zipcode": "48850-972"
    }
]