[
    {
        "city": "Jequie",
        "state": "BA",
        "district": "Joaquim Romao",
        "street": "Travessa Americano Da Costa",
        "zipcode": "45202-750"
    },
    {
        "city": "Jequie",
        "state": "BA",
        "district": "Joaquim Romao",
        "street": "Avenida Americano Da Costa",
        "zipcode": "45202-740"
    },
    {
        "city": "Jequie",
        "state": "BA",
        "district": "Centro",
        "street": "Avenida Rio Branco",
        "zipcode": "45202-011"
    },
    {
        "city": "Jequie",
        "state": "BA",
        "district": "Parque Da Colina",
        "street": "Rua Igreja Sao Jose",
        "zipcode": "45204-230"
    },
    {
        "city": "Jequie",
        "state": "BA",
        "district": "Parque Da Colina",
        "street": "Loteamento Invasao Da Lagoa",
        "zipcode": "45204-210"
    },
    {
        "city": "Jequie",
        "state": "BA",
        "district": "Cansancao",
        "street": "Rua Manoel Pereira Da Silva",
        "zipcode": "45201-040"
    },
    {
        "city": "Jequie",
        "state": "BA",
        "district": "Amaralina",
        "street": "Loteamento Amaralina",
        "zipcode": "45204-240"
    },
    {
        "city": "Jequie",
        "state": "BA",
        "district": "Campo Do America",
        "street": "Rua Ademario Eloi Silveira",
        "zipcode": "45203-131"
    },
    {
        "city": "Jequie",
        "state": "BA",
        "district": "Cansancao",
        "street": "Loteamento Vila Nova Ciretran",
        "zipcode": "45201-030"
    },
    {
        "city": "Jequie",
        "state": "BA",
        "district": "Cidade Nova",
        "street": "Avenida Aurelio Viana",
        "zipcode": "45201-000"
    },
    {
        "city": "Jequie",
        "state": "BA",
        "district": "Joaquim Romao",
        "street": "Avenida Rio Branco",
        "zipcode": "45200-261"
    },
    {
        "city": "Jequie",
        "state": "BA",
        "district": "Joaquim Romao",
        "street": "Avenida Rio Branco",
        "zipcode": "45200-262"
    },
    {
        "city": "Jequie",
        "state": "BA",
        "district": "Cansancao",
        "street": "Travessa Gustavo Santos Ribeiro",
        "zipcode": "45201-010"
    },
    {
        "city": "Jequie",
        "state": "BA",
        "district": "Joaquim Romao",
        "street": "Rua Itagi",
        "zipcode": "45202-760"
    },
    {
        "city": "Jequie",
        "state": "BA",
        "district": "Joaquim Romao",
        "street": "Avenida Lomanto Junior",
        "zipcode": "45200-101"
    },
    {
        "city": "Jequie",
        "state": "BA",
        "district": "Parque Da Colina",
        "street": "Loteamento Boa Vista Ii",
        "zipcode": "45204-220"
    },
    {
        "city": "Jequie",
        "state": "BA",
        "district": "Cansancao",
        "street": "Rua Joventino Antonio Rocha",
        "zipcode": "45201-020"
    }
]