[
    {
        "city": "Mata de São João",
        "state": "BA",
        "district": null,
        "street": "Avenida Monte Líbano",
        "zipcode": "48280-990"
    },
    {
        "city": "Mata de São João",
        "state": "BA",
        "district": "Centro",
        "street": "Rua Santos Dumont 140",
        "zipcode": "48280-970"
    },
    {
        "city": "Mata de São João",
        "state": "BA",
        "district": "Costa do Sauípe",
        "street": "Rodovia BA",
        "zipcode": "48282-970"
    },
    {
        "city": "Mata de São João",
        "state": "BA",
        "district": "Praia do Forte",
        "street": "Rua Alameda do Sol s/n",
        "zipcode": "48280-972"
    },
    {
        "city": "Mata de São João",
        "state": "BA",
        "district": "Praia do Forte",
        "street": "Alameda dos Pescadores 202 Loja 28",
        "zipcode": "48280-971"
    },
    {
        "city": "Mata de São João",
        "state": "BA",
        "district": null,
        "street": "Alameda do Sol",
        "zipcode": "48280-991"
    },
    {
        "city": "Mata de São João",
        "state": "BA",
        "district": null,
        "street": "Loteamento Praia de Imbassaí",
        "zipcode": "48280-992"
    },
    {
        "city": "Mata de São João",
        "state": "BA",
        "district": "",
        "street": "",
        "zipcode": "48280-000"
    }
]