[
    {
        "city": "Paulo Afonso",
        "state": "BA",
        "district": "Sal Torrado",
        "street": "Rua Panorama",
        "zipcode": "48605-816"
    },
    {
        "city": "Paulo Afonso",
        "state": "BA",
        "district": "Centro",
        "street": "Rua Imperial",
        "zipcode": "48601-380"
    },
    {
        "city": "Paulo Afonso",
        "state": "BA",
        "district": "Tancredo Neves III",
        "street": "Rua Adauto Pereira de Souza",
        "zipcode": "48611-146"
    },
    {
        "city": "Paulo Afonso",
        "state": "BA",
        "district": "Vila Nobre",
        "street": "Travessa B (D Menininha)",
        "zipcode": "48608-584"
    },
    {
        "city": "Paulo Afonso",
        "state": "BA",
        "district": "Capuxú",
        "street": "Avenida Nova Brasília",
        "zipcode": "48606-830"
    },
    {
        "city": "Paulo Afonso",
        "state": "BA",
        "district": "Centro",
        "street": "Rua Padre Joao Evangelista",
        "zipcode": "48601-300"
    },
    {
        "city": "Paulo Afonso",
        "state": "BA",
        "district": "Nossa Senhora de Fátima",
        "street": "Largo São Marcos",
        "zipcode": "48601-095"
    },
    {
        "city": "Paulo Afonso",
        "state": "BA",
        "district": "Capuxú",
        "street": "Rua Canal do Capuxú",
        "zipcode": "48606-840"
    },
    {
        "city": "Paulo Afonso",
        "state": "BA",
        "district": "Centro",
        "street": "Rua Sao Joao",
        "zipcode": "48601-310"
    },
    {
        "city": "Paulo Afonso",
        "state": "BA",
        "district": "Dernival Oliveira",
        "street": "Rua Paissandu",
        "zipcode": "48603-806"
    },
    {
        "city": "Paulo Afonso",
        "state": "BA",
        "district": "Cardeal Brandão Vilela",
        "street": "Rua Progresso",
        "zipcode": "48610-460"
    },
    {
        "city": "Paulo Afonso",
        "state": "BA",
        "district": "Alves de Souza",
        "street": "Rua Nelson Felix do Nascimento",
        "zipcode": "48608-045"
    },
    {
        "city": "Paulo Afonso",
        "state": "BA",
        "district": "Oliveira Lopes",
        "street": "Rua Garanhuns",
        "zipcode": "48607-350"
    },
    {
        "city": "Paulo Afonso",
        "state": "BA",
        "district": "Centenário",
        "street": "Rua Senhor do Bonfim",
        "zipcode": "48605-555"
    },
    {
        "city": "Paulo Afonso",
        "state": "BA",
        "district": "Panorama",
        "street": "Rua Luiz Félix dos Santos",
        "zipcode": "48605-028"
    },
    {
        "city": "Paulo Afonso",
        "state": "BA",
        "district": "Centro",
        "street": "Rua Antonio Torres de Barros Correia",
        "zipcode": "48601-225"
    },
    {
        "city": "Paulo Afonso",
        "state": "BA",
        "district": "Cardeal Brandão Vilela",
        "street": "Rua Santa Bárbara",
        "zipcode": "48610-496"
    },
    {
        "city": "Paulo Afonso",
        "state": "BA",
        "district": "Jardim Bahia",
        "street": "Travessa Tancredo Neves",
        "zipcode": "48604-255"
    },
    {
        "city": "Paulo Afonso",
        "state": "BA",
        "district": "São Vicente",
        "street": "Rua Abílio Teixeira",
        "zipcode": "48603-520"
    },
    {
        "city": "Paulo Afonso",
        "state": "BA",
        "district": "Cardeal Brandão Vilela",
        "street": "Rua William de Jesus",
        "zipcode": "48610-640"
    },
    {
        "city": "Paulo Afonso",
        "state": "BA",
        "district": "Cardeal Brandão Vilela",
        "street": "Rua Felipe Camarão",
        "zipcode": "48610-560"
    },
    {
        "city": "Paulo Afonso",
        "state": "BA",
        "district": "Cardeal Brandão Vilela",
        "street": "Rua Marechal Mascarenhas de Moraes",
        "zipcode": "48610-680"
    },
    {
        "city": "Paulo Afonso",
        "state": "BA",
        "district": "Centro",
        "street": "Rua Miguel Bezerra da Silva",
        "zipcode": "48601-275"
    },
    {
        "city": "Paulo Afonso",
        "state": "BA",
        "district": "Jardim Aeroporto",
        "street": "Travessa Mário Andreazza",
        "zipcode": "48603-728"
    },
    {
        "city": "Paulo Afonso",
        "state": "BA",
        "district": "Clériston Andrade",
        "street": "Rua Presidente Ernesto Geisel",
        "zipcode": "48603-435"
    },
    {
        "city": "Paulo Afonso",
        "state": "BA",
        "district": "Panorama",
        "street": "Quadra E",
        "zipcode": "48605-010"
    },
    {
        "city": "Paulo Afonso",
        "state": "BA",
        "district": "Cardeal Brandão Vilela",
        "street": "Rua Brasília",
        "zipcode": "48610-512"
    },
    {
        "city": "Paulo Afonso",
        "state": "BA",
        "district": "Tancredo Neves Ii",
        "street": "Rua Sao Mateus",
        "zipcode": "48609-280"
    },
    {
        "city": "Paulo Afonso",
        "state": "BA",
        "district": "Jardim Aeroporto",
        "street": "Rua Alex Antonio Bezerra da Silva",
        "zipcode": "48603-732"
    },
    {
        "city": "Paulo Afonso",
        "state": "BA",
        "district": "Tancredo Neves I",
        "street": "Rua Do Riacho Seco",
        "zipcode": "48609-040"
    },
    {
        "city": "Paulo Afonso",
        "state": "BA",
        "district": "Jardim Aeroporto",
        "street": "Rua Arthur de Brito",
        "zipcode": "48603-720"
    },
    {
        "city": "Paulo Afonso",
        "state": "BA",
        "district": "Cardeal Brandão Vilela",
        "street": "Rua São Pedro",
        "zipcode": "48610-608"
    },
    {
        "city": "Paulo Afonso",
        "state": "BA",
        "district": "Tancredo Neves I",
        "street": "Rua Redenção",
        "zipcode": "48609-085"
    },
    {
        "city": "Paulo Afonso",
        "state": "BA",
        "district": "Vila Dom Mário Zanetta",
        "street": "Rua Porto Rico",
        "zipcode": "48607-500"
    },
    {
        "city": "Paulo Afonso",
        "state": "BA",
        "district": "Tancredo Neves III",
        "street": "Rua Gilberto Leal",
        "zipcode": "48611-262"
    },
    {
        "city": "Paulo Afonso",
        "state": "BA",
        "district": "Centro",
        "street": "Rua Severino Cordeiro Costa",
        "zipcode": "48601-445"
    },
    {
        "city": "Paulo Afonso",
        "state": "BA",
        "district": "Tropical",
        "street": "Rua da Amizade",
        "zipcode": "48605-766"
    },
    {
        "city": "Paulo Afonso",
        "state": "BA",
        "district": "Dernival Oliveira",
        "street": "Rua Adauto Floriano dos Santos",
        "zipcode": "48603-808"
    },
    {
        "city": "Paulo Afonso",
        "state": "BA",
        "district": "Oliveira Brito",
        "street": "Rua Santarém",
        "zipcode": "48604-574"
    },
    {
        "city": "Paulo Afonso",
        "state": "BA",
        "district": "Fazenda CHESF",
        "street": "Avenida Amazônia",
        "zipcode": "48606-540"
    },
    {
        "city": "Paulo Afonso",
        "state": "BA",
        "district": "Alves de Souza",
        "street": "Travessa da Amélia",
        "zipcode": "48608-105"
    },
    {
        "city": "Paulo Afonso",
        "state": "BA",
        "district": "Oliveira Brito",
        "street": "Rua Nossa Senhora Aparecida",
        "zipcode": "48604-564"
    },
    {
        "city": "Paulo Afonso",
        "state": "BA",
        "district": "Rodoviários",
        "street": "Rua Goiás",
        "zipcode": "48609-524"
    },
    {
        "city": "Paulo Afonso",
        "state": "BA",
        "district": "Dernival Oliveira",
        "street": "Rua Metódio Nunes Magalhães",
        "zipcode": "48603-810"
    },
    {
        "city": "Paulo Afonso",
        "state": "BA",
        "district": "Nossa Senhora de Fátima",
        "street": "Rua Euclides Vicente de Paula",
        "zipcode": "48601-085"
    },
    {
        "city": "Paulo Afonso",
        "state": "BA",
        "district": "General Dutra",
        "street": "Rua Doutor Américo Alves de Oliveira",
        "zipcode": "48607-295"
    },
    {
        "city": "Paulo Afonso",
        "state": "BA",
        "district": "Jardim Bahia",
        "street": "Rua Padre Anchieta",
        "zipcode": "48604-030"
    },
    {
        "city": "Paulo Afonso",
        "state": "BA",
        "district": "Cardeal Brandão Vilela",
        "street": "Rua Nossa Senhora das Dores",
        "zipcode": "48610-760"
    },
    {
        "city": "Paulo Afonso",
        "state": "BA",
        "district": "Cardeal Brandão Vilela",
        "street": "Rua Frei Damião",
        "zipcode": "48610-596"
    },
    {
        "city": "Paulo Afonso",
        "state": "BA",
        "district": "Cardeal Brandão Vilela",
        "street": "Rua Santa Bárbara",
        "zipcode": "48610-660"
    },
    {
        "city": "Paulo Afonso",
        "state": "BA",
        "district": "Tancredo Neves III",
        "street": "Rua Adauto Pereira de Souza",
        "zipcode": "48611-114"
    },
    {
        "city": "Paulo Afonso",
        "state": "BA",
        "district": "Setor Industrial",
        "street": "Rua Paraguaçu",
        "zipcode": "48606-020"
    },
    {
        "city": "Paulo Afonso",
        "state": "BA",
        "district": "Rodoviários",
        "street": "Rua Piauí",
        "zipcode": "48609-498"
    },
    {
        "city": "Paulo Afonso",
        "state": "BA",
        "district": "Cardeal Brandão Vilela",
        "street": "Rua Belmonte",
        "zipcode": "48610-744"
    },
    {
        "city": "Paulo Afonso",
        "state": "BA",
        "district": "Tancredo Neves I",
        "street": "Rua Rio Amazonas",
        "zipcode": "48609-001"
    },
    {
        "city": "Paulo Afonso",
        "state": "BA",
        "district": "Panorama",
        "street": "Rua Paraná",
        "zipcode": "48605-022"
    },
    {
        "city": "Paulo Afonso",
        "state": "BA",
        "district": "Panorama",
        "street": "Rua Piauí",
        "zipcode": "48605-032"
    },
    {
        "city": "Paulo Afonso",
        "state": "BA",
        "district": "Panorama",
        "street": "Rua Alagoas",
        "zipcode": "48605-036"
    },
    {
        "city": "Paulo Afonso",
        "state": "BA",
        "district": "Panorama",
        "street": "Rua Mato Grosso",
        "zipcode": "48605-083"
    },
    {
        "city": "Paulo Afonso",
        "state": "BA",
        "district": "Vila Militar",
        "street": "Rua Sargento Max Wolff Filho",
        "zipcode": "48602-720"
    },
    {
        "city": "Paulo Afonso",
        "state": "BA",
        "district": "Oliveira Brito",
        "street": "Rua Blumenau",
        "zipcode": "48604-510"
    },
    {
        "city": "Paulo Afonso",
        "state": "BA",
        "district": "Tancredo Neves I",
        "street": "Rua Bom Retiro",
        "zipcode": "48609-074"
    },
    {
        "city": "Paulo Afonso",
        "state": "BA",
        "district": "Jardim Bahia",
        "street": "Rua Feira de Santana",
        "zipcode": "48604-170"
    },
    {
        "city": "Paulo Afonso",
        "state": "BA",
        "district": "Tancredo Neves II",
        "street": "Rua Juazeiro",
        "zipcode": "48609-312"
    },
    {
        "city": "Paulo Afonso",
        "state": "BA",
        "district": "Centro",
        "street": "Rua General Dutra",
        "zipcode": "48601-375"
    },
    {
        "city": "Paulo Afonso",
        "state": "BA",
        "district": "Centro",
        "street": "Rua Monsenhor Magalhães",
        "zipcode": "48602-125"
    },
    {
        "city": "Paulo Afonso",
        "state": "BA",
        "district": "Vila Militar",
        "street": "Avenida da Amizade",
        "zipcode": "48602-700"
    },
    {
        "city": "Paulo Afonso",
        "state": "BA",
        "district": "Perpétuo Socorro",
        "street": "Rua Vereador José Moreira",
        "zipcode": "48603-004"
    },
    {
        "city": "Paulo Afonso",
        "state": "BA",
        "district": "Tancredo Neves I",
        "street": "Rua Itaparica",
        "zipcode": "48609-018"
    },
    {
        "city": "Paulo Afonso",
        "state": "BA",
        "district": "Santa Inês",
        "street": "Rua da Seresta",
        "zipcode": "48610-228"
    },
    {
        "city": "Paulo Afonso",
        "state": "BA",
        "district": "Jardim Bahia",
        "street": "Rua da Liberdade",
        "zipcode": "48604-135"
    },
    {
        "city": "Paulo Afonso",
        "state": "BA",
        "district": "Centro",
        "street": "Travessa da Independência",
        "zipcode": "48602-575"
    },
    {
        "city": "Paulo Afonso",
        "state": "BA",
        "district": "Perpétuo Socorro",
        "street": "Rua do Retorno",
        "zipcode": "48603-045"
    },
    {
        "city": "Paulo Afonso",
        "state": "BA",
        "district": "Perpétuo Socorro",
        "street": "Rua Perimetral III",
        "zipcode": "48603-085"
    },
    {
        "city": "Paulo Afonso",
        "state": "BA",
        "district": "Perpétuo Socorro",
        "street": "Rua Belmonte",
        "zipcode": "48603-105"
    },
    {
        "city": "Paulo Afonso",
        "state": "BA",
        "district": "Centenário",
        "street": "Rua Boa Esperança",
        "zipcode": "48605-680"
    },
    {
        "city": "Paulo Afonso",
        "state": "BA",
        "district": "Perpétuo Socorro",
        "street": "Rua da Abolição",
        "zipcode": "48603-010"
    },
    {
        "city": "Paulo Afonso",
        "state": "BA",
        "district": "Alves de Souza",
        "street": "Rua da Harmonia",
        "zipcode": "48608-490"
    },
    {
        "city": "Paulo Afonso",
        "state": "BA",
        "district": "Perpétuo Socorro",
        "street": "Rua Joana Angélica",
        "zipcode": "48603-000"
    },
    {
        "city": "Paulo Afonso",
        "state": "BA",
        "district": "Centro",
        "street": "Rua Vital Brasil",
        "zipcode": "48602-550"
    },
    {
        "city": "Paulo Afonso",
        "state": "BA",
        "district": "Centro",
        "street": "Rua Marechal Rondon",
        "zipcode": "48602-510"
    },
    {
        "city": "Paulo Afonso",
        "state": "BA",
        "district": "Centro",
        "street": "Rua Osvaldo Cruz",
        "zipcode": "48602-600"
    },
    {
        "city": "Paulo Afonso",
        "state": "BA",
        "district": "Centenário",
        "street": "Rua Paraíba",
        "zipcode": "48605-470"
    },
    {
        "city": "Paulo Afonso",
        "state": "BA",
        "district": "Alves de Souza",
        "street": "Travessa Catu",
        "zipcode": "48608-127"
    },
    {
        "city": "Paulo Afonso",
        "state": "BA",
        "district": "Alves de Souza",
        "street": "Rua das Palmeiras",
        "zipcode": "48608-340"
    },
    {
        "city": "Paulo Afonso",
        "state": "BA",
        "district": "Jardim Bahia",
        "street": "Rua Nossa Senhora do Carmo",
        "zipcode": "48604-055"
    },
    {
        "city": "Paulo Afonso",
        "state": "BA",
        "district": "Jardim Bahia",
        "street": "Rua Serra Branca",
        "zipcode": "48604-115"
    },
    {
        "city": "Paulo Afonso",
        "state": "BA",
        "district": "Perpétuo Socorro",
        "street": "Rua Princesa Isabel",
        "zipcode": "48603-070"
    },
    {
        "city": "Paulo Afonso",
        "state": "BA",
        "district": "Perpétuo Socorro",
        "street": "Rua da Providência",
        "zipcode": "48603-100"
    },
    {
        "city": "Paulo Afonso",
        "state": "BA",
        "district": "Centro",
        "street": "Rua Presidente Médici",
        "zipcode": "48602-100"
    },
    {
        "city": "Paulo Afonso",
        "state": "BA",
        "district": "Centro",
        "street": "Travessa Landulfo Alves",
        "zipcode": "48602-493"
    },
    {
        "city": "Paulo Afonso",
        "state": "BA",
        "district": "Centro",
        "street": "Travessa Manoel Novaes",
        "zipcode": "48601-415"
    },
    {
        "city": "Paulo Afonso",
        "state": "BA",
        "district": "Centro",
        "street": "Beco da Liberdade",
        "zipcode": "48601-378"
    },
    {
        "city": "Paulo Afonso",
        "state": "BA",
        "district": "Fazenda CHESF",
        "street": "Avenida Tocantins",
        "zipcode": "48606-560"
    },
    {
        "city": "Paulo Afonso",
        "state": "BA",
        "district": "Barroca",
        "street": "Rua Paraíba",
        "zipcode": "48604-760"
    },
    {
        "city": "Paulo Afonso",
        "state": "BA",
        "district": "Oliveira Brito",
        "street": "Rua Tocantins",
        "zipcode": "48604-568"
    },
    {
        "city": "Paulo Afonso",
        "state": "BA",
        "district": "Cardeal Brandão Vilela",
        "street": "Rua Mato Grosso",
        "zipcode": "48610-772"
    },
    {
        "city": "Paulo Afonso",
        "state": "BA",
        "district": "Santa Inês",
        "street": "Rua Bonome",
        "zipcode": "48610-244"
    },
    {
        "city": "Paulo Afonso",
        "state": "BA",
        "district": "Centro",
        "street": "Avenida Ministro Landulfo Alves",
        "zipcode": "48602-900"
    },
    {
        "city": "Paulo Afonso",
        "state": "BA",
        "district": "Rodoviários",
        "street": "Rua Rio Grande do Sul",
        "zipcode": "48609-526"
    },
    {
        "city": "Paulo Afonso",
        "state": "BA",
        "district": "Cardeal Brandão Vilela",
        "street": "Rodovia BA",
        "zipcode": "48610-400"
    },
    {
        "city": "Paulo Afonso",
        "state": "BA",
        "district": "Santa Inês",
        "street": "Rua Itapagipe",
        "zipcode": "48610-266"
    },
    {
        "city": "Paulo Afonso",
        "state": "BA",
        "district": "São Vicente",
        "street": "Rua Romênia",
        "zipcode": "48603-604"
    },
    {
        "city": "Paulo Afonso",
        "state": "BA",
        "district": "Cardeal Brandão Vilela",
        "street": "Rua Santa Terezinha",
        "zipcode": "48610-404"
    },
    {
        "city": "Paulo Afonso",
        "state": "BA",
        "district": "Oliveira Lopes",
        "street": "Rua Rio Grande do Norte",
        "zipcode": "48607-335"
    },
    {
        "city": "Paulo Afonso",
        "state": "BA",
        "district": "Amaury Alves de Menezes",
        "street": "Rua Veneza",
        "zipcode": "48605-181"
    },
    {
        "city": "Paulo Afonso",
        "state": "BA",
        "district": "Jardim Bahia",
        "street": "Rua Filadélfia",
        "zipcode": "48604-015"
    },
    {
        "city": "Paulo Afonso",
        "state": "BA",
        "district": "Jardim Bahia",
        "street": "Rua Chácara das Flores",
        "zipcode": "48604-095"
    },
    {
        "city": "Paulo Afonso",
        "state": "BA",
        "district": "Jardim Bahia",
        "street": "Rua Ondina",
        "zipcode": "48604-245"
    },
    {
        "city": "Paulo Afonso",
        "state": "BA",
        "district": "Cardeal Brandão Vilela",
        "street": "Travessa Santa Terezinha",
        "zipcode": "48610-452"
    },
    {
        "city": "Paulo Afonso",
        "state": "BA",
        "district": "Centro",
        "street": "Travessa Glauber Rocha",
        "zipcode": "48601-215"
    },
    {
        "city": "Paulo Afonso",
        "state": "BA",
        "district": "Centro",
        "street": "Rua Portinari",
        "zipcode": "48601-285"
    },
    {
        "city": "Paulo Afonso",
        "state": "BA",
        "district": "Clériston Andrade",
        "street": "Rua Arcoverde",
        "zipcode": "48603-455"
    },
    {
        "city": "Paulo Afonso",
        "state": "BA",
        "district": "Centro",
        "street": "Rua André Falcão",
        "zipcode": "48601-230"
    },
    {
        "city": "Paulo Afonso",
        "state": "BA",
        "district": "Perpétuo Socorro",
        "street": "Rua Brasil",
        "zipcode": "48603-110"
    },
    {
        "city": "Paulo Afonso",
        "state": "BA",
        "district": "Centro",
        "street": "Rua Cabo Antônio Luiz Brito",
        "zipcode": "48601-280"
    },
    {
        "city": "Paulo Afonso",
        "state": "BA",
        "district": "Centro",
        "street": "Rua Marechal Floriano Peixoto",
        "zipcode": "48601-210"
    },
    {
        "city": "Paulo Afonso",
        "state": "BA",
        "district": "Centro",
        "street": "Rua Frei Damião",
        "zipcode": "48602-460"
    },
    {
        "city": "Paulo Afonso",
        "state": "BA",
        "district": "Centro",
        "street": "Avenida Getúlio Vargas",
        "zipcode": "48601-260"
    },
    {
        "city": "Paulo Afonso",
        "state": "BA",
        "district": "Centro",
        "street": "Rua da Glória",
        "zipcode": "48601-160"
    },
    {
        "city": "Paulo Afonso",
        "state": "BA",
        "district": "Centro",
        "street": "Avenida Ministro Landulfo Alves",
        "zipcode": "48602-490"
    },
    {
        "city": "Paulo Afonso",
        "state": "BA",
        "district": "Centro",
        "street": "Rua Noé Pires de Carvalho",
        "zipcode": "48602-120"
    },
    {
        "city": "Paulo Afonso",
        "state": "BA",
        "district": "Nossa Senhora de Fátima",
        "street": "Rua da Paz",
        "zipcode": "48601-120"
    },
    {
        "city": "Paulo Afonso",
        "state": "BA",
        "district": "Perpétuo Socorro",
        "street": "Rua Perimetral II",
        "zipcode": "48603-140"
    },
    {
        "city": "Paulo Afonso",
        "state": "BA",
        "district": "Perpétuo Socorro",
        "street": "Rua 15 de Novembro",
        "zipcode": "48603-120"
    },
    {
        "city": "Paulo Afonso",
        "state": "BA",
        "district": "Centro",
        "street": "Rua Riachuelo",
        "zipcode": "48601-400"
    },
    {
        "city": "Paulo Afonso",
        "state": "BA",
        "district": "Centro",
        "street": "Rua Rui Barbosa",
        "zipcode": "48602-190"
    },
    {
        "city": "Paulo Afonso",
        "state": "BA",
        "district": "Centro",
        "street": "Rua Santos Dumont",
        "zipcode": "48602-500"
    },
    {
        "city": "Paulo Afonso",
        "state": "BA",
        "district": "Centro",
        "street": "Rua Carlos Chagas",
        "zipcode": "48601-390"
    },
    {
        "city": "Paulo Afonso",
        "state": "BA",
        "district": "Centro",
        "street": "Rua São Benedito",
        "zipcode": "48601-370"
    },
    {
        "city": "Paulo Afonso",
        "state": "BA",
        "district": "Centro",
        "street": "Rua São Jorge",
        "zipcode": "48601-340"
    },
    {
        "city": "Paulo Afonso",
        "state": "BA",
        "district": "Centro",
        "street": "Rua São Luiz",
        "zipcode": "48602-220"
    },
    {
        "city": "Paulo Afonso",
        "state": "BA",
        "district": "Centro",
        "street": "Rua Tiradentes",
        "zipcode": "48602-180"
    },
    {
        "city": "Paulo Afonso",
        "state": "BA",
        "district": "Centro",
        "street": "Rua Tamandaré",
        "zipcode": "48601-350"
    },
    {
        "city": "Paulo Afonso",
        "state": "BA",
        "district": "Centro",
        "street": "Rua Alto da Boa Vista",
        "zipcode": "48602-200"
    },
    {
        "city": "Paulo Afonso",
        "state": "BA",
        "district": "Centro",
        "street": "Rua Duque de Caxias",
        "zipcode": "48602-130"
    },
    {
        "city": "Paulo Afonso",
        "state": "BA",
        "district": "Centro",
        "street": "Travessa da Inconfidência",
        "zipcode": "48601-220"
    },
    {
        "city": "Paulo Afonso",
        "state": "BA",
        "district": "Centro",
        "street": "Rua da Grécia",
        "zipcode": "48602-150"
    },
    {
        "city": "Paulo Afonso",
        "state": "BA",
        "district": "Alves de Souza",
        "street": "Rua da Aurora",
        "zipcode": "48608-005"
    },
    {
        "city": "Paulo Afonso",
        "state": "BA",
        "district": "Santa Inês",
        "street": "Rua Pituaçu",
        "zipcode": "48610-260"
    },
    {
        "city": "Paulo Afonso",
        "state": "BA",
        "district": "São Vicente",
        "street": "Rua Estados Unidos",
        "zipcode": "48603-504"
    },
    {
        "city": "Paulo Afonso",
        "state": "BA",
        "district": "Abel Barbosa",
        "street": "Rua França",
        "zipcode": "48605-310"
    },
    {
        "city": "Paulo Afonso",
        "state": "BA",
        "district": "Capuxú",
        "street": "Avenida Belvedere",
        "zipcode": "48606-810"
    },
    {
        "city": "Paulo Afonso",
        "state": "BA",
        "district": "São Vicente",
        "street": "Rua Áustria",
        "zipcode": "48603-544"
    },
    {
        "city": "Paulo Afonso",
        "state": "BA",
        "district": "Barroca",
        "street": "Rua Araci",
        "zipcode": "48604-720"
    },
    {
        "city": "Paulo Afonso",
        "state": "BA",
        "district": "Dernival Oliveira",
        "street": "Rua Guimarães Rosa",
        "zipcode": "48603-830"
    },
    {
        "city": "Paulo Afonso",
        "state": "BA",
        "district": "Centro",
        "street": "Rua Monsenhor Magalhães",
        "zipcode": "48602-015"
    },
    {
        "city": "Paulo Afonso",
        "state": "BA",
        "district": "Jardim Bahia",
        "street": "Rua Mateus",
        "zipcode": "48604-235"
    },
    {
        "city": "Paulo Afonso",
        "state": "BA",
        "district": "Centro",
        "street": "Rua Vereador João de Brito",
        "zipcode": "48602-095"
    },
    {
        "city": "Paulo Afonso",
        "state": "BA",
        "district": "Cardeal Brandão Vilela",
        "street": "Rua Santa Maria",
        "zipcode": "48610-648"
    },
    {
        "city": "Paulo Afonso",
        "state": "BA",
        "district": "Centro",
        "street": "Rua Sebastião Bezerra da Silva",
        "zipcode": "48602-565"
    },
    {
        "city": "Paulo Afonso",
        "state": "BA",
        "district": "Senhor do Bonfim",
        "street": "Rua Salustiano",
        "zipcode": "48605-722"
    },
    {
        "city": "Paulo Afonso",
        "state": "BA",
        "district": "Alves de Souza",
        "street": "Rua Flamboyants",
        "zipcode": "48608-480"
    },
    {
        "city": "Paulo Afonso",
        "state": "BA",
        "district": "Oliveira Brito",
        "street": "Rua Congonhas",
        "zipcode": "48604-525"
    },
    {
        "city": "Paulo Afonso",
        "state": "BA",
        "district": "Centro",
        "street": "Rua Antonio Patrício Barbosa",
        "zipcode": "48601-560"
    },
    {
        "city": "Paulo Afonso",
        "state": "BA",
        "district": "Tropical",
        "street": "Rua da Saudade",
        "zipcode": "48605-764"
    },
    {
        "city": "Paulo Afonso",
        "state": "BA",
        "district": "Alves de Souza",
        "street": "Rua Catu",
        "zipcode": "48608-125"
    },
    {
        "city": "Paulo Afonso",
        "state": "BA",
        "district": "Centro",
        "street": "Beco Everaldo Henrique",
        "zipcode": "48601-255"
    },
    {
        "city": "Paulo Afonso",
        "state": "BA",
        "district": "Centro",
        "street": "Rua Raimundo Mederico da Silva Toledo",
        "zipcode": "48601-265"
    },
    {
        "city": "Paulo Afonso",
        "state": "BA",
        "district": "São Vicente",
        "street": "Rua Rússia",
        "zipcode": "48603-536"
    },
    {
        "city": "Paulo Afonso",
        "state": "BA",
        "district": "Alves de Souza",
        "street": "Rua 2 de Julho",
        "zipcode": "48608-165"
    },
    {
        "city": "Paulo Afonso",
        "state": "BA",
        "district": "Jardim Bahia",
        "street": "Rua Santa Brígida",
        "zipcode": "48604-045"
    },
    {
        "city": "Paulo Afonso",
        "state": "BA",
        "district": "Centro",
        "street": "Rua Sabino Gabriel da Silva",
        "zipcode": "48601-550"
    },
    {
        "city": "Paulo Afonso",
        "state": "BA",
        "district": "Centro",
        "street": "Rua Doutor Manoel Barros de Freitas",
        "zipcode": "48602-515"
    },
    {
        "city": "Paulo Afonso",
        "state": "BA",
        "district": "Centro",
        "street": "Rua José Firmino Lins",
        "zipcode": "48602-580"
    },
    {
        "city": "Paulo Afonso",
        "state": "BA",
        "district": "São Vicente",
        "street": "Rua Hungria",
        "zipcode": "48603-548"
    },
    {
        "city": "Paulo Afonso",
        "state": "BA",
        "district": "São Vicente",
        "street": "Rua Jamaica",
        "zipcode": "48603-540"
    },
    {
        "city": "Paulo Afonso",
        "state": "BA",
        "district": "Centro",
        "street": "Rua da Alegria",
        "zipcode": "48601-470"
    },
    {
        "city": "Paulo Afonso",
        "state": "BA",
        "district": "Centro",
        "street": "Rua Barão do Rio Branco",
        "zipcode": "48601-480"
    },
    {
        "city": "Paulo Afonso",
        "state": "BA",
        "district": "Jardim Bahia",
        "street": "Avenida Beira Rio",
        "zipcode": "48604-000"
    },
    {
        "city": "Paulo Afonso",
        "state": "BA",
        "district": "Clériston Andrade",
        "street": "Avenida Boa Viagem",
        "zipcode": "48603-300"
    },
    {
        "city": "Paulo Afonso",
        "state": "BA",
        "district": "Clériston Andrade",
        "street": "Rua Campos Sales",
        "zipcode": "48603-440"
    },
    {
        "city": "Paulo Afonso",
        "state": "BA",
        "district": "Centro",
        "street": "Rua Castro Alves",
        "zipcode": "48601-450"
    },
    {
        "city": "Paulo Afonso",
        "state": "BA",
        "district": "Centro",
        "street": "Rua Engenheiro Alves de Souza",
        "zipcode": "48602-080"
    },
    {
        "city": "Paulo Afonso",
        "state": "BA",
        "district": "Centro",
        "street": "Rua das Flores",
        "zipcode": "48601-530"
    },
    {
        "city": "Paulo Afonso",
        "state": "BA",
        "district": "Nossa Senhora de Fátima",
        "street": "Rua José de Alencar",
        "zipcode": "48601-080"
    },
    {
        "city": "Paulo Afonso",
        "state": "BA",
        "district": "Clériston Andrade",
        "street": "Rua Olavo Bilac",
        "zipcode": "48603-360"
    },
    {
        "city": "Paulo Afonso",
        "state": "BA",
        "district": "Centro",
        "street": "Rua Otávio Mangabeira",
        "zipcode": "48602-030"
    },
    {
        "city": "Paulo Afonso",
        "state": "BA",
        "district": "Centro",
        "street": "Rua Padre Lourenço",
        "zipcode": "48602-060"
    },
    {
        "city": "Paulo Afonso",
        "state": "BA",
        "district": "Centro",
        "street": "Rua Pedro Mendes",
        "zipcode": "48601-190"
    },
    {
        "city": "Paulo Afonso",
        "state": "BA",
        "district": "Clériston Andrade",
        "street": "Rua Nilo Peçanha",
        "zipcode": "48603-320"
    },
    {
        "city": "Paulo Afonso",
        "state": "BA",
        "district": "Jardim Bahia",
        "street": "Rua Vinícius de Moraes",
        "zipcode": "48604-020"
    },
    {
        "city": "Paulo Afonso",
        "state": "BA",
        "district": "Centro",
        "street": "Rua Santo Antônio",
        "zipcode": "48601-465"
    },
    {
        "city": "Paulo Afonso",
        "state": "BA",
        "district": "Centenário",
        "street": "Rua Santo Antônio",
        "zipcode": "48605-660"
    },
    {
        "city": "Paulo Afonso",
        "state": "BA",
        "district": "Nossa Senhora de Fátima",
        "street": "Rua São Francisco",
        "zipcode": "48601-070"
    },
    {
        "city": "Paulo Afonso",
        "state": "BA",
        "district": "Jardim Bahia",
        "street": "Rua São Gonçalo",
        "zipcode": "48604-230"
    },
    {
        "city": "Paulo Afonso",
        "state": "BA",
        "district": "Centro",
        "street": "Rua São Pedro",
        "zipcode": "48602-090"
    },
    {
        "city": "Paulo Afonso",
        "state": "BA",
        "district": "Jardim Bahia",
        "street": "Rua Tancredo Neves",
        "zipcode": "48604-250"
    },
    {
        "city": "Paulo Afonso",
        "state": "BA",
        "district": "Clériston Andrade",
        "street": "Rua Tomé de Souza",
        "zipcode": "48603-390"
    },
    {
        "city": "Paulo Afonso",
        "state": "BA",
        "district": "Perpétuo Socorro",
        "street": "Rua Brasília",
        "zipcode": "48603-260"
    },
    {
        "city": "Paulo Afonso",
        "state": "BA",
        "district": "Clériston Andrade",
        "street": "Rua Almirante Barroso",
        "zipcode": "48603-370"
    },
    {
        "city": "Paulo Afonso",
        "state": "BA",
        "district": "Oliveira Lopes",
        "street": "Avenida da Amizade",
        "zipcode": "48607-315"
    },
    {
        "city": "Paulo Afonso",
        "state": "BA",
        "district": "Centenário",
        "street": "Avenida Antônio Carlos Magalhães",
        "zipcode": "48605-605"
    },
    {
        "city": "Paulo Afonso",
        "state": "BA",
        "district": "Abel Barbosa",
        "street": "Rua Chile",
        "zipcode": "48605-215"
    },
    {
        "city": "Paulo Afonso",
        "state": "BA",
        "district": "Abel Barbosa",
        "street": "Rua dos Estudantes",
        "zipcode": "48605-205"
    },
    {
        "city": "Paulo Afonso",
        "state": "BA",
        "district": "São Vicente",
        "street": "Rua Hawai",
        "zipcode": "48603-580"
    },
    {
        "city": "Paulo Afonso",
        "state": "BA",
        "district": "Oliveira Brito",
        "street": "Rua Montes Claros",
        "zipcode": "48604-578"
    },
    {
        "city": "Paulo Afonso",
        "state": "BA",
        "district": "Centro",
        "street": "Rua Alicípio Aureliano de Andrade",
        "zipcode": "48601-205"
    },
    {
        "city": "Paulo Afonso",
        "state": "BA",
        "district": "São Vicente",
        "street": "Rua Vietnã",
        "zipcode": "48603-568"
    },
    {
        "city": "Paulo Afonso",
        "state": "BA",
        "district": "Oliveira Brito",
        "street": "Rua Itaúna",
        "zipcode": "48604-570"
    },
    {
        "city": "Paulo Afonso",
        "state": "BA",
        "district": "São Vicente",
        "street": "Rua Líbano",
        "zipcode": "48603-508"
    },
    {
        "city": "Paulo Afonso",
        "state": "BA",
        "district": "Perpétuo Socorro",
        "street": "Rua José Ferreira Batista",
        "zipcode": "48603-040"
    },
    {
        "city": "Paulo Afonso",
        "state": "BA",
        "district": "Dernival Oliveira",
        "street": "Rua Botafogo",
        "zipcode": "48603-818"
    },
    {
        "city": "Paulo Afonso",
        "state": "BA",
        "district": "São Vicente",
        "street": "Rua dos Perdões",
        "zipcode": "48603-584"
    },
    {
        "city": "Paulo Afonso",
        "state": "BA",
        "district": "São Vicente",
        "street": "Rua Herbert de Souza",
        "zipcode": "48603-524"
    },
    {
        "city": "Paulo Afonso",
        "state": "BA",
        "district": "Dernival Oliveira",
        "street": "Rua Lajedo",
        "zipcode": "48603-820"
    },
    {
        "city": "Paulo Afonso",
        "state": "BA",
        "district": "Oliveira Brito",
        "street": "Rua Salinas",
        "zipcode": "48604-534"
    },
    {
        "city": "Paulo Afonso",
        "state": "BA",
        "district": "Nossa Senhora de Fátima",
        "street": "Rua José de Oliveira Matos",
        "zipcode": "48601-100"
    },
    {
        "city": "Paulo Afonso",
        "state": "BA",
        "district": "São Vicente",
        "street": "Rua Alemanha",
        "zipcode": "48603-512"
    },
    {
        "city": "Paulo Afonso",
        "state": "BA",
        "district": "Perpétuo Socorro",
        "street": "Rua João Mariano",
        "zipcode": "48603-035"
    },
    {
        "city": "Paulo Afonso",
        "state": "BA",
        "district": "São Vicente",
        "street": "Avenida Eraldo Rocha",
        "zipcode": "48603-500"
    },
    {
        "city": "Paulo Afonso",
        "state": "BA",
        "district": "São Vicente",
        "street": "Rua Aldair Pereira Leite",
        "zipcode": "48603-572"
    },
    {
        "city": "Paulo Afonso",
        "state": "BA",
        "district": "Perpétuo Socorro",
        "street": "Rua Edvaldo Santos",
        "zipcode": "48603-065"
    },
    {
        "city": "Paulo Afonso",
        "state": "BA",
        "district": "São Vicente",
        "street": "Rua Coréia",
        "zipcode": "48603-592"
    },
    {
        "city": "Paulo Afonso",
        "state": "BA",
        "district": "São Vicente",
        "street": "Rua Egito",
        "zipcode": "48603-588"
    },
    {
        "city": "Paulo Afonso",
        "state": "BA",
        "district": "São Vicente",
        "street": "Rua Paulo Freire",
        "zipcode": "48603-552"
    },
    {
        "city": "Paulo Afonso",
        "state": "BA",
        "district": "São Vicente",
        "street": "Rua China",
        "zipcode": "48603-564"
    },
    {
        "city": "Paulo Afonso",
        "state": "BA",
        "district": "Oliveira Brito",
        "street": "Rua da Subestação",
        "zipcode": "48604-520"
    },
    {
        "city": "Paulo Afonso",
        "state": "BA",
        "district": "São Vicente",
        "street": "Rua México",
        "zipcode": "48603-556"
    },
    {
        "city": "Paulo Afonso",
        "state": "BA",
        "district": "Dernival Oliveira",
        "street": "Rua Dílson Funaro",
        "zipcode": "48603-814"
    },
    {
        "city": "Paulo Afonso",
        "state": "BA",
        "district": "Jardim Aeroporto",
        "street": "Rua Mário Andreazza",
        "zipcode": "48603-726"
    },
    {
        "city": "Paulo Afonso",
        "state": "BA",
        "district": "São Vicente",
        "street": "Rua Polônia",
        "zipcode": "48603-516"
    },
    {
        "city": "Paulo Afonso",
        "state": "BA",
        "district": "Abel Barbosa",
        "street": "Rua Itália",
        "zipcode": "48605-245"
    },
    {
        "city": "Paulo Afonso",
        "state": "BA",
        "district": "Jardim Bahia",
        "street": "Rua Santa Inês",
        "zipcode": "48604-155"
    },
    {
        "city": "Paulo Afonso",
        "state": "BA",
        "district": "Jardim Bahia",
        "street": "Rua Santa Clara",
        "zipcode": "48604-175"
    },
    {
        "city": "Paulo Afonso",
        "state": "BA",
        "district": "Centenário",
        "street": "Travessa Paraíba",
        "zipcode": "48605-545"
    },
    {
        "city": "Paulo Afonso",
        "state": "BA",
        "district": "Oliveira Lopes",
        "street": "Travessa Ceará",
        "zipcode": "48607-325"
    },
    {
        "city": "Paulo Afonso",
        "state": "BA",
        "district": "Oliveira Lopes",
        "street": "Rua Alagoas",
        "zipcode": "48607-330"
    },
    {
        "city": "Paulo Afonso",
        "state": "BA",
        "district": "Oliveira Lopes",
        "street": "Rua Bahia",
        "zipcode": "48607-370"
    },
    {
        "city": "Paulo Afonso",
        "state": "BA",
        "district": "Centro",
        "street": "Praça Bráulio Gomes",
        "zipcode": "48602-020"
    },
    {
        "city": "Paulo Afonso",
        "state": "BA",
        "district": "Perpétuo Socorro",
        "street": "Rua Campo Grande",
        "zipcode": "48603-190"
    },
    {
        "city": "Paulo Afonso",
        "state": "BA",
        "district": "Abel Barbosa",
        "street": "Rua Canadá",
        "zipcode": "48605-280"
    },
    {
        "city": "Paulo Afonso",
        "state": "BA",
        "district": "Perpétuo Socorro",
        "street": "Rua Erocilda Patriota",
        "zipcode": "48603-210"
    },
    {
        "city": "Paulo Afonso",
        "state": "BA",
        "district": "Centenário",
        "street": "Rua Maceió",
        "zipcode": "48605-640"
    },
    {
        "city": "Paulo Afonso",
        "state": "BA",
        "district": "Centenário",
        "street": "Rua José Teixeira",
        "zipcode": "48605-520"
    },
    {
        "city": "Paulo Afonso",
        "state": "BA",
        "district": "Centenário",
        "street": "Rua Osvaldo Cruz",
        "zipcode": "48605-490"
    },
    {
        "city": "Paulo Afonso",
        "state": "BA",
        "district": "Abel Barbosa",
        "street": "Rua Portugal",
        "zipcode": "48605-240"
    },
    {
        "city": "Paulo Afonso",
        "state": "BA",
        "district": "Jardim Bahia",
        "street": "Rua Rio Branco",
        "zipcode": "48604-220"
    },
    {
        "city": "Paulo Afonso",
        "state": "BA",
        "district": "Perpétuo Socorro",
        "street": "Rua Rio Negro",
        "zipcode": "48603-150"
    },
    {
        "city": "Paulo Afonso",
        "state": "BA",
        "district": "Perpétuo Socorro",
        "street": "Rua São Cristóvão",
        "zipcode": "48603-250"
    },
    {
        "city": "Paulo Afonso",
        "state": "BA",
        "district": "Centenário",
        "street": "Rua São João",
        "zipcode": "48605-480"
    },
    {
        "city": "Paulo Afonso",
        "state": "BA",
        "district": "Centenário",
        "street": "Rua São Jorge",
        "zipcode": "48605-500"
    },
    {
        "city": "Paulo Afonso",
        "state": "BA",
        "district": "Jardim Bahia",
        "street": "Rua São Pedro",
        "zipcode": "48604-160"
    },
    {
        "city": "Paulo Afonso",
        "state": "BA",
        "district": "Jardim Bahia",
        "street": "Rua São Vicente",
        "zipcode": "48604-150"
    },
    {
        "city": "Paulo Afonso",
        "state": "BA",
        "district": "Perpétuo Socorro",
        "street": "Avenida da Maçonaria",
        "zipcode": "48603-241"
    },
    {
        "city": "Paulo Afonso",
        "state": "BA",
        "district": "Centenário",
        "street": "Rua 13 de Maio",
        "zipcode": "48605-600"
    },
    {
        "city": "Paulo Afonso",
        "state": "BA",
        "district": "Jardim Bahia",
        "street": "Rua São José",
        "zipcode": "48604-210"
    },
    {
        "city": "Paulo Afonso",
        "state": "BA",
        "district": "Centenário",
        "street": "Rua da Liberdade",
        "zipcode": "48605-560"
    },
    {
        "city": "Paulo Afonso",
        "state": "BA",
        "district": "General Dutra",
        "street": "Avenida da Amizade",
        "zipcode": "48607-235"
    },
    {
        "city": "Paulo Afonso",
        "state": "BA",
        "district": "Caminho dos Lagos",
        "street": "Rua Chile",
        "zipcode": "48605-355"
    },
    {
        "city": "Paulo Afonso",
        "state": "BA",
        "district": "Alves de Souza",
        "street": "Travessa B (Primavera)",
        "zipcode": "48608-300"
    },
    {
        "city": "Paulo Afonso",
        "state": "BA",
        "district": "Alves de Souza",
        "street": "Travessa C (Primavera)",
        "zipcode": "48608-305"
    },
    {
        "city": "Paulo Afonso",
        "state": "BA",
        "district": "Alves de Souza",
        "street": "Travessa F (Primavera)",
        "zipcode": "48608-320"
    },
    {
        "city": "Paulo Afonso",
        "state": "BA",
        "district": "Alves de Souza",
        "street": "Travessa G (Primavera)",
        "zipcode": "48608-325"
    },
    {
        "city": "Paulo Afonso",
        "state": "BA",
        "district": "Alves de Souza",
        "street": "Rua Paraná",
        "zipcode": "48608-345"
    },
    {
        "city": "Paulo Afonso",
        "state": "BA",
        "district": "Alves de Souza",
        "street": "Rua Porto Alegre",
        "zipcode": "48608-350"
    },
    {
        "city": "Paulo Afonso",
        "state": "BA",
        "district": "Clériston Andrade",
        "street": "Rua Jaboatão",
        "zipcode": "48603-450"
    },
    {
        "city": "Paulo Afonso",
        "state": "BA",
        "district": "Oliveira Brito",
        "street": "Rua Anápolis",
        "zipcode": "48604-530"
    },
    {
        "city": "Paulo Afonso",
        "state": "BA",
        "district": "Oliveira Brito",
        "street": "Rua Canavieiras",
        "zipcode": "48604-502"
    },
    {
        "city": "Paulo Afonso",
        "state": "BA",
        "district": "Oliveira Brito",
        "street": "Avenida Moxotó",
        "zipcode": "48604-500"
    },
    {
        "city": "Paulo Afonso",
        "state": "BA",
        "district": "Clériston Andrade",
        "street": "Rua Graciliano Ramos",
        "zipcode": "48603-385"
    },
    {
        "city": "Paulo Afonso",
        "state": "BA",
        "district": "Clériston Andrade",
        "street": "Travessa Jorge Amado",
        "zipcode": "48603-375"
    },
    {
        "city": "Paulo Afonso",
        "state": "BA",
        "district": "Nossa Senhora de Fátima",
        "street": "Rua Recanto Feliz 10",
        "zipcode": "48601-040"
    },
    {
        "city": "Paulo Afonso",
        "state": "BA",
        "district": "Alves de Souza",
        "street": "Travessa Aratu",
        "zipcode": "48608-385"
    },
    {
        "city": "Paulo Afonso",
        "state": "BA",
        "district": "Amaury Alves de Menezes",
        "street": "Rua Paris",
        "zipcode": "48605-169"
    },
    {
        "city": "Paulo Afonso",
        "state": "BA",
        "district": "Sal Torrado",
        "street": "Rua Atalaia",
        "zipcode": "48605-784"
    },
    {
        "city": "Paulo Afonso",
        "state": "BA",
        "district": "Sal Torrado",
        "street": "Travessa Atalaia",
        "zipcode": "48605-812"
    },
    {
        "city": "Paulo Afonso",
        "state": "BA",
        "district": "Alves de Souza",
        "street": "Travessa Esplanada",
        "zipcode": "48608-555"
    },
    {
        "city": "Paulo Afonso",
        "state": "BA",
        "district": "Jardim Bahia",
        "street": "Rua Cajazeiras",
        "zipcode": "48604-075"
    },
    {
        "city": "Paulo Afonso",
        "state": "BA",
        "district": "Jardim Bahia",
        "street": "Rua Santo Amaro",
        "zipcode": "48604-125"
    },
    {
        "city": "Paulo Afonso",
        "state": "BA",
        "district": "Jardim Bahia",
        "street": "Rua José Bezerra da Silva",
        "zipcode": "48604-165"
    },
    {
        "city": "Paulo Afonso",
        "state": "BA",
        "district": "Jardim Bahia",
        "street": "Rua Ribeira do Pombal",
        "zipcode": "48604-205"
    },
    {
        "city": "Paulo Afonso",
        "state": "BA",
        "district": "Dernival Oliveira",
        "street": "Rua Boa Vista",
        "zipcode": "48603-802"
    },
    {
        "city": "Paulo Afonso",
        "state": "BA",
        "district": "Dernival Oliveira",
        "street": "Rua Padre Hermínio Filho",
        "zipcode": "48603-800"
    },
    {
        "city": "Paulo Afonso",
        "state": "BA",
        "district": "Oliveira Brito",
        "street": "Rua Valparaíso",
        "zipcode": "48604-556"
    },
    {
        "city": "Paulo Afonso",
        "state": "BA",
        "district": "Oliveira Brito",
        "street": "Rua Caraíbas",
        "zipcode": "48604-540"
    },
    {
        "city": "Paulo Afonso",
        "state": "BA",
        "district": "Cardeal Brandão Vilela",
        "street": "Rua Atalaia",
        "zipcode": "48610-484"
    },
    {
        "city": "Paulo Afonso",
        "state": "BA",
        "district": "Dernival Oliveira",
        "street": "Rua da Amizade",
        "zipcode": "48603-812"
    },
    {
        "city": "Paulo Afonso",
        "state": "BA",
        "district": "Clériston Andrade",
        "street": "Rua Felix Benzota de Carvalho",
        "zipcode": "48603-430"
    },
    {
        "city": "Paulo Afonso",
        "state": "BA",
        "district": "Nossa Senhora de Fátima",
        "street": "Rua São João",
        "zipcode": "48601-045"
    },
    {
        "city": "Paulo Afonso",
        "state": "BA",
        "district": "Centenário",
        "street": "Rua Manaus",
        "zipcode": "48605-525"
    },
    {
        "city": "Paulo Afonso",
        "state": "BA",
        "district": "Vila Nobre",
        "street": "Rua Engenheiro Amaury Alves de Menezes",
        "zipcode": "48608-574"
    },
    {
        "city": "Paulo Afonso",
        "state": "BA",
        "district": "General Dutra",
        "street": "Rua da Alvorada",
        "zipcode": "48607-060"
    },
    {
        "city": "Paulo Afonso",
        "state": "BA",
        "district": "Alves de Souza",
        "street": "Rua Aratu",
        "zipcode": "48608-520"
    },
    {
        "city": "Paulo Afonso",
        "state": "BA",
        "district": "Abel Barbosa",
        "street": "Rua Argentina",
        "zipcode": "48605-290"
    },
    {
        "city": "Paulo Afonso",
        "state": "BA",
        "district": "Jardim Bahia",
        "street": "Travessa Beira Rio",
        "zipcode": "48604-060"
    },
    {
        "city": "Paulo Afonso",
        "state": "BA",
        "district": "General Dutra",
        "street": "Rua da Boa Idéia",
        "zipcode": "48607-140"
    },
    {
        "city": "Paulo Afonso",
        "state": "BA",
        "district": "General Dutra",
        "street": "Rua da Bondade",
        "zipcode": "48607-170"
    },
    {
        "city": "Paulo Afonso",
        "state": "BA",
        "district": "General Dutra",
        "street": "Rua da Concórdia",
        "zipcode": "48607-240"
    },
    {
        "city": "Paulo Afonso",
        "state": "BA",
        "district": "General Dutra",
        "street": "Rua da Consolação",
        "zipcode": "48607-245"
    },
    {
        "city": "Paulo Afonso",
        "state": "BA",
        "district": "General Dutra",
        "street": "Rua Recife",
        "zipcode": "48607-150"
    },
    {
        "city": "Paulo Afonso",
        "state": "BA",
        "district": "Jardim Bahia",
        "street": "Rua Itabuna",
        "zipcode": "48604-090"
    },
    {
        "city": "Paulo Afonso",
        "state": "BA",
        "district": "Caminho dos Lagos",
        "street": "Rua Lago da Paz",
        "zipcode": "48605-430"
    },
    {
        "city": "Paulo Afonso",
        "state": "BA",
        "district": "Caminho dos Lagos",
        "street": "Rua Lago do Amor",
        "zipcode": "48605-350"
    },
    {
        "city": "Paulo Afonso",
        "state": "BA",
        "district": "Caminho dos Lagos",
        "street": "Rua Lago Horizonte",
        "zipcode": "48605-390"
    },
    {
        "city": "Paulo Afonso",
        "state": "BA",
        "district": "Caminho dos Lagos",
        "street": "Rua Lago Ipanema",
        "zipcode": "48605-360"
    },
    {
        "city": "Paulo Afonso",
        "state": "BA",
        "district": "Caminho dos Lagos",
        "street": "Rua Lago Itaparica",
        "zipcode": "48605-380"
    },
    {
        "city": "Paulo Afonso",
        "state": "BA",
        "district": "Caminho dos Lagos",
        "street": "Rua Lago Itapoã",
        "zipcode": "48605-440"
    },
    {
        "city": "Paulo Afonso",
        "state": "BA",
        "district": "Alves de Souza",
        "street": "Rua das Mangueiras",
        "zipcode": "48608-470"
    },
    {
        "city": "Paulo Afonso",
        "state": "BA",
        "district": "General Dutra",
        "street": "Rua Marcondes Ferraz",
        "zipcode": "48607-000"
    },
    {
        "city": "Paulo Afonso",
        "state": "BA",
        "district": "Jardim Bahia",
        "street": "Rua Maria Quitéria",
        "zipcode": "48604-100"
    },
    {
        "city": "Paulo Afonso",
        "state": "BA",
        "district": "Oliveira Lopes",
        "street": "Rua Pernambuco",
        "zipcode": "48607-390"
    },
    {
        "city": "Paulo Afonso",
        "state": "BA",
        "district": "Alves de Souza",
        "street": "Rua dos Prazeres",
        "zipcode": "48608-560"
    },
    {
        "city": "Paulo Afonso",
        "state": "BA",
        "district": "General Dutra",
        "street": "Rua Sossego",
        "zipcode": "48607-220"
    },
    {
        "city": "Paulo Afonso",
        "state": "BA",
        "district": "Fazenda CHESF",
        "street": "Rua Arari",
        "zipcode": "48606-520"
    },
    {
        "city": "Paulo Afonso",
        "state": "BA",
        "district": "Alves de Souza",
        "street": "Rua Salvador",
        "zipcode": "48608-460"
    },
    {
        "city": "Paulo Afonso",
        "state": "BA",
        "district": "Jardim Bahia",
        "street": "Rua São Miguel",
        "zipcode": "48604-120"
    },
    {
        "city": "Paulo Afonso",
        "state": "BA",
        "district": "Capuxú",
        "street": "Rua Bela Vista",
        "zipcode": "48606-820"
    },
    {
        "city": "Paulo Afonso",
        "state": "BA",
        "district": "Tancredo Neves II",
        "street": "Rua Senhor do Bonfim",
        "zipcode": "48609-172"
    },
    {
        "city": "Paulo Afonso",
        "state": "BA",
        "district": "Tancredo Neves II",
        "street": "Rua Verdes Campos",
        "zipcode": "48609-136"
    },
    {
        "city": "Paulo Afonso",
        "state": "BA",
        "district": "Tancredo Neves II",
        "street": "Avenida Delmiro Gouveia",
        "zipcode": "48609-124"
    },
    {
        "city": "Paulo Afonso",
        "state": "BA",
        "district": "Tancredo Neves II",
        "street": "Rua Santa Rita",
        "zipcode": "48609-144"
    },
    {
        "city": "Paulo Afonso",
        "state": "BA",
        "district": "Alves de Souza",
        "street": "Travessa A (Primavera)",
        "zipcode": "48608-295"
    },
    {
        "city": "Paulo Afonso",
        "state": "BA",
        "district": "Alves de Souza",
        "street": "Travessa Alagoinha",
        "zipcode": "48608-380"
    },
    {
        "city": "Paulo Afonso",
        "state": "BA",
        "district": "Sal Torrado",
        "street": "Travessa do Futuro",
        "zipcode": "48605-840"
    },
    {
        "city": "Paulo Afonso",
        "state": "BA",
        "district": "Sal Torrado",
        "street": "Rua do Futuro",
        "zipcode": "48605-844"
    },
    {
        "city": "Paulo Afonso",
        "state": "BA",
        "district": "Barroca",
        "street": "Rua Inhapi",
        "zipcode": "48604-780"
    },
    {
        "city": "Paulo Afonso",
        "state": "BA",
        "district": "Barroca",
        "street": "Rua Luiz Gonzaga",
        "zipcode": "48604-790"
    },
    {
        "city": "Paulo Afonso",
        "state": "BA",
        "district": "Centenário",
        "street": "Rua Belém",
        "zipcode": "48605-595"
    },
    {
        "city": "Paulo Afonso",
        "state": "BA",
        "district": "Amaury Alves de Menezes",
        "street": "Rua dos Estudantes",
        "zipcode": "48605-195"
    },
    {
        "city": "Paulo Afonso",
        "state": "BA",
        "district": "Tancredo Neves II",
        "street": "Travessa Santa Rita",
        "zipcode": "48609-122"
    },
    {
        "city": "Paulo Afonso",
        "state": "BA",
        "district": "Tancredo Neves II",
        "street": "Rua 4 de Outubro",
        "zipcode": "48609-126"
    },
    {
        "city": "Paulo Afonso",
        "state": "BA",
        "district": "Tancredo Neves II",
        "street": "Travessa Verdes Campos",
        "zipcode": "48609-134"
    },
    {
        "city": "Paulo Afonso",
        "state": "BA",
        "district": "Tancredo Neves II",
        "street": "Rua Petrópolis",
        "zipcode": "48609-138"
    },
    {
        "city": "Paulo Afonso",
        "state": "BA",
        "district": "Tancredo Neves II",
        "street": "Rua Brumado",
        "zipcode": "48609-152"
    },
    {
        "city": "Paulo Afonso",
        "state": "BA",
        "district": "Tancredo Neves II",
        "street": "2ª Travessa Padre Lourenço",
        "zipcode": "48609-186"
    },
    {
        "city": "Paulo Afonso",
        "state": "BA",
        "district": "Tancredo Neves II",
        "street": "1ª Travessa Olavo Bilac",
        "zipcode": "48609-192"
    },
    {
        "city": "Paulo Afonso",
        "state": "BA",
        "district": "Amaury Alves de Menezes",
        "street": "Rua Berlim",
        "zipcode": "48605-173"
    },
    {
        "city": "Paulo Afonso",
        "state": "BA",
        "district": "Centenário",
        "street": "Travessa Manaus",
        "zipcode": "48605-535"
    },
    {
        "city": "Paulo Afonso",
        "state": "BA",
        "district": "Barroca",
        "street": "Rua João Miguel de Lima",
        "zipcode": "48604-750"
    },
    {
        "city": "Paulo Afonso",
        "state": "BA",
        "district": "Jardim Bahia",
        "street": "Rua Ipojuca",
        "zipcode": "48604-200"
    },
    {
        "city": "Paulo Afonso",
        "state": "BA",
        "district": "Jardim Bahia",
        "street": "Rua Jequié",
        "zipcode": "48604-190"
    },
    {
        "city": "Paulo Afonso",
        "state": "BA",
        "district": "Clériston Andrade",
        "street": "Rua Euclides da Cunha",
        "zipcode": "48603-330"
    },
    {
        "city": "Paulo Afonso",
        "state": "BA",
        "district": "General Dutra",
        "street": "Rua Angelim",
        "zipcode": "48607-300"
    },
    {
        "city": "Paulo Afonso",
        "state": "BA",
        "district": "Amaury Alves de Menezes",
        "street": "Rua Londres",
        "zipcode": "48605-177"
    },
    {
        "city": "Paulo Afonso",
        "state": "BA",
        "district": "Amaury Alves de Menezes",
        "street": "Rua Barcelona",
        "zipcode": "48605-185"
    },
    {
        "city": "Paulo Afonso",
        "state": "BA",
        "district": "Barroca",
        "street": "Rua Teofilândia",
        "zipcode": "48604-770"
    },
    {
        "city": "Paulo Afonso",
        "state": "BA",
        "district": "Jardim Bahia",
        "street": "Rua São Lucas",
        "zipcode": "48604-035"
    },
    {
        "city": "Paulo Afonso",
        "state": "BA",
        "district": "Alves de Souza",
        "street": "Rua Tancredo Neves",
        "zipcode": "48608-095"
    },
    {
        "city": "Paulo Afonso",
        "state": "BA",
        "district": "Alves de Souza",
        "street": "Travessa da Felicidade",
        "zipcode": "48608-115"
    },
    {
        "city": "Paulo Afonso",
        "state": "BA",
        "district": "Alves de Souza",
        "street": "Travessa dos Amores",
        "zipcode": "48608-265"
    },
    {
        "city": "Paulo Afonso",
        "state": "BA",
        "district": "Alves de Souza",
        "street": "Travessa do Futuro",
        "zipcode": "48608-275"
    },
    {
        "city": "Paulo Afonso",
        "state": "BA",
        "district": "Amaury Alves de Menezes",
        "street": "Rua Califórnia",
        "zipcode": "48605-146"
    },
    {
        "city": "Paulo Afonso",
        "state": "BA",
        "district": "Amaury Alves de Menezes",
        "street": "Rua Washington",
        "zipcode": "48605-156"
    },
    {
        "city": "Paulo Afonso",
        "state": "BA",
        "district": "Alves de Souza",
        "street": "Rua Alagoinha",
        "zipcode": "48608-410"
    },
    {
        "city": "Paulo Afonso",
        "state": "BA",
        "district": "Alves de Souza",
        "street": "Rua Aracaju",
        "zipcode": "48608-130"
    },
    {
        "city": "Paulo Afonso",
        "state": "BA",
        "district": "Alves de Souza",
        "street": "Rua das Crioulas",
        "zipcode": "48608-110"
    },
    {
        "city": "Paulo Afonso",
        "state": "BA",
        "district": "Alves de Souza",
        "street": "Rua do Futuro",
        "zipcode": "48608-420"
    },
    {
        "city": "Paulo Afonso",
        "state": "BA",
        "district": "Alves de Souza",
        "street": "Rua do Gangorra",
        "zipcode": "48608-240"
    },
    {
        "city": "Paulo Afonso",
        "state": "BA",
        "district": "Tancredo Neves II",
        "street": "Rua Osvaldo Cruz",
        "zipcode": "48609-170"
    },
    {
        "city": "Paulo Afonso",
        "state": "BA",
        "district": "Tancredo Neves II",
        "street": "Rua 7 de Setembro",
        "zipcode": "48609-160"
    },
    {
        "city": "Paulo Afonso",
        "state": "BA",
        "district": "Alves de Souza",
        "street": "Rua da Felicidade",
        "zipcode": "48608-120"
    },
    {
        "city": "Paulo Afonso",
        "state": "BA",
        "district": "Tancredo Neves I",
        "street": "Rua Santa Rita",
        "zipcode": "48609-034"
    },
    {
        "city": "Paulo Afonso",
        "state": "BA",
        "district": "Santa Inês",
        "street": "Rua São José",
        "zipcode": "48610-212"
    },
    {
        "city": "Paulo Afonso",
        "state": "BA",
        "district": "Santa Inês",
        "street": "Rua Santa Inês",
        "zipcode": "48610-224"
    },
    {
        "city": "Paulo Afonso",
        "state": "BA",
        "district": "Tancredo Neves II",
        "street": "Rua Nova",
        "zipcode": "48609-116"
    },
    {
        "city": "Paulo Afonso",
        "state": "BA",
        "district": "Rodoviários",
        "street": "Rua Teresina",
        "zipcode": "48609-488"
    },
    {
        "city": "Paulo Afonso",
        "state": "BA",
        "district": "Rodoviários",
        "street": "Rua Bahia",
        "zipcode": "48609-494"
    },
    {
        "city": "Paulo Afonso",
        "state": "BA",
        "district": "Rodoviários",
        "street": "Rua São Francisco",
        "zipcode": "48609-504"
    },
    {
        "city": "Paulo Afonso",
        "state": "BA",
        "district": "Santa Inês",
        "street": "Rua Boca do Rio",
        "zipcode": "48610-262"
    },
    {
        "city": "Paulo Afonso",
        "state": "BA",
        "district": "Santa Inês",
        "street": "Rua Nazaré",
        "zipcode": "48610-270"
    },
    {
        "city": "Paulo Afonso",
        "state": "BA",
        "district": "Santa Inês",
        "street": "Rua Tororó",
        "zipcode": "48610-272"
    },
    {
        "city": "Paulo Afonso",
        "state": "BA",
        "district": "Amaury Alves de Menezes",
        "street": "Rua Bariloche",
        "zipcode": "48605-142"
    },
    {
        "city": "Paulo Afonso",
        "state": "BA",
        "district": "Fazenda CHESF",
        "street": "Rua Júlio Henrique de Santana",
        "zipcode": "48606-530"
    },
    {
        "city": "Paulo Afonso",
        "state": "BA",
        "district": "General Dutra",
        "street": "Rua da Aurora",
        "zipcode": "48607-190"
    },
    {
        "city": "Paulo Afonso",
        "state": "BA",
        "district": "Fazenda CHESF",
        "street": "Rua Salinas",
        "zipcode": "48606-570"
    },
    {
        "city": "Paulo Afonso",
        "state": "BA",
        "district": "Alves de Souza",
        "street": "Rua João Teodoro Neto",
        "zipcode": "48608-065"
    },
    {
        "city": "Paulo Afonso",
        "state": "BA",
        "district": "Sal Torrado",
        "street": "Rua Tupi",
        "zipcode": "48605-832"
    },
    {
        "city": "Paulo Afonso",
        "state": "BA",
        "district": "Tancredo Neves II",
        "street": "Rua Pinheiro",
        "zipcode": "48609-142"
    },
    {
        "city": "Paulo Afonso",
        "state": "BA",
        "district": "Centenário",
        "street": "Rua Lagoa do Abaeté",
        "zipcode": "48605-475"
    },
    {
        "city": "Paulo Afonso",
        "state": "BA",
        "district": "Sal Torrado",
        "street": "Rua Cajazeiras",
        "zipcode": "48605-836"
    },
    {
        "city": "Paulo Afonso",
        "state": "BA",
        "district": "Vila Nobre",
        "street": "Rua Dona Menininha",
        "zipcode": "48608-578"
    },
    {
        "city": "Paulo Afonso",
        "state": "BA",
        "district": "Amaury Alves de Menezes",
        "street": "Rua da Vitória",
        "zipcode": "48605-138"
    },
    {
        "city": "Paulo Afonso",
        "state": "BA",
        "district": "Centenário",
        "street": "Rua Ribeirinha",
        "zipcode": "48605-455"
    },
    {
        "city": "Paulo Afonso",
        "state": "BA",
        "district": "Abel Barbosa",
        "street": "Rua Argélia",
        "zipcode": "48605-235"
    },
    {
        "city": "Paulo Afonso",
        "state": "BA",
        "district": "Tancredo Neves I",
        "street": "Rua Alonso Macedo",
        "zipcode": "48609-096"
    },
    {
        "city": "Paulo Afonso",
        "state": "BA",
        "district": "Sal Torrado",
        "street": "Travessa Ibirapuera",
        "zipcode": "48605-804"
    },
    {
        "city": "Paulo Afonso",
        "state": "BA",
        "district": "General Dutra",
        "street": "Rua Garanhuns",
        "zipcode": "48607-262"
    },
    {
        "city": "Paulo Afonso",
        "state": "BA",
        "district": "General Dutra",
        "street": "Rua Fortaleza",
        "zipcode": "48607-290"
    },
    {
        "city": "Paulo Afonso",
        "state": "BA",
        "district": "Sal Torrado",
        "street": "Rua Pituba",
        "zipcode": "48605-800"
    },
    {
        "city": "Paulo Afonso",
        "state": "BA",
        "district": "General Dutra",
        "street": "Rua Belo Jardim",
        "zipcode": "48607-264"
    },
    {
        "city": "Paulo Afonso",
        "state": "BA",
        "district": "Centenário",
        "street": "Rua Santa Maria",
        "zipcode": "48605-465"
    },
    {
        "city": "Paulo Afonso",
        "state": "BA",
        "district": "General Dutra",
        "street": "Rua Pesqueira",
        "zipcode": "48607-270"
    },
    {
        "city": "Paulo Afonso",
        "state": "BA",
        "district": "Fazenda CHESF",
        "street": "Rua Floresta",
        "zipcode": "48606-550"
    },
    {
        "city": "Paulo Afonso",
        "state": "BA",
        "district": "Alves de Souza",
        "street": "Rua Mandacaru",
        "zipcode": "48608-280"
    },
    {
        "city": "Paulo Afonso",
        "state": "BA",
        "district": "Sal Torrado",
        "street": "Rua Morumbi",
        "zipcode": "48605-824"
    },
    {
        "city": "Paulo Afonso",
        "state": "BA",
        "district": "Capuxú",
        "street": "Rua do Comando",
        "zipcode": "48606-815"
    },
    {
        "city": "Paulo Afonso",
        "state": "BA",
        "district": "Jardim Bahia",
        "street": "Rua Cafarnaum",
        "zipcode": "48604-025"
    },
    {
        "city": "Paulo Afonso",
        "state": "BA",
        "district": "Alves de Souza",
        "street": "Travessa Mandacaru",
        "zipcode": "48608-285"
    },
    {
        "city": "Paulo Afonso",
        "state": "BA",
        "district": "Abel Barbosa",
        "street": "Rua Equador",
        "zipcode": "48605-270"
    },
    {
        "city": "Paulo Afonso",
        "state": "BA",
        "district": "Tancredo Neves II",
        "street": "Rua Copacabana",
        "zipcode": "48609-146"
    },
    {
        "city": "Paulo Afonso",
        "state": "BA",
        "district": "Jardim Bahia",
        "street": "Rua Joana DArc",
        "zipcode": "48604-010"
    },
    {
        "city": "Paulo Afonso",
        "state": "BA",
        "district": "General Dutra",
        "street": "Travessa Fortaleza",
        "zipcode": "48607-292"
    },
    {
        "city": "Paulo Afonso",
        "state": "BA",
        "district": "Alves de Souza",
        "street": "Rua dos Aveloses",
        "zipcode": "48608-010"
    },
    {
        "city": "Paulo Afonso",
        "state": "BA",
        "district": "Alves de Souza",
        "street": "Rua dos Aflitos",
        "zipcode": "48608-025"
    },
    {
        "city": "Paulo Afonso",
        "state": "BA",
        "district": "Jardim Bahia",
        "street": "Rua Sobradinho",
        "zipcode": "48604-040"
    },
    {
        "city": "Paulo Afonso",
        "state": "BA",
        "district": "Santa Inês",
        "street": "Rua Patamares",
        "zipcode": "48610-280"
    },
    {
        "city": "Paulo Afonso",
        "state": "BA",
        "district": "Santa Inês",
        "street": "Rua Amaralina",
        "zipcode": "48610-288"
    },
    {
        "city": "Paulo Afonso",
        "state": "BA",
        "district": "Santa Inês",
        "street": "Rua Santa Clara",
        "zipcode": "48610-292"
    },
    {
        "city": "Paulo Afonso",
        "state": "BA",
        "district": "Tropical",
        "street": "Rua do Sossego",
        "zipcode": "48605-768"
    },
    {
        "city": "Paulo Afonso",
        "state": "BA",
        "district": "Panorama",
        "street": "Rua Roraima",
        "zipcode": "48605-045"
    },
    {
        "city": "Paulo Afonso",
        "state": "BA",
        "district": "Panorama",
        "street": "Rua Ceará",
        "zipcode": "48605-063"
    },
    {
        "city": "Paulo Afonso",
        "state": "BA",
        "district": "Rodoviários",
        "street": "Rua Aracaju",
        "zipcode": "48609-510"
    },
    {
        "city": "Paulo Afonso",
        "state": "BA",
        "district": "Alves de Souza",
        "street": "Avenida Bahia",
        "zipcode": "48608-170"
    },
    {
        "city": "Paulo Afonso",
        "state": "BA",
        "district": "Alves de Souza",
        "street": "Rua do Bom Conselho",
        "zipcode": "48608-231"
    },
    {
        "city": "Paulo Afonso",
        "state": "BA",
        "district": "Tancredo Neves I",
        "street": "Rua 2 de Julho",
        "zipcode": "48609-080"
    },
    {
        "city": "Paulo Afonso",
        "state": "BA",
        "district": "Tancredo Neves II",
        "street": "Rua do Emissário",
        "zipcode": "48609-110"
    },
    {
        "city": "Paulo Afonso",
        "state": "BA",
        "district": "Rodoviários",
        "street": "Rua Fortaleza",
        "zipcode": "48609-570"
    },
    {
        "city": "Paulo Afonso",
        "state": "BA",
        "district": "Tancredo Neves I",
        "street": "Rua Juscelino Kubitschek",
        "zipcode": "48609-060"
    },
    {
        "city": "Paulo Afonso",
        "state": "BA",
        "district": "Rodoviários",
        "street": "Rua Manaus",
        "zipcode": "48609-500"
    },
    {
        "city": "Paulo Afonso",
        "state": "BA",
        "district": "Panorama",
        "street": "Rua Maranhão",
        "zipcode": "48605-071"
    },
    {
        "city": "Paulo Afonso",
        "state": "BA",
        "district": "Tancredo Neves I",
        "street": "Rua Maruim",
        "zipcode": "48609-028"
    },
    {
        "city": "Paulo Afonso",
        "state": "BA",
        "district": "Rodoviários",
        "street": "Rua Olinda",
        "zipcode": "48609-530"
    },
    {
        "city": "Paulo Afonso",
        "state": "BA",
        "district": "Alves de Souza",
        "street": "Rua do Ouvidor",
        "zipcode": "48608-210"
    },
    {
        "city": "Paulo Afonso",
        "state": "BA",
        "district": "Rodoviários",
        "street": "Rua Paraná",
        "zipcode": "48609-600"
    },
    {
        "city": "Paulo Afonso",
        "state": "BA",
        "district": "Rodoviários",
        "street": "Rua Recife",
        "zipcode": "48609-560"
    },
    {
        "city": "Paulo Afonso",
        "state": "BA",
        "district": "Alves de Souza",
        "street": "Rua das Rosas",
        "zipcode": "48608-160"
    },
    {
        "city": "Paulo Afonso",
        "state": "BA",
        "district": "Rodoviários",
        "street": "Rua São Paulo",
        "zipcode": "48609-508"
    },
    {
        "city": "Paulo Afonso",
        "state": "BA",
        "district": "Tancredo Neves I",
        "street": "Rua Valdir Leal",
        "zipcode": "48609-030"
    },
    {
        "city": "Paulo Afonso",
        "state": "BA",
        "district": "Tancredo Neves I",
        "street": "Travessa 21 de Abril",
        "zipcode": "48609-100"
    },
    {
        "city": "Paulo Afonso",
        "state": "BA",
        "district": "Tancredo Neves I",
        "street": "Rua 21 de Abril",
        "zipcode": "48609-010"
    },
    {
        "city": "Paulo Afonso",
        "state": "BA",
        "district": "Tancredo Neves II",
        "street": "Rua Glauber Rocha",
        "zipcode": "48609-130"
    },
    {
        "city": "Paulo Afonso",
        "state": "BA",
        "district": "Alves de Souza",
        "street": "Rua da Vitória",
        "zipcode": "48608-190"
    },
    {
        "city": "Paulo Afonso",
        "state": "BA",
        "district": "Alves de Souza",
        "street": "Rua das Camélias",
        "zipcode": "48608-200"
    },
    {
        "city": "Paulo Afonso",
        "state": "BA",
        "district": "Tancredo Neves I",
        "street": "Travessa 13 de Maio",
        "zipcode": "48609-020"
    },
    {
        "city": "Paulo Afonso",
        "state": "BA",
        "district": "Tancredo Neves III",
        "street": "Rodovia BA",
        "zipcode": "48611-000"
    },
    {
        "city": "Paulo Afonso",
        "state": "BA",
        "district": "Tancredo Neves I",
        "street": "Rua Verdes Campos",
        "zipcode": "48609-036"
    },
    {
        "city": "Paulo Afonso",
        "state": "BA",
        "district": "Tancredo Neves III",
        "street": "Rua do Planalto",
        "zipcode": "48611-142"
    },
    {
        "city": "Paulo Afonso",
        "state": "BA",
        "district": "Tancredo Neves III",
        "street": "Rua do Planalto",
        "zipcode": "48611-106"
    },
    {
        "city": "Paulo Afonso",
        "state": "BA",
        "district": "Rodoviários",
        "street": "Rua Rio de Janeiro",
        "zipcode": "48609-472"
    },
    {
        "city": "Paulo Afonso",
        "state": "BA",
        "district": "Tancredo Neves I",
        "street": "Travessa Mem de Sá",
        "zipcode": "48609-052"
    },
    {
        "city": "Paulo Afonso",
        "state": "BA",
        "district": "Tancredo Neves III",
        "street": "Rua Frei Damião",
        "zipcode": "48611-005"
    },
    {
        "city": "Paulo Afonso",
        "state": "BA",
        "district": "Tancredo Neves III",
        "street": "Rua Frei Damião",
        "zipcode": "48611-015"
    },
    {
        "city": "Paulo Afonso",
        "state": "BA",
        "district": "Rodoviários",
        "street": "Rua Bela Vista",
        "zipcode": "48609-482"
    },
    {
        "city": "Paulo Afonso",
        "state": "BA",
        "district": "Rodoviários",
        "street": "Rua Santo Antônio",
        "zipcode": "48609-486"
    },
    {
        "city": "Paulo Afonso",
        "state": "BA",
        "district": "Tancredo Neves III",
        "street": "Rua Nossa Senhora Aparecida",
        "zipcode": "48611-058"
    },
    {
        "city": "Paulo Afonso",
        "state": "BA",
        "district": "Tancredo Neves III",
        "street": "Rua São Jorge",
        "zipcode": "48611-074"
    },
    {
        "city": "Paulo Afonso",
        "state": "BA",
        "district": "Tancredo Neves III",
        "street": "Rua Maracanã",
        "zipcode": "48611-258"
    },
    {
        "city": "Paulo Afonso",
        "state": "BA",
        "district": "Rodoviários",
        "street": "Rua São Lucas",
        "zipcode": "48609-502"
    },
    {
        "city": "Paulo Afonso",
        "state": "BA",
        "district": "Santa Inês",
        "street": "Rua Federação",
        "zipcode": "48610-268"
    },
    {
        "city": "Paulo Afonso",
        "state": "BA",
        "district": "Santa Inês",
        "street": "Rua Pelourinho",
        "zipcode": "48610-276"
    },
    {
        "city": "Paulo Afonso",
        "state": "BA",
        "district": "Rodoviários",
        "street": "Rua São João",
        "zipcode": "48609-476"
    },
    {
        "city": "Paulo Afonso",
        "state": "BA",
        "district": "Panorama",
        "street": "Rua Santa Catarina",
        "zipcode": "48605-049"
    },
    {
        "city": "Paulo Afonso",
        "state": "BA",
        "district": "Tancredo Neves I",
        "street": "Rua Panorama",
        "zipcode": "48609-012"
    },
    {
        "city": "Paulo Afonso",
        "state": "BA",
        "district": "Amaury Alves de Menezes",
        "street": "Rua Flórida",
        "zipcode": "48605-134"
    },
    {
        "city": "Paulo Afonso",
        "state": "BA",
        "district": "Tancredo Neves I",
        "street": "Rua Caxangá",
        "zipcode": "48609-056"
    },
    {
        "city": "Paulo Afonso",
        "state": "BA",
        "district": "Tancredo Neves I",
        "street": "Rua Boa Esperança",
        "zipcode": "48609-072"
    },
    {
        "city": "Paulo Afonso",
        "state": "BA",
        "district": "Panorama",
        "street": "Rua Pará",
        "zipcode": "48605-067"
    },
    {
        "city": "Paulo Afonso",
        "state": "BA",
        "district": "Tancredo Neves I",
        "street": "Rua Cipó",
        "zipcode": "48609-014"
    },
    {
        "city": "Paulo Afonso",
        "state": "BA",
        "district": "Rodoviários",
        "street": "Rua São Pedro",
        "zipcode": "48609-478"
    },
    {
        "city": "Paulo Afonso",
        "state": "BA",
        "district": "Tancredo Neves II",
        "street": "Rua José Alves",
        "zipcode": "48609-316"
    },
    {
        "city": "Paulo Afonso",
        "state": "BA",
        "district": "Tancredo Neves III",
        "street": "Rua Santa Luzia",
        "zipcode": "48611-042"
    },
    {
        "city": "Paulo Afonso",
        "state": "BA",
        "district": "Santa Inês",
        "street": "Rua São Bartolomeu",
        "zipcode": "48610-236"
    },
    {
        "city": "Paulo Afonso",
        "state": "BA",
        "district": "Tancredo Neves II",
        "street": "Travessa Delmiro Gouveia",
        "zipcode": "48609-232"
    },
    {
        "city": "Paulo Afonso",
        "state": "BA",
        "district": "Alves de Souza",
        "street": "Rua das Algarobas",
        "zipcode": "48608-035"
    },
    {
        "city": "Paulo Afonso",
        "state": "BA",
        "district": "Alves de Souza",
        "street": "Avenida Bahia",
        "zipcode": "48608-171"
    },
    {
        "city": "Paulo Afonso",
        "state": "BA",
        "district": "Alves de Souza",
        "street": "Avenida Carlos Berenhauser",
        "zipcode": "48608-080"
    },
    {
        "city": "Paulo Afonso",
        "state": "BA",
        "district": "Tancredo Neves I",
        "street": "Rua Carira",
        "zipcode": "48609-044"
    },
    {
        "city": "Paulo Afonso",
        "state": "BA",
        "district": "Tancredo Neves II",
        "street": "Rua Chico Mendes",
        "zipcode": "48609-310"
    },
    {
        "city": "Paulo Afonso",
        "state": "BA",
        "district": "Rodoviários",
        "street": "Avenida Estados Unidos",
        "zipcode": "48609-490"
    },
    {
        "city": "Paulo Afonso",
        "state": "BA",
        "district": "Tancredo Neves II",
        "street": "Rua da Independência",
        "zipcode": "48609-300"
    },
    {
        "city": "Paulo Afonso",
        "state": "BA",
        "district": "Alves de Souza",
        "street": "Rua das Margaridas",
        "zipcode": "48608-530"
    },
    {
        "city": "Paulo Afonso",
        "state": "BA",
        "district": "Tancredo Neves I",
        "street": "Rua Mem de Sá",
        "zipcode": "48609-050"
    },
    {
        "city": "Paulo Afonso",
        "state": "BA",
        "district": "Tancredo Neves III",
        "street": "Rua Padre Cícero",
        "zipcode": "48611-030"
    },
    {
        "city": "Paulo Afonso",
        "state": "BA",
        "district": "Clériston Andrade",
        "street": "Rua Presidente Prudente de Moraes",
        "zipcode": "48603-420"
    },
    {
        "city": "Paulo Afonso",
        "state": "BA",
        "district": "Tancredo Neves II",
        "street": "Rua Raso da Catarina",
        "zipcode": "48609-230"
    },
    {
        "city": "Paulo Afonso",
        "state": "BA",
        "district": "Tancredo Neves II",
        "street": "Rua Tomé de Souza",
        "zipcode": "48609-220"
    },
    {
        "city": "Paulo Afonso",
        "state": "BA",
        "district": "Abel Barbosa",
        "street": "Rua Paraguai",
        "zipcode": "48605-230"
    },
    {
        "city": "Paulo Afonso",
        "state": "BA",
        "district": "Tancredo Neves I",
        "street": "Rua Boa Viagem",
        "zipcode": "48609-046"
    },
    {
        "city": "Paulo Afonso",
        "state": "BA",
        "district": "Tancredo Neves II",
        "street": "Rua Salvador",
        "zipcode": "48609-290"
    },
    {
        "city": "Paulo Afonso",
        "state": "BA",
        "district": "Tancredo Neves I",
        "street": "Rua São Paulo",
        "zipcode": "48609-048"
    },
    {
        "city": "Paulo Afonso",
        "state": "BA",
        "district": "Tancredo Neves I",
        "street": "Travessa Juscelino Kubitschek",
        "zipcode": "48609-062"
    },
    {
        "city": "Paulo Afonso",
        "state": "BA",
        "district": "Tancredo Neves II",
        "street": "Rua Castro Alves",
        "zipcode": "48609-114"
    },
    {
        "city": "Paulo Afonso",
        "state": "BA",
        "district": "Tancredo Neves II",
        "street": "Rua Velho Chico",
        "zipcode": "48609-156"
    },
    {
        "city": "Paulo Afonso",
        "state": "BA",
        "district": "Tancredo Neves II",
        "street": "Travessa Osvaldo Cruz",
        "zipcode": "48609-168"
    },
    {
        "city": "Paulo Afonso",
        "state": "BA",
        "district": "Tancredo Neves II",
        "street": "Rua Afonso Raimundo do Nascimento",
        "zipcode": "48609-184"
    },
    {
        "city": "Paulo Afonso",
        "state": "BA",
        "district": "Tancredo Neves II",
        "street": "3ª Travessa Olavo Bilac",
        "zipcode": "48609-208"
    },
    {
        "city": "Paulo Afonso",
        "state": "BA",
        "district": "Tancredo Neves III",
        "street": "Rua Ana Nery",
        "zipcode": "48611-098"
    },
    {
        "city": "Paulo Afonso",
        "state": "BA",
        "district": "Panorama",
        "street": "Travessa Pernambuco",
        "zipcode": "48605-018"
    },
    {
        "city": "Paulo Afonso",
        "state": "BA",
        "district": "Cardeal Brandão Vilela",
        "street": "Rua São Marques",
        "zipcode": "48610-776"
    },
    {
        "city": "Paulo Afonso",
        "state": "BA",
        "district": "Senhor do Bonfim",
        "street": "Travessa Umburana",
        "zipcode": "48605-734"
    },
    {
        "city": "Paulo Afonso",
        "state": "BA",
        "district": "Dernival Oliveira",
        "street": "Rua Marechal Deodoro",
        "zipcode": "48603-824"
    },
    {
        "city": "Paulo Afonso",
        "state": "BA",
        "district": "Tropical",
        "street": "Rua Tropical",
        "zipcode": "48605-760"
    },
    {
        "city": "Paulo Afonso",
        "state": "BA",
        "district": "Santa Inês",
        "street": "Rua Benone",
        "zipcode": "48610-240"
    },
    {
        "city": "Paulo Afonso",
        "state": "BA",
        "district": "Tancredo Neves II",
        "street": "Rua Palmares",
        "zipcode": "48609-236"
    },
    {
        "city": "Paulo Afonso",
        "state": "BA",
        "district": "Rodoviários",
        "street": "Rua Maceió",
        "zipcode": "48609-528"
    },
    {
        "city": "Paulo Afonso",
        "state": "BA",
        "district": "Cardeal Brandão Vilela",
        "street": "Rua Monteiro Lobato",
        "zipcode": "48610-700"
    },
    {
        "city": "Paulo Afonso",
        "state": "BA",
        "district": "Senhor do Bonfim",
        "street": "Rua Baraúna",
        "zipcode": "48605-720"
    },
    {
        "city": "Paulo Afonso",
        "state": "BA",
        "district": "Rodoviários",
        "street": "Rua Rondônia",
        "zipcode": "48609-522"
    },
    {
        "city": "Paulo Afonso",
        "state": "BA",
        "district": "Oliveira Brito",
        "street": "Rua Divinópolis",
        "zipcode": "48604-544"
    },
    {
        "city": "Paulo Afonso",
        "state": "BA",
        "district": "Tancredo Neves II",
        "street": "Rua do Chafariz",
        "zipcode": "48609-302"
    },
    {
        "city": "Paulo Afonso",
        "state": "BA",
        "district": "Senhor do Bonfim",
        "street": "Travessa Bonome",
        "zipcode": "48605-730"
    },
    {
        "city": "Paulo Afonso",
        "state": "BA",
        "district": "Centenário",
        "street": "Rua Dom Mario Zanetta",
        "zipcode": "48605-485"
    },
    {
        "city": "Paulo Afonso",
        "state": "BA",
        "district": "Tancredo Neves II",
        "street": "Rua Flamengo",
        "zipcode": "48609-322"
    },
    {
        "city": "Paulo Afonso",
        "state": "BA",
        "district": "Vila Nobre",
        "street": "Rua Elizabete Alves",
        "zipcode": "48608-588"
    },
    {
        "city": "Paulo Afonso",
        "state": "BA",
        "district": "Santa Inês",
        "street": "Rua São Gonçalo",
        "zipcode": "48610-256"
    },
    {
        "city": "Paulo Afonso",
        "state": "BA",
        "district": "Alves de Souza",
        "street": "Rua da Amélia",
        "zipcode": "48608-100"
    },
    {
        "city": "Paulo Afonso",
        "state": "BA",
        "district": "Senhor do Bonfim",
        "street": "Rua Umburana",
        "zipcode": "48605-732"
    },
    {
        "city": "Paulo Afonso",
        "state": "BA",
        "district": "Cardeal Brandão Vilela",
        "street": "Rua Revelação",
        "zipcode": "48610-716"
    },
    {
        "city": "Paulo Afonso",
        "state": "BA",
        "district": "Vila Nobre",
        "street": "Rua Wilson Bezerra da Silva",
        "zipcode": "48608-602"
    },
    {
        "city": "Paulo Afonso",
        "state": "BA",
        "district": "Tancredo Neves II",
        "street": "Rua Central",
        "zipcode": "48609-314"
    },
    {
        "city": "Paulo Afonso",
        "state": "BA",
        "district": "Cardeal Brandão Vilela",
        "street": "Rua São Caetano",
        "zipcode": "48610-780"
    },
    {
        "city": "Paulo Afonso",
        "state": "BA",
        "district": "Cardeal Brandão Vilela",
        "street": "Rua Alto Novo",
        "zipcode": "48610-544"
    },
    {
        "city": "Paulo Afonso",
        "state": "BA",
        "district": "Cardeal Brandão Vilela",
        "street": "Rua Brasília",
        "zipcode": "48610-740"
    },
    {
        "city": "Paulo Afonso",
        "state": "BA",
        "district": "Tancredo Neves III",
        "street": "Rua São João",
        "zipcode": "48611-034"
    },
    {
        "city": "Paulo Afonso",
        "state": "BA",
        "district": "Cardeal Brandão Vilela",
        "street": "Rua Santa Bárbara",
        "zipcode": "48610-556"
    },
    {
        "city": "Paulo Afonso",
        "state": "BA",
        "district": "Tancredo Neves I",
        "street": "Rua Caruaru",
        "zipcode": "48609-032"
    },
    {
        "city": "Paulo Afonso",
        "state": "BA",
        "district": "Alves de Souza",
        "street": "Rua Esplanada",
        "zipcode": "48608-550"
    },
    {
        "city": "Paulo Afonso",
        "state": "BA",
        "district": "Vila Nobre",
        "street": "Rua Itabaiana",
        "zipcode": "48608-580"
    },
    {
        "city": "Paulo Afonso",
        "state": "BA",
        "district": "Centro",
        "street": "Avenida José Hemetério de Carvalho",
        "zipcode": "48601-320"
    },
    {
        "city": "Paulo Afonso",
        "state": "BA",
        "district": "Centro",
        "street": "Rua Marechal Costa e Silva",
        "zipcode": "48602-140"
    },
    {
        "city": "Paulo Afonso",
        "state": "BA",
        "district": "Tancredo Neves II",
        "street": "Rua Padre Lourenço",
        "zipcode": "48609-140"
    },
    {
        "city": "Paulo Afonso",
        "state": "BA",
        "district": "Vila Nobre",
        "street": "Rua Presidente Oliveira Brito",
        "zipcode": "48608-610"
    },
    {
        "city": "Paulo Afonso",
        "state": "BA",
        "district": "Vila Nobre",
        "street": "Rua Propriá",
        "zipcode": "48608-570"
    },
    {
        "city": "Paulo Afonso",
        "state": "BA",
        "district": "Perpétuo Socorro",
        "street": "Rua São Vicente de Paulo",
        "zipcode": "48603-020"
    },
    {
        "city": "Paulo Afonso",
        "state": "BA",
        "district": "Tancredo Neves I",
        "street": "Rua Tucuruí",
        "zipcode": "48609-090"
    },
    {
        "city": "Paulo Afonso",
        "state": "BA",
        "district": "Alves de Souza",
        "street": "Travessa E (Primavera)",
        "zipcode": "48608-315"
    },
    {
        "city": "Paulo Afonso",
        "state": "BA",
        "district": "Alves de Souza",
        "street": "Travessa A (1º de Maio)",
        "zipcode": "48608-330"
    },
    {
        "city": "Paulo Afonso",
        "state": "BA",
        "district": "Alves de Souza",
        "street": "Travessa Salvador",
        "zipcode": "48608-365"
    },
    {
        "city": "Paulo Afonso",
        "state": "BA",
        "district": "Tancredo Neves I",
        "street": "Rua William de Jesus",
        "zipcode": "48609-016"
    },
    {
        "city": "Paulo Afonso",
        "state": "BA",
        "district": "Santa Inês",
        "street": "Rua São Sinfrônio",
        "zipcode": "48610-232"
    },
    {
        "city": "Paulo Afonso",
        "state": "BA",
        "district": "Sal Torrado",
        "street": "Rua Jabaquara",
        "zipcode": "48605-828"
    },
    {
        "city": "Paulo Afonso",
        "state": "BA",
        "district": "Santa Inês",
        "street": "Rua Santa Terezinha",
        "zipcode": "48610-324"
    },
    {
        "city": "Paulo Afonso",
        "state": "BA",
        "district": "Santa Inês",
        "street": "Travessa Santa Terezinha",
        "zipcode": "48610-308"
    },
    {
        "city": "Paulo Afonso",
        "state": "BA",
        "district": "Tancredo Neves II",
        "street": "3ª Travessa Padre Lourenço",
        "zipcode": "48609-212"
    },
    {
        "city": "Paulo Afonso",
        "state": "BA",
        "district": "Rodoviários",
        "street": "Rua Curitiba",
        "zipcode": "48609-492"
    },
    {
        "city": "Paulo Afonso",
        "state": "BA",
        "district": "Rodoviários",
        "street": "Rua Belo Jardim",
        "zipcode": "48609-506"
    },
    {
        "city": "Paulo Afonso",
        "state": "BA",
        "district": "Rodoviários",
        "street": "Rua da Consolação",
        "zipcode": "48609-518"
    },
    {
        "city": "Paulo Afonso",
        "state": "BA",
        "district": "Jardim Bahia",
        "street": "Rua Ilhéus",
        "zipcode": "48604-195"
    },
    {
        "city": "Paulo Afonso",
        "state": "BA",
        "district": "Santa Inês",
        "street": "Rua Barris",
        "zipcode": "48610-264"
    },
    {
        "city": "Paulo Afonso",
        "state": "BA",
        "district": "Santa Inês",
        "street": "Rua Brotas",
        "zipcode": "48610-274"
    },
    {
        "city": "Paulo Afonso",
        "state": "BA",
        "district": "Vila Nobre",
        "street": "Travessa Engenheiro Amaury Alves de Menezes",
        "zipcode": "48608-576"
    },
    {
        "city": "Paulo Afonso",
        "state": "BA",
        "district": "Tancredo Neves II",
        "street": "Rodovia BR",
        "zipcode": "48609-275"
    },
    {
        "city": "Paulo Afonso",
        "state": "BA",
        "district": "Tancredo Neves II",
        "street": "Rua São Luiz",
        "zipcode": "48609-318"
    },
    {
        "city": "Paulo Afonso",
        "state": "BA",
        "district": "Panorama",
        "street": "Rua Amazonas",
        "zipcode": "48605-079"
    },
    {
        "city": "Paulo Afonso",
        "state": "BA",
        "district": "Cardeal Brandão Vilela",
        "street": "Rua São Agostinho",
        "zipcode": "48610-612"
    },
    {
        "city": "Paulo Afonso",
        "state": "BA",
        "district": "Cardeal Brandão Vilela",
        "street": "Rua Sagrada Família",
        "zipcode": "48610-568"
    },
    {
        "city": "Paulo Afonso",
        "state": "BA",
        "district": "Cardeal Brandão Vilela",
        "street": "Rua São Cosme",
        "zipcode": "48610-628"
    },
    {
        "city": "Paulo Afonso",
        "state": "BA",
        "district": "Vila Nobre",
        "street": "Rua Dionísio Pereira",
        "zipcode": "48608-586"
    },
    {
        "city": "Paulo Afonso",
        "state": "BA",
        "district": "Alves de Souza",
        "street": "Rua Edvaldo Barbosa de Medeiros",
        "zipcode": "48608-050"
    },
    {
        "city": "Paulo Afonso",
        "state": "BA",
        "district": "Alves de Souza",
        "street": "Rua Expedito Bezerra de Aguiar",
        "zipcode": "48608-020"
    },
    {
        "city": "Paulo Afonso",
        "state": "BA",
        "district": "Cardeal Brandão Vilela",
        "street": "Rua Machado de Assis",
        "zipcode": "48610-624"
    },
    {
        "city": "Paulo Afonso",
        "state": "BA",
        "district": "Cardeal Brandão Vilela",
        "street": "Rua Euclides da Cunha",
        "zipcode": "48610-464"
    },
    {
        "city": "Paulo Afonso",
        "state": "BA",
        "district": "Cardeal Brandão Vilela",
        "street": "Rua Neymir Negreiros",
        "zipcode": "48610-576"
    },
    {
        "city": "Paulo Afonso",
        "state": "BA",
        "district": "Cardeal Brandão Vilela",
        "street": "Rua Antonio Carlos Magalhães",
        "zipcode": "48610-796"
    },
    {
        "city": "Paulo Afonso",
        "state": "BA",
        "district": "Cardeal Brandão Vilela",
        "street": "Rua Florisbela",
        "zipcode": "48610-436"
    },
    {
        "city": "Paulo Afonso",
        "state": "BA",
        "district": "Cardeal Brandão Vilela",
        "street": "Rua Portinari",
        "zipcode": "48610-616"
    },
    {
        "city": "Paulo Afonso",
        "state": "BA",
        "district": "Tancredo Neves II",
        "street": "Rua Riacho Seco",
        "zipcode": "48609-340"
    },
    {
        "city": "Paulo Afonso",
        "state": "BA",
        "district": "Oliveira Brito",
        "street": "Rua Diamantina",
        "zipcode": "48604-548"
    },
    {
        "city": "Paulo Afonso",
        "state": "BA",
        "district": "Tancredo Neves II",
        "street": "Rua Adauto Pereira de Souza",
        "zipcode": "48609-155"
    },
    {
        "city": "Paulo Afonso",
        "state": "BA",
        "district": "Cardeal Brandão Vilela",
        "street": "Rua Nossa Senhora de Lourdes",
        "zipcode": "48610-632"
    },
    {
        "city": "Paulo Afonso",
        "state": "BA",
        "district": "Cardeal Brandão Vilela",
        "street": "Rua Alto Novo",
        "zipcode": "48610-492"
    },
    {
        "city": "Paulo Afonso",
        "state": "BA",
        "district": "Cardeal Brandão Vilela",
        "street": "Rua São Benedito",
        "zipcode": "48610-604"
    },
    {
        "city": "Paulo Afonso",
        "state": "BA",
        "district": "Cardeal Brandão Vilela",
        "street": "Rua São Lucas",
        "zipcode": "48610-532"
    },
    {
        "city": "Paulo Afonso",
        "state": "BA",
        "district": "Cardeal Brandão Vilela",
        "street": "Rua São Geraldo",
        "zipcode": "48610-408"
    },
    {
        "city": "Paulo Afonso",
        "state": "BA",
        "district": "Cardeal Brandão Vilela",
        "street": "Rua Santa Quitéria",
        "zipcode": "48610-636"
    },
    {
        "city": "Paulo Afonso",
        "state": "BA",
        "district": "Vila Nobre",
        "street": "Rua Dom Avelar Brandão Vilela",
        "zipcode": "48608-600"
    },
    {
        "city": "Paulo Afonso",
        "state": "BA",
        "district": "Cardeal Brandão Vilela",
        "street": "Rua Neymar de Barros",
        "zipcode": "48610-572"
    },
    {
        "city": "Paulo Afonso",
        "state": "BA",
        "district": "Tancredo Neves II",
        "street": "Rua Barão de Mauá",
        "zipcode": "48609-226"
    },
    {
        "city": "Paulo Afonso",
        "state": "BA",
        "district": "Alves de Souza",
        "street": "Travessa da Harmonia",
        "zipcode": "48608-290"
    },
    {
        "city": "Paulo Afonso",
        "state": "BA",
        "district": "Rodoviários",
        "street": "Rua Acre",
        "zipcode": "48609-590"
    },
    {
        "city": "Paulo Afonso",
        "state": "BA",
        "district": "Centenário",
        "street": "Rua Amâncio Pereira",
        "zipcode": "48605-610"
    },
    {
        "city": "Paulo Afonso",
        "state": "BA",
        "district": "Alves de Souza",
        "street": "Rua dos Amores",
        "zipcode": "48608-260"
    },
    {
        "city": "Paulo Afonso",
        "state": "BA",
        "district": "Alves de Souza",
        "street": "Avenida Guararapes",
        "zipcode": "48608-085"
    },
    {
        "city": "Paulo Afonso",
        "state": "BA",
        "district": "Caminho dos Lagos",
        "street": "Rua Lago Paranoá",
        "zipcode": "48605-330"
    },
    {
        "city": "Paulo Afonso",
        "state": "BA",
        "district": "Oliveira Lopes",
        "street": "Rua Paraíba",
        "zipcode": "48607-360"
    },
    {
        "city": "Paulo Afonso",
        "state": "BA",
        "district": "Centenário",
        "street": "Rua da Paz",
        "zipcode": "48605-570"
    },
    {
        "city": "Paulo Afonso",
        "state": "BA",
        "district": "Centenário",
        "street": "Rua Realeza",
        "zipcode": "48605-670"
    },
    {
        "city": "Paulo Afonso",
        "state": "BA",
        "district": "Jardim Bahia",
        "street": "Rua São Caetano",
        "zipcode": "48604-240"
    },
    {
        "city": "Paulo Afonso",
        "state": "BA",
        "district": "Jardim Bahia",
        "street": "Rua São João",
        "zipcode": "48604-110"
    },
    {
        "city": "Paulo Afonso",
        "state": "BA",
        "district": "Rodoviários",
        "street": "Rua Sergipe",
        "zipcode": "48609-540"
    },
    {
        "city": "Paulo Afonso",
        "state": "BA",
        "district": "Abel Barbosa",
        "street": "Rua Suíça",
        "zipcode": "48605-250"
    },
    {
        "city": "Paulo Afonso",
        "state": "BA",
        "district": "Alves de Souza",
        "street": "Rua Teresina",
        "zipcode": "48608-450"
    },
    {
        "city": "Paulo Afonso",
        "state": "BA",
        "district": "Centenário",
        "street": "Rua São Francisco",
        "zipcode": "48605-540"
    },
    {
        "city": "Paulo Afonso",
        "state": "BA",
        "district": "Centro",
        "street": "Avenida Otaviano Leandro de Moraes",
        "zipcode": "48602-005"
    },
    {
        "city": "Paulo Afonso",
        "state": "BA",
        "district": "Centro",
        "street": "Rua Padre João Evangelista",
        "zipcode": "48601-315"
    },
    {
        "city": "Paulo Afonso",
        "state": "BA",
        "district": "Jardim Aeroporto",
        "street": "Rua Senador Humberto de Lucena",
        "zipcode": "48603-730"
    },
    {
        "city": "Paulo Afonso",
        "state": "BA",
        "district": "Jardim Bahia",
        "street": "Rua São Tomé",
        "zipcode": "48604-065"
    },
    {
        "city": "Paulo Afonso",
        "state": "BA",
        "district": "Panorama",
        "street": "Rua Pernambuco",
        "zipcode": "48605-016"
    },
    {
        "city": "Paulo Afonso",
        "state": "BA",
        "district": "Panorama",
        "street": "Rua Acre",
        "zipcode": "48605-059"
    },
    {
        "city": "Paulo Afonso",
        "state": "BA",
        "district": "General Dutra",
        "street": "Rua Itabuna",
        "zipcode": "48607-145"
    },
    {
        "city": "Paulo Afonso",
        "state": "BA",
        "district": "Perpétuo Socorro",
        "street": "Rua Águas Claras",
        "zipcode": "48603-135"
    },
    {
        "city": "Paulo Afonso",
        "state": "BA",
        "district": "Perpétuo Socorro",
        "street": "Rua da Providência",
        "zipcode": "48603-970"
    },
    {
        "city": "Paulo Afonso",
        "state": "BA",
        "district": "Centro",
        "street": "Avenida Getúlio Vargas",
        "zipcode": "48601-970"
    },
    {
        "city": "Paulo Afonso",
        "state": "BA",
        "district": "Centro",
        "street": "Rua Monsenhor Magalhães",
        "zipcode": "48602-902"
    },
    {
        "city": "Paulo Afonso",
        "state": "BA",
        "district": "Centro",
        "street": "Avenida Apolônio Sales",
        "zipcode": "48601-901"
    },
    {
        "city": "Paulo Afonso",
        "state": "BA",
        "district": "Centro",
        "street": "Avenida Otaviano Leandro de Moraes",
        "zipcode": "48602-901"
    },
    {
        "city": "Paulo Afonso",
        "state": "BA",
        "district": "Jardim Bahia",
        "street": "Avenida do Aeroporto",
        "zipcode": "48604-005"
    },
    {
        "city": "Paulo Afonso",
        "state": "BA",
        "district": "General Dutra",
        "street": "Rua das Caraibeiras",
        "zipcode": "48607-010"
    },
    {
        "city": "Paulo Afonso",
        "state": "BA",
        "district": "Clériston Andrade",
        "street": "Rua Caruaru",
        "zipcode": "48603-460"
    },
    {
        "city": "Paulo Afonso",
        "state": "BA",
        "district": "Oliveira Lopes",
        "street": "Rua Ceará",
        "zipcode": "48607-310"
    },
    {
        "city": "Paulo Afonso",
        "state": "BA",
        "district": "Dernival Oliveira",
        "street": "Rua Alecrim",
        "zipcode": "48603-826"
    },
    {
        "city": "Paulo Afonso",
        "state": "BA",
        "district": "Cardeal Brandão Vilela",
        "street": "Rua Wilson Pereira",
        "zipcode": "48610-412"
    },
    {
        "city": "Paulo Afonso",
        "state": "BA",
        "district": "Cardeal Brandão Vilela",
        "street": "Rua São Domingos",
        "zipcode": "48610-448"
    },
    {
        "city": "Paulo Afonso",
        "state": "BA",
        "district": "Panorama",
        "street": "Rua Alcides Alves Nóbrega",
        "zipcode": "48605-012"
    },
    {
        "city": "Paulo Afonso",
        "state": "BA",
        "district": "Senhor do Bonfim",
        "street": "Rua Bonome",
        "zipcode": "48605-728"
    },
    {
        "city": "Paulo Afonso",
        "state": "BA",
        "district": "Cardeal Brandão Vilela",
        "street": "Rua Bangu",
        "zipcode": "48610-476"
    },
    {
        "city": "Paulo Afonso",
        "state": "BA",
        "district": "Amaury Alves de Menezes",
        "street": "Rua Nápoles",
        "zipcode": "48605-151"
    },
    {
        "city": "Paulo Afonso",
        "state": "BA",
        "district": "Barroca",
        "street": "Rua Pedra Comprida",
        "zipcode": "48604-700"
    },
    {
        "city": "Paulo Afonso",
        "state": "BA",
        "district": "Cardeal Brandão Vilela",
        "street": "Rua José de Anchieta",
        "zipcode": "48610-440"
    },
    {
        "city": "Paulo Afonso",
        "state": "BA",
        "district": "Cardeal Brandão Vilela",
        "street": "Rua Pero Vaz",
        "zipcode": "48610-480"
    },
    {
        "city": "Paulo Afonso",
        "state": "BA",
        "district": "Cardeal Brandão Vilela",
        "street": "Rua Nova Glória",
        "zipcode": "48610-428"
    },
    {
        "city": "Paulo Afonso",
        "state": "BA",
        "district": "Cardeal Brandão Vilela",
        "street": "Rua Santa Luz",
        "zipcode": "48610-468"
    },
    {
        "city": "Paulo Afonso",
        "state": "BA",
        "district": "Senhor do Bonfim",
        "street": "Rua Mandacaru",
        "zipcode": "48605-726"
    },
    {
        "city": "Paulo Afonso",
        "state": "BA",
        "district": "Cardeal Brandão Vilela",
        "street": "Rua São Cristóvão",
        "zipcode": "48610-432"
    },
    {
        "city": "Paulo Afonso",
        "state": "BA",
        "district": "Alves de Souza",
        "street": "Rua Ataides Bezerra Lopis",
        "zipcode": "48608-060"
    },
    {
        "city": "Paulo Afonso",
        "state": "BA",
        "district": "Cardeal Brandão Vilela",
        "street": "Rua Dom Vital",
        "zipcode": "48610-444"
    },
    {
        "city": "Paulo Afonso",
        "state": "BA",
        "district": "Cardeal Brandão Vilela",
        "street": "Rua Marechal Hermes da Fonseca",
        "zipcode": "48610-472"
    },
    {
        "city": "Paulo Afonso",
        "state": "BA",
        "district": "Vila Dom Mário Zanetta",
        "street": "Rua P",
        "zipcode": "48607-510"
    },
    {
        "city": "Paulo Afonso",
        "state": "BA",
        "district": "Sal Torrado",
        "street": "Travessa Pituba",
        "zipcode": "48605-808"
    },
    {
        "city": "Paulo Afonso",
        "state": "BA",
        "district": "Barroca",
        "street": "Rua Alvorada",
        "zipcode": "48604-740"
    },
    {
        "city": "Paulo Afonso",
        "state": "BA",
        "district": "Tropical",
        "street": "Rua Santa Mônica",
        "zipcode": "48605-762"
    },
    {
        "city": "Paulo Afonso",
        "state": "BA",
        "district": "Fazenda CHESF",
        "street": "Travessa Amazônia",
        "zipcode": "48606-545"
    },
    {
        "city": "Paulo Afonso",
        "state": "BA",
        "district": "Alves de Souza",
        "street": "Rua da Conquista",
        "zipcode": "48608-180"
    },
    {
        "city": "Paulo Afonso",
        "state": "BA",
        "district": "General Dutra",
        "street": "Rua Engenheiro Marchetti",
        "zipcode": "48607-210"
    },
    {
        "city": "Paulo Afonso",
        "state": "BA",
        "district": "Perpétuo Socorro",
        "street": "Rua João Pessoa",
        "zipcode": "48603-130"
    },
    {
        "city": "Paulo Afonso",
        "state": "BA",
        "district": "Perpétuo Socorro",
        "street": "Avenida da Fraternidade",
        "zipcode": "48603-230"
    },
    {
        "city": "Paulo Afonso",
        "state": "BA",
        "district": "Nossa Senhora de Fátima",
        "street": "Avenida Getúlio Vargas",
        "zipcode": "48601-000"
    },
    {
        "city": "Paulo Afonso",
        "state": "BA",
        "district": "Clériston Andrade",
        "street": "Rua Guimarães Rosa",
        "zipcode": "48603-410"
    },
    {
        "city": "Paulo Afonso",
        "state": "BA",
        "district": "Abel Barbosa",
        "street": "Rua Holanda",
        "zipcode": "48605-220"
    },
    {
        "city": "Paulo Afonso",
        "state": "BA",
        "district": "Perpétuo Socorro",
        "street": "Rua Juscelino Kubitschek",
        "zipcode": "48603-240"
    },
    {
        "city": "Paulo Afonso",
        "state": "BA",
        "district": "Caminho dos Lagos",
        "street": "Rua Lago Cristalino",
        "zipcode": "48605-420"
    },
    {
        "city": "Paulo Afonso",
        "state": "BA",
        "district": "Centro",
        "street": "Travessa da Liberdade",
        "zipcode": "48602-480"
    },
    {
        "city": "Paulo Afonso",
        "state": "BA",
        "district": "Perpétuo Socorro",
        "street": "Rua Luiz Gonzaga",
        "zipcode": "48603-050"
    },
    {
        "city": "Paulo Afonso",
        "state": "BA",
        "district": "Centro",
        "street": "Rua Marechal Castelo Branco",
        "zipcode": "48602-070"
    },
    {
        "city": "Paulo Afonso",
        "state": "BA",
        "district": "Centro",
        "street": "Rua Curitiba",
        "zipcode": "48602-570"
    },
    {
        "city": "Paulo Afonso",
        "state": "BA",
        "district": "Centro",
        "street": "Rua dos Navegantes",
        "zipcode": "48601-430"
    },
    {
        "city": "Paulo Afonso",
        "state": "BA",
        "district": "Jardim Bahia",
        "street": "Rua Nossa Senhora Aparecida",
        "zipcode": "48604-070"
    },
    {
        "city": "Paulo Afonso",
        "state": "BA",
        "district": "Centro",
        "street": "Rua Otávio Drumond",
        "zipcode": "48601-510"
    },
    {
        "city": "Paulo Afonso",
        "state": "BA",
        "district": "Perpétuo Socorro",
        "street": "Rua Porto Seguro",
        "zipcode": "48603-060"
    },
    {
        "city": "Paulo Afonso",
        "state": "BA",
        "district": "Centro",
        "street": "Rua Ribeirão",
        "zipcode": "48601-460"
    },
    {
        "city": "Paulo Afonso",
        "state": "BA",
        "district": "Centro",
        "street": "Travessa Santos Dumont",
        "zipcode": "48602-520"
    },
    {
        "city": "Paulo Afonso",
        "state": "BA",
        "district": "Centro",
        "street": "Rua São Francisco",
        "zipcode": "48601-270"
    },
    {
        "city": "Paulo Afonso",
        "state": "BA",
        "district": "Jardim Bahia",
        "street": "Rua São Paulo",
        "zipcode": "48604-140"
    },
    {
        "city": "Paulo Afonso",
        "state": "BA",
        "district": "Centro",
        "street": "Rua Alonso Maciel Ferreira",
        "zipcode": "48602-010"
    },
    {
        "city": "Paulo Afonso",
        "state": "BA",
        "district": "General Dutra",
        "street": "Rua da União",
        "zipcode": "48607-250"
    },
    {
        "city": "Paulo Afonso",
        "state": "BA",
        "district": "Clériston Andrade",
        "street": "Rua Olinda",
        "zipcode": "48603-380"
    },
    {
        "city": "Paulo Afonso",
        "state": "BA",
        "district": "Perpétuo Socorro",
        "street": "Rua João Goulart",
        "zipcode": "48603-030"
    },
    {
        "city": "Paulo Afonso",
        "state": "BA",
        "district": "Tancredo Neves I",
        "street": "Rodovia BA",
        "zipcode": "48609-024"
    },
    {
        "city": "Paulo Afonso",
        "state": "BA",
        "district": "Tancredo Neves I",
        "street": "Rua São Mateus",
        "zipcode": "48609-038"
    },
    {
        "city": "Paulo Afonso",
        "state": "BA",
        "district": "Centro",
        "street": "Rua Ana Nery",
        "zipcode": "48601-435"
    },
    {
        "city": "Paulo Afonso",
        "state": "BA",
        "district": "Tancredo Neves II",
        "street": "Rua do Planalto",
        "zipcode": "48609-196"
    },
    {
        "city": "Paulo Afonso",
        "state": "BA",
        "district": "Centro",
        "street": "Avenida Apolônio Sales",
        "zipcode": "48601-208"
    },
    {
        "city": "Paulo Afonso",
        "state": "BA",
        "district": "Centro",
        "street": "Rua Vereador José Moreira",
        "zipcode": "48601-185"
    },
    {
        "city": "Paulo Afonso",
        "state": "BA",
        "district": "Alves de Souza",
        "street": "Travessa D (Primavera)",
        "zipcode": "48608-310"
    },
    {
        "city": "Paulo Afonso",
        "state": "BA",
        "district": "Tancredo Neves I",
        "street": "Travessa São Mateus",
        "zipcode": "48609-042"
    },
    {
        "city": "Paulo Afonso",
        "state": "BA",
        "district": "Tancredo Neves I",
        "street": "Travessa Tucuruí",
        "zipcode": "48609-094"
    },
    {
        "city": "Paulo Afonso",
        "state": "BA",
        "district": "Santa Inês",
        "street": "Travessa Santa Inês",
        "zipcode": "48610-216"
    },
    {
        "city": "Paulo Afonso",
        "state": "BA",
        "district": "Tancredo Neves II",
        "street": "Travessa Velho Chico",
        "zipcode": "48609-158"
    },
    {
        "city": "Paulo Afonso",
        "state": "BA",
        "district": "Tancredo Neves II",
        "street": "2ª Travessa Olavo Bilac",
        "zipcode": "48609-194"
    },
    {
        "city": "Paulo Afonso",
        "state": "BA",
        "district": "Rodoviários",
        "street": "Rua Tamandaré",
        "zipcode": "48609-484"
    },
    {
        "city": "Paulo Afonso",
        "state": "BA",
        "district": "Centro",
        "street": "Rua Alexandre Amâncio dos Santos",
        "zipcode": "48601-245"
    },
    {
        "city": "Paulo Afonso",
        "state": "BA",
        "district": "Centro",
        "street": "Travessa dos Navegantes",
        "zipcode": "48601-295"
    },
    {
        "city": "Paulo Afonso",
        "state": "BA",
        "district": "Rodoviários",
        "street": "Rua Maranhão",
        "zipcode": "48609-496"
    },
    {
        "city": "Paulo Afonso",
        "state": "BA",
        "district": "Rodoviários",
        "street": "Rua Santa Rita",
        "zipcode": "48609-514"
    },
    {
        "city": "Paulo Afonso",
        "state": "BA",
        "district": "Santa Inês",
        "street": "Rua Pituba",
        "zipcode": "48610-278"
    },
    {
        "city": "Paulo Afonso",
        "state": "BA",
        "district": "Centro",
        "street": "Rua Florianópolis",
        "zipcode": "48602-145"
    },
    {
        "city": "Paulo Afonso",
        "state": "BA",
        "district": "Santa Inês",
        "street": "Rua São Francisco",
        "zipcode": "48610-252"
    },
    {
        "city": "Paulo Afonso",
        "state": "BA",
        "district": "Alves de Souza",
        "street": "Travessa Tancredo Neves",
        "zipcode": "48608-097"
    },
    {
        "city": "Paulo Afonso",
        "state": "BA",
        "district": "Dernival Oliveira",
        "street": "Rua Pajeú",
        "zipcode": "48603-822"
    },
    {
        "city": "Paulo Afonso",
        "state": "BA",
        "district": "Nossa Senhora de Fátima",
        "street": "Rua Padre João Evangelista",
        "zipcode": "48601-055"
    },
    {
        "city": "Paulo Afonso",
        "state": "BA",
        "district": "Centro",
        "street": "Avenida Apolônio Sales",
        "zipcode": "48601-902"
    },
    {
        "city": "Paulo Afonso",
        "state": "BA",
        "district": "Centro",
        "street": "Rua Amâncio Pereira",
        "zipcode": "48601-475"
    },
    {
        "city": "Paulo Afonso",
        "state": "BA",
        "district": "Rodoviários",
        "street": "Rua Belo Horizonte",
        "zipcode": "48609-470"
    },
    {
        "city": "Paulo Afonso",
        "state": "BA",
        "district": "São Vicente",
        "street": "Avenida Eraldo Rocha",
        "zipcode": "48603-971"
    },
    {
        "city": "Paulo Afonso",
        "state": "BA",
        "district": "Centro",
        "street": "Rua Fábio Monteiro Guerra",
        "zipcode": "48601-248"
    },
    {
        "city": "Paulo Afonso",
        "state": "BA",
        "district": "Dernival Oliveira",
        "street": "Rua Cachoeira",
        "zipcode": "48603-816"
    },
    {
        "city": "Paulo Afonso",
        "state": "BA",
        "district": "Dernival Oliveira",
        "street": "Rua Florisvaldo Bispo dos Santos",
        "zipcode": "48603-828"
    },
    {
        "city": "Paulo Afonso",
        "state": "BA",
        "district": "Alves de Souza",
        "street": "Rua do Bom Conselho",
        "zipcode": "48608-230"
    },
    {
        "city": "Paulo Afonso",
        "state": "BA",
        "district": "General Dutra",
        "street": "Rua Crato",
        "zipcode": "48607-275"
    },
    {
        "city": "Paulo Afonso",
        "state": "BA",
        "district": "Rodoviários",
        "street": "Rua Espírito Santo",
        "zipcode": "48609-480"
    },
    {
        "city": "Paulo Afonso",
        "state": "BA",
        "district": "Tancredo Neves I",
        "street": "Rua Floresta",
        "zipcode": "48609-026"
    },
    {
        "city": "Paulo Afonso",
        "state": "BA",
        "district": "Alves de Souza",
        "street": "Rua da Juventude",
        "zipcode": "48608-430"
    },
    {
        "city": "Paulo Afonso",
        "state": "BA",
        "district": "Centro",
        "street": "Travessa Luiz Viana Filho",
        "zipcode": "48602-560"
    },
    {
        "city": "Paulo Afonso",
        "state": "BA",
        "district": "Centro",
        "street": "Rua Luiz Viana Filho",
        "zipcode": "48602-470"
    },
    {
        "city": "Paulo Afonso",
        "state": "BA",
        "district": "Centro",
        "street": "Rua Manoel Novais",
        "zipcode": "48601-410"
    },
    {
        "city": "Paulo Afonso",
        "state": "BA",
        "district": "Rodoviários",
        "street": "Rua Niterói",
        "zipcode": "48609-580"
    },
    {
        "city": "Paulo Afonso",
        "state": "BA",
        "district": "Tancredo Neves II",
        "street": "Rua Olavo Bilac",
        "zipcode": "48609-180"
    },
    {
        "city": "Paulo Afonso",
        "state": "BA",
        "district": "Alves de Souza",
        "street": "Travessa do Ouvidor",
        "zipcode": "48608-250"
    },
    {
        "city": "Paulo Afonso",
        "state": "BA",
        "district": "Nossa Senhora de Fátima",
        "street": "Rua Padre Cícero",
        "zipcode": "48601-030"
    },
    {
        "city": "Paulo Afonso",
        "state": "BA",
        "district": "Alves de Souza",
        "street": "Rua Primavera",
        "zipcode": "48608-540"
    },
    {
        "city": "Paulo Afonso",
        "state": "BA",
        "district": "Alves de Souza",
        "street": "Rua 15 de Março",
        "zipcode": "48608-220"
    },
    {
        "city": "Paulo Afonso",
        "state": "BA",
        "district": "Nossa Senhora de Fátima",
        "street": "Rua Santa Rosa",
        "zipcode": "48601-010"
    },
    {
        "city": "Paulo Afonso",
        "state": "BA",
        "district": "Vila Nobre",
        "street": "Rua São Cristóvão",
        "zipcode": "48608-590"
    },
    {
        "city": "Paulo Afonso",
        "state": "BA",
        "district": "Centro",
        "street": "Rua Vereador Moisés Pereira",
        "zipcode": "48601-570"
    },
    {
        "city": "Paulo Afonso",
        "state": "BA",
        "district": "Alves de Souza",
        "street": "Rua Ilhéus",
        "zipcode": "48608-400"
    },
    {
        "city": "Paulo Afonso",
        "state": "BA",
        "district": "Centro",
        "street": "Rua Marieta Ferraz",
        "zipcode": "48602-160"
    },
    {
        "city": "Paulo Afonso",
        "state": "BA",
        "district": "Tancredo Neves III",
        "street": "Rua Senhor do Bonfim",
        "zipcode": "48611-102"
    },
    {
        "city": "Paulo Afonso",
        "state": "BA",
        "district": "Sal Torrado",
        "street": "Avenida da Amizade",
        "zipcode": "48605-780"
    },
    {
        "city": "Paulo Afonso",
        "state": "BA",
        "district": "Tancredo Neves II",
        "street": "Avenida Delmiro Gouveia",
        "zipcode": "48609-238"
    },
    {
        "city": "Paulo Afonso",
        "state": "BA",
        "district": "Tancredo Neves II",
        "street": "Avenida Delmiro Gouveia",
        "zipcode": "48609-325"
    },
    {
        "city": "Paulo Afonso",
        "state": "BA",
        "district": "Tancredo Neves I",
        "street": "Rua 13 de Maio",
        "zipcode": "48609-022"
    },
    {
        "city": "Paulo Afonso",
        "state": "BA",
        "district": "Sal Torrado",
        "street": "Rua dos Oitizeiros",
        "zipcode": "48605-788"
    },
    {
        "city": "Paulo Afonso",
        "state": "BA",
        "district": "Sal Torrado",
        "street": "Travessa dos Oitizeiros",
        "zipcode": "48605-792"
    },
    {
        "city": "Paulo Afonso",
        "state": "BA",
        "district": "Tancredo Neves II",
        "street": "Rua Duque de Caxias",
        "zipcode": "48609-202"
    },
    {
        "city": "Paulo Afonso",
        "state": "BA",
        "district": "Tancredo Neves III",
        "street": "Rua Beira Rio",
        "zipcode": "48611-266"
    },
    {
        "city": "Paulo Afonso",
        "state": "BA",
        "district": "Tancredo Neves III",
        "street": "Rodovia BR",
        "zipcode": "48611-274"
    },
    {
        "city": "Paulo Afonso",
        "state": "BA",
        "district": "Alves de Souza",
        "street": "Rua dos Encantos",
        "zipcode": "48608-565"
    },
    {
        "city": "Paulo Afonso",
        "state": "BA",
        "district": "Rodoviários",
        "street": "Rua Santa Maria",
        "zipcode": "48609-516"
    },
    {
        "city": "Paulo Afonso",
        "state": "BA",
        "district": "Centenário",
        "street": "Travessa Realeza",
        "zipcode": "48605-495"
    },
    {
        "city": "Paulo Afonso",
        "state": "BA",
        "district": "Centenário",
        "street": "Rua Porto Seguro",
        "zipcode": "48605-575"
    },
    {
        "city": "Paulo Afonso",
        "state": "BA",
        "district": "Santa Inês",
        "street": "Rua Rio Vermelho",
        "zipcode": "48610-286"
    },
    {
        "city": "Paulo Afonso",
        "state": "BA",
        "district": "Santa Inês",
        "street": "Rua Santa Isabel",
        "zipcode": "48610-296"
    },
    {
        "city": "Paulo Afonso",
        "state": "BA",
        "district": "General Dutra",
        "street": "Travessa da Amizade",
        "zipcode": "48607-185"
    },
    {
        "city": "Paulo Afonso",
        "state": "BA",
        "district": "Alves de Souza",
        "street": "Rua da Independência",
        "zipcode": "48608-040"
    },
    {
        "city": "Paulo Afonso",
        "state": "BA",
        "district": "Alves de Souza",
        "street": "Avenida Guararapes",
        "zipcode": "48608-902"
    },
    {
        "city": "Paulo Afonso",
        "state": "BA",
        "district": "General Dutra",
        "street": "Rua Alberto Rocha",
        "zipcode": "48607-180"
    },
    {
        "city": "Paulo Afonso",
        "state": "BA",
        "district": "Caminho dos Lagos",
        "street": "Rua Lago Pantanal",
        "zipcode": "48605-370"
    },
    {
        "city": "Paulo Afonso",
        "state": "BA",
        "district": "Vila Nobre",
        "street": "Rua Tomé de Souza",
        "zipcode": "48608-594"
    },
    {
        "city": "Paulo Afonso",
        "state": "BA",
        "district": "Perpétuo Socorro",
        "street": "Rua São Severino",
        "zipcode": "48603-125"
    },
    {
        "city": "Paulo Afonso",
        "state": "BA",
        "district": "Centro",
        "street": "Rua Antonio Zacarias Bezerra",
        "zipcode": "48602-115"
    },
    {
        "city": "Paulo Afonso",
        "state": "BA",
        "district": "Cardeal Brandão Vilela",
        "street": "Rua Veneza",
        "zipcode": "48610-488"
    },
    {
        "city": "Paulo Afonso",
        "state": "BA",
        "district": "Vila Nobre",
        "street": "Rua José Martins dos Santos Filho",
        "zipcode": "48608-596"
    },
    {
        "city": "Paulo Afonso",
        "state": "BA",
        "district": "Santa Inês",
        "street": "Rua Manoel José da Silva",
        "zipcode": "48610-312"
    },
    {
        "city": "Paulo Afonso",
        "state": "BA",
        "district": "Alves de Souza",
        "street": "Rua Manoel Urias de Barros",
        "zipcode": "48608-055"
    },
    {
        "city": "Paulo Afonso",
        "state": "BA",
        "district": "Nossa Senhora de Fátima",
        "street": "Travessa Pedro Álvares Cabral",
        "zipcode": "48601-140"
    },
    {
        "city": "Paulo Afonso",
        "state": "BA",
        "district": "Cardeal Brandão Vilela",
        "street": "Rua São Roque",
        "zipcode": "48610-420"
    },
    {
        "city": "Paulo Afonso",
        "state": "BA",
        "district": "Nossa Senhora de Fátima",
        "street": "Rua Pero Vaz",
        "zipcode": "48601-090"
    },
    {
        "city": "Paulo Afonso",
        "state": "BA",
        "district": "Santa Inês",
        "street": "Rua Euclides da Cunha",
        "zipcode": "48610-300"
    },
    {
        "city": "Paulo Afonso",
        "state": "BA",
        "district": "Jardim Bahia",
        "street": "Rua Macaúbas",
        "zipcode": "48604-085"
    },
    {
        "city": "Paulo Afonso",
        "state": "BA",
        "district": "Alves de Souza",
        "street": "Rua Jeremoabo",
        "zipcode": "48608-375"
    },
    {
        "city": "Paulo Afonso",
        "state": "BA",
        "district": "Centenário",
        "street": "Rua Bahia",
        "zipcode": "48605-530"
    },
    {
        "city": "Paulo Afonso",
        "state": "BA",
        "district": "General Dutra",
        "street": "Travessa Carlos Berenhauser",
        "zipcode": "48607-070"
    },
    {
        "city": "Paulo Afonso",
        "state": "BA",
        "district": "Fazenda CHESF",
        "street": "Rua Caxias",
        "zipcode": "48606-510"
    },
    {
        "city": "Paulo Afonso",
        "state": "BA",
        "district": "Centenário",
        "street": "Rua Guarani",
        "zipcode": "48605-510"
    },
    {
        "city": "Paulo Afonso",
        "state": "BA",
        "district": "Tancredo Neves III",
        "street": "Rua João Paulo II",
        "zipcode": "48611-086"
    },
    {
        "city": "Paulo Afonso",
        "state": "BA",
        "district": "Caminho dos Lagos",
        "street": "Rua Lago Dourado",
        "zipcode": "48605-410"
    },
    {
        "city": "Paulo Afonso",
        "state": "BA",
        "district": "Caminho dos Lagos",
        "street": "Rua Lago Norte",
        "zipcode": "48605-340"
    },
    {
        "city": "Paulo Afonso",
        "state": "BA",
        "district": "Jardim Bahia",
        "street": "Rua Nossa Senhora de Fátima",
        "zipcode": "48604-050"
    },
    {
        "city": "Paulo Afonso",
        "state": "BA",
        "district": "Alves de Souza",
        "street": "Rua Petrolina",
        "zipcode": "48608-500"
    },
    {
        "city": "Paulo Afonso",
        "state": "BA",
        "district": "Centenário",
        "street": "Rua Rio Branco",
        "zipcode": "48605-690"
    },
    {
        "city": "Paulo Afonso",
        "state": "BA",
        "district": "Tancredo Neves III",
        "street": "Rua Santo Antônio",
        "zipcode": "48611-038"
    },
    {
        "city": "Paulo Afonso",
        "state": "BA",
        "district": "Centenário",
        "street": "Travessa São Francisco",
        "zipcode": "48605-700"
    },
    {
        "city": "Paulo Afonso",
        "state": "BA",
        "district": "Jardim Bahia",
        "street": "Rua São Sebastião",
        "zipcode": "48604-260"
    },
    {
        "city": "Paulo Afonso",
        "state": "BA",
        "district": "Centenário",
        "street": "Rua 7 de Setembro",
        "zipcode": "48605-710"
    },
    {
        "city": "Paulo Afonso",
        "state": "BA",
        "district": "Centro",
        "street": "Rua do Sol",
        "zipcode": "48601-540"
    },
    {
        "city": "Paulo Afonso",
        "state": "BA",
        "district": "Centenário",
        "street": "Rua Padre Cícero",
        "zipcode": "48605-620"
    },
    {
        "city": "Paulo Afonso",
        "state": "BA",
        "district": "Tancredo Neves II",
        "street": "Travessa 7 de Setembro",
        "zipcode": "48609-164"
    },
    {
        "city": "Paulo Afonso",
        "state": "BA",
        "district": "Tancredo Neves I",
        "street": "Travessa 2 de Julho",
        "zipcode": "48609-082"
    },
    {
        "city": "Paulo Afonso",
        "state": "BA",
        "district": "Tancredo Neves I",
        "street": "Rua Rio Negro",
        "zipcode": "48609-007"
    },
    {
        "city": "Paulo Afonso",
        "state": "BA",
        "district": "Tancredo Neves II",
        "street": "Travessa Palmares",
        "zipcode": "48609-234"
    },
    {
        "city": "Paulo Afonso",
        "state": "BA",
        "district": "Tancredo Neves I",
        "street": "Rua Rio Tapajós",
        "zipcode": "48609-002"
    },
    {
        "city": "Paulo Afonso",
        "state": "BA",
        "district": "Oliveira Brito",
        "street": "Rua Natividade",
        "zipcode": "48604-518"
    },
    {
        "city": "Paulo Afonso",
        "state": "BA",
        "district": "Oliveira Brito",
        "street": "Rua Érico Veríssimo",
        "zipcode": "48604-516"
    },
    {
        "city": "Paulo Afonso",
        "state": "BA",
        "district": "Oliveira Brito",
        "street": "Rua Guarapari",
        "zipcode": "48604-514"
    },
    {
        "city": "Paulo Afonso",
        "state": "BA",
        "district": "Oliveira Brito",
        "street": "Rua Canudos",
        "zipcode": "48604-508"
    },
    {
        "city": "Paulo Afonso",
        "state": "BA",
        "district": "Oliveira Brito",
        "street": "Rua Rio Eufrates",
        "zipcode": "48604-456"
    },
    {
        "city": "Paulo Afonso",
        "state": "BA",
        "district": "Tancredo Neves III",
        "street": "Rua Buriti",
        "zipcode": "48611-132"
    },
    {
        "city": "Paulo Afonso",
        "state": "BA",
        "district": "Tancredo Neves III",
        "street": "Rua Tabajara",
        "zipcode": "48611-130"
    },
    {
        "city": "Paulo Afonso",
        "state": "BA",
        "district": "Tancredo Neves III",
        "street": "Rua Atibaia",
        "zipcode": "48611-126"
    },
    {
        "city": "Paulo Afonso",
        "state": "BA",
        "district": "Tancredo Neves III",
        "street": "Rua Pavuna",
        "zipcode": "48611-124"
    },
    {
        "city": "Paulo Afonso",
        "state": "BA",
        "district": "Tancredo Neves III",
        "street": "Rua Araripe",
        "zipcode": "48611-122"
    },
    {
        "city": "Paulo Afonso",
        "state": "BA",
        "district": "Sal Torrado",
        "street": "Travessa Caraibeira",
        "zipcode": "48605-796"
    },
    {
        "city": "Paulo Afonso",
        "state": "BA",
        "district": "Tancredo Neves II",
        "street": "Rua Boa Vista",
        "zipcode": "48609-128"
    },
    {
        "city": "Paulo Afonso",
        "state": "BA",
        "district": "Tancredo Neves II",
        "street": "Rua Miguel Correia",
        "zipcode": "48609-166"
    },
    {
        "city": "Paulo Afonso",
        "state": "BA",
        "district": "Abel Barbosa",
        "street": "Rua dos Expedicionários",
        "zipcode": "48605-225"
    },
    {
        "city": "Paulo Afonso",
        "state": "BA",
        "district": "Jardim Bahia",
        "street": "Rua Vital Brasil",
        "zipcode": "48604-105"
    },
    {
        "city": "Paulo Afonso",
        "state": "BA",
        "district": "Rodoviários",
        "street": "Rua Alagoas",
        "zipcode": "48609-474"
    },
    {
        "city": "Paulo Afonso",
        "state": "BA",
        "district": "Cardeal Brandão Vilela",
        "street": "Rua Veneza",
        "zipcode": "48610-536"
    },
    {
        "city": "Paulo Afonso",
        "state": "BA",
        "district": "Oliveira Brito",
        "street": "Rua Ouro Preto",
        "zipcode": "48604-536"
    },
    {
        "city": "Paulo Afonso",
        "state": "BA",
        "district": "Tancredo Neves II",
        "street": "Rua Pitanga",
        "zipcode": "48609-206"
    },
    {
        "city": "Paulo Afonso",
        "state": "BA",
        "district": "Cardeal Brandão Vilela",
        "street": "Rua Marechal Mascarenhas de Moraes",
        "zipcode": "48610-500"
    },
    {
        "city": "Paulo Afonso",
        "state": "BA",
        "district": "Vila Nobre",
        "street": "Travessa A (D Menininha)",
        "zipcode": "48608-582"
    },
    {
        "city": "Paulo Afonso",
        "state": "BA",
        "district": "Tancredo Neves II",
        "street": "Rua Frei Galvão",
        "zipcode": "48609-198"
    },
    {
        "city": "Paulo Afonso",
        "state": "BA",
        "district": "Clériston Andrade",
        "street": "Rua Machado de Assis",
        "zipcode": "48603-290"
    },
    {
        "city": "Paulo Afonso",
        "state": "BA",
        "district": "Cardeal Brandão Vilela",
        "street": "Rua São Gabriel",
        "zipcode": "48610-784"
    },
    {
        "city": "Paulo Afonso",
        "state": "BA",
        "district": "General Dutra",
        "street": "Rua das Acácias",
        "zipcode": "48607-285"
    },
    {
        "city": "Paulo Afonso",
        "state": "BA",
        "district": "Cardeal Brandão Vilela",
        "street": "Rua Frei Damião",
        "zipcode": "48610-720"
    },
    {
        "city": "Paulo Afonso",
        "state": "BA",
        "district": "Tancredo Neves III",
        "street": "Rua São Rafael",
        "zipcode": "48611-160"
    },
    {
        "city": "Paulo Afonso",
        "state": "BA",
        "district": "Santa Inês",
        "street": "Rua Ondina",
        "zipcode": "48610-284"
    },
    {
        "city": "Paulo Afonso",
        "state": "BA",
        "district": "Nossa Senhora de Fátima",
        "street": "Rua Pedro Álvares Cabral",
        "zipcode": "48601-150"
    },
    {
        "city": "Paulo Afonso",
        "state": "BA",
        "district": "Tancredo Neves II",
        "street": "Rua Alonso Macedo",
        "zipcode": "48609-222"
    },
    {
        "city": "Paulo Afonso",
        "state": "BA",
        "district": "Perpétuo Socorro",
        "street": "Rua Santa Rita de Cássia",
        "zipcode": "48603-170"
    },
    {
        "city": "Paulo Afonso",
        "state": "BA",
        "district": "Tancredo Neves III",
        "street": "Rua São Januário",
        "zipcode": "48611-270"
    },
    {
        "city": "Paulo Afonso",
        "state": "BA",
        "district": "Tancredo Neves III",
        "street": "Rua Fonte Nova",
        "zipcode": "48611-254"
    },
    {
        "city": "Paulo Afonso",
        "state": "BA",
        "district": "Oliveira Brito",
        "street": "Rua Pirapora",
        "zipcode": "48604-552"
    },
    {
        "city": "Paulo Afonso",
        "state": "BA",
        "district": "Santa Inês",
        "street": "Rua Sindae",
        "zipcode": "48610-248"
    },
    {
        "city": "Paulo Afonso",
        "state": "BA",
        "district": "Alves de Souza",
        "street": "Travessa da Independência",
        "zipcode": "48608-075"
    },
    {
        "city": "Paulo Afonso",
        "state": "BA",
        "district": "General Dutra",
        "street": "Rua das Caraibeiras",
        "zipcode": "48607-901"
    },
    {
        "city": "Paulo Afonso",
        "state": "BA",
        "district": "Centenário",
        "street": "Rua Hermógenes Bezerra",
        "zipcode": "48605-650"
    },
    {
        "city": "Paulo Afonso",
        "state": "BA",
        "district": "Centro",
        "street": "Praça Vereador João de Brito",
        "zipcode": "48602-210"
    },
    {
        "city": "Paulo Afonso",
        "state": "BA",
        "district": "Caminho dos Lagos",
        "street": "Rua Lago Azul",
        "zipcode": "48605-400"
    },
    {
        "city": "Paulo Afonso",
        "state": "BA",
        "district": "Clériston Andrade",
        "street": "Rua Hermes da Fonseca",
        "zipcode": "48603-350"
    },
    {
        "city": "Paulo Afonso",
        "state": "BA",
        "district": "Oliveira Lopes",
        "street": "Rua Sergipe",
        "zipcode": "48607-410"
    },
    {
        "city": "Paulo Afonso",
        "state": "BA",
        "district": "Alves de Souza",
        "street": "Rua do Triunfo",
        "zipcode": "48608-090"
    },
    {
        "city": "Paulo Afonso",
        "state": "BA",
        "district": "Oliveira Brito",
        "street": "Travessa Boa Sorte",
        "zipcode": "48604-506"
    },
    {
        "city": "Paulo Afonso",
        "state": "BA",
        "district": "Oliveira Brito",
        "street": "Rua Banzaê",
        "zipcode": "48604-470"
    },
    {
        "city": "Paulo Afonso",
        "state": "BA",
        "district": "Oliveira Brito",
        "street": "Rua Esplanada",
        "zipcode": "48604-468"
    },
    {
        "city": "Paulo Afonso",
        "state": "BA",
        "district": "Oliveira Brito",
        "street": "Rua Camaçari",
        "zipcode": "48604-466"
    },
    {
        "city": "Paulo Afonso",
        "state": "BA",
        "district": "Oliveira Brito",
        "street": "Rua Guanambi",
        "zipcode": "48604-464"
    },
    {
        "city": "Paulo Afonso",
        "state": "BA",
        "district": "Oliveira Brito",
        "street": "Rua Rio Mississipi",
        "zipcode": "48604-462"
    },
    {
        "city": "Paulo Afonso",
        "state": "BA",
        "district": "Oliveira Brito",
        "street": "Rua Rio Zaire",
        "zipcode": "48604-460"
    },
    {
        "city": "Paulo Afonso",
        "state": "BA",
        "district": "Oliveira Brito",
        "street": "Rua Rio Danúbio",
        "zipcode": "48604-458"
    },
    {
        "city": "Paulo Afonso",
        "state": "BA",
        "district": "Oliveira Brito",
        "street": "Rua Rio Columbia",
        "zipcode": "48604-454"
    },
    {
        "city": "Paulo Afonso",
        "state": "BA",
        "district": "Nossa Senhora de Fátima",
        "street": "Rua Recanto Feliz 11",
        "zipcode": "48601-036"
    },
    {
        "city": "Paulo Afonso",
        "state": "BA",
        "district": "Nossa Senhora de Fátima",
        "street": "Rua Recanto Feliz 9",
        "zipcode": "48601-034"
    },
    {
        "city": "Paulo Afonso",
        "state": "BA",
        "district": "Nossa Senhora de Fátima",
        "street": "Rua Recanto Feliz 8",
        "zipcode": "48601-032"
    },
    {
        "city": "Paulo Afonso",
        "state": "BA",
        "district": "Nossa Senhora de Fátima",
        "street": "Rua Recanto Feliz 7",
        "zipcode": "48601-028"
    },
    {
        "city": "Paulo Afonso",
        "state": "BA",
        "district": "Nossa Senhora de Fátima",
        "street": "Rua Recanto Feliz 5",
        "zipcode": "48601-024"
    },
    {
        "city": "Paulo Afonso",
        "state": "BA",
        "district": "Nossa Senhora de Fátima",
        "street": "Rua Recanto Feliz 4",
        "zipcode": "48601-022"
    },
    {
        "city": "Paulo Afonso",
        "state": "BA",
        "district": "Nossa Senhora de Fátima",
        "street": "Rua Recanto Feliz 3",
        "zipcode": "48601-018"
    },
    {
        "city": "Paulo Afonso",
        "state": "BA",
        "district": "Nossa Senhora de Fátima",
        "street": "Rua Recanto Feliz 2",
        "zipcode": "48601-016"
    },
    {
        "city": "Paulo Afonso",
        "state": "BA",
        "district": "Nossa Senhora de Fátima",
        "street": "Rua Recanto Feliz 1",
        "zipcode": "48601-014"
    },
    {
        "city": "Paulo Afonso",
        "state": "BA",
        "district": "Setor Industrial",
        "street": "Rua Guarani",
        "zipcode": "48606-005"
    },
    {
        "city": "Paulo Afonso",
        "state": "BA",
        "district": "Caminho dos Lagos",
        "street": "Rua Entre Lagos",
        "zipcode": "48605-345"
    },
    {
        "city": "Paulo Afonso",
        "state": "BA",
        "district": "Abel Barbosa",
        "street": "Rua Entre Lagos",
        "zipcode": "48605-284"
    },
    {
        "city": "Paulo Afonso",
        "state": "BA",
        "district": "Oliveira Brito",
        "street": "Rua Caravelas",
        "zipcode": "48604-472"
    },
    {
        "city": "Paulo Afonso",
        "state": "BA",
        "district": "Abel Barbosa",
        "street": "Rua Lago Central",
        "zipcode": "48605-282"
    },
    {
        "city": "Paulo Afonso",
        "state": "BA",
        "district": "Clériston Andrade",
        "street": "Avenida Ulisses Guimarães",
        "zipcode": "48603-465"
    },
    {
        "city": "Paulo Afonso",
        "state": "BA",
        "district": "Jardim Bahia",
        "street": "Rua Alagoinhas",
        "zipcode": "48604-080"
    },
    {
        "city": "Paulo Afonso",
        "state": "BA",
        "district": "Centro",
        "street": "Travessa dos Bandeirantes",
        "zipcode": "48602-540"
    },
    {
        "city": "Paulo Afonso",
        "state": "BA",
        "district": "Perpétuo Socorro",
        "street": "Rua Emancipação",
        "zipcode": "48603-220"
    },
    {
        "city": "Paulo Afonso",
        "state": "BA",
        "district": "Clériston Andrade",
        "street": "Rua General Osório",
        "zipcode": "48603-400"
    },
    {
        "city": "Paulo Afonso",
        "state": "BA",
        "district": "Jardim Bahia",
        "street": "Rua José Bonifácio",
        "zipcode": "48604-270"
    },
    {
        "city": "Paulo Afonso",
        "state": "BA",
        "district": "Perpétuo Socorro",
        "street": "Rua Nova Aliança",
        "zipcode": "48603-090"
    },
    {
        "city": "Paulo Afonso",
        "state": "BA",
        "district": "Área Rural de Paulo Afonso",
        "street": "Área Rural",
        "zipcode": "48619-899"
    },
    {
        "city": "Paulo Afonso",
        "state": "BA",
        "district": "Vila Militar",
        "street": "Rua Marechal Mascarenhas de Moraes",
        "zipcode": "48602-710"
    },
    {
        "city": "Paulo Afonso",
        "state": "BA",
        "district": "Centro",
        "street": "Rua Antonio José Martins",
        "zipcode": "48601-440"
    },
    {
        "city": "Paulo Afonso",
        "state": "BA",
        "district": "Cardeal Brandão Vilela",
        "street": "Rua Apolônio Sales",
        "zipcode": "48610-456"
    },
    {
        "city": "Paulo Afonso",
        "state": "BA",
        "district": "Perpétuo Socorro",
        "street": "Rua João Francisco da Silva",
        "zipcode": "48603-075"
    },
    {
        "city": "Paulo Afonso",
        "state": "BA",
        "district": "Oliveira Brito",
        "street": "Rua Cruzeiro do Sul",
        "zipcode": "48604-560"
    },
    {
        "city": "Paulo Afonso",
        "state": "BA",
        "district": "Alves de Souza",
        "street": "Rua Eunápio Peltier de Queiroz",
        "zipcode": "48608-015"
    },
    {
        "city": "Paulo Afonso",
        "state": "BA",
        "district": "Dernival Oliveira",
        "street": "Rua José Bezerra da Silva",
        "zipcode": "48603-804"
    },
    {
        "city": "Paulo Afonso",
        "state": "BA",
        "district": "Vila Nobre",
        "street": "Rua Délcio Ferreira Matos",
        "zipcode": "48608-572"
    },
    {
        "city": "Paulo Afonso",
        "state": "BA",
        "district": "Jardim Aeroporto",
        "street": "Rua Ministro Sérgio Mota",
        "zipcode": "48603-724"
    },
    {
        "city": "Paulo Afonso",
        "state": "BA",
        "district": "Barroca",
        "street": "Rua Dias DÁvila",
        "zipcode": "48604-730"
    },
    {
        "city": "Paulo Afonso",
        "state": "BA",
        "district": "Panorama",
        "street": "Rua Nelson Rodrigues do Nascimento",
        "zipcode": "48605-041"
    },
    {
        "city": "Paulo Afonso",
        "state": "BA",
        "district": "Vila Nobre",
        "street": "Rua José Augusto de Medeiros",
        "zipcode": "48608-592"
    },
    {
        "city": "Paulo Afonso",
        "state": "BA",
        "district": "São Vicente",
        "street": "Rua Beira Rio",
        "zipcode": "48603-528"
    },
    {
        "city": "Paulo Afonso",
        "state": "BA",
        "district": "Nossa Senhora de Fátima",
        "street": "Rua Recanto Feliz",
        "zipcode": "48601-012"
    },
    {
        "city": "Paulo Afonso",
        "state": "BA",
        "district": "Centenário",
        "street": "Travessa Botafogo",
        "zipcode": "48605-550"
    },
    {
        "city": "Paulo Afonso",
        "state": "BA",
        "district": "Oliveira Brito",
        "street": "Rua Maragogipe",
        "zipcode": "48604-480"
    },
    {
        "city": "Paulo Afonso",
        "state": "BA",
        "district": "Centro",
        "street": "Avenida Otaviano Leandro de Moraes",
        "zipcode": "48602-595"
    },
    {
        "city": "Paulo Afonso",
        "state": "BA",
        "district": "Amaury Alves de Menezes",
        "street": "Avenida Antônio Carlos Magalhães",
        "zipcode": "48605-165"
    },
    {
        "city": "Paulo Afonso",
        "state": "BA",
        "district": "Panorama",
        "street": "Avenida Antônio Carlos Magalhães",
        "zipcode": "48605-055"
    },
    {
        "city": "Paulo Afonso",
        "state": "BA",
        "district": "Tancredo Neves II",
        "street": "Rua Manoel Xavier",
        "zipcode": "48609-178"
    },
    {
        "city": "Paulo Afonso",
        "state": "BA",
        "district": "Tancredo Neves III",
        "street": "Rua Canarinho",
        "zipcode": "48611-062"
    },
    {
        "city": "Paulo Afonso",
        "state": "BA",
        "district": "Tancredo Neves III",
        "street": "Rua Diniz Olavo de Santana",
        "zipcode": "48611-066"
    },
    {
        "city": "Paulo Afonso",
        "state": "BA",
        "district": "Tancredo Neves I",
        "street": "Rua Epitácio Pessoa",
        "zipcode": "48609-070"
    },
    {
        "city": "Paulo Afonso",
        "state": "BA",
        "district": "Alves de Souza",
        "street": "Rua Juazeiro",
        "zipcode": "48608-440"
    },
    {
        "city": "Paulo Afonso",
        "state": "BA",
        "district": "Cardeal Brandão Vilela",
        "street": "Rua Goiânia",
        "zipcode": "48610-524"
    },
    {
        "city": "Paulo Afonso",
        "state": "BA",
        "district": "Centenário",
        "street": "Rua Botafogo",
        "zipcode": "48605-590"
    },
    {
        "city": "Paulo Afonso",
        "state": "BA",
        "district": "Clériston Andrade",
        "street": "Rua Presidente Epitácio Pessoa",
        "zipcode": "48603-470"
    },
    {
        "city": "Paulo Afonso",
        "state": "BA",
        "district": "Centro",
        "street": "Travessa Sargento Abdias Pionório Freire",
        "zipcode": "48602-496"
    },
    {
        "city": "Paulo Afonso",
        "state": "BA",
        "district": "Jardim Bahia",
        "street": "Rua Santa Bárbara",
        "zipcode": "48604-130"
    },
    {
        "city": "Paulo Afonso",
        "state": "BA",
        "district": "Tancredo Neves I",
        "street": "Rua Rio Araguaia",
        "zipcode": "48609-006"
    },
    {
        "city": "Paulo Afonso",
        "state": "BA",
        "district": "Centro",
        "street": "Rua Senador João de Medeiros Calmon",
        "zipcode": "48601-325"
    },
    {
        "city": "Paulo Afonso",
        "state": "BA",
        "district": "Tancredo Neves I",
        "street": "Rua Rio Solimões",
        "zipcode": "48609-008"
    },
    {
        "city": "Paulo Afonso",
        "state": "BA",
        "district": "Tancredo Neves I",
        "street": "Rua Rio Doce",
        "zipcode": "48609-005"
    },
    {
        "city": "Paulo Afonso",
        "state": "BA",
        "district": "Oliveira Brito",
        "street": "Rua Itapetinga",
        "zipcode": "48604-478"
    },
    {
        "city": "Paulo Afonso",
        "state": "BA",
        "district": "Oliveira Brito",
        "street": "Rua Rio Senegal",
        "zipcode": "48604-450"
    },
    {
        "city": "Paulo Afonso",
        "state": "BA",
        "district": "Oliveira Brito",
        "street": "Rua Jacobina",
        "zipcode": "48604-476"
    },
    {
        "city": "Paulo Afonso",
        "state": "BA",
        "district": "Tancredo Neves II",
        "street": "Travessa da Independência",
        "zipcode": "48609-298"
    },
    {
        "city": "Paulo Afonso",
        "state": "BA",
        "district": "Tancredo Neves II",
        "street": "Travessa Planalto",
        "zipcode": "48609-188"
    },
    {
        "city": "Paulo Afonso",
        "state": "BA",
        "district": "Tancredo Neves I",
        "street": "Rua Rio das Velhas",
        "zipcode": "48609-003"
    },
    {
        "city": "Paulo Afonso",
        "state": "BA",
        "district": "Oliveira Brito",
        "street": "Rua Eldorado",
        "zipcode": "48604-512"
    },
    {
        "city": "Paulo Afonso",
        "state": "BA",
        "district": "Tancredo Neves III",
        "street": "Rua Mirassol",
        "zipcode": "48611-128"
    },
    {
        "city": "Paulo Afonso",
        "state": "BA",
        "district": "Alves de Souza",
        "street": "Travessa B (1º de Maio)",
        "zipcode": "48608-335"
    },
    {
        "city": "Paulo Afonso",
        "state": "BA",
        "district": "Oliveira Brito",
        "street": "Rua Boa Sorte",
        "zipcode": "48604-504"
    },
    {
        "city": "Paulo Afonso",
        "state": "BA",
        "district": "Oliveira Brito",
        "street": "Rua Paripiranga",
        "zipcode": "48604-474"
    },
    {
        "city": "Paulo Afonso",
        "state": "BA",
        "district": "Oliveira Brito",
        "street": "Rua Rio Jordão",
        "zipcode": "48604-452"
    },
    {
        "city": "Paulo Afonso",
        "state": "BA",
        "district": "Nossa Senhora de Fátima",
        "street": "Rua Recanto Feliz 6",
        "zipcode": "48601-026"
    },
    {
        "city": "Paulo Afonso",
        "state": "BA",
        "district": "Caminho dos Lagos",
        "street": "Rua Lago Central",
        "zipcode": "48605-415"
    },
    {
        "city": "Paulo Afonso",
        "state": "BA",
        "district": "Tancredo Neves III",
        "street": "Rua Ibotirama",
        "zipcode": "48611-120"
    },
    {
        "city": "Paulo Afonso",
        "state": "BA",
        "district": "São Vicente",
        "street": "Travessa Beira Rio",
        "zipcode": "48603-532"
    },
    {
        "city": "Paulo Afonso",
        "state": "BA",
        "district": "Alves de Souza",
        "street": "Rua Pojuca",
        "zipcode": "48608-510"
    },
    {
        "city": "Paulo Afonso",
        "state": "BA",
        "district": "Tancredo Neves III",
        "street": "Rua Morumbi",
        "zipcode": "48611-250"
    },
    {
        "city": "Paulo Afonso",
        "state": "BA",
        "district": "Tancredo Neves II",
        "street": "Rua Caxangá",
        "zipcode": "48609-162"
    },
    {
        "city": "Paulo Afonso",
        "state": "BA",
        "district": "Perpétuo Socorro",
        "street": "Rua Edgar Gomes da Silva",
        "zipcode": "48603-015"
    },
    {
        "city": "Paulo Afonso",
        "state": "BA",
        "district": "São Vicente",
        "street": "Rua Haiti",
        "zipcode": "48603-560"
    },
    {
        "city": "Paulo Afonso",
        "state": "BA",
        "district": "Senhor do Bonfim",
        "street": "Rua Caraibeira",
        "zipcode": "48605-724"
    },
    {
        "city": "Paulo Afonso",
        "state": "BA",
        "district": "Alves de Souza",
        "street": "Avenida Interlagos",
        "zipcode": "48608-030"
    },
    {
        "city": "Paulo Afonso",
        "state": "BA",
        "district": "Cardeal Brandão Vilela",
        "street": "Rua Arcoverde",
        "zipcode": "48610-424"
    },
    {
        "city": "Paulo Afonso",
        "state": "BA",
        "district": "Cardeal Brandão Vilela",
        "street": "Rua São Carlos",
        "zipcode": "48610-788"
    },
    {
        "city": "Paulo Afonso",
        "state": "BA",
        "district": "São Vicente",
        "street": "Rua Uruguai",
        "zipcode": "48603-600"
    },
    {
        "city": "Paulo Afonso",
        "state": "BA",
        "district": "Vila Nobre",
        "street": "Rua Júlio Alves dos Santos",
        "zipcode": "48608-598"
    },
    {
        "city": "Paulo Afonso",
        "state": "BA",
        "district": "Alves de Souza",
        "street": "Rua Honorato Brandão Filho",
        "zipcode": "48608-070"
    },
    {
        "city": "Paulo Afonso",
        "state": "BA",
        "district": "Jardim Aeroporto",
        "street": "Rua Adélia Xavier Torres",
        "zipcode": "48603-722"
    },
    {
        "city": "Paulo Afonso",
        "state": "BA",
        "district": "Cardeal Brandão Vilela",
        "street": "Rua Revelação",
        "zipcode": "48610-508"
    },
    {
        "city": "Paulo Afonso",
        "state": "BA",
        "district": "Oliveira Brito",
        "street": "Rua Palmares",
        "zipcode": "48604-562"
    },
    {
        "city": "Paulo Afonso",
        "state": "BA",
        "district": "Barroca",
        "street": "Rua José Reinaldo de Souza",
        "zipcode": "48604-710"
    },
    {
        "city": "Paulo Afonso",
        "state": "BA",
        "district": "Tancredo Neves III",
        "street": "Rua Vasco da Gama",
        "zipcode": "48611-118"
    },
    {
        "city": "Paulo Afonso",
        "state": "BA",
        "district": "São Vicente",
        "street": "Rua Cuba",
        "zipcode": "48603-576"
    },
    {
        "city": "Paulo Afonso",
        "state": "BA",
        "district": "Setor Industrial",
        "street": "Rua Tupi",
        "zipcode": "48606-010"
    },
    {
        "city": "Paulo Afonso",
        "state": "BA",
        "district": "Cetenco",
        "street": "Quadra H",
        "zipcode": "48604-300"
    },
    {
        "city": "Paulo Afonso",
        "state": "BA",
        "district": "Oliveira Lopes",
        "street": "Rua Caxias",
        "zipcode": "48607-380"
    },
    {
        "city": "Paulo Afonso",
        "state": "BA",
        "district": "Vila Poty",
        "street": "Rua Otaviano Leandro De Moraes",
        "zipcode": "48602-590"
    },
    {
        "city": "Paulo Afonso",
        "state": "BA",
        "district": "Perpetuo Socorro",
        "street": "Rua Tancredo Neves",
        "zipcode": "48603-270"
    },
    {
        "city": "Paulo Afonso",
        "state": "BA",
        "district": "Abel Barbosa",
        "street": "Rua Boa Esperanca",
        "zipcode": "48605-260"
    },
    {
        "city": "Paulo Afonso",
        "state": "BA",
        "district": "Panorama",
        "street": "Quadra O",
        "zipcode": "48605-050"
    },
    {
        "city": "Paulo Afonso",
        "state": "BA",
        "district": "Chesf",
        "street": "Rua Do Triunfo",
        "zipcode": "48607-020"
    },
    {
        "city": "Paulo Afonso",
        "state": "BA",
        "district": "Panorama",
        "street": "Quadra N",
        "zipcode": "48605-120"
    },
    {
        "city": "Paulo Afonso",
        "state": "BA",
        "district": "Cetenco",
        "street": "Quadra A",
        "zipcode": "48604-370"
    },
    {
        "city": "Paulo Afonso",
        "state": "BA",
        "district": "Centenario",
        "street": "Avenida Maranhao",
        "zipcode": "48605-580"
    },
    {
        "city": "Paulo Afonso",
        "state": "BA",
        "district": "General Dutra",
        "street": "Avenida Da Amizade",
        "zipcode": "48607-230"
    },
    {
        "city": "Paulo Afonso",
        "state": "BA",
        "district": "Vila Poty",
        "street": "Avenida Do Contorno",
        "zipcode": "48602-051"
    },
    {
        "city": "Paulo Afonso",
        "state": "BA",
        "district": "Centro",
        "street": "Travessa Sao Joao",
        "zipcode": "48601-330"
    },
    {
        "city": "Paulo Afonso",
        "state": "BA",
        "district": "Perpetuo Socorro",
        "street": "Rua Duque De Caxias",
        "zipcode": "48603-160"
    },
    {
        "city": "Paulo Afonso",
        "state": "BA",
        "district": "Panorama",
        "street": "Quadra L",
        "zipcode": "48605-040"
    },
    {
        "city": "Paulo Afonso",
        "state": "BA",
        "district": "Vila Poty",
        "street": "Avenida Tancredo Neves",
        "zipcode": "48602-240"
    },
    {
        "city": "Paulo Afonso",
        "state": "BA",
        "district": "Vila Poty",
        "street": "Rua Alto Novo",
        "zipcode": "48602-170"
    },
    {
        "city": "Paulo Afonso",
        "state": "BA",
        "district": "Panorama",
        "street": "Quadra B",
        "zipcode": "48605-080"
    },
    {
        "city": "Paulo Afonso",
        "state": "BA",
        "district": "Oliveira Lopes",
        "street": "Rua Recife",
        "zipcode": "48607-260"
    },
    {
        "city": "Paulo Afonso",
        "state": "BA",
        "district": "Centro",
        "street": "Rua Sao Francisco",
        "zipcode": "48601-071"
    },
    {
        "city": "Paulo Afonso",
        "state": "BA",
        "district": "Panorama",
        "street": "Quadra G",
        "zipcode": "48605-100"
    },
    {
        "city": "Paulo Afonso",
        "state": "BA",
        "district": "Chesf",
        "street": "Rua Da Amelia",
        "zipcode": "48607-120"
    },
    {
        "city": "Paulo Afonso",
        "state": "BA",
        "district": "Oliveira Lopes",
        "street": "Rua Arari",
        "zipcode": "48607-400"
    },
    {
        "city": "Paulo Afonso",
        "state": "BA",
        "district": "Perpetuo Socorro",
        "street": "Avenida Projetada",
        "zipcode": "48603-080"
    },
    {
        "city": "Paulo Afonso",
        "state": "BA",
        "district": "Perpetuo Socorro",
        "street": "Avenida Tancredo Neves",
        "zipcode": "48602-241"
    },
    {
        "city": "Paulo Afonso",
        "state": "BA",
        "district": "Chesf",
        "street": "Rua Catu",
        "zipcode": "48607-090"
    },
    {
        "city": "Paulo Afonso",
        "state": "BA",
        "district": "Panorama",
        "street": "Quadra D",
        "zipcode": "48605-140"
    },
    {
        "city": "Paulo Afonso",
        "state": "BA",
        "district": "Abel Barbosa",
        "street": "Rua Chile",
        "zipcode": "48605-320"
    },
    {
        "city": "Paulo Afonso",
        "state": "BA",
        "district": "Vila Poty",
        "street": "Travessa Da Alegria",
        "zipcode": "48601-360"
    },
    {
        "city": "Paulo Afonso",
        "state": "BA",
        "district": "Perpetuo Socorro",
        "street": "Travessa Tancredo Neves",
        "zipcode": "48602-450"
    },
    {
        "city": "Paulo Afonso",
        "state": "BA",
        "district": "Bnh",
        "street": "Quadra C",
        "zipcode": "48605-180"
    },
    {
        "city": "Paulo Afonso",
        "state": "BA",
        "district": "Vila Poty",
        "street": "Rua Monsenhor Magalhaes",
        "zipcode": "48602-000"
    },
    {
        "city": "Paulo Afonso",
        "state": "BA",
        "district": "Oliveira Lopes",
        "street": "Rua Crato",
        "zipcode": "48607-320"
    },
    {
        "city": "Paulo Afonso",
        "state": "BA",
        "district": "Panorama",
        "street": "Quadra F",
        "zipcode": "48605-130"
    },
    {
        "city": "Paulo Afonso",
        "state": "BA",
        "district": "Chesf",
        "street": "Rua Dos Aflitos",
        "zipcode": "48607-080"
    },
    {
        "city": "Paulo Afonso",
        "state": "BA",
        "district": "Panorama",
        "street": "Quadra I",
        "zipcode": "48605-030"
    },
    {
        "city": "Paulo Afonso",
        "state": "BA",
        "district": "Vila Poty",
        "street": "Travessa Do Contorno",
        "zipcode": "48602-230"
    },
    {
        "city": "Paulo Afonso",
        "state": "BA",
        "district": "Vila Poty",
        "street": "Rua Da Liberdade",
        "zipcode": "48601-490"
    },
    {
        "city": "Paulo Afonso",
        "state": "BA",
        "district": "Bnh",
        "street": "Quadra D",
        "zipcode": "48605-150"
    },
    {
        "city": "Paulo Afonso",
        "state": "BA",
        "district": "Vila Poty",
        "street": "Travessa Riachuelo",
        "zipcode": "48601-420"
    },
    {
        "city": "Paulo Afonso",
        "state": "BA",
        "district": "Perpétuo Socorro",
        "street": "Rua Alcides Alves Nóbrega",
        "zipcode": "48603-195"
    },
    {
        "city": "Paulo Afonso",
        "state": "BA",
        "district": "Cetenco",
        "street": "Quadra J",
        "zipcode": "48604-290"
    },
    {
        "city": "Paulo Afonso",
        "state": "BA",
        "district": "Abel Barbosa",
        "street": "Rua Honduras",
        "zipcode": "48605-300"
    },
    {
        "city": "Paulo Afonso",
        "state": "BA",
        "district": "Bnh",
        "street": "Quadra B",
        "zipcode": "48605-200"
    },
    {
        "city": "Paulo Afonso",
        "state": "BA",
        "district": "Vila Poty",
        "street": "Travessa Tamandare",
        "zipcode": "48601-580"
    },
    {
        "city": "Paulo Afonso",
        "state": "BA",
        "district": "Centro",
        "street": "Travessa Padre Cicero",
        "zipcode": "48601-130"
    },
    {
        "city": "Paulo Afonso",
        "state": "BA",
        "district": "Bnh",
        "street": "Quadra A",
        "zipcode": "48605-190"
    },
    {
        "city": "Paulo Afonso",
        "state": "BA",
        "district": "Perpetuo Socorro",
        "street": "Rua Marques De Olinda",
        "zipcode": "48603-180"
    },
    {
        "city": "Paulo Afonso",
        "state": "BA",
        "district": "Chesf",
        "street": "Travessa Sao Francisco",
        "zipcode": "48608-150"
    },
    {
        "city": "Paulo Afonso",
        "state": "BA",
        "district": "Panorama",
        "street": "Quadra J",
        "zipcode": "48605-090"
    },
    {
        "city": "Paulo Afonso",
        "state": "BA",
        "district": "Cleriston Andrade",
        "street": "Avenida Do Aeroporto",
        "zipcode": "48603-480"
    },
    {
        "city": "Paulo Afonso",
        "state": "BA",
        "district": "Centenario",
        "street": "Rua Centenario",
        "zipcode": "48605-460"
    },
    {
        "city": "Paulo Afonso",
        "state": "BA",
        "district": "Chesf",
        "street": "Rua Dos Aveloz",
        "zipcode": "48607-030"
    },
    {
        "city": "Paulo Afonso",
        "state": "BA",
        "district": "Cetenco",
        "street": "Quadra G",
        "zipcode": "48604-350"
    },
    {
        "city": "Paulo Afonso",
        "state": "BA",
        "district": "Oliveira Lopes",
        "street": "Avenida Maranhao",
        "zipcode": "48607-280"
    },
    {
        "city": "Paulo Afonso",
        "state": "BA",
        "district": "Centro",
        "street": "Travessa General Dutra",
        "zipcode": "48601-110"
    },
    {
        "city": "Paulo Afonso",
        "state": "BA",
        "district": "Chesf",
        "street": "Parque Do Radio",
        "zipcode": "48607-050"
    },
    {
        "city": "Paulo Afonso",
        "state": "BA",
        "district": "Centro",
        "street": "Rua Santo Antonio",
        "zipcode": "48601-060"
    },
    {
        "city": "Paulo Afonso",
        "state": "BA",
        "district": "Cetenco",
        "street": "Quadra B",
        "zipcode": "48604-310"
    },
    {
        "city": "Paulo Afonso",
        "state": "BA",
        "district": "Vila Poty",
        "street": "Avenida Sao Joao",
        "zipcode": "48601-520"
    },
    {
        "city": "Paulo Afonso",
        "state": "BA",
        "district": "Cetenco",
        "street": "Quadra D",
        "zipcode": "48604-360"
    },
    {
        "city": "Paulo Afonso",
        "state": "BA",
        "district": "Cetenco",
        "street": "Quadra F",
        "zipcode": "48604-280"
    },
    {
        "city": "Paulo Afonso",
        "state": "BA",
        "district": "Chesf",
        "street": "Travessa Alvorada",
        "zipcode": "48607-110"
    },
    {
        "city": "Paulo Afonso",
        "state": "BA",
        "district": "Chesf",
        "street": "Rua Berenhause Junior",
        "zipcode": "48607-130"
    },
    {
        "city": "Paulo Afonso",
        "state": "BA",
        "district": "Tancredo Neves II",
        "street": "Rua Dom Pedro I",
        "zipcode": "48609-305"
    },
    {
        "city": "Paulo Afonso",
        "state": "BA",
        "district": "Tancredo Neves II",
        "street": "Rodovia BA",
        "zipcode": "48609-175"
    },
    {
        "city": "Paulo Afonso",
        "state": "BA",
        "district": "Santa Inês",
        "street": "Rodovia BA",
        "zipcode": "48610-200"
    },
    {
        "city": "Paulo Afonso",
        "state": "BA",
        "district": "Tancredo Neves II",
        "street": "Rua São Mateus",
        "zipcode": "48609-132"
    },
    {
        "city": "Paulo Afonso",
        "state": "BA",
        "district": "Tancredo Neves III",
        "street": "Rua Senhor do Bonfim",
        "zipcode": "48611-138"
    },
    {
        "city": "Paulo Afonso",
        "state": "BA",
        "district": "Fazenda CHESF",
        "street": "Avenida Maranhão",
        "zipcode": "48606-500"
    },
    {
        "city": "Paulo Afonso",
        "state": "BA",
        "district": "Centro",
        "street": "Avenida Apolônio Sales",
        "zipcode": "48601-195"
    },
    {
        "city": "Paulo Afonso",
        "state": "BA",
        "district": "Tancredo Neves II",
        "street": "1ª Travessa Padre Lourenço",
        "zipcode": "48609-182"
    },
    {
        "city": "Paulo Afonso",
        "state": "BA",
        "district": "Jardim Bahia",
        "street": "Travessa Nossa Senhora do Perpétuo Socorro",
        "zipcode": "48604-185"
    },
    {
        "city": "Paulo Afonso",
        "state": "BA",
        "district": "General Dutra",
        "street": "Travessa Engenheiro Marchetti",
        "zipcode": "48607-215"
    },
    {
        "city": "Paulo Afonso",
        "state": "BA",
        "district": "Alves de Souza",
        "street": "Travessa das Camélias",
        "zipcode": "48608-205"
    },
    {
        "city": "Paulo Afonso",
        "state": "BA",
        "district": "Centro",
        "street": "Rua Amâncio Pereira",
        "zipcode": "48602-110"
    },
    {
        "city": "Paulo Afonso",
        "state": "BA",
        "district": "Tancredo Neves II",
        "street": "Rua Seminarista Hélio Limeira",
        "zipcode": "48609-190"
    },
    {
        "city": "Paulo Afonso",
        "state": "BA",
        "district": "Clériston Andrade",
        "street": "Rua Marechal Deodoro da Fonseca",
        "zipcode": "48603-310"
    },
    {
        "city": "Paulo Afonso",
        "state": "BA",
        "district": "Clériston Andrade",
        "street": "Rua Jorge Amado",
        "zipcode": "48603-365"
    },
    {
        "city": "Paulo Afonso",
        "state": "BA",
        "district": "Tancredo Neves Iii",
        "street": "Rua Sao Paulo",
        "zipcode": "48609-440"
    },
    {
        "city": "Paulo Afonso",
        "state": "BA",
        "district": "Bnh",
        "street": "Quadra E",
        "zipcode": "48605-000"
    },
    {
        "city": "Paulo Afonso",
        "state": "BA",
        "district": "Centro",
        "street": "Rua Antonio José Neto",
        "zipcode": "48601-385"
    },
    {
        "city": "Paulo Afonso",
        "state": "BA",
        "district": "Tancredo Neves Iii",
        "street": "Rua Rio Grande Do Norte",
        "zipcode": "48609-430"
    },
    {
        "city": "Paulo Afonso",
        "state": "BA",
        "district": "Setor Industrial",
        "street": "Avenida Maranhão",
        "zipcode": "48606-000"
    },
    {
        "city": "Paulo Afonso",
        "state": "BA",
        "district": "Tancredo Neves Iii",
        "street": "Rua Santo Antonio",
        "zipcode": "48609-400"
    },
    {
        "city": "Paulo Afonso",
        "state": "BA",
        "district": "Tancredo Neves Ii",
        "street": "Rua Verdes Campos",
        "zipcode": "48609-270"
    },
    {
        "city": "Paulo Afonso",
        "state": "BA",
        "district": "Tancredo Neves Ii",
        "street": "Rua Carira",
        "zipcode": "48609-330"
    },
    {
        "city": "Paulo Afonso",
        "state": "BA",
        "district": "Tancredo Neves Iii",
        "street": "Rua Dos Lageiros",
        "zipcode": "48609-420"
    },
    {
        "city": "Paulo Afonso",
        "state": "BA",
        "district": "Chesf",
        "street": "Conjunto Habitacional Da Chesf",
        "zipcode": "48608-000"
    },
    {
        "city": "Paulo Afonso",
        "state": "BA",
        "district": "Centenário",
        "street": "Rua Noé Pereira",
        "zipcode": "48605-515"
    },
    {
        "city": "Paulo Afonso",
        "state": "BA",
        "district": "Tancredo Neves Iii",
        "street": "Travessa Belo Horizonte",
        "zipcode": "48609-460"
    },
    {
        "city": "Paulo Afonso",
        "state": "BA",
        "district": "Nossa Senhora de Fátima",
        "street": "Rua General Dutra",
        "zipcode": "48601-052"
    },
    {
        "city": "Paulo Afonso",
        "state": "BA",
        "district": "Tancredo Neves Ii",
        "street": "Rua Boa Viagem",
        "zipcode": "48609-210"
    },
    {
        "city": "Paulo Afonso",
        "state": "BA",
        "district": "Tancredo Neves Iii",
        "street": "Travessa Maria Tereza Amor Divino",
        "zipcode": "48609-410"
    },
    {
        "city": "Paulo Afonso",
        "state": "BA",
        "district": "Panorama",
        "street": "Quadra H",
        "zipcode": "48605-060"
    },
    {
        "city": "Paulo Afonso",
        "state": "BA",
        "district": "Tancredo Neves Ii",
        "street": "Rua Paulo Afonso",
        "zipcode": "48609-360"
    },
    {
        "city": "Paulo Afonso",
        "state": "BA",
        "district": "Tancredo Neves Ii",
        "street": "Rua Adauto Pereira",
        "zipcode": "48609-150"
    },
    {
        "city": "Paulo Afonso",
        "state": "BA",
        "district": "Tancredo Neves Iii",
        "street": "Rua Neimar De Barros",
        "zipcode": "48609-550"
    },
    {
        "city": "Paulo Afonso",
        "state": "BA",
        "district": "Nossa Senhora de Fátima",
        "street": "Rua Jerusalém",
        "zipcode": "48601-075"
    },
    {
        "city": "Paulo Afonso",
        "state": "BA",
        "district": "Oliveira Lopes",
        "street": "Rua Da Consolacao",
        "zipcode": "48607-420"
    },
    {
        "city": "Paulo Afonso",
        "state": "BA",
        "district": "Chesf",
        "street": "Rua Dos Guararapes",
        "zipcode": "48607-160"
    },
    {
        "city": "Paulo Afonso",
        "state": "BA",
        "district": "Sal Torrado",
        "street": "Travessa Morumbi",
        "zipcode": "48605-820"
    },
    {
        "city": "Paulo Afonso",
        "state": "BA",
        "district": "Perpétuo Socorro",
        "street": "Rua Perimetral I",
        "zipcode": "48603-200"
    },
    {
        "city": "Paulo Afonso",
        "state": "BA",
        "district": "Jardim Bahia",
        "street": "Rua Nossa Senhora do Perpétuo Socorro",
        "zipcode": "48604-180"
    },
    {
        "city": "Paulo Afonso",
        "state": "BA",
        "district": "Clériston Andrade",
        "street": "Rua Washington Luís",
        "zipcode": "48603-280"
    },
    {
        "city": "Paulo Afonso",
        "state": "BA",
        "district": "Centro",
        "street": "Rua João Vicente Ferreira",
        "zipcode": "48601-405"
    },
    {
        "city": "Paulo Afonso",
        "state": "BA",
        "district": "Chesf",
        "street": "Rua Da Bela Vista",
        "zipcode": "48608-270"
    },
    {
        "city": "Paulo Afonso",
        "state": "BA",
        "district": "Tancredo Neves II",
        "street": "Rua Josias Gomes dos Santos",
        "zipcode": "48609-308"
    },
    {
        "city": "Paulo Afonso",
        "state": "BA",
        "district": "Tancredo Neves Iii",
        "street": "Rua Joao Paulo Ii",
        "zipcode": "48609-370"
    },
    {
        "city": "Paulo Afonso",
        "state": "BA",
        "district": "Bnh",
        "street": "Quadra G",
        "zipcode": "48605-170"
    },
    {
        "city": "Paulo Afonso",
        "state": "BA",
        "district": "São Vicente",
        "street": "Rua Madre Tereza de Calcutá",
        "zipcode": "48603-596"
    },
    {
        "city": "Paulo Afonso",
        "state": "BA",
        "district": "Cardeal Brandão Vilela",
        "street": "Rua Monteiro Lobato",
        "zipcode": "48610-504"
    },
    {
        "city": "Paulo Afonso",
        "state": "BA",
        "district": "Tancredo Neves Ii",
        "street": "Travessa Sertania",
        "zipcode": "48609-240"
    },
    {
        "city": "Paulo Afonso",
        "state": "BA",
        "district": "Tancredo Neves Iii",
        "street": "Rua Padre Cicero",
        "zipcode": "48609-380"
    },
    {
        "city": "Paulo Afonso",
        "state": "BA",
        "district": "Tancredo Neves Ii",
        "street": "Rua Santa Rita",
        "zipcode": "48609-120"
    },
    {
        "city": "Paulo Afonso",
        "state": "BA",
        "district": "Tancredo Neves Ii",
        "street": "Rua Mandacaru",
        "zipcode": "48609-320"
    },
    {
        "city": "Paulo Afonso",
        "state": "BA",
        "district": "Tancredo Neves Iii",
        "street": "Rua Senhor Do Bonfim",
        "zipcode": "48609-450"
    },
    {
        "city": "Paulo Afonso",
        "state": "BA",
        "district": "Tancredo Neves Ii",
        "street": "Rua Delmiro Gouveia",
        "zipcode": "48609-000"
    },
    {
        "city": "Paulo Afonso",
        "state": "BA",
        "district": "Santa Inês",
        "street": "Rua Progresso",
        "zipcode": "48610-304"
    },
    {
        "city": "Paulo Afonso",
        "state": "BA",
        "district": "Tancredo Neves Ii",
        "street": "Rua Maruim",
        "zipcode": "48609-200"
    },
    {
        "city": "Paulo Afonso",
        "state": "BA",
        "district": "Tancredo Neves Ii",
        "street": "Rua Caruaru",
        "zipcode": "48609-250"
    },
    {
        "city": "Paulo Afonso",
        "state": "BA",
        "district": "Centro",
        "street": "Avenida Getulio Vargas",
        "zipcode": "48601-001"
    },
    {
        "city": "Paulo Afonso",
        "state": "BA",
        "district": "Centro",
        "street": "Rua General Dutra",
        "zipcode": "48601-050"
    },
    {
        "city": "Paulo Afonso",
        "state": "BA",
        "district": "Vila Poty",
        "street": "Avenida Do Contorno",
        "zipcode": "48601-500"
    },
    {
        "city": "Paulo Afonso",
        "state": "BA",
        "district": "Chesf",
        "street": "Rua Canal Do Capuxu",
        "zipcode": "48608-140"
    },
    {
        "city": "Paulo Afonso",
        "state": "BA",
        "district": "Chesf",
        "street": "Avenida Interlagos",
        "zipcode": "48607-100"
    },
    {
        "city": "Paulo Afonso",
        "state": "BA",
        "district": "Tancredo Neves Iii",
        "street": "Rua Do Planalto",
        "zipcode": "48609-520"
    },
    {
        "city": "Paulo Afonso",
        "state": "BA",
        "district": "Vila Poty",
        "street": "Travessa Da Inconfidencia",
        "zipcode": "48602-530"
    },
    {
        "city": "Paulo Afonso",
        "state": "BA",
        "district": "Cleriston Andrade",
        "street": "Loteamento Das Oficinas",
        "zipcode": "48603-340"
    },
    {
        "city": "Paulo Afonso",
        "state": "BA",
        "district": "Centenario",
        "street": "Loteamento Senhor Do Bonfim",
        "zipcode": "48605-450"
    },
    {
        "city": "Paulo Afonso",
        "state": "BA",
        "district": "General Dutra",
        "street": "Rua Carnaubas",
        "zipcode": "48607-200"
    },
    {
        "city": "Paulo Afonso",
        "state": "BA",
        "district": "Oliveira Lopes",
        "street": "Rua Das Acacias",
        "zipcode": "48607-340"
    },
    {
        "city": "Paulo Afonso",
        "state": "BA",
        "district": "Abel Barbosa",
        "street": "Rua Do Estudante",
        "zipcode": "48605-210"
    },
    {
        "city": "Paulo Afonso",
        "state": "BA",
        "district": "Vila Poty",
        "street": "Praça Vinte E Oito De Junho",
        "zipcode": "48602-040"
    },
    {
        "city": "Paulo Afonso",
        "state": "BA",
        "district": "Cetenco",
        "street": "Quadra E",
        "zipcode": "48604-330"
    },
    {
        "city": "Paulo Afonso",
        "state": "BA",
        "district": "Panorama",
        "street": "Quadra A",
        "zipcode": "48605-110"
    },
    {
        "city": "Paulo Afonso",
        "state": "BA",
        "district": "Tancredo Neves Iii",
        "street": "Rua Maria Tereza Amor Divino",
        "zipcode": "48609-390"
    },
    {
        "city": "Paulo Afonso",
        "state": "BA",
        "district": "Centenario",
        "street": "Rua Da Argelia",
        "zipcode": "48605-630"
    },
    {
        "city": "Paulo Afonso",
        "state": "BA",
        "district": "Bnh",
        "street": "Quadra F",
        "zipcode": "48605-160"
    },
    {
        "city": "Paulo Afonso",
        "state": "BA",
        "district": "Chesf",
        "street": "Rua Rio Grande Do Norte",
        "zipcode": "48607-040"
    },
    {
        "city": "Paulo Afonso",
        "state": "BA",
        "district": "Cetenco",
        "street": "Quadra I",
        "zipcode": "48604-320"
    },
    {
        "city": "Paulo Afonso",
        "state": "BA",
        "district": "Tancredo Neves Ii",
        "street": "Rua Sertania",
        "zipcode": "48609-260"
    },
    {
        "city": "Paulo Afonso",
        "state": "BA",
        "district": "Perpetuo Socorro",
        "street": "Avenida Do Contorno",
        "zipcode": "48602-050"
    },
    {
        "city": "Paulo Afonso",
        "state": "BA",
        "district": "Tancredo Neves Ii",
        "street": "Rua Floresta",
        "zipcode": "48609-350"
    },
    {
        "city": "Paulo Afonso",
        "state": "BA",
        "district": "Panorama",
        "street": "Quadra M",
        "zipcode": "48605-020"
    },
    {
        "city": "Paulo Afonso",
        "state": "BA",
        "district": "Cetenco",
        "street": "Quadra C",
        "zipcode": "48604-340"
    },
    {
        "city": "Paulo Afonso",
        "state": "BA",
        "district": "Panorama",
        "street": "Quadra C",
        "zipcode": "48605-070"
    },
    {
        "city": "Paulo Afonso",
        "state": "BA",
        "district": "Centro",
        "street": "Rua Amancio Pereira",
        "zipcode": "48601-020"
    }
]