[
    {
        "city": "Porto Seguro",
        "state": "BA",
        "district": null,
        "street": "Rua 19 de Novembro",
        "zipcode": "45810-995"
    },
    {
        "city": "Porto Seguro",
        "state": "BA",
        "district": null,
        "street": "Avenida Ubaldino Júnior Quadra 30  Lote 01",
        "zipcode": "45810-998"
    },
    {
        "city": "Porto Seguro",
        "state": "BA",
        "district": "",
        "street": "",
        "zipcode": "45810-000"
    },
    {
        "city": "Porto Seguro",
        "state": "BA",
        "district": "Centro",
        "street": "Rua Itagibá 85",
        "zipcode": "45810-970"
    },
    {
        "city": "Porto Seguro",
        "state": "BA",
        "district": "Tabapiry",
        "street": "Rodovia BR",
        "zipcode": "45815-970"
    },
    {
        "city": "Porto Seguro",
        "state": "BA",
        "district": "Frei Calixto",
        "street": "Rua Princesa Isabel 229",
        "zipcode": "45810-972"
    },
    {
        "city": "Porto Seguro",
        "state": "BA",
        "district": "Pindorama",
        "street": "Rua Santa Rita s/n",
        "zipcode": "45810-973"
    },
    {
        "city": "Porto Seguro",
        "state": "BA",
        "district": null,
        "street": "Avenida Bahia  Lote 38",
        "zipcode": "45810-992"
    },
    {
        "city": "Porto Seguro",
        "state": "BA",
        "district": null,
        "street": "Rua Pero Vaz de Caminha",
        "zipcode": "45810-990"
    },
    {
        "city": "Porto Seguro",
        "state": "BA",
        "district": null,
        "street": "Rua Neilton Dantas de Souza  Lote 40  Quadra 35",
        "zipcode": "45810-996"
    },
    {
        "city": "Porto Seguro",
        "state": "BA",
        "district": null,
        "street": "Mercado Municipal Arraial Dajuda",
        "zipcode": "45816-990"
    },
    {
        "city": "Porto Seguro",
        "state": "BA",
        "district": null,
        "street": "Rua Carlos Alberto de Souza Parracho",
        "zipcode": "45819-990"
    },
    {
        "city": "Porto Seguro",
        "state": "BA",
        "district": null,
        "street": "Praça do Dendê",
        "zipcode": "45810-993"
    },
    {
        "city": "Porto Seguro",
        "state": "BA",
        "district": null,
        "street": "Loteamento Village 1",
        "zipcode": "45810-991"
    },
    {
        "city": "Porto Seguro",
        "state": "BA",
        "district": null,
        "street": "Rua da Embratel",
        "zipcode": "45811-990"
    },
    {
        "city": "Porto Seguro",
        "state": "BA",
        "district": null,
        "street": "Rua da Matriz",
        "zipcode": "45810-994"
    },
    {
        "city": "Porto Seguro",
        "state": "BA",
        "district": null,
        "street": "Praia do Mirante",
        "zipcode": "45810-997"
    }
]