[
    {
        "city": "Santo Antônio de Jesus",
        "state": "BA",
        "district": "Maria Preta",
        "street": "Loteamento São João",
        "zipcode": "44570-760"
    },
    {
        "city": "Santo Antônio de Jesus",
        "state": "BA",
        "district": "Jardim das Árvores",
        "street": "Rua Pau Brasil",
        "zipcode": "44573-650"
    },
    {
        "city": "Santo Antônio de Jesus",
        "state": "BA",
        "district": "Centro",
        "street": "Rua Olívia Santana de Almeida",
        "zipcode": "44571-012"
    },
    {
        "city": "Santo Antônio de Jesus",
        "state": "BA",
        "district": "Nossa Senhora das Graças",
        "street": "Praça Bom Jesus",
        "zipcode": "44574-335"
    },
    {
        "city": "Santo Antônio de Jesus",
        "state": "BA",
        "district": "Centro",
        "street": "Travessa José Petitinga",
        "zipcode": "44572-110"
    },
    {
        "city": "Santo Antônio de Jesus",
        "state": "BA",
        "district": "Maria Preta",
        "street": "Rua Cidade de Laje",
        "zipcode": "44570-690"
    },
    {
        "city": "Santo Antônio de Jesus",
        "state": "BA",
        "district": "Sobradinho",
        "street": "Rua Pastor Gilberto Passos",
        "zipcode": "44570-390"
    },
    {
        "city": "Santo Antônio de Jesus",
        "state": "BA",
        "district": "Urbis II",
        "street": "Rua C",
        "zipcode": "44574-200"
    },
    {
        "city": "Santo Antônio de Jesus",
        "state": "BA",
        "district": "Urbis II",
        "street": "Rua B",
        "zipcode": "44574-090"
    },
    {
        "city": "Santo Antônio de Jesus",
        "state": "BA",
        "district": "Urbis II",
        "street": "Alameda Cinco",
        "zipcode": "44574-110"
    },
    {
        "city": "Santo Antônio de Jesus",
        "state": "BA",
        "district": "Urbis II",
        "street": "Rua E",
        "zipcode": "44574-230"
    },
    {
        "city": "Santo Antônio de Jesus",
        "state": "BA",
        "district": "Urbis II",
        "street": "Travessa H",
        "zipcode": "44574-210"
    },
    {
        "city": "Santo Antônio de Jesus",
        "state": "BA",
        "district": "Urbis II",
        "street": "Rua H",
        "zipcode": "44574-150"
    },
    {
        "city": "Santo Antônio de Jesus",
        "state": "BA",
        "district": "Urbis II",
        "street": "Alameda Nove",
        "zipcode": "44574-220"
    },
    {
        "city": "Santo Antônio de Jesus",
        "state": "BA",
        "district": "Urbis II",
        "street": "Alameda Onze",
        "zipcode": "44574-160"
    },
    {
        "city": "Santo Antônio de Jesus",
        "state": "BA",
        "district": "Nossa Senhora das Graças",
        "street": "Avenida Providência",
        "zipcode": "44574-270"
    },
    {
        "city": "Santo Antônio de Jesus",
        "state": "BA",
        "district": "Urbis II",
        "street": "Alameda Seis",
        "zipcode": "44574-170"
    },
    {
        "city": "Santo Antônio de Jesus",
        "state": "BA",
        "district": "Urbis II",
        "street": "Alameda Treze",
        "zipcode": "44574-100"
    },
    {
        "city": "Santo Antônio de Jesus",
        "state": "BA",
        "district": "Urbis II",
        "street": "Alameda Um",
        "zipcode": "44574-130"
    },
    {
        "city": "Santo Antônio de Jesus",
        "state": "BA",
        "district": "Urbis II",
        "street": "Alameda Dez",
        "zipcode": "44574-260"
    },
    {
        "city": "Santo Antônio de Jesus",
        "state": "BA",
        "district": "Amparo",
        "street": "Rua Cinco",
        "zipcode": "44572-640"
    },
    {
        "city": "Santo Antônio de Jesus",
        "state": "BA",
        "district": "Jardim Brasil",
        "street": "Rua A",
        "zipcode": "44573-100"
    },
    {
        "city": "Santo Antônio de Jesus",
        "state": "BA",
        "district": "Amparo",
        "street": "Rua A",
        "zipcode": "44572-650"
    },
    {
        "city": "Santo Antônio de Jesus",
        "state": "BA",
        "district": "Andaia",
        "street": "Travessa da Alegria",
        "zipcode": "44572-460"
    },
    {
        "city": "Santo Antônio de Jesus",
        "state": "BA",
        "district": "Centro",
        "street": "Travessa Antônio Fraga",
        "zipcode": "44572-090"
    },
    {
        "city": "Santo Antônio de Jesus",
        "state": "BA",
        "district": "Jardim Brasil",
        "street": "Rua B",
        "zipcode": "44573-120"
    },
    {
        "city": "Santo Antônio de Jesus",
        "state": "BA",
        "district": "Nossa Senhora das Graças",
        "street": "Avenida Beira Mar",
        "zipcode": "44574-295"
    },
    {
        "city": "Santo Antônio de Jesus",
        "state": "BA",
        "district": "Amparo",
        "street": "Rodovia BR",
        "zipcode": "44572-610"
    },
    {
        "city": "Santo Antônio de Jesus",
        "state": "BA",
        "district": "Ernesto Melo",
        "street": "Rua C",
        "zipcode": "44572-150"
    },
    {
        "city": "Santo Antônio de Jesus",
        "state": "BA",
        "district": "Jardim das Árvores",
        "street": "Rua Maçaranduba",
        "zipcode": "44573-660"
    },
    {
        "city": "Santo Antônio de Jesus",
        "state": "BA",
        "district": "Cajueiro",
        "street": "Travessa do Cajueiro",
        "zipcode": "44574-470"
    },
    {
        "city": "Santo Antônio de Jesus",
        "state": "BA",
        "district": "Cajueiro",
        "street": "Rua do Cajueiro",
        "zipcode": "44574-490"
    },
    {
        "city": "Santo Antônio de Jesus",
        "state": "BA",
        "district": "São Benedito",
        "street": "Travessa da Conceição",
        "zipcode": "44573-490"
    },
    {
        "city": "Santo Antônio de Jesus",
        "state": "BA",
        "district": "São Benedito",
        "street": "Rua da Conceição",
        "zipcode": "44573-420"
    },
    {
        "city": "Santo Antônio de Jesus",
        "state": "BA",
        "district": "Andaia",
        "street": "Rua Cosme e Damião",
        "zipcode": "44572-420"
    },
    {
        "city": "Santo Antônio de Jesus",
        "state": "BA",
        "district": "Andaia",
        "street": "Travessa Cosme e Damião",
        "zipcode": "44572-410"
    },
    {
        "city": "Santo Antônio de Jesus",
        "state": "BA",
        "district": "São Paulo",
        "street": "Rua D",
        "zipcode": "44573-590"
    },
    {
        "city": "Santo Antônio de Jesus",
        "state": "BA",
        "district": "Urbis II",
        "street": "Alameda Dois",
        "zipcode": "44574-070"
    },
    {
        "city": "Santo Antônio de Jesus",
        "state": "BA",
        "district": "Amparo",
        "street": "Rua Dois",
        "zipcode": "44572-620"
    },
    {
        "city": "Santo Antônio de Jesus",
        "state": "BA",
        "district": "São Benedito",
        "street": "Avenida Antônio Carlos Magalhães",
        "zipcode": "44573-440"
    },
    {
        "city": "Santo Antônio de Jesus",
        "state": "BA",
        "district": "São Paulo",
        "street": "Rua F",
        "zipcode": "44573-600"
    },
    {
        "city": "Santo Antônio de Jesus",
        "state": "BA",
        "district": "Andaia",
        "street": "Travessa Ferreira Silva",
        "zipcode": "44572-580"
    },
    {
        "city": "Santo Antônio de Jesus",
        "state": "BA",
        "district": "Andaia",
        "street": "Rua Ferreira Silva",
        "zipcode": "44572-480"
    },
    {
        "city": "Santo Antônio de Jesus",
        "state": "BA",
        "district": "São Benedito",
        "street": "Rua Firmino Ribeiro",
        "zipcode": "44573-290"
    },
    {
        "city": "Santo Antônio de Jesus",
        "state": "BA",
        "district": "Andaia",
        "street": "Rua Fonte do Céu",
        "zipcode": "44572-560"
    },
    {
        "city": "Santo Antônio de Jesus",
        "state": "BA",
        "district": "Urbis II",
        "street": "Rua G",
        "zipcode": "44574-080"
    },
    {
        "city": "Santo Antônio de Jesus",
        "state": "BA",
        "district": "São Paulo",
        "street": "Favela do Derba",
        "zipcode": "44573-620"
    },
    {
        "city": "Santo Antônio de Jesus",
        "state": "BA",
        "district": "Centro",
        "street": "Rua Lindolfo de Queiroz",
        "zipcode": "44572-020"
    },
    {
        "city": "Santo Antônio de Jesus",
        "state": "BA",
        "district": "São Benedito",
        "street": "Travessa dos Humildes",
        "zipcode": "44573-450"
    },
    {
        "city": "Santo Antônio de Jesus",
        "state": "BA",
        "district": "Centro",
        "street": "Rua Jovino Amâncio",
        "zipcode": "44572-095"
    },
    {
        "city": "Santo Antônio de Jesus",
        "state": "BA",
        "district": "Nossa Senhora das Graças",
        "street": "Avenida Juracy Magalhães",
        "zipcode": "44574-340"
    },
    {
        "city": "Santo Antônio de Jesus",
        "state": "BA",
        "district": "Andaia",
        "street": "Rua Machado Bittencourt",
        "zipcode": "44572-450"
    },
    {
        "city": "Santo Antônio de Jesus",
        "state": "BA",
        "district": "São Benedito",
        "street": "Travessa Marieta Martins",
        "zipcode": "44573-310"
    },
    {
        "city": "Santo Antônio de Jesus",
        "state": "BA",
        "district": "São Benedito",
        "street": "Travessa Nova Brasília",
        "zipcode": "44573-430"
    },
    {
        "city": "Santo Antônio de Jesus",
        "state": "BA",
        "district": "Nossa Senhora das Graças",
        "street": "Rua Nova do Mutum",
        "zipcode": "44574-330"
    },
    {
        "city": "Santo Antônio de Jesus",
        "state": "BA",
        "district": "Amparo",
        "street": "Rua Quatro",
        "zipcode": "44572-670"
    },
    {
        "city": "Santo Antônio de Jesus",
        "state": "BA",
        "district": "Amparo",
        "street": "Rua São Bartolomeu",
        "zipcode": "44572-630"
    },
    {
        "city": "Santo Antônio de Jesus",
        "state": "BA",
        "district": "São Benedito",
        "street": "Rua São Jorge",
        "zipcode": "44573-500"
    },
    {
        "city": "Santo Antônio de Jesus",
        "state": "BA",
        "district": "São Benedito",
        "street": "Loteamento Terezinha",
        "zipcode": "44573-470"
    },
    {
        "city": "Santo Antônio de Jesus",
        "state": "BA",
        "district": "Andaia",
        "street": "Rua Trinta e Um de Março",
        "zipcode": "44572-520"
    },
    {
        "city": "Santo Antônio de Jesus",
        "state": "BA",
        "district": "Andaia",
        "street": "Travessa Trinta e Um de Março",
        "zipcode": "44572-470"
    },
    {
        "city": "Santo Antônio de Jesus",
        "state": "BA",
        "district": "Nossa Senhora das Graças",
        "street": "Conjunto Urbis I",
        "zipcode": "44574-285"
    },
    {
        "city": "Santo Antônio de Jesus",
        "state": "BA",
        "district": "Cajueiro",
        "street": "Rua Bela Vista",
        "zipcode": "44574-520"
    },
    {
        "city": "Santo Antônio de Jesus",
        "state": "BA",
        "district": "Andaia",
        "street": "Loteamento São José",
        "zipcode": "44572-550"
    },
    {
        "city": "Santo Antônio de Jesus",
        "state": "BA",
        "district": "Nossa Senhora das Graças",
        "street": "Conjunto Urbis IV",
        "zipcode": "44574-305"
    },
    {
        "city": "Santo Antônio de Jesus",
        "state": "BA",
        "district": "Cajueiro",
        "street": "Travessa Bela Vista",
        "zipcode": "44574-480"
    },
    {
        "city": "Santo Antônio de Jesus",
        "state": "BA",
        "district": "Jardim das Árvores",
        "street": "Rua Sucupira",
        "zipcode": "44573-630"
    },
    {
        "city": "Santo Antônio de Jesus",
        "state": "BA",
        "district": "São Benedito",
        "street": "Travessa São Jorge",
        "zipcode": "44573-480"
    },
    {
        "city": "Santo Antônio de Jesus",
        "state": "BA",
        "district": "Ernesto Melo",
        "street": "Rua A",
        "zipcode": "44572-140"
    },
    {
        "city": "Santo Antônio de Jesus",
        "state": "BA",
        "district": "Andaia",
        "street": "Rua Vereador João Silva",
        "zipcode": "44572-570"
    },
    {
        "city": "Santo Antônio de Jesus",
        "state": "BA",
        "district": "Nossa Senhora das Graças",
        "street": "Travessa Juracy Magalhães",
        "zipcode": "44574-300"
    },
    {
        "city": "Santo Antônio de Jesus",
        "state": "BA",
        "district": "Centro",
        "street": "Rua Allan Kardeck",
        "zipcode": "44571-085"
    },
    {
        "city": "Santo Antônio de Jesus",
        "state": "BA",
        "district": "Centro",
        "street": "Rua Antônio Fraga",
        "zipcode": "44572-015"
    },
    {
        "city": "Santo Antônio de Jesus",
        "state": "BA",
        "district": "Centro",
        "street": "Rua Antônio Veiga Argolo",
        "zipcode": "44571-370"
    },
    {
        "city": "Santo Antônio de Jesus",
        "state": "BA",
        "district": "São Benedito",
        "street": "Travessa do Areial",
        "zipcode": "44573-160"
    },
    {
        "city": "Santo Antônio de Jesus",
        "state": "BA",
        "district": "Centro",
        "street": "Rua do Areial",
        "zipcode": "44571-031"
    },
    {
        "city": "Santo Antônio de Jesus",
        "state": "BA",
        "district": "Centro",
        "street": "Rua Armando Tavares",
        "zipcode": "44571-017"
    },
    {
        "city": "Santo Antônio de Jesus",
        "state": "BA",
        "district": "Centro",
        "street": "Rua Artur Magalhães dos Humildes",
        "zipcode": "44571-014"
    },
    {
        "city": "Santo Antônio de Jesus",
        "state": "BA",
        "district": "Centro",
        "street": "Rua Aurino Sales",
        "zipcode": "44571-365"
    },
    {
        "city": "Santo Antônio de Jesus",
        "state": "BA",
        "district": "Centro",
        "street": "Avenida Barros e Almeida",
        "zipcode": "44571-013"
    },
    {
        "city": "Santo Antônio de Jesus",
        "state": "BA",
        "district": "São Benedito",
        "street": "Rua Belo Horizonte",
        "zipcode": "44573-230"
    },
    {
        "city": "Santo Antônio de Jesus",
        "state": "BA",
        "district": "Centro",
        "street": "Travessa Castro Alves",
        "zipcode": "44571-080"
    },
    {
        "city": "Santo Antônio de Jesus",
        "state": "BA",
        "district": "Centro",
        "street": "Rua Castro Alves",
        "zipcode": "44571-070"
    },
    {
        "city": "Santo Antônio de Jesus",
        "state": "BA",
        "district": "Centro",
        "street": "Rua Conselheiro Epifânio",
        "zipcode": "44571-029"
    },
    {
        "city": "Santo Antônio de Jesus",
        "state": "BA",
        "district": "Centro",
        "street": "Avenida Contorno",
        "zipcode": "44571-050"
    },
    {
        "city": "Santo Antônio de Jesus",
        "state": "BA",
        "district": "Centro",
        "street": "Rua Cosme de Farias",
        "zipcode": "44572-025"
    },
    {
        "city": "Santo Antônio de Jesus",
        "state": "BA",
        "district": "Jardim Brasil",
        "street": "Rua D",
        "zipcode": "44573-130"
    },
    {
        "city": "Santo Antônio de Jesus",
        "state": "BA",
        "district": "São Benedito",
        "street": "Rua do Desterro",
        "zipcode": "44573-140"
    },
    {
        "city": "Santo Antônio de Jesus",
        "state": "BA",
        "district": "Centro",
        "street": "Travessa Duque de Caxias",
        "zipcode": "44571-130"
    },
    {
        "city": "Santo Antônio de Jesus",
        "state": "BA",
        "district": "Centro",
        "street": "Rua Engenheiro Antônio Borges",
        "zipcode": "44571-110"
    },
    {
        "city": "Santo Antônio de Jesus",
        "state": "BA",
        "district": "Centro",
        "street": "Travessa Engenheiro Antônio Borges",
        "zipcode": "44571-120"
    },
    {
        "city": "Santo Antônio de Jesus",
        "state": "BA",
        "district": "Centro",
        "street": "Rua do Expedicionário",
        "zipcode": "44571-034"
    },
    {
        "city": "Santo Antônio de Jesus",
        "state": "BA",
        "district": "Centro",
        "street": "Travessa Forte de São Marcelo",
        "zipcode": "44571-025"
    },
    {
        "city": "Santo Antônio de Jesus",
        "state": "BA",
        "district": "Centro",
        "street": "Rua Gorgônio José de Araújo",
        "zipcode": "44571-355"
    },
    {
        "city": "Santo Antônio de Jesus",
        "state": "BA",
        "district": "Centro",
        "street": "Rua Independência",
        "zipcode": "44571-045"
    },
    {
        "city": "Santo Antônio de Jesus",
        "state": "BA",
        "district": "Centro",
        "street": "Rua Joana Angélica",
        "zipcode": "44571-036"
    },
    {
        "city": "Santo Antônio de Jesus",
        "state": "BA",
        "district": "Centro",
        "street": "Rua Landulfo Alves",
        "zipcode": "44571-380"
    },
    {
        "city": "Santo Antônio de Jesus",
        "state": "BA",
        "district": "Centro",
        "street": "Travessa Luís Viana",
        "zipcode": "44571-023"
    },
    {
        "city": "Santo Antônio de Jesus",
        "state": "BA",
        "district": "São Benedito",
        "street": "Rua Marieta Martins",
        "zipcode": "44573-250"
    },
    {
        "city": "Santo Antônio de Jesus",
        "state": "BA",
        "district": "Centro",
        "street": "Rua Misael Maia Matos",
        "zipcode": "44572-040"
    },
    {
        "city": "Santo Antônio de Jesus",
        "state": "BA",
        "district": "Centro",
        "street": "Praça Padre Mateus",
        "zipcode": "44571-350"
    },
    {
        "city": "Santo Antônio de Jesus",
        "state": "BA",
        "district": "Centro",
        "street": "Rua Presidente Médici",
        "zipcode": "44571-105"
    },
    {
        "city": "Santo Antônio de Jesus",
        "state": "BA",
        "district": "Centro",
        "street": "Rua Rui Barbosa",
        "zipcode": "44572-000"
    },
    {
        "city": "Santo Antônio de Jesus",
        "state": "BA",
        "district": "Centro",
        "street": "Rua Saldanha Marinho",
        "zipcode": "44571-065"
    },
    {
        "city": "Santo Antônio de Jesus",
        "state": "BA",
        "district": "São Benedito",
        "street": "Avenida São João",
        "zipcode": "44573-260"
    },
    {
        "city": "Santo Antônio de Jesus",
        "state": "BA",
        "district": "Centro",
        "street": "Travessa Sete de Setembro",
        "zipcode": "44571-095"
    },
    {
        "city": "Santo Antônio de Jesus",
        "state": "BA",
        "district": "São Benedito",
        "street": "Rua Severino Vieira",
        "zipcode": "44573-200"
    },
    {
        "city": "Santo Antônio de Jesus",
        "state": "BA",
        "district": "São Benedito",
        "street": "Rua do Sossego",
        "zipcode": "44573-210"
    },
    {
        "city": "Santo Antônio de Jesus",
        "state": "BA",
        "district": "Centro",
        "street": "Rua Sóter Barros",
        "zipcode": "44571-150"
    },
    {
        "city": "Santo Antônio de Jesus",
        "state": "BA",
        "district": "São Benedito",
        "street": "Rua do Sururu",
        "zipcode": "44573-280"
    },
    {
        "city": "Santo Antônio de Jesus",
        "state": "BA",
        "district": "Centro",
        "street": "Rua Ursicino Pinto de Queiroz",
        "zipcode": "44571-125"
    },
    {
        "city": "Santo Antônio de Jesus",
        "state": "BA",
        "district": "Centro",
        "street": "Loteamento Vila das Palmeiras",
        "zipcode": "44571-027"
    },
    {
        "city": "Santo Antônio de Jesus",
        "state": "BA",
        "district": "São Benedito",
        "street": "Travessa Vila Martins",
        "zipcode": "44573-180"
    },
    {
        "city": "Santo Antônio de Jesus",
        "state": "BA",
        "district": "Centro",
        "street": "Rua Waldemar Pinto de Queiroz",
        "zipcode": "44571-018"
    },
    {
        "city": "Santo Antônio de Jesus",
        "state": "BA",
        "district": "Centro",
        "street": "Rua Celestino Pimenta",
        "zipcode": "44571-055"
    },
    {
        "city": "Santo Antônio de Jesus",
        "state": "BA",
        "district": "Centro",
        "street": "Loteamento São Mateus",
        "zipcode": "44571-135"
    },
    {
        "city": "Santo Antônio de Jesus",
        "state": "BA",
        "district": "Centro",
        "street": "Avenida Doutor Ursicino Pinto de Queiroz",
        "zipcode": "44572-901"
    },
    {
        "city": "Santo Antônio de Jesus",
        "state": "BA",
        "district": "Centro",
        "street": "Avenida Doutor Ursicino Pinto de Queiroz",
        "zipcode": "44572-900"
    },
    {
        "city": "Santo Antônio de Jesus",
        "state": "BA",
        "district": "Centro",
        "street": "Rua Roberto Santos",
        "zipcode": "44572-902"
    },
    {
        "city": "Santo Antônio de Jesus",
        "state": "BA",
        "district": "Andaia",
        "street": "Rodovia BR",
        "zipcode": "44572-904"
    },
    {
        "city": "Santo Antônio de Jesus",
        "state": "BA",
        "district": "Centro",
        "street": "Rua Albertino Lira",
        "zipcode": "44571-008"
    },
    {
        "city": "Santo Antônio de Jesus",
        "state": "BA",
        "district": "São Benedito",
        "street": "Travessa Antônio Mendes",
        "zipcode": "44573-270"
    },
    {
        "city": "Santo Antônio de Jesus",
        "state": "BA",
        "district": "Sobradinho",
        "street": "Travessa Aracaju",
        "zipcode": "44570-400"
    },
    {
        "city": "Santo Antônio de Jesus",
        "state": "BA",
        "district": "Sobradinho",
        "street": "Rua Aracaju",
        "zipcode": "44570-420"
    },
    {
        "city": "Santo Antônio de Jesus",
        "state": "BA",
        "district": "Jardim Brasil",
        "street": "Rua C",
        "zipcode": "44573-110"
    },
    {
        "city": "Santo Antônio de Jesus",
        "state": "BA",
        "district": "Sobradinho",
        "street": "Travessa Chile",
        "zipcode": "44570-360"
    },
    {
        "city": "Santo Antônio de Jesus",
        "state": "BA",
        "district": "Maria Preta",
        "street": "Rua Cidade de Mutuípe",
        "zipcode": "44570-740"
    },
    {
        "city": "Santo Antônio de Jesus",
        "state": "BA",
        "district": "Maria Preta",
        "street": "Rua Cidade de Nazaré",
        "zipcode": "44570-680"
    },
    {
        "city": "Santo Antônio de Jesus",
        "state": "BA",
        "district": "Urbis II",
        "street": "Alameda Doze",
        "zipcode": "44574-140"
    },
    {
        "city": "Santo Antônio de Jesus",
        "state": "BA",
        "district": "Centro",
        "street": "Praça Duque de Caxias",
        "zipcode": "44571-000"
    },
    {
        "city": "Santo Antônio de Jesus",
        "state": "BA",
        "district": "Centro",
        "street": "Rua Eufrosina Couto",
        "zipcode": "44571-002"
    },
    {
        "city": "Santo Antônio de Jesus",
        "state": "BA",
        "district": "Centro",
        "street": "Rua Justiniano Rocha Galvão",
        "zipcode": "44572-080"
    },
    {
        "city": "Santo Antônio de Jesus",
        "state": "BA",
        "district": "Sobradinho",
        "street": "Rua Manaus",
        "zipcode": "44570-380"
    },
    {
        "city": "Santo Antônio de Jesus",
        "state": "BA",
        "district": "Santa Rita",
        "street": "Avenida Esperança",
        "zipcode": "44570-550"
    },
    {
        "city": "Santo Antônio de Jesus",
        "state": "BA",
        "district": "São Benedito",
        "street": "Rua Nova Brasília",
        "zipcode": "44573-400"
    },
    {
        "city": "Santo Antônio de Jesus",
        "state": "BA",
        "district": "Cajueiro",
        "street": "Rua Nova do Cajueiro",
        "zipcode": "44574-460"
    },
    {
        "city": "Santo Antônio de Jesus",
        "state": "BA",
        "district": "Urbis II",
        "street": "Alameda Oito",
        "zipcode": "44574-240"
    },
    {
        "city": "Santo Antônio de Jesus",
        "state": "BA",
        "district": "Sobradinho",
        "street": "Rua Pará",
        "zipcode": "44570-430"
    },
    {
        "city": "Santo Antônio de Jesus",
        "state": "BA",
        "district": "Santa Rita",
        "street": "Rua Pernambuco",
        "zipcode": "44570-530"
    },
    {
        "city": "Santo Antônio de Jesus",
        "state": "BA",
        "district": "Centro",
        "street": "Avenida Doutor Ursicino Pinto de Queiroz",
        "zipcode": "44572-050"
    },
    {
        "city": "Santo Antônio de Jesus",
        "state": "BA",
        "district": "Centro",
        "street": "Praça Doutor Renato Machado",
        "zipcode": "44571-016"
    },
    {
        "city": "Santo Antônio de Jesus",
        "state": "BA",
        "district": "Centro",
        "street": "Rua Roberto Santos",
        "zipcode": "44572-060"
    },
    {
        "city": "Santo Antônio de Jesus",
        "state": "BA",
        "district": "Santa Rita",
        "street": "Rua Santa Catarina",
        "zipcode": "44570-500"
    },
    {
        "city": "Santo Antônio de Jesus",
        "state": "BA",
        "district": "Centro",
        "street": "Rua Santo Antônio",
        "zipcode": "44572-065"
    },
    {
        "city": "Santo Antônio de Jesus",
        "state": "BA",
        "district": "Centro",
        "street": "Rua Monsenhor Francisco Manoel da Silva",
        "zipcode": "44571-075"
    },
    {
        "city": "Santo Antônio de Jesus",
        "state": "BA",
        "district": "Andaia",
        "street": "Loteamento Recanto Andaia",
        "zipcode": "44572-530"
    },
    {
        "city": "Santo Antônio de Jesus",
        "state": "BA",
        "district": "Sobradinho",
        "street": "Rua Elesbão Machado",
        "zipcode": "44570-490"
    },
    {
        "city": "Santo Antônio de Jesus",
        "state": "BA",
        "district": "Maria Preta",
        "street": "Rua Cidade de Salvador",
        "zipcode": "44570-660"
    },
    {
        "city": "Santo Antônio de Jesus",
        "state": "BA",
        "district": "Sobradinho",
        "street": "Rua Sergipe",
        "zipcode": "44570-460"
    },
    {
        "city": "Santo Antônio de Jesus",
        "state": "BA",
        "district": "Urbis II",
        "street": "Alameda Sete",
        "zipcode": "44574-060"
    },
    {
        "city": "Santo Antônio de Jesus",
        "state": "BA",
        "district": "Centro",
        "street": "Rua Adalício José Almeida",
        "zipcode": "44571-006"
    },
    {
        "city": "Santo Antônio de Jesus",
        "state": "BA",
        "district": "Centro",
        "street": "Rua Manoel José da Paixão Araújo",
        "zipcode": "44571-024"
    },
    {
        "city": "Santo Antônio de Jesus",
        "state": "BA",
        "district": "Maria Preta",
        "street": "Rua Cidade de São Felipe",
        "zipcode": "44570-655"
    },
    {
        "city": "Santo Antônio de Jesus",
        "state": "BA",
        "district": "Urbis II",
        "street": "Alameda Três",
        "zipcode": "44574-190"
    },
    {
        "city": "Santo Antônio de Jesus",
        "state": "BA",
        "district": "São Benedito",
        "street": "Rua Wellington de Figueredo",
        "zipcode": "44573-190"
    },
    {
        "city": "Santo Antônio de Jesus",
        "state": "BA",
        "district": "Centro",
        "street": "Rua Jardim Bahia",
        "zipcode": "44571-001"
    },
    {
        "city": "Santo Antônio de Jesus",
        "state": "BA",
        "district": "Sobradinho",
        "street": "Rua Minas Gerais",
        "zipcode": "44570-450"
    },
    {
        "city": "Santo Antônio de Jesus",
        "state": "BA",
        "district": "Centro",
        "street": "Rua Sete de Setembro",
        "zipcode": "44571-005"
    },
    {
        "city": "Santo Antônio de Jesus",
        "state": "BA",
        "district": "Centro",
        "street": "Rua Almira Andrade",
        "zipcode": "44572-045"
    },
    {
        "city": "Santo Antônio de Jesus",
        "state": "BA",
        "district": "Centro",
        "street": "Praça Pirajá",
        "zipcode": "44572-070"
    },
    {
        "city": "Santo Antônio de Jesus",
        "state": "BA",
        "district": "Cajueiro",
        "street": "Rua Fonte da Bela Vista",
        "zipcode": "44574-510"
    },
    {
        "city": "Santo Antônio de Jesus",
        "state": "BA",
        "district": "Maria Preta",
        "street": "Avenida Esperança",
        "zipcode": "44570-670"
    },
    {
        "city": "Santo Antônio de Jesus",
        "state": "BA",
        "district": "Santa Rita",
        "street": "Rua Belém",
        "zipcode": "44570-515"
    },
    {
        "city": "Santo Antônio de Jesus",
        "state": "BA",
        "district": "Santa Rita",
        "street": "Rua Natal",
        "zipcode": "44570-525"
    },
    {
        "city": "Santo Antônio de Jesus",
        "state": "BA",
        "district": "Santa Rita",
        "street": "Rua Maceió",
        "zipcode": "44570-535"
    },
    {
        "city": "Santo Antônio de Jesus",
        "state": "BA",
        "district": "Andaia",
        "street": "Rodovia BR",
        "zipcode": "44572-425"
    },
    {
        "city": "Santo Antônio de Jesus",
        "state": "BA",
        "district": "Centro",
        "street": "Rua Landulfo Alves",
        "zipcode": "44571-971"
    },
    {
        "city": "Santo Antônio de Jesus",
        "state": "BA",
        "district": "Ernesto Melo",
        "street": "Rua Lúcio José Oliveira",
        "zipcode": "44572-970"
    },
    {
        "city": "Santo Antônio de Jesus",
        "state": "BA",
        "district": null,
        "street": "Rua Doze",
        "zipcode": "44570-990"
    },
    {
        "city": "Santo Antônio de Jesus",
        "state": "BA",
        "district": "Centro",
        "street": "Praça Padre Mateus",
        "zipcode": "44571-900"
    },
    {
        "city": "Santo Antônio de Jesus",
        "state": "BA",
        "district": "Centro",
        "street": "Rua Tiradentes",
        "zipcode": "44571-904"
    },
    {
        "city": "Santo Antônio de Jesus",
        "state": "BA",
        "district": "Centro",
        "street": "Praça Padre Mateus",
        "zipcode": "44571-901"
    },
    {
        "city": "Santo Antônio de Jesus",
        "state": "BA",
        "district": "Centro",
        "street": "Rua Landulfo Alves",
        "zipcode": "44571-905"
    },
    {
        "city": "Santo Antônio de Jesus",
        "state": "BA",
        "district": "Centro",
        "street": "Rua Rui Barbosa",
        "zipcode": "44572-903"
    },
    {
        "city": "Santo Antônio de Jesus",
        "state": "BA",
        "district": "Centro",
        "street": "Rua Armando Tavares",
        "zipcode": "44573-902"
    },
    {
        "city": "Santo Antônio de Jesus",
        "state": "BA",
        "district": "Urbis II",
        "street": "Rua A",
        "zipcode": "44574-180"
    },
    {
        "city": "Santo Antônio de Jesus",
        "state": "BA",
        "district": "Sobradinho",
        "street": "Rua Acre",
        "zipcode": "44570-480"
    },
    {
        "city": "Santo Antônio de Jesus",
        "state": "BA",
        "district": "Andaia",
        "street": "Rua da Alegria",
        "zipcode": "44572-600"
    },
    {
        "city": "Santo Antônio de Jesus",
        "state": "BA",
        "district": "São Benedito",
        "street": "Rua Doutor José Antônio de Araújo",
        "zipcode": "44573-170"
    },
    {
        "city": "Santo Antônio de Jesus",
        "state": "BA",
        "district": "São Benedito",
        "street": "Travessa Antônio José de Araújo",
        "zipcode": "44573-220"
    },
    {
        "city": "Santo Antônio de Jesus",
        "state": "BA",
        "district": "São Benedito",
        "street": "Rua Antônio Mendes",
        "zipcode": "44573-300"
    },
    {
        "city": "Santo Antônio de Jesus",
        "state": "BA",
        "district": "Ernesto Melo",
        "street": "Rua B",
        "zipcode": "44572-130"
    },
    {
        "city": "Santo Antônio de Jesus",
        "state": "BA",
        "district": "Santa Rita",
        "street": "Rua Bahia",
        "zipcode": "44570-520"
    },
    {
        "city": "Santo Antônio de Jesus",
        "state": "BA",
        "district": "Centro",
        "street": "Rua Boa Vista",
        "zipcode": "44571-007"
    },
    {
        "city": "Santo Antônio de Jesus",
        "state": "BA",
        "district": "Sobradinho",
        "street": "Rua Brasília",
        "zipcode": "44570-330"
    },
    {
        "city": "Santo Antônio de Jesus",
        "state": "BA",
        "district": "São Paulo",
        "street": "Rua C",
        "zipcode": "44573-570"
    },
    {
        "city": "Santo Antônio de Jesus",
        "state": "BA",
        "district": "Nossa Senhora das Graças",
        "street": "Travessa do Calabar",
        "zipcode": "44574-320"
    },
    {
        "city": "Santo Antônio de Jesus",
        "state": "BA",
        "district": "Andaia",
        "street": "Loteamento Canto dos Pássaros",
        "zipcode": "44572-590"
    },
    {
        "city": "Santo Antônio de Jesus",
        "state": "BA",
        "district": "Maria Preta",
        "street": "Rua Cidade de Amargosa",
        "zipcode": "44570-730"
    },
    {
        "city": "Santo Antônio de Jesus",
        "state": "BA",
        "district": "Centro",
        "street": "Rua Coronel Bandeira de Melo",
        "zipcode": "44571-003"
    },
    {
        "city": "Santo Antônio de Jesus",
        "state": "BA",
        "district": "Urbis II",
        "street": "Rua D",
        "zipcode": "44574-120"
    },
    {
        "city": "Santo Antônio de Jesus",
        "state": "BA",
        "district": "Centro",
        "street": "Rua Estevão Moreira Sampaio",
        "zipcode": "44572-075"
    },
    {
        "city": "Santo Antônio de Jesus",
        "state": "BA",
        "district": "Sobradinho",
        "street": "Rua Sinval Martins de Souza",
        "zipcode": "44570-440"
    },
    {
        "city": "Santo Antônio de Jesus",
        "state": "BA",
        "district": "São Benedito",
        "street": "Rua Gravatá",
        "zipcode": "44573-460"
    },
    {
        "city": "Santo Antônio de Jesus",
        "state": "BA",
        "district": "Centro",
        "street": "Rua Idelfonso Guedes",
        "zipcode": "44572-100"
    },
    {
        "city": "Santo Antônio de Jesus",
        "state": "BA",
        "district": "Centro",
        "street": "Travessa Independência",
        "zipcode": "44571-015"
    },
    {
        "city": "Santo Antônio de Jesus",
        "state": "BA",
        "district": "São Benedito",
        "street": "Rua Juerana",
        "zipcode": "44573-520"
    },
    {
        "city": "Santo Antônio de Jesus",
        "state": "BA",
        "district": "Centro",
        "street": "Travessa Justiniano Rocha Galvão",
        "zipcode": "44572-010"
    },
    {
        "city": "Santo Antônio de Jesus",
        "state": "BA",
        "district": "Centro",
        "street": "Rua Lomanto Júnior",
        "zipcode": "44571-026"
    },
    {
        "city": "Santo Antônio de Jesus",
        "state": "BA",
        "district": "São Benedito",
        "street": "Travessa Esperanto",
        "zipcode": "44573-410"
    },
    {
        "city": "Santo Antônio de Jesus",
        "state": "BA",
        "district": "Andaia",
        "street": "Loteamento Canto das Árvores",
        "zipcode": "44572-490"
    },
    {
        "city": "Santo Antônio de Jesus",
        "state": "BA",
        "district": "Centro",
        "street": "Rua Francisco Manuel da Silva",
        "zipcode": "44571-022"
    },
    {
        "city": "Santo Antônio de Jesus",
        "state": "BA",
        "district": "Centro",
        "street": "Rua Gorgônio José de Araújo",
        "zipcode": "44571-903"
    },
    {
        "city": "Santo Antônio de Jesus",
        "state": "BA",
        "district": "Maria Preta",
        "street": "Rua Cidade de Valença",
        "zipcode": "44570-650"
    },
    {
        "city": "Santo Antônio de Jesus",
        "state": "BA",
        "district": "Centro",
        "street": "Praça Madre Maria do Rosário",
        "zipcode": "44571-032"
    },
    {
        "city": "Santo Antônio de Jesus",
        "state": "BA",
        "district": "Centro",
        "street": "Travessa Maria Amâncio",
        "zipcode": "44571-140"
    },
    {
        "city": "Santo Antônio de Jesus",
        "state": "BA",
        "district": "Urbis II",
        "street": "Alameda Quatro",
        "zipcode": "44574-250"
    },
    {
        "city": "Santo Antônio de Jesus",
        "state": "BA",
        "district": "Centro",
        "street": "Loteamento Santo Antônio",
        "zipcode": "44571-360"
    },
    {
        "city": "Santo Antônio de Jesus",
        "state": "BA",
        "district": "São Benedito",
        "street": "Largo São Benedito",
        "zipcode": "44573-150"
    },
    {
        "city": "Santo Antônio de Jesus",
        "state": "BA",
        "district": "Andaia",
        "street": "Largo São José",
        "zipcode": "44572-540"
    },
    {
        "city": "Santo Antônio de Jesus",
        "state": "BA",
        "district": "Centro",
        "street": "Travessa Sóter Barros",
        "zipcode": "44571-090"
    },
    {
        "city": "Santo Antônio de Jesus",
        "state": "BA",
        "district": "Andaia",
        "street": "Rua Teodoro Dias Barreto",
        "zipcode": "44572-500"
    },
    {
        "city": "Santo Antônio de Jesus",
        "state": "BA",
        "district": "Amparo",
        "street": "Travessa Vereador João Silva",
        "zipcode": "44572-660"
    },
    {
        "city": "Santo Antônio de Jesus",
        "state": "BA",
        "district": "Centro",
        "street": "Rua Viriato Lobo",
        "zipcode": "44571-020"
    },
    {
        "city": "Santo Antônio de Jesus",
        "state": "BA",
        "district": "Centro",
        "street": "Rua Luís Argolo",
        "zipcode": "44572-030"
    },
    {
        "city": "Santo Antônio de Jesus",
        "state": "BA",
        "district": "São Paulo",
        "street": "Rua B",
        "zipcode": "44573-610"
    },
    {
        "city": "Santo Antônio de Jesus",
        "state": "BA",
        "district": "Santa Rita",
        "street": "Rua Vitória",
        "zipcode": "44570-545"
    },
    {
        "city": "Santo Antônio de Jesus",
        "state": "BA",
        "district": "Centro",
        "street": "Rua A (Lot Quinta do Inglês)",
        "zipcode": "44571-069"
    },
    {
        "city": "Santo Antônio de Jesus",
        "state": "BA",
        "district": "Centro",
        "street": "Praça Doutor Renato Machado",
        "zipcode": "44573-901"
    },
    {
        "city": "Santo Antônio de Jesus",
        "state": "BA",
        "district": "São Paulo",
        "street": "Rua A",
        "zipcode": "44573-560"
    },
    {
        "city": "Santo Antônio de Jesus",
        "state": "BA",
        "district": "Santa Rita",
        "street": "Rua Ceará",
        "zipcode": "44570-540"
    },
    {
        "city": "Santo Antônio de Jesus",
        "state": "BA",
        "district": "Sobradinho",
        "street": "Rua Chile",
        "zipcode": "44570-340"
    },
    {
        "city": "Santo Antônio de Jesus",
        "state": "BA",
        "district": "Maria Preta",
        "street": "Rua Cidade de Cruz das Almas",
        "zipcode": "44570-710"
    },
    {
        "city": "Santo Antônio de Jesus",
        "state": "BA",
        "district": "Maria Preta",
        "street": "Rua Cidade de Dom Macedo Costa",
        "zipcode": "44570-675"
    },
    {
        "city": "Santo Antônio de Jesus",
        "state": "BA",
        "district": "Centro",
        "street": "Travessa Etori Rocha",
        "zipcode": "44572-085"
    },
    {
        "city": "Santo Antônio de Jesus",
        "state": "BA",
        "district": "Sobradinho",
        "street": "Rua Fortaleza",
        "zipcode": "44570-410"
    },
    {
        "city": "Santo Antônio de Jesus",
        "state": "BA",
        "district": "Centro",
        "street": "Rua Forte de São Marcelo",
        "zipcode": "44571-145"
    },
    {
        "city": "Santo Antônio de Jesus",
        "state": "BA",
        "district": "São Benedito",
        "street": "Rua dos Humildes",
        "zipcode": "44573-510"
    },
    {
        "city": "Santo Antônio de Jesus",
        "state": "BA",
        "district": "Centro",
        "street": "Rua Isaías Alves",
        "zipcode": "44571-021"
    },
    {
        "city": "Santo Antônio de Jesus",
        "state": "BA",
        "district": "Centro",
        "street": "Rua José Petitinga",
        "zipcode": "44572-035"
    },
    {
        "city": "Santo Antônio de Jesus",
        "state": "BA",
        "district": "Santa Terezinha",
        "street": "Rua José Trindade Lobo",
        "zipcode": "44573-680"
    },
    {
        "city": "Santo Antônio de Jesus",
        "state": "BA",
        "district": "Ernesto Melo",
        "street": "Rua Lúcio José Oliveira",
        "zipcode": "44572-160"
    },
    {
        "city": "Santo Antônio de Jesus",
        "state": "BA",
        "district": "Centro",
        "street": "Avenida Luís Viana",
        "zipcode": "44571-019"
    },
    {
        "city": "Santo Antônio de Jesus",
        "state": "BA",
        "district": "Centro",
        "street": "Rua dos Maçons",
        "zipcode": "44572-062"
    },
    {
        "city": "Santo Antônio de Jesus",
        "state": "BA",
        "district": "Centro",
        "street": "Rua Marita Amâncio",
        "zipcode": "44571-040"
    },
    {
        "city": "Santo Antônio de Jesus",
        "state": "BA",
        "district": "Sobradinho",
        "street": "Rua Mato Grosso",
        "zipcode": "44570-370"
    },
    {
        "city": "Santo Antônio de Jesus",
        "state": "BA",
        "district": "Cajueiro",
        "street": "Rua do Milagroso",
        "zipcode": "44574-540"
    },
    {
        "city": "Santo Antônio de Jesus",
        "state": "BA",
        "district": "Sobradinho",
        "street": "Travessa Minas Gerais",
        "zipcode": "44570-470"
    },
    {
        "city": "Santo Antônio de Jesus",
        "state": "BA",
        "district": "Centro",
        "street": "Rua Monsenhor Antônio Oliveira",
        "zipcode": "44571-060"
    },
    {
        "city": "Santo Antônio de Jesus",
        "state": "BA",
        "district": "Cajueiro",
        "street": "Travessa Nova do Cajueiro",
        "zipcode": "44574-530"
    },
    {
        "city": "Santo Antônio de Jesus",
        "state": "BA",
        "district": "Centro",
        "street": "Rua Rosalvo Fonseca",
        "zipcode": "44571-037"
    },
    {
        "city": "Santo Antônio de Jesus",
        "state": "BA",
        "district": "Nossa Senhora das Graças",
        "street": "Avenida São João",
        "zipcode": "44574-350"
    },
    {
        "city": "Santo Antônio de Jesus",
        "state": "BA",
        "district": "Andaia",
        "street": "Rua São José",
        "zipcode": "44572-440"
    },
    {
        "city": "Santo Antônio de Jesus",
        "state": "BA",
        "district": "Centro",
        "street": "Rua São Lázaro",
        "zipcode": "44571-030"
    },
    {
        "city": "Santo Antônio de Jesus",
        "state": "BA",
        "district": "Centro",
        "street": "Praça Silvestre Evangelista",
        "zipcode": "44571-004"
    },
    {
        "city": "Santo Antônio de Jesus",
        "state": "BA",
        "district": "Centro",
        "street": "Rua Virgílio Pereira da Silva",
        "zipcode": "44571-100"
    },
    {
        "city": "Santo Antônio de Jesus",
        "state": "BA",
        "district": "Andaia",
        "street": "Travessa Teodoro Dias Barreto",
        "zipcode": "44572-430"
    },
    {
        "city": "Santo Antônio de Jesus",
        "state": "BA",
        "district": "Centro",
        "street": "Rua Tiradentes",
        "zipcode": "44571-115"
    },
    {
        "city": "Santo Antônio de Jesus",
        "state": "BA",
        "district": "Centro",
        "street": "Rua Gorgônio José de Araújo",
        "zipcode": "44571-902"
    },
    {
        "city": "Santo Antônio de Jesus",
        "state": "BA",
        "district": "Centro",
        "street": "Rua José Almeida Lobo",
        "zipcode": "44571-009"
    },
    {
        "city": "Santo Antônio de Jesus",
        "state": "BA",
        "district": "Nossa Senhora das Graças",
        "street": "Rua Areial do Mutum",
        "zipcode": "44574-290"
    },
    {
        "city": "Santo Antônio de Jesus",
        "state": "BA",
        "district": "São Benedito",
        "street": "Rua da Corrida",
        "zipcode": "44573-240"
    },
    {
        "city": "Santo Antônio de Jesus",
        "state": "BA",
        "district": "Cajueiro",
        "street": "Rua Manoel Claro",
        "zipcode": "44574-500"
    },
    {
        "city": "Santo Antônio de Jesus",
        "state": "BA",
        "district": "Centro",
        "street": "Loteamento Por do Sol",
        "zipcode": "44572-105"
    },
    {
        "city": "Santo Antônio de Jesus",
        "state": "BA",
        "district": "Centro",
        "street": "Rua Vereador João Delfino dos Santos",
        "zipcode": "44571-375"
    },
    {
        "city": "Santo Antônio de Jesus",
        "state": "BA",
        "district": "Centro",
        "street": "Loteamento Vila Maria",
        "zipcode": "44572-115"
    },
    {
        "city": "Santo Antônio de Jesus",
        "state": "BA",
        "district": "Santa Rita",
        "street": "Rua Alagoas",
        "zipcode": "44570-510"
    },
    {
        "city": "Santo Antônio de Jesus",
        "state": "BA",
        "district": "Andaia",
        "street": "Loteamento Doce Lar",
        "zipcode": "44572-510"
    },
    {
        "city": "Santo Antônio de Jesus",
        "state": "BA",
        "district": "Santa Terezinha",
        "street": "Conjunto Urbis III",
        "zipcode": "44573-690"
    },
    {
        "city": "Santo Antônio de Jesus",
        "state": "BA",
        "district": "Centro",
        "street": "Rua Manoel José da Paixão Araújo",
        "zipcode": "44573-900"
    },
    {
        "city": "Santo Antônio de Jesus",
        "state": "BA",
        "district": "São Paulo",
        "street": "Rua E",
        "zipcode": "44573-580"
    },
    {
        "city": "Santo Antônio de Jesus",
        "state": "BA",
        "district": "Centro",
        "street": "Praça Félix Gaspar",
        "zipcode": "44572-055"
    },
    {
        "city": "Santo Antônio de Jesus",
        "state": "BA",
        "district": "Centro",
        "street": "Rua Treze de Maio",
        "zipcode": "44572-120"
    },
    {
        "city": "Santo Antônio de Jesus",
        "state": "BA",
        "district": "Centro",
        "street": "Travessa Santo Antônio",
        "zipcode": "44572-005"
    },
    {
        "city": "Santo Antônio de Jesus",
        "state": "BA",
        "district": "Maria Preta",
        "street": "Rua Cidade de Conceição do Coité",
        "zipcode": "44570-720"
    },
    {
        "city": "Santo Antônio de Jesus",
        "state": "BA",
        "district": "Centro",
        "street": "Rua Fonte da Bela Vista",
        "zipcode": "44571-035"
    },
    {
        "city": "Santo Antônio de Jesus",
        "state": "BA",
        "district": "Cajueiro",
        "street": "Rua Viriato Lobo",
        "zipcode": "44574-475"
    },
    {
        "city": "Santo Antônio de Jesus",
        "state": "BA",
        "district": "Área Rural de Santo Antônio de Jesus",
        "street": "Área Rural",
        "zipcode": "44574-899"
    },
    {
        "city": "Santo Antônio de Jesus",
        "state": "BA",
        "district": "Centro",
        "street": "Travessa Ponto Chic",
        "zipcode": "44571-010"
    },
    {
        "city": "Santo Antônio de Jesus",
        "state": "BA",
        "district": "Santa Terezinha",
        "street": "Condomínio Grande Vale",
        "zipcode": "44573-670"
    },
    {
        "city": "Santo Antônio de Jesus",
        "state": "BA",
        "district": "Nossa Senhora das Graças",
        "street": "Rua do Calabar",
        "zipcode": "44574-310"
    },
    {
        "city": "Santo Antônio de Jesus",
        "state": "BA",
        "district": "São Benedito",
        "street": "Rua Antonio Reis de Almeida",
        "zipcode": "44573-465"
    },
    {
        "city": "Santo Antônio de Jesus",
        "state": "BA",
        "district": "Nossa Senhora das Graças",
        "street": "Rua Heitor Liro Melo",
        "zipcode": "44574-275"
    },
    {
        "city": "Santo Antônio de Jesus",
        "state": "BA",
        "district": "Centro",
        "street": "Rua Maria Quitéria",
        "zipcode": "44571-033"
    },
    {
        "city": "Santo Antônio de Jesus",
        "state": "BA",
        "district": "Nossa Senhora das Graças",
        "street": "Avenida Nossa Senhora das Graças",
        "zipcode": "44574-280"
    },
    {
        "city": "Santo Antônio de Jesus",
        "state": "BA",
        "district": "Centro",
        "street": "Loteamento Tamarindeiro",
        "zipcode": "44571-011"
    },
    {
        "city": "Santo Antônio de Jesus",
        "state": "BA",
        "district": "Sobradinho",
        "street": "Rua Vereador João Delfino dos Santos",
        "zipcode": "44570-350"
    },
    {
        "city": "Santo Antônio de Jesus",
        "state": "BA",
        "district": "São Benedito",
        "street": "Loteamento Santa Cecília",
        "zipcode": "44573-515"
    },
    {
        "city": "Santo Antônio de Jesus",
        "state": "BA",
        "district": "Centro",
        "street": "Rua Monsenhor Francisco Manoel da Silva",
        "zipcode": "44571-970"
    },
    {
        "city": "Santo Antônio de Jesus",
        "state": "BA",
        "district": "Jardim das Árvores",
        "street": "Rua Jequitibá",
        "zipcode": "44573-640"
    }
]