[
    {
        "city": "Serra do Ramalho",
        "state": "BA",
        "district": "Agrovila 1",
        "street": "Rua F 247",
        "zipcode": "47630-971"
    },
    {
        "city": "Serra do Ramalho",
        "state": "BA",
        "district": "Agrovila 2",
        "street": "Rua Principal s/n",
        "zipcode": "47630-972"
    },
    {
        "city": "Serra do Ramalho",
        "state": "BA",
        "district": "Agrovila 3",
        "street": "Rua N 184",
        "zipcode": "47630-973"
    },
    {
        "city": "Serra do Ramalho",
        "state": "BA",
        "district": "Agrovila 4",
        "street": "Rua T 189",
        "zipcode": "47630-974"
    },
    {
        "city": "Serra do Ramalho",
        "state": "BA",
        "district": "Agrovila 5",
        "street": "Rua E 187",
        "zipcode": "47630-975"
    },
    {
        "city": "Serra do Ramalho",
        "state": "BA",
        "district": "Agrovila 6",
        "street": "Rua T 141",
        "zipcode": "47630-976"
    },
    {
        "city": "Serra do Ramalho",
        "state": "BA",
        "district": "Agrovila 7",
        "street": "Rua T s/n",
        "zipcode": "47630-977"
    },
    {
        "city": "Serra do Ramalho",
        "state": "BA",
        "district": "Agrovila 8",
        "street": "Rua T 131",
        "zipcode": "47630-978"
    },
    {
        "city": "Serra do Ramalho",
        "state": "BA",
        "district": "Agrovila 10",
        "street": "Rua Principal s/n",
        "zipcode": "47630-979"
    },
    {
        "city": "Serra do Ramalho",
        "state": "BA",
        "district": "Agrovila 11",
        "street": "Rua H 89",
        "zipcode": "47630-980"
    },
    {
        "city": "Serra do Ramalho",
        "state": "BA",
        "district": "Agrovila 12",
        "street": "Rua Principal s/n",
        "zipcode": "47630-981"
    },
    {
        "city": "Serra do Ramalho",
        "state": "BA",
        "district": "Agrovila 13",
        "street": "Rua B 37",
        "zipcode": "47630-982"
    },
    {
        "city": "Serra do Ramalho",
        "state": "BA",
        "district": "Agrovila 14",
        "street": "Rua E 174",
        "zipcode": "47630-983"
    },
    {
        "city": "Serra do Ramalho",
        "state": "BA",
        "district": "",
        "street": "",
        "zipcode": "47630-000"
    },
    {
        "city": "Serra do Ramalho",
        "state": "BA",
        "district": null,
        "street": "Rua F",
        "zipcode": "47630-990"
    },
    {
        "city": "Serra do Ramalho",
        "state": "BA",
        "district": "Centro",
        "street": "Avenida Norte s/n",
        "zipcode": "47630-970"
    }
]