[
    {
        "city": "Cuiaba",
        "state": "MT",
        "district": "Lixeira",
        "street": "Praça Jaime De Figueiredo",
        "zipcode": "78008-390"
    },
    {
        "city": "Cuiaba",
        "state": "MT",
        "district": "Jardim Mariana",
        "street": "Rua Um (Lot Sao Jose)",
        "zipcode": "78040-859"
    },
    {
        "city": "Cuiaba",
        "state": "MT",
        "district": "Nossa Senhora Aparecida",
        "street": "Rua Seis (Jd Paraiso)",
        "zipcode": "78090-475"
    },
    {
        "city": "Cuiaba",
        "state": "MT",
        "district": "Senhor Dos Passos",
        "street": "Rua Luiza Cuibano",
        "zipcode": "78048-680"
    },
    {
        "city": "Cuiaba",
        "state": "MT",
        "district": "Sao Goncalo",
        "street": "Rua Vinte E Sete",
        "zipcode": "78090-738"
    },
    {
        "city": "Cuiaba",
        "state": "MT",
        "district": "Sao Goncalo",
        "street": "Rua Vinte E Dois",
        "zipcode": "78090-634"
    },
    {
        "city": "Cuiaba",
        "state": "MT",
        "district": "Senhor Dos Passos",
        "street": "Rua F (Miguel Sutil)",
        "zipcode": "78048-750"
    },
    {
        "city": "Cuiaba",
        "state": "MT",
        "district": "Cidade Alta",
        "street": "Rua Oito De Abril",
        "zipcode": "78030-750"
    },
    {
        "city": "Cuiaba",
        "state": "MT",
        "district": "Coophema",
        "street": "Rua Camboata (Jd Gramado)",
        "zipcode": "78085-812"
    },
    {
        "city": "Cuiaba",
        "state": "MT",
        "district": "Boa Esperanca",
        "street": "Rua Intendente Cezar M. Serva",
        "zipcode": "78068-415"
    },
    {
        "city": "Cuiaba",
        "state": "MT",
        "district": "Sao Goncalo",
        "street": "Rua Dezesseis",
        "zipcode": "78090-631"
    },
    {
        "city": "Cuiaba",
        "state": "MT",
        "district": "Boa Esperanca",
        "street": "Rua Intendente Leonidas De Matos",
        "zipcode": "78068-760"
    },
    {
        "city": "Cuiaba",
        "state": "MT",
        "district": "Tres Barras",
        "street": "Rua Tres (Jd Umuarama)",
        "zipcode": "78058-566"
    },
    {
        "city": "Cuiaba",
        "state": "MT",
        "district": "Santa Rosa",
        "street": "Rua Nossa Senhora Da Guia (Santa Marta)",
        "zipcode": "78043-510"
    },
    {
        "city": "Cuiaba",
        "state": "MT",
        "district": "Tres Barras",
        "street": "Rua Um (Jd Umuarama)",
        "zipcode": "78058-580"
    },
    {
        "city": "Cuiaba",
        "state": "MT",
        "district": "Lixeira",
        "street": "Rua Dr Manoel De Abreu",
        "zipcode": "78008-220"
    },
    {
        "city": "Cuiaba",
        "state": "MT",
        "district": "Centro",
        "street": "Ladeira Pedro Goes",
        "zipcode": "78015-440"
    },
    {
        "city": "Cuiaba",
        "state": "MT",
        "district": "Coophema",
        "street": "Rua Copaiba (Jd Gramado)",
        "zipcode": "78085-798"
    },
    {
        "city": "Cuiaba",
        "state": "MT",
        "district": "Planalto",
        "street": "Rua Vilhena (Novo Horizonte)",
        "zipcode": "78058-742"
    },
    {
        "city": "Cuiaba",
        "state": "MT",
        "district": "Ribeirao Do Lipa",
        "street": "Rua Aquidauana",
        "zipcode": "78040-390"
    },
    {
        "city": "Cuiaba",
        "state": "MT",
        "district": "Dom Aquino",
        "street": "Rua Sao Goncalo (Sao Mateus)",
        "zipcode": "78015-460"
    },
    {
        "city": "Cuiaba",
        "state": "MT",
        "district": "Nucleo Habit Cpa",
        "street": "Rua Vinte E Sete (Tancredo Neves)",
        "zipcode": "78053-848"
    },
    {
        "city": "Cuiaba",
        "state": "MT",
        "district": "Nossa Senhora Aparecida",
        "street": "Rua Oito (Jd Hawai)",
        "zipcode": "78090-744"
    },
    {
        "city": "Cuiaba",
        "state": "MT",
        "district": "Dom Aquino",
        "street": "Rua Araripe Talon De Camargo",
        "zipcode": "78015-720"
    },
    {
        "city": "Cuiaba",
        "state": "MT",
        "district": "Planalto",
        "street": "Rua Monte Claro (Novo Horizonte)",
        "zipcode": "78058-740"
    },
    {
        "city": "Cuiaba",
        "state": "MT",
        "district": "Nossa Senhora Aparecida",
        "street": "Rua G",
        "zipcode": "78090-520"
    },
    {
        "city": "Cuiaba",
        "state": "MT",
        "district": "Planalto",
        "street": "Rua Tumucumaque",
        "zipcode": "78058-690"
    },
    {
        "city": "Cuiaba",
        "state": "MT",
        "district": "Horto Florestal",
        "street": "Rua Ivan Rodrigues Arrais (Balneario Sao Joao)",
        "zipcode": "78085-010"
    },
    {
        "city": "Cuiaba",
        "state": "MT",
        "district": "Porto",
        "street": "Rua Arenapolis (Cohab Nova)",
        "zipcode": "78025-440"
    },
    {
        "city": "Cuiaba",
        "state": "MT",
        "district": "Nucleo Habit Cpa",
        "street": "Rua Vinte E Um (Tancredo Neves)",
        "zipcode": "78053-856"
    },
    {
        "city": "Cuiaba",
        "state": "MT",
        "district": "Horto Florestal",
        "street": "Rua Vicente Fortunato (Lucinopolis)",
        "zipcode": "78085-040"
    },
    {
        "city": "Cuiaba",
        "state": "MT",
        "district": "Tres Barras",
        "street": "Rua Sete (Jd Umuarama)",
        "zipcode": "78058-562"
    },
    {
        "city": "Cuiaba",
        "state": "MT",
        "district": "Pocao",
        "street": "Avenida Desembargador Antonio Quirino De Araujo",
        "zipcode": "78015-790"
    },
    {
        "city": "Cuiaba",
        "state": "MT",
        "district": "Goiabeira",
        "street": "Avenida Marechal Deodoro",
        "zipcode": "78043-725"
    },
    {
        "city": "Cuiaba",
        "state": "MT",
        "district": "Tres Barras",
        "street": "Rua Um",
        "zipcode": "78058-578"
    },
    {
        "city": "Cuiaba",
        "state": "MT",
        "district": "Coophema",
        "street": "Rua Jurua (Jd Aquario)",
        "zipcode": "78085-160"
    },
    {
        "city": "Cuiaba",
        "state": "MT",
        "district": "Distrito Industrial",
        "street": "Rua Dezoito (Jd Industriario Ii)",
        "zipcode": "78098-618"
    },
    {
        "city": "Cuiaba",
        "state": "MT",
        "district": "Nucleo Habit Cpa",
        "street": "Rua Vinte E Seis (Tancredo Neves)",
        "zipcode": "78053-845"
    },
    {
        "city": "Cuiaba",
        "state": "MT",
        "district": "Nossa Senhora Aparecida",
        "street": "Rua Um (Jd Buriti)",
        "zipcode": "78090-485"
    },
    {
        "city": "Cuiaba",
        "state": "MT",
        "district": "Planalto",
        "street": "Rua B (Itamarati)",
        "zipcode": "78058-728"
    },
    {
        "city": "Cuiaba",
        "state": "MT",
        "district": "Dom Aquino",
        "street": "Rua Santa Rita (Sao Mateus)",
        "zipcode": "78015-470"
    },
    {
        "city": "Cuiaba",
        "state": "MT",
        "district": "Santo Antonio Do Pedregal",
        "street": "Travessa Cinco (Jd Leblon)",
        "zipcode": "78060-170"
    },
    {
        "city": "Cuiaba",
        "state": "MT",
        "district": "Goiabeira",
        "street": "Rua Otavio Da Cunha",
        "zipcode": "78043-285"
    },
    {
        "city": "Cuiaba",
        "state": "MT",
        "district": "Bosque Da Saude",
        "street": "Rua Da (Leblon) Saudade",
        "zipcode": "78050-805"
    },
    {
        "city": "Cuiaba",
        "state": "MT",
        "district": "Planalto",
        "street": "Rua Niteroi (Novo Horizonte)",
        "zipcode": "78058-738"
    },
    {
        "city": "Cuiaba",
        "state": "MT",
        "district": "Cidade Alta",
        "street": "Rua Dr Mauricio Madureira",
        "zipcode": "78030-520"
    },
    {
        "city": "Cuiaba",
        "state": "MT",
        "district": "Coophema",
        "street": "Rua Nova Iguacu",
        "zipcode": "78085-090"
    },
    {
        "city": "Cuiaba",
        "state": "MT",
        "district": "Coophema",
        "street": "Rua Itauba (Jd Gramado)",
        "zipcode": "78085-824"
    },
    {
        "city": "Cuiaba",
        "state": "MT",
        "district": "Nucleo Habit Cpa",
        "street": "Rua Vinte E Tres (Tancredo Neves)",
        "zipcode": "78053-850"
    },
    {
        "city": "Cuiaba",
        "state": "MT",
        "district": "Planalto",
        "street": "Rua Amazonas (Novo Horizonte)",
        "zipcode": "78058-746"
    },
    {
        "city": "Cuiaba",
        "state": "MT",
        "district": "Nossa Senhora Aparecida",
        "street": "Rua Quatro (Jd Hawai)",
        "zipcode": "78090-745"
    },
    {
        "city": "Cuiaba",
        "state": "MT",
        "district": "Morada Do Ouro",
        "street": "Vila Um (Setor Noroeste)",
        "zipcode": "78053-240"
    },
    {
        "city": "Cuiaba",
        "state": "MT",
        "district": "Santa Rosa",
        "street": "Rua Sao Francisco De Assis (Santa Marta)",
        "zipcode": "78043-560"
    },
    {
        "city": "Cuiaba",
        "state": "MT",
        "district": "Distrito Industrial",
        "street": "Rua Dezessete (Jd Industriario Ii)",
        "zipcode": "78098-617"
    },
    {
        "city": "Cuiaba",
        "state": "MT",
        "district": "Porto",
        "street": "Travessa Navirai (Cohab Nova)",
        "zipcode": "78025-310"
    },
    {
        "city": "Cuiaba",
        "state": "MT",
        "district": "Boa Esperanca",
        "street": "Rua Barao De Melgaco",
        "zipcode": "78068-650"
    },
    {
        "city": "Cuiaba",
        "state": "MT",
        "district": "Jardim California",
        "street": "Rua B",
        "zipcode": "78070-535"
    },
    {
        "city": "Cuiaba",
        "state": "MT",
        "district": "Planalto",
        "street": "Rua Tancredo Neves (Novo Mato Grosso)",
        "zipcode": "78058-764"
    },
    {
        "city": "Cuiaba",
        "state": "MT",
        "district": "Duque De Caxias",
        "street": "Rua Desembargador Jose Barros Do Vale",
        "zipcode": "78043-065"
    },
    {
        "city": "Cuiaba",
        "state": "MT",
        "district": "Santo Antonio Do Pedregal",
        "street": "Rua Sao Miguel (Jd Leblon)",
        "zipcode": "78060-095"
    },
    {
        "city": "Cuiaba",
        "state": "MT",
        "district": "Resindencial Coxipo",
        "street": "Travessa B (Res Itapaje)",
        "zipcode": "78090-770"
    },
    {
        "city": "Cuiaba",
        "state": "MT",
        "district": "Coophema",
        "street": "Rua Angico (Jd Gramado)",
        "zipcode": "78085-792"
    },
    {
        "city": "Cuiaba",
        "state": "MT",
        "district": "Nucleo Habit Cpa",
        "street": "Rua Um (Tancredo Neves)",
        "zipcode": "78053-810"
    },
    {
        "city": "Cuiaba",
        "state": "MT",
        "district": "Resindencial Coxipo",
        "street": "Rua Doze (Jd Santana)",
        "zipcode": "78090-260"
    },
    {
        "city": "Cuiaba",
        "state": "MT",
        "district": "Jardim California",
        "street": "Rua Paranagua (Praeiro)",
        "zipcode": "78070-660"
    },
    {
        "city": "Cuiaba",
        "state": "MT",
        "district": "Jardim Mariana",
        "street": "Rua Tres (Lot Sao Jose)",
        "zipcode": "78040-857"
    },
    {
        "city": "Cuiaba",
        "state": "MT",
        "district": "Morada Do Ouro",
        "street": "Avenida Pedro Dabadia Maciel (Getulio Vargas)",
        "zipcode": "78053-645"
    },
    {
        "city": "Cuiaba",
        "state": "MT",
        "district": "Lixeira",
        "street": "Rua Deputado Eugenio De Figueredo",
        "zipcode": "78008-510"
    },
    {
        "city": "Cuiaba",
        "state": "MT",
        "district": "Cidade Alta",
        "street": "Rua Nove (Capao Do Gama)",
        "zipcode": "78025-590"
    },
    {
        "city": "Cuiaba",
        "state": "MT",
        "district": "Resindencial Coxipo",
        "street": "Rua A (Jd Santana)",
        "zipcode": "78090-240"
    },
    {
        "city": "Cuiaba",
        "state": "MT",
        "district": "Nucleo Habit Cpa",
        "street": "Rua Vinte E Quatro (Tancredo Neves)",
        "zipcode": "78053-840"
    },
    {
        "city": "Cuiaba",
        "state": "MT",
        "district": "Planalto",
        "street": "Travessa Da (Novo Mato Grosso) Bandeira",
        "zipcode": "78058-774"
    },
    {
        "city": "Cuiaba",
        "state": "MT",
        "district": "Goiabeira",
        "street": "Rua Itu",
        "zipcode": "78043-220"
    },
    {
        "city": "Cuiaba",
        "state": "MT",
        "district": "Vila Militar",
        "street": "Rua Zoca",
        "zipcode": "78040-820"
    },
    {
        "city": "Cuiaba",
        "state": "MT",
        "district": "Planalto",
        "street": "Travessa Vicente",
        "zipcode": "78058-684"
    },
    {
        "city": "Cuiaba",
        "state": "MT",
        "district": "Boa Esperanca",
        "street": "Rua Q",
        "zipcode": "78068-842"
    },
    {
        "city": "Cuiaba",
        "state": "MT",
        "district": "Nucleo Habit Cpa",
        "street": "Rua Jaciara",
        "zipcode": "78055-120"
    },
    {
        "city": "Cuiaba",
        "state": "MT",
        "district": "Lagoas",
        "street": "Rua Safira",
        "zipcode": "78008-300"
    },
    {
        "city": "Cuiaba",
        "state": "MT",
        "district": "Tres Barras",
        "street": "Rua Dois",
        "zipcode": "78058-532"
    },
    {
        "city": "Cuiaba",
        "state": "MT",
        "district": "Ribeirao Do Lipa",
        "street": "Rua Maracaju",
        "zipcode": "78040-510"
    },
    {
        "city": "Cuiaba",
        "state": "MT",
        "district": "Lixeira",
        "street": "Rua Sao Luiz",
        "zipcode": "78008-280"
    },
    {
        "city": "Cuiaba",
        "state": "MT",
        "district": "Centro",
        "street": "Rua Treze De Junho",
        "zipcode": "78005-450"
    },
    {
        "city": "Cuiaba",
        "state": "MT",
        "district": "Centro",
        "street": "Travessa Avelino De Siqueira",
        "zipcode": "78005-480"
    },
    {
        "city": "Cuiaba",
        "state": "MT",
        "district": "Centro",
        "street": "Rua Joaquim Murtinho",
        "zipcode": "78005-490"
    },
    {
        "city": "Cuiaba",
        "state": "MT",
        "district": "Centro",
        "street": "Rua Dos Bandeirantes",
        "zipcode": "78005-790"
    },
    {
        "city": "Cuiaba",
        "state": "MT",
        "district": "Centro",
        "street": "Rua Generoso Ponce",
        "zipcode": "78005-830"
    },
    {
        "city": "Cuiaba",
        "state": "MT",
        "district": "Lixeira",
        "street": "Rua Benedito De Melo",
        "zipcode": "78008-190"
    },
    {
        "city": "Cuiaba",
        "state": "MT",
        "district": "Lixeira",
        "street": "Rua Desembargador Albano De Oliveira",
        "zipcode": "78008-320"
    },
    {
        "city": "Cuiaba",
        "state": "MT",
        "district": "Lixeira",
        "street": "Rua Linhares",
        "zipcode": "78008-340"
    },
    {
        "city": "Cuiaba",
        "state": "MT",
        "district": "Bosque Da Saude",
        "street": "Rua Esmeralda",
        "zipcode": "78008-410"
    },
    {
        "city": "Cuiaba",
        "state": "MT",
        "district": "Centro",
        "street": "Rua Comandante Costa",
        "zipcode": "78005-800"
    },
    {
        "city": "Cuiaba",
        "state": "MT",
        "district": "Bandeirantes",
        "street": "Rua Manoel Garcia Velho",
        "zipcode": "78010-190"
    },
    {
        "city": "Cuiaba",
        "state": "MT",
        "district": "Bandeirantes",
        "street": "Rua Coronel Peixoto",
        "zipcode": "78010-220"
    },
    {
        "city": "Cuiaba",
        "state": "MT",
        "district": "Areao",
        "street": "Rua Da Tijuca",
        "zipcode": "78010-440"
    },
    {
        "city": "Cuiaba",
        "state": "MT",
        "district": "Areao",
        "street": "Rua Ipanema",
        "zipcode": "78010-450"
    },
    {
        "city": "Cuiaba",
        "state": "MT",
        "district": "Areao",
        "street": "Rua Da Penha",
        "zipcode": "78010-490"
    },
    {
        "city": "Cuiaba",
        "state": "MT",
        "district": "Areao",
        "street": "Rua Leblon",
        "zipcode": "78010-520"
    },
    {
        "city": "Cuiaba",
        "state": "MT",
        "district": "Areao",
        "street": "Rua Do Leme",
        "zipcode": "78010-530"
    },
    {
        "city": "Cuiaba",
        "state": "MT",
        "district": "Areao",
        "street": "Rua Do Flamengo",
        "zipcode": "78010-550"
    },
    {
        "city": "Cuiaba",
        "state": "MT",
        "district": "Areao",
        "street": "Rua Cristo Redentor",
        "zipcode": "78010-580"
    },
    {
        "city": "Cuiaba",
        "state": "MT",
        "district": "Areao",
        "street": "Rua R",
        "zipcode": "78010-780"
    },
    {
        "city": "Cuiaba",
        "state": "MT",
        "district": "Dom Aquino",
        "street": "Praça Nossa Senhora Auxiliadora",
        "zipcode": "78015-330"
    },
    {
        "city": "Cuiaba",
        "state": "MT",
        "district": "Centro",
        "street": "Praça Da Republica",
        "zipcode": "78005-440"
    },
    {
        "city": "Cuiaba",
        "state": "MT",
        "district": "Areao",
        "street": "Vila Jussara",
        "zipcode": "78010-810"
    },
    {
        "city": "Cuiaba",
        "state": "MT",
        "district": "Bandeirantes",
        "street": "Rua Manoel Dos Santos Coimbra",
        "zipcode": "78010-150"
    },
    {
        "city": "Cuiaba",
        "state": "MT",
        "district": "Bosque Da Saude",
        "street": "Rua Bosque Da Saude",
        "zipcode": "78008-380"
    },
    {
        "city": "Cuiaba",
        "state": "MT",
        "district": "Lixeira",
        "street": "Rua Antonio Batista Belem",
        "zipcode": "78008-230"
    },
    {
        "city": "Cuiaba",
        "state": "MT",
        "district": "Areao",
        "street": "Rua Corcovado",
        "zipcode": "78010-430"
    },
    {
        "city": "Cuiaba",
        "state": "MT",
        "district": "Lixeira",
        "street": "Rua Laguna",
        "zipcode": "78008-370"
    },
    {
        "city": "Cuiaba",
        "state": "MT",
        "district": "Lixeira",
        "street": "Travessa Dr Admildo De Matos",
        "zipcode": "78008-260"
    },
    {
        "city": "Cuiaba",
        "state": "MT",
        "district": "Centro",
        "street": "Praça Ipiranga",
        "zipcode": "78005-460"
    },
    {
        "city": "Cuiaba",
        "state": "MT",
        "district": "Lixeira",
        "street": "Travessa Diamantino",
        "zipcode": "78008-210"
    },
    {
        "city": "Cuiaba",
        "state": "MT",
        "district": "Pocao",
        "street": "Rua Sao Cristovao",
        "zipcode": "78010-600"
    },
    {
        "city": "Cuiaba",
        "state": "MT",
        "district": "Areao",
        "street": "Rua T",
        "zipcode": "78010-790"
    },
    {
        "city": "Cuiaba",
        "state": "MT",
        "district": "Areao",
        "street": "Rua Maracana",
        "zipcode": "78010-560"
    },
    {
        "city": "Cuiaba",
        "state": "MT",
        "district": "Lixeira",
        "street": "Travessa Sao Luiz",
        "zipcode": "78008-290"
    },
    {
        "city": "Cuiaba",
        "state": "MT",
        "district": "Lixeira",
        "street": "Rua Coronel Caraciolo De Melo",
        "zipcode": "78008-240"
    },
    {
        "city": "Cuiaba",
        "state": "MT",
        "district": "Lixeira",
        "street": "Travessa Das Laranjeiras",
        "zipcode": "78008-460"
    },
    {
        "city": "Cuiaba",
        "state": "MT",
        "district": "Areao",
        "street": "Rua O",
        "zipcode": "78010-750"
    },
    {
        "city": "Cuiaba",
        "state": "MT",
        "district": "Bosque Da Saude",
        "street": "Travessa H",
        "zipcode": "78008-420"
    },
    {
        "city": "Cuiaba",
        "state": "MT",
        "district": "Dom Aquino",
        "street": "Rua Dr Fernando Ferrari",
        "zipcode": "78015-350"
    },
    {
        "city": "Cuiaba",
        "state": "MT",
        "district": "Lixeira",
        "street": "Rua Leverger",
        "zipcode": "78008-350"
    },
    {
        "city": "Cuiaba",
        "state": "MT",
        "district": "Lixeira",
        "street": "Rua Dom Antonio Malan",
        "zipcode": "78010-070"
    },
    {
        "city": "Cuiaba",
        "state": "MT",
        "district": "Areao",
        "street": "Travessa O",
        "zipcode": "78010-760"
    },
    {
        "city": "Cuiaba",
        "state": "MT",
        "district": "Lixeira",
        "street": "Travessa Prof. Luiz Leduc",
        "zipcode": "78008-250"
    },
    {
        "city": "Cuiaba",
        "state": "MT",
        "district": "Bandeirantes",
        "street": "Praça Bispo Dom Jose",
        "zipcode": "78010-230"
    },
    {
        "city": "Cuiaba",
        "state": "MT",
        "district": "Areao",
        "street": "Avenida Nossa Senhora De Copacabana",
        "zipcode": "78010-480"
    },
    {
        "city": "Cuiaba",
        "state": "MT",
        "district": "Areao",
        "street": "Rua Sao Luiz",
        "zipcode": "78010-700"
    },
    {
        "city": "Cuiaba",
        "state": "MT",
        "district": "Dom Aquino",
        "street": "Travessa Benedito Sa Barreto",
        "zipcode": "78015-345"
    },
    {
        "city": "Cuiaba",
        "state": "MT",
        "district": "Lixeira",
        "street": "Rua Sao Francisco",
        "zipcode": "78008-070"
    },
    {
        "city": "Cuiaba",
        "state": "MT",
        "district": "Lixeira",
        "street": "Rua Sao Joao",
        "zipcode": "78008-330"
    },
    {
        "city": "Cuiaba",
        "state": "MT",
        "district": "Dom Aquino",
        "street": "Avenida Dom Bosco",
        "zipcode": "78015-360"
    },
    {
        "city": "Cuiaba",
        "state": "MT",
        "district": "Dom Aquino",
        "street": "Rua Pimenta Bueno",
        "zipcode": "78015-380"
    },
    {
        "city": "Cuiaba",
        "state": "MT",
        "district": "Porto",
        "street": "Avenida Senador Metelo",
        "zipcode": "78015-450"
    },
    {
        "city": "Cuiaba",
        "state": "MT",
        "district": "Bandeirantes",
        "street": "Rua Almeida Lara",
        "zipcode": "78010-140"
    },
    {
        "city": "Cuiaba",
        "state": "MT",
        "district": "Dom Aquino",
        "street": "Travessa Almeida Louzada",
        "zipcode": "78015-420"
    },
    {
        "city": "Cuiaba",
        "state": "MT",
        "district": "Dom Aquino",
        "street": "Avenida Dom Aquino",
        "zipcode": "78015-550"
    },
    {
        "city": "Cuiaba",
        "state": "MT",
        "district": "Pocao",
        "street": "Rua Vital Batista",
        "zipcode": "78015-730"
    },
    {
        "city": "Cuiaba",
        "state": "MT",
        "district": "Pocao",
        "street": "Rua Brasil",
        "zipcode": "78015-750"
    },
    {
        "city": "Cuiaba",
        "state": "MT",
        "district": "Centro",
        "street": "Rua Treze De Junho",
        "zipcode": "78020-001"
    },
    {
        "city": "Cuiaba",
        "state": "MT",
        "district": "Goiabeira",
        "street": "Avenida Ipiranga",
        "zipcode": "78020-030"
    },
    {
        "city": "Cuiaba",
        "state": "MT",
        "district": "Porto",
        "street": "Avenida Senador Metelo",
        "zipcode": "78025-730"
    },
    {
        "city": "Cuiaba",
        "state": "MT",
        "district": "Coophamil",
        "street": "Rua Progresso (Sao Benedito)",
        "zipcode": "78028-020"
    },
    {
        "city": "Cuiaba",
        "state": "MT",
        "district": "Novo Terceiro",
        "street": "Rua Taperapico",
        "zipcode": "78028-440"
    },
    {
        "city": "Cuiaba",
        "state": "MT",
        "district": "Novo Terceiro",
        "street": "Rua Toledo",
        "zipcode": "78028-450"
    },
    {
        "city": "Cuiaba",
        "state": "MT",
        "district": "Novo Terceiro",
        "street": "Rua Tabatinga",
        "zipcode": "78028-470"
    },
    {
        "city": "Cuiaba",
        "state": "MT",
        "district": "Novo Terceiro",
        "street": "Rua Tangara",
        "zipcode": "78028-480"
    },
    {
        "city": "Cuiaba",
        "state": "MT",
        "district": "Novo Terceiro",
        "street": "Rua Timbiras",
        "zipcode": "78028-500"
    },
    {
        "city": "Cuiaba",
        "state": "MT",
        "district": "Cidade Verde",
        "street": "Rua Joao Pessoa",
        "zipcode": "78028-735"
    },
    {
        "city": "Cuiaba",
        "state": "MT",
        "district": "Cidade Verde",
        "street": "Rua Santa Cecilia",
        "zipcode": "78028-790"
    },
    {
        "city": "Cuiaba",
        "state": "MT",
        "district": "Cidade Verde",
        "street": "Rua Santa Catarina",
        "zipcode": "78028-825"
    },
    {
        "city": "Cuiaba",
        "state": "MT",
        "district": "Cidade Verde",
        "street": "Rua Acre",
        "zipcode": "78028-845"
    },
    {
        "city": "Cuiaba",
        "state": "MT",
        "district": "Dom Aquino",
        "street": "Rua Sao Joao (Sao Mateus)",
        "zipcode": "78015-462"
    },
    {
        "city": "Cuiaba",
        "state": "MT",
        "district": "Dom Aquino",
        "street": "Rua Desembargador Alirio Figueiredo",
        "zipcode": "78015-390"
    },
    {
        "city": "Cuiaba",
        "state": "MT",
        "district": "Cidade Alta",
        "street": "Avenida Agricola Paes De Barros",
        "zipcode": "78030-100"
    },
    {
        "city": "Cuiaba",
        "state": "MT",
        "district": "Cidade Verde",
        "street": "Rua Santa Luzia",
        "zipcode": "78028-755"
    },
    {
        "city": "Cuiaba",
        "state": "MT",
        "district": "Coophamil",
        "street": "Rua Um (Jd Beira Rio)",
        "zipcode": "78028-378"
    },
    {
        "city": "Cuiaba",
        "state": "MT",
        "district": "Cidade Verde",
        "street": "Rua Laura Vicuna",
        "zipcode": "78028-800"
    },
    {
        "city": "Cuiaba",
        "state": "MT",
        "district": "Pocao",
        "street": "Avenida General Mello",
        "zipcode": "78015-400"
    },
    {
        "city": "Cuiaba",
        "state": "MT",
        "district": "Dom Aquino",
        "street": "Rua Sao Luiz (Sao Mateus)",
        "zipcode": "78015-472"
    },
    {
        "city": "Cuiaba",
        "state": "MT",
        "district": "Pocao",
        "street": "Travessa Waldomiro Campos",
        "zipcode": "78015-760"
    },
    {
        "city": "Cuiaba",
        "state": "MT",
        "district": "Dom Aquino",
        "street": "Rua Santa Luzia (Sao Mateus)",
        "zipcode": "78015-510"
    },
    {
        "city": "Cuiaba",
        "state": "MT",
        "district": "Centro",
        "street": "Rua Clovis Hugueney",
        "zipcode": "78015-830"
    },
    {
        "city": "Cuiaba",
        "state": "MT",
        "district": "Dom Aquino",
        "street": "Rua Sao Lucas (Sao Mateus)",
        "zipcode": "78015-464"
    },
    {
        "city": "Cuiaba",
        "state": "MT",
        "district": "Dom Aquino",
        "street": "Rua Armando Candia",
        "zipcode": "78015-680"
    },
    {
        "city": "Cuiaba",
        "state": "MT",
        "district": "Dom Aquino",
        "street": "Rua Sao Sebastiao (Sao Mateus)",
        "zipcode": "78015-466"
    },
    {
        "city": "Cuiaba",
        "state": "MT",
        "district": "Dom Aquino",
        "street": "Rua Sao Mateus (Sao Mateus)",
        "zipcode": "78015-478"
    },
    {
        "city": "Cuiaba",
        "state": "MT",
        "district": "Dom Aquino",
        "street": "Avenida Teles Pires",
        "zipcode": "78015-670"
    },
    {
        "city": "Cuiaba",
        "state": "MT",
        "district": "Dom Aquino",
        "street": "Rua Do Ipe",
        "zipcode": "78015-410"
    },
    {
        "city": "Cuiaba",
        "state": "MT",
        "district": "Centro",
        "street": "Rua Arnaldo De Matos",
        "zipcode": "78020-070"
    },
    {
        "city": "Cuiaba",
        "state": "MT",
        "district": "Centro",
        "street": "Travessa Alice Farias",
        "zipcode": "78020-080"
    },
    {
        "city": "Cuiaba",
        "state": "MT",
        "district": "Cidade Verde",
        "street": "Avenida Florianopolis",
        "zipcode": "78028-615"
    },
    {
        "city": "Cuiaba",
        "state": "MT",
        "district": "Dom Aquino",
        "street": "Travessa Padre Jose Solares",
        "zipcode": "78015-710"
    },
    {
        "city": "Cuiaba",
        "state": "MT",
        "district": "Dom Aquino",
        "street": "Rua Sao Jorge (Sao Mateus)",
        "zipcode": "78015-516"
    },
    {
        "city": "Cuiaba",
        "state": "MT",
        "district": "Dom Aquino",
        "street": "Rua Sao Pedro (Sao Mateus)",
        "zipcode": "78015-512"
    },
    {
        "city": "Cuiaba",
        "state": "MT",
        "district": "Cidade Verde",
        "street": "Rua Sao Joao Batista",
        "zipcode": "78028-810"
    },
    {
        "city": "Cuiaba",
        "state": "MT",
        "district": "Dom Aquino",
        "street": "Rua Sao Tiago (Sao Mateus)",
        "zipcode": "78015-514"
    },
    {
        "city": "Cuiaba",
        "state": "MT",
        "district": "Dom Aquino",
        "street": "Rua Santa Maria (Sao Mateus)",
        "zipcode": "78015-474"
    },
    {
        "city": "Cuiaba",
        "state": "MT",
        "district": "Novo Terceiro",
        "street": "Rua Teresina",
        "zipcode": "78028-765"
    },
    {
        "city": "Cuiaba",
        "state": "MT",
        "district": "Cidade Verde",
        "street": "Rua Sao Jorge",
        "zipcode": "78028-827"
    },
    {
        "city": "Cuiaba",
        "state": "MT",
        "district": "Areao",
        "street": "Rua Castelo",
        "zipcode": "78010-590"
    },
    {
        "city": "Cuiaba",
        "state": "MT",
        "district": "Areao",
        "street": "Rua Do Realengo",
        "zipcode": "78010-470"
    },
    {
        "city": "Cuiaba",
        "state": "MT",
        "district": "Dom Aquino",
        "street": "Rua Dinamarca (Sao Mateus)",
        "zipcode": "78015-476"
    },
    {
        "city": "Cuiaba",
        "state": "MT",
        "district": "Dom Aquino",
        "street": "Rua Joao Barbosa Farias",
        "zipcode": "78015-540"
    },
    {
        "city": "Cuiaba",
        "state": "MT",
        "district": "Porto",
        "street": "Avenida Um (Jd Das Vivendas)",
        "zipcode": "78025-150"
    },
    {
        "city": "Cuiaba",
        "state": "MT",
        "district": "Pocao",
        "street": "Rua Do Piqui",
        "zipcode": "78015-770"
    },
    {
        "city": "Cuiaba",
        "state": "MT",
        "district": "Cidade Alta",
        "street": "Avenida Agricola Paes De Barros",
        "zipcode": "78025-680"
    },
    {
        "city": "Cuiaba",
        "state": "MT",
        "district": "Dom Aquino",
        "street": "Rua Hermenegildo Figueiredo",
        "zipcode": "78015-480"
    },
    {
        "city": "Cuiaba",
        "state": "MT",
        "district": "Porto",
        "street": "Rua Jaciara (Jose Pinto)",
        "zipcode": "78025-260"
    },
    {
        "city": "Cuiaba",
        "state": "MT",
        "district": "Porto",
        "street": "Travessa Delgado Santana (Jose Pinto)",
        "zipcode": "78025-270"
    },
    {
        "city": "Cuiaba",
        "state": "MT",
        "district": "Porto",
        "street": "Travessa Iguatemi (Cohab Nova)",
        "zipcode": "78025-320"
    },
    {
        "city": "Cuiaba",
        "state": "MT",
        "district": "Porto",
        "street": "Travessa Terenos (Cohab Nova)",
        "zipcode": "78025-370"
    },
    {
        "city": "Cuiaba",
        "state": "MT",
        "district": "Cidade Alta",
        "street": "Avenida A (Jd Ubata)",
        "zipcode": "78025-510"
    },
    {
        "city": "Cuiaba",
        "state": "MT",
        "district": "Cidade Alta",
        "street": "Avenida Miguel Sutil",
        "zipcode": "78025-600"
    },
    {
        "city": "Cuiaba",
        "state": "MT",
        "district": "Porto",
        "street": "Rua Dourados (Jd Ubata)",
        "zipcode": "78025-630"
    },
    {
        "city": "Cuiaba",
        "state": "MT",
        "district": "Cidade Verde",
        "street": "Rua Nossa Senhora Aparecida",
        "zipcode": "78028-745"
    },
    {
        "city": "Cuiaba",
        "state": "MT",
        "district": "Cidade Verde",
        "street": "Rua Recife",
        "zipcode": "78028-840"
    },
    {
        "city": "Cuiaba",
        "state": "MT",
        "district": "Cidade Alta",
        "street": "Rua Piracicaba (Jd Primavera)",
        "zipcode": "78030-230"
    },
    {
        "city": "Cuiaba",
        "state": "MT",
        "district": "Cidade Alta",
        "street": "Rua Francisco Antunes Muniz",
        "zipcode": "78030-310"
    },
    {
        "city": "Cuiaba",
        "state": "MT",
        "district": "Cidade Alta",
        "street": "Rua Sorocaba (Jd Primavera)",
        "zipcode": "78030-190"
    },
    {
        "city": "Cuiaba",
        "state": "MT",
        "district": "Cidade Alta",
        "street": "Avenida Jornalista Alves De Oliveira",
        "zipcode": "78030-360"
    },
    {
        "city": "Cuiaba",
        "state": "MT",
        "district": "Cidade Alta",
        "street": "Rua Da Liberdade",
        "zipcode": "78030-560"
    },
    {
        "city": "Cuiaba",
        "state": "MT",
        "district": "Cidade Alta",
        "street": "Avenida Brasil",
        "zipcode": "78030-600"
    },
    {
        "city": "Cuiaba",
        "state": "MT",
        "district": "Cidade Alta",
        "street": "Rua Tenente",
        "zipcode": "78030-620"
    },
    {
        "city": "Cuiaba",
        "state": "MT",
        "district": "Cidade Alta",
        "street": "Rua Dom Pedro I",
        "zipcode": "78030-640"
    },
    {
        "city": "Cuiaba",
        "state": "MT",
        "district": "Cidade Alta",
        "street": "Rua Claudio Manoel Da Costa",
        "zipcode": "78030-680"
    },
    {
        "city": "Cuiaba",
        "state": "MT",
        "district": "Jardim Cuiaba",
        "street": "Avenida Senador Metelo",
        "zipcode": "78030-710"
    },
    {
        "city": "Cuiaba",
        "state": "MT",
        "district": "Ribeirao Do Lipa",
        "street": "Rua Araguaia",
        "zipcode": "78040-410"
    },
    {
        "city": "Cuiaba",
        "state": "MT",
        "district": "Cidade Alta",
        "street": "Rua Um (Capao Do Gama)",
        "zipcode": "78025-520"
    },
    {
        "city": "Cuiaba",
        "state": "MT",
        "district": "Porto",
        "street": "Rua Ponta Pora (Jose Pinto)",
        "zipcode": "78025-230"
    },
    {
        "city": "Cuiaba",
        "state": "MT",
        "district": "Cidade Alta",
        "street": "Vila Nicota",
        "zipcode": "78030-350"
    },
    {
        "city": "Cuiaba",
        "state": "MT",
        "district": "Cidade Alta",
        "street": "Rua Dois",
        "zipcode": "78025-530"
    },
    {
        "city": "Cuiaba",
        "state": "MT",
        "district": "Cidade Alta",
        "street": "Rua Nortelandia (Cohab Nova)",
        "zipcode": "78025-450"
    },
    {
        "city": "Cuiaba",
        "state": "MT",
        "district": "Cidade Alta",
        "street": "Avenida Jose Feliciano",
        "zipcode": "78030-570"
    },
    {
        "city": "Cuiaba",
        "state": "MT",
        "district": "Porto",
        "street": "Rua Torixoreu (Cohab Nova)",
        "zipcode": "78025-380"
    },
    {
        "city": "Cuiaba",
        "state": "MT",
        "district": "Porto",
        "street": "Rua Barao De Melgaco",
        "zipcode": "78020-801"
    },
    {
        "city": "Cuiaba",
        "state": "MT",
        "district": "Cidade Alta",
        "street": "Rua A (Coesa)",
        "zipcode": "78030-740"
    },
    {
        "city": "Cuiaba",
        "state": "MT",
        "district": "Porto",
        "street": "Rua Coxim (Jd Ubata)",
        "zipcode": "78025-640"
    },
    {
        "city": "Cuiaba",
        "state": "MT",
        "district": "Porto",
        "street": "Rua Tres Lagoas (Jose Pinto)",
        "zipcode": "78025-220"
    },
    {
        "city": "Cuiaba",
        "state": "MT",
        "district": "Cidade Alta",
        "street": "Rua Sete De Setembro",
        "zipcode": "78030-590"
    },
    {
        "city": "Cuiaba",
        "state": "MT",
        "district": "Porto",
        "street": "Rua Poxoreo (Cohab Nova)",
        "zipcode": "78025-390"
    },
    {
        "city": "Cuiaba",
        "state": "MT",
        "district": "Porto",
        "street": "Rua Aripuana (Cohab Nova)",
        "zipcode": "78025-430"
    },
    {
        "city": "Cuiaba",
        "state": "MT",
        "district": "Cidade Alta",
        "street": "Rua Miranda (Jd Ubata)",
        "zipcode": "78025-620"
    },
    {
        "city": "Cuiaba",
        "state": "MT",
        "district": "Cidade Alta",
        "street": "Rua Acorizal (Cohab Nova)",
        "zipcode": "78025-470"
    },
    {
        "city": "Cuiaba",
        "state": "MT",
        "district": "Cidade Alta",
        "street": "Rua Jaime De Vasconcelos",
        "zipcode": "78030-720"
    },
    {
        "city": "Cuiaba",
        "state": "MT",
        "district": "Ribeirao Do Lipa",
        "street": "Rua Engenheiro Alvaro Pinto De Oliveira",
        "zipcode": "78040-479"
    },
    {
        "city": "Cuiaba",
        "state": "MT",
        "district": "Porto",
        "street": "Rua Um (Jd Das Vivendas)",
        "zipcode": "78025-160"
    },
    {
        "city": "Cuiaba",
        "state": "MT",
        "district": "Cidade Alta",
        "street": "Rua Dr Jonas Correa Da Costa",
        "zipcode": "78030-510"
    },
    {
        "city": "Cuiaba",
        "state": "MT",
        "district": "Centro",
        "street": "Rua Jesse Pinto Freire",
        "zipcode": "78020-090"
    },
    {
        "city": "Cuiaba",
        "state": "MT",
        "district": "Goiabeira",
        "street": "Avenida Marechal Deodoro",
        "zipcode": "78020-040"
    },
    {
        "city": "Cuiaba",
        "state": "MT",
        "district": "Porto",
        "street": "Travessa Manoel Pinto (Jose Pinto)",
        "zipcode": "78025-210"
    },
    {
        "city": "Cuiaba",
        "state": "MT",
        "district": "Cidade Alta",
        "street": "Rua Dr Eduardo Gomes Monteiro",
        "zipcode": "78030-540"
    },
    {
        "city": "Cuiaba",
        "state": "MT",
        "district": "Porto",
        "street": "Rua Ladario (Cohab Nova)",
        "zipcode": "78025-480"
    },
    {
        "city": "Cuiaba",
        "state": "MT",
        "district": "Cidade Alta",
        "street": "Rua Sete (Capao Do Gama)",
        "zipcode": "78025-570"
    },
    {
        "city": "Cuiaba",
        "state": "MT",
        "district": "Santa Izabel",
        "street": "Avenida Allan Kardek",
        "zipcode": "78035-720"
    },
    {
        "city": "Cuiaba",
        "state": "MT",
        "district": "Porto",
        "street": "Rua Barra Do Garcas (Jose Pinto)",
        "zipcode": "78025-250"
    },
    {
        "city": "Cuiaba",
        "state": "MT",
        "district": "Cidade Alta",
        "street": "Rua Seis (Capao Do Gama)",
        "zipcode": "78025-560"
    },
    {
        "city": "Cuiaba",
        "state": "MT",
        "district": "Santa Izabel",
        "street": "Travessa Viela  Sessenta",
        "zipcode": "78035-745"
    },
    {
        "city": "Cuiaba",
        "state": "MT",
        "district": "Porto",
        "street": "Rua Jaraguari (Cohab Nova)",
        "zipcode": "78025-410"
    },
    {
        "city": "Cuiaba",
        "state": "MT",
        "district": "Porto",
        "street": "Rua Carapo (Cohab Nova)",
        "zipcode": "78025-420"
    },
    {
        "city": "Cuiaba",
        "state": "MT",
        "district": "Cidade Alta",
        "street": "Rua Dez (Capao Do Gama)",
        "zipcode": "78025-500"
    },
    {
        "city": "Cuiaba",
        "state": "MT",
        "district": "Cidade Alta",
        "street": "Rua Da (Jd Primavera) Paz",
        "zipcode": "78030-260"
    },
    {
        "city": "Cuiaba",
        "state": "MT",
        "district": "Cidade Alta",
        "street": "Rua Dom Luiz De Castro Pereira",
        "zipcode": "78030-270"
    },
    {
        "city": "Cuiaba",
        "state": "MT",
        "district": "Santa Izabel",
        "street": "Rua Projetada",
        "zipcode": "78035-730"
    },
    {
        "city": "Cuiaba",
        "state": "MT",
        "district": "Cidade Alta",
        "street": "Rua Da (Jd Primavera) Saudade",
        "zipcode": "78030-250"
    },
    {
        "city": "Cuiaba",
        "state": "MT",
        "district": "Cidade Alta",
        "street": "Rua Quatro (Capao Do Gama)",
        "zipcode": "78025-550"
    },
    {
        "city": "Cuiaba",
        "state": "MT",
        "district": "Porto",
        "street": "Rua Nobres (Cohab Nova)",
        "zipcode": "78025-460"
    },
    {
        "city": "Cuiaba",
        "state": "MT",
        "district": "Porto",
        "street": "Travessa Itapora (Cohab Nova)",
        "zipcode": "78025-290"
    },
    {
        "city": "Cuiaba",
        "state": "MT",
        "district": "Cidade Alta",
        "street": "Rua Vila Rica",
        "zipcode": "78030-320"
    },
    {
        "city": "Cuiaba",
        "state": "MT",
        "district": "Cidade Alta",
        "street": "Avenida Prof. Ranulfo Paes De Barros",
        "zipcode": "78030-300"
    },
    {
        "city": "Cuiaba",
        "state": "MT",
        "district": "Cidade Alta",
        "street": "Travessa Amarilio Calhao",
        "zipcode": "78030-730"
    },
    {
        "city": "Cuiaba",
        "state": "MT",
        "district": "Jardim Mariana",
        "street": "Rua Araguari",
        "zipcode": "78040-590"
    },
    {
        "city": "Cuiaba",
        "state": "MT",
        "district": "Santa Rosa",
        "street": "Avenida Miguel Sutil",
        "zipcode": "78040-700"
    },
    {
        "city": "Cuiaba",
        "state": "MT",
        "district": "Jardim Mariana",
        "street": "Rua Juiz De Fora",
        "zipcode": "78040-840"
    },
    {
        "city": "Cuiaba",
        "state": "MT",
        "district": "Duque De Caxias",
        "street": "Rua General Joao Luiz Pereira",
        "zipcode": "78043-015"
    },
    {
        "city": "Cuiaba",
        "state": "MT",
        "district": "Duque De Caxias",
        "street": "Rua General Neves",
        "zipcode": "78043-020"
    },
    {
        "city": "Cuiaba",
        "state": "MT",
        "district": "Duque De Caxias",
        "street": "Rua Coronel Antonio Estigarribia",
        "zipcode": "78043-055"
    },
    {
        "city": "Cuiaba",
        "state": "MT",
        "district": "Cidade Alta",
        "street": "Rua Luis De Matos",
        "zipcode": "78030-290"
    },
    {
        "city": "Cuiaba",
        "state": "MT",
        "district": "Cidade Alta",
        "street": "Rua Dos Andradas",
        "zipcode": "78030-550"
    },
    {
        "city": "Cuiaba",
        "state": "MT",
        "district": "Jardim Mariana",
        "street": "Travessa Unai",
        "zipcode": "78040-710"
    },
    {
        "city": "Cuiaba",
        "state": "MT",
        "district": "Duque De Caxias",
        "street": "Rua Jose Haddad",
        "zipcode": "78043-075"
    },
    {
        "city": "Cuiaba",
        "state": "MT",
        "district": "Duque De Caxias",
        "street": "Rua General Mauricio Cardoso",
        "zipcode": "78043-090"
    },
    {
        "city": "Cuiaba",
        "state": "MT",
        "district": "Jardim Cuiaba",
        "street": "Avenida Senador Metelo",
        "zipcode": "78043-100"
    },
    {
        "city": "Cuiaba",
        "state": "MT",
        "district": "Duque De Caxias",
        "street": "Travessa Coronel Costa Marques",
        "zipcode": "78043-110"
    },
    {
        "city": "Cuiaba",
        "state": "MT",
        "district": "Jardim Cuiaba",
        "street": "Rua Das Rosas",
        "zipcode": "78043-145"
    },
    {
        "city": "Cuiaba",
        "state": "MT",
        "district": "Jardim Cuiaba",
        "street": "Rua Dos Girassois",
        "zipcode": "78043-150"
    },
    {
        "city": "Cuiaba",
        "state": "MT",
        "district": "Jardim Cuiaba",
        "street": "Rua Das Papoulas",
        "zipcode": "78043-155"
    },
    {
        "city": "Cuiaba",
        "state": "MT",
        "district": "Jardim Cuiaba",
        "street": "Rua Das Violetas",
        "zipcode": "78043-160"
    },
    {
        "city": "Cuiaba",
        "state": "MT",
        "district": "Goiabeira",
        "street": "Avenida Brasil",
        "zipcode": "78043-250"
    },
    {
        "city": "Cuiaba",
        "state": "MT",
        "district": "Goiabeira",
        "street": "Rua Coronel Barros",
        "zipcode": "78043-295"
    },
    {
        "city": "Cuiaba",
        "state": "MT",
        "district": "Quilombo",
        "street": "Rua Presidente Rodrigues Alves",
        "zipcode": "78043-380"
    },
    {
        "city": "Cuiaba",
        "state": "MT",
        "district": "Goiabeira",
        "street": "Avenida Senador Filinto Muller",
        "zipcode": "78043-001"
    },
    {
        "city": "Cuiaba",
        "state": "MT",
        "district": "Jardim Cuiaba",
        "street": "Rua Das Hortencias",
        "zipcode": "78043-195"
    },
    {
        "city": "Cuiaba",
        "state": "MT",
        "district": "Duque De Caxias",
        "street": "Rua General Rabello",
        "zipcode": "78043-030"
    },
    {
        "city": "Cuiaba",
        "state": "MT",
        "district": "Vila Militar",
        "street": "Rua Montese",
        "zipcode": "78040-750"
    },
    {
        "city": "Cuiaba",
        "state": "MT",
        "district": "Santa Rosa",
        "street": "Rua Australia",
        "zipcode": "78040-830"
    },
    {
        "city": "Cuiaba",
        "state": "MT",
        "district": "Jardim Cuiaba",
        "street": "Rua Das Begonias",
        "zipcode": "78043-130"
    },
    {
        "city": "Cuiaba",
        "state": "MT",
        "district": "Jardim Mariana",
        "street": "Rua Dois (Lot Sao Jose)",
        "zipcode": "78040-853"
    },
    {
        "city": "Cuiaba",
        "state": "MT",
        "district": "Vila Militar",
        "street": "Rua Tenente",
        "zipcode": "78040-810"
    },
    {
        "city": "Cuiaba",
        "state": "MT",
        "district": "Duque De Caxias",
        "street": "Rua Jacobina",
        "zipcode": "78043-115"
    },
    {
        "city": "Cuiaba",
        "state": "MT",
        "district": "Ribeirao Do Lipa",
        "street": "Rua B (Ribeirao Da Ponte)",
        "zipcode": "78040-665"
    },
    {
        "city": "Cuiaba",
        "state": "MT",
        "district": "Jardim Cuiaba",
        "street": "Travessa Lua Nova",
        "zipcode": "78043-315"
    },
    {
        "city": "Cuiaba",
        "state": "MT",
        "district": "Quilombo",
        "street": "Rua Boa Esperanca",
        "zipcode": "78043-340"
    },
    {
        "city": "Cuiaba",
        "state": "MT",
        "district": "Jardim Cuiaba",
        "street": "Rua Dos Crisantemos",
        "zipcode": "78043-175"
    },
    {
        "city": "Cuiaba",
        "state": "MT",
        "district": "Duque De Caxias",
        "street": "Rua General Anibal Da Mata",
        "zipcode": "78043-025"
    },
    {
        "city": "Cuiaba",
        "state": "MT",
        "district": "Quilombo",
        "street": "Rua Americo Salgado",
        "zipcode": "78043-420"
    },
    {
        "city": "Cuiaba",
        "state": "MT",
        "district": "Vila Militar",
        "street": "Avenida Marechal Rondon",
        "zipcode": "78040-790"
    },
    {
        "city": "Cuiaba",
        "state": "MT",
        "district": "Jardim Cuiaba",
        "street": "Praça Do Amor Perfeito",
        "zipcode": "78043-320"
    },
    {
        "city": "Cuiaba",
        "state": "MT",
        "district": "Ribeirao Do Lipa",
        "street": "Rua Alto Garcas",
        "zipcode": "78040-380"
    },
    {
        "city": "Cuiaba",
        "state": "MT",
        "district": "Goiabeira",
        "street": "Rua Almirante Pedro Alvares Cabral",
        "zipcode": "78043-225"
    },
    {
        "city": "Cuiaba",
        "state": "MT",
        "district": "Jardim Cuiaba",
        "street": "Rua Dos Lirios",
        "zipcode": "78043-140"
    },
    {
        "city": "Cuiaba",
        "state": "MT",
        "district": "Duque De Caxias",
        "street": "Rua Marechal Antonio Anibal Da Motta",
        "zipcode": "78043-045"
    },
    {
        "city": "Cuiaba",
        "state": "MT",
        "district": "Vila Militar",
        "street": "Rua Castelnuovo",
        "zipcode": "78040-740"
    },
    {
        "city": "Cuiaba",
        "state": "MT",
        "district": "Duque De Caxias",
        "street": "Rua Major Arnaldo De Matos",
        "zipcode": "78043-040"
    },
    {
        "city": "Cuiaba",
        "state": "MT",
        "district": "Goiabeira",
        "street": "Avenida Sao Sebastiao",
        "zipcode": "78043-270"
    },
    {
        "city": "Cuiaba",
        "state": "MT",
        "district": "Jardim Cuiaba",
        "street": "Rua General Ramiro Noronha",
        "zipcode": "78043-050"
    },
    {
        "city": "Cuiaba",
        "state": "MT",
        "district": "Quilombo",
        "street": "Rua Presidente Afonso Penna",
        "zipcode": "78043-345"
    },
    {
        "city": "Cuiaba",
        "state": "MT",
        "district": "Goiabeira",
        "street": "Rua Sao Silvestre",
        "zipcode": "78043-310"
    },
    {
        "city": "Cuiaba",
        "state": "MT",
        "district": "Ribeirao Do Lipa",
        "street": "Rua Rio Verde",
        "zipcode": "78040-560"
    },
    {
        "city": "Cuiaba",
        "state": "MT",
        "district": "Jardim Cuiaba",
        "street": "Rua Dos Jasmins",
        "zipcode": "78043-185"
    },
    {
        "city": "Cuiaba",
        "state": "MT",
        "district": "Jardim Cuiaba",
        "street": "Rua Das Dalias",
        "zipcode": "78043-170"
    },
    {
        "city": "Cuiaba",
        "state": "MT",
        "district": "Goiabeira",
        "street": "Rua Padre Wanir Delfino Cesar",
        "zipcode": "78043-245"
    },
    {
        "city": "Cuiaba",
        "state": "MT",
        "district": "Goiabeira",
        "street": "Rua Manoel Cavalcante Proenca",
        "zipcode": "78043-290"
    },
    {
        "city": "Cuiaba",
        "state": "MT",
        "district": "Goiabeira",
        "street": "Rua Dr Leonidas De Matos",
        "zipcode": "78043-200"
    },
    {
        "city": "Cuiaba",
        "state": "MT",
        "district": "Goiabeira",
        "street": "Rua Pedro Osorio De Arruda",
        "zipcode": "78043-280"
    },
    {
        "city": "Cuiaba",
        "state": "MT",
        "district": "Duque De Caxias",
        "street": "Rua General Amilcar Magalhaes",
        "zipcode": "78043-080"
    },
    {
        "city": "Cuiaba",
        "state": "MT",
        "district": "Vila Militar",
        "street": "Rua General Trompovsky",
        "zipcode": "78040-780"
    },
    {
        "city": "Cuiaba",
        "state": "MT",
        "district": "Vila Militar",
        "street": "Rua Brigadeiro Sampaio",
        "zipcode": "78040-730"
    },
    {
        "city": "Cuiaba",
        "state": "MT",
        "district": "Vila Militar",
        "street": "Rua Frei Orlando",
        "zipcode": "78040-770"
    },
    {
        "city": "Cuiaba",
        "state": "MT",
        "district": "Jardim Cuiaba",
        "street": "Rua Dos Miosotis",
        "zipcode": "78043-135"
    },
    {
        "city": "Cuiaba",
        "state": "MT",
        "district": "Duque De Caxias",
        "street": "Rua Maria Mendes",
        "zipcode": "78043-660"
    },
    {
        "city": "Cuiaba",
        "state": "MT",
        "district": "Goiabeira",
        "street": "Rua Rui Barbosa",
        "zipcode": "78043-715"
    },
    {
        "city": "Cuiaba",
        "state": "MT",
        "district": "Goiabeira",
        "street": "Rua Coronel Benedito Leite",
        "zipcode": "78043-730"
    },
    {
        "city": "Cuiaba",
        "state": "MT",
        "district": "Goiabeira",
        "street": "Rua Brigadeiro Eduardo Gomes",
        "zipcode": "78043-750"
    },
    {
        "city": "Cuiaba",
        "state": "MT",
        "district": "Duque De Caxias",
        "street": "Rua Joao Bento",
        "zipcode": "78043-765"
    },
    {
        "city": "Cuiaba",
        "state": "MT",
        "district": "Duque De Caxias",
        "street": "Rua Marechal Floriano Peixoto",
        "zipcode": "78043-770"
    },
    {
        "city": "Cuiaba",
        "state": "MT",
        "district": "Senhor Dos Passos",
        "street": "Rua Chade",
        "zipcode": "78050-390"
    },
    {
        "city": "Cuiaba",
        "state": "MT",
        "district": "Senhor Dos Passos",
        "street": "Rua Angola",
        "zipcode": "78050-370"
    },
    {
        "city": "Cuiaba",
        "state": "MT",
        "district": "Goiabeira",
        "street": "Rua Cursino Do Amarante",
        "zipcode": "78043-755"
    },
    {
        "city": "Cuiaba",
        "state": "MT",
        "district": "Bosque Da Saude",
        "street": "Rua E",
        "zipcode": "78050-190"
    },
    {
        "city": "Cuiaba",
        "state": "MT",
        "district": "Bela Vista",
        "street": "Rua D (Sao Roque)",
        "zipcode": "78050-562"
    },
    {
        "city": "Cuiaba",
        "state": "MT",
        "district": "Senhor Dos Passos",
        "street": "Rua Iran",
        "zipcode": "78048-280"
    },
    {
        "city": "Cuiaba",
        "state": "MT",
        "district": "Goiabeira",
        "street": "Avenida Presidente Castelo Branco",
        "zipcode": "78043-700"
    },
    {
        "city": "Cuiaba",
        "state": "MT",
        "district": "Senhor Dos Passos",
        "street": "Rua Marcos Pereira Da Luz",
        "zipcode": "78048-595"
    },
    {
        "city": "Cuiaba",
        "state": "MT",
        "district": "Santa Rosa",
        "street": "Rua Sao Marcos (Santa Marta)",
        "zipcode": "78043-590"
    },
    {
        "city": "Cuiaba",
        "state": "MT",
        "district": "Senhor Dos Passos",
        "street": "Rua Cisne",
        "zipcode": "78048-420"
    },
    {
        "city": "Cuiaba",
        "state": "MT",
        "district": "Senhor Dos Passos",
        "street": "Rua Do Caju",
        "zipcode": "78048-770"
    },
    {
        "city": "Cuiaba",
        "state": "MT",
        "district": "Senhor Dos Passos",
        "street": "Rua Prof. Manoel Dorileo",
        "zipcode": "78048-690"
    },
    {
        "city": "Cuiaba",
        "state": "MT",
        "district": "Senhor Dos Passos",
        "street": "Rua Das Moncoes",
        "zipcode": "78048-849"
    },
    {
        "city": "Cuiaba",
        "state": "MT",
        "district": "Senhor Dos Passos",
        "street": "Rua Caranda",
        "zipcode": "78048-395"
    },
    {
        "city": "Cuiaba",
        "state": "MT",
        "district": "Senhor Dos Passos",
        "street": "Rua P (Miguel Sutil)",
        "zipcode": "78048-570"
    },
    {
        "city": "Cuiaba",
        "state": "MT",
        "district": "Quilombo",
        "street": "Rua Presidente Jose Linhares",
        "zipcode": "78043-685"
    },
    {
        "city": "Cuiaba",
        "state": "MT",
        "district": "Goiabeira",
        "street": "Rua Sao Joaquim",
        "zipcode": "78043-735"
    },
    {
        "city": "Cuiaba",
        "state": "MT",
        "district": "Centro",
        "street": "Praça Clovis Cardoso",
        "zipcode": "78045-240"
    },
    {
        "city": "Cuiaba",
        "state": "MT",
        "district": "Carumbe",
        "street": "Rua Dom Orlando Chaves",
        "zipcode": "78050-305"
    },
    {
        "city": "Cuiaba",
        "state": "MT",
        "district": "Santa Rosa",
        "street": "Rua Santa Monica (Santa Marta)",
        "zipcode": "78043-550"
    },
    {
        "city": "Cuiaba",
        "state": "MT",
        "district": "Santa Rosa",
        "street": "Rua Sao Tome (Santa Marta)",
        "zipcode": "78043-600"
    },
    {
        "city": "Cuiaba",
        "state": "MT",
        "district": "Senhor Dos Passos",
        "street": "Rua Calmaria",
        "zipcode": "78048-843"
    },
    {
        "city": "Cuiaba",
        "state": "MT",
        "district": "Senhor Dos Passos",
        "street": "Rua Mistral",
        "zipcode": "78048-810"
    },
    {
        "city": "Cuiaba",
        "state": "MT",
        "district": "Senhor Dos Passos",
        "street": "Rua Maracaju",
        "zipcode": "78048-370"
    },
    {
        "city": "Cuiaba",
        "state": "MT",
        "district": "Senhor Dos Passos",
        "street": "Rua Arlindo Bergaminho",
        "zipcode": "78048-840"
    },
    {
        "city": "Cuiaba",
        "state": "MT",
        "district": "Bela Vista",
        "street": "Rua F (Sao Roque)",
        "zipcode": "78050-570"
    },
    {
        "city": "Cuiaba",
        "state": "MT",
        "district": "Senhor Dos Passos",
        "street": "Rua Oma",
        "zipcode": "78048-300"
    },
    {
        "city": "Cuiaba",
        "state": "MT",
        "district": "Senhor Dos Passos",
        "street": "Rua K (Miguel Sutil)",
        "zipcode": "78048-758"
    },
    {
        "city": "Cuiaba",
        "state": "MT",
        "district": "Senhor Dos Passos",
        "street": "Rua Kueit",
        "zipcode": "78048-265"
    },
    {
        "city": "Cuiaba",
        "state": "MT",
        "district": "Bosque Da Saude",
        "street": "Rua Jurumirim",
        "zipcode": "78050-300"
    },
    {
        "city": "Cuiaba",
        "state": "MT",
        "district": "Quilombo",
        "street": "Avenida Sao Sebastiao",
        "zipcode": "78045-002"
    },
    {
        "city": "Cuiaba",
        "state": "MT",
        "district": "Centro",
        "street": "Rua Vinte E Quatro De Outubro",
        "zipcode": "78045-290"
    },
    {
        "city": "Cuiaba",
        "state": "MT",
        "district": "Senhor Dos Passos",
        "street": "Rua Alizios",
        "zipcode": "78048-830"
    },
    {
        "city": "Cuiaba",
        "state": "MT",
        "district": "Quilombo",
        "street": "Travessa Vinte E Cinco De Agosto",
        "zipcode": "78043-710"
    },
    {
        "city": "Cuiaba",
        "state": "MT",
        "district": "Bosque Da Saude",
        "street": "Rua G",
        "zipcode": "78050-160"
    },
    {
        "city": "Cuiaba",
        "state": "MT",
        "district": "Senhor Dos Passos",
        "street": "Rua A. Estiva",
        "zipcode": "78048-790"
    },
    {
        "city": "Cuiaba",
        "state": "MT",
        "district": "Bosque Da Saude",
        "street": "Rua Q",
        "zipcode": "78050-140"
    },
    {
        "city": "Cuiaba",
        "state": "MT",
        "district": "Goiabeira",
        "street": "Avenida Isaac Povoas",
        "zipcode": "78043-745"
    },
    {
        "city": "Cuiaba",
        "state": "MT",
        "district": "Bosque Da Saude",
        "street": "Rua N",
        "zipcode": "78050-245"
    },
    {
        "city": "Cuiaba",
        "state": "MT",
        "district": "Goiabeira",
        "street": "Avenida Oito De Abril",
        "zipcode": "78045-260"
    },
    {
        "city": "Cuiaba",
        "state": "MT",
        "district": "Senhor Dos Passos",
        "street": "Rua L",
        "zipcode": "78048-795"
    },
    {
        "city": "Cuiaba",
        "state": "MT",
        "district": "Quilombo",
        "street": "Travessa Briene De Carvalho",
        "zipcode": "78045-180"
    },
    {
        "city": "Cuiaba",
        "state": "MT",
        "district": "Goiabeira",
        "street": "Praça Antonio Joao Ribeiro",
        "zipcode": "78045-210"
    },
    {
        "city": "Cuiaba",
        "state": "MT",
        "district": "Senhor Dos Passos",
        "street": "Rua Itajauba",
        "zipcode": "78048-846"
    },
    {
        "city": "Cuiaba",
        "state": "MT",
        "district": "Santa Rosa",
        "street": "Rua Santa Efigenia (Santa Marta)",
        "zipcode": "78043-520"
    },
    {
        "city": "Cuiaba",
        "state": "MT",
        "district": "Senhor Dos Passos",
        "street": "Rua Shiraz",
        "zipcode": "78048-290"
    },
    {
        "city": "Cuiaba",
        "state": "MT",
        "district": "Centro",
        "street": "Avenida Presidente Getulio Vargas",
        "zipcode": "78045-300"
    },
    {
        "city": "Cuiaba",
        "state": "MT",
        "district": "Senhor Dos Passos",
        "street": "Rua L (Miguel Sutil)",
        "zipcode": "78048-798"
    },
    {
        "city": "Cuiaba",
        "state": "MT",
        "district": "Bela Vista",
        "street": "Rua B (Sao Roque)",
        "zipcode": "78050-572"
    },
    {
        "city": "Cuiaba",
        "state": "MT",
        "district": "Senhor Dos Passos",
        "street": "Avenida Argelia",
        "zipcode": "78050-360"
    },
    {
        "city": "Cuiaba",
        "state": "MT",
        "district": "Santa Rosa",
        "street": "Rua Santa Izabel (Santa Marta)",
        "zipcode": "78043-540"
    },
    {
        "city": "Cuiaba",
        "state": "MT",
        "district": "Bosque Da Saude",
        "street": "Rua R",
        "zipcode": "78050-230"
    },
    {
        "city": "Cuiaba",
        "state": "MT",
        "district": "Senhor Dos Passos",
        "street": "Rodovia Emanuel Pinheiro",
        "zipcode": "78048-400"
    },
    {
        "city": "Cuiaba",
        "state": "MT",
        "district": "Quilombo",
        "street": "Avenida Sao Sebastiao",
        "zipcode": "78045-001"
    },
    {
        "city": "Cuiaba",
        "state": "MT",
        "district": "Senhor Dos Passos",
        "street": "Rua Bela Vista",
        "zipcode": "78048-380"
    },
    {
        "city": "Cuiaba",
        "state": "MT",
        "district": "Senhor Dos Passos",
        "street": "Rua Campos Do Jordao",
        "zipcode": "78048-330"
    },
    {
        "city": "Cuiaba",
        "state": "MT",
        "district": "Morada Do Ouro",
        "street": "Rua Cinco (Setor Oeste)",
        "zipcode": "78053-050"
    },
    {
        "city": "Cuiaba",
        "state": "MT",
        "district": "Morada Do Ouro",
        "street": "Rua Seis (Setor Oeste)",
        "zipcode": "78053-070"
    },
    {
        "city": "Cuiaba",
        "state": "MT",
        "district": "Morada Do Ouro",
        "street": "Rua Sete (Setor Oeste)",
        "zipcode": "78053-080"
    },
    {
        "city": "Cuiaba",
        "state": "MT",
        "district": "Morada Do Ouro",
        "street": "Vila Tres (Setor Oeste)",
        "zipcode": "78053-090"
    },
    {
        "city": "Cuiaba",
        "state": "MT",
        "district": "Morada Do Ouro",
        "street": "Vila Dois (Setor Oeste)",
        "zipcode": "78053-110"
    },
    {
        "city": "Cuiaba",
        "state": "MT",
        "district": "Goiabeira",
        "street": "Avenida Dom Bosco",
        "zipcode": "78045-320"
    },
    {
        "city": "Cuiaba",
        "state": "MT",
        "district": "Morada Do Ouro",
        "street": "Rua C (Setor Oeste)",
        "zipcode": "78053-150"
    },
    {
        "city": "Cuiaba",
        "state": "MT",
        "district": "Morada Do Ouro",
        "street": "Rua A (Setor Noroeste)",
        "zipcode": "78053-170"
    },
    {
        "city": "Cuiaba",
        "state": "MT",
        "district": "Morada Do Ouro",
        "street": "Rua Dois (Setor Noroeste)",
        "zipcode": "78053-190"
    },
    {
        "city": "Cuiaba",
        "state": "MT",
        "district": "Morada Do Ouro",
        "street": "Rua R (Setor Noroeste)",
        "zipcode": "78053-200"
    },
    {
        "city": "Cuiaba",
        "state": "MT",
        "district": "Morada Do Ouro",
        "street": "Rua C (Setor Noroeste)",
        "zipcode": "78053-220"
    },
    {
        "city": "Cuiaba",
        "state": "MT",
        "district": "Morada Do Ouro",
        "street": "Rua Nove (Setor Noroeste)",
        "zipcode": "78053-230"
    },
    {
        "city": "Cuiaba",
        "state": "MT",
        "district": "Morada Do Ouro",
        "street": "Rua G (Setor Centro Sul)",
        "zipcode": "78053-260"
    },
    {
        "city": "Cuiaba",
        "state": "MT",
        "district": "Morada Do Ouro",
        "street": "Rua Seis (Setor Centro Sul)",
        "zipcode": "78053-270"
    },
    {
        "city": "Cuiaba",
        "state": "MT",
        "district": "Morada Do Ouro",
        "street": "Rua A (Setor Centro Sul)",
        "zipcode": "78053-280"
    },
    {
        "city": "Cuiaba",
        "state": "MT",
        "district": "Morada Do Ouro",
        "street": "Rua E (Setor Centro",
        "zipcode": "78053-295"
    },
    {
        "city": "Cuiaba",
        "state": "MT",
        "district": "Morada Do Ouro",
        "street": "Rua Quatro (Setor",
        "zipcode": "78053-298"
    },
    {
        "city": "Cuiaba",
        "state": "MT",
        "district": "Morada Do Ouro",
        "street": "Rua D (Setor Centro",
        "zipcode": "78053-310"
    },
    {
        "city": "Cuiaba",
        "state": "MT",
        "district": "Morada Do Ouro",
        "street": "Rua Oito (Setor Centro",
        "zipcode": "78053-320"
    },
    {
        "city": "Cuiaba",
        "state": "MT",
        "district": "Morada Do Ouro",
        "street": "Rua E (Setor Centro",
        "zipcode": "78053-350"
    },
    {
        "city": "Cuiaba",
        "state": "MT",
        "district": "Morada Do Ouro",
        "street": "Rua Tres (Setor Centro",
        "zipcode": "78053-355"
    },
    {
        "city": "Cuiaba",
        "state": "MT",
        "district": "Morada Do Ouro",
        "street": "Rua C (Setor Centro",
        "zipcode": "78053-360"
    },
    {
        "city": "Cuiaba",
        "state": "MT",
        "district": "Morada Do Ouro",
        "street": "Rua B (Setor Centro",
        "zipcode": "78053-380"
    },
    {
        "city": "Cuiaba",
        "state": "MT",
        "district": "Morada Do Ouro",
        "street": "Rua F (Setor Centro",
        "zipcode": "78053-385"
    },
    {
        "city": "Cuiaba",
        "state": "MT",
        "district": "Morada Do Ouro",
        "street": "Rua Oito (Setor Centro",
        "zipcode": "78053-395"
    },
    {
        "city": "Cuiaba",
        "state": "MT",
        "district": "Morada Do Ouro",
        "street": "Rua A (Setor Norte)",
        "zipcode": "78053-490"
    },
    {
        "city": "Cuiaba",
        "state": "MT",
        "district": "Morada Do Ouro",
        "street": "Rua H (Setor Norte)",
        "zipcode": "78053-520"
    },
    {
        "city": "Cuiaba",
        "state": "MT",
        "district": "Morada Do Ouro",
        "street": "Rua Quatro (Setor Norte)",
        "zipcode": "78053-530"
    },
    {
        "city": "Cuiaba",
        "state": "MT",
        "district": "Morada Do Ouro",
        "street": "Rua E (Setor Oeste)",
        "zipcode": "78053-120"
    },
    {
        "city": "Cuiaba",
        "state": "MT",
        "district": "Bosque Da Saude",
        "street": "Rua C (Leblon)",
        "zipcode": "78050-810"
    },
    {
        "city": "Cuiaba",
        "state": "MT",
        "district": "Carumbe",
        "street": "Rua Kassim Mohamed",
        "zipcode": "78050-585"
    },
    {
        "city": "Cuiaba",
        "state": "MT",
        "district": "Nucleo Habit Cpa",
        "street": "Rua Dezenove (Tancredo Neves)",
        "zipcode": "78053-710"
    },
    {
        "city": "Cuiaba",
        "state": "MT",
        "district": "Senhor Dos Passos",
        "street": "Rua Bagda",
        "zipcode": "78048-320"
    },
    {
        "city": "Cuiaba",
        "state": "MT",
        "district": "Senhor Dos Passos",
        "street": "Rua Levante",
        "zipcode": "78048-820"
    },
    {
        "city": "Cuiaba",
        "state": "MT",
        "district": "Morada Do Ouro",
        "street": "Vila Um (Setor Centro",
        "zipcode": "78053-375"
    },
    {
        "city": "Cuiaba",
        "state": "MT",
        "district": "Bosque Da Saude",
        "street": "Rua Benedito Camargo (Leblon)",
        "zipcode": "78050-730"
    },
    {
        "city": "Cuiaba",
        "state": "MT",
        "district": "Bosque Da Saude",
        "street": "Rua G (Loblon)",
        "zipcode": "78050-830"
    },
    {
        "city": "Cuiaba",
        "state": "MT",
        "district": "Bosque Da Saude",
        "street": "Rua B (Leblon)",
        "zipcode": "78050-790"
    },
    {
        "city": "Cuiaba",
        "state": "MT",
        "district": "Carumbe",
        "street": "Rua Ciriaco Candia",
        "zipcode": "78050-590"
    },
    {
        "city": "Cuiaba",
        "state": "MT",
        "district": "Nucleo Habit Cpa",
        "street": "Rua Dezessete (Tancredo Neves)",
        "zipcode": "78053-720"
    },
    {
        "city": "Cuiaba",
        "state": "MT",
        "district": "Bosque Da Saude",
        "street": "Rua H",
        "zipcode": "78050-195"
    },
    {
        "city": "Cuiaba",
        "state": "MT",
        "district": "Nucleo Habit Cpa",
        "street": "Rua Cinco (Tancredo Neves)",
        "zipcode": "78053-690"
    },
    {
        "city": "Cuiaba",
        "state": "MT",
        "district": "Morada Do Ouro",
        "street": "Rua Sete (Setor Centro",
        "zipcode": "78053-330"
    },
    {
        "city": "Cuiaba",
        "state": "MT",
        "district": "Morada Do Ouro",
        "street": "Rua Sete (Setor Centro Norte)",
        "zipcode": "78053-480"
    },
    {
        "city": "Cuiaba",
        "state": "MT",
        "district": "Bela Vista",
        "street": "Rua G (Sao Roque)",
        "zipcode": "78050-564"
    },
    {
        "city": "Cuiaba",
        "state": "MT",
        "district": "Nucleo Habit Cpa",
        "street": "Rua Oito (Tancredo Neves)",
        "zipcode": "78053-745"
    },
    {
        "city": "Cuiaba",
        "state": "MT",
        "district": "Senhor Dos Passos",
        "street": "Rua Bruxelas",
        "zipcode": "78048-010"
    },
    {
        "city": "Cuiaba",
        "state": "MT",
        "district": "Senhor Dos Passos",
        "street": "Rua Paris",
        "zipcode": "78048-020"
    },
    {
        "city": "Cuiaba",
        "state": "MT",
        "district": "Nucleo Habit Cpa",
        "street": "Rua Nove (Tancredo Neves)",
        "zipcode": "78053-740"
    },
    {
        "city": "Cuiaba",
        "state": "MT",
        "district": "Nucleo Habit Cpa",
        "street": "Rua Quatro (Tancredo Neves)",
        "zipcode": "78053-755"
    },
    {
        "city": "Cuiaba",
        "state": "MT",
        "district": "Bosque Da Saude",
        "street": "Rua Dez (Leblon)",
        "zipcode": "78050-800"
    },
    {
        "city": "Cuiaba",
        "state": "MT",
        "district": "Nucleo Habit Cpa",
        "street": "Rua Dez (Tancredo Neves)",
        "zipcode": "78053-700"
    },
    {
        "city": "Cuiaba",
        "state": "MT",
        "district": "Carumbe",
        "street": "Rua Alvaro Migueis",
        "zipcode": "78050-580"
    },
    {
        "city": "Cuiaba",
        "state": "MT",
        "district": "Senhor Dos Passos",
        "street": "Rua Manoel S De Oliveira (Despraiado)",
        "zipcode": "78048-018"
    },
    {
        "city": "Cuiaba",
        "state": "MT",
        "district": "Nucleo Habit Cpa",
        "street": "Rua Trinta E Tres (Tancredo Neves)",
        "zipcode": "78053-800"
    },
    {
        "city": "Cuiaba",
        "state": "MT",
        "district": "Nucleo Habit Cpa",
        "street": "Avenida Brasil",
        "zipcode": "78055-330"
    },
    {
        "city": "Cuiaba",
        "state": "MT",
        "district": "Nucleo Habit Cpa",
        "street": "Rua Campanario",
        "zipcode": "78055-365"
    },
    {
        "city": "Cuiaba",
        "state": "MT",
        "district": "Nucleo Habit Cpa",
        "street": "Rua Tesouro",
        "zipcode": "78055-625"
    },
    {
        "city": "Cuiaba",
        "state": "MT",
        "district": "Nucleo Habit Cpa",
        "street": "Rua Acre",
        "zipcode": "78055-350"
    },
    {
        "city": "Cuiaba",
        "state": "MT",
        "district": "Nucleo Habit Cpa",
        "street": "Rua Piaui",
        "zipcode": "78055-655"
    },
    {
        "city": "Cuiaba",
        "state": "MT",
        "district": "Nucleo Habit Cpa",
        "street": "Rua Araguainha",
        "zipcode": "78055-355"
    },
    {
        "city": "Cuiaba",
        "state": "MT",
        "district": "Tres Barras",
        "street": "Estrada Jurumirim",
        "zipcode": "78058-538"
    },
    {
        "city": "Cuiaba",
        "state": "MT",
        "district": "Nucleo Habit Cpa",
        "street": "Rua Nova Xavantina",
        "zipcode": "78055-445"
    },
    {
        "city": "Cuiaba",
        "state": "MT",
        "district": "Tres Barras",
        "street": "Rua Seis",
        "zipcode": "78058-556"
    },
    {
        "city": "Cuiaba",
        "state": "MT",
        "district": "Nucleo Habit Cpa",
        "street": "Rua Barao De Melgaco",
        "zipcode": "78055-280"
    },
    {
        "city": "Cuiaba",
        "state": "MT",
        "district": "Tres Barras",
        "street": "Rua Onze (Jd Umuarama)",
        "zipcode": "78058-548"
    },
    {
        "city": "Cuiaba",
        "state": "MT",
        "district": "Tres Barras",
        "street": "Rua Dez (Jd Umuarama)",
        "zipcode": "78058-522"
    },
    {
        "city": "Cuiaba",
        "state": "MT",
        "district": "Tres Barras",
        "street": "Rua Oito",
        "zipcode": "78058-542"
    },
    {
        "city": "Cuiaba",
        "state": "MT",
        "district": "Nucleo Habit Cpa",
        "street": "Rua Rosario Oeste",
        "zipcode": "78055-590"
    },
    {
        "city": "Cuiaba",
        "state": "MT",
        "district": "Nucleo Habit Cpa",
        "street": "Rua Caceres",
        "zipcode": "78055-430"
    },
    {
        "city": "Cuiaba",
        "state": "MT",
        "district": "Nucleo Habit Cpa",
        "street": "Rua Barra Do Garcas",
        "zipcode": "78055-585"
    },
    {
        "city": "Cuiaba",
        "state": "MT",
        "district": "Nucleo Habit Cpa",
        "street": "Rua Itajuba",
        "zipcode": "78055-650"
    },
    {
        "city": "Cuiaba",
        "state": "MT",
        "district": "Nucleo Habit Cpa",
        "street": "Rua Bg (Ouro Fino)",
        "zipcode": "78055-665"
    },
    {
        "city": "Cuiaba",
        "state": "MT",
        "district": "Tres Barras",
        "street": "Avenida A",
        "zipcode": "78058-512"
    },
    {
        "city": "Cuiaba",
        "state": "MT",
        "district": "Tres Barras",
        "street": "Rua Cinco",
        "zipcode": "78058-516"
    },
    {
        "city": "Cuiaba",
        "state": "MT",
        "district": "Nucleo Habit Cpa",
        "street": "Rua Seis (Tancredo Neves)",
        "zipcode": "78053-765"
    },
    {
        "city": "Cuiaba",
        "state": "MT",
        "district": "Nucleo Habit Cpa",
        "street": "Rua Diamantino",
        "zipcode": "78055-595"
    },
    {
        "city": "Cuiaba",
        "state": "MT",
        "district": "Nucleo Habit Cpa",
        "street": "Rua Rondonopolis",
        "zipcode": "78055-145"
    },
    {
        "city": "Cuiaba",
        "state": "MT",
        "district": "Nucleo Habit Cpa",
        "street": "Rua Fontanilhas",
        "zipcode": "78055-370"
    },
    {
        "city": "Cuiaba",
        "state": "MT",
        "district": "Nucleo Habit Cpa",
        "street": "Rua Cuiaba",
        "zipcode": "78055-620"
    },
    {
        "city": "Cuiaba",
        "state": "MT",
        "district": "Nucleo Habit Cpa",
        "street": "Rua Juina",
        "zipcode": "78055-130"
    },
    {
        "city": "Cuiaba",
        "state": "MT",
        "district": "Nucleo Habit Cpa",
        "street": "Rua Alto Araguaia",
        "zipcode": "78055-420"
    },
    {
        "city": "Cuiaba",
        "state": "MT",
        "district": "Tres Barras",
        "street": "Rua Treze",
        "zipcode": "78058-568"
    },
    {
        "city": "Cuiaba",
        "state": "MT",
        "district": "Nucleo Habit Cpa",
        "street": "Rua General Carneiro",
        "zipcode": "78055-440"
    },
    {
        "city": "Cuiaba",
        "state": "MT",
        "district": "Nucleo Habit Cpa",
        "street": "Rua Poxoreo",
        "zipcode": "78055-463"
    },
    {
        "city": "Cuiaba",
        "state": "MT",
        "district": "Nucleo Habit Cpa",
        "street": "Rua Guiratinga",
        "zipcode": "78055-635"
    },
    {
        "city": "Cuiaba",
        "state": "MT",
        "district": "Nucleo Habit Cpa",
        "street": "Rua Vinte E Dois (Tancredo Neves)",
        "zipcode": "78053-825"
    },
    {
        "city": "Cuiaba",
        "state": "MT",
        "district": "Nucleo Habit Cpa",
        "street": "Rua Alto Garcas",
        "zipcode": "78055-275"
    },
    {
        "city": "Cuiaba",
        "state": "MT",
        "district": "Nucleo Habit Cpa",
        "street": "Rua Torixoreu",
        "zipcode": "78055-410"
    },
    {
        "city": "Cuiaba",
        "state": "MT",
        "district": "Nucleo Habit Cpa",
        "street": "Rua Juara",
        "zipcode": "78055-385"
    },
    {
        "city": "Cuiaba",
        "state": "MT",
        "district": "Nucleo Habit Cpa",
        "street": "Rua B (Cpa Iv)",
        "zipcode": "78058-074"
    },
    {
        "city": "Cuiaba",
        "state": "MT",
        "district": "Tres Barras",
        "street": "Rua Sete",
        "zipcode": "78058-560"
    },
    {
        "city": "Cuiaba",
        "state": "MT",
        "district": "Tres Barras",
        "street": "Rua Onze",
        "zipcode": "78058-546"
    },
    {
        "city": "Cuiaba",
        "state": "MT",
        "district": "Tres Barras",
        "street": "Rua Dezoito",
        "zipcode": "78058-530"
    },
    {
        "city": "Cuiaba",
        "state": "MT",
        "district": "Nucleo Habit Cpa",
        "street": "Rua Alto Paraguai",
        "zipcode": "78055-425"
    },
    {
        "city": "Cuiaba",
        "state": "MT",
        "district": "Nucleo Habit Cpa",
        "street": "Rua Porto Dos Gauchos",
        "zipcode": "78055-455"
    },
    {
        "city": "Cuiaba",
        "state": "MT",
        "district": "Tres Barras",
        "street": "Rua Doze",
        "zipcode": "78058-536"
    },
    {
        "city": "Cuiaba",
        "state": "MT",
        "district": "Nucleo Habit Cpa",
        "street": "Rua Nortelandia",
        "zipcode": "78055-300"
    },
    {
        "city": "Cuiaba",
        "state": "MT",
        "district": "Nucleo Habit Cpa",
        "street": "Rua Maceio",
        "zipcode": "78055-388"
    },
    {
        "city": "Cuiaba",
        "state": "MT",
        "district": "Tres Barras",
        "street": "Rua Trinta",
        "zipcode": "78058-570"
    },
    {
        "city": "Cuiaba",
        "state": "MT",
        "district": "Tres Barras",
        "street": "Rua Dezessete",
        "zipcode": "78058-528"
    },
    {
        "city": "Cuiaba",
        "state": "MT",
        "district": "Nucleo Habit Cpa",
        "street": "Rua Paranatinga",
        "zipcode": "78055-140"
    },
    {
        "city": "Cuiaba",
        "state": "MT",
        "district": "Nucleo Habit Cpa",
        "street": "Rua Mirassol Do Oeste",
        "zipcode": "78055-405"
    },
    {
        "city": "Cuiaba",
        "state": "MT",
        "district": "Tres Barras",
        "street": "Rua Seis (Jd Umuarama)",
        "zipcode": "78058-558"
    },
    {
        "city": "Cuiaba",
        "state": "MT",
        "district": "Tres Barras",
        "street": "Rua Cinco (Jd Umuarama)",
        "zipcode": "78058-518"
    },
    {
        "city": "Cuiaba",
        "state": "MT",
        "district": "Tres Barras",
        "street": "Rua Nove (Jd Umuarama)",
        "zipcode": "78058-540"
    },
    {
        "city": "Cuiaba",
        "state": "MT",
        "district": "Nucleo Habit Cpa",
        "street": "Rua Para",
        "zipcode": "78055-305"
    },
    {
        "city": "Cuiaba",
        "state": "MT",
        "district": "Nucleo Habit Cpa",
        "street": "Rua Santo Antonio Do Leverger",
        "zipcode": "78055-315"
    },
    {
        "city": "Cuiaba",
        "state": "MT",
        "district": "Nucleo Habit Cpa",
        "street": "Rua Itauba",
        "zipcode": "78055-375"
    },
    {
        "city": "Cuiaba",
        "state": "MT",
        "district": "Nucleo Habit Cpa",
        "street": "Rua Nossa Senhora Do Livramento",
        "zipcode": "78055-345"
    },
    {
        "city": "Cuiaba",
        "state": "MT",
        "district": "Nucleo Habit Cpa",
        "street": "Rua Parana",
        "zipcode": "78055-555"
    },
    {
        "city": "Cuiaba",
        "state": "MT",
        "district": "Tres Barras",
        "street": "Rua Quatro",
        "zipcode": "78058-550"
    },
    {
        "city": "Cuiaba",
        "state": "MT",
        "district": "Tres Barras",
        "street": "Rua Dezesseis",
        "zipcode": "78058-526"
    },
    {
        "city": "Cuiaba",
        "state": "MT",
        "district": "Nucleo Habit Cpa",
        "street": "Rua Aguapei",
        "zipcode": "78055-320"
    },
    {
        "city": "Cuiaba",
        "state": "MT",
        "district": "Nucleo Habit Cpa",
        "street": "Rua Tangara Da Serra",
        "zipcode": "78055-615"
    },
    {
        "city": "Cuiaba",
        "state": "MT",
        "district": "Nucleo Habit Cpa",
        "street": "Rua Nobres",
        "zipcode": "78055-135"
    },
    {
        "city": "Cuiaba",
        "state": "MT",
        "district": "Nucleo Habit Cpa",
        "street": "Rua Pernambuco",
        "zipcode": "78055-610"
    },
    {
        "city": "Cuiaba",
        "state": "MT",
        "district": "Planalto",
        "street": "Rua Cachimbo",
        "zipcode": "78058-672"
    },
    {
        "city": "Cuiaba",
        "state": "MT",
        "district": "Planalto",
        "street": "Rua Araripe",
        "zipcode": "78058-708"
    },
    {
        "city": "Cuiaba",
        "state": "MT",
        "district": "Nucleo Habit Cpa",
        "street": "Rua Xavantina",
        "zipcode": "78055-475"
    },
    {
        "city": "Cuiaba",
        "state": "MT",
        "district": "Planalto",
        "street": "Rua Fartura",
        "zipcode": "78058-702"
    },
    {
        "city": "Cuiaba",
        "state": "MT",
        "district": "Planalto",
        "street": "Rua Da (Novo Mato Grosso) Felicidade",
        "zipcode": "78058-762"
    },
    {
        "city": "Cuiaba",
        "state": "MT",
        "district": "Planalto",
        "street": "Beco Das (Novo Mato Grosso) Mangas",
        "zipcode": "78058-778"
    },
    {
        "city": "Cuiaba",
        "state": "MT",
        "district": "Planalto",
        "street": "Rua Monte Azul",
        "zipcode": "78058-680"
    },
    {
        "city": "Cuiaba",
        "state": "MT",
        "district": "Nucleo Habit Cpa",
        "street": "Rua Maranhao",
        "zipcode": "78055-485"
    },
    {
        "city": "Cuiaba",
        "state": "MT",
        "district": "Planalto",
        "street": "Rua Paranagua",
        "zipcode": "78058-698"
    },
    {
        "city": "Cuiaba",
        "state": "MT",
        "district": "Planalto",
        "street": "Rua Sete (Itamarati)",
        "zipcode": "78058-734"
    },
    {
        "city": "Cuiaba",
        "state": "MT",
        "district": "Nucleo Habit Cpa",
        "street": "Rua Porto Estrela",
        "zipcode": "78055-535"
    },
    {
        "city": "Cuiaba",
        "state": "MT",
        "district": "Planalto",
        "street": "Rua Minas Gerais (Novo Horizonte)",
        "zipcode": "78058-716"
    },
    {
        "city": "Cuiaba",
        "state": "MT",
        "district": "Nucleo Habit Cpa",
        "street": "Rua Roraima",
        "zipcode": "78055-480"
    },
    {
        "city": "Cuiaba",
        "state": "MT",
        "district": "Planalto",
        "street": "Travessa Dos Bandeirantes",
        "zipcode": "78058-772"
    },
    {
        "city": "Cuiaba",
        "state": "MT",
        "district": "Planalto",
        "street": "Avenida Dos Trabalhadores",
        "zipcode": "78058-700"
    },
    {
        "city": "Cuiaba",
        "state": "MT",
        "district": "Planalto",
        "street": "Rua Alaska",
        "zipcode": "78058-666"
    },
    {
        "city": "Cuiaba",
        "state": "MT",
        "district": "Planalto",
        "street": "Praça Dos (Novo Mato Grosso) Expedicionarios",
        "zipcode": "78058-777"
    },
    {
        "city": "Cuiaba",
        "state": "MT",
        "district": "Nucleo Habit Cpa",
        "street": "Rua Goias",
        "zipcode": "78055-493"
    },
    {
        "city": "Cuiaba",
        "state": "MT",
        "district": "Planalto",
        "street": "Rua Guaira",
        "zipcode": "78058-705"
    },
    {
        "city": "Cuiaba",
        "state": "MT",
        "district": "Planalto",
        "street": "Travessa Cangalhas",
        "zipcode": "78058-652"
    },
    {
        "city": "Cuiaba",
        "state": "MT",
        "district": "Nucleo Habit Cpa",
        "street": "Rua Alta Floresta",
        "zipcode": "78055-515"
    },
    {
        "city": "Cuiaba",
        "state": "MT",
        "district": "Planalto",
        "street": "Rua Joinville  (Novo Horizonte)",
        "zipcode": "78058-750"
    },
    {
        "city": "Cuiaba",
        "state": "MT",
        "district": "Nucleo Habit Cpa",
        "street": "Rua Santa Catarina",
        "zipcode": "78055-470"
    },
    {
        "city": "Cuiaba",
        "state": "MT",
        "district": "Tres Barras",
        "street": "Rua Vinte",
        "zipcode": "78058-582"
    },
    {
        "city": "Cuiaba",
        "state": "MT",
        "district": "Planalto",
        "street": "Rua Roncador",
        "zipcode": "78058-692"
    },
    {
        "city": "Cuiaba",
        "state": "MT",
        "district": "Nucleo Habit Cpa",
        "street": "Avenida Rondonia",
        "zipcode": "78055-473"
    },
    {
        "city": "Cuiaba",
        "state": "MT",
        "district": "Planalto",
        "street": "Avenida Sao Paulo (Novo Horizonte)",
        "zipcode": "78058-714"
    },
    {
        "city": "Cuiaba",
        "state": "MT",
        "district": "Planalto",
        "street": "Rua Olimpia",
        "zipcode": "78058-674"
    },
    {
        "city": "Cuiaba",
        "state": "MT",
        "district": "Planalto",
        "street": "Avenida Parecis",
        "zipcode": "78058-670"
    },
    {
        "city": "Cuiaba",
        "state": "MT",
        "district": "Planalto",
        "street": "Rua Jurumirim",
        "zipcode": "78058-735"
    },
    {
        "city": "Cuiaba",
        "state": "MT",
        "district": "Planalto",
        "street": "Rua Neblina",
        "zipcode": "78058-664"
    },
    {
        "city": "Cuiaba",
        "state": "MT",
        "district": "Carumbe",
        "street": "Travessa Realf",
        "zipcode": "78058-660"
    },
    {
        "city": "Cuiaba",
        "state": "MT",
        "district": "Planalto",
        "street": "Travessa Bandeira",
        "zipcode": "78058-662"
    },
    {
        "city": "Cuiaba",
        "state": "MT",
        "district": "Planalto",
        "street": "Rua Tabatinga",
        "zipcode": "78058-706"
    },
    {
        "city": "Cuiaba",
        "state": "MT",
        "district": "Planalto",
        "street": "Rua Curitiba (Novo Horizonte)",
        "zipcode": "78058-748"
    },
    {
        "city": "Cuiaba",
        "state": "MT",
        "district": "Tres Barras",
        "street": "Rua Quinze",
        "zipcode": "78058-554"
    },
    {
        "city": "Cuiaba",
        "state": "MT",
        "district": "Nucleo Habit Cpa",
        "street": "Rua Xingu",
        "zipcode": "78055-545"
    },
    {
        "city": "Cuiaba",
        "state": "MT",
        "district": "Planalto",
        "street": "Rua Bom Jardim (Novo Mato Grosso)",
        "zipcode": "78058-754"
    },
    {
        "city": "Cuiaba",
        "state": "MT",
        "district": "Planalto",
        "street": "Rua Ipiranga (Novo Mato Grosso)",
        "zipcode": "78058-766"
    },
    {
        "city": "Cuiaba",
        "state": "MT",
        "district": "Nucleo Habit Cpa",
        "street": "Avenida Rubens De Mendonca",
        "zipcode": "78055-500"
    },
    {
        "city": "Cuiaba",
        "state": "MT",
        "district": "Planalto",
        "street": "Rua A (Itamarati)",
        "zipcode": "78058-722"
    },
    {
        "city": "Cuiaba",
        "state": "MT",
        "district": "Planalto",
        "street": "Rua Parauna",
        "zipcode": "78058-694"
    },
    {
        "city": "Cuiaba",
        "state": "MT",
        "district": "Tres Barras",
        "street": "Rua Vinte E Cinco",
        "zipcode": "78058-584"
    },
    {
        "city": "Cuiaba",
        "state": "MT",
        "district": "Planalto",
        "street": "Rua Oito (Itamarati)",
        "zipcode": "78058-732"
    },
    {
        "city": "Cuiaba",
        "state": "MT",
        "district": "Planalto",
        "street": "Rua Cinco (Itamarati)",
        "zipcode": "78058-730"
    },
    {
        "city": "Cuiaba",
        "state": "MT",
        "district": "Planalto",
        "street": "Rua Atlas",
        "zipcode": "78058-654"
    },
    {
        "city": "Cuiaba",
        "state": "MT",
        "district": "Nucleo Habit Cpa",
        "street": "Rua Ceara",
        "zipcode": "78055-490"
    },
    {
        "city": "Cuiaba",
        "state": "MT",
        "district": "Nucleo Habit Cpa",
        "street": "Rua Sao Felix Do Araguaia",
        "zipcode": "78055-540"
    },
    {
        "city": "Cuiaba",
        "state": "MT",
        "district": "Planalto",
        "street": "Beco Minas Gerais (Novo Mato Grosso)",
        "zipcode": "78058-775"
    },
    {
        "city": "Cuiaba",
        "state": "MT",
        "district": "Planalto",
        "street": "Rua Pacaraima",
        "zipcode": "78058-658"
    },
    {
        "city": "Cuiaba",
        "state": "MT",
        "district": "Planalto",
        "street": "Rua Um (Itamarati)",
        "zipcode": "78058-726"
    },
    {
        "city": "Cuiaba",
        "state": "MT",
        "district": "Planalto",
        "street": "Rua Rio Branco (Novo Horizonte)",
        "zipcode": "78058-745"
    },
    {
        "city": "Cuiaba",
        "state": "MT",
        "district": "Nucleo Habit Cpa",
        "street": "Rua Nova Alvorada",
        "zipcode": "78055-525"
    },
    {
        "city": "Cuiaba",
        "state": "MT",
        "district": "Nucleo Habit Cpa",
        "street": "Rua Sao Paulo",
        "zipcode": "78055-505"
    },
    {
        "city": "Cuiaba",
        "state": "MT",
        "district": "Planalto",
        "street": "Rua Diadema (Novo Horizonte)",
        "zipcode": "78058-744"
    },
    {
        "city": "Cuiaba",
        "state": "MT",
        "district": "Planalto",
        "street": "Rua Piracicaba (Novo Horizonte)",
        "zipcode": "78058-752"
    },
    {
        "city": "Cuiaba",
        "state": "MT",
        "district": "Planalto",
        "street": "Rua Da (Novo Mato Grosso) Paz",
        "zipcode": "78058-760"
    },
    {
        "city": "Cuiaba",
        "state": "MT",
        "district": "Nucleo Habit Cpa",
        "street": "Rua Bs (Ouro Fino)",
        "zipcode": "78055-670"
    },
    {
        "city": "Cuiaba",
        "state": "MT",
        "district": "Planalto",
        "street": "Rua Flamengo (Novo Horizonte)",
        "zipcode": "78058-718"
    },
    {
        "city": "Cuiaba",
        "state": "MT",
        "district": "Planalto",
        "street": "Rua Quatro (Itamarati)",
        "zipcode": "78058-724"
    },
    {
        "city": "Cuiaba",
        "state": "MT",
        "district": "Planalto",
        "street": "Rua Mirador",
        "zipcode": "78058-678"
    },
    {
        "city": "Cuiaba",
        "state": "MT",
        "district": "Jardim Das Americas",
        "street": "Rua Paramaribo",
        "zipcode": "78060-020"
    },
    {
        "city": "Cuiaba",
        "state": "MT",
        "district": "Jardim Europa",
        "street": "Rua Romenia",
        "zipcode": "78065-840"
    },
    {
        "city": "Cuiaba",
        "state": "MT",
        "district": "Boa Esperanca",
        "street": "Rua Ricardo Franco Serra",
        "zipcode": "78068-570"
    },
    {
        "city": "Cuiaba",
        "state": "MT",
        "district": "Boa Esperanca",
        "street": "Rua Floriano Peixoto",
        "zipcode": "78068-580"
    },
    {
        "city": "Cuiaba",
        "state": "MT",
        "district": "Boa Esperanca",
        "street": "Rua Francisco De Paula",
        "zipcode": "78068-610"
    },
    {
        "city": "Cuiaba",
        "state": "MT",
        "district": "Jardim Das Americas",
        "street": "Rua La Paz",
        "zipcode": "78060-380"
    },
    {
        "city": "Cuiaba",
        "state": "MT",
        "district": "Jardim Das Americas",
        "street": "Rua Caracas",
        "zipcode": "78060-400"
    },
    {
        "city": "Cuiaba",
        "state": "MT",
        "district": "Jardim Das Americas",
        "street": "Rua Guaiaquil",
        "zipcode": "78060-625"
    },
    {
        "city": "Cuiaba",
        "state": "MT",
        "district": "Jardim Das Americas",
        "street": "Rua Antigua",
        "zipcode": "78060-640"
    },
    {
        "city": "Cuiaba",
        "state": "MT",
        "district": "Jardim Das Americas",
        "street": "Rua Guadalupe",
        "zipcode": "78060-645"
    },
    {
        "city": "Cuiaba",
        "state": "MT",
        "district": "Jardim Das Americas",
        "street": "Rua Acapulco",
        "zipcode": "78060-670"
    },
    {
        "city": "Cuiaba",
        "state": "MT",
        "district": "Jardim Das Americas",
        "street": "Rua Puebla",
        "zipcode": "78060-675"
    },
    {
        "city": "Cuiaba",
        "state": "MT",
        "district": "Jardim Tropical",
        "street": "Rua Mexico",
        "zipcode": "78065-122"
    },
    {
        "city": "Cuiaba",
        "state": "MT",
        "district": "Santo Antonio Do Pedregal",
        "street": "Rua D",
        "zipcode": "78060-824"
    },
    {
        "city": "Cuiaba",
        "state": "MT",
        "district": "Santo Antonio Do Pedregal",
        "street": "Rua F (Jd Leblon)",
        "zipcode": "78060-120"
    },
    {
        "city": "Cuiaba",
        "state": "MT",
        "district": "Santo Antonio Do Pedregal",
        "street": "Rua G (Jd Leblon)",
        "zipcode": "78060-230"
    },
    {
        "city": "Cuiaba",
        "state": "MT",
        "district": "Jardim Tropical",
        "street": "Avenida Paraguassu (Sao Benedito)",
        "zipcode": "78065-210"
    },
    {
        "city": "Cuiaba",
        "state": "MT",
        "district": "Santo Antonio Do Pedregal",
        "street": "Rua Sete (Jd Leblon)",
        "zipcode": "78060-180"
    },
    {
        "city": "Cuiaba",
        "state": "MT",
        "district": "Jardim Das Americas",
        "street": "Rua Valparaiso",
        "zipcode": "78060-500"
    },
    {
        "city": "Cuiaba",
        "state": "MT",
        "district": "Boa Esperanca",
        "street": "Avenida Alziro Zarur (Um)",
        "zipcode": "78068-000"
    },
    {
        "city": "Cuiaba",
        "state": "MT",
        "district": "Boa Esperanca",
        "street": "Rua Governador Joao Ponce De Arruda",
        "zipcode": "78068-470"
    },
    {
        "city": "Cuiaba",
        "state": "MT",
        "district": "Santo Antonio Do Pedregal",
        "street": "Rua Nove (Jd Leblon)",
        "zipcode": "78060-150"
    },
    {
        "city": "Cuiaba",
        "state": "MT",
        "district": "Santo Antonio Do Pedregal",
        "street": "Rua Dez",
        "zipcode": "78060-805"
    },
    {
        "city": "Cuiaba",
        "state": "MT",
        "district": "Boa Esperanca",
        "street": "Rua Antonio Alves De Barros",
        "zipcode": "78068-530"
    },
    {
        "city": "Cuiaba",
        "state": "MT",
        "district": "Jardim Das Americas",
        "street": "Avenida Brasilia",
        "zipcode": "78060-200"
    },
    {
        "city": "Cuiaba",
        "state": "MT",
        "district": "Jardim Tropical",
        "street": "Rua Tiradentes (Sao Benedito)",
        "zipcode": "78065-200"
    },
    {
        "city": "Cuiaba",
        "state": "MT",
        "district": "Jardim Das Americas",
        "street": "Rua Guadalajara",
        "zipcode": "78060-220"
    },
    {
        "city": "Cuiaba",
        "state": "MT",
        "district": "Jardim Das Americas",
        "street": "Rua Havana",
        "zipcode": "78060-190"
    },
    {
        "city": "Cuiaba",
        "state": "MT",
        "district": "Jardim Tropical",
        "street": "Praça Paris",
        "zipcode": "78065-128"
    },
    {
        "city": "Cuiaba",
        "state": "MT",
        "district": "Morada Dos Nobres",
        "street": "Rua Ravenna (Jd Italia)",
        "zipcode": "78060-608"
    },
    {
        "city": "Cuiaba",
        "state": "MT",
        "district": "Planalto",
        "street": "Beco Tocantins (Novo Mato Grosso)",
        "zipcode": "78058-788"
    },
    {
        "city": "Cuiaba",
        "state": "MT",
        "district": "Jardim Das Americas",
        "street": "Rua Kingston",
        "zipcode": "78060-660"
    },
    {
        "city": "Cuiaba",
        "state": "MT",
        "district": "Jardim Das Americas",
        "street": "Rua Santiago",
        "zipcode": "78060-240"
    },
    {
        "city": "Cuiaba",
        "state": "MT",
        "district": "Morada Dos Nobres",
        "street": "Rua Dom Joao Vi",
        "zipcode": "78068-120"
    },
    {
        "city": "Cuiaba",
        "state": "MT",
        "district": "Boa Esperanca",
        "street": "Rua Presidente Alvaro Marcondes",
        "zipcode": "78068-490"
    },
    {
        "city": "Cuiaba",
        "state": "MT",
        "district": "Morada Dos Nobres",
        "street": "Rua Palermo (Jd Italia)",
        "zipcode": "78060-700"
    },
    {
        "city": "Cuiaba",
        "state": "MT",
        "district": "Santo Antonio Do Pedregal",
        "street": "Rua C",
        "zipcode": "78060-815"
    },
    {
        "city": "Cuiaba",
        "state": "MT",
        "district": "Planalto",
        "street": "Rua Varzea Bonita (Novo Horizonte)",
        "zipcode": "78058-784"
    },
    {
        "city": "Cuiaba",
        "state": "MT",
        "district": "Santo Antonio Do Pedregal",
        "street": "Rua M (Jd Leblon)",
        "zipcode": "78060-050"
    },
    {
        "city": "Cuiaba",
        "state": "MT",
        "district": "Boa Esperanca",
        "street": "Rua Caetano De Albuquerque",
        "zipcode": "78068-550"
    },
    {
        "city": "Cuiaba",
        "state": "MT",
        "district": "Boa Esperanca",
        "street": "Rua Jari Gomes",
        "zipcode": "78068-480"
    },
    {
        "city": "Cuiaba",
        "state": "MT",
        "district": "Morada Dos Nobres",
        "street": "Rua Perugia (Jd Italia)",
        "zipcode": "78060-605"
    },
    {
        "city": "Cuiaba",
        "state": "MT",
        "district": "Jardim Das Americas",
        "street": "Rua Montevideo",
        "zipcode": "78060-300"
    },
    {
        "city": "Cuiaba",
        "state": "MT",
        "district": "Jardim Das Americas",
        "street": "Rua Managua",
        "zipcode": "78060-130"
    },
    {
        "city": "Cuiaba",
        "state": "MT",
        "district": "Boa Esperanca",
        "street": "Rua Presidente Antonio Francisco Melo Rego",
        "zipcode": "78068-400"
    },
    {
        "city": "Cuiaba",
        "state": "MT",
        "district": "Morada Dos Nobres",
        "street": "Rua Carrara (Jd Italia)",
        "zipcode": "78060-710"
    },
    {
        "city": "Cuiaba",
        "state": "MT",
        "district": "Jardim Tropical",
        "street": "Rua Republica Da Argentina",
        "zipcode": "78065-118"
    },
    {
        "city": "Cuiaba",
        "state": "MT",
        "district": "Morada Dos Nobres",
        "street": "Rua Princesa Leopoldina",
        "zipcode": "78068-140"
    },
    {
        "city": "Cuiaba",
        "state": "MT",
        "district": "Boa Esperanca",
        "street": "Rua Generoso Ponce",
        "zipcode": "78068-525"
    },
    {
        "city": "Cuiaba",
        "state": "MT",
        "district": "Jardim Tropical",
        "street": "Praça Madrid",
        "zipcode": "78065-110"
    },
    {
        "city": "Cuiaba",
        "state": "MT",
        "district": "Santo Antonio Do Pedregal",
        "street": "Rua A",
        "zipcode": "78060-785"
    },
    {
        "city": "Cuiaba",
        "state": "MT",
        "district": "Jardim Petropolis",
        "street": "Rua Onze",
        "zipcode": "78070-825"
    },
    {
        "city": "Cuiaba",
        "state": "MT",
        "district": "Pedregal",
        "street": "Rodovia Jornalista Arquimedes Pereira Lima",
        "zipcode": "78060-580"
    },
    {
        "city": "Cuiaba",
        "state": "MT",
        "district": "Santo Antonio Do Pedregal",
        "street": "Rua H (Jd Leblon)",
        "zipcode": "78060-110"
    },
    {
        "city": "Cuiaba",
        "state": "MT",
        "district": "Jardim Das Americas",
        "street": "Rua Otawa",
        "zipcode": "78060-620"
    },
    {
        "city": "Cuiaba",
        "state": "MT",
        "district": "Boa Esperanca",
        "street": "Rua Joaquim Da Costa Marques",
        "zipcode": "78068-540"
    },
    {
        "city": "Cuiaba",
        "state": "MT",
        "district": "Santo Antonio Do Pedregal",
        "street": "Rua Nova (Jd Leblon)",
        "zipcode": "78060-030"
    },
    {
        "city": "Cuiaba",
        "state": "MT",
        "district": "Boa Esperanca",
        "street": "Rua Presidente Miranda Reis",
        "zipcode": "78068-500"
    },
    {
        "city": "Cuiaba",
        "state": "MT",
        "district": "Boa Esperanca",
        "street": "Rua Coronel Newton Cavalcante",
        "zipcode": "78068-630"
    },
    {
        "city": "Cuiaba",
        "state": "MT",
        "district": "Boa Esperanca",
        "street": "Rua Anibal De Toledo",
        "zipcode": "78068-830"
    },
    {
        "city": "Cuiaba",
        "state": "MT",
        "district": "Boa Esperanca",
        "street": "Rua Dezesseis",
        "zipcode": "78068-832"
    },
    {
        "city": "Cuiaba",
        "state": "MT",
        "district": "Boa Esperanca",
        "street": "Rua Vinte",
        "zipcode": "78068-836"
    },
    {
        "city": "Cuiaba",
        "state": "MT",
        "district": "Jardim California",
        "street": "Rua Pedregal",
        "zipcode": "78070-280"
    },
    {
        "city": "Cuiaba",
        "state": "MT",
        "district": "Coophema",
        "street": "Rua Joinville",
        "zipcode": "78085-070"
    },
    {
        "city": "Cuiaba",
        "state": "MT",
        "district": "Coophema",
        "street": "Travessa Vacaria",
        "zipcode": "78085-065"
    },
    {
        "city": "Cuiaba",
        "state": "MT",
        "district": "Boa Esperanca",
        "street": "Rua Z",
        "zipcode": "78068-805"
    },
    {
        "city": "Cuiaba",
        "state": "MT",
        "district": "Boa Esperanca",
        "street": "Rua Pedro Celestino Da Costa",
        "zipcode": "78068-782"
    },
    {
        "city": "Cuiaba",
        "state": "MT",
        "district": "Jardim Petropolis",
        "street": "Rua Araruama",
        "zipcode": "78070-740"
    },
    {
        "city": "Cuiaba",
        "state": "MT",
        "district": "Jardim California",
        "street": "Rua Vinte E Quatro De Agosto",
        "zipcode": "78070-282"
    },
    {
        "city": "Cuiaba",
        "state": "MT",
        "district": "Jardim Das Palmeiras",
        "street": "Rua Sao Joao",
        "zipcode": "78080-267"
    },
    {
        "city": "Cuiaba",
        "state": "MT",
        "district": "Horto Florestal",
        "street": "Travessa Parana (Lucinopolis)",
        "zipcode": "78085-025"
    },
    {
        "city": "Cuiaba",
        "state": "MT",
        "district": "Boa Esperanca",
        "street": "Rua Quarenta E Sete",
        "zipcode": "78068-850"
    },
    {
        "city": "Cuiaba",
        "state": "MT",
        "district": "Boa Esperanca",
        "street": "Rua Dr Estevao Correa",
        "zipcode": "78068-728"
    },
    {
        "city": "Cuiaba",
        "state": "MT",
        "district": "Boa Esperanca",
        "street": "Rua S",
        "zipcode": "78068-825"
    },
    {
        "city": "Cuiaba",
        "state": "MT",
        "district": "Jardim Paulista",
        "street": "Rua Natalino Fontes",
        "zipcode": "78065-286"
    },
    {
        "city": "Cuiaba",
        "state": "MT",
        "district": "Jardim Paulista",
        "street": "Rua Amazonas",
        "zipcode": "78065-240"
    },
    {
        "city": "Cuiaba",
        "state": "MT",
        "district": "Jardim Tropical",
        "street": "Rua Santos Dumont (Sao Benedito)",
        "zipcode": "78065-215"
    },
    {
        "city": "Cuiaba",
        "state": "MT",
        "district": "Boa Esperanca",
        "street": "Rua Governador M. De Medeiros Mallet",
        "zipcode": "78068-395"
    },
    {
        "city": "Cuiaba",
        "state": "MT",
        "district": "Jardim Petropolis",
        "street": "Rua Seis",
        "zipcode": "78070-828"
    },
    {
        "city": "Cuiaba",
        "state": "MT",
        "district": "Boa Esperanca",
        "street": "Rua Fenelon Muller",
        "zipcode": "78068-640"
    },
    {
        "city": "Cuiaba",
        "state": "MT",
        "district": "Coophema",
        "street": "Rua Lourival Hugueney",
        "zipcode": "78085-075"
    },
    {
        "city": "Cuiaba",
        "state": "MT",
        "district": "Chacara Dos Pinheiros",
        "street": "Rua X",
        "zipcode": "78080-110"
    },
    {
        "city": "Cuiaba",
        "state": "MT",
        "district": "Jardim Paulista",
        "street": "Rua Piaui",
        "zipcode": "78065-245"
    },
    {
        "city": "Cuiaba",
        "state": "MT",
        "district": "Jardim California",
        "street": "Rua San Rafael (Praieiro)",
        "zipcode": "78070-690"
    },
    {
        "city": "Cuiaba",
        "state": "MT",
        "district": "Boa Esperanca",
        "street": "Rua Trinta E Tres",
        "zipcode": "78068-810"
    },
    {
        "city": "Cuiaba",
        "state": "MT",
        "district": "Jardim Petropolis",
        "street": "Praça Nossa Senhora Da Paz",
        "zipcode": "78070-730"
    },
    {
        "city": "Cuiaba",
        "state": "MT",
        "district": "Santa Cruz",
        "street": "Rodovia Jornalista Arquimedes Pereira Lima",
        "zipcode": "78068-858"
    },
    {
        "city": "Cuiaba",
        "state": "MT",
        "district": "Coophema",
        "street": "Rua Blumenau",
        "zipcode": "78085-080"
    },
    {
        "city": "Cuiaba",
        "state": "MT",
        "district": "Jardim California",
        "street": "Rua Dezesseis",
        "zipcode": "78070-702"
    },
    {
        "city": "Cuiaba",
        "state": "MT",
        "district": "Jardim California",
        "street": "Rua Solem",
        "zipcode": "78070-810"
    },
    {
        "city": "Cuiaba",
        "state": "MT",
        "district": "Coophema",
        "street": "Rua Solimoes (Jd Aquario)",
        "zipcode": "78085-140"
    },
    {
        "city": "Cuiaba",
        "state": "MT",
        "district": "Boa Esperanca",
        "street": "Rua Joao Poupino",
        "zipcode": "78068-740"
    },
    {
        "city": "Cuiaba",
        "state": "MT",
        "district": "Coophema",
        "street": "Rua Japura (Jd Aquario)",
        "zipcode": "78085-120"
    },
    {
        "city": "Cuiaba",
        "state": "MT",
        "district": "Boa Esperanca",
        "street": "Rua B",
        "zipcode": "78068-532"
    },
    {
        "city": "Cuiaba",
        "state": "MT",
        "district": "Coophema",
        "street": "Rua Itumbiara",
        "zipcode": "78085-050"
    },
    {
        "city": "Cuiaba",
        "state": "MT",
        "district": "Boa Esperanca",
        "street": "Rua Tres (Santorini)",
        "zipcode": "78068-726"
    },
    {
        "city": "Cuiaba",
        "state": "MT",
        "district": "Boa Esperanca",
        "street": "Rua D",
        "zipcode": "78068-815"
    },
    {
        "city": "Cuiaba",
        "state": "MT",
        "district": "Chacara Dos Pinheiros",
        "street": "Rua Santa Maria",
        "zipcode": "78080-190"
    },
    {
        "city": "Cuiaba",
        "state": "MT",
        "district": "Jardim California",
        "street": "Rua Hollywood",
        "zipcode": "78070-800"
    },
    {
        "city": "Cuiaba",
        "state": "MT",
        "district": "Boa Esperanca",
        "street": "Rua Quatro (Santorini)",
        "zipcode": "78068-724"
    },
    {
        "city": "Cuiaba",
        "state": "MT",
        "district": "Horto Florestal",
        "street": "Avenida Mato Grosso (Lucinopolis)",
        "zipcode": "78085-020"
    },
    {
        "city": "Cuiaba",
        "state": "MT",
        "district": "Coophema",
        "street": "Rua Madeira (Jd Aquario)",
        "zipcode": "78085-130"
    },
    {
        "city": "Cuiaba",
        "state": "MT",
        "district": "Jardim California",
        "street": "Rua Quinze",
        "zipcode": "78070-760"
    },
    {
        "city": "Cuiaba",
        "state": "MT",
        "district": "Jardim California",
        "street": "Rua C (Praeiro)",
        "zipcode": "78070-485"
    },
    {
        "city": "Cuiaba",
        "state": "MT",
        "district": "Jardim California",
        "street": "Rua Z",
        "zipcode": "78070-285"
    },
    {
        "city": "Cuiaba",
        "state": "MT",
        "district": "Santa Cruz",
        "street": "Rua Vinte E Trez (Recanto Dos Passaros)",
        "zipcode": "78075-665"
    },
    {
        "city": "Cuiaba",
        "state": "MT",
        "district": "Boa Esperanca",
        "street": "Rua Manoel De Abreu Mendes",
        "zipcode": "78068-770"
    },
    {
        "city": "Cuiaba",
        "state": "MT",
        "district": "Jardim Das Palmeiras",
        "street": "Rua Nossa Senhora Dos Navegantes",
        "zipcode": "78080-260"
    },
    {
        "city": "Cuiaba",
        "state": "MT",
        "district": "Coxipo Da Ponte",
        "street": "Avenida Fernando Correa Da Costa",
        "zipcode": "78070-001"
    },
    {
        "city": "Cuiaba",
        "state": "MT",
        "district": "Boa Esperanca",
        "street": "Rua Dois (Santorini)",
        "zipcode": "78068-722"
    },
    {
        "city": "Cuiaba",
        "state": "MT",
        "district": "Jardim California",
        "street": "Rua Treze",
        "zipcode": "78070-785"
    },
    {
        "city": "Cuiaba",
        "state": "MT",
        "district": "Jardim California",
        "street": "Rua Arizona",
        "zipcode": "78070-770"
    },
    {
        "city": "Cuiaba",
        "state": "MT",
        "district": "Jardim Paulista",
        "street": "Avenida Governador Jose Fragelli",
        "zipcode": "78065-270"
    },
    {
        "city": "Cuiaba",
        "state": "MT",
        "district": "Boa Esperanca",
        "street": "Rua Dr Mario Correa Da Costa",
        "zipcode": "78068-854"
    },
    {
        "city": "Cuiaba",
        "state": "MT",
        "district": "Grande Terceiro",
        "street": "Rua Botafogo (Campos Elizeos)",
        "zipcode": "78065-740"
    },
    {
        "city": "Cuiaba",
        "state": "MT",
        "district": "Jardim California",
        "street": "Rua W",
        "zipcode": "78070-700"
    },
    {
        "city": "Cuiaba",
        "state": "MT",
        "district": "Jardim Tropical",
        "street": "Rua Sao Benedito (Sao Benedito)",
        "zipcode": "78065-225"
    },
    {
        "city": "Cuiaba",
        "state": "MT",
        "district": "Grande Terceiro",
        "street": "Rua Rio Sao Lourenco",
        "zipcode": "78065-735"
    },
    {
        "city": "Cuiaba",
        "state": "MT",
        "district": "Boa Esperanca",
        "street": "Rua Trinta E Cinco",
        "zipcode": "78068-840"
    },
    {
        "city": "Cuiaba",
        "state": "MT",
        "district": "Nossa Senhora Aparecida",
        "street": "Rua F",
        "zipcode": "78090-535"
    },
    {
        "city": "Cuiaba",
        "state": "MT",
        "district": "Coophema",
        "street": "Rua Embauba (Jd Gramado)",
        "zipcode": "78085-800"
    },
    {
        "city": "Cuiaba",
        "state": "MT",
        "district": "Santa Cruz",
        "street": "Rodovia Jornalista Arquimedes Pereira Lima",
        "zipcode": "78075-660"
    },
    {
        "city": "Cuiaba",
        "state": "MT",
        "district": "Coophema",
        "street": "Rua Imburana (Jd Gramado)",
        "zipcode": "78085-808"
    },
    {
        "city": "Cuiaba",
        "state": "MT",
        "district": "Boa Esperanca",
        "street": "Rua L",
        "zipcode": "78068-792"
    },
    {
        "city": "Cuiaba",
        "state": "MT",
        "district": "Nossa Senhora Aparecida",
        "street": "Rua Dois (Jd Buriti)",
        "zipcode": "78090-492"
    },
    {
        "city": "Cuiaba",
        "state": "MT",
        "district": "Nossa Senhora Aparecida",
        "street": "Travessa Y (25)",
        "zipcode": "78090-544"
    },
    {
        "city": "Cuiaba",
        "state": "MT",
        "district": "Coophema",
        "street": "Rua Faveira (Jd Gramado)",
        "zipcode": "78085-802"
    },
    {
        "city": "Cuiaba",
        "state": "MT",
        "district": "Nossa Senhora Aparecida",
        "street": "Rua Quatro (Jd Paraiso)",
        "zipcode": "78090-465"
    },
    {
        "city": "Cuiaba",
        "state": "MT",
        "district": "Nossa Senhora Aparecida",
        "street": "Rua C",
        "zipcode": "78090-550"
    },
    {
        "city": "Cuiaba",
        "state": "MT",
        "district": "Resindencial Coxipo",
        "street": "Rua Dois (Jd Santana)",
        "zipcode": "78090-190"
    },
    {
        "city": "Cuiaba",
        "state": "MT",
        "district": "Altos Do Coxipo",
        "street": "Avenida A",
        "zipcode": "78088-500"
    },
    {
        "city": "Cuiaba",
        "state": "MT",
        "district": "Coophema",
        "street": "Rua Cajarana (Jd Gramado)",
        "zipcode": "78085-796"
    },
    {
        "city": "Cuiaba",
        "state": "MT",
        "district": "Altos Do Coxipo",
        "street": "Rua Y",
        "zipcode": "78090-546"
    },
    {
        "city": "Cuiaba",
        "state": "MT",
        "district": "Nossa Senhora Aparecida",
        "street": "Rua P",
        "zipcode": "78090-502"
    },
    {
        "city": "Cuiaba",
        "state": "MT",
        "district": "Nossa Senhora Aparecida",
        "street": "Rua Sete (Jd Paraiso)",
        "zipcode": "78090-435"
    },
    {
        "city": "Cuiaba",
        "state": "MT",
        "district": "Nossa Senhora Aparecida",
        "street": "Rua U",
        "zipcode": "78090-608"
    },
    {
        "city": "Cuiaba",
        "state": "MT",
        "district": "Coophema",
        "street": "Rua Presidente Prudente",
        "zipcode": "78085-180"
    },
    {
        "city": "Cuiaba",
        "state": "MT",
        "district": "Coophema",
        "street": "Rua Bartolomeu De Amorim (Jd Gramado)",
        "zipcode": "78085-806"
    },
    {
        "city": "Cuiaba",
        "state": "MT",
        "district": "Jardim California",
        "street": "Rua Tres",
        "zipcode": "78070-312"
    },
    {
        "city": "Cuiaba",
        "state": "MT",
        "district": "Resindencial Coxipo",
        "street": "Rua Sete (Jd Santana)",
        "zipcode": "78090-250"
    },
    {
        "city": "Cuiaba",
        "state": "MT",
        "district": "Nossa Senhora Aparecida",
        "street": "Rua Tres (Jd Paraiso)",
        "zipcode": "78090-455"
    },
    {
        "city": "Cuiaba",
        "state": "MT",
        "district": "Coophema",
        "street": "Rua Inga (Jd Gramado)",
        "zipcode": "78085-828"
    },
    {
        "city": "Cuiaba",
        "state": "MT",
        "district": "Jardim Alencastro",
        "street": "Rua Tres",
        "zipcode": "78085-620"
    },
    {
        "city": "Cuiaba",
        "state": "MT",
        "district": "Jardim Alencastro",
        "street": "Rua Dois",
        "zipcode": "78085-610"
    },
    {
        "city": "Cuiaba",
        "state": "MT",
        "district": "Nossa Senhora Aparecida",
        "street": "Rua D",
        "zipcode": "78090-430"
    },
    {
        "city": "Cuiaba",
        "state": "MT",
        "district": "Coophema",
        "street": "Rua Piuva (Jd Gramado)",
        "zipcode": "78085-830"
    },
    {
        "city": "Cuiaba",
        "state": "MT",
        "district": "Coophema",
        "street": "Rua Tremembe",
        "zipcode": "78085-190"
    },
    {
        "city": "Cuiaba",
        "state": "MT",
        "district": "Coophema",
        "street": "Rua E (Enzor Ricci)",
        "zipcode": "78085-508"
    },
    {
        "city": "Cuiaba",
        "state": "MT",
        "district": "Coophema",
        "street": "Rua Lixeira (Jd Gramado)",
        "zipcode": "78085-820"
    },
    {
        "city": "Cuiaba",
        "state": "MT",
        "district": "Coophema",
        "street": "Rua Anapolis",
        "zipcode": "78085-280"
    },
    {
        "city": "Cuiaba",
        "state": "MT",
        "district": "Coophema",
        "street": "Rua Republica",
        "zipcode": "78085-210"
    },
    {
        "city": "Cuiaba",
        "state": "MT",
        "district": "Jardim Alencastro",
        "street": "Rua Um",
        "zipcode": "78085-590"
    },
    {
        "city": "Cuiaba",
        "state": "MT",
        "district": "Coophema",
        "street": "Rua Maringa",
        "zipcode": "78085-240"
    },
    {
        "city": "Cuiaba",
        "state": "MT",
        "district": "Resindencial Coxipo",
        "street": "Rua Onze (Jd Santana)",
        "zipcode": "78090-220"
    },
    {
        "city": "Cuiaba",
        "state": "MT",
        "district": "Coophema",
        "street": "Rua Lucinopolis",
        "zipcode": "78085-270"
    },
    {
        "city": "Cuiaba",
        "state": "MT",
        "district": "Coophema",
        "street": "Rua Bocaiuva (Jd Gramado)",
        "zipcode": "78085-818"
    },
    {
        "city": "Cuiaba",
        "state": "MT",
        "district": "Jardim Alencastro",
        "street": "Rua Quatro",
        "zipcode": "78085-630"
    },
    {
        "city": "Cuiaba",
        "state": "MT",
        "district": "Nossa Senhora Aparecida",
        "street": "Rodovia Palmiro Paes De Barros",
        "zipcode": "78090-200"
    },
    {
        "city": "Cuiaba",
        "state": "MT",
        "district": "Altos Do Coxipo",
        "street": "Rua Francisco Pedroso Da Silva (W)",
        "zipcode": "78088-670"
    },
    {
        "city": "Cuiaba",
        "state": "MT",
        "district": "Nossa Senhora Aparecida",
        "street": "Rua Cinco (Jd Buriti)",
        "zipcode": "78090-490"
    },
    {
        "city": "Cuiaba",
        "state": "MT",
        "district": "Coophema",
        "street": "Rua Nove (Jd Gramado)",
        "zipcode": "78085-335"
    },
    {
        "city": "Cuiaba",
        "state": "MT",
        "district": "Coophema",
        "street": "Rua Mangabeira (Jd Gramado)",
        "zipcode": "78085-816"
    },
    {
        "city": "Cuiaba",
        "state": "MT",
        "district": "Coophema",
        "street": "Rua Taubate",
        "zipcode": "78085-790"
    },
    {
        "city": "Cuiaba",
        "state": "MT",
        "district": "Coophema",
        "street": "Rua Angelin (Jd Gramado)",
        "zipcode": "78085-826"
    },
    {
        "city": "Cuiaba",
        "state": "MT",
        "district": "Nossa Senhora Aparecida",
        "street": "Rua B (Jd Paraiso)",
        "zipcode": "78090-460"
    },
    {
        "city": "Cuiaba",
        "state": "MT",
        "district": "Nossa Senhora Aparecida",
        "street": "Rua H",
        "zipcode": "78090-510"
    },
    {
        "city": "Cuiaba",
        "state": "MT",
        "district": "Resindencial Coxipo",
        "street": "Rua Oito (Jd Santana)",
        "zipcode": "78090-265"
    },
    {
        "city": "Cuiaba",
        "state": "MT",
        "district": "Coophema",
        "street": "Rua Jaborandi (Jd Gramado)",
        "zipcode": "78085-814"
    },
    {
        "city": "Cuiaba",
        "state": "MT",
        "district": "Jardim Alencastro",
        "street": "Rua Cinco",
        "zipcode": "78085-640"
    },
    {
        "city": "Cuiaba",
        "state": "MT",
        "district": "Nossa Senhora Aparecida",
        "street": "Rua Oito (Jd Paraiso)",
        "zipcode": "78090-480"
    },
    {
        "city": "Cuiaba",
        "state": "MT",
        "district": "Osmar Cabral",
        "street": "Rua Um",
        "zipcode": "78090-610"
    },
    {
        "city": "Cuiaba",
        "state": "MT",
        "district": "Nossa Senhora Aparecida",
        "street": "Rua K",
        "zipcode": "78090-542"
    },
    {
        "city": "Cuiaba",
        "state": "MT",
        "district": "Nossa Senhora Aparecida",
        "street": "Rua Dois (Jd Paraiso)",
        "zipcode": "78090-445"
    },
    {
        "city": "Cuiaba",
        "state": "MT",
        "district": "Coophema",
        "street": "Rua Aroeira (Jd Gramado)",
        "zipcode": "78085-810"
    },
    {
        "city": "Cuiaba",
        "state": "MT",
        "district": "Nossa Senhora Aparecida",
        "street": "Rua B",
        "zipcode": "78090-570"
    },
    {
        "city": "Cuiaba",
        "state": "MT",
        "district": "Resindencial Coxipo",
        "street": "Rua Dez (Jd Santana)",
        "zipcode": "78090-210"
    },
    {
        "city": "Cuiaba",
        "state": "MT",
        "district": "Nossa Senhora Aparecida",
        "street": "Rua Dez (Jd Comodoro)",
        "zipcode": "78090-753"
    },
    {
        "city": "Cuiaba",
        "state": "MT",
        "district": "Nossa Senhora Aparecida",
        "street": "Rua Tres (Jd Hawai)",
        "zipcode": "78090-747"
    },
    {
        "city": "Cuiaba",
        "state": "MT",
        "district": "Nossa Senhora Aparecida",
        "street": "Rua Cinco (Jd Hawai)",
        "zipcode": "78090-742"
    },
    {
        "city": "Cuiaba",
        "state": "MT",
        "district": "Resindencial Coxipo",
        "street": "Rua J",
        "zipcode": "78090-760"
    },
    {
        "city": "Cuiaba",
        "state": "MT",
        "district": "Resindencial Coxipo",
        "street": "Rua H",
        "zipcode": "78090-758"
    },
    {
        "city": "Cuiaba",
        "state": "MT",
        "district": "Nossa Senhora Aparecida",
        "street": "Rua Seis (Jd Hawai)",
        "zipcode": "78090-746"
    },
    {
        "city": "Cuiaba",
        "state": "MT",
        "district": "Sao Goncalo",
        "street": "Rua Vinte E Nove",
        "zipcode": "78090-616"
    },
    {
        "city": "Cuiaba",
        "state": "MT",
        "district": "Resindencial Coxipo",
        "street": "Rua Dez (Res Itapaje)",
        "zipcode": "78090-786"
    },
    {
        "city": "Cuiaba",
        "state": "MT",
        "district": "Sao Goncalo",
        "street": "Rua I (Jd Mossoro)",
        "zipcode": "78090-653"
    },
    {
        "city": "Cuiaba",
        "state": "MT",
        "district": "Sao Goncalo",
        "street": "Rua F (Jd Mossoro)",
        "zipcode": "78090-645"
    },
    {
        "city": "Cuiaba",
        "state": "MT",
        "district": "Sao Goncalo",
        "street": "Avenida Tres",
        "zipcode": "78090-629"
    },
    {
        "city": "Cuiaba",
        "state": "MT",
        "district": "Nossa Senhora Aparecida",
        "street": "Rua Um (Jd Hawai)",
        "zipcode": "78090-748"
    },
    {
        "city": "Cuiaba",
        "state": "MT",
        "district": "Nossa Senhora Aparecida",
        "street": "Rua Onze (Jd Comodoro)",
        "zipcode": "78090-763"
    },
    {
        "city": "Cuiaba",
        "state": "MT",
        "district": "Sao Goncalo",
        "street": "Rua Nove",
        "zipcode": "78090-626"
    },
    {
        "city": "Cuiaba",
        "state": "MT",
        "district": "Sao Goncalo",
        "street": "Rua F",
        "zipcode": "78090-732"
    },
    {
        "city": "Cuiaba",
        "state": "MT",
        "district": "Resindencial Coxipo",
        "street": "Rua D",
        "zipcode": "78090-752"
    },
    {
        "city": "Cuiaba",
        "state": "MT",
        "district": "Sao Goncalo",
        "street": "Avenida Um",
        "zipcode": "78090-718"
    },
    {
        "city": "Cuiaba",
        "state": "MT",
        "district": "Resindencial Coxipo",
        "street": "Travessa C (Res Itapaje)",
        "zipcode": "78090-773"
    },
    {
        "city": "Cuiaba",
        "state": "MT",
        "district": "Sao Goncalo",
        "street": "Rua Onze",
        "zipcode": "78090-627"
    },
    {
        "city": "Cuiaba",
        "state": "MT",
        "district": "Resindencial Coxipo",
        "street": "Rua Seis (Res Itapaje)",
        "zipcode": "78090-776"
    },
    {
        "city": "Cuiaba",
        "state": "MT",
        "district": "Nossa Senhora Aparecida",
        "street": "Rua Seis (Jd Comodoro Ii)",
        "zipcode": "78090-764"
    },
    {
        "city": "Cuiaba",
        "state": "MT",
        "district": "Sao Goncalo",
        "street": "Rua C (Jd Mossoro)",
        "zipcode": "78090-642"
    },
    {
        "city": "Cuiaba",
        "state": "MT",
        "district": "Nossa Senhora Aparecida",
        "street": "Rua Sete (Jd Hawai)",
        "zipcode": "78090-782"
    },
    {
        "city": "Cuiaba",
        "state": "MT",
        "district": "Nossa Senhora Aparecida",
        "street": "Rua Catorze (Jd Comodoro)",
        "zipcode": "78090-751"
    },
    {
        "city": "Cuiaba",
        "state": "MT",
        "district": "Sao Goncalo",
        "street": "Avenida B (Jd Mossoro)",
        "zipcode": "78090-650"
    },
    {
        "city": "Cuiaba",
        "state": "MT",
        "district": "Resindencial Coxipo",
        "street": "Travessa A (Res Itapaje)",
        "zipcode": "78090-766"
    },
    {
        "city": "Cuiaba",
        "state": "MT",
        "district": "Resindencial Coxipo",
        "street": "Rua Oito (Res Itapaje)",
        "zipcode": "78090-780"
    },
    {
        "city": "Cuiaba",
        "state": "MT",
        "district": "Resindencial Coxipo",
        "street": "Rua B (Jd Santana)",
        "zipcode": "78090-740"
    },
    {
        "city": "Cuiaba",
        "state": "MT",
        "district": "Resindencial Coxipo",
        "street": "Rua L",
        "zipcode": "78090-768"
    },
    {
        "city": "Cuiaba",
        "state": "MT",
        "district": "Sao Goncalo",
        "street": "Rua Tres",
        "zipcode": "78090-735"
    },
    {
        "city": "Cuiaba",
        "state": "MT",
        "district": "Nossa Senhora Aparecida",
        "street": "Travessa Z",
        "zipcode": "78090-680"
    },
    {
        "city": "Cuiaba",
        "state": "MT",
        "district": "Sao Goncalo",
        "street": "Avenida Dois",
        "zipcode": "78090-637"
    },
    {
        "city": "Cuiaba",
        "state": "MT",
        "district": "Resindencial Coxipo",
        "street": "Rua Dois (Res Itapaje)",
        "zipcode": "78090-767"
    },
    {
        "city": "Cuiaba",
        "state": "MT",
        "district": "Resindencial Coxipo",
        "street": "Rua Quatro (Res Itapaje)",
        "zipcode": "78090-771"
    },
    {
        "city": "Cuiaba",
        "state": "MT",
        "district": "Nossa Senhora Aparecida",
        "street": "Rua N",
        "zipcode": "78090-675"
    },
    {
        "city": "Cuiaba",
        "state": "MT",
        "district": "Sao Goncalo",
        "street": "Rua Dezessete",
        "zipcode": "78090-623"
    },
    {
        "city": "Cuiaba",
        "state": "MT",
        "district": "Osmar Cabral",
        "street": "Rua Nove",
        "zipcode": "78090-815"
    },
    {
        "city": "Cuiaba",
        "state": "MT",
        "district": "Resindencial Coxipo",
        "street": "Rua Um (Res Itapaje)",
        "zipcode": "78090-769"
    },
    {
        "city": "Cuiaba",
        "state": "MT",
        "district": "Resindencial Coxipo",
        "street": "Rua G",
        "zipcode": "78090-757"
    },
    {
        "city": "Cuiaba",
        "state": "MT",
        "district": "Resindencial Coxipo",
        "street": "Rua F",
        "zipcode": "78090-756"
    },
    {
        "city": "Cuiaba",
        "state": "MT",
        "district": "Nossa Senhora Aparecida",
        "street": "Rua Trinta E Um",
        "zipcode": "78090-663"
    },
    {
        "city": "Cuiaba",
        "state": "MT",
        "district": "Osmar Cabral",
        "street": "Rua Seis",
        "zipcode": "78090-580"
    },
    {
        "city": "Cuiaba",
        "state": "MT",
        "district": "Osmar Cabral",
        "street": "Rua Sete",
        "zipcode": "78090-590"
    },
    {
        "city": "Cuiaba",
        "state": "MT",
        "district": "Sao Goncalo",
        "street": "Rua Vinte E Tres",
        "zipcode": "78090-636"
    },
    {
        "city": "Cuiaba",
        "state": "MT",
        "district": "Sao Goncalo",
        "street": "Rua Oito",
        "zipcode": "78090-710"
    },
    {
        "city": "Cuiaba",
        "state": "MT",
        "district": "Sao Goncalo",
        "street": "Rua Cinco",
        "zipcode": "78090-720"
    },
    {
        "city": "Cuiaba",
        "state": "MT",
        "district": "Sao Goncalo",
        "street": "Rua Dezenove",
        "zipcode": "78090-622"
    },
    {
        "city": "Cuiaba",
        "state": "MT",
        "district": "Sao Goncalo",
        "street": "Rua E (Jd Mossoro)",
        "zipcode": "78090-644"
    },
    {
        "city": "Cuiaba",
        "state": "MT",
        "district": "Resindencial Coxipo",
        "street": "Rua E",
        "zipcode": "78090-755"
    },
    {
        "city": "Cuiaba",
        "state": "MT",
        "district": "Resindencial Coxipo",
        "street": "Rua Sete (Res Itapaje)",
        "zipcode": "78090-784"
    },
    {
        "city": "Cuiaba",
        "state": "MT",
        "district": "Sao Goncalo",
        "street": "Rua Catorze",
        "zipcode": "78090-810"
    },
    {
        "city": "Cuiaba",
        "state": "MT",
        "district": "Sao Goncalo",
        "street": "Rua K (Jd Mossoro)",
        "zipcode": "78090-655"
    },
    {
        "city": "Cuiaba",
        "state": "MT",
        "district": "Sao Goncalo",
        "street": "Rua Trinta E Cinco",
        "zipcode": "78090-632"
    },
    {
        "city": "Cuiaba",
        "state": "MT",
        "district": "Sao Goncalo",
        "street": "Rua Trinta E Seis",
        "zipcode": "78090-613"
    },
    {
        "city": "Cuiaba",
        "state": "MT",
        "district": "Resindencial Coxipo",
        "street": "Rua Cinco (Res Itapaje)",
        "zipcode": "78090-774"
    },
    {
        "city": "Cuiaba",
        "state": "MT",
        "district": "Nossa Senhora Aparecida",
        "street": "Rua Oito (Jd Comodoro)",
        "zipcode": "78090-762"
    },
    {
        "city": "Cuiaba",
        "state": "MT",
        "district": "Sao Goncalo",
        "street": "Rua M (Jd Mossoro)",
        "zipcode": "78090-657"
    },
    {
        "city": "Cuiaba",
        "state": "MT",
        "district": "Sao Goncalo",
        "street": "Avenida Quatro",
        "zipcode": "78090-617"
    },
    {
        "city": "Cuiaba",
        "state": "MT",
        "district": "Sao Goncalo",
        "street": "Rua Treze",
        "zipcode": "78090-639"
    },
    {
        "city": "Cuiaba",
        "state": "MT",
        "district": "Sao Goncalo",
        "street": "Rua L (Jd Mossoro)",
        "zipcode": "78090-656"
    },
    {
        "city": "Cuiaba",
        "state": "MT",
        "district": "Sao Goncalo",
        "street": "Rua Vinte E Oito",
        "zipcode": "78090-736"
    },
    {
        "city": "Cuiaba",
        "state": "MT",
        "district": "Sao Goncalo",
        "street": "Rua Vinte",
        "zipcode": "78090-633"
    },
    {
        "city": "Cuiaba",
        "state": "MT",
        "district": "Distrito Industrial",
        "street": "Rua Onze (Jd Industriario I)",
        "zipcode": "78098-686"
    },
    {
        "city": "Cuiaba",
        "state": "MT",
        "district": "Distrito Industrial",
        "street": "Rua Trinta E Quatro (Jd Industriario Ii)",
        "zipcode": "78098-643"
    },
    {
        "city": "Cuiaba",
        "state": "MT",
        "district": "Distrito Industrial",
        "street": "Avenida B (Jd Industriario Ii)",
        "zipcode": "78098-633"
    },
    {
        "city": "Cuiaba",
        "state": "MT",
        "district": "Distrito Industrial",
        "street": "Rua Treze (Jd Industriario I)",
        "zipcode": "78098-667"
    },
    {
        "city": "Cuiaba",
        "state": "MT",
        "district": "Distrito Industrial",
        "street": "Rua Onze (Jd Industriario Ii)",
        "zipcode": "78098-625"
    },
    {
        "city": "Cuiaba",
        "state": "MT",
        "district": "Distrito Industrial",
        "street": "Rua Vinte E Cinco (Jd Industriario Ii)",
        "zipcode": "78098-647"
    },
    {
        "city": "Cuiaba",
        "state": "MT",
        "district": "Distrito Industrial",
        "street": "Rua Trinta E Seis (Jd Industriario I)",
        "zipcode": "78098-695"
    },
    {
        "city": "Cuiaba",
        "state": "MT",
        "district": "Distrito Industrial",
        "street": "Rua Doze (Jd Industriario I)",
        "zipcode": "78098-683"
    },
    {
        "city": "Cuiaba",
        "state": "MT",
        "district": "Vila Sao Sebastiao",
        "street": "Rua Bom Despacho",
        "zipcode": "78098-010"
    },
    {
        "city": "Cuiaba",
        "state": "MT",
        "district": "Distrito Industrial",
        "street": "Rua Quatro (Jd Industriario Ii)",
        "zipcode": "78098-687"
    },
    {
        "city": "Cuiaba",
        "state": "MT",
        "district": "Parque Cuiaba",
        "street": "Rua Cinquenta E Seis (Jd Nova Cuiba)",
        "zipcode": "78095-576"
    },
    {
        "city": "Cuiaba",
        "state": "MT",
        "district": "Distrito Industrial",
        "street": "Alameda C (Jd Industriario I)",
        "zipcode": "78098-673"
    },
    {
        "city": "Cuiaba",
        "state": "MT",
        "district": "Distrito Industrial",
        "street": "Rua Seis (Jd Industriario I)",
        "zipcode": "78098-688"
    },
    {
        "city": "Cuiaba",
        "state": "MT",
        "district": "Distrito Industrial",
        "street": "Rua Trinta E Oito (Jd Industriario I)",
        "zipcode": "78098-693"
    },
    {
        "city": "Cuiaba",
        "state": "MT",
        "district": "Distrito Industrial",
        "street": "Rua Cinco (Jd Industriario Ii)",
        "zipcode": "78098-614"
    },
    {
        "city": "Cuiaba",
        "state": "MT",
        "district": "Distrito Industrial",
        "street": "Rua Vinte E Quatro (Jd Industriario Ii)",
        "zipcode": "78098-653"
    },
    {
        "city": "Cuiaba",
        "state": "MT",
        "district": "Distrito Industrial",
        "street": "Rua Dezesseis (Jd Industriario Ii)",
        "zipcode": "78098-616"
    },
    {
        "city": "Cuiaba",
        "state": "MT",
        "district": "Distrito Industrial",
        "street": "Rua Trinta E Um (Jd Industriario Ii)",
        "zipcode": "78098-645"
    },
    {
        "city": "Cuiaba",
        "state": "MT",
        "district": "Distrito Industrial",
        "street": "Rua Seis (Jd Industriario Ii)",
        "zipcode": "78098-627"
    },
    {
        "city": "Cuiaba",
        "state": "MT",
        "district": "Nossa Senhora Aparecida",
        "street": "Rua E",
        "zipcode": "78090-800"
    },
    {
        "city": "Cuiaba",
        "state": "MT",
        "district": "Distrito Industrial",
        "street": "Rua Vinte E Sete (Jd Industriario Ii)",
        "zipcode": "78098-655"
    },
    {
        "city": "Cuiaba",
        "state": "MT",
        "district": "Distrito Industrial",
        "street": "Rua Treze (Jd Industriario Ii)",
        "zipcode": "78098-631"
    },
    {
        "city": "Cuiaba",
        "state": "MT",
        "district": "Distrito Industrial",
        "street": "Alameda D (Jd Industriario I)",
        "zipcode": "78098-705"
    },
    {
        "city": "Cuiaba",
        "state": "MT",
        "district": "Distrito Industrial",
        "street": "Rua Catorze (Jd Industriario 11)",
        "zipcode": "78098-613"
    },
    {
        "city": "Cuiaba",
        "state": "MT",
        "district": "Distrito Industrial",
        "street": "Rua Sete (Jd Industriario I)",
        "zipcode": "78098-665"
    },
    {
        "city": "Cuiaba",
        "state": "MT",
        "district": "Nucleo Habit Cpa",
        "street": "Rua Bahia",
        "zipcode": "78055-600"
    },
    {
        "city": "Cuiaba",
        "state": "MT",
        "district": "Dom Aquino",
        "street": "Rua Santa Laura (Sao Mateus)",
        "zipcode": "78015-468"
    },
    {
        "city": "Cuiaba",
        "state": "MT",
        "district": "Jardim California",
        "street": "Rua Parnaiba (Praeiro)",
        "zipcode": "78070-610"
    },
    {
        "city": "Cuiaba",
        "state": "MT",
        "district": "Cidade Alta",
        "street": "Rua Prof. Amelia Muniz",
        "zipcode": "78030-280"
    },
    {
        "city": "Cuiaba",
        "state": "MT",
        "district": "Centro",
        "street": "Rua Marechal Deodoro",
        "zipcode": "78005-101"
    },
    {
        "city": "Cuiaba",
        "state": "MT",
        "district": "Bandeirantes",
        "street": "Rua Baltazar Navarros",
        "zipcode": "78010-130"
    },
    {
        "city": "Cuiaba",
        "state": "MT",
        "district": "Areao",
        "street": "Rua Cascadura",
        "zipcode": "78010-460"
    },
    {
        "city": "Cuiaba",
        "state": "MT",
        "district": "Areao",
        "street": "Rua Da Lapa",
        "zipcode": "78010-510"
    },
    {
        "city": "Cuiaba",
        "state": "MT",
        "district": "Centro",
        "street": "Praça Do Rosario",
        "zipcode": "78008-450"
    },
    {
        "city": "Cuiaba",
        "state": "MT",
        "district": "Cidade Alta",
        "street": "Rua Do (Jd Primavera) Verao",
        "zipcode": "78030-050"
    },
    {
        "city": "Cuiaba",
        "state": "MT",
        "district": "Goiabeira",
        "street": "Praça Oito De Abril",
        "zipcode": "78043-330"
    },
    {
        "city": "Cuiaba",
        "state": "MT",
        "district": "Duque De Caxias",
        "street": "Avenida Lava Pes",
        "zipcode": "78043-000"
    },
    {
        "city": "Cuiaba",
        "state": "MT",
        "district": "Bandeirantes",
        "street": "Travessa Francisco De Siqueira",
        "zipcode": "78010-120"
    },
    {
        "city": "Cuiaba",
        "state": "MT",
        "district": "Cidade Alta",
        "street": "Rua Bauru (Jd Primavera)",
        "zipcode": "78030-240"
    },
    {
        "city": "Cuiaba",
        "state": "MT",
        "district": "Goiabeira",
        "street": "Avenida Isaac Povoas",
        "zipcode": "78045-200"
    },
    {
        "city": "Cuiaba",
        "state": "MT",
        "district": "Goiabeira",
        "street": "Travessa Leo Edilberto Griggi",
        "zipcode": "78045-340"
    },
    {
        "city": "Cuiaba",
        "state": "MT",
        "district": "Areao",
        "street": "Rua Botafogo",
        "zipcode": "78010-540"
    },
    {
        "city": "Cuiaba",
        "state": "MT",
        "district": "Dom Aquino",
        "street": "Rua Irma Elvira Paris",
        "zipcode": "78015-340"
    },
    {
        "city": "Cuiaba",
        "state": "MT",
        "district": "Pocao",
        "street": "Rua Desembargador Palmiro Pimenta",
        "zipcode": "78015-370"
    },
    {
        "city": "Cuiaba",
        "state": "MT",
        "district": "Dom Aquino",
        "street": "Rua Alexandre Rodrigues",
        "zipcode": "78015-430"
    },
    {
        "city": "Cuiaba",
        "state": "MT",
        "district": "Centro",
        "street": "Avenida Tenente",
        "zipcode": "78015-501"
    },
    {
        "city": "Cuiaba",
        "state": "MT",
        "district": "Novo Terceiro",
        "street": "Rua Tavares",
        "zipcode": "78028-490"
    },
    {
        "city": "Cuiaba",
        "state": "MT",
        "district": "Cidade Verde",
        "street": "Rua Roraima",
        "zipcode": "78028-640"
    },
    {
        "city": "Cuiaba",
        "state": "MT",
        "district": "Cidade Verde",
        "street": "Rua Maceio",
        "zipcode": "78028-820"
    },
    {
        "city": "Cuiaba",
        "state": "MT",
        "district": "Cidade Verde",
        "street": "Rua Manaus",
        "zipcode": "78028-830"
    },
    {
        "city": "Cuiaba",
        "state": "MT",
        "district": "Cidade Alta",
        "street": "Rua Padre Joao Ribeiro",
        "zipcode": "78030-580"
    },
    {
        "city": "Cuiaba",
        "state": "MT",
        "district": "Cidade Alta",
        "street": "Travessa Capitao Resende Costa",
        "zipcode": "78030-610"
    },
    {
        "city": "Cuiaba",
        "state": "MT",
        "district": "Cidade Alta",
        "street": "Rua B (Coesa)",
        "zipcode": "78030-735"
    },
    {
        "city": "Cuiaba",
        "state": "MT",
        "district": "Jardim Mariana",
        "street": "Rua Uberaba",
        "zipcode": "78040-720"
    },
    {
        "city": "Cuiaba",
        "state": "MT",
        "district": "Duque De Caxias",
        "street": "Rua Major Otavio Pitaluga",
        "zipcode": "78043-010"
    },
    {
        "city": "Cuiaba",
        "state": "MT",
        "district": "Duque De Caxias",
        "street": "Rua Tenente Alcides Duarte De Souza",
        "zipcode": "78043-035"
    },
    {
        "city": "Cuiaba",
        "state": "MT",
        "district": "Duque De Caxias",
        "street": "Travessa Coronel Francisco Pinto De Oliveira",
        "zipcode": "78043-095"
    },
    {
        "city": "Cuiaba",
        "state": "MT",
        "district": "Araes",
        "street": "Travessa Barao De Casalvasco",
        "zipcode": "78005-780"
    },
    {
        "city": "Cuiaba",
        "state": "MT",
        "district": "Lixeira",
        "street": "Travessa Prof. Joaquim Costa Marques",
        "zipcode": "78008-310"
    },
    {
        "city": "Cuiaba",
        "state": "MT",
        "district": "Cidade Alta",
        "street": "Avenida Da Selecao Brasileira",
        "zipcode": "78030-130"
    },
    {
        "city": "Cuiaba",
        "state": "MT",
        "district": "Lixeira",
        "street": "Travessa Sao Francisco",
        "zipcode": "78008-080"
    },
    {
        "city": "Cuiaba",
        "state": "MT",
        "district": "Cidade Alta",
        "street": "Rua Anastacio (Jd Ubata)",
        "zipcode": "78025-650"
    },
    {
        "city": "Cuiaba",
        "state": "MT",
        "district": "Areao",
        "street": "Rua Sao Benedito",
        "zipcode": "78010-800"
    },
    {
        "city": "Cuiaba",
        "state": "MT",
        "district": "Areao",
        "street": "Rua Carioca",
        "zipcode": "78010-610"
    },
    {
        "city": "Cuiaba",
        "state": "MT",
        "district": "Bandeirantes",
        "street": "Rua Manoel Ferreira De Mendonca",
        "zipcode": "78010-160"
    },
    {
        "city": "Cuiaba",
        "state": "MT",
        "district": "Centro",
        "street": "Travessa Joao Celestino",
        "zipcode": "78005-470"
    },
    {
        "city": "Cuiaba",
        "state": "MT",
        "district": "Ribeirao Do Lipa",
        "street": "Avenida Rondonopolis",
        "zipcode": "78040-570"
    },
    {
        "city": "Cuiaba",
        "state": "MT",
        "district": "Cidade Alta",
        "street": "Rua Dr Jose Alvares Maciel",
        "zipcode": "78030-690"
    },
    {
        "city": "Cuiaba",
        "state": "MT",
        "district": "Pocao",
        "street": "Rua Padre Francisco Agostinho Ribeiro",
        "zipcode": "78010-240"
    },
    {
        "city": "Cuiaba",
        "state": "MT",
        "district": "Areao",
        "street": "Rua Da Urca",
        "zipcode": "78010-570"
    },
    {
        "city": "Cuiaba",
        "state": "MT",
        "district": "Porto",
        "street": "Rua Aquidauana (Jd Ubata)",
        "zipcode": "78025-660"
    },
    {
        "city": "Cuiaba",
        "state": "MT",
        "district": "Duque De Caxias",
        "street": "Rua General Albino Carvalho",
        "zipcode": "78043-060"
    },
    {
        "city": "Cuiaba",
        "state": "MT",
        "district": "Lixeira",
        "street": "Rua Lapa",
        "zipcode": "78008-360"
    },
    {
        "city": "Cuiaba",
        "state": "MT",
        "district": "Lixeira",
        "street": "Rua Corumba",
        "zipcode": "78008-400"
    },
    {
        "city": "Cuiaba",
        "state": "MT",
        "district": "Vila Militar",
        "street": "Rua Monte Castelo",
        "zipcode": "78040-800"
    },
    {
        "city": "Cuiaba",
        "state": "MT",
        "district": "Cidade Alta",
        "street": "Rua Custodio De Mello",
        "zipcode": "78030-340"
    },
    {
        "city": "Cuiaba",
        "state": "MT",
        "district": "Jardim Cuiaba",
        "street": "Rua Das Margaridas",
        "zipcode": "78043-125"
    },
    {
        "city": "Cuiaba",
        "state": "MT",
        "district": "Bosque Da Saude",
        "street": "Avenida F",
        "zipcode": "78050-180"
    },
    {
        "city": "Cuiaba",
        "state": "MT",
        "district": "Morada Do Ouro",
        "street": "Rua Quatro (Setor Oeste)",
        "zipcode": "78053-060"
    },
    {
        "city": "Cuiaba",
        "state": "MT",
        "district": "Morada Do Ouro",
        "street": "Rua D (Setor Oeste)",
        "zipcode": "78053-100"
    },
    {
        "city": "Cuiaba",
        "state": "MT",
        "district": "Morada Do Ouro",
        "street": "Rua F (Setor Oeste)",
        "zipcode": "78053-130"
    },
    {
        "city": "Cuiaba",
        "state": "MT",
        "district": "Cidade Verde",
        "street": "Rua Belem",
        "zipcode": "78028-780"
    },
    {
        "city": "Cuiaba",
        "state": "MT",
        "district": "Vila Militar",
        "street": "Rua Colechio",
        "zipcode": "78040-760"
    },
    {
        "city": "Cuiaba",
        "state": "MT",
        "district": "Senhor Dos Passos",
        "street": "Travessa Cairo",
        "zipcode": "78048-260"
    },
    {
        "city": "Cuiaba",
        "state": "MT",
        "district": "Areao",
        "street": "Rua P",
        "zipcode": "78010-770"
    },
    {
        "city": "Cuiaba",
        "state": "MT",
        "district": "Novo Terceiro",
        "street": "Rua Taipu",
        "zipcode": "78028-460"
    },
    {
        "city": "Cuiaba",
        "state": "MT",
        "district": "Senhor Dos Passos",
        "street": "Rua Libia",
        "zipcode": "78048-310"
    },
    {
        "city": "Cuiaba",
        "state": "MT",
        "district": "Santa Izabel",
        "street": "Travessa Viela Noventa",
        "zipcode": "78035-740"
    },
    {
        "city": "Cuiaba",
        "state": "MT",
        "district": "Senhor Dos Passos",
        "street": "Avenida Senegal",
        "zipcode": "78050-380"
    },
    {
        "city": "Cuiaba",
        "state": "MT",
        "district": "Jardim Mariana",
        "street": "Rua Cinco (Lot Sao Jose)",
        "zipcode": "78040-850"
    },
    {
        "city": "Cuiaba",
        "state": "MT",
        "district": "Duque De Caxias",
        "street": "Rua Franklin Cassiano Silva",
        "zipcode": "78043-070"
    },
    {
        "city": "Cuiaba",
        "state": "MT",
        "district": "Ribeirao Do Lipa",
        "street": "Rua Bela Vista",
        "zipcode": "78040-440"
    },
    {
        "city": "Cuiaba",
        "state": "MT",
        "district": "Senhor Dos Passos",
        "street": "Rua Pampeiro",
        "zipcode": "78048-845"
    },
    {
        "city": "Cuiaba",
        "state": "MT",
        "district": "Dom Aquino",
        "street": "Rua Prof. Jose Estevao Correia",
        "zipcode": "78015-520"
    },
    {
        "city": "Cuiaba",
        "state": "MT",
        "district": "Senhor Dos Passos",
        "street": "Avenida Miguel Sutil",
        "zipcode": "78048-800"
    },
    {
        "city": "Cuiaba",
        "state": "MT",
        "district": "Carumbe",
        "street": "Rua Ciro Furtado Sodre",
        "zipcode": "78050-620"
    },
    {
        "city": "Cuiaba",
        "state": "MT",
        "district": "Coophamil",
        "street": "Rua Aclimacao (Sao Benedito)",
        "zipcode": "78028-030"
    },
    {
        "city": "Cuiaba",
        "state": "MT",
        "district": "Morada Do Ouro",
        "street": "Rua B (Setor Oeste)",
        "zipcode": "78053-140"
    },
    {
        "city": "Cuiaba",
        "state": "MT",
        "district": "Morada Do Ouro",
        "street": "Rua B (Setor Noroeste)",
        "zipcode": "78053-180"
    },
    {
        "city": "Cuiaba",
        "state": "MT",
        "district": "Morada Do Ouro",
        "street": "Rua Um (Setor Noroeste)",
        "zipcode": "78053-210"
    },
    {
        "city": "Cuiaba",
        "state": "MT",
        "district": "Morada Do Ouro",
        "street": "Rua Cinco (Setor Centro Sul)",
        "zipcode": "78053-250"
    },
    {
        "city": "Cuiaba",
        "state": "MT",
        "district": "Morada Do Ouro",
        "street": "Rua B (Setor Centro Sul)",
        "zipcode": "78053-290"
    },
    {
        "city": "Cuiaba",
        "state": "MT",
        "district": "Morada Do Ouro",
        "street": "Rua Tres (Setor Centro",
        "zipcode": "78053-300"
    },
    {
        "city": "Cuiaba",
        "state": "MT",
        "district": "Morada Do Ouro",
        "street": "Rua D (Setor Centro",
        "zipcode": "78053-340"
    },
    {
        "city": "Cuiaba",
        "state": "MT",
        "district": "Morada Do Ouro",
        "street": "Rua Quatro (Setor Centro",
        "zipcode": "78053-370"
    },
    {
        "city": "Cuiaba",
        "state": "MT",
        "district": "Morada Do Ouro",
        "street": "Rua H (Setor Centro",
        "zipcode": "78053-390"
    },
    {
        "city": "Cuiaba",
        "state": "MT",
        "district": "Morada Do Ouro",
        "street": "Rua F (Setor Norte)",
        "zipcode": "78053-510"
    },
    {
        "city": "Cuiaba",
        "state": "MT",
        "district": "Planalto",
        "street": "Rua Trombos",
        "zipcode": "78058-676"
    },
    {
        "city": "Cuiaba",
        "state": "MT",
        "district": "Jardim Paulista",
        "street": "Rua Espirito Santo",
        "zipcode": "78065-830"
    },
    {
        "city": "Cuiaba",
        "state": "MT",
        "district": "Boa Esperanca",
        "street": "Rua Pontes E Lacerda",
        "zipcode": "78068-420"
    },
    {
        "city": "Cuiaba",
        "state": "MT",
        "district": "Boa Esperanca",
        "street": "Rua Presidente Joaquim Manoel Murtinho",
        "zipcode": "78068-510"
    },
    {
        "city": "Cuiaba",
        "state": "MT",
        "district": "Boa Esperanca",
        "street": "Rua Manoel Arruda",
        "zipcode": "78068-565"
    },
    {
        "city": "Cuiaba",
        "state": "MT",
        "district": "Boa Esperanca",
        "street": "Rua Luis De Albuquerque",
        "zipcode": "78068-590"
    },
    {
        "city": "Cuiaba",
        "state": "MT",
        "district": "Senhor Dos Passos",
        "street": "Rua Acorizal",
        "zipcode": "78048-390"
    },
    {
        "city": "Cuiaba",
        "state": "MT",
        "district": "Planalto",
        "street": "Travessa Ibiapava",
        "zipcode": "78058-696"
    },
    {
        "city": "Cuiaba",
        "state": "MT",
        "district": "Morada Dos Nobres",
        "street": "Rua Dom Fernando De Alfenas",
        "zipcode": "78068-130"
    },
    {
        "city": "Cuiaba",
        "state": "MT",
        "district": "Planalto",
        "street": "Rua Amazonas (Novo Mato Grosso)",
        "zipcode": "78058-755"
    },
    {
        "city": "Cuiaba",
        "state": "MT",
        "district": "Tres Barras",
        "street": "Rua Dois (Jd Umuarama)",
        "zipcode": "78058-534"
    },
    {
        "city": "Cuiaba",
        "state": "MT",
        "district": "Senhor Dos Passos",
        "street": "Rua Domicinio P. Barcelo",
        "zipcode": "78050-270"
    },
    {
        "city": "Cuiaba",
        "state": "MT",
        "district": "Tres Barras",
        "street": "Rua Catorze",
        "zipcode": "78058-514"
    },
    {
        "city": "Cuiaba",
        "state": "MT",
        "district": "Planalto",
        "street": "Rua Caiapo",
        "zipcode": "78058-668"
    },
    {
        "city": "Cuiaba",
        "state": "MT",
        "district": "Senhor Dos Passos",
        "street": "Travessa G (Miguel Sutil)",
        "zipcode": "78048-590"
    },
    {
        "city": "Cuiaba",
        "state": "MT",
        "district": "Tres Barras",
        "street": "Rua Trinta E Tres",
        "zipcode": "78058-574"
    },
    {
        "city": "Cuiaba",
        "state": "MT",
        "district": "Tres Barras",
        "street": "Rua Dezenove",
        "zipcode": "78058-524"
    },
    {
        "city": "Cuiaba",
        "state": "MT",
        "district": "Planalto",
        "street": "Travessa Dos (Novo Mato Grosso) Imigrantes",
        "zipcode": "78058-776"
    },
    {
        "city": "Cuiaba",
        "state": "MT",
        "district": "Nucleo Habit Cpa",
        "street": "Rua B (Ouro Fino)",
        "zipcode": "78055-660"
    },
    {
        "city": "Cuiaba",
        "state": "MT",
        "district": "Tres Barras",
        "street": "Rua Tres",
        "zipcode": "78058-564"
    },
    {
        "city": "Cuiaba",
        "state": "MT",
        "district": "Campo Velho",
        "street": "Rua Tiradentes",
        "zipcode": "78065-835"
    },
    {
        "city": "Cuiaba",
        "state": "MT",
        "district": "Tres Barras",
        "street": "Rua Oito (Jd Umuarama)",
        "zipcode": "78058-544"
    },
    {
        "city": "Cuiaba",
        "state": "MT",
        "district": "Senhor Dos Passos",
        "street": "Rua C (Miguel Sutil)",
        "zipcode": "78048-220"
    },
    {
        "city": "Cuiaba",
        "state": "MT",
        "district": "Bosque Da Saude",
        "street": "Rua D (Leblon)",
        "zipcode": "78050-820"
    },
    {
        "city": "Cuiaba",
        "state": "MT",
        "district": "Senhor Dos Passos",
        "street": "Travessa Santa Maria",
        "zipcode": "78048-760"
    },
    {
        "city": "Cuiaba",
        "state": "MT",
        "district": "Nucleo Habit Cpa",
        "street": "Rua Minas Gerais",
        "zipcode": "78055-550"
    },
    {
        "city": "Cuiaba",
        "state": "MT",
        "district": "Bela Vista",
        "street": "Rua C (Sao Roque)",
        "zipcode": "78050-574"
    },
    {
        "city": "Cuiaba",
        "state": "MT",
        "district": "Tres Barras",
        "street": "Rua Trinta E Um",
        "zipcode": "78058-576"
    },
    {
        "city": "Cuiaba",
        "state": "MT",
        "district": "Planalto",
        "street": "Rua Formosa",
        "zipcode": "78058-682"
    },
    {
        "city": "Cuiaba",
        "state": "MT",
        "district": "Boa Esperanca",
        "street": "Rua Trinta E Dois",
        "zipcode": "78068-800"
    },
    {
        "city": "Cuiaba",
        "state": "MT",
        "district": "Jardim Petropolis",
        "street": "Avenida Tancredo Neves",
        "zipcode": "78070-120"
    },
    {
        "city": "Cuiaba",
        "state": "MT",
        "district": "Planalto",
        "street": "Rua Da Providencia",
        "zipcode": "78058-704"
    },
    {
        "city": "Cuiaba",
        "state": "MT",
        "district": "Jardim California",
        "street": "Rua Dallas",
        "zipcode": "78070-780"
    },
    {
        "city": "Cuiaba",
        "state": "MT",
        "district": "Nucleo Habit Cpa",
        "street": "Rua Amapa",
        "zipcode": "78055-560"
    },
    {
        "city": "Cuiaba",
        "state": "MT",
        "district": "Boa Esperanca",
        "street": "Rua Antonio Leite De Figueiredo",
        "zipcode": "78068-730"
    },
    {
        "city": "Cuiaba",
        "state": "MT",
        "district": "Sao Goncalo",
        "street": "Rua Vinte E Um",
        "zipcode": "78090-641"
    },
    {
        "city": "Cuiaba",
        "state": "MT",
        "district": "Jardim Das Palmeiras",
        "street": "Rua Padre Jose De Anchieta",
        "zipcode": "78080-264"
    },
    {
        "city": "Cuiaba",
        "state": "MT",
        "district": "Coophema",
        "street": "Rua Marajo (Jd Aquario)",
        "zipcode": "78085-250"
    },
    {
        "city": "Cuiaba",
        "state": "MT",
        "district": "Nucleo Habit Cpa",
        "street": "Rua Sergipe",
        "zipcode": "78055-630"
    },
    {
        "city": "Cuiaba",
        "state": "MT",
        "district": "Jardim California",
        "street": "Rua Dezessete",
        "zipcode": "78070-706"
    },
    {
        "city": "Cuiaba",
        "state": "MT",
        "district": "Planalto",
        "street": "Rua Mantiqueira",
        "zipcode": "78058-656"
    },
    {
        "city": "Cuiaba",
        "state": "MT",
        "district": "Planalto",
        "street": "Rua Pindorama (Novo Horizonte)",
        "zipcode": "78058-712"
    },
    {
        "city": "Cuiaba",
        "state": "MT",
        "district": "Boa Esperanca",
        "street": "Rua Antonio Rolim De Almeida",
        "zipcode": "78068-620"
    },
    {
        "city": "Cuiaba",
        "state": "MT",
        "district": "Planalto",
        "street": "Rua Goias (Novo Mato Grosso)",
        "zipcode": "78058-770"
    },
    {
        "city": "Cuiaba",
        "state": "MT",
        "district": "Coophema",
        "street": "Rua Javari (Jd Aquario)",
        "zipcode": "78085-170"
    },
    {
        "city": "Cuiaba",
        "state": "MT",
        "district": "Boa Esperanca",
        "street": "Rua Caetano Pinto Montenegro",
        "zipcode": "78068-660"
    },
    {
        "city": "Cuiaba",
        "state": "MT",
        "district": "Sao Goncalo",
        "street": "Rua Vinte E Seis",
        "zipcode": "78090-737"
    },
    {
        "city": "Cuiaba",
        "state": "MT",
        "district": "Tres Barras",
        "street": "Rua Quatro (Jd Umuarama)",
        "zipcode": "78058-552"
    },
    {
        "city": "Cuiaba",
        "state": "MT",
        "district": "Jardim Petropolis",
        "street": "Rua Oito",
        "zipcode": "78070-820"
    },
    {
        "city": "Cuiaba",
        "state": "MT",
        "district": "Sao Goncalo",
        "street": "Rua H (Jd Mossoro)",
        "zipcode": "78090-652"
    },
    {
        "city": "Cuiaba",
        "state": "MT",
        "district": "Nossa Senhora Aparecida",
        "street": "Rua Q",
        "zipcode": "78090-805"
    },
    {
        "city": "Cuiaba",
        "state": "MT",
        "district": "Pocao",
        "street": "Travessa Padre Ernesto Camilo Barreto",
        "zipcode": "78015-780"
    },
    {
        "city": "Cuiaba",
        "state": "MT",
        "district": "Goiabeira",
        "street": "Rua Rui Barbosa",
        "zipcode": "78020-020"
    },
    {
        "city": "Cuiaba",
        "state": "MT",
        "district": "Goiabeira",
        "street": "Rua Nossa Senhora De Santana",
        "zipcode": "78020-060"
    },
    {
        "city": "Cuiaba",
        "state": "MT",
        "district": "Goiabeira",
        "street": "Rua Coronel Neto",
        "zipcode": "78020-100"
    },
    {
        "city": "Cuiaba",
        "state": "MT",
        "district": "Porto",
        "street": "Rua Guiratinga (Cohab Nova)",
        "zipcode": "78025-170"
    },
    {
        "city": "Cuiaba",
        "state": "MT",
        "district": "Porto",
        "street": "Rua Luciara (Jd Ubata)",
        "zipcode": "78025-610"
    },
    {
        "city": "Cuiaba",
        "state": "MT",
        "district": "Novo Terceiro",
        "street": "Rua Tombador",
        "zipcode": "78028-430"
    },
    {
        "city": "Cuiaba",
        "state": "MT",
        "district": "Cidade Alta",
        "street": "Rua Padre Correa De Toledo",
        "zipcode": "78030-700"
    },
    {
        "city": "Cuiaba",
        "state": "MT",
        "district": "Cidade Alta",
        "street": "Rua Dr Novantino Borba (Jd Primavera)",
        "zipcode": "78030-045"
    },
    {
        "city": "Cuiaba",
        "state": "MT",
        "district": "Nossa Senhora Aparecida",
        "street": "Rua Vinte E Oito",
        "zipcode": "78090-665"
    },
    {
        "city": "Cuiaba",
        "state": "MT",
        "district": "Cidade Verde",
        "street": "Rua Pocone (Cohab Nova)",
        "zipcode": "78025-400"
    },
    {
        "city": "Cuiaba",
        "state": "MT",
        "district": "Sao Goncalo",
        "street": "Rua Um",
        "zipcode": "78090-724"
    },
    {
        "city": "Cuiaba",
        "state": "MT",
        "district": "Sao Goncalo",
        "street": "Rua Trinta E Tres",
        "zipcode": "78090-614"
    },
    {
        "city": "Cuiaba",
        "state": "MT",
        "district": "Coophema",
        "street": "Rua Jundiai",
        "zipcode": "78085-110"
    },
    {
        "city": "Cuiaba",
        "state": "MT",
        "district": "Porto",
        "street": "Rua Agua Clara (Cohab Nova)",
        "zipcode": "78025-330"
    },
    {
        "city": "Cuiaba",
        "state": "MT",
        "district": "Sao Goncalo",
        "street": "Rua Doze",
        "zipcode": "78090-625"
    },
    {
        "city": "Cuiaba",
        "state": "MT",
        "district": "Resindencial Coxipo",
        "street": "Travessa D (Res Itapaje)",
        "zipcode": "78090-778"
    },
    {
        "city": "Cuiaba",
        "state": "MT",
        "district": "Pocao",
        "street": "Rua Monteiro Lobato",
        "zipcode": "78015-740"
    },
    {
        "city": "Cuiaba",
        "state": "MT",
        "district": "Sao Goncalo",
        "street": "Rua Trinta E Quatro",
        "zipcode": "78090-612"
    },
    {
        "city": "Cuiaba",
        "state": "MT",
        "district": "Boa Esperanca",
        "street": "Rua Trinta E Quatro",
        "zipcode": "78068-820"
    },
    {
        "city": "Cuiaba",
        "state": "MT",
        "district": "Santa Cruz",
        "street": "Avenida Das (Jd Imperial) Palmeiras",
        "zipcode": "78075-000"
    },
    {
        "city": "Cuiaba",
        "state": "MT",
        "district": "Nossa Senhora Aparecida",
        "street": "Rua Dois (Jd Hawai)",
        "zipcode": "78090-743"
    },
    {
        "city": "Cuiaba",
        "state": "MT",
        "district": "Distrito Industrial",
        "street": "Rua Oito (Jd Industriario I)",
        "zipcode": "78098-685"
    },
    {
        "city": "Cuiaba",
        "state": "MT",
        "district": "Distrito Industrial",
        "street": "Rua Vinte E Um (Jd Industriario Ii)",
        "zipcode": "78098-657"
    },
    {
        "city": "Cuiaba",
        "state": "MT",
        "district": "Nossa Senhora Aparecida",
        "street": "Rua Doze (Jd Comodoro)",
        "zipcode": "78090-754"
    },
    {
        "city": "Cuiaba",
        "state": "MT",
        "district": "Santa Cruz",
        "street": "Rua Claudio Manoel Da Costa",
        "zipcode": "78068-852"
    },
    {
        "city": "Cuiaba",
        "state": "MT",
        "district": "Resindencial Coxipo",
        "street": "Rua Tres (Res Itapaje)",
        "zipcode": "78090-772"
    },
    {
        "city": "Cuiaba",
        "state": "MT",
        "district": "Horto Florestal",
        "street": "Rua Princesa Isabel (Lucinopolis)",
        "zipcode": "78085-030"
    },
    {
        "city": "Cuiaba",
        "state": "MT",
        "district": "Sao Goncalo",
        "street": "Rua Dez",
        "zipcode": "78090-630"
    },
    {
        "city": "Cuiaba",
        "state": "MT",
        "district": "Cidade Alta",
        "street": "Rua Tres (Capao Do Gama)",
        "zipcode": "78025-540"
    },
    {
        "city": "Cuiaba",
        "state": "MT",
        "district": "Jardim California",
        "street": "Rua Razao E Lealdade (P) (Jd Luciana)",
        "zipcode": "78070-468"
    },
    {
        "city": "Cuiaba",
        "state": "MT",
        "district": "Resindencial Coxipo",
        "street": "Rua B",
        "zipcode": "78090-750"
    },
    {
        "city": "Cuiaba",
        "state": "MT",
        "district": "Pascoal Ramos",
        "street": "Rua F (Nova Esperanca)",
        "zipcode": "78098-582"
    },
    {
        "city": "Cuiaba",
        "state": "MT",
        "district": "Porto",
        "street": "Rua Rondonopolis (Jose Pinto)",
        "zipcode": "78025-240"
    },
    {
        "city": "Cuiaba",
        "state": "MT",
        "district": "Boa Esperanca",
        "street": "Rua Intendente Mena Goncalves",
        "zipcode": "78068-834"
    },
    {
        "city": "Cuiaba",
        "state": "MT",
        "district": "Nossa Senhora Aparecida",
        "street": "Rua Nove (Jd Comodoro)",
        "zipcode": "78090-761"
    },
    {
        "city": "Cuiaba",
        "state": "MT",
        "district": "Duque De Caxias",
        "street": "Rua Almirante Henrique Pinheiro Guedes",
        "zipcode": "78043-085"
    },
    {
        "city": "Cuiaba",
        "state": "MT",
        "district": "Jardim Cuiaba",
        "street": "Avenida Das Flores",
        "zipcode": "78043-190"
    },
    {
        "city": "Cuiaba",
        "state": "MT",
        "district": "Quilombo",
        "street": "Rua Presidente Wenceslau Braz",
        "zipcode": "78043-355"
    },
    {
        "city": "Cuiaba",
        "state": "MT",
        "district": "Duque De Caxias",
        "street": "Rua Vinte E Cinco De Agosto",
        "zipcode": "78043-665"
    },
    {
        "city": "Cuiaba",
        "state": "MT",
        "district": "Goiabeira",
        "street": "Avenida Ipiranga",
        "zipcode": "78043-720"
    },
    {
        "city": "Cuiaba",
        "state": "MT",
        "district": "Goiabeira",
        "street": "Rua Coronel Neto",
        "zipcode": "78043-740"
    },
    {
        "city": "Cuiaba",
        "state": "MT",
        "district": "Centro",
        "street": "Rua Comandante Costa",
        "zipcode": "78043-760"
    },
    {
        "city": "Cuiaba",
        "state": "MT",
        "district": "Goiabeira",
        "street": "Avenida Dom Bosco",
        "zipcode": "78043-775"
    },
    {
        "city": "Cuiaba",
        "state": "MT",
        "district": "Jardim Cuiaba",
        "street": "Rua Das Orquideas",
        "zipcode": "78043-165"
    },
    {
        "city": "Cuiaba",
        "state": "MT",
        "district": "Cidade Alta",
        "street": "Rua Onze (Copao Do Gama)",
        "zipcode": "78025-490"
    },
    {
        "city": "Cuiaba",
        "state": "MT",
        "district": "Distrito Industrial",
        "street": "Rua Dezenove (Jd Industriario Ii)",
        "zipcode": "78098-637"
    },
    {
        "city": "Cuiaba",
        "state": "MT",
        "district": "Areao",
        "street": "Rua Andarai",
        "zipcode": "78010-820"
    },
    {
        "city": "Cuiaba",
        "state": "MT",
        "district": "Senhor Dos Passos",
        "street": "Rua Fortaleza",
        "zipcode": "78048-780"
    },
    {
        "city": "Cuiaba",
        "state": "MT",
        "district": "Goiabeira",
        "street": "Rua Sirio Libanesa",
        "zipcode": "78045-270"
    },
    {
        "city": "Cuiaba",
        "state": "MT",
        "district": "Nossa Senhora Aparecida",
        "street": "Rua Treze (Jd Comodoro)",
        "zipcode": "78090-765"
    },
    {
        "city": "Cuiaba",
        "state": "MT",
        "district": "Nucleo Habit Cpa",
        "street": "Rua Vinte E Nove (Tancredo Neves)",
        "zipcode": "78053-830"
    },
    {
        "city": "Cuiaba",
        "state": "MT",
        "district": "Cidade Alta",
        "street": "Rua Oito (Capao Do Gama)",
        "zipcode": "78025-580"
    },
    {
        "city": "Cuiaba",
        "state": "MT",
        "district": "Lixeira",
        "street": "Travessa Joao Augusto Caldas",
        "zipcode": "78008-270"
    },
    {
        "city": "Cuiaba",
        "state": "MT",
        "district": "Senhor Dos Passos",
        "street": "Rua Clarindo E Da Silva (Despraiado)",
        "zipcode": "78048-015"
    },
    {
        "city": "Cuiaba",
        "state": "MT",
        "district": "Dom Aquino",
        "street": "Rua Joaquim Leite De Figueiredo",
        "zipcode": "78015-530"
    },
    {
        "city": "Cuiaba",
        "state": "MT",
        "district": "Porto",
        "street": "Avenida Cuiaba (Cohab Nova)",
        "zipcode": "78025-280"
    },
    {
        "city": "Cuiaba",
        "state": "MT",
        "district": "Dom Aquino",
        "street": "Travessa Armando Candia",
        "zipcode": "78015-690"
    },
    {
        "city": "Cuiaba",
        "state": "MT",
        "district": "Distrito Industrial",
        "street": "Rua Nove (Jd Industriario Ii)",
        "zipcode": "78098-623"
    },
    {
        "city": "Cuiaba",
        "state": "MT",
        "district": "Jardim Das Americas",
        "street": "Avenida Haiti",
        "zipcode": "78060-210"
    },
    {
        "city": "Cuiaba",
        "state": "MT",
        "district": "Jardim Das Americas",
        "street": "Rua Buenos Aires",
        "zipcode": "78060-250"
    },
    {
        "city": "Cuiaba",
        "state": "MT",
        "district": "Jardim Das Americas",
        "street": "Rua Lima",
        "zipcode": "78060-420"
    },
    {
        "city": "Cuiaba",
        "state": "MT",
        "district": "Jardim Das Americas",
        "street": "Rua Martinica",
        "zipcode": "78060-590"
    },
    {
        "city": "Cuiaba",
        "state": "MT",
        "district": "Jardim Das Americas",
        "street": "Rua Quebec",
        "zipcode": "78060-630"
    },
    {
        "city": "Cuiaba",
        "state": "MT",
        "district": "Jardim Das Americas",
        "street": "Rua Washington",
        "zipcode": "78060-650"
    },
    {
        "city": "Cuiaba",
        "state": "MT",
        "district": "Jardim Tropical",
        "street": "Rua Pais De Gales",
        "zipcode": "78065-115"
    },
    {
        "city": "Cuiaba",
        "state": "MT",
        "district": "Jardim Paulista",
        "street": "Rua Para",
        "zipcode": "78065-288"
    },
    {
        "city": "Cuiaba",
        "state": "MT",
        "district": "Grande Terceiro",
        "street": "Avenida Beira Rio",
        "zipcode": "78065-780"
    },
    {
        "city": "Cuiaba",
        "state": "MT",
        "district": "Nucleo Habit Cpa",
        "street": "Rua Dom Aquino",
        "zipcode": "78055-435"
    },
    {
        "city": "Cuiaba",
        "state": "MT",
        "district": "Santa Rosa",
        "street": "Rua Sao Judas Tadeu (Santa Marta)",
        "zipcode": "78043-570"
    },
    {
        "city": "Cuiaba",
        "state": "MT",
        "district": "Goiabeira",
        "street": "Rua Presidente Antonio Cezario Figueiredo",
        "zipcode": "78043-260"
    },
    {
        "city": "Cuiaba",
        "state": "MT",
        "district": "Nucleo Habit Cpa",
        "street": "Rua Tres (Tancredo Neves)",
        "zipcode": "78053-780"
    },
    {
        "city": "Cuiaba",
        "state": "MT",
        "district": "Santo Antonio Do Pedregal",
        "street": "Rua Boa Esperanca (Jd Leblon)",
        "zipcode": "78060-060"
    },
    {
        "city": "Cuiaba",
        "state": "MT",
        "district": "Nucleo Habit Cpa",
        "street": "Rua Prof. Alice Freire Silva",
        "zipcode": "78055-465"
    },
    {
        "city": "Cuiaba",
        "state": "MT",
        "district": "Coophema",
        "street": "Rua Londrina",
        "zipcode": "78085-690"
    },
    {
        "city": "Cuiaba",
        "state": "MT",
        "district": "Jardim Cuiaba",
        "street": "Rua Rubens De Carvalho",
        "zipcode": "78043-240"
    },
    {
        "city": "Cuiaba",
        "state": "MT",
        "district": "Coophema",
        "street": "Rua Peroba (Jd Gramado)",
        "zipcode": "78085-832"
    },
    {
        "city": "Cuiaba",
        "state": "MT",
        "district": "Quilombo",
        "street": "Rua Estevao De Mendonca",
        "zipcode": "78043-301"
    },
    {
        "city": "Cuiaba",
        "state": "MT",
        "district": "Nucleo Habit Cpa",
        "street": "Rua Mimoso",
        "zipcode": "78055-340"
    },
    {
        "city": "Cuiaba",
        "state": "MT",
        "district": "Nucleo Habit Cpa",
        "street": "Rua Cafelandia",
        "zipcode": "78055-220"
    },
    {
        "city": "Cuiaba",
        "state": "MT",
        "district": "Coophema",
        "street": "Rua Caroba (Jd Gramado)",
        "zipcode": "78085-794"
    },
    {
        "city": "Cuiaba",
        "state": "MT",
        "district": "Santa Rosa",
        "street": "Rua Santa Filomena (Santa Marta)",
        "zipcode": "78043-530"
    },
    {
        "city": "Cuiaba",
        "state": "MT",
        "district": "Nucleo Habit Cpa",
        "street": "Rua Paraiba",
        "zipcode": "78055-483"
    },
    {
        "city": "Cuiaba",
        "state": "MT",
        "district": "Sao Goncalo",
        "street": "Rua Antonio Dorileo",
        "zipcode": "78085-600"
    },
    {
        "city": "Cuiaba",
        "state": "MT",
        "district": "Nucleo Habit Cpa",
        "street": "Rua Novo Horizonte",
        "zipcode": "78055-605"
    },
    {
        "city": "Cuiaba",
        "state": "MT",
        "district": "Jardim California",
        "street": "Rua Oito",
        "zipcode": "78070-750"
    },
    {
        "city": "Cuiaba",
        "state": "MT",
        "district": "Nucleo Habit Cpa",
        "street": "Rua Maringa",
        "zipcode": "78055-495"
    },
    {
        "city": "Cuiaba",
        "state": "MT",
        "district": "Nucleo Habit Cpa",
        "street": "Rua Dois (Trancredo Neves)",
        "zipcode": "78053-730"
    },
    {
        "city": "Cuiaba",
        "state": "MT",
        "district": "Coophema",
        "street": "Rua Tocantins (Jd Aquario)",
        "zipcode": "78085-150"
    },
    {
        "city": "Cuiaba",
        "state": "MT",
        "district": "Planalto",
        "street": "Rua Trinta De Abril (Novo Horizonte)",
        "zipcode": "78058-786"
    },
    {
        "city": "Cuiaba",
        "state": "MT",
        "district": "Quilombo",
        "street": "Travessa Enzor Ricci",
        "zipcode": "78043-335"
    },
    {
        "city": "Cuiaba",
        "state": "MT",
        "district": "Morada Dos Nobres",
        "street": "Rua Tivoli (Jd Italia)",
        "zipcode": "78060-690"
    },
    {
        "city": "Cuiaba",
        "state": "MT",
        "district": "Santo Antonio Do Pedregal",
        "street": "Rua Oito (Jd Leblon)",
        "zipcode": "78060-140"
    },
    {
        "city": "Cuiaba",
        "state": "MT",
        "district": "Coophema",
        "street": "Rua Da (Jd Gramado) Mata",
        "zipcode": "78085-804"
    },
    {
        "city": "Cuiaba",
        "state": "MT",
        "district": "Jardim Tropical",
        "street": "Rua Vinte E Um De Maio (Sao Benedito)",
        "zipcode": "78065-180"
    },
    {
        "city": "Cuiaba",
        "state": "MT",
        "district": "Nucleo Habit Cpa",
        "street": "Rua Pedra Preta",
        "zipcode": "78055-310"
    },
    {
        "city": "Cuiaba",
        "state": "MT",
        "district": "Santo Antonio Do Pedregal",
        "street": "Rua B",
        "zipcode": "78060-795"
    },
    {
        "city": "Cuiaba",
        "state": "MT",
        "district": "Nucleo Habit Cpa",
        "street": "Rua Itiquira",
        "zipcode": "78055-380"
    },
    {
        "city": "Cuiaba",
        "state": "MT",
        "district": "Coophema",
        "street": "Rua Guatambu (Jd Gramado)",
        "zipcode": "78085-822"
    },
    {
        "city": "Cuiaba",
        "state": "MT",
        "district": "Planalto",
        "street": "Rua Andradina (Novo Mato Grosso)",
        "zipcode": "78058-758"
    },
    {
        "city": "Cuiaba",
        "state": "MT",
        "district": "Nucleo Habit Cpa",
        "street": "Rua Espirito Santo",
        "zipcode": "78055-520"
    },
    {
        "city": "Cuiaba",
        "state": "MT",
        "district": "Nossa Senhora Aparecida",
        "street": "Rua R",
        "zipcode": "78090-605"
    },
    {
        "city": "Cuiaba",
        "state": "MT",
        "district": "Nucleo Habit Cpa",
        "street": "Rua Acorizal",
        "zipcode": "78055-415"
    },
    {
        "city": "Cuiaba",
        "state": "MT",
        "district": "Nucleo Habit Cpa",
        "street": "Rua Arenapolis",
        "zipcode": "78055-360"
    },
    {
        "city": "Cuiaba",
        "state": "MT",
        "district": "Jardim Tropical",
        "street": "Rua Bandeirantes (Sao Benedito)",
        "zipcode": "78065-220"
    },
    {
        "city": "Cuiaba",
        "state": "MT",
        "district": "Nossa Senhora Aparecida",
        "street": "Travessa Y",
        "zipcode": "78090-540"
    },
    {
        "city": "Cuiaba",
        "state": "MT",
        "district": "Altos Do Coxipo",
        "street": "Rodovia Jornalista Arquimedes Pereira Lima",
        "zipcode": "78088-790"
    },
    {
        "city": "Cuiaba",
        "state": "MT",
        "district": "Sao Goncalo",
        "street": "Rua Vinte E Quatro",
        "zipcode": "78090-635"
    },
    {
        "city": "Cuiaba",
        "state": "MT",
        "district": "Nossa Senhora Aparecida",
        "street": "Rua D",
        "zipcode": "78090-560"
    },
    {
        "city": "Cuiaba",
        "state": "MT",
        "district": "Nossa Senhora Aparecida",
        "street": "Travessa A (Jd Paraiso)",
        "zipcode": "78090-440"
    },
    {
        "city": "Cuiaba",
        "state": "MT",
        "district": "Resindencial Coxipo",
        "street": "Rua I",
        "zipcode": "78090-759"
    },
    {
        "city": "Cuiaba",
        "state": "MT",
        "district": "Nossa Senhora Aparecida",
        "street": "Rua Quatro (Jd Buriti)",
        "zipcode": "78090-495"
    }
]