[
    {
        "city": "Rondonopolis",
        "state": "MT",
        "district": "Parque Residencial Sagrada Familia",
        "street": "Rua M",
        "zipcode": "78735-020"
    },
    {
        "city": "Rondonopolis",
        "state": "MT",
        "district": "Parque Real",
        "street": "Rua A",
        "zipcode": "78735-588"
    },
    {
        "city": "Rondonopolis",
        "state": "MT",
        "district": "Jardim Atlantico",
        "street": "Rua Hg",
        "zipcode": "78735-310"
    },
    {
        "city": "Rondonopolis",
        "state": "MT",
        "district": "Jardim Tropical",
        "street": "Avenida Recife (Jd Sao Jose)",
        "zipcode": "78715-240"
    },
    {
        "city": "Rondonopolis",
        "state": "MT",
        "district": "Vila Operaria",
        "street": "Rua Claudemiro Jose Dos Santos (Jd Modelo)",
        "zipcode": "78720-470"
    },
    {
        "city": "Rondonopolis",
        "state": "MT",
        "district": "Parque Real",
        "street": "Rua A",
        "zipcode": "78730-836"
    },
    {
        "city": "Rondonopolis",
        "state": "MT",
        "district": "Parque Residencial Sagrada Familia",
        "street": "Rua A",
        "zipcode": "78735-418"
    },
    {
        "city": "Rondonopolis",
        "state": "MT",
        "district": "Parque Residencial Sagrada Familia",
        "street": "Rua A",
        "zipcode": "78735-502"
    },
    {
        "city": "Rondonopolis",
        "state": "MT",
        "district": "Parque Residencial Sagrada Familia",
        "street": "Rua A",
        "zipcode": "78735-095"
    },
    {
        "city": "Rondonopolis",
        "state": "MT",
        "district": "Parque Real",
        "street": "Rua A",
        "zipcode": "78730-838"
    },
    {
        "city": "Rondonopolis",
        "state": "MT",
        "district": "Parque Residencial Sagrada Familia",
        "street": "Rua M",
        "zipcode": "78735-010"
    },
    {
        "city": "Rondonopolis",
        "state": "MT",
        "district": "Jardim Rivera",
        "street": "Rua Ormindo Pires Amorim",
        "zipcode": "78720-556"
    },
    {
        "city": "Rondonopolis",
        "state": "MT",
        "district": "Parque Residencial Sagrada Familia",
        "street": "Rua A",
        "zipcode": "78735-160"
    },
    {
        "city": "Rondonopolis",
        "state": "MT",
        "district": "Vila Nossa Senhora Do Amparo",
        "street": "Rua Um (Lot Santa Laura)",
        "zipcode": "78730-175"
    },
    {
        "city": "Rondonopolis",
        "state": "MT",
        "district": "Vila Nossa Senhora Do Amparo",
        "street": "Rua Jeronimo Nunes Camargo (Jd Belo Panorama)",
        "zipcode": "78730-190"
    },
    {
        "city": "Rondonopolis",
        "state": "MT",
        "district": "Jardim Mato Grosso",
        "street": "Avenida Lions Internacional",
        "zipcode": "78740-300"
    },
    {
        "city": "Rondonopolis",
        "state": "MT",
        "district": "Jardim Atlantico",
        "street": "Rua Franca (Jd Europa)",
        "zipcode": "78735-280"
    },
    {
        "city": "Rondonopolis",
        "state": "MT",
        "district": "Jardim Atlantico",
        "street": "Rua Bh",
        "zipcode": "78735-340"
    },
    {
        "city": "Rondonopolis",
        "state": "MT",
        "district": "Parque Residencial Sagrada Familia",
        "street": "Rua G",
        "zipcode": "78735-658"
    },
    {
        "city": "Rondonopolis",
        "state": "MT",
        "district": "Jardim Universitario",
        "street": "Rua Um",
        "zipcode": "78750-170"
    },
    {
        "city": "Rondonopolis",
        "state": "MT",
        "district": "Parque Real",
        "street": "Rua A",
        "zipcode": "78735-620"
    },
    {
        "city": "Rondonopolis",
        "state": "MT",
        "district": "Vila Goulart",
        "street": "Rua B (Vila Militar)",
        "zipcode": "78745-340"
    },
    {
        "city": "Rondonopolis",
        "state": "MT",
        "district": "Vila Aurora",
        "street": "Rua Cecilia Santos Pereira De Oliveira",
        "zipcode": "78740-690"
    },
    {
        "city": "Rondonopolis",
        "state": "MT",
        "district": "Conj Sao Jose",
        "street": "Avenida A",
        "zipcode": "78715-362"
    },
    {
        "city": "Rondonopolis",
        "state": "MT",
        "district": "Parque Residencial Sagrada Familia",
        "street": "Rua A",
        "zipcode": "78735-132"
    },
    {
        "city": "Rondonopolis",
        "state": "MT",
        "district": "Parque Residencial Sagrada Familia",
        "street": "Rua M",
        "zipcode": "78735-005"
    },
    {
        "city": "Rondonopolis",
        "state": "MT",
        "district": "Jardim Tropical",
        "street": "Avenida Plinio Aguiar",
        "zipcode": "78715-210"
    },
    {
        "city": "Rondonopolis",
        "state": "MT",
        "district": "Conj Sao Jose",
        "street": "Rua Trinta E Nove",
        "zipcode": "78715-452"
    },
    {
        "city": "Rondonopolis",
        "state": "MT",
        "district": "Jardim Atlantico",
        "street": "Rua Ci",
        "zipcode": "78735-230"
    },
    {
        "city": "Rondonopolis",
        "state": "MT",
        "district": "Vila Planalto",
        "street": "Rua Ceara",
        "zipcode": "78710-580"
    },
    {
        "city": "Rondonopolis",
        "state": "MT",
        "district": "Jardim Paulista",
        "street": "Rua B",
        "zipcode": "78700-770"
    },
    {
        "city": "Rondonopolis",
        "state": "MT",
        "district": "Jardim Paulista",
        "street": "Rua Artur M. Magalhaes",
        "zipcode": "78700-790"
    },
    {
        "city": "Rondonopolis",
        "state": "MT",
        "district": "Santa Cruz",
        "street": "Travessa Seis",
        "zipcode": "78710-840"
    },
    {
        "city": "Rondonopolis",
        "state": "MT",
        "district": "Parque Real",
        "street": "Rua A",
        "zipcode": "78735-542"
    },
    {
        "city": "Rondonopolis",
        "state": "MT",
        "district": "Jardim Oliveira",
        "street": "Rua B (Vila Santo Antonio)",
        "zipcode": "78700-510"
    },
    {
        "city": "Rondonopolis",
        "state": "MT",
        "district": "Jardim Paulista",
        "street": "Rua Belarmino F. De Almeida (Jd Cuiaba)",
        "zipcode": "78700-740"
    },
    {
        "city": "Rondonopolis",
        "state": "MT",
        "district": "Santa Cruz",
        "street": "Travessa Leblon",
        "zipcode": "78700-335"
    },
    {
        "city": "Rondonopolis",
        "state": "MT",
        "district": "Centro",
        "street": "Travessa A (Jd Sao Francisco)",
        "zipcode": "78700-240"
    },
    {
        "city": "Rondonopolis",
        "state": "MT",
        "district": "Jardim Paulista",
        "street": "Rua G (Jd Beira Rio)",
        "zipcode": "78700-365"
    },
    {
        "city": "Rondonopolis",
        "state": "MT",
        "district": "Vila Canaa",
        "street": "Rua Teofilo F. Da Cruz",
        "zipcode": "78700-140"
    },
    {
        "city": "Rondonopolis",
        "state": "MT",
        "district": "Jardim Paulista",
        "street": "Rua Manoel Estacio Filho (Jd Cuiaba)",
        "zipcode": "78700-750"
    },
    {
        "city": "Rondonopolis",
        "state": "MT",
        "district": "Centro",
        "street": "Rua Dois Horizontes",
        "zipcode": "78700-340"
    },
    {
        "city": "Rondonopolis",
        "state": "MT",
        "district": "Jardim Oliveira",
        "street": "Rua Jk",
        "zipcode": "78700-450"
    },
    {
        "city": "Rondonopolis",
        "state": "MT",
        "district": "Centro",
        "street": "Rua Joao Pessoa",
        "zipcode": "78700-080"
    },
    {
        "city": "Rondonopolis",
        "state": "MT",
        "district": "Centro",
        "street": "Travessa Augusto Mario",
        "zipcode": "78700-195"
    },
    {
        "city": "Rondonopolis",
        "state": "MT",
        "district": "Jardim Paulista",
        "street": "Travessa I",
        "zipcode": "78700-366"
    },
    {
        "city": "Rondonopolis",
        "state": "MT",
        "district": "Centro",
        "street": "Rua Dr Zanete",
        "zipcode": "78700-290"
    },
    {
        "city": "Rondonopolis",
        "state": "MT",
        "district": "Jardim Oliveira",
        "street": "Rua A (Vila Santo Antonio)",
        "zipcode": "78700-480"
    },
    {
        "city": "Rondonopolis",
        "state": "MT",
        "district": "Jardim Oliveira",
        "street": "Rua C (Vila Santo Antonio)",
        "zipcode": "78700-530"
    },
    {
        "city": "Rondonopolis",
        "state": "MT",
        "district": "Jardim Paulista",
        "street": "Rua C",
        "zipcode": "78700-780"
    },
    {
        "city": "Rondonopolis",
        "state": "MT",
        "district": "Vila Birigui",
        "street": "Rua Ceara",
        "zipcode": "78705-070"
    },
    {
        "city": "Rondonopolis",
        "state": "MT",
        "district": "Vila Planalto",
        "street": "Rua Bahia (Lot Santa Luzia)",
        "zipcode": "78710-560"
    },
    {
        "city": "Rondonopolis",
        "state": "MT",
        "district": "Jardim Vera Cruz",
        "street": "Rua C",
        "zipcode": "78715-330"
    },
    {
        "city": "Rondonopolis",
        "state": "MT",
        "district": "Vila Birigui",
        "street": "Rua Jose Salmen",
        "zipcode": "78705-060"
    },
    {
        "city": "Rondonopolis",
        "state": "MT",
        "district": "Cidade Salmen",
        "street": "Rua Piaui",
        "zipcode": "78705-130"
    },
    {
        "city": "Rondonopolis",
        "state": "MT",
        "district": "Cidade Salmen",
        "street": "Rua Rio Grande Do Sul",
        "zipcode": "78705-300"
    },
    {
        "city": "Rondonopolis",
        "state": "MT",
        "district": "Jardim Tropical",
        "street": "Rua Porto Velho",
        "zipcode": "78715-060"
    },
    {
        "city": "Rondonopolis",
        "state": "MT",
        "district": "Vila Birigui",
        "street": "Rua Humaita",
        "zipcode": "78705-180"
    },
    {
        "city": "Rondonopolis",
        "state": "MT",
        "district": "Vila Operaria",
        "street": "Rua C (Jd Res Lageadinho)",
        "zipcode": "78720-003"
    },
    {
        "city": "Rondonopolis",
        "state": "MT",
        "district": "Conj Sao Jose",
        "street": "Rua Quarenta E Cinco",
        "zipcode": "78715-474"
    },
    {
        "city": "Rondonopolis",
        "state": "MT",
        "district": "Conj Sao Jose",
        "street": "Rua Dezenove",
        "zipcode": "78715-366"
    },
    {
        "city": "Rondonopolis",
        "state": "MT",
        "district": "Vila Birigui",
        "street": "Rua Mirandopolis",
        "zipcode": "78705-610"
    },
    {
        "city": "Rondonopolis",
        "state": "MT",
        "district": "Vila Planalto",
        "street": "Rua B (Jd Santa Rosa)",
        "zipcode": "78710-661"
    },
    {
        "city": "Rondonopolis",
        "state": "MT",
        "district": "Conj Sao Jose",
        "street": "Rua Quarenta E Tres",
        "zipcode": "78715-468"
    },
    {
        "city": "Rondonopolis",
        "state": "MT",
        "district": "Jardim Santa Clara",
        "street": "Rua Um",
        "zipcode": "78720-330"
    },
    {
        "city": "Rondonopolis",
        "state": "MT",
        "district": "Jardim Assuncao",
        "street": "Avenida Ipiranga (Lot Oliveira)",
        "zipcode": "78720-120"
    },
    {
        "city": "Rondonopolis",
        "state": "MT",
        "district": "Jardim Pindorama",
        "street": "Travessa Valton Ramos",
        "zipcode": "78710-605"
    },
    {
        "city": "Rondonopolis",
        "state": "MT",
        "district": "Vila Operaria",
        "street": "Rua G (Jd Res Lageadinho)",
        "zipcode": "78720-007"
    },
    {
        "city": "Rondonopolis",
        "state": "MT",
        "district": "Jardim Santa Clara",
        "street": "Avenida Paulino De Oliveira",
        "zipcode": "78720-290"
    },
    {
        "city": "Rondonopolis",
        "state": "MT",
        "district": "Vila Nossa Senhora Do Amparo",
        "street": "Avenida Jose De Assis (Jd Belo Panorama)",
        "zipcode": "78730-220"
    },
    {
        "city": "Rondonopolis",
        "state": "MT",
        "district": "Vila Planalto",
        "street": "Travessa Dezeli",
        "zipcode": "78710-565"
    },
    {
        "city": "Rondonopolis",
        "state": "MT",
        "district": "Vila Birigui",
        "street": "Rua Treze De Maio",
        "zipcode": "78705-120"
    },
    {
        "city": "Rondonopolis",
        "state": "MT",
        "district": "Vila Planalto",
        "street": "Rua C (Jd Santa Rosa)",
        "zipcode": "78710-662"
    },
    {
        "city": "Rondonopolis",
        "state": "MT",
        "district": "Vila Nossa Senhora Do Amparo",
        "street": "Avenida Euclides Jose Da Silva (Jd Belo Panorama)",
        "zipcode": "78730-210"
    },
    {
        "city": "Rondonopolis",
        "state": "MT",
        "district": "Jardim Monte Libano",
        "street": "Avenida Duque De Caxias",
        "zipcode": "78710-300"
    },
    {
        "city": "Rondonopolis",
        "state": "MT",
        "district": "Jardim Tropical",
        "street": "Rua Rondonia",
        "zipcode": "78715-260"
    },
    {
        "city": "Rondonopolis",
        "state": "MT",
        "district": "Jardim Rivera",
        "street": "Rua C (Jd Modelo)",
        "zipcode": "78720-285"
    },
    {
        "city": "Rondonopolis",
        "state": "MT",
        "district": "Vila Operaria",
        "street": "Rua R (Jd Res Lageadinho)",
        "zipcode": "78720-008"
    },
    {
        "city": "Rondonopolis",
        "state": "MT",
        "district": "Jardim Pindorama",
        "street": "Rua Cenedon Ramos",
        "zipcode": "78710-540"
    },
    {
        "city": "Rondonopolis",
        "state": "MT",
        "district": "Conj Sao Jose",
        "street": "Rua Quarenta E Um",
        "zipcode": "78715-460"
    },
    {
        "city": "Rondonopolis",
        "state": "MT",
        "district": "Jardim Paulista",
        "street": "Rua Barao De Jundiai",
        "zipcode": "78700-805"
    },
    {
        "city": "Rondonopolis",
        "state": "MT",
        "district": "Cidade Salmen",
        "street": "Rodovia Br",
        "zipcode": "78705-550"
    },
    {
        "city": "Rondonopolis",
        "state": "MT",
        "district": "Vila Operaria",
        "street": "Rua Geraldo Jose De Almeida (Jd Modelo)",
        "zipcode": "78720-460"
    },
    {
        "city": "Rondonopolis",
        "state": "MT",
        "district": "Jardim Luz Da Yara",
        "street": "Rua Dos Radialistas",
        "zipcode": "78720-350"
    },
    {
        "city": "Rondonopolis",
        "state": "MT",
        "district": "Jardim Tropical",
        "street": "Rua Irma Bernada",
        "zipcode": "78715-250"
    },
    {
        "city": "Rondonopolis",
        "state": "MT",
        "district": "La Salle",
        "street": "Rua Washington Luis",
        "zipcode": "78710-110"
    },
    {
        "city": "Rondonopolis",
        "state": "MT",
        "district": "Vila Planalto",
        "street": "Rua D (Jd Santa Rosa)",
        "zipcode": "78710-663"
    },
    {
        "city": "Rondonopolis",
        "state": "MT",
        "district": "Vila Planalto",
        "street": "Rua Maranhao (Lot Santa Luzia)",
        "zipcode": "78710-550"
    },
    {
        "city": "Rondonopolis",
        "state": "MT",
        "district": "Vila Planalto",
        "street": "Rua Pernambuco",
        "zipcode": "78710-590"
    },
    {
        "city": "Rondonopolis",
        "state": "MT",
        "district": "La Salle",
        "street": "Rua Ademar Candido Costa (Jd Guanabara)",
        "zipcode": "78710-130"
    },
    {
        "city": "Rondonopolis",
        "state": "MT",
        "district": "Jardim Brasilia",
        "street": "Rua Francisco Tabua (Vila Santo Antonio)",
        "zipcode": "78700-615"
    },
    {
        "city": "Rondonopolis",
        "state": "MT",
        "district": "Vila Operaria",
        "street": "Rua Mato Grosso (Vila Clarion)",
        "zipcode": "78720-395"
    },
    {
        "city": "Rondonopolis",
        "state": "MT",
        "district": "Vila Operaria",
        "street": "Rua Quatro (Jd Brasil)",
        "zipcode": "78720-108"
    },
    {
        "city": "Rondonopolis",
        "state": "MT",
        "district": "Cidade Salmen",
        "street": "Rua Tres (Vila Mariley)",
        "zipcode": "78705-206"
    },
    {
        "city": "Rondonopolis",
        "state": "MT",
        "district": "Jardim Rivera",
        "street": "Rua D (Jd Modelo)",
        "zipcode": "78720-455"
    },
    {
        "city": "Rondonopolis",
        "state": "MT",
        "district": "Jardim Rivera",
        "street": "Rua Filemon Pinto",
        "zipcode": "78720-560"
    },
    {
        "city": "Rondonopolis",
        "state": "MT",
        "district": "Jardim Serra Dourada",
        "street": "Rua Doze",
        "zipcode": "78715-544"
    },
    {
        "city": "Rondonopolis",
        "state": "MT",
        "district": "Jardim Tropical",
        "street": "Rua Ponta Pora (Vila Castelo)",
        "zipcode": "78715-230"
    },
    {
        "city": "Rondonopolis",
        "state": "MT",
        "district": "Conj Sao Jose",
        "street": "Rua Quarenta E Quatro",
        "zipcode": "78715-470"
    },
    {
        "city": "Rondonopolis",
        "state": "MT",
        "district": "Vila Boa Esperanca",
        "street": "Avenida Joao Ponce De Arruda",
        "zipcode": "78720-100"
    },
    {
        "city": "Rondonopolis",
        "state": "MT",
        "district": "Vila Operaria",
        "street": "Avenida Filinto Muller",
        "zipcode": "78720-500"
    },
    {
        "city": "Rondonopolis",
        "state": "MT",
        "district": "Cidade Salmen",
        "street": "Rua Dois (Vila Mariley)",
        "zipcode": "78705-204"
    },
    {
        "city": "Rondonopolis",
        "state": "MT",
        "district": "Jardim Serra Dourada",
        "street": "Rua Treze",
        "zipcode": "78715-546"
    },
    {
        "city": "Rondonopolis",
        "state": "MT",
        "district": "Jardim Participacao",
        "street": "Rua Da Saudade",
        "zipcode": "78730-380"
    },
    {
        "city": "Rondonopolis",
        "state": "MT",
        "district": "Cidade Alta",
        "street": "Avenida Jussara",
        "zipcode": "78730-400"
    },
    {
        "city": "Rondonopolis",
        "state": "MT",
        "district": "Jardim Participacao",
        "street": "Rua Das Oliveiras",
        "zipcode": "78730-460"
    },
    {
        "city": "Rondonopolis",
        "state": "MT",
        "district": "Cidade Alta",
        "street": "Rua Das Seringueiras",
        "zipcode": "78730-490"
    },
    {
        "city": "Rondonopolis",
        "state": "MT",
        "district": "Vila Cardoso",
        "street": "Rua Pio Xi",
        "zipcode": "78730-150"
    },
    {
        "city": "Rondonopolis",
        "state": "MT",
        "district": "Cidade Alta",
        "street": "Rua Morumbi",
        "zipcode": "78730-580"
    },
    {
        "city": "Rondonopolis",
        "state": "MT",
        "district": "Jardim Participacao",
        "street": "Rua Napolis",
        "zipcode": "78730-390"
    },
    {
        "city": "Rondonopolis",
        "state": "MT",
        "district": "Vila Nossa Senhora Do Amparo",
        "street": "Avenida Sagrada Familia (Vila Santa Maria)",
        "zipcode": "78730-650"
    },
    {
        "city": "Rondonopolis",
        "state": "MT",
        "district": "Jardim Sumare",
        "street": "Rua Jose F Da Costa",
        "zipcode": "78720-700"
    },
    {
        "city": "Rondonopolis",
        "state": "MT",
        "district": "Jardim Iguassu",
        "street": "Rua Jundiai",
        "zipcode": "78730-330"
    },
    {
        "city": "Rondonopolis",
        "state": "MT",
        "district": "Jardim Participacao",
        "street": "Travessa Treze",
        "zipcode": "78730-295"
    },
    {
        "city": "Rondonopolis",
        "state": "MT",
        "district": "Jardim Participacao",
        "street": "Rua C",
        "zipcode": "78730-230"
    },
    {
        "city": "Rondonopolis",
        "state": "MT",
        "district": "Vila Cardoso",
        "street": "Rua Joao Xxiii",
        "zipcode": "78730-130"
    },
    {
        "city": "Rondonopolis",
        "state": "MT",
        "district": "Jardim Participacao",
        "street": "Rua Januaria",
        "zipcode": "78730-470"
    },
    {
        "city": "Rondonopolis",
        "state": "MT",
        "district": "Vila Nossa Senhora Do Amparo",
        "street": "Rua B (Jd Res Sao Jose)",
        "zipcode": "78730-740"
    },
    {
        "city": "Rondonopolis",
        "state": "MT",
        "district": "Parque Real",
        "street": "Rua A",
        "zipcode": "78730-830"
    },
    {
        "city": "Rondonopolis",
        "state": "MT",
        "district": "Jardim Participacao",
        "street": "Rua Das Mangueiras",
        "zipcode": "78730-480"
    },
    {
        "city": "Rondonopolis",
        "state": "MT",
        "district": "Jardim Iguassu",
        "street": "Avenida Maringa",
        "zipcode": "78730-530"
    },
    {
        "city": "Rondonopolis",
        "state": "MT",
        "district": "Jardim Participacao",
        "street": "Travessa Tres",
        "zipcode": "78730-256"
    },
    {
        "city": "Rondonopolis",
        "state": "MT",
        "district": "Cidade Alta",
        "street": "Rua Guararapes",
        "zipcode": "78730-560"
    },
    {
        "city": "Rondonopolis",
        "state": "MT",
        "district": "Jardim Iguassu",
        "street": "Rua Esmeralda",
        "zipcode": "78730-340"
    },
    {
        "city": "Rondonopolis",
        "state": "MT",
        "district": "Parque Residencial Sagrada Familia",
        "street": "Rua A",
        "zipcode": "78735-044"
    },
    {
        "city": "Rondonopolis",
        "state": "MT",
        "district": "Parque Real",
        "street": "Rua A",
        "zipcode": "78730-832"
    },
    {
        "city": "Rondonopolis",
        "state": "MT",
        "district": "Jardim Participacao",
        "street": "Rua A",
        "zipcode": "78730-250"
    },
    {
        "city": "Rondonopolis",
        "state": "MT",
        "district": "Vila Operaria",
        "street": "Rua Mariana Leite De Souza (Cidade Natal)",
        "zipcode": "78720-680"
    },
    {
        "city": "Rondonopolis",
        "state": "MT",
        "district": "Jardim Participacao",
        "street": "Travessa Doze",
        "zipcode": "78730-238"
    },
    {
        "city": "Rondonopolis",
        "state": "MT",
        "district": "Cidade Alta",
        "street": "Rua Curupaitis",
        "zipcode": "78730-590"
    },
    {
        "city": "Rondonopolis",
        "state": "MT",
        "district": "Vila Operaria",
        "street": "Rua Pedro Antunes De Souza (Cidade Natal)",
        "zipcode": "78720-670"
    },
    {
        "city": "Rondonopolis",
        "state": "MT",
        "district": "Parque Residencial Sagrada Familia",
        "street": "Rua M",
        "zipcode": "78735-025"
    },
    {
        "city": "Rondonopolis",
        "state": "MT",
        "district": "Jardim Participacao",
        "street": "Travessa Quinze",
        "zipcode": "78730-274"
    },
    {
        "city": "Rondonopolis",
        "state": "MT",
        "district": "Jardim Participacao",
        "street": "Travessa Onze",
        "zipcode": "78730-246"
    },
    {
        "city": "Rondonopolis",
        "state": "MT",
        "district": "Jardim Participacao",
        "street": "Travessa Dezessete",
        "zipcode": "78730-268"
    },
    {
        "city": "Rondonopolis",
        "state": "MT",
        "district": "Vila Cardoso",
        "street": "Rua Sao Pedro",
        "zipcode": "78730-140"
    },
    {
        "city": "Rondonopolis",
        "state": "MT",
        "district": "Jardim Participacao",
        "street": "Rua Transcontinental",
        "zipcode": "78730-370"
    },
    {
        "city": "Rondonopolis",
        "state": "MT",
        "district": "Jardim Sumare",
        "street": "Rua Novo Horizonte",
        "zipcode": "78720-710"
    },
    {
        "city": "Rondonopolis",
        "state": "MT",
        "district": "Jardim Participacao",
        "street": "Rua Sao Francisco",
        "zipcode": "78730-360"
    },
    {
        "city": "Rondonopolis",
        "state": "MT",
        "district": "Jardim Sumare",
        "street": "Rua Das Flores",
        "zipcode": "78720-720"
    },
    {
        "city": "Rondonopolis",
        "state": "MT",
        "district": "Parque Real",
        "street": "Rua A",
        "zipcode": "78730-834"
    },
    {
        "city": "Rondonopolis",
        "state": "MT",
        "district": "Jardim Participacao",
        "street": "Travessa Sao Francisco",
        "zipcode": "78730-440"
    },
    {
        "city": "Rondonopolis",
        "state": "MT",
        "district": "Jardim Participacao",
        "street": "Travessa Catorze",
        "zipcode": "78730-262"
    },
    {
        "city": "Rondonopolis",
        "state": "MT",
        "district": "Jardim Sumare",
        "street": "Rua Jose A Teixeira",
        "zipcode": "78720-690"
    },
    {
        "city": "Rondonopolis",
        "state": "MT",
        "district": "Jardim Iguassu",
        "street": "Rodovia Eixo Viario Conrado Sales",
        "zipcode": "78725-600"
    },
    {
        "city": "Rondonopolis",
        "state": "MT",
        "district": "Jardim Participacao",
        "street": "Travessa Um",
        "zipcode": "78730-258"
    },
    {
        "city": "Rondonopolis",
        "state": "MT",
        "district": "Jardim Sumare",
        "street": "Rua Sao Pedro",
        "zipcode": "78720-730"
    },
    {
        "city": "Rondonopolis",
        "state": "MT",
        "district": "Cidade Alta",
        "street": "Avenida Jacui",
        "zipcode": "78730-450"
    },
    {
        "city": "Rondonopolis",
        "state": "MT",
        "district": "Parque Residencial Sagrada Familia",
        "street": "Rua M",
        "zipcode": "78735-030"
    },
    {
        "city": "Rondonopolis",
        "state": "MT",
        "district": "Cidade Alta",
        "street": "Avenida Caninde",
        "zipcode": "78730-520"
    },
    {
        "city": "Rondonopolis",
        "state": "MT",
        "district": "Vila Cardoso",
        "street": "Rua Paulo Vi",
        "zipcode": "78730-090"
    },
    {
        "city": "Rondonopolis",
        "state": "MT",
        "district": "Parque Residencial Sagrada Familia",
        "street": "Rua M",
        "zipcode": "78735-040"
    },
    {
        "city": "Rondonopolis",
        "state": "MT",
        "district": "Vila Nossa Senhora Do Amparo",
        "street": "Rua Doze (Vila Santa Maria)",
        "zipcode": "78730-670"
    },
    {
        "city": "Rondonopolis",
        "state": "MT",
        "district": "Jardim Participacao",
        "street": "Rua Tapajos",
        "zipcode": "78730-410"
    },
    {
        "city": "Rondonopolis",
        "state": "MT",
        "district": "Vila Nossa Senhora Do Amparo",
        "street": "Travessa Cinco (Vila Santa Maria)",
        "zipcode": "78730-630"
    },
    {
        "city": "Rondonopolis",
        "state": "MT",
        "district": "Parque Residencial Sagrada Familia",
        "street": "Rua M",
        "zipcode": "78735-032"
    },
    {
        "city": "Rondonopolis",
        "state": "MT",
        "district": "Vila Nossa Senhora Do Amparo",
        "street": "Rua Vinte E Dois (Vila Santa Maria)",
        "zipcode": "78730-640"
    },
    {
        "city": "Rondonopolis",
        "state": "MT",
        "district": "Vila Nossa Senhora Do Amparo",
        "street": "Travessa Dois (Vila Santa Maria)",
        "zipcode": "78730-660"
    },
    {
        "city": "Rondonopolis",
        "state": "MT",
        "district": "Jardim Iguassu",
        "street": "Rua Da Concordia",
        "zipcode": "78730-320"
    },
    {
        "city": "Rondonopolis",
        "state": "MT",
        "district": "Jardim Atlantico",
        "street": "Rua Ca",
        "zipcode": "78735-212"
    },
    {
        "city": "Rondonopolis",
        "state": "MT",
        "district": "Parque Residencial Sagrada Familia",
        "street": "Rua A",
        "zipcode": "78735-088"
    },
    {
        "city": "Rondonopolis",
        "state": "MT",
        "district": "Jardim Atlantico",
        "street": "Rua Ca",
        "zipcode": "78735-225"
    },
    {
        "city": "Rondonopolis",
        "state": "MT",
        "district": "Jardim Atlantico",
        "street": "Rua Ge",
        "zipcode": "78735-295"
    },
    {
        "city": "Rondonopolis",
        "state": "MT",
        "district": "Jardim Atlantico",
        "street": "Rua Ec",
        "zipcode": "78735-272"
    },
    {
        "city": "Rondonopolis",
        "state": "MT",
        "district": "Jardim Atlantico",
        "street": "Rua Ca",
        "zipcode": "78735-210"
    },
    {
        "city": "Rondonopolis",
        "state": "MT",
        "district": "Parque Residencial Sagrada Familia",
        "street": "Rua A",
        "zipcode": "78735-165"
    },
    {
        "city": "Rondonopolis",
        "state": "MT",
        "district": "Parque Residencial Sagrada Familia",
        "street": "Rua A",
        "zipcode": "78735-130"
    },
    {
        "city": "Rondonopolis",
        "state": "MT",
        "district": "Jardim Atlantico",
        "street": "Rua Alemanha (Jd Europa)",
        "zipcode": "78735-205"
    },
    {
        "city": "Rondonopolis",
        "state": "MT",
        "district": "Parque Residencial Sagrada Familia",
        "street": "Rua A",
        "zipcode": "78735-108"
    },
    {
        "city": "Rondonopolis",
        "state": "MT",
        "district": "Parque Residencial Sagrada Familia",
        "street": "Rua A",
        "zipcode": "78735-148"
    },
    {
        "city": "Rondonopolis",
        "state": "MT",
        "district": "Parque Residencial Sagrada Familia",
        "street": "Rua A",
        "zipcode": "78735-078"
    },
    {
        "city": "Rondonopolis",
        "state": "MT",
        "district": "Jardim Atlantico",
        "street": "Rua Suica (Jd Europa)",
        "zipcode": "78735-298"
    },
    {
        "city": "Rondonopolis",
        "state": "MT",
        "district": "Jardim Atlantico",
        "street": "Rua Ca",
        "zipcode": "78735-215"
    },
    {
        "city": "Rondonopolis",
        "state": "MT",
        "district": "Parque Residencial Sagrada Familia",
        "street": "Rua A",
        "zipcode": "78735-062"
    },
    {
        "city": "Rondonopolis",
        "state": "MT",
        "district": "Parque Residencial Sagrada Familia",
        "street": "Alameda Das Margaridas",
        "zipcode": "78735-200"
    },
    {
        "city": "Rondonopolis",
        "state": "MT",
        "district": "Jardim Atlantico",
        "street": "Rua Ca",
        "zipcode": "78735-242"
    },
    {
        "city": "Rondonopolis",
        "state": "MT",
        "district": "Parque Residencial Sagrada Familia",
        "street": "Rua A",
        "zipcode": "78735-065"
    },
    {
        "city": "Rondonopolis",
        "state": "MT",
        "district": "Parque Residencial Sagrada Familia",
        "street": "Rua A",
        "zipcode": "78735-178"
    },
    {
        "city": "Rondonopolis",
        "state": "MT",
        "district": "Parque Residencial Sagrada Familia",
        "street": "Rua A",
        "zipcode": "78735-098"
    },
    {
        "city": "Rondonopolis",
        "state": "MT",
        "district": "Parque Residencial Sagrada Familia",
        "street": "Rua A",
        "zipcode": "78735-152"
    },
    {
        "city": "Rondonopolis",
        "state": "MT",
        "district": "Jardim Atlantico",
        "street": "Rua Ge",
        "zipcode": "78735-285"
    },
    {
        "city": "Rondonopolis",
        "state": "MT",
        "district": "Parque Residencial Sagrada Familia",
        "street": "Avenida Governador Julio Jose De Campos",
        "zipcode": "78735-100"
    },
    {
        "city": "Rondonopolis",
        "state": "MT",
        "district": "Jardim Atlantico",
        "street": "Rua Portugal (Jd Europa)",
        "zipcode": "78735-240"
    },
    {
        "city": "Rondonopolis",
        "state": "MT",
        "district": "Parque Residencial Sagrada Familia",
        "street": "Rua A",
        "zipcode": "78735-172"
    },
    {
        "city": "Rondonopolis",
        "state": "MT",
        "district": "Parque Residencial Sagrada Familia",
        "street": "Rua W",
        "zipcode": "78735-085"
    },
    {
        "city": "Rondonopolis",
        "state": "MT",
        "district": "Jardim Atlantico",
        "street": "Rua Dc",
        "zipcode": "78735-250"
    },
    {
        "city": "Rondonopolis",
        "state": "MT",
        "district": "Jardim Atlantico",
        "street": "Rua Ec",
        "zipcode": "78735-270"
    },
    {
        "city": "Rondonopolis",
        "state": "MT",
        "district": "Parque Residencial Sagrada Familia",
        "street": "Rua A",
        "zipcode": "78735-195"
    },
    {
        "city": "Rondonopolis",
        "state": "MT",
        "district": "Parque Residencial Sagrada Familia",
        "street": "Rua A",
        "zipcode": "78735-050"
    },
    {
        "city": "Rondonopolis",
        "state": "MT",
        "district": "Parque Residencial Sagrada Familia",
        "street": "Rua A",
        "zipcode": "78735-118"
    },
    {
        "city": "Rondonopolis",
        "state": "MT",
        "district": "Parque Residencial Sagrada Familia",
        "street": "Rua A",
        "zipcode": "78735-092"
    },
    {
        "city": "Rondonopolis",
        "state": "MT",
        "district": "Parque Residencial Sagrada Familia",
        "street": "Rua A",
        "zipcode": "78735-162"
    },
    {
        "city": "Rondonopolis",
        "state": "MT",
        "district": "Parque Residencial Sagrada Familia",
        "street": "Rua A",
        "zipcode": "78735-110"
    },
    {
        "city": "Rondonopolis",
        "state": "MT",
        "district": "Parque Residencial Sagrada Familia",
        "street": "Rua A",
        "zipcode": "78735-080"
    },
    {
        "city": "Rondonopolis",
        "state": "MT",
        "district": "Jardim Atlantico",
        "street": "Rua Ge",
        "zipcode": "78735-290"
    },
    {
        "city": "Rondonopolis",
        "state": "MT",
        "district": "Parque Residencial Sagrada Familia",
        "street": "Rua A",
        "zipcode": "78735-058"
    },
    {
        "city": "Rondonopolis",
        "state": "MT",
        "district": "Parque Residencial Sagrada Familia",
        "street": "Rua A",
        "zipcode": "78735-112"
    },
    {
        "city": "Rondonopolis",
        "state": "MT",
        "district": "Jardim Atlantico",
        "street": "Rua Ci",
        "zipcode": "78735-232"
    },
    {
        "city": "Rondonopolis",
        "state": "MT",
        "district": "Parque Residencial Sagrada Familia",
        "street": "Rua A",
        "zipcode": "78735-070"
    },
    {
        "city": "Rondonopolis",
        "state": "MT",
        "district": "Parque Residencial Sagrada Familia",
        "street": "Rua A",
        "zipcode": "78735-185"
    },
    {
        "city": "Rondonopolis",
        "state": "MT",
        "district": "Parque Residencial Sagrada Familia",
        "street": "Rua A",
        "zipcode": "78735-155"
    },
    {
        "city": "Rondonopolis",
        "state": "MT",
        "district": "Parque Residencial Sagrada Familia",
        "street": "Rua A",
        "zipcode": "78735-188"
    },
    {
        "city": "Rondonopolis",
        "state": "MT",
        "district": "Jardim Atlantico",
        "street": "Rua Italia (Jd Europa)",
        "zipcode": "78735-245"
    },
    {
        "city": "Rondonopolis",
        "state": "MT",
        "district": "Parque Residencial Sagrada Familia",
        "street": "Avenida W",
        "zipcode": "78735-138"
    },
    {
        "city": "Rondonopolis",
        "state": "MT",
        "district": "Jardim Atlantico",
        "street": "Rua Hg",
        "zipcode": "78735-305"
    },
    {
        "city": "Rondonopolis",
        "state": "MT",
        "district": "Parque Residencial Sagrada Familia",
        "street": "Rua A",
        "zipcode": "78735-045"
    },
    {
        "city": "Rondonopolis",
        "state": "MT",
        "district": "Parque Residencial Sagrada Familia",
        "street": "Rua A",
        "zipcode": "78735-150"
    },
    {
        "city": "Rondonopolis",
        "state": "MT",
        "district": "Parque Residencial Sagrada Familia",
        "street": "Rua A",
        "zipcode": "78735-060"
    },
    {
        "city": "Rondonopolis",
        "state": "MT",
        "district": "Parque Residencial Sagrada Familia",
        "street": "Avenida W",
        "zipcode": "78735-140"
    },
    {
        "city": "Rondonopolis",
        "state": "MT",
        "district": "Parque Residencial Sagrada Familia",
        "street": "Rua A",
        "zipcode": "78735-102"
    },
    {
        "city": "Rondonopolis",
        "state": "MT",
        "district": "Jardim Atlantico",
        "street": "Rua Ec",
        "zipcode": "78735-275"
    },
    {
        "city": "Rondonopolis",
        "state": "MT",
        "district": "Jardim Atlantico",
        "street": "Rua Ci",
        "zipcode": "78735-235"
    },
    {
        "city": "Rondonopolis",
        "state": "MT",
        "district": "Parque Residencial Sagrada Familia",
        "street": "Avenida W",
        "zipcode": "78735-170"
    },
    {
        "city": "Rondonopolis",
        "state": "MT",
        "district": "Jardim Atlantico",
        "street": "Rua Hg",
        "zipcode": "78735-302"
    },
    {
        "city": "Rondonopolis",
        "state": "MT",
        "district": "Jardim Atlantico",
        "street": "Rua Bh",
        "zipcode": "78735-318"
    },
    {
        "city": "Rondonopolis",
        "state": "MT",
        "district": "Vila Aurora",
        "street": "Rua Afonso Pena",
        "zipcode": "78740-080"
    },
    {
        "city": "Rondonopolis",
        "state": "MT",
        "district": "Vila Aurora",
        "street": "Avenida Sothero Silva",
        "zipcode": "78740-090"
    },
    {
        "city": "Rondonopolis",
        "state": "MT",
        "district": "Vila Aurora",
        "street": "Avenida Duque De Caxias",
        "zipcode": "78740-100"
    },
    {
        "city": "Rondonopolis",
        "state": "MT",
        "district": "Vila Aurora",
        "street": "Avenida Padre Anchieta",
        "zipcode": "78740-120"
    },
    {
        "city": "Rondonopolis",
        "state": "MT",
        "district": "Vila Aurora",
        "street": "Rua Dom Pedro Ii",
        "zipcode": "78740-200"
    },
    {
        "city": "Rondonopolis",
        "state": "MT",
        "district": "Vila Aurora",
        "street": "Rua Paulo Vi",
        "zipcode": "78740-140"
    },
    {
        "city": "Rondonopolis",
        "state": "MT",
        "district": "Jardim Atlantico",
        "street": "Rua Hf",
        "zipcode": "78735-370"
    },
    {
        "city": "Rondonopolis",
        "state": "MT",
        "district": "Parque Residencial Sagrada Familia",
        "street": "Rua A",
        "zipcode": "78735-420"
    },
    {
        "city": "Rondonopolis",
        "state": "MT",
        "district": "Parque Residencial Sagrada Familia",
        "street": "Rua A",
        "zipcode": "78735-488"
    },
    {
        "city": "Rondonopolis",
        "state": "MT",
        "district": "Jardim Atlantico",
        "street": "Rua Polonia (Jd Europa)",
        "zipcode": "78735-352"
    },
    {
        "city": "Rondonopolis",
        "state": "MT",
        "district": "Jardim Atlantico",
        "street": "Rua Holanda (Jd Europa)",
        "zipcode": "78735-332"
    },
    {
        "city": "Rondonopolis",
        "state": "MT",
        "district": "Jardim Atlantico",
        "street": "Rua Hf",
        "zipcode": "78735-368"
    },
    {
        "city": "Rondonopolis",
        "state": "MT",
        "district": "Parque Residencial Sagrada Familia",
        "street": "Rua A",
        "zipcode": "78735-500"
    },
    {
        "city": "Rondonopolis",
        "state": "MT",
        "district": "Jardim Atlantico",
        "street": "Rua Bh",
        "zipcode": "78735-345"
    },
    {
        "city": "Rondonopolis",
        "state": "MT",
        "district": "Jardim Atlantico",
        "street": "Rua Fd",
        "zipcode": "78735-362"
    },
    {
        "city": "Rondonopolis",
        "state": "MT",
        "district": "Parque Residencial Sagrada Familia",
        "street": "Rua A",
        "zipcode": "78735-512"
    },
    {
        "city": "Rondonopolis",
        "state": "MT",
        "district": "Parque Residencial Sagrada Familia",
        "street": "Rua A",
        "zipcode": "78735-448"
    },
    {
        "city": "Rondonopolis",
        "state": "MT",
        "district": "Jardim Atlantico",
        "street": "Rua Hf",
        "zipcode": "78735-365"
    },
    {
        "city": "Rondonopolis",
        "state": "MT",
        "district": "Jardim Atlantico",
        "street": "Rua Fd",
        "zipcode": "78735-358"
    },
    {
        "city": "Rondonopolis",
        "state": "MT",
        "district": "Parque Residencial Sagrada Familia",
        "street": "Avenida W",
        "zipcode": "78735-380"
    },
    {
        "city": "Rondonopolis",
        "state": "MT",
        "district": "Parque Residencial Sagrada Familia",
        "street": "Rua A",
        "zipcode": "78735-388"
    },
    {
        "city": "Rondonopolis",
        "state": "MT",
        "district": "Parque Residencial Sagrada Familia",
        "street": "Rua A",
        "zipcode": "78735-522"
    },
    {
        "city": "Rondonopolis",
        "state": "MT",
        "district": "Parque Residencial Sagrada Familia",
        "street": "Rua A",
        "zipcode": "78735-472"
    },
    {
        "city": "Rondonopolis",
        "state": "MT",
        "district": "Parque Real",
        "street": "Rua A",
        "zipcode": "78735-608"
    },
    {
        "city": "Rondonopolis",
        "state": "MT",
        "district": "Parque Residencial Sagrada Familia",
        "street": "Rua A",
        "zipcode": "78735-505"
    },
    {
        "city": "Rondonopolis",
        "state": "MT",
        "district": "Parque Residencial Sagrada Familia",
        "street": "Rua A",
        "zipcode": "78735-385"
    },
    {
        "city": "Rondonopolis",
        "state": "MT",
        "district": "Jardim Atlantico",
        "street": "Rua Suecia (Jd Europa)",
        "zipcode": "78735-312"
    },
    {
        "city": "Rondonopolis",
        "state": "MT",
        "district": "Parque Residencial Sagrada Familia",
        "street": "Rua A",
        "zipcode": "78735-428"
    },
    {
        "city": "Rondonopolis",
        "state": "MT",
        "district": "Parque Residencial Sagrada Familia",
        "street": "Rua A",
        "zipcode": "78735-400"
    },
    {
        "city": "Rondonopolis",
        "state": "MT",
        "district": "Jardim Atlantico",
        "street": "Rua E",
        "zipcode": "78735-282"
    },
    {
        "city": "Rondonopolis",
        "state": "MT",
        "district": "Parque Residencial Sagrada Familia",
        "street": "Rua A",
        "zipcode": "78735-458"
    },
    {
        "city": "Rondonopolis",
        "state": "MT",
        "district": "Jardim Atlantico",
        "street": "Rua Bh",
        "zipcode": "78735-315"
    },
    {
        "city": "Rondonopolis",
        "state": "MT",
        "district": "Parque Residencial Sagrada Familia",
        "street": "Rua A",
        "zipcode": "78735-510"
    },
    {
        "city": "Rondonopolis",
        "state": "MT",
        "district": "Jardim Atlantico",
        "street": "Rua F",
        "zipcode": "78735-355"
    },
    {
        "city": "Rondonopolis",
        "state": "MT",
        "district": "Jardim Atlantico",
        "street": "Rua B",
        "zipcode": "78735-335"
    },
    {
        "city": "Rondonopolis",
        "state": "MT",
        "district": "Parque Residencial Sagrada Familia",
        "street": "Rua A",
        "zipcode": "78735-412"
    },
    {
        "city": "Rondonopolis",
        "state": "MT",
        "district": "Jardim Atlantico",
        "street": "Rua Bh",
        "zipcode": "78735-320"
    },
    {
        "city": "Rondonopolis",
        "state": "MT",
        "district": "Parque Residencial Sagrada Familia",
        "street": "Rua A",
        "zipcode": "78735-520"
    },
    {
        "city": "Rondonopolis",
        "state": "MT",
        "district": "Jardim Atlantico",
        "street": "Rua Iuguslavia (Jd Europa)",
        "zipcode": "78735-378"
    },
    {
        "city": "Rondonopolis",
        "state": "MT",
        "district": "Vila Aurora",
        "street": "Avenida Getulio Vargas",
        "zipcode": "78740-030"
    },
    {
        "city": "Rondonopolis",
        "state": "MT",
        "district": "Parque Real",
        "street": "Rua A",
        "zipcode": "78735-592"
    },
    {
        "city": "Rondonopolis",
        "state": "MT",
        "district": "Parque Residencial Sagrada Familia",
        "street": "Avenida W",
        "zipcode": "78735-485"
    },
    {
        "city": "Rondonopolis",
        "state": "MT",
        "district": "Jardim Atlantico",
        "street": "Rua Hungria (Jd Europa)",
        "zipcode": "78735-375"
    },
    {
        "city": "Rondonopolis",
        "state": "MT",
        "district": "Parque Residencial Sagrada Familia",
        "street": "Rua A",
        "zipcode": "78735-492"
    },
    {
        "city": "Rondonopolis",
        "state": "MT",
        "district": "Parque Residencial Sagrada Familia",
        "street": "Rua A",
        "zipcode": "78735-508"
    },
    {
        "city": "Rondonopolis",
        "state": "MT",
        "district": "Jardim Atlantico",
        "street": "Rua Hg",
        "zipcode": "78735-308"
    },
    {
        "city": "Rondonopolis",
        "state": "MT",
        "district": "Jardim Atlantico",
        "street": "Rua Bh",
        "zipcode": "78735-328"
    },
    {
        "city": "Rondonopolis",
        "state": "MT",
        "district": "Parque Real",
        "street": "Rua A",
        "zipcode": "78735-602"
    },
    {
        "city": "Rondonopolis",
        "state": "MT",
        "district": "Parque Residencial Sagrada Familia",
        "street": "Rua A",
        "zipcode": "78735-475"
    },
    {
        "city": "Rondonopolis",
        "state": "MT",
        "district": "Parque Residencial Sagrada Familia",
        "street": "Rua A",
        "zipcode": "78735-422"
    },
    {
        "city": "Rondonopolis",
        "state": "MT",
        "district": "Parque Residencial Sagrada Familia",
        "street": "Rua A",
        "zipcode": "78735-465"
    },
    {
        "city": "Rondonopolis",
        "state": "MT",
        "district": "Parque Residencial Sagrada Familia",
        "street": "Rua A",
        "zipcode": "78735-455"
    },
    {
        "city": "Rondonopolis",
        "state": "MT",
        "district": "Vila Aurora",
        "street": "Avenida Sagrada Familia",
        "zipcode": "78740-135"
    },
    {
        "city": "Rondonopolis",
        "state": "MT",
        "district": "Parque Residencial Sagrada Familia",
        "street": "Rua A",
        "zipcode": "78735-470"
    },
    {
        "city": "Rondonopolis",
        "state": "MT",
        "district": "Parque Residencial Sagrada Familia",
        "street": "Rua A",
        "zipcode": "78735-405"
    },
    {
        "city": "Rondonopolis",
        "state": "MT",
        "district": "Jardim Atlantico",
        "street": "Rua Escocia (Jd Europa)",
        "zipcode": "78735-350"
    },
    {
        "city": "Rondonopolis",
        "state": "MT",
        "district": "Vila Aurora",
        "street": "Rua Joao Pessoa",
        "zipcode": "78740-070"
    },
    {
        "city": "Rondonopolis",
        "state": "MT",
        "district": "Vila Aurora",
        "street": "Avenida General Falconiere",
        "zipcode": "78740-010"
    },
    {
        "city": "Rondonopolis",
        "state": "MT",
        "district": "Parque Real",
        "street": "Rua Armando Araujo (Coopharondon)",
        "zipcode": "78740-220"
    },
    {
        "city": "Rondonopolis",
        "state": "MT",
        "district": "Vila Goulart",
        "street": "Rua D (Vila Militar)",
        "zipcode": "78745-380"
    },
    {
        "city": "Rondonopolis",
        "state": "MT",
        "district": "Parque Real",
        "street": "Rua Lauro Melo (Coopharondon)",
        "zipcode": "78740-245"
    },
    {
        "city": "Rondonopolis",
        "state": "MT",
        "district": "Parque Real",
        "street": "Rua Hiroshi Kawatoko (Coopharondon)",
        "zipcode": "78740-230"
    },
    {
        "city": "Rondonopolis",
        "state": "MT",
        "district": "Parque Real",
        "street": "Travessa Isaias Tinoco (Coopharondon)",
        "zipcode": "78740-240"
    },
    {
        "city": "Rondonopolis",
        "state": "MT",
        "district": "Parque Real",
        "street": "Rua A",
        "zipcode": "78735-580"
    },
    {
        "city": "Rondonopolis",
        "state": "MT",
        "district": "Parque Residencial Sagrada Familia",
        "street": "Rua I",
        "zipcode": "78735-662"
    },
    {
        "city": "Rondonopolis",
        "state": "MT",
        "district": "Parque Real",
        "street": "Rua W",
        "zipcode": "78735-638"
    },
    {
        "city": "Rondonopolis",
        "state": "MT",
        "district": "Cohab Rio Vermelho",
        "street": "Rua Carlos Chagas Campos (Cohab Velha)",
        "zipcode": "78740-210"
    },
    {
        "city": "Rondonopolis",
        "state": "MT",
        "district": "Parque Residencial Sagrada Familia",
        "street": "Rodovia Mt",
        "zipcode": "78735-538"
    },
    {
        "city": "Rondonopolis",
        "state": "MT",
        "district": "Parque Residencial Sagrada Familia",
        "street": "Avenida Tres",
        "zipcode": "78735-700"
    },
    {
        "city": "Rondonopolis",
        "state": "MT",
        "district": "Parque Residencial Sagrada Familia",
        "street": "Rua A",
        "zipcode": "78735-535"
    },
    {
        "city": "Rondonopolis",
        "state": "MT",
        "district": "Parque Real",
        "street": "Rua A",
        "zipcode": "78735-578"
    },
    {
        "city": "Rondonopolis",
        "state": "MT",
        "district": "Parque Residencial Sagrada Familia",
        "street": "Rua E",
        "zipcode": "78735-652"
    },
    {
        "city": "Rondonopolis",
        "state": "MT",
        "district": "Jardim Ipanema",
        "street": "Rua Pocone (Vila Baixa)",
        "zipcode": "78745-165"
    },
    {
        "city": "Rondonopolis",
        "state": "MT",
        "district": "Cidade Salmen",
        "street": "Rua B (Vila Boa Esperanca)",
        "zipcode": "78745-130"
    },
    {
        "city": "Rondonopolis",
        "state": "MT",
        "district": "Parque Residencial Sagrada Familia",
        "street": "Rua B",
        "zipcode": "78735-645"
    },
    {
        "city": "Rondonopolis",
        "state": "MT",
        "district": "Parque Residencial Sagrada Familia",
        "street": "Rua A",
        "zipcode": "78735-550"
    },
    {
        "city": "Rondonopolis",
        "state": "MT",
        "district": "Parque Residencial Sagrada Familia",
        "street": "Rua K",
        "zipcode": "78735-668"
    },
    {
        "city": "Rondonopolis",
        "state": "MT",
        "district": "Parque Residencial Sagrada Familia",
        "street": "Rua A",
        "zipcode": "78735-642"
    },
    {
        "city": "Rondonopolis",
        "state": "MT",
        "district": "Parque Residencial Sagrada Familia",
        "street": "Rua D",
        "zipcode": "78735-650"
    },
    {
        "city": "Rondonopolis",
        "state": "MT",
        "district": "Parque Residencial Sagrada Familia",
        "street": "Rua Dez",
        "zipcode": "78735-672"
    },
    {
        "city": "Rondonopolis",
        "state": "MT",
        "district": "Parque Real",
        "street": "Rua A",
        "zipcode": "78735-635"
    },
    {
        "city": "Rondonopolis",
        "state": "MT",
        "district": "Parque Real",
        "street": "Rua A",
        "zipcode": "78735-610"
    },
    {
        "city": "Rondonopolis",
        "state": "MT",
        "district": "Parque Residencial Sagrada Familia",
        "street": "Rua Nove",
        "zipcode": "78735-682"
    },
    {
        "city": "Rondonopolis",
        "state": "MT",
        "district": "Cohab Rio Vermelho",
        "street": "Rua Jacinto Xavier",
        "zipcode": "78740-190"
    },
    {
        "city": "Rondonopolis",
        "state": "MT",
        "district": "Vila Aurora",
        "street": "Rua Otavio Pitaluga",
        "zipcode": "78740-050"
    },
    {
        "city": "Rondonopolis",
        "state": "MT",
        "district": "Parque Real",
        "street": "Rua A",
        "zipcode": "78735-628"
    },
    {
        "city": "Rondonopolis",
        "state": "MT",
        "district": "Jardim Ipanema",
        "street": "Rua Adress (Vila Baixa)",
        "zipcode": "78745-162"
    },
    {
        "city": "Rondonopolis",
        "state": "MT",
        "district": "Cidade Salmen",
        "street": "Rua C (Vila Boa Esperanca)",
        "zipcode": "78745-140"
    },
    {
        "city": "Rondonopolis",
        "state": "MT",
        "district": "Parque Residencial Sagrada Familia",
        "street": "Rua C",
        "zipcode": "78735-648"
    },
    {
        "city": "Rondonopolis",
        "state": "MT",
        "district": "Parque Residencial Sagrada Familia",
        "street": "Rua Cinco",
        "zipcode": "78735-670"
    },
    {
        "city": "Rondonopolis",
        "state": "MT",
        "district": "Parque Real",
        "street": "Rua A",
        "zipcode": "78735-560"
    },
    {
        "city": "Rondonopolis",
        "state": "MT",
        "district": "Parque Real",
        "street": "Rua A",
        "zipcode": "78735-562"
    },
    {
        "city": "Rondonopolis",
        "state": "MT",
        "district": "Distrito Industrial",
        "street": "Rua Do Lazer",
        "zipcode": "78745-708"
    },
    {
        "city": "Rondonopolis",
        "state": "MT",
        "district": "Parque Real",
        "street": "Travessa J Alves",
        "zipcode": "78740-260"
    },
    {
        "city": "Rondonopolis",
        "state": "MT",
        "district": "Parque Real",
        "street": "Rua A",
        "zipcode": "78735-615"
    },
    {
        "city": "Rondonopolis",
        "state": "MT",
        "district": "Parque Real",
        "street": "Rua A",
        "zipcode": "78735-618"
    },
    {
        "city": "Rondonopolis",
        "state": "MT",
        "district": "Cidade Salmen",
        "street": "Rua D (Vila Boa Esperanca)",
        "zipcode": "78745-135"
    },
    {
        "city": "Rondonopolis",
        "state": "MT",
        "district": "Parque Residencial Sagrada Familia",
        "street": "Rua Seis",
        "zipcode": "78735-692"
    },
    {
        "city": "Rondonopolis",
        "state": "MT",
        "district": "Parque Real",
        "street": "Rua A",
        "zipcode": "78735-622"
    },
    {
        "city": "Rondonopolis",
        "state": "MT",
        "district": "Parque Residencial Sagrada Familia",
        "street": "Avenida Doze",
        "zipcode": "78735-680"
    },
    {
        "city": "Rondonopolis",
        "state": "MT",
        "district": "Jardim Mato Grosso",
        "street": "Rua Arnaldo Estevao De Figueiredo",
        "zipcode": "78740-270"
    },
    {
        "city": "Rondonopolis",
        "state": "MT",
        "district": "Parque Residencial Sagrada Familia",
        "street": "Rua A",
        "zipcode": "78735-555"
    },
    {
        "city": "Rondonopolis",
        "state": "MT",
        "district": "Vila Goulart",
        "street": "Rua C (Vila Militar)",
        "zipcode": "78745-410"
    },
    {
        "city": "Rondonopolis",
        "state": "MT",
        "district": "Parque Residencial Sagrada Familia",
        "street": "Rua Um",
        "zipcode": "78735-705"
    },
    {
        "city": "Rondonopolis",
        "state": "MT",
        "district": "Parque Residencial Sagrada Familia",
        "street": "Rua Quatro",
        "zipcode": "78735-690"
    },
    {
        "city": "Rondonopolis",
        "state": "MT",
        "district": "Parque Residencial Sagrada Familia",
        "street": "Rua A",
        "zipcode": "78735-532"
    },
    {
        "city": "Rondonopolis",
        "state": "MT",
        "district": "Parque Residencial Sagrada Familia",
        "street": "Rua A",
        "zipcode": "78735-525"
    },
    {
        "city": "Rondonopolis",
        "state": "MT",
        "district": "Parque Residencial Sagrada Familia",
        "street": "Rua A",
        "zipcode": "78735-552"
    },
    {
        "city": "Rondonopolis",
        "state": "MT",
        "district": "Parque Residencial Sagrada Familia",
        "street": "Rua Tres",
        "zipcode": "78735-698"
    },
    {
        "city": "Rondonopolis",
        "state": "MT",
        "district": "Parque Real",
        "street": "Rua A",
        "zipcode": "78735-590"
    },
    {
        "city": "Rondonopolis",
        "state": "MT",
        "district": "Parque Residencial Sagrada Familia",
        "street": "Rua A",
        "zipcode": "78735-528"
    },
    {
        "city": "Rondonopolis",
        "state": "MT",
        "district": "Parque Residencial Sagrada Familia",
        "street": "Rua H",
        "zipcode": "78735-660"
    },
    {
        "city": "Rondonopolis",
        "state": "MT",
        "district": "Parque Real",
        "street": "Rua A",
        "zipcode": "78735-540"
    },
    {
        "city": "Rondonopolis",
        "state": "MT",
        "district": "Parque Real",
        "street": "Rua A",
        "zipcode": "78735-565"
    },
    {
        "city": "Rondonopolis",
        "state": "MT",
        "district": "Jardim Mato Grosso",
        "street": "Rua Treze De Maio",
        "zipcode": "78740-280"
    },
    {
        "city": "Rondonopolis",
        "state": "MT",
        "district": "Jardim Mato Grosso",
        "street": "Rua Rio Branco",
        "zipcode": "78740-310"
    },
    {
        "city": "Rondonopolis",
        "state": "MT",
        "district": "Vila Aurora",
        "street": "Rua Pedro Ferrer",
        "zipcode": "78740-350"
    },
    {
        "city": "Rondonopolis",
        "state": "MT",
        "district": "Jardim Mato Grosso",
        "street": "Rua A",
        "zipcode": "78740-370"
    },
    {
        "city": "Rondonopolis",
        "state": "MT",
        "district": "Vila Aurora",
        "street": "Rua Quinze",
        "zipcode": "78740-625"
    },
    {
        "city": "Rondonopolis",
        "state": "MT",
        "district": "Vila Aurora",
        "street": "Rua Ariadne Feltrin Campos",
        "zipcode": "78740-700"
    },
    {
        "city": "Rondonopolis",
        "state": "MT",
        "district": "Vila Aurora",
        "street": "Rua Rafael Arcanjo Ribeiro",
        "zipcode": "78740-730"
    },
    {
        "city": "Rondonopolis",
        "state": "MT",
        "district": "Vila Aurora",
        "street": "Rua Vinte E Um",
        "zipcode": "78740-740"
    },
    {
        "city": "Rondonopolis",
        "state": "MT",
        "district": "Vila Mamed",
        "street": "Rua F (Jd Maria Tereza)",
        "zipcode": "78745-363"
    },
    {
        "city": "Rondonopolis",
        "state": "MT",
        "district": "Vila Mamed",
        "street": "Rua G (Jd Maria Tereza)",
        "zipcode": "78745-364"
    },
    {
        "city": "Rondonopolis",
        "state": "MT",
        "district": "Jardim Mato Grosso",
        "street": "Avenida Campo Grande",
        "zipcode": "78740-340"
    },
    {
        "city": "Rondonopolis",
        "state": "MT",
        "district": "Vila Mamed",
        "street": "Rua J (Jd Morumbi)",
        "zipcode": "78745-605"
    },
    {
        "city": "Rondonopolis",
        "state": "MT",
        "district": "Vila Goulart",
        "street": "Rua A (Verde Teto)",
        "zipcode": "78745-840"
    },
    {
        "city": "Rondonopolis",
        "state": "MT",
        "district": "Vila Aurora",
        "street": "Travessa Dornelio Zague",
        "zipcode": "78740-710"
    },
    {
        "city": "Rondonopolis",
        "state": "MT",
        "district": "Vila Mamed",
        "street": "Avenida A (Jd Morumbi)",
        "zipcode": "78745-500"
    },
    {
        "city": "Rondonopolis",
        "state": "MT",
        "district": "Vila Aurora",
        "street": "Rua Nove",
        "zipcode": "78740-660"
    },
    {
        "city": "Rondonopolis",
        "state": "MT",
        "district": "Vila Goulart",
        "street": "Rua Kemel Abulassan",
        "zipcode": "78745-350"
    },
    {
        "city": "Rondonopolis",
        "state": "MT",
        "district": "Jardim Mato Grosso",
        "street": "Rodovia Mt",
        "zipcode": "78740-380"
    },
    {
        "city": "Rondonopolis",
        "state": "MT",
        "district": "Jardim Mato Grosso",
        "street": "Avenida Ponta Pora",
        "zipcode": "78740-290"
    },
    {
        "city": "Rondonopolis",
        "state": "MT",
        "district": "Vila Goulart",
        "street": "Rua C (Verde Teto)",
        "zipcode": "78745-843"
    },
    {
        "city": "Rondonopolis",
        "state": "MT",
        "district": "Vila Mamed",
        "street": "Rua B (Jd Maria Tereza)",
        "zipcode": "78745-360"
    },
    {
        "city": "Rondonopolis",
        "state": "MT",
        "district": "Vila Aurora",
        "street": "Avenida Da Saudade",
        "zipcode": "78740-750"
    },
    {
        "city": "Rondonopolis",
        "state": "MT",
        "district": "Vila Goulart",
        "street": "Rua E (Verde Teto)",
        "zipcode": "78745-845"
    },
    {
        "city": "Rondonopolis",
        "state": "MT",
        "district": "Vila Aurora",
        "street": "Travessa Um",
        "zipcode": "78740-680"
    },
    {
        "city": "Rondonopolis",
        "state": "MT",
        "district": "Vila Goulart",
        "street": "Rua B (Verde Teto)",
        "zipcode": "78745-842"
    },
    {
        "city": "Rondonopolis",
        "state": "MT",
        "district": "Vila Goulart",
        "street": "Rua F (Verde Teto)",
        "zipcode": "78745-846"
    },
    {
        "city": "Rondonopolis",
        "state": "MT",
        "district": "Distrito Industrial",
        "street": "Rua Cd",
        "zipcode": "78745-775"
    },
    {
        "city": "Rondonopolis",
        "state": "MT",
        "district": "Jardim Mato Grosso",
        "street": "Avenida Frei Carnaiba",
        "zipcode": "78740-320"
    },
    {
        "city": "Rondonopolis",
        "state": "MT",
        "district": "Vila Mamed",
        "street": "Rua D (Jd Maria Tereza)",
        "zipcode": "78745-361"
    },
    {
        "city": "Rondonopolis",
        "state": "MT",
        "district": "Jardim Oliveira",
        "street": "Rua A",
        "zipcode": "78700-490"
    },
    {
        "city": "Rondonopolis",
        "state": "MT",
        "district": "Vila Planalto",
        "street": "Rua A (Jd Santa Rosa)",
        "zipcode": "78710-660"
    },
    {
        "city": "Rondonopolis",
        "state": "MT",
        "district": "Jardim Santa Clara",
        "street": "Avenida Piaui",
        "zipcode": "78720-320"
    },
    {
        "city": "Rondonopolis",
        "state": "MT",
        "district": "Cidade Alta",
        "street": "Avenida Tamoios",
        "zipcode": "78730-350"
    },
    {
        "city": "Rondonopolis",
        "state": "MT",
        "district": "Jardim Participacao",
        "street": "Rua Dos Garimpeiros",
        "zipcode": "78730-430"
    },
    {
        "city": "Rondonopolis",
        "state": "MT",
        "district": "Vila Planalto",
        "street": "Rua Sergipe",
        "zipcode": "78710-570"
    },
    {
        "city": "Rondonopolis",
        "state": "MT",
        "district": "La Salle",
        "street": "Rua Otavio Pitaluga",
        "zipcode": "78710-090"
    },
    {
        "city": "Rondonopolis",
        "state": "MT",
        "district": "La Salle",
        "street": "Rua Arnaldo Estevao De Figueiredo",
        "zipcode": "78710-070"
    },
    {
        "city": "Rondonopolis",
        "state": "MT",
        "district": "Vila Nossa Senhora Do Amparo",
        "street": "Rua Edeti (Vila Santa Maria)",
        "zipcode": "78730-610"
    },
    {
        "city": "Rondonopolis",
        "state": "MT",
        "district": "Cidade Alta",
        "street": "Rua B",
        "zipcode": "78730-550"
    },
    {
        "city": "Rondonopolis",
        "state": "MT",
        "district": "Jardim Oliveira",
        "street": "Rua Projetada V (Vila Santo Antonio)",
        "zipcode": "78700-520"
    },
    {
        "city": "Rondonopolis",
        "state": "MT",
        "district": "Jardim Santa Clara",
        "street": "Travessa Epifanio Duarte",
        "zipcode": "78720-310"
    },
    {
        "city": "Rondonopolis",
        "state": "MT",
        "district": "Vila Aurora",
        "street": "Rua Arnaldo Estevao De Figueiredo",
        "zipcode": "78740-020"
    },
    {
        "city": "Rondonopolis",
        "state": "MT",
        "district": "Vila Aurora",
        "street": "Avenida Leopoldina Pinho Carvalho",
        "zipcode": "78740-060"
    },
    {
        "city": "Rondonopolis",
        "state": "MT",
        "district": "Vila Goulart",
        "street": "Rodovia Br",
        "zipcode": "78745-001"
    },
    {
        "city": "Rondonopolis",
        "state": "MT",
        "district": "Distrito Industrial",
        "street": "Avenida A (Jd Maria Tereza)",
        "zipcode": "78745-690"
    },
    {
        "city": "Rondonopolis",
        "state": "MT",
        "district": "Jardim Serra Dourada",
        "street": "Rua Catorze",
        "zipcode": "78715-552"
    },
    {
        "city": "Rondonopolis",
        "state": "MT",
        "district": "Vila Aurora",
        "street": "Rua Barao Do Rio Branco",
        "zipcode": "78740-110"
    },
    {
        "city": "Rondonopolis",
        "state": "MT",
        "district": "Centro",
        "street": "Rua Antonio Jacob Das Chagas",
        "zipcode": "78700-270"
    },
    {
        "city": "Rondonopolis",
        "state": "MT",
        "district": "Vila Nossa Senhora Do Amparo",
        "street": "Avenida Joao Ferreira Matos (Jd Belo Panorama)",
        "zipcode": "78730-200"
    },
    {
        "city": "Rondonopolis",
        "state": "MT",
        "district": "Cidade Salmen",
        "street": "Rua E (Vila Boa Esperanca)",
        "zipcode": "78745-145"
    },
    {
        "city": "Rondonopolis",
        "state": "MT",
        "district": "Conj Sao Jose",
        "street": "Rua Quarenta E Dois",
        "zipcode": "78715-464"
    },
    {
        "city": "Rondonopolis",
        "state": "MT",
        "district": "Jardim Tropical",
        "street": "Avenida Arao Gomes Bezerra",
        "zipcode": "78715-220"
    },
    {
        "city": "Rondonopolis",
        "state": "MT",
        "district": "Jardim Tropical",
        "street": "Rua Sao Salvador (Vila Castelo)",
        "zipcode": "78715-170"
    },
    {
        "city": "Rondonopolis",
        "state": "MT",
        "district": "Centro",
        "street": "Rua Jeronimo Jacob Das Chagas",
        "zipcode": "78700-280"
    },
    {
        "city": "Rondonopolis",
        "state": "MT",
        "district": "Vila Cardoso",
        "street": "Avenida Papa Anastacio I",
        "zipcode": "78730-120"
    },
    {
        "city": "Rondonopolis",
        "state": "MT",
        "district": "Jardim Participacao",
        "street": "Rua Tupinambas",
        "zipcode": "78730-420"
    },
    {
        "city": "Rondonopolis",
        "state": "MT",
        "district": "Vila Aurora",
        "street": "Rua Treze De Maio",
        "zipcode": "78740-040"
    },
    {
        "city": "Rondonopolis",
        "state": "MT",
        "district": "Jardim Iguassu",
        "street": "Avenida Guarapuava",
        "zipcode": "78730-540"
    },
    {
        "city": "Rondonopolis",
        "state": "MT",
        "district": "Parque Real",
        "street": "Rua W",
        "zipcode": "78735-640"
    },
    {
        "city": "Rondonopolis",
        "state": "MT",
        "district": "Parque Residencial Sagrada Familia",
        "street": "Rua M",
        "zipcode": "78735-022"
    },
    {
        "city": "Rondonopolis",
        "state": "MT",
        "district": "Jardim Atlantico",
        "street": "Rua Dc",
        "zipcode": "78735-258"
    },
    {
        "city": "Rondonopolis",
        "state": "MT",
        "district": "Distrito Industrial",
        "street": "Rua Laila Zahran",
        "zipcode": "78745-730"
    },
    {
        "city": "Rondonopolis",
        "state": "MT",
        "district": "Parque Residencial Sagrada Familia",
        "street": "Avenida W",
        "zipcode": "78735-090"
    },
    {
        "city": "Rondonopolis",
        "state": "MT",
        "district": "Parque Residencial Sagrada Familia",
        "street": "Rua A",
        "zipcode": "78735-198"
    },
    {
        "city": "Rondonopolis",
        "state": "MT",
        "district": "Jardim Atlantico",
        "street": "Rua Dc",
        "zipcode": "78735-255"
    },
    {
        "city": "Rondonopolis",
        "state": "MT",
        "district": "Parque Residencial Sagrada Familia",
        "street": "Rua A",
        "zipcode": "78735-105"
    },
    {
        "city": "Rondonopolis",
        "state": "MT",
        "district": "Jardim Atlantico",
        "street": "Rua I",
        "zipcode": "78735-238"
    },
    {
        "city": "Rondonopolis",
        "state": "MT",
        "district": "Parque Real",
        "street": "Rua A",
        "zipcode": "78735-600"
    },
    {
        "city": "Rondonopolis",
        "state": "MT",
        "district": "Jardim Atlantico",
        "street": "Rua Espanha (Jd Europa)",
        "zipcode": "78735-260"
    },
    {
        "city": "Rondonopolis",
        "state": "MT",
        "district": "Jardim Participacao",
        "street": "Rua Teotonio Vilela",
        "zipcode": "78730-310"
    },
    {
        "city": "Rondonopolis",
        "state": "MT",
        "district": "Parque Residencial Sagrada Familia",
        "street": "Rua M",
        "zipcode": "78735-012"
    },
    {
        "city": "Rondonopolis",
        "state": "MT",
        "district": "Jardim Atlantico",
        "street": "Rua Ca",
        "zipcode": "78735-220"
    },
    {
        "city": "Rondonopolis",
        "state": "MT",
        "district": "Jardim Sumare",
        "street": "Rua Joao Paulo I",
        "zipcode": "78720-740"
    },
    {
        "city": "Rondonopolis",
        "state": "MT",
        "district": "Parque Residencial Sagrada Familia",
        "street": "Rua A",
        "zipcode": "78735-158"
    },
    {
        "city": "Rondonopolis",
        "state": "MT",
        "district": "Jardim Atlantico",
        "street": "Rua G",
        "zipcode": "78735-300"
    },
    {
        "city": "Rondonopolis",
        "state": "MT",
        "district": "Parque Residencial Sagrada Familia",
        "street": "Rua A",
        "zipcode": "78735-120"
    },
    {
        "city": "Rondonopolis",
        "state": "MT",
        "district": "Parque Residencial Sagrada Familia",
        "street": "Rua A",
        "zipcode": "78735-075"
    },
    {
        "city": "Rondonopolis",
        "state": "MT",
        "district": "Parque Residencial Sagrada Familia",
        "street": "Rua A",
        "zipcode": "78735-142"
    },
    {
        "city": "Rondonopolis",
        "state": "MT",
        "district": "Jardim Participacao",
        "street": "Rua Petronio Portela",
        "zipcode": "78730-260"
    },
    {
        "city": "Rondonopolis",
        "state": "MT",
        "district": "Parque Residencial Sagrada Familia",
        "street": "Rua A",
        "zipcode": "78735-055"
    },
    {
        "city": "Rondonopolis",
        "state": "MT",
        "district": "Parque Real",
        "street": "Rua A",
        "zipcode": "78735-612"
    },
    {
        "city": "Rondonopolis",
        "state": "MT",
        "district": "Jardim Atlantico",
        "street": "Rua Ge",
        "zipcode": "78735-288"
    },
    {
        "city": "Rondonopolis",
        "state": "MT",
        "district": "Parque Residencial Sagrada Familia",
        "street": "Rua A",
        "zipcode": "78735-175"
    },
    {
        "city": "Rondonopolis",
        "state": "MT",
        "district": "Jardim Atlantico",
        "street": "Rua Bh",
        "zipcode": "78735-342"
    },
    {
        "city": "Rondonopolis",
        "state": "MT",
        "district": "Parque Residencial Sagrada Familia",
        "street": "Rua Doze",
        "zipcode": "78735-678"
    },
    {
        "city": "Rondonopolis",
        "state": "MT",
        "district": "Parque Real",
        "street": "Rua A",
        "zipcode": "78735-630"
    },
    {
        "city": "Rondonopolis",
        "state": "MT",
        "district": "Vila Nossa Senhora Do Amparo",
        "street": "Rua Vinte E Tres (Vila Santa Maria)",
        "zipcode": "78730-620"
    },
    {
        "city": "Rondonopolis",
        "state": "MT",
        "district": "Parque Residencial Sagrada Familia",
        "street": "Rua M",
        "zipcode": "78735-035"
    },
    {
        "city": "Rondonopolis",
        "state": "MT",
        "district": "Jardim Atlantico",
        "street": "Rua Bh",
        "zipcode": "78735-322"
    },
    {
        "city": "Rondonopolis",
        "state": "MT",
        "district": "Parque Real",
        "street": "Rua Anisio Braga (Coopharondon)",
        "zipcode": "78740-250"
    },
    {
        "city": "Rondonopolis",
        "state": "MT",
        "district": "Jardim Mato Grosso",
        "street": "Avenida Frei Servacio",
        "zipcode": "78740-360"
    },
    {
        "city": "Rondonopolis",
        "state": "MT",
        "district": "Vila Mamed",
        "street": "Rua E (Jd Maria Tereza)",
        "zipcode": "78745-362"
    },
    {
        "city": "Rondonopolis",
        "state": "MT",
        "district": "Vila Goulart",
        "street": "Rua D (Verde Teto )",
        "zipcode": "78745-844"
    },
    {
        "city": "Rondonopolis",
        "state": "MT",
        "district": "Jardim Paulista",
        "street": "Rua H (Lot Jambalaia)",
        "zipcode": "78700-362"
    },
    {
        "city": "Rondonopolis",
        "state": "MT",
        "district": "Jardim Primavera",
        "street": "Avenida Rosalvo Miranda",
        "zipcode": "78725-100"
    },
    {
        "city": "Rondonopolis",
        "state": "MT",
        "district": "Parque Real",
        "street": "Travessa Domingos P Amorim (Coopharondon)",
        "zipcode": "78740-235"
    },
    {
        "city": "Rondonopolis",
        "state": "MT",
        "district": "Distrito Industrial",
        "street": "Avenida Anselmo Cardinal",
        "zipcode": "78745-700"
    },
    {
        "city": "Rondonopolis",
        "state": "MT",
        "district": "Parque Residencial Sagrada Familia",
        "street": "Rua A",
        "zipcode": "78735-530"
    },
    {
        "city": "Rondonopolis",
        "state": "MT",
        "district": "Jardim Atlantico",
        "street": "Rua Fd",
        "zipcode": "78735-360"
    },
    {
        "city": "Rondonopolis",
        "state": "MT",
        "district": "Cohab Rio Vermelho",
        "street": "Rua Filinto Muller (Cohab Velha)",
        "zipcode": "78740-180"
    },
    {
        "city": "Rondonopolis",
        "state": "MT",
        "district": "Parque Residencial Sagrada Familia",
        "street": "Rua A",
        "zipcode": "78735-480"
    },
    {
        "city": "Rondonopolis",
        "state": "MT",
        "district": "Cidade Alta",
        "street": "Rua Tapejara",
        "zipcode": "78730-570"
    },
    {
        "city": "Rondonopolis",
        "state": "MT",
        "district": "Cidade Salmen",
        "street": "Rua Um (Vila Mariley)",
        "zipcode": "78705-208"
    },
    {
        "city": "Rondonopolis",
        "state": "MT",
        "district": "Parque Residencial Sagrada Familia",
        "street": "Rua Sete",
        "zipcode": "78735-695"
    },
    {
        "city": "Rondonopolis",
        "state": "MT",
        "district": "Distrito Industrial",
        "street": "Rua Dc",
        "zipcode": "78745-778"
    },
    {
        "city": "Rondonopolis",
        "state": "MT",
        "district": "Vila Operaria",
        "street": "Rua Saturnino Silva Coelho (Cidade Natal)",
        "zipcode": "78720-660"
    },
    {
        "city": "Rondonopolis",
        "state": "MT",
        "district": "Vila Goulart",
        "street": "Rodovia Br",
        "zipcode": "78745-000"
    },
    {
        "city": "Rondonopolis",
        "state": "MT",
        "district": "Parque Residencial Sagrada Familia",
        "street": "Rua A",
        "zipcode": "78735-382"
    },
    {
        "city": "Rondonopolis",
        "state": "MT",
        "district": "Vila Aurora",
        "street": "Avenida Seis",
        "zipcode": "78740-670"
    },
    {
        "city": "Rondonopolis",
        "state": "MT",
        "district": "La Salle",
        "street": "Rua Osorio Machado (Jd Guanabara)",
        "zipcode": "78710-190"
    },
    {
        "city": "Rondonopolis",
        "state": "MT",
        "district": "Vila Operaria",
        "street": "Rua E (Jd Res Lageadinho)",
        "zipcode": "78720-005"
    },
    {
        "city": "Rondonopolis",
        "state": "MT",
        "district": "Parque Residencial Sagrada Familia",
        "street": "Rua A",
        "zipcode": "78735-410"
    },
    {
        "city": "Rondonopolis",
        "state": "MT",
        "district": "Parque Residencial Sagrada Familia",
        "street": "Rua A",
        "zipcode": "78735-460"
    },
    {
        "city": "Rondonopolis",
        "state": "MT",
        "district": "Parque Residencial Sagrada Familia",
        "street": "Rua A",
        "zipcode": "78735-582"
    },
    {
        "city": "Rondonopolis",
        "state": "MT",
        "district": "Jardim Atlantico",
        "street": "Rua Hf",
        "zipcode": "78735-372"
    },
    {
        "city": "Rondonopolis",
        "state": "MT",
        "district": "Jardim Atlantico",
        "street": "Rua Bh",
        "zipcode": "78735-348"
    },
    {
        "city": "Rondonopolis",
        "state": "MT",
        "district": "Parque Residencial Sagrada Familia",
        "street": "Rua A",
        "zipcode": "78735-515"
    },
    {
        "city": "Rondonopolis",
        "state": "MT",
        "district": "Jardim Paulista",
        "street": "Travessa Um (Jd Beira Rio)",
        "zipcode": "78700-368"
    },
    {
        "city": "Rondonopolis",
        "state": "MT",
        "district": "Parque Residencial Sagrada Familia",
        "street": "Rua Onze",
        "zipcode": "78735-688"
    },
    {
        "city": "Rondonopolis",
        "state": "MT",
        "district": "Jardim Luz Da Yara",
        "street": "Avenida Dos Apostolos",
        "zipcode": "78720-380"
    },
    {
        "city": "Rondonopolis",
        "state": "MT",
        "district": "Parque Residencial Sagrada Familia",
        "street": "Rua A",
        "zipcode": "78735-545"
    },
    {
        "city": "Rondonopolis",
        "state": "MT",
        "district": "Parque Residencial Sagrada Familia",
        "street": "Rua A",
        "zipcode": "78735-128"
    },
    {
        "city": "Rondonopolis",
        "state": "MT",
        "district": "Vila Aurora",
        "street": "Rua Valdomiro Flavio Sobrinho",
        "zipcode": "78740-720"
    },
    {
        "city": "Rondonopolis",
        "state": "MT",
        "district": "Parque Residencial Sagrada Familia",
        "street": "Rua A",
        "zipcode": "78735-425"
    },
    {
        "city": "Rondonopolis",
        "state": "MT",
        "district": "Parque Residencial Sagrada Familia",
        "street": "Rua A",
        "zipcode": "78735-558"
    }
]