[
    {
        "city": "Itacoatiara",
        "state": "AM",
        "district": "Iraci",
        "street": "Rua Moisés Batista",
        "zipcode": "69101-110"
    },
    {
        "city": "Itacoatiara",
        "state": "AM",
        "district": "Mamoud Amed",
        "street": "Avenida Liberdade",
        "zipcode": "69101-745"
    },
    {
        "city": "Itacoatiara",
        "state": "AM",
        "district": "Eduardo Braga II",
        "street": "Rua Talismã",
        "zipcode": "69103-592"
    },
    {
        "city": "Itacoatiara",
        "state": "AM",
        "district": "Iraci",
        "street": "Rua Francisco do Couto Valle",
        "zipcode": "69101-155"
    },
    {
        "city": "Itacoatiara",
        "state": "AM",
        "district": "Jauari I",
        "street": "Rua Pedro Gomes",
        "zipcode": "69104-248"
    },
    {
        "city": "Itacoatiara",
        "state": "AM",
        "district": "São Francisco",
        "street": "Rua Nhamundá",
        "zipcode": "69101-404"
    },
    {
        "city": "Itacoatiara",
        "state": "AM",
        "district": "Da Paz",
        "street": "Travessa Andorinha",
        "zipcode": "69104-698"
    },
    {
        "city": "Itacoatiara",
        "state": "AM",
        "district": "Jauari I",
        "street": "Rua Doutor Luzardo Ferreira de Melo",
        "zipcode": "69104-160"
    },
    {
        "city": "Itacoatiara",
        "state": "AM",
        "district": "Iraci",
        "street": "Rua Damaso Souza Barriga",
        "zipcode": "69101-161"
    },
    {
        "city": "Itacoatiara",
        "state": "AM",
        "district": "Prainha",
        "street": "Rua Francisco Orelana",
        "zipcode": "69101-336"
    },
    {
        "city": "Itacoatiara",
        "state": "AM",
        "district": "São Cristóvão",
        "street": "Rua 12 de Outubro",
        "zipcode": "69103-260"
    },
    {
        "city": "Itacoatiara",
        "state": "AM",
        "district": "Iraci",
        "street": "Rua Vicente Lima de Mendonça",
        "zipcode": "69101-116"
    },
    {
        "city": "Itacoatiara",
        "state": "AM",
        "district": "Jauari II",
        "street": "Rua Ernesto Talheimer",
        "zipcode": "69104-320"
    },
    {
        "city": "Itacoatiara",
        "state": "AM",
        "district": "Mamoud Amed",
        "street": "Rua Rio Purus",
        "zipcode": "69101-769"
    },
    {
        "city": "Itacoatiara",
        "state": "AM",
        "district": "Eduardo Braga I",
        "street": "Avenida José Tadros",
        "zipcode": "69103-504"
    },
    {
        "city": "Itacoatiara",
        "state": "AM",
        "district": "Jauari I",
        "street": "Rua Pompilho Marques",
        "zipcode": "69104-240"
    },
    {
        "city": "Itacoatiara",
        "state": "AM",
        "district": "Iraci",
        "street": "Rua Clotildes Pereira da Costa",
        "zipcode": "69101-134"
    },
    {
        "city": "Itacoatiara",
        "state": "AM",
        "district": "Nogueira Júnior",
        "street": "Rua Padre Caleri",
        "zipcode": "69101-577"
    },
    {
        "city": "Itacoatiara",
        "state": "AM",
        "district": "São Francisco",
        "street": "Rua Lábrea",
        "zipcode": "69101-400"
    },
    {
        "city": "Itacoatiara",
        "state": "AM",
        "district": "São Francisco",
        "street": "Beco da Creche",
        "zipcode": "69101-520"
    },
    {
        "city": "Itacoatiara",
        "state": "AM",
        "district": "Jauari I",
        "street": "Avenida Armindo Auzier",
        "zipcode": "69104-132"
    },
    {
        "city": "Itacoatiara",
        "state": "AM",
        "district": "Colônia",
        "street": "Travessa Pedra Pintada",
        "zipcode": "69100-116"
    },
    {
        "city": "Itacoatiara",
        "state": "AM",
        "district": "Santa Luzia",
        "street": "Rua Antônio Serudo Martins",
        "zipcode": "69104-006"
    },
    {
        "city": "Itacoatiara",
        "state": "AM",
        "district": "Iraci",
        "street": "Rua Joaquim Alves Simões",
        "zipcode": "69101-146"
    },
    {
        "city": "Itacoatiara",
        "state": "AM",
        "district": "Jauari I",
        "street": "Estrada Stone",
        "zipcode": "69104-188"
    },
    {
        "city": "Itacoatiara",
        "state": "AM",
        "district": "Mamoud Amed",
        "street": "Rua Primavera",
        "zipcode": "69101-697"
    },
    {
        "city": "Itacoatiara",
        "state": "AM",
        "district": "Eduardo Braga II",
        "street": "Avenida José Tadros",
        "zipcode": "69103-564"
    },
    {
        "city": "Itacoatiara",
        "state": "AM",
        "district": "Tiradentes",
        "street": "Rua Manoel Moraes",
        "zipcode": "69103-184"
    },
    {
        "city": "Itacoatiara",
        "state": "AM",
        "district": "Jardim Lorena",
        "street": "Rua do Ipê Amarelo",
        "zipcode": "69104-618"
    },
    {
        "city": "Itacoatiara",
        "state": "AM",
        "district": "Jauari I",
        "street": "Avenida Manaus",
        "zipcode": "69104-168"
    },
    {
        "city": "Itacoatiara",
        "state": "AM",
        "district": "Centro",
        "street": "Avenida Conselheiro Ruy Barbosa",
        "zipcode": "69100-087"
    },
    {
        "city": "Itacoatiara",
        "state": "AM",
        "district": "Tiradentes",
        "street": "Avenida José Tadros",
        "zipcode": "69103-120"
    },
    {
        "city": "Itacoatiara",
        "state": "AM",
        "district": "Mamoud Amed",
        "street": "Rua Mogno",
        "zipcode": "69101-670"
    },
    {
        "city": "Itacoatiara",
        "state": "AM",
        "district": "Jauari I",
        "street": "Beco do Lelé",
        "zipcode": "69104-192"
    },
    {
        "city": "Itacoatiara",
        "state": "AM",
        "district": "Tiradentes",
        "street": "Rua Euclides da Cunha",
        "zipcode": "69103-212"
    },
    {
        "city": "Itacoatiara",
        "state": "AM",
        "district": "São Jorge",
        "street": "Rua Coronel Jorge Teixeira",
        "zipcode": "69104-058"
    },
    {
        "city": "Itacoatiara",
        "state": "AM",
        "district": "São Francisco",
        "street": "Rua Pará",
        "zipcode": "69101-496"
    },
    {
        "city": "Itacoatiara",
        "state": "AM",
        "district": "Eduardo Braga I",
        "street": "Rua 12 de Outubro",
        "zipcode": "69103-464"
    },
    {
        "city": "Itacoatiara",
        "state": "AM",
        "district": "Eduardo Braga I",
        "street": "Rua 21 de Abril",
        "zipcode": "69103-472"
    },
    {
        "city": "Itacoatiara",
        "state": "AM",
        "district": "Iraci",
        "street": "Rua Raul Hélio",
        "zipcode": "69101-083"
    },
    {
        "city": "Itacoatiara",
        "state": "AM",
        "district": "Iraci",
        "street": "Beco Ita 1",
        "zipcode": "69101-191"
    },
    {
        "city": "Itacoatiara",
        "state": "AM",
        "district": "Santo Antônio",
        "street": "Rua Inácio Guedes",
        "zipcode": "69103-012"
    },
    {
        "city": "Itacoatiara",
        "state": "AM",
        "district": "Iraci",
        "street": "Avenida 7 de Setembro",
        "zipcode": "69101-068"
    },
    {
        "city": "Itacoatiara",
        "state": "AM",
        "district": "Iraci",
        "street": "Avenida Manaus",
        "zipcode": "69101-062"
    },
    {
        "city": "Itacoatiara",
        "state": "AM",
        "district": "Pedreiras",
        "street": "Avenida 15 de Novembro",
        "zipcode": "69101-005"
    },
    {
        "city": "Itacoatiara",
        "state": "AM",
        "district": "Pedreiras",
        "street": "Avenida Parque",
        "zipcode": "69101-040"
    },
    {
        "city": "Itacoatiara",
        "state": "AM",
        "district": "Iraci",
        "street": "Avenida Parque",
        "zipcode": "69101-050"
    },
    {
        "city": "Itacoatiara",
        "state": "AM",
        "district": "Iraci",
        "street": "Avenida Parque",
        "zipcode": "69101-053"
    },
    {
        "city": "Itacoatiara",
        "state": "AM",
        "district": "Pedreiras",
        "street": "Rua Acácio Leite",
        "zipcode": "69101-020"
    },
    {
        "city": "Itacoatiara",
        "state": "AM",
        "district": "Pedreiras",
        "street": "Rua Borba",
        "zipcode": "69101-030"
    },
    {
        "city": "Itacoatiara",
        "state": "AM",
        "district": "São Francisco",
        "street": "Rua Álvaro Maia",
        "zipcode": "69101-380"
    },
    {
        "city": "Itacoatiara",
        "state": "AM",
        "district": "Pedreiras",
        "street": "Rua Benjamim Constant",
        "zipcode": "69101-000"
    },
    {
        "city": "Itacoatiara",
        "state": "AM",
        "district": "Colônia",
        "street": "Rua Moreira César",
        "zipcode": "69100-158"
    },
    {
        "city": "Itacoatiara",
        "state": "AM",
        "district": "Colônia",
        "street": "Rua Álvaro França",
        "zipcode": "69100-161"
    },
    {
        "city": "Itacoatiara",
        "state": "AM",
        "district": "Centenário",
        "street": "Rua Álvaro França",
        "zipcode": "69100-170"
    },
    {
        "city": "Itacoatiara",
        "state": "AM",
        "district": "Nogueira Júnior",
        "street": "Rua Dom Jorge",
        "zipcode": "69101-553"
    },
    {
        "city": "Itacoatiara",
        "state": "AM",
        "district": "Jardim Florestal",
        "street": "Rua Autazes",
        "zipcode": "69101-618"
    },
    {
        "city": "Itacoatiara",
        "state": "AM",
        "district": "Eduardo Braga II",
        "street": "Rua Rubi",
        "zipcode": "69103-588"
    },
    {
        "city": "Itacoatiara",
        "state": "AM",
        "district": "Santo Antônio",
        "street": "Rua Miguel Jackson Pinho",
        "zipcode": "69103-048"
    },
    {
        "city": "Itacoatiara",
        "state": "AM",
        "district": "Nogueira Júnior",
        "street": "Rua Lady Diane",
        "zipcode": "69101-562"
    },
    {
        "city": "Itacoatiara",
        "state": "AM",
        "district": "Iraci",
        "street": "Rua Louriga",
        "zipcode": "69101-143"
    },
    {
        "city": "Itacoatiara",
        "state": "AM",
        "district": "Nogueira Júnior",
        "street": "Rua João Paulo II",
        "zipcode": "69101-583"
    },
    {
        "city": "Itacoatiara",
        "state": "AM",
        "district": "Jardim Lorena",
        "street": "Rua Bouganville",
        "zipcode": "69104-574"
    },
    {
        "city": "Itacoatiara",
        "state": "AM",
        "district": "Jardim Florestal",
        "street": "Rua Silves",
        "zipcode": "69101-615"
    },
    {
        "city": "Itacoatiara",
        "state": "AM",
        "district": "Jardim Florestal",
        "street": "Rua do Comércio",
        "zipcode": "69101-612"
    },
    {
        "city": "Itacoatiara",
        "state": "AM",
        "district": "Iraci",
        "street": "Rua IX",
        "zipcode": "69101-101"
    },
    {
        "city": "Itacoatiara",
        "state": "AM",
        "district": "Iraci",
        "street": "Rua VII",
        "zipcode": "69101-104"
    },
    {
        "city": "Itacoatiara",
        "state": "AM",
        "district": "Prainha",
        "street": "Avenida Aquilino Barros",
        "zipcode": "69101-292"
    },
    {
        "city": "Itacoatiara",
        "state": "AM",
        "district": "Mamoud Amed",
        "street": "Rua da Amizade",
        "zipcode": "69101-739"
    },
    {
        "city": "Itacoatiara",
        "state": "AM",
        "district": "Mamoud Amed",
        "street": "Rua São Jorge",
        "zipcode": "69101-802"
    },
    {
        "city": "Itacoatiara",
        "state": "AM",
        "district": "Mamoud Amed",
        "street": "Rua São Braz",
        "zipcode": "69101-742"
    },
    {
        "city": "Itacoatiara",
        "state": "AM",
        "district": "São Jorge",
        "street": "Rua Raimundo Garcia Gama",
        "zipcode": "69104-054"
    },
    {
        "city": "Itacoatiara",
        "state": "AM",
        "district": "Iraci",
        "street": "Rua Arnóbio Oliveira",
        "zipcode": "69101-089"
    },
    {
        "city": "Itacoatiara",
        "state": "AM",
        "district": "Eduardo Braga II",
        "street": "Rua Pau Brasil",
        "zipcode": "69103-616"
    },
    {
        "city": "Itacoatiara",
        "state": "AM",
        "district": "Nogueira Júnior",
        "street": "Rua Dom Pedro I",
        "zipcode": "69101-580"
    },
    {
        "city": "Itacoatiara",
        "state": "AM",
        "district": "Jardim Adriana",
        "street": "Rua Orquídea",
        "zipcode": "69104-770"
    },
    {
        "city": "Itacoatiara",
        "state": "AM",
        "district": "Nogueira Júnior",
        "street": "Rua Dom Carillo",
        "zipcode": "69101-550"
    },
    {
        "city": "Itacoatiara",
        "state": "AM",
        "district": "Da Paz",
        "street": "Rua Pássaro Grande",
        "zipcode": "69104-690"
    },
    {
        "city": "Itacoatiara",
        "state": "AM",
        "district": "São Francisco",
        "street": "Rua Rondônia",
        "zipcode": "69101-504"
    },
    {
        "city": "Itacoatiara",
        "state": "AM",
        "district": "Santo Antônio",
        "street": "Rua Pedro Fernandes",
        "zipcode": "69103-028"
    },
    {
        "city": "Itacoatiara",
        "state": "AM",
        "district": "Nogueira Júnior",
        "street": "Rua Airton Senna",
        "zipcode": "69101-568"
    },
    {
        "city": "Itacoatiara",
        "state": "AM",
        "district": "Jauari II",
        "street": "Rua Francisco Fiúza Lima",
        "zipcode": "69104-376"
    },
    {
        "city": "Itacoatiara",
        "state": "AM",
        "district": "São Cristóvão",
        "street": "Rua Aldino Reis",
        "zipcode": "69103-352"
    },
    {
        "city": "Itacoatiara",
        "state": "AM",
        "district": "São Cristóvão",
        "street": "Rua Paulo Menezes",
        "zipcode": "69103-360"
    },
    {
        "city": "Itacoatiara",
        "state": "AM",
        "district": "Jauari II",
        "street": "Rua Gethal",
        "zipcode": "69104-324"
    },
    {
        "city": "Itacoatiara",
        "state": "AM",
        "district": "Jardim Adriana",
        "street": "Rua Cataléia",
        "zipcode": "69104-774"
    },
    {
        "city": "Itacoatiara",
        "state": "AM",
        "district": "São Francisco",
        "street": "Rua Humaitá",
        "zipcode": "69101-476"
    },
    {
        "city": "Itacoatiara",
        "state": "AM",
        "district": "Jardim Florestal",
        "street": "Rua Rio Preto da Eva",
        "zipcode": "69101-624"
    },
    {
        "city": "Itacoatiara",
        "state": "AM",
        "district": "Mamoud Amed",
        "street": "Rua Rio Urariá",
        "zipcode": "69101-751"
    },
    {
        "city": "Itacoatiara",
        "state": "AM",
        "district": "Jardim Florestal",
        "street": "Rua Maués",
        "zipcode": "69101-609"
    },
    {
        "city": "Itacoatiara",
        "state": "AM",
        "district": "Jardim Adriana",
        "street": "Rua Lírio",
        "zipcode": "69104-822"
    },
    {
        "city": "Itacoatiara",
        "state": "AM",
        "district": "Jardim Adriana",
        "street": "Rua Angélica",
        "zipcode": "69104-782"
    },
    {
        "city": "Itacoatiara",
        "state": "AM",
        "district": "São Francisco",
        "street": "Rua Amapá",
        "zipcode": "69101-492"
    },
    {
        "city": "Itacoatiara",
        "state": "AM",
        "district": "Prainha",
        "street": "Rua Itapiranga",
        "zipcode": "69101-304"
    },
    {
        "city": "Itacoatiara",
        "state": "AM",
        "district": "Prainha",
        "street": "Travessa 7 de Setembro",
        "zipcode": "69101-308"
    },
    {
        "city": "Itacoatiara",
        "state": "AM",
        "district": "Prainha",
        "street": "Beco 14 de Agosto",
        "zipcode": "69101-312"
    },
    {
        "city": "Itacoatiara",
        "state": "AM",
        "district": "Prainha",
        "street": "Rua Luiz Onete",
        "zipcode": "69101-324"
    },
    {
        "city": "Itacoatiara",
        "state": "AM",
        "district": "Prainha",
        "street": "Rua Manoel Mendes",
        "zipcode": "69101-328"
    },
    {
        "city": "Itacoatiara",
        "state": "AM",
        "district": "Prainha",
        "street": "Rua Antônio Menezes",
        "zipcode": "69101-332"
    },
    {
        "city": "Itacoatiara",
        "state": "AM",
        "district": "Prainha",
        "street": "Rua 1",
        "zipcode": "69101-348"
    },
    {
        "city": "Itacoatiara",
        "state": "AM",
        "district": "Prainha",
        "street": "Rua Sabiá",
        "zipcode": "69101-356"
    },
    {
        "city": "Itacoatiara",
        "state": "AM",
        "district": "Prainha",
        "street": "Rua Beija",
        "zipcode": "69101-360"
    },
    {
        "city": "Itacoatiara",
        "state": "AM",
        "district": "São Francisco",
        "street": "Rua Beija",
        "zipcode": "69101-384"
    },
    {
        "city": "Itacoatiara",
        "state": "AM",
        "district": "Mamoud Amed",
        "street": "Rua C",
        "zipcode": "69101-706"
    },
    {
        "city": "Itacoatiara",
        "state": "AM",
        "district": "Centro",
        "street": "Avenida Parque",
        "zipcode": "69100-970"
    },
    {
        "city": "Itacoatiara",
        "state": "AM",
        "district": "Centro",
        "street": "Rua Quintino Bocaiúva",
        "zipcode": "69100-069"
    },
    {
        "city": "Itacoatiara",
        "state": "AM",
        "district": "Centro",
        "street": "Avenida 15 de Novembro",
        "zipcode": "69100-072"
    },
    {
        "city": "Itacoatiara",
        "state": "AM",
        "district": "Colônia",
        "street": "Avenida 15 de Novembro",
        "zipcode": "69100-110"
    },
    {
        "city": "Itacoatiara",
        "state": "AM",
        "district": "Colônia",
        "street": "Avenida 15 de Novembro",
        "zipcode": "69100-146"
    },
    {
        "city": "Itacoatiara",
        "state": "AM",
        "district": "Centro",
        "street": "Rua Casseano Secundo",
        "zipcode": "69100-078"
    },
    {
        "city": "Itacoatiara",
        "state": "AM",
        "district": "Centro",
        "street": "Rua Coronel Queiroz",
        "zipcode": "69100-093"
    },
    {
        "city": "Itacoatiara",
        "state": "AM",
        "district": "Araújo Costa",
        "street": "Rua Borba",
        "zipcode": "69101-257"
    },
    {
        "city": "Itacoatiara",
        "state": "AM",
        "district": "Centro",
        "street": "Rua Benjamim Constant",
        "zipcode": "69100-090"
    },
    {
        "city": "Itacoatiara",
        "state": "AM",
        "district": "Araújo Costa",
        "street": "Rua Benjamim Constant",
        "zipcode": "69101-236"
    },
    {
        "city": "Itacoatiara",
        "state": "AM",
        "district": "Santo Antônio",
        "street": "Rua Benjamim Constant",
        "zipcode": "69103-104"
    },
    {
        "city": "Itacoatiara",
        "state": "AM",
        "district": "Colônia",
        "street": "Rua General Carneiro",
        "zipcode": "69100-122"
    },
    {
        "city": "Itacoatiara",
        "state": "AM",
        "district": "Colônia",
        "street": "Rua Pedro Álvares Cabral",
        "zipcode": "69100-125"
    },
    {
        "city": "Itacoatiara",
        "state": "AM",
        "district": "Iraci",
        "street": "Rua Portugal",
        "zipcode": "69101-122"
    },
    {
        "city": "Itacoatiara",
        "state": "AM",
        "district": "Iraci",
        "street": "Rua Francisco Atahide",
        "zipcode": "69101-086"
    },
    {
        "city": "Itacoatiara",
        "state": "AM",
        "district": "Mutirão",
        "street": "Rua Raimundo Hermida",
        "zipcode": "69101-533"
    },
    {
        "city": "Itacoatiara",
        "state": "AM",
        "district": "São Cristóvão",
        "street": "Rua Bernardo Almeida",
        "zipcode": "69103-344"
    },
    {
        "city": "Itacoatiara",
        "state": "AM",
        "district": "Mamoud Amed",
        "street": "Rua Curió",
        "zipcode": "69101-772"
    },
    {
        "city": "Itacoatiara",
        "state": "AM",
        "district": "Mamoud Amed",
        "street": "Rua Rio Negro",
        "zipcode": "69101-766"
    },
    {
        "city": "Itacoatiara",
        "state": "AM",
        "district": "Da Paz",
        "street": "Rua Canário",
        "zipcode": "69104-706"
    },
    {
        "city": "Itacoatiara",
        "state": "AM",
        "district": "Colônia",
        "street": "Rua 5 de Setembro",
        "zipcode": "69100-128"
    },
    {
        "city": "Itacoatiara",
        "state": "AM",
        "district": "Colônia",
        "street": "Rua Prudente de Moraes",
        "zipcode": "69100-137"
    },
    {
        "city": "Itacoatiara",
        "state": "AM",
        "district": "Colônia",
        "street": "Rua Floriano Peixoto",
        "zipcode": "69100-143"
    },
    {
        "city": "Itacoatiara",
        "state": "AM",
        "district": "Colônia",
        "street": "Rua Álvaro França",
        "zipcode": "69100-140"
    },
    {
        "city": "Itacoatiara",
        "state": "AM",
        "district": "Santo Antônio",
        "street": "Beco Ceme",
        "zipcode": "69103-100"
    },
    {
        "city": "Itacoatiara",
        "state": "AM",
        "district": "Jardim Florestal",
        "street": "Rua Urucurituba",
        "zipcode": "69101-621"
    },
    {
        "city": "Itacoatiara",
        "state": "AM",
        "district": "Iraci",
        "street": "Rua 9",
        "zipcode": "69101-170"
    },
    {
        "city": "Itacoatiara",
        "state": "AM",
        "district": "Araújo Costa",
        "street": "Avenida Aquilino Barros",
        "zipcode": "69101-230"
    },
    {
        "city": "Itacoatiara",
        "state": "AM",
        "district": "Iraci",
        "street": "Beco do César",
        "zipcode": "69101-185"
    },
    {
        "city": "Itacoatiara",
        "state": "AM",
        "district": "Iraci",
        "street": "Rua Ita 2",
        "zipcode": "69101-194"
    },
    {
        "city": "Itacoatiara",
        "state": "AM",
        "district": "Araújo Costa",
        "street": "Rua Ita 2",
        "zipcode": "69101-266"
    },
    {
        "city": "Itacoatiara",
        "state": "AM",
        "district": "Araújo Costa",
        "street": "Beco Aquilino Barros",
        "zipcode": "69101-233"
    },
    {
        "city": "Itacoatiara",
        "state": "AM",
        "district": "Araújo Costa",
        "street": "Avenida Armindo Auzier",
        "zipcode": "69101-269"
    },
    {
        "city": "Itacoatiara",
        "state": "AM",
        "district": "Araújo Costa",
        "street": "Beco do Fast",
        "zipcode": "69101-245"
    },
    {
        "city": "Itacoatiara",
        "state": "AM",
        "district": "Araújo Costa",
        "street": "Beco Osório Fonseca",
        "zipcode": "69101-248"
    },
    {
        "city": "Itacoatiara",
        "state": "AM",
        "district": "Jardim Florestal",
        "street": "Rua Angelim",
        "zipcode": "69101-657"
    },
    {
        "city": "Itacoatiara",
        "state": "AM",
        "district": "Mamoud Amed",
        "street": "Rua Angelim",
        "zipcode": "69101-673"
    },
    {
        "city": "Itacoatiara",
        "state": "AM",
        "district": "Jardim Florestal",
        "street": "Rua Celeste",
        "zipcode": "69101-630"
    },
    {
        "city": "Itacoatiara",
        "state": "AM",
        "district": "Mamoud Amed",
        "street": "Rua Jacarandá",
        "zipcode": "69101-679"
    },
    {
        "city": "Itacoatiara",
        "state": "AM",
        "district": "Jardim Florestal",
        "street": "Rua Cíntia",
        "zipcode": "69101-636"
    },
    {
        "city": "Itacoatiara",
        "state": "AM",
        "district": "Da Paz",
        "street": "Rua Japiim",
        "zipcode": "69104-678"
    },
    {
        "city": "Itacoatiara",
        "state": "AM",
        "district": "Mamoud Amed",
        "street": "Rua Rio Solimões",
        "zipcode": "69101-748"
    },
    {
        "city": "Itacoatiara",
        "state": "AM",
        "district": "São Cristóvão",
        "street": "Rua Dib Barbosa",
        "zipcode": "69103-336"
    },
    {
        "city": "Itacoatiara",
        "state": "AM",
        "district": "Tiradentes",
        "street": "Rua Castro Alves",
        "zipcode": "69103-216"
    },
    {
        "city": "Itacoatiara",
        "state": "AM",
        "district": "Iraci",
        "street": "Rua Esbelta P. de Souza",
        "zipcode": "69101-131"
    },
    {
        "city": "Itacoatiara",
        "state": "AM",
        "district": "São Cristóvão",
        "street": "Rua José Nobre",
        "zipcode": "69103-348"
    },
    {
        "city": "Itacoatiara",
        "state": "AM",
        "district": "Tiradentes",
        "street": "Rua José de Alencar",
        "zipcode": "69103-220"
    },
    {
        "city": "Itacoatiara",
        "state": "AM",
        "district": "Jardim Florestal",
        "street": "Rua Carla",
        "zipcode": "69101-639"
    },
    {
        "city": "Itacoatiara",
        "state": "AM",
        "district": "Jardim Florestal",
        "street": "Rua Cecília",
        "zipcode": "69101-642"
    },
    {
        "city": "Itacoatiara",
        "state": "AM",
        "district": "Jardim Florestal",
        "street": "Rua Inamuí",
        "zipcode": "69101-651"
    },
    {
        "city": "Itacoatiara",
        "state": "AM",
        "district": "Jardim Florestal",
        "street": "Rua Cedro",
        "zipcode": "69101-654"
    },
    {
        "city": "Itacoatiara",
        "state": "AM",
        "district": "Jardim Florestal",
        "street": "Rua Mogno",
        "zipcode": "69101-660"
    },
    {
        "city": "Itacoatiara",
        "state": "AM",
        "district": "Centro",
        "street": "Avenida Manaus",
        "zipcode": "69100-024"
    },
    {
        "city": "Itacoatiara",
        "state": "AM",
        "district": "Centro",
        "street": "Avenida Manaus",
        "zipcode": "69100-030"
    },
    {
        "city": "Itacoatiara",
        "state": "AM",
        "district": "Centro",
        "street": "Rua Eduardo Ribeiro",
        "zipcode": "69100-027"
    },
    {
        "city": "Itacoatiara",
        "state": "AM",
        "district": "Centro",
        "street": "Rua Doutor Luzardo Ferreira de Melo",
        "zipcode": "69100-033"
    },
    {
        "city": "Itacoatiara",
        "state": "AM",
        "district": "Centro",
        "street": "Rua Monsenhor Joaquim Pereira",
        "zipcode": "69100-042"
    },
    {
        "city": "Itacoatiara",
        "state": "AM",
        "district": "Centro",
        "street": "Rua Barão do Rio Branco",
        "zipcode": "69100-045"
    },
    {
        "city": "Itacoatiara",
        "state": "AM",
        "district": "Centro",
        "street": "Rua Coronel Barbosa",
        "zipcode": "69100-048"
    },
    {
        "city": "Itacoatiara",
        "state": "AM",
        "district": "Centro",
        "street": "Rua Coronel Barbosa",
        "zipcode": "69100-051"
    },
    {
        "city": "Itacoatiara",
        "state": "AM",
        "district": "Centro",
        "street": "Rua Desembargador Minineia",
        "zipcode": "69100-057"
    },
    {
        "city": "Itacoatiara",
        "state": "AM",
        "district": "Centro",
        "street": "Avenida Parque",
        "zipcode": "69100-003"
    },
    {
        "city": "Itacoatiara",
        "state": "AM",
        "district": "Santo Antônio",
        "street": "Rua Acácio Leite",
        "zipcode": "69103-088"
    },
    {
        "city": "Itacoatiara",
        "state": "AM",
        "district": "Iraci",
        "street": "Rua Borba",
        "zipcode": "69101-077"
    },
    {
        "city": "Itacoatiara",
        "state": "AM",
        "district": "Santo Antônio",
        "street": "Rua Borba",
        "zipcode": "69103-052"
    },
    {
        "city": "Itacoatiara",
        "state": "AM",
        "district": "Centro",
        "street": "Rua Benjamim Constant",
        "zipcode": "69100-009"
    },
    {
        "city": "Itacoatiara",
        "state": "AM",
        "district": "Centro",
        "street": "Rua Coronel Serudo Martins",
        "zipcode": "69100-012"
    },
    {
        "city": "Itacoatiara",
        "state": "AM",
        "district": "Centro",
        "street": "Rua Isaac Peres",
        "zipcode": "69100-015"
    },
    {
        "city": "Itacoatiara",
        "state": "AM",
        "district": "São Francisco",
        "street": "Rua Amazonas",
        "zipcode": "69101-508"
    },
    {
        "city": "Itacoatiara",
        "state": "AM",
        "district": "Mutirão",
        "street": "Rua Gesta Filho",
        "zipcode": "69101-539"
    },
    {
        "city": "Itacoatiara",
        "state": "AM",
        "district": "Mamoud Amed",
        "street": "Rua Ternura",
        "zipcode": "69101-730"
    },
    {
        "city": "Itacoatiara",
        "state": "AM",
        "district": "Mamoud Amed",
        "street": "Rua Rio Uatumã",
        "zipcode": "69101-757"
    },
    {
        "city": "Itacoatiara",
        "state": "AM",
        "district": "Pedreiras",
        "street": "Avenida Conselheiro Ruy Barbosa",
        "zipcode": "69101-025"
    },
    {
        "city": "Itacoatiara",
        "state": "AM",
        "district": "Santo Antônio",
        "street": "Rua Oscar Ramos",
        "zipcode": "69103-024"
    },
    {
        "city": "Itacoatiara",
        "state": "AM",
        "district": "Santo Antônio",
        "street": "Rua José Alves Simões",
        "zipcode": "69103-036"
    },
    {
        "city": "Itacoatiara",
        "state": "AM",
        "district": "Santo Antônio",
        "street": "Rua Hilário Antunes",
        "zipcode": "69103-040"
    },
    {
        "city": "Itacoatiara",
        "state": "AM",
        "district": "Santo Antônio",
        "street": "Rua Benedito Melo",
        "zipcode": "69103-044"
    },
    {
        "city": "Itacoatiara",
        "state": "AM",
        "district": "Santo Antônio",
        "street": "Beco do Módulo 2",
        "zipcode": "69103-068"
    },
    {
        "city": "Itacoatiara",
        "state": "AM",
        "district": "Santo Antônio",
        "street": "Beco do Módulo 1",
        "zipcode": "69103-072"
    },
    {
        "city": "Itacoatiara",
        "state": "AM",
        "district": "Santo Antônio",
        "street": "Travessa Santo Antônio",
        "zipcode": "69103-080"
    },
    {
        "city": "Itacoatiara",
        "state": "AM",
        "district": "Eduardo Braga I",
        "street": "Rua J",
        "zipcode": "69103-416"
    },
    {
        "city": "Itacoatiara",
        "state": "AM",
        "district": "Eduardo Braga I",
        "street": "Rua I",
        "zipcode": "69103-424"
    },
    {
        "city": "Itacoatiara",
        "state": "AM",
        "district": "Eduardo Braga I",
        "street": "Rua 9",
        "zipcode": "69103-436"
    },
    {
        "city": "Itacoatiara",
        "state": "AM",
        "district": "Eduardo Braga I",
        "street": "Rua 13",
        "zipcode": "69103-448"
    },
    {
        "city": "Itacoatiara",
        "state": "AM",
        "district": "Eduardo Braga I",
        "street": "Rua 2 de Novembro",
        "zipcode": "69103-460"
    },
    {
        "city": "Itacoatiara",
        "state": "AM",
        "district": "Eduardo Braga I",
        "street": "Rua 25 de Dezembro",
        "zipcode": "69103-468"
    },
    {
        "city": "Itacoatiara",
        "state": "AM",
        "district": "Araújo Costa",
        "street": "Avenida João Valério",
        "zipcode": "69101-260"
    },
    {
        "city": "Itacoatiara",
        "state": "AM",
        "district": "Mamoud Amed",
        "street": "Rua São Tomaz",
        "zipcode": "69101-754"
    },
    {
        "city": "Itacoatiara",
        "state": "AM",
        "district": "Santo Antônio",
        "street": "Rua José Republicano de Menezes",
        "zipcode": "69103-084"
    },
    {
        "city": "Itacoatiara",
        "state": "AM",
        "district": "Iraci",
        "street": "Rua Raimundo Antônio Correa",
        "zipcode": "69101-158"
    },
    {
        "city": "Itacoatiara",
        "state": "AM",
        "district": "Iraci",
        "street": "Rua Carlos Simões",
        "zipcode": "69101-164"
    },
    {
        "city": "Itacoatiara",
        "state": "AM",
        "district": "Eduardo Braga I",
        "street": "Rua 1 de Janeiro",
        "zipcode": "69103-456"
    },
    {
        "city": "Itacoatiara",
        "state": "AM",
        "district": "Iraci",
        "street": "Rua Adelino Pereira Costa",
        "zipcode": "69101-167"
    },
    {
        "city": "Itacoatiara",
        "state": "AM",
        "district": "Mamoud Amed",
        "street": "Rua São Gabriel",
        "zipcode": "69101-760"
    },
    {
        "city": "Itacoatiara",
        "state": "AM",
        "district": "Mamoud Amed",
        "street": "Rua São Paulo",
        "zipcode": "69101-736"
    },
    {
        "city": "Itacoatiara",
        "state": "AM",
        "district": "Santo Antônio",
        "street": "Avenida José Tadros",
        "zipcode": "69103-108"
    },
    {
        "city": "Itacoatiara",
        "state": "AM",
        "district": "Tiradentes",
        "street": "Travessa Luiz Barreto",
        "zipcode": "69103-140"
    },
    {
        "city": "Itacoatiara",
        "state": "AM",
        "district": "Tiradentes",
        "street": "Travessa Luiz Almeida",
        "zipcode": "69103-144"
    },
    {
        "city": "Itacoatiara",
        "state": "AM",
        "district": "Araújo Costa",
        "street": "Beco João Valério",
        "zipcode": "69101-263"
    },
    {
        "city": "Itacoatiara",
        "state": "AM",
        "district": "Eduardo Braga I",
        "street": "Rua Angelim",
        "zipcode": "69103-412"
    },
    {
        "city": "Itacoatiara",
        "state": "AM",
        "district": "Mamoud Amed",
        "street": "Travessa Santo Antônio",
        "zipcode": "69101-826"
    },
    {
        "city": "Itacoatiara",
        "state": "AM",
        "district": "Santo Antônio",
        "street": "Rua Roldão Alves",
        "zipcode": "69103-008"
    },
    {
        "city": "Itacoatiara",
        "state": "AM",
        "district": "Santa Luzia",
        "street": "Rua Nossa Senhora do Rosário",
        "zipcode": "69104-015"
    },
    {
        "city": "Itacoatiara",
        "state": "AM",
        "district": "Centro",
        "street": "Rua Ministro Waldemar Pedrosa",
        "zipcode": "69100-060"
    },
    {
        "city": "Itacoatiara",
        "state": "AM",
        "district": "São Jorge",
        "street": "Rua Isaac Peres",
        "zipcode": "69104-066"
    },
    {
        "city": "Itacoatiara",
        "state": "AM",
        "district": "São Francisco",
        "street": "Travessa 32",
        "zipcode": "69101-456"
    },
    {
        "city": "Itacoatiara",
        "state": "AM",
        "district": "Da Paz",
        "street": "Rua 7",
        "zipcode": "69104-682"
    },
    {
        "city": "Itacoatiara",
        "state": "AM",
        "district": "Eduardo Braga I",
        "street": "Rua 18",
        "zipcode": "69103-388"
    },
    {
        "city": "Itacoatiara",
        "state": "AM",
        "district": "Eduardo Braga I",
        "street": "Rua 14",
        "zipcode": "69103-392"
    },
    {
        "city": "Itacoatiara",
        "state": "AM",
        "district": "Eduardo Braga I",
        "street": "Rua 15",
        "zipcode": "69103-400"
    },
    {
        "city": "Itacoatiara",
        "state": "AM",
        "district": "São Jorge",
        "street": "Beco Aquários",
        "zipcode": "69104-042"
    },
    {
        "city": "Itacoatiara",
        "state": "AM",
        "district": "São Jorge",
        "street": "Rua 6",
        "zipcode": "69104-070"
    },
    {
        "city": "Itacoatiara",
        "state": "AM",
        "district": "São Jorge",
        "street": "Rua Pompilho Marques",
        "zipcode": "69104-074"
    },
    {
        "city": "Itacoatiara",
        "state": "AM",
        "district": "Eduardo Braga I",
        "street": "Rua 16",
        "zipcode": "69103-404"
    },
    {
        "city": "Itacoatiara",
        "state": "AM",
        "district": "São Jorge",
        "street": "Avenida Armindo Auzier",
        "zipcode": "69104-030"
    },
    {
        "city": "Itacoatiara",
        "state": "AM",
        "district": "Iraci",
        "street": "Rua Arlindo Fonseca",
        "zipcode": "69101-176"
    },
    {
        "city": "Itacoatiara",
        "state": "AM",
        "district": "Iraci",
        "street": "Rua Guiomar P. Costa",
        "zipcode": "69101-128"
    },
    {
        "city": "Itacoatiara",
        "state": "AM",
        "district": "Jardim Lorena",
        "street": "Rua Benjamim Constant",
        "zipcode": "69104-606"
    },
    {
        "city": "Itacoatiara",
        "state": "AM",
        "district": "Jardim Lorena",
        "street": "Rua do Mapati",
        "zipcode": "69104-594"
    },
    {
        "city": "Itacoatiara",
        "state": "AM",
        "district": "Da Paz",
        "street": "Rua Curió",
        "zipcode": "69104-662"
    },
    {
        "city": "Itacoatiara",
        "state": "AM",
        "district": "Eduardo Braga I",
        "street": "Rua 17 de Julho",
        "zipcode": "69103-428"
    },
    {
        "city": "Itacoatiara",
        "state": "AM",
        "district": "Prainha",
        "street": "Beco Iracy",
        "zipcode": "69101-288"
    },
    {
        "city": "Itacoatiara",
        "state": "AM",
        "district": "Iraci",
        "street": "Rua Antônio Reto",
        "zipcode": "69101-179"
    },
    {
        "city": "Itacoatiara",
        "state": "AM",
        "district": "Mamoud Amed",
        "street": "Rua Macacaúba",
        "zipcode": "69101-676"
    },
    {
        "city": "Itacoatiara",
        "state": "AM",
        "district": "Mamoud Amed",
        "street": "Rua Santa Etelvina",
        "zipcode": "69101-814"
    },
    {
        "city": "Itacoatiara",
        "state": "AM",
        "district": "Jauari I",
        "street": "Avenida Aquilino Barros",
        "zipcode": "69104-116"
    },
    {
        "city": "Itacoatiara",
        "state": "AM",
        "district": "Jardim Lorena",
        "street": "Rua das Tulipas",
        "zipcode": "69104-614"
    },
    {
        "city": "Itacoatiara",
        "state": "AM",
        "district": "São Cristóvão",
        "street": "Rua Estácio Alencar",
        "zipcode": "69103-364"
    },
    {
        "city": "Itacoatiara",
        "state": "AM",
        "district": "São Cristóvão",
        "street": "Rua Nova Olinda do Norte",
        "zipcode": "69103-332"
    },
    {
        "city": "Itacoatiara",
        "state": "AM",
        "district": "Jardim Lorena",
        "street": "Rua das Acerolas",
        "zipcode": "69104-602"
    },
    {
        "city": "Itacoatiara",
        "state": "AM",
        "district": "Santa Luzia",
        "street": "Rua Uatumã",
        "zipcode": "69104-021"
    },
    {
        "city": "Itacoatiara",
        "state": "AM",
        "district": "Mamoud Amed",
        "street": "Rua Juruá",
        "zipcode": "69101-793"
    },
    {
        "city": "Itacoatiara",
        "state": "AM",
        "district": "São Cristóvão",
        "street": "Rua Laete Torres",
        "zipcode": "69103-368"
    },
    {
        "city": "Itacoatiara",
        "state": "AM",
        "district": "Mamoud Amed",
        "street": "Rua Santa Clara",
        "zipcode": "69101-808"
    },
    {
        "city": "Itacoatiara",
        "state": "AM",
        "district": "Mamoud Amed",
        "street": "Rua Santa Luzia",
        "zipcode": "69101-820"
    },
    {
        "city": "Itacoatiara",
        "state": "AM",
        "district": "São Cristóvão",
        "street": "Rua Antônio Simões",
        "zipcode": "69103-372"
    },
    {
        "city": "Itacoatiara",
        "state": "AM",
        "district": "Mamoud Amed",
        "street": "Rua São Mateus",
        "zipcode": "69101-805"
    },
    {
        "city": "Itacoatiara",
        "state": "AM",
        "district": "Tiradentes",
        "street": "Rua Vereador Nelson Neto",
        "zipcode": "69103-196"
    },
    {
        "city": "Itacoatiara",
        "state": "AM",
        "district": "São Jorge",
        "street": "Rua Coronel Igrejas Lopes",
        "zipcode": "69104-078"
    },
    {
        "city": "Itacoatiara",
        "state": "AM",
        "district": "Iraci",
        "street": "Rua Lourival Costa",
        "zipcode": "69101-125"
    },
    {
        "city": "Itacoatiara",
        "state": "AM",
        "district": "Mamoud Amed",
        "street": "Rua Voluntários da Pátria",
        "zipcode": "69101-829"
    },
    {
        "city": "Itacoatiara",
        "state": "AM",
        "district": "Jauari I",
        "street": "Rua Nossa Senhora do Rosário",
        "zipcode": "69104-104"
    },
    {
        "city": "Itacoatiara",
        "state": "AM",
        "district": "Mamoud Amed",
        "street": "Rua Jatobá",
        "zipcode": "69101-682"
    },
    {
        "city": "Itacoatiara",
        "state": "AM",
        "district": "Mamoud Amed",
        "street": "Rua São Pedro",
        "zipcode": "69101-823"
    },
    {
        "city": "Itacoatiara",
        "state": "AM",
        "district": "Da Paz",
        "street": "Rua Bacurau",
        "zipcode": "69104-666"
    },
    {
        "city": "Itacoatiara",
        "state": "AM",
        "district": "Santo Antônio",
        "street": "Rua Jorge Mubarac",
        "zipcode": "69103-000"
    },
    {
        "city": "Itacoatiara",
        "state": "AM",
        "district": "Prainha",
        "street": "Rua Bem",
        "zipcode": "69101-320"
    },
    {
        "city": "Itacoatiara",
        "state": "AM",
        "district": "Jardim Lorena",
        "street": "Rua Eucalipto",
        "zipcode": "69104-582"
    },
    {
        "city": "Itacoatiara",
        "state": "AM",
        "district": "Iraci",
        "street": "Rua Antônio Reto",
        "zipcode": "69101-095"
    },
    {
        "city": "Itacoatiara",
        "state": "AM",
        "district": "Jardim Lorena",
        "street": "Rua Desembargador Montes",
        "zipcode": "69104-590"
    },
    {
        "city": "Itacoatiara",
        "state": "AM",
        "district": "São Cristóvão",
        "street": "Rua Codajás",
        "zipcode": "69103-324"
    },
    {
        "city": "Itacoatiara",
        "state": "AM",
        "district": "Jardim Lorena",
        "street": "Rua do Ipê Roxo",
        "zipcode": "69104-578"
    },
    {
        "city": "Itacoatiara",
        "state": "AM",
        "district": "Jardim Lorena",
        "street": "Rua Muzendra Branca",
        "zipcode": "69104-598"
    },
    {
        "city": "Itacoatiara",
        "state": "AM",
        "district": "Santo Antônio",
        "street": "Rua Professor Gervázio Ruiz",
        "zipcode": "69103-016"
    },
    {
        "city": "Itacoatiara",
        "state": "AM",
        "district": "Jauari I",
        "street": "Rua Nossa Senhora do Rosário",
        "zipcode": "69104-100"
    },
    {
        "city": "Itacoatiara",
        "state": "AM",
        "district": "Iraci",
        "street": "Rua Vicente Lima de Mendonça",
        "zipcode": "69101-113"
    },
    {
        "city": "Itacoatiara",
        "state": "AM",
        "district": "Iraci",
        "street": "Rua José Nobre",
        "zipcode": "69101-152"
    },
    {
        "city": "Itacoatiara",
        "state": "AM",
        "district": "São Francisco",
        "street": "Rua 17",
        "zipcode": "69101-412"
    },
    {
        "city": "Itacoatiara",
        "state": "AM",
        "district": "São Francisco",
        "street": "Rua 18",
        "zipcode": "69101-424"
    },
    {
        "city": "Itacoatiara",
        "state": "AM",
        "district": "São Francisco",
        "street": "Rua 19",
        "zipcode": "69101-432"
    },
    {
        "city": "Itacoatiara",
        "state": "AM",
        "district": "São Cristóvão",
        "street": "Rua Moacir Abreu",
        "zipcode": "69103-320"
    },
    {
        "city": "Itacoatiara",
        "state": "AM",
        "district": "Eduardo Braga I",
        "street": "Rua C",
        "zipcode": "69103-508"
    },
    {
        "city": "Itacoatiara",
        "state": "AM",
        "district": "Santa Luzia",
        "street": "Avenida Manaus",
        "zipcode": "69104-000"
    },
    {
        "city": "Itacoatiara",
        "state": "AM",
        "district": "Tiradentes",
        "street": "Rua Acácio Leite",
        "zipcode": "69103-188"
    },
    {
        "city": "Itacoatiara",
        "state": "AM",
        "district": "Eduardo Braga I",
        "street": "Rua D",
        "zipcode": "69103-500"
    },
    {
        "city": "Itacoatiara",
        "state": "AM",
        "district": "Santa Luzia",
        "street": "Rua Isaac Peres",
        "zipcode": "69104-009"
    },
    {
        "city": "Itacoatiara",
        "state": "AM",
        "district": "São Cristóvão",
        "street": "Avenida Mário Andreazza",
        "zipcode": "69103-272"
    },
    {
        "city": "Itacoatiara",
        "state": "AM",
        "district": "São Cristóvão",
        "street": "Rua 1º de Maio",
        "zipcode": "69103-252"
    },
    {
        "city": "Itacoatiara",
        "state": "AM",
        "district": "São Cristóvão",
        "street": "Rua 24 de Agosto",
        "zipcode": "69103-264"
    },
    {
        "city": "Itacoatiara",
        "state": "AM",
        "district": "São Cristóvão",
        "street": "Rua Urucará",
        "zipcode": "69103-284"
    },
    {
        "city": "Itacoatiara",
        "state": "AM",
        "district": "São Cristóvão",
        "street": "Rua Belo Horizonte",
        "zipcode": "69103-288"
    },
    {
        "city": "Itacoatiara",
        "state": "AM",
        "district": "São Cristóvão",
        "street": "Rua Parintins",
        "zipcode": "69103-292"
    },
    {
        "city": "Itacoatiara",
        "state": "AM",
        "district": "São Cristóvão",
        "street": "Rua Urucurituba",
        "zipcode": "69103-300"
    },
    {
        "city": "Itacoatiara",
        "state": "AM",
        "district": "São Cristóvão",
        "street": "Travessa Jorge Mubarac",
        "zipcode": "69103-304"
    },
    {
        "city": "Itacoatiara",
        "state": "AM",
        "district": "Eduardo Braga II",
        "street": "Rua Angelim I",
        "zipcode": "69103-624"
    },
    {
        "city": "Itacoatiara",
        "state": "AM",
        "district": "Tiradentes",
        "street": "Avenida Chibly Abraim",
        "zipcode": "69103-168"
    },
    {
        "city": "Itacoatiara",
        "state": "AM",
        "district": "Tiradentes",
        "street": "Rua 2",
        "zipcode": "69103-156"
    },
    {
        "city": "Itacoatiara",
        "state": "AM",
        "district": "São Cristóvão",
        "street": "Rua Severiano Nunes",
        "zipcode": "69103-248"
    },
    {
        "city": "Itacoatiara",
        "state": "AM",
        "district": "Eduardo Braga I",
        "street": "Rua E",
        "zipcode": "69103-496"
    },
    {
        "city": "Itacoatiara",
        "state": "AM",
        "district": "Santa Luzia",
        "street": "Avenida Aquilino Barros",
        "zipcode": "69104-012"
    },
    {
        "city": "Itacoatiara",
        "state": "AM",
        "district": "Jauari I",
        "street": "Avenida João Valério",
        "zipcode": "69104-216"
    },
    {
        "city": "Itacoatiara",
        "state": "AM",
        "district": "São Cristóvão",
        "street": "Rua Beija",
        "zipcode": "69103-312"
    },
    {
        "city": "Itacoatiara",
        "state": "AM",
        "district": "Eduardo Braga II",
        "street": "Rua Virola",
        "zipcode": "69103-656"
    },
    {
        "city": "Itacoatiara",
        "state": "AM",
        "district": "Jauari II",
        "street": "Rua Carlos Henrique Moehring",
        "zipcode": "69104-404"
    },
    {
        "city": "Itacoatiara",
        "state": "AM",
        "district": "São Francisco",
        "street": "Rua Barcelos",
        "zipcode": "69101-472"
    },
    {
        "city": "Itacoatiara",
        "state": "AM",
        "district": "São Francisco",
        "street": "Rua Coari",
        "zipcode": "69101-468"
    },
    {
        "city": "Itacoatiara",
        "state": "AM",
        "district": "Jauari II",
        "street": "Rua Carlos Henrique Moehring",
        "zipcode": "69104-400"
    },
    {
        "city": "Itacoatiara",
        "state": "AM",
        "district": "Eduardo Braga I",
        "street": "Rua Celeste",
        "zipcode": "69103-516"
    },
    {
        "city": "Itacoatiara",
        "state": "AM",
        "district": "Eduardo Braga II",
        "street": "Rua Carla",
        "zipcode": "69103-548"
    },
    {
        "city": "Itacoatiara",
        "state": "AM",
        "district": "Eduardo Braga II",
        "street": "Rua Cecília",
        "zipcode": "69103-552"
    },
    {
        "city": "Itacoatiara",
        "state": "AM",
        "district": "Mamoud Amed",
        "street": "Rua Nossa Senhora do Rosário",
        "zipcode": "69101-727"
    },
    {
        "city": "Itacoatiara",
        "state": "AM",
        "district": "Jardim Adriana",
        "street": "Rua Jasmim",
        "zipcode": "69104-786"
    },
    {
        "city": "Itacoatiara",
        "state": "AM",
        "district": "Mamoud Amed",
        "street": "Avenida Liberdade",
        "zipcode": "69101-796"
    },
    {
        "city": "Itacoatiara",
        "state": "AM",
        "district": "Tiradentes",
        "street": "Rua Machado de Assis",
        "zipcode": "69103-228"
    },
    {
        "city": "Itacoatiara",
        "state": "AM",
        "district": "Jardim Adriana",
        "street": "Rua Cravo",
        "zipcode": "69104-798"
    },
    {
        "city": "Itacoatiara",
        "state": "AM",
        "district": "Jauari II",
        "street": "Travessa Santa Maria",
        "zipcode": "69104-384"
    },
    {
        "city": "Itacoatiara",
        "state": "AM",
        "district": "Jardim Adriana",
        "street": "Rua Margarida",
        "zipcode": "69104-814"
    },
    {
        "city": "Itacoatiara",
        "state": "AM",
        "district": "São Francisco",
        "street": "Rua Tefé",
        "zipcode": "69101-464"
    },
    {
        "city": "Itacoatiara",
        "state": "AM",
        "district": "São Francisco",
        "street": "Rua Novo Aripuanã",
        "zipcode": "69101-408"
    },
    {
        "city": "Itacoatiara",
        "state": "AM",
        "district": "São Cristóvão",
        "street": "Rua Nelson Neto",
        "zipcode": "69103-268"
    },
    {
        "city": "Itacoatiara",
        "state": "AM",
        "district": "São Cristóvão",
        "street": "Avenida José Tadros",
        "zipcode": "69103-240"
    },
    {
        "city": "Itacoatiara",
        "state": "AM",
        "district": "Jardim Adriana",
        "street": "Rua Girassol",
        "zipcode": "69104-802"
    },
    {
        "city": "Itacoatiara",
        "state": "AM",
        "district": "Jardim Adriana",
        "street": "Rua Vitória Régia",
        "zipcode": "69104-790"
    },
    {
        "city": "Itacoatiara",
        "state": "AM",
        "district": "Jauari II",
        "street": "Rua Doutor Luzardo Ferreira de Melo",
        "zipcode": "69104-388"
    },
    {
        "city": "Itacoatiara",
        "state": "AM",
        "district": "Mamoud Amed",
        "street": "Rua Rio Japurá",
        "zipcode": "69101-781"
    },
    {
        "city": "Itacoatiara",
        "state": "AM",
        "district": "Mamoud Amed",
        "street": "Rua Rio Arari",
        "zipcode": "69101-784"
    },
    {
        "city": "Itacoatiara",
        "state": "AM",
        "district": "São Francisco",
        "street": "Rua Novo Aripuanã",
        "zipcode": "69101-428"
    },
    {
        "city": "Itacoatiara",
        "state": "AM",
        "district": "Jardim Adriana",
        "street": "Travessa Hortência",
        "zipcode": "69104-794"
    },
    {
        "city": "Itacoatiara",
        "state": "AM",
        "district": "São Francisco",
        "street": "Rua Primavera",
        "zipcode": "69101-436"
    },
    {
        "city": "Itacoatiara",
        "state": "AM",
        "district": "Tiradentes",
        "street": "Avenida José Tadros",
        "zipcode": "69103-232"
    },
    {
        "city": "Itacoatiara",
        "state": "AM",
        "district": "Jardim Adriana",
        "street": "Rua Camélia",
        "zipcode": "69104-810"
    },
    {
        "city": "Itacoatiara",
        "state": "AM",
        "district": "Mamoud Amed",
        "street": "Rua Vitória",
        "zipcode": "69101-724"
    },
    {
        "city": "Itacoatiara",
        "state": "AM",
        "district": "Santo Antônio",
        "street": "Rua Vereador Adolfo Olímpio",
        "zipcode": "69103-076"
    },
    {
        "city": "Itacoatiara",
        "state": "AM",
        "district": "Colônia",
        "street": "Rua Benjamim Constant",
        "zipcode": "69100-113"
    },
    {
        "city": "Itacoatiara",
        "state": "AM",
        "district": "Tiradentes",
        "street": "Rua Benjamim Constant",
        "zipcode": "69103-164"
    },
    {
        "city": "Itacoatiara",
        "state": "AM",
        "district": "Santa Luzia",
        "street": "Rua Benjamim Constant",
        "zipcode": "69104-003"
    },
    {
        "city": "Itacoatiara",
        "state": "AM",
        "district": "Iraci",
        "street": "Rua Coronel Serudo Martins",
        "zipcode": "69101-074"
    },
    {
        "city": "Itacoatiara",
        "state": "AM",
        "district": "Centro",
        "street": "Rua Isaac Peres",
        "zipcode": "69100-096"
    },
    {
        "city": "Itacoatiara",
        "state": "AM",
        "district": "São Cristóvão",
        "street": "Rua Ipanema",
        "zipcode": "69103-256"
    },
    {
        "city": "Itacoatiara",
        "state": "AM",
        "district": "São Cristóvão",
        "street": "Beco São Cristovão",
        "zipcode": "69103-296"
    },
    {
        "city": "Itacoatiara",
        "state": "AM",
        "district": "Tiradentes",
        "street": "Avenida Chibly Abraim",
        "zipcode": "69103-152"
    },
    {
        "city": "Itacoatiara",
        "state": "AM",
        "district": "São Jorge",
        "street": "Rua Carlos Castelo Branco",
        "zipcode": "69104-082"
    },
    {
        "city": "Itacoatiara",
        "state": "AM",
        "district": "Eduardo Braga I",
        "street": "Rua 7 de Setembro",
        "zipcode": "69103-432"
    },
    {
        "city": "Itacoatiara",
        "state": "AM",
        "district": "Eduardo Braga I",
        "street": "Rua 13 de Dezembro",
        "zipcode": "69103-440"
    },
    {
        "city": "Itacoatiara",
        "state": "AM",
        "district": "Eduardo Braga I",
        "street": "Rua G",
        "zipcode": "69103-484"
    },
    {
        "city": "Itacoatiara",
        "state": "AM",
        "district": "Santa Luzia",
        "street": "Avenida Armindo Auzier",
        "zipcode": "69104-024"
    },
    {
        "city": "Itacoatiara",
        "state": "AM",
        "district": "Santa Luzia",
        "street": "Avenida João Valério",
        "zipcode": "69104-018"
    },
    {
        "city": "Itacoatiara",
        "state": "AM",
        "district": "Jauari I",
        "street": "Rua Pompilho Marques",
        "zipcode": "69104-236"
    },
    {
        "city": "Itacoatiara",
        "state": "AM",
        "district": "Jauari I",
        "street": "Avenida Armindo Auzier",
        "zipcode": "69104-228"
    },
    {
        "city": "Itacoatiara",
        "state": "AM",
        "district": "Jauari II",
        "street": "Avenida Mário Andreazza",
        "zipcode": "69104-372"
    },
    {
        "city": "Itacoatiara",
        "state": "AM",
        "district": "Eduardo Braga II",
        "street": "Rua Cerejeira",
        "zipcode": "69103-604"
    },
    {
        "city": "Itacoatiara",
        "state": "AM",
        "district": "Mamoud Amed",
        "street": "Rua Progresso",
        "zipcode": "69101-703"
    },
    {
        "city": "Itacoatiara",
        "state": "AM",
        "district": "Jauari I",
        "street": "Rua Gaspar Maia",
        "zipcode": "69104-224"
    },
    {
        "city": "Itacoatiara",
        "state": "AM",
        "district": "Jauari II",
        "street": "Rua Chibly Abraim",
        "zipcode": "69104-344"
    },
    {
        "city": "Itacoatiara",
        "state": "AM",
        "district": "Jauari II",
        "street": "Rua Araújo Costa",
        "zipcode": "69104-368"
    },
    {
        "city": "Itacoatiara",
        "state": "AM",
        "district": "Tiradentes",
        "street": "Rua Ely Paiva",
        "zipcode": "69103-172"
    },
    {
        "city": "Itacoatiara",
        "state": "AM",
        "district": "Eduardo Braga II",
        "street": "Rua Violeta",
        "zipcode": "69103-644"
    },
    {
        "city": "Itacoatiara",
        "state": "AM",
        "district": "Jauari I",
        "street": "Avenida Aquilino Barros",
        "zipcode": "69104-200"
    },
    {
        "city": "Itacoatiara",
        "state": "AM",
        "district": "Jauari II",
        "street": "Rua Abílio Nery",
        "zipcode": "69104-332"
    },
    {
        "city": "Itacoatiara",
        "state": "AM",
        "district": "Tiradentes",
        "street": "Rua Cecília Meireles",
        "zipcode": "69103-224"
    },
    {
        "city": "Itacoatiara",
        "state": "AM",
        "district": "Eduardo Braga II",
        "street": "Rua Cedrinho",
        "zipcode": "69103-648"
    },
    {
        "city": "Itacoatiara",
        "state": "AM",
        "district": "Jauari I",
        "street": "Beco Teodorico Nunes",
        "zipcode": "69104-220"
    },
    {
        "city": "Itacoatiara",
        "state": "AM",
        "district": "Eduardo Braga II",
        "street": "Rua Amapá",
        "zipcode": "69103-636"
    },
    {
        "city": "Itacoatiara",
        "state": "AM",
        "district": "Jauari II",
        "street": "Rua Alexandre Antunes",
        "zipcode": "69104-328"
    },
    {
        "city": "Itacoatiara",
        "state": "AM",
        "district": "São Cristóvão",
        "street": "Rua João Bezerra",
        "zipcode": "69103-356"
    },
    {
        "city": "Itacoatiara",
        "state": "AM",
        "district": "Jauari I",
        "street": "Rua Laete Torres",
        "zipcode": "69104-244"
    },
    {
        "city": "Itacoatiara",
        "state": "AM",
        "district": "Jauari II",
        "street": "Rua Professor Fernando Leite",
        "zipcode": "69104-340"
    },
    {
        "city": "Itacoatiara",
        "state": "AM",
        "district": "Tiradentes",
        "street": "Rua Vereador Laete Torres",
        "zipcode": "69103-200"
    },
    {
        "city": "Itacoatiara",
        "state": "AM",
        "district": "Tiradentes",
        "street": "Rua Vereador José Nobre",
        "zipcode": "69103-192"
    },
    {
        "city": "Itacoatiara",
        "state": "AM",
        "district": "Eduardo Braga II",
        "street": "Rua Cerejeira",
        "zipcode": "69103-560"
    },
    {
        "city": "Itacoatiara",
        "state": "AM",
        "district": "Jauari I",
        "street": "Beco São Pedro",
        "zipcode": "69104-196"
    },
    {
        "city": "Itacoatiara",
        "state": "AM",
        "district": "Jauari II",
        "street": "Rua Osório Fonseca",
        "zipcode": "69104-336"
    },
    {
        "city": "Itacoatiara",
        "state": "AM",
        "district": "Jauari I",
        "street": "Rua Adamastor de Figueiredo",
        "zipcode": "69104-208"
    },
    {
        "city": "Itacoatiara",
        "state": "AM",
        "district": "Jauari I",
        "street": "Rua Ernesto Talheimer",
        "zipcode": "69104-256"
    },
    {
        "city": "Itacoatiara",
        "state": "AM",
        "district": "Jauari I",
        "street": "Beco Oriental",
        "zipcode": "69104-204"
    },
    {
        "city": "Itacoatiara",
        "state": "AM",
        "district": "Jauari I",
        "street": "Rua Coronel Barbosa",
        "zipcode": "69104-176"
    },
    {
        "city": "Itacoatiara",
        "state": "AM",
        "district": "Jauari II",
        "street": "Rua Pompilho Marques",
        "zipcode": "69104-348"
    },
    {
        "city": "Itacoatiara",
        "state": "AM",
        "district": "São Cristóvão",
        "street": "Avenida Antônio da Feira",
        "zipcode": "69103-340"
    },
    {
        "city": "Itacoatiara",
        "state": "AM",
        "district": "Jauari II",
        "street": "Rua Coronel Igrejas Lopes",
        "zipcode": "69104-360"
    },
    {
        "city": "Itacoatiara",
        "state": "AM",
        "district": "Jauari I",
        "street": "Estrada Stone",
        "zipcode": "69104-232"
    },
    {
        "city": "Itacoatiara",
        "state": "AM",
        "district": "Mamoud Amed",
        "street": "Rua Paraíso",
        "zipcode": "69101-709"
    },
    {
        "city": "Itacoatiara",
        "state": "AM",
        "district": "Mamoud Amed",
        "street": "Rua da Alegria",
        "zipcode": "69101-715"
    },
    {
        "city": "Itacoatiara",
        "state": "AM",
        "district": "Jauari I",
        "street": "Rua Luiz Serudo Martins",
        "zipcode": "69104-252"
    },
    {
        "city": "Itacoatiara",
        "state": "AM",
        "district": "Jauari II",
        "street": "Rua Carlos Castelo Branco",
        "zipcode": "69104-364"
    },
    {
        "city": "Itacoatiara",
        "state": "AM",
        "district": "Jauari I",
        "street": "Beco Mendonça Furtado",
        "zipcode": "69104-212"
    },
    {
        "city": "Itacoatiara",
        "state": "AM",
        "district": "Tiradentes",
        "street": "Rua Jurandir Mendonça",
        "zipcode": "69103-180"
    },
    {
        "city": "Itacoatiara",
        "state": "AM",
        "district": "Mamoud Amed",
        "street": "Rua Felicidade",
        "zipcode": "69101-718"
    },
    {
        "city": "Itacoatiara",
        "state": "AM",
        "district": "São Jorge",
        "street": "Rua Nossa Senhora do Rosário",
        "zipcode": "69104-086"
    },
    {
        "city": "Itacoatiara",
        "state": "AM",
        "district": "Iraci",
        "street": "Rua Álvaro Maia",
        "zipcode": "69101-173"
    },
    {
        "city": "Itacoatiara",
        "state": "AM",
        "district": "São Cristóvão",
        "street": "Rua Álvaro Maia",
        "zipcode": "69103-316"
    },
    {
        "city": "Itacoatiara",
        "state": "AM",
        "district": "São Jorge",
        "street": "Rua Benjamim Constant",
        "zipcode": "69104-034"
    },
    {
        "city": "Itacoatiara",
        "state": "AM",
        "district": "São Cristóvão",
        "street": "Avenida Mário Andreazza",
        "zipcode": "69103-276"
    },
    {
        "city": "Itacoatiara",
        "state": "AM",
        "district": "Eduardo Braga I",
        "street": "Rua 25 de Agosto",
        "zipcode": "69103-444"
    },
    {
        "city": "Itacoatiara",
        "state": "AM",
        "district": "Eduardo Braga I",
        "street": "Rua H",
        "zipcode": "69103-480"
    },
    {
        "city": "Itacoatiara",
        "state": "AM",
        "district": "Araújo Costa",
        "street": "Rua Uatumã",
        "zipcode": "69101-254"
    },
    {
        "city": "Itacoatiara",
        "state": "AM",
        "district": "Prainha",
        "street": "Beco Ajuricaba",
        "zipcode": "69101-300"
    },
    {
        "city": "Itacoatiara",
        "state": "AM",
        "district": "Prainha",
        "street": "Rua Municipal",
        "zipcode": "69101-352"
    },
    {
        "city": "Itacoatiara",
        "state": "AM",
        "district": "Eduardo Braga II",
        "street": "Rua Angelim",
        "zipcode": "69103-628"
    },
    {
        "city": "Itacoatiara",
        "state": "AM",
        "district": "Jardim Florestal",
        "street": "Rua Jacarandá",
        "zipcode": "69101-633"
    },
    {
        "city": "Itacoatiara",
        "state": "AM",
        "district": "Eduardo Braga II",
        "street": "Rua Cíntia",
        "zipcode": "69103-544"
    },
    {
        "city": "Itacoatiara",
        "state": "AM",
        "district": "Pedreiras",
        "street": "Avenida Parque",
        "zipcode": "69101-900"
    },
    {
        "city": "Itacoatiara",
        "state": "AM",
        "district": "Centro",
        "street": "Avenida 7 de Setembro",
        "zipcode": "69100-036"
    },
    {
        "city": "Itacoatiara",
        "state": "AM",
        "district": "Tiradentes",
        "street": "Rua Nossa Senhora do Rosário",
        "zipcode": "69103-128"
    },
    {
        "city": "Itacoatiara",
        "state": "AM",
        "district": "Colônia",
        "street": "Rua Doutor Luzardo Ferreira de Melo",
        "zipcode": "69100-149"
    },
    {
        "city": "Itacoatiara",
        "state": "AM",
        "district": "Centro",
        "street": "Rua Desembargador Minineia",
        "zipcode": "69100-054"
    },
    {
        "city": "Itacoatiara",
        "state": "AM",
        "district": "Jauari I",
        "street": "Avenida Manaus",
        "zipcode": "69104-108"
    },
    {
        "city": "Itacoatiara",
        "state": "AM",
        "district": "Mamoud Amed",
        "street": "Rua São Francisco",
        "zipcode": "69101-817"
    },
    {
        "city": "Itacoatiara",
        "state": "AM",
        "district": "Nogueira Júnior",
        "street": "Rua Juracema Holanda",
        "zipcode": "69101-574"
    },
    {
        "city": "Itacoatiara",
        "state": "AM",
        "district": "Mamoud Amed",
        "street": "Rua Rio Amazonas",
        "zipcode": "69101-763"
    },
    {
        "city": "Itacoatiara",
        "state": "AM",
        "district": "Santo Antônio",
        "street": "Rua Abdon Mamede",
        "zipcode": "69103-032"
    },
    {
        "city": "Itacoatiara",
        "state": "AM",
        "district": "Eduardo Braga II",
        "street": "Rua Ouro Preto",
        "zipcode": "69103-580"
    },
    {
        "city": "Itacoatiara",
        "state": "AM",
        "district": "Jauari I",
        "street": "Beco do Moura",
        "zipcode": "69104-184"
    },
    {
        "city": "Itacoatiara",
        "state": "AM",
        "district": "Da Paz",
        "street": "Rua das Tulipas",
        "zipcode": "69104-650"
    },
    {
        "city": "Itacoatiara",
        "state": "AM",
        "district": "Jauari I",
        "street": "Rua Desembargador Minineia",
        "zipcode": "69104-172"
    },
    {
        "city": "Itacoatiara",
        "state": "AM",
        "district": "Tiradentes",
        "street": "Rua Murilo Holanda",
        "zipcode": "69103-176"
    },
    {
        "city": "Itacoatiara",
        "state": "AM",
        "district": "Eduardo Braga I",
        "street": "Rua Diamante",
        "zipcode": "69103-512"
    },
    {
        "city": "Itacoatiara",
        "state": "AM",
        "district": "Santo Antônio",
        "street": "Rua Nova do Fomento",
        "zipcode": "69103-096"
    },
    {
        "city": "Itacoatiara",
        "state": "AM",
        "district": "Eduardo Braga I",
        "street": "Rua Humberto Calderaro Filho",
        "zipcode": "69103-488"
    },
    {
        "city": "Itacoatiara",
        "state": "AM",
        "district": "Santo Antônio",
        "street": "Rua Eustáquio Alves de Souza",
        "zipcode": "69103-020"
    },
    {
        "city": "Itacoatiara",
        "state": "AM",
        "district": "Eduardo Braga II",
        "street": "Rua Cristal",
        "zipcode": "69103-596"
    },
    {
        "city": "Itacoatiara",
        "state": "AM",
        "district": "Tiradentes",
        "street": "Rua Professor Gama Filho",
        "zipcode": "69103-160"
    },
    {
        "city": "Itacoatiara",
        "state": "AM",
        "district": "Jardim Lorena",
        "street": "Rua das Acácias",
        "zipcode": "69104-586"
    },
    {
        "city": "Itacoatiara",
        "state": "AM",
        "district": "São Jorge",
        "street": "Rua Nova do Fomento",
        "zipcode": "69104-038"
    },
    {
        "city": "Itacoatiara",
        "state": "AM",
        "district": "Eduardo Braga II",
        "street": "Rua Ouro Amarelo",
        "zipcode": "69103-600"
    },
    {
        "city": "Itacoatiara",
        "state": "AM",
        "district": "Jauari I",
        "street": "Rua Pompilho Marques",
        "zipcode": "69104-144"
    },
    {
        "city": "Itacoatiara",
        "state": "AM",
        "district": "Eduardo Braga II",
        "street": "Rua Louro Gamela",
        "zipcode": "69103-652"
    },
    {
        "city": "Itacoatiara",
        "state": "AM",
        "district": "Jauari I",
        "street": "Avenida Manaus",
        "zipcode": "69104-164"
    },
    {
        "city": "Itacoatiara",
        "state": "AM",
        "district": "Eduardo Braga I",
        "street": "Rua 19 de Abril",
        "zipcode": "69103-476"
    },
    {
        "city": "Itacoatiara",
        "state": "AM",
        "district": "Eduardo Braga II",
        "street": "Rua Nogueira Júnior",
        "zipcode": "69103-568"
    },
    {
        "city": "Itacoatiara",
        "state": "AM",
        "district": "Tiradentes",
        "street": "Rua Professora Rita de Cássia Dias",
        "zipcode": "69103-132"
    },
    {
        "city": "Itacoatiara",
        "state": "AM",
        "district": "Jauari I",
        "street": "Beco Uatumã",
        "zipcode": "69104-156"
    },
    {
        "city": "Itacoatiara",
        "state": "AM",
        "district": "Eduardo Braga II",
        "street": "Rua Ipê",
        "zipcode": "69103-612"
    },
    {
        "city": "Itacoatiara",
        "state": "AM",
        "district": "São Cristóvão",
        "street": "Rua Jorge Mubarac",
        "zipcode": "69103-308"
    },
    {
        "city": "Itacoatiara",
        "state": "AM",
        "district": "Mamoud Amed",
        "street": "Rua Jará",
        "zipcode": "69101-775"
    },
    {
        "city": "Itacoatiara",
        "state": "AM",
        "district": "Jauari I",
        "street": "Rua Doutor Luzardo Ferreira de Melo",
        "zipcode": "69104-152"
    },
    {
        "city": "Itacoatiara",
        "state": "AM",
        "district": "Eduardo Braga II",
        "street": "Rua Ouro Branco",
        "zipcode": "69103-584"
    },
    {
        "city": "Itacoatiara",
        "state": "AM",
        "district": "Jauari I",
        "street": "Rua Eduardo Ribeiro",
        "zipcode": "69104-148"
    },
    {
        "city": "Itacoatiara",
        "state": "AM",
        "district": "Eduardo Braga II",
        "street": "Rua Humberto Calderaro Filho",
        "zipcode": "69103-620"
    },
    {
        "city": "Itacoatiara",
        "state": "AM",
        "district": "Eduardo Braga I",
        "street": "Rua Maués",
        "zipcode": "69103-420"
    },
    {
        "city": "Itacoatiara",
        "state": "AM",
        "district": "Centro",
        "street": "Avenida 15 de Novembro",
        "zipcode": "69100-102"
    },
    {
        "city": "Itacoatiara",
        "state": "AM",
        "district": "Centro",
        "street": "Avenida Parque",
        "zipcode": "69100-006"
    },
    {
        "city": "Itacoatiara",
        "state": "AM",
        "district": "Centro",
        "street": "Avenida Parque",
        "zipcode": "69100-066"
    },
    {
        "city": "Itacoatiara",
        "state": "AM",
        "district": "Pedreiras",
        "street": "Avenida Parque",
        "zipcode": "69101-035"
    },
    {
        "city": "Itacoatiara",
        "state": "AM",
        "district": "Iraci",
        "street": "Rua Vereador Adolfo Olímpio",
        "zipcode": "69101-065"
    },
    {
        "city": "Itacoatiara",
        "state": "AM",
        "district": "Iraci",
        "street": "Rua Acácio Leite",
        "zipcode": "69101-071"
    },
    {
        "city": "Itacoatiara",
        "state": "AM",
        "district": "Tiradentes",
        "street": "Rua Borba",
        "zipcode": "69103-204"
    },
    {
        "city": "Itacoatiara",
        "state": "AM",
        "district": "Santo Antônio",
        "street": "Rua Borba",
        "zipcode": "69103-056"
    },
    {
        "city": "Itacoatiara",
        "state": "AM",
        "district": "Iraci",
        "street": "Rua Benjamim Constant",
        "zipcode": "69101-059"
    },
    {
        "city": "Itacoatiara",
        "state": "AM",
        "district": "Colônia",
        "street": "Rua Luiz Vaz de Camões",
        "zipcode": "69100-119"
    },
    {
        "city": "Itacoatiara",
        "state": "AM",
        "district": "Colônia",
        "street": "Rua Fileto Pires",
        "zipcode": "69100-152"
    },
    {
        "city": "Itacoatiara",
        "state": "AM",
        "district": "São Francisco",
        "street": "Beco Cristovão",
        "zipcode": "69101-452"
    },
    {
        "city": "Itacoatiara",
        "state": "AM",
        "district": "Jardim Florestal",
        "street": "Avenida Mário Andreazza",
        "zipcode": "69101-603"
    },
    {
        "city": "Itacoatiara",
        "state": "AM",
        "district": "Mamoud Amed",
        "street": "Avenida Mário Andreazza",
        "zipcode": "69101-685"
    },
    {
        "city": "Itacoatiara",
        "state": "AM",
        "district": "Mamoud Amed",
        "street": "Avenida Mário Andreazza",
        "zipcode": "69101-688"
    },
    {
        "city": "Itacoatiara",
        "state": "AM",
        "district": "Tiradentes",
        "street": "Rua Olga Figueiredo",
        "zipcode": "69103-148"
    },
    {
        "city": "Itacoatiara",
        "state": "AM",
        "district": "Santo Antônio",
        "street": "Avenida Armindo Auzier",
        "zipcode": "69103-092"
    },
    {
        "city": "Itacoatiara",
        "state": "AM",
        "district": "Jardim Florestal",
        "street": "Rua Angelim",
        "zipcode": "69101-627"
    },
    {
        "city": "Itacoatiara",
        "state": "AM",
        "district": "Jardim Florestal",
        "street": "Rua Cerejeira",
        "zipcode": "69101-648"
    },
    {
        "city": "Itacoatiara",
        "state": "AM",
        "district": "Centro",
        "street": "Avenida Parque",
        "zipcode": "69100-901"
    },
    {
        "city": "Itacoatiara",
        "state": "AM",
        "district": "Centro",
        "street": "Rua Casseano Secundo",
        "zipcode": "69100-903"
    },
    {
        "city": "Itacoatiara",
        "state": "AM",
        "district": "Centro",
        "street": "Rua Nossa Senhora do Rosário",
        "zipcode": "69100-021"
    },
    {
        "city": "Itacoatiara",
        "state": "AM",
        "district": "Centro",
        "street": "Rua Nossa Senhora do Rosário",
        "zipcode": "69100-099"
    },
    {
        "city": "Itacoatiara",
        "state": "AM",
        "district": "Centro",
        "street": "Rua Doutor Luzardo Ferreira de Melo",
        "zipcode": "69100-075"
    },
    {
        "city": "Itacoatiara",
        "state": "AM",
        "district": "Centro",
        "street": "Rua Adamastor de Figueiredo",
        "zipcode": "69100-039"
    },
    {
        "city": "Itacoatiara",
        "state": "AM",
        "district": "Mamoud Amed",
        "street": "Rua Sorriso",
        "zipcode": "69101-721"
    },
    {
        "city": "Itacoatiara",
        "state": "AM",
        "district": "Nogueira Júnior",
        "street": "Rua Juscelino Kubtschek",
        "zipcode": "69101-559"
    },
    {
        "city": "Itacoatiara",
        "state": "AM",
        "district": "São Francisco",
        "street": "Rua Codajás",
        "zipcode": "69101-396"
    },
    {
        "city": "Itacoatiara",
        "state": "AM",
        "district": "São Francisco",
        "street": "Rua Francisco Fiúza Lima",
        "zipcode": "69101-460"
    },
    {
        "city": "Itacoatiara",
        "state": "AM",
        "district": "Mamoud Amed",
        "street": "Rua São Benedito",
        "zipcode": "69101-700"
    },
    {
        "city": "Itacoatiara",
        "state": "AM",
        "district": "Jardim Lorena",
        "street": "Rua Nossa Senhora do Rosário",
        "zipcode": "69104-570"
    },
    {
        "city": "Itacoatiara",
        "state": "AM",
        "district": "Jauari I",
        "street": "Rua Eduardo Ribeiro",
        "zipcode": "69104-128"
    },
    {
        "city": "Itacoatiara",
        "state": "AM",
        "district": "Iraci",
        "street": "Rua Carmina P. da Costa",
        "zipcode": "69101-119"
    },
    {
        "city": "Itacoatiara",
        "state": "AM",
        "district": "Pedreiras",
        "street": "Rua Coronel Queiroz",
        "zipcode": "69101-015"
    },
    {
        "city": "Itacoatiara",
        "state": "AM",
        "district": "São Francisco",
        "street": "Rua Primavera",
        "zipcode": "69101-440"
    },
    {
        "city": "Itacoatiara",
        "state": "AM",
        "district": "Eduardo Braga I",
        "street": "Rua 12 de Junho",
        "zipcode": "69103-452"
    },
    {
        "city": "Itacoatiara",
        "state": "AM",
        "district": "Iraci",
        "street": "Rua Antônio Serudo Martins",
        "zipcode": "69101-188"
    },
    {
        "city": "Itacoatiara",
        "state": "AM",
        "district": "Iraci",
        "street": "Rua Alcindo Rodrigues de Oliveira",
        "zipcode": "69101-098"
    },
    {
        "city": "Itacoatiara",
        "state": "AM",
        "district": "Iraci",
        "street": "Rua David Pereira Braga",
        "zipcode": "69101-092"
    },
    {
        "city": "Itacoatiara",
        "state": "AM",
        "district": "Prainha",
        "street": "Rua Francisco Orelana",
        "zipcode": "69101-340"
    },
    {
        "city": "Itacoatiara",
        "state": "AM",
        "district": "São Francisco",
        "street": "Rua Terezinha Peixoto",
        "zipcode": "69101-392"
    },
    {
        "city": "Itacoatiara",
        "state": "AM",
        "district": "Prainha",
        "street": "Rua Milamont Rocha",
        "zipcode": "69101-316"
    },
    {
        "city": "Itacoatiara",
        "state": "AM",
        "district": "São Francisco",
        "street": "Avenida Dom Jorge Marskell",
        "zipcode": "69101-484"
    },
    {
        "city": "Itacoatiara",
        "state": "AM",
        "district": "Mamoud Amed",
        "street": "Rua Esperança",
        "zipcode": "69101-733"
    },
    {
        "city": "Itacoatiara",
        "state": "AM",
        "district": "São Francisco",
        "street": "Avenida Dom Jorge Marskell",
        "zipcode": "69101-488"
    },
    {
        "city": "Itacoatiara",
        "state": "AM",
        "district": "Centro",
        "street": "Avenida Conselheiro Ruy Barbosa",
        "zipcode": "69100-084"
    },
    {
        "city": "Itacoatiara",
        "state": "AM",
        "district": "Mamoud Amed",
        "street": "Avenida Dom Jorge Marskell",
        "zipcode": "69101-712"
    },
    {
        "city": "Itacoatiara",
        "state": "AM",
        "district": "São Francisco",
        "street": "Rua Francisco Fiúza Lima",
        "zipcode": "69101-422"
    },
    {
        "city": "Itacoatiara",
        "state": "AM",
        "district": "Jauari II",
        "street": "Rua Nossa Senhora do Rosário",
        "zipcode": "69104-356"
    },
    {
        "city": "Itacoatiara",
        "state": "AM",
        "district": "Jardim Florestal",
        "street": "Rua Muirapiranga",
        "zipcode": "69101-645"
    },
    {
        "city": "Itacoatiara",
        "state": "AM",
        "district": "Centro",
        "street": "Avenida Parque",
        "zipcode": "69100-063"
    },
    {
        "city": "Itacoatiara",
        "state": "AM",
        "district": "Pedreiras",
        "street": "Rua Vereador Adolfo Olímpio",
        "zipcode": "69101-010"
    },
    {
        "city": "Itacoatiara",
        "state": "AM",
        "district": "Araújo Costa",
        "street": "Rua Vereador Adolfo Olímpio",
        "zipcode": "69101-242"
    },
    {
        "city": "Itacoatiara",
        "state": "AM",
        "district": "Araújo Costa",
        "street": "Rua Acácio Leite",
        "zipcode": "69101-251"
    },
    {
        "city": "Itacoatiara",
        "state": "AM",
        "district": "Jardim Adriana",
        "street": "Rua Borba",
        "zipcode": "69104-778"
    },
    {
        "city": "Itacoatiara",
        "state": "AM",
        "district": "Iraci",
        "street": "Rua Álvaro Maia",
        "zipcode": "69101-080"
    },
    {
        "city": "Itacoatiara",
        "state": "AM",
        "district": "Prainha",
        "street": "Rua Álvaro Maia",
        "zipcode": "69101-296"
    },
    {
        "city": "Itacoatiara",
        "state": "AM",
        "district": "Iraci",
        "street": "Rua Benjamim Constant",
        "zipcode": "69101-056"
    },
    {
        "city": "Itacoatiara",
        "state": "AM",
        "district": "Colônia",
        "street": "Rua Francisco Glicério",
        "zipcode": "69100-131"
    },
    {
        "city": "Itacoatiara",
        "state": "AM",
        "district": "Colônia",
        "street": "Rua Afonso de Carvalho",
        "zipcode": "69100-134"
    },
    {
        "city": "Itacoatiara",
        "state": "AM",
        "district": "Colônia",
        "street": "Rua Fileto Pires",
        "zipcode": "69100-155"
    },
    {
        "city": "Itacoatiara",
        "state": "AM",
        "district": "São Francisco",
        "street": "Avenida Mário Andreazza",
        "zipcode": "69101-416"
    },
    {
        "city": "Itacoatiara",
        "state": "AM",
        "district": "São Francisco",
        "street": "Avenida Mário Andreazza",
        "zipcode": "69101-420"
    },
    {
        "city": "Itacoatiara",
        "state": "AM",
        "district": "Jardim Florestal",
        "street": "Avenida Mário Andreazza",
        "zipcode": "69101-600"
    },
    {
        "city": "Itacoatiara",
        "state": "AM",
        "district": "Santo Antônio",
        "street": "Avenida Mário Andreazza",
        "zipcode": "69103-060"
    },
    {
        "city": "Itacoatiara",
        "state": "AM",
        "district": "São Jorge",
        "street": "Avenida Mário Andreazza",
        "zipcode": "69104-050"
    },
    {
        "city": "Itacoatiara",
        "state": "AM",
        "district": "Da Paz",
        "street": "Rua Beija",
        "zipcode": "69104-686"
    },
    {
        "city": "Itacoatiara",
        "state": "AM",
        "district": "Da Paz",
        "street": "Rua Sabiá",
        "zipcode": "69104-702"
    },
    {
        "city": "Itacoatiara",
        "state": "AM",
        "district": "Eduardo Braga I",
        "street": "Rua 17",
        "zipcode": "69103-396"
    },
    {
        "city": "Itacoatiara",
        "state": "AM",
        "district": "Eduardo Braga I",
        "street": "Rua F",
        "zipcode": "69103-492"
    },
    {
        "city": "Itacoatiara",
        "state": "AM",
        "district": "São Jorge",
        "street": "Beco do Ceplac",
        "zipcode": "69104-046"
    },
    {
        "city": "Itacoatiara",
        "state": "AM",
        "district": "Iraci",
        "street": "Avenida Aquilino Barros",
        "zipcode": "69101-182"
    },
    {
        "city": "Itacoatiara",
        "state": "AM",
        "district": "Iraci",
        "street": "Avenida Aquilino Barros",
        "zipcode": "69101-197"
    },
    {
        "city": "Itacoatiara",
        "state": "AM",
        "district": "Prainha",
        "street": "Rua Ita 2",
        "zipcode": "69101-284"
    },
    {
        "city": "Itacoatiara",
        "state": "AM",
        "district": "Prainha",
        "street": "Avenida Armindo Auzier",
        "zipcode": "69101-280"
    },
    {
        "city": "Itacoatiara",
        "state": "AM",
        "district": "Jauari I",
        "street": "Avenida João Valério",
        "zipcode": "69104-120"
    },
    {
        "city": "Itacoatiara",
        "state": "AM",
        "district": "São Francisco",
        "street": "Rua A",
        "zipcode": "69101-444"
    },
    {
        "city": "Itacoatiara",
        "state": "AM",
        "district": "Da Paz",
        "street": "Rua Andorinha",
        "zipcode": "69104-710"
    },
    {
        "city": "Itacoatiara",
        "state": "AM",
        "district": "Centro",
        "street": "Avenida Conselheiro Ruy Barbosa",
        "zipcode": "69100-902"
    },
    {
        "city": "Itacoatiara",
        "state": "AM",
        "district": "São Jorge",
        "street": "Avenida José Tadros",
        "zipcode": "69104-062"
    },
    {
        "city": "Itacoatiara",
        "state": "AM",
        "district": "Da Paz",
        "street": "Rua Uirapuru",
        "zipcode": "69104-670"
    },
    {
        "city": "Itacoatiara",
        "state": "AM",
        "district": "São Francisco",
        "street": "Rua Paraíso",
        "zipcode": "69101-448"
    },
    {
        "city": "Itacoatiara",
        "state": "AM",
        "district": "Tiradentes",
        "street": "Avenida José Tadros",
        "zipcode": "69103-124"
    },
    {
        "city": "Itacoatiara",
        "state": "AM",
        "district": "Santo Antônio",
        "street": "Rua Francisco Orelana",
        "zipcode": "69103-004"
    },
    {
        "city": "Itacoatiara",
        "state": "AM",
        "district": "Jardim Adriana",
        "street": "Rua Tulipa",
        "zipcode": "69104-826"
    },
    {
        "city": "Itacoatiara",
        "state": "AM",
        "district": "Jardim Adriana",
        "street": "Rua Papoula",
        "zipcode": "69104-806"
    },
    {
        "city": "Itacoatiara",
        "state": "AM",
        "district": "Jardim Adriana",
        "street": "Rua Cravo",
        "zipcode": "69104-818"
    },
    {
        "city": "Itacoatiara",
        "state": "AM",
        "district": "Jauari II",
        "street": "Rua Doutor Luzardo Ferreira de Melo",
        "zipcode": "69104-392"
    },
    {
        "city": "Itacoatiara",
        "state": "AM",
        "district": "Jauari II",
        "street": "Rua Nossa Senhora do Rosário",
        "zipcode": "69104-408"
    },
    {
        "city": "Itacoatiara",
        "state": "AM",
        "district": "Mamoud Amed",
        "street": "Rua Primavera",
        "zipcode": "69101-694"
    },
    {
        "city": "Itacoatiara",
        "state": "AM",
        "district": "São Francisco",
        "street": "Rua Roraima",
        "zipcode": "69101-500"
    },
    {
        "city": "Itacoatiara",
        "state": "AM",
        "district": "Da Paz",
        "street": "Rua Cigana",
        "zipcode": "69104-694"
    },
    {
        "city": "Itacoatiara",
        "state": "AM",
        "district": "Mamoud Amed",
        "street": "Rua Francisco Fiúza Lima",
        "zipcode": "69101-691"
    },
    {
        "city": "Itacoatiara",
        "state": "AM",
        "district": "Da Paz",
        "street": "Rua do Ipê Amarelo",
        "zipcode": "69104-654"
    },
    {
        "city": "Itacoatiara",
        "state": "AM",
        "district": "Prainha",
        "street": "Rua Jorge Mubarac",
        "zipcode": "69101-344"
    },
    {
        "city": "Itacoatiara",
        "state": "AM",
        "district": "Mutirão",
        "street": "Rua Terezinha Peixoto",
        "zipcode": "69101-530"
    },
    {
        "city": "Itacoatiara",
        "state": "AM",
        "district": "São Francisco",
        "street": "Rua Terezinha Peixoto",
        "zipcode": "69101-388"
    },
    {
        "city": "Itacoatiara",
        "state": "AM",
        "district": "Jauari I",
        "street": "Rua Agenor Correia Prado",
        "zipcode": "69104-140"
    },
    {
        "city": "Itacoatiara",
        "state": "AM",
        "district": "Eduardo Braga I",
        "street": "Avenida José Tadros",
        "zipcode": "69103-380"
    },
    {
        "city": "Itacoatiara",
        "state": "AM",
        "district": "Jauari I",
        "street": "Rua Ministro Waldemar Pedrosa",
        "zipcode": "69104-180"
    },
    {
        "city": "Itacoatiara",
        "state": "AM",
        "district": "Jardim Lorena",
        "street": "Rua das Tulipas",
        "zipcode": "69104-610"
    },
    {
        "city": "Itacoatiara",
        "state": "AM",
        "district": "Área Rural de Itacoatiara",
        "street": "Área Rural",
        "zipcode": "69109-899"
    },
    {
        "city": "Itacoatiara",
        "state": "AM",
        "district": "Centro",
        "street": "Avenida 7 de Setembro",
        "zipcode": "69100-018"
    },
    {
        "city": "Itacoatiara",
        "state": "AM",
        "district": "Da Paz",
        "street": "Rua Nossa Senhora do Rosário",
        "zipcode": "69104-658"
    },
    {
        "city": "Itacoatiara",
        "state": "AM",
        "district": "Centro",
        "street": "Rua Eduardo Ribeiro",
        "zipcode": "69100-081"
    },
    {
        "city": "Itacoatiara",
        "state": "AM",
        "district": "São Cristóvão",
        "street": "Rua Borba",
        "zipcode": "69103-244"
    },
    {
        "city": "Itacoatiara",
        "state": "AM",
        "district": "São Cristóvão",
        "street": "Avenida Mário Andreazza",
        "zipcode": "69103-280"
    },
    {
        "city": "Itacoatiara",
        "state": "AM",
        "district": "Santo Antônio",
        "street": "Avenida Mário Andreazza",
        "zipcode": "69103-064"
    },
    {
        "city": "Itacoatiara",
        "state": "AM",
        "district": "Iraci",
        "street": "Rua VIII",
        "zipcode": "69101-107"
    },
    {
        "city": "Itacoatiara",
        "state": "AM",
        "district": "Araújo Costa",
        "street": "Avenida Armindo Auzier",
        "zipcode": "69101-239"
    },
    {
        "city": "Itacoatiara",
        "state": "AM",
        "district": "Eduardo Braga II",
        "street": "Rua Celeste",
        "zipcode": "69103-540"
    },
    {
        "city": "Itacoatiara",
        "state": "AM",
        "district": "Jauari II",
        "street": "Rua de Acesso a Codomar",
        "zipcode": "69104-396"
    },
    {
        "city": "Itacoatiara",
        "state": "AM",
        "district": "Centro",
        "street": "Avenida Parque",
        "zipcode": "69100-900"
    },
    {
        "city": "Itacoatiara",
        "state": "AM",
        "district": "Jauari I",
        "street": "Travessa Nícolas Neto",
        "zipcode": "69104-136"
    },
    {
        "city": "Itacoatiara",
        "state": "AM",
        "district": "Eduardo Braga II",
        "street": "Rua Esmeralda",
        "zipcode": "69103-608"
    },
    {
        "city": "Itacoatiara",
        "state": "AM",
        "district": "Eduardo Braga II",
        "street": "Rua Sucupira",
        "zipcode": "69103-572"
    },
    {
        "city": "Itacoatiara",
        "state": "AM",
        "district": "Tiradentes",
        "street": "Rua Monteiro Lobato",
        "zipcode": "69103-208"
    },
    {
        "city": "Itacoatiara",
        "state": "AM",
        "district": "Jauari I",
        "street": "Rua Ernesto Talheimer",
        "zipcode": "69104-260"
    },
    {
        "city": "Itacoatiara",
        "state": "AM",
        "district": "Jauari I",
        "street": "Rua Antônio Serudo Martins",
        "zipcode": "69104-112"
    },
    {
        "city": "Itacoatiara",
        "state": "AM",
        "district": "Nogueira Júnior",
        "street": "Rua Princesa Izabel",
        "zipcode": "69101-556"
    },
    {
        "city": "Itacoatiara",
        "state": "AM",
        "district": "Da Paz",
        "street": "Rua Jaçanã",
        "zipcode": "69104-674"
    },
    {
        "city": "Itacoatiara",
        "state": "AM",
        "district": "Eduardo Braga II",
        "street": "Rua Acariquara",
        "zipcode": "69103-632"
    },
    {
        "city": "Itacoatiara",
        "state": "AM",
        "district": "Eduardo Braga I",
        "street": "Rua Nova Olinda do Norte",
        "zipcode": "69103-384"
    },
    {
        "city": "Itacoatiara",
        "state": "AM",
        "district": "Jardim Adriana",
        "street": "Rua Dália",
        "zipcode": "69104-834"
    },
    {
        "city": "Itacoatiara",
        "state": "AM",
        "district": "Mamoud Amed",
        "street": "Rua São José",
        "zipcode": "69101-811"
    },
    {
        "city": "Itacoatiara",
        "state": "AM",
        "district": "Jauari II",
        "street": "Rua Pompilho Marques",
        "zipcode": "69104-352"
    },
    {
        "city": "Itacoatiara",
        "state": "AM",
        "district": "Iraci",
        "street": "Rua Odinéia Rêgo Rocha",
        "zipcode": "69101-137"
    },
    {
        "city": "Itacoatiara",
        "state": "AM",
        "district": "Iraci",
        "street": "Rua José Nobre",
        "zipcode": "69101-140"
    },
    {
        "city": "Itacoatiara",
        "state": "AM",
        "district": "São Francisco",
        "street": "Rua Tocantins",
        "zipcode": "69101-512"
    },
    {
        "city": "Itacoatiara",
        "state": "AM",
        "district": "Mutirão",
        "street": "Travessa Miso Barros",
        "zipcode": "69101-542"
    },
    {
        "city": "Itacoatiara",
        "state": "AM",
        "district": "Jardim Florestal",
        "street": "Rua Nova Olinda do Norte",
        "zipcode": "69101-606"
    },
    {
        "city": "Itacoatiara",
        "state": "AM",
        "district": "Iraci",
        "street": "Rua Cláudio Pereira Simões",
        "zipcode": "69101-149"
    },
    {
        "city": "Itacoatiara",
        "state": "AM",
        "district": "Mamoud Amed",
        "street": "Rua Andirá",
        "zipcode": "69101-790"
    },
    {
        "city": "Itacoatiara",
        "state": "AM",
        "district": "Mamoud Amed",
        "street": "Rua Alpes",
        "zipcode": "69101-778"
    },
    {
        "city": "Itacoatiara",
        "state": "AM",
        "district": "São Cristóvão",
        "street": "Rua Terezinha Peixoto",
        "zipcode": "69103-328"
    },
    {
        "city": "Itacoatiara",
        "state": "AM",
        "district": "Nogueira Júnior",
        "street": "Rua Roberto Marinho",
        "zipcode": "69101-571"
    },
    {
        "city": "Itacoatiara",
        "state": "AM",
        "district": "Jardim Adriana",
        "street": "Rua Rosa",
        "zipcode": "69104-830"
    },
    {
        "city": "Itacoatiara",
        "state": "AM",
        "district": "Tiradentes",
        "street": "Rua Anízia Moura",
        "zipcode": "69103-136"
    },
    {
        "city": "Itacoatiara",
        "state": "AM",
        "district": "Jauari I",
        "street": "Beco Francisco Rebelo Neves",
        "zipcode": "69104-124"
    },
    {
        "city": "Itacoatiara",
        "state": "AM",
        "district": "Mamoud Amed",
        "street": "Rua Santo Expedito",
        "zipcode": "69101-832"
    },
    {
        "city": "Itacoatiara",
        "state": "AM",
        "district": "Eduardo Braga II",
        "street": "Rua Humberto Calderaro Filho",
        "zipcode": "69103-556"
    },
    {
        "city": "Itacoatiara",
        "state": "AM",
        "district": "Mutirão",
        "street": "Travessa Magalhães",
        "zipcode": "69101-536"
    },
    {
        "city": "Itacoatiara",
        "state": "AM",
        "district": "Eduardo Braga II",
        "street": "Rua Louro Gamela",
        "zipcode": "69103-640"
    },
    {
        "city": "Itacoatiara",
        "state": "AM",
        "district": "São Francisco",
        "street": "Rua Acre",
        "zipcode": "69101-516"
    },
    {
        "city": "Itacoatiara",
        "state": "AM",
        "district": "São Francisco",
        "street": "Rua Jutaí",
        "zipcode": "69101-480"
    },
    {
        "city": "Itacoatiara",
        "state": "AM",
        "district": "Nogueira Júnior",
        "street": "Rua Ulisses Guimarães",
        "zipcode": "69101-565"
    },
    {
        "city": "Itacoatiara",
        "state": "AM",
        "district": "Eduardo Braga I",
        "street": "Rua Nova Olinda do Norte",
        "zipcode": "69103-408"
    },
    {
        "city": "Itacoatiara",
        "state": "AM",
        "district": "Jauari I",
        "street": "Rua Antônio Serudo Martins",
        "zipcode": "69104-900"
    },
    {
        "city": "Itacoatiara",
        "state": "AM",
        "district": "São Cristóvão",
        "street": "Avenida José Tadros",
        "zipcode": "69103-376"
    },
    {
        "city": "Itacoatiara",
        "state": "AM",
        "district": "Eduardo Braga II",
        "street": "Rua Diamante",
        "zipcode": "69103-576"
    },
    {
        "city": "Itacoatiara",
        "state": "AM",
        "district": "Mamoud Amed",
        "street": "Rua Nogueira Júnior",
        "zipcode": "69101-799"
    },
    {
        "city": "Itacoatiara",
        "state": "AM",
        "district": "Jauari II",
        "street": "Rua Eduardo Ribeiro",
        "zipcode": "69104-380"
    },
    {
        "city": "Itacoatiara",
        "state": "AM",
        "district": "Mamoud Amed",
        "street": "Rua Rio Urubu",
        "zipcode": "69101-787"
    }
]