[
    {
        "city": "Manacapuru",
        "state": "AM",
        "district": "Morada do Sol",
        "street": "Rua B (Lot D Fiel",
        "zipcode": "69402-369"
    },
    {
        "city": "Manacapuru",
        "state": "AM",
        "district": "Terra Preta",
        "street": "Rua 1 (Cj E Braga I)",
        "zipcode": "69401-287"
    },
    {
        "city": "Manacapuru",
        "state": "AM",
        "district": "União",
        "street": "Beco Coari II",
        "zipcode": "69401-101"
    },
    {
        "city": "Manacapuru",
        "state": "AM",
        "district": "Morada do Sol",
        "street": "Rua Galo da Serra (Lot Sto Antônio)",
        "zipcode": "69402-531"
    },
    {
        "city": "Manacapuru",
        "state": "AM",
        "district": "Vale Verde",
        "street": "Travessa 3",
        "zipcode": "69403-589"
    },
    {
        "city": "Manacapuru",
        "state": "AM",
        "district": "Morada do Sol",
        "street": "Rua Leovegildo Maciel",
        "zipcode": "69402-099"
    },
    {
        "city": "Manacapuru",
        "state": "AM",
        "district": "União",
        "street": "Beco 1 (Com Portelinha)",
        "zipcode": "69401-068"
    },
    {
        "city": "Manacapuru",
        "state": "AM",
        "district": "Morada do Sol",
        "street": "Rua Uirapuru (Lot Sto Antônio)",
        "zipcode": "69402-510"
    },
    {
        "city": "Manacapuru",
        "state": "AM",
        "district": "Centro",
        "street": "Travessa Padre Rafael II",
        "zipcode": "69400-328"
    },
    {
        "city": "Manacapuru",
        "state": "AM",
        "district": "Biribiri",
        "street": "Rua do Módulo",
        "zipcode": "69400-137"
    },
    {
        "city": "Manacapuru",
        "state": "AM",
        "district": "Liberdade",
        "street": "Rua Antônio Sofim",
        "zipcode": "69400-562"
    },
    {
        "city": "Manacapuru",
        "state": "AM",
        "district": "Morada do Sol",
        "street": "Rua 2 (Com N Vitória)",
        "zipcode": "69402-229"
    },
    {
        "city": "Manacapuru",
        "state": "AM",
        "district": "Terra Preta",
        "street": "Rua Socorro Calpes (Lot M Cristo)",
        "zipcode": "69401-526"
    },
    {
        "city": "Manacapuru",
        "state": "AM",
        "district": "Morada do Sol",
        "street": "Rua Pedro Moura de Oliveira (Lot D Fiel)",
        "zipcode": "69402-375"
    },
    {
        "city": "Manacapuru",
        "state": "AM",
        "district": "Nova Manacá",
        "street": "Rua Claudionor Vasconcelos",
        "zipcode": "69401-812"
    },
    {
        "city": "Manacapuru",
        "state": "AM",
        "district": "Morada do Sol",
        "street": "Rua 1 (Lot Sto Antônio)",
        "zipcode": "69402-573"
    },
    {
        "city": "Manacapuru",
        "state": "AM",
        "district": "Terra Preta",
        "street": "Rua 3 (Cj Res Frazão)",
        "zipcode": "69401-505"
    },
    {
        "city": "Manacapuru",
        "state": "AM",
        "district": "Vale Verde",
        "street": "Rua Salvador",
        "zipcode": "69403-613"
    },
    {
        "city": "Manacapuru",
        "state": "AM",
        "district": "Morada do Sol",
        "street": "Rua Beija",
        "zipcode": "69402-534"
    },
    {
        "city": "Manacapuru",
        "state": "AM",
        "district": "União",
        "street": "Beco Silves III",
        "zipcode": "69401-152"
    },
    {
        "city": "Manacapuru",
        "state": "AM",
        "district": "São José",
        "street": "Avenida Perimetral",
        "zipcode": "69400-881"
    },
    {
        "city": "Manacapuru",
        "state": "AM",
        "district": "Morada do Sol",
        "street": "Rua Gaivotas (Lot Sto Antônio)",
        "zipcode": "69402-555"
    },
    {
        "city": "Manacapuru",
        "state": "AM",
        "district": "Terra Preta",
        "street": "Travessa Getúlio Coelho (Lot M Cristo)",
        "zipcode": "69401-523"
    },
    {
        "city": "Manacapuru",
        "state": "AM",
        "district": "União",
        "street": "Rua Perimetral",
        "zipcode": "69401-056"
    },
    {
        "city": "Manacapuru",
        "state": "AM",
        "district": "Centro",
        "street": "Rua Benjamim Constant",
        "zipcode": "69400-230"
    },
    {
        "city": "Manacapuru",
        "state": "AM",
        "district": "Liberdade",
        "street": "Rua Raimundo Oliveira e Silva",
        "zipcode": "69400-556"
    },
    {
        "city": "Manacapuru",
        "state": "AM",
        "district": "Morada do Sol",
        "street": "Rua Rio Tapajós (Lot L Azul)",
        "zipcode": "69402-250"
    },
    {
        "city": "Manacapuru",
        "state": "AM",
        "district": "União",
        "street": "Rua Apuí",
        "zipcode": "69401-080"
    },
    {
        "city": "Manacapuru",
        "state": "AM",
        "district": "Centro",
        "street": "Praça 16 de Julho",
        "zipcode": "69400-246"
    },
    {
        "city": "Manacapuru",
        "state": "AM",
        "district": "União",
        "street": "Travessa Murici",
        "zipcode": "69401-053"
    },
    {
        "city": "Manacapuru",
        "state": "AM",
        "district": "União",
        "street": "Rua Silves",
        "zipcode": "69401-134"
    },
    {
        "city": "Manacapuru",
        "state": "AM",
        "district": "União",
        "street": "Rua Urucará",
        "zipcode": "69401-119"
    },
    {
        "city": "Manacapuru",
        "state": "AM",
        "district": "Liberdade",
        "street": "Beco Raimunda Ruiz",
        "zipcode": "69400-511"
    },
    {
        "city": "Manacapuru",
        "state": "AM",
        "district": "Centro",
        "street": "Rua Major Rubim",
        "zipcode": "69400-288"
    },
    {
        "city": "Manacapuru",
        "state": "AM",
        "district": "Correnteza",
        "street": "Rua Bela Vista",
        "zipcode": "69400-068"
    },
    {
        "city": "Manacapuru",
        "state": "AM",
        "district": "União",
        "street": "Rua Carauari",
        "zipcode": "69401-086"
    },
    {
        "city": "Manacapuru",
        "state": "AM",
        "district": "Liberdade",
        "street": "Rua Conceição Bastos",
        "zipcode": "69400-571"
    },
    {
        "city": "Manacapuru",
        "state": "AM",
        "district": "Centro",
        "street": "Beco da Paz",
        "zipcode": "69400-292"
    },
    {
        "city": "Manacapuru",
        "state": "AM",
        "district": "São José",
        "street": "Rua Dom João",
        "zipcode": "69400-878"
    },
    {
        "city": "Manacapuru",
        "state": "AM",
        "district": "Centro",
        "street": "Beco João XXIII",
        "zipcode": "69400-312"
    },
    {
        "city": "Manacapuru",
        "state": "AM",
        "district": "São José",
        "street": "Travessa Angelim",
        "zipcode": "69400-779"
    },
    {
        "city": "Manacapuru",
        "state": "AM",
        "district": "Centro",
        "street": "Beco da Armonia",
        "zipcode": "69400-294"
    },
    {
        "city": "Manacapuru",
        "state": "AM",
        "district": "São José",
        "street": "Travessa Massaranduba",
        "zipcode": "69400-767"
    },
    {
        "city": "Manacapuru",
        "state": "AM",
        "district": "Terra Preta",
        "street": "Rua Pedro Coelho (Lot M Cristo)",
        "zipcode": "69401-535"
    },
    {
        "city": "Manacapuru",
        "state": "AM",
        "district": "Morada do Sol",
        "street": "Rua Circular (Lot Sto Antônio)",
        "zipcode": "69402-549"
    },
    {
        "city": "Manacapuru",
        "state": "AM",
        "district": "Vale Verde",
        "street": "Rua da Paz",
        "zipcode": "69403-604"
    },
    {
        "city": "Manacapuru",
        "state": "AM",
        "district": "Vale Verde",
        "street": "Beco São Francisco",
        "zipcode": "69403-628"
    },
    {
        "city": "Manacapuru",
        "state": "AM",
        "district": "Vale Verde",
        "street": "Rua 1",
        "zipcode": "69403-580"
    },
    {
        "city": "Manacapuru",
        "state": "AM",
        "district": "Morada do Sol",
        "street": "Rua Araras (Lot Sto Antônio)",
        "zipcode": "69402-540"
    },
    {
        "city": "Manacapuru",
        "state": "AM",
        "district": "Terra Preta",
        "street": "Rua Maria Walcacer Nogueira",
        "zipcode": "69401-347"
    },
    {
        "city": "Manacapuru",
        "state": "AM",
        "district": "Nova Manacá",
        "street": "Estrada da Extramar",
        "zipcode": "69401-780"
    },
    {
        "city": "Manacapuru",
        "state": "AM",
        "district": "Morada do Sol",
        "street": "Rua 3 (Cj E Braga II)",
        "zipcode": "69402-114"
    },
    {
        "city": "Manacapuru",
        "state": "AM",
        "district": "Morada do Sol",
        "street": "Rua 5 (Lot Sto Antônio)",
        "zipcode": "69402-561"
    },
    {
        "city": "Manacapuru",
        "state": "AM",
        "district": "Morada do Sol",
        "street": "Rua Curió (Lot Sto Antônio)",
        "zipcode": "69402-552"
    },
    {
        "city": "Manacapuru",
        "state": "AM",
        "district": "Centro",
        "street": "Rua Pernambuco",
        "zipcode": "69400-272"
    },
    {
        "city": "Manacapuru",
        "state": "AM",
        "district": "Morada do Sol",
        "street": "Rua 7 (Lot Sto Antônio)",
        "zipcode": "69402-579"
    },
    {
        "city": "Manacapuru",
        "state": "AM",
        "district": "Biribiri",
        "street": "Rua Olímpio Campos",
        "zipcode": "69400-128"
    },
    {
        "city": "Manacapuru",
        "state": "AM",
        "district": "Vale Verde",
        "street": "Travessa 2",
        "zipcode": "69403-586"
    },
    {
        "city": "Manacapuru",
        "state": "AM",
        "district": "Morada do Sol",
        "street": "Rua 13 (Lot D Fiel)",
        "zipcode": "69402-417"
    },
    {
        "city": "Manacapuru",
        "state": "AM",
        "district": "Vale Verde",
        "street": "Travessa 6",
        "zipcode": "69403-598"
    },
    {
        "city": "Manacapuru",
        "state": "AM",
        "district": "Liberdade",
        "street": "Beco Joaquina Alexandre",
        "zipcode": "69400-514"
    },
    {
        "city": "Manacapuru",
        "state": "AM",
        "district": "Vale Verde",
        "street": "Rua Jovana Ricardo",
        "zipcode": "69403-655"
    },
    {
        "city": "Manacapuru",
        "state": "AM",
        "district": "Terra Preta",
        "street": "Rua Mário Silva de Almeida",
        "zipcode": "69401-284"
    },
    {
        "city": "Manacapuru",
        "state": "AM",
        "district": "Vale Verde",
        "street": "Travessa 5",
        "zipcode": "69403-595"
    },
    {
        "city": "Manacapuru",
        "state": "AM",
        "district": "Vale Verde",
        "street": "Rua 2",
        "zipcode": "69403-601"
    },
    {
        "city": "Manacapuru",
        "state": "AM",
        "district": "Vale Verde",
        "street": "Travessa 1",
        "zipcode": "69403-583"
    },
    {
        "city": "Manacapuru",
        "state": "AM",
        "district": "Vale Verde",
        "street": "Beco Paulo Teles",
        "zipcode": "69403-631"
    },
    {
        "city": "Manacapuru",
        "state": "AM",
        "district": "Nova Manacá",
        "street": "Ramal Madeiral",
        "zipcode": "69401-560"
    },
    {
        "city": "Manacapuru",
        "state": "AM",
        "district": "Terra Preta",
        "street": "Rua 4 (Cj Res Frazão)",
        "zipcode": "69401-508"
    },
    {
        "city": "Manacapuru",
        "state": "AM",
        "district": "Morada do Sol",
        "street": "Travessa 9 (Lot D Fiel)",
        "zipcode": "69402-414"
    },
    {
        "city": "Manacapuru",
        "state": "AM",
        "district": "Vale Verde",
        "street": "Rua Bons Amigos",
        "zipcode": "69403-622"
    },
    {
        "city": "Manacapuru",
        "state": "AM",
        "district": "Vale Verde",
        "street": "Rua Costa e Silva",
        "zipcode": "69403-652"
    },
    {
        "city": "Manacapuru",
        "state": "AM",
        "district": "Nova Manacá",
        "street": "Beco Manacá",
        "zipcode": "69401-800"
    },
    {
        "city": "Manacapuru",
        "state": "AM",
        "district": "União",
        "street": "Rua Benedita Cruz",
        "zipcode": "69401-044"
    },
    {
        "city": "Manacapuru",
        "state": "AM",
        "district": "Vale Verde",
        "street": "Rua Medeiros",
        "zipcode": "69403-619"
    },
    {
        "city": "Manacapuru",
        "state": "AM",
        "district": "São Francisco",
        "street": "Estrada da Serraria",
        "zipcode": "69400-353"
    },
    {
        "city": "Manacapuru",
        "state": "AM",
        "district": "Morada do Sol",
        "street": "Travessa Papagaios (Lot Sto Antônio)",
        "zipcode": "69402-546"
    },
    {
        "city": "Manacapuru",
        "state": "AM",
        "district": "Morada do Sol",
        "street": "Beco Nazaré Cavalcante",
        "zipcode": "69402-126"
    },
    {
        "city": "Manacapuru",
        "state": "AM",
        "district": "São José",
        "street": "Travessa Acariquara",
        "zipcode": "69400-761"
    },
    {
        "city": "Manacapuru",
        "state": "AM",
        "district": "Correnteza",
        "street": "Rua Afonso Pena",
        "zipcode": "69400-048"
    },
    {
        "city": "Manacapuru",
        "state": "AM",
        "district": "São José",
        "street": "Travessa Sucupira",
        "zipcode": "69400-764"
    },
    {
        "city": "Manacapuru",
        "state": "AM",
        "district": "União",
        "street": "Beco Tefé",
        "zipcode": "69401-188"
    },
    {
        "city": "Manacapuru",
        "state": "AM",
        "district": "São José",
        "street": "Travessa Saboarana",
        "zipcode": "69400-776"
    },
    {
        "city": "Manacapuru",
        "state": "AM",
        "district": "Liberdade",
        "street": "Rua Raimundo Dias",
        "zipcode": "69400-586"
    },
    {
        "city": "Manacapuru",
        "state": "AM",
        "district": "Morada do Sol",
        "street": "Rua Carmem de Souza",
        "zipcode": "69402-090"
    },
    {
        "city": "Manacapuru",
        "state": "AM",
        "district": "Morada do Sol",
        "street": "Rua Otávio Araújo",
        "zipcode": "69402-084"
    },
    {
        "city": "Manacapuru",
        "state": "AM",
        "district": "Morada do Sol",
        "street": "Travessa João Paulo",
        "zipcode": "69402-102"
    },
    {
        "city": "Manacapuru",
        "state": "AM",
        "district": "Terra Preta",
        "street": "Rua Jonathas Bastos",
        "zipcode": "69401-341"
    },
    {
        "city": "Manacapuru",
        "state": "AM",
        "district": "Terra Preta",
        "street": "Rua José Gadelha",
        "zipcode": "69401-314"
    },
    {
        "city": "Manacapuru",
        "state": "AM",
        "district": "Morada do Sol",
        "street": "Travessa José Mineiro",
        "zipcode": "69402-087"
    },
    {
        "city": "Manacapuru",
        "state": "AM",
        "district": "Morada do Sol",
        "street": "Travessa Josefa Menezes",
        "zipcode": "69402-060"
    },
    {
        "city": "Manacapuru",
        "state": "AM",
        "district": "Morada do Sol",
        "street": "Rua Josefa Menezes",
        "zipcode": "69402-078"
    },
    {
        "city": "Manacapuru",
        "state": "AM",
        "district": "Morada do Sol",
        "street": "Beco Josefa Menezes",
        "zipcode": "69402-069"
    },
    {
        "city": "Manacapuru",
        "state": "AM",
        "district": "Nova Manacá",
        "street": "Rua Angelus Figueira",
        "zipcode": "69401-816"
    },
    {
        "city": "Manacapuru",
        "state": "AM",
        "district": "Nova Manacá",
        "street": "Rua Angelus Figueira",
        "zipcode": "69401-824"
    },
    {
        "city": "Manacapuru",
        "state": "AM",
        "district": "Terra Preta",
        "street": "Rua Antônio Afonso",
        "zipcode": "69401-338"
    },
    {
        "city": "Manacapuru",
        "state": "AM",
        "district": "Morada do Sol",
        "street": "Rua 4 (Cj E Braga II)",
        "zipcode": "69402-111"
    },
    {
        "city": "Manacapuru",
        "state": "AM",
        "district": "Terra Preta",
        "street": "Rua 5 (Cj Res Frazão)",
        "zipcode": "69401-511"
    },
    {
        "city": "Manacapuru",
        "state": "AM",
        "district": "Nova Manacá",
        "street": "Estrada Manoel Urbano",
        "zipcode": "69401-830"
    },
    {
        "city": "Manacapuru",
        "state": "AM",
        "district": "Morada do Sol",
        "street": "Estrada Manoel Urbano",
        "zipcode": "69402-020"
    },
    {
        "city": "Manacapuru",
        "state": "AM",
        "district": "Morada do Sol",
        "street": "Rua Maria Mendonça",
        "zipcode": "69402-081"
    },
    {
        "city": "Manacapuru",
        "state": "AM",
        "district": "Vale Verde",
        "street": "Rua Vale da Bênção",
        "zipcode": "69403-616"
    },
    {
        "city": "Manacapuru",
        "state": "AM",
        "district": "São José",
        "street": "Rua Vitória",
        "zipcode": "69400-857"
    },
    {
        "city": "Manacapuru",
        "state": "AM",
        "district": "Morada do Sol",
        "street": "Travessa 3 (Lot D Fiel)",
        "zipcode": "69402-387"
    },
    {
        "city": "Manacapuru",
        "state": "AM",
        "district": "Morada do Sol",
        "street": "Travessa 1 (Lot D Fiel)",
        "zipcode": "69402-366"
    },
    {
        "city": "Manacapuru",
        "state": "AM",
        "district": "Vale Verde",
        "street": "Rua Vasconcelos",
        "zipcode": "69403-643"
    },
    {
        "city": "Manacapuru",
        "state": "AM",
        "district": "Morada do Sol",
        "street": "Travessa 7 (Lot D Fiel)",
        "zipcode": "69402-399"
    },
    {
        "city": "Manacapuru",
        "state": "AM",
        "district": "Nova Manacá",
        "street": "Rua Jamil Sefair",
        "zipcode": "69401-808"
    },
    {
        "city": "Manacapuru",
        "state": "AM",
        "district": "Nova Manacá",
        "street": "Rua Joaquim de Melo",
        "zipcode": "69401-802"
    },
    {
        "city": "Manacapuru",
        "state": "AM",
        "district": "Vale Verde",
        "street": "Rua Vitória",
        "zipcode": "69403-607"
    },
    {
        "city": "Manacapuru",
        "state": "AM",
        "district": "Morada do Sol",
        "street": "Travessa 5 (Lot D Fiel)",
        "zipcode": "69402-378"
    },
    {
        "city": "Manacapuru",
        "state": "AM",
        "district": "Morada do Sol",
        "street": "Travessa 6 (Lot D Fiel)",
        "zipcode": "69402-402"
    },
    {
        "city": "Manacapuru",
        "state": "AM",
        "district": "Vale Verde",
        "street": "Rua Acariquara",
        "zipcode": "69403-646"
    },
    {
        "city": "Manacapuru",
        "state": "AM",
        "district": "Vale Verde",
        "street": "Avenida Doutor Francisco",
        "zipcode": "69403-634"
    },
    {
        "city": "Manacapuru",
        "state": "AM",
        "district": "Correnteza",
        "street": "Rua Geraldo Valente",
        "zipcode": "69400-036"
    },
    {
        "city": "Manacapuru",
        "state": "AM",
        "district": "Morada do Sol",
        "street": "Travessa 10 (Lot D Fiel)",
        "zipcode": "69402-411"
    },
    {
        "city": "Manacapuru",
        "state": "AM",
        "district": "Vale Verde",
        "street": "Travessa Vitória",
        "zipcode": "69403-610"
    },
    {
        "city": "Manacapuru",
        "state": "AM",
        "district": "Nova Manacá",
        "street": "Rua Rufino Mafra",
        "zipcode": "69401-804"
    },
    {
        "city": "Manacapuru",
        "state": "AM",
        "district": "Morada do Sol",
        "street": "Rua Canários (Lot Sto Antônio)",
        "zipcode": "69402-516"
    },
    {
        "city": "Manacapuru",
        "state": "AM",
        "district": "Morada do Sol",
        "street": "Travessa 12 (Lot D Fiel)",
        "zipcode": "69402-405"
    },
    {
        "city": "Manacapuru",
        "state": "AM",
        "district": "Vale Verde",
        "street": "Rua Jerusalém",
        "zipcode": "69403-640"
    },
    {
        "city": "Manacapuru",
        "state": "AM",
        "district": "Morada do Sol",
        "street": "Rua Central (Lot S Roberto)",
        "zipcode": "69402-280"
    },
    {
        "city": "Manacapuru",
        "state": "AM",
        "district": "Vale Verde",
        "street": "Rua São Sebastião",
        "zipcode": "69403-637"
    },
    {
        "city": "Manacapuru",
        "state": "AM",
        "district": "Morada do Sol",
        "street": "Travessa 4 (Lot D Fiel)",
        "zipcode": "69402-384"
    },
    {
        "city": "Manacapuru",
        "state": "AM",
        "district": "Morada do Sol",
        "street": "Travessa 2 (Lot D Fiel)",
        "zipcode": "69402-372"
    },
    {
        "city": "Manacapuru",
        "state": "AM",
        "district": "Morada do Sol",
        "street": "Rua C (Lot D Fiel",
        "zipcode": "69402-360"
    },
    {
        "city": "Manacapuru",
        "state": "AM",
        "district": "Morada do Sol",
        "street": "Travessa 11 (Lot D Fiel)",
        "zipcode": "69402-408"
    },
    {
        "city": "Manacapuru",
        "state": "AM",
        "district": "Morada do Sol",
        "street": "Rua C (Lot D Fiel",
        "zipcode": "69402-390"
    },
    {
        "city": "Manacapuru",
        "state": "AM",
        "district": "Terra Preta",
        "street": "Rua Projetada",
        "zipcode": "69401-368"
    },
    {
        "city": "Manacapuru",
        "state": "AM",
        "district": "Vale Verde",
        "street": "Ramal Doutor Francisco",
        "zipcode": "69403-625"
    },
    {
        "city": "Manacapuru",
        "state": "AM",
        "district": "Biribiri",
        "street": "Rua Modesto Barroso",
        "zipcode": "69400-107"
    },
    {
        "city": "Manacapuru",
        "state": "AM",
        "district": "São José",
        "street": "Beco Portelinha",
        "zipcode": "69400-674"
    },
    {
        "city": "Manacapuru",
        "state": "AM",
        "district": "Morada do Sol",
        "street": "Rua Tucanos (Lot Sto Antônio)",
        "zipcode": "69402-537"
    },
    {
        "city": "Manacapuru",
        "state": "AM",
        "district": "Morada do Sol",
        "street": "Rua Nazaré Cavalcante",
        "zipcode": "69402-105"
    },
    {
        "city": "Manacapuru",
        "state": "AM",
        "district": "Nova Manacá",
        "street": "Rua Agapito Pereira",
        "zipcode": "69401-794"
    },
    {
        "city": "Manacapuru",
        "state": "AM",
        "district": "Nova Manacá",
        "street": "Beco Agapito Pereira",
        "zipcode": "69401-796"
    },
    {
        "city": "Manacapuru",
        "state": "AM",
        "district": "Terra Preta",
        "street": "Rua Fauto Afonso",
        "zipcode": "69401-323"
    },
    {
        "city": "Manacapuru",
        "state": "AM",
        "district": "Terra Preta",
        "street": "Travessa Fausto Afonso",
        "zipcode": "69401-326"
    },
    {
        "city": "Manacapuru",
        "state": "AM",
        "district": "Nova Manacá",
        "street": "Rua Pedro Rattes",
        "zipcode": "69401-806"
    },
    {
        "city": "Manacapuru",
        "state": "AM",
        "district": "União",
        "street": "Travessa Atumã",
        "zipcode": "69401-191"
    },
    {
        "city": "Manacapuru",
        "state": "AM",
        "district": "Terra Preta",
        "street": "Rua Beira Rio",
        "zipcode": "69401-296"
    },
    {
        "city": "Manacapuru",
        "state": "AM",
        "district": "Terra Preta",
        "street": "Beco Beira Rio I",
        "zipcode": "69401-302"
    },
    {
        "city": "Manacapuru",
        "state": "AM",
        "district": "Terra Preta",
        "street": "Beco do Boto",
        "zipcode": "69401-257"
    },
    {
        "city": "Manacapuru",
        "state": "AM",
        "district": "Terra Preta",
        "street": "Rua Carolina Fernandes",
        "zipcode": "69401-269"
    },
    {
        "city": "Manacapuru",
        "state": "AM",
        "district": "Terra Preta",
        "street": "Beco Carolina Fernandes",
        "zipcode": "69401-266"
    },
    {
        "city": "Manacapuru",
        "state": "AM",
        "district": "União",
        "street": "Rua Codajás",
        "zipcode": "69401-173"
    },
    {
        "city": "Manacapuru",
        "state": "AM",
        "district": "União",
        "street": "Rua Codajás",
        "zipcode": "69401-170"
    },
    {
        "city": "Manacapuru",
        "state": "AM",
        "district": "Terra Preta",
        "street": "Avenida Pedro Moura",
        "zipcode": "69401-308"
    },
    {
        "city": "Manacapuru",
        "state": "AM",
        "district": "Terra Preta",
        "street": "Avenida Pedro Moura",
        "zipcode": "69401-242"
    },
    {
        "city": "Manacapuru",
        "state": "AM",
        "district": "Terra Preta",
        "street": "Avenida Pedro Moura",
        "zipcode": "69401-239"
    },
    {
        "city": "Manacapuru",
        "state": "AM",
        "district": "União",
        "street": "Rua Anori",
        "zipcode": "69401-167"
    },
    {
        "city": "Manacapuru",
        "state": "AM",
        "district": "Terra Preta",
        "street": "Rua 2",
        "zipcode": "69401-263"
    },
    {
        "city": "Manacapuru",
        "state": "AM",
        "district": "União",
        "street": "Estrada Manoel Urbano",
        "zipcode": "69401-197"
    },
    {
        "city": "Manacapuru",
        "state": "AM",
        "district": "Terra Preta",
        "street": "Estrada Manoel Urbano",
        "zipcode": "69401-230"
    },
    {
        "city": "Manacapuru",
        "state": "AM",
        "district": "Morada do Sol",
        "street": "Rua 6 (Cj E Braga II)",
        "zipcode": "69402-108"
    },
    {
        "city": "Manacapuru",
        "state": "AM",
        "district": "Nova Manacá",
        "street": "Rua Zoraide Alexandre",
        "zipcode": "69401-826"
    },
    {
        "city": "Manacapuru",
        "state": "AM",
        "district": "Morada do Sol",
        "street": "Rua D (Lot D Fiel)",
        "zipcode": "69402-393"
    },
    {
        "city": "Manacapuru",
        "state": "AM",
        "district": "Morada do Sol",
        "street": "Rua 1 (Com N Vitória)",
        "zipcode": "69402-223"
    },
    {
        "city": "Manacapuru",
        "state": "AM",
        "district": "Nova Manacá",
        "street": "Rua Mário Almeida",
        "zipcode": "69401-792"
    },
    {
        "city": "Manacapuru",
        "state": "AM",
        "district": "Morada do Sol",
        "street": "Rua Mergulhão (Lot Sto Antônio)",
        "zipcode": "69402-519"
    },
    {
        "city": "Manacapuru",
        "state": "AM",
        "district": "Morada do Sol",
        "street": "Travessa João Brito",
        "zipcode": "69402-096"
    },
    {
        "city": "Manacapuru",
        "state": "AM",
        "district": "Morada do Sol",
        "street": "Rua Itaúba (Lot L Azul)",
        "zipcode": "69402-274"
    },
    {
        "city": "Manacapuru",
        "state": "AM",
        "district": "Terra Preta",
        "street": "Rua 3 (Cj E Braga I)",
        "zipcode": "69401-293"
    },
    {
        "city": "Manacapuru",
        "state": "AM",
        "district": "Morada do Sol",
        "street": "Rua 1 (Lot D Lia)",
        "zipcode": "69402-147"
    },
    {
        "city": "Manacapuru",
        "state": "AM",
        "district": "Morada do Sol",
        "street": "Travessa 3 (Lot D Lia)",
        "zipcode": "69402-129"
    },
    {
        "city": "Manacapuru",
        "state": "AM",
        "district": "Morada do Sol",
        "street": "Travessa Andrade (Com N Vitória)",
        "zipcode": "69402-226"
    },
    {
        "city": "Manacapuru",
        "state": "AM",
        "district": "Nova Manacá",
        "street": "Rua Paulo Freire",
        "zipcode": "69401-790"
    },
    {
        "city": "Manacapuru",
        "state": "AM",
        "district": "Terra Preta",
        "street": "Rua Projetada I",
        "zipcode": "69401-248"
    },
    {
        "city": "Manacapuru",
        "state": "AM",
        "district": "Morada do Sol",
        "street": "Rua 5 (Com N Vitória)",
        "zipcode": "69402-241"
    },
    {
        "city": "Manacapuru",
        "state": "AM",
        "district": "Morada do Sol",
        "street": "Rua 4 (Com N Vitória)",
        "zipcode": "69402-235"
    },
    {
        "city": "Manacapuru",
        "state": "AM",
        "district": "Morada do Sol",
        "street": "Rua Rio Branco (Lot S Roberto)",
        "zipcode": "69402-286"
    },
    {
        "city": "Manacapuru",
        "state": "AM",
        "district": "Nova Manacá",
        "street": "Rua Raimundo Aquino",
        "zipcode": "69401-798"
    },
    {
        "city": "Manacapuru",
        "state": "AM",
        "district": "Morada do Sol",
        "street": "Rua 4 (Lot D Lia)",
        "zipcode": "69402-132"
    },
    {
        "city": "Manacapuru",
        "state": "AM",
        "district": "Morada do Sol",
        "street": "Travessa 2 (Lot D Lia)",
        "zipcode": "69402-141"
    },
    {
        "city": "Manacapuru",
        "state": "AM",
        "district": "Morada do Sol",
        "street": "Rua 2 (Cj E Braga II)",
        "zipcode": "69402-117"
    },
    {
        "city": "Manacapuru",
        "state": "AM",
        "district": "Morada do Sol",
        "street": "Rua 2 (Lot D Lia)",
        "zipcode": "69402-144"
    },
    {
        "city": "Manacapuru",
        "state": "AM",
        "district": "União",
        "street": "Beco 2 (Com Portelinha)",
        "zipcode": "69401-071"
    },
    {
        "city": "Manacapuru",
        "state": "AM",
        "district": "Morada do Sol",
        "street": "Rua 5 (Cj E Braga II)",
        "zipcode": "69402-120"
    },
    {
        "city": "Manacapuru",
        "state": "AM",
        "district": "Morada do Sol",
        "street": "Rua 3 (Com N Vitória)",
        "zipcode": "69402-232"
    },
    {
        "city": "Manacapuru",
        "state": "AM",
        "district": "Terra Preta",
        "street": "Beco Beira Rio II",
        "zipcode": "69401-299"
    },
    {
        "city": "Manacapuru",
        "state": "AM",
        "district": "Morada do Sol",
        "street": "Rua Principal (Lot D Fiel)",
        "zipcode": "69402-363"
    },
    {
        "city": "Manacapuru",
        "state": "AM",
        "district": "Morada do Sol",
        "street": "Rua 3 (Lot D Lia)",
        "zipcode": "69402-138"
    },
    {
        "city": "Manacapuru",
        "state": "AM",
        "district": "São José",
        "street": "Travessa Macacaúba",
        "zipcode": "69400-773"
    },
    {
        "city": "Manacapuru",
        "state": "AM",
        "district": "Morada do Sol",
        "street": "Avenida Miriti (Lot Sto Antônio)",
        "zipcode": "69402-522"
    },
    {
        "city": "Manacapuru",
        "state": "AM",
        "district": "Terra Preta",
        "street": "Rua 2 (Cj E Braga I)",
        "zipcode": "69401-290"
    },
    {
        "city": "Manacapuru",
        "state": "AM",
        "district": "Morada do Sol",
        "street": "Travessa Uirapuru (Lot Sto Antônio)",
        "zipcode": "69402-513"
    },
    {
        "city": "Manacapuru",
        "state": "AM",
        "district": "Morada do Sol",
        "street": "Travessa Rio Branco (Lot S Roberto)",
        "zipcode": "69402-289"
    },
    {
        "city": "Manacapuru",
        "state": "AM",
        "district": "Nova Manacá",
        "street": "Rua Ary Antunes",
        "zipcode": "69401-822"
    },
    {
        "city": "Manacapuru",
        "state": "AM",
        "district": "Morada do Sol",
        "street": "Rua Jatobá (Lot L Azul)",
        "zipcode": "69402-277"
    },
    {
        "city": "Manacapuru",
        "state": "AM",
        "district": "Terra Preta",
        "street": "Beco Monteiro",
        "zipcode": "69401-260"
    },
    {
        "city": "Manacapuru",
        "state": "AM",
        "district": "União",
        "street": "Rua Tefé",
        "zipcode": "69401-185"
    },
    {
        "city": "Manacapuru",
        "state": "AM",
        "district": "União",
        "street": "Travessa Tefé I",
        "zipcode": "69401-179"
    },
    {
        "city": "Manacapuru",
        "state": "AM",
        "district": "Terra Preta",
        "street": "Rua Augusto Lemos Coelho",
        "zipcode": "69401-335"
    },
    {
        "city": "Manacapuru",
        "state": "AM",
        "district": "União",
        "street": "Rua Borba",
        "zipcode": "69401-104"
    },
    {
        "city": "Manacapuru",
        "state": "AM",
        "district": "União",
        "street": "Rua Caapiranga",
        "zipcode": "69401-089"
    },
    {
        "city": "Manacapuru",
        "state": "AM",
        "district": "União",
        "street": "Rua Caapiranga",
        "zipcode": "69401-032"
    },
    {
        "city": "Manacapuru",
        "state": "AM",
        "district": "União",
        "street": "Rua Coari",
        "zipcode": "69401-095"
    },
    {
        "city": "Manacapuru",
        "state": "AM",
        "district": "União",
        "street": "Rua Novo Airão",
        "zipcode": "69401-131"
    },
    {
        "city": "Manacapuru",
        "state": "AM",
        "district": "União",
        "street": "Beco Novo Airão",
        "zipcode": "69401-137"
    },
    {
        "city": "Manacapuru",
        "state": "AM",
        "district": "União",
        "street": "Beco Novo Paraíso",
        "zipcode": "69401-128"
    },
    {
        "city": "Manacapuru",
        "state": "AM",
        "district": "União",
        "street": "Rua Parintins",
        "zipcode": "69401-161"
    },
    {
        "city": "Manacapuru",
        "state": "AM",
        "district": "Terra Preta",
        "street": "Beco Santo Antônio",
        "zipcode": "69401-305"
    },
    {
        "city": "Manacapuru",
        "state": "AM",
        "district": "União",
        "street": "Rua Coronel Juvêncio Soriano",
        "zipcode": "69401-077"
    },
    {
        "city": "Manacapuru",
        "state": "AM",
        "district": "União",
        "street": "Rua Coronel Juvêncio Soriano",
        "zipcode": "69401-041"
    },
    {
        "city": "Manacapuru",
        "state": "AM",
        "district": "União",
        "street": "Rua Manicoré",
        "zipcode": "69401-110"
    },
    {
        "city": "Manacapuru",
        "state": "AM",
        "district": "União",
        "street": "Beco Maués",
        "zipcode": "69401-125"
    },
    {
        "city": "Manacapuru",
        "state": "AM",
        "district": "Aparecida",
        "street": "Rua Alvarães",
        "zipcode": "69400-460"
    },
    {
        "city": "Manacapuru",
        "state": "AM",
        "district": "União",
        "street": "Rua Tabatinga",
        "zipcode": "69401-107"
    },
    {
        "city": "Manacapuru",
        "state": "AM",
        "district": "União",
        "street": "Beco Urucará",
        "zipcode": "69401-122"
    },
    {
        "city": "Manacapuru",
        "state": "AM",
        "district": "Terra Preta",
        "street": "Rua Valinda Gomes Afonso",
        "zipcode": "69401-362"
    },
    {
        "city": "Manacapuru",
        "state": "AM",
        "district": "União",
        "street": "Travessa Silves",
        "zipcode": "69401-140"
    },
    {
        "city": "Manacapuru",
        "state": "AM",
        "district": "União",
        "street": "Beco Silves I",
        "zipcode": "69401-149"
    },
    {
        "city": "Manacapuru",
        "state": "AM",
        "district": "Terra Preta",
        "street": "Rua Maria Bezerra de Souza",
        "zipcode": "69401-344"
    },
    {
        "city": "Manacapuru",
        "state": "AM",
        "district": "Terra Preta",
        "street": "Rua Walcira Coelho (Lot M Cristo)",
        "zipcode": "69401-520"
    },
    {
        "city": "Manacapuru",
        "state": "AM",
        "district": "União",
        "street": "Beco Silves II",
        "zipcode": "69401-155"
    },
    {
        "city": "Manacapuru",
        "state": "AM",
        "district": "Morada do Sol",
        "street": "Beco 17 de Agosto",
        "zipcode": "69402-066"
    },
    {
        "city": "Manacapuru",
        "state": "AM",
        "district": "Morada do Sol",
        "street": "Travessa Nota 10",
        "zipcode": "69402-026"
    },
    {
        "city": "Manacapuru",
        "state": "AM",
        "district": "Terra Preta",
        "street": "Rua Anísio Jobim",
        "zipcode": "69401-245"
    },
    {
        "city": "Manacapuru",
        "state": "AM",
        "district": "Terra Preta",
        "street": "Rua 1 (Cj Res Frazão)",
        "zipcode": "69401-496"
    },
    {
        "city": "Manacapuru",
        "state": "AM",
        "district": "Morada do Sol",
        "street": "Rua de Acesso à Serraria",
        "zipcode": "69402-150"
    },
    {
        "city": "Manacapuru",
        "state": "AM",
        "district": "Terra Preta",
        "street": "Rua de Acesso 1 (Cj Res Frazão)",
        "zipcode": "69401-499"
    },
    {
        "city": "Manacapuru",
        "state": "AM",
        "district": "Terra Preta",
        "street": "Travessa Maria Walcacer Nogueira 1",
        "zipcode": "69401-353"
    },
    {
        "city": "Manacapuru",
        "state": "AM",
        "district": "Terra Preta",
        "street": "Rua Waldemar Coelho (Lot M Cristo)",
        "zipcode": "69401-532"
    },
    {
        "city": "Manacapuru",
        "state": "AM",
        "district": "Terra Preta",
        "street": "Travessa Donato Coelho (Lot M Cristo)",
        "zipcode": "69401-547"
    },
    {
        "city": "Manacapuru",
        "state": "AM",
        "district": "Terra Preta",
        "street": "Rua Tenente Zani dos Reis",
        "zipcode": "69401-275"
    },
    {
        "city": "Manacapuru",
        "state": "AM",
        "district": "Nova Manacá",
        "street": "Travessa Extramar (Com Herdeiros)",
        "zipcode": "69401-784"
    },
    {
        "city": "Manacapuru",
        "state": "AM",
        "district": "Nova Manacá",
        "street": "Rua dos Herdeiros (Com Herdeiros)",
        "zipcode": "69401-782"
    },
    {
        "city": "Manacapuru",
        "state": "AM",
        "district": "Morada do Sol",
        "street": "Rua Rio Içá (Lot L Azul)",
        "zipcode": "69402-247"
    },
    {
        "city": "Manacapuru",
        "state": "AM",
        "district": "Terra Preta",
        "street": "Rua São Vicente (Lot M Cristo)",
        "zipcode": "69401-544"
    },
    {
        "city": "Manacapuru",
        "state": "AM",
        "district": "Morada do Sol",
        "street": "Beco Renato Silva",
        "zipcode": "69402-072"
    },
    {
        "city": "Manacapuru",
        "state": "AM",
        "district": "Terra Preta",
        "street": "Travessa São Vicente (Lot M Cristo)",
        "zipcode": "69401-541"
    },
    {
        "city": "Manacapuru",
        "state": "AM",
        "district": "Morada do Sol",
        "street": "Rua Rio Negro (Lot L Azul)",
        "zipcode": "69402-259"
    },
    {
        "city": "Manacapuru",
        "state": "AM",
        "district": "Morada do Sol",
        "street": "Rua Rio Jamari (Lot L Azul)",
        "zipcode": "69402-244"
    },
    {
        "city": "Manacapuru",
        "state": "AM",
        "district": "Terra Preta",
        "street": "Rua 2 (Cj Res Frazão)",
        "zipcode": "69401-502"
    },
    {
        "city": "Manacapuru",
        "state": "AM",
        "district": "Terra Preta",
        "street": "Rua Washington Régis (Lot M Cristo)",
        "zipcode": "69401-538"
    },
    {
        "city": "Manacapuru",
        "state": "AM",
        "district": "Nova Manacá",
        "street": "Rua Edmundo Sefair",
        "zipcode": "69401-814"
    },
    {
        "city": "Manacapuru",
        "state": "AM",
        "district": "União",
        "street": "Travessa Tefé II",
        "zipcode": "69401-182"
    },
    {
        "city": "Manacapuru",
        "state": "AM",
        "district": "Morada do Sol",
        "street": "Rua 31 de Agosto",
        "zipcode": "69402-063"
    },
    {
        "city": "Manacapuru",
        "state": "AM",
        "district": "Terra Preta",
        "street": "Rua Manoel Gonçalves Bastos",
        "zipcode": "69401-281"
    },
    {
        "city": "Manacapuru",
        "state": "AM",
        "district": "Terra Preta",
        "street": "Travessa Aniceto Barroso",
        "zipcode": "69401-278"
    },
    {
        "city": "Manacapuru",
        "state": "AM",
        "district": "Terra Preta",
        "street": "Travessa Maria Walcacer Nogueira 3",
        "zipcode": "69401-359"
    },
    {
        "city": "Manacapuru",
        "state": "AM",
        "district": "União",
        "street": "Beco Canutama",
        "zipcode": "69401-143"
    },
    {
        "city": "Manacapuru",
        "state": "AM",
        "district": "Terra Preta",
        "street": "Travessa Maria Walcacer Nogueira 2",
        "zipcode": "69401-356"
    },
    {
        "city": "Manacapuru",
        "state": "AM",
        "district": "Morada do Sol",
        "street": "Rua Rio Amazonas (Lot L Azul)",
        "zipcode": "69402-238"
    },
    {
        "city": "Manacapuru",
        "state": "AM",
        "district": "Terra Preta",
        "street": "Travessa Maria Walcacer Nogueira",
        "zipcode": "69401-350"
    },
    {
        "city": "Manacapuru",
        "state": "AM",
        "district": "Nova Manacá",
        "street": "Rua Valciléia Maciel",
        "zipcode": "69401-818"
    },
    {
        "city": "Manacapuru",
        "state": "AM",
        "district": "União",
        "street": "Rua Eirunepé",
        "zipcode": "69401-083"
    },
    {
        "city": "Manacapuru",
        "state": "AM",
        "district": "União",
        "street": "Rua Eirunepé",
        "zipcode": "69401-035"
    },
    {
        "city": "Manacapuru",
        "state": "AM",
        "district": "União",
        "street": "Rua Ipixuna",
        "zipcode": "69401-116"
    },
    {
        "city": "Manacapuru",
        "state": "AM",
        "district": "União",
        "street": "Rua Itacoatiara",
        "zipcode": "69401-092"
    },
    {
        "city": "Manacapuru",
        "state": "AM",
        "district": "Terra Preta",
        "street": "Travessa Projetada",
        "zipcode": "69401-493"
    },
    {
        "city": "Manacapuru",
        "state": "AM",
        "district": "Terra Preta",
        "street": "Beco Projetado",
        "zipcode": "69401-320"
    },
    {
        "city": "Manacapuru",
        "state": "AM",
        "district": "Aparecida",
        "street": "Rua Almirante Tamandaré",
        "zipcode": "69400-906"
    },
    {
        "city": "Manacapuru",
        "state": "AM",
        "district": "São José",
        "street": "Rua Benjamim Roberto",
        "zipcode": "69400-731"
    },
    {
        "city": "Manacapuru",
        "state": "AM",
        "district": "São José",
        "street": "Rua Benjamim Roberto",
        "zipcode": "69400-689"
    },
    {
        "city": "Manacapuru",
        "state": "AM",
        "district": "São José",
        "street": "Travessa Benjamim Roberto",
        "zipcode": "69400-698"
    },
    {
        "city": "Manacapuru",
        "state": "AM",
        "district": "São José",
        "street": "Rua Dom Bosco",
        "zipcode": "69400-677"
    },
    {
        "city": "Manacapuru",
        "state": "AM",
        "district": "São José",
        "street": "Beco Dom Bosco",
        "zipcode": "69400-680"
    },
    {
        "city": "Manacapuru",
        "state": "AM",
        "district": "São José",
        "street": "Rua Carolina Fernandes",
        "zipcode": "69400-797"
    },
    {
        "city": "Manacapuru",
        "state": "AM",
        "district": "São José",
        "street": "Rua Carolina Fernandes",
        "zipcode": "69400-836"
    },
    {
        "city": "Manacapuru",
        "state": "AM",
        "district": "São José",
        "street": "Beco Carolina Fernandes",
        "zipcode": "69400-839"
    },
    {
        "city": "Manacapuru",
        "state": "AM",
        "district": "São José",
        "street": "Rua Daniel Simões",
        "zipcode": "69400-737"
    },
    {
        "city": "Manacapuru",
        "state": "AM",
        "district": "São José",
        "street": "Rua Coronel Júlio Roberto",
        "zipcode": "69400-809"
    },
    {
        "city": "Manacapuru",
        "state": "AM",
        "district": "São José",
        "street": "Rua Coronel Júlio Roberto",
        "zipcode": "69400-821"
    },
    {
        "city": "Manacapuru",
        "state": "AM",
        "district": "São José",
        "street": "Travessa Armando Mendes",
        "zipcode": "69400-701"
    },
    {
        "city": "Manacapuru",
        "state": "AM",
        "district": "São José",
        "street": "Beco Coronel Júlio Roberto",
        "zipcode": "69400-824"
    },
    {
        "city": "Manacapuru",
        "state": "AM",
        "district": "São José",
        "street": "Rua Coronel Juvêncio Soriano",
        "zipcode": "69400-815"
    },
    {
        "city": "Manacapuru",
        "state": "AM",
        "district": "São José",
        "street": "Rua Luiz da Cunha Freire",
        "zipcode": "69400-818"
    },
    {
        "city": "Manacapuru",
        "state": "AM",
        "district": "União",
        "street": "Rua Maués",
        "zipcode": "69401-113"
    },
    {
        "city": "Manacapuru",
        "state": "AM",
        "district": "São José",
        "street": "Travessa Maurício da Cunha Freire",
        "zipcode": "69400-692"
    },
    {
        "city": "Manacapuru",
        "state": "AM",
        "district": "São José",
        "street": "Rua Maurício da Cunha Freire",
        "zipcode": "69400-734"
    },
    {
        "city": "Manacapuru",
        "state": "AM",
        "district": "São José",
        "street": "Rua Maurício da Cunha Freire",
        "zipcode": "69400-794"
    },
    {
        "city": "Manacapuru",
        "state": "AM",
        "district": "São José",
        "street": "Rua 30 de Julho",
        "zipcode": "69400-716"
    },
    {
        "city": "Manacapuru",
        "state": "AM",
        "district": "São José",
        "street": "Rua 5 de Setembro",
        "zipcode": "69400-866"
    },
    {
        "city": "Manacapuru",
        "state": "AM",
        "district": "São José",
        "street": "Travessa A",
        "zipcode": "69400-728"
    },
    {
        "city": "Manacapuru",
        "state": "AM",
        "district": "São José",
        "street": "Travessa Alcântara Figueira",
        "zipcode": "69400-704"
    },
    {
        "city": "Manacapuru",
        "state": "AM",
        "district": "São José",
        "street": "Rua Waldemar Ventura",
        "zipcode": "69400-707"
    },
    {
        "city": "Manacapuru",
        "state": "AM",
        "district": "São José",
        "street": "Rua Waldemar Ventura",
        "zipcode": "69400-710"
    },
    {
        "city": "Manacapuru",
        "state": "AM",
        "district": "São José",
        "street": "Rua Waldemar Ventura",
        "zipcode": "69400-743"
    },
    {
        "city": "Manacapuru",
        "state": "AM",
        "district": "São José",
        "street": "Travessa Waldemar Ventura",
        "zipcode": "69400-722"
    },
    {
        "city": "Manacapuru",
        "state": "AM",
        "district": "São José",
        "street": "Rua Ezanor Ataíde",
        "zipcode": "69400-803"
    },
    {
        "city": "Manacapuru",
        "state": "AM",
        "district": "São José",
        "street": "Beco Ezanor Ataíde",
        "zipcode": "69400-830"
    },
    {
        "city": "Manacapuru",
        "state": "AM",
        "district": "São José",
        "street": "Rua Ezequiel Ruiz",
        "zipcode": "69400-686"
    },
    {
        "city": "Manacapuru",
        "state": "AM",
        "district": "São José",
        "street": "Rua Francisco Rodrigues",
        "zipcode": "69400-860"
    },
    {
        "city": "Manacapuru",
        "state": "AM",
        "district": "União",
        "street": "Beco 10 de Julho (Com Portelinha)",
        "zipcode": "69401-059"
    },
    {
        "city": "Manacapuru",
        "state": "AM",
        "district": "União",
        "street": "Rua da Conquista (Com Portelinha)",
        "zipcode": "69401-065"
    },
    {
        "city": "Manacapuru",
        "state": "AM",
        "district": "Terra Preta",
        "street": "Rua Elói Marques Monteiro",
        "zipcode": "69401-317"
    },
    {
        "city": "Manacapuru",
        "state": "AM",
        "district": "São José",
        "street": "Rua Benedito Caggy",
        "zipcode": "69400-791"
    },
    {
        "city": "Manacapuru",
        "state": "AM",
        "district": "São José",
        "street": "Travessa Cedro Agoano",
        "zipcode": "69400-782"
    },
    {
        "city": "Manacapuru",
        "state": "AM",
        "district": "São José",
        "street": "Rua José do Patrocínio",
        "zipcode": "69400-851"
    },
    {
        "city": "Manacapuru",
        "state": "AM",
        "district": "São José",
        "street": "Travessa Dom Milton",
        "zipcode": "69400-875"
    },
    {
        "city": "Manacapuru",
        "state": "AM",
        "district": "Terra Preta",
        "street": "Rua Projetada II",
        "zipcode": "69401-251"
    },
    {
        "city": "Manacapuru",
        "state": "AM",
        "district": "União",
        "street": "Rua Projetada",
        "zipcode": "69401-146"
    },
    {
        "city": "Manacapuru",
        "state": "AM",
        "district": "Terra Preta",
        "street": "Rua Inácio Coelho (Lot M Cristo)",
        "zipcode": "69401-529"
    },
    {
        "city": "Manacapuru",
        "state": "AM",
        "district": "São José",
        "street": "Rua Benedita Cruz",
        "zipcode": "69400-863"
    },
    {
        "city": "Manacapuru",
        "state": "AM",
        "district": "União",
        "street": "Travessa Dom Milton",
        "zipcode": "69401-029"
    },
    {
        "city": "Manacapuru",
        "state": "AM",
        "district": "São José",
        "street": "Travessa Acapu",
        "zipcode": "69400-785"
    },
    {
        "city": "Manacapuru",
        "state": "AM",
        "district": "Terra Preta",
        "street": "Rua Getúlio Coelho (Lot M Cristo)",
        "zipcode": "69401-517"
    },
    {
        "city": "Manacapuru",
        "state": "AM",
        "district": "União",
        "street": "Rua Vitória",
        "zipcode": "69401-050"
    },
    {
        "city": "Manacapuru",
        "state": "AM",
        "district": "União",
        "street": "Rua Rei Salomão",
        "zipcode": "69401-047"
    },
    {
        "city": "Manacapuru",
        "state": "AM",
        "district": "São José",
        "street": "Travessa Horácio Barroso",
        "zipcode": "69400-749"
    },
    {
        "city": "Manacapuru",
        "state": "AM",
        "district": "São José",
        "street": "Rua Raimundo Pacheco Teles",
        "zipcode": "69400-752"
    },
    {
        "city": "Manacapuru",
        "state": "AM",
        "district": "Centro",
        "street": "Avenida Eduardo Ribeiro",
        "zipcode": "69400-901"
    },
    {
        "city": "Manacapuru",
        "state": "AM",
        "district": "Centro",
        "street": "Avenida Ribeiro Júnior",
        "zipcode": "69400-902"
    },
    {
        "city": "Manacapuru",
        "state": "AM",
        "district": "Centro",
        "street": "Avenida Ribeiro Júnior",
        "zipcode": "69400-903"
    },
    {
        "city": "Manacapuru",
        "state": "AM",
        "district": "Aparecida",
        "street": "Beco Barcelos",
        "zipcode": "69400-466"
    },
    {
        "city": "Manacapuru",
        "state": "AM",
        "district": "Aparecida",
        "street": "Rua Barcelos",
        "zipcode": "69400-468"
    },
    {
        "city": "Manacapuru",
        "state": "AM",
        "district": "Liberdade",
        "street": "Rua Barroso",
        "zipcode": "69400-610"
    },
    {
        "city": "Manacapuru",
        "state": "AM",
        "district": "Liberdade",
        "street": "Rua Beatriz Bezerra",
        "zipcode": "69400-601"
    },
    {
        "city": "Manacapuru",
        "state": "AM",
        "district": "Liberdade",
        "street": "Rua Bela Vista",
        "zipcode": "69400-544"
    },
    {
        "city": "Manacapuru",
        "state": "AM",
        "district": "Liberdade",
        "street": "Rua Bento Aranha",
        "zipcode": "69400-595"
    },
    {
        "city": "Manacapuru",
        "state": "AM",
        "district": "Aparecida",
        "street": "Travessa Cleto Barroso",
        "zipcode": "69400-472"
    },
    {
        "city": "Manacapuru",
        "state": "AM",
        "district": "Aparecida",
        "street": "Rua Cleto Barroso",
        "zipcode": "69400-476"
    },
    {
        "city": "Manacapuru",
        "state": "AM",
        "district": "São José",
        "street": "Travessa Nova Esperança",
        "zipcode": "69400-665"
    },
    {
        "city": "Manacapuru",
        "state": "AM",
        "district": "Liberdade",
        "street": "Rua João de Deus",
        "zipcode": "69400-574"
    },
    {
        "city": "Manacapuru",
        "state": "AM",
        "district": "São José",
        "street": "Rua João de Deus",
        "zipcode": "69400-650"
    },
    {
        "city": "Manacapuru",
        "state": "AM",
        "district": "Liberdade",
        "street": "Rua Joaquina Alexandre",
        "zipcode": "69400-541"
    },
    {
        "city": "Manacapuru",
        "state": "AM",
        "district": "Liberdade",
        "street": "Rua Daniel Simões",
        "zipcode": "69400-490"
    },
    {
        "city": "Manacapuru",
        "state": "AM",
        "district": "Aparecida",
        "street": "Rua Daniel Simões",
        "zipcode": "69400-488"
    },
    {
        "city": "Manacapuru",
        "state": "AM",
        "district": "Liberdade",
        "street": "Rua Daniel Simões",
        "zipcode": "69400-532"
    },
    {
        "city": "Manacapuru",
        "state": "AM",
        "district": "Aparecida",
        "street": "Rua Horácio Barroso",
        "zipcode": "69400-474"
    },
    {
        "city": "Manacapuru",
        "state": "AM",
        "district": "São José",
        "street": "Rua Tenente Edilson",
        "zipcode": "69400-719"
    },
    {
        "city": "Manacapuru",
        "state": "AM",
        "district": "São José",
        "street": "Beco Tenente Edilson",
        "zipcode": "69400-671"
    },
    {
        "city": "Manacapuru",
        "state": "AM",
        "district": "Liberdade",
        "street": "Rua José Soriano",
        "zipcode": "69400-637"
    },
    {
        "city": "Manacapuru",
        "state": "AM",
        "district": "Aparecida",
        "street": "Rua André Vidal",
        "zipcode": "69400-462"
    },
    {
        "city": "Manacapuru",
        "state": "AM",
        "district": "Liberdade",
        "street": "Rua Arapapá",
        "zipcode": "69400-622"
    },
    {
        "city": "Manacapuru",
        "state": "AM",
        "district": "Liberdade",
        "street": "Rua Artur Malaquias",
        "zipcode": "69400-583"
    },
    {
        "city": "Manacapuru",
        "state": "AM",
        "district": "São José",
        "street": "Rua Liberdade I",
        "zipcode": "69400-662"
    },
    {
        "city": "Manacapuru",
        "state": "AM",
        "district": "São José",
        "street": "Rua Liberdade II",
        "zipcode": "69400-659"
    },
    {
        "city": "Manacapuru",
        "state": "AM",
        "district": "Liberdade",
        "street": "Rua Coronel Madeira",
        "zipcode": "69400-577"
    },
    {
        "city": "Manacapuru",
        "state": "AM",
        "district": "Liberdade",
        "street": "Rua Manoel Barroso",
        "zipcode": "69400-523"
    },
    {
        "city": "Manacapuru",
        "state": "AM",
        "district": "Liberdade",
        "street": "Rua Manoel Barroso",
        "zipcode": "69400-526"
    },
    {
        "city": "Manacapuru",
        "state": "AM",
        "district": "Liberdade",
        "street": "Travessa Ninfaide de Castro",
        "zipcode": "69400-520"
    },
    {
        "city": "Manacapuru",
        "state": "AM",
        "district": "Liberdade",
        "street": "Rua Agapito Pereira",
        "zipcode": "69400-553"
    },
    {
        "city": "Manacapuru",
        "state": "AM",
        "district": "Liberdade",
        "street": "Rua Tancredo Neves",
        "zipcode": "69400-616"
    },
    {
        "city": "Manacapuru",
        "state": "AM",
        "district": "Aparecida",
        "street": "Rua Waldemar Ventura",
        "zipcode": "69400-480"
    },
    {
        "city": "Manacapuru",
        "state": "AM",
        "district": "São José",
        "street": "Rua Waldemar Ventura",
        "zipcode": "69400-656"
    },
    {
        "city": "Manacapuru",
        "state": "AM",
        "district": "Aparecida",
        "street": "Beco Waldemar Ventura",
        "zipcode": "69400-482"
    },
    {
        "city": "Manacapuru",
        "state": "AM",
        "district": "Aparecida",
        "street": "Rua Joaquina Alexandre",
        "zipcode": "69400-486"
    },
    {
        "city": "Manacapuru",
        "state": "AM",
        "district": "Liberdade",
        "street": "Rua Sacambu",
        "zipcode": "69400-613"
    },
    {
        "city": "Manacapuru",
        "state": "AM",
        "district": "Liberdade",
        "street": "Rua Coronel Salgado",
        "zipcode": "69400-502"
    },
    {
        "city": "Manacapuru",
        "state": "AM",
        "district": "Liberdade",
        "street": "Rua Samaúma",
        "zipcode": "69400-598"
    },
    {
        "city": "Manacapuru",
        "state": "AM",
        "district": "Liberdade",
        "street": "Rua Sinézio Pereira",
        "zipcode": "69400-565"
    },
    {
        "city": "Manacapuru",
        "state": "AM",
        "district": "Liberdade",
        "street": "Rua Estefânia de Melo",
        "zipcode": "69400-505"
    },
    {
        "city": "Manacapuru",
        "state": "AM",
        "district": "Liberdade",
        "street": "Rua Senador Fábio Lucena",
        "zipcode": "69400-589"
    },
    {
        "city": "Manacapuru",
        "state": "AM",
        "district": "Aparecida",
        "street": "Rua Gaspar Fernandes",
        "zipcode": "69400-470"
    },
    {
        "city": "Manacapuru",
        "state": "AM",
        "district": "União",
        "street": "Rua Projetada I (Com Portelinha)",
        "zipcode": "69401-062"
    },
    {
        "city": "Manacapuru",
        "state": "AM",
        "district": "Liberdade",
        "street": "Rua Pastor José Pereira",
        "zipcode": "69400-538"
    },
    {
        "city": "Manacapuru",
        "state": "AM",
        "district": "São José",
        "street": "Beco São José",
        "zipcode": "69400-833"
    },
    {
        "city": "Manacapuru",
        "state": "AM",
        "district": "Liberdade",
        "street": "Rua Gilberto Mestrinho",
        "zipcode": "69400-619"
    },
    {
        "city": "Manacapuru",
        "state": "AM",
        "district": "São José",
        "street": "Rua Dom Gutemberg",
        "zipcode": "69400-869"
    },
    {
        "city": "Manacapuru",
        "state": "AM",
        "district": "Centro",
        "street": "Praça 16 de Julho",
        "zipcode": "69400-905"
    },
    {
        "city": "Manacapuru",
        "state": "AM",
        "district": "União",
        "street": "Avenida Perimetral",
        "zipcode": "69401-020"
    },
    {
        "city": "Manacapuru",
        "state": "AM",
        "district": "Liberdade",
        "street": "Rua Pastor José Pereira",
        "zipcode": "69400-568"
    },
    {
        "city": "Manacapuru",
        "state": "AM",
        "district": "Liberdade",
        "street": "Rua Japurá",
        "zipcode": "69400-604"
    },
    {
        "city": "Manacapuru",
        "state": "AM",
        "district": "Liberdade",
        "street": "Rua Piranha",
        "zipcode": "69400-550"
    },
    {
        "city": "Manacapuru",
        "state": "AM",
        "district": "Liberdade",
        "street": "Rua Raimunda Ruiz",
        "zipcode": "69400-508"
    },
    {
        "city": "Manacapuru",
        "state": "AM",
        "district": "Liberdade",
        "street": "Rua Raimunda Ruiz",
        "zipcode": "69400-529"
    },
    {
        "city": "Manacapuru",
        "state": "AM",
        "district": "Liberdade",
        "street": "Rua Raimundo Dias",
        "zipcode": "69400-631"
    },
    {
        "city": "Manacapuru",
        "state": "AM",
        "district": "Liberdade",
        "street": "Travessa Raimundo Guimarães",
        "zipcode": "69400-547"
    },
    {
        "city": "Manacapuru",
        "state": "AM",
        "district": "Centro",
        "street": "Rua Bahia",
        "zipcode": "69400-274"
    },
    {
        "city": "Manacapuru",
        "state": "AM",
        "district": "Centro",
        "street": "Travessa Castelo Branco",
        "zipcode": "69400-340"
    },
    {
        "city": "Manacapuru",
        "state": "AM",
        "district": "São Francisco",
        "street": "Rua Castro Alves",
        "zipcode": "69400-362"
    },
    {
        "city": "Manacapuru",
        "state": "AM",
        "district": "São Francisco",
        "street": "Rua Castro Alves",
        "zipcode": "69400-428"
    },
    {
        "city": "Manacapuru",
        "state": "AM",
        "district": "Centro",
        "street": "Rua Castro Alves",
        "zipcode": "69400-334"
    },
    {
        "city": "Manacapuru",
        "state": "AM",
        "district": "São Francisco",
        "street": "Rua Presidente Costa e Silva",
        "zipcode": "69400-380"
    },
    {
        "city": "Manacapuru",
        "state": "AM",
        "district": "Centro",
        "street": "Travessa Dom Pedro I",
        "zipcode": "69400-310"
    },
    {
        "city": "Manacapuru",
        "state": "AM",
        "district": "São Francisco",
        "street": "Rua Olavo Bilac",
        "zipcode": "69400-398"
    },
    {
        "city": "Manacapuru",
        "state": "AM",
        "district": "Centro",
        "street": "Rua Paraná",
        "zipcode": "69400-276"
    },
    {
        "city": "Manacapuru",
        "state": "AM",
        "district": "Centro",
        "street": "Avenida João XXIII",
        "zipcode": "69400-314"
    },
    {
        "city": "Manacapuru",
        "state": "AM",
        "district": "São Francisco",
        "street": "Avenida João XXIII",
        "zipcode": "69400-419"
    },
    {
        "city": "Manacapuru",
        "state": "AM",
        "district": "Centro",
        "street": "Beco São Luís",
        "zipcode": "69400-278"
    },
    {
        "city": "Manacapuru",
        "state": "AM",
        "district": "Centro",
        "street": "Rua Coronel Madeira",
        "zipcode": "69400-284"
    },
    {
        "city": "Manacapuru",
        "state": "AM",
        "district": "Centro",
        "street": "Rua Coronel Madeira",
        "zipcode": "69400-298"
    },
    {
        "city": "Manacapuru",
        "state": "AM",
        "district": "Centro",
        "street": "Rua Marcílio Dias",
        "zipcode": "69400-318"
    },
    {
        "city": "Manacapuru",
        "state": "AM",
        "district": "São Francisco",
        "street": "Rua 16 de Julho",
        "zipcode": "69400-425"
    },
    {
        "city": "Manacapuru",
        "state": "AM",
        "district": "São Francisco",
        "street": "Rua 31 de Março",
        "zipcode": "69400-389"
    },
    {
        "city": "Manacapuru",
        "state": "AM",
        "district": "São Francisco",
        "street": "Travessa Abdala Kallil",
        "zipcode": "69400-416"
    },
    {
        "city": "Manacapuru",
        "state": "AM",
        "district": "Centro",
        "street": "Travessa Ajuricaba",
        "zipcode": "69400-330"
    },
    {
        "city": "Manacapuru",
        "state": "AM",
        "district": "Aparecida",
        "street": "Travessa Alvarães",
        "zipcode": "69400-458"
    },
    {
        "city": "Manacapuru",
        "state": "AM",
        "district": "São Francisco",
        "street": "Travessa Álvaro Maia",
        "zipcode": "69400-368"
    },
    {
        "city": "Manacapuru",
        "state": "AM",
        "district": "São Francisco",
        "street": "Rua Almirante Tamandaré",
        "zipcode": "69400-434"
    },
    {
        "city": "Manacapuru",
        "state": "AM",
        "district": "Aparecida",
        "street": "Rua Almirante Tamandaré",
        "zipcode": "69400-440"
    },
    {
        "city": "Manacapuru",
        "state": "AM",
        "district": "Centro",
        "street": "Rua Tapajós",
        "zipcode": "69400-332"
    },
    {
        "city": "Manacapuru",
        "state": "AM",
        "district": "São Francisco",
        "street": "Rua Tapajós",
        "zipcode": "69400-401"
    },
    {
        "city": "Manacapuru",
        "state": "AM",
        "district": "São Francisco",
        "street": "Rua Tapajós",
        "zipcode": "69400-413"
    },
    {
        "city": "Manacapuru",
        "state": "AM",
        "district": "São Francisco",
        "street": "Rua Waldemar Pedrosa",
        "zipcode": "69400-404"
    },
    {
        "city": "Manacapuru",
        "state": "AM",
        "district": "Aparecida",
        "street": "Rua Waldemar Ventura",
        "zipcode": "69400-452"
    },
    {
        "city": "Manacapuru",
        "state": "AM",
        "district": "São Francisco",
        "street": "Rua Coronel Salgado",
        "zipcode": "69400-410"
    },
    {
        "city": "Manacapuru",
        "state": "AM",
        "district": "Centro",
        "street": "Rua Fausto Ventura",
        "zipcode": "69400-304"
    },
    {
        "city": "Manacapuru",
        "state": "AM",
        "district": "Aparecida",
        "street": "Rua Gaspar Fernandes",
        "zipcode": "69400-448"
    },
    {
        "city": "Manacapuru",
        "state": "AM",
        "district": "São Francisco",
        "street": "Beco São Geraldo",
        "zipcode": "69400-374"
    },
    {
        "city": "Manacapuru",
        "state": "AM",
        "district": "São Francisco",
        "street": "Avenida Getúlio Vargas",
        "zipcode": "69400-359"
    },
    {
        "city": "Manacapuru",
        "state": "AM",
        "district": "São Francisco",
        "street": "Travessa Getúlio Vargas",
        "zipcode": "69400-356"
    },
    {
        "city": "Manacapuru",
        "state": "AM",
        "district": "Centro",
        "street": "Travessa Goiás",
        "zipcode": "69400-270"
    },
    {
        "city": "Manacapuru",
        "state": "AM",
        "district": "Centro",
        "street": "Travessa Independência",
        "zipcode": "69400-308"
    },
    {
        "city": "Manacapuru",
        "state": "AM",
        "district": "Centro",
        "street": "Rua Policarpo de Souza",
        "zipcode": "69400-280"
    },
    {
        "city": "Manacapuru",
        "state": "AM",
        "district": "Centro",
        "street": "Avenida Padre Rafael",
        "zipcode": "69400-320"
    },
    {
        "city": "Manacapuru",
        "state": "AM",
        "district": "Centro",
        "street": "Avenida Padre Rafael",
        "zipcode": "69400-322"
    },
    {
        "city": "Manacapuru",
        "state": "AM",
        "district": "São Francisco",
        "street": "Avenida Padre Rafael",
        "zipcode": "69400-392"
    },
    {
        "city": "Manacapuru",
        "state": "AM",
        "district": "Centro",
        "street": "Travessa Padre Rafael I",
        "zipcode": "69400-324"
    },
    {
        "city": "Manacapuru",
        "state": "AM",
        "district": "Aparecida",
        "street": "Rua Regina Fernandes",
        "zipcode": "69400-446"
    },
    {
        "city": "Manacapuru",
        "state": "AM",
        "district": "Centro",
        "street": "Avenida Ribeiro Júnior",
        "zipcode": "69400-336"
    },
    {
        "city": "Manacapuru",
        "state": "AM",
        "district": "São Francisco",
        "street": "Avenida Ribeiro Júnior",
        "zipcode": "69400-365"
    },
    {
        "city": "Manacapuru",
        "state": "AM",
        "district": "São Francisco",
        "street": "Avenida Ribeiro Júnior",
        "zipcode": "69400-383"
    },
    {
        "city": "Manacapuru",
        "state": "AM",
        "district": "São Francisco",
        "street": "Avenida Barão do Rio Branco",
        "zipcode": "69400-350"
    },
    {
        "city": "Manacapuru",
        "state": "AM",
        "district": "São Francisco",
        "street": "Avenida Barão do Rio Branco",
        "zipcode": "69400-377"
    },
    {
        "city": "Manacapuru",
        "state": "AM",
        "district": "Centro",
        "street": "Rua Rio de Janeiro",
        "zipcode": "69400-266"
    },
    {
        "city": "Manacapuru",
        "state": "AM",
        "district": "Aparecida",
        "street": "Beco Coronel Madeira",
        "zipcode": "69400-443"
    },
    {
        "city": "Manacapuru",
        "state": "AM",
        "district": "São Francisco",
        "street": "Beco Presidente Costa e Silva",
        "zipcode": "69400-382"
    },
    {
        "city": "Manacapuru",
        "state": "AM",
        "district": "Aparecida",
        "street": "Beco Regina Fernandes",
        "zipcode": "69400-445"
    },
    {
        "city": "Manacapuru",
        "state": "AM",
        "district": "Correnteza",
        "street": "Rua Beatriz Xavier",
        "zipcode": "69400-032"
    },
    {
        "city": "Manacapuru",
        "state": "AM",
        "district": "Centro",
        "street": "Rua Beira Rio",
        "zipcode": "69400-252"
    },
    {
        "city": "Manacapuru",
        "state": "AM",
        "district": "Correnteza",
        "street": "Travessa Calado",
        "zipcode": "69400-056"
    },
    {
        "city": "Manacapuru",
        "state": "AM",
        "district": "Centro",
        "street": "Rua Cariolano Durand",
        "zipcode": "69400-224"
    },
    {
        "city": "Manacapuru",
        "state": "AM",
        "district": "Correnteza",
        "street": "Rua Cariolano Durand",
        "zipcode": "69400-074"
    },
    {
        "city": "Manacapuru",
        "state": "AM",
        "district": "Centro",
        "street": "Travessa Cariolano Durand",
        "zipcode": "69400-226"
    },
    {
        "city": "Manacapuru",
        "state": "AM",
        "district": "União",
        "street": "Beco Coari I",
        "zipcode": "69401-098"
    },
    {
        "city": "Manacapuru",
        "state": "AM",
        "district": "Centro",
        "street": "Beco do Comércio",
        "zipcode": "69400-250"
    },
    {
        "city": "Manacapuru",
        "state": "AM",
        "district": "Correnteza",
        "street": "Avenida da Correnteza",
        "zipcode": "69400-030"
    },
    {
        "city": "Manacapuru",
        "state": "AM",
        "district": "Centro",
        "street": "Travessa Couto Vale",
        "zipcode": "69400-242"
    },
    {
        "city": "Manacapuru",
        "state": "AM",
        "district": "Centro",
        "street": "Avenida Cristo Rei",
        "zipcode": "69400-256"
    },
    {
        "city": "Manacapuru",
        "state": "AM",
        "district": "Centro",
        "street": "Avenida Cristo Rei",
        "zipcode": "69400-254"
    },
    {
        "city": "Manacapuru",
        "state": "AM",
        "district": "Biribiri",
        "street": "Rua Paulo Jacob",
        "zipcode": "69400-143"
    },
    {
        "city": "Manacapuru",
        "state": "AM",
        "district": "Terra Preta",
        "street": "Avenida Pedro Moura",
        "zipcode": "69401-311"
    },
    {
        "city": "Manacapuru",
        "state": "AM",
        "district": "Centro",
        "street": "Boulevard Pedro Rattes",
        "zipcode": "69400-286"
    },
    {
        "city": "Manacapuru",
        "state": "AM",
        "district": "Centro",
        "street": "Boulevard Pedro Rattes",
        "zipcode": "69400-296"
    },
    {
        "city": "Manacapuru",
        "state": "AM",
        "district": "Centro",
        "street": "Beco Cristo Rei",
        "zipcode": "69400-258"
    },
    {
        "city": "Manacapuru",
        "state": "AM",
        "district": "Biribiri",
        "street": "Travessa José Ventura",
        "zipcode": "69400-113"
    },
    {
        "city": "Manacapuru",
        "state": "AM",
        "district": "Correnteza",
        "street": "Rua Angelus Figueira",
        "zipcode": "69400-046"
    },
    {
        "city": "Manacapuru",
        "state": "AM",
        "district": "Correnteza",
        "street": "Rua Angelus Figueira",
        "zipcode": "69400-040"
    },
    {
        "city": "Manacapuru",
        "state": "AM",
        "district": "Biribiri",
        "street": "Rua Antônio Pacheco Teles",
        "zipcode": "69400-116"
    },
    {
        "city": "Manacapuru",
        "state": "AM",
        "district": "Centro",
        "street": "Rua do Aterro",
        "zipcode": "69400-228"
    },
    {
        "city": "Manacapuru",
        "state": "AM",
        "district": "União",
        "street": "Rua Jutaí",
        "zipcode": "69401-176"
    },
    {
        "city": "Manacapuru",
        "state": "AM",
        "district": "Correnteza",
        "street": "Rua Laranjal",
        "zipcode": "69400-044"
    },
    {
        "city": "Manacapuru",
        "state": "AM",
        "district": "Biribiri",
        "street": "Beco Luciano Galvão",
        "zipcode": "69400-140"
    },
    {
        "city": "Manacapuru",
        "state": "AM",
        "district": "Biribiri",
        "street": "Rua Luciano Galvão",
        "zipcode": "69400-146"
    },
    {
        "city": "Manacapuru",
        "state": "AM",
        "district": "Centro",
        "street": "Travessa Santa Luzia",
        "zipcode": "69400-238"
    },
    {
        "city": "Manacapuru",
        "state": "AM",
        "district": "Morada do Sol",
        "street": "Estrada Manoel Urbano",
        "zipcode": "69402-023"
    },
    {
        "city": "Manacapuru",
        "state": "AM",
        "district": "Biribiri",
        "street": "Rua Marcílio Dias",
        "zipcode": "69400-083"
    },
    {
        "city": "Manacapuru",
        "state": "AM",
        "district": "Biribiri",
        "street": "Rua Marcílio Dias",
        "zipcode": "69400-086"
    },
    {
        "city": "Manacapuru",
        "state": "AM",
        "district": "Centro",
        "street": "Rua Marcílio Dias",
        "zipcode": "69400-222"
    },
    {
        "city": "Manacapuru",
        "state": "AM",
        "district": "Correnteza",
        "street": "Travessa Miriti",
        "zipcode": "69400-052"
    },
    {
        "city": "Manacapuru",
        "state": "AM",
        "district": "Biribiri",
        "street": "Rua Abel",
        "zipcode": "69400-098"
    },
    {
        "city": "Manacapuru",
        "state": "AM",
        "district": "Correnteza",
        "street": "Rua Amazonino Mendes",
        "zipcode": "69400-058"
    },
    {
        "city": "Manacapuru",
        "state": "AM",
        "district": "Correnteza",
        "street": "Rua Tuiué",
        "zipcode": "69400-066"
    },
    {
        "city": "Manacapuru",
        "state": "AM",
        "district": "Correnteza",
        "street": "Travessa Ubim",
        "zipcode": "69400-060"
    },
    {
        "city": "Manacapuru",
        "state": "AM",
        "district": "Centro",
        "street": "Avenida Eduardo Ribeiro",
        "zipcode": "69400-262"
    },
    {
        "city": "Manacapuru",
        "state": "AM",
        "district": "Correnteza",
        "street": "Avenida Eduardo Ribeiro",
        "zipcode": "69400-072"
    },
    {
        "city": "Manacapuru",
        "state": "AM",
        "district": "Terra Preta",
        "street": "Rua Ezanor Ataíde",
        "zipcode": "69401-272"
    },
    {
        "city": "Manacapuru",
        "state": "AM",
        "district": "Centro",
        "street": "Avenida Getúlio Vargas",
        "zipcode": "69400-236"
    },
    {
        "city": "Manacapuru",
        "state": "AM",
        "district": "Biribiri",
        "street": "Avenida Getúlio Vargas",
        "zipcode": "69400-149"
    },
    {
        "city": "Manacapuru",
        "state": "AM",
        "district": "Biribiri",
        "street": "Travessa Isidoro",
        "zipcode": "69400-104"
    },
    {
        "city": "Manacapuru",
        "state": "AM",
        "district": "Biribiri",
        "street": "Rua Joana DÂngelo",
        "zipcode": "69400-122"
    },
    {
        "city": "Manacapuru",
        "state": "AM",
        "district": "Correnteza",
        "street": "Rua São João",
        "zipcode": "69400-050"
    },
    {
        "city": "Manacapuru",
        "state": "AM",
        "district": "Correnteza",
        "street": "Rua do Pesqueiro",
        "zipcode": "69400-038"
    },
    {
        "city": "Manacapuru",
        "state": "AM",
        "district": "Biribiri",
        "street": "Rua da Quadra",
        "zipcode": "69400-131"
    },
    {
        "city": "Manacapuru",
        "state": "AM",
        "district": "Centro",
        "street": "Rua Quintino Bocaiúva",
        "zipcode": "69400-234"
    },
    {
        "city": "Manacapuru",
        "state": "AM",
        "district": "Centro",
        "street": "Rua Rio Grande do Sul",
        "zipcode": "69400-264"
    },
    {
        "city": "Manacapuru",
        "state": "AM",
        "district": "Biribiri",
        "street": "Rua Projetada",
        "zipcode": "69400-134"
    },
    {
        "city": "Manacapuru",
        "state": "AM",
        "district": "Terra Preta",
        "street": "Rua Rio Grande do Sul",
        "zipcode": "69401-236"
    },
    {
        "city": "Manacapuru",
        "state": "AM",
        "district": "São José",
        "street": "Rua Benjamim Roberto",
        "zipcode": "69400-788"
    },
    {
        "city": "Manacapuru",
        "state": "AM",
        "district": "Biribiri",
        "street": "Rua Cariolano Durand",
        "zipcode": "69400-080"
    },
    {
        "city": "Manacapuru",
        "state": "AM",
        "district": "São Francisco",
        "street": "Rua Duque de Caxias",
        "zipcode": "69400-386"
    },
    {
        "city": "Manacapuru",
        "state": "AM",
        "district": "Centro",
        "street": "Rua São João",
        "zipcode": "69400-290"
    },
    {
        "city": "Manacapuru",
        "state": "AM",
        "district": "Liberdade",
        "street": "Rua João de Deus",
        "zipcode": "69400-634"
    },
    {
        "city": "Manacapuru",
        "state": "AM",
        "district": "Centro",
        "street": "Avenida João XXIII",
        "zipcode": "69400-316"
    },
    {
        "city": "Manacapuru",
        "state": "AM",
        "district": "Liberdade",
        "street": "Rua Joaquina Alexandre",
        "zipcode": "69400-517"
    },
    {
        "city": "Manacapuru",
        "state": "AM",
        "district": "Aparecida",
        "street": "Rua Daniel Simões",
        "zipcode": "69400-484"
    },
    {
        "city": "Manacapuru",
        "state": "AM",
        "district": "São José",
        "street": "Rua Daniel Simões",
        "zipcode": "69400-740"
    },
    {
        "city": "Manacapuru",
        "state": "AM",
        "district": "Biribiri",
        "street": "Rua José Fernandes",
        "zipcode": "69400-095"
    },
    {
        "city": "Manacapuru",
        "state": "AM",
        "district": "Liberdade",
        "street": "Rua José Soriano",
        "zipcode": "69400-535"
    },
    {
        "city": "Manacapuru",
        "state": "AM",
        "district": "Biribiri",
        "street": "Beco Antônio Pacheco Teles",
        "zipcode": "69400-119"
    },
    {
        "city": "Manacapuru",
        "state": "AM",
        "district": "São José",
        "street": "Rua Coronel Juvêncio Soriano",
        "zipcode": "69400-812"
    },
    {
        "city": "Manacapuru",
        "state": "AM",
        "district": "União",
        "street": "Rua Coronel Juvêncio Soriano",
        "zipcode": "69401-164"
    },
    {
        "city": "Manacapuru",
        "state": "AM",
        "district": "Liberdade",
        "street": "Travessa Lúcio Portela",
        "zipcode": "69400-625"
    },
    {
        "city": "Manacapuru",
        "state": "AM",
        "district": "Aparecida",
        "street": "Rua Coronel Madeira",
        "zipcode": "69400-442"
    },
    {
        "city": "Manacapuru",
        "state": "AM",
        "district": "Liberdade",
        "street": "Rua Coronel Madeira",
        "zipcode": "69400-496"
    },
    {
        "city": "Manacapuru",
        "state": "AM",
        "district": "Liberdade",
        "street": "Rua Coronel Madeira",
        "zipcode": "69400-580"
    },
    {
        "city": "Manacapuru",
        "state": "AM",
        "district": "São José",
        "street": "Rua Maurício da Cunha Freire",
        "zipcode": "69400-695"
    },
    {
        "city": "Manacapuru",
        "state": "AM",
        "district": "Liberdade",
        "street": "Rua Nice Ventura",
        "zipcode": "69400-607"
    },
    {
        "city": "Manacapuru",
        "state": "AM",
        "district": "São José",
        "street": "Rua 10 de Julho",
        "zipcode": "69400-854"
    },
    {
        "city": "Manacapuru",
        "state": "AM",
        "district": "Centro",
        "street": "Travessa Acre",
        "zipcode": "69400-268"
    },
    {
        "city": "Manacapuru",
        "state": "AM",
        "district": "São Francisco",
        "street": "Rua Adelaide Cabral",
        "zipcode": "69400-422"
    },
    {
        "city": "Manacapuru",
        "state": "AM",
        "district": "São José",
        "street": "Travessa Andiroba",
        "zipcode": "69400-770"
    },
    {
        "city": "Manacapuru",
        "state": "AM",
        "district": "Aparecida",
        "street": "Beco da União",
        "zipcode": "69400-454"
    },
    {
        "city": "Manacapuru",
        "state": "AM",
        "district": "Aparecida",
        "street": "Rua da União",
        "zipcode": "69400-456"
    },
    {
        "city": "Manacapuru",
        "state": "AM",
        "district": "São José",
        "street": "Rua Waldemar Ventura",
        "zipcode": "69400-653"
    },
    {
        "city": "Manacapuru",
        "state": "AM",
        "district": "Centro",
        "street": "Avenida Eduardo Ribeiro",
        "zipcode": "69400-260"
    },
    {
        "city": "Manacapuru",
        "state": "AM",
        "district": "Centro",
        "street": "Avenida Eduardo Ribeiro",
        "zipcode": "69400-248"
    },
    {
        "city": "Manacapuru",
        "state": "AM",
        "district": "São José",
        "street": "Rua Ezanor Ataíde",
        "zipcode": "69400-827"
    },
    {
        "city": "Manacapuru",
        "state": "AM",
        "district": "Centro",
        "street": "Avenida Getúlio Vargas",
        "zipcode": "69400-220"
    },
    {
        "city": "Manacapuru",
        "state": "AM",
        "district": "Liberdade",
        "street": "Rua Gilberto Mestrinho",
        "zipcode": "69400-559"
    },
    {
        "city": "Manacapuru",
        "state": "AM",
        "district": "Liberdade",
        "street": "Rua Joana Darc",
        "zipcode": "69400-592"
    },
    {
        "city": "Manacapuru",
        "state": "AM",
        "district": "Centro",
        "street": "Rua Quintino Bocaiúva",
        "zipcode": "69400-232"
    },
    {
        "city": "Manacapuru",
        "state": "AM",
        "district": "São Francisco",
        "street": "Avenida Padre Rafael",
        "zipcode": "69400-407"
    },
    {
        "city": "Manacapuru",
        "state": "AM",
        "district": "São José",
        "street": "Rua Raimundo Pacheco Teles",
        "zipcode": "69400-713"
    },
    {
        "city": "Manacapuru",
        "state": "AM",
        "district": "São Francisco",
        "street": "Avenida Ribeiro Júnior",
        "zipcode": "69400-371"
    },
    {
        "city": "Manacapuru",
        "state": "AM",
        "district": "Centro",
        "street": "Avenida Barão do Rio Branco",
        "zipcode": "69400-240"
    },
    {
        "city": "Manacapuru",
        "state": "AM",
        "district": "Centro",
        "street": "Avenida Barão do Rio Branco",
        "zipcode": "69400-342"
    },
    {
        "city": "Manacapuru",
        "state": "AM",
        "district": "Centro",
        "street": "Avenida Eduardo Ribeiro",
        "zipcode": "69400-900"
    },
    {
        "city": "Manacapuru",
        "state": "AM",
        "district": "Nova Manacá",
        "street": "Travessa Paulo Freire (Com Herdeiros)",
        "zipcode": "69401-788"
    },
    {
        "city": "Manacapuru",
        "state": "AM",
        "district": "Morada do Sol",
        "street": "Rua 1 (Cj E Braga II)",
        "zipcode": "69402-123"
    },
    {
        "city": "Manacapuru",
        "state": "AM",
        "district": "Biribiri",
        "street": "Rua João Melo",
        "zipcode": "69400-101"
    },
    {
        "city": "Manacapuru",
        "state": "AM",
        "district": "Morada do Sol",
        "street": "Travessa 4 (Lot D Lia)",
        "zipcode": "69402-135"
    },
    {
        "city": "Manacapuru",
        "state": "AM",
        "district": "São José",
        "street": "Rua Osvaldo Cruz",
        "zipcode": "69400-842"
    },
    {
        "city": "Manacapuru",
        "state": "AM",
        "district": "Morada do Sol",
        "street": "Rua Rio Anamã (Lot L Azul)",
        "zipcode": "69402-256"
    },
    {
        "city": "Manacapuru",
        "state": "AM",
        "district": "Correnteza",
        "street": "Travessa Geraldo Valente",
        "zipcode": "69400-034"
    },
    {
        "city": "Manacapuru",
        "state": "AM",
        "district": "Morada do Sol",
        "street": "Beco Nilson Atayde",
        "zipcode": "69402-075"
    },
    {
        "city": "Manacapuru",
        "state": "AM",
        "district": "Biribiri",
        "street": "Rua João Lélis",
        "zipcode": "69400-092"
    },
    {
        "city": "Manacapuru",
        "state": "AM",
        "district": "Biribiri",
        "street": "Beco Olímpio Campos",
        "zipcode": "69400-125"
    },
    {
        "city": "Manacapuru",
        "state": "AM",
        "district": "Morada do Sol",
        "street": "Rua Rio Purus (Lot L Azul)",
        "zipcode": "69402-271"
    },
    {
        "city": "Manacapuru",
        "state": "AM",
        "district": "Correnteza",
        "street": "Avenida da Correnteza",
        "zipcode": "69400-054"
    },
    {
        "city": "Manacapuru",
        "state": "AM",
        "district": "Morada do Sol",
        "street": "Travessa Cristiane Azevedo",
        "zipcode": "69402-093"
    },
    {
        "city": "Manacapuru",
        "state": "AM",
        "district": "Terra Preta",
        "street": "Boulevard Pedro Rattes",
        "zipcode": "69401-233"
    },
    {
        "city": "Manacapuru",
        "state": "AM",
        "district": "União",
        "street": "Rua Dom João",
        "zipcode": "69401-023"
    },
    {
        "city": "Manacapuru",
        "state": "AM",
        "district": "São José",
        "street": "Rua Tenente Edilson",
        "zipcode": "69400-668"
    },
    {
        "city": "Manacapuru",
        "state": "AM",
        "district": "Correnteza",
        "street": "Travessa Angelus Figueira",
        "zipcode": "69400-042"
    },
    {
        "city": "Manacapuru",
        "state": "AM",
        "district": "São José",
        "street": "Rua Coronel Juvêncio Soriano",
        "zipcode": "69400-872"
    },
    {
        "city": "Manacapuru",
        "state": "AM",
        "district": "Liberdade",
        "street": "Rua Coronel Madeira",
        "zipcode": "69400-493"
    },
    {
        "city": "Manacapuru",
        "state": "AM",
        "district": "Terra Preta",
        "street": "Estrada Manoel Urbano",
        "zipcode": "69401-490"
    },
    {
        "city": "Manacapuru",
        "state": "AM",
        "district": "Morada do Sol",
        "street": "Estrada Manoel Urbano",
        "zipcode": "69402-220"
    },
    {
        "city": "Manacapuru",
        "state": "AM",
        "district": "Centro",
        "street": "Beco Adolfo Cavalcante",
        "zipcode": "69400-302"
    },
    {
        "city": "Manacapuru",
        "state": "AM",
        "district": "Aparecida",
        "street": "Rua Adolfo Cavalcante",
        "zipcode": "69400-444"
    },
    {
        "city": "Manacapuru",
        "state": "AM",
        "district": "Centro",
        "street": "Rua Almirante Tamandaré",
        "zipcode": "69400-306"
    },
    {
        "city": "Manacapuru",
        "state": "AM",
        "district": "Terra Preta",
        "street": "Travessa Valinda Gomes Afonso",
        "zipcode": "69401-365"
    },
    {
        "city": "Manacapuru",
        "state": "AM",
        "district": "São José",
        "street": "Rua Virgílio Barroso Alexandre",
        "zipcode": "69400-683"
    },
    {
        "city": "Manacapuru",
        "state": "AM",
        "district": "São José",
        "street": "Rua Waldemar Ventura",
        "zipcode": "69400-746"
    },
    {
        "city": "Manacapuru",
        "state": "AM",
        "district": "Correnteza",
        "street": "Rua Solimões",
        "zipcode": "69400-064"
    },
    {
        "city": "Manacapuru",
        "state": "AM",
        "district": "Biribiri",
        "street": "Rua Francisco Pacheco Teles",
        "zipcode": "69400-110"
    },
    {
        "city": "Manacapuru",
        "state": "AM",
        "district": "São José",
        "street": "Rua Gonçalves Lemos",
        "zipcode": "69400-845"
    },
    {
        "city": "Manacapuru",
        "state": "AM",
        "district": "Correnteza",
        "street": "Rua Iauara",
        "zipcode": "69400-070"
    },
    {
        "city": "Manacapuru",
        "state": "AM",
        "district": "Centro",
        "street": "Boulevard Pedro Rattes",
        "zipcode": "69400-904"
    },
    {
        "city": "Manacapuru",
        "state": "AM",
        "district": "Centro",
        "street": "Rua Paulo Jacob",
        "zipcode": "69400-338"
    },
    {
        "city": "Manacapuru",
        "state": "AM",
        "district": "Centro",
        "street": "Boulevard Pedro Rattes",
        "zipcode": "69400-282"
    },
    {
        "city": "Manacapuru",
        "state": "AM",
        "district": "São José",
        "street": "Boulevard Pedro Rattes",
        "zipcode": "69400-755"
    },
    {
        "city": "Manacapuru",
        "state": "AM",
        "district": "São José",
        "street": "Boulevard Pedro Rattes",
        "zipcode": "69400-800"
    },
    {
        "city": "Manacapuru",
        "state": "AM",
        "district": "União",
        "street": "Rua Etelvina Gadelha",
        "zipcode": "69401-194"
    },
    {
        "city": "Manacapuru",
        "state": "AM",
        "district": "Nova Manacá",
        "street": "Travessa João Cândido",
        "zipcode": "69401-820"
    },
    {
        "city": "Manacapuru",
        "state": "AM",
        "district": "Centro",
        "street": "Travessa Padre Rafael III",
        "zipcode": "69400-326"
    },
    {
        "city": "Manacapuru",
        "state": "AM",
        "district": "Terra Preta",
        "street": "Rua de Acesso 2 (Cj Res Frazão)",
        "zipcode": "69401-514"
    },
    {
        "city": "Manacapuru",
        "state": "AM",
        "district": "Morada do Sol",
        "street": "Rua 6 (Lot Sto Antônio)",
        "zipcode": "69402-576"
    },
    {
        "city": "Manacapuru",
        "state": "AM",
        "district": "Morada do Sol",
        "street": "Rua 4 (Lot Sto Antônio)",
        "zipcode": "69402-564"
    },
    {
        "city": "Manacapuru",
        "state": "AM",
        "district": "Vale Verde",
        "street": "Travessa 4",
        "zipcode": "69403-592"
    },
    {
        "city": "Manacapuru",
        "state": "AM",
        "district": "Morada do Sol",
        "street": "Rua 3 (Lot Sto Antônio)",
        "zipcode": "69402-567"
    },
    {
        "city": "Manacapuru",
        "state": "AM",
        "district": "Morada do Sol",
        "street": "Rua B (Lot D Fiel",
        "zipcode": "69402-381"
    },
    {
        "city": "Manacapuru",
        "state": "AM",
        "district": "Morada do Sol",
        "street": "Avenida Uirapuru (Lot Sto Antônio)",
        "zipcode": "69402-558"
    },
    {
        "city": "Manacapuru",
        "state": "AM",
        "district": "Morada do Sol",
        "street": "Rua Maguari (Lot Sto Antônio)",
        "zipcode": "69402-525"
    },
    {
        "city": "Manacapuru",
        "state": "AM",
        "district": "Morada do Sol",
        "street": "Rua Papagaios (Lot Sto Antônio)",
        "zipcode": "69402-543"
    },
    {
        "city": "Manacapuru",
        "state": "AM",
        "district": "Nova Manacá",
        "street": "Rua Vasconcelos (Com Herdeiros)",
        "zipcode": "69401-786"
    },
    {
        "city": "Manacapuru",
        "state": "AM",
        "district": "Morada do Sol",
        "street": "Rua 2 (Lot Sto Antônio)",
        "zipcode": "69402-570"
    },
    {
        "city": "Manacapuru",
        "state": "AM",
        "district": "Aparecida",
        "street": "Rua Nova Vitória",
        "zipcode": "69400-478"
    },
    {
        "city": "Manacapuru",
        "state": "AM",
        "district": "Nova Manacá",
        "street": "Rua Edimilson Teles",
        "zipcode": "69401-828"
    },
    {
        "city": "Manacapuru",
        "state": "AM",
        "district": "Terra Preta",
        "street": "Rua Etelvina Gadelha",
        "zipcode": "69401-329"
    },
    {
        "city": "Manacapuru",
        "state": "AM",
        "district": "Liberdade",
        "street": "Rua Professor Francisco Bezerra Filho",
        "zipcode": "69400-628"
    },
    {
        "city": "Manacapuru",
        "state": "AM",
        "district": "Morada do Sol",
        "street": "Rua Rio Madeira (Lot L Azul)",
        "zipcode": "69402-265"
    },
    {
        "city": "Manacapuru",
        "state": "AM",
        "district": "Morada do Sol",
        "street": "Rua Rio Juruá (Lot L Azul)",
        "zipcode": "69402-268"
    },
    {
        "city": "Manacapuru",
        "state": "AM",
        "district": "Terra Preta",
        "street": "Rua Projetada III",
        "zipcode": "69401-254"
    },
    {
        "city": "Manacapuru",
        "state": "AM",
        "district": "Vale Verde",
        "street": "Rua Ponta do Vento",
        "zipcode": "69403-649"
    },
    {
        "city": "Manacapuru",
        "state": "AM",
        "district": "Morada do Sol",
        "street": "Avenida Gavião Real (Lot Sto Antônio)",
        "zipcode": "69402-528"
    },
    {
        "city": "Manacapuru",
        "state": "AM",
        "district": "Nova Manacá",
        "street": "Rua Eliádio Albuquerque",
        "zipcode": "69401-810"
    },
    {
        "city": "Manacapuru",
        "state": "AM",
        "district": "Morada do Sol",
        "street": "Travessa 8 (Lot D Fiel)",
        "zipcode": "69402-396"
    },
    {
        "city": "Manacapuru",
        "state": "AM",
        "district": "Morada do Sol",
        "street": "Rua Rio Javari (Lot L Azul)",
        "zipcode": "69402-262"
    },
    {
        "city": "Manacapuru",
        "state": "AM",
        "district": "Terra Preta",
        "street": "Ramal Madeiral",
        "zipcode": "69401-550"
    },
    {
        "city": "Manacapuru",
        "state": "AM",
        "district": "União",
        "street": "Rua Dom Gutemberg",
        "zipcode": "69401-038"
    },
    {
        "city": "Manacapuru",
        "state": "AM",
        "district": "Vale Verde",
        "street": "Beco Doutor João",
        "zipcode": "69403-661"
    },
    {
        "city": "Manacapuru",
        "state": "AM",
        "district": "Centro",
        "street": "Rua Adolfo Cavalcante",
        "zipcode": "69400-300"
    },
    {
        "city": "Manacapuru",
        "state": "AM",
        "district": "São José",
        "street": "Rua Virgílio Barroso Alexandre",
        "zipcode": "69400-758"
    },
    {
        "city": "Manacapuru",
        "state": "AM",
        "district": "Área Rural de Manacapuru",
        "street": "Área Rural",
        "zipcode": "69409-899"
    },
    {
        "city": "Manacapuru",
        "state": "AM",
        "district": "Terra Preta",
        "street": "Rua José Afonso",
        "zipcode": "69401-332"
    },
    {
        "city": "Manacapuru",
        "state": "AM",
        "district": "São Francisco",
        "street": "Rua José Bonifácio",
        "zipcode": "69400-395"
    },
    {
        "city": "Manacapuru",
        "state": "AM",
        "district": "Biribiri",
        "street": "Rua José da Luz",
        "zipcode": "69400-089"
    },
    {
        "city": "Manacapuru",
        "state": "AM",
        "district": "União",
        "street": "Rua Rio Solimões",
        "zipcode": "69401-026"
    },
    {
        "city": "Manacapuru",
        "state": "AM",
        "district": "São José",
        "street": "Rua Rui Barbosa",
        "zipcode": "69400-848"
    },
    {
        "city": "Manacapuru",
        "state": "AM",
        "district": "Liberdade",
        "street": "Rua Auxiliadora Vasconcelos",
        "zipcode": "69400-499"
    },
    {
        "city": "Manacapuru",
        "state": "AM",
        "district": "Aparecida",
        "street": "Travessa Barcelos",
        "zipcode": "69400-464"
    },
    {
        "city": "Manacapuru",
        "state": "AM",
        "district": "Correnteza",
        "street": "Rua Bela Vista",
        "zipcode": "69400-062"
    },
    {
        "city": "Manacapuru",
        "state": "AM",
        "district": "Aparecida",
        "street": "Boulevard Pedro Rattes",
        "zipcode": "69400-450"
    },
    {
        "city": "Manacapuru",
        "state": "AM",
        "district": "São José",
        "street": "Rua Parintins",
        "zipcode": "69400-806"
    },
    {
        "city": "Manacapuru",
        "state": "AM",
        "district": "São Francisco",
        "street": "Avenida João XXIII",
        "zipcode": "69400-431"
    },
    {
        "city": "Manacapuru",
        "state": "AM",
        "district": "Nova Manacá",
        "street": "Estrada Manoel Urbano",
        "zipcode": "69401-562"
    },
    {
        "city": "Manacapuru",
        "state": "AM",
        "district": "Morada do Sol",
        "street": "Estrada Manoel Urbano",
        "zipcode": "69402-292"
    },
    {
        "city": "Manacapuru",
        "state": "AM",
        "district": "União",
        "street": "Rua 10 de Julho",
        "zipcode": "69401-074"
    },
    {
        "city": "Manacapuru",
        "state": "AM",
        "district": "São José",
        "street": "Rua Virgílio Barroso Alexandre",
        "zipcode": "69400-725"
    },
    {
        "city": "Manacapuru",
        "state": "AM",
        "district": "União",
        "street": "Travessa Silves I",
        "zipcode": "69401-158"
    },
    {
        "city": "Manacapuru",
        "state": "AM",
        "district": "Centro",
        "street": "Avenida Ribeiro Júnior",
        "zipcode": "69400-244"
    },
    {
        "city": "Manacapuru",
        "state": "AM",
        "district": "Aparecida",
        "street": "Boulevard Pedro Rattes",
        "zipcode": "69400-970"
    },
    {
        "city": "Manacapuru",
        "state": "AM",
        "district": "Morada do Sol",
        "street": "Rua Rio Negro (Lot S Roberto)",
        "zipcode": "69402-283"
    },
    {
        "city": "Manacapuru",
        "state": "AM",
        "district": "Morada do Sol",
        "street": "Rua Rio Solimões (Lot L Azul)",
        "zipcode": "69402-253"
    },
    {
        "city": "Manacapuru",
        "state": "AM",
        "district": "Vale Verde",
        "street": "Beco São José",
        "zipcode": "69403-658"
    }
]