[
    {
        "city": "Parintins",
        "state": "AM",
        "district": "Jose Esteves",
        "street": "Rua Lister Achao",
        "zipcode": "69152-210"
    },
    {
        "city": "Parintins",
        "state": "AM",
        "district": "Sao Benedito",
        "street": "Beco Carvalho Leal",
        "zipcode": "69152-100"
    },
    {
        "city": "Parintins",
        "state": "AM",
        "district": "Vitória Régia",
        "street": "Avenida Tereza Ribeiro (Cj V Régia)",
        "zipcode": "69151-704"
    },
    {
        "city": "Parintins",
        "state": "AM",
        "district": "Teixeirão",
        "street": "Rua Y",
        "zipcode": "69152-093"
    },
    {
        "city": "Parintins",
        "state": "AM",
        "district": "Centro",
        "street": "Praça Eduardo Ribeiro",
        "zipcode": "69151-271"
    },
    {
        "city": "Parintins",
        "state": "AM",
        "district": "Vitória Régia",
        "street": "Rua José Prestes ( Cj V Régia)",
        "zipcode": "69151-714"
    },
    {
        "city": "Parintins",
        "state": "AM",
        "district": "Lady Laura",
        "street": "Rua Andirás",
        "zipcode": "69152-301"
    },
    {
        "city": "Parintins",
        "state": "AM",
        "district": "Centro",
        "street": "Praça Quatorze de Maio",
        "zipcode": "69151-181"
    },
    {
        "city": "Parintins",
        "state": "AM",
        "district": "Santa Clara",
        "street": "Rua Joaquim Prestes Azedo",
        "zipcode": "69151-100"
    },
    {
        "city": "Parintins",
        "state": "AM",
        "district": "Vitória Régia",
        "street": "Rua Souza Filho (Cj V Régia)",
        "zipcode": "69151-710"
    },
    {
        "city": "Parintins",
        "state": "AM",
        "district": "Paulo Correa",
        "street": "Rua Santa Ana",
        "zipcode": "69152-060"
    },
    {
        "city": "Parintins",
        "state": "AM",
        "district": "Nossa Senhora de Nazaré",
        "street": "Rua Padre Sílvio Mioto",
        "zipcode": "69153-515"
    },
    {
        "city": "Parintins",
        "state": "AM",
        "district": "União",
        "street": "Rua 10",
        "zipcode": "69152-581"
    },
    {
        "city": "Parintins",
        "state": "AM",
        "district": "Santa Rita De Cassia",
        "street": "Rua Eulina Farias",
        "zipcode": "69153-320"
    },
    {
        "city": "Parintins",
        "state": "AM",
        "district": "Castanheira",
        "street": "Rua Carlos Brandão",
        "zipcode": "69153-305"
    },
    {
        "city": "Parintins",
        "state": "AM",
        "district": "Sao Francisco De Assis",
        "street": "Rua Dr Afonso Maranhao",
        "zipcode": "69152-720"
    },
    {
        "city": "Parintins",
        "state": "AM",
        "district": "Raimundo Muniz",
        "street": "Rua Murici (Cj Macurany)",
        "zipcode": "69151-434"
    },
    {
        "city": "Parintins",
        "state": "AM",
        "district": "Vitória Régia",
        "street": "Rua Francisco Xavier (Cj V Régia)",
        "zipcode": "69151-708"
    },
    {
        "city": "Parintins",
        "state": "AM",
        "district": "Itaúna II",
        "street": "Rua 24 de Maio",
        "zipcode": "69152-120"
    },
    {
        "city": "Parintins",
        "state": "AM",
        "district": "Paulo Correa",
        "street": "Rua José Xavier de Lima",
        "zipcode": "69152-075"
    },
    {
        "city": "Parintins",
        "state": "AM",
        "district": "Santa Clara",
        "street": "Rua Portugal",
        "zipcode": "69151-675"
    },
    {
        "city": "Parintins",
        "state": "AM",
        "district": "Teixeirão",
        "street": "Rua Ayrton Senna",
        "zipcode": "69152-108"
    },
    {
        "city": "Parintins",
        "state": "AM",
        "district": "Raimundo Muniz",
        "street": "Avenida Nações Unidas",
        "zipcode": "69151-454"
    },
    {
        "city": "Parintins",
        "state": "AM",
        "district": "Raimundo Muniz",
        "street": "Rua Alberto Mendes",
        "zipcode": "69151-462"
    },
    {
        "city": "Parintins",
        "state": "AM",
        "district": "Raimundo Muniz",
        "street": "Rua Mozart de Freitas",
        "zipcode": "69151-472"
    },
    {
        "city": "Parintins",
        "state": "AM",
        "district": "Francesa",
        "street": "Rua Silva Campos",
        "zipcode": "69151-482"
    },
    {
        "city": "Parintins",
        "state": "AM",
        "district": "Centro",
        "street": "Beco Hortulano",
        "zipcode": "69151-213"
    },
    {
        "city": "Parintins",
        "state": "AM",
        "district": "Centro",
        "street": "Rua Trinta e Um de Março",
        "zipcode": "69151-250"
    },
    {
        "city": "Parintins",
        "state": "AM",
        "district": "Área Rural de Parintins",
        "street": "Área Rural",
        "zipcode": "69157-899"
    },
    {
        "city": "Parintins",
        "state": "AM",
        "district": "Pascal Alárgio",
        "street": "Avenida Brasil",
        "zipcode": "69152-593"
    },
    {
        "city": "Parintins",
        "state": "AM",
        "district": "São Benedito",
        "street": "Avenida Amazonas",
        "zipcode": "69151-540"
    },
    {
        "city": "Parintins",
        "state": "AM",
        "district": "São Benedito",
        "street": "Rua Farias Neto",
        "zipcode": "69151-547"
    },
    {
        "city": "Parintins",
        "state": "AM",
        "district": "São Benedito",
        "street": "Rua Rui Araújo",
        "zipcode": "69151-548"
    },
    {
        "city": "Parintins",
        "state": "AM",
        "district": "Nossa Senhora de Nazaré",
        "street": "Travessa 15 de Outubro",
        "zipcode": "69153-484"
    },
    {
        "city": "Parintins",
        "state": "AM",
        "district": "São Vicente de Paula",
        "street": "Rua Agostinho Cunha",
        "zipcode": "69153-430"
    },
    {
        "city": "Parintins",
        "state": "AM",
        "district": "Centro",
        "street": "Rua Benjamim da Silva",
        "zipcode": "69151-270"
    },
    {
        "city": "Parintins",
        "state": "AM",
        "district": "Centro",
        "street": "Rua Caetano Prestes",
        "zipcode": "69151-310"
    },
    {
        "city": "Parintins",
        "state": "AM",
        "district": "São Benedito",
        "street": "Rua Coronel Araújo",
        "zipcode": "69151-546"
    },
    {
        "city": "Parintins",
        "state": "AM",
        "district": "Centro",
        "street": "Rua Coronel José Augusto",
        "zipcode": "69151-300"
    },
    {
        "city": "Parintins",
        "state": "AM",
        "district": "Santa Clara",
        "street": "Rua Eurípedes Prado",
        "zipcode": "69151-690"
    },
    {
        "city": "Parintins",
        "state": "AM",
        "district": "Centro",
        "street": "Rua Faria Netto",
        "zipcode": "69151-320"
    },
    {
        "city": "Parintins",
        "state": "AM",
        "district": "Santa Clara",
        "street": "Rua Francisco Belém",
        "zipcode": "69151-640"
    },
    {
        "city": "Parintins",
        "state": "AM",
        "district": "Paulo Correa",
        "street": "Rua Santa Terezinha",
        "zipcode": "69152-065"
    },
    {
        "city": "Parintins",
        "state": "AM",
        "district": "Centro",
        "street": "Beco Independência",
        "zipcode": "69151-380"
    },
    {
        "city": "Parintins",
        "state": "AM",
        "district": "Centro",
        "street": "Passagem Independência",
        "zipcode": "69151-400"
    },
    {
        "city": "Parintins",
        "state": "AM",
        "district": "Santa Clara",
        "street": "Rua Izabel Belém",
        "zipcode": "69151-660"
    },
    {
        "city": "Parintins",
        "state": "AM",
        "district": "Santa Clara",
        "street": "Rua Joaquim Prestes Azedo",
        "zipcode": "69151-630"
    },
    {
        "city": "Parintins",
        "state": "AM",
        "district": "São José Operário",
        "street": "Rua Lister Achão",
        "zipcode": "69151-574"
    },
    {
        "city": "Parintins",
        "state": "AM",
        "district": "Santa Clara",
        "street": "Rua Luiz Gonzaga",
        "zipcode": "69151-695"
    },
    {
        "city": "Parintins",
        "state": "AM",
        "district": "Vitória Régia",
        "street": "Rua Alcides Seixas ( Cj V Régia)",
        "zipcode": "69151-718"
    },
    {
        "city": "Parintins",
        "state": "AM",
        "district": "Vitória Régia",
        "street": "Rua Domingos Prestes (Cj V Régia)",
        "zipcode": "69151-716"
    },
    {
        "city": "Parintins",
        "state": "AM",
        "district": "Vitória Régia",
        "street": "Rua Padre Jorge Frezzine",
        "zipcode": "69151-732"
    },
    {
        "city": "Parintins",
        "state": "AM",
        "district": "Castanheira",
        "street": "Rua da Felicidade",
        "zipcode": "69153-310"
    },
    {
        "city": "Parintins",
        "state": "AM",
        "district": "Raimundo Muniz",
        "street": "Rua Batucada",
        "zipcode": "69151-416"
    },
    {
        "city": "Parintins",
        "state": "AM",
        "district": "Nossa Senhora de Nazaré",
        "street": "Rua Maués",
        "zipcode": "69153-520"
    },
    {
        "city": "Parintins",
        "state": "AM",
        "district": "Emílio Moreira",
        "street": "Rua Mozart de Freitas",
        "zipcode": "69153-380"
    },
    {
        "city": "Parintins",
        "state": "AM",
        "district": "Santa Clara",
        "street": "Avenida Nakauth",
        "zipcode": "69151-670"
    },
    {
        "city": "Parintins",
        "state": "AM",
        "district": "São José Operário",
        "street": "Rua Oneldes Martins",
        "zipcode": "69151-585"
    },
    {
        "city": "Parintins",
        "state": "AM",
        "district": "Centro",
        "street": "Beco Oriental",
        "zipcode": "69151-390"
    },
    {
        "city": "Parintins",
        "state": "AM",
        "district": "São José Operário",
        "street": "Rua Padre Jorge Frezzine",
        "zipcode": "69151-570"
    },
    {
        "city": "Parintins",
        "state": "AM",
        "district": "Santa Clara",
        "street": "Rua Padre Martins",
        "zipcode": "69151-650"
    },
    {
        "city": "Parintins",
        "state": "AM",
        "district": "Raimundo Muniz",
        "street": "Rua Pajurá (Cj Macurany)",
        "zipcode": "69151-410"
    },
    {
        "city": "Parintins",
        "state": "AM",
        "district": "Raimundo Muniz",
        "street": "Rua Pedro Gonçalves",
        "zipcode": "69151-450"
    },
    {
        "city": "Parintins",
        "state": "AM",
        "district": "Santa Clara",
        "street": "Rua Quinta da Boa Vista",
        "zipcode": "69151-620"
    },
    {
        "city": "Parintins",
        "state": "AM",
        "district": "São José Operário",
        "street": "Rua Raimundo Almada",
        "zipcode": "69151-583"
    },
    {
        "city": "Parintins",
        "state": "AM",
        "district": "São José Operário",
        "street": "Rua Ruy Araújo",
        "zipcode": "69151-560"
    },
    {
        "city": "Parintins",
        "state": "AM",
        "district": "Centro",
        "street": "Rua Ruy Barbosa",
        "zipcode": "69151-260"
    },
    {
        "city": "Parintins",
        "state": "AM",
        "district": "Santa Clara",
        "street": "Rua Venezuela",
        "zipcode": "69151-645"
    },
    {
        "city": "Parintins",
        "state": "AM",
        "district": "Centro",
        "street": "Rua Vieira Júnior",
        "zipcode": "69151-290"
    },
    {
        "city": "Parintins",
        "state": "AM",
        "district": "Palmares",
        "street": "Rua 7 de Setembro",
        "zipcode": "69153-040"
    },
    {
        "city": "Parintins",
        "state": "AM",
        "district": "São José Operário",
        "street": "Rampa Vicente Reis",
        "zipcode": "69151-562"
    },
    {
        "city": "Parintins",
        "state": "AM",
        "district": "Santa Clara",
        "street": "Rua Pena Ribeiro",
        "zipcode": "69151-625"
    },
    {
        "city": "Parintins",
        "state": "AM",
        "district": "São José Operário",
        "street": "Rua Lindolfo Monte Verde",
        "zipcode": "69151-550"
    },
    {
        "city": "Parintins",
        "state": "AM",
        "district": "São José Operário",
        "street": "Rua Coronel Barreto Batista",
        "zipcode": "69151-580"
    },
    {
        "city": "Parintins",
        "state": "AM",
        "district": "São José Operário",
        "street": "Beco Cico",
        "zipcode": "69151-581"
    },
    {
        "city": "Parintins",
        "state": "AM",
        "district": "Santa Clara",
        "street": "Rua Luiz Vieira",
        "zipcode": "69151-633"
    },
    {
        "city": "Parintins",
        "state": "AM",
        "district": "Santa Clara",
        "street": "Rua Gonçalves Nina",
        "zipcode": "69151-682"
    },
    {
        "city": "Parintins",
        "state": "AM",
        "district": "Palmares",
        "street": "Rua Padre Victor",
        "zipcode": "69153-160"
    },
    {
        "city": "Parintins",
        "state": "AM",
        "district": "Paulo Correa",
        "street": "Rua João Neto",
        "zipcode": "69152-078"
    },
    {
        "city": "Parintins",
        "state": "AM",
        "district": "Paulo Correa",
        "street": "Avenida Geny Bentes",
        "zipcode": "69152-087"
    },
    {
        "city": "Parintins",
        "state": "AM",
        "district": "Itaúna II",
        "street": "Avenida Geny Bentes",
        "zipcode": "69152-203"
    },
    {
        "city": "Parintins",
        "state": "AM",
        "district": "Jacareacanga",
        "street": "Rua Massaranduba",
        "zipcode": "69152-260"
    },
    {
        "city": "Parintins",
        "state": "AM",
        "district": "Nossa Senhora de Nazaré",
        "street": "Rua 7 de Setembro",
        "zipcode": "69153-514"
    },
    {
        "city": "Parintins",
        "state": "AM",
        "district": "Nossa Senhora de Nazaré",
        "street": "Rua Nhamundá",
        "zipcode": "69153-518"
    },
    {
        "city": "Parintins",
        "state": "AM",
        "district": "Emílio Moreira",
        "street": "Rua Paraíba",
        "zipcode": "69153-365"
    },
    {
        "city": "Parintins",
        "state": "AM",
        "district": "Emílio Moreira",
        "street": "Rua Barreirinha",
        "zipcode": "69153-367"
    },
    {
        "city": "Parintins",
        "state": "AM",
        "district": "Centro",
        "street": "Praça da Catedral",
        "zipcode": "69151-001"
    },
    {
        "city": "Parintins",
        "state": "AM",
        "district": "Centro",
        "street": "Rua Clarindo Chaves",
        "zipcode": "69151-040"
    },
    {
        "city": "Parintins",
        "state": "AM",
        "district": "Centro",
        "street": "Rua Cordovil",
        "zipcode": "69151-120"
    },
    {
        "city": "Parintins",
        "state": "AM",
        "district": "Centro",
        "street": "Rua Getúlio Vargas",
        "zipcode": "69151-080"
    },
    {
        "city": "Parintins",
        "state": "AM",
        "district": "Centro",
        "street": "Rua Governador Leopoldo Neves",
        "zipcode": "69151-065"
    },
    {
        "city": "Parintins",
        "state": "AM",
        "district": "Centro",
        "street": "Rua Jônathas Pedrosa",
        "zipcode": "69151-030"
    },
    {
        "city": "Parintins",
        "state": "AM",
        "district": "Centro",
        "street": "Rua José Luiz de Menezes",
        "zipcode": "69151-190"
    },
    {
        "city": "Parintins",
        "state": "AM",
        "district": "Centro",
        "street": "Avenida Paes de Andrade",
        "zipcode": "69151-200"
    },
    {
        "city": "Parintins",
        "state": "AM",
        "district": "Centro",
        "street": "Rua Senador Álvaro Maia",
        "zipcode": "69151-230"
    },
    {
        "city": "Parintins",
        "state": "AM",
        "district": "Centro",
        "street": "Rua Marechal Castelo Branco",
        "zipcode": "69151-240"
    },
    {
        "city": "Parintins",
        "state": "AM",
        "district": "Centro",
        "street": "Rua Sá Peixoto",
        "zipcode": "69151-220"
    },
    {
        "city": "Parintins",
        "state": "AM",
        "district": "Centro",
        "street": "Rua Gomes de Castro",
        "zipcode": "69151-090"
    },
    {
        "city": "Parintins",
        "state": "AM",
        "district": "Lady Laura",
        "street": "Rua Sateres",
        "zipcode": "69152-304"
    },
    {
        "city": "Parintins",
        "state": "AM",
        "district": "Centro",
        "street": "Praça da Amizade",
        "zipcode": "69151-261"
    },
    {
        "city": "Parintins",
        "state": "AM",
        "district": "São Benedito",
        "street": "Passagem Camarão",
        "zipcode": "69151-534"
    },
    {
        "city": "Parintins",
        "state": "AM",
        "district": "Centro",
        "street": "Avenida Armando Prado",
        "zipcode": "69151-010"
    },
    {
        "city": "Parintins",
        "state": "AM",
        "district": "Raimundo Muniz",
        "street": "Rua Piquiá (Cj Macurany)",
        "zipcode": "69151-427"
    },
    {
        "city": "Parintins",
        "state": "AM",
        "district": "Vitória Régia",
        "street": "Rua Pichita Cohen (Cj V Régia)",
        "zipcode": "69151-702"
    },
    {
        "city": "Parintins",
        "state": "AM",
        "district": "Raimundo Muniz",
        "street": "Rua Uixi (Cj Macurany)",
        "zipcode": "69151-424"
    },
    {
        "city": "Parintins",
        "state": "AM",
        "district": "Raimundo Muniz",
        "street": "Rua Buriti (Cj Macurany)",
        "zipcode": "69151-417"
    },
    {
        "city": "Parintins",
        "state": "AM",
        "district": "Centro",
        "street": "Praça Cristo Redentor",
        "zipcode": "69151-301"
    },
    {
        "city": "Parintins",
        "state": "AM",
        "district": "Raimundo Muniz",
        "street": "Rua Ingá (Cj Macurany)",
        "zipcode": "69151-432"
    },
    {
        "city": "Parintins",
        "state": "AM",
        "district": "Centro",
        "street": "Praça Sagrado Coração",
        "zipcode": "69151-291"
    },
    {
        "city": "Parintins",
        "state": "AM",
        "district": "Itaúna II",
        "street": "Rua Professor Aldair Kimura",
        "zipcode": "69152-145"
    },
    {
        "city": "Parintins",
        "state": "AM",
        "district": "Paulo Correa",
        "street": "Rua Zezito Assaiag",
        "zipcode": "69152-076"
    },
    {
        "city": "Parintins",
        "state": "AM",
        "district": "Raimundo Muniz",
        "street": "Rua Caramuri (Cj Macurany)",
        "zipcode": "69151-474"
    },
    {
        "city": "Parintins",
        "state": "AM",
        "district": "São José Operário",
        "street": "Beco Monte Verde",
        "zipcode": "69151-563"
    },
    {
        "city": "Parintins",
        "state": "AM",
        "district": "Centro",
        "street": "Rua Júlio Belém",
        "zipcode": "69151-150"
    },
    {
        "city": "Parintins",
        "state": "AM",
        "district": "São Benedito",
        "street": "Beco São Benedito",
        "zipcode": "69151-536"
    },
    {
        "city": "Parintins",
        "state": "AM",
        "district": "São Benedito",
        "street": "Beco Gregório",
        "zipcode": "69151-532"
    },
    {
        "city": "Parintins",
        "state": "AM",
        "district": "Itaúna I",
        "street": "Rua Dom Arcângelo Cerqua",
        "zipcode": "69152-023"
    },
    {
        "city": "Parintins",
        "state": "AM",
        "district": "Paulo Correa",
        "street": "Rua Dom Gino Malvestio",
        "zipcode": "69152-033"
    },
    {
        "city": "Parintins",
        "state": "AM",
        "district": "Paulo Correa",
        "street": "Rua Jacarandá",
        "zipcode": "69152-045"
    },
    {
        "city": "Parintins",
        "state": "AM",
        "district": "Paulo Correa",
        "street": "Rua Zenaide Miranda",
        "zipcode": "69152-050"
    },
    {
        "city": "Parintins",
        "state": "AM",
        "district": "Paulo Correa",
        "street": "Rua Gonçalves Maia",
        "zipcode": "69152-080"
    },
    {
        "city": "Parintins",
        "state": "AM",
        "district": "Paulo Correa",
        "street": "Rua Ayrton Sena",
        "zipcode": "69152-083"
    },
    {
        "city": "Parintins",
        "state": "AM",
        "district": "Itaúna II",
        "street": "Rua Lourdita Lago",
        "zipcode": "69152-150"
    },
    {
        "city": "Parintins",
        "state": "AM",
        "district": "Itaúna II",
        "street": "Rua Eládio Carneiro",
        "zipcode": "69152-155"
    },
    {
        "city": "Parintins",
        "state": "AM",
        "district": "Itaúna II",
        "street": "Rua Artur Neto",
        "zipcode": "69152-160"
    },
    {
        "city": "Parintins",
        "state": "AM",
        "district": "Itaúna II",
        "street": "Rua Irmã Cristine",
        "zipcode": "69152-170"
    },
    {
        "city": "Parintins",
        "state": "AM",
        "district": "Itaúna II",
        "street": "Rua José Nilton",
        "zipcode": "69152-173"
    },
    {
        "city": "Parintins",
        "state": "AM",
        "district": "Itaúna II",
        "street": "Rua João Pessoa",
        "zipcode": "69152-175"
    },
    {
        "city": "Parintins",
        "state": "AM",
        "district": "Itaúna II",
        "street": "Rua Maria Belém Cuxaxata",
        "zipcode": "69152-183"
    },
    {
        "city": "Parintins",
        "state": "AM",
        "district": "Itaúna II",
        "street": "Rua Amazonino Mendes",
        "zipcode": "69152-195"
    },
    {
        "city": "Parintins",
        "state": "AM",
        "district": "Itaúna II",
        "street": "Rua Nossa Senhora das Graças",
        "zipcode": "69152-200"
    },
    {
        "city": "Parintins",
        "state": "AM",
        "district": "Jacareacanga",
        "street": "Travessa Duas",
        "zipcode": "69152-250"
    },
    {
        "city": "Parintins",
        "state": "AM",
        "district": "Jacareacanga",
        "street": "Travessa Três",
        "zipcode": "69152-254"
    },
    {
        "city": "Parintins",
        "state": "AM",
        "district": "Castanheira",
        "street": "Rua da Fraternidade",
        "zipcode": "69153-315"
    },
    {
        "city": "Parintins",
        "state": "AM",
        "district": "Emílio Moreira",
        "street": "Rua Doutor Afonso Maranhão",
        "zipcode": "69153-360"
    },
    {
        "city": "Parintins",
        "state": "AM",
        "district": "Francesa",
        "street": "Avenida Furtado Belém",
        "zipcode": "69151-513"
    },
    {
        "city": "Parintins",
        "state": "AM",
        "district": "Francesa",
        "street": "Rua Sá Peixoto",
        "zipcode": "69151-515"
    },
    {
        "city": "Parintins",
        "state": "AM",
        "district": "Francesa",
        "street": "Rua Gomes de Castro",
        "zipcode": "69151-518"
    },
    {
        "city": "Parintins",
        "state": "AM",
        "district": "João Novo",
        "street": "Estrada Odovaldo Novo",
        "zipcode": "69152-387"
    },
    {
        "city": "Parintins",
        "state": "AM",
        "district": "Djard Vieira",
        "street": "Rua Massaranduba",
        "zipcode": "69152-453"
    },
    {
        "city": "Parintins",
        "state": "AM",
        "district": "Nossa Senhora de Nazaré",
        "street": "Rua Agostinho Cunha",
        "zipcode": "69153-492"
    },
    {
        "city": "Parintins",
        "state": "AM",
        "district": "Nossa Senhora de Nazaré",
        "street": "Rua Paraíba",
        "zipcode": "69153-500"
    },
    {
        "city": "Parintins",
        "state": "AM",
        "district": "Nossa Senhora de Nazaré",
        "street": "Rua Terra Santa",
        "zipcode": "69153-510"
    },
    {
        "city": "Parintins",
        "state": "AM",
        "district": "Nossa Senhora de Nazaré",
        "street": "Rua Fortaleza",
        "zipcode": "69153-516"
    },
    {
        "city": "Parintins",
        "state": "AM",
        "district": "Francesa",
        "street": "Rua Silves",
        "zipcode": "69151-502"
    },
    {
        "city": "Parintins",
        "state": "AM",
        "district": "Djard Vieira",
        "street": "Rua Aningá",
        "zipcode": "69152-420"
    },
    {
        "city": "Parintins",
        "state": "AM",
        "district": "Djard Vieira",
        "street": "Rua Cabury",
        "zipcode": "69152-480"
    },
    {
        "city": "Parintins",
        "state": "AM",
        "district": "Santa Rita de Cássia",
        "street": "Rua Eulina Farias",
        "zipcode": "69153-282"
    },
    {
        "city": "Parintins",
        "state": "AM",
        "district": "Djard Vieira",
        "street": "Rua Taboraí",
        "zipcode": "69152-430"
    },
    {
        "city": "Parintins",
        "state": "AM",
        "district": "Palmares",
        "street": "Rua Itacoatiara",
        "zipcode": "69153-080"
    },
    {
        "city": "Parintins",
        "state": "AM",
        "district": "Palmares",
        "street": "Travessa João Meireles",
        "zipcode": "69153-120"
    },
    {
        "city": "Parintins",
        "state": "AM",
        "district": "Santa Rita de Cássia",
        "street": "Rua Joaquim de Freitas Vieira",
        "zipcode": "69153-220"
    },
    {
        "city": "Parintins",
        "state": "AM",
        "district": "Nossa Senhora de Nazaré",
        "street": "Rua Juruty",
        "zipcode": "69153-503"
    },
    {
        "city": "Parintins",
        "state": "AM",
        "district": "Santa Rita de Cássia",
        "street": "Rua Vicente Reis",
        "zipcode": "69153-280"
    },
    {
        "city": "Parintins",
        "state": "AM",
        "district": "Palmares",
        "street": "Rua Manicoré",
        "zipcode": "69153-170"
    },
    {
        "city": "Parintins",
        "state": "AM",
        "district": "Djard Vieira",
        "street": "Rua Marajó",
        "zipcode": "69152-460"
    },
    {
        "city": "Parintins",
        "state": "AM",
        "district": "Djard Vieira",
        "street": "Rua Mocambo",
        "zipcode": "69152-490"
    },
    {
        "city": "Parintins",
        "state": "AM",
        "district": "Jacareacanga",
        "street": "Rua Agropecuarista Osmar Novo",
        "zipcode": "69152-244"
    },
    {
        "city": "Parintins",
        "state": "AM",
        "district": "Jacareacanga",
        "street": "Estrada Parintins Macurany",
        "zipcode": "69152-240"
    },
    {
        "city": "Parintins",
        "state": "AM",
        "district": "Jacareacanga",
        "street": "Rua Agropecuarista Osmar Farias",
        "zipcode": "69152-242"
    },
    {
        "city": "Parintins",
        "state": "AM",
        "district": "Palmares",
        "street": "Rua Nhamundá",
        "zipcode": "69153-050"
    },
    {
        "city": "Parintins",
        "state": "AM",
        "district": "Santa Rita de Cássia",
        "street": "Rua Salvador de Moura",
        "zipcode": "69153-260"
    },
    {
        "city": "Parintins",
        "state": "AM",
        "district": "Palmares",
        "street": "Rua Terra Santa",
        "zipcode": "69153-180"
    },
    {
        "city": "Parintins",
        "state": "AM",
        "district": "Palmares",
        "street": "Rua Urucará",
        "zipcode": "69153-070"
    },
    {
        "city": "Parintins",
        "state": "AM",
        "district": "Palmares",
        "street": "Rua Urucurituba",
        "zipcode": "69153-100"
    },
    {
        "city": "Parintins",
        "state": "AM",
        "district": "Nossa Senhora de Nazaré",
        "street": "Rua Quinze de Outubro",
        "zipcode": "69153-505"
    },
    {
        "city": "Parintins",
        "state": "AM",
        "district": "Santa Rita de Cássia",
        "street": "Rua Raimundo Bentes de Jesus",
        "zipcode": "69153-230"
    },
    {
        "city": "Parintins",
        "state": "AM",
        "district": "Centro",
        "street": "Praça Tukasa",
        "zipcode": "69151-061"
    },
    {
        "city": "Parintins",
        "state": "AM",
        "district": "Itaúna II",
        "street": "Rua Gláucio Gonçalves",
        "zipcode": "69152-193"
    },
    {
        "city": "Parintins",
        "state": "AM",
        "district": "São José Operário",
        "street": "Beco Bom Samaritano",
        "zipcode": "69151-554"
    },
    {
        "city": "Parintins",
        "state": "AM",
        "district": "Centro",
        "street": "Beco Saae",
        "zipcode": "69151-032"
    },
    {
        "city": "Parintins",
        "state": "AM",
        "district": "Palmares",
        "street": "Rua Itapiranga",
        "zipcode": "69153-140"
    },
    {
        "city": "Parintins",
        "state": "AM",
        "district": "Djard Vieira",
        "street": "Rua Macurany",
        "zipcode": "69152-440"
    },
    {
        "city": "Parintins",
        "state": "AM",
        "district": "Palmares",
        "street": "Rua Alberto Mendes",
        "zipcode": "69153-000"
    },
    {
        "city": "Parintins",
        "state": "AM",
        "district": "Castanheira",
        "street": "Rua Joaquim Góes",
        "zipcode": "69153-300"
    },
    {
        "city": "Parintins",
        "state": "AM",
        "district": "Djard Vieira",
        "street": "Rua Parananema",
        "zipcode": "69152-510"
    },
    {
        "city": "Parintins",
        "state": "AM",
        "district": "Francesa",
        "street": "Rua Neli Armstrong",
        "zipcode": "69151-503"
    },
    {
        "city": "Parintins",
        "state": "AM",
        "district": "Francesa",
        "street": "Beco Furtado Belém",
        "zipcode": "69151-506"
    },
    {
        "city": "Parintins",
        "state": "AM",
        "district": "Francesa",
        "street": "Beco João Meireles",
        "zipcode": "69151-508"
    },
    {
        "city": "Parintins",
        "state": "AM",
        "district": "São Benedito",
        "street": "Avenida Armando Prado",
        "zipcode": "69151-530"
    },
    {
        "city": "Parintins",
        "state": "AM",
        "district": "São Benedito",
        "street": "Rua Carvalho Leal",
        "zipcode": "69151-525"
    },
    {
        "city": "Parintins",
        "state": "AM",
        "district": "São Benedito",
        "street": "Rua São Benedito",
        "zipcode": "69151-520"
    },
    {
        "city": "Parintins",
        "state": "AM",
        "district": "São Benedito",
        "street": "Beco Barbosa",
        "zipcode": "69151-526"
    },
    {
        "city": "Parintins",
        "state": "AM",
        "district": "São Benedito",
        "street": "Beco Carvalho Leal",
        "zipcode": "69151-524"
    },
    {
        "city": "Parintins",
        "state": "AM",
        "district": "João Novo",
        "street": "Rua Begônia (Cj J Novo)",
        "zipcode": "69152-396"
    },
    {
        "city": "Parintins",
        "state": "AM",
        "district": "João Novo",
        "street": "Rua Bulgarin (Cj J Novo)",
        "zipcode": "69152-394"
    },
    {
        "city": "Parintins",
        "state": "AM",
        "district": "Djard Vieira",
        "street": "Rua Semeão",
        "zipcode": "69152-485"
    },
    {
        "city": "Parintins",
        "state": "AM",
        "district": "João Novo",
        "street": "Rua Girassol (Cj J. Novo)",
        "zipcode": "69152-400"
    },
    {
        "city": "Parintins",
        "state": "AM",
        "district": "João Novo",
        "street": "Rua Antúlios (Cj J Novo)",
        "zipcode": "69152-380"
    },
    {
        "city": "Parintins",
        "state": "AM",
        "district": "Palmares",
        "street": "Avenida José Esteves",
        "zipcode": "69153-150"
    },
    {
        "city": "Parintins",
        "state": "AM",
        "district": "Palmares",
        "street": "Rua Paraíba",
        "zipcode": "69153-010"
    },
    {
        "city": "Parintins",
        "state": "AM",
        "district": "Palmares",
        "street": "Rua Fausto Bulcão",
        "zipcode": "69153-005"
    },
    {
        "city": "Parintins",
        "state": "AM",
        "district": "Palmares",
        "street": "Rua Oriximiná",
        "zipcode": "69153-115"
    },
    {
        "city": "Parintins",
        "state": "AM",
        "district": "Vitória Régia",
        "street": "Rua Doutor Afonso Maranhão",
        "zipcode": "69151-724"
    },
    {
        "city": "Parintins",
        "state": "AM",
        "district": "Itaúna I",
        "street": "Rua Ayrton Sena",
        "zipcode": "69152-003"
    },
    {
        "city": "Parintins",
        "state": "AM",
        "district": "Itaúna I",
        "street": "Rua Messias Augusto",
        "zipcode": "69152-008"
    },
    {
        "city": "Parintins",
        "state": "AM",
        "district": "João Novo",
        "street": "Rua Paraíba",
        "zipcode": "69152-377"
    },
    {
        "city": "Parintins",
        "state": "AM",
        "district": "São Vicente de Paula",
        "street": "Rua Nhamundá",
        "zipcode": "69153-458"
    },
    {
        "city": "Parintins",
        "state": "AM",
        "district": "São Vicente de Paula",
        "street": "Rua Fausto Bulcão",
        "zipcode": "69153-462"
    },
    {
        "city": "Parintins",
        "state": "AM",
        "district": "São Vicente de Paula",
        "street": "Rua Barreirinha",
        "zipcode": "69153-464"
    },
    {
        "city": "Parintins",
        "state": "AM",
        "district": "Nossa Senhora de Nazaré",
        "street": "Rua Recife",
        "zipcode": "69153-486"
    },
    {
        "city": "Parintins",
        "state": "AM",
        "district": "Emílio Moreira",
        "street": "Rua Nhamundá",
        "zipcode": "69153-363"
    },
    {
        "city": "Parintins",
        "state": "AM",
        "district": "Emílio Moreira",
        "street": "Rua Fausto Bulcão",
        "zipcode": "69153-383"
    },
    {
        "city": "Parintins",
        "state": "AM",
        "district": "São Vicente de Paula",
        "street": "Rua Maués",
        "zipcode": "69153-452"
    },
    {
        "city": "Parintins",
        "state": "AM",
        "district": "São Vicente de Paula",
        "street": "Rua 7 de Setembro",
        "zipcode": "69153-454"
    },
    {
        "city": "Parintins",
        "state": "AM",
        "district": "São Vicente de Paula",
        "street": "Rua Acioly Teixeira",
        "zipcode": "69153-420"
    },
    {
        "city": "Parintins",
        "state": "AM",
        "district": "Santa Rita de Cássia",
        "street": "Rua Alfredo Lima",
        "zipcode": "69153-285"
    },
    {
        "city": "Parintins",
        "state": "AM",
        "district": "São Vicente de Paula",
        "street": "Rua Antônio Santiago",
        "zipcode": "69153-440"
    },
    {
        "city": "Parintins",
        "state": "AM",
        "district": "São Vicente de Paula",
        "street": "Rua Antônio Sérgio da Silva",
        "zipcode": "69153-410"
    },
    {
        "city": "Parintins",
        "state": "AM",
        "district": "Nossa Senhora de Nazaré",
        "street": "Rua Padre Vitório",
        "zipcode": "69153-480"
    },
    {
        "city": "Parintins",
        "state": "AM",
        "district": "Palmares",
        "street": "Rua Barreirinha",
        "zipcode": "69153-030"
    },
    {
        "city": "Parintins",
        "state": "AM",
        "district": "São Vicente de Paula",
        "street": "Rua Eudócia Alves",
        "zipcode": "69153-460"
    },
    {
        "city": "Parintins",
        "state": "AM",
        "district": "Palmares",
        "street": "Rua Padre Torquato",
        "zipcode": "69153-110"
    },
    {
        "city": "Parintins",
        "state": "AM",
        "district": "Djard Vieira",
        "street": "Rua Paraíso",
        "zipcode": "69152-500"
    },
    {
        "city": "Parintins",
        "state": "AM",
        "district": "São Vicente de Paula",
        "street": "Rua Recife",
        "zipcode": "69153-450"
    },
    {
        "city": "Parintins",
        "state": "AM",
        "district": "Palmares",
        "street": "Rua Silves",
        "zipcode": "69153-130"
    },
    {
        "city": "Parintins",
        "state": "AM",
        "district": "Djard Vieira",
        "street": "Rua Valéria",
        "zipcode": "69152-520"
    },
    {
        "city": "Parintins",
        "state": "AM",
        "district": "Vitória Régia",
        "street": "Rua Tucumã",
        "zipcode": "69151-722"
    },
    {
        "city": "Parintins",
        "state": "AM",
        "district": "João Novo",
        "street": "Estrada do Parintins",
        "zipcode": "69152-373"
    },
    {
        "city": "Parintins",
        "state": "AM",
        "district": "Santa Rita de Cássia",
        "street": "Rua Waldemar Filho",
        "zipcode": "69153-270"
    },
    {
        "city": "Parintins",
        "state": "AM",
        "district": "São Vicente de Paula",
        "street": "Beco Acioly",
        "zipcode": "69153-421"
    },
    {
        "city": "Parintins",
        "state": "AM",
        "district": "São Vicente de Paula",
        "street": "Beco Agostinho Cunha",
        "zipcode": "69153-433"
    },
    {
        "city": "Parintins",
        "state": "AM",
        "district": "Emílio Moreira",
        "street": "Rua Balbino Noronha",
        "zipcode": "69153-400"
    },
    {
        "city": "Parintins",
        "state": "AM",
        "district": "Djard Vieira",
        "street": "Estrada Odovaldo Novo",
        "zipcode": "69152-470"
    },
    {
        "city": "Parintins",
        "state": "AM",
        "district": "Vitória Régia",
        "street": "Avenida Renato Batista (Cj V Régia)",
        "zipcode": "69151-726"
    },
    {
        "city": "Parintins",
        "state": "AM",
        "district": "Paulo Correa",
        "street": "Rua Francisca Mendes",
        "zipcode": "69152-055"
    },
    {
        "city": "Parintins",
        "state": "AM",
        "district": "Vitória Régia",
        "street": "Rua Coronel Barreto Batista",
        "zipcode": "69151-730"
    },
    {
        "city": "Parintins",
        "state": "AM",
        "district": "Emílio Moreira",
        "street": "Rua Antônio Maia",
        "zipcode": "69153-390"
    },
    {
        "city": "Parintins",
        "state": "AM",
        "district": "Paulo Correa",
        "street": "Rua Nossa Senhora Aparecida",
        "zipcode": "69152-070"
    },
    {
        "city": "Parintins",
        "state": "AM",
        "district": "Itaúna I",
        "street": "Avenida Geny Bentes",
        "zipcode": "69152-000"
    },
    {
        "city": "Parintins",
        "state": "AM",
        "district": "Itaúna I",
        "street": "Rua Benjamin Portal",
        "zipcode": "69152-016"
    },
    {
        "city": "Parintins",
        "state": "AM",
        "district": "Itaúna I",
        "street": "Rua Antônio Verçosa",
        "zipcode": "69152-018"
    },
    {
        "city": "Parintins",
        "state": "AM",
        "district": "João Novo",
        "street": "Rua Jasmin (Cj J. Novo)",
        "zipcode": "69152-392"
    },
    {
        "city": "Parintins",
        "state": "AM",
        "district": "João Novo",
        "street": "Rua Lírio (Cj J. Novo)",
        "zipcode": "69152-405"
    },
    {
        "city": "Parintins",
        "state": "AM",
        "district": "Jacareacanga",
        "street": "Travessa Quatro",
        "zipcode": "69152-256"
    },
    {
        "city": "Parintins",
        "state": "AM",
        "district": "Lady Laura",
        "street": "Rua Muras",
        "zipcode": "69152-308"
    },
    {
        "city": "Parintins",
        "state": "AM",
        "district": "Distrito Industrial",
        "street": "Rua Castanheira",
        "zipcode": "69152-325"
    },
    {
        "city": "Parintins",
        "state": "AM",
        "district": "Distrito Industrial",
        "street": "Alameda Quatro",
        "zipcode": "69152-340"
    },
    {
        "city": "Parintins",
        "state": "AM",
        "district": "Distrito Industrial",
        "street": "Rua Sucupira",
        "zipcode": "69152-355"
    },
    {
        "city": "Parintins",
        "state": "AM",
        "district": "Distrito Industrial",
        "street": "Rua Andiroba",
        "zipcode": "69152-350"
    },
    {
        "city": "Parintins",
        "state": "AM",
        "district": "Distrito Industrial",
        "street": "Avenida Acariúba",
        "zipcode": "69152-310"
    },
    {
        "city": "Parintins",
        "state": "AM",
        "district": "Itaúna I",
        "street": "Rua Paraíba",
        "zipcode": "69152-010"
    },
    {
        "city": "Parintins",
        "state": "AM",
        "district": "Distrito Industrial",
        "street": "Rua Cedro",
        "zipcode": "69152-323"
    },
    {
        "city": "Parintins",
        "state": "AM",
        "district": "Distrito Industrial",
        "street": "Rua Itaúba",
        "zipcode": "69152-360"
    },
    {
        "city": "Parintins",
        "state": "AM",
        "district": "Distrito Industrial",
        "street": "Rua Angelin",
        "zipcode": "69152-345"
    },
    {
        "city": "Parintins",
        "state": "AM",
        "district": "Distrito Industrial",
        "street": "Rua Muracatiara",
        "zipcode": "69152-330"
    },
    {
        "city": "Parintins",
        "state": "AM",
        "district": "João Novo",
        "street": "Rua Dália (Cj J. Novo)",
        "zipcode": "69152-375"
    },
    {
        "city": "Parintins",
        "state": "AM",
        "district": "João Novo",
        "street": "Rua das Acácias (Cj J Novo)",
        "zipcode": "69152-390"
    },
    {
        "city": "Parintins",
        "state": "AM",
        "district": "Nossa Senhora de Nazaré",
        "street": "Rua Dom Pedro I",
        "zipcode": "69153-475"
    },
    {
        "city": "Parintins",
        "state": "AM",
        "district": "Francesa",
        "street": "Avenida Amazonas",
        "zipcode": "69151-486"
    },
    {
        "city": "Parintins",
        "state": "AM",
        "district": "São Benedito",
        "street": "Rua 31 de Março",
        "zipcode": "69151-545"
    },
    {
        "city": "Parintins",
        "state": "AM",
        "district": "Vitória Régia",
        "street": "Avenida Nações Unidas",
        "zipcode": "69151-700"
    },
    {
        "city": "Parintins",
        "state": "AM",
        "district": "Vitória Régia",
        "street": "Rua Paraíba",
        "zipcode": "69151-720"
    },
    {
        "city": "Parintins",
        "state": "AM",
        "district": "Vitória Régia",
        "street": "Rua Nova",
        "zipcode": "69151-734"
    },
    {
        "city": "Parintins",
        "state": "AM",
        "district": "Itaúna I",
        "street": "Rua das Acácias",
        "zipcode": "69152-027"
    },
    {
        "city": "Parintins",
        "state": "AM",
        "district": "Itaúna II",
        "street": "Rua Messias Augusto",
        "zipcode": "69152-157"
    },
    {
        "city": "Parintins",
        "state": "AM",
        "district": "João Novo",
        "street": "Rua Guajarina Prestes",
        "zipcode": "69152-383"
    },
    {
        "city": "Parintins",
        "state": "AM",
        "district": "São Vicente de Paula",
        "street": "Rua Fortaleza",
        "zipcode": "69153-456"
    },
    {
        "city": "Parintins",
        "state": "AM",
        "district": "Nossa Senhora de Nazaré",
        "street": "Rua Alberto Mendes",
        "zipcode": "69153-512"
    },
    {
        "city": "Parintins",
        "state": "AM",
        "district": "Nossa Senhora de Nazaré",
        "street": "Rua Barreirinha",
        "zipcode": "69153-522"
    },
    {
        "city": "Parintins",
        "state": "AM",
        "district": "Emílio Moreira",
        "street": "Rua Itacoatiara",
        "zipcode": "69153-384"
    },
    {
        "city": "Parintins",
        "state": "AM",
        "district": "São José Operário",
        "street": "Beco Coronel Barreto Batista",
        "zipcode": "69151-582"
    },
    {
        "city": "Parintins",
        "state": "AM",
        "district": "Palmares",
        "street": "Rua Benjamim Rondon",
        "zipcode": "69153-060"
    },
    {
        "city": "Parintins",
        "state": "AM",
        "district": "Nossa Senhora de Nazaré",
        "street": "Rua Dom Pedro II",
        "zipcode": "69153-470"
    },
    {
        "city": "Parintins",
        "state": "AM",
        "district": "Palmares",
        "street": "Rua Fortaleza",
        "zipcode": "69153-020"
    },
    {
        "city": "Parintins",
        "state": "AM",
        "district": "Palmares",
        "street": "Beco Itapiranga",
        "zipcode": "69153-142"
    },
    {
        "city": "Parintins",
        "state": "AM",
        "district": "Djard Vieira",
        "street": "Estrada do Parintins",
        "zipcode": "69152-450"
    },
    {
        "city": "Parintins",
        "state": "AM",
        "district": "Castanheira",
        "street": "Rua Marcos Zagury",
        "zipcode": "69153-290"
    },
    {
        "city": "Parintins",
        "state": "AM",
        "district": "São José Operário",
        "street": "Rua Padre Colombo",
        "zipcode": "69151-572"
    },
    {
        "city": "Parintins",
        "state": "AM",
        "district": "Santa Rita de Cássia",
        "street": "Avenida Paulo Teixeira",
        "zipcode": "69153-250"
    },
    {
        "city": "Parintins",
        "state": "AM",
        "district": "Palmares",
        "street": "Rua Raul Góes",
        "zipcode": "69153-090"
    },
    {
        "city": "Parintins",
        "state": "AM",
        "district": "São José Operário",
        "street": "Beco Coopesca",
        "zipcode": "69151-561"
    },
    {
        "city": "Parintins",
        "state": "AM",
        "district": "São José Operário",
        "street": "Rua Silva Campos",
        "zipcode": "69151-555"
    },
    {
        "city": "Parintins",
        "state": "AM",
        "district": "Santa Rita de Cássia",
        "street": "Rua Antônio Cezar de Carvalho",
        "zipcode": "69153-240"
    },
    {
        "city": "Parintins",
        "state": "AM",
        "district": "Francesa",
        "street": "Rua Rio Branco",
        "zipcode": "69151-516"
    },
    {
        "city": "Parintins",
        "state": "AM",
        "district": "Francesa",
        "street": "Rua Capitão Pedro Ferreira",
        "zipcode": "69151-500"
    },
    {
        "city": "Parintins",
        "state": "AM",
        "district": "Vitória Régia",
        "street": "Rua Tapajós",
        "zipcode": "69151-727"
    },
    {
        "city": "Parintins",
        "state": "AM",
        "district": "Santa Clara",
        "street": "Beco Alan Kardek",
        "zipcode": "69151-631"
    },
    {
        "city": "Parintins",
        "state": "AM",
        "district": "Raimundo Muniz",
        "street": "Rua Açaí (Cj Macurany)",
        "zipcode": "69151-422"
    },
    {
        "city": "Parintins",
        "state": "AM",
        "district": "Itaúna II",
        "street": "Rua Romualdo Corrêa",
        "zipcode": "69152-190"
    },
    {
        "city": "Parintins",
        "state": "AM",
        "district": "Santa Clara",
        "street": "Praça Gentil Belém (Cj J. Novo)",
        "zipcode": "69151-641"
    },
    {
        "city": "Parintins",
        "state": "AM",
        "district": "Itaúna I",
        "street": "Estrada do Parintins",
        "zipcode": "69152-013"
    },
    {
        "city": "Parintins",
        "state": "AM",
        "district": "Paulo Correa",
        "street": "Rua Francisco Florêncio",
        "zipcode": "69152-077"
    },
    {
        "city": "Parintins",
        "state": "AM",
        "district": "São José Operário",
        "street": "Beco Ademir Fárias",
        "zipcode": "69151-588"
    },
    {
        "city": "Parintins",
        "state": "AM",
        "district": "Itaúna II",
        "street": "Estrada do Parintins",
        "zipcode": "69152-205"
    },
    {
        "city": "Parintins",
        "state": "AM",
        "district": "Francesa",
        "street": "Beco José Henrique",
        "zipcode": "69151-505"
    },
    {
        "city": "Parintins",
        "state": "AM",
        "district": "São Benedito",
        "street": "Avenida Nações Unidas",
        "zipcode": "69151-537"
    },
    {
        "city": "Parintins",
        "state": "AM",
        "district": "São Benedito",
        "street": "Rua Júlio Belém",
        "zipcode": "69151-527"
    },
    {
        "city": "Parintins",
        "state": "AM",
        "district": "São Benedito",
        "street": "Beco Togo Meireles",
        "zipcode": "69151-523"
    },
    {
        "city": "Parintins",
        "state": "AM",
        "district": "Itaúna I",
        "street": "Rua Sila Marçal",
        "zipcode": "69152-004"
    },
    {
        "city": "Parintins",
        "state": "AM",
        "district": "Itaúna I",
        "street": "Rua Oswaldo Melo",
        "zipcode": "69152-014"
    },
    {
        "city": "Parintins",
        "state": "AM",
        "district": "Itaúna I",
        "street": "Rua Guajarina Prestes",
        "zipcode": "69152-020"
    },
    {
        "city": "Parintins",
        "state": "AM",
        "district": "Paulo Correa",
        "street": "Rua Correa Neto",
        "zipcode": "69152-053"
    },
    {
        "city": "Parintins",
        "state": "AM",
        "district": "Paulo Correa",
        "street": "Rua Messias Augusto",
        "zipcode": "69152-085"
    },
    {
        "city": "Parintins",
        "state": "AM",
        "district": "Itaúna II",
        "street": "Rua Guajarina Prestes",
        "zipcode": "69152-130"
    },
    {
        "city": "Parintins",
        "state": "AM",
        "district": "Distrito Industrial",
        "street": "Alameda Três",
        "zipcode": "69152-339"
    },
    {
        "city": "Parintins",
        "state": "AM",
        "district": "Distrito Industrial",
        "street": "Alameda Um",
        "zipcode": "69152-333"
    },
    {
        "city": "Parintins",
        "state": "AM",
        "district": "Djard Vieira",
        "street": "Rua Murituba",
        "zipcode": "69152-455"
    },
    {
        "city": "Parintins",
        "state": "AM",
        "district": "João Novo",
        "street": "Rua das Orquídeas (Cj J. Novo)",
        "zipcode": "69152-410"
    },
    {
        "city": "Parintins",
        "state": "AM",
        "district": "João Novo",
        "street": "Rua Crisântemo (Cj J Novo)",
        "zipcode": "69152-370"
    },
    {
        "city": "Parintins",
        "state": "AM",
        "district": "Emílio Moreira",
        "street": "Rua Simões Ribeiro",
        "zipcode": "69153-385"
    },
    {
        "city": "Parintins",
        "state": "AM",
        "district": "Nossa Senhora de Nazaré",
        "street": "Rua Raul Góes",
        "zipcode": "69153-490"
    },
    {
        "city": "Parintins",
        "state": "AM",
        "district": "Raimundo Muniz",
        "street": "Rua Maués",
        "zipcode": "69151-458"
    },
    {
        "city": "Parintins",
        "state": "AM",
        "district": "Raimundo Muniz",
        "street": "Rua Fausto Bulcão",
        "zipcode": "69151-468"
    },
    {
        "city": "Parintins",
        "state": "AM",
        "district": "Raimundo Muniz",
        "street": "Rua Domingos Prestes",
        "zipcode": "69151-476"
    },
    {
        "city": "Parintins",
        "state": "AM",
        "district": "Francesa",
        "street": "Rua Herberth Azevedo",
        "zipcode": "69151-484"
    },
    {
        "city": "Parintins",
        "state": "AM",
        "district": "Nossa Senhora de Nazaré",
        "street": "Rua Urucará",
        "zipcode": "69153-526"
    },
    {
        "city": "Parintins",
        "state": "AM",
        "district": "Nossa Senhora de Nazaré",
        "street": "Rua Itacoatiara",
        "zipcode": "69153-528"
    },
    {
        "city": "Parintins",
        "state": "AM",
        "district": "Centro",
        "street": "Rua Rio Branco",
        "zipcode": "69151-210"
    },
    {
        "city": "Parintins",
        "state": "AM",
        "district": "Centro",
        "street": "Rua Ruy Barbosa",
        "zipcode": "69151-970"
    },
    {
        "city": "Parintins",
        "state": "AM",
        "district": "São José Operário",
        "street": "Rua Amaro Silva",
        "zipcode": "69151-587"
    },
    {
        "city": "Parintins",
        "state": "AM",
        "district": "Centro",
        "street": "Avenida Amazonas",
        "zipcode": "69151-000"
    },
    {
        "city": "Parintins",
        "state": "AM",
        "district": "Raimundo Muniz",
        "street": "Rua Cupuaçú (Cj Macurany)",
        "zipcode": "69151-430"
    },
    {
        "city": "Parintins",
        "state": "AM",
        "district": "Santa Clara",
        "street": "Rua Desembargador João Corrêa",
        "zipcode": "69151-680"
    },
    {
        "city": "Parintins",
        "state": "AM",
        "district": "Santa Clara",
        "street": "Rua Edilce Baranda",
        "zipcode": "69151-635"
    },
    {
        "city": "Parintins",
        "state": "AM",
        "district": "Centro",
        "street": "Avenida Furtado Belém",
        "zipcode": "69151-070"
    },
    {
        "city": "Parintins",
        "state": "AM",
        "district": "São Benedito",
        "street": "Rua Justino Teixeira",
        "zipcode": "69151-543"
    },
    {
        "city": "Parintins",
        "state": "AM",
        "district": "São José Operário",
        "street": "Rua Andrade Azevedo",
        "zipcode": "69151-576"
    },
    {
        "city": "Parintins",
        "state": "AM",
        "district": "Centro",
        "street": "Rua João Melo",
        "zipcode": "69151-020"
    },
    {
        "city": "Parintins",
        "state": "AM",
        "district": "Centro",
        "street": "Beco Paris",
        "zipcode": "69151-350"
    },
    {
        "city": "Parintins",
        "state": "AM",
        "district": "Centro",
        "street": "Travessa Raimunda Menezes",
        "zipcode": "69151-360"
    },
    {
        "city": "Parintins",
        "state": "AM",
        "district": "São José Operário",
        "street": "Beco São José",
        "zipcode": "69151-553"
    },
    {
        "city": "Parintins",
        "state": "AM",
        "district": "Centro",
        "street": "Rua Silva Campos",
        "zipcode": "69151-293"
    },
    {
        "city": "Parintins",
        "state": "AM",
        "district": "Centro",
        "street": "Rua Silva Meireles",
        "zipcode": "69151-280"
    },
    {
        "city": "Parintins",
        "state": "AM",
        "district": "Centro",
        "street": "Beco Tomás Meireles",
        "zipcode": "69151-042"
    },
    {
        "city": "Parintins",
        "state": "AM",
        "district": "Centro",
        "street": "Boulevard Quatorze de Maio",
        "zipcode": "69151-180"
    },
    {
        "city": "Parintins",
        "state": "AM",
        "district": "Francesa",
        "street": "Beco Submarino",
        "zipcode": "69151-501"
    },
    {
        "city": "Parintins",
        "state": "AM",
        "district": "Francesa",
        "street": "Rua Marechal Castelo Branco",
        "zipcode": "69151-480"
    },
    {
        "city": "Parintins",
        "state": "AM",
        "district": "São José Operário",
        "street": "Beco Baixa da Xanda",
        "zipcode": "69151-557"
    },
    {
        "city": "Parintins",
        "state": "AM",
        "district": "Centro",
        "street": "Avenida Nações Unidas",
        "zipcode": "69151-060"
    },
    {
        "city": "Parintins",
        "state": "AM",
        "district": "Centro",
        "street": "Rua Carvalho Leal",
        "zipcode": "69151-130"
    },
    {
        "city": "Parintins",
        "state": "AM",
        "district": "Vitória Régia",
        "street": "Rua Armínio Prestes (Cj V Régia)",
        "zipcode": "69151-712"
    },
    {
        "city": "Parintins",
        "state": "AM",
        "district": "Jacareacanga",
        "street": "Rua Campo Grande",
        "zipcode": "69152-246"
    },
    {
        "city": "Parintins",
        "state": "AM",
        "district": "São José Operário",
        "street": "Passagem Barreto Batista",
        "zipcode": "69151-584"
    },
    {
        "city": "Parintins",
        "state": "AM",
        "district": "Raimundo Muniz",
        "street": "Rua Tucumã (Cj Macurany)",
        "zipcode": "69151-425"
    },
    {
        "city": "Parintins",
        "state": "AM",
        "district": "Centro",
        "street": "Praça Judith Prestes",
        "zipcode": "69151-311"
    },
    {
        "city": "Parintins",
        "state": "AM",
        "district": "São Benedito",
        "street": "Rua Lindolfo Monte Verde",
        "zipcode": "69151-535"
    },
    {
        "city": "Parintins",
        "state": "AM",
        "district": "São Benedito",
        "street": "Beco Farias Lopes",
        "zipcode": "69151-522"
    },
    {
        "city": "Parintins",
        "state": "AM",
        "district": "Itaúna I",
        "street": "Rua Tomazinho Meireles",
        "zipcode": "69152-002"
    },
    {
        "city": "Parintins",
        "state": "AM",
        "district": "Itaúna I",
        "street": "Rua Chico Simões",
        "zipcode": "69152-012"
    },
    {
        "city": "Parintins",
        "state": "AM",
        "district": "Itaúna II",
        "street": "Rua 13 de Maio",
        "zipcode": "69152-184"
    },
    {
        "city": "Parintins",
        "state": "AM",
        "district": "Raimundo Muniz",
        "street": "Rua Tucumã",
        "zipcode": "69151-475"
    },
    {
        "city": "Parintins",
        "state": "AM",
        "district": "Paulo Correa",
        "street": "Rua Ruy Corrêa",
        "zipcode": "69152-063"
    },
    {
        "city": "Parintins",
        "state": "AM",
        "district": "Jacareacanga",
        "street": "Rua Itaúba",
        "zipcode": "69152-263"
    },
    {
        "city": "Parintins",
        "state": "AM",
        "district": "Itaúna I",
        "street": "Rua Desembargador Pessoa",
        "zipcode": "69152-021"
    },
    {
        "city": "Parintins",
        "state": "AM",
        "district": "Itaúna I",
        "street": "Rua Vinte e Quatro de Maio",
        "zipcode": "69152-025"
    },
    {
        "city": "Parintins",
        "state": "AM",
        "district": "Paulo Correa",
        "street": "Rua São Sebastião",
        "zipcode": "69152-040"
    },
    {
        "city": "Parintins",
        "state": "AM",
        "district": "Paulo Correa",
        "street": "Rua 13 de Maio",
        "zipcode": "69152-043"
    },
    {
        "city": "Parintins",
        "state": "AM",
        "district": "Itaúna II",
        "street": "Rua Pastor Lessa",
        "zipcode": "69152-165"
    },
    {
        "city": "Parintins",
        "state": "AM",
        "district": "Itaúna II",
        "street": "Rua Padre Francisco Luppino",
        "zipcode": "69152-185"
    },
    {
        "city": "Parintins",
        "state": "AM",
        "district": "Itaúna II",
        "street": "Rua Dom Arcângelo Cerqua",
        "zipcode": "69152-125"
    },
    {
        "city": "Parintins",
        "state": "AM",
        "district": "Jacareacanga",
        "street": "Travessa Um",
        "zipcode": "69152-252"
    },
    {
        "city": "Parintins",
        "state": "AM",
        "district": "Lady Laura",
        "street": "Rua dos Parintins",
        "zipcode": "69152-300"
    },
    {
        "city": "Parintins",
        "state": "AM",
        "district": "Distrito Industrial",
        "street": "Avenida Massaranduba",
        "zipcode": "69152-320"
    },
    {
        "city": "Parintins",
        "state": "AM",
        "district": "Francesa",
        "street": "Rua João Meireles",
        "zipcode": "69151-512"
    },
    {
        "city": "Parintins",
        "state": "AM",
        "district": "Centro",
        "street": "Rua Herberth de Azevedo",
        "zipcode": "69151-160"
    },
    {
        "city": "Parintins",
        "state": "AM",
        "district": "Francesa",
        "street": "Rua Quinta da Boa Vista",
        "zipcode": "69151-510"
    },
    {
        "city": "Parintins",
        "state": "AM",
        "district": "São Benedito",
        "street": "Rua José Luiz de Menezes",
        "zipcode": "69151-542"
    },
    {
        "city": "Parintins",
        "state": "AM",
        "district": null,
        "street": "Estrada da Vila Amazônia",
        "zipcode": "69150-991"
    },
    {
        "city": "Parintins",
        "state": "AM",
        "district": "Raimundo Muniz",
        "street": "Rua Marujada (Cj Macurany)",
        "zipcode": "69151-415"
    },
    {
        "city": "Parintins",
        "state": "AM",
        "district": "Raimundo Muniz",
        "street": "Rua Umiri (Cj Macurany)",
        "zipcode": "69151-420"
    },
    {
        "city": "Parintins",
        "state": "AM",
        "district": "Itaúna I",
        "street": "Rua Antônio Meireles",
        "zipcode": "69152-006"
    },
    {
        "city": "Parintins",
        "state": "AM",
        "district": "Itaúna II",
        "street": "Rua Professor José Jorge Cabral de Melo",
        "zipcode": "69152-180"
    },
    {
        "city": "Parintins",
        "state": "AM",
        "district": "",
        "street": "Lago do Zé Açu S/N  CPC Associação Comunitária Bom Socorro do Zé Açu",
        "zipcode": "69150-990"
    },
    {
        "city": "Parintins",
        "state": "AM",
        "district": "União",
        "street": "Rua C",
        "zipcode": "69152-533"
    },
    {
        "city": "Parintins",
        "state": "AM",
        "district": "União",
        "street": "Rua Principal",
        "zipcode": "69152-539"
    },
    {
        "city": "Parintins",
        "state": "AM",
        "district": "Vitória Régia",
        "street": "Rua Uaicurapá",
        "zipcode": "69151-728"
    },
    {
        "city": "Parintins",
        "state": "AM",
        "district": "Lady Laura",
        "street": "Rua Pauxis",
        "zipcode": "69152-306"
    },
    {
        "city": "Parintins",
        "state": "AM",
        "district": "Distrito Industrial",
        "street": "Rua Pau Rosa",
        "zipcode": "69152-313"
    },
    {
        "city": "Parintins",
        "state": "AM",
        "district": "União",
        "street": "Rua 7",
        "zipcode": "69152-566"
    },
    {
        "city": "Parintins",
        "state": "AM",
        "district": "União",
        "street": "Rua 8",
        "zipcode": "69152-569"
    },
    {
        "city": "Parintins",
        "state": "AM",
        "district": "União",
        "street": "Rua A",
        "zipcode": "69152-572"
    },
    {
        "city": "Parintins",
        "state": "AM",
        "district": "Tonzinho Saunier",
        "street": "Rua Buriti",
        "zipcode": "69152-219"
    },
    {
        "city": "Parintins",
        "state": "AM",
        "district": "União",
        "street": "Rua Francisca Mendes",
        "zipcode": "69152-530"
    },
    {
        "city": "Parintins",
        "state": "AM",
        "district": "Tonzinho Saunier",
        "street": "Rua Taperebá",
        "zipcode": "69152-216"
    },
    {
        "city": "Parintins",
        "state": "AM",
        "district": "União",
        "street": "Rua 13",
        "zipcode": "69152-588"
    },
    {
        "city": "Parintins",
        "state": "AM",
        "district": "Vitória Régia",
        "street": "Rua Waldemar Queiroz ( Cj V Régia)",
        "zipcode": "69151-706"
    },
    {
        "city": "Parintins",
        "state": "AM",
        "district": "Emílio Moreira",
        "street": "Rua Buriti",
        "zipcode": "69153-387"
    },
    {
        "city": "Parintins",
        "state": "AM",
        "district": "Teixeirão",
        "street": "Rua W",
        "zipcode": "69152-096"
    },
    {
        "city": "Parintins",
        "state": "AM",
        "district": "Tonzinho Saunier",
        "street": "Rua Piquiá",
        "zipcode": "69152-213"
    },
    {
        "city": "Parintins",
        "state": "AM",
        "district": "Teixeirão",
        "street": "Rua S",
        "zipcode": "69152-099"
    },
    {
        "city": "Parintins",
        "state": "AM",
        "district": "Nossa Senhora de Nazaré",
        "street": "Rua Benjamin Constant",
        "zipcode": "69153-524"
    },
    {
        "city": "Parintins",
        "state": "AM",
        "district": "União",
        "street": "Rua 4",
        "zipcode": "69152-551"
    },
    {
        "city": "Parintins",
        "state": "AM",
        "district": "Teixeirão",
        "street": "Rua A",
        "zipcode": "69152-090"
    },
    {
        "city": "Parintins",
        "state": "AM",
        "district": "Teixeirão",
        "street": "Rua Gonçalves Maia",
        "zipcode": "69152-105"
    },
    {
        "city": "Parintins",
        "state": "AM",
        "district": "Distrito Industrial",
        "street": "Rua Pau Darco",
        "zipcode": "69152-315"
    },
    {
        "city": "Parintins",
        "state": "AM",
        "district": "Tonzinho Saunier",
        "street": "Rua Tucumã",
        "zipcode": "69152-222"
    },
    {
        "city": "Parintins",
        "state": "AM",
        "district": "Lady Laura",
        "street": "Rua Tupinambás",
        "zipcode": "69152-302"
    },
    {
        "city": "Parintins",
        "state": "AM",
        "district": "União",
        "street": "Rua 9",
        "zipcode": "69152-575"
    },
    {
        "city": "Parintins",
        "state": "AM",
        "district": "Teixeirão",
        "street": "Rua Messias Augusto",
        "zipcode": "69152-111"
    },
    {
        "city": "Parintins",
        "state": "AM",
        "district": "Tonzinho Saunier",
        "street": "Rua Maracujá",
        "zipcode": "69152-228"
    },
    {
        "city": "Parintins",
        "state": "AM",
        "district": "União",
        "street": "Rua 6",
        "zipcode": "69152-560"
    },
    {
        "city": "Parintins",
        "state": "AM",
        "district": "União",
        "street": "Rua Gonçalves Maia",
        "zipcode": "69152-542"
    },
    {
        "city": "Parintins",
        "state": "AM",
        "district": "Paulo Correa",
        "street": "Rua Abraão Sicso",
        "zipcode": "69152-030"
    },
    {
        "city": "Parintins",
        "state": "AM",
        "district": "Tonzinho Saunier",
        "street": "Rua Graviola",
        "zipcode": "69152-234"
    },
    {
        "city": "Parintins",
        "state": "AM",
        "district": "Raimundo Muniz",
        "street": "Rua Marimari (Cj Macurany)",
        "zipcode": "69151-413"
    },
    {
        "city": "Parintins",
        "state": "AM",
        "district": "União",
        "street": "Rua 5",
        "zipcode": "69152-554"
    },
    {
        "city": "Parintins",
        "state": "AM",
        "district": "União",
        "street": "Rua 1",
        "zipcode": "69152-536"
    },
    {
        "city": "Parintins",
        "state": "AM",
        "district": "São Vicente de Paula",
        "street": "Rua Ropoca",
        "zipcode": "69153-423"
    },
    {
        "city": "Parintins",
        "state": "AM",
        "district": "União",
        "street": "Rua 3",
        "zipcode": "69152-548"
    },
    {
        "city": "Parintins",
        "state": "AM",
        "district": "Itaúna II",
        "street": "Rua Wilson Cursino",
        "zipcode": "69152-140"
    },
    {
        "city": "Parintins",
        "state": "AM",
        "district": "Francesa",
        "street": "Rua Washington Teixeira",
        "zipcode": "69151-507"
    },
    {
        "city": "Parintins",
        "state": "AM",
        "district": "Tonzinho Saunier",
        "street": "Rua Cupuaçu",
        "zipcode": "69152-231"
    },
    {
        "city": "Parintins",
        "state": "AM",
        "district": "São José Operário",
        "street": "Avenida Nações Unidas",
        "zipcode": "69151-565"
    },
    {
        "city": "Parintins",
        "state": "AM",
        "district": "Centro",
        "street": "Rua Silva Campos",
        "zipcode": "69151-590"
    },
    {
        "city": "Parintins",
        "state": "AM",
        "district": "Raimundo Muniz",
        "street": "Rua Gomes de Castro",
        "zipcode": "69151-452"
    },
    {
        "city": "Parintins",
        "state": "AM",
        "district": "Raimundo Muniz",
        "street": "Rua Paraíba",
        "zipcode": "69151-456"
    },
    {
        "city": "Parintins",
        "state": "AM",
        "district": "Pascal Alárgio",
        "street": "Rua Paraguai",
        "zipcode": "69152-602"
    },
    {
        "city": "Parintins",
        "state": "AM",
        "district": "Palmares",
        "street": "Rua Maues",
        "zipcode": "69153-210"
    },
    {
        "city": "Parintins",
        "state": "AM",
        "district": "Djard Vieira",
        "street": "Quadra A (Cj J Novo)",
        "zipcode": "69152-290"
    },
    {
        "city": "Parintins",
        "state": "AM",
        "district": "Sao Francisco De Assis",
        "street": "Rua Inga (Cj Macurani)",
        "zipcode": "69152-660"
    },
    {
        "city": "Parintins",
        "state": "AM",
        "district": "Santa Rita De Cassia",
        "street": "Rua Alberto Saunier Abecassis",
        "zipcode": "69153-340"
    },
    {
        "city": "Parintins",
        "state": "AM",
        "district": "Pascal Alárgio",
        "street": "Rua Chile",
        "zipcode": "69152-617"
    },
    {
        "city": "Parintins",
        "state": "AM",
        "district": "Centro",
        "street": "Beco Saae",
        "zipcode": "69151-470"
    },
    {
        "city": "Parintins",
        "state": "AM",
        "district": "Santa Clara",
        "street": "Beco Alan Kardek",
        "zipcode": "69151-750"
    },
    {
        "city": "Parintins",
        "state": "AM",
        "district": "Pascal Alárgio",
        "street": "Rua Estados Unidos",
        "zipcode": "69152-665"
    },
    {
        "city": "Parintins",
        "state": "AM",
        "district": "Sao Francisco De Assis",
        "street": "Rua Alcides Seixas ( Cj Sham)",
        "zipcode": "69152-550"
    },
    {
        "city": "Parintins",
        "state": "AM",
        "district": "Palmares",
        "street": "Rua 15 De Outubro",
        "zipcode": "69153-200"
    },
    {
        "city": "Parintins",
        "state": "AM",
        "district": "Sao Benedito",
        "street": "Praça Sao Benedito",
        "zipcode": "69152-001"
    },
    {
        "city": "Parintins",
        "state": "AM",
        "district": "Pascal Alárgio",
        "street": "Rua Canadá",
        "zipcode": "69152-677"
    },
    {
        "city": "Parintins",
        "state": "AM",
        "district": "Pascal Alárgio",
        "street": "Rua Panamá",
        "zipcode": "69152-635"
    },
    {
        "city": "Parintins",
        "state": "AM",
        "district": "Centro",
        "street": "Beco Itapiranga",
        "zipcode": "69151-490"
    },
    {
        "city": "Parintins",
        "state": "AM",
        "district": "Sao Francisco De Assis",
        "street": "Rua Uixi (Cj Macurani)",
        "zipcode": "69152-700"
    },
    {
        "city": "Parintins",
        "state": "AM",
        "district": "Pascal Alárgio",
        "street": "Rua Nicarágua",
        "zipcode": "69152-650"
    },
    {
        "city": "Parintins",
        "state": "AM",
        "district": "Pascal Alárgio",
        "street": "Rua Itália",
        "zipcode": "69152-659"
    },
    {
        "city": "Parintins",
        "state": "AM",
        "district": "Sao Jose",
        "street": "Praça Sao Jose",
        "zipcode": "69152-760"
    },
    {
        "city": "Parintins",
        "state": "AM",
        "district": "Sao Francisco De Assis",
        "street": "Avenida Renato Batista (Cj Sham)",
        "zipcode": "69152-640"
    },
    {
        "city": "Parintins",
        "state": "AM",
        "district": "Sao Francisco De Assis",
        "street": "Rua Valdemar Queiroz ( Cj Sham)",
        "zipcode": "69152-580"
    },
    {
        "city": "Parintins",
        "state": "AM",
        "district": "Santa Clara",
        "street": "Beco Joao Meireles",
        "zipcode": "69151-600"
    },
    {
        "city": "Parintins",
        "state": "AM",
        "district": "Djard Vieira",
        "street": "Praça das Flores",
        "zipcode": "69152-515"
    },
    {
        "city": "Parintins",
        "state": "AM",
        "district": "Pascal Alárgio",
        "street": "Rua Argentina",
        "zipcode": "69152-629"
    },
    {
        "city": "Parintins",
        "state": "AM",
        "district": "Pascal Alárgio",
        "street": "Rua Uruguai",
        "zipcode": "69152-608"
    },
    {
        "city": "Parintins",
        "state": "AM",
        "district": "Pascal Alárgio",
        "street": "Rua Acará",
        "zipcode": "69152-653"
    },
    {
        "city": "Parintins",
        "state": "AM",
        "district": "Pascal Alárgio",
        "street": "Rua Guatemala",
        "zipcode": "69152-632"
    },
    {
        "city": "Parintins",
        "state": "AM",
        "district": "Sao Francisco De Assis",
        "street": "Rua Piquia (Cj Macurani)",
        "zipcode": "69152-690"
    },
    {
        "city": "Parintins",
        "state": "AM",
        "district": "Sao Francisco De Assis",
        "street": "Rua Francisco Xavier (Cj Cham)",
        "zipcode": "69152-570"
    },
    {
        "city": "Parintins",
        "state": "AM",
        "district": "Sao Francisco De Assis",
        "street": "Rua Buruti (Cj Macurani)",
        "zipcode": "69152-670"
    },
    {
        "city": "Parintins",
        "state": "AM",
        "district": "Francesa",
        "street": "Beco Wilson Severino",
        "zipcode": "69151-488"
    },
    {
        "city": "Parintins",
        "state": "AM",
        "district": "Pascal Alárgio",
        "street": "Rua Espanha",
        "zipcode": "69152-623"
    },
    {
        "city": "Parintins",
        "state": "AM",
        "district": "Jose Esteves",
        "street": "Passagem Barreto Batista",
        "zipcode": "69152-280"
    },
    {
        "city": "Parintins",
        "state": "AM",
        "district": "Sao Francisco De Assis",
        "street": "Rua Souza Filho (Cj Sham)",
        "zipcode": "69152-610"
    },
    {
        "city": "Parintins",
        "state": "AM",
        "district": "Centro",
        "street": "Rua Caramuri (Cj Macurani)",
        "zipcode": "69151-140"
    },
    {
        "city": "Parintins",
        "state": "AM",
        "district": "Centro",
        "street": "Beco Tomas Meireles",
        "zipcode": "69151-440"
    },
    {
        "city": "Parintins",
        "state": "AM",
        "district": "Pascal Alárgio",
        "street": "Rua Venezuela",
        "zipcode": "69152-599"
    },
    {
        "city": "Parintins",
        "state": "AM",
        "district": "Sao Francisco De Assis",
        "street": "Rua Acai",
        "zipcode": "69152-730"
    },
    {
        "city": "Parintins",
        "state": "AM",
        "district": "Santa Clara",
        "street": "Rua Edilce Baranda",
        "zipcode": "69151-170"
    },
    {
        "city": "Parintins",
        "state": "AM",
        "district": "Centro",
        "street": "Rua J Teixeira",
        "zipcode": "69151-330"
    },
    {
        "city": "Parintins",
        "state": "AM",
        "district": "Pascal Alárgio",
        "street": "Rua Portugal",
        "zipcode": "69152-680"
    },
    {
        "city": "Parintins",
        "state": "AM",
        "district": "Pascal Alárgio",
        "street": "Rua Jamaica",
        "zipcode": "69152-671"
    },
    {
        "city": "Parintins",
        "state": "AM",
        "district": "Pascal Alárgio",
        "street": "Rua Costa Rica",
        "zipcode": "69152-647"
    },
    {
        "city": "Parintins",
        "state": "AM",
        "district": "Sao Francisco De Assis",
        "street": "Rua Pichita Cohen (Cj Sham)",
        "zipcode": "69152-600"
    },
    {
        "city": "Parintins",
        "state": "AM",
        "district": "Pascal Alárgio",
        "street": "Rua Haiti",
        "zipcode": "69152-638"
    },
    {
        "city": "Parintins",
        "state": "AM",
        "district": "Pascal Alárgio",
        "street": "Rua Peru",
        "zipcode": "69152-614"
    },
    {
        "city": "Parintins",
        "state": "AM",
        "district": "Centro",
        "street": "Rua 1 De Janeiro",
        "zipcode": "69151-340"
    },
    {
        "city": "Parintins",
        "state": "AM",
        "district": "Palmares",
        "street": "Rua Jurity",
        "zipcode": "69153-190"
    },
    {
        "city": "Parintins",
        "state": "AM",
        "district": "Pascal Alárgio",
        "street": "Rua México",
        "zipcode": "69152-668"
    },
    {
        "city": "Parintins",
        "state": "AM",
        "district": "Pascal Alárgio",
        "street": "Rua Guianas",
        "zipcode": "69152-644"
    },
    {
        "city": "Parintins",
        "state": "AM",
        "district": "Pascal Alárgio",
        "street": "Rua Cuba",
        "zipcode": "69152-620"
    },
    {
        "city": "Parintins",
        "state": "AM",
        "district": "Jose Esteves",
        "street": "Rua Raimundo Almada",
        "zipcode": "69152-230"
    },
    {
        "city": "Parintins",
        "state": "AM",
        "district": "Pascal Alárgio",
        "street": "Rua Equador",
        "zipcode": "69152-605"
    },
    {
        "city": "Parintins",
        "state": "AM",
        "district": "Sao Benedito",
        "street": "Beco Gregorio",
        "zipcode": "69152-110"
    },
    {
        "city": "Parintins",
        "state": "AM",
        "district": "Pascal Alárgio",
        "street": "Rodovia Odovaldo Novo",
        "zipcode": "69152-590"
    },
    {
        "city": "Parintins",
        "state": "AM",
        "district": null,
        "street": "Rua 12",
        "zipcode": "69158-992"
    },
    {
        "city": "Parintins",
        "state": "AM",
        "district": "Djard Vieira",
        "street": "Rua Bela Floresta",
        "zipcode": "69152-505"
    },
    {
        "city": "Parintins",
        "state": "AM",
        "district": "Jose Esteves",
        "street": "Beco Barreto Batista",
        "zipcode": "69152-270"
    },
    {
        "city": "Parintins",
        "state": "AM",
        "district": "Raimundo Muniz",
        "street": "Rua 7 de Setembro",
        "zipcode": "69151-464"
    },
    {
        "city": "Parintins",
        "state": "AM",
        "district": "Francesa",
        "street": "Rua Paraíba",
        "zipcode": "69151-492"
    },
    {
        "city": "Parintins",
        "state": "AM",
        "district": "Paulo Correa",
        "street": "Rua 24 de Janeiro",
        "zipcode": "69152-057"
    },
    {
        "city": "Parintins",
        "state": "AM",
        "district": "Distrito Industrial",
        "street": "Estrada Odovaldo Novo",
        "zipcode": "69152-327"
    },
    {
        "city": "Parintins",
        "state": "AM",
        "district": "Santa Rita de Cássia",
        "street": "Rua Samuel Abecassis",
        "zipcode": "69153-287"
    },
    {
        "city": "Parintins",
        "state": "AM",
        "district": "Emílio Moreira",
        "street": "Rua Alexandre Ribeiro",
        "zipcode": "69153-370"
    },
    {
        "city": "Parintins",
        "state": "AM",
        "district": "Centro",
        "street": "Passagem José Luiz",
        "zipcode": "69151-370"
    },
    {
        "city": "Parintins",
        "state": "AM",
        "district": "São Benedito",
        "street": "Rua Primeiro de Janeiro",
        "zipcode": "69151-539"
    },
    {
        "city": "Parintins",
        "state": "AM",
        "district": "Paulo Correa",
        "street": "Rua Padre Augusto Gianola",
        "zipcode": "69152-035"
    },
    {
        "city": "Parintins",
        "state": "AM",
        "district": "Distrito Industrial",
        "street": "Alameda Dois",
        "zipcode": "69152-336"
    },
    {
        "city": "Parintins",
        "state": "AM",
        "district": "Centro",
        "street": "Rua Coronel Araujo",
        "zipcode": "69151-050"
    },
    {
        "city": "Parintins",
        "state": "AM",
        "district": "União",
        "street": "Rua D",
        "zipcode": "69152-563"
    },
    {
        "city": "Parintins",
        "state": "AM",
        "district": "Centro",
        "street": "Rua Carambola (Cj Macurani)",
        "zipcode": "69151-740"
    },
    {
        "city": "Parintins",
        "state": "AM",
        "district": "Santa Rita De Cassia",
        "street": "Rua Alfredo Monteiro Lima",
        "zipcode": "69153-330"
    },
    {
        "city": "Parintins",
        "state": "AM",
        "district": "Jose Esteves",
        "street": "Rua J. A. Azevedo",
        "zipcode": "69152-220"
    },
    {
        "city": "Parintins",
        "state": "AM",
        "district": "Centro",
        "street": "Rua Governador Leopoldo Neves",
        "zipcode": "69151-460"
    },
    {
        "city": "Parintins",
        "state": "AM",
        "district": "Pascal Alárgio",
        "street": "Rua Moçambique",
        "zipcode": "69152-674"
    },
    {
        "city": "Parintins",
        "state": "AM",
        "district": "Sao Francisco De Assis",
        "street": "Rua Coronel Barreto Batista",
        "zipcode": "69152-710"
    },
    {
        "city": "Parintins",
        "state": "AM",
        "district": "Pascal Alárgio",
        "street": "Avenida Geny Bentes",
        "zipcode": "69152-656"
    },
    {
        "city": "Parintins",
        "state": "AM",
        "district": "Teixeirão",
        "street": "Rua Dom Arcangelo Cerqua",
        "zipcode": "69152-114"
    },
    {
        "city": "Parintins",
        "state": "AM",
        "district": "Pascal Alárgio",
        "street": "Rua Honduras",
        "zipcode": "69152-641"
    },
    {
        "city": "Parintins",
        "state": "AM",
        "district": "União",
        "street": "Rua 11",
        "zipcode": "69152-584"
    },
    {
        "city": "Parintins",
        "state": "AM",
        "district": "Nossa Senhora de Nazaré",
        "street": "Travessa Padre Sílvio Mioto",
        "zipcode": "69153-482"
    },
    {
        "city": "Parintins",
        "state": "AM",
        "district": "União",
        "street": "Rua 2",
        "zipcode": "69152-545"
    },
    {
        "city": "Parintins",
        "state": "AM",
        "district": "Sao Francisco De Assis",
        "street": "Rua Domingos Prestes (Cj Cham)",
        "zipcode": "69152-630"
    },
    {
        "city": "Parintins",
        "state": "AM",
        "district": "Pascal Alárgio",
        "street": "Rua Bolívia",
        "zipcode": "69152-611"
    },
    {
        "city": "Parintins",
        "state": "AM",
        "district": "Santa Clara",
        "street": "Avenida Joao Meireles",
        "zipcode": "69151-110"
    },
    {
        "city": "Parintins",
        "state": "AM",
        "district": "Emilio Moreira",
        "street": "Rua Paraiba",
        "zipcode": "69153-350"
    },
    {
        "city": "Parintins",
        "state": "AM",
        "district": "Tonzinho Saunier",
        "street": "Rua Castanha do Pará",
        "zipcode": "69152-237"
    },
    {
        "city": "Parintins",
        "state": "AM",
        "district": "Tonzinho Saunier",
        "street": "Rua Abacaba",
        "zipcode": "69152-225"
    },
    {
        "city": "Parintins",
        "state": "AM",
        "district": "União",
        "street": "Rua 12",
        "zipcode": "69152-586"
    },
    {
        "city": "Parintins",
        "state": "AM",
        "district": "Pascal Alárgio",
        "street": "Rua Colômbia",
        "zipcode": "69152-596"
    },
    {
        "city": "Parintins",
        "state": "AM",
        "district": "Sao Francisco De Assis",
        "street": "Rua Uaicurapa",
        "zipcode": "69152-540"
    },
    {
        "city": "Parintins",
        "state": "AM",
        "district": "União",
        "street": "Rua B",
        "zipcode": "69152-578"
    },
    {
        "city": "Parintins",
        "state": "AM",
        "district": "Pascal Alárgio",
        "street": "Rua Timor Leste",
        "zipcode": "69152-626"
    },
    {
        "city": "Parintins",
        "state": "AM",
        "district": "Santa Clara",
        "street": "Rua Quinta Da Boa Vista",
        "zipcode": "69151-610"
    },
    {
        "city": "Parintins",
        "state": "AM",
        "district": "Teixeirão",
        "street": "Rua B",
        "zipcode": "69152-102"
    }
]