[
    {
        "city": "Tefé",
        "state": "AM",
        "district": "Santo Antônio",
        "street": "Rua Alvarães",
        "zipcode": "69550-190"
    },
    {
        "city": "Tefé",
        "state": "AM",
        "district": "São Raimundo",
        "street": "Rua Santa Rita",
        "zipcode": "69552-820"
    },
    {
        "city": "Tefé",
        "state": "AM",
        "district": "Mutirão",
        "street": "Rua Tupebas",
        "zipcode": "69553-505"
    },
    {
        "city": "Tefé",
        "state": "AM",
        "district": "Fonte Boa",
        "street": "Rua Papagaio",
        "zipcode": "69553-195"
    },
    {
        "city": "Tefé",
        "state": "AM",
        "district": "Abial",
        "street": "Rua São Paulo",
        "zipcode": "69550-420"
    },
    {
        "city": "Tefé",
        "state": "AM",
        "district": "Fonte Boa",
        "street": "Estrada do Bexiga",
        "zipcode": "69553-215"
    },
    {
        "city": "Tefé",
        "state": "AM",
        "district": "Santa Luzia",
        "street": "Rua São Joaquim",
        "zipcode": "69550-332"
    },
    {
        "city": "Tefé",
        "state": "AM",
        "district": "Monte Castelo",
        "street": "Estrada do Aeroporto",
        "zipcode": "69557-200"
    },
    {
        "city": "Tefé",
        "state": "AM",
        "district": "Abial",
        "street": "Rua Beira Mar",
        "zipcode": "69550-430"
    },
    {
        "city": "Tefé",
        "state": "AM",
        "district": "Nossa Senhora de Fátima",
        "street": "Travessa Alexandre Rodrigues Alves",
        "zipcode": "69557-505"
    },
    {
        "city": "Tefé",
        "state": "AM",
        "district": "Jerusalém",
        "street": "Rua Nazaré",
        "zipcode": "69553-025"
    },
    {
        "city": "Tefé",
        "state": "AM",
        "district": "Jerusalém",
        "street": "Rua Bom Jesus",
        "zipcode": "69553-095"
    },
    {
        "city": "Tefé",
        "state": "AM",
        "district": "São José",
        "street": "Rua das Flores",
        "zipcode": "69552-560"
    },
    {
        "city": "Tefé",
        "state": "AM",
        "district": "Nova Esperança",
        "street": "Rua Raimundo Lima",
        "zipcode": "69553-400"
    },
    {
        "city": "Tefé",
        "state": "AM",
        "district": "São José",
        "street": "Beco João Estéfano",
        "zipcode": "69552-565"
    },
    {
        "city": "Tefé",
        "state": "AM",
        "district": "Abial",
        "street": "Beco da Estradinha",
        "zipcode": "69550-495"
    },
    {
        "city": "Tefé",
        "state": "AM",
        "district": "Santa Teresa",
        "street": "Rua Catalão",
        "zipcode": "69555-035"
    },
    {
        "city": "Tefé",
        "state": "AM",
        "district": "Santa Teresa",
        "street": "Travessa Campinas",
        "zipcode": "69555-040"
    },
    {
        "city": "Tefé",
        "state": "AM",
        "district": "Santo Antônio",
        "street": "Rua Nogueira",
        "zipcode": "69550-214"
    },
    {
        "city": "Tefé",
        "state": "AM",
        "district": "Santa Teresa",
        "street": "Travessa 2",
        "zipcode": "69555-020"
    },
    {
        "city": "Tefé",
        "state": "AM",
        "district": "Fonte Boa",
        "street": "Rua Moacir Veiga da Gama",
        "zipcode": "69553-230"
    },
    {
        "city": "Tefé",
        "state": "AM",
        "district": "Centro",
        "street": "Travessa Mesquita Braga",
        "zipcode": "69550-021"
    },
    {
        "city": "Tefé",
        "state": "AM",
        "district": "Abial",
        "street": "Rua São Pedro",
        "zipcode": "69550-445"
    },
    {
        "city": "Tefé",
        "state": "AM",
        "district": "Aeroporto",
        "street": "Rua Montese",
        "zipcode": "69555-320"
    },
    {
        "city": "Tefé",
        "state": "AM",
        "district": "Aeroporto",
        "street": "Rua Tabatinga",
        "zipcode": "69555-240"
    },
    {
        "city": "Tefé",
        "state": "AM",
        "district": "Juruá",
        "street": "Estrada do Bexiga",
        "zipcode": "69552-340"
    },
    {
        "city": "Tefé",
        "state": "AM",
        "district": "São João",
        "street": "Rua Santa Fé",
        "zipcode": "69553-355"
    },
    {
        "city": "Tefé",
        "state": "AM",
        "district": "Monte Castelo",
        "street": "Rua Joaquim Nabuco",
        "zipcode": "69557-030"
    },
    {
        "city": "Tefé",
        "state": "AM",
        "district": "Fonte Boa",
        "street": "Rua Raimundo Lima",
        "zipcode": "69553-110"
    },
    {
        "city": "Tefé",
        "state": "AM",
        "district": "Santa Teresa",
        "street": "Rua Araguaiana",
        "zipcode": "69555-050"
    },
    {
        "city": "Tefé",
        "state": "AM",
        "district": "Juruá",
        "street": "Rua 4",
        "zipcode": "69552-330"
    },
    {
        "city": "Tefé",
        "state": "AM",
        "district": "Monte Castelo",
        "street": "Rua Dom Pedro I",
        "zipcode": "69557-020"
    },
    {
        "city": "Tefé",
        "state": "AM",
        "district": "Juruá",
        "street": "Rua 3",
        "zipcode": "69552-325"
    },
    {
        "city": "Tefé",
        "state": "AM",
        "district": "Juruá",
        "street": "Rua São Luiz",
        "zipcode": "69552-255"
    },
    {
        "city": "Tefé",
        "state": "AM",
        "district": "Santa Teresa",
        "street": "Rua Ipanemi",
        "zipcode": "69555-060"
    },
    {
        "city": "Tefé",
        "state": "AM",
        "district": "Abial",
        "street": "Rua da Carreira",
        "zipcode": "69550-425"
    },
    {
        "city": "Tefé",
        "state": "AM",
        "district": "Aeroporto",
        "street": "Rua Tarauacá",
        "zipcode": "69555-255"
    },
    {
        "city": "Tefé",
        "state": "AM",
        "district": "Fonte Boa",
        "street": "Estrada do Bexiga",
        "zipcode": "69553-125"
    },
    {
        "city": "Tefé",
        "state": "AM",
        "district": "Santa Teresa",
        "street": "Travessa 3",
        "zipcode": "69555-010"
    },
    {
        "city": "Tefé",
        "state": "AM",
        "district": "Santa Luzia",
        "street": "Rua São Cristóvão",
        "zipcode": "69550-312"
    },
    {
        "city": "Tefé",
        "state": "AM",
        "district": "Juruá",
        "street": "Rua 5",
        "zipcode": "69552-335"
    },
    {
        "city": "Tefé",
        "state": "AM",
        "district": "Santa Teresa",
        "street": "Rua Santa Helena",
        "zipcode": "69555-025"
    },
    {
        "city": "Tefé",
        "state": "AM",
        "district": "Aeroporto",
        "street": "Estrada da Agrovila",
        "zipcode": "69555-305"
    },
    {
        "city": "Tefé",
        "state": "AM",
        "district": "Santa Teresa",
        "street": "Rua Santa Tereza",
        "zipcode": "69555-015"
    },
    {
        "city": "Tefé",
        "state": "AM",
        "district": "Aeroporto",
        "street": "Rua Monte Castelo",
        "zipcode": "69555-315"
    },
    {
        "city": "Tefé",
        "state": "AM",
        "district": "São Raimundo",
        "street": "Rua Monte Sinai",
        "zipcode": "69552-785"
    },
    {
        "city": "Tefé",
        "state": "AM",
        "district": "Santa Luzia",
        "street": "Rua da Trindade",
        "zipcode": "69550-324"
    },
    {
        "city": "Tefé",
        "state": "AM",
        "district": "São Raimundo",
        "street": "Travessa Emaús I",
        "zipcode": "69552-805"
    },
    {
        "city": "Tefé",
        "state": "AM",
        "district": "Monte Castelo",
        "street": "Rua Dom Pedro II",
        "zipcode": "69557-010"
    },
    {
        "city": "Tefé",
        "state": "AM",
        "district": "Aeroporto",
        "street": "Vila Bittencourt",
        "zipcode": "69555-250"
    },
    {
        "city": "Tefé",
        "state": "AM",
        "district": "São José",
        "street": "Rua Nuno Alves",
        "zipcode": "69552-540"
    },
    {
        "city": "Tefé",
        "state": "AM",
        "district": "Aeroporto",
        "street": "Alameda Tefé",
        "zipcode": "69555-185"
    },
    {
        "city": "Tefé",
        "state": "AM",
        "district": "Juruá",
        "street": "Rua João Estéfano",
        "zipcode": "69552-250"
    },
    {
        "city": "Tefé",
        "state": "AM",
        "district": "Santo Antônio",
        "street": "Rua Minas Gerais",
        "zipcode": "69550-218"
    },
    {
        "city": "Tefé",
        "state": "AM",
        "district": "Aeroporto",
        "street": "Rua Pedro Teixeira",
        "zipcode": "69555-260"
    },
    {
        "city": "Tefé",
        "state": "AM",
        "district": "Santa Teresa",
        "street": "Travessa 1",
        "zipcode": "69555-030"
    },
    {
        "city": "Tefé",
        "state": "AM",
        "district": "Aeroporto",
        "street": "Rua das Missões",
        "zipcode": "69555-265"
    },
    {
        "city": "Tefé",
        "state": "AM",
        "district": "Abial",
        "street": "Rua Cristóvão Colombo",
        "zipcode": "69550-435"
    },
    {
        "city": "Tefé",
        "state": "AM",
        "district": "São João",
        "street": "Rua Nova I",
        "zipcode": "69553-320"
    },
    {
        "city": "Tefé",
        "state": "AM",
        "district": "São João",
        "street": "Rua Bom Jardim",
        "zipcode": "69553-330"
    },
    {
        "city": "Tefé",
        "state": "AM",
        "district": "São Raimundo",
        "street": "Rua Aracaju II",
        "zipcode": "69552-760"
    },
    {
        "city": "Tefé",
        "state": "AM",
        "district": "Mutirão",
        "street": "Rua Tamuana",
        "zipcode": "69553-525"
    },
    {
        "city": "Tefé",
        "state": "AM",
        "district": "Aeroporto",
        "street": "Alameda das Missões",
        "zipcode": "69555-310"
    },
    {
        "city": "Tefé",
        "state": "AM",
        "district": "São Raimundo",
        "street": "Rua Jericó",
        "zipcode": "69552-755"
    },
    {
        "city": "Tefé",
        "state": "AM",
        "district": "Santa Teresa",
        "street": "Rua Anápolis",
        "zipcode": "69555-055"
    },
    {
        "city": "Tefé",
        "state": "AM",
        "district": "Jerusalém",
        "street": "Rua Bom Jesus",
        "zipcode": "69553-070"
    },
    {
        "city": "Tefé",
        "state": "AM",
        "district": "Aeroporto",
        "street": "Rua Tuiuti",
        "zipcode": "69555-325"
    },
    {
        "city": "Tefé",
        "state": "AM",
        "district": "Jerusalém",
        "street": "Travessa Nazaré",
        "zipcode": "69553-035"
    },
    {
        "city": "Tefé",
        "state": "AM",
        "district": "São João",
        "street": "Rua Bom Jardim",
        "zipcode": "69553-325"
    },
    {
        "city": "Tefé",
        "state": "AM",
        "district": "Abial",
        "street": "Travessa Beira Mar",
        "zipcode": "69550-415"
    },
    {
        "city": "Tefé",
        "state": "AM",
        "district": "Monte Castelo",
        "street": "Beco Tiradentes",
        "zipcode": "69557-040"
    },
    {
        "city": "Tefé",
        "state": "AM",
        "district": "São João",
        "street": "Rua Amazonas",
        "zipcode": "69553-305"
    },
    {
        "city": "Tefé",
        "state": "AM",
        "district": "Monte Castelo",
        "street": "Rua Minas Gerais",
        "zipcode": "69557-045"
    },
    {
        "city": "Tefé",
        "state": "AM",
        "district": "São João",
        "street": "Travessa da Paz",
        "zipcode": "69553-335"
    },
    {
        "city": "Tefé",
        "state": "AM",
        "district": "Fonte Boa",
        "street": "Beco Bem",
        "zipcode": "69553-165"
    },
    {
        "city": "Tefé",
        "state": "AM",
        "district": "Monte Castelo",
        "street": "Rua Ceará",
        "zipcode": "69557-145"
    },
    {
        "city": "Tefé",
        "state": "AM",
        "district": "Monte Castelo",
        "street": "Rua Rosângela Coca",
        "zipcode": "69557-215"
    },
    {
        "city": "Tefé",
        "state": "AM",
        "district": "Nova Esperança",
        "street": "Beco Vitória Régia",
        "zipcode": "69553-460"
    },
    {
        "city": "Tefé",
        "state": "AM",
        "district": "Nossa Senhora de Fátima",
        "street": "Travessa Monte Alegre",
        "zipcode": "69557-515"
    },
    {
        "city": "Tefé",
        "state": "AM",
        "district": "Juruá",
        "street": "Rua 15 de Junho",
        "zipcode": "69552-245"
    },
    {
        "city": "Tefé",
        "state": "AM",
        "district": "Juruá",
        "street": "Beco São Luiz",
        "zipcode": "69552-260"
    },
    {
        "city": "Tefé",
        "state": "AM",
        "district": "Santa Teresa",
        "street": "Rua Campinas",
        "zipcode": "69555-045"
    },
    {
        "city": "Tefé",
        "state": "AM",
        "district": "Fonte Boa",
        "street": "Rua Andorinha",
        "zipcode": "69553-150"
    },
    {
        "city": "Tefé",
        "state": "AM",
        "district": "Fonte Boa",
        "street": "Rua Ariramba",
        "zipcode": "69553-210"
    },
    {
        "city": "Tefé",
        "state": "AM",
        "district": "Fonte Boa",
        "street": "Rua Rouxinol",
        "zipcode": "69553-145"
    },
    {
        "city": "Tefé",
        "state": "AM",
        "district": "Monte Castelo",
        "street": "Rua Raimundo Pires",
        "zipcode": "69557-110"
    },
    {
        "city": "Tefé",
        "state": "AM",
        "district": "Nossa Senhora de Fátima",
        "street": "Avenida Tiradentes",
        "zipcode": "69557-520"
    },
    {
        "city": "Tefé",
        "state": "AM",
        "district": "Monte Castelo",
        "street": "Rua Pará",
        "zipcode": "69557-125"
    },
    {
        "city": "Tefé",
        "state": "AM",
        "district": "Santa Teresa",
        "street": "Rua Poranga",
        "zipcode": "69555-000"
    },
    {
        "city": "Tefé",
        "state": "AM",
        "district": "Santa Teresa",
        "street": "Rua Tamuana",
        "zipcode": "69555-160"
    },
    {
        "city": "Tefé",
        "state": "AM",
        "district": "Jerusalém",
        "street": "Estrada do Bexiga",
        "zipcode": "69553-100"
    },
    {
        "city": "Tefé",
        "state": "AM",
        "district": "Fonte Boa",
        "street": "Rua Jaçanã",
        "zipcode": "69553-140"
    },
    {
        "city": "Tefé",
        "state": "AM",
        "district": "Olaria",
        "street": "Rua Cleto Praia",
        "zipcode": "69550-174"
    },
    {
        "city": "Tefé",
        "state": "AM",
        "district": "Nossa Senhora de Fátima",
        "street": "Rua Alexandre Rodrigues Alves",
        "zipcode": "69557-510"
    },
    {
        "city": "Tefé",
        "state": "AM",
        "district": "Monte Castelo",
        "street": "Rua Afonso Sósthenes Medeiros",
        "zipcode": "69557-140"
    },
    {
        "city": "Tefé",
        "state": "AM",
        "district": "Juruá",
        "street": "Rua Wilson Chagas",
        "zipcode": "69552-305"
    },
    {
        "city": "Tefé",
        "state": "AM",
        "district": "Nova Esperança",
        "street": "Rua Campinas",
        "zipcode": "69553-440"
    },
    {
        "city": "Tefé",
        "state": "AM",
        "district": "Juruá",
        "street": "Beco Beira Mar",
        "zipcode": "69552-240"
    },
    {
        "city": "Tefé",
        "state": "AM",
        "district": "Juruá",
        "street": "Beco São Luiz I",
        "zipcode": "69552-350"
    },
    {
        "city": "Tefé",
        "state": "AM",
        "district": "Fonte Boa",
        "street": "Rua Bem",
        "zipcode": "69553-160"
    },
    {
        "city": "Tefé",
        "state": "AM",
        "district": "Juruá",
        "street": "Vila Campelo",
        "zipcode": "69552-280"
    },
    {
        "city": "Tefé",
        "state": "AM",
        "district": "Juruá",
        "street": "Rua João Bosco",
        "zipcode": "69552-310"
    },
    {
        "city": "Tefé",
        "state": "AM",
        "district": "Monte Castelo",
        "street": "Rua Nova I",
        "zipcode": "69557-120"
    },
    {
        "city": "Tefé",
        "state": "AM",
        "district": "Monte Castelo",
        "street": "Rua Alexandre Alves",
        "zipcode": "69557-240"
    },
    {
        "city": "Tefé",
        "state": "AM",
        "district": "Juruá",
        "street": "Rua Armando Barros",
        "zipcode": "69552-210"
    },
    {
        "city": "Tefé",
        "state": "AM",
        "district": "Monte Castelo",
        "street": "Rua Daniel Alves",
        "zipcode": "69557-225"
    },
    {
        "city": "Tefé",
        "state": "AM",
        "district": "Fonte Boa",
        "street": "Travessa Bem",
        "zipcode": "69553-170"
    },
    {
        "city": "Tefé",
        "state": "AM",
        "district": "Fonte Boa",
        "street": "Rua Raimundo Lima",
        "zipcode": "69553-175"
    },
    {
        "city": "Tefé",
        "state": "AM",
        "district": "Monte Castelo",
        "street": "Rua Rio Grande do Norte",
        "zipcode": "69557-135"
    },
    {
        "city": "Tefé",
        "state": "AM",
        "district": "Jerusalém",
        "street": "Rua Emaús",
        "zipcode": "69553-090"
    },
    {
        "city": "Tefé",
        "state": "AM",
        "district": "Juruá",
        "street": "Rua Japurá",
        "zipcode": "69552-220"
    },
    {
        "city": "Tefé",
        "state": "AM",
        "district": "Monte Castelo",
        "street": "Rua Rui Barbosa",
        "zipcode": "69557-055"
    },
    {
        "city": "Tefé",
        "state": "AM",
        "district": "Fonte Boa",
        "street": "Rua Sabiá",
        "zipcode": "69553-130"
    },
    {
        "city": "Tefé",
        "state": "AM",
        "district": "Aeroporto",
        "street": "Estrada do Aeroporto",
        "zipcode": "69555-300"
    },
    {
        "city": "Tefé",
        "state": "AM",
        "district": "Jerusalém",
        "street": "Rua Emaús",
        "zipcode": "69553-085"
    },
    {
        "city": "Tefé",
        "state": "AM",
        "district": "Santa Rosa",
        "street": "Travessa Flores",
        "zipcode": "69552-020"
    },
    {
        "city": "Tefé",
        "state": "AM",
        "district": "Monte Castelo",
        "street": "Rua Luciane Alves",
        "zipcode": "69557-220"
    },
    {
        "city": "Tefé",
        "state": "AM",
        "district": "Monte Castelo",
        "street": "Rua Presidente Costa e Silva",
        "zipcode": "69557-000"
    },
    {
        "city": "Tefé",
        "state": "AM",
        "district": "Monte Castelo",
        "street": "Travessa Costa e Silva",
        "zipcode": "69557-005"
    },
    {
        "city": "Tefé",
        "state": "AM",
        "district": "Jerusalém",
        "street": "Rua Nazaré",
        "zipcode": "69553-080"
    },
    {
        "city": "Tefé",
        "state": "AM",
        "district": "Santo Antônio",
        "street": "Avenida Tiradentes",
        "zipcode": "69550-266"
    },
    {
        "city": "Tefé",
        "state": "AM",
        "district": "Fonte Boa",
        "street": "Rua Gaivota",
        "zipcode": "69553-135"
    },
    {
        "city": "Tefé",
        "state": "AM",
        "district": "Juruá",
        "street": "Beco Wilson Chagas",
        "zipcode": "69552-265"
    },
    {
        "city": "Tefé",
        "state": "AM",
        "district": "Fonte Boa",
        "street": "Travessa Mercindo Rodrigues",
        "zipcode": "69553-185"
    },
    {
        "city": "Tefé",
        "state": "AM",
        "district": "Monte Castelo",
        "street": "Rua Irmã Adonai",
        "zipcode": "69557-235"
    },
    {
        "city": "Tefé",
        "state": "AM",
        "district": "Nova Esperança",
        "street": "Rua Tancredo Neves",
        "zipcode": "69553-450"
    },
    {
        "city": "Tefé",
        "state": "AM",
        "district": "Fonte Boa",
        "street": "Estrada do Bexiga",
        "zipcode": "69553-220"
    },
    {
        "city": "Tefé",
        "state": "AM",
        "district": "Nova Esperança",
        "street": "Travessa Bem",
        "zipcode": "69553-430"
    },
    {
        "city": "Tefé",
        "state": "AM",
        "district": "Fonte Boa",
        "street": "Estrada do Bexiga",
        "zipcode": "69553-225"
    },
    {
        "city": "Tefé",
        "state": "AM",
        "district": "Jerusalém",
        "street": "Rua Raimundo Lima",
        "zipcode": "69553-105"
    },
    {
        "city": "Tefé",
        "state": "AM",
        "district": "Monte Castelo",
        "street": "Rua Rosa Coca",
        "zipcode": "69557-230"
    },
    {
        "city": "Tefé",
        "state": "AM",
        "district": "Nossa Senhora de Fátima",
        "street": "Rua Alvorada",
        "zipcode": "69557-530"
    },
    {
        "city": "Tefé",
        "state": "AM",
        "district": "Nova Esperança",
        "street": "Rua Tupebas",
        "zipcode": "69553-465"
    },
    {
        "city": "Tefé",
        "state": "AM",
        "district": "Monte Castelo",
        "street": "Rua Nova II",
        "zipcode": "69557-115"
    },
    {
        "city": "Tefé",
        "state": "AM",
        "district": "Fonte Boa",
        "street": "Travessa Papagaio",
        "zipcode": "69553-190"
    },
    {
        "city": "Tefé",
        "state": "AM",
        "district": "Nova Esperança",
        "street": "Rua Catalão",
        "zipcode": "69553-425"
    },
    {
        "city": "Tefé",
        "state": "AM",
        "district": "Monte Castelo",
        "street": "Estrada do Aeroporto",
        "zipcode": "69557-015"
    },
    {
        "city": "Tefé",
        "state": "AM",
        "district": "Monte Castelo",
        "street": "Rua Pedro Coca",
        "zipcode": "69557-210"
    },
    {
        "city": "Tefé",
        "state": "AM",
        "district": "São João",
        "street": "Rua Moacir Veiga da Gama",
        "zipcode": "69553-300"
    },
    {
        "city": "Tefé",
        "state": "AM",
        "district": "Nova Esperança",
        "street": "Rua José Lindoso",
        "zipcode": "69553-410"
    },
    {
        "city": "Tefé",
        "state": "AM",
        "district": "Centro",
        "street": "Rua Getúlio Vargas",
        "zipcode": "69550-903"
    },
    {
        "city": "Tefé",
        "state": "AM",
        "district": "São João",
        "street": "Rua Espírito Santo",
        "zipcode": "69553-340"
    },
    {
        "city": "Tefé",
        "state": "AM",
        "district": "São José",
        "street": "Rua São Luiz",
        "zipcode": "69552-550"
    },
    {
        "city": "Tefé",
        "state": "AM",
        "district": "Nova Esperança",
        "street": "Rua Jaraguaia",
        "zipcode": "69553-405"
    },
    {
        "city": "Tefé",
        "state": "AM",
        "district": "São José",
        "street": "Rua João Estéfano",
        "zipcode": "69552-555"
    },
    {
        "city": "Tefé",
        "state": "AM",
        "district": "São José",
        "street": "Rua Dom Bosco",
        "zipcode": "69552-525"
    },
    {
        "city": "Tefé",
        "state": "AM",
        "district": "Santa Rosa",
        "street": "Travessa Lucas Filho",
        "zipcode": "69552-030"
    },
    {
        "city": "Tefé",
        "state": "AM",
        "district": "Jerusalém",
        "street": "Rua Arimatéia",
        "zipcode": "69553-075"
    },
    {
        "city": "Tefé",
        "state": "AM",
        "district": "São José",
        "street": "Travessa Dom Bosco",
        "zipcode": "69552-520"
    },
    {
        "city": "Tefé",
        "state": "AM",
        "district": "Juruá",
        "street": "Avenida Juruá",
        "zipcode": "69552-225"
    },
    {
        "city": "Tefé",
        "state": "AM",
        "district": "São Raimundo",
        "street": "Rua Emaús",
        "zipcode": "69552-720"
    },
    {
        "city": "Tefé",
        "state": "AM",
        "district": "Nova Esperança",
        "street": "Rua Irmão Falcon",
        "zipcode": "69553-415"
    },
    {
        "city": "Tefé",
        "state": "AM",
        "district": "São Francisco",
        "street": "Rua Brasil",
        "zipcode": "69552-100"
    },
    {
        "city": "Tefé",
        "state": "AM",
        "district": "Fonte Boa",
        "street": "Rua Tucano",
        "zipcode": "69553-155"
    },
    {
        "city": "Tefé",
        "state": "AM",
        "district": "Nova Esperança",
        "street": "Rua Poranga",
        "zipcode": "69553-470"
    },
    {
        "city": "Tefé",
        "state": "AM",
        "district": "São João",
        "street": "Rua Irmão Falcon",
        "zipcode": "69553-345"
    },
    {
        "city": "Tefé",
        "state": "AM",
        "district": "São João",
        "street": "Rua Jaraguaia",
        "zipcode": "69553-350"
    },
    {
        "city": "Tefé",
        "state": "AM",
        "district": "Jerusalém",
        "street": "Rua Cesaréia",
        "zipcode": "69553-060"
    },
    {
        "city": "Tefé",
        "state": "AM",
        "district": "Mutirão",
        "street": "Rua Tancredo Neves",
        "zipcode": "69553-510"
    },
    {
        "city": "Tefé",
        "state": "AM",
        "district": "São Raimundo",
        "street": "Rua Emaús",
        "zipcode": "69552-725"
    },
    {
        "city": "Tefé",
        "state": "AM",
        "district": "Juruá",
        "street": "Rua 1º de Maio",
        "zipcode": "69552-235"
    },
    {
        "city": "Tefé",
        "state": "AM",
        "district": "São José",
        "street": "Rua José Gadanha",
        "zipcode": "69552-575"
    },
    {
        "city": "Tefé",
        "state": "AM",
        "district": "São Francisco",
        "street": "Rua Recife",
        "zipcode": "69552-120"
    },
    {
        "city": "Tefé",
        "state": "AM",
        "district": "Jerusalém",
        "street": "Rua Santa Rita",
        "zipcode": "69553-000"
    },
    {
        "city": "Tefé",
        "state": "AM",
        "district": "Fonte Boa",
        "street": "Rua Amazonas",
        "zipcode": "69553-200"
    },
    {
        "city": "Tefé",
        "state": "AM",
        "district": "Mutirão",
        "street": "Rua Poranga",
        "zipcode": "69553-500"
    },
    {
        "city": "Tefé",
        "state": "AM",
        "district": "São João",
        "street": "Rua Moacir Veiga da Gama",
        "zipcode": "69553-370"
    },
    {
        "city": "Tefé",
        "state": "AM",
        "district": "Nova Esperança",
        "street": "Travessa Santa Rita",
        "zipcode": "69553-435"
    },
    {
        "city": "Tefé",
        "state": "AM",
        "district": "Santa Rosa",
        "street": "Rua Brasil",
        "zipcode": "69552-050"
    },
    {
        "city": "Tefé",
        "state": "AM",
        "district": "São Francisco",
        "street": "Rua Armando Barros",
        "zipcode": "69552-135"
    },
    {
        "city": "Tefé",
        "state": "AM",
        "district": "Jerusalém",
        "street": "Beco Raimundo Lima",
        "zipcode": "69553-045"
    },
    {
        "city": "Tefé",
        "state": "AM",
        "district": "Juruá",
        "street": "Rua Diogo Torres",
        "zipcode": "69552-200"
    },
    {
        "city": "Tefé",
        "state": "AM",
        "district": "Juruá",
        "street": "Rua Brasília",
        "zipcode": "69552-275"
    },
    {
        "city": "Tefé",
        "state": "AM",
        "district": "Nova Esperança",
        "street": "Travessa Catalão",
        "zipcode": "69553-420"
    },
    {
        "city": "Tefé",
        "state": "AM",
        "district": "Jerusalém",
        "street": "Rua Raimundo Lima",
        "zipcode": "69553-055"
    },
    {
        "city": "Tefé",
        "state": "AM",
        "district": "Jerusalém",
        "street": "Travessa Bem",
        "zipcode": "69553-050"
    },
    {
        "city": "Tefé",
        "state": "AM",
        "district": "São Francisco",
        "street": "Rua Brasília",
        "zipcode": "69552-130"
    },
    {
        "city": "Tefé",
        "state": "AM",
        "district": "São João",
        "street": "Rua Tucano",
        "zipcode": "69553-365"
    },
    {
        "city": "Tefé",
        "state": "AM",
        "district": "São João",
        "street": "Rua da Paz",
        "zipcode": "69553-360"
    },
    {
        "city": "Tefé",
        "state": "AM",
        "district": "Jerusalém",
        "street": "Rua Jericó",
        "zipcode": "69553-005"
    },
    {
        "city": "Tefé",
        "state": "AM",
        "district": "São João",
        "street": "Rua Nova II",
        "zipcode": "69553-315"
    },
    {
        "city": "Tefé",
        "state": "AM",
        "district": "São José",
        "street": "Estrada do Aeroporto",
        "zipcode": "69552-610"
    },
    {
        "city": "Tefé",
        "state": "AM",
        "district": "São Francisco",
        "street": "Rua Guanabara",
        "zipcode": "69552-115"
    },
    {
        "city": "Tefé",
        "state": "AM",
        "district": "São José",
        "street": "Rua Emaús",
        "zipcode": "69552-615"
    },
    {
        "city": "Tefé",
        "state": "AM",
        "district": "Juruá",
        "street": "Rua Brasília",
        "zipcode": "69552-215"
    },
    {
        "city": "Tefé",
        "state": "AM",
        "district": "São Francisco",
        "street": "Rua Japurá",
        "zipcode": "69552-125"
    },
    {
        "city": "Tefé",
        "state": "AM",
        "district": "São Francisco",
        "street": "Rua Antídio Façanha",
        "zipcode": "69552-140"
    },
    {
        "city": "Tefé",
        "state": "AM",
        "district": "Monte Castelo",
        "street": "Avenida Tiradentes",
        "zipcode": "69557-035"
    },
    {
        "city": "Tefé",
        "state": "AM",
        "district": "Jerusalém",
        "street": "Rua Jericó",
        "zipcode": "69553-065"
    },
    {
        "city": "Tefé",
        "state": "AM",
        "district": "Santa Rosa",
        "street": "Rua Hermes Tupinambá",
        "zipcode": "69552-025"
    },
    {
        "city": "Tefé",
        "state": "AM",
        "district": "São Francisco",
        "street": "Rua Diogo Torres",
        "zipcode": "69552-145"
    },
    {
        "city": "Tefé",
        "state": "AM",
        "district": "Santa Rosa",
        "street": "Estrada do Aeroporto",
        "zipcode": "69552-045"
    },
    {
        "city": "Tefé",
        "state": "AM",
        "district": "São José",
        "street": "Rua Irmã Alves",
        "zipcode": "69552-545"
    },
    {
        "city": "Tefé",
        "state": "AM",
        "district": "Juruá",
        "street": "Travessa Dom Bosco",
        "zipcode": "69552-355"
    },
    {
        "city": "Tefé",
        "state": "AM",
        "district": "São Raimundo",
        "street": "Rua Monte Orebe",
        "zipcode": "69552-780"
    },
    {
        "city": "Tefé",
        "state": "AM",
        "district": "Santa Rosa",
        "street": "Rua Marechal Deodoro",
        "zipcode": "69552-035"
    },
    {
        "city": "Tefé",
        "state": "AM",
        "district": "São João",
        "street": "Travessa Espírito Santo",
        "zipcode": "69553-310"
    },
    {
        "city": "Tefé",
        "state": "AM",
        "district": "Jerusalém",
        "street": "Rua Aracaju II",
        "zipcode": "69553-010"
    },
    {
        "city": "Tefé",
        "state": "AM",
        "district": "São Raimundo",
        "street": "Rua Antônio Lisboa",
        "zipcode": "69552-735"
    },
    {
        "city": "Tefé",
        "state": "AM",
        "district": "São Raimundo",
        "street": "Rua Princesa Isabel",
        "zipcode": "69552-740"
    },
    {
        "city": "Tefé",
        "state": "AM",
        "district": "São Raimundo",
        "street": "Rua Monte Carmelo",
        "zipcode": "69552-775"
    },
    {
        "city": "Tefé",
        "state": "AM",
        "district": "Centro",
        "street": "Rua Olavo Bilac",
        "zipcode": "69550-900"
    },
    {
        "city": "Tefé",
        "state": "AM",
        "district": "Centro",
        "street": "Rua Olavo Bilac",
        "zipcode": "69550-901"
    },
    {
        "city": "Tefé",
        "state": "AM",
        "district": "Centro",
        "street": "Rua Olavo Bilac",
        "zipcode": "69550-902"
    },
    {
        "city": "Tefé",
        "state": "AM",
        "district": "Colônia Ventura",
        "street": "Rua da Estradinha",
        "zipcode": "69550-500"
    },
    {
        "city": "Tefé",
        "state": "AM",
        "district": "Colônia Ventura",
        "street": "Rua I",
        "zipcode": "69550-510"
    },
    {
        "city": "Tefé",
        "state": "AM",
        "district": "Centro",
        "street": "Rua Olavo Bilac",
        "zipcode": "69550-005"
    },
    {
        "city": "Tefé",
        "state": "AM",
        "district": "Centro",
        "street": "Travessa Santa Teresa",
        "zipcode": "69550-029"
    },
    {
        "city": "Tefé",
        "state": "AM",
        "district": "Centro",
        "street": "Rua Daniel Sevalho",
        "zipcode": "69550-061"
    },
    {
        "city": "Tefé",
        "state": "AM",
        "district": "Centro",
        "street": "Rua Getúlio Vargas",
        "zipcode": "69550-073"
    },
    {
        "city": "Tefé",
        "state": "AM",
        "district": "Colônia Ventura",
        "street": "Rua II",
        "zipcode": "69550-620"
    },
    {
        "city": "Tefé",
        "state": "AM",
        "district": "São Raimundo",
        "street": "Rua Monte Sião",
        "zipcode": "69552-795"
    },
    {
        "city": "Tefé",
        "state": "AM",
        "district": "Juruá",
        "street": "Rua Barão do Rio Branco",
        "zipcode": "69552-230"
    },
    {
        "city": "Tefé",
        "state": "AM",
        "district": "São Raimundo",
        "street": "Travessa Jericó",
        "zipcode": "69552-765"
    },
    {
        "city": "Tefé",
        "state": "AM",
        "district": "Santo Antônio",
        "street": "Rua 3 de Outubro",
        "zipcode": "69550-226"
    },
    {
        "city": "Tefé",
        "state": "AM",
        "district": "Santa Rosa",
        "street": "Rua Capitão Patrício",
        "zipcode": "69552-040"
    },
    {
        "city": "Tefé",
        "state": "AM",
        "district": "Abial",
        "street": "Rua 10 de Maio",
        "zipcode": "69550-470"
    },
    {
        "city": "Tefé",
        "state": "AM",
        "district": "São Raimundo",
        "street": "Rua Projetada",
        "zipcode": "69552-790"
    },
    {
        "city": "Tefé",
        "state": "AM",
        "district": "Olaria",
        "street": "Rua 13 de Maio",
        "zipcode": "69550-153"
    },
    {
        "city": "Tefé",
        "state": "AM",
        "district": "São Raimundo",
        "street": "Estrada do Aeroporto",
        "zipcode": "69552-815"
    },
    {
        "city": "Tefé",
        "state": "AM",
        "district": "São Raimundo",
        "street": "Rua Aracaju I",
        "zipcode": "69552-750"
    },
    {
        "city": "Tefé",
        "state": "AM",
        "district": "Santa Rosa",
        "street": "Rua Independência",
        "zipcode": "69552-005"
    },
    {
        "city": "Tefé",
        "state": "AM",
        "district": "Santa Rosa",
        "street": "Rua Barão do Rio Branco",
        "zipcode": "69552-010"
    },
    {
        "city": "Tefé",
        "state": "AM",
        "district": "Abial",
        "street": "Rua Samuel Fritz",
        "zipcode": "69550-475"
    },
    {
        "city": "Tefé",
        "state": "AM",
        "district": "Vila Nova",
        "street": "Rua Afonso Rodrigues Alves",
        "zipcode": "69557-775"
    },
    {
        "city": "Tefé",
        "state": "AM",
        "district": "São José",
        "street": "Travessa Almerinda Braga",
        "zipcode": "69552-590"
    },
    {
        "city": "Tefé",
        "state": "AM",
        "district": "Abial",
        "street": "Rua São Paulo",
        "zipcode": "69550-440"
    },
    {
        "city": "Tefé",
        "state": "AM",
        "district": "Santo Antônio",
        "street": "Rua 3 de Outubro",
        "zipcode": "69550-222"
    },
    {
        "city": "Tefé",
        "state": "AM",
        "district": "Santa Luzia",
        "street": "Rua Minas Gerais",
        "zipcode": "69550-300"
    },
    {
        "city": "Tefé",
        "state": "AM",
        "district": "Santo Antônio",
        "street": "Rua Minas Gerais",
        "zipcode": "69550-282"
    },
    {
        "city": "Tefé",
        "state": "AM",
        "district": "Jerusalém",
        "street": "Travessa Cafarnaum",
        "zipcode": "69553-030"
    },
    {
        "city": "Tefé",
        "state": "AM",
        "district": "São Raimundo",
        "street": "Travessa Monte Carmelo",
        "zipcode": "69552-770"
    },
    {
        "city": "Tefé",
        "state": "AM",
        "district": "Santa Rosa",
        "street": "Rua Monteiro de Souza",
        "zipcode": "69552-000"
    },
    {
        "city": "Tefé",
        "state": "AM",
        "district": "São José",
        "street": "Rua Izaura Gama",
        "zipcode": "69552-585"
    },
    {
        "city": "Tefé",
        "state": "AM",
        "district": "São Raimundo",
        "street": "Rua Olaria",
        "zipcode": "69552-800"
    },
    {
        "city": "Tefé",
        "state": "AM",
        "district": "São Francisco",
        "street": "Rua Natal",
        "zipcode": "69552-110"
    },
    {
        "city": "Tefé",
        "state": "AM",
        "district": "Santo Antônio",
        "street": "Rua Uarini",
        "zipcode": "69550-210"
    },
    {
        "city": "Tefé",
        "state": "AM",
        "district": "Olaria",
        "street": "Rua Xidarini",
        "zipcode": "69550-156"
    },
    {
        "city": "Tefé",
        "state": "AM",
        "district": "São José",
        "street": "Rua Alves I",
        "zipcode": "69552-600"
    },
    {
        "city": "Tefé",
        "state": "AM",
        "district": "Abial",
        "street": "Rua Guanabara",
        "zipcode": "69550-480"
    },
    {
        "city": "Tefé",
        "state": "AM",
        "district": "Olaria",
        "street": "Rua Monsenhor Barrat",
        "zipcode": "69550-162"
    },
    {
        "city": "Tefé",
        "state": "AM",
        "district": "Centro",
        "street": "Rua Presidente Castelo Branco",
        "zipcode": "69550-113"
    },
    {
        "city": "Tefé",
        "state": "AM",
        "district": "Centro",
        "street": "Avenida Tiradentes",
        "zipcode": "69550-121"
    },
    {
        "city": "Tefé",
        "state": "AM",
        "district": "São José",
        "street": "Rua Alves III",
        "zipcode": "69552-605"
    },
    {
        "city": "Tefé",
        "state": "AM",
        "district": "Abial",
        "street": "Travessa Porto Alegre",
        "zipcode": "69550-455"
    },
    {
        "city": "Tefé",
        "state": "AM",
        "district": "Abial",
        "street": "Rua Nova 1",
        "zipcode": "69550-465"
    },
    {
        "city": "Tefé",
        "state": "AM",
        "district": "Abial",
        "street": "Rua Nova 2",
        "zipcode": "69550-460"
    },
    {
        "city": "Tefé",
        "state": "AM",
        "district": "Olaria",
        "street": "Rua Alvarães",
        "zipcode": "69550-180"
    },
    {
        "city": "Tefé",
        "state": "AM",
        "district": "Santa Luzia",
        "street": "Avenida Tiradentes",
        "zipcode": "69550-308"
    },
    {
        "city": "Tefé",
        "state": "AM",
        "district": "São José",
        "street": "Rua Senador Fábio Lucena",
        "zipcode": "69552-580"
    },
    {
        "city": "Tefé",
        "state": "AM",
        "district": "São Francisco",
        "street": "Estrada do Aeroporto",
        "zipcode": "69552-105"
    },
    {
        "city": "Tefé",
        "state": "AM",
        "district": "Jerusalém",
        "street": "Travessa Nazaré II",
        "zipcode": "69553-020"
    },
    {
        "city": "Tefé",
        "state": "AM",
        "district": "Monte Castelo",
        "street": "Rua Minas Gerais",
        "zipcode": "69557-050"
    },
    {
        "city": "Tefé",
        "state": "AM",
        "district": "Santa Rosa",
        "street": "Rua São Pedro",
        "zipcode": "69552-015"
    },
    {
        "city": "Tefé",
        "state": "AM",
        "district": "São José",
        "street": "Rua Alves II",
        "zipcode": "69552-595"
    },
    {
        "city": "Tefé",
        "state": "AM",
        "district": "Colônia Ventura",
        "street": "Rua III",
        "zipcode": "69550-625"
    },
    {
        "city": "Tefé",
        "state": "AM",
        "district": "Abial",
        "street": "Travessa Cuiabá",
        "zipcode": "69550-485"
    },
    {
        "city": "Tefé",
        "state": "AM",
        "district": "São Raimundo",
        "street": "Travessa Emaús",
        "zipcode": "69552-810"
    },
    {
        "city": "Tefé",
        "state": "AM",
        "district": "Santa Luzia",
        "street": "Avenida Tiradentes",
        "zipcode": "69550-304"
    },
    {
        "city": "Tefé",
        "state": "AM",
        "district": "Abial",
        "street": "Rua Porto Alegre",
        "zipcode": "69550-450"
    },
    {
        "city": "Tefé",
        "state": "AM",
        "district": "Centro",
        "street": "Rua Hermes Tupinambá",
        "zipcode": "69550-137"
    },
    {
        "city": "Tefé",
        "state": "AM",
        "district": "Centro",
        "street": "Estrada do Aeroporto",
        "zipcode": "69550-970"
    },
    {
        "city": "Tefé",
        "state": "AM",
        "district": "Centro",
        "street": "Travessa Padre Luiz",
        "zipcode": "69550-009"
    },
    {
        "city": "Tefé",
        "state": "AM",
        "district": "Centro",
        "street": "Rua Duque de Caxias",
        "zipcode": "69550-013"
    },
    {
        "city": "Tefé",
        "state": "AM",
        "district": "Centro",
        "street": "Travessa Bom Jesus",
        "zipcode": "69550-017"
    },
    {
        "city": "Tefé",
        "state": "AM",
        "district": "Centro",
        "street": "Travessa Mercindo Rodrigues",
        "zipcode": "69550-033"
    },
    {
        "city": "Tefé",
        "state": "AM",
        "district": "Centro",
        "street": "Rua Monteiro de Souza",
        "zipcode": "69550-045"
    },
    {
        "city": "Tefé",
        "state": "AM",
        "district": "Centro",
        "street": "Rua Monteiro de Souza",
        "zipcode": "69550-097"
    },
    {
        "city": "Tefé",
        "state": "AM",
        "district": "Santo Antônio",
        "street": "Rua Juiz de Fora",
        "zipcode": "69550-194"
    },
    {
        "city": "Tefé",
        "state": "AM",
        "district": "Jerusalém",
        "street": "Rua Bom Jesus",
        "zipcode": "69553-015"
    },
    {
        "city": "Tefé",
        "state": "AM",
        "district": "Fonte Boa",
        "street": "Rua Arimatéia",
        "zipcode": "69553-115"
    },
    {
        "city": "Tefé",
        "state": "AM",
        "district": "Olaria",
        "street": "Rua Monteiro de Souza",
        "zipcode": "69550-165"
    },
    {
        "city": "Tefé",
        "state": "AM",
        "district": "Santo Antônio",
        "street": "Rua Castro Alves",
        "zipcode": "69550-274"
    },
    {
        "city": "Tefé",
        "state": "AM",
        "district": "São José",
        "street": "Rua Emaús",
        "zipcode": "69552-535"
    },
    {
        "city": "Tefé",
        "state": "AM",
        "district": "Fonte Boa",
        "street": "Travessa Arimatéia",
        "zipcode": "69553-120"
    },
    {
        "city": "Tefé",
        "state": "AM",
        "district": "Fonte Boa",
        "street": "Rua Beija",
        "zipcode": "69553-205"
    },
    {
        "city": "Tefé",
        "state": "AM",
        "district": "Juruá",
        "street": "Beco Jaraqui",
        "zipcode": "69552-300"
    },
    {
        "city": "Tefé",
        "state": "AM",
        "district": "Santo Antônio",
        "street": "Rua Leopoldo Neves",
        "zipcode": "69550-238"
    },
    {
        "city": "Tefé",
        "state": "AM",
        "district": "Mutirão",
        "street": "Rua Surimã",
        "zipcode": "69553-515"
    },
    {
        "city": "Tefé",
        "state": "AM",
        "district": "Santo Antônio",
        "street": "Beco do Tirico",
        "zipcode": "69550-198"
    },
    {
        "city": "Tefé",
        "state": "AM",
        "district": "Santo Antônio",
        "street": "Rua Joaquim Nabuco",
        "zipcode": "69550-262"
    },
    {
        "city": "Tefé",
        "state": "AM",
        "district": "Santo Antônio",
        "street": "Beco da Teimosia",
        "zipcode": "69550-230"
    },
    {
        "city": "Tefé",
        "state": "AM",
        "district": "Santo Antônio",
        "street": "Rua Vitória",
        "zipcode": "69550-206"
    },
    {
        "city": "Tefé",
        "state": "AM",
        "district": "Fonte Boa",
        "street": "Estrada do Bexiga",
        "zipcode": "69553-235"
    },
    {
        "city": "Tefé",
        "state": "AM",
        "district": "Aeroporto",
        "street": "Rua Solimões",
        "zipcode": "69555-190"
    },
    {
        "city": "Tefé",
        "state": "AM",
        "district": "Mutirão",
        "street": "Rua Irmão Falcon",
        "zipcode": "69553-520"
    },
    {
        "city": "Tefé",
        "state": "AM",
        "district": "São João",
        "street": "Rua Raimundo Lima",
        "zipcode": "69553-375"
    },
    {
        "city": "Tefé",
        "state": "AM",
        "district": "Santo Antônio",
        "street": "Rua 13 de Maio",
        "zipcode": "69550-242"
    },
    {
        "city": "Tefé",
        "state": "AM",
        "district": "Aeroporto",
        "street": "Rua Palmeiras do Javari",
        "zipcode": "69555-200"
    },
    {
        "city": "Tefé",
        "state": "AM",
        "district": "Santo Antônio",
        "street": "Beco Vitória",
        "zipcode": "69550-202"
    },
    {
        "city": "Tefé",
        "state": "AM",
        "district": "Juruá",
        "street": "Travessa Brasília",
        "zipcode": "69552-285"
    },
    {
        "city": "Tefé",
        "state": "AM",
        "district": "Centro",
        "street": "Rua Quintino Bocaiúva",
        "zipcode": "69550-049"
    },
    {
        "city": "Tefé",
        "state": "AM",
        "district": "Aeroporto",
        "street": "Rua Ipiranga",
        "zipcode": "69555-245"
    },
    {
        "city": "Tefé",
        "state": "AM",
        "district": "Nova Esperança",
        "street": "Travessa Campinas",
        "zipcode": "69553-445"
    },
    {
        "city": "Tefé",
        "state": "AM",
        "district": "Santo Antônio",
        "street": "Beco São Miguel",
        "zipcode": "69550-250"
    },
    {
        "city": "Tefé",
        "state": "AM",
        "district": "Vila Nova",
        "street": "Travessa São Jorge",
        "zipcode": "69557-780"
    },
    {
        "city": "Tefé",
        "state": "AM",
        "district": "Centro",
        "street": "Rua Izidoro Praia",
        "zipcode": "69550-057"
    },
    {
        "city": "Tefé",
        "state": "AM",
        "district": "Centro",
        "street": "Travessa 7 de Setembro",
        "zipcode": "69550-065"
    },
    {
        "city": "Tefé",
        "state": "AM",
        "district": "Centro",
        "street": "Rua Beira Rio",
        "zipcode": "69550-069"
    },
    {
        "city": "Tefé",
        "state": "AM",
        "district": "Centro",
        "street": "Rua Floriano Peixoto",
        "zipcode": "69550-081"
    },
    {
        "city": "Tefé",
        "state": "AM",
        "district": "Centro",
        "street": "Rua Otaviano Melo",
        "zipcode": "69550-085"
    },
    {
        "city": "Tefé",
        "state": "AM",
        "district": "Centro",
        "street": "Rua 13 de Maio",
        "zipcode": "69550-089"
    },
    {
        "city": "Tefé",
        "state": "AM",
        "district": "Centro",
        "street": "Rua Monsenhor Barrat",
        "zipcode": "69550-093"
    },
    {
        "city": "Tefé",
        "state": "AM",
        "district": "Centro",
        "street": "Travessa Monteiro Lobato",
        "zipcode": "69550-105"
    },
    {
        "city": "Tefé",
        "state": "AM",
        "district": "Nossa Senhora de Fátima",
        "street": "Rua Artur Rodrigues Alves",
        "zipcode": "69557-525"
    },
    {
        "city": "Tefé",
        "state": "AM",
        "district": "Olaria",
        "street": "Rua Hermes Tupinambá",
        "zipcode": "69550-150"
    },
    {
        "city": "Tefé",
        "state": "AM",
        "district": "Juruá",
        "street": "Rua Dom Bosco",
        "zipcode": "69552-345"
    },
    {
        "city": "Tefé",
        "state": "AM",
        "district": "Juruá",
        "street": "Beco Matrinxã",
        "zipcode": "69552-295"
    },
    {
        "city": "Tefé",
        "state": "AM",
        "district": "Jerusalém",
        "street": "Rua Raimundo Lima",
        "zipcode": "69553-040"
    },
    {
        "city": "Tefé",
        "state": "AM",
        "district": "Nossa Senhora de Fátima",
        "street": "Rua José Luciano Rodrigues Alves",
        "zipcode": "69557-500"
    },
    {
        "city": "Tefé",
        "state": "AM",
        "district": "Santa Luzia",
        "street": "Rua Alvarães",
        "zipcode": "69550-380"
    },
    {
        "city": "Tefé",
        "state": "AM",
        "district": "Santo Antônio",
        "street": "Rua José de Alencar",
        "zipcode": "69550-278"
    },
    {
        "city": "Tefé",
        "state": "AM",
        "district": "Aeroporto",
        "street": "Rua Estirão do Equador",
        "zipcode": "69555-205"
    },
    {
        "city": "Tefé",
        "state": "AM",
        "district": "Vila Nova",
        "street": "Rua Rosélia Alves",
        "zipcode": "69557-770"
    },
    {
        "city": "Tefé",
        "state": "AM",
        "district": "Aeroporto",
        "street": "Avenida Cruzeiro do Sul",
        "zipcode": "69555-195"
    },
    {
        "city": "Tefé",
        "state": "AM",
        "district": "Santo Antônio",
        "street": "Travessa José Bonifácio",
        "zipcode": "69550-254"
    },
    {
        "city": "Tefé",
        "state": "AM",
        "district": "Centro",
        "street": "Praça Alcindo Roberto",
        "zipcode": "69550-037"
    },
    {
        "city": "Tefé",
        "state": "AM",
        "district": "Santo Antônio",
        "street": "Rua Portugal",
        "zipcode": "69550-234"
    },
    {
        "city": "Tefé",
        "state": "AM",
        "district": "Santo Antônio",
        "street": "Rua Álvaro Maia",
        "zipcode": "69550-258"
    },
    {
        "city": "Tefé",
        "state": "AM",
        "district": "Santo Antônio",
        "street": "Rua Juiz de Fora",
        "zipcode": "69550-246"
    },
    {
        "city": "Tefé",
        "state": "AM",
        "district": "Centro",
        "street": "Estrada do Aeroporto",
        "zipcode": "69550-101"
    },
    {
        "city": "Tefé",
        "state": "AM",
        "district": "Centro",
        "street": "Rua Presidente Costa e Silva",
        "zipcode": "69550-117"
    },
    {
        "city": "Tefé",
        "state": "AM",
        "district": "Centro",
        "street": "Beco São Miguel",
        "zipcode": "69550-129"
    },
    {
        "city": "Tefé",
        "state": "AM",
        "district": "Centro",
        "street": "Rua Marechal Deodoro",
        "zipcode": "69550-133"
    },
    {
        "city": "Tefé",
        "state": "AM",
        "district": "Centro",
        "street": "Rua José Bonifácio",
        "zipcode": "69550-125"
    },
    {
        "city": "Tefé",
        "state": "AM",
        "district": "São Raimundo",
        "street": "Rua Presidente Kennedy",
        "zipcode": "69552-745"
    },
    {
        "city": "Tefé",
        "state": "AM",
        "district": "Centro",
        "street": "Rua Capitão Patrício",
        "zipcode": "69550-109"
    },
    {
        "city": "Tefé",
        "state": "AM",
        "district": "Área Rural de Tefé",
        "street": "Área Rural",
        "zipcode": "69558-899"
    },
    {
        "city": "Tefé",
        "state": "AM",
        "district": "Centro",
        "street": "Rua Marechal Hermes",
        "zipcode": "69550-041"
    },
    {
        "city": "Tefé",
        "state": "AM",
        "district": "São Raimundo",
        "street": "Rua Jericó",
        "zipcode": "69552-730"
    },
    {
        "city": "Tefé",
        "state": "AM",
        "district": "Santa Luzia",
        "street": "Rua 3 de Outubro",
        "zipcode": "69550-352"
    },
    {
        "city": "Tefé",
        "state": "AM",
        "district": "Juruá",
        "street": "Avenida Juruá",
        "zipcode": "69552-290"
    },
    {
        "city": "Tefé",
        "state": "AM",
        "district": "Santa Luzia",
        "street": "Rua São Benedito",
        "zipcode": "69550-316"
    },
    {
        "city": "Tefé",
        "state": "AM",
        "district": "Santa Luzia",
        "street": "Rua Nogueira",
        "zipcode": "69550-372"
    },
    {
        "city": "Tefé",
        "state": "AM",
        "district": "Colônia Ventura",
        "street": "Rua Beira Rio",
        "zipcode": "69550-505"
    },
    {
        "city": "Tefé",
        "state": "AM",
        "district": "Centro",
        "street": "Rua Benjamim Constant",
        "zipcode": "69550-077"
    },
    {
        "city": "Tefé",
        "state": "AM",
        "district": "Abial",
        "street": "Rua Beira Mar",
        "zipcode": "69550-490"
    },
    {
        "city": "Tefé",
        "state": "AM",
        "district": "Santa Luzia",
        "street": "Rua Gonçalves Dias",
        "zipcode": "69550-360"
    },
    {
        "city": "Tefé",
        "state": "AM",
        "district": "Abial",
        "street": "Rua Copacabana",
        "zipcode": "69550-405"
    },
    {
        "city": "Tefé",
        "state": "AM",
        "district": "Olaria",
        "street": "Rua Monteiro de Souza",
        "zipcode": "69550-168"
    },
    {
        "city": "Tefé",
        "state": "AM",
        "district": "Santa Luzia",
        "street": "Rua Minas Gerais",
        "zipcode": "69550-348"
    },
    {
        "city": "Tefé",
        "state": "AM",
        "district": "Abial",
        "street": "Rua Copacabana",
        "zipcode": "69550-410"
    },
    {
        "city": "Tefé",
        "state": "AM",
        "district": "Santa Teresa",
        "street": "Rua Surimã",
        "zipcode": "69555-005"
    },
    {
        "city": "Tefé",
        "state": "AM",
        "district": "Santa Luzia",
        "street": "Rua São João",
        "zipcode": "69550-368"
    },
    {
        "city": "Tefé",
        "state": "AM",
        "district": "Santa Luzia",
        "street": "Rua Nossa Senhora do Carmo",
        "zipcode": "69550-328"
    },
    {
        "city": "Tefé",
        "state": "AM",
        "district": "Juruá",
        "street": "Estrada do Bexiga",
        "zipcode": "69552-315"
    },
    {
        "city": "Tefé",
        "state": "AM",
        "district": "Santa Luzia",
        "street": "Travessa São Bento",
        "zipcode": "69550-320"
    },
    {
        "city": "Tefé",
        "state": "AM",
        "district": "Juruá",
        "street": "Rua 2",
        "zipcode": "69552-320"
    },
    {
        "city": "Tefé",
        "state": "AM",
        "district": "Monte Castelo",
        "street": "Rua Fortaleza",
        "zipcode": "69557-130"
    },
    {
        "city": "Tefé",
        "state": "AM",
        "district": "Monte Castelo",
        "street": "Estrada do Aeroporto",
        "zipcode": "69557-205"
    },
    {
        "city": "Tefé",
        "state": "AM",
        "district": "Centro",
        "street": "Praça Getúlio Vargas",
        "zipcode": "69550-025"
    },
    {
        "city": "Tefé",
        "state": "AM",
        "district": "Monte Castelo",
        "street": "Rua Álvaro Maia",
        "zipcode": "69557-025"
    },
    {
        "city": "Tefé",
        "state": "AM",
        "district": "Fonte Boa",
        "street": "Rua Moacir Veiga da Gama",
        "zipcode": "69553-180"
    },
    {
        "city": "Tefé",
        "state": "AM",
        "district": "Olaria",
        "street": "Rua Marechal Deodoro",
        "zipcode": "69550-171"
    },
    {
        "city": "Tefé",
        "state": "AM",
        "district": "Santo Antônio",
        "street": "Rua Portugal",
        "zipcode": "69550-270"
    },
    {
        "city": "Tefé",
        "state": "AM",
        "district": "Santa Luzia",
        "street": "Avenida Espírito Santo",
        "zipcode": "69550-340"
    },
    {
        "city": "Tefé",
        "state": "AM",
        "district": "Santa Luzia",
        "street": "Rua São Tomé",
        "zipcode": "69550-364"
    },
    {
        "city": "Tefé",
        "state": "AM",
        "district": "Juruá",
        "street": "Beco Brasília",
        "zipcode": "69552-270"
    },
    {
        "city": "Tefé",
        "state": "AM",
        "district": "Santa Luzia",
        "street": "Rua São Sebastião",
        "zipcode": "69550-336"
    },
    {
        "city": "Tefé",
        "state": "AM",
        "district": "Centro",
        "street": "Praça Santa Teresa",
        "zipcode": "69550-053"
    },
    {
        "city": "Tefé",
        "state": "AM",
        "district": "Santa Luzia",
        "street": "Rua Uarini",
        "zipcode": "69550-376"
    },
    {
        "city": "Tefé",
        "state": "AM",
        "district": "Santa Luzia",
        "street": "Rua São Francisco",
        "zipcode": "69550-344"
    },
    {
        "city": "Tefé",
        "state": "AM",
        "district": "Olaria",
        "street": "Rua Jeferson Braga",
        "zipcode": "69550-177"
    },
    {
        "city": "Tefé",
        "state": "AM",
        "district": "Abial",
        "street": "Rua Belo Horizonte",
        "zipcode": "69550-400"
    },
    {
        "city": "Tefé",
        "state": "AM",
        "district": "São José",
        "street": "Rua Bom Jesus",
        "zipcode": "69552-530"
    },
    {
        "city": "Tefé",
        "state": "AM",
        "district": "Aeroporto",
        "street": "Estrada do Aeroporto",
        "zipcode": "69555-180"
    },
    {
        "city": "Tefé",
        "state": "AM",
        "district": "Santa Teresa",
        "street": "Estrada do Aeroporto",
        "zipcode": "69555-150"
    },
    {
        "city": "Tefé",
        "state": "AM",
        "district": "Olaria",
        "street": "Travessa João Bem Vindo",
        "zipcode": "69550-159"
    },
    {
        "city": "Tefé",
        "state": "AM",
        "district": "Santa Luzia",
        "street": "Rua 3 de Outubro",
        "zipcode": "69550-356"
    },
    {
        "city": "Tefé",
        "state": "AM",
        "district": "Juruá",
        "street": "Rua Antídio Façanha",
        "zipcode": "69552-205"
    },
    {
        "city": "Tefé",
        "state": "AM",
        "district": "Nova Esperança",
        "street": "Rua Raimundo Coelho",
        "zipcode": "69553-455"
    }
]