[
    {
        "city": "Itabaiana",
        "state": "SE",
        "district": "Oviedo Teixeira",
        "street": "Rua Genivaldo Araújo",
        "zipcode": "49507-495"
    },
    {
        "city": "Itabaiana",
        "state": "SE",
        "district": "Centro",
        "street": "Rua General José Calazans",
        "zipcode": "49500-049"
    },
    {
        "city": "Itabaiana",
        "state": "SE",
        "district": "Oviedo Teixeira",
        "street": "Rua Aurelino José de Santana",
        "zipcode": "49507-490"
    },
    {
        "city": "Itabaiana",
        "state": "SE",
        "district": "Oviedo Teixeira",
        "street": "Rua Aduilson de Jesus",
        "zipcode": "49507-790"
    },
    {
        "city": "Itabaiana",
        "state": "SE",
        "district": "Oviedo Teixeira",
        "street": "Avenida Alípio Tavares de Menezes",
        "zipcode": "49507-640"
    },
    {
        "city": "Itabaiana",
        "state": "SE",
        "district": "São Cristóvão",
        "street": "Rua Coronel Sebrão",
        "zipcode": "49500-356"
    },
    {
        "city": "Itabaiana",
        "state": "SE",
        "district": "São Cristóvão",
        "street": "Praça Frei Fidelis",
        "zipcode": "49500-537"
    },
    {
        "city": "Itabaiana",
        "state": "SE",
        "district": "Marcela",
        "street": "Rua Ademir Marinheiro da Silva",
        "zipcode": "49502-019"
    },
    {
        "city": "Itabaiana",
        "state": "SE",
        "district": "Anízio Amancio de Oliveira",
        "street": "Avenida Francisco Alves de Carvalho Junior",
        "zipcode": "49503-717"
    },
    {
        "city": "Itabaiana",
        "state": "SE",
        "district": "São Cristóvão",
        "street": "Praça João Marcelo de Oliveira",
        "zipcode": "49500-534"
    },
    {
        "city": "Itabaiana",
        "state": "SE",
        "district": "Anízio Amancio de Oliveira",
        "street": "Avenida Maurício Andrade",
        "zipcode": "49503-516"
    },
    {
        "city": "Itabaiana",
        "state": "SE",
        "district": "Marcela",
        "street": "Avenida José de Oliveira",
        "zipcode": "49502-055"
    },
    {
        "city": "Itabaiana",
        "state": "SE",
        "district": "Marcela",
        "street": "Calçadão Marinete Tavares Feliciano",
        "zipcode": "49502-067"
    },
    {
        "city": "Itabaiana",
        "state": "SE",
        "district": "Serrano",
        "street": "Praça Jubal de Carvalho",
        "zipcode": "49503-262"
    },
    {
        "city": "Itabaiana",
        "state": "SE",
        "district": "Anízio Amancio de Oliveira",
        "street": "Avenida Padre Francisco da Silva Lobão",
        "zipcode": "49503-689"
    },
    {
        "city": "Itabaiana",
        "state": "SE",
        "district": "Serrano",
        "street": "Avenida Doutor Luiz Magalhães",
        "zipcode": "49503-003"
    },
    {
        "city": "Itabaiana",
        "state": "SE",
        "district": "Serrano",
        "street": "Avenida Alípio Tavares de Menezes",
        "zipcode": "49503-162"
    },
    {
        "city": "Itabaiana",
        "state": "SE",
        "district": "Serrano",
        "street": "Rua Berilo Batista Leite",
        "zipcode": "49503-186"
    },
    {
        "city": "Itabaiana",
        "state": "SE",
        "district": "Rotary Club de Itabaiana",
        "street": "Rua Sebastião José de Góis",
        "zipcode": "49506-012"
    },
    {
        "city": "Itabaiana",
        "state": "SE",
        "district": "Rotary Club de Itabaiana",
        "street": "Rua Serapião Antonio de Góis",
        "zipcode": "49506-303"
    },
    {
        "city": "Itabaiana",
        "state": "SE",
        "district": "Porto",
        "street": "Travessa Nossa Senhora Conceição",
        "zipcode": "49510-130"
    },
    {
        "city": "Itabaiana",
        "state": "SE",
        "district": "Marcela",
        "street": "Rua José Lima",
        "zipcode": "49501-860"
    },
    {
        "city": "Itabaiana",
        "state": "SE",
        "district": "Marcela",
        "street": "Rua José de Souza Dantas",
        "zipcode": "49501-857"
    },
    {
        "city": "Itabaiana",
        "state": "SE",
        "district": "Marcela",
        "street": "Rua José Vicente de Almeida",
        "zipcode": "49501-854"
    },
    {
        "city": "Itabaiana",
        "state": "SE",
        "district": "Anízio Amancio de Oliveira",
        "street": "Rua Manoel Alves de Andrade",
        "zipcode": "49503-474"
    },
    {
        "city": "Itabaiana",
        "state": "SE",
        "district": "Anízio Amancio de Oliveira",
        "street": "Rua José Costa Carvalho",
        "zipcode": "49503-528"
    },
    {
        "city": "Itabaiana",
        "state": "SE",
        "district": "Anízio Amancio de Oliveira",
        "street": "Rua Brasiliano Antônio de Góis",
        "zipcode": "49503-668"
    },
    {
        "city": "Itabaiana",
        "state": "SE",
        "district": "Porto",
        "street": "Calçadão Marinete Tavares Feliciano",
        "zipcode": "49509-658"
    },
    {
        "city": "Itabaiana",
        "state": "SE",
        "district": "São Cristóvão",
        "street": "Praça José Machado",
        "zipcode": "49500-362"
    },
    {
        "city": "Itabaiana",
        "state": "SE",
        "district": "Marcela",
        "street": "Rua João Francisco dos Reis",
        "zipcode": "49502-179"
    },
    {
        "city": "Itabaiana",
        "state": "SE",
        "district": "Centro",
        "street": "Praça General João Pereira",
        "zipcode": "49500-298"
    },
    {
        "city": "Itabaiana",
        "state": "SE",
        "district": "Rotary Club de Itabaiana",
        "street": "Praça Escritor Sebrão Sobrinho",
        "zipcode": "49506-150"
    },
    {
        "city": "Itabaiana",
        "state": "SE",
        "district": "Marcela",
        "street": "Rua Agnaldo Oliveira de Jesus",
        "zipcode": "49502-013"
    },
    {
        "city": "Itabaiana",
        "state": "SE",
        "district": "Anízio Amancio de Oliveira",
        "street": "Rua Antônio Carlos de Almeida Alves",
        "zipcode": "49503-498"
    },
    {
        "city": "Itabaiana",
        "state": "SE",
        "district": "Anízio Amancio de Oliveira",
        "street": "Rua Agenário Pereira de Carvalho",
        "zipcode": "49503-610"
    },
    {
        "city": "Itabaiana",
        "state": "SE",
        "district": "Anízio Amancio de Oliveira",
        "street": "Rua Antônio Francisco da Cunha",
        "zipcode": "49503-623"
    },
    {
        "city": "Itabaiana",
        "state": "SE",
        "district": "Anízio Amancio de Oliveira",
        "street": "Rua Antônio Melo",
        "zipcode": "49503-692"
    },
    {
        "city": "Itabaiana",
        "state": "SE",
        "district": "Anízio Amancio de Oliveira",
        "street": "Rua Antônio Joqquim de Silva",
        "zipcode": "49503-714"
    },
    {
        "city": "Itabaiana",
        "state": "SE",
        "district": "Anízio Amancio de Oliveira",
        "street": "Rua Aurora Rosa de Góis",
        "zipcode": "49503-705"
    },
    {
        "city": "Itabaiana",
        "state": "SE",
        "district": "Anízio Amancio de Oliveira",
        "street": "Rua Carlos Andrade Carvalho",
        "zipcode": "49503-327"
    },
    {
        "city": "Itabaiana",
        "state": "SE",
        "district": "Anízio Amancio de Oliveira",
        "street": "Rua Carlos Cordeiro",
        "zipcode": "49503-522"
    },
    {
        "city": "Itabaiana",
        "state": "SE",
        "district": "Anízio Amancio de Oliveira",
        "street": "Rua Construtor Antônio Lauro Moura",
        "zipcode": "49503-626"
    },
    {
        "city": "Itabaiana",
        "state": "SE",
        "district": "Anízio Amancio de Oliveira",
        "street": "Rua Construtor José Oliveira",
        "zipcode": "49503-650"
    },
    {
        "city": "Itabaiana",
        "state": "SE",
        "district": "Anízio Amancio de Oliveira",
        "street": "Rua Jorge Americano Rêgo",
        "zipcode": "49503-671"
    },
    {
        "city": "Itabaiana",
        "state": "SE",
        "district": "Anízio Amancio de Oliveira",
        "street": "Rua João Francisco Lobo",
        "zipcode": "49503-674"
    },
    {
        "city": "Itabaiana",
        "state": "SE",
        "district": "Marcela",
        "street": "Rua Emilio Mota",
        "zipcode": "49502-094"
    },
    {
        "city": "Itabaiana",
        "state": "SE",
        "district": "Marcela",
        "street": "Rua João Costa Lima Neto",
        "zipcode": "49502-267"
    },
    {
        "city": "Itabaiana",
        "state": "SE",
        "district": "Anízio Amancio de Oliveira",
        "street": "Rua Construtor Antônio Pereira de Andrade",
        "zipcode": "49503-546"
    },
    {
        "city": "Itabaiana",
        "state": "SE",
        "district": "Marcela",
        "street": "Rua José Pereira de Jesus",
        "zipcode": "49502-052"
    },
    {
        "city": "Itabaiana",
        "state": "SE",
        "district": "Anízio Amancio de Oliveira",
        "street": "Rua Manoel Antônio de Farias",
        "zipcode": "49503-471"
    },
    {
        "city": "Itabaiana",
        "state": "SE",
        "district": "Anízio Amancio de Oliveira",
        "street": "Rua José Carlos da Conceição",
        "zipcode": "49503-504"
    },
    {
        "city": "Itabaiana",
        "state": "SE",
        "district": "Anízio Amancio de Oliveira",
        "street": "Rua Lindolfa Oliveira Góis",
        "zipcode": "49503-641"
    },
    {
        "city": "Itabaiana",
        "state": "SE",
        "district": "Anízio Amancio de Oliveira",
        "street": "Rua Luiz Americano Rego",
        "zipcode": "49503-711"
    },
    {
        "city": "Itabaiana",
        "state": "SE",
        "district": "Marcela",
        "street": "Rua José Teles de Mendonça",
        "zipcode": "49502-170"
    },
    {
        "city": "Itabaiana",
        "state": "SE",
        "district": "Anízio Amancio de Oliveira",
        "street": "Rua José Dórea dos Santos",
        "zipcode": "49503-495"
    },
    {
        "city": "Itabaiana",
        "state": "SE",
        "district": "Anízio Amancio de Oliveira",
        "street": "Rua José Assis de Góis",
        "zipcode": "49503-513"
    },
    {
        "city": "Itabaiana",
        "state": "SE",
        "district": "Anízio Amancio de Oliveira",
        "street": "Rua José Ademar de Carvalho Sobrinho",
        "zipcode": "49503-644"
    },
    {
        "city": "Itabaiana",
        "state": "SE",
        "district": "Oviedo Teixeira",
        "street": "Rua José Barbosa de Mendonça",
        "zipcode": "49508-138"
    },
    {
        "city": "Itabaiana",
        "state": "SE",
        "district": "Oviedo Teixeira",
        "street": "Rua Joselito Santana",
        "zipcode": "49508-142"
    },
    {
        "city": "Itabaiana",
        "state": "SE",
        "district": "Anízio Amancio de Oliveira",
        "street": "Rua Josepha Melo Novaes",
        "zipcode": "49503-635"
    },
    {
        "city": "Itabaiana",
        "state": "SE",
        "district": "Marcela",
        "street": "Rua Francisca Xavier Nunes",
        "zipcode": "49501-851"
    },
    {
        "city": "Itabaiana",
        "state": "SE",
        "district": "Marcela",
        "street": "Rua José Américo Santana",
        "zipcode": "49502-249"
    },
    {
        "city": "Itabaiana",
        "state": "SE",
        "district": "Marcela",
        "street": "Rua Flávio Pereira dos Anjos",
        "zipcode": "49502-261"
    },
    {
        "city": "Itabaiana",
        "state": "SE",
        "district": "Marcela",
        "street": "Rua Antônio Joaquim de Santana",
        "zipcode": "49502-046"
    },
    {
        "city": "Itabaiana",
        "state": "SE",
        "district": "Marcela",
        "street": "Rua José Menezes da Cunha",
        "zipcode": "49502-236"
    },
    {
        "city": "Itabaiana",
        "state": "SE",
        "district": "Marcela",
        "street": "Rua Firmina Maria Pereira",
        "zipcode": "49502-007"
    },
    {
        "city": "Itabaiana",
        "state": "SE",
        "district": "Marcela",
        "street": "Rua Gentil Fonseca Lobo",
        "zipcode": "49502-001"
    },
    {
        "city": "Itabaiana",
        "state": "SE",
        "district": "Anízio Amancio de Oliveira",
        "street": "Rua Maria da Conceição",
        "zipcode": "49503-695"
    },
    {
        "city": "Itabaiana",
        "state": "SE",
        "district": "Porto",
        "street": "Rua Edivaldo Alves de Andrade",
        "zipcode": "49510-095"
    },
    {
        "city": "Itabaiana",
        "state": "SE",
        "district": "Anízio Amancio de Oliveira",
        "street": "Rua Marceneiro Antônio Almeida de Menezes",
        "zipcode": "49503-619"
    },
    {
        "city": "Itabaiana",
        "state": "SE",
        "district": "Marcela",
        "street": "Rua Maria Eunice de Jesus",
        "zipcode": "49502-049"
    },
    {
        "city": "Itabaiana",
        "state": "SE",
        "district": "Marcela",
        "street": "Rua Maria de Lourdes Cunha",
        "zipcode": "49502-043"
    },
    {
        "city": "Itabaiana",
        "state": "SE",
        "district": "Marcela",
        "street": "Rua Marizete Santos Costa",
        "zipcode": "49501-833"
    },
    {
        "city": "Itabaiana",
        "state": "SE",
        "district": "Marcela",
        "street": "Rua Mirian Oliveira Melo",
        "zipcode": "49502-264"
    },
    {
        "city": "Itabaiana",
        "state": "SE",
        "district": "Mamede Paes Mendonça",
        "street": "Travessa Aciole Mendonça Mota",
        "zipcode": "49509-106"
    },
    {
        "city": "Itabaiana",
        "state": "SE",
        "district": "Anízio Amancio de Oliveira",
        "street": "Rua Paulo Barreto Novaes",
        "zipcode": "49503-656"
    },
    {
        "city": "Itabaiana",
        "state": "SE",
        "district": "Marcela",
        "street": "Rua Vice",
        "zipcode": "49501-836"
    },
    {
        "city": "Itabaiana",
        "state": "SE",
        "district": "Marcela",
        "street": "Rua Renilson Francisco Cunha",
        "zipcode": "49502-037"
    },
    {
        "city": "Itabaiana",
        "state": "SE",
        "district": "Anízio Amancio de Oliveira",
        "street": "Rua Pedro Fagundes de Lima",
        "zipcode": "49503-510"
    },
    {
        "city": "Itabaiana",
        "state": "SE",
        "district": "Anízio Amancio de Oliveira",
        "street": "Rua Normando Tavares de Jesus",
        "zipcode": "49503-519"
    },
    {
        "city": "Itabaiana",
        "state": "SE",
        "district": "Anízio Amancio de Oliveira",
        "street": "Rua Pedreiro Eliezer Mendonça Mota",
        "zipcode": "49503-543"
    },
    {
        "city": "Itabaiana",
        "state": "SE",
        "district": "Anízio Amancio de Oliveira",
        "street": "Rua Terezinha Valadares Barreto",
        "zipcode": "49503-632"
    },
    {
        "city": "Itabaiana",
        "state": "SE",
        "district": "Anízio Amancio de Oliveira",
        "street": "Rua Samuel Pereira de almeida",
        "zipcode": "49503-702"
    },
    {
        "city": "Itabaiana",
        "state": "SE",
        "district": "Anízio Amancio de Oliveira",
        "street": "Rua Maria Rosa Lapa Souza",
        "zipcode": "49503-453"
    },
    {
        "city": "Itabaiana",
        "state": "SE",
        "district": "Anízio Amancio de Oliveira",
        "street": "Rua Osvaldo Queiroz Correia",
        "zipcode": "49503-620"
    },
    {
        "city": "Itabaiana",
        "state": "SE",
        "district": "Anízio Amancio de Oliveira",
        "street": "Rua Pedreiro José Dias de Menezes",
        "zipcode": "49503-638"
    },
    {
        "city": "Itabaiana",
        "state": "SE",
        "district": "Anízio Amancio de Oliveira",
        "street": "Rua Tarcisio Menezes Santos",
        "zipcode": "49503-647"
    },
    {
        "city": "Itabaiana",
        "state": "SE",
        "district": "Marianga",
        "street": "Travessa Maria dos Santos",
        "zipcode": "49504-057"
    },
    {
        "city": "Itabaiana",
        "state": "SE",
        "district": "Rotary Club de Itabaiana",
        "street": "Travessa Marcondes de Albuquerque Negromonte",
        "zipcode": "49506-111"
    },
    {
        "city": "Itabaiana",
        "state": "SE",
        "district": "Mamede Paes Mendonça",
        "street": "Travessa Edivaldo José de Oliveira",
        "zipcode": "49509-134"
    },
    {
        "city": "Itabaiana",
        "state": "SE",
        "district": "Mamede Paes Mendonça",
        "street": "Travessa Maurino José da Silva",
        "zipcode": "49509-137"
    },
    {
        "city": "Itabaiana",
        "state": "SE",
        "district": "Marcela",
        "street": "Rua Maria Mendonça de Jesus",
        "zipcode": "49502-016"
    },
    {
        "city": "Itabaiana",
        "state": "SE",
        "district": "Marcela",
        "street": "Rua Pedro Tavares de Jesus",
        "zipcode": "49502-252"
    },
    {
        "city": "Itabaiana",
        "state": "SE",
        "district": "Marianga",
        "street": "Rua Olimpio Neri dos Santos",
        "zipcode": "49504-405"
    },
    {
        "city": "Itabaiana",
        "state": "SE",
        "district": "Mamede Paes Mendonça",
        "street": "Vila Zé de Melinha",
        "zipcode": "49509-037"
    },
    {
        "city": "Itabaiana",
        "state": "SE",
        "district": "São Cristóvão",
        "street": "Rua H (Cj M J E Santo)",
        "zipcode": "49500-717"
    },
    {
        "city": "Itabaiana",
        "state": "SE",
        "district": "São Cristóvão",
        "street": "Rua C (Cj M J E Santo)",
        "zipcode": "49500-714"
    },
    {
        "city": "Itabaiana",
        "state": "SE",
        "district": "Bananeiras",
        "street": "Travessa Vicente Santiago",
        "zipcode": "49501-380"
    },
    {
        "city": "Itabaiana",
        "state": "SE",
        "district": "Serrano",
        "street": "Rua Maria Natália dos Santos",
        "zipcode": "49503-156"
    },
    {
        "city": "Itabaiana",
        "state": "SE",
        "district": "Serrano",
        "street": "Rua José Filadelfo Araújo",
        "zipcode": "49503-159"
    },
    {
        "city": "Itabaiana",
        "state": "SE",
        "district": "Centro",
        "street": "Avenida Ivo de Carvalho 336",
        "zipcode": "49500-970"
    },
    {
        "city": "Itabaiana",
        "state": "SE",
        "district": "Centro",
        "street": "Rua Principal s/n",
        "zipcode": "49500-971"
    },
    {
        "city": "Itabaiana",
        "state": "SE",
        "district": "Centro",
        "street": "Avenida Nivalda Lima Figueiredo",
        "zipcode": "49500-022"
    },
    {
        "city": "Itabaiana",
        "state": "SE",
        "district": "Centro",
        "street": "Rua Juca Monteiro",
        "zipcode": "49500-025"
    },
    {
        "city": "Itabaiana",
        "state": "SE",
        "district": "Centro",
        "street": "Rua Álvaro Fonseca de Oliveira",
        "zipcode": "49500-007"
    },
    {
        "city": "Itabaiana",
        "state": "SE",
        "district": "São Cristóvão",
        "street": "Praça Santa Clara de Assis",
        "zipcode": "49501-115"
    },
    {
        "city": "Itabaiana",
        "state": "SE",
        "district": "São Cristóvão",
        "street": "Rua B (Cj M J E Santo)",
        "zipcode": "49500-711"
    },
    {
        "city": "Itabaiana",
        "state": "SE",
        "district": "São Cristóvão",
        "street": "Rua Dois (M Formosa)",
        "zipcode": "49501-136"
    },
    {
        "city": "Itabaiana",
        "state": "SE",
        "district": "São Cristóvão",
        "street": "Rua Diego da Silva Menezes",
        "zipcode": "49501-145"
    },
    {
        "city": "Itabaiana",
        "state": "SE",
        "district": "São Cristóvão",
        "street": "Rua Brasiliano Antonio de Góis",
        "zipcode": "49500-873"
    },
    {
        "city": "Itabaiana",
        "state": "SE",
        "district": "São Cristóvão",
        "street": "Rua B (Cj M C Alves)",
        "zipcode": "49500-603"
    },
    {
        "city": "Itabaiana",
        "state": "SE",
        "district": "Serrano",
        "street": "Rua Vitor Manoel de Jesus Vasconcelos",
        "zipcode": "49503-168"
    },
    {
        "city": "Itabaiana",
        "state": "SE",
        "district": null,
        "street": null,
        "zipcode": "49500-000"
    },
    {
        "city": "Itabaiana",
        "state": "SE",
        "district": "Riacho Doce",
        "street": "Avenida Maria Carreira",
        "zipcode": "49510-470"
    },
    {
        "city": "Itabaiana",
        "state": "SE",
        "district": "Riacho Doce",
        "street": "Rua Antônio Menezes",
        "zipcode": "49510-535"
    },
    {
        "city": "Itabaiana",
        "state": "SE",
        "district": "Riacho Doce",
        "street": "Rua José Bispo de Souza",
        "zipcode": "49510-565"
    },
    {
        "city": "Itabaiana",
        "state": "SE",
        "district": "Centro",
        "street": "Rua Antonio Higino dos Santos",
        "zipcode": "49500-031"
    },
    {
        "city": "Itabaiana",
        "state": "SE",
        "district": "Centro",
        "street": "Rua Manoel Antonio de Oliveira",
        "zipcode": "49500-040"
    },
    {
        "city": "Itabaiana",
        "state": "SE",
        "district": "Centro",
        "street": "Rua Itaporanga",
        "zipcode": "49500-043"
    },
    {
        "city": "Itabaiana",
        "state": "SE",
        "district": "Centro",
        "street": "Rua Jackson de Figueiredo",
        "zipcode": "49500-058"
    },
    {
        "city": "Itabaiana",
        "state": "SE",
        "district": "Centro",
        "street": "Rua Padre Vicente de Jesus",
        "zipcode": "49500-073"
    },
    {
        "city": "Itabaiana",
        "state": "SE",
        "district": "Centro",
        "street": "Praça Etelvino Mendonça",
        "zipcode": "49500-097"
    },
    {
        "city": "Itabaiana",
        "state": "SE",
        "district": "Marcela",
        "street": "Rua Michaell Evangelista Pinto",
        "zipcode": "49502-197"
    },
    {
        "city": "Itabaiana",
        "state": "SE",
        "district": "Centro",
        "street": "Rua Francisca Menezes Porto",
        "zipcode": "49500-013"
    },
    {
        "city": "Itabaiana",
        "state": "SE",
        "district": "Anízio Amancio de Oliveira",
        "street": "Rua Pedreiro Petrolino de Oliveira",
        "zipcode": "49503-540"
    },
    {
        "city": "Itabaiana",
        "state": "SE",
        "district": "Centro",
        "street": "Rua Campo do Brito",
        "zipcode": "49500-109"
    },
    {
        "city": "Itabaiana",
        "state": "SE",
        "district": "Centro",
        "street": "Travessa Francisco Porto",
        "zipcode": "49500-115"
    },
    {
        "city": "Itabaiana",
        "state": "SE",
        "district": "Centro",
        "street": "Rua Batista Itajaí",
        "zipcode": "49500-127"
    },
    {
        "city": "Itabaiana",
        "state": "SE",
        "district": "Centro",
        "street": "Vila Rosário",
        "zipcode": "49500-130"
    },
    {
        "city": "Itabaiana",
        "state": "SE",
        "district": "Centro",
        "street": "Avenida Otoniel Dórea",
        "zipcode": "49500-142"
    },
    {
        "city": "Itabaiana",
        "state": "SE",
        "district": "Centro",
        "street": "Rua Francisco Santos",
        "zipcode": "49500-067"
    },
    {
        "city": "Itabaiana",
        "state": "SE",
        "district": "Centro",
        "street": "Praça João Pessoa",
        "zipcode": "49500-070"
    },
    {
        "city": "Itabaiana",
        "state": "SE",
        "district": "Centro",
        "street": "Rua Sete de Setembro",
        "zipcode": "49500-076"
    },
    {
        "city": "Itabaiana",
        "state": "SE",
        "district": "Centro",
        "street": "Rua José Ferreira Araujo",
        "zipcode": "49500-091"
    },
    {
        "city": "Itabaiana",
        "state": "SE",
        "district": "Centro",
        "street": "Rua Benjamim Constant",
        "zipcode": "49500-085"
    },
    {
        "city": "Itabaiana",
        "state": "SE",
        "district": "Centro",
        "street": "Rua Manoel Garangau",
        "zipcode": "49500-079"
    },
    {
        "city": "Itabaiana",
        "state": "SE",
        "district": "Centro",
        "street": "Rua Antonio Dultra",
        "zipcode": "49500-151"
    },
    {
        "city": "Itabaiana",
        "state": "SE",
        "district": "Centro",
        "street": "Avenida João Teixeira",
        "zipcode": "49500-103"
    },
    {
        "city": "Itabaiana",
        "state": "SE",
        "district": "Bananeiras",
        "street": "Rua Aluízio Lima dos Santos",
        "zipcode": "49501-365"
    },
    {
        "city": "Itabaiana",
        "state": "SE",
        "district": "Bananeiras",
        "street": "Rua Aluízio de Almeida e Silva",
        "zipcode": "49501-375"
    },
    {
        "city": "Itabaiana",
        "state": "SE",
        "district": "Centro",
        "street": "Rua Boanerges de Almeida Pinheiro",
        "zipcode": "49500-154"
    },
    {
        "city": "Itabaiana",
        "state": "SE",
        "district": "Centro",
        "street": "Rua Euclides Paes Mendonça",
        "zipcode": "49500-172"
    },
    {
        "city": "Itabaiana",
        "state": "SE",
        "district": "Centro",
        "street": "Rua Esperidião Noronha",
        "zipcode": "49500-193"
    },
    {
        "city": "Itabaiana",
        "state": "SE",
        "district": "São Cristóvão",
        "street": "Rua E (Cj M J E Santo)",
        "zipcode": "49500-702"
    },
    {
        "city": "Itabaiana",
        "state": "SE",
        "district": "São Cristóvão",
        "street": "Rua Eudalio Gouveia",
        "zipcode": "49500-870"
    },
    {
        "city": "Itabaiana",
        "state": "SE",
        "district": "São Cristóvão",
        "street": "Rua L (Cj M J E Santo)",
        "zipcode": "49500-705"
    },
    {
        "city": "Itabaiana",
        "state": "SE",
        "district": "São Cristóvão",
        "street": "Rua José Fonseca de Brito",
        "zipcode": "49501-100"
    },
    {
        "city": "Itabaiana",
        "state": "SE",
        "district": "São Cristóvão",
        "street": "Rua Josefa Arinda de Oliveira",
        "zipcode": "49500-876"
    },
    {
        "city": "Itabaiana",
        "state": "SE",
        "district": "São Cristóvão",
        "street": "Rua Manoel Fernandes Lima",
        "zipcode": "49500-879"
    },
    {
        "city": "Itabaiana",
        "state": "SE",
        "district": "São Cristóvão",
        "street": "Rua José Wilton Santos",
        "zipcode": "49501-127"
    },
    {
        "city": "Itabaiana",
        "state": "SE",
        "district": "São Cristóvão",
        "street": "Rua José Francisco de Oliveira",
        "zipcode": "49501-154"
    },
    {
        "city": "Itabaiana",
        "state": "SE",
        "district": "Centro",
        "street": "Rua Pedro Alves dos Santos",
        "zipcode": "49500-166"
    },
    {
        "city": "Itabaiana",
        "state": "SE",
        "district": "São Cristóvão",
        "street": "Travessa Anicéia Alves dos Santos",
        "zipcode": "49501-103"
    },
    {
        "city": "Itabaiana",
        "state": "SE",
        "district": "São Cristóvão",
        "street": "Rua Percílio Andrade",
        "zipcode": "49501-124"
    },
    {
        "city": "Itabaiana",
        "state": "SE",
        "district": "São Cristóvão",
        "street": "Rua Vereador Pedro Teles Mendonça",
        "zipcode": "49501-151"
    },
    {
        "city": "Itabaiana",
        "state": "SE",
        "district": "Centro",
        "street": "Rua Quintino de Lacerda",
        "zipcode": "49500-004"
    },
    {
        "city": "Itabaiana",
        "state": "SE",
        "district": "São Cristóvão",
        "street": "Travessa Maria Betania Carvalho",
        "zipcode": "49501-121"
    },
    {
        "city": "Itabaiana",
        "state": "SE",
        "district": "São Cristóvão",
        "street": "Travessa Francisco Bragança",
        "zipcode": "49501-148"
    },
    {
        "city": "Itabaiana",
        "state": "SE",
        "district": "Centro",
        "street": "Rua Odilon Azevedo",
        "zipcode": "49500-157"
    },
    {
        "city": "Itabaiana",
        "state": "SE",
        "district": "São Cristóvão",
        "street": "Rua João Batista Corcínio",
        "zipcode": "49501-130"
    },
    {
        "city": "Itabaiana",
        "state": "SE",
        "district": "Bananeiras",
        "street": "Rua José Alves de Oliveira",
        "zipcode": "49501-570"
    },
    {
        "city": "Itabaiana",
        "state": "SE",
        "district": "Oviedo Teixeira",
        "street": "Rua Cinco (D Industrial)",
        "zipcode": "49508-275"
    },
    {
        "city": "Itabaiana",
        "state": "SE",
        "district": "Riacho Doce",
        "street": "Rua José Airton Fraga Rocha",
        "zipcode": "49510-530"
    },
    {
        "city": "Itabaiana",
        "state": "SE",
        "district": "Riacho Doce",
        "street": "Rua Josivaldo dos Santos",
        "zipcode": "49510-550"
    },
    {
        "city": "Itabaiana",
        "state": "SE",
        "district": "Centro",
        "street": "Rua Quintino Bocaiuva",
        "zipcode": "49500-046"
    },
    {
        "city": "Itabaiana",
        "state": "SE",
        "district": "Centro",
        "street": "Rua Cupertino Dórea",
        "zipcode": "49500-112"
    },
    {
        "city": "Itabaiana",
        "state": "SE",
        "district": "Centro",
        "street": "Rua São Paulo",
        "zipcode": "49500-118"
    },
    {
        "city": "Itabaiana",
        "state": "SE",
        "district": "Centro",
        "street": "Largo José do Prado Franco",
        "zipcode": "49500-124"
    },
    {
        "city": "Itabaiana",
        "state": "SE",
        "district": "Centro",
        "street": "Vila Santo Antonio",
        "zipcode": "49500-055"
    },
    {
        "city": "Itabaiana",
        "state": "SE",
        "district": "Centro",
        "street": "Largo Santo Antonio",
        "zipcode": "49500-196"
    },
    {
        "city": "Itabaiana",
        "state": "SE",
        "district": "Centro",
        "street": "Rua Barão do Rio Branco",
        "zipcode": "49500-205"
    },
    {
        "city": "Itabaiana",
        "state": "SE",
        "district": "São Cristóvão",
        "street": "Avenida Leandro Maciel",
        "zipcode": "49500-353"
    },
    {
        "city": "Itabaiana",
        "state": "SE",
        "district": "São Cristóvão",
        "street": "Avenida Padre Airton Gonçalves Lima",
        "zipcode": "49500-543"
    },
    {
        "city": "Itabaiana",
        "state": "SE",
        "district": "Centro",
        "street": "Praça Fausto Cardoso",
        "zipcode": "49500-223"
    },
    {
        "city": "Itabaiana",
        "state": "SE",
        "district": "Centro",
        "street": "Rua Antonio Dultra",
        "zipcode": "49500-232"
    },
    {
        "city": "Itabaiana",
        "state": "SE",
        "district": "São Cristóvão",
        "street": "Avenida Doutor José Milton Machado",
        "zipcode": "49500-442"
    },
    {
        "city": "Itabaiana",
        "state": "SE",
        "district": "São Cristóvão",
        "street": "Rua A (Cj M C Bispo)",
        "zipcode": "49500-591"
    },
    {
        "city": "Itabaiana",
        "state": "SE",
        "district": "Riacho Doce",
        "street": "Rua Antonio Bispo",
        "zipcode": "49510-570"
    },
    {
        "city": "Itabaiana",
        "state": "SE",
        "district": "São Cristóvão",
        "street": "Rua Antonio Félix Barros",
        "zipcode": "49500-454"
    },
    {
        "city": "Itabaiana",
        "state": "SE",
        "district": "Centro",
        "street": "Rua General Siqueira",
        "zipcode": "49500-229"
    },
    {
        "city": "Itabaiana",
        "state": "SE",
        "district": "Centro",
        "street": "Rua General Valadão",
        "zipcode": "49500-256"
    },
    {
        "city": "Itabaiana",
        "state": "SE",
        "district": "São Cristóvão",
        "street": "Rua Francisco Bragança",
        "zipcode": "49500-326"
    },
    {
        "city": "Itabaiana",
        "state": "SE",
        "district": "São Cristóvão",
        "street": "Rua Elízio Araújo",
        "zipcode": "49500-335"
    },
    {
        "city": "Itabaiana",
        "state": "SE",
        "district": "São Cristóvão",
        "street": "Rua Coronel José Ribeiro",
        "zipcode": "49500-344"
    },
    {
        "city": "Itabaiana",
        "state": "SE",
        "district": "São Cristóvão",
        "street": "Rua Joana Perpetua Cunha",
        "zipcode": "49500-418"
    },
    {
        "city": "Itabaiana",
        "state": "SE",
        "district": "Centro",
        "street": "Rua Marechal Floriano Peixoto",
        "zipcode": "49500-253"
    },
    {
        "city": "Itabaiana",
        "state": "SE",
        "district": "Centro",
        "street": "Rua José Sizino de Almeida",
        "zipcode": "49500-289"
    },
    {
        "city": "Itabaiana",
        "state": "SE",
        "district": "São Cristóvão",
        "street": "Rua José Mesquita da Silveira",
        "zipcode": "49500-400"
    },
    {
        "city": "Itabaiana",
        "state": "SE",
        "district": "São Cristóvão",
        "street": "Rua José Mesquita da Silveira",
        "zipcode": "49500-415"
    },
    {
        "city": "Itabaiana",
        "state": "SE",
        "district": "São Cristóvão",
        "street": "Rua Josefa Adalula Noronha",
        "zipcode": "49500-457"
    },
    {
        "city": "Itabaiana",
        "state": "SE",
        "district": "Centro",
        "street": "Rua Manoel Lapa",
        "zipcode": "49500-241"
    },
    {
        "city": "Itabaiana",
        "state": "SE",
        "district": "Centro",
        "street": "Rua José Mesquita da Silveira",
        "zipcode": "49500-274"
    },
    {
        "city": "Itabaiana",
        "state": "SE",
        "district": "Centro",
        "street": "Travessa Capitão Francisco Ferreira",
        "zipcode": "49500-208"
    },
    {
        "city": "Itabaiana",
        "state": "SE",
        "district": "Centro",
        "street": "Rua Treze de Maio",
        "zipcode": "49500-217"
    },
    {
        "city": "Itabaiana",
        "state": "SE",
        "district": "Centro",
        "street": "Rua Padre Felismino",
        "zipcode": "49500-280"
    },
    {
        "city": "Itabaiana",
        "state": "SE",
        "district": "São Cristóvão",
        "street": "Travessa Antonio Marcos Nascimento",
        "zipcode": "49500-445"
    },
    {
        "city": "Itabaiana",
        "state": "SE",
        "district": "Centro",
        "street": "Rua Percílio Andrade",
        "zipcode": "49500-244"
    },
    {
        "city": "Itabaiana",
        "state": "SE",
        "district": "Centro",
        "street": "Travessa Manoel Andrade",
        "zipcode": "49500-220"
    },
    {
        "city": "Itabaiana",
        "state": "SE",
        "district": "São Cristóvão",
        "street": "Travessa Maria Cristina Rezende",
        "zipcode": "49500-338"
    },
    {
        "city": "Itabaiana",
        "state": "SE",
        "district": "São Cristóvão",
        "street": "Travessa Francisco Santos",
        "zipcode": "49500-427"
    },
    {
        "city": "Itabaiana",
        "state": "SE",
        "district": "São Cristóvão",
        "street": "Travessa José Libanio de Jesus",
        "zipcode": "49500-448"
    },
    {
        "city": "Itabaiana",
        "state": "SE",
        "district": "Centro",
        "street": "Travessa Laurinda Maria Mendonça",
        "zipcode": "49500-262"
    },
    {
        "city": "Itabaiana",
        "state": "SE",
        "district": "Centro",
        "street": "Travessa José Hermoge",
        "zipcode": "49500-271"
    },
    {
        "city": "Itabaiana",
        "state": "SE",
        "district": "Bananeiras",
        "street": "Travessa Francisco Bragança",
        "zipcode": "49501-580"
    },
    {
        "city": "Itabaiana",
        "state": "SE",
        "district": "Bananeiras",
        "street": "Travessa Raimunda Andrade",
        "zipcode": "49501-565"
    },
    {
        "city": "Itabaiana",
        "state": "SE",
        "district": "Bananeiras",
        "street": "Travessa Francisco Alves de Oliveira",
        "zipcode": "49501-575"
    },
    {
        "city": "Itabaiana",
        "state": "SE",
        "district": "Centro",
        "street": "Travessa Manoel Leite Sampaio",
        "zipcode": "49500-283"
    },
    {
        "city": "Itabaiana",
        "state": "SE",
        "district": "Riacho Doce",
        "street": "Travessa Maria das Graças Amorim",
        "zipcode": "49510-540"
    },
    {
        "city": "Itabaiana",
        "state": "SE",
        "district": "Riacho Doce",
        "street": "Travessa Quatro",
        "zipcode": "49510-560"
    },
    {
        "city": "Itabaiana",
        "state": "SE",
        "district": "Centro",
        "street": "Travessa José da Cunha Melo",
        "zipcode": "49500-199"
    },
    {
        "city": "Itabaiana",
        "state": "SE",
        "district": "Centro",
        "street": "Rua Augusto Maynard",
        "zipcode": "49500-214"
    },
    {
        "city": "Itabaiana",
        "state": "SE",
        "district": "Centro",
        "street": "Rua Gumercindo de Oliveira",
        "zipcode": "49500-295"
    },
    {
        "city": "Itabaiana",
        "state": "SE",
        "district": "São Cristóvão",
        "street": "Rua Percílio Andrade",
        "zipcode": "49500-323"
    },
    {
        "city": "Itabaiana",
        "state": "SE",
        "district": "São Cristóvão",
        "street": "Rua Manoel Martins Ferreira",
        "zipcode": "49500-409"
    },
    {
        "city": "Itabaiana",
        "state": "SE",
        "district": "Centro",
        "street": "Rua Santa Cruz",
        "zipcode": "49500-094"
    },
    {
        "city": "Itabaiana",
        "state": "SE",
        "district": "Centro",
        "street": "Rua Marechal Deodoro da Fonseca",
        "zipcode": "49500-259"
    },
    {
        "city": "Itabaiana",
        "state": "SE",
        "district": "São Cristóvão",
        "street": "Rua Francisco Bragança",
        "zipcode": "49500-329"
    },
    {
        "city": "Itabaiana",
        "state": "SE",
        "district": "Serrano",
        "street": "Travessa Francisco Catarino da Fonseca",
        "zipcode": "49503-006"
    },
    {
        "city": "Itabaiana",
        "state": "SE",
        "district": "Serrano",
        "street": "Rua Monsenhor Eraldo Barbosa",
        "zipcode": "49503-012"
    },
    {
        "city": "Itabaiana",
        "state": "SE",
        "district": "São Cristóvão",
        "street": "Travessa Manoel Serafim de Santana",
        "zipcode": "49500-618"
    },
    {
        "city": "Itabaiana",
        "state": "SE",
        "district": "São Cristóvão",
        "street": "Rua Ananias Antonio Machado",
        "zipcode": "49500-636"
    },
    {
        "city": "Itabaiana",
        "state": "SE",
        "district": "São Cristóvão",
        "street": "Rua B (Cj M C Bispo)",
        "zipcode": "49500-594"
    },
    {
        "city": "Itabaiana",
        "state": "SE",
        "district": "São Cristóvão",
        "street": "Rua A (Cj F T Mendonça)",
        "zipcode": "49500-684"
    },
    {
        "city": "Itabaiana",
        "state": "SE",
        "district": "São Cristóvão",
        "street": "Rua Inácio José Machado",
        "zipcode": "49500-549"
    },
    {
        "city": "Itabaiana",
        "state": "SE",
        "district": "São Cristóvão",
        "street": "Rua Joãozinho Retratista",
        "zipcode": "49500-561"
    },
    {
        "city": "Itabaiana",
        "state": "SE",
        "district": "São Cristóvão",
        "street": "Rua I (Cj M C Bispo)",
        "zipcode": "49500-588"
    },
    {
        "city": "Itabaiana",
        "state": "SE",
        "district": "São Cristóvão",
        "street": "Rua C (Cj M C Bispo)",
        "zipcode": "49500-597"
    },
    {
        "city": "Itabaiana",
        "state": "SE",
        "district": "São Cristóvão",
        "street": "Rua G (Cj F T Mendonça)",
        "zipcode": "49500-645"
    },
    {
        "city": "Itabaiana",
        "state": "SE",
        "district": "São Cristóvão",
        "street": "Rua E (Cj F T Mendonça)",
        "zipcode": "49500-660"
    },
    {
        "city": "Itabaiana",
        "state": "SE",
        "district": "São Cristóvão",
        "street": "Rua F (Cj F T Mendonça)",
        "zipcode": "49500-651"
    },
    {
        "city": "Itabaiana",
        "state": "SE",
        "district": "São Cristóvão",
        "street": "Rua G (Cj M J E Santo)",
        "zipcode": "49500-696"
    },
    {
        "city": "Itabaiana",
        "state": "SE",
        "district": "Bananeiras",
        "street": "Rua Francisco Bragança",
        "zipcode": "49501-590"
    },
    {
        "city": "Itabaiana",
        "state": "SE",
        "district": "Bananeiras",
        "street": "Rua Joana da Anunciação Borges",
        "zipcode": "49501-595"
    },
    {
        "city": "Itabaiana",
        "state": "SE",
        "district": "Bananeiras",
        "street": "Rua Francisco Alves de Oliveira",
        "zipcode": "49501-600"
    },
    {
        "city": "Itabaiana",
        "state": "SE",
        "district": "Bananeiras",
        "street": "Rua Cristóvão de Barros",
        "zipcode": "49501-615"
    },
    {
        "city": "Itabaiana",
        "state": "SE",
        "district": "São Cristóvão",
        "street": "Rua Ercília Costa de Oliveira",
        "zipcode": "49500-430"
    },
    {
        "city": "Itabaiana",
        "state": "SE",
        "district": "São Cristóvão",
        "street": "Rua Beliziário Antônio de Andrade",
        "zipcode": "49500-433"
    },
    {
        "city": "Itabaiana",
        "state": "SE",
        "district": "São Cristóvão",
        "street": "Rua Germano Pereira Santos",
        "zipcode": "49500-540"
    },
    {
        "city": "Itabaiana",
        "state": "SE",
        "district": "São Cristóvão",
        "street": "Rua Carlos Drumond de Andrade",
        "zipcode": "49500-573"
    },
    {
        "city": "Itabaiana",
        "state": "SE",
        "district": "São Cristóvão",
        "street": "Rua José Wilson dos Reis",
        "zipcode": "49500-552"
    },
    {
        "city": "Itabaiana",
        "state": "SE",
        "district": "São Cristóvão",
        "street": "Rua José Otacílio Santos",
        "zipcode": "49500-576"
    },
    {
        "city": "Itabaiana",
        "state": "SE",
        "district": "São Cristóvão",
        "street": "Rua José Antonio dos Santos",
        "zipcode": "49500-421"
    },
    {
        "city": "Itabaiana",
        "state": "SE",
        "district": "São Cristóvão",
        "street": "Rua José Braz Santos Oliveira",
        "zipcode": "49500-630"
    },
    {
        "city": "Itabaiana",
        "state": "SE",
        "district": "São Cristóvão",
        "street": "Rua M (Cj F T Mendonça)",
        "zipcode": "49500-690"
    },
    {
        "city": "Itabaiana",
        "state": "SE",
        "district": "São Cristóvão",
        "street": "Rua Petrolino Ferreira de Góis",
        "zipcode": "49500-558"
    },
    {
        "city": "Itabaiana",
        "state": "SE",
        "district": "São Cristóvão",
        "street": "Rua Vicente Ferreira de Souza",
        "zipcode": "49500-570"
    },
    {
        "city": "Itabaiana",
        "state": "SE",
        "district": "São Cristóvão",
        "street": "Travessa Ananias Antônio Machado",
        "zipcode": "49500-639"
    },
    {
        "city": "Itabaiana",
        "state": "SE",
        "district": "São Cristóvão",
        "street": "Rua N (Cj F T Mendonça)",
        "zipcode": "49500-669"
    },
    {
        "city": "Itabaiana",
        "state": "SE",
        "district": "São Cristóvão",
        "street": "Rua Saudalina Santana Ferreira",
        "zipcode": "49500-403"
    },
    {
        "city": "Itabaiana",
        "state": "SE",
        "district": "São Cristóvão",
        "street": "Rua S (Cj F T Mendonça)",
        "zipcode": "49500-648"
    },
    {
        "city": "Itabaiana",
        "state": "SE",
        "district": "São Cristóvão",
        "street": "Rua R (Cj F T Mendonça)",
        "zipcode": "49500-657"
    },
    {
        "city": "Itabaiana",
        "state": "SE",
        "district": "São Cristóvão",
        "street": "Rua Roseilde da Silva Oliveira (Cj F T Mendonça)",
        "zipcode": "49500-672"
    },
    {
        "city": "Itabaiana",
        "state": "SE",
        "district": "São Cristóvão",
        "street": "Rua Pedro Teles de Mendonça",
        "zipcode": "49500-678"
    },
    {
        "city": "Itabaiana",
        "state": "SE",
        "district": "São Cristóvão",
        "street": "Travessa A (Cj F T Mendonça)",
        "zipcode": "49500-687"
    },
    {
        "city": "Itabaiana",
        "state": "SE",
        "district": "São Cristóvão",
        "street": "Rua Monsenhor Mário de Oliveira Reis",
        "zipcode": "49500-585"
    },
    {
        "city": "Itabaiana",
        "state": "SE",
        "district": "São Cristóvão",
        "street": "Travessa José Braz Santos Oliveira",
        "zipcode": "49500-633"
    },
    {
        "city": "Itabaiana",
        "state": "SE",
        "district": "São Cristóvão",
        "street": "Travessa D (Cj F T Mendonça)",
        "zipcode": "49500-666"
    },
    {
        "city": "Itabaiana",
        "state": "SE",
        "district": "São Cristóvão",
        "street": "Travessa José Milton da Cunha",
        "zipcode": "49500-350"
    },
    {
        "city": "Itabaiana",
        "state": "SE",
        "district": "Bananeiras",
        "street": "Travessa José Antônio de Jesus",
        "zipcode": "49501-610"
    },
    {
        "city": "Itabaiana",
        "state": "SE",
        "district": "São Cristóvão",
        "street": "Rua Manoel Serafim de Santana",
        "zipcode": "49500-615"
    },
    {
        "city": "Itabaiana",
        "state": "SE",
        "district": "São Cristóvão",
        "street": "Rua D (Cj M P Mendonça)",
        "zipcode": "49500-627"
    },
    {
        "city": "Itabaiana",
        "state": "SE",
        "district": "São Cristóvão",
        "street": "Rua São Cristóvão",
        "zipcode": "49500-546"
    },
    {
        "city": "Itabaiana",
        "state": "SE",
        "district": "Bananeiras",
        "street": "Travessa Francisco Oliveira",
        "zipcode": "49501-625"
    },
    {
        "city": "Itabaiana",
        "state": "SE",
        "district": "São Cristóvão",
        "street": "Rua Miguel Teixeira",
        "zipcode": "49500-359"
    },
    {
        "city": "Itabaiana",
        "state": "SE",
        "district": "Serrano",
        "street": "Rua Sebastião José de Góis",
        "zipcode": "49503-165"
    },
    {
        "city": "Itabaiana",
        "state": "SE",
        "district": "Serrano",
        "street": "Rua Professor Hilário de Melo Rezende",
        "zipcode": "49503-066"
    },
    {
        "city": "Itabaiana",
        "state": "SE",
        "district": "Serrano",
        "street": "Rua José Ferreira Araujo",
        "zipcode": "49503-069"
    },
    {
        "city": "Itabaiana",
        "state": "SE",
        "district": "Serrano",
        "street": "Avenida Manoel Francisco Teles",
        "zipcode": "49503-081"
    },
    {
        "city": "Itabaiana",
        "state": "SE",
        "district": "Serrano",
        "street": "Rua Anízio Amancio de Oliveira",
        "zipcode": "49503-084"
    },
    {
        "city": "Itabaiana",
        "state": "SE",
        "district": "Serrano",
        "street": "Rua Antonio Santana",
        "zipcode": "49503-087"
    },
    {
        "city": "Itabaiana",
        "state": "SE",
        "district": "Serrano",
        "street": "Travessa José Ferreira Costa",
        "zipcode": "49503-090"
    },
    {
        "city": "Itabaiana",
        "state": "SE",
        "district": "Serrano",
        "street": "Rua Abdias Venancio Neto",
        "zipcode": "49503-099"
    },
    {
        "city": "Itabaiana",
        "state": "SE",
        "district": "Serrano",
        "street": "Rua Pedro Diniz Gonçalves",
        "zipcode": "49503-105"
    },
    {
        "city": "Itabaiana",
        "state": "SE",
        "district": "Anízio Amancio de Oliveira",
        "street": "Avenida Doutor Luiz Magalhães",
        "zipcode": "49503-300"
    },
    {
        "city": "Itabaiana",
        "state": "SE",
        "district": "Anízio Amancio de Oliveira",
        "street": "Rua Antonio Higino dos Santos",
        "zipcode": "49503-393"
    },
    {
        "city": "Itabaiana",
        "state": "SE",
        "district": "Anízio Amancio de Oliveira",
        "street": "Rua Antônio Caetano da Cunha",
        "zipcode": "49503-483"
    },
    {
        "city": "Itabaiana",
        "state": "SE",
        "district": "Anízio Amancio de Oliveira",
        "street": "Rua Everaldo Oliveira",
        "zipcode": "49503-559"
    },
    {
        "city": "Itabaiana",
        "state": "SE",
        "district": "Anízio Amancio de Oliveira",
        "street": "Rua Edson Oliveira",
        "zipcode": "49503-562"
    },
    {
        "city": "Itabaiana",
        "state": "SE",
        "district": "Anízio Amancio de Oliveira",
        "street": "Rua Francisco Menezes Santos",
        "zipcode": "49503-577"
    },
    {
        "city": "Itabaiana",
        "state": "SE",
        "district": "Bananeiras",
        "street": "Rua José Francisco dos Santos",
        "zipcode": "49501-635"
    },
    {
        "city": "Itabaiana",
        "state": "SE",
        "district": "Anízio Amancio de Oliveira",
        "street": "Rua Juca Monteiro",
        "zipcode": "49503-390"
    },
    {
        "city": "Itabaiana",
        "state": "SE",
        "district": "Anízio Amancio de Oliveira",
        "street": "Rua José Ferreira Nascimento",
        "zipcode": "49503-441"
    },
    {
        "city": "Itabaiana",
        "state": "SE",
        "district": "Anízio Amancio de Oliveira",
        "street": "Rua Maestro João de Matos",
        "zipcode": "49503-568"
    },
    {
        "city": "Itabaiana",
        "state": "SE",
        "district": "Anízio Amancio de Oliveira",
        "street": "Rua José Wilson Santos",
        "zipcode": "49503-580"
    },
    {
        "city": "Itabaiana",
        "state": "SE",
        "district": "Bananeiras",
        "street": "Rua José Nunes de Mendonça",
        "zipcode": "49501-620"
    },
    {
        "city": "Itabaiana",
        "state": "SE",
        "district": "Anízio Amancio de Oliveira",
        "street": "Rua Padre Felismino",
        "zipcode": "49503-423"
    },
    {
        "city": "Itabaiana",
        "state": "SE",
        "district": "Anízio Amancio de Oliveira",
        "street": "Rua Miguel Teixeira",
        "zipcode": "49503-432"
    },
    {
        "city": "Itabaiana",
        "state": "SE",
        "district": "Anízio Amancio de Oliveira",
        "street": "Travessa Ivan Andrade",
        "zipcode": "49503-411"
    },
    {
        "city": "Itabaiana",
        "state": "SE",
        "district": "Serrano",
        "street": "Travessa Doutor Renato Mazze Lucas",
        "zipcode": "49503-072"
    },
    {
        "city": "Itabaiana",
        "state": "SE",
        "district": "Serrano",
        "street": "Rua Maria Terezinha de Souza",
        "zipcode": "49503-111"
    },
    {
        "city": "Itabaiana",
        "state": "SE",
        "district": "Serrano",
        "street": "Rua Maria Angelita Santana",
        "zipcode": "49503-120"
    },
    {
        "city": "Itabaiana",
        "state": "SE",
        "district": "Serrano",
        "street": "Rua Vereador José Xavier Correia",
        "zipcode": "49503-126"
    },
    {
        "city": "Itabaiana",
        "state": "SE",
        "district": "Serrano",
        "street": "Rua Prefeito Vicente Machado de Menezes",
        "zipcode": "49503-141"
    },
    {
        "city": "Itabaiana",
        "state": "SE",
        "district": "Serrano",
        "street": "Rua José Auto de Oliveira",
        "zipcode": "49503-174"
    },
    {
        "city": "Itabaiana",
        "state": "SE",
        "district": "Serrano",
        "street": "Rua Felismino Pereira Andrade",
        "zipcode": "49503-226"
    },
    {
        "city": "Itabaiana",
        "state": "SE",
        "district": "Serrano",
        "street": "Rua Seis",
        "zipcode": "49503-244"
    },
    {
        "city": "Itabaiana",
        "state": "SE",
        "district": "Serrano",
        "street": "Rua Maria dos Anjos Bispo",
        "zipcode": "49503-250"
    },
    {
        "city": "Itabaiana",
        "state": "SE",
        "district": "Serrano",
        "street": "Rua José da Paixão",
        "zipcode": "49503-253"
    },
    {
        "city": "Itabaiana",
        "state": "SE",
        "district": "Anízio Amancio de Oliveira",
        "street": "Rua Candido Barbosa de Jesus",
        "zipcode": "49503-399"
    },
    {
        "city": "Itabaiana",
        "state": "SE",
        "district": "Anízio Amancio de Oliveira",
        "street": "Rua Antonio Higino dos Santos",
        "zipcode": "49503-402"
    },
    {
        "city": "Itabaiana",
        "state": "SE",
        "district": "Anízio Amancio de Oliveira",
        "street": "Rua José Máximo",
        "zipcode": "49503-571"
    },
    {
        "city": "Itabaiana",
        "state": "SE",
        "district": "Serrano",
        "street": "Rua Pedro Alves de Menezes",
        "zipcode": "49503-060"
    },
    {
        "city": "Itabaiana",
        "state": "SE",
        "district": "Serrano",
        "street": "Rua Jailton Andrade Machado",
        "zipcode": "49503-117"
    },
    {
        "city": "Itabaiana",
        "state": "SE",
        "district": "Serrano",
        "street": "Rua Abílio de Oliveira",
        "zipcode": "49503-123"
    },
    {
        "city": "Itabaiana",
        "state": "SE",
        "district": "Serrano",
        "street": "Rua Genivaldo Rosa dos Santos",
        "zipcode": "49503-138"
    },
    {
        "city": "Itabaiana",
        "state": "SE",
        "district": "Serrano",
        "street": "Avenida Manoel Francisco Teles",
        "zipcode": "49503-177"
    },
    {
        "city": "Itabaiana",
        "state": "SE",
        "district": "Serrano",
        "street": "Rua Paulo Pereira Silva",
        "zipcode": "49503-220"
    },
    {
        "city": "Itabaiana",
        "state": "SE",
        "district": "Serrano",
        "street": "Rua José Ferreira Lima",
        "zipcode": "49503-229"
    },
    {
        "city": "Itabaiana",
        "state": "SE",
        "district": "Serrano",
        "street": "Rua Nivaldo da Cunha",
        "zipcode": "49503-238"
    },
    {
        "city": "Itabaiana",
        "state": "SE",
        "district": "Serrano",
        "street": "Rua Onélia Oliveira Santos",
        "zipcode": "49503-129"
    },
    {
        "city": "Itabaiana",
        "state": "SE",
        "district": "Serrano",
        "street": "Rua João Francisco da Cunha",
        "zipcode": "49503-232"
    },
    {
        "city": "Itabaiana",
        "state": "SE",
        "district": "Serrano",
        "street": "Rua Josué Passos",
        "zipcode": "49503-235"
    },
    {
        "city": "Itabaiana",
        "state": "SE",
        "district": "Serrano",
        "street": "Rua Marcelino Ribeiro Bispo",
        "zipcode": "49503-247"
    },
    {
        "city": "Itabaiana",
        "state": "SE",
        "district": "Anízio Amancio de Oliveira",
        "street": "Rua Egidio dos Santos",
        "zipcode": "49503-438"
    },
    {
        "city": "Itabaiana",
        "state": "SE",
        "district": "Anízio Amancio de Oliveira",
        "street": "Rua Doutor Augusto Cesar Leite",
        "zipcode": "49503-408"
    },
    {
        "city": "Itabaiana",
        "state": "SE",
        "district": "Oviedo Teixeira",
        "street": "Rua Euclides Bispo dos Santos",
        "zipcode": "49507-680"
    },
    {
        "city": "Itabaiana",
        "state": "SE",
        "district": "Anízio Amancio de Oliveira",
        "street": "Avenida João Correia dos Santos",
        "zipcode": "49503-592"
    },
    {
        "city": "Itabaiana",
        "state": "SE",
        "district": "Marianga",
        "street": "Avenida Rinaldo Mota Santos",
        "zipcode": "49504-000"
    },
    {
        "city": "Itabaiana",
        "state": "SE",
        "district": "Marianga",
        "street": "Rua B (Lot Morumbi II)",
        "zipcode": "49504-012"
    },
    {
        "city": "Itabaiana",
        "state": "SE",
        "district": "Marianga",
        "street": "Avenida Maria José Santos",
        "zipcode": "49504-241"
    },
    {
        "city": "Itabaiana",
        "state": "SE",
        "district": "Marianga",
        "street": "Rua Antônio Menezes Santos",
        "zipcode": "49504-325"
    },
    {
        "city": "Itabaiana",
        "state": "SE",
        "district": "Marianga",
        "street": "Rua Bartolomeu de Carvalho Peixoto",
        "zipcode": "49504-334"
    },
    {
        "city": "Itabaiana",
        "state": "SE",
        "district": "Marianga",
        "street": "Rua Antônio Francisco da Cunha",
        "zipcode": "49504-343"
    },
    {
        "city": "Itabaiana",
        "state": "SE",
        "district": "Marianga",
        "street": "Rua Anatólio Garcia Moreno Sobrinho",
        "zipcode": "49504-349"
    },
    {
        "city": "Itabaiana",
        "state": "SE",
        "district": "Marianga",
        "street": "Avenida João Pereira de Andrade",
        "zipcode": "49504-355"
    },
    {
        "city": "Itabaiana",
        "state": "SE",
        "district": "Marianga",
        "street": "Rua A (Cond Zilda Arns)",
        "zipcode": "49504-450"
    },
    {
        "city": "Itabaiana",
        "state": "SE",
        "district": "Anízio Amancio de Oliveira",
        "street": "Estrada do Barrado",
        "zipcode": "49503-435"
    },
    {
        "city": "Itabaiana",
        "state": "SE",
        "district": "Marianga",
        "street": "Rua Iana Monteiro de Carvalho",
        "zipcode": "49504-015"
    },
    {
        "city": "Itabaiana",
        "state": "SE",
        "district": "Marianga",
        "street": "Rua F (Lot Morumbi II)",
        "zipcode": "49504-021"
    },
    {
        "city": "Itabaiana",
        "state": "SE",
        "district": "Anízio Amancio de Oliveira",
        "street": "Rua Cláudia Jeane Andrade Carneiro",
        "zipcode": "49503-604"
    },
    {
        "city": "Itabaiana",
        "state": "SE",
        "district": "Anízio Amancio de Oliveira",
        "street": "Rua José Carlos Bispo",
        "zipcode": "49503-556"
    },
    {
        "city": "Itabaiana",
        "state": "SE",
        "district": "Marianga",
        "street": "Rua João Leite de Andrade",
        "zipcode": "49504-328"
    },
    {
        "city": "Itabaiana",
        "state": "SE",
        "district": "Marianga",
        "street": "Rua Eleandro do Nascimento Silva",
        "zipcode": "49504-337"
    },
    {
        "city": "Itabaiana",
        "state": "SE",
        "district": "Marianga",
        "street": "Rua José Rufino de Santana",
        "zipcode": "49504-006"
    },
    {
        "city": "Itabaiana",
        "state": "SE",
        "district": "Marianga",
        "street": "Rua José Costa Lima",
        "zipcode": "49504-072"
    },
    {
        "city": "Itabaiana",
        "state": "SE",
        "district": "Anízio Amancio de Oliveira",
        "street": "Rua José Mesquita da Silveira",
        "zipcode": "49503-429"
    },
    {
        "city": "Itabaiana",
        "state": "SE",
        "district": "Marianga",
        "street": "Rua Maria de Souza Carvalho",
        "zipcode": "49504-163"
    },
    {
        "city": "Itabaiana",
        "state": "SE",
        "district": "Marianga",
        "street": "Rua José da Paixão de Oliveira",
        "zipcode": "49504-223"
    },
    {
        "city": "Itabaiana",
        "state": "SE",
        "district": "Anízio Amancio de Oliveira",
        "street": "Rua Maria Oliveira Mendonça",
        "zipcode": "49503-598"
    },
    {
        "city": "Itabaiana",
        "state": "SE",
        "district": "Marianga",
        "street": "Rua Padre Felismino",
        "zipcode": "49504-003"
    },
    {
        "city": "Itabaiana",
        "state": "SE",
        "district": "Marianga",
        "street": "Rua Vinte e Oito de Agosto",
        "zipcode": "49504-063"
    },
    {
        "city": "Itabaiana",
        "state": "SE",
        "district": "Marianga",
        "street": "Rua Renato Bispo de Lima",
        "zipcode": "49504-075"
    },
    {
        "city": "Itabaiana",
        "state": "SE",
        "district": "Marianga",
        "street": "Rua Maria Tavares da Costa",
        "zipcode": "49504-087"
    },
    {
        "city": "Itabaiana",
        "state": "SE",
        "district": "Anízio Amancio de Oliveira",
        "street": "Rua Maria Oliveira Mendonça (Lot Chiara)",
        "zipcode": "49503-309"
    },
    {
        "city": "Itabaiana",
        "state": "SE",
        "district": "Anízio Amancio de Oliveira",
        "street": "Rua Paraguai",
        "zipcode": "49503-489"
    },
    {
        "city": "Itabaiana",
        "state": "SE",
        "district": "Anízio Amancio de Oliveira",
        "street": "Rua Projetada",
        "zipcode": "49503-492"
    },
    {
        "city": "Itabaiana",
        "state": "SE",
        "district": "Anízio Amancio de Oliveira",
        "street": "Rua Uruguai",
        "zipcode": "49503-550"
    },
    {
        "city": "Itabaiana",
        "state": "SE",
        "district": "Marianga",
        "street": "Rua Miguel Carvalho Peixoto",
        "zipcode": "49504-081"
    },
    {
        "city": "Itabaiana",
        "state": "SE",
        "district": "Marianga",
        "street": "Travessa Anselmo Andrade",
        "zipcode": "49504-313"
    },
    {
        "city": "Itabaiana",
        "state": "SE",
        "district": "Marianga",
        "street": "Travessa Willian Fonseca de Jesus",
        "zipcode": "49504-084"
    },
    {
        "city": "Itabaiana",
        "state": "SE",
        "district": "Marianga",
        "street": "Travessa Paulino Dias da Trindade",
        "zipcode": "49504-090"
    },
    {
        "city": "Itabaiana",
        "state": "SE",
        "district": "Marianga",
        "street": "Rua Celina Andrade de Menezes",
        "zipcode": "49504-069"
    },
    {
        "city": "Itabaiana",
        "state": "SE",
        "district": "Marianga",
        "street": "Rua Sebastião de Oliveira",
        "zipcode": "49504-093"
    },
    {
        "city": "Itabaiana",
        "state": "SE",
        "district": "Serrano",
        "street": "Travessa Bombina Nunes Silva",
        "zipcode": "49503-096"
    },
    {
        "city": "Itabaiana",
        "state": "SE",
        "district": "Serrano",
        "street": "Rua Serapião Antonio de Góis",
        "zipcode": "49503-114"
    },
    {
        "city": "Itabaiana",
        "state": "SE",
        "district": "Serrano",
        "street": "Travessa Francisco Santana",
        "zipcode": "49503-132"
    },
    {
        "city": "Itabaiana",
        "state": "SE",
        "district": "Marianga",
        "street": "Avenida Construtor Manoel Cosme dos Santos",
        "zipcode": "49504-310"
    },
    {
        "city": "Itabaiana",
        "state": "SE",
        "district": "Marianga",
        "street": "Travessa Eronildes José dos Santos",
        "zipcode": "49504-322"
    },
    {
        "city": "Itabaiana",
        "state": "SE",
        "district": "Serrano",
        "street": "Travessa Abílio de Oliveira",
        "zipcode": "49503-147"
    },
    {
        "city": "Itabaiana",
        "state": "SE",
        "district": "Anízio Amancio de Oliveira",
        "street": "Rua Vinte e Oito de Agosto",
        "zipcode": "49503-312"
    },
    {
        "city": "Itabaiana",
        "state": "SE",
        "district": "Anízio Amancio de Oliveira",
        "street": "Rua Quintino de Lacerda",
        "zipcode": "49503-426"
    },
    {
        "city": "Itabaiana",
        "state": "SE",
        "district": "Anízio Amancio de Oliveira",
        "street": "Rua Argentina",
        "zipcode": "49503-447"
    },
    {
        "city": "Itabaiana",
        "state": "SE",
        "district": "Marianga",
        "street": "Rua Melquiades José Mendonça",
        "zipcode": "49504-108"
    },
    {
        "city": "Itabaiana",
        "state": "SE",
        "district": "Marianga",
        "street": "Rua Maria Lima",
        "zipcode": "49504-111"
    },
    {
        "city": "Itabaiana",
        "state": "SE",
        "district": "Marianga",
        "street": "Rua Antonio dos Reis",
        "zipcode": "49504-120"
    },
    {
        "city": "Itabaiana",
        "state": "SE",
        "district": "Marianga",
        "street": "Avenida Saturnina de Oliveira",
        "zipcode": "49504-160"
    },
    {
        "city": "Itabaiana",
        "state": "SE",
        "district": "Miguel Teles de Mendonça",
        "street": "Rua Sérgio Batista dos Santos",
        "zipcode": "49505-345"
    },
    {
        "city": "Itabaiana",
        "state": "SE",
        "district": "Rotary Club de Itabaiana",
        "street": "Largo Simão Dias Francês",
        "zipcode": "49506-006"
    },
    {
        "city": "Itabaiana",
        "state": "SE",
        "district": "Marianga",
        "street": "Rua Juca Monteiro",
        "zipcode": "49504-099"
    },
    {
        "city": "Itabaiana",
        "state": "SE",
        "district": "Marianga",
        "street": "Rua D (Lot Morumbi II)",
        "zipcode": "49504-024"
    },
    {
        "city": "Itabaiana",
        "state": "SE",
        "district": "Marianga",
        "street": "Rua Antônio Francisco dos Santos",
        "zipcode": "49504-379"
    },
    {
        "city": "Itabaiana",
        "state": "SE",
        "district": "Rotary Club de Itabaiana",
        "street": "Avenida Silvio Teixeira",
        "zipcode": "49506-015"
    },
    {
        "city": "Itabaiana",
        "state": "SE",
        "district": "Rotary Club de Itabaiana",
        "street": "Avenida Vereador Olimpio Grande",
        "zipcode": "49506-036"
    },
    {
        "city": "Itabaiana",
        "state": "SE",
        "district": "Rotary Club de Itabaiana",
        "street": "Avenida Manoel Antônio dos Santos",
        "zipcode": "49506-090"
    },
    {
        "city": "Itabaiana",
        "state": "SE",
        "district": "Rotary Club de Itabaiana",
        "street": "Avenida João Teixeira",
        "zipcode": "49506-093"
    },
    {
        "city": "Itabaiana",
        "state": "SE",
        "district": "Rotary Club de Itabaiana",
        "street": "Avenida Silvio Teixeira",
        "zipcode": "49506-105"
    },
    {
        "city": "Itabaiana",
        "state": "SE",
        "district": "Rotary Club de Itabaiana",
        "street": "Avenida Manoel Francisco Teles",
        "zipcode": "49506-108"
    },
    {
        "city": "Itabaiana",
        "state": "SE",
        "district": "Rotary Club de Itabaiana",
        "street": "Rua Antônio Pereira Junior",
        "zipcode": "49506-207"
    },
    {
        "city": "Itabaiana",
        "state": "SE",
        "district": "Rotary Club de Itabaiana",
        "street": "Rua Anízio Amancio de Oliveira",
        "zipcode": "49506-240"
    },
    {
        "city": "Itabaiana",
        "state": "SE",
        "district": "Marianga",
        "street": "Rua Isaltina Oliveira da Silva",
        "zipcode": "49504-370"
    },
    {
        "city": "Itabaiana",
        "state": "SE",
        "district": "Marianga",
        "street": "Rua Fortunato Machado de Oliveira",
        "zipcode": "49504-388"
    },
    {
        "city": "Itabaiana",
        "state": "SE",
        "district": "Marianga",
        "street": "Rua D (Cond Zilda Arns)",
        "zipcode": "49504-459"
    },
    {
        "city": "Itabaiana",
        "state": "SE",
        "district": "Miguel Teles de Mendonça",
        "street": "Rua Cariolando Lima",
        "zipcode": "49505-090"
    },
    {
        "city": "Itabaiana",
        "state": "SE",
        "district": "Miguel Teles de Mendonça",
        "street": "Rua João Lima",
        "zipcode": "49505-370"
    },
    {
        "city": "Itabaiana",
        "state": "SE",
        "district": "Rotary Club de Itabaiana",
        "street": "Rua Heleno da Cunha Melo",
        "zipcode": "49506-201"
    },
    {
        "city": "Itabaiana",
        "state": "SE",
        "district": "Rotary Club de Itabaiana",
        "street": "Rua João de Melo Rezende",
        "zipcode": "49506-252"
    },
    {
        "city": "Itabaiana",
        "state": "SE",
        "district": "Marianga",
        "street": "Rua Catarina Oliveira Souza",
        "zipcode": "49504-238"
    },
    {
        "city": "Itabaiana",
        "state": "SE",
        "district": "Miguel Teles de Mendonça",
        "street": "Rua José Henrique da Silveira",
        "zipcode": "49505-340"
    },
    {
        "city": "Itabaiana",
        "state": "SE",
        "district": "Rotary Club de Itabaiana",
        "street": "Rua José Paulo de Santana",
        "zipcode": "49506-039"
    },
    {
        "city": "Itabaiana",
        "state": "SE",
        "district": "Rotary Club de Itabaiana",
        "street": "Rua José Osvaldo Tavares",
        "zipcode": "49506-231"
    },
    {
        "city": "Itabaiana",
        "state": "SE",
        "district": "Marianga",
        "street": "Rua Manoel da Cunha Melo",
        "zipcode": "49504-346"
    },
    {
        "city": "Itabaiana",
        "state": "SE",
        "district": "Marianga",
        "street": "Rua José Antônio Rodrigues Santos",
        "zipcode": "49504-361"
    },
    {
        "city": "Itabaiana",
        "state": "SE",
        "district": "Marianga",
        "street": "Rua José Mota da Costa",
        "zipcode": "49504-385"
    },
    {
        "city": "Itabaiana",
        "state": "SE",
        "district": "Miguel Teles de Mendonça",
        "street": "Rua São José",
        "zipcode": "49505-325"
    },
    {
        "city": "Itabaiana",
        "state": "SE",
        "district": "Miguel Teles de Mendonça",
        "street": "Rua São Jorge",
        "zipcode": "49505-350"
    },
    {
        "city": "Itabaiana",
        "state": "SE",
        "district": "Rotary Club de Itabaiana",
        "street": "Rua Simão Dias Francês",
        "zipcode": "49506-003"
    },
    {
        "city": "Itabaiana",
        "state": "SE",
        "district": "Rotary Club de Itabaiana",
        "street": "Travessa Antônio José dos Santos",
        "zipcode": "49506-009"
    },
    {
        "city": "Itabaiana",
        "state": "SE",
        "district": "Miguel Teles de Mendonça",
        "street": "Travessa Maria do Céu de Jesus",
        "zipcode": "49505-095"
    },
    {
        "city": "Itabaiana",
        "state": "SE",
        "district": "Miguel Teles de Mendonça",
        "street": "Travessa Santo Antônio",
        "zipcode": "49505-355"
    },
    {
        "city": "Itabaiana",
        "state": "SE",
        "district": "Marianga",
        "street": "Travessa Keoma Oliveira dos Santos",
        "zipcode": "49504-316"
    },
    {
        "city": "Itabaiana",
        "state": "SE",
        "district": "Marianga",
        "street": "Rua Maria Nunes Peixoto",
        "zipcode": "49504-382"
    },
    {
        "city": "Itabaiana",
        "state": "SE",
        "district": "Rotary Club de Itabaiana",
        "street": "Avenida Walter Franco",
        "zipcode": "49506-018"
    },
    {
        "city": "Itabaiana",
        "state": "SE",
        "district": "Rotary Club de Itabaiana",
        "street": "Rua José Luciano Siqueira",
        "zipcode": "49506-024"
    },
    {
        "city": "Itabaiana",
        "state": "SE",
        "district": "Rotary Club de Itabaiana",
        "street": "Travessa Antônio Pereira Júnior II",
        "zipcode": "49506-210"
    },
    {
        "city": "Itabaiana",
        "state": "SE",
        "district": "Marianga",
        "street": "Rua Roberto dos Santos Carvalho",
        "zipcode": "49504-229"
    },
    {
        "city": "Itabaiana",
        "state": "SE",
        "district": "Marianga",
        "street": "Avenida Rosalvo Alexandre de Lima",
        "zipcode": "49504-235"
    },
    {
        "city": "Itabaiana",
        "state": "SE",
        "district": "Marianga",
        "street": "Rua Artur Lourenço dos Reis",
        "zipcode": "49504-367"
    },
    {
        "city": "Itabaiana",
        "state": "SE",
        "district": "Miguel Teles de Mendonça",
        "street": "Avenida Alípio Tavares de Menezes",
        "zipcode": "49505-000"
    },
    {
        "city": "Itabaiana",
        "state": "SE",
        "district": "Rotary Club de Itabaiana",
        "street": "Avenida Prefeito Jason Correia",
        "zipcode": "49506-033"
    },
    {
        "city": "Itabaiana",
        "state": "SE",
        "district": "Rotary Club de Itabaiana",
        "street": "Rua José Francisco de Menezes",
        "zipcode": "49506-168"
    },
    {
        "city": "Itabaiana",
        "state": "SE",
        "district": "Rotary Club de Itabaiana",
        "street": "Rua Abdon Pinto Monteiro",
        "zipcode": "49506-195"
    },
    {
        "city": "Itabaiana",
        "state": "SE",
        "district": "Rotary Club de Itabaiana",
        "street": "Rua Antônio Leite Sampaio",
        "zipcode": "49506-276"
    },
    {
        "city": "Itabaiana",
        "state": "SE",
        "district": "Doutor José Milton Machado",
        "street": "Rua Alaíde de Rezende Prado",
        "zipcode": "49506-364"
    },
    {
        "city": "Itabaiana",
        "state": "SE",
        "district": "Doutor José Milton Machado",
        "street": "Rua Baião de Dois",
        "zipcode": "49506-445"
    },
    {
        "city": "Itabaiana",
        "state": "SE",
        "district": "Doutor José Milton Machado",
        "street": "Rua Acauã",
        "zipcode": "49506-522"
    },
    {
        "city": "Itabaiana",
        "state": "SE",
        "district": "Doutor José Milton Machado",
        "street": "Rua A Volta da Asa Branca",
        "zipcode": "49506-609"
    },
    {
        "city": "Itabaiana",
        "state": "SE",
        "district": "Doutor José Milton Machado",
        "street": "Rua Arnaldo Silveira",
        "zipcode": "49506-716"
    },
    {
        "city": "Itabaiana",
        "state": "SE",
        "district": "Doutor José Milton Machado",
        "street": "Rua Cintura Fina",
        "zipcode": "49506-525"
    },
    {
        "city": "Itabaiana",
        "state": "SE",
        "district": "Doutor José Milton Machado",
        "street": "Rua Fogo Pagô",
        "zipcode": "49506-618"
    },
    {
        "city": "Itabaiana",
        "state": "SE",
        "district": "Marianga",
        "street": "Rua E (Cond Zilda Arns)",
        "zipcode": "49504-462"
    },
    {
        "city": "Itabaiana",
        "state": "SE",
        "district": "Rotary Club de Itabaiana",
        "street": "Rua Benedito Santana",
        "zipcode": "49506-192"
    },
    {
        "city": "Itabaiana",
        "state": "SE",
        "district": "Rotary Club de Itabaiana",
        "street": "Rua José Valdir Mendonça",
        "zipcode": "49506-174"
    },
    {
        "city": "Itabaiana",
        "state": "SE",
        "district": "Rotary Club de Itabaiana",
        "street": "Rua Juarez Noronha",
        "zipcode": "49506-234"
    },
    {
        "city": "Itabaiana",
        "state": "SE",
        "district": "Rotary Club de Itabaiana",
        "street": "Rua Lourenço Alves dos Santos",
        "zipcode": "49506-294"
    },
    {
        "city": "Itabaiana",
        "state": "SE",
        "district": "Doutor José Milton Machado",
        "street": "Rua Karolina com K",
        "zipcode": "49506-510"
    },
    {
        "city": "Itabaiana",
        "state": "SE",
        "district": "Doutor José Milton Machado",
        "street": "Rua Juazeiro",
        "zipcode": "49506-513"
    },
    {
        "city": "Itabaiana",
        "state": "SE",
        "district": "Miguel Teles de Mendonça",
        "street": "Rua Juca Monteiro",
        "zipcode": "49505-010"
    },
    {
        "city": "Itabaiana",
        "state": "SE",
        "district": "Miguel Teles de Mendonça",
        "street": "Rua José Francisco de Morais",
        "zipcode": "49505-015"
    },
    {
        "city": "Itabaiana",
        "state": "SE",
        "district": "Rotary Club de Itabaiana",
        "street": "Rua Vesta Maria de Góis",
        "zipcode": "49506-261"
    },
    {
        "city": "Itabaiana",
        "state": "SE",
        "district": "Rotary Club de Itabaiana",
        "street": "Travessa José Santana",
        "zipcode": "49506-048"
    },
    {
        "city": "Itabaiana",
        "state": "SE",
        "district": "Rotary Club de Itabaiana",
        "street": "Travessa José Vanderley da Cruz",
        "zipcode": "49506-159"
    },
    {
        "city": "Itabaiana",
        "state": "SE",
        "district": "Rotary Club de Itabaiana",
        "street": "Travessa Marcelino José dos Santos",
        "zipcode": "49506-198"
    },
    {
        "city": "Itabaiana",
        "state": "SE",
        "district": "Rotary Club de Itabaiana",
        "street": "Travessa Josué Menezes",
        "zipcode": "49506-237"
    },
    {
        "city": "Itabaiana",
        "state": "SE",
        "district": "Rotary Club de Itabaiana",
        "street": "Travessa Vesta Maria de Góis",
        "zipcode": "49506-258"
    },
    {
        "city": "Itabaiana",
        "state": "SE",
        "district": "Miguel Teles de Mendonça",
        "street": "Travessa Josival Nunes dos Santos",
        "zipcode": "49505-085"
    },
    {
        "city": "Itabaiana",
        "state": "SE",
        "district": "Rotary Club de Itabaiana",
        "street": "Travessa Matapoã",
        "zipcode": "49506-096"
    },
    {
        "city": "Itabaiana",
        "state": "SE",
        "district": "Rotary Club de Itabaiana",
        "street": "Travessa João Paes da Costa",
        "zipcode": "49506-249"
    },
    {
        "city": "Itabaiana",
        "state": "SE",
        "district": "Rotary Club de Itabaiana",
        "street": "Rua Vera Cândida da Costa de Santana",
        "zipcode": "49506-189"
    },
    {
        "city": "Itabaiana",
        "state": "SE",
        "district": "Rotary Club de Itabaiana",
        "street": "Travessa Florival Mesquita da Silva",
        "zipcode": "49506-228"
    },
    {
        "city": "Itabaiana",
        "state": "SE",
        "district": "Rotary Club de Itabaiana",
        "street": "Rua Agdo Oliveira Santos",
        "zipcode": "49506-282"
    },
    {
        "city": "Itabaiana",
        "state": "SE",
        "district": "Rotary Club de Itabaiana",
        "street": "Rua João Andrade",
        "zipcode": "49506-288"
    },
    {
        "city": "Itabaiana",
        "state": "SE",
        "district": "Doutor José Milton Machado",
        "street": "Rua No meu Pé de Serra",
        "zipcode": "49506-633"
    },
    {
        "city": "Itabaiana",
        "state": "SE",
        "district": "Miguel Teles de Mendonça",
        "street": "Rua Antonio dos Reis",
        "zipcode": "49505-070"
    },
    {
        "city": "Itabaiana",
        "state": "SE",
        "district": "Miguel Teles de Mendonça",
        "street": "Rua Alemar Batista de Andrade",
        "zipcode": "49505-100"
    },
    {
        "city": "Itabaiana",
        "state": "SE",
        "district": "Miguel Teles de Mendonça",
        "street": "Rua São João",
        "zipcode": "49505-310"
    },
    {
        "city": "Itabaiana",
        "state": "SE",
        "district": "Rotary Club de Itabaiana",
        "street": "Rua Antônio José da Costa",
        "zipcode": "49506-027"
    },
    {
        "city": "Itabaiana",
        "state": "SE",
        "district": "Rotary Club de Itabaiana",
        "street": "Avenida Walter Franco",
        "zipcode": "49506-219"
    },
    {
        "city": "Itabaiana",
        "state": "SE",
        "district": "Rotary Club de Itabaiana",
        "street": "Travessa Antônio Lima",
        "zipcode": "49506-225"
    },
    {
        "city": "Itabaiana",
        "state": "SE",
        "district": "Rotary Club de Itabaiana",
        "street": "Rua Filomena Pereira de Andrade",
        "zipcode": "49506-264"
    },
    {
        "city": "Itabaiana",
        "state": "SE",
        "district": "Rotary Club de Itabaiana",
        "street": "Praça José Francisco de Mendonça",
        "zipcode": "49506-285"
    },
    {
        "city": "Itabaiana",
        "state": "SE",
        "district": "Rotary Club de Itabaiana",
        "street": "Rua Miguel Alves dos Santos",
        "zipcode": "49506-297"
    },
    {
        "city": "Itabaiana",
        "state": "SE",
        "district": "Doutor José Milton Machado",
        "street": "Avenida Fulgencio José Machado",
        "zipcode": "49506-340"
    },
    {
        "city": "Itabaiana",
        "state": "SE",
        "district": "Doutor José Milton Machado",
        "street": "Rua Martilizano dos Santos",
        "zipcode": "49506-343"
    },
    {
        "city": "Itabaiana",
        "state": "SE",
        "district": "Doutor José Milton Machado",
        "street": "Rua Iracema Andrade",
        "zipcode": "49506-349"
    },
    {
        "city": "Itabaiana",
        "state": "SE",
        "district": "Doutor José Milton Machado",
        "street": "Rua Davi Nascimento Cunha",
        "zipcode": "49506-355"
    },
    {
        "city": "Itabaiana",
        "state": "SE",
        "district": "Doutor José Milton Machado",
        "street": "Rua Lourival Frique do Prado",
        "zipcode": "49506-358"
    },
    {
        "city": "Itabaiana",
        "state": "SE",
        "district": "Rotary Club de Itabaiana",
        "street": "Rua José Vieira Lima",
        "zipcode": "49506-177"
    },
    {
        "city": "Itabaiana",
        "state": "SE",
        "district": "Rotary Club de Itabaiana",
        "street": "Rua Amazilde Menezes Sampaio",
        "zipcode": "49506-300"
    },
    {
        "city": "Itabaiana",
        "state": "SE",
        "district": "Doutor José Milton Machado",
        "street": "Rua João Pereira da Silva",
        "zipcode": "49507-073"
    },
    {
        "city": "Itabaiana",
        "state": "SE",
        "district": "Doutor José Milton Machado",
        "street": "Rua Gentil Santana",
        "zipcode": "49507-082"
    },
    {
        "city": "Itabaiana",
        "state": "SE",
        "district": "Doutor José Milton Machado",
        "street": "Travessa Manoel Almeida Teles",
        "zipcode": "49507-085"
    },
    {
        "city": "Itabaiana",
        "state": "SE",
        "district": "Doutor José Milton Machado",
        "street": "Avenida Pedro Teles Barbosa",
        "zipcode": "49507-091"
    },
    {
        "city": "Itabaiana",
        "state": "SE",
        "district": "Doutor José Milton Machado",
        "street": "Avenida Pedro Teles Barbosa",
        "zipcode": "49507-094"
    },
    {
        "city": "Itabaiana",
        "state": "SE",
        "district": "Oviedo Teixeira",
        "street": "Avenida Fulgencio José Machado",
        "zipcode": "49507-440"
    },
    {
        "city": "Itabaiana",
        "state": "SE",
        "district": "Oviedo Teixeira",
        "street": "Rua José Nicolau da Silveira",
        "zipcode": "49507-450"
    },
    {
        "city": "Itabaiana",
        "state": "SE",
        "district": "Oviedo Teixeira",
        "street": "Travessa Joaquim Alves dos Santos",
        "zipcode": "49507-455"
    },
    {
        "city": "Itabaiana",
        "state": "SE",
        "district": "Oviedo Teixeira",
        "street": "Avenida Luiz Gonzaga",
        "zipcode": "49507-460"
    },
    {
        "city": "Itabaiana",
        "state": "SE",
        "district": "Oviedo Teixeira",
        "street": "Rua Gleide Selma Alexandra de Brito",
        "zipcode": "49507-480"
    },
    {
        "city": "Itabaiana",
        "state": "SE",
        "district": "Oviedo Teixeira",
        "street": "Rua João Batista de Jesus Oliveira",
        "zipcode": "49507-505"
    },
    {
        "city": "Itabaiana",
        "state": "SE",
        "district": "Oviedo Teixeira",
        "street": "Rua Severino Geraldo dos Santos",
        "zipcode": "49507-525"
    },
    {
        "city": "Itabaiana",
        "state": "SE",
        "district": "Oviedo Teixeira",
        "street": "Rua José Belo Araújo",
        "zipcode": "49507-530"
    },
    {
        "city": "Itabaiana",
        "state": "SE",
        "district": "Oviedo Teixeira",
        "street": "Rua Eptácio José da Silva",
        "zipcode": "49507-465"
    },
    {
        "city": "Itabaiana",
        "state": "SE",
        "district": "Oviedo Teixeira",
        "street": "Rua João Silveira",
        "zipcode": "49507-655"
    },
    {
        "city": "Itabaiana",
        "state": "SE",
        "district": "Oviedo Teixeira",
        "street": "Travessa Josefa Santana Monteiro",
        "zipcode": "49507-775"
    },
    {
        "city": "Itabaiana",
        "state": "SE",
        "district": "Doutor José Milton Machado",
        "street": "Rua L Oliveira",
        "zipcode": "49506-876"
    },
    {
        "city": "Itabaiana",
        "state": "SE",
        "district": "Oviedo Teixeira",
        "street": "Rua Josefa Santana Monteiro",
        "zipcode": "49507-770"
    },
    {
        "city": "Itabaiana",
        "state": "SE",
        "district": "Doutor José Milton Machado",
        "street": "Rua Airton dos Santos",
        "zipcode": "49506-858"
    },
    {
        "city": "Itabaiana",
        "state": "SE",
        "district": "Doutor José Milton Machado",
        "street": "Rua Josefa Cordélia de Góis",
        "zipcode": "49506-731"
    },
    {
        "city": "Itabaiana",
        "state": "SE",
        "district": "Doutor José Milton Machado",
        "street": "Rua Vaca Estrela Meu Boi Fubá",
        "zipcode": "49506-516"
    },
    {
        "city": "Itabaiana",
        "state": "SE",
        "district": "Doutor José Milton Machado",
        "street": "Rua Quero Chá",
        "zipcode": "49506-603"
    },
    {
        "city": "Itabaiana",
        "state": "SE",
        "district": "Doutor José Milton Machado",
        "street": "Rua Toca Pai",
        "zipcode": "49506-606"
    },
    {
        "city": "Itabaiana",
        "state": "SE",
        "district": "Doutor José Milton Machado",
        "street": "Rua Poeta José Crispim de Souza",
        "zipcode": "49506-636"
    },
    {
        "city": "Itabaiana",
        "state": "SE",
        "district": "Doutor José Milton Machado",
        "street": "Rua Plano Piloto",
        "zipcode": "49506-645"
    },
    {
        "city": "Itabaiana",
        "state": "SE",
        "district": "Doutor José Milton Machado",
        "street": "Rua Vereador Domingos Barreto",
        "zipcode": "49506-719"
    },
    {
        "city": "Itabaiana",
        "state": "SE",
        "district": "Doutor José Milton Machado",
        "street": "Rua Valdelina Teixeira de Oliveira",
        "zipcode": "49506-840"
    },
    {
        "city": "Itabaiana",
        "state": "SE",
        "district": "Oviedo Teixeira",
        "street": "Rua Sandra Moura",
        "zipcode": "49507-475"
    },
    {
        "city": "Itabaiana",
        "state": "SE",
        "district": "Doutor José Milton Machado",
        "street": "Travessa Maria D L Almeida",
        "zipcode": "49506-352"
    },
    {
        "city": "Itabaiana",
        "state": "SE",
        "district": "Doutor José Milton Machado",
        "street": "Travessa João Oliveira Santos",
        "zipcode": "49506-870"
    },
    {
        "city": "Itabaiana",
        "state": "SE",
        "district": "Rotary Club de Itabaiana",
        "street": "Travessa José Valdir Mendonça",
        "zipcode": "49506-171"
    },
    {
        "city": "Itabaiana",
        "state": "SE",
        "district": "Rotary Club de Itabaiana",
        "street": "Travessa São Luiz",
        "zipcode": "49506-204"
    },
    {
        "city": "Itabaiana",
        "state": "SE",
        "district": "Doutor José Milton Machado",
        "street": "Rua Respeita Januário",
        "zipcode": "49506-627"
    },
    {
        "city": "Itabaiana",
        "state": "SE",
        "district": "Doutor José Milton Machado",
        "street": "Rua Josefa Alves dos Santos",
        "zipcode": "49506-722"
    },
    {
        "city": "Itabaiana",
        "state": "SE",
        "district": "Doutor José Milton Machado",
        "street": "Avenida Doutor Wellington Mendes",
        "zipcode": "49506-433"
    },
    {
        "city": "Itabaiana",
        "state": "SE",
        "district": "Doutor José Milton Machado",
        "street": "Avenida Asa Branca",
        "zipcode": "49506-436"
    },
    {
        "city": "Itabaiana",
        "state": "SE",
        "district": "Doutor José Milton Machado",
        "street": "Rua Xote das Meninas",
        "zipcode": "49506-612"
    },
    {
        "city": "Itabaiana",
        "state": "SE",
        "district": "Doutor José Milton Machado",
        "street": "Rua Raimundo Jacó",
        "zipcode": "49506-615"
    },
    {
        "city": "Itabaiana",
        "state": "SE",
        "district": "Doutor José Milton Machado",
        "street": "Rua José Candido Bispo",
        "zipcode": "49506-630"
    },
    {
        "city": "Itabaiana",
        "state": "SE",
        "district": "Doutor José Milton Machado",
        "street": "Rua Hudson Matheus Almeida de Oliveira",
        "zipcode": "49506-639"
    },
    {
        "city": "Itabaiana",
        "state": "SE",
        "district": "Doutor José Milton Machado",
        "street": "Rua Genário de Oliveira",
        "zipcode": "49506-737"
    },
    {
        "city": "Itabaiana",
        "state": "SE",
        "district": "Doutor José Milton Machado",
        "street": "Rua José Braz de Oliveira",
        "zipcode": "49506-743"
    },
    {
        "city": "Itabaiana",
        "state": "SE",
        "district": "Doutor José Milton Machado",
        "street": "Rua Givaldo Teixeira de Oliveira",
        "zipcode": "49506-846"
    },
    {
        "city": "Itabaiana",
        "state": "SE",
        "district": "Doutor José Milton Machado",
        "street": "Rua José Laércio dos Santos",
        "zipcode": "49506-855"
    },
    {
        "city": "Itabaiana",
        "state": "SE",
        "district": "Doutor José Milton Machado",
        "street": "Rua João Batista Dias",
        "zipcode": "49506-864"
    },
    {
        "city": "Itabaiana",
        "state": "SE",
        "district": "Mamede Paes Mendonça",
        "street": "Rua São Domingos",
        "zipcode": "49509-018"
    },
    {
        "city": "Itabaiana",
        "state": "SE",
        "district": "Mamede Paes Mendonça",
        "street": "Travessa Marechal Deodoro da Fonseca",
        "zipcode": "49509-100"
    },
    {
        "city": "Itabaiana",
        "state": "SE",
        "district": "Mamede Paes Mendonça",
        "street": "Rua Tobias Barreto",
        "zipcode": "49509-140"
    },
    {
        "city": "Itabaiana",
        "state": "SE",
        "district": "Doutor José Milton Machado",
        "street": "Rua Manoel Pereira da Costa",
        "zipcode": "49506-861"
    },
    {
        "city": "Itabaiana",
        "state": "SE",
        "district": "Mamede Paes Mendonça",
        "street": "Rua Marechal Deodoro da Fonseca",
        "zipcode": "49509-097"
    },
    {
        "city": "Itabaiana",
        "state": "SE",
        "district": "Doutor José Milton Machado",
        "street": "Rua Fernando Barbosa de Jesus",
        "zipcode": "49506-740"
    },
    {
        "city": "Itabaiana",
        "state": "SE",
        "district": "Oviedo Teixeira",
        "street": "Rua Julia Marzola Faria",
        "zipcode": "49507-780"
    },
    {
        "city": "Itabaiana",
        "state": "SE",
        "district": "Oviedo Teixeira",
        "street": "Rua Maria Luiza Nascimento",
        "zipcode": "49507-645"
    },
    {
        "city": "Itabaiana",
        "state": "SE",
        "district": "Doutor José Milton Machado",
        "street": "Rua João Oliveira Santos",
        "zipcode": "49506-873"
    },
    {
        "city": "Itabaiana",
        "state": "SE",
        "district": "Oviedo Teixeira",
        "street": "Rua Josina Epfania de Oliveira",
        "zipcode": "49507-520"
    },
    {
        "city": "Itabaiana",
        "state": "SE",
        "district": "Oviedo Teixeira",
        "street": "Rua Abner Alves de Almeida",
        "zipcode": "49507-845"
    },
    {
        "city": "Itabaiana",
        "state": "SE",
        "district": "Oviedo Teixeira",
        "street": "Rua Francisco Teles",
        "zipcode": "49507-800"
    },
    {
        "city": "Itabaiana",
        "state": "SE",
        "district": "Oviedo Teixeira",
        "street": "Rua Enivaldo Araújo",
        "zipcode": "49507-810"
    },
    {
        "city": "Itabaiana",
        "state": "SE",
        "district": "Oviedo Teixeira",
        "street": "Rua Doutora Wedna Mendes Rodrigues",
        "zipcode": "49507-815"
    },
    {
        "city": "Itabaiana",
        "state": "SE",
        "district": "Oviedo Teixeira",
        "street": "Rua Carlito José Nascimento",
        "zipcode": "49508-125"
    },
    {
        "city": "Itabaiana",
        "state": "SE",
        "district": "Oviedo Teixeira",
        "street": "Rua Givaldo Menezes Santos",
        "zipcode": "49508-135"
    },
    {
        "city": "Itabaiana",
        "state": "SE",
        "district": "Oviedo Teixeira",
        "street": "Rua José Hênio Araújo",
        "zipcode": "49507-840"
    },
    {
        "city": "Itabaiana",
        "state": "SE",
        "district": "Oviedo Teixeira",
        "street": "Rua José Dernival dos Santos",
        "zipcode": "49508-130"
    },
    {
        "city": "Itabaiana",
        "state": "SE",
        "district": "Oviedo Teixeira",
        "street": "Rua Renato Alves Menezes",
        "zipcode": "49508-110"
    },
    {
        "city": "Itabaiana",
        "state": "SE",
        "district": "Mamede Paes Mendonça",
        "street": "Travessa José Sizino de Almeida III",
        "zipcode": "49509-024"
    },
    {
        "city": "Itabaiana",
        "state": "SE",
        "district": "Mamede Paes Mendonça",
        "street": "Travessa José Sizino de Almeida IV",
        "zipcode": "49509-027"
    },
    {
        "city": "Itabaiana",
        "state": "SE",
        "district": "Mamede Paes Mendonça",
        "street": "Travessa Zé de Pixitita",
        "zipcode": "49509-094"
    },
    {
        "city": "Itabaiana",
        "state": "SE",
        "district": "Oviedo Teixeira",
        "street": "Travessa Silvana Alves de Oliveira",
        "zipcode": "49507-670"
    },
    {
        "city": "Itabaiana",
        "state": "SE",
        "district": "Mamede Paes Mendonça",
        "street": "Travessa José Pereira",
        "zipcode": "49509-085"
    },
    {
        "city": "Itabaiana",
        "state": "SE",
        "district": "Doutor José Milton Machado",
        "street": "Travessa Josefa Anunciação Santos",
        "zipcode": "49506-361"
    },
    {
        "city": "Itabaiana",
        "state": "SE",
        "district": "Oviedo Teixeira",
        "street": "Rua Maria Claudice Corcino",
        "zipcode": "49507-785"
    },
    {
        "city": "Itabaiana",
        "state": "SE",
        "district": "Oviedo Teixeira",
        "street": "Rua A (Lot P Serra)",
        "zipcode": "49507-855"
    },
    {
        "city": "Itabaiana",
        "state": "SE",
        "district": "Oviedo Teixeira",
        "street": "Rua José Augusto dos Santos",
        "zipcode": "49507-820"
    },
    {
        "city": "Itabaiana",
        "state": "SE",
        "district": "Oviedo Teixeira",
        "street": "Rua José Antonio de Santana",
        "zipcode": "49507-830"
    },
    {
        "city": "Itabaiana",
        "state": "SE",
        "district": "Oviedo Teixeira",
        "street": "Avenida Josefa Nicielma Santana",
        "zipcode": "49508-090"
    },
    {
        "city": "Itabaiana",
        "state": "SE",
        "district": "Oviedo Teixeira",
        "street": "Rua Gilson Menezes Santos",
        "zipcode": "49508-095"
    },
    {
        "city": "Itabaiana",
        "state": "SE",
        "district": "Oviedo Teixeira",
        "street": "Rua Maria da Graça Costa",
        "zipcode": "49508-105"
    },
    {
        "city": "Itabaiana",
        "state": "SE",
        "district": "Oviedo Teixeira",
        "street": "Rua Armando Paes da Costa",
        "zipcode": "49508-115"
    },
    {
        "city": "Itabaiana",
        "state": "SE",
        "district": "Oviedo Teixeira",
        "street": "Rua Seis (D Industrial)",
        "zipcode": "49508-285"
    },
    {
        "city": "Itabaiana",
        "state": "SE",
        "district": "Oviedo Teixeira",
        "street": "Rua Iata Anderson Alves de Oliveira",
        "zipcode": "49508-290"
    },
    {
        "city": "Itabaiana",
        "state": "SE",
        "district": "Oviedo Teixeira",
        "street": "Rua Um (D Industrial)",
        "zipcode": "49508-295"
    },
    {
        "city": "Itabaiana",
        "state": "SE",
        "district": "Mamede Paes Mendonça",
        "street": "Rua Wagner Mota",
        "zipcode": "49509-003"
    },
    {
        "city": "Itabaiana",
        "state": "SE",
        "district": "Mamede Paes Mendonça",
        "street": "Rua Cristóvão de Barros",
        "zipcode": "49509-006"
    },
    {
        "city": "Itabaiana",
        "state": "SE",
        "district": "Mamede Paes Mendonça",
        "street": "Rua Joel Venceslau de Souza",
        "zipcode": "49509-012"
    },
    {
        "city": "Itabaiana",
        "state": "SE",
        "district": "Mamede Paes Mendonça",
        "street": "Rua Manoel Batista Maciel",
        "zipcode": "49509-015"
    },
    {
        "city": "Itabaiana",
        "state": "SE",
        "district": "Mamede Paes Mendonça",
        "street": "Rua José Sizino de Almeida",
        "zipcode": "49509-030"
    },
    {
        "city": "Itabaiana",
        "state": "SE",
        "district": "Mamede Paes Mendonça",
        "street": "Rua Renilton Ferreira Martins",
        "zipcode": "49509-070"
    },
    {
        "city": "Itabaiana",
        "state": "SE",
        "district": "Mamede Paes Mendonça",
        "street": "Rua Gabriel Hilário Sobrinho",
        "zipcode": "49509-076"
    },
    {
        "city": "Itabaiana",
        "state": "SE",
        "district": "Mamede Paes Mendonça",
        "street": "Rua Maria Valdete A Santos",
        "zipcode": "49509-079"
    },
    {
        "city": "Itabaiana",
        "state": "SE",
        "district": "Mamede Paes Mendonça",
        "street": "Rua Aluízio Almeida Silva",
        "zipcode": "49509-091"
    },
    {
        "city": "Itabaiana",
        "state": "SE",
        "district": "Mamede Paes Mendonça",
        "street": "Rua Euclides Paes Mendonça",
        "zipcode": "49509-173"
    },
    {
        "city": "Itabaiana",
        "state": "SE",
        "district": "Mamede Paes Mendonça",
        "street": "Rua Professor Lima Junior",
        "zipcode": "49509-179"
    },
    {
        "city": "Itabaiana",
        "state": "SE",
        "district": "Mamede Paes Mendonça",
        "street": "Rua Francolino Alves dos Santos",
        "zipcode": "49509-185"
    },
    {
        "city": "Itabaiana",
        "state": "SE",
        "district": "Mamede Paes Mendonça",
        "street": "Rua Esperidião Noronha",
        "zipcode": "49509-158"
    },
    {
        "city": "Itabaiana",
        "state": "SE",
        "district": "Mamede Paes Mendonça",
        "street": "Travessa Antonio Tavares da Costa",
        "zipcode": "49509-161"
    },
    {
        "city": "Itabaiana",
        "state": "SE",
        "district": "Porto",
        "street": "Rua Djenal Rocha",
        "zipcode": "49509-600"
    },
    {
        "city": "Itabaiana",
        "state": "SE",
        "district": "Porto",
        "street": "Rua Constantino Alves do Amorim",
        "zipcode": "49509-895"
    },
    {
        "city": "Itabaiana",
        "state": "SE",
        "district": "Porto",
        "street": "Rua Professor Lima Junior",
        "zipcode": "49509-610"
    },
    {
        "city": "Itabaiana",
        "state": "SE",
        "district": "Porto",
        "street": "Rua Paulo dos Santos",
        "zipcode": "49509-740"
    },
    {
        "city": "Itabaiana",
        "state": "SE",
        "district": "Porto",
        "street": "Rua Manoel Avelino de Souza",
        "zipcode": "49509-760"
    },
    {
        "city": "Itabaiana",
        "state": "SE",
        "district": "Porto",
        "street": "Rua Rodolfo Andrade",
        "zipcode": "49509-765"
    },
    {
        "city": "Itabaiana",
        "state": "SE",
        "district": "Porto",
        "street": "Avenida Capitulino Alves dos Santos",
        "zipcode": "49509-870"
    },
    {
        "city": "Itabaiana",
        "state": "SE",
        "district": "Porto",
        "street": "Avenida Eduardo Paixão Rocha",
        "zipcode": "49510-190"
    },
    {
        "city": "Itabaiana",
        "state": "SE",
        "district": "Mamede Paes Mendonça",
        "street": "Rua Ana Souza de Jesus",
        "zipcode": "49509-152"
    },
    {
        "city": "Itabaiana",
        "state": "SE",
        "district": "Porto",
        "street": "Rua Clotildes Silveira",
        "zipcode": "49509-790"
    },
    {
        "city": "Itabaiana",
        "state": "SE",
        "district": "Mamede Paes Mendonça",
        "street": "Travessa São Domingos",
        "zipcode": "49509-200"
    },
    {
        "city": "Itabaiana",
        "state": "SE",
        "district": "Porto",
        "street": "Travessa São Pedro",
        "zipcode": "49510-110"
    },
    {
        "city": "Itabaiana",
        "state": "SE",
        "district": "Porto",
        "street": "Travessa Santa Luzia",
        "zipcode": "49510-125"
    },
    {
        "city": "Itabaiana",
        "state": "SE",
        "district": "Mamede Paes Mendonça",
        "street": "Travessa Xisto Alves dos Santos",
        "zipcode": "49509-149"
    },
    {
        "city": "Itabaiana",
        "state": "SE",
        "district": "Mamede Paes Mendonça",
        "street": "Rua Percílio Andrade",
        "zipcode": "49509-188"
    },
    {
        "city": "Itabaiana",
        "state": "SE",
        "district": "Mamede Paes Mendonça",
        "street": "Travessa Marina Meireles Teles",
        "zipcode": "49509-194"
    },
    {
        "city": "Itabaiana",
        "state": "SE",
        "district": "Mamede Paes Mendonça",
        "street": "Rua São Domingos",
        "zipcode": "49509-197"
    },
    {
        "city": "Itabaiana",
        "state": "SE",
        "district": "Mamede Paes Mendonça",
        "street": "Rua Aristela Santos Lima Oliveira",
        "zipcode": "49509-206"
    },
    {
        "city": "Itabaiana",
        "state": "SE",
        "district": "Mamede Paes Mendonça",
        "street": "Avenida Emília Vigencia dos Santos",
        "zipcode": "49509-209"
    },
    {
        "city": "Itabaiana",
        "state": "SE",
        "district": "Mamede Paes Mendonça",
        "street": "Rua Judite Dantas de Andrade",
        "zipcode": "49509-215"
    },
    {
        "city": "Itabaiana",
        "state": "SE",
        "district": "Mamede Paes Mendonça",
        "street": "Rua Josias da Silva Nunes",
        "zipcode": "49509-218"
    },
    {
        "city": "Itabaiana",
        "state": "SE",
        "district": "Mamede Paes Mendonça",
        "street": "Rua João Nunes de Rezende",
        "zipcode": "49509-260"
    },
    {
        "city": "Itabaiana",
        "state": "SE",
        "district": "Mamede Paes Mendonça",
        "street": "Rua Maria Luiza Mendonça",
        "zipcode": "49509-263"
    },
    {
        "city": "Itabaiana",
        "state": "SE",
        "district": "Mamede Paes Mendonça",
        "street": "Rua João Nunes de Rezende",
        "zipcode": "49509-269"
    },
    {
        "city": "Itabaiana",
        "state": "SE",
        "district": "Mamede Paes Mendonça",
        "street": "Rua Cícero José de Souza",
        "zipcode": "49509-272"
    },
    {
        "city": "Itabaiana",
        "state": "SE",
        "district": "Porto",
        "street": "Rua Euclides Paes Mendonça",
        "zipcode": "49509-590"
    },
    {
        "city": "Itabaiana",
        "state": "SE",
        "district": "Porto",
        "street": "Rua José Bispo de Góis",
        "zipcode": "49509-605"
    },
    {
        "city": "Itabaiana",
        "state": "SE",
        "district": "Porto",
        "street": "Rua João Nunes de Rezende",
        "zipcode": "49509-616"
    },
    {
        "city": "Itabaiana",
        "state": "SE",
        "district": "Porto",
        "street": "Rua Ezídia Alves de Carvalho",
        "zipcode": "49509-745"
    },
    {
        "city": "Itabaiana",
        "state": "SE",
        "district": "Porto",
        "street": "Rua Edith Maria da Costa",
        "zipcode": "49509-755"
    },
    {
        "city": "Itabaiana",
        "state": "SE",
        "district": "Porto",
        "street": "Rua José Araújo Ferreira Junior",
        "zipcode": "49509-795"
    },
    {
        "city": "Itabaiana",
        "state": "SE",
        "district": "Porto",
        "street": "Rua Maria Linda de Andrade",
        "zipcode": "49509-800"
    },
    {
        "city": "Itabaiana",
        "state": "SE",
        "district": "Porto",
        "street": "Avenida Felisbelo Machado Menezes",
        "zipcode": "49509-815"
    },
    {
        "city": "Itabaiana",
        "state": "SE",
        "district": "Porto",
        "street": "Rua Jailton de Melo Rezende",
        "zipcode": "49509-880"
    },
    {
        "city": "Itabaiana",
        "state": "SE",
        "district": "Porto",
        "street": "Rua Antonio Alves do Amorim",
        "zipcode": "49509-890"
    },
    {
        "city": "Itabaiana",
        "state": "SE",
        "district": "Porto",
        "street": "Rua São Domingos",
        "zipcode": "49510-000"
    },
    {
        "city": "Itabaiana",
        "state": "SE",
        "district": "Porto",
        "street": "Travessa Antonio Alves dos Santos",
        "zipcode": "49510-120"
    },
    {
        "city": "Itabaiana",
        "state": "SE",
        "district": "Porto",
        "street": "Rua Conceição Ana",
        "zipcode": "49510-140"
    },
    {
        "city": "Itabaiana",
        "state": "SE",
        "district": "Porto",
        "street": "Rua Maria Laura de Carvalho",
        "zipcode": "49510-160"
    },
    {
        "city": "Itabaiana",
        "state": "SE",
        "district": "Porto",
        "street": "Rua Vereador Manoel Clemente da Rocha",
        "zipcode": "49510-165"
    },
    {
        "city": "Itabaiana",
        "state": "SE",
        "district": "Porto",
        "street": "Rua Pedro Nunes de Carvalho",
        "zipcode": "49510-180"
    },
    {
        "city": "Itabaiana",
        "state": "SE",
        "district": "Porto",
        "street": "Rua Josefa Santos Santana",
        "zipcode": "49510-185"
    },
    {
        "city": "Itabaiana",
        "state": "SE",
        "district": "Riacho Doce",
        "street": "Rua José Meireles Teles II",
        "zipcode": "49510-585"
    },
    {
        "city": "Itabaiana",
        "state": "SE",
        "district": "Queimadas",
        "street": "Avenida Pedro Teles Barbosa",
        "zipcode": "49511-000"
    },
    {
        "city": "Itabaiana",
        "state": "SE",
        "district": "Queimadas",
        "street": "Avenida Arivaldo Alves Correia",
        "zipcode": "49511-130"
    },
    {
        "city": "Itabaiana",
        "state": "SE",
        "district": "Queimadas",
        "street": "Rua Domingos Francisco de Lima",
        "zipcode": "49511-230"
    },
    {
        "city": "Itabaiana",
        "state": "SE",
        "district": "Queimadas",
        "street": "Rua Alvino Tavares de Jesus",
        "zipcode": "49511-240"
    },
    {
        "city": "Itabaiana",
        "state": "SE",
        "district": "Queimadas",
        "street": "Rua Aurora Rosa de Góis",
        "zipcode": "49511-255"
    },
    {
        "city": "Itabaiana",
        "state": "SE",
        "district": "Riacho Doce",
        "street": "Rua José Meireles Teles I",
        "zipcode": "49510-580"
    },
    {
        "city": "Itabaiana",
        "state": "SE",
        "district": "Queimadas",
        "street": "Rua José Pereira Rosa",
        "zipcode": "49511-110"
    },
    {
        "city": "Itabaiana",
        "state": "SE",
        "district": "Porto",
        "street": "Rua Mariovan Santos Brito",
        "zipcode": "49509-875"
    },
    {
        "city": "Itabaiana",
        "state": "SE",
        "district": "Porto",
        "street": "Rua José Leilson dos Santos",
        "zipcode": "49510-005"
    },
    {
        "city": "Itabaiana",
        "state": "SE",
        "district": "Riacho Doce",
        "street": "Rua José Fernando Peixoto",
        "zipcode": "49510-355"
    },
    {
        "city": "Itabaiana",
        "state": "SE",
        "district": "Queimadas",
        "street": "Rua Manoel Félix de Moura",
        "zipcode": "49511-235"
    },
    {
        "city": "Itabaiana",
        "state": "SE",
        "district": "Queimadas",
        "street": "Travessa Maurina Josina dos Santos",
        "zipcode": "49511-135"
    },
    {
        "city": "Itabaiana",
        "state": "SE",
        "district": "Riacho Doce",
        "street": "Travessa Tanque Vermelho",
        "zipcode": "49510-360"
    },
    {
        "city": "Itabaiana",
        "state": "SE",
        "district": "Marianga",
        "street": "Avenida José Aélio de Oliveira",
        "zipcode": "49504-402"
    },
    {
        "city": "Itabaiana",
        "state": "SE",
        "district": "Rotary Club de Itabaiana",
        "street": "Avenida Pedro Teles Barbosa",
        "zipcode": "49506-054"
    },
    {
        "city": "Itabaiana",
        "state": "SE",
        "district": "Porto",
        "street": "Rua Amanda Santos Rezende",
        "zipcode": "49509-626"
    },
    {
        "city": "Itabaiana",
        "state": "SE",
        "district": "Porto",
        "street": "Rua Cristiano Teles de Andrade",
        "zipcode": "49509-632"
    },
    {
        "city": "Itabaiana",
        "state": "SE",
        "district": "Porto",
        "street": "Rua Pedro Alex Santos de Jesus",
        "zipcode": "49509-635"
    },
    {
        "city": "Itabaiana",
        "state": "SE",
        "district": "Riacho Doce",
        "street": "Rua José Meireles Teles IV",
        "zipcode": "49510-595"
    },
    {
        "city": "Itabaiana",
        "state": "SE",
        "district": "Queimadas",
        "street": "Rua Nicolau Tolentino de Lima",
        "zipcode": "49511-120"
    },
    {
        "city": "Itabaiana",
        "state": "SE",
        "district": "Queimadas",
        "street": "Rua José dos Santos",
        "zipcode": "49511-245"
    },
    {
        "city": "Itabaiana",
        "state": "SE",
        "district": "Queimadas",
        "street": "Rua João Francisco de Souza",
        "zipcode": "49511-260"
    },
    {
        "city": "Itabaiana",
        "state": "SE",
        "district": "Queimadas",
        "street": "Rua José Alves dos Santos",
        "zipcode": "49511-370"
    },
    {
        "city": "Itabaiana",
        "state": "SE",
        "district": "Queimadas",
        "street": "Rua Olivio Pinto de Souza",
        "zipcode": "49511-385"
    },
    {
        "city": "Itabaiana",
        "state": "SE",
        "district": "Queimadas",
        "street": "Rua José Vicente Monteiro",
        "zipcode": "49511-500"
    },
    {
        "city": "Itabaiana",
        "state": "SE",
        "district": "Queimadas",
        "street": "Rua Faixa",
        "zipcode": "49511-515"
    },
    {
        "city": "Itabaiana",
        "state": "SE",
        "district": "Queimadas",
        "street": "Rua Antonio José Messias",
        "zipcode": "49511-530"
    },
    {
        "city": "Itabaiana",
        "state": "SE",
        "district": "Queimadas",
        "street": "Rua Josias de Souza",
        "zipcode": "49511-595"
    },
    {
        "city": "Itabaiana",
        "state": "SE",
        "district": "Área Rural de Itabaiana",
        "street": "Área Rural",
        "zipcode": "49511-899"
    },
    {
        "city": "Itabaiana",
        "state": "SE",
        "district": "Queimadas",
        "street": "Rua Pedro Tavares de Jesus",
        "zipcode": "49511-525"
    },
    {
        "city": "Itabaiana",
        "state": "SE",
        "district": "Queimadas",
        "street": "Rua João Basilio Cunha",
        "zipcode": "49511-600"
    },
    {
        "city": "Itabaiana",
        "state": "SE",
        "district": "Queimadas",
        "street": "Rua Maria Pureza de Jesus",
        "zipcode": "49511-620"
    },
    {
        "city": "Itabaiana",
        "state": "SE",
        "district": "Queimadas",
        "street": "Rua Candeia Grande",
        "zipcode": "49511-625"
    },
    {
        "city": "Itabaiana",
        "state": "SE",
        "district": "Queimadas",
        "street": "Rua Antonio Alves dos Santos",
        "zipcode": "49511-740"
    },
    {
        "city": "Itabaiana",
        "state": "SE",
        "district": "Queimadas",
        "street": "Rua Candida Mamede",
        "zipcode": "49511-605"
    },
    {
        "city": "Itabaiana",
        "state": "SE",
        "district": "Centro",
        "street": "Rua Grumete Alcides Cavalcante",
        "zipcode": "49500-069"
    },
    {
        "city": "Itabaiana",
        "state": "SE",
        "district": "Marianga",
        "street": "Rua José Francisco de Morais",
        "zipcode": "49504-114"
    },
    {
        "city": "Itabaiana",
        "state": "SE",
        "district": "Marianga",
        "street": "Rua Maria do Carmo Tavares",
        "zipcode": "49504-250"
    },
    {
        "city": "Itabaiana",
        "state": "SE",
        "district": "São Cristóvão",
        "street": "Rua Projetada B (Lot Riviera)",
        "zipcode": "49500-469"
    },
    {
        "city": "Itabaiana",
        "state": "SE",
        "district": "São Cristóvão",
        "street": "Rua Normando Tavares de Jesus",
        "zipcode": "49500-472"
    },
    {
        "city": "Itabaiana",
        "state": "SE",
        "district": "Marianga",
        "street": "Travessa Genisson Tavares de Jesus",
        "zipcode": "49504-244"
    },
    {
        "city": "Itabaiana",
        "state": "SE",
        "district": "São Cristóvão",
        "street": "Rua Firmino José de Oliveira",
        "zipcode": "49500-475"
    },
    {
        "city": "Itabaiana",
        "state": "SE",
        "district": "Queimadas",
        "street": "Avenida Pedro de Romão",
        "zipcode": "49511-730"
    },
    {
        "city": "Itabaiana",
        "state": "SE",
        "district": "Marianga",
        "street": "Rua José Tavares de Jesus",
        "zipcode": "49504-253"
    },
    {
        "city": "Itabaiana",
        "state": "SE",
        "district": "Centro",
        "street": "Rua Doutor Augusto Cesar Leite",
        "zipcode": "49500-016"
    },
    {
        "city": "Itabaiana",
        "state": "SE",
        "district": "Centro",
        "street": "Rua Vinte e Oito de Agosto",
        "zipcode": "49500-028"
    },
    {
        "city": "Itabaiana",
        "state": "SE",
        "district": "Centro",
        "street": "Avenida Doutor Luiz Magalhães",
        "zipcode": "49500-037"
    },
    {
        "city": "Itabaiana",
        "state": "SE",
        "district": "Centro",
        "street": "Rua José Alves de Lima",
        "zipcode": "49500-061"
    },
    {
        "city": "Itabaiana",
        "state": "SE",
        "district": "Centro",
        "street": "Rua Deputado Antonio Oliveira Mendonça",
        "zipcode": "49500-121"
    },
    {
        "city": "Itabaiana",
        "state": "SE",
        "district": "Centro",
        "street": "Rua Comendador Francisco José da Cunha",
        "zipcode": "49500-133"
    },
    {
        "city": "Itabaiana",
        "state": "SE",
        "district": "Centro",
        "street": "Rua Professor Lima Junior",
        "zipcode": "49500-148"
    },
    {
        "city": "Itabaiana",
        "state": "SE",
        "district": "Centro",
        "street": "Avenida Ivo de Carvalho",
        "zipcode": "49500-001"
    },
    {
        "city": "Itabaiana",
        "state": "SE",
        "district": "Centro",
        "street": "Largo Joaquim da Fonseca",
        "zipcode": "49500-175"
    },
    {
        "city": "Itabaiana",
        "state": "SE",
        "district": "Centro",
        "street": "Calçadão Prefeito Luciano Bispo de Lima",
        "zipcode": "49500-211"
    },
    {
        "city": "Itabaiana",
        "state": "SE",
        "district": "São Cristóvão",
        "street": "Rua Antonio Diniz Santana",
        "zipcode": "49500-341"
    },
    {
        "city": "Itabaiana",
        "state": "SE",
        "district": "São Cristóvão",
        "street": "Avenida Maurício Andrade",
        "zipcode": "49500-478"
    },
    {
        "city": "Itabaiana",
        "state": "SE",
        "district": "São Cristóvão",
        "street": "Rua B (CJ Dr J L Conceição)",
        "zipcode": "49500-564"
    },
    {
        "city": "Itabaiana",
        "state": "SE",
        "district": "São Cristóvão",
        "street": "Rua Álvaro Andrade",
        "zipcode": "49500-567"
    },
    {
        "city": "Itabaiana",
        "state": "SE",
        "district": "São Cristóvão",
        "street": "Rua A (Cj M C Alves)",
        "zipcode": "49500-600"
    },
    {
        "city": "Itabaiana",
        "state": "SE",
        "district": "São Cristóvão",
        "street": "Rua Adalberto Silva",
        "zipcode": "49500-621"
    },
    {
        "city": "Itabaiana",
        "state": "SE",
        "district": "Centro",
        "street": "Rua Capitão Manoel Joaquim Mendes",
        "zipcode": "49500-190"
    },
    {
        "city": "Itabaiana",
        "state": "SE",
        "district": "Centro",
        "street": "Rua Capitão José Ferreira Neto",
        "zipcode": "49500-235"
    },
    {
        "city": "Itabaiana",
        "state": "SE",
        "district": "São Cristóvão",
        "street": "Rua Gumercindo de Oliveira",
        "zipcode": "49500-320"
    },
    {
        "city": "Itabaiana",
        "state": "SE",
        "district": "São Cristóvão",
        "street": "Rua João dos Santos",
        "zipcode": "49500-555"
    },
    {
        "city": "Itabaiana",
        "state": "SE",
        "district": "São Cristóvão",
        "street": "Rua das Palmeiras",
        "zipcode": "49501-112"
    },
    {
        "city": "Itabaiana",
        "state": "SE",
        "district": "São Cristóvão",
        "street": "Rua Dayse da Silva Menezes",
        "zipcode": "49501-142"
    },
    {
        "city": "Itabaiana",
        "state": "SE",
        "district": "Centro",
        "street": "Rua Maria Glória de Santana",
        "zipcode": "49500-160"
    },
    {
        "city": "Itabaiana",
        "state": "SE",
        "district": "Centro",
        "street": "Rua Josefa Gomes de Santana",
        "zipcode": "49500-163"
    },
    {
        "city": "Itabaiana",
        "state": "SE",
        "district": "São Cristóvão",
        "street": "Rua Josefa Vieira dos Santos",
        "zipcode": "49500-347"
    },
    {
        "city": "Itabaiana",
        "state": "SE",
        "district": "São Cristóvão",
        "street": "Rua Maria Helena de Oliveira Peixoto",
        "zipcode": "49500-439"
    },
    {
        "city": "Itabaiana",
        "state": "SE",
        "district": "São Cristóvão",
        "street": "Rua José Hora de Oliveira",
        "zipcode": "49500-882"
    },
    {
        "city": "Itabaiana",
        "state": "SE",
        "district": "São Cristóvão",
        "street": "Rua Josefa Maria dos Santos",
        "zipcode": "49501-106"
    },
    {
        "city": "Itabaiana",
        "state": "SE",
        "district": "Centro",
        "street": "Rua Percílio Andrade",
        "zipcode": "49500-169"
    },
    {
        "city": "Itabaiana",
        "state": "SE",
        "district": "Centro",
        "street": "Rua Monsenhor Constantino",
        "zipcode": "49500-265"
    },
    {
        "city": "Itabaiana",
        "state": "SE",
        "district": "Centro",
        "street": "Travessa Antonio Tenório de Almeida",
        "zipcode": "49500-292"
    },
    {
        "city": "Itabaiana",
        "state": "SE",
        "district": "São Cristóvão",
        "street": "Travessa Claudionor Araújo Carvalho",
        "zipcode": "49500-412"
    },
    {
        "city": "Itabaiana",
        "state": "SE",
        "district": "São Cristóvão",
        "street": "Rua Tarcísio Alves dos Santos",
        "zipcode": "49500-451"
    },
    {
        "city": "Itabaiana",
        "state": "SE",
        "district": "São Cristóvão",
        "street": "Rua Vereador Vilobaldo José de Oliveira",
        "zipcode": "49500-609"
    },
    {
        "city": "Itabaiana",
        "state": "SE",
        "district": "São Cristóvão",
        "street": "Travessa Adalberto Silva",
        "zipcode": "49500-624"
    },
    {
        "city": "Itabaiana",
        "state": "SE",
        "district": "São Cristóvão",
        "street": "Rua P (Cj M P Mendonça)",
        "zipcode": "49500-642"
    },
    {
        "city": "Itabaiana",
        "state": "SE",
        "district": "São Cristóvão",
        "street": "Rua Um (M Formosa)",
        "zipcode": "49501-133"
    },
    {
        "city": "Itabaiana",
        "state": "SE",
        "district": "Centro",
        "street": "Travessa Manoel Vieira",
        "zipcode": "49500-202"
    },
    {
        "city": "Itabaiana",
        "state": "SE",
        "district": "Centro",
        "street": "Travessa Paulino Menezes",
        "zipcode": "49500-226"
    },
    {
        "city": "Itabaiana",
        "state": "SE",
        "district": "São Cristóvão",
        "street": "Travessa Humberto Dias do Sacramento",
        "zipcode": "49500-332"
    },
    {
        "city": "Itabaiana",
        "state": "SE",
        "district": "Centro",
        "street": "Rua Manoel Domingos Pereira",
        "zipcode": "49500-010"
    },
    {
        "city": "Itabaiana",
        "state": "SE",
        "district": "São Cristóvão",
        "street": "Travessa Risoneide do Sacramento",
        "zipcode": "49500-582"
    },
    {
        "city": "Itabaiana",
        "state": "SE",
        "district": "São Cristóvão",
        "street": "Rua B (Cj F T Mendonça)",
        "zipcode": "49500-663"
    },
    {
        "city": "Itabaiana",
        "state": "SE",
        "district": "São Cristóvão",
        "street": "Rua Maria Maurícia Machado",
        "zipcode": "49500-675"
    },
    {
        "city": "Itabaiana",
        "state": "SE",
        "district": "Centro",
        "street": "Avenida Ivo de Carvalho",
        "zipcode": "49500-064"
    },
    {
        "city": "Itabaiana",
        "state": "SE",
        "district": "Centro",
        "street": "Rua Professor Hilário de Melo Rezende",
        "zipcode": "49500-088"
    },
    {
        "city": "Itabaiana",
        "state": "SE",
        "district": "Centro",
        "street": "Avenida Manoel Francisco Teles",
        "zipcode": "49500-100"
    },
    {
        "city": "Itabaiana",
        "state": "SE",
        "district": "Centro",
        "street": "Avenida João Teixeira",
        "zipcode": "49500-106"
    },
    {
        "city": "Itabaiana",
        "state": "SE",
        "district": "Centro",
        "street": "Avenida Otoniel Dórea",
        "zipcode": "49500-139"
    },
    {
        "city": "Itabaiana",
        "state": "SE",
        "district": "Serrano",
        "street": "Rua Promotor Antonio Agustinho",
        "zipcode": "49503-009"
    },
    {
        "city": "Itabaiana",
        "state": "SE",
        "district": "Serrano",
        "street": "Rua Itaporanga",
        "zipcode": "49503-018"
    },
    {
        "city": "Itabaiana",
        "state": "SE",
        "district": "Serrano",
        "street": "Rua Quintino Bocaiúva",
        "zipcode": "49503-024"
    },
    {
        "city": "Itabaiana",
        "state": "SE",
        "district": "Serrano",
        "street": "Rua Santa Cruz",
        "zipcode": "49503-075"
    },
    {
        "city": "Itabaiana",
        "state": "SE",
        "district": "Serrano",
        "street": "Avenida Manoel Francisco Teles",
        "zipcode": "49503-078"
    },
    {
        "city": "Itabaiana",
        "state": "SE",
        "district": "Serrano",
        "street": "Rua Antonio Germano Oliveira",
        "zipcode": "49503-093"
    },
    {
        "city": "Itabaiana",
        "state": "SE",
        "district": "Serrano",
        "street": "Travessa Morada Nobre",
        "zipcode": "49503-021"
    },
    {
        "city": "Itabaiana",
        "state": "SE",
        "district": "Centro",
        "street": "Rua Boanerges de Almeida Pinheiro",
        "zipcode": "49500-238"
    },
    {
        "city": "Itabaiana",
        "state": "SE",
        "district": "São Cristóvão",
        "street": "Rua João Alves de Souza",
        "zipcode": "49500-579"
    },
    {
        "city": "Itabaiana",
        "state": "SE",
        "district": "São Cristóvão",
        "street": "Rua H (Cj F T Mendonça)",
        "zipcode": "49500-654"
    },
    {
        "city": "Itabaiana",
        "state": "SE",
        "district": "São Cristóvão",
        "street": "Rua Hipólito José de Oliveira",
        "zipcode": "49500-681"
    },
    {
        "city": "Itabaiana",
        "state": "SE",
        "district": "São Cristóvão",
        "street": "Rua F (Cj M J E Santo)",
        "zipcode": "49500-699"
    },
    {
        "city": "Itabaiana",
        "state": "SE",
        "district": "São Cristóvão",
        "street": "Rua D (Cj M J E Santo)",
        "zipcode": "49500-708"
    },
    {
        "city": "Itabaiana",
        "state": "SE",
        "district": "São Cristóvão",
        "street": "Rua José Abraão",
        "zipcode": "49501-139"
    },
    {
        "city": "Itabaiana",
        "state": "SE",
        "district": "Marcela",
        "street": "Rua Cícero José de Marcela",
        "zipcode": "49501-830"
    },
    {
        "city": "Itabaiana",
        "state": "SE",
        "district": "São Cristóvão",
        "street": "Rua Manoel Alves Ferreira",
        "zipcode": "49500-406"
    },
    {
        "city": "Itabaiana",
        "state": "SE",
        "district": "Bananeiras",
        "street": "Rua José Antonio de Jesus",
        "zipcode": "49501-605"
    },
    {
        "city": "Itabaiana",
        "state": "SE",
        "district": "Marcela",
        "street": "Rua Manoel Francisco Cunha",
        "zipcode": "49502-034"
    },
    {
        "city": "Itabaiana",
        "state": "SE",
        "district": "Centro",
        "street": "Travessa Artur Barbosa",
        "zipcode": "49500-178"
    },
    {
        "city": "Itabaiana",
        "state": "SE",
        "district": "Centro",
        "street": "Rua Miguel Teixeira",
        "zipcode": "49500-286"
    },
    {
        "city": "Itabaiana",
        "state": "SE",
        "district": "São Cristóvão",
        "street": "Rua Maria Oliveira dos Santos",
        "zipcode": "49500-466"
    },
    {
        "city": "Itabaiana",
        "state": "SE",
        "district": "São Cristóvão",
        "street": "Rua U (Cj M J E Santo)",
        "zipcode": "49500-693"
    },
    {
        "city": "Itabaiana",
        "state": "SE",
        "district": "Bananeiras",
        "street": "Rua Percílio Andrade",
        "zipcode": "49501-360"
    },
    {
        "city": "Itabaiana",
        "state": "SE",
        "district": "Centro",
        "street": "Rua Coronel Sebrão",
        "zipcode": "49500-268"
    },
    {
        "city": "Itabaiana",
        "state": "SE",
        "district": "São Cristóvão",
        "street": "Rua Aprígio Fereira Passos",
        "zipcode": "49501-109"
    },
    {
        "city": "Itabaiana",
        "state": "SE",
        "district": "Bananeiras",
        "street": "Rua José Adalberto de Menezes",
        "zipcode": "49501-550"
    },
    {
        "city": "Itabaiana",
        "state": "SE",
        "district": "Bananeiras",
        "street": "Rua Manoel Melquiades Silva",
        "zipcode": "49501-630"
    },
    {
        "city": "Itabaiana",
        "state": "SE",
        "district": "Serrano",
        "street": "Avenida Doutor Pedro Garcia Moreno",
        "zipcode": "49503-108"
    },
    {
        "city": "Itabaiana",
        "state": "SE",
        "district": "Serrano",
        "street": "Rua José Ferreira de Melo",
        "zipcode": "49503-144"
    },
    {
        "city": "Itabaiana",
        "state": "SE",
        "district": "Marcela",
        "street": "Rua Felinto Tavares de Jesus",
        "zipcode": "49501-869"
    },
    {
        "city": "Itabaiana",
        "state": "SE",
        "district": "Marcela",
        "street": "Rua Brasiliana Francisca de Araújo",
        "zipcode": "49502-243"
    },
    {
        "city": "Itabaiana",
        "state": "SE",
        "district": "Marcela",
        "street": "Rua Maria Alaíde de Jesus Cunha",
        "zipcode": "49502-031"
    },
    {
        "city": "Itabaiana",
        "state": "SE",
        "district": "Marcela",
        "street": "Avenida Jhon Leno Cunha Mota",
        "zipcode": "49502-004"
    },
    {
        "city": "Itabaiana",
        "state": "SE",
        "district": "Anízio Amancio de Oliveira",
        "street": "Avenida Nivalda Lima Figueiredo",
        "zipcode": "49503-396"
    },
    {
        "city": "Itabaiana",
        "state": "SE",
        "district": "Anízio Amancio de Oliveira",
        "street": "Rua Álvaro Fonseca de Oliveira",
        "zipcode": "49503-414"
    },
    {
        "city": "Itabaiana",
        "state": "SE",
        "district": "Anízio Amancio de Oliveira",
        "street": "Avenida Rinaldo Mota Santos",
        "zipcode": "49503-607"
    },
    {
        "city": "Itabaiana",
        "state": "SE",
        "district": "Anízio Amancio de Oliveira",
        "street": "Rua Antônio da Mota Costa",
        "zipcode": "49503-629"
    },
    {
        "city": "Itabaiana",
        "state": "SE",
        "district": "Anízio Amancio de Oliveira",
        "street": "Avenida Papa João Paulo II",
        "zipcode": "49503-662"
    },
    {
        "city": "Itabaiana",
        "state": "SE",
        "district": "Marianga",
        "street": "Avenida Doutor Luiz Magalhães",
        "zipcode": "49504-066"
    },
    {
        "city": "Itabaiana",
        "state": "SE",
        "district": "Marianga",
        "street": "Avenida Doutor Luiz Magalhães",
        "zipcode": "49504-102"
    },
    {
        "city": "Itabaiana",
        "state": "SE",
        "district": "São Cristóvão",
        "street": "Praça Juviniano dos Santos",
        "zipcode": "49500-463"
    },
    {
        "city": "Itabaiana",
        "state": "SE",
        "district": "Anízio Amancio de Oliveira",
        "street": "Rua Construtor Antônio Costa Lima",
        "zipcode": "49503-537"
    },
    {
        "city": "Itabaiana",
        "state": "SE",
        "district": "Anízio Amancio de Oliveira",
        "street": "Rua Eliana Rosa Lima",
        "zipcode": "49503-589"
    },
    {
        "city": "Itabaiana",
        "state": "SE",
        "district": "Marianga",
        "street": "Rua Construtor Antonio Ferreira Santana",
        "zipcode": "49504-078"
    },
    {
        "city": "Itabaiana",
        "state": "SE",
        "district": "São Cristóvão",
        "street": "Rua Francisco Teles Andrade",
        "zipcode": "49500-424"
    },
    {
        "city": "Itabaiana",
        "state": "SE",
        "district": "São Cristóvão",
        "street": "Rua Euclides Fiel dos Santos",
        "zipcode": "49500-460"
    },
    {
        "city": "Itabaiana",
        "state": "SE",
        "district": "São Cristóvão",
        "street": "Rua João Belizário de Andrade",
        "zipcode": "49500-481"
    },
    {
        "city": "Itabaiana",
        "state": "SE",
        "district": "São Cristóvão",
        "street": "Rua C (Cj M C Alves)",
        "zipcode": "49500-606"
    },
    {
        "city": "Itabaiana",
        "state": "SE",
        "district": "Anízio Amancio de Oliveira",
        "street": "Rua Maria Francisca Monteiro",
        "zipcode": "49503-321"
    },
    {
        "city": "Itabaiana",
        "state": "SE",
        "district": "Anízio Amancio de Oliveira",
        "street": "Rua Josefa Carvalho",
        "zipcode": "49503-387"
    },
    {
        "city": "Itabaiana",
        "state": "SE",
        "district": "Anízio Amancio de Oliveira",
        "street": "Rua Josefa Vieira dos Santos",
        "zipcode": "49503-480"
    },
    {
        "city": "Itabaiana",
        "state": "SE",
        "district": "Anízio Amancio de Oliveira",
        "street": "Rua Luiz Gonzaga de Carvalho",
        "zipcode": "49503-501"
    },
    {
        "city": "Itabaiana",
        "state": "SE",
        "district": "Anízio Amancio de Oliveira",
        "street": "Rua Maria Josefina Menezes",
        "zipcode": "49503-601"
    },
    {
        "city": "Itabaiana",
        "state": "SE",
        "district": "Anízio Amancio de Oliveira",
        "street": "Rua Manoel das Neves Barreto",
        "zipcode": "49503-699"
    },
    {
        "city": "Itabaiana",
        "state": "SE",
        "district": "Marianga",
        "street": "Rua Josefa Vieira dos Santos",
        "zipcode": "49504-009"
    },
    {
        "city": "Itabaiana",
        "state": "SE",
        "district": "Marianga",
        "street": "Rua Juca Monteiro",
        "zipcode": "49504-060"
    },
    {
        "city": "Itabaiana",
        "state": "SE",
        "district": "Anízio Amancio de Oliveira",
        "street": "Rua Noel Tavares de Jesus",
        "zipcode": "49503-324"
    },
    {
        "city": "Itabaiana",
        "state": "SE",
        "district": "Anízio Amancio de Oliveira",
        "street": "Rua Maria Rosa de Oliveira",
        "zipcode": "49503-525"
    },
    {
        "city": "Itabaiana",
        "state": "SE",
        "district": "Anízio Amancio de Oliveira",
        "street": "Rua Olavio Eduardo Barbosa",
        "zipcode": "49503-574"
    },
    {
        "city": "Itabaiana",
        "state": "SE",
        "district": "Anízio Amancio de Oliveira",
        "street": "Rua Pedreiro Paulo Batista de Menezes",
        "zipcode": "49503-613"
    },
    {
        "city": "Itabaiana",
        "state": "SE",
        "district": "Anízio Amancio de Oliveira",
        "street": "Travessa Judite Góis de Pliveira",
        "zipcode": "49503-583"
    },
    {
        "city": "Itabaiana",
        "state": "SE",
        "district": "Centro",
        "street": "Travessa José Cornélio",
        "zipcode": "49500-250"
    },
    {
        "city": "Itabaiana",
        "state": "SE",
        "district": "São Cristóvão",
        "street": "Travessa Josefa dos Santos Andrade",
        "zipcode": "49500-436"
    },
    {
        "city": "Itabaiana",
        "state": "SE",
        "district": "Serrano",
        "street": "Rua Quirino Pereira da Silva",
        "zipcode": "49503-153"
    },
    {
        "city": "Itabaiana",
        "state": "SE",
        "district": "Serrano",
        "street": "Rua J Carlos",
        "zipcode": "49503-241"
    },
    {
        "city": "Itabaiana",
        "state": "SE",
        "district": "Serrano",
        "street": "Avenida Doutor Luiz Magalhães",
        "zipcode": "49503-256"
    },
    {
        "city": "Itabaiana",
        "state": "SE",
        "district": "Serrano",
        "street": "Rua Tenysson Melo de Oliveira",
        "zipcode": "49503-259"
    },
    {
        "city": "Itabaiana",
        "state": "SE",
        "district": "Anízio Amancio de Oliveira",
        "street": "Rua Wilson Almeida Santana",
        "zipcode": "49503-565"
    },
    {
        "city": "Itabaiana",
        "state": "SE",
        "district": "Anízio Amancio de Oliveira",
        "street": "Rua Escritor Sebrão Sobrinho",
        "zipcode": "49503-708"
    },
    {
        "city": "Itabaiana",
        "state": "SE",
        "district": "Marcela",
        "street": "Rua Francisco Cavalcanti de Nascimento",
        "zipcode": "49502-260"
    },
    {
        "city": "Itabaiana",
        "state": "SE",
        "district": "Marianga",
        "street": "Avenida João Correia dos Santos",
        "zipcode": "49504-220"
    },
    {
        "city": "Itabaiana",
        "state": "SE",
        "district": "Marianga",
        "street": "Avenida Rinaldo Mota Santos",
        "zipcode": "49504-232"
    },
    {
        "city": "Itabaiana",
        "state": "SE",
        "district": "Marianga",
        "street": "Rua Antônio Francisco de Jesus",
        "zipcode": "49504-247"
    },
    {
        "city": "Itabaiana",
        "state": "SE",
        "district": "Marianga",
        "street": "Rua Ângelo Augusto Garcia Moreno",
        "zipcode": "49504-319"
    },
    {
        "city": "Itabaiana",
        "state": "SE",
        "district": "Rotary Club de Itabaiana",
        "street": "Avenida Engenheiro Carlos Reis",
        "zipcode": "49506-000"
    },
    {
        "city": "Itabaiana",
        "state": "SE",
        "district": "Rotary Club de Itabaiana",
        "street": "Avenida Manoel Antônio dos Santos",
        "zipcode": "49506-021"
    },
    {
        "city": "Itabaiana",
        "state": "SE",
        "district": "Rotary Club de Itabaiana",
        "street": "Rua Antonio Santana",
        "zipcode": "49506-243"
    },
    {
        "city": "Itabaiana",
        "state": "SE",
        "district": "Doutor José Milton Machado",
        "street": "Rua A Triste Partida",
        "zipcode": "49506-519"
    },
    {
        "city": "Itabaiana",
        "state": "SE",
        "district": "Anízio Amancio de Oliveira",
        "street": "Rua Chile",
        "zipcode": "49503-553"
    },
    {
        "city": "Itabaiana",
        "state": "SE",
        "district": "Marianga",
        "street": "Rua Doutor Luciano Alves dos Santos",
        "zipcode": "49504-364"
    },
    {
        "city": "Itabaiana",
        "state": "SE",
        "district": "Rotary Club de Itabaiana",
        "street": "Rua Genário José dos Santos",
        "zipcode": "49506-042"
    },
    {
        "city": "Itabaiana",
        "state": "SE",
        "district": "Rotary Club de Itabaiana",
        "street": "Rua Gilmar Santos Costa",
        "zipcode": "49506-099"
    },
    {
        "city": "Itabaiana",
        "state": "SE",
        "district": "Rotary Club de Itabaiana",
        "street": "Rua Faustino José Machado",
        "zipcode": "49506-165"
    },
    {
        "city": "Itabaiana",
        "state": "SE",
        "district": "Anízio Amancio de Oliveira",
        "street": "Rua Júlia de Oliveira dos Santos",
        "zipcode": "49503-595"
    },
    {
        "city": "Itabaiana",
        "state": "SE",
        "district": "Anízio Amancio de Oliveira",
        "street": "Rua José Francisco de Góis",
        "zipcode": "49503-616"
    },
    {
        "city": "Itabaiana",
        "state": "SE",
        "district": "Anízio Amancio de Oliveira",
        "street": "Rua José Gentil de Oliveira",
        "zipcode": "49503-653"
    },
    {
        "city": "Itabaiana",
        "state": "SE",
        "district": "Anízio Amancio de Oliveira",
        "street": "Rua José Olyntho de Oliveira",
        "zipcode": "49503-683"
    },
    {
        "city": "Itabaiana",
        "state": "SE",
        "district": "Marianga",
        "street": "Rua Maria Dulce de Melo",
        "zipcode": "49504-352"
    },
    {
        "city": "Itabaiana",
        "state": "SE",
        "district": "Marianga",
        "street": "Rua Maria de Lourdes Aquino Santos",
        "zipcode": "49504-373"
    },
    {
        "city": "Itabaiana",
        "state": "SE",
        "district": "Rotary Club de Itabaiana",
        "street": "Rua José Vieira Lima",
        "zipcode": "49506-045"
    },
    {
        "city": "Itabaiana",
        "state": "SE",
        "district": "Rotary Club de Itabaiana",
        "street": "Rua Júlio Rezende",
        "zipcode": "49506-255"
    },
    {
        "city": "Itabaiana",
        "state": "SE",
        "district": "Rotary Club de Itabaiana",
        "street": "Rua Josefa Cipriano de Carvalho",
        "zipcode": "49506-291"
    },
    {
        "city": "Itabaiana",
        "state": "SE",
        "district": "São Cristóvão",
        "street": "Travessa Antonio Sales do Nascimento",
        "zipcode": "49501-118"
    },
    {
        "city": "Itabaiana",
        "state": "SE",
        "district": "Anízio Amancio de Oliveira",
        "street": "Rua Professor José Egnaldo Vieira Santos",
        "zipcode": "49503-306"
    },
    {
        "city": "Itabaiana",
        "state": "SE",
        "district": "Anízio Amancio de Oliveira",
        "street": "Rua Mário Dantas de Oliveira",
        "zipcode": "49503-465"
    },
    {
        "city": "Itabaiana",
        "state": "SE",
        "district": "Anízio Amancio de Oliveira",
        "street": "Rua Teodorico Nunes Carvalho",
        "zipcode": "49503-677"
    },
    {
        "city": "Itabaiana",
        "state": "SE",
        "district": "Marianga",
        "street": "Rua Osvaldo Queiroz Correia",
        "zipcode": "49504-340"
    },
    {
        "city": "Itabaiana",
        "state": "SE",
        "district": "Miguel Teles de Mendonça",
        "street": "Rua Vereador João Cândido da Silva",
        "zipcode": "49505-080"
    },
    {
        "city": "Itabaiana",
        "state": "SE",
        "district": "Miguel Teles de Mendonça",
        "street": "Rua Professora Clara Meirelles Teles",
        "zipcode": "49505-365"
    },
    {
        "city": "Itabaiana",
        "state": "SE",
        "district": "Miguel Teles de Mendonça",
        "street": "Rua Marinete Barbosa",
        "zipcode": "49505-380"
    },
    {
        "city": "Itabaiana",
        "state": "SE",
        "district": "Rotary Club de Itabaiana",
        "street": "Travessa Amâncio José Santos",
        "zipcode": "49506-180"
    },
    {
        "city": "Itabaiana",
        "state": "SE",
        "district": "Rotary Club de Itabaiana",
        "street": "Travessa Antônio Pereira Júnior I",
        "zipcode": "49506-213"
    },
    {
        "city": "Itabaiana",
        "state": "SE",
        "district": "Rotary Club de Itabaiana",
        "street": "Rua Pedro Pereira",
        "zipcode": "49506-267"
    },
    {
        "city": "Itabaiana",
        "state": "SE",
        "district": "Rotary Club de Itabaiana",
        "street": "Rua Paulo Vieira da Silva",
        "zipcode": "49506-273"
    },
    {
        "city": "Itabaiana",
        "state": "SE",
        "district": "Doutor José Milton Machado",
        "street": "Rua Riacho do Navio",
        "zipcode": "49506-528"
    },
    {
        "city": "Itabaiana",
        "state": "SE",
        "district": "Marianga",
        "street": "Travessa Lucas dos Santos Barbosa",
        "zipcode": "49504-331"
    },
    {
        "city": "Itabaiana",
        "state": "SE",
        "district": "Miguel Teles de Mendonça",
        "street": "Travessa Terêncio Bispo",
        "zipcode": "49505-335"
    },
    {
        "city": "Itabaiana",
        "state": "SE",
        "district": "Rotary Club de Itabaiana",
        "street": "Travessa Florival Oliveira",
        "zipcode": "49506-030"
    },
    {
        "city": "Itabaiana",
        "state": "SE",
        "district": "Serrano",
        "street": "Rua Cecília Vieira dos Santos",
        "zipcode": "49503-102"
    },
    {
        "city": "Itabaiana",
        "state": "SE",
        "district": "Serrano",
        "street": "Rua Manoel Messias dos Santos",
        "zipcode": "49503-135"
    },
    {
        "city": "Itabaiana",
        "state": "SE",
        "district": "Serrano",
        "street": "Travessa José Domingos Santana",
        "zipcode": "49503-150"
    },
    {
        "city": "Itabaiana",
        "state": "SE",
        "district": "Serrano",
        "street": "Praça Francisco Santiago",
        "zipcode": "49503-183"
    },
    {
        "city": "Itabaiana",
        "state": "SE",
        "district": "Serrano",
        "street": "Rua Maria Angélica da Conceição",
        "zipcode": "49503-223"
    },
    {
        "city": "Itabaiana",
        "state": "SE",
        "district": "Anízio Amancio de Oliveira",
        "street": "Rua Portugal",
        "zipcode": "49503-486"
    },
    {
        "city": "Itabaiana",
        "state": "SE",
        "district": "Marianga",
        "street": "Rua C (Cond Zilda Arns)",
        "zipcode": "49504-456"
    },
    {
        "city": "Itabaiana",
        "state": "SE",
        "district": "Doutor José Milton Machado",
        "street": "Rua ABC do Sertão",
        "zipcode": "49506-439"
    },
    {
        "city": "Itabaiana",
        "state": "SE",
        "district": "Doutor José Milton Machado",
        "street": "Rua Antônio Alves dos Santos",
        "zipcode": "49507-097"
    },
    {
        "city": "Itabaiana",
        "state": "SE",
        "district": "Oviedo Teixeira",
        "street": "Rua José Delfino da Silveira",
        "zipcode": "49507-445"
    },
    {
        "city": "Itabaiana",
        "state": "SE",
        "district": "Oviedo Teixeira",
        "street": "Rua João Tavares de Jesus",
        "zipcode": "49507-485"
    },
    {
        "city": "Itabaiana",
        "state": "SE",
        "district": "Oviedo Teixeira",
        "street": "Rua Josué de Jesus Oliveira",
        "zipcode": "49507-515"
    },
    {
        "city": "Itabaiana",
        "state": "SE",
        "district": "Oviedo Teixeira",
        "street": "Rua José Nilton Santos",
        "zipcode": "49507-675"
    },
    {
        "city": "Itabaiana",
        "state": "SE",
        "district": "Centro",
        "street": "Avenida Doutor Luiz Magalhães",
        "zipcode": "49500-034"
    },
    {
        "city": "Itabaiana",
        "state": "SE",
        "district": "Centro",
        "street": "Avenida Doutor Airton Mendonça Teles",
        "zipcode": "49500-052"
    },
    {
        "city": "Itabaiana",
        "state": "SE",
        "district": "Doutor José Milton Machado",
        "street": "Rua Assum Preto",
        "zipcode": "49506-600"
    },
    {
        "city": "Itabaiana",
        "state": "SE",
        "district": "Doutor José Milton Machado",
        "street": "Rua Ana Silva Leal",
        "zipcode": "49506-728"
    },
    {
        "city": "Itabaiana",
        "state": "SE",
        "district": "Oviedo Teixeira",
        "street": "Avenida Hermenegildo José de Oliveira",
        "zipcode": "49508-120"
    },
    {
        "city": "Itabaiana",
        "state": "SE",
        "district": "Anízio Amancio de Oliveira",
        "street": "Rua Alan Kardec",
        "zipcode": "49503-444"
    },
    {
        "city": "Itabaiana",
        "state": "SE",
        "district": "Doutor José Milton Machado",
        "street": "Rua Deuzinha Tavares dos Santos",
        "zipcode": "49506-710"
    },
    {
        "city": "Itabaiana",
        "state": "SE",
        "district": "Doutor José Milton Machado",
        "street": "Rua João Batista Filho",
        "zipcode": "49506-867"
    },
    {
        "city": "Itabaiana",
        "state": "SE",
        "district": "Oviedo Teixeira",
        "street": "Rua Jeronimo Faria",
        "zipcode": "49507-805"
    },
    {
        "city": "Itabaiana",
        "state": "SE",
        "district": "Miguel Teles de Mendonça",
        "street": "Rua Crislaine dos Santos",
        "zipcode": "49505-075"
    },
    {
        "city": "Itabaiana",
        "state": "SE",
        "district": "Doutor José Milton Machado",
        "street": "Rua José Fernando Peixoto",
        "zipcode": "49507-088"
    },
    {
        "city": "Itabaiana",
        "state": "SE",
        "district": "Oviedo Teixeira",
        "street": "Rua Leda Moura",
        "zipcode": "49507-500"
    },
    {
        "city": "Itabaiana",
        "state": "SE",
        "district": "Oviedo Teixeira",
        "street": "Rua José Lisboa dos Anjos",
        "zipcode": "49507-825"
    },
    {
        "city": "Itabaiana",
        "state": "SE",
        "district": "Oviedo Teixeira",
        "street": "Rua Julia Mendonça Almeida",
        "zipcode": "49507-850"
    },
    {
        "city": "Itabaiana",
        "state": "SE",
        "district": "Bananeiras",
        "street": "Rua José Gleidiomar de Santana",
        "zipcode": "49501-555"
    },
    {
        "city": "Itabaiana",
        "state": "SE",
        "district": "Anízio Amancio de Oliveira",
        "street": "Rua José Oliveira Machado",
        "zipcode": "49503-405"
    },
    {
        "city": "Itabaiana",
        "state": "SE",
        "district": "Marianga",
        "street": "Rua José Moisés Santana",
        "zipcode": "49504-358"
    },
    {
        "city": "Itabaiana",
        "state": "SE",
        "district": "Marianga",
        "street": "Rua José Luiz dos Santos",
        "zipcode": "49504-376"
    },
    {
        "city": "Itabaiana",
        "state": "SE",
        "district": "Doutor José Milton Machado",
        "street": "Rua Pau de Arara",
        "zipcode": "49506-621"
    },
    {
        "city": "Itabaiana",
        "state": "SE",
        "district": "Oviedo Teixeira",
        "street": "Rua Três (Dt Industrial)",
        "zipcode": "49508-270"
    },
    {
        "city": "Itabaiana",
        "state": "SE",
        "district": "Doutor José Milton Machado",
        "street": "Travessa Deuzinha Tavares dos Santos",
        "zipcode": "49506-713"
    },
    {
        "city": "Itabaiana",
        "state": "SE",
        "district": "Doutor José Milton Machado",
        "street": "Travessa Tarcisio Menezes",
        "zipcode": "49506-734"
    },
    {
        "city": "Itabaiana",
        "state": "SE",
        "district": "Bananeiras",
        "street": "Travessa José Alves de Oliveira",
        "zipcode": "49501-585"
    },
    {
        "city": "Itabaiana",
        "state": "SE",
        "district": "Marianga",
        "street": "Travessa Weverton André Cruz de Jesus",
        "zipcode": "49504-256"
    },
    {
        "city": "Itabaiana",
        "state": "SE",
        "district": "Rotary Club de Itabaiana",
        "street": "Travessa Francisco Noronha",
        "zipcode": "49506-246"
    },
    {
        "city": "Itabaiana",
        "state": "SE",
        "district": "Doutor José Milton Machado",
        "street": "Travessa Mizael José da Lapa",
        "zipcode": "49507-079"
    },
    {
        "city": "Itabaiana",
        "state": "SE",
        "district": "Oviedo Teixeira",
        "street": "Rua Marivalda Santos Santana",
        "zipcode": "49507-470"
    },
    {
        "city": "Itabaiana",
        "state": "SE",
        "district": "Oviedo Teixeira",
        "street": "Rua Gileno Nunes de Carvalho",
        "zipcode": "49508-273"
    },
    {
        "city": "Itabaiana",
        "state": "SE",
        "district": "Bananeiras",
        "street": "Rua Leandro Maciel",
        "zipcode": "49501-560"
    },
    {
        "city": "Itabaiana",
        "state": "SE",
        "district": "Marcela",
        "street": "Rua Pedro Antenor de Vasconcelos",
        "zipcode": "49502-200"
    },
    {
        "city": "Itabaiana",
        "state": "SE",
        "district": "Serrano",
        "street": "Avenida Manoel Francisco Teles",
        "zipcode": "49503-180"
    },
    {
        "city": "Itabaiana",
        "state": "SE",
        "district": "Marianga",
        "street": "Rua Tenente Ambrósio Ferreira Lima",
        "zipcode": "49504-391"
    },
    {
        "city": "Itabaiana",
        "state": "SE",
        "district": "Miguel Teles de Mendonça",
        "street": "Rua Maria Lima",
        "zipcode": "49505-005"
    },
    {
        "city": "Itabaiana",
        "state": "SE",
        "district": "Miguel Teles de Mendonça",
        "street": "Rua Josefa Maximina dos Santos",
        "zipcode": "49505-103"
    },
    {
        "city": "Itabaiana",
        "state": "SE",
        "district": "Miguel Teles de Mendonça",
        "street": "Travessa São Luiz",
        "zipcode": "49505-320"
    },
    {
        "city": "Itabaiana",
        "state": "SE",
        "district": "Miguel Teles de Mendonça",
        "street": "Travessa Sérgio Batista dos Santos",
        "zipcode": "49505-360"
    },
    {
        "city": "Itabaiana",
        "state": "SE",
        "district": "Rotary Club de Itabaiana",
        "street": "Avenida Doutor Pedro Garcia Moreno",
        "zipcode": "49506-153"
    },
    {
        "city": "Itabaiana",
        "state": "SE",
        "district": "Rotary Club de Itabaiana",
        "street": "Rua Antônio Teixeira Lobo",
        "zipcode": "49506-279"
    },
    {
        "city": "Itabaiana",
        "state": "SE",
        "district": "Rotary Club de Itabaiana",
        "street": "Travessa Trinta e Sete",
        "zipcode": "49506-306"
    },
    {
        "city": "Itabaiana",
        "state": "SE",
        "district": "Marcela",
        "street": "Rua Edinaldo Tavares Góis",
        "zipcode": "49502-061"
    },
    {
        "city": "Itabaiana",
        "state": "SE",
        "district": "Marcela",
        "street": "Calçadão Antônio Pereira de Carvalho",
        "zipcode": "49502-040"
    },
    {
        "city": "Itabaiana",
        "state": "SE",
        "district": "Mamede Paes Mendonça",
        "street": "Travessa José Sizino de Almeida",
        "zipcode": "49509-021"
    },
    {
        "city": "Itabaiana",
        "state": "SE",
        "district": "Mamede Paes Mendonça",
        "street": "Travessa Professora Rita Vieira Santos",
        "zipcode": "49509-170"
    },
    {
        "city": "Itabaiana",
        "state": "SE",
        "district": "Mamede Paes Mendonça",
        "street": "Travessa Papa João Paulo VI",
        "zipcode": "49509-182"
    },
    {
        "city": "Itabaiana",
        "state": "SE",
        "district": "Mamede Paes Mendonça",
        "street": "Travessa São Domingos II",
        "zipcode": "49509-203"
    },
    {
        "city": "Itabaiana",
        "state": "SE",
        "district": "Porto",
        "street": "Travessa Felisbelo Machado de Menezes",
        "zipcode": "49510-175"
    },
    {
        "city": "Itabaiana",
        "state": "SE",
        "district": "Doutor José Milton Machado",
        "street": "Rua Eduardo Albuquerque",
        "zipcode": "49506-346"
    },
    {
        "city": "Itabaiana",
        "state": "SE",
        "district": "Doutor José Milton Machado",
        "street": "Rodovia João Paulo II",
        "zipcode": "49506-430"
    },
    {
        "city": "Itabaiana",
        "state": "SE",
        "district": "Doutor José Milton Machado",
        "street": "Rua Pagode Russo",
        "zipcode": "49506-442"
    },
    {
        "city": "Itabaiana",
        "state": "SE",
        "district": "Doutor José Milton Machado",
        "street": "Rua Maria Santos de Oliveira",
        "zipcode": "49506-725"
    },
    {
        "city": "Itabaiana",
        "state": "SE",
        "district": "Doutor José Milton Machado",
        "street": "Rua Contorno",
        "zipcode": "49507-070"
    },
    {
        "city": "Itabaiana",
        "state": "SE",
        "district": "Oviedo Teixeira",
        "street": "Rua H (Lot P Serra)",
        "zipcode": "49507-835"
    },
    {
        "city": "Itabaiana",
        "state": "SE",
        "district": "Oviedo Teixeira",
        "street": "Rua José Menezes Santos",
        "zipcode": "49508-100"
    },
    {
        "city": "Itabaiana",
        "state": "SE",
        "district": "Oviedo Teixeira",
        "street": "Rua Quatro (D Industrial)",
        "zipcode": "49508-280"
    },
    {
        "city": "Itabaiana",
        "state": "SE",
        "district": "Mamede Paes Mendonça",
        "street": "Rua Percílio Andrade",
        "zipcode": "49509-000"
    },
    {
        "city": "Itabaiana",
        "state": "SE",
        "district": "Mamede Paes Mendonça",
        "street": "Rua José Venceslau",
        "zipcode": "49509-009"
    },
    {
        "city": "Itabaiana",
        "state": "SE",
        "district": "Mamede Paes Mendonça",
        "street": "Travessa José Sizino de Almeida II",
        "zipcode": "49509-033"
    },
    {
        "city": "Itabaiana",
        "state": "SE",
        "district": "Mamede Paes Mendonça",
        "street": "Rua José Paulo Vieira",
        "zipcode": "49509-082"
    },
    {
        "city": "Itabaiana",
        "state": "SE",
        "district": "Mamede Paes Mendonça",
        "street": "Rua Capitão Manoel Joaquim Mendes",
        "zipcode": "49509-164"
    },
    {
        "city": "Itabaiana",
        "state": "SE",
        "district": "Mamede Paes Mendonça",
        "street": "Avenida Capitão Antonio Cornélio da Fonseca",
        "zipcode": "49509-191"
    },
    {
        "city": "Itabaiana",
        "state": "SE",
        "district": "Mamede Paes Mendonça",
        "street": "Rua José Araújo Ferreira Junior",
        "zipcode": "49509-212"
    },
    {
        "city": "Itabaiana",
        "state": "SE",
        "district": "Mamede Paes Mendonça",
        "street": "Rua Professor Lima Junior",
        "zipcode": "49509-266"
    },
    {
        "city": "Itabaiana",
        "state": "SE",
        "district": "Mamede Paes Mendonça",
        "street": "Avenida Virgilio Lourenço dos Reis",
        "zipcode": "49509-284"
    },
    {
        "city": "Itabaiana",
        "state": "SE",
        "district": "Porto",
        "street": "Avenida Antônio Oliveira",
        "zipcode": "49509-620"
    },
    {
        "city": "Itabaiana",
        "state": "SE",
        "district": "Porto",
        "street": "Rua Vivaldo Tavares de Almeida",
        "zipcode": "49509-629"
    },
    {
        "city": "Itabaiana",
        "state": "SE",
        "district": "Porto",
        "street": "Rua Telma de Oliveira Santana",
        "zipcode": "49509-685"
    },
    {
        "city": "Itabaiana",
        "state": "SE",
        "district": "Porto",
        "street": "Rua Tercilia Passos de Oliveira",
        "zipcode": "49509-780"
    },
    {
        "city": "Itabaiana",
        "state": "SE",
        "district": "Porto",
        "street": "Rua João Pereira da Silva",
        "zipcode": "49509-785"
    },
    {
        "city": "Itabaiana",
        "state": "SE",
        "district": "Porto",
        "street": "Avenida Capitão Antonio Cornélio da Fonseca",
        "zipcode": "49509-810"
    },
    {
        "city": "Itabaiana",
        "state": "SE",
        "district": "Porto",
        "street": "Rua Juvencio Francisco de Lima",
        "zipcode": "49509-885"
    },
    {
        "city": "Itabaiana",
        "state": "SE",
        "district": "Porto",
        "street": "Rua Paulo Tomé da Silva",
        "zipcode": "49510-101"
    },
    {
        "city": "Itabaiana",
        "state": "SE",
        "district": "Porto",
        "street": "Rua José Antonio Moura",
        "zipcode": "49510-115"
    },
    {
        "city": "Itabaiana",
        "state": "SE",
        "district": "Porto",
        "street": "Rua Jean Carlos Santos Lima",
        "zipcode": "49510-135"
    },
    {
        "city": "Itabaiana",
        "state": "SE",
        "district": "Porto",
        "street": "Rua Laurentino Alves dos Santos",
        "zipcode": "49510-155"
    },
    {
        "city": "Itabaiana",
        "state": "SE",
        "district": "Porto",
        "street": "Avenida Vereador Olimpio Grande",
        "zipcode": "49510-200"
    },
    {
        "city": "Itabaiana",
        "state": "SE",
        "district": "Riacho Doce",
        "street": "Rua Maria Felix da Silva",
        "zipcode": "49510-545"
    },
    {
        "city": "Itabaiana",
        "state": "SE",
        "district": "Riacho Doce",
        "street": "Rua José Meireles Teles",
        "zipcode": "49510-575"
    },
    {
        "city": "Itabaiana",
        "state": "SE",
        "district": "Riacho Doce",
        "street": "Rua José Meireles Teles III",
        "zipcode": "49510-590"
    },
    {
        "city": "Itabaiana",
        "state": "SE",
        "district": "Queimadas",
        "street": "Rua Padre José Luiz dos Santos",
        "zipcode": "49511-125"
    },
    {
        "city": "Itabaiana",
        "state": "SE",
        "district": "Queimadas",
        "street": "Rua Augusto Pereira Costa",
        "zipcode": "49511-140"
    },
    {
        "city": "Itabaiana",
        "state": "SE",
        "district": "Queimadas",
        "street": "Rua Maria Alves dos Santos",
        "zipcode": "49511-250"
    },
    {
        "city": "Itabaiana",
        "state": "SE",
        "district": "Queimadas",
        "street": "Rua Florêncio José dos Santos",
        "zipcode": "49511-380"
    },
    {
        "city": "Itabaiana",
        "state": "SE",
        "district": "Queimadas",
        "street": "Avenida Eduardo Paixão Rocha",
        "zipcode": "49511-390"
    },
    {
        "city": "Itabaiana",
        "state": "SE",
        "district": "Queimadas",
        "street": "Rua Josias",
        "zipcode": "49511-510"
    },
    {
        "city": "Itabaiana",
        "state": "SE",
        "district": "Queimadas",
        "street": "Rua Marculino Cruz do Espírito Santo",
        "zipcode": "49511-520"
    },
    {
        "city": "Itabaiana",
        "state": "SE",
        "district": "Queimadas",
        "street": "Rua Pedro Barros",
        "zipcode": "49511-610"
    },
    {
        "city": "Itabaiana",
        "state": "SE",
        "district": "Bananeiras",
        "street": "Rua Cristóvão de Barros",
        "zipcode": "49501-395"
    },
    {
        "city": "Itabaiana",
        "state": "SE",
        "district": "Anízio Amancio de Oliveira",
        "street": "Rua José Paixão de Oliveira",
        "zipcode": "49503-507"
    },
    {
        "city": "Itabaiana",
        "state": "SE",
        "district": "Marianga",
        "street": "Rua Padre Sebastião Pedrosa Góis",
        "zipcode": "49504-105"
    },
    {
        "city": "Itabaiana",
        "state": "SE",
        "district": "Marianga",
        "street": "Rua Alemar Batista de Andrade",
        "zipcode": "49504-117"
    },
    {
        "city": "Itabaiana",
        "state": "SE",
        "district": "Marianga",
        "street": "Rua Padre José Luiz dos Santos",
        "zipcode": "49504-226"
    },
    {
        "city": "Itabaiana",
        "state": "SE",
        "district": "Miguel Teles de Mendonça",
        "street": "Avenida José Amâncio Bispo",
        "zipcode": "49505-330"
    },
    {
        "city": "Itabaiana",
        "state": "SE",
        "district": "Rotary Club de Itabaiana",
        "street": "Rua José Santana",
        "zipcode": "49506-057"
    },
    {
        "city": "Itabaiana",
        "state": "SE",
        "district": "Rotary Club de Itabaiana",
        "street": "Rua José Francisco de Oliveira",
        "zipcode": "49506-162"
    },
    {
        "city": "Itabaiana",
        "state": "SE",
        "district": "Rotary Club de Itabaiana",
        "street": "Rua São Luiz",
        "zipcode": "49506-186"
    },
    {
        "city": "Itabaiana",
        "state": "SE",
        "district": "Oviedo Teixeira",
        "street": "Rua Francisco Antonio de Lima",
        "zipcode": "49507-795"
    },
    {
        "city": "Itabaiana",
        "state": "SE",
        "district": "Mamede Paes Mendonça",
        "street": "Rua Francisco Oliveira",
        "zipcode": "49509-088"
    },
    {
        "city": "Itabaiana",
        "state": "SE",
        "district": "Mamede Paes Mendonça",
        "street": "Rua Manoel Lapa",
        "zipcode": "49509-143"
    },
    {
        "city": "Itabaiana",
        "state": "SE",
        "district": "Mamede Paes Mendonça",
        "street": "Rua Capitão José Ferreira Neto",
        "zipcode": "49509-155"
    },
    {
        "city": "Itabaiana",
        "state": "SE",
        "district": "Mamede Paes Mendonça",
        "street": "Rua Francisco Oliveira",
        "zipcode": "49509-167"
    },
    {
        "city": "Itabaiana",
        "state": "SE",
        "district": "Porto",
        "street": "Rua Senador José Passos Porto",
        "zipcode": "49509-638"
    },
    {
        "city": "Itabaiana",
        "state": "SE",
        "district": "Porto",
        "street": "Rua Miguel Barreto Fereira",
        "zipcode": "49509-647"
    },
    {
        "city": "Itabaiana",
        "state": "SE",
        "district": "Porto",
        "street": "Calçadão Antônio Pereira de Carvalho",
        "zipcode": "49509-653"
    },
    {
        "city": "Itabaiana",
        "state": "SE",
        "district": "Porto",
        "street": "Rua José Rodomarques Alves Santos",
        "zipcode": "49509-750"
    },
    {
        "city": "Itabaiana",
        "state": "SE",
        "district": "Porto",
        "street": "Rua Josias Costa",
        "zipcode": "49510-170"
    },
    {
        "city": "Itabaiana",
        "state": "SE",
        "district": "Queimadas",
        "street": "Rua João de Deus Freitas",
        "zipcode": "49511-375"
    },
    {
        "city": "Itabaiana",
        "state": "SE",
        "district": "Queimadas",
        "street": "Rua Candida Maria de Jesus",
        "zipcode": "49511-615"
    },
    {
        "city": "Itabaiana",
        "state": "SE",
        "district": "Queimadas",
        "street": "Rua Maria Francisca dos Santos",
        "zipcode": "49511-735"
    },
    {
        "city": "Itabaiana",
        "state": "SE",
        "district": "Bananeiras",
        "street": "Rua Jaconias Ferreira de Lima",
        "zipcode": "49501-390"
    },
    {
        "city": "Itabaiana",
        "state": "SE",
        "district": "Anízio Amancio de Oliveira",
        "street": "Rua Maria Mendonça Teles",
        "zipcode": "49503-303"
    },
    {
        "city": "Itabaiana",
        "state": "SE",
        "district": "Anízio Amancio de Oliveira",
        "street": "Avenida Doutor Gileno Almeida Costa",
        "zipcode": "49503-468"
    },
    {
        "city": "Itabaiana",
        "state": "SE",
        "district": "Porto",
        "street": "Rua Gentil Fonseca Lobo",
        "zipcode": "49509-623"
    },
    {
        "city": "Itabaiana",
        "state": "SE",
        "district": "Porto",
        "street": "Rua Vereador José Severiano de Jesus",
        "zipcode": "49509-641"
    },
    {
        "city": "Itabaiana",
        "state": "SE",
        "district": "Porto",
        "street": "Rua Maria José Maciel",
        "zipcode": "49509-680"
    },
    {
        "city": "Itabaiana",
        "state": "SE",
        "district": "Porto",
        "street": "Rua Maria Thetis Nunes",
        "zipcode": "49510-150"
    },
    {
        "city": "Itabaiana",
        "state": "SE",
        "district": "Riacho Doce",
        "street": "Avenida Pedro Teles Barbosa",
        "zipcode": "49510-350"
    },
    {
        "city": "Itabaiana",
        "state": "SE",
        "district": "Riacho Doce",
        "street": "Rua Cinco",
        "zipcode": "49510-555"
    },
    {
        "city": "Itabaiana",
        "state": "SE",
        "district": "Oviedo Teixeira",
        "street": "Rua Tenente Honório Mendonça",
        "zipcode": "49507-660"
    },
    {
        "city": "Itabaiana",
        "state": "SE",
        "district": "Oviedo Teixeira",
        "street": "Rua Manoel Francisco Cardoso",
        "zipcode": "49507-650"
    },
    {
        "city": "Itabaiana",
        "state": "SE",
        "district": "Rotary Club de Itabaiana",
        "street": "Travessa Josefa Joelita Fontes",
        "zipcode": "49506-051"
    },
    {
        "city": "Itabaiana",
        "state": "SE",
        "district": "Porto",
        "street": "Travessa Lucas Alves Machado",
        "zipcode": "49509-656"
    },
    {
        "city": "Itabaiana",
        "state": "SE",
        "district": "Bananeiras",
        "street": "Travessa Santos Cardoso",
        "zipcode": "49501-370"
    },
    {
        "city": "Itabaiana",
        "state": "SE",
        "district": "Anízio Amancio de Oliveira",
        "street": "Rua Manoel Domingos Pereira",
        "zipcode": "49503-417"
    },
    {
        "city": "Itabaiana",
        "state": "SE",
        "district": "Rotary Club de Itabaiana",
        "street": "Travessa Antônio Francisco de Oliveira Filho",
        "zipcode": "49506-183"
    },
    {
        "city": "Itabaiana",
        "state": "SE",
        "district": "Doutor José Milton Machado",
        "street": "Rua Manoel dos Santos",
        "zipcode": "49506-849"
    },
    {
        "city": "Itabaiana",
        "state": "SE",
        "district": "Doutor José Milton Machado",
        "street": "Travessa Manoel dos Santos",
        "zipcode": "49506-852"
    },
    {
        "city": "Itabaiana",
        "state": "SE",
        "district": "Porto",
        "street": "Rua João Nunes de Rezende",
        "zipcode": "49509-770"
    },
    {
        "city": "Itabaiana",
        "state": "SE",
        "district": "Queimadas",
        "street": "Rua Domingos Alves dos Santos",
        "zipcode": "49511-115"
    },
    {
        "city": "Itabaiana",
        "state": "SE",
        "district": "Centro",
        "street": "Rua Francisco Santos",
        "zipcode": "49500-972"
    },
    {
        "city": "Itabaiana",
        "state": "SE",
        "district": "Mamede Paes Mendonça",
        "street": "Rua Vice",
        "zipcode": "49509-103"
    },
    {
        "city": "Itabaiana",
        "state": "SE",
        "district": "Marcela",
        "street": "Rua José Eraldo dos Santos",
        "zipcode": "49501-842"
    },
    {
        "city": "Itabaiana",
        "state": "SE",
        "district": "Marcela",
        "street": "Rua Quintino da Silva Nunes",
        "zipcode": "49501-839"
    },
    {
        "city": "Itabaiana",
        "state": "SE",
        "district": "Marcela",
        "street": "Rua João Batista Santana",
        "zipcode": "49502-258"
    },
    {
        "city": "Itabaiana",
        "state": "SE",
        "district": "Marcela",
        "street": "Rua Silvestre Souza de Jesus",
        "zipcode": "49502-255"
    },
    {
        "city": "Itabaiana",
        "state": "SE",
        "district": "Marcela",
        "street": "Rua Acindino Amaro de Araújo",
        "zipcode": "49502-246"
    },
    {
        "city": "Itabaiana",
        "state": "SE",
        "district": "Marcela",
        "street": "Rua Marcos Antônio Menezes",
        "zipcode": "49502-070"
    },
    {
        "city": "Itabaiana",
        "state": "SE",
        "district": "Marcela",
        "street": "Rua Maria Julieta Oliveira",
        "zipcode": "49502-064"
    },
    {
        "city": "Itabaiana",
        "state": "SE",
        "district": "Marcela",
        "street": "Rua José Bispo de Mecenas",
        "zipcode": "49502-058"
    },
    {
        "city": "Itabaiana",
        "state": "SE",
        "district": "Mamede Paes Mendonça",
        "street": "Rua José Lima",
        "zipcode": "49509-275"
    },
    {
        "city": "Itabaiana",
        "state": "SE",
        "district": "Mamede Paes Mendonça",
        "street": "Rua José de Souza Dantas",
        "zipcode": "49509-278"
    },
    {
        "city": "Itabaiana",
        "state": "SE",
        "district": "Mamede Paes Mendonça",
        "street": "Rua Quintino da Silva Nunes",
        "zipcode": "49509-290"
    },
    {
        "city": "Itabaiana",
        "state": "SE",
        "district": "Mamede Paes Mendonça",
        "street": "Rua Marizete Santos Costa",
        "zipcode": "49509-293"
    },
    {
        "city": "Itabaiana",
        "state": "SE",
        "district": "Mamede Paes Mendonça",
        "street": "Avenida José de Oliveira",
        "zipcode": "49509-257"
    },
    {
        "city": "Itabaiana",
        "state": "SE",
        "district": "Mamede Paes Mendonça",
        "street": "Rua Maria alaíde de Jesus Cunha",
        "zipcode": "49509-239"
    },
    {
        "city": "Itabaiana",
        "state": "SE",
        "district": "Mamede Paes Mendonça",
        "street": "Avenida Jhon Leno Cunha Mota",
        "zipcode": "49509-230"
    },
    {
        "city": "Itabaiana",
        "state": "SE",
        "district": "Bananeiras",
        "street": "Travessa Antonio Cardoso Andrade",
        "zipcode": "49501-385"
    },
    {
        "city": "Itabaiana",
        "state": "SE",
        "district": "Anízio Amancio de Oliveira",
        "street": "Rua Pedro Barbosa de Jesus",
        "zipcode": "49503-420"
    },
    {
        "city": "Itabaiana",
        "state": "SE",
        "district": "Anízio Amancio de Oliveira",
        "street": "Rua Adhemar de Carvalho",
        "zipcode": "49503-680"
    },
    {
        "city": "Itabaiana",
        "state": "SE",
        "district": "Marianga",
        "street": "Rua E (Lot Morumbi II)",
        "zipcode": "49504-018"
    },
    {
        "city": "Itabaiana",
        "state": "SE",
        "district": "Marianga",
        "street": "Rua Tenisson Melo de Oliveira",
        "zipcode": "49504-096"
    },
    {
        "city": "Itabaiana",
        "state": "SE",
        "district": "Miguel Teles de Mendonça",
        "street": "Rua São Pedro",
        "zipcode": "49505-315"
    },
    {
        "city": "Itabaiana",
        "state": "SE",
        "district": "Rotary Club de Itabaiana",
        "street": "Rua Manoel Teles de Mendonça",
        "zipcode": "49506-156"
    },
    {
        "city": "Itabaiana",
        "state": "SE",
        "district": "Mamede Paes Mendonça",
        "street": "Rua Francisco Xavier Nunes",
        "zipcode": "49509-287"
    },
    {
        "city": "Itabaiana",
        "state": "SE",
        "district": "Porto",
        "street": "Rua Cícero José de Souza",
        "zipcode": "49509-595"
    },
    {
        "city": "Itabaiana",
        "state": "SE",
        "district": "Mamede Paes Mendonça",
        "street": "Rua Antônio Joaquim de Santana",
        "zipcode": "49509-251"
    },
    {
        "city": "Itabaiana",
        "state": "SE",
        "district": "Mamede Paes Mendonça",
        "street": "Rua Marcos Antônio Menezes",
        "zipcode": "49509-305"
    },
    {
        "city": "Itabaiana",
        "state": "SE",
        "district": "Mamede Paes Mendonça",
        "street": "Rua Gentil Fonseca Lobo",
        "zipcode": "49509-227"
    },
    {
        "city": "Itabaiana",
        "state": "SE",
        "district": "Mamede Paes Mendonça",
        "street": "Rua José Vicente de Almeida",
        "zipcode": "49509-281"
    },
    {
        "city": "Itabaiana",
        "state": "SE",
        "district": "Mamede Paes Mendonça",
        "street": "Rua Brasiliana Francisca de Araújo",
        "zipcode": "49509-326"
    },
    {
        "city": "Itabaiana",
        "state": "SE",
        "district": "Mamede Paes Mendonça",
        "street": "Rua Maria julieta Oliveira",
        "zipcode": "49509-302"
    },
    {
        "city": "Itabaiana",
        "state": "SE",
        "district": "Mamede Paes Mendonça",
        "street": "Rua Firmina Maria Pereira",
        "zipcode": "49509-233"
    },
    {
        "city": "Itabaiana",
        "state": "SE",
        "district": "Mamede Paes Mendonça",
        "street": "Rua Pedro Tavares de Jesus",
        "zipcode": "49509-308"
    },
    {
        "city": "Itabaiana",
        "state": "SE",
        "district": "Mamede Paes Mendonça",
        "street": "Calçadão Antônio Pereira de Carvalho",
        "zipcode": "49509-224"
    },
    {
        "city": "Itabaiana",
        "state": "SE",
        "district": "Mamede Paes Mendonça",
        "street": "Rua João Batista Santana",
        "zipcode": "49509-335"
    },
    {
        "city": "Itabaiana",
        "state": "SE",
        "district": "Mamede Paes Mendonça",
        "street": "Rua José Américo Santana",
        "zipcode": "49509-329"
    },
    {
        "city": "Itabaiana",
        "state": "SE",
        "district": "Mamede Paes Mendonça",
        "street": "Rua Flávio Pereira dos Anjos",
        "zipcode": "49509-320"
    },
    {
        "city": "Itabaiana",
        "state": "SE",
        "district": "Oviedo Teixeira",
        "street": "Rua Dois (D Industrial)",
        "zipcode": "49508-300"
    },
    {
        "city": "Itabaiana",
        "state": "SE",
        "district": "Mamede Paes Mendonça",
        "street": "Rua José Vicente de Oliveira",
        "zipcode": "49509-146"
    },
    {
        "city": "Itabaiana",
        "state": "SE",
        "district": "Porto",
        "street": "Rua José Augusto Araújo",
        "zipcode": "49509-644"
    },
    {
        "city": "Itabaiana",
        "state": "SE",
        "district": "Riacho Doce",
        "street": "Rua Tanque Vermelho II",
        "zipcode": "49510-475"
    },
    {
        "city": "Itabaiana",
        "state": "SE",
        "district": "Mamede Paes Mendonça",
        "street": "Rua Monsenhor Constantino",
        "zipcode": "49509-073"
    },
    {
        "city": "Itabaiana",
        "state": "SE",
        "district": "Queimadas",
        "street": "Rua Maria Damitilia da Conceição",
        "zipcode": "49511-505"
    },
    {
        "city": "Itabaiana",
        "state": "SE",
        "district": "Centro",
        "street": "Rua Candido Barbosa de Jesus",
        "zipcode": "49500-019"
    },
    {
        "city": "Itabaiana",
        "state": "SE",
        "district": "Centro",
        "street": "Rua Antonio Joaquim da Silva",
        "zipcode": "49500-136"
    },
    {
        "city": "Itabaiana",
        "state": "SE",
        "district": "Mamede Paes Mendonça",
        "street": "Rua João Costa Lima Neto",
        "zipcode": "49509-314"
    },
    {
        "city": "Itabaiana",
        "state": "SE",
        "district": "Mamede Paes Mendonça",
        "street": "Rua Francisco Cavalcante de Nascimento",
        "zipcode": "49509-311"
    },
    {
        "city": "Itabaiana",
        "state": "SE",
        "district": "Mamede Paes Mendonça",
        "street": "Rua Manoel Francisco Cunha",
        "zipcode": "49509-242"
    },
    {
        "city": "Itabaiana",
        "state": "SE",
        "district": "Mamede Paes Mendonça",
        "street": "Rua José Menezes da Cunha",
        "zipcode": "49509-236"
    },
    {
        "city": "Itabaiana",
        "state": "SE",
        "district": "Mamede Paes Mendonça",
        "street": "Rua Acindino Amaro de Araújo",
        "zipcode": "49509-323"
    },
    {
        "city": "Itabaiana",
        "state": "SE",
        "district": "Mamede Paes Mendonça",
        "street": "Rua José Bispo de Menezes",
        "zipcode": "49509-296"
    },
    {
        "city": "Itabaiana",
        "state": "SE",
        "district": "Mamede Paes Mendonça",
        "street": "Rua Renilson Francisco Cunha",
        "zipcode": "49509-245"
    },
    {
        "city": "Itabaiana",
        "state": "SE",
        "district": "Mamede Paes Mendonça",
        "street": "Rua Marivan Oliveira Melo",
        "zipcode": "49509-317"
    },
    {
        "city": "Itabaiana",
        "state": "SE",
        "district": "Mamede Paes Mendonça",
        "street": "Rua Silvestre Souza de Jesus",
        "zipcode": "49509-332"
    },
    {
        "city": "Itabaiana",
        "state": "SE",
        "district": "Mamede Paes Mendonça",
        "street": "Rua Ednaldo Tavares Góis",
        "zipcode": "49509-299"
    },
    {
        "city": "Itabaiana",
        "state": "SE",
        "district": "Centro",
        "street": "Avenida Engenheiro Carlos Reis",
        "zipcode": "49500-145"
    },
    {
        "city": "Itabaiana",
        "state": "SE",
        "district": "Doutor José Milton Machado",
        "street": "Travessa Josefa Cordélia de Góis",
        "zipcode": "49507-076"
    },
    {
        "city": "Itabaiana",
        "state": "SE",
        "district": "Oviedo Teixeira",
        "street": "Rua José Vieira Menezes",
        "zipcode": "49507-665"
    },
    {
        "city": "Itabaiana",
        "state": "SE",
        "district": "Serrano",
        "street": "Rua Manoel Antonio de Oliveira",
        "zipcode": "49503-000"
    },
    {
        "city": "Itabaiana",
        "state": "SE",
        "district": "Serrano",
        "street": "Avenida Treze de Junho",
        "zipcode": "49503-015"
    },
    {
        "city": "Itabaiana",
        "state": "SE",
        "district": "Serrano",
        "street": "Travessa Francisco Antonio dos Santos",
        "zipcode": "49503-063"
    },
    {
        "city": "Itabaiana",
        "state": "SE",
        "district": "São Cristóvão",
        "street": "Rua Alaíde Maria Machado",
        "zipcode": "49500-885"
    },
    {
        "city": "Itabaiana",
        "state": "SE",
        "district": "Anízio Amancio de Oliveira",
        "street": "Avenida Rinaldo Mota Santos",
        "zipcode": "49503-315"
    },
    {
        "city": "Itabaiana",
        "state": "SE",
        "district": "Anízio Amancio de Oliveira",
        "street": "Avenida José Aélio de Oliveira",
        "zipcode": "49503-686"
    },
    {
        "city": "Itabaiana",
        "state": "SE",
        "district": "Anízio Amancio de Oliveira",
        "street": "Rua Aurelina do Espírito Santo Oliveira",
        "zipcode": "49503-586"
    },
    {
        "city": "Itabaiana",
        "state": "SE",
        "district": "Anízio Amancio de Oliveira",
        "street": "Avenida Antônio Valter dos Santos",
        "zipcode": "49503-659"
    },
    {
        "city": "Itabaiana",
        "state": "SE",
        "district": "Doutor José Milton Machado",
        "street": "Avenida João Rodrigues da Silva",
        "zipcode": "49506-642"
    },
    {
        "city": "Itabaiana",
        "state": "SE",
        "district": "Centro",
        "street": "Rua José Mesquita da Silveira",
        "zipcode": "49500-277"
    },
    {
        "city": "Itabaiana",
        "state": "SE",
        "district": "Centro",
        "street": "Rua Tobias Barreto",
        "zipcode": "49500-247"
    },
    {
        "city": "Itabaiana",
        "state": "SE",
        "district": "Miguel Teles de Mendonça",
        "street": "Rua Professora Edilvania da Conceição",
        "zipcode": "49505-375"
    },
    {
        "city": "Itabaiana",
        "state": "SE",
        "district": "Rotary Club de Itabaiana",
        "street": "Travessa Antônio da Costa Carvalho",
        "zipcode": "49506-102"
    },
    {
        "city": "Itabaiana",
        "state": "SE",
        "district": "Doutor José Milton Machado",
        "street": "Rua Prece Pai Exu Novo",
        "zipcode": "49506-624"
    },
    {
        "city": "Itabaiana",
        "state": "SE",
        "district": "",
        "street": "Rua Principal",
        "zipcode": "49500-990"
    },
    {
        "city": "Itabaiana",
        "state": "SE",
        "district": "São Cristóvão",
        "street": "Travessa Vereador Vilobaldo José de Oliveira",
        "zipcode": "49500-612"
    },
    {
        "city": "Itabaiana",
        "state": "SE",
        "district": "Rotary Club de Itabaiana",
        "street": "Travessa José Edson LIma",
        "zipcode": "49506-060"
    },
    {
        "city": "Itabaiana",
        "state": "SE",
        "district": "Mamede Paes Mendonça",
        "street": "Travessa Francisco Teles de Mendonça",
        "zipcode": "49509-176"
    },
    {
        "city": "Itabaiana",
        "state": "SE",
        "district": "Anízio Amancio de Oliveira",
        "street": "Rua Juca Monteiro",
        "zipcode": "49503-318"
    },
    {
        "city": "Itabaiana",
        "state": "SE",
        "district": "Oviedo Teixeira",
        "street": "Rodovia João Paulo II",
        "zipcode": "49507-510"
    },
    {
        "city": "Itabaiana",
        "state": "SE",
        "district": "Doutor José Milton Machado",
        "street": "Rua Eliotério Alves dos Santos",
        "zipcode": "49506-843"
    },
    {
        "city": "Itabaiana",
        "state": "SE",
        "district": "Porto",
        "street": "Avenida Zefinha de Capitulino",
        "zipcode": "49510-145"
    },
    {
        "city": "Itabaiana",
        "state": "SE",
        "district": "Queimadas",
        "street": "Rua Rosa Perpétua de Jesus",
        "zipcode": "49511-590"
    },
    {
        "city": "Itabaiana",
        "state": "SE",
        "district": "Mamede Paes Mendonça",
        "street": "Rua José Eraldo dos Santos",
        "zipcode": "49509-221"
    },
    {
        "city": "Itabaiana",
        "state": "SE",
        "district": "Anízio Amancio de Oliveira",
        "street": "Rua Raimunda Santana",
        "zipcode": "49503-531"
    },
    {
        "city": "Itabaiana",
        "state": "SE",
        "district": "Mamede Paes Mendonça",
        "street": "Rua Maria de Lourdes Cunha",
        "zipcode": "49509-248"
    },
    {
        "city": "Itabaiana",
        "state": "SE",
        "district": "Porto",
        "street": "Rua José Francisco de Andrade",
        "zipcode": "49510-195"
    },
    {
        "city": "Itabaiana",
        "state": "SE",
        "district": "Rotary Club de Itabaiana",
        "street": "Rua Isaac Antônio de Jesus",
        "zipcode": "49506-216"
    },
    {
        "city": "Itabaiana",
        "state": "SE",
        "district": "Serrano",
        "street": "Travessa José Ferreira de Santana",
        "zipcode": "49503-171"
    },
    {
        "city": "Itabaiana",
        "state": "SE",
        "district": "Porto",
        "street": "Rua Izael Vieira de Jesus",
        "zipcode": "49509-650"
    },
    {
        "city": "Itabaiana",
        "state": "SE",
        "district": "Rotary Club de Itabaiana",
        "street": "Rua Carlos Alberto Silveira Lima",
        "zipcode": "49506-222"
    },
    {
        "city": "Itabaiana",
        "state": "SE",
        "district": "Porto",
        "street": "Rua Brasiliano Antonio Batista Santos",
        "zipcode": "49509-775"
    },
    {
        "city": "Itabaiana",
        "state": "SE",
        "district": "Mamede Paes Mendonça",
        "street": "Rua Maria Eunice de Jesus",
        "zipcode": "49509-254"
    },
    {
        "city": "Itabaiana",
        "state": "SE",
        "district": "Centro",
        "street": "Rua Coronel José Cavalcante",
        "zipcode": "49500-082"
    },
    {
        "city": "Itabaiana",
        "state": "SE",
        "district": "Marianga",
        "street": "Rua B (Cond Zilda Arns)",
        "zipcode": "49504-453"
    },
    {
        "city": "Itabaiana",
        "state": "SE",
        "district": "Porto",
        "street": "Rua São João",
        "zipcode": "49509-805"
    }
]