[
    {
        "city": "Lagarto",
        "state": "SE",
        "district": "Centro",
        "street": "Rua Doutor Lupicinio Barros 94",
        "zipcode": "49400-970"
    },
    {
        "city": "Lagarto",
        "state": "SE",
        "district": "Centro",
        "street": "Avenida Principal s/n",
        "zipcode": "49400-972"
    },
    {
        "city": "Lagarto",
        "state": "SE",
        "district": "Centro",
        "street": "Pra√ßa Do Mercado s/n",
        "zipcode": "49400-974"
    },
    {
        "city": "Lagarto",
        "state": "SE",
        "district": "",
        "street": "",
        "zipcode": "49400-000"
    },
    {
        "city": "Lagarto",
        "state": "SE",
        "district": "Centro",
        "street": "Rua Principal",
        "zipcode": "49400-977"
    },
    {
        "city": "Lagarto",
        "state": "SE",
        "district": "Centro",
        "street": "Estrada Principal s/n",
        "zipcode": "49400-975"
    },
    {
        "city": "Lagarto",
        "state": "SE",
        "district": "Centro",
        "street": "Rua Principal s/n",
        "zipcode": "49400-976"
    },
    {
        "city": "Lagarto",
        "state": "SE",
        "district": null,
        "street": "Rua Principal",
        "zipcode": "49400-990"
    },
    {
        "city": "Lagarto",
        "state": "SE",
        "district": "Centro",
        "street": "Acesso Principal s/n",
        "zipcode": "49400-973"
    },
    {
        "city": "Lagarto",
        "state": "SE",
        "district": "Centro",
        "street": "Rua Principal s/n",
        "zipcode": "49400-971"
    }
]