[
    {
        "city": "Guapimirim",
        "state": "RJ",
        "district": "Iconha",
        "street": "Rua das Tulipas",
        "zipcode": "25949-175"
    },
    {
        "city": "Guapimirim",
        "state": "RJ",
        "district": "Vale das Pedrinhas",
        "street": "Rua Altenive da Rosa",
        "zipcode": "25940-795"
    },
    {
        "city": "Guapimirim",
        "state": "RJ",
        "district": "Vale Jequitibá",
        "street": "Rua Mateus Sommer",
        "zipcode": "25946-619"
    },
    {
        "city": "Guapimirim",
        "state": "RJ",
        "district": "Parada Ideal",
        "street": "Rua A (Jd Sta Cláudia)",
        "zipcode": "25942-756"
    },
    {
        "city": "Guapimirim",
        "state": "RJ",
        "district": "Bananal",
        "street": "Rua Ivo Ferreira",
        "zipcode": "25946-482"
    },
    {
        "city": "Guapimirim",
        "state": "RJ",
        "district": "Cantagalo",
        "street": "Rua dos Cambucás",
        "zipcode": "25945-428"
    },
    {
        "city": "Guapimirim",
        "state": "RJ",
        "district": "Parada Ideal",
        "street": "Rua Antônio de Souza",
        "zipcode": "25942-708"
    },
    {
        "city": "Guapimirim",
        "state": "RJ",
        "district": "Cantagalo",
        "street": "Rua E (Jd Itamonte)",
        "zipcode": "25945-368"
    },
    {
        "city": "Guapimirim",
        "state": "RJ",
        "district": "Vale das Pedrinhas",
        "street": "Rua Miguel Fintelmam Júnior",
        "zipcode": "25940-595"
    },
    {
        "city": "Guapimirim",
        "state": "RJ",
        "district": "Corujas",
        "street": "Rua dos Guaxos",
        "zipcode": "25948-110"
    },
    {
        "city": "Guapimirim",
        "state": "RJ",
        "district": "Vale das Pedrinhas",
        "street": "Rua Maria Luiza de Abreu",
        "zipcode": "25940-800"
    },
    {
        "city": "Guapimirim",
        "state": "RJ",
        "district": "Vale das Pedrinhas",
        "street": "Rua Raulino Correia",
        "zipcode": "25940-540"
    },
    {
        "city": "Guapimirim",
        "state": "RJ",
        "district": "Nova Marília",
        "street": "Rua Orlando Rodrigues de Sá",
        "zipcode": "25941-170"
    },
    {
        "city": "Guapimirim",
        "state": "RJ",
        "district": "Cidade Jardim Guapimirim",
        "street": "Avenida Borguignom",
        "zipcode": "25943-419"
    },
    {
        "city": "Guapimirim",
        "state": "RJ",
        "district": "Cantagalo",
        "street": "Rua Margarida Nery Portela",
        "zipcode": "25945-336"
    },
    {
        "city": "Guapimirim",
        "state": "RJ",
        "district": "Centro",
        "street": "Rua B (Vl Iporã)",
        "zipcode": "25946-121"
    },
    {
        "city": "Guapimirim",
        "state": "RJ",
        "district": "Limoeiro",
        "street": "Rua XIV (Cond Alpha I)",
        "zipcode": "25948-765"
    },
    {
        "city": "Guapimirim",
        "state": "RJ",
        "district": "Cidade Jardim Guapimirim",
        "street": "Rua José Furtado da Costa",
        "zipcode": "25943-386"
    },
    {
        "city": "Guapimirim",
        "state": "RJ",
        "district": "Cotia",
        "street": "Rua Fiscal Nereu Correa Vivas Filho",
        "zipcode": "25947-010"
    },
    {
        "city": "Guapimirim",
        "state": "RJ",
        "district": "Bananal",
        "street": "Rua Francisca Maria da Silva",
        "zipcode": "25946-476"
    },
    {
        "city": "Guapimirim",
        "state": "RJ",
        "district": "Vale das Pedrinhas",
        "street": "Rua Francisco Paes Barreto",
        "zipcode": "25940-705"
    },
    {
        "city": "Guapimirim",
        "state": "RJ",
        "district": "Vila Olímpia",
        "street": "Rua Daniel Medeiros Alves",
        "zipcode": "25940-208"
    },
    {
        "city": "Guapimirim",
        "state": "RJ",
        "district": "Limoeiro",
        "street": "Rua A (Ch E Rios)",
        "zipcode": "25948-820"
    },
    {
        "city": "Guapimirim",
        "state": "RJ",
        "district": "Cadetes Fabres",
        "street": "Rua Eduardo Francisco Muniz (1º Zona)",
        "zipcode": "25943-658"
    },
    {
        "city": "Guapimirim",
        "state": "RJ",
        "district": "Monte Oliveti",
        "street": "Rodovia Santos Dumont",
        "zipcode": "25948-268"
    },
    {
        "city": "Guapimirim",
        "state": "RJ",
        "district": "Limoeiro",
        "street": "Rua VIII (Cond Alpha II)",
        "zipcode": "25948-705"
    },
    {
        "city": "Guapimirim",
        "state": "RJ",
        "district": "Citrolândia",
        "street": "Rua Três (Gja S Marcos)",
        "zipcode": "25942-255"
    },
    {
        "city": "Guapimirim",
        "state": "RJ",
        "district": "Parque Santa Eugênia",
        "street": "Rua Oliveira José de Freitas",
        "zipcode": "25943-280"
    },
    {
        "city": "Guapimirim",
        "state": "RJ",
        "district": "Cotia",
        "street": "Rua Alfa",
        "zipcode": "25947-052"
    },
    {
        "city": "Guapimirim",
        "state": "RJ",
        "district": "Parada Ideal",
        "street": "Rua Angélica",
        "zipcode": "25942-636"
    },
    {
        "city": "Guapimirim",
        "state": "RJ",
        "district": "Garrafão",
        "street": "Estrada do Limoeiro",
        "zipcode": "25948-532"
    },
    {
        "city": "Guapimirim",
        "state": "RJ",
        "district": "Vale das Pedrinhas",
        "street": "Rua Felipe dos Santos",
        "zipcode": "25940-560"
    },
    {
        "city": "Guapimirim",
        "state": "RJ",
        "district": "Parada Modelo",
        "street": "Rua B (Jd Modelo)",
        "zipcode": "25943-524"
    },
    {
        "city": "Guapimirim",
        "state": "RJ",
        "district": "Vale das Pedrinhas",
        "street": "Rua Eduardo Pereira Martins",
        "zipcode": "25940-660"
    },
    {
        "city": "Guapimirim",
        "state": "RJ",
        "district": "Parada Modelo",
        "street": "Rua José Carlos do Prado",
        "zipcode": "25943-560"
    },
    {
        "city": "Guapimirim",
        "state": "RJ",
        "district": "Parada Modelo",
        "street": "Rua João Raimundo de Almeida",
        "zipcode": "25943-566"
    },
    {
        "city": "Guapimirim",
        "state": "RJ",
        "district": "Parque Fleixal",
        "street": "Rua Claudionor Batista",
        "zipcode": "25946-334"
    },
    {
        "city": "Guapimirim",
        "state": "RJ",
        "district": "Parque Nossa Senhora da Ajuda",
        "street": "Rua Seis",
        "zipcode": "25941-590"
    },
    {
        "city": "Guapimirim",
        "state": "RJ",
        "district": "Caneca Fina",
        "street": "Rua Canela",
        "zipcode": "25949-460"
    },
    {
        "city": "Guapimirim",
        "state": "RJ",
        "district": "Limoeiro",
        "street": "Rua C (Ch E Rios)",
        "zipcode": "25948-830"
    },
    {
        "city": "Guapimirim",
        "state": "RJ",
        "district": "Paiol",
        "street": "Rua Hamilton Rego Melo",
        "zipcode": "25945-859"
    },
    {
        "city": "Guapimirim",
        "state": "RJ",
        "district": "Cantagalo",
        "street": "Rua Yvone",
        "zipcode": "25945-308"
    },
    {
        "city": "Guapimirim",
        "state": "RJ",
        "district": "Vale das Pedrinhas",
        "street": "Rua Claudina Maria de Jesus",
        "zipcode": "25940-335"
    },
    {
        "city": "Guapimirim",
        "state": "RJ",
        "district": "Cantagalo",
        "street": "Estrada Imperial",
        "zipcode": "25945-436"
    },
    {
        "city": "Guapimirim",
        "state": "RJ",
        "district": "Cadetes Fabres",
        "street": "Rua K (Cond Lg dos Cisnes)",
        "zipcode": "25943-794"
    },
    {
        "city": "Guapimirim",
        "state": "RJ",
        "district": "Parada Modelo",
        "street": "Praça Cinco",
        "zipcode": "25943-491"
    },
    {
        "city": "Guapimirim",
        "state": "RJ",
        "district": "Cotia",
        "street": "Rua Bom Jardim (Lot Vivendas de Guapi)",
        "zipcode": "25947-065"
    },
    {
        "city": "Guapimirim",
        "state": "RJ",
        "district": "Quinta Mariana",
        "street": "Rua G (Jd Qta Mariana)",
        "zipcode": "25946-559"
    },
    {
        "city": "Guapimirim",
        "state": "RJ",
        "district": "Limoeiro",
        "street": "Rua VI (Cond Alpha I)",
        "zipcode": "25948-745"
    },
    {
        "city": "Guapimirim",
        "state": "RJ",
        "district": "Cidade Jardim Guapimirim",
        "street": "Rodovia Santos Dumont",
        "zipcode": "25943-398"
    },
    {
        "city": "Guapimirim",
        "state": "RJ",
        "district": "Parada Modelo",
        "street": "Rua O",
        "zipcode": "25943-635"
    },
    {
        "city": "Guapimirim",
        "state": "RJ",
        "district": "Centro",
        "street": "Rua J (Lot Teixeira)",
        "zipcode": "25946-178"
    },
    {
        "city": "Guapimirim",
        "state": "RJ",
        "district": "Centro",
        "street": "Rua I (Lot Teixeira)",
        "zipcode": "25946-181"
    },
    {
        "city": "Guapimirim",
        "state": "RJ",
        "district": "Centro",
        "street": "Rua Doutor Felipe Thiago Gomes",
        "zipcode": "25946-217"
    },
    {
        "city": "Guapimirim",
        "state": "RJ",
        "district": "Cotia",
        "street": "Rua Macaé (Lot Vivendas de Guapi)",
        "zipcode": "25947-063"
    },
    {
        "city": "Guapimirim",
        "state": "RJ",
        "district": "Várzea Alegre",
        "street": "Rua Dona Anita",
        "zipcode": "25940-104"
    },
    {
        "city": "Guapimirim",
        "state": "RJ",
        "district": "Várzea Alegre",
        "street": "Rua Dona Beatriz",
        "zipcode": "25940-128"
    },
    {
        "city": "Guapimirim",
        "state": "RJ",
        "district": "Várzea Alegre",
        "street": "Rua Dona Del Carmem",
        "zipcode": "25940-134"
    },
    {
        "city": "Guapimirim",
        "state": "RJ",
        "district": "Várzea Alegre",
        "street": "Rua Dona Fabiana",
        "zipcode": "25940-137"
    },
    {
        "city": "Guapimirim",
        "state": "RJ",
        "district": "Várzea Alegre",
        "street": "Rua Dona Alice",
        "zipcode": "25940-140"
    },
    {
        "city": "Guapimirim",
        "state": "RJ",
        "district": "Várzea Alegre",
        "street": "Rua Dona Alcione",
        "zipcode": "25940-146"
    },
    {
        "city": "Guapimirim",
        "state": "RJ",
        "district": "Várzea Alegre",
        "street": "Avenida Várzea Alegre",
        "zipcode": "25940-152"
    },
    {
        "city": "Guapimirim",
        "state": "RJ",
        "district": "Centro",
        "street": "Avenida Ita",
        "zipcode": "25946-187"
    },
    {
        "city": "Guapimirim",
        "state": "RJ",
        "district": "Várzea Alegre",
        "street": "Estrada do Contorno",
        "zipcode": "25940-155"
    },
    {
        "city": "Guapimirim",
        "state": "RJ",
        "district": "Cantagalo",
        "street": "Estrada da Cascata",
        "zipcode": "25945-300"
    },
    {
        "city": "Guapimirim",
        "state": "RJ",
        "district": "Centro",
        "street": "Rua Nova",
        "zipcode": "25946-172"
    },
    {
        "city": "Guapimirim",
        "state": "RJ",
        "district": "Citrolândia",
        "street": "Rua Sargento Carlos Alberto Batista",
        "zipcode": "25942-510"
    },
    {
        "city": "Guapimirim",
        "state": "RJ",
        "district": "Centro",
        "street": "Rua Sargento Mendes",
        "zipcode": "25946-112"
    },
    {
        "city": "Guapimirim",
        "state": "RJ",
        "district": "Centro",
        "street": "Estrada da Caneca Fina",
        "zipcode": "25946-091"
    },
    {
        "city": "Guapimirim",
        "state": "RJ",
        "district": "Centro",
        "street": "Estrada Martha Alcântara Fares",
        "zipcode": "25946-103"
    },
    {
        "city": "Guapimirim",
        "state": "RJ",
        "district": "Centro",
        "street": "Estrada da Barreira",
        "zipcode": "25946-070"
    },
    {
        "city": "Guapimirim",
        "state": "RJ",
        "district": "Várzea Alegre",
        "street": "Rua Dona Sandra",
        "zipcode": "25940-092"
    },
    {
        "city": "Guapimirim",
        "state": "RJ",
        "district": "Cadetes Fabres",
        "street": "Estrada Curitiba",
        "zipcode": "25943-654"
    },
    {
        "city": "Guapimirim",
        "state": "RJ",
        "district": "Parada Ideal",
        "street": "Rua Vera Lúcia Trindade",
        "zipcode": "25942-684"
    },
    {
        "city": "Guapimirim",
        "state": "RJ",
        "district": "Cadetes Fabres",
        "street": "Rua B (Cond Lg dos Cisnes)",
        "zipcode": "25943-770"
    },
    {
        "city": "Guapimirim",
        "state": "RJ",
        "district": "Paiol",
        "street": "Rua João Ferreira de Abreu",
        "zipcode": "25945-874"
    },
    {
        "city": "Guapimirim",
        "state": "RJ",
        "district": "Segredo",
        "street": "Rua Orílio Pícoli",
        "zipcode": "25946-690"
    },
    {
        "city": "Guapimirim",
        "state": "RJ",
        "district": "Citrolândia",
        "street": "Rua São Lourenço",
        "zipcode": "25942-385"
    },
    {
        "city": "Guapimirim",
        "state": "RJ",
        "district": "Iconha",
        "street": "Rua das Saudades",
        "zipcode": "25949-190"
    },
    {
        "city": "Guapimirim",
        "state": "RJ",
        "district": "Paiol",
        "street": "Rua José Saciloti",
        "zipcode": "25945-871"
    },
    {
        "city": "Guapimirim",
        "state": "RJ",
        "district": "Parque Fleixal",
        "street": "Rua Ary Vianna",
        "zipcode": "25946-298"
    },
    {
        "city": "Guapimirim",
        "state": "RJ",
        "district": "Iconha",
        "street": "Rua Ione",
        "zipcode": "25949-040"
    },
    {
        "city": "Guapimirim",
        "state": "RJ",
        "district": "Paiol",
        "street": "Rua Estanislau Brisson",
        "zipcode": "25945-862"
    },
    {
        "city": "Guapimirim",
        "state": "RJ",
        "district": "Parque Nossa Senhora da Ajuda",
        "street": "Rua Quatro",
        "zipcode": "25941-490"
    },
    {
        "city": "Guapimirim",
        "state": "RJ",
        "district": "Cotia",
        "street": "Rua V",
        "zipcode": "25947-100"
    },
    {
        "city": "Guapimirim",
        "state": "RJ",
        "district": "Várzea Alegre",
        "street": "Rua Simone",
        "zipcode": "25940-149"
    },
    {
        "city": "Guapimirim",
        "state": "RJ",
        "district": "Citrolândia",
        "street": "Rua São Miguel",
        "zipcode": "25942-395"
    },
    {
        "city": "Guapimirim",
        "state": "RJ",
        "district": "Cidade Jardim Guapimirim",
        "street": "Rua Valparaíso",
        "zipcode": "25943-371"
    },
    {
        "city": "Guapimirim",
        "state": "RJ",
        "district": "Parada Modelo",
        "street": "Praça Seis",
        "zipcode": "25943-494"
    },
    {
        "city": "Guapimirim",
        "state": "RJ",
        "district": "Várzea Alegre",
        "street": "Rua Dona Domiciana",
        "zipcode": "25940-113"
    },
    {
        "city": "Guapimirim",
        "state": "RJ",
        "district": "Cantagalo",
        "street": "Rua Estrela",
        "zipcode": "25945-384"
    },
    {
        "city": "Guapimirim",
        "state": "RJ",
        "district": "Parada Modelo",
        "street": "Rua Amaro dos Santos",
        "zipcode": "25943-485"
    },
    {
        "city": "Guapimirim",
        "state": "RJ",
        "district": "Vila Olímpia",
        "street": "Avenida do Sol",
        "zipcode": "25940-163"
    },
    {
        "city": "Guapimirim",
        "state": "RJ",
        "district": "Vila Olímpia",
        "street": "Rua Vênus",
        "zipcode": "25940-169"
    },
    {
        "city": "Guapimirim",
        "state": "RJ",
        "district": "Vila Olímpia",
        "street": "Rua Terra",
        "zipcode": "25940-172"
    },
    {
        "city": "Guapimirim",
        "state": "RJ",
        "district": "Vila Olímpia",
        "street": "Rua Marte",
        "zipcode": "25940-175"
    },
    {
        "city": "Guapimirim",
        "state": "RJ",
        "district": "Vila Olímpia",
        "street": "Rua Saturno",
        "zipcode": "25940-181"
    },
    {
        "city": "Guapimirim",
        "state": "RJ",
        "district": "Vila Olímpia",
        "street": "Rua Copérnico",
        "zipcode": "25940-187"
    },
    {
        "city": "Guapimirim",
        "state": "RJ",
        "district": "Vila Olímpia",
        "street": "Rua Netuno",
        "zipcode": "25940-190"
    },
    {
        "city": "Guapimirim",
        "state": "RJ",
        "district": "Vila Olímpia",
        "street": "Rua Plutão",
        "zipcode": "25940-193"
    },
    {
        "city": "Guapimirim",
        "state": "RJ",
        "district": "Vila Olímpia",
        "street": "Rua Palas",
        "zipcode": "25940-196"
    },
    {
        "city": "Guapimirim",
        "state": "RJ",
        "district": "Vale das Pedrinhas",
        "street": "Rua Noventa e Dois",
        "zipcode": "25940-535"
    },
    {
        "city": "Guapimirim",
        "state": "RJ",
        "district": "Vila Olímpia",
        "street": "Rua Newton",
        "zipcode": "25940-202"
    },
    {
        "city": "Guapimirim",
        "state": "RJ",
        "district": "Vila Olímpia",
        "street": "Avenida Galileu",
        "zipcode": "25940-205"
    },
    {
        "city": "Guapimirim",
        "state": "RJ",
        "district": "Vila Olímpia",
        "street": "Rua Ceres",
        "zipcode": "25940-211"
    },
    {
        "city": "Guapimirim",
        "state": "RJ",
        "district": "Vila Olímpia",
        "street": "Rua G (Jd Sto Amaro)",
        "zipcode": "25940-217"
    },
    {
        "city": "Guapimirim",
        "state": "RJ",
        "district": "Vila Olímpia",
        "street": "Rua D (Jd Sto Amaro)",
        "zipcode": "25940-220"
    },
    {
        "city": "Guapimirim",
        "state": "RJ",
        "district": "Vila Olímpia",
        "street": "Rua F (Jd Sto Amaro)",
        "zipcode": "25940-223"
    },
    {
        "city": "Guapimirim",
        "state": "RJ",
        "district": "Vila Olímpia",
        "street": "Rua C (Jd Sto Amaro)",
        "zipcode": "25940-226"
    },
    {
        "city": "Guapimirim",
        "state": "RJ",
        "district": "Vila Olímpia",
        "street": "Rua A (Jd Sto Amaro)",
        "zipcode": "25940-235"
    },
    {
        "city": "Guapimirim",
        "state": "RJ",
        "district": "Vila Olímpia",
        "street": "Rua H (Jd Sto Amaro)",
        "zipcode": "25940-238"
    },
    {
        "city": "Guapimirim",
        "state": "RJ",
        "district": "Vale das Pedrinhas",
        "street": "Rua Canal Mirim",
        "zipcode": "25940-270"
    },
    {
        "city": "Guapimirim",
        "state": "RJ",
        "district": "Vale das Pedrinhas",
        "street": "Rua Cento e Quatro",
        "zipcode": "25940-305"
    },
    {
        "city": "Guapimirim",
        "state": "RJ",
        "district": "Vale das Pedrinhas",
        "street": "Rua Noventa e Seis",
        "zipcode": "25940-385"
    },
    {
        "city": "Guapimirim",
        "state": "RJ",
        "district": "Vale das Pedrinhas",
        "street": "Rua Cento e Vinte e Três",
        "zipcode": "25940-395"
    },
    {
        "city": "Guapimirim",
        "state": "RJ",
        "district": "Vale das Pedrinhas",
        "street": "Rua Noventa e Quatro",
        "zipcode": "25940-400"
    },
    {
        "city": "Guapimirim",
        "state": "RJ",
        "district": "Vale das Pedrinhas",
        "street": "Rua Cento e Vinte e Cinco",
        "zipcode": "25940-405"
    },
    {
        "city": "Guapimirim",
        "state": "RJ",
        "district": "Vale das Pedrinhas",
        "street": "Rua Noventa e Sete",
        "zipcode": "25940-410"
    },
    {
        "city": "Guapimirim",
        "state": "RJ",
        "district": "Vale das Pedrinhas",
        "street": "Rua Noventa e Nove",
        "zipcode": "25940-420"
    },
    {
        "city": "Guapimirim",
        "state": "RJ",
        "district": "Vale das Pedrinhas",
        "street": "Rua Cento e Um",
        "zipcode": "25940-425"
    },
    {
        "city": "Guapimirim",
        "state": "RJ",
        "district": "Vale das Pedrinhas",
        "street": "Rua Cento e Vinte e Seis",
        "zipcode": "25940-430"
    },
    {
        "city": "Guapimirim",
        "state": "RJ",
        "district": "Vale das Pedrinhas",
        "street": "Rua Noventa e Três",
        "zipcode": "25940-445"
    },
    {
        "city": "Guapimirim",
        "state": "RJ",
        "district": "Vale das Pedrinhas",
        "street": "Rua Oitenta e Dois",
        "zipcode": "25940-455"
    },
    {
        "city": "Guapimirim",
        "state": "RJ",
        "district": "Vale das Pedrinhas",
        "street": "Rua Cento e Vinte e Quatro",
        "zipcode": "25940-460"
    },
    {
        "city": "Guapimirim",
        "state": "RJ",
        "district": "Vale das Pedrinhas",
        "street": "Rua Oitenta e Três",
        "zipcode": "25940-465"
    },
    {
        "city": "Guapimirim",
        "state": "RJ",
        "district": "Vale das Pedrinhas",
        "street": "Rua Cento e Quinze",
        "zipcode": "25940-325"
    },
    {
        "city": "Guapimirim",
        "state": "RJ",
        "district": "Vale das Pedrinhas",
        "street": "Rua Cento e Quatorze",
        "zipcode": "25940-330"
    },
    {
        "city": "Guapimirim",
        "state": "RJ",
        "district": "Vale das Pedrinhas",
        "street": "Rua Cento e Dezenove",
        "zipcode": "25940-365"
    },
    {
        "city": "Guapimirim",
        "state": "RJ",
        "district": "Vale das Pedrinhas",
        "street": "Rua Cento e Treze",
        "zipcode": "25940-370"
    },
    {
        "city": "Guapimirim",
        "state": "RJ",
        "district": "Vale das Pedrinhas",
        "street": "Rua Cem",
        "zipcode": "25940-380"
    },
    {
        "city": "Guapimirim",
        "state": "RJ",
        "district": "Vale das Pedrinhas",
        "street": "Rua Cento e Dezoito",
        "zipcode": "25940-345"
    },
    {
        "city": "Guapimirim",
        "state": "RJ",
        "district": "Vale das Pedrinhas",
        "street": "Rua Cento e Dezessete",
        "zipcode": "25940-350"
    },
    {
        "city": "Guapimirim",
        "state": "RJ",
        "district": "Vale das Pedrinhas",
        "street": "Rua Cento e Vinte",
        "zipcode": "25940-355"
    },
    {
        "city": "Guapimirim",
        "state": "RJ",
        "district": "Vale das Pedrinhas",
        "street": "Rua Cinquenta e Dois",
        "zipcode": "25940-670"
    },
    {
        "city": "Guapimirim",
        "state": "RJ",
        "district": "Vale das Pedrinhas",
        "street": "Rua Antônio Raposo Tavares",
        "zipcode": "25940-645"
    },
    {
        "city": "Guapimirim",
        "state": "RJ",
        "district": "Várzea Alegre",
        "street": "Rua Dona Josefina",
        "zipcode": "25940-095"
    },
    {
        "city": "Guapimirim",
        "state": "RJ",
        "district": "Vale das Pedrinhas",
        "street": "Rua Francisco Gralato",
        "zipcode": "25940-655"
    },
    {
        "city": "Guapimirim",
        "state": "RJ",
        "district": "Vale das Pedrinhas",
        "street": "Rua Esther Oliva Gaio",
        "zipcode": "25940-650"
    },
    {
        "city": "Guapimirim",
        "state": "RJ",
        "district": "Várzea Alegre",
        "street": "Rua Dona Matilde",
        "zipcode": "25940-101"
    },
    {
        "city": "Guapimirim",
        "state": "RJ",
        "district": "Parada Ideal",
        "street": "Rua Áries",
        "zipcode": "25942-895"
    },
    {
        "city": "Guapimirim",
        "state": "RJ",
        "district": "Vale das Pedrinhas",
        "street": "Rua Leonídio Gomes de Oliveira",
        "zipcode": "25940-290"
    },
    {
        "city": "Guapimirim",
        "state": "RJ",
        "district": "Várzea Alegre",
        "street": "Rua Dona Eda",
        "zipcode": "25940-122"
    },
    {
        "city": "Guapimirim",
        "state": "RJ",
        "district": "Vale das Pedrinhas",
        "street": "Rua Severino Alves da Silva",
        "zipcode": "25940-285"
    },
    {
        "city": "Guapimirim",
        "state": "RJ",
        "district": "Cantagalo",
        "street": "Rua D (Jd Itamonte)",
        "zipcode": "25945-372"
    },
    {
        "city": "Guapimirim",
        "state": "RJ",
        "district": "Cadetes Fabres",
        "street": "Rua D (Cond Lg dos Cisnes)",
        "zipcode": "25943-778"
    },
    {
        "city": "Guapimirim",
        "state": "RJ",
        "district": "Monte Oliveti",
        "street": "Rua I",
        "zipcode": "25948-248"
    },
    {
        "city": "Guapimirim",
        "state": "RJ",
        "district": "Várzea Alegre",
        "street": "Rua Dona Jurema",
        "zipcode": "25940-110"
    },
    {
        "city": "Guapimirim",
        "state": "RJ",
        "district": "Vale das Pedrinhas",
        "street": "Rua José Paulo dos Santos",
        "zipcode": "25940-280"
    },
    {
        "city": "Guapimirim",
        "state": "RJ",
        "district": "Vale das Pedrinhas",
        "street": "Rua Oitenta e Quatro",
        "zipcode": "25940-470"
    },
    {
        "city": "Guapimirim",
        "state": "RJ",
        "district": "Vale das Pedrinhas",
        "street": "Rua Oitenta e Cinco",
        "zipcode": "25940-475"
    },
    {
        "city": "Guapimirim",
        "state": "RJ",
        "district": "Vale das Pedrinhas",
        "street": "Rua Setenta e Nove",
        "zipcode": "25940-485"
    },
    {
        "city": "Guapimirim",
        "state": "RJ",
        "district": "Vale das Pedrinhas",
        "street": "Rua Setenta e Oito",
        "zipcode": "25940-490"
    },
    {
        "city": "Guapimirim",
        "state": "RJ",
        "district": "Vale das Pedrinhas",
        "street": "Rua Setenta e Sete",
        "zipcode": "25940-495"
    },
    {
        "city": "Guapimirim",
        "state": "RJ",
        "district": "Vale das Pedrinhas",
        "street": "Rua Célia Rosa",
        "zipcode": "25940-515"
    },
    {
        "city": "Guapimirim",
        "state": "RJ",
        "district": "Vale das Pedrinhas",
        "street": "Rua Oitenta e Nove",
        "zipcode": "25940-520"
    },
    {
        "city": "Guapimirim",
        "state": "RJ",
        "district": "Vale das Pedrinhas",
        "street": "Rua Noventa",
        "zipcode": "25940-525"
    },
    {
        "city": "Guapimirim",
        "state": "RJ",
        "district": "Vale das Pedrinhas",
        "street": "Rua Noventa e Um",
        "zipcode": "25940-530"
    },
    {
        "city": "Guapimirim",
        "state": "RJ",
        "district": "Vale das Pedrinhas",
        "street": "Rua Setenta e Cinco",
        "zipcode": "25940-545"
    },
    {
        "city": "Guapimirim",
        "state": "RJ",
        "district": "Vale das Pedrinhas",
        "street": "Rua Setenta e Quatro",
        "zipcode": "25940-550"
    },
    {
        "city": "Guapimirim",
        "state": "RJ",
        "district": "Vale das Pedrinhas",
        "street": "Rua Setenta e Três",
        "zipcode": "25940-555"
    },
    {
        "city": "Guapimirim",
        "state": "RJ",
        "district": "Vale das Pedrinhas",
        "street": "Rua Cinquenta e Três",
        "zipcode": "25940-770"
    },
    {
        "city": "Guapimirim",
        "state": "RJ",
        "district": "Nova Marília",
        "street": "Rua Quarenta e Três",
        "zipcode": "25941-060"
    },
    {
        "city": "Guapimirim",
        "state": "RJ",
        "district": "Nova Marília",
        "street": "Rua Quarenta e Cinco",
        "zipcode": "25941-065"
    },
    {
        "city": "Guapimirim",
        "state": "RJ",
        "district": "Nova Marília",
        "street": "Rua Quarenta e Quatro",
        "zipcode": "25941-070"
    },
    {
        "city": "Guapimirim",
        "state": "RJ",
        "district": "Nova Marília",
        "street": "Rua Roberto Bussinger",
        "zipcode": "25941-075"
    },
    {
        "city": "Guapimirim",
        "state": "RJ",
        "district": "Nova Marília",
        "street": "Rua Oitenta e Quatro",
        "zipcode": "25941-085"
    },
    {
        "city": "Guapimirim",
        "state": "RJ",
        "district": "Nova Marília",
        "street": "Rua Oitenta e Três",
        "zipcode": "25941-090"
    },
    {
        "city": "Guapimirim",
        "state": "RJ",
        "district": "Nova Marília",
        "street": "Rua Setenta e Sete",
        "zipcode": "25941-095"
    },
    {
        "city": "Guapimirim",
        "state": "RJ",
        "district": "Nova Marília",
        "street": "Rua Setenta e Seis",
        "zipcode": "25941-100"
    },
    {
        "city": "Guapimirim",
        "state": "RJ",
        "district": "Nova Marília",
        "street": "Rua Setenta e Nove",
        "zipcode": "25941-115"
    },
    {
        "city": "Guapimirim",
        "state": "RJ",
        "district": "Nova Marília",
        "street": "Avenida Quatro",
        "zipcode": "25941-120"
    },
    {
        "city": "Guapimirim",
        "state": "RJ",
        "district": "Nova Marília",
        "street": "Rua Setenta e Cinco",
        "zipcode": "25941-125"
    },
    {
        "city": "Guapimirim",
        "state": "RJ",
        "district": "Vale das Pedrinhas",
        "street": "Rua Trinta e Três",
        "zipcode": "25940-735"
    },
    {
        "city": "Guapimirim",
        "state": "RJ",
        "district": "Vale das Pedrinhas",
        "street": "Rua Trinta e Quatro",
        "zipcode": "25940-745"
    },
    {
        "city": "Guapimirim",
        "state": "RJ",
        "district": "Vale das Pedrinhas",
        "street": "Rua Trinta e Cinco",
        "zipcode": "25940-750"
    },
    {
        "city": "Guapimirim",
        "state": "RJ",
        "district": "Citrolândia",
        "street": "Rua Dez (Vl Citrolândia)",
        "zipcode": "25942-275"
    },
    {
        "city": "Guapimirim",
        "state": "RJ",
        "district": "Nova Marília",
        "street": "Rua Setenta e Oito",
        "zipcode": "25941-130"
    },
    {
        "city": "Guapimirim",
        "state": "RJ",
        "district": "Nova Marília",
        "street": "Rua Pedro Guimarães",
        "zipcode": "25941-145"
    },
    {
        "city": "Guapimirim",
        "state": "RJ",
        "district": "Nova Marília",
        "street": "Rua Paulo Lopes",
        "zipcode": "25941-155"
    },
    {
        "city": "Guapimirim",
        "state": "RJ",
        "district": "Vale das Pedrinhas",
        "street": "Rua Sebastião Castro Caldas",
        "zipcode": "25940-600"
    },
    {
        "city": "Guapimirim",
        "state": "RJ",
        "district": "Vale das Pedrinhas",
        "street": "Rua Félix José Machado",
        "zipcode": "25940-610"
    },
    {
        "city": "Guapimirim",
        "state": "RJ",
        "district": "Vale das Pedrinhas",
        "street": "Rua Marcos Teixeira",
        "zipcode": "25940-605"
    },
    {
        "city": "Guapimirim",
        "state": "RJ",
        "district": "Vale das Pedrinhas",
        "street": "Rua Felipe Amaral",
        "zipcode": "25940-300"
    },
    {
        "city": "Guapimirim",
        "state": "RJ",
        "district": "Vale das Pedrinhas",
        "street": "Rua Marquês de Queluz",
        "zipcode": "25940-590"
    },
    {
        "city": "Guapimirim",
        "state": "RJ",
        "district": "Cadetes Fabres",
        "street": "Rua B (Hotel)",
        "zipcode": "25943-734"
    },
    {
        "city": "Guapimirim",
        "state": "RJ",
        "district": "Vale das Pedrinhas",
        "street": "Rua Sérgio Ribeiro Santa Rita",
        "zipcode": "25940-510"
    },
    {
        "city": "Guapimirim",
        "state": "RJ",
        "district": "Vale das Pedrinhas",
        "street": "Rua José Gomes da Silva",
        "zipcode": "25940-580"
    },
    {
        "city": "Guapimirim",
        "state": "RJ",
        "district": "Vale das Pedrinhas",
        "street": "Rua José da Silva Álvares",
        "zipcode": "25940-565"
    },
    {
        "city": "Guapimirim",
        "state": "RJ",
        "district": "Vale das Pedrinhas",
        "street": "Rua Maria de Lourdes Barbosa Pinheiro",
        "zipcode": "25940-340"
    },
    {
        "city": "Guapimirim",
        "state": "RJ",
        "district": "Vale das Pedrinhas",
        "street": "Rua Joaquim Antônio de Farias",
        "zipcode": "25940-680"
    },
    {
        "city": "Guapimirim",
        "state": "RJ",
        "district": "Vale das Pedrinhas",
        "street": "Rua Bernardo Vieira de Melo",
        "zipcode": "25940-615"
    },
    {
        "city": "Guapimirim",
        "state": "RJ",
        "district": "Vale das Pedrinhas",
        "street": "Rua José Maria da Silva",
        "zipcode": "25940-690"
    },
    {
        "city": "Guapimirim",
        "state": "RJ",
        "district": "Vale das Pedrinhas",
        "street": "Rua Edvaldo Pereira de Souza",
        "zipcode": "25940-790"
    },
    {
        "city": "Guapimirim",
        "state": "RJ",
        "district": "Vale das Pedrinhas",
        "street": "Rua Roque Pereira das Neves",
        "zipcode": "25940-785"
    },
    {
        "city": "Guapimirim",
        "state": "RJ",
        "district": "Vale das Pedrinhas",
        "street": "Rua Valentin Custódio Nunes",
        "zipcode": "25940-295"
    },
    {
        "city": "Guapimirim",
        "state": "RJ",
        "district": "Nova Marília",
        "street": "Rua Engenheiro Paulo Sérgio Oliveira Fonseca",
        "zipcode": "25941-175"
    },
    {
        "city": "Guapimirim",
        "state": "RJ",
        "district": "Citrolândia",
        "street": "Rua Cinco (Aldeia Jarapitu)",
        "zipcode": "25942-430"
    },
    {
        "city": "Guapimirim",
        "state": "RJ",
        "district": "Vale das Pedrinhas",
        "street": "Rua Moreira Cabral",
        "zipcode": "25940-675"
    },
    {
        "city": "Guapimirim",
        "state": "RJ",
        "district": "Vale das Pedrinhas",
        "street": "Rua Mem de Sá",
        "zipcode": "25940-625"
    },
    {
        "city": "Guapimirim",
        "state": "RJ",
        "district": "Vale das Pedrinhas",
        "street": "Rua João da Cunha Fidie",
        "zipcode": "25940-685"
    },
    {
        "city": "Guapimirim",
        "state": "RJ",
        "district": "Cantagalo",
        "street": "Rua Teixeira",
        "zipcode": "25945-376"
    },
    {
        "city": "Guapimirim",
        "state": "RJ",
        "district": "Vale das Pedrinhas",
        "street": "Rua José Eustáquio da Silva",
        "zipcode": "25940-375"
    },
    {
        "city": "Guapimirim",
        "state": "RJ",
        "district": "Vale das Pedrinhas",
        "street": "Rua Cláudio Manuel da Costa",
        "zipcode": "25940-575"
    },
    {
        "city": "Guapimirim",
        "state": "RJ",
        "district": "Vale das Pedrinhas",
        "street": "Rua Vergílio Pereira Filho",
        "zipcode": "25940-780"
    },
    {
        "city": "Guapimirim",
        "state": "RJ",
        "district": "Nova Marília",
        "street": "Rua Pedro Leal",
        "zipcode": "25941-180"
    },
    {
        "city": "Guapimirim",
        "state": "RJ",
        "district": "Nova Marília",
        "street": "Estrada Municipal",
        "zipcode": "25941-185"
    },
    {
        "city": "Guapimirim",
        "state": "RJ",
        "district": "Citrolândia",
        "street": "Rua Quatro (Prq Sta Filomena)",
        "zipcode": "25942-475"
    },
    {
        "city": "Guapimirim",
        "state": "RJ",
        "district": "Citrolândia",
        "street": "Rua Sete (Prq Sta Filomena)",
        "zipcode": "25942-480"
    },
    {
        "city": "Guapimirim",
        "state": "RJ",
        "district": "Citrolândia",
        "street": "Rua Seis (Prq Sta Filomena)",
        "zipcode": "25942-485"
    },
    {
        "city": "Guapimirim",
        "state": "RJ",
        "district": "Citrolândia",
        "street": "Rua Cinco (Prq Sta Filomena)",
        "zipcode": "25942-490"
    },
    {
        "city": "Guapimirim",
        "state": "RJ",
        "district": "Citrolândia",
        "street": "Rua Onze (Prq Sta Filomena)",
        "zipcode": "25942-505"
    },
    {
        "city": "Guapimirim",
        "state": "RJ",
        "district": "Citrolândia",
        "street": "Rua Doze (Prq Sta Filomena)",
        "zipcode": "25942-515"
    },
    {
        "city": "Guapimirim",
        "state": "RJ",
        "district": "Citrolândia",
        "street": "Rua Treze (Prq Sta Filomena)",
        "zipcode": "25942-520"
    },
    {
        "city": "Guapimirim",
        "state": "RJ",
        "district": "Citrolândia",
        "street": "Rua B (Prq Citrolândia)",
        "zipcode": "25942-210"
    },
    {
        "city": "Guapimirim",
        "state": "RJ",
        "district": "Parada Ideal",
        "street": "Rua B3",
        "zipcode": "25942-712"
    },
    {
        "city": "Guapimirim",
        "state": "RJ",
        "district": "Parada Ideal",
        "street": "Rua A4",
        "zipcode": "25942-716"
    },
    {
        "city": "Guapimirim",
        "state": "RJ",
        "district": "Parada Ideal",
        "street": "Rua A5",
        "zipcode": "25942-720"
    },
    {
        "city": "Guapimirim",
        "state": "RJ",
        "district": "Citrolândia",
        "street": "Rua Sete (Vl Citrolândia)",
        "zipcode": "25942-290"
    },
    {
        "city": "Guapimirim",
        "state": "RJ",
        "district": "Parada Ideal",
        "street": "Rua Jorge Mauro",
        "zipcode": "25942-732"
    },
    {
        "city": "Guapimirim",
        "state": "RJ",
        "district": "Citrolândia",
        "street": "Rua Quatro (Aldeia Jarapitu)",
        "zipcode": "25942-435"
    },
    {
        "city": "Guapimirim",
        "state": "RJ",
        "district": "Parque Nossa Senhora da Ajuda",
        "street": "Rua Quarenta e Oito",
        "zipcode": "25941-420"
    },
    {
        "city": "Guapimirim",
        "state": "RJ",
        "district": "Citrolândia",
        "street": "Rua São Carlos",
        "zipcode": "25942-350"
    },
    {
        "city": "Guapimirim",
        "state": "RJ",
        "district": "Parque Nossa Senhora da Ajuda",
        "street": "Rua Vinte e Quatro",
        "zipcode": "25941-530"
    },
    {
        "city": "Guapimirim",
        "state": "RJ",
        "district": "Vale das Pedrinhas",
        "street": "Rua José Martins Corrêa",
        "zipcode": "25940-765"
    },
    {
        "city": "Guapimirim",
        "state": "RJ",
        "district": "Parque Nossa Senhora da Ajuda",
        "street": "Rua Oito",
        "zipcode": "25941-610"
    },
    {
        "city": "Guapimirim",
        "state": "RJ",
        "district": "Parque Nossa Senhora da Ajuda",
        "street": "Rua Vinte e Dois",
        "zipcode": "25941-570"
    },
    {
        "city": "Guapimirim",
        "state": "RJ",
        "district": "Parada Ideal",
        "street": "Rua São Carlos",
        "zipcode": "25942-728"
    },
    {
        "city": "Guapimirim",
        "state": "RJ",
        "district": "Parada Ideal",
        "street": "Estrada Municipal Magé",
        "zipcode": "25942-700"
    },
    {
        "city": "Guapimirim",
        "state": "RJ",
        "district": "Vale das Pedrinhas",
        "street": "Rua Gabriel Soares de Souza",
        "zipcode": "25940-700"
    },
    {
        "city": "Guapimirim",
        "state": "RJ",
        "district": "Parada Ideal",
        "street": "Rua Três (Gja Ideal)",
        "zipcode": "25942-692"
    },
    {
        "city": "Guapimirim",
        "state": "RJ",
        "district": "Parque Nossa Senhora da Ajuda",
        "street": "Rua Cinquenta",
        "zipcode": "25941-400"
    },
    {
        "city": "Guapimirim",
        "state": "RJ",
        "district": "Parada Ideal",
        "street": "Rua Dois (Gja Ideal)",
        "zipcode": "25942-680"
    },
    {
        "city": "Guapimirim",
        "state": "RJ",
        "district": "Parada Ideal",
        "street": "Rua Ronaldo Rodrigues",
        "zipcode": "25942-704"
    },
    {
        "city": "Guapimirim",
        "state": "RJ",
        "district": "Citrolândia",
        "street": "Rua Doze (Vl Citrolândia)",
        "zipcode": "25942-295"
    },
    {
        "city": "Guapimirim",
        "state": "RJ",
        "district": "Vale das Pedrinhas",
        "street": "Rua Manuel Preto",
        "zipcode": "25940-715"
    },
    {
        "city": "Guapimirim",
        "state": "RJ",
        "district": "Parque Nossa Senhora da Ajuda",
        "street": "Rua Nove",
        "zipcode": "25941-620"
    },
    {
        "city": "Guapimirim",
        "state": "RJ",
        "district": "Parque Nossa Senhora da Ajuda",
        "street": "Rua Cinco",
        "zipcode": "25941-510"
    },
    {
        "city": "Guapimirim",
        "state": "RJ",
        "district": "Citrolândia",
        "street": "Rua Seis (Vl Citrolândia)",
        "zipcode": "25942-270"
    },
    {
        "city": "Guapimirim",
        "state": "RJ",
        "district": "Parque Nossa Senhora da Ajuda",
        "street": "Rua Dezessete",
        "zipcode": "25941-470"
    },
    {
        "city": "Guapimirim",
        "state": "RJ",
        "district": "Parque Nossa Senhora da Ajuda",
        "street": "Rua Sete",
        "zipcode": "25941-600"
    },
    {
        "city": "Guapimirim",
        "state": "RJ",
        "district": "Parque Nossa Senhora da Ajuda",
        "street": "Rua Trinta e Três",
        "zipcode": "25941-500"
    },
    {
        "city": "Guapimirim",
        "state": "RJ",
        "district": "Parque Nossa Senhora da Ajuda",
        "street": "Rua Doze",
        "zipcode": "25941-650"
    },
    {
        "city": "Guapimirim",
        "state": "RJ",
        "district": "Parque Nossa Senhora da Ajuda",
        "street": "Rua Quinze",
        "zipcode": "25941-550"
    },
    {
        "city": "Guapimirim",
        "state": "RJ",
        "district": "Parque Nossa Senhora da Ajuda",
        "street": "Avenida da Ajuda",
        "zipcode": "25941-480"
    },
    {
        "city": "Guapimirim",
        "state": "RJ",
        "district": "Citrolândia",
        "street": "Rua Um (Aldeia Jarapitu)",
        "zipcode": "25942-450"
    },
    {
        "city": "Guapimirim",
        "state": "RJ",
        "district": "Citrolândia",
        "street": "Avenida Ayrton Senna",
        "zipcode": "25942-460"
    },
    {
        "city": "Guapimirim",
        "state": "RJ",
        "district": "Citrolândia",
        "street": "Avenida Hilton de Araújo",
        "zipcode": "25942-495"
    },
    {
        "city": "Guapimirim",
        "state": "RJ",
        "district": "Vale das Pedrinhas",
        "street": "Rua Álvaro da Costa Macedo",
        "zipcode": "25940-695"
    },
    {
        "city": "Guapimirim",
        "state": "RJ",
        "district": "Parada Ideal",
        "street": "Rua José de Aguiar",
        "zipcode": "25942-696"
    },
    {
        "city": "Guapimirim",
        "state": "RJ",
        "district": "Vale das Pedrinhas",
        "street": "Rua João Ribeiro Pessoa",
        "zipcode": "25940-760"
    },
    {
        "city": "Guapimirim",
        "state": "RJ",
        "district": "Parque Nossa Senhora da Ajuda",
        "street": "Rua Dezesseis",
        "zipcode": "25941-450"
    },
    {
        "city": "Guapimirim",
        "state": "RJ",
        "district": "Parque Nossa Senhora da Ajuda",
        "street": "Rua Dezoito",
        "zipcode": "25941-460"
    },
    {
        "city": "Guapimirim",
        "state": "RJ",
        "district": "Vale das Pedrinhas",
        "street": "Estrada Leonídia Maria dos Santos",
        "zipcode": "25940-725"
    },
    {
        "city": "Guapimirim",
        "state": "RJ",
        "district": "Parque Nossa Senhora da Ajuda",
        "street": "Rua Onze",
        "zipcode": "25941-630"
    },
    {
        "city": "Guapimirim",
        "state": "RJ",
        "district": "Parque Nossa Senhora da Ajuda",
        "street": "Rua Vinte e Um",
        "zipcode": "25941-520"
    },
    {
        "city": "Guapimirim",
        "state": "RJ",
        "district": "Vale das Pedrinhas",
        "street": "Rua José de Alencar",
        "zipcode": "25940-710"
    },
    {
        "city": "Guapimirim",
        "state": "RJ",
        "district": "Parque Nossa Senhora da Ajuda",
        "street": "Rua Vinte",
        "zipcode": "25941-560"
    },
    {
        "city": "Guapimirim",
        "state": "RJ",
        "district": "Parque Nossa Senhora da Ajuda",
        "street": "Rua Quarenta e Seis",
        "zipcode": "25941-440"
    },
    {
        "city": "Guapimirim",
        "state": "RJ",
        "district": "Vale das Pedrinhas",
        "street": "Rua Alexandre Gusmão",
        "zipcode": "25940-730"
    },
    {
        "city": "Guapimirim",
        "state": "RJ",
        "district": "Parque Nossa Senhora da Ajuda",
        "street": "Rua Quarenta e Sete",
        "zipcode": "25941-430"
    },
    {
        "city": "Guapimirim",
        "state": "RJ",
        "district": "Citrolândia",
        "street": "Rua Oito (Vl Citrolândia)",
        "zipcode": "25942-285"
    },
    {
        "city": "Guapimirim",
        "state": "RJ",
        "district": "Parque Nossa Senhora da Ajuda",
        "street": "Rua Dezenove",
        "zipcode": "25941-540"
    },
    {
        "city": "Guapimirim",
        "state": "RJ",
        "district": "Parada Ideal",
        "street": "Estrada das Águas da Prefeitura",
        "zipcode": "25942-652"
    },
    {
        "city": "Guapimirim",
        "state": "RJ",
        "district": "Parada Ideal",
        "street": "Rua Onze",
        "zipcode": "25942-668"
    },
    {
        "city": "Guapimirim",
        "state": "RJ",
        "district": "Citrolândia",
        "street": "Avenida Presidente João Café Filho",
        "zipcode": "25942-220"
    },
    {
        "city": "Guapimirim",
        "state": "RJ",
        "district": "Parque Santa Eugênia",
        "street": "Rua da Esperança",
        "zipcode": "25943-224"
    },
    {
        "city": "Guapimirim",
        "state": "RJ",
        "district": "Parque Santa Eugênia",
        "street": "Travessa da Esperança",
        "zipcode": "25943-228"
    },
    {
        "city": "Guapimirim",
        "state": "RJ",
        "district": "Parque Santa Eugênia",
        "street": "Rua Afonso Pena",
        "zipcode": "25943-232"
    },
    {
        "city": "Guapimirim",
        "state": "RJ",
        "district": "Parque Santa Eugênia",
        "street": "Rua Darcy Rosa",
        "zipcode": "25943-244"
    },
    {
        "city": "Guapimirim",
        "state": "RJ",
        "district": "Parque Santa Eugênia",
        "street": "Rua Orlanda Rosa",
        "zipcode": "25943-252"
    },
    {
        "city": "Guapimirim",
        "state": "RJ",
        "district": "Parque Santa Eugênia",
        "street": "Rua Irineu Maciel",
        "zipcode": "25943-264"
    },
    {
        "city": "Guapimirim",
        "state": "RJ",
        "district": "Parque Santa Eugênia",
        "street": "Rua Abel Rosa",
        "zipcode": "25943-268"
    },
    {
        "city": "Guapimirim",
        "state": "RJ",
        "district": "Parque Santa Eugênia",
        "street": "Estrada do Fojo",
        "zipcode": "25943-276"
    },
    {
        "city": "Guapimirim",
        "state": "RJ",
        "district": "Citrolândia",
        "street": "Avenida Guanabara",
        "zipcode": "25942-405"
    },
    {
        "city": "Guapimirim",
        "state": "RJ",
        "district": "Citrolândia",
        "street": "Estrada da Jaqueira",
        "zipcode": "25942-400"
    },
    {
        "city": "Guapimirim",
        "state": "RJ",
        "district": "Cidade Jardim Guapimirim",
        "street": "Rua Manoel de Oliveira",
        "zipcode": "25943-410"
    },
    {
        "city": "Guapimirim",
        "state": "RJ",
        "district": "Parada Ideal",
        "street": "Rua Celso Magno",
        "zipcode": "25942-736"
    },
    {
        "city": "Guapimirim",
        "state": "RJ",
        "district": "Parada Ideal",
        "street": "Avenida Ideal",
        "zipcode": "25942-744"
    },
    {
        "city": "Guapimirim",
        "state": "RJ",
        "district": "Cidade Jardim Guapimirim",
        "street": "Rua K",
        "zipcode": "25943-416"
    },
    {
        "city": "Guapimirim",
        "state": "RJ",
        "district": "Cidade Jardim Guapimirim",
        "street": "Rua P",
        "zipcode": "25943-422"
    },
    {
        "city": "Guapimirim",
        "state": "RJ",
        "district": "Parada Modelo",
        "street": "Rua Projetada Quatro",
        "zipcode": "25943-473"
    },
    {
        "city": "Guapimirim",
        "state": "RJ",
        "district": "Parada Modelo",
        "street": "Rua Said Tanuri",
        "zipcode": "25943-476"
    },
    {
        "city": "Guapimirim",
        "state": "RJ",
        "district": "Parada Modelo",
        "street": "Rua Projetada Três",
        "zipcode": "25943-497"
    },
    {
        "city": "Guapimirim",
        "state": "RJ",
        "district": "Citrolândia",
        "street": "Rua Cinco (Vl Citrolândia)",
        "zipcode": "25942-265"
    },
    {
        "city": "Guapimirim",
        "state": "RJ",
        "district": "Citrolândia",
        "street": "Rua dos Pioneiros",
        "zipcode": "25942-225"
    },
    {
        "city": "Guapimirim",
        "state": "RJ",
        "district": "Citrolândia",
        "street": "Rua Dois (Aldeia Jarapitu)",
        "zipcode": "25942-445"
    },
    {
        "city": "Guapimirim",
        "state": "RJ",
        "district": "Citrolândia",
        "street": "Rua A (Prq Citrolândia)",
        "zipcode": "25942-215"
    },
    {
        "city": "Guapimirim",
        "state": "RJ",
        "district": "Cidade Jardim Guapimirim",
        "street": "Rua José Bastos",
        "zipcode": "25943-401"
    },
    {
        "city": "Guapimirim",
        "state": "RJ",
        "district": "Citrolândia",
        "street": "Rua Dois (Gja S Marcos)",
        "zipcode": "25942-260"
    },
    {
        "city": "Guapimirim",
        "state": "RJ",
        "district": "Parada Modelo",
        "street": "Rua Lotério de Azevedo",
        "zipcode": "25943-479"
    },
    {
        "city": "Guapimirim",
        "state": "RJ",
        "district": "Citrolândia",
        "street": "Rua Treze (Vl Citrolândia)",
        "zipcode": "25942-300"
    },
    {
        "city": "Guapimirim",
        "state": "RJ",
        "district": "Cidade Jardim Guapimirim",
        "street": "Rua Álvaro José Paz",
        "zipcode": "25943-389"
    },
    {
        "city": "Guapimirim",
        "state": "RJ",
        "district": "Cidade Jardim Guapimirim",
        "street": "Rua Presbítero Oscar Lopes da Silva",
        "zipcode": "25943-407"
    },
    {
        "city": "Guapimirim",
        "state": "RJ",
        "district": "Citrolândia",
        "street": "Rua Três (Aldeia Jarapitu)",
        "zipcode": "25942-440"
    },
    {
        "city": "Guapimirim",
        "state": "RJ",
        "district": "Citrolândia",
        "street": "Rua São Gerônimo",
        "zipcode": "25942-370"
    },
    {
        "city": "Guapimirim",
        "state": "RJ",
        "district": "Parada Ideal",
        "street": "Rua José Joaquim de Lima",
        "zipcode": "25942-624"
    },
    {
        "city": "Guapimirim",
        "state": "RJ",
        "district": "Parada Ideal",
        "street": "Rua Marquês de Montalvão",
        "zipcode": "25942-628"
    },
    {
        "city": "Guapimirim",
        "state": "RJ",
        "district": "Parada Ideal",
        "street": "Rua Pedro Labarut",
        "zipcode": "25942-640"
    },
    {
        "city": "Guapimirim",
        "state": "RJ",
        "district": "Citrolândia",
        "street": "Rua São Paulo",
        "zipcode": "25942-330"
    },
    {
        "city": "Guapimirim",
        "state": "RJ",
        "district": "Cadetes Fabres",
        "street": "Rua Mário Medeiros",
        "zipcode": "25944-060"
    },
    {
        "city": "Guapimirim",
        "state": "RJ",
        "district": "Citrolândia",
        "street": "Rua Santa Margarida",
        "zipcode": "25942-360"
    },
    {
        "city": "Guapimirim",
        "state": "RJ",
        "district": "Parada Ideal",
        "street": "Rua Princesa Leopoldina",
        "zipcode": "25942-648"
    },
    {
        "city": "Guapimirim",
        "state": "RJ",
        "district": "Citrolândia",
        "street": "Rua Nove (Aldeia Jarapitu)",
        "zipcode": "25942-415"
    },
    {
        "city": "Guapimirim",
        "state": "RJ",
        "district": "Parada Ideal",
        "street": "Rua G (Jd Sta Cláudia)",
        "zipcode": "25942-752"
    },
    {
        "city": "Guapimirim",
        "state": "RJ",
        "district": "Cidade Jardim Guapimirim",
        "street": "Avenida Anany Charles Vieira",
        "zipcode": "25943-383"
    },
    {
        "city": "Guapimirim",
        "state": "RJ",
        "district": "Parada Modelo",
        "street": "Rua Luiz Verneque Lopes (Jd Modelo)",
        "zipcode": "25943-470"
    },
    {
        "city": "Guapimirim",
        "state": "RJ",
        "district": "Parada Ideal",
        "street": "Rua Nove (Gja Ideal)",
        "zipcode": "25942-676"
    },
    {
        "city": "Guapimirim",
        "state": "RJ",
        "district": "Parada Ideal",
        "street": "Rua Seis (Prq Sto André)",
        "zipcode": "25942-660"
    },
    {
        "city": "Guapimirim",
        "state": "RJ",
        "district": "Parada Modelo",
        "street": "Avenida Doutor Milton Delgado Campos",
        "zipcode": "25943-503"
    },
    {
        "city": "Guapimirim",
        "state": "RJ",
        "district": "Parada Modelo",
        "street": "Rua Lozita Julião Fernandes",
        "zipcode": "25943-536"
    },
    {
        "city": "Guapimirim",
        "state": "RJ",
        "district": "Parada Ideal",
        "street": "Rua Dois (Prq Sto André)",
        "zipcode": "25942-664"
    },
    {
        "city": "Guapimirim",
        "state": "RJ",
        "district": "Citrolândia",
        "street": "Rua Seis (Aldeia Jarapitu)",
        "zipcode": "25942-425"
    },
    {
        "city": "Guapimirim",
        "state": "RJ",
        "district": "Citrolândia",
        "street": "Rua Adriano Batista de Carvalho",
        "zipcode": "25942-365"
    },
    {
        "city": "Guapimirim",
        "state": "RJ",
        "district": "Citrolândia",
        "street": "Rua Padre Cícero Romão Batista",
        "zipcode": "25942-310"
    },
    {
        "city": "Guapimirim",
        "state": "RJ",
        "district": "Citrolândia",
        "street": "Rua São Judas Tadeu",
        "zipcode": "25942-380"
    },
    {
        "city": "Guapimirim",
        "state": "RJ",
        "district": "Parada Ideal",
        "street": "Rua J (Jd Sta Cláudia)",
        "zipcode": "25942-748"
    },
    {
        "city": "Guapimirim",
        "state": "RJ",
        "district": "Parada Modelo",
        "street": "Rua Lahud Tannuri",
        "zipcode": "25943-521"
    },
    {
        "city": "Guapimirim",
        "state": "RJ",
        "district": "Citrolândia",
        "street": "Rua São Lázaro",
        "zipcode": "25942-375"
    },
    {
        "city": "Guapimirim",
        "state": "RJ",
        "district": "Citrolândia",
        "street": "Rua São João",
        "zipcode": "25942-320"
    },
    {
        "city": "Guapimirim",
        "state": "RJ",
        "district": "Parada Modelo",
        "street": "Rua Eduardo Ribeiro",
        "zipcode": "25943-512"
    },
    {
        "city": "Guapimirim",
        "state": "RJ",
        "district": "Parada Modelo",
        "street": "Rua Projetada Um",
        "zipcode": "25943-545"
    },
    {
        "city": "Guapimirim",
        "state": "RJ",
        "district": "Parada Ideal",
        "street": "Rua B (Jd Sta Cláudia)",
        "zipcode": "25942-760"
    },
    {
        "city": "Guapimirim",
        "state": "RJ",
        "district": "Cidade Jardim Guapimirim",
        "street": "Rua Amaro dos Santos",
        "zipcode": "25943-350"
    },
    {
        "city": "Guapimirim",
        "state": "RJ",
        "district": "Cidade Jardim Guapimirim",
        "street": "Rua N",
        "zipcode": "25943-353"
    },
    {
        "city": "Guapimirim",
        "state": "RJ",
        "district": "Cidade Jardim Guapimirim",
        "street": "Rua O",
        "zipcode": "25943-359"
    },
    {
        "city": "Guapimirim",
        "state": "RJ",
        "district": "Cidade Jardim Guapimirim",
        "street": "Rua E",
        "zipcode": "25943-362"
    },
    {
        "city": "Guapimirim",
        "state": "RJ",
        "district": "Cidade Jardim Guapimirim",
        "street": "Rua X",
        "zipcode": "25943-365"
    },
    {
        "city": "Guapimirim",
        "state": "RJ",
        "district": "Cidade Jardim Guapimirim",
        "street": "Rua W",
        "zipcode": "25943-368"
    },
    {
        "city": "Guapimirim",
        "state": "RJ",
        "district": "Cidade Jardim Guapimirim",
        "street": "Rua Praianos",
        "zipcode": "25943-374"
    },
    {
        "city": "Guapimirim",
        "state": "RJ",
        "district": "Parada Modelo",
        "street": "Rua G",
        "zipcode": "25943-596"
    },
    {
        "city": "Guapimirim",
        "state": "RJ",
        "district": "Parada Modelo",
        "street": "Rua Cuiabá",
        "zipcode": "25943-608"
    },
    {
        "city": "Guapimirim",
        "state": "RJ",
        "district": "Parada Modelo",
        "street": "Rua E",
        "zipcode": "25943-614"
    },
    {
        "city": "Guapimirim",
        "state": "RJ",
        "district": "Parada Modelo",
        "street": "Rua D",
        "zipcode": "25943-620"
    },
    {
        "city": "Guapimirim",
        "state": "RJ",
        "district": "Parada Modelo",
        "street": "Rua C",
        "zipcode": "25943-623"
    },
    {
        "city": "Guapimirim",
        "state": "RJ",
        "district": "Parada Modelo",
        "street": "Rua I (Vl Modelo)",
        "zipcode": "25943-629"
    },
    {
        "city": "Guapimirim",
        "state": "RJ",
        "district": "Parada Modelo",
        "street": "Rua M",
        "zipcode": "25943-632"
    },
    {
        "city": "Guapimirim",
        "state": "RJ",
        "district": "Parada Modelo",
        "street": "Rua B (Vl Modelo)",
        "zipcode": "25943-617"
    },
    {
        "city": "Guapimirim",
        "state": "RJ",
        "district": "Parada Modelo",
        "street": "Rua Benedito Norberto Pupo",
        "zipcode": "25943-515"
    },
    {
        "city": "Guapimirim",
        "state": "RJ",
        "district": "Cidade Jardim Guapimirim",
        "street": "Rua Edgard Barbosa",
        "zipcode": "25943-395"
    },
    {
        "city": "Guapimirim",
        "state": "RJ",
        "district": "Parada Modelo",
        "street": "Praça Aguinaldo Pereira",
        "zipcode": "25943-539"
    },
    {
        "city": "Guapimirim",
        "state": "RJ",
        "district": "Parada Modelo",
        "street": "Rua João Junger Sobrinho",
        "zipcode": "25943-572"
    },
    {
        "city": "Guapimirim",
        "state": "RJ",
        "district": "Parada Modelo",
        "street": "Rua Jerônimo Spadetto",
        "zipcode": "25943-599"
    },
    {
        "city": "Guapimirim",
        "state": "RJ",
        "district": "Parque Santa Eugênia",
        "street": "Rua José Cardoso",
        "zipcode": "25943-308"
    },
    {
        "city": "Guapimirim",
        "state": "RJ",
        "district": "Parada Modelo",
        "street": "Rua Saturnino Rocha",
        "zipcode": "25943-509"
    },
    {
        "city": "Guapimirim",
        "state": "RJ",
        "district": "Parada Ideal",
        "street": "Rua F (Jd Sta Cláudia)",
        "zipcode": "25942-764"
    },
    {
        "city": "Guapimirim",
        "state": "RJ",
        "district": "Parque Santa Eugênia",
        "street": "Rua José Soares",
        "zipcode": "25943-288"
    },
    {
        "city": "Guapimirim",
        "state": "RJ",
        "district": "Parada Ideal",
        "street": "Rua E (Jd Sta Cláudia)",
        "zipcode": "25942-768"
    },
    {
        "city": "Guapimirim",
        "state": "RJ",
        "district": "Parque Santa Eugênia",
        "street": "Rua Policarpo Júnior",
        "zipcode": "25943-256"
    },
    {
        "city": "Guapimirim",
        "state": "RJ",
        "district": "Parada Modelo",
        "street": "Avenida Reginaldo de Souza Nogueira",
        "zipcode": "25943-506"
    },
    {
        "city": "Guapimirim",
        "state": "RJ",
        "district": "Parada Ideal",
        "street": "Rodovia Santos Dumont",
        "zipcode": "25942-870"
    },
    {
        "city": "Guapimirim",
        "state": "RJ",
        "district": "Parada Modelo",
        "street": "Rua Marcionílio Ignácio",
        "zipcode": "25943-557"
    },
    {
        "city": "Guapimirim",
        "state": "RJ",
        "district": "Parada Ideal",
        "street": "Rua C (Jd Sta Cláudia)",
        "zipcode": "25942-772"
    },
    {
        "city": "Guapimirim",
        "state": "RJ",
        "district": "Parada Modelo",
        "street": "Rua Laura Magalhães Teixeira",
        "zipcode": "25943-551"
    },
    {
        "city": "Guapimirim",
        "state": "RJ",
        "district": "Parada Modelo",
        "street": "Rua João Pereira da Costa",
        "zipcode": "25943-587"
    },
    {
        "city": "Guapimirim",
        "state": "RJ",
        "district": "Parada Modelo",
        "street": "Rua Sebastião Garcia",
        "zipcode": "25943-542"
    },
    {
        "city": "Guapimirim",
        "state": "RJ",
        "district": "Parque Santa Eugênia",
        "street": "Rua Joaquim da Fonseca",
        "zipcode": "25943-304"
    },
    {
        "city": "Guapimirim",
        "state": "RJ",
        "district": "Parque Santa Eugênia",
        "street": "Rua Georgina Assunção dos Santos",
        "zipcode": "25943-296"
    },
    {
        "city": "Guapimirim",
        "state": "RJ",
        "district": "Parada Modelo",
        "street": "Rua Lídia Spadetto",
        "zipcode": "25943-602"
    },
    {
        "city": "Guapimirim",
        "state": "RJ",
        "district": "Parada Modelo",
        "street": "Rua Almirante Tamandaré",
        "zipcode": "25943-605"
    },
    {
        "city": "Guapimirim",
        "state": "RJ",
        "district": "Parada Modelo",
        "street": "Estrada Irineu Alves dos Santos",
        "zipcode": "25943-584"
    },
    {
        "city": "Guapimirim",
        "state": "RJ",
        "district": "Cadetes Fabres",
        "street": "Rua das Nascentes",
        "zipcode": "25944-080"
    },
    {
        "city": "Guapimirim",
        "state": "RJ",
        "district": "Parque Santa Eugênia",
        "street": "Rua José Rodrigues da Silva",
        "zipcode": "25943-300"
    },
    {
        "city": "Guapimirim",
        "state": "RJ",
        "district": "Parada Ideal",
        "street": "Rua Sagitário",
        "zipcode": "25942-890"
    },
    {
        "city": "Guapimirim",
        "state": "RJ",
        "district": "Cadetes Fabres",
        "street": "Rua Maria da Conceição Macena (1º Zona)",
        "zipcode": "25943-670"
    },
    {
        "city": "Guapimirim",
        "state": "RJ",
        "district": "Parada Modelo",
        "street": "Rua Edgard Barbosa",
        "zipcode": "25943-527"
    },
    {
        "city": "Guapimirim",
        "state": "RJ",
        "district": "Cadetes Fabres",
        "street": "Rua das Laranjeiras",
        "zipcode": "25944-090"
    },
    {
        "city": "Guapimirim",
        "state": "RJ",
        "district": "Cadetes Fabres",
        "street": "Rua F (Hotel)",
        "zipcode": "25943-750"
    },
    {
        "city": "Guapimirim",
        "state": "RJ",
        "district": "Parada Modelo",
        "street": "Rua Sebastião Barros",
        "zipcode": "25943-581"
    },
    {
        "city": "Guapimirim",
        "state": "RJ",
        "district": "Limoeiro",
        "street": "Rua Dane Conceição",
        "zipcode": "25948-640"
    },
    {
        "city": "Guapimirim",
        "state": "RJ",
        "district": "Parada Modelo",
        "street": "Rua Genecy Martins Braga",
        "zipcode": "25943-575"
    },
    {
        "city": "Guapimirim",
        "state": "RJ",
        "district": "Parque Santa Eugênia",
        "street": "Rua Antônio Rodrigues Marques",
        "zipcode": "25943-284"
    },
    {
        "city": "Guapimirim",
        "state": "RJ",
        "district": "Cadetes Fabres",
        "street": "Rua E (Hotel)",
        "zipcode": "25943-746"
    },
    {
        "city": "Guapimirim",
        "state": "RJ",
        "district": "Parada Ideal",
        "street": "Rua Capricórnio",
        "zipcode": "25942-875"
    },
    {
        "city": "Guapimirim",
        "state": "RJ",
        "district": "Parque Santa Eugênia",
        "street": "Rua João Martins",
        "zipcode": "25943-292"
    },
    {
        "city": "Guapimirim",
        "state": "RJ",
        "district": "Parque Santa Eugênia",
        "street": "Rua Um (Jd Gleba Azul)",
        "zipcode": "25943-312"
    },
    {
        "city": "Guapimirim",
        "state": "RJ",
        "district": "Parada Ideal",
        "street": "Rua Gêmeos",
        "zipcode": "25942-885"
    },
    {
        "city": "Guapimirim",
        "state": "RJ",
        "district": "Cadetes Fabres",
        "street": "Rua I (1º Zona)",
        "zipcode": "25943-682"
    },
    {
        "city": "Guapimirim",
        "state": "RJ",
        "district": "Parque Santa Eugênia",
        "street": "Rua Projetada Afonso Pena",
        "zipcode": "25943-240"
    },
    {
        "city": "Guapimirim",
        "state": "RJ",
        "district": "Cadetes Fabres",
        "street": "Rua C (Hotel)",
        "zipcode": "25943-738"
    },
    {
        "city": "Guapimirim",
        "state": "RJ",
        "district": "Cantagalo",
        "street": "Rua dos Coqueiros",
        "zipcode": "25945-416"
    },
    {
        "city": "Guapimirim",
        "state": "RJ",
        "district": "Parque Silvestre",
        "street": "Rua da Paz",
        "zipcode": "25945-530"
    },
    {
        "city": "Guapimirim",
        "state": "RJ",
        "district": "Parque Silvestre",
        "street": "Rua Oito",
        "zipcode": "25945-538"
    },
    {
        "city": "Guapimirim",
        "state": "RJ",
        "district": "Parque Silvestre",
        "street": "Rua Quatro",
        "zipcode": "25945-542"
    },
    {
        "city": "Guapimirim",
        "state": "RJ",
        "district": "Parque Silvestre",
        "street": "Rua Cinco",
        "zipcode": "25945-546"
    },
    {
        "city": "Guapimirim",
        "state": "RJ",
        "district": "Parque Silvestre",
        "street": "Rua Julita de Carvalho",
        "zipcode": "25945-550"
    },
    {
        "city": "Guapimirim",
        "state": "RJ",
        "district": "Parque Silvestre",
        "street": "Rua do Paraíso",
        "zipcode": "25945-554"
    },
    {
        "city": "Guapimirim",
        "state": "RJ",
        "district": "Parque Silvestre",
        "street": "Rua Estrela Dalva",
        "zipcode": "25945-578"
    },
    {
        "city": "Guapimirim",
        "state": "RJ",
        "district": "Parque Silvestre",
        "street": "Rua Seis",
        "zipcode": "25945-582"
    },
    {
        "city": "Guapimirim",
        "state": "RJ",
        "district": "Parque Silvestre",
        "street": "Rua Eça de Queiroz",
        "zipcode": "25945-586"
    },
    {
        "city": "Guapimirim",
        "state": "RJ",
        "district": "Parque Silvestre",
        "street": "Estrada do Imperador",
        "zipcode": "25945-590"
    },
    {
        "city": "Guapimirim",
        "state": "RJ",
        "district": "Centro",
        "street": "Rua E (Lot Teixeira)",
        "zipcode": "25946-166"
    },
    {
        "city": "Guapimirim",
        "state": "RJ",
        "district": "Cadetes Fabres",
        "street": "Rua João Cardoso",
        "zipcode": "25944-010"
    },
    {
        "city": "Guapimirim",
        "state": "RJ",
        "district": "Cadetes Fabres",
        "street": "Rua Jaime Darcy Motta",
        "zipcode": "25943-678"
    },
    {
        "city": "Guapimirim",
        "state": "RJ",
        "district": "Paiol",
        "street": "Rua Pedro Ferreira de Almeida",
        "zipcode": "25945-853"
    },
    {
        "city": "Guapimirim",
        "state": "RJ",
        "district": "Parada Modelo",
        "street": "Rodovia Santos Dumont",
        "zipcode": "25943-530"
    },
    {
        "city": "Guapimirim",
        "state": "RJ",
        "district": "Cadetes Fabres",
        "street": "Rua José Alves dos Santos",
        "zipcode": "25943-666"
    },
    {
        "city": "Guapimirim",
        "state": "RJ",
        "district": "Parque Silvestre",
        "street": "Rua Ayrton Senna",
        "zipcode": "25945-562"
    },
    {
        "city": "Guapimirim",
        "state": "RJ",
        "district": "Cantagalo",
        "street": "Travessa Imperatriz",
        "zipcode": "25945-440"
    },
    {
        "city": "Guapimirim",
        "state": "RJ",
        "district": "Cadetes Fabres",
        "street": "Rua A (GLB 15)",
        "zipcode": "25943-850"
    },
    {
        "city": "Guapimirim",
        "state": "RJ",
        "district": "Cantagalo",
        "street": "Rua dos Buritizeiros",
        "zipcode": "25945-432"
    },
    {
        "city": "Guapimirim",
        "state": "RJ",
        "district": "Cadetes Fabres",
        "street": "Rua A (Cond Lg dos Cisnes)",
        "zipcode": "25943-766"
    },
    {
        "city": "Guapimirim",
        "state": "RJ",
        "district": "Cadetes Fabres",
        "street": "Rua E (GLB 15)",
        "zipcode": "25943-866"
    },
    {
        "city": "Guapimirim",
        "state": "RJ",
        "district": "Cadetes Fabres",
        "street": "Rua E (1º Zona)",
        "zipcode": "25943-662"
    },
    {
        "city": "Guapimirim",
        "state": "RJ",
        "district": "Parque Silvestre",
        "street": "Rua Wantuil",
        "zipcode": "25945-574"
    },
    {
        "city": "Guapimirim",
        "state": "RJ",
        "district": "Cadetes Fabres",
        "street": "Rua G (Hotel)",
        "zipcode": "25943-754"
    },
    {
        "city": "Guapimirim",
        "state": "RJ",
        "district": "Cantagalo",
        "street": "Rua B (Jd Itamonte)",
        "zipcode": "25945-364"
    },
    {
        "city": "Guapimirim",
        "state": "RJ",
        "district": "Cadetes Fabres",
        "street": "Rua G (Cond Lg dos Cisnes)",
        "zipcode": "25943-806"
    },
    {
        "city": "Guapimirim",
        "state": "RJ",
        "district": "Cadetes Fabres",
        "street": "Rua 1º de Maio",
        "zipcode": "25943-742"
    },
    {
        "city": "Guapimirim",
        "state": "RJ",
        "district": "Cadetes Fabres",
        "street": "Rua E (Cond Lg dos Cisnes)",
        "zipcode": "25943-782"
    },
    {
        "city": "Guapimirim",
        "state": "RJ",
        "district": "Cadetes Fabres",
        "street": "Rua F (GLB 15)",
        "zipcode": "25943-870"
    },
    {
        "city": "Guapimirim",
        "state": "RJ",
        "district": "Cadetes Fabres",
        "street": "Rua Dona Celina",
        "zipcode": "25944-070"
    },
    {
        "city": "Guapimirim",
        "state": "RJ",
        "district": "Cantagalo",
        "street": "Rua Rita Noemia da Costa",
        "zipcode": "25945-388"
    },
    {
        "city": "Guapimirim",
        "state": "RJ",
        "district": "Cadetes Fabres",
        "street": "Estrada dos Tatus",
        "zipcode": "25944-050"
    },
    {
        "city": "Guapimirim",
        "state": "RJ",
        "district": "Cantagalo",
        "street": "Praça Santa Clara de Assis",
        "zipcode": "25945-360"
    },
    {
        "city": "Guapimirim",
        "state": "RJ",
        "district": "Cadetes Fabres",
        "street": "Rua Augusto Júnior",
        "zipcode": "25943-762"
    },
    {
        "city": "Guapimirim",
        "state": "RJ",
        "district": "Cadetes Fabres",
        "street": "Rua A (1º Zona)",
        "zipcode": "25943-690"
    },
    {
        "city": "Guapimirim",
        "state": "RJ",
        "district": "Cantagalo",
        "street": "Rua São Gabriel",
        "zipcode": "25945-404"
    },
    {
        "city": "Guapimirim",
        "state": "RJ",
        "district": "Cadetes Fabres",
        "street": "Rua Esmeraldino Salvino",
        "zipcode": "25943-674"
    },
    {
        "city": "Guapimirim",
        "state": "RJ",
        "district": "Cadetes Fabres",
        "street": "Estrada da Chorona",
        "zipcode": "25943-810"
    },
    {
        "city": "Guapimirim",
        "state": "RJ",
        "district": "Cadetes Fabres",
        "street": "Rua J (Cond Lg dos Cisnes)",
        "zipcode": "25943-798"
    },
    {
        "city": "Guapimirim",
        "state": "RJ",
        "district": "Cantagalo",
        "street": "Rua das Amendoeiras",
        "zipcode": "25945-424"
    },
    {
        "city": "Guapimirim",
        "state": "RJ",
        "district": "Cadetes Fabres",
        "street": "Rua F (Cond Lg dos Cisnes)",
        "zipcode": "25943-786"
    },
    {
        "city": "Guapimirim",
        "state": "RJ",
        "district": "Parque Silvestre",
        "street": "Rua Deusa Lunar",
        "zipcode": "25945-570"
    },
    {
        "city": "Guapimirim",
        "state": "RJ",
        "district": "Cadetes Fabres",
        "street": "Rodovia Rio",
        "zipcode": "25944-000"
    },
    {
        "city": "Guapimirim",
        "state": "RJ",
        "district": "Paiol",
        "street": "Rua João Anselmo",
        "zipcode": "25945-883"
    },
    {
        "city": "Guapimirim",
        "state": "RJ",
        "district": "Centro",
        "street": "Travessa B",
        "zipcode": "25946-073"
    },
    {
        "city": "Guapimirim",
        "state": "RJ",
        "district": "Centro",
        "street": "Travessa A",
        "zipcode": "25946-076"
    },
    {
        "city": "Guapimirim",
        "state": "RJ",
        "district": "Centro",
        "street": "Rua C",
        "zipcode": "25946-082"
    },
    {
        "city": "Guapimirim",
        "state": "RJ",
        "district": "Centro",
        "street": "Rua B (Cond Fênix)",
        "zipcode": "25946-085"
    },
    {
        "city": "Guapimirim",
        "state": "RJ",
        "district": "Centro",
        "street": "Rua Washington Luiz",
        "zipcode": "25946-106"
    },
    {
        "city": "Guapimirim",
        "state": "RJ",
        "district": "Cadetes Fabres",
        "street": "Rua da Cachoeira",
        "zipcode": "25944-110"
    },
    {
        "city": "Guapimirim",
        "state": "RJ",
        "district": "Centro",
        "street": "Rua Projetada Um",
        "zipcode": "25946-145"
    },
    {
        "city": "Guapimirim",
        "state": "RJ",
        "district": "Cantagalo",
        "street": "Avenida Dedo de Deus",
        "zipcode": "25945-412"
    },
    {
        "city": "Guapimirim",
        "state": "RJ",
        "district": "Cadetes Fabres",
        "street": "Rua Planalto",
        "zipcode": "25944-100"
    },
    {
        "city": "Guapimirim",
        "state": "RJ",
        "district": "Cantagalo",
        "street": "Rua Cantagalo",
        "zipcode": "25945-396"
    },
    {
        "city": "Guapimirim",
        "state": "RJ",
        "district": "Paiol",
        "street": "Rua Neuza Batista Guimarães de Melo",
        "zipcode": "25945-850"
    },
    {
        "city": "Guapimirim",
        "state": "RJ",
        "district": "Cadetes Fabres",
        "street": "Estrada da Pedra Oca",
        "zipcode": "25943-874"
    },
    {
        "city": "Guapimirim",
        "state": "RJ",
        "district": "Cadetes Fabres",
        "street": "Rua C (GLB 15)",
        "zipcode": "25943-858"
    },
    {
        "city": "Guapimirim",
        "state": "RJ",
        "district": "Cadetes Fabres",
        "street": "Rua D (GLB 15)",
        "zipcode": "25943-862"
    },
    {
        "city": "Guapimirim",
        "state": "RJ",
        "district": "Cantagalo",
        "street": "Rua Washington de Souza Coelho",
        "zipcode": "25945-408"
    },
    {
        "city": "Guapimirim",
        "state": "RJ",
        "district": "Paiol",
        "street": "Avenida Dedo de Deus",
        "zipcode": "25945-856"
    },
    {
        "city": "Guapimirim",
        "state": "RJ",
        "district": "Centro",
        "street": "Rua Sebastião César Filho",
        "zipcode": "25946-250"
    },
    {
        "city": "Guapimirim",
        "state": "RJ",
        "district": "Centro",
        "street": "Rua Itacoatiara",
        "zipcode": "25946-256"
    },
    {
        "city": "Guapimirim",
        "state": "RJ",
        "district": "Centro",
        "street": "Rua Itamirim",
        "zipcode": "25946-262"
    },
    {
        "city": "Guapimirim",
        "state": "RJ",
        "district": "Centro",
        "street": "Rua Archimedes Junger",
        "zipcode": "25946-265"
    },
    {
        "city": "Guapimirim",
        "state": "RJ",
        "district": "Centro",
        "street": "Rua E (Vl Recreio)",
        "zipcode": "25946-274"
    },
    {
        "city": "Guapimirim",
        "state": "RJ",
        "district": "Centro",
        "street": "Rua Nestor Pereira",
        "zipcode": "25946-148"
    },
    {
        "city": "Guapimirim",
        "state": "RJ",
        "district": "Centro",
        "street": "Rua das Palmeiras",
        "zipcode": "25946-163"
    },
    {
        "city": "Guapimirim",
        "state": "RJ",
        "district": "Centro",
        "street": "Rua Eneias de Souza Gonçalves",
        "zipcode": "25946-169"
    },
    {
        "city": "Guapimirim",
        "state": "RJ",
        "district": "Centro",
        "street": "Rua Maximino José Pacheco",
        "zipcode": "25946-190"
    },
    {
        "city": "Guapimirim",
        "state": "RJ",
        "district": "Centro",
        "street": "Travessa Itaúna",
        "zipcode": "25946-199"
    },
    {
        "city": "Guapimirim",
        "state": "RJ",
        "district": "Centro",
        "street": "Rua Antônio Valério",
        "zipcode": "25946-205"
    },
    {
        "city": "Guapimirim",
        "state": "RJ",
        "district": "Centro",
        "street": "Rua Naum Fares",
        "zipcode": "25946-208"
    },
    {
        "city": "Guapimirim",
        "state": "RJ",
        "district": "Centro",
        "street": "Rua Eduardo Garcia",
        "zipcode": "25946-220"
    },
    {
        "city": "Guapimirim",
        "state": "RJ",
        "district": "Centro",
        "street": "Rua Governador Roberto Silveira",
        "zipcode": "25946-226"
    },
    {
        "city": "Guapimirim",
        "state": "RJ",
        "district": "Centro",
        "street": "Rua José Moreira Garcia",
        "zipcode": "25946-229"
    },
    {
        "city": "Guapimirim",
        "state": "RJ",
        "district": "Bananal",
        "street": "Estrada do Bananal",
        "zipcode": "25946-440"
    },
    {
        "city": "Guapimirim",
        "state": "RJ",
        "district": "Bananal",
        "street": "Rua Alegre",
        "zipcode": "25946-446"
    },
    {
        "city": "Guapimirim",
        "state": "RJ",
        "district": "Bananal",
        "street": "Rua da Laje",
        "zipcode": "25946-449"
    },
    {
        "city": "Guapimirim",
        "state": "RJ",
        "district": "Bananal",
        "street": "Rua Pastor Armando Cohen",
        "zipcode": "25946-455"
    },
    {
        "city": "Guapimirim",
        "state": "RJ",
        "district": "Centro",
        "street": "Rua Ozio Lugon",
        "zipcode": "25946-094"
    },
    {
        "city": "Guapimirim",
        "state": "RJ",
        "district": "Centro",
        "street": "Rua Delegado Nilo Alves Cordeiro",
        "zipcode": "25946-097"
    },
    {
        "city": "Guapimirim",
        "state": "RJ",
        "district": "Centro",
        "street": "Praça Niterói",
        "zipcode": "25946-109"
    },
    {
        "city": "Guapimirim",
        "state": "RJ",
        "district": "Centro",
        "street": "Travessa Irineu Alves dos Santos",
        "zipcode": "25946-133"
    },
    {
        "city": "Guapimirim",
        "state": "RJ",
        "district": "Paiol",
        "street": "Rua Manuel de Carvalho",
        "zipcode": "25945-880"
    },
    {
        "city": "Guapimirim",
        "state": "RJ",
        "district": "Centro",
        "street": "Rua Joel Ferreira da Silva",
        "zipcode": "25946-268"
    },
    {
        "city": "Guapimirim",
        "state": "RJ",
        "district": "Cadetes Fabres",
        "street": "Avenida Circular",
        "zipcode": "25944-140"
    },
    {
        "city": "Guapimirim",
        "state": "RJ",
        "district": "Parque Fleixal",
        "street": "Rua Alice",
        "zipcode": "25946-286"
    },
    {
        "city": "Guapimirim",
        "state": "RJ",
        "district": "Cadetes Fabres",
        "street": "Estrada das Pedras",
        "zipcode": "25944-150"
    },
    {
        "city": "Guapimirim",
        "state": "RJ",
        "district": "Paiol",
        "street": "Estrada do Espinhaço",
        "zipcode": "25945-889"
    },
    {
        "city": "Guapimirim",
        "state": "RJ",
        "district": "Centro",
        "street": "Rua Hermes de Souza Henriques",
        "zipcode": "25946-154"
    },
    {
        "city": "Guapimirim",
        "state": "RJ",
        "district": "Cadetes Fabres",
        "street": "Rua Mirim",
        "zipcode": "25944-130"
    },
    {
        "city": "Guapimirim",
        "state": "RJ",
        "district": "Centro",
        "street": "Rua D (Vl Iporã)",
        "zipcode": "25946-115"
    },
    {
        "city": "Guapimirim",
        "state": "RJ",
        "district": "Cantagalo",
        "street": "Travessa Engenheiro Paulo de Alencar Araripe",
        "zipcode": "25945-332"
    },
    {
        "city": "Guapimirim",
        "state": "RJ",
        "district": "Espinhaço",
        "street": "Estrada Imperial",
        "zipcode": "25945-610"
    },
    {
        "city": "Guapimirim",
        "state": "RJ",
        "district": "Parque Fleixal",
        "street": "Travessa Alice",
        "zipcode": "25946-289"
    },
    {
        "city": "Guapimirim",
        "state": "RJ",
        "district": "Centro",
        "street": "Rua Valentim Scheer",
        "zipcode": "25946-196"
    },
    {
        "city": "Guapimirim",
        "state": "RJ",
        "district": "Cantagalo",
        "street": "Rua João da Silva Maia",
        "zipcode": "25945-348"
    },
    {
        "city": "Guapimirim",
        "state": "RJ",
        "district": "Parque Fleixal",
        "street": "Rua Sebastião Schwenck",
        "zipcode": "25946-283"
    },
    {
        "city": "Guapimirim",
        "state": "RJ",
        "district": "Parque Fleixal",
        "street": "Rua Central",
        "zipcode": "25946-295"
    },
    {
        "city": "Guapimirim",
        "state": "RJ",
        "district": "Paiol",
        "street": "Rua Antônio Dias Guerra",
        "zipcode": "25945-877"
    },
    {
        "city": "Guapimirim",
        "state": "RJ",
        "district": "Centro",
        "street": "Travessa Hilda Kaled",
        "zipcode": "25946-127"
    },
    {
        "city": "Guapimirim",
        "state": "RJ",
        "district": "Parque Fleixal",
        "street": "Rua Georgina",
        "zipcode": "25946-301"
    },
    {
        "city": "Guapimirim",
        "state": "RJ",
        "district": "Paiol",
        "street": "Rua Rogério Cortez",
        "zipcode": "25945-886"
    },
    {
        "city": "Guapimirim",
        "state": "RJ",
        "district": "Centro",
        "street": "Praça Paulo Terra",
        "zipcode": "25946-136"
    },
    {
        "city": "Guapimirim",
        "state": "RJ",
        "district": "Bananal",
        "street": "Rua José Machado",
        "zipcode": "25946-464"
    },
    {
        "city": "Guapimirim",
        "state": "RJ",
        "district": "Bananal",
        "street": "Rua Mauro Abrahão",
        "zipcode": "25946-470"
    },
    {
        "city": "Guapimirim",
        "state": "RJ",
        "district": "Bananal",
        "street": "Rua Concórdia",
        "zipcode": "25946-473"
    },
    {
        "city": "Guapimirim",
        "state": "RJ",
        "district": "Bananal",
        "street": "Rua Abrahão",
        "zipcode": "25946-488"
    },
    {
        "city": "Guapimirim",
        "state": "RJ",
        "district": "Bananal",
        "street": "Rua Dalci Domingos",
        "zipcode": "25946-491"
    },
    {
        "city": "Guapimirim",
        "state": "RJ",
        "district": "Bananal",
        "street": "Rua Ary de Carvalho",
        "zipcode": "25946-500"
    },
    {
        "city": "Guapimirim",
        "state": "RJ",
        "district": "Bananal",
        "street": "Rua Antônio Ventura",
        "zipcode": "25946-506"
    },
    {
        "city": "Guapimirim",
        "state": "RJ",
        "district": "Quinta Mariana",
        "street": "Estrada dos Arrudas",
        "zipcode": "25946-535"
    },
    {
        "city": "Guapimirim",
        "state": "RJ",
        "district": "Bananal",
        "street": "Estrada dos Arrudas",
        "zipcode": "25946-509"
    },
    {
        "city": "Guapimirim",
        "state": "RJ",
        "district": "Centro",
        "street": "Rua Comandante Barcelar",
        "zipcode": "25946-151"
    },
    {
        "city": "Guapimirim",
        "state": "RJ",
        "district": "Parque Silvestre",
        "street": "Rodovia Santos Dumont",
        "zipcode": "25945-566"
    },
    {
        "city": "Guapimirim",
        "state": "RJ",
        "district": "Cantagalo",
        "street": "Servidão Coronel Bala",
        "zipcode": "25945-340"
    },
    {
        "city": "Guapimirim",
        "state": "RJ",
        "district": "Parque Fleixal",
        "street": "Rua Irene",
        "zipcode": "25946-292"
    },
    {
        "city": "Guapimirim",
        "state": "RJ",
        "district": "Centro",
        "street": "Rua Pastor Francisco Antônio da Rosa",
        "zipcode": "25946-253"
    },
    {
        "city": "Guapimirim",
        "state": "RJ",
        "district": "Cantagalo",
        "street": "Rua Francisco Portela",
        "zipcode": "25945-328"
    },
    {
        "city": "Guapimirim",
        "state": "RJ",
        "district": "Cantagalo",
        "street": "Rua Guapi (Lot Guapi Vila)",
        "zipcode": "25945-320"
    },
    {
        "city": "Guapimirim",
        "state": "RJ",
        "district": "Bananal",
        "street": "Rua Claudionor Batista",
        "zipcode": "25946-494"
    },
    {
        "city": "Guapimirim",
        "state": "RJ",
        "district": "Quinta Mariana",
        "street": "Rua Claudionor Batista",
        "zipcode": "25946-565"
    },
    {
        "city": "Guapimirim",
        "state": "RJ",
        "district": "Centro",
        "street": "Avenida Dedo de Deus",
        "zipcode": "25946-244"
    },
    {
        "city": "Guapimirim",
        "state": "RJ",
        "district": "Centro",
        "street": "Rua Joaquim Coelho",
        "zipcode": "25946-235"
    },
    {
        "city": "Guapimirim",
        "state": "RJ",
        "district": "Quinta Mariana",
        "street": "Rua Manuel de Abreu",
        "zipcode": "25946-547"
    },
    {
        "city": "Guapimirim",
        "state": "RJ",
        "district": "Centro",
        "street": "Rua Vereador Moacyr Pimentel",
        "zipcode": "25946-202"
    },
    {
        "city": "Guapimirim",
        "state": "RJ",
        "district": "Quinta Mariana",
        "street": "Rua da Alegria",
        "zipcode": "25946-538"
    },
    {
        "city": "Guapimirim",
        "state": "RJ",
        "district": "Quinta Mariana",
        "street": "Avenida Santo Antônio",
        "zipcode": "25946-544"
    },
    {
        "city": "Guapimirim",
        "state": "RJ",
        "district": "Quinta Mariana",
        "street": "Rua Petrônio Pacinto",
        "zipcode": "25946-568"
    },
    {
        "city": "Guapimirim",
        "state": "RJ",
        "district": "Vale Jequitibá",
        "street": "Rua Quatorze",
        "zipcode": "25946-583"
    },
    {
        "city": "Guapimirim",
        "state": "RJ",
        "district": "Vale Jequitibá",
        "street": "Rua Treze",
        "zipcode": "25946-589"
    },
    {
        "city": "Guapimirim",
        "state": "RJ",
        "district": "Vale Jequitibá",
        "street": "Rua Quinze",
        "zipcode": "25946-626"
    },
    {
        "city": "Guapimirim",
        "state": "RJ",
        "district": "Segredo",
        "street": "Rua João Ventura",
        "zipcode": "25946-700"
    },
    {
        "city": "Guapimirim",
        "state": "RJ",
        "district": "Cotia",
        "street": "Estrada do Curtume",
        "zipcode": "25947-030"
    },
    {
        "city": "Guapimirim",
        "state": "RJ",
        "district": "Orindi",
        "street": "Travessa Dois",
        "zipcode": "25947-774"
    },
    {
        "city": "Guapimirim",
        "state": "RJ",
        "district": "Orindi",
        "street": "Travessa Três",
        "zipcode": "25947-778"
    },
    {
        "city": "Guapimirim",
        "state": "RJ",
        "district": "Orindi",
        "street": "Travessa Quatro",
        "zipcode": "25947-782"
    },
    {
        "city": "Guapimirim",
        "state": "RJ",
        "district": "Barreira",
        "street": "Estrada do Paraíso",
        "zipcode": "25948-395"
    },
    {
        "city": "Guapimirim",
        "state": "RJ",
        "district": "Barreira",
        "street": "Rua Limoeiro",
        "zipcode": "25948-410"
    },
    {
        "city": "Guapimirim",
        "state": "RJ",
        "district": "Limoeiro",
        "street": "Rua X (Cond Alpha II)",
        "zipcode": "25948-675"
    },
    {
        "city": "Guapimirim",
        "state": "RJ",
        "district": "Limoeiro",
        "street": "Rua V (Cond Alpha II)",
        "zipcode": "25948-695"
    },
    {
        "city": "Guapimirim",
        "state": "RJ",
        "district": "Limoeiro",
        "street": "Rua I (Cond Alpha II)",
        "zipcode": "25948-700"
    },
    {
        "city": "Guapimirim",
        "state": "RJ",
        "district": "Limoeiro",
        "street": "Rua II (Cond Alpha II)",
        "zipcode": "25948-725"
    },
    {
        "city": "Guapimirim",
        "state": "RJ",
        "district": "Limoeiro",
        "street": "Rua II (Cond Alpha I)",
        "zipcode": "25948-735"
    },
    {
        "city": "Guapimirim",
        "state": "RJ",
        "district": "Limoeiro",
        "street": "Rua I (Cond Alpha I)",
        "zipcode": "25948-775"
    },
    {
        "city": "Guapimirim",
        "state": "RJ",
        "district": "Bananal",
        "street": "Rua Oswaldo Cruz",
        "zipcode": "25946-497"
    },
    {
        "city": "Guapimirim",
        "state": "RJ",
        "district": "Vale Jequitibá",
        "street": "Rua Comandante Barcelar",
        "zipcode": "25946-631"
    },
    {
        "city": "Guapimirim",
        "state": "RJ",
        "district": "Quinta Mariana",
        "street": "Rua E (Lot Rosângela)",
        "zipcode": "25946-526"
    },
    {
        "city": "Guapimirim",
        "state": "RJ",
        "district": "Parque Fleixal",
        "street": "Rua Riachuelo",
        "zipcode": "25946-319"
    },
    {
        "city": "Guapimirim",
        "state": "RJ",
        "district": "Quinta Mariana",
        "street": "Rua Galitano Tuao",
        "zipcode": "25946-523"
    },
    {
        "city": "Guapimirim",
        "state": "RJ",
        "district": "Bananal",
        "street": "Rua do Poço",
        "zipcode": "25946-443"
    },
    {
        "city": "Guapimirim",
        "state": "RJ",
        "district": "Parque Fleixal",
        "street": "Rua Estevan Batista",
        "zipcode": "25946-340"
    },
    {
        "city": "Guapimirim",
        "state": "RJ",
        "district": "Parque Fleixal",
        "street": "Praça 25 de Novembro",
        "zipcode": "25946-316"
    },
    {
        "city": "Guapimirim",
        "state": "RJ",
        "district": "Parque Fleixal",
        "street": "Rua José Geraldo",
        "zipcode": "25946-343"
    },
    {
        "city": "Guapimirim",
        "state": "RJ",
        "district": "Quinta Mariana",
        "street": "Rua Sebastião Pereira de Souza",
        "zipcode": "25946-520"
    },
    {
        "city": "Guapimirim",
        "state": "RJ",
        "district": "Parque Fleixal",
        "street": "Avenida Dedo de Deus",
        "zipcode": "25946-280"
    },
    {
        "city": "Guapimirim",
        "state": "RJ",
        "district": "Bananal",
        "street": "Rua Francisco Fagundes Cardoso",
        "zipcode": "25946-479"
    },
    {
        "city": "Guapimirim",
        "state": "RJ",
        "district": "Parque Fleixal",
        "street": "Estrada dos Arrudas",
        "zipcode": "25946-349"
    },
    {
        "city": "Guapimirim",
        "state": "RJ",
        "district": "Parque Fleixal",
        "street": "Rua Daniela Perez",
        "zipcode": "25946-325"
    },
    {
        "city": "Guapimirim",
        "state": "RJ",
        "district": "Segredo",
        "street": "Rua Joaquim Elias Ribeiro",
        "zipcode": "25946-705"
    },
    {
        "city": "Guapimirim",
        "state": "RJ",
        "district": "Monte Oliveti",
        "street": "Rua O",
        "zipcode": "25948-252"
    },
    {
        "city": "Guapimirim",
        "state": "RJ",
        "district": "Bananal",
        "street": "Rua Estácio Manuel Cardoso",
        "zipcode": "25946-485"
    },
    {
        "city": "Guapimirim",
        "state": "RJ",
        "district": "Bananal",
        "street": "Praça Santana",
        "zipcode": "25946-452"
    },
    {
        "city": "Guapimirim",
        "state": "RJ",
        "district": "Vale Jequitibá",
        "street": "Rua Salathiel Antônio da Rosa",
        "zipcode": "25946-628"
    },
    {
        "city": "Guapimirim",
        "state": "RJ",
        "district": "Segredo",
        "street": "Rua José do Nascimento",
        "zipcode": "25946-695"
    },
    {
        "city": "Guapimirim",
        "state": "RJ",
        "district": "Barreira",
        "street": "Estrada da Barreira",
        "zipcode": "25948-420"
    },
    {
        "city": "Guapimirim",
        "state": "RJ",
        "district": "Barreira",
        "street": "Estrada Imperial",
        "zipcode": "25948-385"
    },
    {
        "city": "Guapimirim",
        "state": "RJ",
        "district": "Orindi",
        "street": "Estrada do Paraíso",
        "zipcode": "25947-790"
    },
    {
        "city": "Guapimirim",
        "state": "RJ",
        "district": "Quinta Mariana",
        "street": "Rua Gilberto Corrêa",
        "zipcode": "25946-541"
    },
    {
        "city": "Guapimirim",
        "state": "RJ",
        "district": "Vale Jequitibá",
        "street": "Rua São Paulo",
        "zipcode": "25946-592"
    },
    {
        "city": "Guapimirim",
        "state": "RJ",
        "district": "Vale Jequitibá",
        "street": "Rua Jair Pereira de Abreu",
        "zipcode": "25946-595"
    },
    {
        "city": "Guapimirim",
        "state": "RJ",
        "district": "Vale Jequitibá",
        "street": "Rua Izaltina de Souza",
        "zipcode": "25946-601"
    },
    {
        "city": "Guapimirim",
        "state": "RJ",
        "district": "Caneca Fina",
        "street": "Rua Seis (Jd Paraíso)",
        "zipcode": "25949-310"
    },
    {
        "city": "Guapimirim",
        "state": "RJ",
        "district": "Quinta Mariana",
        "street": "Rua Henrique de Sá Freire Burity",
        "zipcode": "25946-562"
    },
    {
        "city": "Guapimirim",
        "state": "RJ",
        "district": "Segredo",
        "street": "Rua Fiscal José Ventura",
        "zipcode": "25946-685"
    },
    {
        "city": "Guapimirim",
        "state": "RJ",
        "district": "Parque Fleixal",
        "street": "Rua Riacho Branco",
        "zipcode": "25946-322"
    },
    {
        "city": "Guapimirim",
        "state": "RJ",
        "district": "Segredo",
        "street": "Estrada Irineu Alves dos Santos",
        "zipcode": "25946-680"
    },
    {
        "city": "Guapimirim",
        "state": "RJ",
        "district": "Cotia",
        "street": "Estrada do Pau",
        "zipcode": "25947-060"
    },
    {
        "city": "Guapimirim",
        "state": "RJ",
        "district": "Bananal",
        "street": "Rua Lilian Cohen",
        "zipcode": "25946-458"
    },
    {
        "city": "Guapimirim",
        "state": "RJ",
        "district": "Caneca Fina",
        "street": "Rua Onze (Jd Paraíso)",
        "zipcode": "25949-300"
    },
    {
        "city": "Guapimirim",
        "state": "RJ",
        "district": "Caneca Fina",
        "street": "Rua Três (Jd Paraíso)",
        "zipcode": "25949-295"
    },
    {
        "city": "Guapimirim",
        "state": "RJ",
        "district": "Caneca Fina",
        "street": "Rua Doze (Jd Paraíso)",
        "zipcode": "25949-290"
    },
    {
        "city": "Guapimirim",
        "state": "RJ",
        "district": "Limoeiro",
        "street": "Rua III (Cond Alpha II)",
        "zipcode": "25948-690"
    },
    {
        "city": "Guapimirim",
        "state": "RJ",
        "district": "Corujas",
        "street": "Rua das Hortências",
        "zipcode": "25948-155"
    },
    {
        "city": "Guapimirim",
        "state": "RJ",
        "district": "Corujas",
        "street": "Rua dos Juritis",
        "zipcode": "25948-120"
    },
    {
        "city": "Guapimirim",
        "state": "RJ",
        "district": "Vale Jequitibá",
        "street": "Rua Anníbal Zaheter Kfuri",
        "zipcode": "25946-580"
    },
    {
        "city": "Guapimirim",
        "state": "RJ",
        "district": "Corujas",
        "street": "Rua A (Cond R da Serra)",
        "zipcode": "25948-200"
    },
    {
        "city": "Guapimirim",
        "state": "RJ",
        "district": "Corujas",
        "street": "Estrada da Pedreira",
        "zipcode": "25948-165"
    },
    {
        "city": "Guapimirim",
        "state": "RJ",
        "district": "Barreira",
        "street": "Estrada Bernardelli",
        "zipcode": "25948-405"
    },
    {
        "city": "Guapimirim",
        "state": "RJ",
        "district": "Parque Fleixal",
        "street": "Rua Manuel de Abreu",
        "zipcode": "25946-346"
    },
    {
        "city": "Guapimirim",
        "state": "RJ",
        "district": "Corujas",
        "street": "Rua C (Prq da Serra)",
        "zipcode": "25948-175"
    },
    {
        "city": "Guapimirim",
        "state": "RJ",
        "district": "Limoeiro",
        "street": "Rua Casuarinas",
        "zipcode": "25948-650"
    },
    {
        "city": "Guapimirim",
        "state": "RJ",
        "district": "Garrafão",
        "street": "Rua Alexandre Calazans",
        "zipcode": "25948-524"
    },
    {
        "city": "Guapimirim",
        "state": "RJ",
        "district": "Vale Jequitibá",
        "street": "Rua Achilles de Souza Gonçalves",
        "zipcode": "25946-604"
    },
    {
        "city": "Guapimirim",
        "state": "RJ",
        "district": "Monte Oliveti",
        "street": "Rua Lauro Klupel",
        "zipcode": "25948-224"
    },
    {
        "city": "Guapimirim",
        "state": "RJ",
        "district": "Corujas",
        "street": "Rua das Magnólias",
        "zipcode": "25948-140"
    },
    {
        "city": "Guapimirim",
        "state": "RJ",
        "district": "Corujas",
        "street": "Rua B (Cond R da Serra)",
        "zipcode": "25948-210"
    },
    {
        "city": "Guapimirim",
        "state": "RJ",
        "district": "Monte Oliveti",
        "street": "Rua E",
        "zipcode": "25948-240"
    },
    {
        "city": "Guapimirim",
        "state": "RJ",
        "district": "Vale Jequitibá",
        "street": "Rua Aníbal Chicri Kfuri",
        "zipcode": "25946-616"
    },
    {
        "city": "Guapimirim",
        "state": "RJ",
        "district": "Corujas",
        "street": "Estrada das Andorinhas",
        "zipcode": "25948-100"
    },
    {
        "city": "Guapimirim",
        "state": "RJ",
        "district": "Limoeiro",
        "street": "Rua VI (Cond Alpha II)",
        "zipcode": "25948-715"
    },
    {
        "city": "Guapimirim",
        "state": "RJ",
        "district": "Cotia",
        "street": "Estrada Martha Alcântara Fares",
        "zipcode": "25947-040"
    },
    {
        "city": "Guapimirim",
        "state": "RJ",
        "district": "Corujas",
        "street": "Rua C (Cond R da Serra)",
        "zipcode": "25948-205"
    },
    {
        "city": "Guapimirim",
        "state": "RJ",
        "district": "Corujas",
        "street": "Rua Um (Prq Sto Antônio)",
        "zipcode": "25948-135"
    },
    {
        "city": "Guapimirim",
        "state": "RJ",
        "district": "Monte Oliveti",
        "street": "Travessa dos Colibris",
        "zipcode": "25948-280"
    },
    {
        "city": "Guapimirim",
        "state": "RJ",
        "district": "Quinta Mariana",
        "street": "Rua Santa Luzia",
        "zipcode": "25946-550"
    },
    {
        "city": "Guapimirim",
        "state": "RJ",
        "district": "Monte Oliveti",
        "street": "Avenida Santana",
        "zipcode": "25948-276"
    },
    {
        "city": "Guapimirim",
        "state": "RJ",
        "district": "Limoeiro",
        "street": "Rua Dona Ormy",
        "zipcode": "25948-655"
    },
    {
        "city": "Guapimirim",
        "state": "RJ",
        "district": "Limoeiro",
        "street": "Rua XIII (Cond Alpha II)",
        "zipcode": "25948-680"
    },
    {
        "city": "Guapimirim",
        "state": "RJ",
        "district": "Vale Jequitibá",
        "street": "Rua Aliphia Zaheter Kfuri",
        "zipcode": "25946-610"
    },
    {
        "city": "Guapimirim",
        "state": "RJ",
        "district": "Cotia",
        "street": "Rua Fiscal José Ventura",
        "zipcode": "25947-000"
    },
    {
        "city": "Guapimirim",
        "state": "RJ",
        "district": "Monte Oliveti",
        "street": "Rua C",
        "zipcode": "25948-236"
    },
    {
        "city": "Guapimirim",
        "state": "RJ",
        "district": "Limoeiro",
        "street": "Rua IX (Cond Alpha II)",
        "zipcode": "25948-665"
    },
    {
        "city": "Guapimirim",
        "state": "RJ",
        "district": "Caneca Fina",
        "street": "Estrada da Caneca Fina",
        "zipcode": "25949-390"
    },
    {
        "city": "Guapimirim",
        "state": "RJ",
        "district": "Caneca Fina",
        "street": "Rua do Ipê",
        "zipcode": "25949-420"
    },
    {
        "city": "Guapimirim",
        "state": "RJ",
        "district": "Caneca Fina",
        "street": "Rua I (Vle das Nascentes)",
        "zipcode": "25949-380"
    },
    {
        "city": "Guapimirim",
        "state": "RJ",
        "district": "Caneca Fina",
        "street": "Rua J (Vle das Nascentes)",
        "zipcode": "25949-375"
    },
    {
        "city": "Guapimirim",
        "state": "RJ",
        "district": "Caneca Fina",
        "street": "Rua H (Vle das Nascentes)",
        "zipcode": "25949-370"
    },
    {
        "city": "Guapimirim",
        "state": "RJ",
        "district": "Caneca Fina",
        "street": "Rua D (Vle das Nascentes)",
        "zipcode": "25949-355"
    },
    {
        "city": "Guapimirim",
        "state": "RJ",
        "district": "Caneca Fina",
        "street": "Rua A (Vle das Nascentes)",
        "zipcode": "25949-340"
    },
    {
        "city": "Guapimirim",
        "state": "RJ",
        "district": "Caneca Fina",
        "street": "Rua Dez (Jd Paraíso)",
        "zipcode": "25949-330"
    },
    {
        "city": "Guapimirim",
        "state": "RJ",
        "district": "Corujas",
        "street": "Rodovia Santos Dumont",
        "zipcode": "25948-160"
    },
    {
        "city": "Guapimirim",
        "state": "RJ",
        "district": "Monte Oliveti",
        "street": "Estrada Paulo Rose",
        "zipcode": "25948-232"
    },
    {
        "city": "Guapimirim",
        "state": "RJ",
        "district": "Limoeiro",
        "street": "Rua IV (Cond Alpha II)",
        "zipcode": "25948-720"
    },
    {
        "city": "Guapimirim",
        "state": "RJ",
        "district": "Limoeiro",
        "street": "Rua VII (Cond Alpha I)",
        "zipcode": "25948-770"
    },
    {
        "city": "Guapimirim",
        "state": "RJ",
        "district": "Corujas",
        "street": "Rua das Acácias (Prq Serrano)",
        "zipcode": "25948-145"
    },
    {
        "city": "Guapimirim",
        "state": "RJ",
        "district": "Corujas",
        "street": "Rua das Acácias (Prq da Serra)",
        "zipcode": "25948-185"
    },
    {
        "city": "Guapimirim",
        "state": "RJ",
        "district": "Barreira",
        "street": "Rodovia Santos Dumont",
        "zipcode": "25948-380"
    },
    {
        "city": "Guapimirim",
        "state": "RJ",
        "district": "Corujas",
        "street": "Rua Herbert Schroll",
        "zipcode": "25948-130"
    },
    {
        "city": "Guapimirim",
        "state": "RJ",
        "district": "Monte Oliveti",
        "street": "Rua D",
        "zipcode": "25948-244"
    },
    {
        "city": "Guapimirim",
        "state": "RJ",
        "district": "Limoeiro",
        "street": "Rua Queiroz",
        "zipcode": "25948-645"
    },
    {
        "city": "Guapimirim",
        "state": "RJ",
        "district": "Monte Oliveti",
        "street": "Estrada Imperial",
        "zipcode": "25948-272"
    },
    {
        "city": "Guapimirim",
        "state": "RJ",
        "district": "Limoeiro",
        "street": "Rua XV (Cond Alpha I)",
        "zipcode": "25948-755"
    },
    {
        "city": "Guapimirim",
        "state": "RJ",
        "district": "Corujas",
        "street": "Rua das Azaleias (Prq Serrano)",
        "zipcode": "25948-150"
    },
    {
        "city": "Guapimirim",
        "state": "RJ",
        "district": "Corujas",
        "street": "Rua F (Prq da Serra)",
        "zipcode": "25948-180"
    },
    {
        "city": "Guapimirim",
        "state": "RJ",
        "district": "Monte Oliveti",
        "street": "Rua H",
        "zipcode": "25948-220"
    },
    {
        "city": "Guapimirim",
        "state": "RJ",
        "district": "Monte Oliveti",
        "street": "Rua dos Colibris",
        "zipcode": "25948-284"
    },
    {
        "city": "Guapimirim",
        "state": "RJ",
        "district": "Barreira",
        "street": "Estrada do Venâncio",
        "zipcode": "25948-390"
    },
    {
        "city": "Guapimirim",
        "state": "RJ",
        "district": "Limoeiro",
        "street": "Rua Willian Galvão da Silva",
        "zipcode": "25948-635"
    },
    {
        "city": "Guapimirim",
        "state": "RJ",
        "district": "Limoeiro",
        "street": "Rua VIII (Cond Alpha I)",
        "zipcode": "25948-785"
    },
    {
        "city": "Guapimirim",
        "state": "RJ",
        "district": "Várzea Alegre",
        "street": "Rua Dona Ivone",
        "zipcode": "25940-119"
    },
    {
        "city": "Guapimirim",
        "state": "RJ",
        "district": "Iconha",
        "street": "Rua C (Cond Vle das Acácias)",
        "zipcode": "25949-145"
    },
    {
        "city": "Guapimirim",
        "state": "RJ",
        "district": "Iconha",
        "street": "Rua D (Cond Vle das Acácias)",
        "zipcode": "25949-150"
    },
    {
        "city": "Guapimirim",
        "state": "RJ",
        "district": "Iconha",
        "street": "Rua H (Cond Vle do Rio)",
        "zipcode": "25949-080"
    },
    {
        "city": "Guapimirim",
        "state": "RJ",
        "district": "Iconha",
        "street": "Rua F (Cond Vle do Rio)",
        "zipcode": "25949-085"
    },
    {
        "city": "Guapimirim",
        "state": "RJ",
        "district": "Iconha",
        "street": "Rua G (Cond Vle do Rio)",
        "zipcode": "25949-090"
    },
    {
        "city": "Guapimirim",
        "state": "RJ",
        "district": "Iconha",
        "street": "Rua I (Cond Vle do Rio)",
        "zipcode": "25949-095"
    },
    {
        "city": "Guapimirim",
        "state": "RJ",
        "district": "Iconha",
        "street": "Rua B (Cond Vle do Rio)",
        "zipcode": "25949-105"
    },
    {
        "city": "Guapimirim",
        "state": "RJ",
        "district": "Iconha",
        "street": "Rua D (Cond Vle do Rio)",
        "zipcode": "25949-115"
    },
    {
        "city": "Guapimirim",
        "state": "RJ",
        "district": "Iconha",
        "street": "Rua C (Cond Vle do Rio)",
        "zipcode": "25949-120"
    },
    {
        "city": "Guapimirim",
        "state": "RJ",
        "district": "Iconha",
        "street": "Rua B (Cond Vle das Acácias)",
        "zipcode": "25949-140"
    },
    {
        "city": "Guapimirim",
        "state": "RJ",
        "district": "Limoeiro",
        "street": "Rua Soberbo",
        "zipcode": "25948-870"
    },
    {
        "city": "Guapimirim",
        "state": "RJ",
        "district": "Iconha",
        "street": "Estrada da Caneca Fina",
        "zipcode": "25949-130"
    },
    {
        "city": "Guapimirim",
        "state": "RJ",
        "district": "Vila Olímpia",
        "street": "Estrada do Contorno",
        "zipcode": "25940-160"
    },
    {
        "city": "Guapimirim",
        "state": "RJ",
        "district": "Paraíso",
        "street": "Travessa Quatro",
        "zipcode": "25949-885"
    },
    {
        "city": "Guapimirim",
        "state": "RJ",
        "district": "Paraíso",
        "street": "Travessa Dois",
        "zipcode": "25949-880"
    },
    {
        "city": "Guapimirim",
        "state": "RJ",
        "district": "Paraíso",
        "street": "Travessa Um",
        "zipcode": "25949-875"
    },
    {
        "city": "Guapimirim",
        "state": "RJ",
        "district": "Iconha",
        "street": "Rua Sônia",
        "zipcode": "25949-060"
    },
    {
        "city": "Guapimirim",
        "state": "RJ",
        "district": "Limoeiro",
        "street": "Rua Cristóvão Barnabé dos Santos",
        "zipcode": "25948-885"
    },
    {
        "city": "Guapimirim",
        "state": "RJ",
        "district": "Limoeiro",
        "street": "Rua Nancy",
        "zipcode": "25948-840"
    },
    {
        "city": "Guapimirim",
        "state": "RJ",
        "district": "Limoeiro",
        "street": "Rua Major Rubens Vaz",
        "zipcode": "25948-865"
    },
    {
        "city": "Guapimirim",
        "state": "RJ",
        "district": "Iconha",
        "street": "Rua Lourdes",
        "zipcode": "25949-070"
    },
    {
        "city": "Guapimirim",
        "state": "RJ",
        "district": "Limoeiro",
        "street": "Rua XI (Cond Alpha I)",
        "zipcode": "25948-810"
    },
    {
        "city": "Guapimirim",
        "state": "RJ",
        "district": "Limoeiro",
        "street": "Rua D (Ch E Rios)",
        "zipcode": "25948-835"
    },
    {
        "city": "Guapimirim",
        "state": "RJ",
        "district": "Limoeiro",
        "street": "Rua Trinta de Abril",
        "zipcode": "25948-895"
    },
    {
        "city": "Guapimirim",
        "state": "RJ",
        "district": "Iconha",
        "street": "Rua dos Manacás",
        "zipcode": "25949-160"
    },
    {
        "city": "Guapimirim",
        "state": "RJ",
        "district": "Iconha",
        "street": "Travessa Ízis",
        "zipcode": "25949-055"
    },
    {
        "city": "Guapimirim",
        "state": "RJ",
        "district": "Limoeiro",
        "street": "Rua Quatro (Jd Soberbo)",
        "zipcode": "25948-880"
    },
    {
        "city": "Guapimirim",
        "state": "RJ",
        "district": "Iconha",
        "street": "Rua das Camélias",
        "zipcode": "25949-170"
    },
    {
        "city": "Guapimirim",
        "state": "RJ",
        "district": "Limoeiro",
        "street": "Rua XIV (Cond Alpha II)",
        "zipcode": "25948-685"
    },
    {
        "city": "Guapimirim",
        "state": "RJ",
        "district": "Iconha",
        "street": "Rua Ieda",
        "zipcode": "25949-050"
    },
    {
        "city": "Guapimirim",
        "state": "RJ",
        "district": "Limoeiro",
        "street": "Rua IX (Cond Alpha I)",
        "zipcode": "25948-800"
    },
    {
        "city": "Guapimirim",
        "state": "RJ",
        "district": "Limoeiro",
        "street": "Rua da Luz",
        "zipcode": "25948-845"
    },
    {
        "city": "Guapimirim",
        "state": "RJ",
        "district": "Limoeiro",
        "street": "Rua XIII (Cond Alpha I)",
        "zipcode": "25948-795"
    },
    {
        "city": "Guapimirim",
        "state": "RJ",
        "district": "Limoeiro",
        "street": "Rua Mangaratiba",
        "zipcode": "25948-860"
    },
    {
        "city": "Guapimirim",
        "state": "RJ",
        "district": "Iconha",
        "street": "Rua E (Cond Vle do Rio)",
        "zipcode": "25949-110"
    },
    {
        "city": "Guapimirim",
        "state": "RJ",
        "district": "Limoeiro",
        "street": "Rua IV (Cond Alpha I)",
        "zipcode": "25948-750"
    },
    {
        "city": "Guapimirim",
        "state": "RJ",
        "district": "Iconha",
        "street": "Rua das Avencas",
        "zipcode": "25949-165"
    },
    {
        "city": "Guapimirim",
        "state": "RJ",
        "district": "Limoeiro",
        "street": "Rua da Emancipação",
        "zipcode": "25948-890"
    },
    {
        "city": "Guapimirim",
        "state": "RJ",
        "district": "Limoeiro",
        "street": "Rua XVI (Cond Alpha I)",
        "zipcode": "25948-760"
    },
    {
        "city": "Guapimirim",
        "state": "RJ",
        "district": "Paraíso",
        "street": "Travessa Três",
        "zipcode": "25949-870"
    },
    {
        "city": "Guapimirim",
        "state": "RJ",
        "district": "Paraíso",
        "street": "Travessa Seis",
        "zipcode": "25949-860"
    },
    {
        "city": "Guapimirim",
        "state": "RJ",
        "district": "Paraíso",
        "street": "Travessa Sete",
        "zipcode": "25949-855"
    },
    {
        "city": "Guapimirim",
        "state": "RJ",
        "district": "Paraíso",
        "street": "Travessa Nove",
        "zipcode": "25949-850"
    },
    {
        "city": "Guapimirim",
        "state": "RJ",
        "district": "Paraíso",
        "street": "Travessa Oito",
        "zipcode": "25949-845"
    },
    {
        "city": "Guapimirim",
        "state": "RJ",
        "district": "Caneca Fina",
        "street": "Rua Mogno",
        "zipcode": "25949-500"
    },
    {
        "city": "Guapimirim",
        "state": "RJ",
        "district": "Caneca Fina",
        "street": "Rua Jequitibá",
        "zipcode": "25949-465"
    },
    {
        "city": "Guapimirim",
        "state": "RJ",
        "district": "Caneca Fina",
        "street": "Rua Carvalho",
        "zipcode": "25949-435"
    },
    {
        "city": "Guapimirim",
        "state": "RJ",
        "district": "Vila Olímpia",
        "street": "Rua Kepler",
        "zipcode": "25940-199"
    },
    {
        "city": "Guapimirim",
        "state": "RJ",
        "district": "Vila Olímpia",
        "street": "Rua Vesta",
        "zipcode": "25940-214"
    },
    {
        "city": "Guapimirim",
        "state": "RJ",
        "district": "Vila Olímpia",
        "street": "Rua E (Jd Sto Amaro)",
        "zipcode": "25940-229"
    },
    {
        "city": "Guapimirim",
        "state": "RJ",
        "district": "Vale das Pedrinhas",
        "street": "Rua Cento e Dois",
        "zipcode": "25940-310"
    },
    {
        "city": "Guapimirim",
        "state": "RJ",
        "district": "Vale das Pedrinhas",
        "street": "Rua Noventa e Cinco",
        "zipcode": "25940-390"
    },
    {
        "city": "Guapimirim",
        "state": "RJ",
        "district": "Iconha",
        "street": "Rua C (Cond M Dornelas)",
        "zipcode": "25949-275"
    },
    {
        "city": "Guapimirim",
        "state": "RJ",
        "district": "Iconha",
        "street": "Rua B (Cond M Dornelas)",
        "zipcode": "25949-270"
    },
    {
        "city": "Guapimirim",
        "state": "RJ",
        "district": "Iconha",
        "street": "Rua A (Cond M Dornelas)",
        "zipcode": "25949-265"
    },
    {
        "city": "Guapimirim",
        "state": "RJ",
        "district": "Limoeiro",
        "street": "Rua E (Ch E Rios)",
        "zipcode": "25948-815"
    },
    {
        "city": "Guapimirim",
        "state": "RJ",
        "district": "Iconha",
        "street": "Rua José Francisco Gomes",
        "zipcode": "25949-125"
    },
    {
        "city": "Guapimirim",
        "state": "RJ",
        "district": "Iconha",
        "street": "Rua Walcir Moreira",
        "zipcode": "25949-035"
    },
    {
        "city": "Guapimirim",
        "state": "RJ",
        "district": "Iconha",
        "street": "Rua das Acácias",
        "zipcode": "25949-180"
    },
    {
        "city": "Guapimirim",
        "state": "RJ",
        "district": "Limoeiro",
        "street": "Rua B (Ch E Rios)",
        "zipcode": "25948-825"
    },
    {
        "city": "Guapimirim",
        "state": "RJ",
        "district": "Vale das Pedrinhas",
        "street": "Rua Noventa e Oito",
        "zipcode": "25940-415"
    },
    {
        "city": "Guapimirim",
        "state": "RJ",
        "district": "Iconha",
        "street": "Rua D (Cond M Dornelas)",
        "zipcode": "25949-250"
    },
    {
        "city": "Guapimirim",
        "state": "RJ",
        "district": "Vale das Pedrinhas",
        "street": "Rua Oitenta",
        "zipcode": "25940-480"
    },
    {
        "city": "Guapimirim",
        "state": "RJ",
        "district": "Vale das Pedrinhas",
        "street": "Rua Oitenta e Seis",
        "zipcode": "25940-505"
    },
    {
        "city": "Guapimirim",
        "state": "RJ",
        "district": "Parada Modelo",
        "street": "Rua Projetada Dois",
        "zipcode": "25943-488"
    },
    {
        "city": "Guapimirim",
        "state": "RJ",
        "district": "Parada Modelo",
        "street": "Rua Nilo Tito",
        "zipcode": "25943-533"
    },
    {
        "city": "Guapimirim",
        "state": "RJ",
        "district": "Parada Modelo",
        "street": "Rua João Nogueira da Silva",
        "zipcode": "25943-554"
    },
    {
        "city": "Guapimirim",
        "state": "RJ",
        "district": "Parada Modelo",
        "street": "Rua F",
        "zipcode": "25943-611"
    },
    {
        "city": "Guapimirim",
        "state": "RJ",
        "district": "Parada Modelo",
        "street": "Rua J",
        "zipcode": "25943-626"
    },
    {
        "city": "Guapimirim",
        "state": "RJ",
        "district": "Nova Marília",
        "street": "Rua Oitenta",
        "zipcode": "25941-110"
    },
    {
        "city": "Guapimirim",
        "state": "RJ",
        "district": "Nova Marília",
        "street": "Rua Sessenta",
        "zipcode": "25941-135"
    },
    {
        "city": "Guapimirim",
        "state": "RJ",
        "district": "Nova Marília",
        "street": "Rua Agápito Cazunda",
        "zipcode": "25941-165"
    },
    {
        "city": "Guapimirim",
        "state": "RJ",
        "district": "Citrolândia",
        "street": "Rua Três (Prq Sta Filomena)",
        "zipcode": "25942-470"
    },
    {
        "city": "Guapimirim",
        "state": "RJ",
        "district": "Citrolândia",
        "street": "Rua Nove (Prq Sta Filomena)",
        "zipcode": "25942-500"
    },
    {
        "city": "Guapimirim",
        "state": "RJ",
        "district": "Parada Ideal",
        "street": "Rua dos Ipês",
        "zipcode": "25942-672"
    },
    {
        "city": "Guapimirim",
        "state": "RJ",
        "district": "Vale das Pedrinhas",
        "street": "Rua Cento e Dezesseis",
        "zipcode": "25940-320"
    },
    {
        "city": "Guapimirim",
        "state": "RJ",
        "district": "Parque Santa Eugênia",
        "street": "Rua Santa Eugênia",
        "zipcode": "25943-236"
    },
    {
        "city": "Guapimirim",
        "state": "RJ",
        "district": "Vale das Pedrinhas",
        "street": "Estrada do Contorno",
        "zipcode": "25940-585"
    },
    {
        "city": "Guapimirim",
        "state": "RJ",
        "district": "Vale das Pedrinhas",
        "street": "Rua Cento e Vinte e Um",
        "zipcode": "25940-360"
    },
    {
        "city": "Guapimirim",
        "state": "RJ",
        "district": "Caneca Fina",
        "street": "Rua Alan Kardec",
        "zipcode": "25949-305"
    },
    {
        "city": "Guapimirim",
        "state": "RJ",
        "district": "Iconha",
        "street": "Rua das Gardênias",
        "zipcode": "25949-220"
    },
    {
        "city": "Guapimirim",
        "state": "RJ",
        "district": "Iconha",
        "street": "Rua das Calêndulas",
        "zipcode": "25949-245"
    },
    {
        "city": "Guapimirim",
        "state": "RJ",
        "district": "Vale das Pedrinhas",
        "street": "Rua José Donato Fonseca",
        "zipcode": "25940-275"
    },
    {
        "city": "Guapimirim",
        "state": "RJ",
        "district": "Iconha",
        "street": "Rua das Begônias",
        "zipcode": "25949-205"
    },
    {
        "city": "Guapimirim",
        "state": "RJ",
        "district": "Iconha",
        "street": "Rua das Açucenas",
        "zipcode": "25949-210"
    },
    {
        "city": "Guapimirim",
        "state": "RJ",
        "district": "Iconha",
        "street": "Rua das Bromélias",
        "zipcode": "25949-185"
    },
    {
        "city": "Guapimirim",
        "state": "RJ",
        "district": "Iconha",
        "street": "Rua dos Crisântemos",
        "zipcode": "25949-200"
    },
    {
        "city": "Guapimirim",
        "state": "RJ",
        "district": "Caneca Fina",
        "street": "Rua Peroba",
        "zipcode": "25949-485"
    },
    {
        "city": "Guapimirim",
        "state": "RJ",
        "district": "Caneca Fina",
        "street": "Rua Sucupira",
        "zipcode": "25949-490"
    },
    {
        "city": "Guapimirim",
        "state": "RJ",
        "district": "Iconha",
        "street": "Rua Wálter Moreira",
        "zipcode": "25949-030"
    },
    {
        "city": "Guapimirim",
        "state": "RJ",
        "district": "Caneca Fina",
        "street": "Rua Salsa",
        "zipcode": "25949-495"
    },
    {
        "city": "Guapimirim",
        "state": "RJ",
        "district": "Iconha",
        "street": "Rua Dona Esmeraldina",
        "zipcode": "25949-005"
    },
    {
        "city": "Guapimirim",
        "state": "RJ",
        "district": "Iconha",
        "street": "Rua das Alamandas",
        "zipcode": "25949-230"
    },
    {
        "city": "Guapimirim",
        "state": "RJ",
        "district": "Centro",
        "street": "Rua João Francisco Wrigth",
        "zipcode": "25946-970"
    },
    {
        "city": "Guapimirim",
        "state": "RJ",
        "district": "Iconha",
        "street": "Rua das Quaresmas",
        "zipcode": "25949-240"
    },
    {
        "city": "Guapimirim",
        "state": "RJ",
        "district": "Iconha",
        "street": "Rua Alziro Moreira Filho",
        "zipcode": "25949-020"
    },
    {
        "city": "Guapimirim",
        "state": "RJ",
        "district": "Iconha",
        "street": "Rua Sebastião Moreira Lopes",
        "zipcode": "25949-015"
    },
    {
        "city": "Guapimirim",
        "state": "RJ",
        "district": "Iconha",
        "street": "Rua Vista Alegre",
        "zipcode": "25949-010"
    },
    {
        "city": "Guapimirim",
        "state": "RJ",
        "district": "Iconha",
        "street": "Rua das Perperomias",
        "zipcode": "25949-195"
    },
    {
        "city": "Guapimirim",
        "state": "RJ",
        "district": "Cantagalo",
        "street": "Travessa dos Coqueiros",
        "zipcode": "25945-420"
    },
    {
        "city": "Guapimirim",
        "state": "RJ",
        "district": "Parque Silvestre",
        "street": "Rua Cecília Dias",
        "zipcode": "25945-534"
    },
    {
        "city": "Guapimirim",
        "state": "RJ",
        "district": "Parque Silvestre",
        "street": "Rua Rosane Cássia",
        "zipcode": "25945-558"
    },
    {
        "city": "Guapimirim",
        "state": "RJ",
        "district": "Parque Silvestre",
        "street": "Rua dos Araçás",
        "zipcode": "25945-594"
    },
    {
        "city": "Guapimirim",
        "state": "RJ",
        "district": "Parque Silvestre",
        "street": "Rua das Mangueiras",
        "zipcode": "25945-598"
    },
    {
        "city": "Guapimirim",
        "state": "RJ",
        "district": "Orindi",
        "street": "Travessa Um",
        "zipcode": "25947-770"
    },
    {
        "city": "Guapimirim",
        "state": "RJ",
        "district": "Centro",
        "street": "Rua D (Lot Teixeira)",
        "zipcode": "25946-160"
    },
    {
        "city": "Guapimirim",
        "state": "RJ",
        "district": "Centro",
        "street": "Rua Belmiro Vivas",
        "zipcode": "25946-175"
    },
    {
        "city": "Guapimirim",
        "state": "RJ",
        "district": "Caneca Fina",
        "street": "Rua Oito (Jd Paraíso)",
        "zipcode": "25949-280"
    },
    {
        "city": "Guapimirim",
        "state": "RJ",
        "district": "Centro",
        "street": "Rua Professor Rocha Farias",
        "zipcode": "25946-079"
    },
    {
        "city": "Guapimirim",
        "state": "RJ",
        "district": "Cidade Jardim Guapimirim",
        "street": "Rua Francisco Buarque",
        "zipcode": "25943-377"
    },
    {
        "city": "Guapimirim",
        "state": "RJ",
        "district": "Caneca Fina",
        "street": "Rua Bungavilia (Cond Bsq Sossego)",
        "zipcode": "25949-410"
    },
    {
        "city": "Guapimirim",
        "state": "RJ",
        "district": "Caneca Fina",
        "street": "Rua Sabiá",
        "zipcode": "25949-515"
    },
    {
        "city": "Guapimirim",
        "state": "RJ",
        "district": "Caneca Fina",
        "street": "Rua Jacarandá",
        "zipcode": "25949-475"
    },
    {
        "city": "Guapimirim",
        "state": "RJ",
        "district": "Caneca Fina",
        "street": "Rua Buganvilia (Vle das Nascentes)",
        "zipcode": "25949-345"
    },
    {
        "city": "Guapimirim",
        "state": "RJ",
        "district": "Iconha",
        "street": "Rua Nagib dos Santos Germano",
        "zipcode": "25949-255"
    },
    {
        "city": "Guapimirim",
        "state": "RJ",
        "district": "Parada Ideal",
        "street": "Rua Cinco (Gja Ideal)",
        "zipcode": "25942-688"
    },
    {
        "city": "Guapimirim",
        "state": "RJ",
        "district": "Parada Ideal",
        "street": "Rua Francisco Braz Filho",
        "zipcode": "25942-724"
    },
    {
        "city": "Guapimirim",
        "state": "RJ",
        "district": "Caneca Fina",
        "street": "Rua Azaleias (Cond Bsq Sossego)",
        "zipcode": "25949-405"
    },
    {
        "city": "Guapimirim",
        "state": "RJ",
        "district": "Iconha",
        "street": "Rua Jasmins",
        "zipcode": "25949-225"
    },
    {
        "city": "Guapimirim",
        "state": "RJ",
        "district": "Iconha",
        "street": "Rua E (Cond M Dornelas)",
        "zipcode": "25949-260"
    },
    {
        "city": "Guapimirim",
        "state": "RJ",
        "district": "Iconha",
        "street": "Rua das Palmas",
        "zipcode": "25949-215"
    },
    {
        "city": "Guapimirim",
        "state": "RJ",
        "district": "Bananal",
        "street": "Rua Luiz Vicente",
        "zipcode": "25946-461"
    },
    {
        "city": "Guapimirim",
        "state": "RJ",
        "district": "Limoeiro",
        "street": "Rua V (Cond Alpha I)",
        "zipcode": "25948-740"
    },
    {
        "city": "Guapimirim",
        "state": "RJ",
        "district": "Bananal",
        "street": "Rua Ozeias de Oliveira",
        "zipcode": "25946-503"
    },
    {
        "city": "Guapimirim",
        "state": "RJ",
        "district": "Citrolândia",
        "street": "Rua Santo Antônio",
        "zipcode": "25942-390"
    },
    {
        "city": "Guapimirim",
        "state": "RJ",
        "district": "Centro",
        "street": "Rua Mangaratiba",
        "zipcode": "25946-088"
    },
    {
        "city": "Guapimirim",
        "state": "RJ",
        "district": "Paraíso",
        "street": "Estrada do Paraíso",
        "zipcode": "25949-840"
    },
    {
        "city": "Guapimirim",
        "state": "RJ",
        "district": "Paraíso",
        "street": "Travessa Cinco",
        "zipcode": "25949-865"
    },
    {
        "city": "Guapimirim",
        "state": "RJ",
        "district": "Caneca Fina",
        "street": "Rua Érica",
        "zipcode": "25949-520"
    },
    {
        "city": "Guapimirim",
        "state": "RJ",
        "district": "Vale das Pedrinhas",
        "street": "Rua Manoel de Souza Malheiros",
        "zipcode": "25940-775"
    },
    {
        "city": "Guapimirim",
        "state": "RJ",
        "district": "Cantagalo",
        "street": "Rua Teresópolis (Sit S Gabriel)",
        "zipcode": "25945-400"
    },
    {
        "city": "Guapimirim",
        "state": "RJ",
        "district": "Caneca Fina",
        "street": "Rua Lírio",
        "zipcode": "25949-545"
    },
    {
        "city": "Guapimirim",
        "state": "RJ",
        "district": "Parque Nossa Senhora da Ajuda",
        "street": "Rua Cinquenta e Um",
        "zipcode": "25941-410"
    },
    {
        "city": "Guapimirim",
        "state": "RJ",
        "district": "Caneca Fina",
        "street": "Rua Garapa",
        "zipcode": "25949-445"
    },
    {
        "city": "Guapimirim",
        "state": "RJ",
        "district": "Parque Santa Eugênia",
        "street": "Rua da Roça",
        "zipcode": "25943-200"
    },
    {
        "city": "Guapimirim",
        "state": "RJ",
        "district": "Parada Ideal",
        "street": "Rua D (Jd Sta Cláudia)",
        "zipcode": "25942-776"
    },
    {
        "city": "Guapimirim",
        "state": "RJ",
        "district": "Caneca Fina",
        "street": "Rua Cravo",
        "zipcode": "25949-530"
    },
    {
        "city": "Guapimirim",
        "state": "RJ",
        "district": "Caneca Fina",
        "street": "Rua Camélia",
        "zipcode": "25949-415"
    },
    {
        "city": "Guapimirim",
        "state": "RJ",
        "district": "Caneca Fina",
        "street": "Rua Louro",
        "zipcode": "25949-455"
    },
    {
        "city": "Guapimirim",
        "state": "RJ",
        "district": "Citrolândia",
        "street": "Rua Iracema Martins de Oliveira",
        "zipcode": "25942-325"
    },
    {
        "city": "Guapimirim",
        "state": "RJ",
        "district": "Caneca Fina",
        "street": "Rua Cerejeira",
        "zipcode": "25949-425"
    },
    {
        "city": "Guapimirim",
        "state": "RJ",
        "district": "Caneca Fina",
        "street": "Rua Orquídea",
        "zipcode": "25949-540"
    },
    {
        "city": "Guapimirim",
        "state": "RJ",
        "district": "Caneca Fina",
        "street": "Rua Azaleia (Pq S da C Fina)",
        "zipcode": "25949-535"
    },
    {
        "city": "Guapimirim",
        "state": "RJ",
        "district": "Vale das Pedrinhas",
        "street": "Rua José Álvares Maciel",
        "zipcode": "25940-570"
    },
    {
        "city": "Guapimirim",
        "state": "RJ",
        "district": "Parque Santa Eugênia",
        "street": "Rua Juliana",
        "zipcode": "25943-316"
    },
    {
        "city": "Guapimirim",
        "state": "RJ",
        "district": "Parque Nossa Senhora da Ajuda",
        "street": "Rua Quatorze",
        "zipcode": "25941-660"
    },
    {
        "city": "Guapimirim",
        "state": "RJ",
        "district": "Cidade Jardim Guapimirim",
        "street": "Rua Indoahy José da Silva",
        "zipcode": "25943-404"
    },
    {
        "city": "Guapimirim",
        "state": "RJ",
        "district": "Caneca Fina",
        "street": "Rua Marfim",
        "zipcode": "25949-430"
    },
    {
        "city": "Guapimirim",
        "state": "RJ",
        "district": "Caneca Fina",
        "street": "Rua Juriti",
        "zipcode": "25949-560"
    },
    {
        "city": "Guapimirim",
        "state": "RJ",
        "district": "Caneca Fina",
        "street": "Rua Bem",
        "zipcode": "25949-565"
    },
    {
        "city": "Guapimirim",
        "state": "RJ",
        "district": "Caneca Fina",
        "street": "Rua Flor de Maio",
        "zipcode": "25949-350"
    },
    {
        "city": "Guapimirim",
        "state": "RJ",
        "district": "Caneca Fina",
        "street": "Estrada do Taquaral",
        "zipcode": "25949-385"
    },
    {
        "city": "Guapimirim",
        "state": "RJ",
        "district": "Caneca Fina",
        "street": "Rua Dona Nethe",
        "zipcode": "25949-335"
    },
    {
        "city": "Guapimirim",
        "state": "RJ",
        "district": "Caneca Fina",
        "street": "Rua Flamboyant",
        "zipcode": "25949-360"
    },
    {
        "city": "Guapimirim",
        "state": "RJ",
        "district": "Caneca Fina",
        "street": "Rua Pinho",
        "zipcode": "25949-450"
    },
    {
        "city": "Guapimirim",
        "state": "RJ",
        "district": "Caneca Fina",
        "street": "Rua Andorinhas",
        "zipcode": "25949-550"
    },
    {
        "city": "Guapimirim",
        "state": "RJ",
        "district": "Vale Jequitibá",
        "street": "Avenida do Rio",
        "zipcode": "25946-586"
    },
    {
        "city": "Guapimirim",
        "state": "RJ",
        "district": "Vale Jequitibá",
        "street": "Rua da Maçonaria",
        "zipcode": "25946-613"
    },
    {
        "city": "Guapimirim",
        "state": "RJ",
        "district": "Caneca Fina",
        "street": "Estrada Júlio Santoro",
        "zipcode": "25949-400"
    },
    {
        "city": "Guapimirim",
        "state": "RJ",
        "district": "Caneca Fina",
        "street": "Rua G (Vle das Nascentes)",
        "zipcode": "25949-365"
    },
    {
        "city": "Guapimirim",
        "state": "RJ",
        "district": "Caneca Fina",
        "street": "Rua Dois (Jd Paraíso)",
        "zipcode": "25949-315"
    },
    {
        "city": "Guapimirim",
        "state": "RJ",
        "district": "Vale Jequitibá",
        "street": "Rua Projetada Um",
        "zipcode": "25946-596"
    },
    {
        "city": "Guapimirim",
        "state": "RJ",
        "district": "Vale Jequitibá",
        "street": "Rua Projetada Dois",
        "zipcode": "25946-597"
    },
    {
        "city": "Guapimirim",
        "state": "RJ",
        "district": "Várzea Alegre",
        "street": "Rua Dona Vera Lúcia",
        "zipcode": "25940-074"
    },
    {
        "city": "Guapimirim",
        "state": "RJ",
        "district": "Vale das Pedrinhas",
        "street": "Rua Cento e Cinco",
        "zipcode": "25940-315"
    },
    {
        "city": "Guapimirim",
        "state": "RJ",
        "district": "Centro",
        "street": "Rua Nicomédio Anselmo de Oliveira",
        "zipcode": "25946-238"
    },
    {
        "city": "Guapimirim",
        "state": "RJ",
        "district": "Centro",
        "street": "Rua Joel Lopes",
        "zipcode": "25946-277"
    },
    {
        "city": "Guapimirim",
        "state": "RJ",
        "district": "Cotia",
        "street": "Rua III (Cond da Ferradura)",
        "zipcode": "25947-080"
    },
    {
        "city": "Guapimirim",
        "state": "RJ",
        "district": "Cidade Jardim Guapimirim",
        "street": "Rua Ariosto Motta",
        "zipcode": "25943-392"
    },
    {
        "city": "Guapimirim",
        "state": "RJ",
        "district": "Centro",
        "street": "Rua Alcindo Guanabara",
        "zipcode": "25946-223"
    },
    {
        "city": "Guapimirim",
        "state": "RJ",
        "district": "Caneca Fina",
        "street": "Rua Nove (Jd Paraíso)",
        "zipcode": "25949-285"
    },
    {
        "city": "Guapimirim",
        "state": "RJ",
        "district": "Cidade Jardim Guapimirim",
        "street": "Rua Maria Francisca dos Santos Paz",
        "zipcode": "25943-356"
    },
    {
        "city": "Guapimirim",
        "state": "RJ",
        "district": "Parada Ideal",
        "street": "Estrada da Jaqueira",
        "zipcode": "25942-620"
    },
    {
        "city": "Guapimirim",
        "state": "RJ",
        "district": "Parque Fleixal",
        "street": "Rua Periandro José de Moura",
        "zipcode": "25946-337"
    },
    {
        "city": "Guapimirim",
        "state": "RJ",
        "district": "Corujas",
        "street": "Rua dos Colibris",
        "zipcode": "25948-125"
    },
    {
        "city": "Guapimirim",
        "state": "RJ",
        "district": "Caneca Fina",
        "street": "Rua Colibris",
        "zipcode": "25949-555"
    },
    {
        "city": "Guapimirim",
        "state": "RJ",
        "district": "Nova Marília",
        "street": "Estrada Leonídia Maria dos Santos",
        "zipcode": "25941-080"
    },
    {
        "city": "Guapimirim",
        "state": "RJ",
        "district": "Citrolândia",
        "street": "Avenida São Marcos da Granja",
        "zipcode": "25942-335"
    },
    {
        "city": "Guapimirim",
        "state": "RJ",
        "district": "Várzea Alegre",
        "street": "Rua Dona Edite",
        "zipcode": "25940-125"
    },
    {
        "city": "Guapimirim",
        "state": "RJ",
        "district": "Centro",
        "street": "Rua João Francisco Wrigth",
        "zipcode": "25946-214"
    },
    {
        "city": "Guapimirim",
        "state": "RJ",
        "district": "Caneca Fina",
        "street": "Rua Curió",
        "zipcode": "25949-570"
    },
    {
        "city": "Guapimirim",
        "state": "RJ",
        "district": "Vale das Pedrinhas",
        "street": "Rua Anhanguera",
        "zipcode": "25940-740"
    },
    {
        "city": "Guapimirim",
        "state": "RJ",
        "district": "Centro",
        "street": "Rua Conceição",
        "zipcode": "25946-100"
    },
    {
        "city": "Guapimirim",
        "state": "RJ",
        "district": "Centro",
        "street": "Rua Mário Alves",
        "zipcode": "25946-130"
    },
    {
        "city": "Guapimirim",
        "state": "RJ",
        "district": "Centro",
        "street": "Rua Dona Hortência Maria de Jesus",
        "zipcode": "25946-142"
    },
    {
        "city": "Guapimirim",
        "state": "RJ",
        "district": "Barreira",
        "street": "Travessa Paraíso",
        "zipcode": "25948-400"
    },
    {
        "city": "Guapimirim",
        "state": "RJ",
        "district": "Parada Modelo",
        "street": "Rua Álvaro Pinto de Oliveira",
        "zipcode": "25943-638"
    },
    {
        "city": "Guapimirim",
        "state": "RJ",
        "district": "Limoeiro",
        "street": "Rua X (Cond Alpha I)",
        "zipcode": "25948-805"
    },
    {
        "city": "Guapimirim",
        "state": "RJ",
        "district": "Nova Marília",
        "street": "Rua Oitenta e Dois",
        "zipcode": "25941-105"
    },
    {
        "city": "Guapimirim",
        "state": "RJ",
        "district": "Nova Marília",
        "street": "Rua Francisco Guimarães",
        "zipcode": "25941-140"
    },
    {
        "city": "Guapimirim",
        "state": "RJ",
        "district": "Citrolândia",
        "street": "Rua Dois (Prq Sta Filomena)",
        "zipcode": "25942-465"
    },
    {
        "city": "Guapimirim",
        "state": "RJ",
        "district": "Parque Santa Eugênia",
        "street": "Rua Laudelina Ferreira",
        "zipcode": "25943-272"
    },
    {
        "city": "Guapimirim",
        "state": "RJ",
        "district": "Parada Modelo",
        "street": "Rodovia Rio",
        "zipcode": "25943-548"
    },
    {
        "city": "Guapimirim",
        "state": "RJ",
        "district": "Quinta Mariana",
        "street": "Rua Lauro Matos Domingos",
        "zipcode": "25946-529"
    },
    {
        "city": "Guapimirim",
        "state": "RJ",
        "district": "Vale Jequitibá",
        "street": "Rua Antônio Faustino de Mello",
        "zipcode": "25946-607"
    },
    {
        "city": "Guapimirim",
        "state": "RJ",
        "district": "Corujas",
        "street": "Rua dos Curiós",
        "zipcode": "25948-115"
    },
    {
        "city": "Guapimirim",
        "state": "RJ",
        "district": "Várzea Alegre",
        "street": "Rua Dona Inês",
        "zipcode": "25940-107"
    },
    {
        "city": "Guapimirim",
        "state": "RJ",
        "district": "Vale das Pedrinhas",
        "street": "Rua Bartolomeu Mitre",
        "zipcode": "25940-440"
    },
    {
        "city": "Guapimirim",
        "state": "RJ",
        "district": "Parada Ideal",
        "street": "Rua Severino Belmiro de Lima",
        "zipcode": "25942-656"
    },
    {
        "city": "Guapimirim",
        "state": "RJ",
        "district": "Limoeiro",
        "street": "Rua XI (Cond Alpha II)",
        "zipcode": "25948-660"
    },
    {
        "city": "Guapimirim",
        "state": "RJ",
        "district": "Cantagalo",
        "street": "Rua Guapi (Jd Itamonte)",
        "zipcode": "25945-380"
    },
    {
        "city": "Guapimirim",
        "state": "RJ",
        "district": "Vale das Pedrinhas",
        "street": "Rua Marquês de Barbacena",
        "zipcode": "25940-635"
    },
    {
        "city": "Guapimirim",
        "state": "RJ",
        "district": "Quinta Mariana",
        "street": "Rua E (Jd Qta Mariana)",
        "zipcode": "25946-553"
    },
    {
        "city": "Guapimirim",
        "state": "RJ",
        "district": "Cadetes Fabres",
        "street": "Rua C (Cond Lg dos Cisnes)",
        "zipcode": "25943-774"
    },
    {
        "city": "Guapimirim",
        "state": "RJ",
        "district": "Caneca Fina",
        "street": "Estrada Sucavão",
        "zipcode": "25949-395"
    },
    {
        "city": "Guapimirim",
        "state": "RJ",
        "district": "Vale das Pedrinhas",
        "street": "Rua Antônio Borret",
        "zipcode": "25940-630"
    },
    {
        "city": "Guapimirim",
        "state": "RJ",
        "district": "Cantagalo",
        "street": "Rua Teresópolis (Lot Guapi Vila)",
        "zipcode": "25945-312"
    },
    {
        "city": "Guapimirim",
        "state": "RJ",
        "district": "Parque Fleixal",
        "street": "Rua Leia",
        "zipcode": "25946-304"
    },
    {
        "city": "Guapimirim",
        "state": "RJ",
        "district": "Iconha",
        "street": "Rua Albertino Lopes Xavier",
        "zipcode": "25949-075"
    },
    {
        "city": "Guapimirim",
        "state": "RJ",
        "district": "Cantagalo",
        "street": "Rua São João (Lot Guapi Vila)",
        "zipcode": "25945-304"
    },
    {
        "city": "Guapimirim",
        "state": "RJ",
        "district": "Parada Ideal",
        "street": "Avenida do Canal",
        "zipcode": "25942-632"
    },
    {
        "city": "Guapimirim",
        "state": "RJ",
        "district": "Iconha",
        "street": "Rua Hélio Rezende Coelho",
        "zipcode": "25949-155"
    },
    {
        "city": "Guapimirim",
        "state": "RJ",
        "district": "Citrolândia",
        "street": "Rua Quatro (Gja S Marcos)",
        "zipcode": "25942-250"
    },
    {
        "city": "Guapimirim",
        "state": "RJ",
        "district": "Caneca Fina",
        "street": "Rua Pinus",
        "zipcode": "25949-505"
    },
    {
        "city": "Guapimirim",
        "state": "RJ",
        "district": "Várzea Alegre",
        "street": "Rua Doutor Otávio",
        "zipcode": "25940-056"
    },
    {
        "city": "Guapimirim",
        "state": "RJ",
        "district": "Várzea Alegre",
        "street": "Avenida Major Delfim",
        "zipcode": "25940-098"
    },
    {
        "city": "Guapimirim",
        "state": "RJ",
        "district": "Várzea Alegre",
        "street": "Avenida Max Wolf",
        "zipcode": "25940-116"
    },
    {
        "city": "Guapimirim",
        "state": "RJ",
        "district": "Vila Olímpia",
        "street": "Rua Mercúrio",
        "zipcode": "25940-166"
    },
    {
        "city": "Guapimirim",
        "state": "RJ",
        "district": "Vila Olímpia",
        "street": "Rua Júpiter",
        "zipcode": "25940-178"
    },
    {
        "city": "Guapimirim",
        "state": "RJ",
        "district": "Cotia",
        "street": "Rua II (Cond da Ferradura)",
        "zipcode": "25947-070"
    },
    {
        "city": "Guapimirim",
        "state": "RJ",
        "district": "Paiol",
        "street": "Rua Jaime Portela",
        "zipcode": "25945-865"
    },
    {
        "city": "Guapimirim",
        "state": "RJ",
        "district": "Centro",
        "street": "Rua Paulo Francisco Bragança",
        "zipcode": "25946-139"
    },
    {
        "city": "Guapimirim",
        "state": "RJ",
        "district": "Cadetes Fabres",
        "street": "Rua Pedro Miranda (1º Zona)",
        "zipcode": "25943-686"
    },
    {
        "city": "Guapimirim",
        "state": "RJ",
        "district": "Quinta Mariana",
        "street": "Rua João Mariano da Silva",
        "zipcode": "25946-532"
    },
    {
        "city": "Guapimirim",
        "state": "RJ",
        "district": "Cantagalo",
        "street": "Rua Fidelina Alves de Moraes",
        "zipcode": "25945-344"
    },
    {
        "city": "Guapimirim",
        "state": "RJ",
        "district": "Parque Santa Eugênia",
        "street": "Rodovia Santos Dumont",
        "zipcode": "25943-320"
    },
    {
        "city": "Guapimirim",
        "state": "RJ",
        "district": "Centro",
        "street": "Rua Freixal",
        "zipcode": "25946-193"
    },
    {
        "city": "Guapimirim",
        "state": "RJ",
        "district": "Cadetes Fabres",
        "street": "Rua Esperança Sebastiana Geraldo Picone Soares",
        "zipcode": "25943-854"
    },
    {
        "city": "Guapimirim",
        "state": "RJ",
        "district": "Parque Fleixal",
        "street": "Rua Vereador Moacyr Pimentel",
        "zipcode": "25946-310"
    },
    {
        "city": "Guapimirim",
        "state": "RJ",
        "district": "Várzea Alegre",
        "street": "Rua Doutor Londres",
        "zipcode": "25940-089"
    },
    {
        "city": "Guapimirim",
        "state": "RJ",
        "district": "Várzea Alegre",
        "street": "Rua Dona Maria Emiliana",
        "zipcode": "25940-080"
    },
    {
        "city": "Guapimirim",
        "state": "RJ",
        "district": "Limoeiro",
        "street": "Rua XII (Cond Alpha II)",
        "zipcode": "25948-670"
    },
    {
        "city": "Guapimirim",
        "state": "RJ",
        "district": "Vale Jequitibá",
        "street": "Rua Prefeito Sérgio Mauro Lima Fares",
        "zipcode": "25946-598"
    },
    {
        "city": "Guapimirim",
        "state": "RJ",
        "district": "Várzea Alegre",
        "street": "Rua Dona Lucirdina",
        "zipcode": "25940-071"
    },
    {
        "city": "Guapimirim",
        "state": "RJ",
        "district": "Várzea Alegre",
        "street": "Rua Dona Clotilde",
        "zipcode": "25940-131"
    },
    {
        "city": "Guapimirim",
        "state": "RJ",
        "district": "Várzea Alegre",
        "street": "Rua Dona Iara",
        "zipcode": "25940-053"
    },
    {
        "city": "Guapimirim",
        "state": "RJ",
        "district": "Iconha",
        "street": "Rua Marília",
        "zipcode": "25949-065"
    },
    {
        "city": "Guapimirim",
        "state": "RJ",
        "district": "Corujas",
        "street": "Rua dos Sabiás",
        "zipcode": "25948-105"
    },
    {
        "city": "Guapimirim",
        "state": "RJ",
        "district": "Limoeiro",
        "street": "Rua XII (Cond Alpha I)",
        "zipcode": "25948-790"
    },
    {
        "city": "Guapimirim",
        "state": "RJ",
        "district": "Garrafão",
        "street": "Estrada Velha do Garrafão",
        "zipcode": "25948-508"
    },
    {
        "city": "Guapimirim",
        "state": "RJ",
        "district": "Limoeiro",
        "street": "Rua VII (Cond Alpha II)",
        "zipcode": "25948-710"
    },
    {
        "city": "Guapimirim",
        "state": "RJ",
        "district": "Cadetes Fabres",
        "street": "Rua L",
        "zipcode": "25943-650"
    },
    {
        "city": "Guapimirim",
        "state": "RJ",
        "district": "Iconha",
        "street": "Rua A (Cond Vle das Acácias)",
        "zipcode": "25949-135"
    },
    {
        "city": "Guapimirim",
        "state": "RJ",
        "district": "Citrolândia",
        "street": "Rua São Marcos",
        "zipcode": "25942-230"
    },
    {
        "city": "Guapimirim",
        "state": "RJ",
        "district": "Parque Santa Eugênia",
        "street": "Rua Natália Maciel",
        "zipcode": "25943-260"
    },
    {
        "city": "Guapimirim",
        "state": "RJ",
        "district": "Citrolândia",
        "street": "Rua São Tomé",
        "zipcode": "25942-345"
    },
    {
        "city": "Guapimirim",
        "state": "RJ",
        "district": "Paiol",
        "street": "Rua Joaquim Coelho",
        "zipcode": "25945-892"
    },
    {
        "city": "Guapimirim",
        "state": "RJ",
        "district": "Várzea Alegre",
        "street": "Rua Doutor Daniel",
        "zipcode": "25940-086"
    },
    {
        "city": "Guapimirim",
        "state": "RJ",
        "district": "Várzea Alegre",
        "street": "Rua Dona Nancy",
        "zipcode": "25940-065"
    },
    {
        "city": "Guapimirim",
        "state": "RJ",
        "district": "Cantagalo",
        "street": "Rua São Vicente",
        "zipcode": "25945-316"
    },
    {
        "city": "Guapimirim",
        "state": "RJ",
        "district": "Corujas",
        "street": "Rua das Rosas",
        "zipcode": "25948-190"
    },
    {
        "city": "Guapimirim",
        "state": "RJ",
        "district": "Corujas",
        "street": "Rua Orquídeas",
        "zipcode": "25948-195"
    },
    {
        "city": "Guapimirim",
        "state": "RJ",
        "district": "Caneca Fina",
        "street": "Rua Vinhático",
        "zipcode": "25949-480"
    },
    {
        "city": "Guapimirim",
        "state": "RJ",
        "district": "Várzea Alegre",
        "street": "Rua Dona Marilene",
        "zipcode": "25940-077"
    },
    {
        "city": "Guapimirim",
        "state": "RJ",
        "district": "Centro",
        "street": "Travessa Alberto Ferreira Fares",
        "zipcode": "25946-124"
    },
    {
        "city": "Guapimirim",
        "state": "RJ",
        "district": "Corujas",
        "street": "Rua B (Prq da Serra)",
        "zipcode": "25948-170"
    },
    {
        "city": "Guapimirim",
        "state": "RJ",
        "district": "Limoeiro",
        "street": "Rua da Pedra",
        "zipcode": "25948-850"
    },
    {
        "city": "Guapimirim",
        "state": "RJ",
        "district": "Vale das Pedrinhas",
        "street": "Rua Barão do Amazonas",
        "zipcode": "25940-755"
    },
    {
        "city": "Guapimirim",
        "state": "RJ",
        "district": "Nova Marília",
        "street": "Rua Izaías Vieira",
        "zipcode": "25941-150"
    },
    {
        "city": "Guapimirim",
        "state": "RJ",
        "district": "Centro",
        "street": "Rua Nadyr de Almeida Antunes",
        "zipcode": "25946-259"
    },
    {
        "city": "Guapimirim",
        "state": "RJ",
        "district": "Vale das Pedrinhas",
        "street": "Rua Domingos José Martins",
        "zipcode": "25940-435"
    },
    {
        "city": "Guapimirim",
        "state": "RJ",
        "district": "Parque Nossa Senhora da Ajuda",
        "street": "Rua Vinte e Três",
        "zipcode": "25941-580"
    },
    {
        "city": "Guapimirim",
        "state": "RJ",
        "district": "Várzea Alegre",
        "street": "Rua Professora Anna Maria",
        "zipcode": "25940-050"
    },
    {
        "city": "Guapimirim",
        "state": "RJ",
        "district": "Várzea Alegre",
        "street": "Rua Rene Henot",
        "zipcode": "25940-083"
    },
    {
        "city": "Guapimirim",
        "state": "RJ",
        "district": "Citrolândia",
        "street": "Rua São Luís Gonzaga",
        "zipcode": "25942-355"
    },
    {
        "city": "Guapimirim",
        "state": "RJ",
        "district": "Várzea Alegre",
        "street": "Rua Dona Elza da Silva",
        "zipcode": "25940-062"
    },
    {
        "city": "Guapimirim",
        "state": "RJ",
        "district": "Parque Fleixal",
        "street": "Rua Nely",
        "zipcode": "25946-307"
    },
    {
        "city": "Guapimirim",
        "state": "RJ",
        "district": "Citrolândia",
        "street": "Rua C (Gja S Marcos)",
        "zipcode": "25942-235"
    },
    {
        "city": "Guapimirim",
        "state": "RJ",
        "district": "Citrolândia",
        "street": "Rua Oito (Aldeia Jarapitu)",
        "zipcode": "25942-410"
    },
    {
        "city": "Guapimirim",
        "state": "RJ",
        "district": "Monte Oliveti",
        "street": "Estrada dos Italianos",
        "zipcode": "25948-264"
    },
    {
        "city": "Guapimirim",
        "state": "RJ",
        "district": "Monte Oliveti",
        "street": "Rua G",
        "zipcode": "25948-256"
    },
    {
        "city": "Guapimirim",
        "state": "RJ",
        "district": "Limoeiro",
        "street": "Estrada da Concórdia",
        "zipcode": "25948-730"
    },
    {
        "city": "Guapimirim",
        "state": "RJ",
        "district": "Cadetes Fabres",
        "street": "Rua I (Cond Lg dos Cisnes)",
        "zipcode": "25943-790"
    },
    {
        "city": "Guapimirim",
        "state": "RJ",
        "district": "Garrafão",
        "street": "Rodovia Santos Dumont",
        "zipcode": "25948-500"
    },
    {
        "city": "Guapimirim",
        "state": "RJ",
        "district": "Parque Nossa Senhora da Ajuda",
        "street": "Rua Dez",
        "zipcode": "25941-640"
    },
    {
        "city": "Guapimirim",
        "state": "RJ",
        "district": "Parque Santa Eugênia",
        "street": "Rua Cassiano",
        "zipcode": "25943-234"
    },
    {
        "city": "Guapimirim",
        "state": "RJ",
        "district": "Centro",
        "street": "Rua Monsenhor Ildeu Ferreira Malta",
        "zipcode": "25946-080"
    },
    {
        "city": "Guapimirim",
        "state": "RJ",
        "district": "Centro",
        "street": "Praça Emancipação",
        "zipcode": "25946-247"
    },
    {
        "city": "Guapimirim",
        "state": "RJ",
        "district": "Centro",
        "street": "Rua D (Vl Recreio)",
        "zipcode": "25946-271"
    },
    {
        "city": "Guapimirim",
        "state": "RJ",
        "district": "Centro",
        "street": "Rua da Amizade",
        "zipcode": "25946-157"
    },
    {
        "city": "Guapimirim",
        "state": "RJ",
        "district": "Centro",
        "street": "Rua Osmar Lopes dos Santos",
        "zipcode": "25946-118"
    },
    {
        "city": "Guapimirim",
        "state": "RJ",
        "district": "Barreira",
        "street": "Estrada do Soberbo",
        "zipcode": "25948-415"
    },
    {
        "city": "Guapimirim",
        "state": "RJ",
        "district": "Parada Ideal",
        "street": "Rua das Petúnias",
        "zipcode": "25942-740"
    },
    {
        "city": "Guapimirim",
        "state": "RJ",
        "district": "Parada Modelo",
        "street": "Rua Senador Nelson Carneiro",
        "zipcode": "25943-482"
    },
    {
        "city": "Guapimirim",
        "state": "RJ",
        "district": "Parada Modelo",
        "street": "Rua L",
        "zipcode": "25943-500"
    },
    {
        "city": "Guapimirim",
        "state": "RJ",
        "district": "Parada Modelo",
        "street": "Rua Olímpio Pereira",
        "zipcode": "25943-563"
    },
    {
        "city": "Guapimirim",
        "state": "RJ",
        "district": "Parada Modelo",
        "street": "Rua Professora Claudineia Pereira Cardoso",
        "zipcode": "25943-578"
    },
    {
        "city": "Guapimirim",
        "state": "RJ",
        "district": "Citrolândia",
        "street": "Rua do Gaúcho",
        "zipcode": "25942-240"
    },
    {
        "city": "Guapimirim",
        "state": "RJ",
        "district": "Vale das Pedrinhas",
        "street": "Rua Izaura Peres",
        "zipcode": "25940-620"
    },
    {
        "city": "Guapimirim",
        "state": "RJ",
        "district": "Parque Fleixal",
        "street": "Rua Antônio Guimarães Correia",
        "zipcode": "25946-331"
    },
    {
        "city": "Guapimirim",
        "state": "RJ",
        "district": "Iconha",
        "street": "Estrada do Limoeiro",
        "zipcode": "25949-025"
    },
    {
        "city": "Guapimirim",
        "state": "RJ",
        "district": "Parada Ideal",
        "street": "Rua Peixes",
        "zipcode": "25942-880"
    },
    {
        "city": "Guapimirim",
        "state": "RJ",
        "district": "Parada Ideal",
        "street": "Rua José Bonifácio de Andrada e Silva",
        "zipcode": "25942-644"
    },
    {
        "city": "Guapimirim",
        "state": "RJ",
        "district": "Garrafão",
        "street": "Rua Carmem Ferreira",
        "zipcode": "25948-516"
    },
    {
        "city": "Guapimirim",
        "state": "RJ",
        "district": "Cantagalo",
        "street": "Rua São João (Jd Cantagalo)",
        "zipcode": "25945-392"
    },
    {
        "city": "Guapimirim",
        "state": "RJ",
        "district": "Parada Modelo",
        "street": "Rua Armando Alvim Castro Menezes",
        "zipcode": "25943-590"
    },
    {
        "city": "Guapimirim",
        "state": "RJ",
        "district": "Cadetes Fabres",
        "street": "Estrada Pedreira",
        "zipcode": "25944-120"
    },
    {
        "city": "Guapimirim",
        "state": "RJ",
        "district": "Iconha",
        "street": "Travessa Eva",
        "zipcode": "25949-000"
    },
    {
        "city": "Guapimirim",
        "state": "RJ",
        "district": "Caneca Fina",
        "street": "Rua Jatobá",
        "zipcode": "25949-470"
    },
    {
        "city": "Guapimirim",
        "state": "RJ",
        "district": "Cadetes Fabres",
        "street": "Rua A (Hotel)",
        "zipcode": "25943-730"
    },
    {
        "city": "Guapimirim",
        "state": "RJ",
        "district": "Espinhaço",
        "street": "Estrada do Espinhaço",
        "zipcode": "25945-620"
    },
    {
        "city": "Guapimirim",
        "state": "RJ",
        "district": "Cotia",
        "street": "Estrada do Jacarandá",
        "zipcode": "25947-050"
    },
    {
        "city": "Guapimirim",
        "state": "RJ",
        "district": "Parque Santa Eugênia",
        "street": "Rua dos Projetada Reis",
        "zipcode": "25943-235"
    },
    {
        "city": "Guapimirim",
        "state": "RJ",
        "district": "Vale Jequitibá",
        "street": "Rua Projetada Três",
        "zipcode": "25946-599"
    },
    {
        "city": "Guapimirim",
        "state": "RJ",
        "district": "Parque Santa Eugênia",
        "street": "Rua Castro",
        "zipcode": "25943-233"
    },
    {
        "city": "Guapimirim",
        "state": "RJ",
        "district": "Centro",
        "street": "Rua Itapicuru",
        "zipcode": "25946-231"
    },
    {
        "city": "Guapimirim",
        "state": "RJ",
        "district": "Área Rural de Guapimirm",
        "street": "Área Rural",
        "zipcode": "25949-899"
    },
    {
        "city": "Guapimirim",
        "state": "RJ",
        "district": "Cotia",
        "street": "Rua Santa Maria (Lot Vivendas de Guapi)",
        "zipcode": "25947-061"
    },
    {
        "city": "Guapimirim",
        "state": "RJ",
        "district": "Quinta Mariana",
        "street": "Rua F (Jd Qta Mariana)",
        "zipcode": "25946-556"
    },
    {
        "city": "Guapimirim",
        "state": "RJ",
        "district": "Limoeiro",
        "street": "Rua Seis (Jd Soberbo)",
        "zipcode": "25948-875"
    },
    {
        "city": "Guapimirim",
        "state": "RJ",
        "district": "Citrolândia",
        "street": "Rua da Reserva",
        "zipcode": "25942-245"
    },
    {
        "city": "Guapimirim",
        "state": "RJ",
        "district": "Parque Fleixal",
        "street": "Rua João Seixas Júnior",
        "zipcode": "25946-313"
    },
    {
        "city": "Guapimirim",
        "state": "RJ",
        "district": "Cotia",
        "street": "Rua Sirius (Lot Domus)",
        "zipcode": "25947-046"
    },
    {
        "city": "Guapimirim",
        "state": "RJ",
        "district": "Cotia",
        "street": "Rua Pollux (Lot Domus)",
        "zipcode": "25947-043"
    },
    {
        "city": "Guapimirim",
        "state": "RJ",
        "district": "Cotia",
        "street": "Rua Boa Esperança (Lot Vivendas de Guapi)",
        "zipcode": "25947-066"
    },
    {
        "city": "Guapimirim",
        "state": "RJ",
        "district": "Cotia",
        "street": "Rua Vega (Lot Domus)",
        "zipcode": "25947-041"
    },
    {
        "city": "Guapimirim",
        "state": "RJ",
        "district": "Cotia",
        "street": "Travessa da Reserva (Lot Emerick)",
        "zipcode": "25947-058"
    },
    {
        "city": "Guapimirim",
        "state": "RJ",
        "district": "Caneca Fina",
        "street": "Rua Laudelina Ferreira Moreira",
        "zipcode": "25949-325"
    },
    {
        "city": "Guapimirim",
        "state": "RJ",
        "district": "Cotia",
        "street": "Rua Centauro",
        "zipcode": "25947-054"
    },
    {
        "city": "Guapimirim",
        "state": "RJ",
        "district": "Caneca Fina",
        "street": "Rua Milton José Correia",
        "zipcode": "25949-320"
    },
    {
        "city": "Guapimirim",
        "state": "RJ",
        "district": "Caneca Fina",
        "street": "Rua Cedro",
        "zipcode": "25949-510"
    },
    {
        "city": "Guapimirim",
        "state": "RJ",
        "district": "Iconha",
        "street": "Rua dos Flamboyantes",
        "zipcode": "25949-235"
    },
    {
        "city": "Guapimirim",
        "state": "RJ",
        "district": "Cotia",
        "street": "Rua Romã",
        "zipcode": "25947-049"
    },
    {
        "city": "Guapimirim",
        "state": "RJ",
        "district": "Parque Fleixal",
        "street": "Rua Pierre Berman",
        "zipcode": "25946-328"
    },
    {
        "city": "Guapimirim",
        "state": "RJ",
        "district": "Cotia",
        "street": "Travessa da Cotia (Lot Emerick)",
        "zipcode": "25947-059"
    },
    {
        "city": "Guapimirim",
        "state": "RJ",
        "district": "Cotia",
        "street": "Rua Capella",
        "zipcode": "25947-053"
    },
    {
        "city": "Guapimirim",
        "state": "RJ",
        "district": "Monte Oliveti",
        "street": "Rua dos Cambuís",
        "zipcode": "25948-260"
    },
    {
        "city": "Guapimirim",
        "state": "RJ",
        "district": "Cotia",
        "street": "Rua Electra (Lot Domus)",
        "zipcode": "25947-048"
    },
    {
        "city": "Guapimirim",
        "state": "RJ",
        "district": "Vale Jequitibá",
        "street": "Rua Chicri Elias Kfuri",
        "zipcode": "25946-622"
    },
    {
        "city": "Guapimirim",
        "state": "RJ",
        "district": "Várzea Alegre",
        "street": "Rua Professora Vera Regina",
        "zipcode": "25940-059"
    },
    {
        "city": "Guapimirim",
        "state": "RJ",
        "district": "Várzea Alegre",
        "street": "Rua Dona Oswaldina",
        "zipcode": "25940-068"
    },
    {
        "city": "Guapimirim",
        "state": "RJ",
        "district": "Cantagalo",
        "street": "Estrada do Bananal",
        "zipcode": "25945-356"
    },
    {
        "city": "Guapimirim",
        "state": "RJ",
        "district": "Várzea Alegre",
        "street": "Rua Dona Jandira",
        "zipcode": "25940-143"
    },
    {
        "city": "Guapimirim",
        "state": "RJ",
        "district": "Vila Olímpia",
        "street": "Rua Urano",
        "zipcode": "25940-184"
    },
    {
        "city": "Guapimirim",
        "state": "RJ",
        "district": "Vila Olímpia",
        "street": "Rua B (Jd Sto Amaro)",
        "zipcode": "25940-232"
    },
    {
        "city": "Guapimirim",
        "state": "RJ",
        "district": "Centro",
        "street": "Rua Ita",
        "zipcode": "25946-232"
    },
    {
        "city": "Guapimirim",
        "state": "RJ",
        "district": "Centro",
        "street": "Rua Pulcherio Lopes",
        "zipcode": "25946-241"
    },
    {
        "city": "Guapimirim",
        "state": "RJ",
        "district": "Cotia",
        "street": "Rua I",
        "zipcode": "25947-110"
    },
    {
        "city": "Guapimirim",
        "state": "RJ",
        "district": "Cidade Jardim Guapimirim",
        "street": "Rua Q",
        "zipcode": "25943-380"
    },
    {
        "city": "Guapimirim",
        "state": "RJ",
        "district": "Centro",
        "street": "Rua Caramuru",
        "zipcode": "25946-184"
    },
    {
        "city": "Guapimirim",
        "state": "RJ",
        "district": "Centro",
        "street": "Rua do Monte",
        "zipcode": "25946-211"
    },
    {
        "city": "Guapimirim",
        "state": "RJ",
        "district": "Paiol",
        "street": "Rua Pedro Rufino",
        "zipcode": "25945-868"
    },
    {
        "city": "Guapimirim",
        "state": "RJ",
        "district": "Vale das Pedrinhas",
        "street": "Rua Oitenta e Um",
        "zipcode": "25940-450"
    },
    {
        "city": "Guapimirim",
        "state": "RJ",
        "district": "Vale das Pedrinhas",
        "street": "Rua Setenta e Seis",
        "zipcode": "25940-500"
    },
    {
        "city": "Guapimirim",
        "state": "RJ",
        "district": "Iconha",
        "street": "Rua A (Cond Vle do Rio)",
        "zipcode": "25949-100"
    },
    {
        "city": "Guapimirim",
        "state": "RJ",
        "district": "Citrolândia",
        "street": "Rua Nove (Vl Citrolândia)",
        "zipcode": "25942-280"
    },
    {
        "city": "Guapimirim",
        "state": "RJ",
        "district": "Parada Modelo",
        "street": "Rua Antônio Alves da Silva",
        "zipcode": "25943-518"
    },
    {
        "city": "Guapimirim",
        "state": "RJ",
        "district": "Parada Modelo",
        "street": "Rua Alcindo José Ferreira",
        "zipcode": "25943-569"
    },
    {
        "city": "Guapimirim",
        "state": "RJ",
        "district": "Bananal",
        "street": "Rua Coronel Vivas",
        "zipcode": "25946-467"
    },
    {
        "city": "Guapimirim",
        "state": "RJ",
        "district": "Limoeiro",
        "street": "Rua III (Cond Alpha I)",
        "zipcode": "25948-780"
    },
    {
        "city": "Guapimirim",
        "state": "RJ",
        "district": "Cotia",
        "street": "Rua Campos (Lot Vivendas de Guapi)",
        "zipcode": "25947-064"
    },
    {
        "city": "Guapimirim",
        "state": "RJ",
        "district": "Cotia",
        "street": "Rua Procyon",
        "zipcode": "25947-044"
    },
    {
        "city": "Guapimirim",
        "state": "RJ",
        "district": "Citrolândia",
        "street": "Rua São Pedro",
        "zipcode": "25942-315"
    },
    {
        "city": "Guapimirim",
        "state": "RJ",
        "district": "Parque Santa Eugênia",
        "street": "Rua Projetada Darcy Rosa",
        "zipcode": "25943-248"
    },
    {
        "city": "Guapimirim",
        "state": "RJ",
        "district": "Cotia",
        "street": "Rua Castor (Lot Domus)",
        "zipcode": "25947-047"
    },
    {
        "city": "Guapimirim",
        "state": "RJ",
        "district": "Cotia",
        "street": "Rua Átria (Lot Domus)",
        "zipcode": "25947-042"
    },
    {
        "city": "Guapimirim",
        "state": "RJ",
        "district": "Cadetes Fabres",
        "street": "Rua H (Cond Lg dos Cisnes)",
        "zipcode": "25943-802"
    },
    {
        "city": "Guapimirim",
        "state": "RJ",
        "district": "Cotia",
        "street": "Estrada do Ipê",
        "zipcode": "25947-020"
    },
    {
        "city": "Guapimirim",
        "state": "RJ",
        "district": "Monte Oliveti",
        "street": "Travessa Kluppel",
        "zipcode": "25948-228"
    },
    {
        "city": "Guapimirim",
        "state": "RJ",
        "district": "Citrolândia",
        "street": "Avenida Circular",
        "zipcode": "25942-200"
    },
    {
        "city": "Guapimirim",
        "state": "RJ",
        "district": "Limoeiro",
        "street": "Rua Projetada Um",
        "zipcode": "25948-855"
    },
    {
        "city": "Guapimirim",
        "state": "RJ",
        "district": "Cotia",
        "street": "Rua Santa Constança (Lot Emerick)",
        "zipcode": "25947-057"
    },
    {
        "city": "Guapimirim",
        "state": "RJ",
        "district": "Citrolândia",
        "street": "Rua Projetada Seis",
        "zipcode": "25942-455"
    },
    {
        "city": "Guapimirim",
        "state": "RJ",
        "district": "Citrolândia",
        "street": "Avenida Café Filho",
        "zipcode": "25942-305"
    },
    {
        "city": "Guapimirim",
        "state": "RJ",
        "district": "Citrolândia",
        "street": "Rua São Lucas",
        "zipcode": "25942-340"
    },
    {
        "city": "Guapimirim",
        "state": "RJ",
        "district": "Citrolândia",
        "street": "Rua Sete (Aldeia Jarapitu)",
        "zipcode": "25942-420"
    },
    {
        "city": "Guapimirim",
        "state": "RJ",
        "district": "Limoeiro",
        "street": "Estrada do Limoeiro",
        "zipcode": "25948-630"
    },
    {
        "city": "Guapimirim",
        "state": "RJ",
        "district": "Cantagalo",
        "street": "Rodovia Santos Dumont",
        "zipcode": "25945-324"
    },
    {
        "city": "Guapimirim",
        "state": "RJ",
        "district": "Vale das Pedrinhas",
        "street": "Rua Antônio Carlos de Andrade",
        "zipcode": "25940-720"
    },
    {
        "city": "Guapimirim",
        "state": "RJ",
        "district": "Cotia",
        "street": "Rua Antares (Lot Domus)",
        "zipcode": "25947-045"
    },
    {
        "city": "Guapimirim",
        "state": "RJ",
        "district": "Vale das Pedrinhas",
        "street": "Rua Antônio Dias Adorno",
        "zipcode": "25940-640"
    },
    {
        "city": "Guapimirim",
        "state": "RJ",
        "district": "Vale das Pedrinhas",
        "street": "Rua Marquês do Lavradio",
        "zipcode": "25940-665"
    },
    {
        "city": "Guapimirim",
        "state": "RJ",
        "district": "Nova Marília",
        "street": "Rua Ranulpho Alves de Araújo",
        "zipcode": "25941-160"
    },
    {
        "city": "Guapimirim",
        "state": "RJ",
        "district": "Cotia",
        "street": "Rua IV (Cond da Ferradura)",
        "zipcode": "25947-090"
    },
    {
        "city": "Guapimirim",
        "state": "RJ",
        "district": "Caneca Fina",
        "street": "Rua Violeta",
        "zipcode": "25949-525"
    },
    {
        "city": "Guapimirim",
        "state": "RJ",
        "district": "Cantagalo",
        "street": "Rua do Bananal",
        "zipcode": "25945-352"
    },
    {
        "city": "Guapimirim",
        "state": "RJ",
        "district": "Cotia",
        "street": "Rua Santa Tereza (Lot Emerick)",
        "zipcode": "25947-056"
    },
    {
        "city": "Guapimirim",
        "state": "RJ",
        "district": "Citrolândia",
        "street": "Rua Álvaro Sérgio de Alvino Mendonça",
        "zipcode": "25942-205"
    },
    {
        "city": "Guapimirim",
        "state": "RJ",
        "district": "Cotia",
        "street": "Rua Walter Moreira",
        "zipcode": "25947-051"
    },
    {
        "city": "Guapimirim",
        "state": "RJ",
        "district": "Orindi",
        "street": "Rua da Silvana",
        "zipcode": "25947-786"
    },
    {
        "city": "Guapimirim",
        "state": "RJ",
        "district": "Parada Modelo",
        "street": "Rua Eulália Rodrigues Magalhães",
        "zipcode": "25943-593"
    },
    {
        "city": "Guapimirim",
        "state": "RJ",
        "district": "Cidade Jardim Guapimirim",
        "street": "Rua Fábio Romualdo dos Santos",
        "zipcode": "25943-413"
    },
    {
        "city": "Guapimirim",
        "state": "RJ",
        "district": "Iconha",
        "street": "Rua Liberalina",
        "zipcode": "25949-045"
    },
    {
        "city": "Guapimirim",
        "state": "RJ",
        "district": "Cotia",
        "street": "Rua São José (Lot Vivendas de Guapi)",
        "zipcode": "25947-062"
    },
    {
        "city": "Guapimirim",
        "state": "RJ",
        "district": "Cadetes Fabres",
        "street": "Avenida Granjas Cadetes Fabres (Hotel)",
        "zipcode": "25943-758"
    },
    {
        "city": "Guapimirim",
        "state": "RJ",
        "district": "Vale das Pedrinhas",
        "street": "Rua João Bezerra da Silva",
        "zipcode": "25940-805"
    },
    {
        "city": "Guapimirim",
        "state": "RJ",
        "district": "Caneca Fina",
        "street": "Rua Freijó",
        "zipcode": "25949-440"
    }
]