[
    {
        "city": "Iguaba Grande",
        "state": "RJ",
        "district": "Centro",
        "street": "Rua Nossa Senhora de Fátima 15",
        "zipcode": "28960-970"
    },
    {
        "city": "Iguaba Grande",
        "state": "RJ",
        "district": "Iguaba Grande",
        "street": "Avenida Assembléia 2",
        "zipcode": "28960-976"
    },
    {
        "city": "Iguaba Grande",
        "state": "RJ",
        "district": "Cidade Nova",
        "street": "Avenida Nossa Senhora de Nazareth 689 Loja 4",
        "zipcode": "28960-971"
    },
    {
        "city": "Iguaba Grande",
        "state": "RJ",
        "district": "Pedreira",
        "street": "Rua das Hortências 635",
        "zipcode": "28960-975"
    },
    {
        "city": "Iguaba Grande",
        "state": "RJ",
        "district": null,
        "street": "Estrada Sepeatiba Mirim",
        "zipcode": "28960-990"
    },
    {
        "city": "Iguaba Grande",
        "state": "RJ",
        "district": "",
        "street": "",
        "zipcode": "28960-000"
    },
    {
        "city": "Iguaba Grande",
        "state": "RJ",
        "district": null,
        "street": "Sítio Esmeralda",
        "zipcode": "28960-991"
    },
    {
        "city": "Iguaba Grande",
        "state": "RJ",
        "district": "Nova Iguaba",
        "street": "Estrada da Capivara s/n Quadra 05 Área R1 Lote 06",
        "zipcode": "28960-974"
    }
]