[
    {
        "city": "Nilópolis",
        "state": "RJ",
        "district": "Paiol de Pólvora",
        "street": "Vila Maria Gama",
        "zipcode": "26545-650"
    },
    {
        "city": "Nilópolis",
        "state": "RJ",
        "district": "Área Rural de Nilópolis",
        "street": "Área Rural",
        "zipcode": "26549-899"
    },
    {
        "city": "Nilópolis",
        "state": "RJ",
        "district": "Nossa Senhora de Fátima",
        "street": "Travessa Francisco Machado de Oliveira",
        "zipcode": "26520-635"
    },
    {
        "city": "Nilópolis",
        "state": "RJ",
        "district": "Cabral",
        "street": "Travessa Clara de Souza",
        "zipcode": "26515-123"
    },
    {
        "city": "Nilópolis",
        "state": "RJ",
        "district": "Cabuis",
        "street": "Rua José Albuquerque",
        "zipcode": "26545-120"
    },
    {
        "city": "Nilópolis",
        "state": "RJ",
        "district": "Cabral",
        "street": "Rua Tereza da Fonseca",
        "zipcode": "26510-550"
    },
    {
        "city": "Nilópolis",
        "state": "RJ",
        "district": "Nossa Senhora de Fátima",
        "street": "Rua Carlindo Modesto Reis",
        "zipcode": "26521-250"
    },
    {
        "city": "Nilópolis",
        "state": "RJ",
        "district": "Cabral",
        "street": "Rua Antonio Pinto Vasconcelos",
        "zipcode": "26515-527"
    },
    {
        "city": "Nilópolis",
        "state": "RJ",
        "district": "Centro",
        "street": "Rua Manoel Joaquim Casemiro",
        "zipcode": "26515-615"
    },
    {
        "city": "Nilópolis",
        "state": "RJ",
        "district": "Centro",
        "street": "Travessa Ilma",
        "zipcode": "26525-220"
    },
    {
        "city": "Nilópolis",
        "state": "RJ",
        "district": "Cabral",
        "street": "Travessa Manuel Carlos de Souza",
        "zipcode": "26515-127"
    },
    {
        "city": "Nilópolis",
        "state": "RJ",
        "district": "Centro",
        "street": "Avenida Getúlio de Moura",
        "zipcode": "26510-001"
    },
    {
        "city": "Nilópolis",
        "state": "RJ",
        "district": "Centro",
        "street": "Estrada Eliseu de Alvarenga",
        "zipcode": "26520-461"
    },
    {
        "city": "Nilópolis",
        "state": "RJ",
        "district": "Centro",
        "street": "Estrada Eliseu de Alvarenga",
        "zipcode": "26525-102"
    },
    {
        "city": "Nilópolis",
        "state": "RJ",
        "district": "Centro",
        "street": "Estrada Mirandela",
        "zipcode": "26520-098"
    },
    {
        "city": "Nilópolis",
        "state": "RJ",
        "district": "Centro",
        "street": "Estrada General Mena Barreto",
        "zipcode": "26535-330"
    },
    {
        "city": "Nilópolis",
        "state": "RJ",
        "district": "Centro",
        "street": "Estrada General Mena Barreto",
        "zipcode": "26535-331"
    },
    {
        "city": "Nilópolis",
        "state": "RJ",
        "district": "Centro",
        "street": "Estrada Roberto Silveira",
        "zipcode": "26540-030"
    },
    {
        "city": "Nilópolis",
        "state": "RJ",
        "district": "Olinda",
        "street": "Rua João Paulo Los",
        "zipcode": "26510-005"
    },
    {
        "city": "Nilópolis",
        "state": "RJ",
        "district": "Olinda",
        "street": "Rua Professora Madalena de Castro Barros",
        "zipcode": "26510-107"
    },
    {
        "city": "Nilópolis",
        "state": "RJ",
        "district": "Centro",
        "street": "Rua Carlos Antônio Júnior",
        "zipcode": "26520-420"
    },
    {
        "city": "Nilópolis",
        "state": "RJ",
        "district": "Cabral",
        "street": "Rua Roldão Gonçalves",
        "zipcode": "26515-049"
    },
    {
        "city": "Nilópolis",
        "state": "RJ",
        "district": "Centro",
        "street": "Rua Tupi",
        "zipcode": "26520-260"
    },
    {
        "city": "Nilópolis",
        "state": "RJ",
        "district": "Olinda",
        "street": "Travessa Virgínia Duarte de Sá",
        "zipcode": "26510-109"
    },
    {
        "city": "Nilópolis",
        "state": "RJ",
        "district": "Olinda",
        "street": "Travessa Itatiaia",
        "zipcode": "26510-270"
    },
    {
        "city": "Nilópolis",
        "state": "RJ",
        "district": "Olinda",
        "street": "Rua João Rodrigues da Cunha",
        "zipcode": "26510-062"
    },
    {
        "city": "Nilópolis",
        "state": "RJ",
        "district": "Centro",
        "street": "Estrada Mirandela",
        "zipcode": "26520-099"
    },
    {
        "city": "Nilópolis",
        "state": "RJ",
        "district": "Olinda",
        "street": "Rua Virgínia Paula Gomes",
        "zipcode": "26510-198"
    },
    {
        "city": "Nilópolis",
        "state": "RJ",
        "district": "Centro",
        "street": "Rua Frei Ludolf",
        "zipcode": "26510-660"
    },
    {
        "city": "Nilópolis",
        "state": "RJ",
        "district": "Centro",
        "street": "Rua Conceição Pinheiro Peixoto",
        "zipcode": "26515-100"
    },
    {
        "city": "Nilópolis",
        "state": "RJ",
        "district": "Centro",
        "street": "Rua Antônio Félix",
        "zipcode": "26520-082"
    },
    {
        "city": "Nilópolis",
        "state": "RJ",
        "district": "Nossa Senhora de Fátima",
        "street": "Travessa Cláudio Guilherme de Araújo",
        "zipcode": "26520-505"
    },
    {
        "city": "Nilópolis",
        "state": "RJ",
        "district": "Centro",
        "street": "Avenida Getúlio Vargas",
        "zipcode": "26510-014"
    },
    {
        "city": "Nilópolis",
        "state": "RJ",
        "district": "Centro",
        "street": "Rua Antônio João Mendonça",
        "zipcode": "26510-608"
    },
    {
        "city": "Nilópolis",
        "state": "RJ",
        "district": "Cabral",
        "street": "Beco Deocleciano Coelho Filho",
        "zipcode": "26515-310"
    },
    {
        "city": "Nilópolis",
        "state": "RJ",
        "district": "Olinda",
        "street": "Rua João Rodrigues da Cunha",
        "zipcode": "26510-056"
    },
    {
        "city": "Nilópolis",
        "state": "RJ",
        "district": "Cabral",
        "street": "Rua Joaquim de Almeida Flores",
        "zipcode": "26510-057"
    },
    {
        "city": "Nilópolis",
        "state": "RJ",
        "district": "Cabral",
        "street": "Rua Feliciano Sodré",
        "zipcode": "26515-430"
    },
    {
        "city": "Nilópolis",
        "state": "RJ",
        "district": "Centro",
        "street": "Rua Zezinho",
        "zipcode": "26520-360"
    },
    {
        "city": "Nilópolis",
        "state": "RJ",
        "district": "Nossa Senhora de Fátima",
        "street": "Rua Alberto Teixeira da Cunha",
        "zipcode": "26520-070"
    },
    {
        "city": "Nilópolis",
        "state": "RJ",
        "district": "Olinda",
        "street": "Rua Pracinha Wallace Paes Leme",
        "zipcode": "26510-045"
    },
    {
        "city": "Nilópolis",
        "state": "RJ",
        "district": "Nossa Senhora de Fátima",
        "street": "Rua Manuel Brás",
        "zipcode": "26520-006"
    },
    {
        "city": "Nilópolis",
        "state": "RJ",
        "district": "Nossa Senhora de Fátima",
        "street": "Rua Olavo Bilac",
        "zipcode": "26520-520"
    },
    {
        "city": "Nilópolis",
        "state": "RJ",
        "district": "Nossa Senhora de Fátima",
        "street": "Rua João Teixeira de Novaes",
        "zipcode": "26520-710"
    },
    {
        "city": "Nilópolis",
        "state": "RJ",
        "district": "Cabral",
        "street": "Rua Maria Infanta de Oliveira",
        "zipcode": "26515-210"
    },
    {
        "city": "Nilópolis",
        "state": "RJ",
        "district": "Centro",
        "street": "Travessa Geovania Santana Drumond",
        "zipcode": "26510-620"
    },
    {
        "city": "Nilópolis",
        "state": "RJ",
        "district": "Olinda",
        "street": "Travessa Bernardino Teixeira",
        "zipcode": "26510-210"
    },
    {
        "city": "Nilópolis",
        "state": "RJ",
        "district": "Cabral",
        "street": "Rua São Cosme e São Damião",
        "zipcode": "26515-115"
    },
    {
        "city": "Nilópolis",
        "state": "RJ",
        "district": "Centro",
        "street": "Travessa Elpídio de Almeida",
        "zipcode": "26520-190"
    },
    {
        "city": "Nilópolis",
        "state": "RJ",
        "district": "Centro",
        "street": "Travessa Maria da Conceição",
        "zipcode": "26510-690"
    },
    {
        "city": "Nilópolis",
        "state": "RJ",
        "district": "Cabral",
        "street": "Travessa São Judas Tadeu",
        "zipcode": "26515-260"
    },
    {
        "city": "Nilópolis",
        "state": "RJ",
        "district": "Cabral",
        "street": "Travessa Laureano Sá",
        "zipcode": "26515-300"
    },
    {
        "city": "Nilópolis",
        "state": "RJ",
        "district": "Cabral",
        "street": "Travessa Santo Expedito",
        "zipcode": "26520-010"
    },
    {
        "city": "Nilópolis",
        "state": "RJ",
        "district": "Cabral",
        "street": "Travessa São José",
        "zipcode": "26520-097"
    },
    {
        "city": "Nilópolis",
        "state": "RJ",
        "district": "Nossa Senhora de Fátima",
        "street": "Travessa Nicolau Rocha Coelho",
        "zipcode": "26520-545"
    },
    {
        "city": "Nilópolis",
        "state": "RJ",
        "district": "Olinda",
        "street": "Travessa Serafim",
        "zipcode": "26510-054"
    },
    {
        "city": "Nilópolis",
        "state": "RJ",
        "district": "Centro",
        "street": "Rua Efigênia Guimarães",
        "zipcode": "26515-477"
    },
    {
        "city": "Nilópolis",
        "state": "RJ",
        "district": "Cabral",
        "street": "Travessa Dona Maria",
        "zipcode": "26510-380"
    },
    {
        "city": "Nilópolis",
        "state": "RJ",
        "district": "Centro",
        "street": "Rua Manuel Brígido Tinoco",
        "zipcode": "26510-680"
    },
    {
        "city": "Nilópolis",
        "state": "RJ",
        "district": "Nossa Senhora de Fátima",
        "street": "Rua Antônio Félix",
        "zipcode": "26520-632"
    },
    {
        "city": "Nilópolis",
        "state": "RJ",
        "district": "Olinda",
        "street": "Rua Laura Machado Bitencurt",
        "zipcode": "26510-023"
    },
    {
        "city": "Nilópolis",
        "state": "RJ",
        "district": "Nova Cidade",
        "street": "Rua Maria das Neves Teixeira",
        "zipcode": "26535-410"
    },
    {
        "city": "Nilópolis",
        "state": "RJ",
        "district": "Centro",
        "street": "Rua Embaixador Von Spretti",
        "zipcode": "26535-640"
    },
    {
        "city": "Nilópolis",
        "state": "RJ",
        "district": "Nova Cidade",
        "street": "Rua Otacílio Pessoa",
        "zipcode": "26535-375"
    },
    {
        "city": "Nilópolis",
        "state": "RJ",
        "district": "Cabuis",
        "street": "Rua Antonio Pereira de Carvalho",
        "zipcode": "26540-006"
    },
    {
        "city": "Nilópolis",
        "state": "RJ",
        "district": "Cabuis",
        "street": "Travessa Carlos Pinto",
        "zipcode": "26540-008"
    },
    {
        "city": "Nilópolis",
        "state": "RJ",
        "district": "Cabuis",
        "street": "Rua Júlio Berkowitz",
        "zipcode": "26540-221"
    },
    {
        "city": "Nilópolis",
        "state": "RJ",
        "district": "Cabuis",
        "street": "Rua Ipiranga",
        "zipcode": "26540-380"
    },
    {
        "city": "Nilópolis",
        "state": "RJ",
        "district": "Paiol de Pólvora",
        "street": "Rua Carlos de Sousa Fernandes",
        "zipcode": "26545-003"
    },
    {
        "city": "Nilópolis",
        "state": "RJ",
        "district": "Olinda",
        "street": "Rua Venceslau Brás",
        "zipcode": "26545-020"
    },
    {
        "city": "Nilópolis",
        "state": "RJ",
        "district": "Olinda",
        "street": "Rua Presidente General Craveiro Lopes",
        "zipcode": "26545-030"
    },
    {
        "city": "Nilópolis",
        "state": "RJ",
        "district": "Paiol de Pólvora",
        "street": "Travessa Capitão Alfredo Antunes",
        "zipcode": "26545-447"
    },
    {
        "city": "Nilópolis",
        "state": "RJ",
        "district": "Paiol de Pólvora",
        "street": "Travessa Carmindo Ferreira",
        "zipcode": "26545-452"
    },
    {
        "city": "Nilópolis",
        "state": "RJ",
        "district": "Paiol de Pólvora",
        "street": "Rua Dona Vicentina",
        "zipcode": "26545-460"
    },
    {
        "city": "Nilópolis",
        "state": "RJ",
        "district": "Paiol de Pólvora",
        "street": "Travessa Marcelina Cardoso",
        "zipcode": "26545-553"
    },
    {
        "city": "Nilópolis",
        "state": "RJ",
        "district": "Paiol de Pólvora",
        "street": "Rua João Alves",
        "zipcode": "26545-490"
    },
    {
        "city": "Nilópolis",
        "state": "RJ",
        "district": "Paiol de Pólvora",
        "street": "Rua Arino Gomes Leal",
        "zipcode": "26545-320"
    },
    {
        "city": "Nilópolis",
        "state": "RJ",
        "district": "Nossa Senhora de Fátima",
        "street": "Rua Ernesto Cardoso",
        "zipcode": "26521-457"
    },
    {
        "city": "Nilópolis",
        "state": "RJ",
        "district": "Centro",
        "street": "Avenida Getúlio Vargas",
        "zipcode": "26510-010"
    },
    {
        "city": "Nilópolis",
        "state": "RJ",
        "district": "Olinda",
        "street": "Rua Almeida Júnior",
        "zipcode": "26510-780"
    },
    {
        "city": "Nilópolis",
        "state": "RJ",
        "district": "Centro",
        "street": "Praça Nilo Peçanha",
        "zipcode": "26520-340"
    },
    {
        "city": "Nilópolis",
        "state": "RJ",
        "district": "Nossa Senhora de Fátima",
        "street": "Rua Aleixo da Silva Júnior",
        "zipcode": "26521-010"
    },
    {
        "city": "Nilópolis",
        "state": "RJ",
        "district": "Centro",
        "street": "Rua Antônio Galdino Soares",
        "zipcode": "26521-133"
    },
    {
        "city": "Nilópolis",
        "state": "RJ",
        "district": "Olinda",
        "street": "Rua Pracinha Wallace Paes Leme",
        "zipcode": "26510-042"
    },
    {
        "city": "Nilópolis",
        "state": "RJ",
        "district": "Nossa Senhora de Fátima",
        "street": "Rua Clara Maria da Glória",
        "zipcode": "26521-260"
    },
    {
        "city": "Nilópolis",
        "state": "RJ",
        "district": "Nossa Senhora de Fátima",
        "street": "Rua João Soares de Moraes",
        "zipcode": "26521-630"
    },
    {
        "city": "Nilópolis",
        "state": "RJ",
        "district": "Nossa Senhora de Fátima",
        "street": "Rua Nelsinho José de Aquino",
        "zipcode": "26521-210"
    },
    {
        "city": "Nilópolis",
        "state": "RJ",
        "district": "Nossa Senhora de Fátima",
        "street": "Rua Júlio Rodrigues de Paula",
        "zipcode": "26521-310"
    },
    {
        "city": "Nilópolis",
        "state": "RJ",
        "district": "Centro",
        "street": "Rua Virgílio Rodrigues Oliveira",
        "zipcode": "26520-350"
    },
    {
        "city": "Nilópolis",
        "state": "RJ",
        "district": "Nossa Senhora de Fátima",
        "street": "Rua Porto Alegre",
        "zipcode": "26521-490"
    },
    {
        "city": "Nilópolis",
        "state": "RJ",
        "district": "Centro",
        "street": "Rua Machado de Assis",
        "zipcode": "26525-030"
    },
    {
        "city": "Nilópolis",
        "state": "RJ",
        "district": "Olinda",
        "street": "Travessa Maria José",
        "zipcode": "26510-006"
    },
    {
        "city": "Nilópolis",
        "state": "RJ",
        "district": "Nossa Senhora de Fátima",
        "street": "Travessa Manuel Félix de Carvalho",
        "zipcode": "26521-560"
    },
    {
        "city": "Nilópolis",
        "state": "RJ",
        "district": "Centro",
        "street": "Travessa Manuel Barbosa",
        "zipcode": "26525-080"
    },
    {
        "city": "Nilópolis",
        "state": "RJ",
        "district": "Centro",
        "street": "Travessa Alvino Soares Badazo",
        "zipcode": "26525-017"
    },
    {
        "city": "Nilópolis",
        "state": "RJ",
        "district": "Centro",
        "street": "Travessa Ivone Franca",
        "zipcode": "26525-230"
    },
    {
        "city": "Nilópolis",
        "state": "RJ",
        "district": "Centro",
        "street": "Travessa Mercedes Margarida da Conceição",
        "zipcode": "26525-058"
    },
    {
        "city": "Nilópolis",
        "state": "RJ",
        "district": "Centro",
        "street": "Travessa Joaquim Manuel Rosa",
        "zipcode": "26530-036"
    },
    {
        "city": "Nilópolis",
        "state": "RJ",
        "district": "Paiol de Pólvora",
        "street": "Travessa Alfredo Gonçalves dos Santos",
        "zipcode": "26545-016"
    },
    {
        "city": "Nilópolis",
        "state": "RJ",
        "district": "Olinda",
        "street": "Rua Júlio Campos",
        "zipcode": "26545-340"
    },
    {
        "city": "Nilópolis",
        "state": "RJ",
        "district": "Nova Cidade",
        "street": "Rua Geraldo Fernandes",
        "zipcode": "26535-220"
    },
    {
        "city": "Nilópolis",
        "state": "RJ",
        "district": "Centro",
        "street": "Rua Natividade",
        "zipcode": "26535-351"
    },
    {
        "city": "Nilópolis",
        "state": "RJ",
        "district": "Centro",
        "street": "Rua Natividade",
        "zipcode": "26535-350"
    },
    {
        "city": "Nilópolis",
        "state": "RJ",
        "district": "Nova Cidade",
        "street": "Rua Alcebíades Bayma Benevides",
        "zipcode": "26535-500"
    },
    {
        "city": "Nilópolis",
        "state": "RJ",
        "district": "Cabuis",
        "street": "Rua Amadeu Lara",
        "zipcode": "26540-140"
    },
    {
        "city": "Nilópolis",
        "state": "RJ",
        "district": "Centro",
        "street": "Travessa Magalhães",
        "zipcode": "26540-078"
    },
    {
        "city": "Nilópolis",
        "state": "RJ",
        "district": "Centro",
        "street": "Rua Maestro Djalma do Carmo",
        "zipcode": "26540-121"
    },
    {
        "city": "Nilópolis",
        "state": "RJ",
        "district": "Centro",
        "street": "Estrada Marechal Castelo Branco",
        "zipcode": "26525-124"
    },
    {
        "city": "Nilópolis",
        "state": "RJ",
        "district": "Centro",
        "street": "Travessa Wilton de Alvarenga Ribeiro",
        "zipcode": "26545-087"
    },
    {
        "city": "Nilópolis",
        "state": "RJ",
        "district": "Paiol de Pólvora",
        "street": "Rua Mestre Pedro Batista",
        "zipcode": "26545-610"
    },
    {
        "city": "Nilópolis",
        "state": "RJ",
        "district": "Paiol de Pólvora",
        "street": "Rua Eugênio Santana",
        "zipcode": "26545-700"
    },
    {
        "city": "Nilópolis",
        "state": "RJ",
        "district": "Centro",
        "street": "Rua João Antônio Batista",
        "zipcode": "26510-810"
    },
    {
        "city": "Nilópolis",
        "state": "RJ",
        "district": "Centro",
        "street": "Rua Deocleciano",
        "zipcode": "26515-040"
    },
    {
        "city": "Nilópolis",
        "state": "RJ",
        "district": "Centro",
        "street": "Rua João Pessoa",
        "zipcode": "26525-252"
    },
    {
        "city": "Nilópolis",
        "state": "RJ",
        "district": "Centro",
        "street": "Rua Nicolau Cobelas",
        "zipcode": "26530-080"
    },
    {
        "city": "Nilópolis",
        "state": "RJ",
        "district": "Nova Cidade",
        "street": "Travessa Isaura Costa Sá Coelho",
        "zipcode": "26535-337"
    },
    {
        "city": "Nilópolis",
        "state": "RJ",
        "district": "Centro",
        "street": "Rua Vinícius de Morais",
        "zipcode": "26530-130"
    },
    {
        "city": "Nilópolis",
        "state": "RJ",
        "district": "Nova Cidade",
        "street": "Estrada Rúbens dos Reis Sales",
        "zipcode": "26530-210"
    },
    {
        "city": "Nilópolis",
        "state": "RJ",
        "district": "Centro",
        "street": "Travessa Manoel Borges Sobrinho",
        "zipcode": "26521-710"
    },
    {
        "city": "Nilópolis",
        "state": "RJ",
        "district": "Centro",
        "street": "Rua Santa Bárbara",
        "zipcode": "26525-490"
    },
    {
        "city": "Nilópolis",
        "state": "RJ",
        "district": "Olinda",
        "street": "Rua José da Silva Braga",
        "zipcode": "26545-240"
    },
    {
        "city": "Nilópolis",
        "state": "RJ",
        "district": "Nova Cidade",
        "street": "Rua Fagundes Varela",
        "zipcode": "26535-040"
    },
    {
        "city": "Nilópolis",
        "state": "RJ",
        "district": "Centro",
        "street": "Estrada Rio Branco",
        "zipcode": "26530-000"
    },
    {
        "city": "Nilópolis",
        "state": "RJ",
        "district": "Centro",
        "street": "Rua São Manuel",
        "zipcode": "26526-040"
    },
    {
        "city": "Nilópolis",
        "state": "RJ",
        "district": "Centro",
        "street": "Rua Doutor Napoleão Laureano",
        "zipcode": "26525-630"
    },
    {
        "city": "Nilópolis",
        "state": "RJ",
        "district": "Centro",
        "street": "Rua Homero Ferreira da Silva",
        "zipcode": "26525-820"
    },
    {
        "city": "Nilópolis",
        "state": "RJ",
        "district": "Centro",
        "street": "Rua João Alves",
        "zipcode": "26525-670"
    },
    {
        "city": "Nilópolis",
        "state": "RJ",
        "district": "Centro",
        "street": "Rua José Madeira",
        "zipcode": "26525-690"
    },
    {
        "city": "Nilópolis",
        "state": "RJ",
        "district": "Nossa Senhora de Fátima",
        "street": "Rua Manuel Borges Sobrinho",
        "zipcode": "26525-710"
    },
    {
        "city": "Nilópolis",
        "state": "RJ",
        "district": "Centro",
        "street": "Travessa Itaperuna",
        "zipcode": "26525-660"
    },
    {
        "city": "Nilópolis",
        "state": "RJ",
        "district": "Centro",
        "street": "Rua Manuel Serra",
        "zipcode": "26526-000"
    },
    {
        "city": "Nilópolis",
        "state": "RJ",
        "district": "Centro",
        "street": "Rua Duque de Caxias",
        "zipcode": "26525-640"
    },
    {
        "city": "Nilópolis",
        "state": "RJ",
        "district": "Cabuis",
        "street": "Travessa Esther do Espírito Santo",
        "zipcode": "26540-324"
    },
    {
        "city": "Nilópolis",
        "state": "RJ",
        "district": "Olinda",
        "street": "Rua Joaquim Máximo Soares",
        "zipcode": "26510-193"
    },
    {
        "city": "Nilópolis",
        "state": "RJ",
        "district": "Olinda",
        "street": "Rua João Pessoa",
        "zipcode": "26510-112"
    },
    {
        "city": "Nilópolis",
        "state": "RJ",
        "district": "Olinda",
        "street": "Rua João Pessoa",
        "zipcode": "26510-113"
    },
    {
        "city": "Nilópolis",
        "state": "RJ",
        "district": "Olinda",
        "street": "Rua Clóvis Beviláqua",
        "zipcode": "26510-140"
    },
    {
        "city": "Nilópolis",
        "state": "RJ",
        "district": "Nova Cidade",
        "street": "Rua Beira",
        "zipcode": "26510-160"
    },
    {
        "city": "Nilópolis",
        "state": "RJ",
        "district": "Olinda",
        "street": "Rua João Pessoa",
        "zipcode": "26510-115"
    },
    {
        "city": "Nilópolis",
        "state": "RJ",
        "district": "Nossa Senhora de Fátima",
        "street": "Rua Bahia",
        "zipcode": "26520-640"
    },
    {
        "city": "Nilópolis",
        "state": "RJ",
        "district": "Olinda",
        "street": "Rua Caruaru",
        "zipcode": "26515-390"
    },
    {
        "city": "Nilópolis",
        "state": "RJ",
        "district": "Cabral",
        "street": "Rua Júlio Canabarro",
        "zipcode": "26510-105"
    },
    {
        "city": "Nilópolis",
        "state": "RJ",
        "district": "Centro",
        "street": "Rua Carlos Santana",
        "zipcode": "26521-405"
    },
    {
        "city": "Nilópolis",
        "state": "RJ",
        "district": "Olinda",
        "street": "Travessa Idalina",
        "zipcode": "26510-130"
    },
    {
        "city": "Nilópolis",
        "state": "RJ",
        "district": "Centro",
        "street": "Travessa José Nicolau de Carvalho",
        "zipcode": "26515-378"
    },
    {
        "city": "Nilópolis",
        "state": "RJ",
        "district": "Centro",
        "street": "Travessa José Mathias",
        "zipcode": "26520-336"
    },
    {
        "city": "Nilópolis",
        "state": "RJ",
        "district": "Centro",
        "street": "Travessa Carlos Santana",
        "zipcode": "26521-400"
    },
    {
        "city": "Nilópolis",
        "state": "RJ",
        "district": "Centro",
        "street": "Travessa Alabama",
        "zipcode": "26520-552"
    },
    {
        "city": "Nilópolis",
        "state": "RJ",
        "district": "Cabral",
        "street": "Rua Benvenuto Celini",
        "zipcode": "26515-360"
    },
    {
        "city": "Nilópolis",
        "state": "RJ",
        "district": "Centro",
        "street": "Travessa Luiz Gonçalves Júnior",
        "zipcode": "26525-037"
    },
    {
        "city": "Nilópolis",
        "state": "RJ",
        "district": "Olinda",
        "street": "Travessa Joaquim Furtado Sardinha",
        "zipcode": "26545-244"
    },
    {
        "city": "Nilópolis",
        "state": "RJ",
        "district": "Cabuis",
        "street": "Rua Otacílio Alves",
        "zipcode": "26545-670"
    },
    {
        "city": "Nilópolis",
        "state": "RJ",
        "district": "Cabuis",
        "street": "Rua Tupacireta",
        "zipcode": "26540-440"
    },
    {
        "city": "Nilópolis",
        "state": "RJ",
        "district": "Nossa Senhora de Fátima",
        "street": "Rua Mário de Araújo",
        "zipcode": "26521-145"
    },
    {
        "city": "Nilópolis",
        "state": "RJ",
        "district": "Centro",
        "street": "Avenida Getúlio de Moura",
        "zipcode": "26510-000"
    },
    {
        "city": "Nilópolis",
        "state": "RJ",
        "district": "Olinda",
        "street": "Travessa João Machado Barcelos",
        "zipcode": "26510-147"
    },
    {
        "city": "Nilópolis",
        "state": "RJ",
        "district": "Centro",
        "street": "Rua Albina Fernandes Flores",
        "zipcode": "26515-070"
    },
    {
        "city": "Nilópolis",
        "state": "RJ",
        "district": "Centro",
        "street": "Rua Adolfo Ribeiro de Araújo",
        "zipcode": "26510-760"
    },
    {
        "city": "Nilópolis",
        "state": "RJ",
        "district": "Centro",
        "street": "Rua Coronel Teodomiro",
        "zipcode": "26510-790"
    },
    {
        "city": "Nilópolis",
        "state": "RJ",
        "district": "Olinda",
        "street": "Rua Dolores Arosa Cerqueira",
        "zipcode": "26510-360"
    },
    {
        "city": "Nilópolis",
        "state": "RJ",
        "district": "Cabral",
        "street": "Rua Carolina Sampaio de Albuquerque",
        "zipcode": "26515-025"
    },
    {
        "city": "Nilópolis",
        "state": "RJ",
        "district": "Centro",
        "street": "Rua Brasília",
        "zipcode": "26515-370"
    },
    {
        "city": "Nilópolis",
        "state": "RJ",
        "district": "Centro",
        "street": "Rua Carteiro",
        "zipcode": "26515-380"
    },
    {
        "city": "Nilópolis",
        "state": "RJ",
        "district": "Olinda",
        "street": "Rua Lúcio Ribeiro dos Santos",
        "zipcode": "26510-120"
    },
    {
        "city": "Nilópolis",
        "state": "RJ",
        "district": "Nova Cidade",
        "street": "Rua Joviano de Oliveira Machado",
        "zipcode": "26510-280"
    },
    {
        "city": "Nilópolis",
        "state": "RJ",
        "district": "Centro",
        "street": "Rua Mário Silva",
        "zipcode": "26510-290"
    },
    {
        "city": "Nilópolis",
        "state": "RJ",
        "district": "Cabral",
        "street": "Rua Nossa Senhora Aparecida",
        "zipcode": "26510-560"
    },
    {
        "city": "Nilópolis",
        "state": "RJ",
        "district": "Nova Cidade",
        "street": "Rua José Peres Ribeiro",
        "zipcode": "26510-320"
    },
    {
        "city": "Nilópolis",
        "state": "RJ",
        "district": "Olinda",
        "street": "Travessa Cândida Tavares da Silveira",
        "zipcode": "26510-200"
    },
    {
        "city": "Nilópolis",
        "state": "RJ",
        "district": "Olinda",
        "street": "Travessa Avelina",
        "zipcode": "26510-220"
    },
    {
        "city": "Nilópolis",
        "state": "RJ",
        "district": "Olinda",
        "street": "Travessa Ester",
        "zipcode": "26510-260"
    },
    {
        "city": "Nilópolis",
        "state": "RJ",
        "district": "Olinda",
        "street": "Travessa Artur Reis de Carvalho",
        "zipcode": "26510-420"
    },
    {
        "city": "Nilópolis",
        "state": "RJ",
        "district": "Olinda",
        "street": "Rua Valentim Videira",
        "zipcode": "26510-197"
    },
    {
        "city": "Nilópolis",
        "state": "RJ",
        "district": "Olinda",
        "street": "Travessa Júlio Canabarro",
        "zipcode": "26510-103"
    },
    {
        "city": "Nilópolis",
        "state": "RJ",
        "district": "Centro",
        "street": "Travessa São Jerônimo",
        "zipcode": "26510-505"
    },
    {
        "city": "Nilópolis",
        "state": "RJ",
        "district": "Cabral",
        "street": "Travessa Santo Antônio",
        "zipcode": "26510-540"
    },
    {
        "city": "Nilópolis",
        "state": "RJ",
        "district": "Cabral",
        "street": "Rua Artur José Teixeira",
        "zipcode": "26515-035"
    },
    {
        "city": "Nilópolis",
        "state": "RJ",
        "district": "Cabral",
        "street": "Rua Eurides Passos",
        "zipcode": "26520-001"
    },
    {
        "city": "Nilópolis",
        "state": "RJ",
        "district": "Centro",
        "street": "Rua Evaristo Manoel dos Santos",
        "zipcode": "26515-640"
    },
    {
        "city": "Nilópolis",
        "state": "RJ",
        "district": "Olinda",
        "street": "Travessa Flávio da Silva Oliveira",
        "zipcode": "26515-650"
    },
    {
        "city": "Nilópolis",
        "state": "RJ",
        "district": "Nossa Senhora de Fátima",
        "street": "Rua Herculano Aranda",
        "zipcode": "26515-675"
    },
    {
        "city": "Nilópolis",
        "state": "RJ",
        "district": "Cabral",
        "street": "Rua Isaltina Monis Moura",
        "zipcode": "26515-680"
    },
    {
        "city": "Nilópolis",
        "state": "RJ",
        "district": "Centro",
        "street": "Rua José Nunes de Oliveira",
        "zipcode": "26515-595"
    },
    {
        "city": "Nilópolis",
        "state": "RJ",
        "district": "Cabral",
        "street": "Rua Julia Maria da Conceição",
        "zipcode": "26515-700"
    },
    {
        "city": "Nilópolis",
        "state": "RJ",
        "district": "Centro",
        "street": "Rua Madalena Chambarelli",
        "zipcode": "26515-740"
    },
    {
        "city": "Nilópolis",
        "state": "RJ",
        "district": "Centro",
        "street": "Travessa Rahmil Gdalevici",
        "zipcode": "26515-840"
    },
    {
        "city": "Nilópolis",
        "state": "RJ",
        "district": "Cabral",
        "street": "Rua Resistência",
        "zipcode": "26515-550"
    },
    {
        "city": "Nilópolis",
        "state": "RJ",
        "district": "Cabral",
        "street": "Rua Júlio Fernandes Figueiredo",
        "zipcode": "26515-830"
    },
    {
        "city": "Nilópolis",
        "state": "RJ",
        "district": "Centro",
        "street": "Travessa Romilda Alves",
        "zipcode": "26535-660"
    },
    {
        "city": "Nilópolis",
        "state": "RJ",
        "district": "Nova Cidade",
        "street": "Beco Manoel Mathias",
        "zipcode": "26535-580"
    },
    {
        "city": "Nilópolis",
        "state": "RJ",
        "district": "Centro",
        "street": "Estrada Mirandela",
        "zipcode": "26520-331"
    },
    {
        "city": "Nilópolis",
        "state": "RJ",
        "district": "Cabral",
        "street": "Rua Pernambucana",
        "zipcode": "26515-240"
    },
    {
        "city": "Nilópolis",
        "state": "RJ",
        "district": "Cabral",
        "street": "Beco Marcelo de Araújo",
        "zipcode": "26515-330"
    },
    {
        "city": "Nilópolis",
        "state": "RJ",
        "district": "Cabral",
        "street": "Rua João Pires de Morais",
        "zipcode": "26510-820"
    },
    {
        "city": "Nilópolis",
        "state": "RJ",
        "district": "Centro",
        "street": "Rua Fernando de Sousa",
        "zipcode": "26510-755"
    },
    {
        "city": "Nilópolis",
        "state": "RJ",
        "district": "Cabral",
        "street": "Rua Clara de Souza",
        "zipcode": "26515-125"
    },
    {
        "city": "Nilópolis",
        "state": "RJ",
        "district": "Cabral",
        "street": "Rua Franklin de Paiva",
        "zipcode": "26515-140"
    },
    {
        "city": "Nilópolis",
        "state": "RJ",
        "district": "Cabral",
        "street": "Rua Inocêncio da Costa Souto",
        "zipcode": "26515-150"
    },
    {
        "city": "Nilópolis",
        "state": "RJ",
        "district": "Cabral",
        "street": "Rua Joaquim Máximo Soares",
        "zipcode": "26515-366"
    },
    {
        "city": "Nilópolis",
        "state": "RJ",
        "district": "Centro",
        "street": "Rua Nadja Nery de Souza",
        "zipcode": "26510-607"
    },
    {
        "city": "Nilópolis",
        "state": "RJ",
        "district": "Olinda",
        "street": "Rua Nicoleta Carvalho Borges",
        "zipcode": "26510-710"
    },
    {
        "city": "Nilópolis",
        "state": "RJ",
        "district": "Centro",
        "street": "Rua Luís Augusto de Freitas",
        "zipcode": "26510-830"
    },
    {
        "city": "Nilópolis",
        "state": "RJ",
        "district": "Cabral",
        "street": "Rua José da Silva",
        "zipcode": "26515-045"
    },
    {
        "city": "Nilópolis",
        "state": "RJ",
        "district": "Cabral",
        "street": "Rua Orlandina da Silva Sousa",
        "zipcode": "26515-066"
    },
    {
        "city": "Nilópolis",
        "state": "RJ",
        "district": "Cabral",
        "street": "Rua Luís Gonzaga",
        "zipcode": "26515-190"
    },
    {
        "city": "Nilópolis",
        "state": "RJ",
        "district": "Centro",
        "street": "Travessa Beatriz",
        "zipcode": "26510-625"
    },
    {
        "city": "Nilópolis",
        "state": "RJ",
        "district": "Olinda",
        "street": "Travessa Gastão Guique",
        "zipcode": "26510-215"
    },
    {
        "city": "Nilópolis",
        "state": "RJ",
        "district": "Centro",
        "street": "Travessa Andréa Gomes Pinto",
        "zipcode": "26510-343"
    },
    {
        "city": "Nilópolis",
        "state": "RJ",
        "district": "Centro",
        "street": "Travessa Flávio da Silva Oliveira",
        "zipcode": "26515-043"
    },
    {
        "city": "Nilópolis",
        "state": "RJ",
        "district": "Centro",
        "street": "Rua Vereador Timotheo da Costa",
        "zipcode": "26515-055"
    },
    {
        "city": "Nilópolis",
        "state": "RJ",
        "district": "Centro",
        "street": "Travessa Egídio Reis",
        "zipcode": "26515-376"
    },
    {
        "city": "Nilópolis",
        "state": "RJ",
        "district": "Centro",
        "street": "Travessa Braz Miranda",
        "zipcode": "26520-473"
    },
    {
        "city": "Nilópolis",
        "state": "RJ",
        "district": "Centro",
        "street": "Travessa Mário Avena",
        "zipcode": "26510-700"
    },
    {
        "city": "Nilópolis",
        "state": "RJ",
        "district": "Olinda",
        "street": "Travessa Maria Augusta dos Santos Ferreira",
        "zipcode": "26515-031"
    },
    {
        "city": "Nilópolis",
        "state": "RJ",
        "district": "Cabral",
        "street": "Travessa Rondon Gonçalves",
        "zipcode": "26515-041"
    },
    {
        "city": "Nilópolis",
        "state": "RJ",
        "district": "Centro",
        "street": "Travessa Laurindo de Sá",
        "zipcode": "26515-065"
    },
    {
        "city": "Nilópolis",
        "state": "RJ",
        "district": "Centro",
        "street": "Rua Joana Gonçalves",
        "zipcode": "26510-650"
    },
    {
        "city": "Nilópolis",
        "state": "RJ",
        "district": "Centro",
        "street": "Rua Francisco Eliseu",
        "zipcode": "26510-730"
    },
    {
        "city": "Nilópolis",
        "state": "RJ",
        "district": "Cabral",
        "street": "Rua José Joaquim da Cruz",
        "zipcode": "26515-180"
    },
    {
        "city": "Nilópolis",
        "state": "RJ",
        "district": "Centro",
        "street": "Travessa Clarice",
        "zipcode": "26525-535"
    },
    {
        "city": "Nilópolis",
        "state": "RJ",
        "district": "Paiol de Pólvora",
        "street": "Beco Joveniano Gomes de Carvalho",
        "zipcode": "26545-006"
    },
    {
        "city": "Nilópolis",
        "state": "RJ",
        "district": "Olinda",
        "street": "Rua Paulo de Melo",
        "zipcode": "26545-081"
    },
    {
        "city": "Nilópolis",
        "state": "RJ",
        "district": "Paiol de Pólvora",
        "street": "Rua Cândida",
        "zipcode": "26545-151"
    },
    {
        "city": "Nilópolis",
        "state": "RJ",
        "district": "Paiol de Pólvora",
        "street": "Beco Feliz",
        "zipcode": "26545-236"
    },
    {
        "city": "Nilópolis",
        "state": "RJ",
        "district": "Cabral",
        "street": "Rua Emiliano Silva",
        "zipcode": "26515-410"
    },
    {
        "city": "Nilópolis",
        "state": "RJ",
        "district": "Centro",
        "street": "Travessa Marcos Alan",
        "zipcode": "26520-105"
    },
    {
        "city": "Nilópolis",
        "state": "RJ",
        "district": "Centro",
        "street": "Rua Darcy Vargas",
        "zipcode": "26520-440"
    },
    {
        "city": "Nilópolis",
        "state": "RJ",
        "district": "Centro",
        "street": "Travessa João Peçanha",
        "zipcode": "26520-385"
    },
    {
        "city": "Nilópolis",
        "state": "RJ",
        "district": "Centro",
        "street": "Rua Aurélio Rodrigues Blanco",
        "zipcode": "26520-390"
    },
    {
        "city": "Nilópolis",
        "state": "RJ",
        "district": "Centro",
        "street": "Travessa Antônio Dias",
        "zipcode": "26520-655"
    },
    {
        "city": "Nilópolis",
        "state": "RJ",
        "district": "Centro",
        "street": "Rua Pedro Álvares Cabral",
        "zipcode": "26520-533"
    },
    {
        "city": "Nilópolis",
        "state": "RJ",
        "district": "Nossa Senhora de Fátima",
        "street": "Rua José Jerônimo Martins",
        "zipcode": "26521-110"
    },
    {
        "city": "Nilópolis",
        "state": "RJ",
        "district": "Centro",
        "street": "Travessa Brasil",
        "zipcode": "26521-138"
    },
    {
        "city": "Nilópolis",
        "state": "RJ",
        "district": "Centro",
        "street": "Alameda Mariana",
        "zipcode": "26520-100"
    },
    {
        "city": "Nilópolis",
        "state": "RJ",
        "district": "Centro",
        "street": "Rua Antônio Augusto Gomes",
        "zipcode": "26520-140"
    },
    {
        "city": "Nilópolis",
        "state": "RJ",
        "district": "Centro",
        "street": "Praça Benedito Vaz Vieira",
        "zipcode": "26520-400"
    },
    {
        "city": "Nilópolis",
        "state": "RJ",
        "district": "Centro",
        "street": "Rua Albano Novais",
        "zipcode": "26520-620"
    },
    {
        "city": "Nilópolis",
        "state": "RJ",
        "district": "Nossa Senhora de Fátima",
        "street": "Rua Agostinho Esmarque",
        "zipcode": "26521-000"
    },
    {
        "city": "Nilópolis",
        "state": "RJ",
        "district": "Nossa Senhora de Fátima",
        "street": "Rua Aurélio Mariano Lima",
        "zipcode": "26521-094"
    },
    {
        "city": "Nilópolis",
        "state": "RJ",
        "district": "Cabral",
        "street": "Rua Florianópolis",
        "zipcode": "26515-440"
    },
    {
        "city": "Nilópolis",
        "state": "RJ",
        "district": "Centro",
        "street": "Rua Augusto da Silva",
        "zipcode": "26520-150"
    },
    {
        "city": "Nilópolis",
        "state": "RJ",
        "district": "Centro",
        "street": "Rua Manuel José Ferreira",
        "zipcode": "26520-007"
    },
    {
        "city": "Nilópolis",
        "state": "RJ",
        "district": "Centro",
        "street": "Rua Eurides de Oliveira",
        "zipcode": "26520-480"
    },
    {
        "city": "Nilópolis",
        "state": "RJ",
        "district": "Nossa Senhora de Fátima",
        "street": "Rua Humberto de Campos",
        "zipcode": "26520-490"
    },
    {
        "city": "Nilópolis",
        "state": "RJ",
        "district": "Centro",
        "street": "Rua Coronel França Leite",
        "zipcode": "26520-651"
    },
    {
        "city": "Nilópolis",
        "state": "RJ",
        "district": "Centro",
        "street": "Rua Marcolina do Nascimento",
        "zipcode": "26520-730"
    },
    {
        "city": "Nilópolis",
        "state": "RJ",
        "district": "Nossa Senhora de Fátima",
        "street": "Rua Marques Canário",
        "zipcode": "26520-770"
    },
    {
        "city": "Nilópolis",
        "state": "RJ",
        "district": "Nossa Senhora de Fátima",
        "street": "Rua Caio Vaz Albuquerque",
        "zipcode": "26521-040"
    },
    {
        "city": "Nilópolis",
        "state": "RJ",
        "district": "Nossa Senhora de Fátima",
        "street": "Rua Circaciana Carvalho",
        "zipcode": "26521-050"
    },
    {
        "city": "Nilópolis",
        "state": "RJ",
        "district": "Nossa Senhora de Fátima",
        "street": "Rua Inácio Serra",
        "zipcode": "26521-100"
    },
    {
        "city": "Nilópolis",
        "state": "RJ",
        "district": "Centro",
        "street": "Rua do Comércio",
        "zipcode": "26520-290"
    },
    {
        "city": "Nilópolis",
        "state": "RJ",
        "district": "Centro",
        "street": "Rua Coronel França Leite",
        "zipcode": "26520-652"
    },
    {
        "city": "Nilópolis",
        "state": "RJ",
        "district": "Centro",
        "street": "Rua Tiradentes",
        "zipcode": "26520-045"
    },
    {
        "city": "Nilópolis",
        "state": "RJ",
        "district": "Centro",
        "street": "Rua Vereador Ângelo Júlio Chambarelli",
        "zipcode": "26520-130"
    },
    {
        "city": "Nilópolis",
        "state": "RJ",
        "district": "Centro",
        "street": "Travessa Eduardo Barros",
        "zipcode": "26520-338"
    },
    {
        "city": "Nilópolis",
        "state": "RJ",
        "district": "Centro",
        "street": "Rua Sargento Pinto",
        "zipcode": "26520-560"
    },
    {
        "city": "Nilópolis",
        "state": "RJ",
        "district": "Centro",
        "street": "Rua São Paulo",
        "zipcode": "26520-240"
    },
    {
        "city": "Nilópolis",
        "state": "RJ",
        "district": "Centro",
        "street": "Rua Tamoios",
        "zipcode": "26520-250"
    },
    {
        "city": "Nilópolis",
        "state": "RJ",
        "district": "Centro",
        "street": "Travessa Joaquim Barbosa de Souza",
        "zipcode": "26515-403"
    },
    {
        "city": "Nilópolis",
        "state": "RJ",
        "district": "Centro",
        "street": "Travessa Santo Amaro",
        "zipcode": "26520-093"
    },
    {
        "city": "Nilópolis",
        "state": "RJ",
        "district": "Centro",
        "street": "Travessa Santa Lúcia",
        "zipcode": "26520-096"
    },
    {
        "city": "Nilópolis",
        "state": "RJ",
        "district": "Centro",
        "street": "Beco Souza",
        "zipcode": "26535-492"
    },
    {
        "city": "Nilópolis",
        "state": "RJ",
        "district": "Centro",
        "street": "Travessa Maria da Luz",
        "zipcode": "26520-315"
    },
    {
        "city": "Nilópolis",
        "state": "RJ",
        "district": "Centro",
        "street": "Travessa Joaquim da Silva Pinto",
        "zipcode": "26520-425"
    },
    {
        "city": "Nilópolis",
        "state": "RJ",
        "district": "Centro",
        "street": "Travessa Ilton",
        "zipcode": "26520-463"
    },
    {
        "city": "Nilópolis",
        "state": "RJ",
        "district": "Nossa Senhora de Fátima",
        "street": "Travessa João Siqueira",
        "zipcode": "26520-773"
    },
    {
        "city": "Nilópolis",
        "state": "RJ",
        "district": "Nossa Senhora de Fátima",
        "street": "Travessa José Manieiro",
        "zipcode": "26520-778"
    },
    {
        "city": "Nilópolis",
        "state": "RJ",
        "district": "Cabral",
        "street": "Travessa Joana Cândida Manso",
        "zipcode": "26515-460"
    },
    {
        "city": "Nilópolis",
        "state": "RJ",
        "district": "Cabral",
        "street": "Travessa Olair José da Costa",
        "zipcode": "26515-408"
    },
    {
        "city": "Nilópolis",
        "state": "RJ",
        "district": "Centro",
        "street": "Travessa Deputado Manuel Pires",
        "zipcode": "26520-090"
    },
    {
        "city": "Nilópolis",
        "state": "RJ",
        "district": "Centro",
        "street": "Travessa Delfina Batista de Sousa",
        "zipcode": "26520-180"
    },
    {
        "city": "Nilópolis",
        "state": "RJ",
        "district": "Centro",
        "street": "Rua Caio Martins",
        "zipcode": "26520-410"
    },
    {
        "city": "Nilópolis",
        "state": "RJ",
        "district": "Centro",
        "street": "Travessa São Jorge",
        "zipcode": "26520-230"
    },
    {
        "city": "Nilópolis",
        "state": "RJ",
        "district": "Nossa Senhora de Fátima",
        "street": "Rua Paulo Cláudio Freitas",
        "zipcode": "26521-480"
    },
    {
        "city": "Nilópolis",
        "state": "RJ",
        "district": "Nossa Senhora de Fátima",
        "street": "Travessa Evita",
        "zipcode": "26525-170"
    },
    {
        "city": "Nilópolis",
        "state": "RJ",
        "district": "Centro",
        "street": "Rua Azelaide Rodrigues da Silva",
        "zipcode": "26525-020"
    },
    {
        "city": "Nilópolis",
        "state": "RJ",
        "district": "Nossa Senhora de Fátima",
        "street": "Rua Antônio Pereira Martins",
        "zipcode": "26521-230"
    },
    {
        "city": "Nilópolis",
        "state": "RJ",
        "district": "Nossa Senhora de Fátima",
        "street": "Rua Mário de Araújo",
        "zipcode": "26521-146"
    },
    {
        "city": "Nilópolis",
        "state": "RJ",
        "district": "Nossa Senhora de Fátima",
        "street": "Rua Lafaiete Gerin",
        "zipcode": "26521-330"
    },
    {
        "city": "Nilópolis",
        "state": "RJ",
        "district": "Centro",
        "street": "Rua João Pessoa",
        "zipcode": "26525-015"
    },
    {
        "city": "Nilópolis",
        "state": "RJ",
        "district": "Centro",
        "street": "Rua Celina Franco Tavares",
        "zipcode": "26525-135"
    },
    {
        "city": "Nilópolis",
        "state": "RJ",
        "district": "Nossa Senhora de Fátima",
        "street": "Rua Operários",
        "zipcode": "26521-140"
    },
    {
        "city": "Nilópolis",
        "state": "RJ",
        "district": "Nossa Senhora de Fátima",
        "street": "Rua Franklin de Carvalho",
        "zipcode": "26521-280"
    },
    {
        "city": "Nilópolis",
        "state": "RJ",
        "district": "Centro",
        "street": "Rua Ernesto Cardoso",
        "zipcode": "26525-422"
    },
    {
        "city": "Nilópolis",
        "state": "RJ",
        "district": "Nossa Senhora de Fátima",
        "street": "Rua José Rodrigues",
        "zipcode": "26520-700"
    },
    {
        "city": "Nilópolis",
        "state": "RJ",
        "district": "Nossa Senhora de Fátima",
        "street": "Rua Sumidouro",
        "zipcode": "26520-800"
    },
    {
        "city": "Nilópolis",
        "state": "RJ",
        "district": "Centro",
        "street": "Travessa Cândida Rita",
        "zipcode": "26521-137"
    },
    {
        "city": "Nilópolis",
        "state": "RJ",
        "district": "Nossa Senhora de Fátima",
        "street": "Travessa Alta Rodrigues de Lemos",
        "zipcode": "26521-155"
    },
    {
        "city": "Nilópolis",
        "state": "RJ",
        "district": "Nossa Senhora de Fátima",
        "street": "Rua Recife",
        "zipcode": "26521-500"
    },
    {
        "city": "Nilópolis",
        "state": "RJ",
        "district": "Nossa Senhora de Fátima",
        "street": "Rua Niobel Borges Brasil",
        "zipcode": "26521-670"
    },
    {
        "city": "Nilópolis",
        "state": "RJ",
        "district": "Centro",
        "street": "Rua Pedro Álvares Cabral",
        "zipcode": "26525-051"
    },
    {
        "city": "Nilópolis",
        "state": "RJ",
        "district": "Centro",
        "street": "Rua Mário de Araújo",
        "zipcode": "26525-132"
    },
    {
        "city": "Nilópolis",
        "state": "RJ",
        "district": "Centro",
        "street": "Rua Nilton",
        "zipcode": "26525-210"
    },
    {
        "city": "Nilópolis",
        "state": "RJ",
        "district": "Nossa Senhora de Fátima",
        "street": "Travessa Guilhermina",
        "zipcode": "26520-660"
    },
    {
        "city": "Nilópolis",
        "state": "RJ",
        "district": "Nossa Senhora de Fátima",
        "street": "Rua Teresinha",
        "zipcode": "26521-160"
    },
    {
        "city": "Nilópolis",
        "state": "RJ",
        "district": "Centro",
        "street": "Rua Manuel Antônio Pereira",
        "zipcode": "26525-700"
    },
    {
        "city": "Nilópolis",
        "state": "RJ",
        "district": "Centro",
        "street": "Rua Manuel Duarte",
        "zipcode": "26525-720"
    },
    {
        "city": "Nilópolis",
        "state": "RJ",
        "district": "Centro",
        "street": "Rua Maria Borges",
        "zipcode": "26525-780"
    },
    {
        "city": "Nilópolis",
        "state": "RJ",
        "district": "Centro",
        "street": "Rua Manuel Sabino Barbosa",
        "zipcode": "26525-840"
    },
    {
        "city": "Nilópolis",
        "state": "RJ",
        "district": "Centro",
        "street": "Travessa Telesforo de Miranda",
        "zipcode": "26520-538"
    },
    {
        "city": "Nilópolis",
        "state": "RJ",
        "district": "Centro",
        "street": "Travessa Riachuelo",
        "zipcode": "26520-590"
    },
    {
        "city": "Nilópolis",
        "state": "RJ",
        "district": "Nossa Senhora de Fátima",
        "street": "Travessa Maria Monteiro",
        "zipcode": "26521-121"
    },
    {
        "city": "Nilópolis",
        "state": "RJ",
        "district": "Nossa Senhora de Fátima",
        "street": "Travessa São Pedro",
        "zipcode": "26521-150"
    },
    {
        "city": "Nilópolis",
        "state": "RJ",
        "district": "Centro",
        "street": "Rua Terezina",
        "zipcode": "26521-300"
    },
    {
        "city": "Nilópolis",
        "state": "RJ",
        "district": "Nossa Senhora de Fátima",
        "street": "Travessa Edison Esteves",
        "zipcode": "26521-320"
    },
    {
        "city": "Nilópolis",
        "state": "RJ",
        "district": "Centro",
        "street": "Travessa Cordeiro",
        "zipcode": "26521-410"
    },
    {
        "city": "Nilópolis",
        "state": "RJ",
        "district": "Centro",
        "street": "Travessa Valdemar Reis Vidal",
        "zipcode": "26521-620"
    },
    {
        "city": "Nilópolis",
        "state": "RJ",
        "district": "Nossa Senhora de Fátima",
        "street": "Travessa Nazareno",
        "zipcode": "26521-662"
    },
    {
        "city": "Nilópolis",
        "state": "RJ",
        "district": "Centro",
        "street": "Travessa Roberto",
        "zipcode": "26525-205"
    },
    {
        "city": "Nilópolis",
        "state": "RJ",
        "district": "Centro",
        "street": "Travessa Maria Leocadia do Amaral",
        "zipcode": "26520-503"
    },
    {
        "city": "Nilópolis",
        "state": "RJ",
        "district": "Nossa Senhora de Fátima",
        "street": "Rua Santarém",
        "zipcode": "26521-270"
    },
    {
        "city": "Nilópolis",
        "state": "RJ",
        "district": "Centro",
        "street": "Travessa Ramos",
        "zipcode": "26525-070"
    },
    {
        "city": "Nilópolis",
        "state": "RJ",
        "district": "Centro",
        "street": "Travessa Helena",
        "zipcode": "26525-430"
    },
    {
        "city": "Nilópolis",
        "state": "RJ",
        "district": "Centro",
        "street": "Travessa Brasília",
        "zipcode": "26521-390"
    },
    {
        "city": "Nilópolis",
        "state": "RJ",
        "district": "Centro",
        "street": "Travessa Manoel Barbosa",
        "zipcode": "26525-055"
    },
    {
        "city": "Nilópolis",
        "state": "RJ",
        "district": "Nossa Senhora de Fátima",
        "street": "Travessa São João",
        "zipcode": "26521-166"
    },
    {
        "city": "Nilópolis",
        "state": "RJ",
        "district": "Centro",
        "street": "Travessa Eduardo Felipe",
        "zipcode": "26520-610"
    },
    {
        "city": "Nilópolis",
        "state": "RJ",
        "district": "Centro",
        "street": "Rua Petrópolis",
        "zipcode": "26520-780"
    },
    {
        "city": "Nilópolis",
        "state": "RJ",
        "district": "Centro",
        "street": "Travessa Denair Dias Barbosa",
        "zipcode": "26521-131"
    },
    {
        "city": "Nilópolis",
        "state": "RJ",
        "district": "Centro",
        "street": "Travessa Geraldo Morais da Silva",
        "zipcode": "26525-018"
    },
    {
        "city": "Nilópolis",
        "state": "RJ",
        "district": "Centro",
        "street": "Rua Manuel Luís Pereira",
        "zipcode": "26525-040"
    },
    {
        "city": "Nilópolis",
        "state": "RJ",
        "district": "Centro",
        "street": "Rua Fernando de Azevedo",
        "zipcode": "26525-180"
    },
    {
        "city": "Nilópolis",
        "state": "RJ",
        "district": "Centro",
        "street": "Rua Capitão Antônio Manoel de Melo",
        "zipcode": "26525-255"
    },
    {
        "city": "Nilópolis",
        "state": "RJ",
        "district": "Centro",
        "street": "Travessa Hilton",
        "zipcode": "26525-330"
    },
    {
        "city": "Nilópolis",
        "state": "RJ",
        "district": "Nova Cidade",
        "street": "Rua Arnaldo Tavares",
        "zipcode": "26535-070"
    },
    {
        "city": "Nilópolis",
        "state": "RJ",
        "district": "Nova Cidade",
        "street": "Rua Sagrado Coração de Jesus",
        "zipcode": "26535-140"
    },
    {
        "city": "Nilópolis",
        "state": "RJ",
        "district": "Nova Cidade",
        "street": "Rua Durval Albuquerque",
        "zipcode": "26535-190"
    },
    {
        "city": "Nilópolis",
        "state": "RJ",
        "district": "Nova Cidade",
        "street": "Rua Fidélis Sobral",
        "zipcode": "26535-210"
    },
    {
        "city": "Nilópolis",
        "state": "RJ",
        "district": "Centro",
        "street": "Rua João Batista da Cruz Saldanha",
        "zipcode": "26535-230"
    },
    {
        "city": "Nilópolis",
        "state": "RJ",
        "district": "Centro",
        "street": "Travessa Luiz Ribeiro",
        "zipcode": "26535-243"
    },
    {
        "city": "Nilópolis",
        "state": "RJ",
        "district": "Nova Cidade",
        "street": "Rua Joveniana Gomes",
        "zipcode": "26535-250"
    },
    {
        "city": "Nilópolis",
        "state": "RJ",
        "district": "Nova Cidade",
        "street": "Travessa Manuel Veloso",
        "zipcode": "26535-280"
    },
    {
        "city": "Nilópolis",
        "state": "RJ",
        "district": "Centro",
        "street": "Rua João da Mata Peixoto",
        "zipcode": "26535-340"
    },
    {
        "city": "Nilópolis",
        "state": "RJ",
        "district": "Centro",
        "street": "Travessa Tuffi Aniz",
        "zipcode": "26535-343"
    },
    {
        "city": "Nilópolis",
        "state": "RJ",
        "district": "Centro",
        "street": "Rua Mário Valadares",
        "zipcode": "26535-338"
    },
    {
        "city": "Nilópolis",
        "state": "RJ",
        "district": "Centro",
        "street": "Rua Felicidade de Jesus Teixeira",
        "zipcode": "26535-650"
    },
    {
        "city": "Nilópolis",
        "state": "RJ",
        "district": "Nova Cidade",
        "street": "Rua Doutor Lópes",
        "zipcode": "26535-450"
    },
    {
        "city": "Nilópolis",
        "state": "RJ",
        "district": "Centro",
        "street": "Rua Heraldo Costa",
        "zipcode": "26535-540"
    },
    {
        "city": "Nilópolis",
        "state": "RJ",
        "district": "Centro",
        "street": "Rua Otaciano",
        "zipcode": "26535-430"
    },
    {
        "city": "Nilópolis",
        "state": "RJ",
        "district": "Centro",
        "street": "Travessa Gumercindo José Carneiro",
        "zipcode": "26525-123"
    },
    {
        "city": "Nilópolis",
        "state": "RJ",
        "district": "Nossa Senhora de Fátima",
        "street": "Rua Vidal Negreiros",
        "zipcode": "26525-540"
    },
    {
        "city": "Nilópolis",
        "state": "RJ",
        "district": "Centro",
        "street": "Travessa Laurindo Almeida Machado",
        "zipcode": "26525-554"
    },
    {
        "city": "Nilópolis",
        "state": "RJ",
        "district": "Centro",
        "street": "Travessa Adelino Mathias",
        "zipcode": "26525-556"
    },
    {
        "city": "Nilópolis",
        "state": "RJ",
        "district": "Centro",
        "street": "Rua Júlio Maria Lourenço",
        "zipcode": "26525-450"
    },
    {
        "city": "Nilópolis",
        "state": "RJ",
        "district": "Centro",
        "street": "Rua Samuel Garber",
        "zipcode": "26525-740"
    },
    {
        "city": "Nilópolis",
        "state": "RJ",
        "district": "Centro",
        "street": "Travessa Fritz Soares",
        "zipcode": "26525-823"
    },
    {
        "city": "Nilópolis",
        "state": "RJ",
        "district": "Centro",
        "street": "Travessa Cacilda",
        "zipcode": "26525-843"
    },
    {
        "city": "Nilópolis",
        "state": "RJ",
        "district": "Centro",
        "street": "Rua Itaguaí",
        "zipcode": "26525-845"
    },
    {
        "city": "Nilópolis",
        "state": "RJ",
        "district": "Centro",
        "street": "Rua São Gonçalo",
        "zipcode": "26526-020"
    },
    {
        "city": "Nilópolis",
        "state": "RJ",
        "district": "Centro",
        "street": "Rua Coronel Délio Menezes Porto",
        "zipcode": "26530-060"
    },
    {
        "city": "Nilópolis",
        "state": "RJ",
        "district": "Centro",
        "street": "Rua Coronel Tavares Franca",
        "zipcode": "26525-610"
    },
    {
        "city": "Nilópolis",
        "state": "RJ",
        "district": "Centro",
        "street": "Rua José Martins",
        "zipcode": "26530-050"
    },
    {
        "city": "Nilópolis",
        "state": "RJ",
        "district": "Centro",
        "street": "Rua Orlando Bernardino Lópes",
        "zipcode": "26530-090"
    },
    {
        "city": "Nilópolis",
        "state": "RJ",
        "district": "Centro",
        "street": "Rua Osvaldo Cruz",
        "zipcode": "26530-100"
    },
    {
        "city": "Nilópolis",
        "state": "RJ",
        "district": "Centro",
        "street": "Rua Paraíba do Sul",
        "zipcode": "26525-470"
    },
    {
        "city": "Nilópolis",
        "state": "RJ",
        "district": "Centro",
        "street": "Travessa Maria Laura",
        "zipcode": "26525-014"
    },
    {
        "city": "Nilópolis",
        "state": "RJ",
        "district": "Centro",
        "street": "Travessa Paulino de Souza",
        "zipcode": "26525-116"
    },
    {
        "city": "Nilópolis",
        "state": "RJ",
        "district": "Centro",
        "street": "Travessa Mulinario",
        "zipcode": "26525-121"
    },
    {
        "city": "Nilópolis",
        "state": "RJ",
        "district": "Centro",
        "street": "Travessa Jayme Ribeiro",
        "zipcode": "26525-128"
    },
    {
        "city": "Nilópolis",
        "state": "RJ",
        "district": "Centro",
        "street": "Travessa Benile",
        "zipcode": "26525-153"
    },
    {
        "city": "Nilópolis",
        "state": "RJ",
        "district": "Centro",
        "street": "Vila Albertina Amaro da Silva",
        "zipcode": "26525-105"
    },
    {
        "city": "Nilópolis",
        "state": "RJ",
        "district": "Centro",
        "street": "Travessa Eduardo da Silva Barbosa",
        "zipcode": "26525-400"
    },
    {
        "city": "Nilópolis",
        "state": "RJ",
        "district": "Centro",
        "street": "Travessa Jacira Lima dos Santos",
        "zipcode": "26525-421"
    },
    {
        "city": "Nilópolis",
        "state": "RJ",
        "district": "Centro",
        "street": "Rua Sofia",
        "zipcode": "26525-510"
    },
    {
        "city": "Nilópolis",
        "state": "RJ",
        "district": "Centro",
        "street": "Travessa Constantino Baffa",
        "zipcode": "26525-125"
    },
    {
        "city": "Nilópolis",
        "state": "RJ",
        "district": "Centro",
        "street": "Vila Luci Lima",
        "zipcode": "26525-827"
    },
    {
        "city": "Nilópolis",
        "state": "RJ",
        "district": "Cabral",
        "street": "Travessa Santana",
        "zipcode": "26530-025"
    },
    {
        "city": "Nilópolis",
        "state": "RJ",
        "district": "Centro",
        "street": "Travessa Manuel Rosa",
        "zipcode": "26530-140"
    },
    {
        "city": "Nilópolis",
        "state": "RJ",
        "district": "Nova Cidade",
        "street": "Travessa Alberto de Oliveira",
        "zipcode": "26535-025"
    },
    {
        "city": "Nilópolis",
        "state": "RJ",
        "district": "Nova Cidade",
        "street": "Rua Tenente Agapito de Albuquerque",
        "zipcode": "26530-240"
    },
    {
        "city": "Nilópolis",
        "state": "RJ",
        "district": "Centro",
        "street": "Travessa Vitorino Ferreira da Silva",
        "zipcode": "26525-078"
    },
    {
        "city": "Nilópolis",
        "state": "RJ",
        "district": "Centro",
        "street": "Travessa Emancipação",
        "zipcode": "26525-650"
    },
    {
        "city": "Nilópolis",
        "state": "RJ",
        "district": "Nova Cidade",
        "street": "Travessa Andrelino dos Santos",
        "zipcode": "26530-175"
    },
    {
        "city": "Nilópolis",
        "state": "RJ",
        "district": "Nova Cidade",
        "street": "Rua Joaquina de Albuquerque",
        "zipcode": "26530-190"
    },
    {
        "city": "Nilópolis",
        "state": "RJ",
        "district": "Nova Cidade",
        "street": "Rua Rui Barbosa",
        "zipcode": "26530-220"
    },
    {
        "city": "Nilópolis",
        "state": "RJ",
        "district": "Nova Cidade",
        "street": "Rua Wilson Nogueira",
        "zipcode": "26535-150"
    },
    {
        "city": "Nilópolis",
        "state": "RJ",
        "district": "Centro",
        "street": "Travessa Simeão",
        "zipcode": "26535-238"
    },
    {
        "city": "Nilópolis",
        "state": "RJ",
        "district": "Centro",
        "street": "Rua Vitória",
        "zipcode": "26525-550"
    },
    {
        "city": "Nilópolis",
        "state": "RJ",
        "district": "Centro",
        "street": "Travessa Jane Cláudia da Silva",
        "zipcode": "26535-339"
    },
    {
        "city": "Nilópolis",
        "state": "RJ",
        "district": "Centro",
        "street": "Travessa Vila Sessim",
        "zipcode": "26535-354"
    },
    {
        "city": "Nilópolis",
        "state": "RJ",
        "district": "Nova Cidade",
        "street": "Travessa Matsuda",
        "zipcode": "26535-420"
    },
    {
        "city": "Nilópolis",
        "state": "RJ",
        "district": "Centro",
        "street": "Rua Doutor Genésio de Barros",
        "zipcode": "26535-620"
    },
    {
        "city": "Nilópolis",
        "state": "RJ",
        "district": "Centro",
        "street": "Praça Surui",
        "zipcode": "26525-520"
    },
    {
        "city": "Nilópolis",
        "state": "RJ",
        "district": "Centro",
        "street": "Rua Vereador José Fortes",
        "zipcode": "26535-670"
    },
    {
        "city": "Nilópolis",
        "state": "RJ",
        "district": "Centro",
        "street": "Travessa Marta Pedro Gonçalves",
        "zipcode": "26535-356"
    },
    {
        "city": "Nilópolis",
        "state": "RJ",
        "district": "Nova Cidade",
        "street": "Travessa Otacílio Pessoa",
        "zipcode": "26535-380"
    },
    {
        "city": "Nilópolis",
        "state": "RJ",
        "district": "Nova Cidade",
        "street": "Travessa Jesus",
        "zipcode": "26535-470"
    },
    {
        "city": "Nilópolis",
        "state": "RJ",
        "district": "Centro",
        "street": "Rua Comendador Rodrigues Alves",
        "zipcode": "26540-010"
    },
    {
        "city": "Nilópolis",
        "state": "RJ",
        "district": "Centro",
        "street": "Travessa Mário Ângelo Nardeli",
        "zipcode": "26540-015"
    },
    {
        "city": "Nilópolis",
        "state": "RJ",
        "district": "Centro",
        "street": "Travessa Maria Santiago",
        "zipcode": "26540-018"
    },
    {
        "city": "Nilópolis",
        "state": "RJ",
        "district": "Centro",
        "street": "Rua Vereador Francisco Nunes",
        "zipcode": "26540-040"
    },
    {
        "city": "Nilópolis",
        "state": "RJ",
        "district": "Centro",
        "street": "Rua Belém",
        "zipcode": "26540-070"
    },
    {
        "city": "Nilópolis",
        "state": "RJ",
        "district": "Cabuis",
        "street": "Rua Dulce",
        "zipcode": "26540-212"
    },
    {
        "city": "Nilópolis",
        "state": "RJ",
        "district": "Olinda",
        "street": "Rua Comendador Rodrigues Alves",
        "zipcode": "26545-170"
    },
    {
        "city": "Nilópolis",
        "state": "RJ",
        "district": "Cabuis",
        "street": "Rua Dulce",
        "zipcode": "26545-182"
    },
    {
        "city": "Nilópolis",
        "state": "RJ",
        "district": "Olinda",
        "street": "Rua Benedito Meirelles",
        "zipcode": "26545-220"
    },
    {
        "city": "Nilópolis",
        "state": "RJ",
        "district": "Paiol de Pólvora",
        "street": "Rua Dinamarco Reis",
        "zipcode": "26545-230"
    },
    {
        "city": "Nilópolis",
        "state": "RJ",
        "district": "Paiol de Pólvora",
        "street": "Travessa Meireles",
        "zipcode": "26545-233"
    },
    {
        "city": "Nilópolis",
        "state": "RJ",
        "district": "Paiol de Pólvora",
        "street": "Travessa Rio Pavuna",
        "zipcode": "26545-238"
    },
    {
        "city": "Nilópolis",
        "state": "RJ",
        "district": "Olinda",
        "street": "Rua Tabelião Costa Madeira",
        "zipcode": "26511-000"
    },
    {
        "city": "Nilópolis",
        "state": "RJ",
        "district": "Olinda",
        "street": "Rua Sebastião de Oliveira Sarmento",
        "zipcode": "26545-280"
    },
    {
        "city": "Nilópolis",
        "state": "RJ",
        "district": "Olinda",
        "street": "Rua Ione Florentino Cardoso dos Santos",
        "zipcode": "26545-300"
    },
    {
        "city": "Nilópolis",
        "state": "RJ",
        "district": "Paiol de Pólvora",
        "street": "Rua Capitão Alfredo Antunes",
        "zipcode": "26545-440"
    },
    {
        "city": "Nilópolis",
        "state": "RJ",
        "district": "Paiol de Pólvora",
        "street": "Travessa Dona Josefa",
        "zipcode": "26545-448"
    },
    {
        "city": "Nilópolis",
        "state": "RJ",
        "district": "Paiol de Pólvora",
        "street": "Rua João Pereira",
        "zipcode": "26545-510"
    },
    {
        "city": "Nilópolis",
        "state": "RJ",
        "district": "Paiol de Pólvora",
        "street": "Rua Jorge Lossio",
        "zipcode": "26545-520"
    },
    {
        "city": "Nilópolis",
        "state": "RJ",
        "district": "Cabuis",
        "street": "Rua Maria Gonçalves Sá",
        "zipcode": "26545-580"
    },
    {
        "city": "Nilópolis",
        "state": "RJ",
        "district": "Paiol de Pólvora",
        "street": "Rua Maria Paris",
        "zipcode": "26545-600"
    },
    {
        "city": "Nilópolis",
        "state": "RJ",
        "district": "Paiol de Pólvora",
        "street": "Travessa Maria Gama",
        "zipcode": "26545-570"
    },
    {
        "city": "Nilópolis",
        "state": "RJ",
        "district": "Paiol de Pólvora",
        "street": "Rua Capitão Antunes Vasconcelos",
        "zipcode": "26545-430"
    },
    {
        "city": "Nilópolis",
        "state": "RJ",
        "district": "Paiol de Pólvora",
        "street": "Travessa Jorge Lossio",
        "zipcode": "26545-475"
    },
    {
        "city": "Nilópolis",
        "state": "RJ",
        "district": "Paiol de Pólvora",
        "street": "Rua João Diez de Lima",
        "zipcode": "26545-500"
    },
    {
        "city": "Nilópolis",
        "state": "RJ",
        "district": "Paiol de Pólvora",
        "street": "Travessa Atatiba",
        "zipcode": "26545-601"
    },
    {
        "city": "Nilópolis",
        "state": "RJ",
        "district": "Paiol de Pólvora",
        "street": "Rua Leonor Roque",
        "zipcode": "26545-715"
    },
    {
        "city": "Nilópolis",
        "state": "RJ",
        "district": "Olinda",
        "street": "Rua Capitão Deodoro de Alvarenga Ribeiro",
        "zipcode": "26510-230"
    },
    {
        "city": "Nilópolis",
        "state": "RJ",
        "district": "Centro",
        "street": "Rua Gigliotte de Barros",
        "zipcode": "26510-640"
    },
    {
        "city": "Nilópolis",
        "state": "RJ",
        "district": "Olinda",
        "street": "Rua João Pessoa",
        "zipcode": "26510-118"
    },
    {
        "city": "Nilópolis",
        "state": "RJ",
        "district": "Nossa Senhora de Fátima",
        "street": "Rua Juventino Joaquim de Souza",
        "zipcode": "26510-480"
    },
    {
        "city": "Nilópolis",
        "state": "RJ",
        "district": "Cabral",
        "street": "Rua Manuel Bruno",
        "zipcode": "26510-510"
    },
    {
        "city": "Nilópolis",
        "state": "RJ",
        "district": "Centro",
        "street": "Rua Parteira Dona Pequitita",
        "zipcode": "26510-300"
    },
    {
        "city": "Nilópolis",
        "state": "RJ",
        "district": "Cabral",
        "street": "Rua Manuel do Amaral",
        "zipcode": "26515-200"
    },
    {
        "city": "Nilópolis",
        "state": "RJ",
        "district": "Olinda",
        "street": "Travessa Dona Maria",
        "zipcode": "26510-104"
    },
    {
        "city": "Nilópolis",
        "state": "RJ",
        "district": "Cabral",
        "street": "Travessa Ana Marta",
        "zipcode": "26510-750"
    },
    {
        "city": "Nilópolis",
        "state": "RJ",
        "district": "Centro",
        "street": "Travessa Santa Clara",
        "zipcode": "26510-603"
    },
    {
        "city": "Nilópolis",
        "state": "RJ",
        "district": "Cabral",
        "street": "Rua Roldão Gonçalves",
        "zipcode": "26515-048"
    },
    {
        "city": "Nilópolis",
        "state": "RJ",
        "district": "Cabuis",
        "street": "Rua Fernando Gonçalves de Almeida",
        "zipcode": "26540-290"
    },
    {
        "city": "Nilópolis",
        "state": "RJ",
        "district": "Nova Cidade",
        "street": "Travessa Júlio de Miranda",
        "zipcode": "26535-466"
    },
    {
        "city": "Nilópolis",
        "state": "RJ",
        "district": "Olinda",
        "street": "Rua Julia Vieira Sardinha",
        "zipcode": "26545-310"
    },
    {
        "city": "Nilópolis",
        "state": "RJ",
        "district": "Paiol de Pólvora",
        "street": "Travessa Dona Romana",
        "zipcode": "26545-450"
    },
    {
        "city": "Nilópolis",
        "state": "RJ",
        "district": "Centro",
        "street": "Rua Olga Hermont",
        "zipcode": "26540-150"
    },
    {
        "city": "Nilópolis",
        "state": "RJ",
        "district": "Cabuis",
        "street": "Rua Nilceia",
        "zipcode": "26540-180"
    },
    {
        "city": "Nilópolis",
        "state": "RJ",
        "district": "Centro",
        "street": "Rua Ivan Augusto Matheus",
        "zipcode": "26540-160"
    },
    {
        "city": "Nilópolis",
        "state": "RJ",
        "district": "Centro",
        "street": "Rua Senador Fernando Mendes",
        "zipcode": "26540-080"
    },
    {
        "city": "Nilópolis",
        "state": "RJ",
        "district": "Centro",
        "street": "Rua Professora Laide de Sousa Belém",
        "zipcode": "26540-110"
    },
    {
        "city": "Nilópolis",
        "state": "RJ",
        "district": "Cabuis",
        "street": "Travessa Dulce",
        "zipcode": "26540-184"
    },
    {
        "city": "Nilópolis",
        "state": "RJ",
        "district": "Centro",
        "street": "Rua Moraes Cardoso",
        "zipcode": "26540-100"
    },
    {
        "city": "Nilópolis",
        "state": "RJ",
        "district": "Cabuis",
        "street": "Rua Poeta Manuel Bandeira",
        "zipcode": "26540-260"
    },
    {
        "city": "Nilópolis",
        "state": "RJ",
        "district": "Cabuis",
        "street": "Rua Roberto Albuquerque Carneiro",
        "zipcode": "26540-326"
    },
    {
        "city": "Nilópolis",
        "state": "RJ",
        "district": "Cabuis",
        "street": "Rua João de Castro",
        "zipcode": "26540-390"
    },
    {
        "city": "Nilópolis",
        "state": "RJ",
        "district": "Cabuis",
        "street": "Rua Dolores Lourenço Félix",
        "zipcode": "26540-240"
    },
    {
        "city": "Nilópolis",
        "state": "RJ",
        "district": "Olinda",
        "street": "Rua Carlos de Sousa Fernandes",
        "zipcode": "26545-000"
    },
    {
        "city": "Nilópolis",
        "state": "RJ",
        "district": "Olinda",
        "street": "Rua José Couto Guimarães",
        "zipcode": "26545-011"
    },
    {
        "city": "Nilópolis",
        "state": "RJ",
        "district": "Paiol de Pólvora",
        "street": "Rua José Couto Guimarães",
        "zipcode": "26545-014"
    },
    {
        "city": "Nilópolis",
        "state": "RJ",
        "district": "Paiol de Pólvora",
        "street": "Rua José Couto Guimarães",
        "zipcode": "26545-013"
    },
    {
        "city": "Nilópolis",
        "state": "RJ",
        "district": "Olinda",
        "street": "Rua Nossa Senhora de Fátima",
        "zipcode": "26545-080"
    },
    {
        "city": "Nilópolis",
        "state": "RJ",
        "district": "Paiol de Pólvora",
        "street": "Travessa José Cunha",
        "zipcode": "26545-530"
    },
    {
        "city": "Nilópolis",
        "state": "RJ",
        "district": "Paiol de Pólvora",
        "street": "Rua Licandia Botelho",
        "zipcode": "26545-540"
    },
    {
        "city": "Nilópolis",
        "state": "RJ",
        "district": "Paiol de Pólvora",
        "street": "Travessa Dois",
        "zipcode": "26545-747"
    },
    {
        "city": "Nilópolis",
        "state": "RJ",
        "district": "Cabuis",
        "street": "Travessa Jayme",
        "zipcode": "26545-443"
    },
    {
        "city": "Nilópolis",
        "state": "RJ",
        "district": "Paiol de Pólvora",
        "street": "Travessa Amélia",
        "zipcode": "26545-324"
    },
    {
        "city": "Nilópolis",
        "state": "RJ",
        "district": "Paiol de Pólvora",
        "street": "Rua Particular",
        "zipcode": "26545-350"
    },
    {
        "city": "Nilópolis",
        "state": "RJ",
        "district": "Olinda",
        "street": "Rua Jacson Natalino Sarmento",
        "zipcode": "26545-370"
    },
    {
        "city": "Nilópolis",
        "state": "RJ",
        "district": "Centro",
        "street": "Travessa Grinaldina Moreira",
        "zipcode": "26525-560"
    },
    {
        "city": "Nilópolis",
        "state": "RJ",
        "district": "Cabral",
        "street": "Rua Antônio Guerra de Carvalho",
        "zipcode": "26510-410"
    },
    {
        "city": "Nilópolis",
        "state": "RJ",
        "district": "Olinda",
        "street": "Rua Joaquim Máximo Soares",
        "zipcode": "26510-194"
    },
    {
        "city": "Nilópolis",
        "state": "RJ",
        "district": "Cabral",
        "street": "Rua Francisco Alves Pimenta",
        "zipcode": "26515-450"
    },
    {
        "city": "Nilópolis",
        "state": "RJ",
        "district": "Centro",
        "street": "Beco Júlio Fontoura Myssen",
        "zipcode": "26520-060"
    },
    {
        "city": "Nilópolis",
        "state": "RJ",
        "district": "Nossa Senhora de Fátima",
        "street": "Rua Ana Rosa",
        "zipcode": "26520-120"
    },
    {
        "city": "Nilópolis",
        "state": "RJ",
        "district": "Centro",
        "street": "Rua Benedito de Oliveira",
        "zipcode": "26520-170"
    },
    {
        "city": "Nilópolis",
        "state": "RJ",
        "district": "Cabral",
        "street": "Rua Maria Gonçalves Prazeres Jardim",
        "zipcode": "26510-106"
    },
    {
        "city": "Nilópolis",
        "state": "RJ",
        "district": "Cabral",
        "street": "Rua Otacília Dias Pereira",
        "zipcode": "26515-230"
    },
    {
        "city": "Nilópolis",
        "state": "RJ",
        "district": "Centro",
        "street": "Rua Diamantina",
        "zipcode": "26520-450"
    },
    {
        "city": "Nilópolis",
        "state": "RJ",
        "district": "Centro",
        "street": "Rua João Pessoa",
        "zipcode": "26525-251"
    },
    {
        "city": "Nilópolis",
        "state": "RJ",
        "district": "Nossa Senhora de Fátima",
        "street": "Rua José Brás de Souza",
        "zipcode": "26521-170"
    },
    {
        "city": "Nilópolis",
        "state": "RJ",
        "district": "Cabral",
        "street": "Travessa Francisco Pereira de Carvalho",
        "zipcode": "26515-363"
    },
    {
        "city": "Nilópolis",
        "state": "RJ",
        "district": "Nossa Senhora de Fátima",
        "street": "Rua Sousa Brito",
        "zipcode": "26520-570"
    },
    {
        "city": "Nilópolis",
        "state": "RJ",
        "district": "Centro",
        "street": "Rua Pedro Álvares Cabral",
        "zipcode": "26525-052"
    },
    {
        "city": "Nilópolis",
        "state": "RJ",
        "district": "Nossa Senhora de Fátima",
        "street": "Rua Marechal Artur da Costa e Silva",
        "zipcode": "26525-460"
    },
    {
        "city": "Nilópolis",
        "state": "RJ",
        "district": "Cabral",
        "street": "Travessa Izaltina M Moura",
        "zipcode": "26515-047"
    },
    {
        "city": "Nilópolis",
        "state": "RJ",
        "district": "Centro",
        "street": "Travessa Maria Angélica Novaes",
        "zipcode": "26520-210"
    },
    {
        "city": "Nilópolis",
        "state": "RJ",
        "district": "Centro",
        "street": "Travessa Tamoios",
        "zipcode": "26520-255"
    },
    {
        "city": "Nilópolis",
        "state": "RJ",
        "district": "Centro",
        "street": "Travessa Vinte e Um de Abril",
        "zipcode": "26520-270"
    },
    {
        "city": "Nilópolis",
        "state": "RJ",
        "district": "Olinda",
        "street": "Rua João Pessoa",
        "zipcode": "26510-116"
    },
    {
        "city": "Nilópolis",
        "state": "RJ",
        "district": "Centro",
        "street": "Rua João Pessoa",
        "zipcode": "26520-020"
    },
    {
        "city": "Nilópolis",
        "state": "RJ",
        "district": "Centro",
        "street": "Rua Alcebíades Paulo Ribeiro",
        "zipcode": "26520-380"
    },
    {
        "city": "Nilópolis",
        "state": "RJ",
        "district": "Centro",
        "street": "Travessa Maria Rosa da Conceição",
        "zipcode": "26520-383"
    },
    {
        "city": "Nilópolis",
        "state": "RJ",
        "district": "Centro",
        "street": "Travessa Vila União",
        "zipcode": "26540-076"
    },
    {
        "city": "Nilópolis",
        "state": "RJ",
        "district": "Olinda",
        "street": "Travessa Belarmino",
        "zipcode": "26545-175"
    },
    {
        "city": "Nilópolis",
        "state": "RJ",
        "district": "Cabuis",
        "street": "Travessa José Sarmento",
        "zipcode": "26540-135"
    },
    {
        "city": "Nilópolis",
        "state": "RJ",
        "district": "Cabuis",
        "street": "Vila Criança",
        "zipcode": "26540-245"
    },
    {
        "city": "Nilópolis",
        "state": "RJ",
        "district": "Cabuis",
        "street": "Travessa Manoel Bidóia",
        "zipcode": "26540-480"
    },
    {
        "city": "Nilópolis",
        "state": "RJ",
        "district": "Cabuis",
        "street": "Travessa Jordelino Prado",
        "zipcode": "26540-558"
    },
    {
        "city": "Nilópolis",
        "state": "RJ",
        "district": "Olinda",
        "street": "Travessa Um",
        "zipcode": "26545-007"
    },
    {
        "city": "Nilópolis",
        "state": "RJ",
        "district": "Cabuis",
        "street": "Travessa Maria Silva Santiago",
        "zipcode": "26540-467"
    },
    {
        "city": "Nilópolis",
        "state": "RJ",
        "district": "Olinda",
        "street": "Travessa São Sebastião",
        "zipcode": "26545-082"
    },
    {
        "city": "Nilópolis",
        "state": "RJ",
        "district": "Cabuis",
        "street": "Rua Mauro de Almeida Flores",
        "zipcode": "26545-089"
    },
    {
        "city": "Nilópolis",
        "state": "RJ",
        "district": "Cabuis",
        "street": "Rua Nilton de Alvarenga",
        "zipcode": "26545-110"
    },
    {
        "city": "Nilópolis",
        "state": "RJ",
        "district": "Olinda",
        "street": "Rua Vereador Francisco Nunes",
        "zipcode": "26545-040"
    },
    {
        "city": "Nilópolis",
        "state": "RJ",
        "district": "Centro",
        "street": "Travessa José Albuquerque",
        "zipcode": "26545-085"
    },
    {
        "city": "Nilópolis",
        "state": "RJ",
        "district": "Cabral",
        "street": "Rua São Jerônimo",
        "zipcode": "26510-500"
    },
    {
        "city": "Nilópolis",
        "state": "RJ",
        "district": "Nossa Senhora de Fátima",
        "street": "Rua Associação Lar Próprio",
        "zipcode": "26521-030"
    },
    {
        "city": "Nilópolis",
        "state": "RJ",
        "district": "Centro",
        "street": "Rua Antônio João Mendonça",
        "zipcode": "26510-609"
    },
    {
        "city": "Nilópolis",
        "state": "RJ",
        "district": "Centro",
        "street": "Rua Antônio João Mendonça",
        "zipcode": "26510-618"
    },
    {
        "city": "Nilópolis",
        "state": "RJ",
        "district": "Cabral",
        "street": "Rua Coronel França Leite",
        "zipcode": "26515-020"
    },
    {
        "city": "Nilópolis",
        "state": "RJ",
        "district": "Nossa Senhora de Fátima",
        "street": "Rua Antônio José Novaes",
        "zipcode": "26520-703"
    },
    {
        "city": "Nilópolis",
        "state": "RJ",
        "district": "Nossa Senhora de Fátima",
        "street": "Beco Francisco Alves",
        "zipcode": "26521-080"
    },
    {
        "city": "Nilópolis",
        "state": "RJ",
        "district": "Centro",
        "street": "Rua Antônio Juliano",
        "zipcode": "26525-800"
    },
    {
        "city": "Nilópolis",
        "state": "RJ",
        "district": "Cabral",
        "street": "Rua José Luís do Espírito Santo",
        "zipcode": "26515-037"
    },
    {
        "city": "Nilópolis",
        "state": "RJ",
        "district": "Centro",
        "street": "Rua Pedro Álvares Cabral",
        "zipcode": "26520-534"
    },
    {
        "city": "Nilópolis",
        "state": "RJ",
        "district": "Nossa Senhora de Fátima",
        "street": "Rua Pedro Nunes de Lima",
        "zipcode": "26520-815"
    },
    {
        "city": "Nilópolis",
        "state": "RJ",
        "district": "Centro",
        "street": "Rua Gumercindo José Carneiro",
        "zipcode": "26521-127"
    },
    {
        "city": "Nilópolis",
        "state": "RJ",
        "district": "Centro",
        "street": "Rua Guilherme Augusto Anciaes",
        "zipcode": "26525-200"
    },
    {
        "city": "Nilópolis",
        "state": "RJ",
        "district": "Cabral",
        "street": "Rua Nody Barreto",
        "zipcode": "26515-220"
    },
    {
        "city": "Nilópolis",
        "state": "RJ",
        "district": "Centro",
        "street": "Rua João Paulo de Oliveira",
        "zipcode": "26520-680"
    },
    {
        "city": "Nilópolis",
        "state": "RJ",
        "district": "Centro",
        "street": "Rua Maria Tomasia",
        "zipcode": "26520-760"
    },
    {
        "city": "Nilópolis",
        "state": "RJ",
        "district": "Centro",
        "street": "Rua Emília da Nave Pinto",
        "zipcode": "26525-410"
    },
    {
        "city": "Nilópolis",
        "state": "RJ",
        "district": "Centro",
        "street": "Rua Ernesto Cardoso",
        "zipcode": "26525-424"
    },
    {
        "city": "Nilópolis",
        "state": "RJ",
        "district": "Cabral",
        "street": "Rua São Sebastião",
        "zipcode": "26510-520"
    },
    {
        "city": "Nilópolis",
        "state": "RJ",
        "district": "Centro",
        "street": "Travessa Danilo Duarte",
        "zipcode": "26510-720"
    },
    {
        "city": "Nilópolis",
        "state": "RJ",
        "district": "Centro",
        "street": "Travessa Alentejano",
        "zipcode": "26510-770"
    },
    {
        "city": "Nilópolis",
        "state": "RJ",
        "district": "Nossa Senhora de Fátima",
        "street": "Travessa Antônio Rosendo",
        "zipcode": "26520-708"
    },
    {
        "city": "Nilópolis",
        "state": "RJ",
        "district": "Centro",
        "street": "Rua Pracinha Wallace Paes Leme",
        "zipcode": "26525-034"
    },
    {
        "city": "Nilópolis",
        "state": "RJ",
        "district": "Centro",
        "street": "Rua Mário de Araújo",
        "zipcode": "26525-131"
    },
    {
        "city": "Nilópolis",
        "state": "RJ",
        "district": "Olinda",
        "street": "Travessa Engenheiro Rangel",
        "zipcode": "26510-250"
    },
    {
        "city": "Nilópolis",
        "state": "RJ",
        "district": "Nossa Senhora de Fátima",
        "street": "Rua Sousa Porto",
        "zipcode": "26520-580"
    },
    {
        "city": "Nilópolis",
        "state": "RJ",
        "district": "Nossa Senhora de Fátima",
        "street": "Rua Maria de Lourdes do Amaral",
        "zipcode": "26521-590"
    },
    {
        "city": "Nilópolis",
        "state": "RJ",
        "district": "Centro",
        "street": "Rua Professor Alfredo Gonçalves Figueira",
        "zipcode": "26525-060"
    },
    {
        "city": "Nilópolis",
        "state": "RJ",
        "district": "Cabral",
        "street": "Rua Teresa Dias Barbosa",
        "zipcode": "26515-270"
    },
    {
        "city": "Nilópolis",
        "state": "RJ",
        "district": "Cabral",
        "street": "Travessa Walmir de Oliveira",
        "zipcode": "26515-280"
    },
    {
        "city": "Nilópolis",
        "state": "RJ",
        "district": "Centro",
        "street": "Travessa Waldemar da Silva Chaves",
        "zipcode": "26520-296"
    },
    {
        "city": "Nilópolis",
        "state": "RJ",
        "district": "Nossa Senhora de Fátima",
        "street": "Travessa Iara Vieira",
        "zipcode": "26521-123"
    },
    {
        "city": "Nilópolis",
        "state": "RJ",
        "district": "Nossa Senhora de Fátima",
        "street": "Rua São Salvador",
        "zipcode": "26521-510"
    },
    {
        "city": "Nilópolis",
        "state": "RJ",
        "district": "Centro",
        "street": "Travessa Orozimbo Fernandes Prado",
        "zipcode": "26520-334"
    },
    {
        "city": "Nilópolis",
        "state": "RJ",
        "district": "Centro",
        "street": "Travessa Eugênio Lucas",
        "zipcode": "26525-372"
    },
    {
        "city": "Nilópolis",
        "state": "RJ",
        "district": "Centro",
        "street": "Travessa Joaquim Ferreira",
        "zipcode": "26525-533"
    },
    {
        "city": "Nilópolis",
        "state": "RJ",
        "district": "Centro",
        "street": "Travessa Vanda Borges Xavier",
        "zipcode": "26540-156"
    },
    {
        "city": "Nilópolis",
        "state": "RJ",
        "district": "Paiol de Pólvora",
        "street": "Rua Jovelino Gomes de Carvalho",
        "zipcode": "26545-005"
    },
    {
        "city": "Nilópolis",
        "state": "RJ",
        "district": "Centro",
        "street": "Travessa Antoniel Alves de Moura",
        "zipcode": "26540-105"
    },
    {
        "city": "Nilópolis",
        "state": "RJ",
        "district": "Paiol de Pólvora",
        "street": "Rua Joci de Souza",
        "zipcode": "26545-015"
    },
    {
        "city": "Nilópolis",
        "state": "RJ",
        "district": "Nova Cidade",
        "street": "Travessa Durval Albuquerque",
        "zipcode": "26535-200"
    },
    {
        "city": "Nilópolis",
        "state": "RJ",
        "district": "Nova Cidade",
        "street": "Rua Quintino Bocaiúva",
        "zipcode": "26535-130"
    },
    {
        "city": "Nilópolis",
        "state": "RJ",
        "district": "Nova Cidade",
        "street": "Rua Manuel Rodrigues Fontinha",
        "zipcode": "26535-270"
    },
    {
        "city": "Nilópolis",
        "state": "RJ",
        "district": "Centro",
        "street": "Rua Áurea Rosa de Araújo",
        "zipcode": "26535-610"
    },
    {
        "city": "Nilópolis",
        "state": "RJ",
        "district": "Nova Cidade",
        "street": "Rua Batista Fortes",
        "zipcode": "26535-358"
    },
    {
        "city": "Nilópolis",
        "state": "RJ",
        "district": "Nova Cidade",
        "street": "Travessa Moreira",
        "zipcode": "26535-462"
    },
    {
        "city": "Nilópolis",
        "state": "RJ",
        "district": "Centro",
        "street": "Rua Pedro Barbosa Gomes",
        "zipcode": "26535-570"
    },
    {
        "city": "Nilópolis",
        "state": "RJ",
        "district": "Centro",
        "street": "Travessa Manoel dos Santos Marques",
        "zipcode": "26535-435"
    },
    {
        "city": "Nilópolis",
        "state": "RJ",
        "district": "Cabuis",
        "street": "Rua Maestro Djalma do Carmo",
        "zipcode": "26540-125"
    },
    {
        "city": "Nilópolis",
        "state": "RJ",
        "district": "Cabuis",
        "street": "Rua Dulce",
        "zipcode": "26540-211"
    },
    {
        "city": "Nilópolis",
        "state": "RJ",
        "district": "Cabuis",
        "street": "Travessa João Luciano Antunes",
        "zipcode": "26540-170"
    },
    {
        "city": "Nilópolis",
        "state": "RJ",
        "district": "Cabuis",
        "street": "Rua Regina Sessim",
        "zipcode": "26540-420"
    },
    {
        "city": "Nilópolis",
        "state": "RJ",
        "district": "Olinda",
        "street": "Rua Carlos de Sousa Fernandes",
        "zipcode": "26545-001"
    },
    {
        "city": "Nilópolis",
        "state": "RJ",
        "district": "Cabuis",
        "street": "Rua Dulce",
        "zipcode": "26545-181"
    },
    {
        "city": "Nilópolis",
        "state": "RJ",
        "district": "Olinda",
        "street": "Rua Coronel José Muniz",
        "zipcode": "26545-060"
    },
    {
        "city": "Nilópolis",
        "state": "RJ",
        "district": "Paiol de Pólvora",
        "street": "Rua Humberto Perlingeiro",
        "zipcode": "26545-480"
    },
    {
        "city": "Nilópolis",
        "state": "RJ",
        "district": "Paiol de Pólvora",
        "street": "Rua Manuel Pinto Ribeiro",
        "zipcode": "26545-560"
    },
    {
        "city": "Nilópolis",
        "state": "RJ",
        "district": "Centro",
        "street": "Rua Jorge Alves de Souza",
        "zipcode": "26525-440"
    },
    {
        "city": "Nilópolis",
        "state": "RJ",
        "district": "Centro",
        "street": "Rua Tancredo Lópes",
        "zipcode": "26526-050"
    },
    {
        "city": "Nilópolis",
        "state": "RJ",
        "district": "Centro",
        "street": "Rua Doutor Sílvio",
        "zipcode": "26530-040"
    },
    {
        "city": "Nilópolis",
        "state": "RJ",
        "district": "Cabral",
        "street": "Rua Joaquim Máximo Soares",
        "zipcode": "26515-367"
    },
    {
        "city": "Nilópolis",
        "state": "RJ",
        "district": "Centro",
        "street": "Rua Ademar Melchíades de Souza",
        "zipcode": "26520-110"
    },
    {
        "city": "Nilópolis",
        "state": "RJ",
        "district": "Centro",
        "street": "Rua Antônio Pereira Sobrinho",
        "zipcode": "26520-333"
    },
    {
        "city": "Nilópolis",
        "state": "RJ",
        "district": "Centro",
        "street": "Beco Antônio Pereira Sobrinho",
        "zipcode": "26520-370"
    },
    {
        "city": "Nilópolis",
        "state": "RJ",
        "district": "Nossa Senhora de Fátima",
        "street": "Rua Adriano Rodrigues Oliveira",
        "zipcode": "26520-840"
    },
    {
        "city": "Nilópolis",
        "state": "RJ",
        "district": "Centro",
        "street": "Avenida Getúlio Vargas",
        "zipcode": "26525-011"
    },
    {
        "city": "Nilópolis",
        "state": "RJ",
        "district": "Centro",
        "street": "Avenida Getúlio Vargas",
        "zipcode": "26525-012"
    },
    {
        "city": "Nilópolis",
        "state": "RJ",
        "district": "Centro",
        "street": "Rua Anésio Jacinto de Sousa",
        "zipcode": "26525-260"
    },
    {
        "city": "Nilópolis",
        "state": "RJ",
        "district": "Cabral",
        "street": "Rua José Antônio Batista",
        "zipcode": "26510-470"
    },
    {
        "city": "Nilópolis",
        "state": "RJ",
        "district": "Cabral",
        "street": "Rua Odilon Gomes da Silva",
        "zipcode": "26510-530"
    },
    {
        "city": "Nilópolis",
        "state": "RJ",
        "district": "Centro",
        "street": "Rua Comandante Joaquim Cardoso",
        "zipcode": "26520-430"
    },
    {
        "city": "Nilópolis",
        "state": "RJ",
        "district": "Centro",
        "street": "Rua Benice Gonçalves de Melo",
        "zipcode": "26525-150"
    },
    {
        "city": "Nilópolis",
        "state": "RJ",
        "district": "Olinda",
        "street": "Rua Pracinha Wallace Paes Leme",
        "zipcode": "26510-041"
    },
    {
        "city": "Nilópolis",
        "state": "RJ",
        "district": "Centro",
        "street": "Rua Jornalista Hungria",
        "zipcode": "26520-310"
    },
    {
        "city": "Nilópolis",
        "state": "RJ",
        "district": "Centro",
        "street": "Rua José de Oliveira",
        "zipcode": "26520-690"
    },
    {
        "city": "Nilópolis",
        "state": "RJ",
        "district": "Centro",
        "street": "Rua Joaquim Ferreira",
        "zipcode": "26525-680"
    },
    {
        "city": "Nilópolis",
        "state": "RJ",
        "district": "Centro",
        "street": "Travessa Eliseu Ferreira dos Santos",
        "zipcode": "26520-470"
    },
    {
        "city": "Nilópolis",
        "state": "RJ",
        "district": "Nossa Senhora de Fátima",
        "street": "Rua José Fernandes de Oliveira",
        "zipcode": "26521-640"
    },
    {
        "city": "Nilópolis",
        "state": "RJ",
        "district": "Centro",
        "street": "Travessa Sebastião dos Santos Moraes",
        "zipcode": "26520-558"
    },
    {
        "city": "Nilópolis",
        "state": "RJ",
        "district": "Nossa Senhora de Fátima",
        "street": "Travessa Agostinho Esmarque",
        "zipcode": "26521-570"
    },
    {
        "city": "Nilópolis",
        "state": "RJ",
        "district": "Centro",
        "street": "Travessa Pedro Lima",
        "zipcode": "26520-220"
    },
    {
        "city": "Nilópolis",
        "state": "RJ",
        "district": "Centro",
        "street": "Travessa João Batista",
        "zipcode": "26525-826"
    },
    {
        "city": "Nilópolis",
        "state": "RJ",
        "district": "Centro",
        "street": "Travessa Simplício Andrade",
        "zipcode": "26525-842"
    },
    {
        "city": "Nilópolis",
        "state": "RJ",
        "district": "Nova Cidade",
        "street": "Rua Carlos Benedetti",
        "zipcode": "26535-020"
    },
    {
        "city": "Nilópolis",
        "state": "RJ",
        "district": "Olinda",
        "street": "Rua Maria Jardim",
        "zipcode": "26510-070"
    },
    {
        "city": "Nilópolis",
        "state": "RJ",
        "district": "Olinda",
        "street": "Rua Maria dos Anjos",
        "zipcode": "26510-310"
    },
    {
        "city": "Nilópolis",
        "state": "RJ",
        "district": "Centro",
        "street": "Rua Serafim Soares Lobo",
        "zipcode": "26520-550"
    },
    {
        "city": "Nilópolis",
        "state": "RJ",
        "district": "Nossa Senhora de Fátima",
        "street": "Rua Maria de Lourdes",
        "zipcode": "26520-740"
    },
    {
        "city": "Nilópolis",
        "state": "RJ",
        "district": "Nova Cidade",
        "street": "Rua Gonçalves Dias",
        "zipcode": "26530-180"
    },
    {
        "city": "Nilópolis",
        "state": "RJ",
        "district": "Centro",
        "street": "Rua Benedita Rebelo Leite",
        "zipcode": "26535-180"
    },
    {
        "city": "Nilópolis",
        "state": "RJ",
        "district": "Nova Cidade",
        "street": "Rua Mamede Antônio Gomes",
        "zipcode": "26535-260"
    },
    {
        "city": "Nilópolis",
        "state": "RJ",
        "district": "Centro",
        "street": "Rua Maria Inês Queiros Lópes",
        "zipcode": "26535-300"
    },
    {
        "city": "Nilópolis",
        "state": "RJ",
        "district": "Nova Cidade",
        "street": "Rua Ricardo Sampaio",
        "zipcode": "26535-310"
    },
    {
        "city": "Nilópolis",
        "state": "RJ",
        "district": "Centro",
        "street": "Travessa Francisco Macieira",
        "zipcode": "26535-353"
    },
    {
        "city": "Nilópolis",
        "state": "RJ",
        "district": "Nova Cidade",
        "street": "Rua Manoel dos Santos Marques",
        "zipcode": "26535-560"
    },
    {
        "city": "Nilópolis",
        "state": "RJ",
        "district": "Centro",
        "street": "Travessa Maria Tereza Benedeti Pereira",
        "zipcode": "26540-013"
    },
    {
        "city": "Nilópolis",
        "state": "RJ",
        "district": "Olinda",
        "street": "Travessa Alta Francisca de Paula",
        "zipcode": "26510-051"
    },
    {
        "city": "Nilópolis",
        "state": "RJ",
        "district": "Centro",
        "street": "Travessa Leticia Barros",
        "zipcode": "26540-115"
    },
    {
        "city": "Nilópolis",
        "state": "RJ",
        "district": "Centro",
        "street": "Rua Maestro Djalma do Carmo",
        "zipcode": "26540-120"
    },
    {
        "city": "Nilópolis",
        "state": "RJ",
        "district": "Cabuis",
        "street": "Rua Sônia",
        "zipcode": "26540-190"
    },
    {
        "city": "Nilópolis",
        "state": "RJ",
        "district": "Cabuis",
        "street": "Rua Tenente Eduardo Braga",
        "zipcode": "26540-270"
    },
    {
        "city": "Nilópolis",
        "state": "RJ",
        "district": "Cabuis",
        "street": "Rua Otávio Silva Gomes",
        "zipcode": "26540-410"
    },
    {
        "city": "Nilópolis",
        "state": "RJ",
        "district": "Paiol de Pólvora",
        "street": "Travessa Jovelino Gomes de Carvalho",
        "zipcode": "26545-008"
    },
    {
        "city": "Nilópolis",
        "state": "RJ",
        "district": "Olinda",
        "street": "Rua José Couto Guimarães",
        "zipcode": "26545-010"
    },
    {
        "city": "Nilópolis",
        "state": "RJ",
        "district": "Cabuis",
        "street": "Travessa Marcílio Dias",
        "zipcode": "26540-468"
    },
    {
        "city": "Nilópolis",
        "state": "RJ",
        "district": "Olinda",
        "street": "Travessa São João",
        "zipcode": "26545-090"
    },
    {
        "city": "Nilópolis",
        "state": "RJ",
        "district": "Olinda",
        "street": "Rua Nilton de Alvarenga Ribeiro",
        "zipcode": "26545-100"
    },
    {
        "city": "Nilópolis",
        "state": "RJ",
        "district": "Paiol de Pólvora",
        "street": "Beco Antônio Gomes Leal",
        "zipcode": "26545-155"
    },
    {
        "city": "Nilópolis",
        "state": "RJ",
        "district": "Olinda",
        "street": "Travessa Alberto José dos Santos",
        "zipcode": "26545-246"
    },
    {
        "city": "Nilópolis",
        "state": "RJ",
        "district": "Paiol de Pólvora",
        "street": "Rua Canadense",
        "zipcode": "26545-420"
    },
    {
        "city": "Nilópolis",
        "state": "RJ",
        "district": "Paiol de Pólvora",
        "street": "Travessa Geraldo Conceição",
        "zipcode": "26545-457"
    },
    {
        "city": "Nilópolis",
        "state": "RJ",
        "district": "Cabuis",
        "street": "Rua Marcelina Cardoso",
        "zipcode": "26545-680"
    },
    {
        "city": "Nilópolis",
        "state": "RJ",
        "district": "Olinda",
        "street": "Travessa Cândida",
        "zipcode": "26545-330"
    },
    {
        "city": "Nilópolis",
        "state": "RJ",
        "district": "Paiol de Pólvora",
        "street": "Travessa Leonor Roque",
        "zipcode": "26545-710"
    },
    {
        "city": "Nilópolis",
        "state": "RJ",
        "district": "Centro",
        "street": "Travessa da Amizade",
        "zipcode": "26525-753"
    },
    {
        "city": "Nilópolis",
        "state": "RJ",
        "district": "Centro",
        "street": "Rua Teresópolis",
        "zipcode": "26525-760"
    },
    {
        "city": "Nilópolis",
        "state": "RJ",
        "district": "Centro",
        "street": "Rua Três Poderes",
        "zipcode": "26525-770"
    },
    {
        "city": "Nilópolis",
        "state": "RJ",
        "district": "Centro",
        "street": "Rua São Luís",
        "zipcode": "26526-030"
    },
    {
        "city": "Nilópolis",
        "state": "RJ",
        "district": "Centro",
        "street": "Rua Corina Miguez",
        "zipcode": "26530-030"
    },
    {
        "city": "Nilópolis",
        "state": "RJ",
        "district": "Nova Cidade",
        "street": "Rua Hermínio Sarah Lópes",
        "zipcode": "26510-059"
    },
    {
        "city": "Nilópolis",
        "state": "RJ",
        "district": "Centro",
        "street": "Rua Belo Horizonte",
        "zipcode": "26525-380"
    },
    {
        "city": "Nilópolis",
        "state": "RJ",
        "district": "Centro",
        "street": "Praça Paulo de Frontin",
        "zipcode": "26530-110"
    },
    {
        "city": "Nilópolis",
        "state": "RJ",
        "district": "Centro",
        "street": "Rua Aníbal Santos",
        "zipcode": "26521-200"
    },
    {
        "city": "Nilópolis",
        "state": "RJ",
        "district": "Nossa Senhora de Fátima",
        "street": "Rua João José de Oliveira",
        "zipcode": "26521-550"
    },
    {
        "city": "Nilópolis",
        "state": "RJ",
        "district": "Cabral",
        "street": "Travessa Alfredo José da Cruz",
        "zipcode": "26510-055"
    },
    {
        "city": "Nilópolis",
        "state": "RJ",
        "district": "Olinda",
        "street": "Travessa Ezequiel Pereira de Souza",
        "zipcode": "26510-053"
    },
    {
        "city": "Nilópolis",
        "state": "RJ",
        "district": "Centro",
        "street": "Rua Sebastião de Oliveira Castro",
        "zipcode": "26510-084"
    },
    {
        "city": "Nilópolis",
        "state": "RJ",
        "district": "Centro",
        "street": "Travessa Campista",
        "zipcode": "26521-125"
    },
    {
        "city": "Nilópolis",
        "state": "RJ",
        "district": "Centro",
        "street": "Rua Luís Alves Pinheiro",
        "zipcode": "26525-290"
    },
    {
        "city": "Nilópolis",
        "state": "RJ",
        "district": "Centro",
        "street": "Rua Professor Arlindo Leoni",
        "zipcode": "26526-010"
    },
    {
        "city": "Nilópolis",
        "state": "RJ",
        "district": "Centro",
        "street": "Vila Luiz Antônio Correia Filho",
        "zipcode": "26525-114"
    },
    {
        "city": "Nilópolis",
        "state": "RJ",
        "district": "Nossa Senhora de Fátima",
        "street": "Travessa Teresinha",
        "zipcode": "26521-290"
    },
    {
        "city": "Nilópolis",
        "state": "RJ",
        "district": "Centro",
        "street": "Rua Vicente Celestino",
        "zipcode": "26525-530"
    },
    {
        "city": "Nilópolis",
        "state": "RJ",
        "district": "Olinda",
        "street": "Travessa Desembargador Ribeiro da Costa",
        "zipcode": "26510-052"
    },
    {
        "city": "Nilópolis",
        "state": "RJ",
        "district": "Cabral",
        "street": "Rua Otilio de Oliveira Carvalho",
        "zipcode": "26510-196"
    },
    {
        "city": "Nilópolis",
        "state": "RJ",
        "district": "Olinda",
        "street": "Travessa José Florentino de Oliveira",
        "zipcode": "26510-367"
    },
    {
        "city": "Nilópolis",
        "state": "RJ",
        "district": "Centro",
        "street": "Rua Porciúncula",
        "zipcode": "26525-480"
    },
    {
        "city": "Nilópolis",
        "state": "RJ",
        "district": "Nova Cidade",
        "street": "Rua Nilberto Lópes Ferraz",
        "zipcode": "26535-120"
    },
    {
        "city": "Nilópolis",
        "state": "RJ",
        "district": "Paiol de Pólvora",
        "street": "Beco Carlos Henrique",
        "zipcode": "26545-232"
    },
    {
        "city": "Nilópolis",
        "state": "RJ",
        "district": "Olinda",
        "street": "Rua Silvino Luís de Oliveira",
        "zipcode": "26545-290"
    },
    {
        "city": "Nilópolis",
        "state": "RJ",
        "district": "Nossa Senhora de Fátima",
        "street": "Travessa Maria Paris",
        "zipcode": "26545-590"
    },
    {
        "city": "Nilópolis",
        "state": "RJ",
        "district": "Centro",
        "street": "Rua Mário Ferreira da Cruz",
        "zipcode": "26515-795"
    },
    {
        "city": "Nilópolis",
        "state": "RJ",
        "district": "Nova Cidade",
        "street": "Travessa Joaquim Santos Filho",
        "zipcode": "26535-194"
    },
    {
        "city": "Nilópolis",
        "state": "RJ",
        "district": "Centro",
        "street": "Praça Júlio Abreu",
        "zipcode": "26535-345"
    },
    {
        "city": "Nilópolis",
        "state": "RJ",
        "district": "Centro",
        "street": "Rua Natividade",
        "zipcode": "26535-355"
    },
    {
        "city": "Nilópolis",
        "state": "RJ",
        "district": "Centro",
        "street": "Travessa Pastor Geraldo R de Abreu",
        "zipcode": "26540-292"
    },
    {
        "city": "Nilópolis",
        "state": "RJ",
        "district": "Cabuis",
        "street": "Rua Ana Salermo",
        "zipcode": "26540-320"
    },
    {
        "city": "Nilópolis",
        "state": "RJ",
        "district": "Cabuis",
        "street": "Rua Júlio Berkowitz",
        "zipcode": "26540-222"
    },
    {
        "city": "Nilópolis",
        "state": "RJ",
        "district": "Paiol de Pólvora",
        "street": "Rua Carlos de Sousa Fernandes",
        "zipcode": "26545-004"
    },
    {
        "city": "Nilópolis",
        "state": "RJ",
        "district": "Olinda",
        "street": "Travessa Mauro de Almeida Flores",
        "zipcode": "26545-083"
    },
    {
        "city": "Nilópolis",
        "state": "RJ",
        "district": "Cabral",
        "street": "Travessa Esportista Jorge de Souza Caxixa",
        "zipcode": "26515-128"
    },
    {
        "city": "Nilópolis",
        "state": "RJ",
        "district": "Cabuis",
        "street": "Rua Júlio Berkowitz",
        "zipcode": "26545-442"
    },
    {
        "city": "Nilópolis",
        "state": "RJ",
        "district": "Paiol de Pólvora",
        "street": "Rua Major Leite de Castro",
        "zipcode": "26545-550"
    },
    {
        "city": "Nilópolis",
        "state": "RJ",
        "district": "Paiol de Pólvora",
        "street": "Travessa Altacidio Alves",
        "zipcode": "26545-555"
    },
    {
        "city": "Nilópolis",
        "state": "RJ",
        "district": "Paiol de Pólvora",
        "street": "Rua Vicentina",
        "zipcode": "26545-745"
    },
    {
        "city": "Nilópolis",
        "state": "RJ",
        "district": "Paiol de Pólvora",
        "street": "Rua Protogenes Guimarães",
        "zipcode": "26545-607"
    },
    {
        "city": "Nilópolis",
        "state": "RJ",
        "district": "Cabuis",
        "street": "Rua Raul Revello",
        "zipcode": "26545-630"
    },
    {
        "city": "Nilópolis",
        "state": "RJ",
        "district": "Paiol de Pólvora",
        "street": "Rua Inácio Moreira do Amaral",
        "zipcode": "26545-360"
    },
    {
        "city": "Nilópolis",
        "state": "RJ",
        "district": "Paiol de Pólvora",
        "street": "Rua Acácio Torres",
        "zipcode": "26545-380"
    },
    {
        "city": "Nilópolis",
        "state": "RJ",
        "district": "Centro",
        "street": "Rua Graciano Cruz",
        "zipcode": "26525-190"
    },
    {
        "city": "Nilópolis",
        "state": "RJ",
        "district": "Centro",
        "street": "Rua Rui Porto",
        "zipcode": "26525-552"
    },
    {
        "city": "Nilópolis",
        "state": "RJ",
        "district": "Centro",
        "street": "Rua Raimundo Martins Pereira",
        "zipcode": "26520-008"
    },
    {
        "city": "Nilópolis",
        "state": "RJ",
        "district": "Paiol de Pólvora",
        "street": "Rua João Barbosa Cerqueira",
        "zipcode": "26545-740"
    },
    {
        "city": "Nilópolis",
        "state": "RJ",
        "district": "Centro",
        "street": "Rua Luperce Miranda",
        "zipcode": "26520-076"
    },
    {
        "city": "Nilópolis",
        "state": "RJ",
        "district": "Centro",
        "street": "Rua Gumercindo",
        "zipcode": "26521-440"
    },
    {
        "city": "Nilópolis",
        "state": "RJ",
        "district": "Centro",
        "street": "Rua Geraldo Moraes da Silva",
        "zipcode": "26525-090"
    },
    {
        "city": "Nilópolis",
        "state": "RJ",
        "district": "Centro",
        "street": "Rua Laura Cruz",
        "zipcode": "26520-330"
    },
    {
        "city": "Nilópolis",
        "state": "RJ",
        "district": "Centro",
        "street": "Rua Carminda Oliveira de Souza",
        "zipcode": "26525-155"
    },
    {
        "city": "Nilópolis",
        "state": "RJ",
        "district": "Nossa Senhora de Fátima",
        "street": "Rua José Albino",
        "zipcode": "26521-220"
    },
    {
        "city": "Nilópolis",
        "state": "RJ",
        "district": "Centro",
        "street": "Travessa Antônio Candido Ferreira",
        "zipcode": "26510-602"
    },
    {
        "city": "Nilópolis",
        "state": "RJ",
        "district": "Centro",
        "street": "Travessa Gertrudes",
        "zipcode": "26510-630"
    },
    {
        "city": "Nilópolis",
        "state": "RJ",
        "district": "Cabral",
        "street": "Travessa Antônio Monteiro",
        "zipcode": "26515-243"
    },
    {
        "city": "Nilópolis",
        "state": "RJ",
        "district": "Cabral",
        "street": "Rua Sebastião Mandel dos Santos",
        "zipcode": "26515-407"
    },
    {
        "city": "Nilópolis",
        "state": "RJ",
        "district": "Centro",
        "street": "Travessa Cecília de Sousa Pimenta",
        "zipcode": "26520-345"
    },
    {
        "city": "Nilópolis",
        "state": "RJ",
        "district": "Cabral",
        "street": "Travessa Dona Genoveva",
        "zipcode": "26515-290"
    },
    {
        "city": "Nilópolis",
        "state": "RJ",
        "district": "Nossa Senhora de Fátima",
        "street": "Rua Presidente Kennedy",
        "zipcode": "26525-310"
    },
    {
        "city": "Nilópolis",
        "state": "RJ",
        "district": "Nova Cidade",
        "street": "Rua Marechal Floriano Peixoto",
        "zipcode": "26535-110"
    },
    {
        "city": "Nilópolis",
        "state": "RJ",
        "district": "Centro",
        "street": "Rua Tenente José Nunes de Oliveira",
        "zipcode": "26520-040"
    },
    {
        "city": "Nilópolis",
        "state": "RJ",
        "district": "Nova Cidade",
        "street": "Rua Marechal Deodoro",
        "zipcode": "26535-100"
    },
    {
        "city": "Nilópolis",
        "state": "RJ",
        "district": "Nossa Senhora de Fátima",
        "street": "Travessa José Monteiro de Souza",
        "zipcode": "26521-093"
    },
    {
        "city": "Nilópolis",
        "state": "RJ",
        "district": "Nossa Senhora de Fátima",
        "street": "Travessa Manoel Mendonça",
        "zipcode": "26521-453"
    },
    {
        "city": "Nilópolis",
        "state": "RJ",
        "district": "Centro",
        "street": "Travessa Aguiar",
        "zipcode": "26525-013"
    },
    {
        "city": "Nilópolis",
        "state": "RJ",
        "district": "Centro",
        "street": "Rua Santos Molinário",
        "zipcode": "26525-500"
    },
    {
        "city": "Nilópolis",
        "state": "RJ",
        "district": "Centro",
        "street": "Travessa Oscar Rodrigues de Souza",
        "zipcode": "26525-730"
    },
    {
        "city": "Nilópolis",
        "state": "RJ",
        "district": "Nova Cidade",
        "street": "Travessa Campos Sales",
        "zipcode": "26530-105"
    },
    {
        "city": "Nilópolis",
        "state": "RJ",
        "district": "Centro",
        "street": "Rua Doutor Campos Salles",
        "zipcode": "26530-160"
    },
    {
        "city": "Nilópolis",
        "state": "RJ",
        "district": "Centro",
        "street": "Rua John Fitzgerald Kennedy",
        "zipcode": "26535-390"
    },
    {
        "city": "Nilópolis",
        "state": "RJ",
        "district": "Nova Cidade",
        "street": "Travessa Divisa",
        "zipcode": "26535-193"
    },
    {
        "city": "Nilópolis",
        "state": "RJ",
        "district": "Nova Cidade",
        "street": "Travessa Antônio Ribeiro da Silva",
        "zipcode": "26535-454"
    },
    {
        "city": "Nilópolis",
        "state": "RJ",
        "district": "Nova Cidade",
        "street": "Rua Hélio Costa",
        "zipcode": "26535-510"
    },
    {
        "city": "Nilópolis",
        "state": "RJ",
        "district": "Centro",
        "street": "Travessa Sebastião Magalhães Pereira",
        "zipcode": "26540-077"
    },
    {
        "city": "Nilópolis",
        "state": "RJ",
        "district": "Centro",
        "street": "Rua Humberto Assunção",
        "zipcode": "26540-090"
    },
    {
        "city": "Nilópolis",
        "state": "RJ",
        "district": "Cabuis",
        "street": "Rua Nelson Rodrigues",
        "zipcode": "26540-250"
    },
    {
        "city": "Nilópolis",
        "state": "RJ",
        "district": "Cabuis",
        "street": "Rua Euclides Pereira de Almeida",
        "zipcode": "26540-461"
    },
    {
        "city": "Nilópolis",
        "state": "RJ",
        "district": "Cabral",
        "street": "Travessa Regina Teresa",
        "zipcode": "26515-345"
    },
    {
        "city": "Nilópolis",
        "state": "RJ",
        "district": "Paiol de Pólvora",
        "street": "Rua Maria Gama",
        "zipcode": "26545-250"
    },
    {
        "city": "Nilópolis",
        "state": "RJ",
        "district": "Olinda",
        "street": "Rua Monsenhor João Felipe",
        "zipcode": "26545-260"
    },
    {
        "city": "Nilópolis",
        "state": "RJ",
        "district": "Paiol de Pólvora",
        "street": "Rua Azelina",
        "zipcode": "26545-605"
    },
    {
        "city": "Nilópolis",
        "state": "RJ",
        "district": "Cabuis",
        "street": "Rua Gil Peres Caldas",
        "zipcode": "26545-690"
    },
    {
        "city": "Nilópolis",
        "state": "RJ",
        "district": "Nossa Senhora de Fátima",
        "street": "Travessa José Rodrigues",
        "zipcode": "26520-705"
    },
    {
        "city": "Nilópolis",
        "state": "RJ",
        "district": "Centro",
        "street": "Travessa Gabriel Marques",
        "zipcode": "26521-455"
    },
    {
        "city": "Nilópolis",
        "state": "RJ",
        "district": "Olinda",
        "street": "Rua Old Vile",
        "zipcode": "26510-266"
    },
    {
        "city": "Nilópolis",
        "state": "RJ",
        "district": "Nossa Senhora de Fátima",
        "street": "Rua Carlos Bastos Dias",
        "zipcode": "26525-390"
    },
    {
        "city": "Nilópolis",
        "state": "RJ",
        "district": "Centro",
        "street": "Rua João Ferreira Alves",
        "zipcode": "26525-240"
    },
    {
        "city": "Nilópolis",
        "state": "RJ",
        "district": "Cabral",
        "street": "Travessa Ana Dias",
        "zipcode": "26515-030"
    },
    {
        "city": "Nilópolis",
        "state": "RJ",
        "district": "Centro",
        "street": "Travessa Daniele Bernadino",
        "zipcode": "26520-556"
    },
    {
        "city": "Nilópolis",
        "state": "RJ",
        "district": "Olinda",
        "street": "Rua Gaudie Ley",
        "zipcode": "26510-040"
    },
    {
        "city": "Nilópolis",
        "state": "RJ",
        "district": "Nossa Senhora de Fátima",
        "street": "Travessa Elenir Rodrigues Pinto",
        "zipcode": "26520-775"
    },
    {
        "city": "Nilópolis",
        "state": "RJ",
        "district": "Nossa Senhora de Fátima",
        "street": "Travessa Floro Mesquita dos Santos",
        "zipcode": "26521-070"
    },
    {
        "city": "Nilópolis",
        "state": "RJ",
        "district": "Centro",
        "street": "Rua Ministro Nelson Hungria",
        "zipcode": "26525-300"
    },
    {
        "city": "Nilópolis",
        "state": "RJ",
        "district": "Centro",
        "street": "Rua Loriva Palha Castro",
        "zipcode": "26525-600"
    },
    {
        "city": "Nilópolis",
        "state": "RJ",
        "district": "Olinda",
        "street": "Travessa Santa Luzia",
        "zipcode": "26510-102"
    },
    {
        "city": "Nilópolis",
        "state": "RJ",
        "district": "Centro",
        "street": "Travessa Ubelina Rosa da Silva",
        "zipcode": "26510-753"
    },
    {
        "city": "Nilópolis",
        "state": "RJ",
        "district": "Centro",
        "street": "Travessa Manoel Gomes Rosa",
        "zipcode": "26520-535"
    },
    {
        "city": "Nilópolis",
        "state": "RJ",
        "district": "Nossa Senhora de Fátima",
        "street": "Travessa Mirian Gonçalves Capitulino",
        "zipcode": "26521-096"
    },
    {
        "city": "Nilópolis",
        "state": "RJ",
        "district": "Nossa Senhora de Fátima",
        "street": "Travessa União Forte",
        "zipcode": "26521-122"
    },
    {
        "city": "Nilópolis",
        "state": "RJ",
        "district": "Nossa Senhora de Fátima",
        "street": "Travessa Altair Calado",
        "zipcode": "26521-350"
    },
    {
        "city": "Nilópolis",
        "state": "RJ",
        "district": "Centro",
        "street": "Travessa Angelina Juliano",
        "zipcode": "26525-270"
    },
    {
        "city": "Nilópolis",
        "state": "RJ",
        "district": "Centro",
        "street": "Travessa Rosemary",
        "zipcode": "26525-493"
    },
    {
        "city": "Nilópolis",
        "state": "RJ",
        "district": "Centro",
        "street": "Travessa Municipal",
        "zipcode": "26530-070"
    },
    {
        "city": "Nilópolis",
        "state": "RJ",
        "district": "Nova Cidade",
        "street": "Travessa Lino de Castro",
        "zipcode": "26535-003"
    },
    {
        "city": "Nilópolis",
        "state": "RJ",
        "district": "Cabral",
        "street": "Travessa Aliança",
        "zipcode": "26515-033"
    },
    {
        "city": "Nilópolis",
        "state": "RJ",
        "district": "Olinda",
        "street": "Rua Antônio Francisco",
        "zipcode": "26540-463"
    },
    {
        "city": "Nilópolis",
        "state": "RJ",
        "district": "Centro",
        "street": "Travessa Albertino Dias Macedo",
        "zipcode": "26535-335"
    },
    {
        "city": "Nilópolis",
        "state": "RJ",
        "district": "Nova Cidade",
        "street": "Rua Maria Dolores Farjado",
        "zipcode": "26535-400"
    },
    {
        "city": "Nilópolis",
        "state": "RJ",
        "district": "Paiol de Pólvora",
        "street": "Travessa Belita",
        "zipcode": "26545-153"
    },
    {
        "city": "Nilópolis",
        "state": "RJ",
        "district": "Paiol de Pólvora",
        "street": "Rua Tenente Severo",
        "zipcode": "26545-525"
    },
    {
        "city": "Nilópolis",
        "state": "RJ",
        "district": "Paiol de Pólvora",
        "street": "Travessa Izeline",
        "zipcode": "26545-603"
    },
    {
        "city": "Nilópolis",
        "state": "RJ",
        "district": "Olinda",
        "street": "Travessa São Cristóvão",
        "zipcode": "26545-130"
    },
    {
        "city": "Nilópolis",
        "state": "RJ",
        "district": "Olinda",
        "street": "Estrada General Olímpio da Fonseca",
        "zipcode": "26545-470"
    },
    {
        "city": "Nilópolis",
        "state": "RJ",
        "district": "Cabuis",
        "street": "Rua Sargento Manuel Rodrigues",
        "zipcode": "26540-466"
    },
    {
        "city": "Nilópolis",
        "state": "RJ",
        "district": "Cabuis",
        "street": "Rua Sargento Manuel Rodrigues",
        "zipcode": "26545-786"
    },
    {
        "city": "Nilópolis",
        "state": "RJ",
        "district": "Cabuis",
        "street": "Rua Sargento Manuel Rodrigues",
        "zipcode": "26545-787"
    },
    {
        "city": "Nilópolis",
        "state": "RJ",
        "district": "Centro",
        "street": "Travessa Sargento José Guedes de Moura",
        "zipcode": "26520-337"
    },
    {
        "city": "Nilópolis",
        "state": "RJ",
        "district": "Cabuis",
        "street": "Rua Sargento Manuel Rodrigues",
        "zipcode": "26540-464"
    },
    {
        "city": "Nilópolis",
        "state": "RJ",
        "district": "Centro",
        "street": "Estrada Doutor Manuel Reis",
        "zipcode": "26510-181"
    },
    {
        "city": "Nilópolis",
        "state": "RJ",
        "district": "Centro",
        "street": "Estrada Doutor Manuel Reis",
        "zipcode": "26510-182"
    },
    {
        "city": "Nilópolis",
        "state": "RJ",
        "district": "Centro",
        "street": "Estrada Antônio José Bittencourt",
        "zipcode": "26535-001"
    },
    {
        "city": "Nilópolis",
        "state": "RJ",
        "district": "Centro",
        "street": "Estrada Antônio José Bittencourt",
        "zipcode": "26535-000"
    },
    {
        "city": "Nilópolis",
        "state": "RJ",
        "district": "Cabral",
        "street": "Travessa Antônio Rosa Fraga",
        "zipcode": "26515-600"
    },
    {
        "city": "Nilópolis",
        "state": "RJ",
        "district": "Centro",
        "street": "Rua Coronel Fausto Damião",
        "zipcode": "26515-610"
    },
    {
        "city": "Nilópolis",
        "state": "RJ",
        "district": "Centro",
        "street": "Rua Eneias Pereira Belém",
        "zipcode": "26515-630"
    },
    {
        "city": "Nilópolis",
        "state": "RJ",
        "district": "Cabral",
        "street": "Rua Maria Billard Chambarelli",
        "zipcode": "26515-520"
    },
    {
        "city": "Nilópolis",
        "state": "RJ",
        "district": "Cabral",
        "street": "Rua Maria Teresa de Paula",
        "zipcode": "26515-530"
    },
    {
        "city": "Nilópolis",
        "state": "RJ",
        "district": "Centro",
        "street": "Rua Pascoal Chambarelli",
        "zipcode": "26515-800"
    },
    {
        "city": "Nilópolis",
        "state": "RJ",
        "district": "Centro",
        "street": "Rua Professor Alfredo Gomes",
        "zipcode": "26515-820"
    },
    {
        "city": "Nilópolis",
        "state": "RJ",
        "district": "Centro",
        "street": "Rua Professora Maria Maranhão",
        "zipcode": "26515-596"
    },
    {
        "city": "Nilópolis",
        "state": "RJ",
        "district": "Centro",
        "street": "Rua José Vasques Pereira",
        "zipcode": "26515-500"
    },
    {
        "city": "Nilópolis",
        "state": "RJ",
        "district": "Cabral",
        "street": "Travessa União",
        "zipcode": "26515-570"
    },
    {
        "city": "Nilópolis",
        "state": "RJ",
        "district": "Centro",
        "street": "Estrada Mirandela",
        "zipcode": "26520-332"
    },
    {
        "city": "Nilópolis",
        "state": "RJ",
        "district": "Centro",
        "street": "Rua Antônio João Mendonça",
        "zipcode": "26510-617"
    },
    {
        "city": "Nilópolis",
        "state": "RJ",
        "district": "Centro",
        "street": "Rua Antônio Barros Silva",
        "zipcode": "26521-520"
    },
    {
        "city": "Nilópolis",
        "state": "RJ",
        "district": "Centro",
        "street": "Alameda Jorge Gonçalo",
        "zipcode": "26520-075"
    },
    {
        "city": "Nilópolis",
        "state": "RJ",
        "district": "Olinda",
        "street": "Praça Manuel Joaquim Casemiro",
        "zipcode": "26510-090"
    },
    {
        "city": "Nilópolis",
        "state": "RJ",
        "district": "Olinda",
        "street": "Beco Abrahão de Carvalho",
        "zipcode": "26510-170"
    },
    {
        "city": "Nilópolis",
        "state": "RJ",
        "district": "Cabral",
        "street": "Beco Duarte",
        "zipcode": "26510-570"
    },
    {
        "city": "Nilópolis",
        "state": "RJ",
        "district": "Centro",
        "street": "Beco Antônio Jorge",
        "zipcode": "26510-605"
    },
    {
        "city": "Nilópolis",
        "state": "RJ",
        "district": "Centro",
        "street": "Rua Alberto Teixeira da Cunha",
        "zipcode": "26510-613"
    },
    {
        "city": "Nilópolis",
        "state": "RJ",
        "district": "Centro",
        "street": "Rua Alberto Teixeira da Cunha",
        "zipcode": "26510-615"
    },
    {
        "city": "Nilópolis",
        "state": "RJ",
        "district": "Cabral",
        "street": "Rua Alexandrina",
        "zipcode": "26510-390"
    },
    {
        "city": "Nilópolis",
        "state": "RJ",
        "district": "Cabral",
        "street": "Beco Antônio de Carvalho",
        "zipcode": "26515-120"
    },
    {
        "city": "Nilópolis",
        "state": "RJ",
        "district": "Cabral",
        "street": "Rua Detetive Altino Luís dos Santos",
        "zipcode": "26510-190"
    },
    {
        "city": "Nilópolis",
        "state": "RJ",
        "district": "Cabral",
        "street": "Rua Carmo",
        "zipcode": "26510-370"
    },
    {
        "city": "Nilópolis",
        "state": "RJ",
        "district": "Olinda",
        "street": "Rua Eurico Batista",
        "zipcode": "26510-363"
    },
    {
        "city": "Nilópolis",
        "state": "RJ",
        "district": "Centro",
        "street": "Beco Armando Soares",
        "zipcode": "26520-280"
    },
    {
        "city": "Nilópolis",
        "state": "RJ",
        "district": "Nossa Senhora de Fátima",
        "street": "Beco Getúlio Rodrigues",
        "zipcode": "26521-090"
    },
    {
        "city": "Nilópolis",
        "state": "RJ",
        "district": "Nossa Senhora de Fátima",
        "street": "Praça Armada",
        "zipcode": "26521-380"
    },
    {
        "city": "Nilópolis",
        "state": "RJ",
        "district": "Nossa Senhora de Fátima",
        "street": "Rua Antônio da Silva Mendonça",
        "zipcode": "26521-660"
    },
    {
        "city": "Nilópolis",
        "state": "RJ",
        "district": "Centro",
        "street": "Avenida Getúlio de Moura",
        "zipcode": "26525-002"
    },
    {
        "city": "Nilópolis",
        "state": "RJ",
        "district": "Centro",
        "street": "Rua Benedita",
        "zipcode": "26521-105"
    },
    {
        "city": "Nilópolis",
        "state": "RJ",
        "district": "Centro",
        "street": "Rua Damazio da Rocha",
        "zipcode": "26521-580"
    },
    {
        "city": "Nilópolis",
        "state": "RJ",
        "district": "Cabral",
        "street": "Estrada João Evangelista de Carvalho",
        "zipcode": "26515-051"
    },
    {
        "city": "Nilópolis",
        "state": "RJ",
        "district": "Olinda",
        "street": "Rua Brasília",
        "zipcode": "26521-395"
    },
    {
        "city": "Nilópolis",
        "state": "RJ",
        "district": "Cabuis",
        "street": "Rua Joice de Souza",
        "zipcode": "26545-760"
    },
    {
        "city": "Nilópolis",
        "state": "RJ",
        "district": "Nossa Senhora de Fátima",
        "street": "Rua Lidia Pereira Martins",
        "zipcode": "26520-004"
    },
    {
        "city": "Nilópolis",
        "state": "RJ",
        "district": "Paiol de Pólvora",
        "street": "Rua Oswaldo Clementino de Oliveira",
        "zipcode": "26545-750"
    },
    {
        "city": "Nilópolis",
        "state": "RJ",
        "district": "Nova Cidade",
        "street": "Praça Alegria",
        "zipcode": "26535-050"
    },
    {
        "city": "Nilópolis",
        "state": "RJ",
        "district": "Nova Cidade",
        "street": "Praça José Bonifácio",
        "zipcode": "26535-080"
    },
    {
        "city": "Nilópolis",
        "state": "RJ",
        "district": "Nova Cidade",
        "street": "Praça Júlio de Abreu",
        "zipcode": "26535-090"
    },
    {
        "city": "Nilópolis",
        "state": "RJ",
        "district": "Centro",
        "street": "Rua Adolfo Bergamini",
        "zipcode": "26535-590"
    },
    {
        "city": "Nilópolis",
        "state": "RJ",
        "district": "Cabuis",
        "street": "Estrada Expedicionários",
        "zipcode": "26540-023"
    },
    {
        "city": "Nilópolis",
        "state": "RJ",
        "district": "Cabuis",
        "street": "Estrada Expedicionários",
        "zipcode": "26540-024"
    },
    {
        "city": "Nilópolis",
        "state": "RJ",
        "district": "Cabuis",
        "street": "Estrada Expedicionários",
        "zipcode": "26540-026"
    },
    {
        "city": "Nilópolis",
        "state": "RJ",
        "district": "Centro",
        "street": "Rua Abraão Abdala",
        "zipcode": "26540-050"
    },
    {
        "city": "Nilópolis",
        "state": "RJ",
        "district": "Cabuis",
        "street": "Rua Ari Walter",
        "zipcode": "26540-060"
    },
    {
        "city": "Nilópolis",
        "state": "RJ",
        "district": "Cabuis",
        "street": "Estrada Deputado Andrade Figueira",
        "zipcode": "26540-130"
    },
    {
        "city": "Nilópolis",
        "state": "RJ",
        "district": "Cabuis",
        "street": "Rua Adelina Alves de Azevedo",
        "zipcode": "26540-310"
    },
    {
        "city": "Nilópolis",
        "state": "RJ",
        "district": "Cabuis",
        "street": "Rua Boa Vista",
        "zipcode": "26540-350"
    },
    {
        "city": "Nilópolis",
        "state": "RJ",
        "district": "Cabuis",
        "street": "Estrada Nilo Peçanha",
        "zipcode": "26540-232"
    },
    {
        "city": "Nilópolis",
        "state": "RJ",
        "district": "Olinda",
        "street": "Praça João Machado Barcelos",
        "zipcode": "26545-173"
    },
    {
        "city": "Nilópolis",
        "state": "RJ",
        "district": "Olinda",
        "street": "Estrada Nilo Peçanha",
        "zipcode": "26545-202"
    },
    {
        "city": "Nilópolis",
        "state": "RJ",
        "district": "Olinda",
        "street": "Rua Amadeu Lara",
        "zipcode": "26545-160"
    },
    {
        "city": "Nilópolis",
        "state": "RJ",
        "district": "Centro",
        "street": "Rua Antônio A. Paizano",
        "zipcode": "26525-428"
    },
    {
        "city": "Nilópolis",
        "state": "RJ",
        "district": "Centro",
        "street": "Alameda Maria José",
        "zipcode": "26520-750"
    },
    {
        "city": "Nilópolis",
        "state": "RJ",
        "district": "Cabral",
        "street": "Alameda Cabral",
        "zipcode": "26515-090"
    },
    {
        "city": "Nilópolis",
        "state": "RJ",
        "district": "Centro",
        "street": "Praça Osmar Serpa de Carvalho",
        "zipcode": "26510-340"
    },
    {
        "city": "Nilópolis",
        "state": "RJ",
        "district": "Cabral",
        "street": "Estrada João Evangelista de Carvalho",
        "zipcode": "26515-052"
    },
    {
        "city": "Nilópolis",
        "state": "RJ",
        "district": "Cabral",
        "street": "Estrada Senador Salgado Filho",
        "zipcode": "26515-068"
    },
    {
        "city": "Nilópolis",
        "state": "RJ",
        "district": "Centro",
        "street": "Praça Exército",
        "zipcode": "26515-420"
    },
    {
        "city": "Nilópolis",
        "state": "RJ",
        "district": "Centro",
        "street": "Rua Antônio Manoel dos Santos",
        "zipcode": "26525-000"
    },
    {
        "city": "Nilópolis",
        "state": "RJ",
        "district": "Nossa Senhora de Fátima",
        "street": "Rua Agamemnon Magalhães",
        "zipcode": "26525-160"
    },
    {
        "city": "Nilópolis",
        "state": "RJ",
        "district": "Centro",
        "street": "Praça Alberto Santos Dumont",
        "zipcode": "26520-125"
    },
    {
        "city": "Nilópolis",
        "state": "RJ",
        "district": "Centro",
        "street": "Rua Iracema Alves",
        "zipcode": "26520-670"
    },
    {
        "city": "Nilópolis",
        "state": "RJ",
        "district": "Nossa Senhora de Fátima",
        "street": "Alameda Truman",
        "zipcode": "26521-020"
    },
    {
        "city": "Nilópolis",
        "state": "RJ",
        "district": "Centro",
        "street": "Rua Amarantes",
        "zipcode": "26521-600"
    },
    {
        "city": "Nilópolis",
        "state": "RJ",
        "district": "Centro",
        "street": "Rua Aracaju",
        "zipcode": "26525-280"
    },
    {
        "city": "Nilópolis",
        "state": "RJ",
        "district": "Centro",
        "street": "Praça Santos Dumont",
        "zipcode": "26525-320"
    },
    {
        "city": "Nilópolis",
        "state": "RJ",
        "district": "Centro",
        "street": "Rua Almir Duarte Pereira",
        "zipcode": "26525-350"
    },
    {
        "city": "Nilópolis",
        "state": "RJ",
        "district": "Nossa Senhora de Fátima",
        "street": "Rua Araribóia",
        "zipcode": "26525-360"
    },
    {
        "city": "Nilópolis",
        "state": "RJ",
        "district": "Centro",
        "street": "Beco Joseane",
        "zipcode": "26525-426"
    },
    {
        "city": "Nilópolis",
        "state": "RJ",
        "district": "Centro",
        "street": "Rua Aguiar",
        "zipcode": "26525-570"
    },
    {
        "city": "Nilópolis",
        "state": "RJ",
        "district": "Centro",
        "street": "Beco João Pessoa",
        "zipcode": "26525-774"
    },
    {
        "city": "Nilópolis",
        "state": "RJ",
        "district": "Centro",
        "street": "Praça Vinte e Um de Agosto",
        "zipcode": "26530-005"
    },
    {
        "city": "Nilópolis",
        "state": "RJ",
        "district": "Centro",
        "street": "Rua Antônio Cardoso Leal",
        "zipcode": "26530-010"
    },
    {
        "city": "Nilópolis",
        "state": "RJ",
        "district": "Centro",
        "street": "Rua Áurea Antônio Amorim",
        "zipcode": "26525-423"
    },
    {
        "city": "Nilópolis",
        "state": "RJ",
        "district": "Centro",
        "street": "Rua Amparo",
        "zipcode": "26525-580"
    },
    {
        "city": "Nilópolis",
        "state": "RJ",
        "district": "Centro",
        "street": "Rua Capitão Antônio Jacinto Machado",
        "zipcode": "26525-810"
    },
    {
        "city": "Nilópolis",
        "state": "RJ",
        "district": "Centro",
        "street": "Praça Pedro II",
        "zipcode": "26530-120"
    },
    {
        "city": "Nilópolis",
        "state": "RJ",
        "district": "Centro",
        "street": "Rua Augusto dos Anjos",
        "zipcode": "26525-370"
    },
    {
        "city": "Nilópolis",
        "state": "RJ",
        "district": "Nova Cidade",
        "street": "Beco Vieira",
        "zipcode": "26530-155"
    },
    {
        "city": "Nilópolis",
        "state": "RJ",
        "district": "Nova Cidade",
        "street": "Avenida Periperi",
        "zipcode": "26530-200"
    },
    {
        "city": "Nilópolis",
        "state": "RJ",
        "district": "Nova Cidade",
        "street": "Rua Antônio Falheiro",
        "zipcode": "26535-115"
    },
    {
        "city": "Nilópolis",
        "state": "RJ",
        "district": "Centro",
        "street": "Rua Amapá",
        "zipcode": "26535-600"
    },
    {
        "city": "Nilópolis",
        "state": "RJ",
        "district": "Olinda",
        "street": "Rua Alfredo Pinheiro",
        "zipcode": "26510-100"
    },
    {
        "city": "Nilópolis",
        "state": "RJ",
        "district": "Nova Cidade",
        "street": "Estrada Benjamim Constant",
        "zipcode": "26535-010"
    },
    {
        "city": "Nilópolis",
        "state": "RJ",
        "district": "Centro",
        "street": "Rua Antônio João Mendonça",
        "zipcode": "26515-592"
    },
    {
        "city": "Nilópolis",
        "state": "RJ",
        "district": "Olinda",
        "street": "Rua Augusto Correia Berberea",
        "zipcode": "26515-470"
    },
    {
        "city": "Nilópolis",
        "state": "RJ",
        "district": "Cabuis",
        "street": "Rua Carlos Alves de Oliveira",
        "zipcode": "26545-790"
    },
    {
        "city": "Nilópolis",
        "state": "RJ",
        "district": "Centro",
        "street": "Rua Ernesto Francisco",
        "zipcode": "26520-000"
    },
    {
        "city": "Nilópolis",
        "state": "RJ",
        "district": "Paiol de Pólvora",
        "street": "Travessa Euclides Pereira de Almeida",
        "zipcode": "26545-783"
    },
    {
        "city": "Nilópolis",
        "state": "RJ",
        "district": "Centro",
        "street": "Rua Francisco Mais",
        "zipcode": "26515-655"
    },
    {
        "city": "Nilópolis",
        "state": "RJ",
        "district": "Centro",
        "street": "Rua João Carlos Prizzo",
        "zipcode": "26515-690"
    },
    {
        "city": "Nilópolis",
        "state": "RJ",
        "district": "Centro",
        "street": "Travessa José Brás",
        "zipcode": "26515-480"
    },
    {
        "city": "Nilópolis",
        "state": "RJ",
        "district": "Centro",
        "street": "Rua Lauro Sodré",
        "zipcode": "26515-720"
    },
    {
        "city": "Nilópolis",
        "state": "RJ",
        "district": "Nossa Senhora de Fátima",
        "street": "Travessa Levi Rodrigues",
        "zipcode": "26520-003"
    },
    {
        "city": "Nilópolis",
        "state": "RJ",
        "district": "Paiol de Pólvora",
        "street": "Travessa Manoel Bidóia",
        "zipcode": "26545-785"
    },
    {
        "city": "Nilópolis",
        "state": "RJ",
        "district": "Cabral",
        "street": "Rua Maria Augusta dos Santos Ferreira",
        "zipcode": "26515-510"
    },
    {
        "city": "Nilópolis",
        "state": "RJ",
        "district": "Centro",
        "street": "Rua Maria de Lourdes Paiva",
        "zipcode": "26515-810"
    },
    {
        "city": "Nilópolis",
        "state": "RJ",
        "district": "Centro",
        "street": "Rua Maria Inês das Graças",
        "zipcode": "26515-770"
    },
    {
        "city": "Nilópolis",
        "state": "RJ",
        "district": "Olinda",
        "street": "Estrada Roberto Silveira",
        "zipcode": "26545-770"
    },
    {
        "city": "Nilópolis",
        "state": "RJ",
        "district": "Cabral",
        "street": "Rua Santa Filomena",
        "zipcode": "26515-560"
    },
    {
        "city": "Nilópolis",
        "state": "RJ",
        "district": "Paiol de Pólvora",
        "street": "Rua Três",
        "zipcode": "26545-748"
    },
    {
        "city": "Nilópolis",
        "state": "RJ",
        "district": "Centro",
        "street": "Rua Alberto Teixeira da Cunha",
        "zipcode": "26510-970"
    },
    {
        "city": "Nilópolis",
        "state": "RJ",
        "district": "Nova Cidade",
        "street": "Rua Antônio Alves de Almeida",
        "zipcode": "26535-385"
    },
    {
        "city": "Nilópolis",
        "state": "RJ",
        "district": "Nova Cidade",
        "street": "Beco João Freitas da Silva",
        "zipcode": "26535-520"
    },
    {
        "city": "Nilópolis",
        "state": "RJ",
        "district": "Nova Cidade",
        "street": "Rua Belmira Miranda",
        "zipcode": "26535-460"
    },
    {
        "city": "Nilópolis",
        "state": "RJ",
        "district": "Cabuis",
        "street": "Estrada Expedicionários",
        "zipcode": "26540-027"
    },
    {
        "city": "Nilópolis",
        "state": "RJ",
        "district": "Cabuis",
        "street": "Estrada Deputado Andrade Figueira",
        "zipcode": "26540-132"
    },
    {
        "city": "Nilópolis",
        "state": "RJ",
        "district": "Cabuis",
        "street": "Estrada Nilo Peçanha",
        "zipcode": "26540-231"
    },
    {
        "city": "Nilópolis",
        "state": "RJ",
        "district": "Cabuis",
        "street": "Rua Antônio Francisco",
        "zipcode": "26540-330"
    },
    {
        "city": "Nilópolis",
        "state": "RJ",
        "district": "Centro",
        "street": "Estrada General Mena Barreto",
        "zipcode": "26535-333"
    },
    {
        "city": "Nilópolis",
        "state": "RJ",
        "district": "Olinda",
        "street": "Rua Bela Vista",
        "zipcode": "26545-050"
    },
    {
        "city": "Nilópolis",
        "state": "RJ",
        "district": "Cabuis",
        "street": "Estrada Deputado Andrade Figueira",
        "zipcode": "26545-191"
    },
    {
        "city": "Nilópolis",
        "state": "RJ",
        "district": "Olinda",
        "street": "Estrada Nilo Peçanha",
        "zipcode": "26545-201"
    },
    {
        "city": "Nilópolis",
        "state": "RJ",
        "district": "Paiol de Pólvora",
        "street": "Beco Alexandre Silva",
        "zipcode": "26545-234"
    },
    {
        "city": "Nilópolis",
        "state": "RJ",
        "district": "Cabuis",
        "street": "Rua Agenor Sérgio de Oliveira",
        "zipcode": "26545-720"
    },
    {
        "city": "Nilópolis",
        "state": "RJ",
        "district": "Cabuis",
        "street": "Rua Antônio Pires",
        "zipcode": "26545-400"
    },
    {
        "city": "Nilópolis",
        "state": "RJ",
        "district": "Olinda",
        "street": "Estrada Senador Salgado Filho",
        "zipcode": "26510-111"
    },
    {
        "city": "Nilópolis",
        "state": "RJ",
        "district": "Centro",
        "street": "Avenida Getúlio Vargas",
        "zipcode": "26510-016"
    },
    {
        "city": "Nilópolis",
        "state": "RJ",
        "district": "Olinda",
        "street": "Rua Arcirio Gouveia",
        "zipcode": "26510-025"
    },
    {
        "city": "Nilópolis",
        "state": "RJ",
        "district": "Cabral",
        "street": "Estrada Senador Salgado Filho",
        "zipcode": "26515-069"
    },
    {
        "city": "Nilópolis",
        "state": "RJ",
        "district": "Centro",
        "street": "Avenida Getúlio Vargas",
        "zipcode": "26510-013"
    },
    {
        "city": "Nilópolis",
        "state": "RJ",
        "district": "Centro",
        "street": "Avenida Getúlio Vargas",
        "zipcode": "26510-015"
    },
    {
        "city": "Nilópolis",
        "state": "RJ",
        "district": "Centro",
        "street": "Avenida Carmela Dutra",
        "zipcode": "26530-020"
    },
    {
        "city": "Nilópolis",
        "state": "RJ",
        "district": "Centro",
        "street": "Avenida Getúlio Vargas",
        "zipcode": "26525-023"
    },
    {
        "city": "Nilópolis",
        "state": "RJ",
        "district": "Centro",
        "street": "Rua Comandante Ari Parreira",
        "zipcode": "26525-620"
    },
    {
        "city": "Nilópolis",
        "state": "RJ",
        "district": "Nova Cidade",
        "street": "Estrada Antônio José Bittencourt",
        "zipcode": "26535-002"
    },
    {
        "city": "Nilópolis",
        "state": "RJ",
        "district": "Centro",
        "street": "Avenida Getúlio Vargas",
        "zipcode": "26525-026"
    },
    {
        "city": "Nilópolis",
        "state": "RJ",
        "district": "Centro",
        "street": "Estrada Marechal Castelo Branco",
        "zipcode": "26525-122"
    },
    {
        "city": "Nilópolis",
        "state": "RJ",
        "district": "Paiol de Pólvora",
        "street": "Praça Boa Vista",
        "zipcode": "26540-355"
    },
    {
        "city": "Nilópolis",
        "state": "RJ",
        "district": "Cabral",
        "street": "Rua Damasio Batista",
        "zipcode": "26515-126"
    },
    {
        "city": "Nilópolis",
        "state": "RJ",
        "district": "Nova Cidade",
        "street": "Rua Almirante Tamandaré",
        "zipcode": "26530-150"
    },
    {
        "city": "Nilópolis",
        "state": "RJ",
        "district": "Centro",
        "street": "Estrada General Mena Barreto",
        "zipcode": "26535-332"
    },
    {
        "city": "Nilópolis",
        "state": "RJ",
        "district": "Centro",
        "street": "Rua Djanira Anna Maria",
        "zipcode": "26515-620"
    },
    {
        "city": "Nilópolis",
        "state": "RJ",
        "district": "Cabuis",
        "street": "Travessa Jerônimo Simões da Cruz Filho",
        "zipcode": "26545-781"
    },
    {
        "city": "Nilópolis",
        "state": "RJ",
        "district": "Centro",
        "street": "Rua Maria Ferreira da Cruz",
        "zipcode": "26515-790"
    },
    {
        "city": "Nilópolis",
        "state": "RJ",
        "district": "Centro",
        "street": "Travessa Julia Maria da Conceição Gomes",
        "zipcode": "26515-593"
    },
    {
        "city": "Nilópolis",
        "state": "RJ",
        "district": "Cabral",
        "street": "Rua Edir Pereira Paiva",
        "zipcode": "26515-526"
    },
    {
        "city": "Nilópolis",
        "state": "RJ",
        "district": "Centro",
        "street": "Rua Frei Ludolf",
        "zipcode": "26510-971"
    },
    {
        "city": "Nilópolis",
        "state": "RJ",
        "district": "Nova Cidade",
        "street": "Beco Severina Cunha da Silva",
        "zipcode": "26510-035"
    },
    {
        "city": "Nilópolis",
        "state": "RJ",
        "district": "Centro",
        "street": "Estrada Doutor Manuel Reis",
        "zipcode": "26515-401"
    },
    {
        "city": "Nilópolis",
        "state": "RJ",
        "district": "Centro",
        "street": "Estrada João Evangelista de Carvalho",
        "zipcode": "26520-502"
    },
    {
        "city": "Nilópolis",
        "state": "RJ",
        "district": "Centro",
        "street": "Estrada Eliseu de Alvarenga",
        "zipcode": "26520-612"
    },
    {
        "city": "Nilópolis",
        "state": "RJ",
        "district": "Centro",
        "street": "Estrada Doutor Rufino Gonçalves Ferreira",
        "zipcode": "26530-170"
    },
    {
        "city": "Nilópolis",
        "state": "RJ",
        "district": "Centro",
        "street": "Estrada Expedicionários",
        "zipcode": "26540-020"
    },
    {
        "city": "Nilópolis",
        "state": "RJ",
        "district": "Nossa Senhora de Fátima",
        "street": "Rua Domingos Pereira Martins",
        "zipcode": "26521-060"
    },
    {
        "city": "Nilópolis",
        "state": "RJ",
        "district": "Cabral",
        "street": "Estrada João Evangelista de Carvalho",
        "zipcode": "26510-751"
    },
    {
        "city": "Nilópolis",
        "state": "RJ",
        "district": "Cabral",
        "street": "Estrada João Evangelista de Carvalho",
        "zipcode": "26510-752"
    },
    {
        "city": "Nilópolis",
        "state": "RJ",
        "district": "Cabral",
        "street": "Beco Santo Amaro",
        "zipcode": "26515-250"
    },
    {
        "city": "Nilópolis",
        "state": "RJ",
        "district": "Olinda",
        "street": "Rua Jardim",
        "zipcode": "26510-060"
    },
    {
        "city": "Nilópolis",
        "state": "RJ",
        "district": "Olinda",
        "street": "Rua Florentino José de Oliveira",
        "zipcode": "26510-368"
    },
    {
        "city": "Nilópolis",
        "state": "RJ",
        "district": "Nossa Senhora de Fátima",
        "street": "Beco Auta Rodrigues Lemos",
        "zipcode": "26521-180"
    },
    {
        "city": "Nilópolis",
        "state": "RJ",
        "district": "Nova Cidade",
        "street": "Rua Alberto de Oliveira",
        "zipcode": "26535-023"
    },
    {
        "city": "Nilópolis",
        "state": "RJ",
        "district": "Cabral",
        "street": "Rua Eliza",
        "zipcode": "26510-440"
    },
    {
        "city": "Nilópolis",
        "state": "RJ",
        "district": "Nova Cidade",
        "street": "Rua Julieta José do Nascimento",
        "zipcode": "26510-757"
    },
    {
        "city": "Nilópolis",
        "state": "RJ",
        "district": "Olinda",
        "street": "Rua Américo Ribeiro de Resende",
        "zipcode": "26510-400"
    },
    {
        "city": "Nilópolis",
        "state": "RJ",
        "district": "Cabral",
        "street": "Travessa Manoel Franca",
        "zipcode": "26515-032"
    },
    {
        "city": "Nilópolis",
        "state": "RJ",
        "district": "Cabral",
        "street": "Rua Alfredo José da Cruz",
        "zipcode": "26510-050"
    },
    {
        "city": "Nilópolis",
        "state": "RJ",
        "district": "Olinda",
        "street": "Estrada Senador Salgado Filho",
        "zipcode": "26510-110"
    },
    {
        "city": "Nilópolis",
        "state": "RJ",
        "district": "Olinda",
        "street": "Estrada Eliseu de Alvarenga",
        "zipcode": "26510-362"
    },
    {
        "city": "Nilópolis",
        "state": "RJ",
        "district": "Centro",
        "street": "Rua Alberto Teixeira da Cunha",
        "zipcode": "26510-612"
    },
    {
        "city": "Nilópolis",
        "state": "RJ",
        "district": "Centro",
        "street": "Rua Alberto Teixeira da Cunha",
        "zipcode": "26510-614"
    },
    {
        "city": "Nilópolis",
        "state": "RJ",
        "district": "Cabral",
        "street": "Rua João Rodrigues da Cunha",
        "zipcode": "26510-049"
    },
    {
        "city": "Nilópolis",
        "state": "RJ",
        "district": "Olinda",
        "street": "Rua Cachoeira Paulista",
        "zipcode": "26510-150"
    },
    {
        "city": "Nilópolis",
        "state": "RJ",
        "district": "Olinda",
        "street": "Rua Eli",
        "zipcode": "26510-240"
    },
    {
        "city": "Nilópolis",
        "state": "RJ",
        "district": "Cabral",
        "street": "Rua Coronel França Leite",
        "zipcode": "26515-021"
    },
    {
        "city": "Nilópolis",
        "state": "RJ",
        "district": "Olinda",
        "street": "Rua João Pessoa",
        "zipcode": "26510-114"
    },
    {
        "city": "Nilópolis",
        "state": "RJ",
        "district": "Centro",
        "street": "Rua Genésio Ferreira",
        "zipcode": "26510-800"
    },
    {
        "city": "Nilópolis",
        "state": "RJ",
        "district": "Olinda",
        "street": "Rua Pracinha Wallace Paes Leme",
        "zipcode": "26510-044"
    },
    {
        "city": "Nilópolis",
        "state": "RJ",
        "district": "Olinda",
        "street": "Rua Pedro Roque",
        "zipcode": "26510-058"
    },
    {
        "city": "Nilópolis",
        "state": "RJ",
        "district": "Olinda",
        "street": "Rua Manuel Pereira",
        "zipcode": "26510-080"
    },
    {
        "city": "Nilópolis",
        "state": "RJ",
        "district": "Centro",
        "street": "Rua Maurício Euzebio Thosi",
        "zipcode": "26510-606"
    },
    {
        "city": "Nilópolis",
        "state": "RJ",
        "district": "Olinda",
        "street": "Rua Pracinha Wallace Paes Leme",
        "zipcode": "26510-046"
    },
    {
        "city": "Nilópolis",
        "state": "RJ",
        "district": "Olinda",
        "street": "Rua Virgilina Duarte de Sá",
        "zipcode": "26510-065"
    },
    {
        "city": "Nilópolis",
        "state": "RJ",
        "district": "Olinda",
        "street": "Rua Virgílio Augusto Pinto",
        "zipcode": "26510-330"
    },
    {
        "city": "Nilópolis",
        "state": "RJ",
        "district": "Cabral",
        "street": "Rua Vereador José da Costa Gomes",
        "zipcode": "26515-038"
    },
    {
        "city": "Nilópolis",
        "state": "RJ",
        "district": "Centro",
        "street": "Travessa Francelina",
        "zipcode": "26510-686"
    },
    {
        "city": "Nilópolis",
        "state": "RJ",
        "district": "Cabral",
        "street": "Travessa Dona Generosa",
        "zipcode": "26515-063"
    },
    {
        "city": "Nilópolis",
        "state": "RJ",
        "district": "Centro",
        "street": "Travessa Júlia Fernandes Missen",
        "zipcode": "26510-061"
    },
    {
        "city": "Nilópolis",
        "state": "RJ",
        "district": "Olinda",
        "street": "Travessa Nilton Mários Rabelo",
        "zipcode": "26510-101"
    },
    {
        "city": "Nilópolis",
        "state": "RJ",
        "district": "Cabral",
        "street": "Travessa Raimundo Martins Pereira",
        "zipcode": "26515-039"
    },
    {
        "city": "Nilópolis",
        "state": "RJ",
        "district": "Olinda",
        "street": "Rua Pracinha Wallace Paes Leme",
        "zipcode": "26510-043"
    },
    {
        "city": "Nilópolis",
        "state": "RJ",
        "district": "Cabral",
        "street": "Rua Augusto Berberick",
        "zipcode": "26510-430"
    },
    {
        "city": "Nilópolis",
        "state": "RJ",
        "district": "Nova Cidade",
        "street": "Travessa Hélio Santana",
        "zipcode": "26535-357"
    },
    {
        "city": "Nilópolis",
        "state": "RJ",
        "district": "Centro",
        "street": "Rua Nadir Trindade",
        "zipcode": "26535-490"
    },
    {
        "city": "Nilópolis",
        "state": "RJ",
        "district": "Nova Cidade",
        "street": "Rua Guiomar Braga de Mello",
        "zipcode": "26535-550"
    },
    {
        "city": "Nilópolis",
        "state": "RJ",
        "district": "Cabuis",
        "street": "Rua Maestro Djalma do Carmo",
        "zipcode": "26540-124"
    },
    {
        "city": "Nilópolis",
        "state": "RJ",
        "district": "Cabuis",
        "street": "Travessa Célia Cunha",
        "zipcode": "26540-348"
    },
    {
        "city": "Nilópolis",
        "state": "RJ",
        "district": "Olinda",
        "street": "Rua Celuta Pereira Soares",
        "zipcode": "26540-370"
    },
    {
        "city": "Nilópolis",
        "state": "RJ",
        "district": "Cabuis",
        "street": "Travessa José Borges de Araújo",
        "zipcode": "26540-414"
    },
    {
        "city": "Nilópolis",
        "state": "RJ",
        "district": "Centro",
        "street": "Estrada Expedicionários",
        "zipcode": "26540-022"
    },
    {
        "city": "Nilópolis",
        "state": "RJ",
        "district": "Cabuis",
        "street": "Estrada Deputado Andrade Figueira",
        "zipcode": "26545-192"
    },
    {
        "city": "Nilópolis",
        "state": "RJ",
        "district": "Centro",
        "street": "Travessa Luiz Alves de Franca",
        "zipcode": "26525-036"
    },
    {
        "city": "Nilópolis",
        "state": "RJ",
        "district": "Centro",
        "street": "Travessa Joaquina Constãncia de Araújo (Nilópolis)",
        "zipcode": "26525-110"
    },
    {
        "city": "Nilópolis",
        "state": "RJ",
        "district": "Olinda",
        "street": "Rua Angelina Pedreira Lima",
        "zipcode": "26515-400"
    },
    {
        "city": "Nilópolis",
        "state": "RJ",
        "district": "Centro",
        "street": "Rua Antônio Félix",
        "zipcode": "26520-081"
    },
    {
        "city": "Nilópolis",
        "state": "RJ",
        "district": "Nossa Senhora de Fátima",
        "street": "Estrada Marechal Castelo Branco",
        "zipcode": "26521-116"
    },
    {
        "city": "Nilópolis",
        "state": "RJ",
        "district": "Centro",
        "street": "Avenida Getúlio de Moura",
        "zipcode": "26525-001"
    },
    {
        "city": "Nilópolis",
        "state": "RJ",
        "district": "Centro",
        "street": "Rua Fortaleza",
        "zipcode": "26520-200"
    },
    {
        "city": "Nilópolis",
        "state": "RJ",
        "district": "Nossa Senhora de Fátima",
        "street": "Rua Antônio Félix",
        "zipcode": "26520-631"
    },
    {
        "city": "Nilópolis",
        "state": "RJ",
        "district": "Centro",
        "street": "Rua Albino da Cruz Durão",
        "zipcode": "26525-340"
    },
    {
        "city": "Nilópolis",
        "state": "RJ",
        "district": "Centro",
        "street": "Rua Regina Teresa",
        "zipcode": "26515-340"
    },
    {
        "city": "Nilópolis",
        "state": "RJ",
        "district": "Centro",
        "street": "Rua Maria Batista de Sousa",
        "zipcode": "26515-406"
    },
    {
        "city": "Nilópolis",
        "state": "RJ",
        "district": "Centro",
        "street": "Rua José do Patrocínio",
        "zipcode": "26520-320"
    },
    {
        "city": "Nilópolis",
        "state": "RJ",
        "district": "Nossa Senhora de Fátima",
        "street": "Rua Professora Lúcia Maria Mancebo",
        "zipcode": "26520-790"
    },
    {
        "city": "Nilópolis",
        "state": "RJ",
        "district": "Nossa Senhora de Fátima",
        "street": "Rua Maria Rosa de Oliveira",
        "zipcode": "26521-470"
    },
    {
        "city": "Nilópolis",
        "state": "RJ",
        "district": "Nossa Senhora de Fátima",
        "street": "Rua Gabriel Marques",
        "zipcode": "26525-590"
    },
    {
        "city": "Nilópolis",
        "state": "RJ",
        "district": "Nossa Senhora de Fátima",
        "street": "Rua Roldão Gonçalves",
        "zipcode": "26520-541"
    },
    {
        "city": "Nilópolis",
        "state": "RJ",
        "district": "Nossa Senhora de Fátima",
        "street": "Rua Roldão Gonçalves",
        "zipcode": "26520-542"
    },
    {
        "city": "Nilópolis",
        "state": "RJ",
        "district": "Nossa Senhora de Fátima",
        "street": "Rua Tobias Guimarães Pacheco",
        "zipcode": "26521-118"
    },
    {
        "city": "Nilópolis",
        "state": "RJ",
        "district": "Nossa Senhora de Fátima",
        "street": "Travessa Alfredo Paes",
        "zipcode": "26521-135"
    },
    {
        "city": "Nilópolis",
        "state": "RJ",
        "district": "Centro",
        "street": "Rua Professor Cláudio G. Araújo",
        "zipcode": "26521-610"
    },
    {
        "city": "Nilópolis",
        "state": "RJ",
        "district": "Centro",
        "street": "Rua Pracinha Wallace Paes Leme",
        "zipcode": "26525-032"
    },
    {
        "city": "Nilópolis",
        "state": "RJ",
        "district": "Centro",
        "street": "Rua Nicolina Ambrozina Ribeiro",
        "zipcode": "26526-090"
    },
    {
        "city": "Nilópolis",
        "state": "RJ",
        "district": "Cabral",
        "street": "Travessa Guiomar Teixeira Coelho",
        "zipcode": "26515-350"
    },
    {
        "city": "Nilópolis",
        "state": "RJ",
        "district": "Centro",
        "street": "Travessa Norval Borges de Araújo",
        "zipcode": "26520-532"
    },
    {
        "city": "Nilópolis",
        "state": "RJ",
        "district": "Nossa Senhora de Fátima",
        "street": "Travessa Marques Canário",
        "zipcode": "26521-340"
    },
    {
        "city": "Nilópolis",
        "state": "RJ",
        "district": "Centro",
        "street": "Travessa Edina",
        "zipcode": "26521-430"
    },
    {
        "city": "Nilópolis",
        "state": "RJ",
        "district": "Centro",
        "street": "Travessa Lourival Palha de Castro",
        "zipcode": "26525-016"
    },
    {
        "city": "Nilópolis",
        "state": "RJ",
        "district": "Centro",
        "street": "Travessa Carminda Oliveira de Souza",
        "zipcode": "26525-103"
    },
    {
        "city": "Nilópolis",
        "state": "RJ",
        "district": "Nossa Senhora de Fátima",
        "street": "Travessa Sérgio Alcântara Miranda",
        "zipcode": "26520-633"
    },
    {
        "city": "Nilópolis",
        "state": "RJ",
        "district": "Nossa Senhora de Fátima",
        "street": "Travessa Professor Euclides Joaquim Passos",
        "zipcode": "26521-147"
    },
    {
        "city": "Nilópolis",
        "state": "RJ",
        "district": "Centro",
        "street": "Travessa Feliciano Peres",
        "zipcode": "26525-038"
    },
    {
        "city": "Nilópolis",
        "state": "RJ",
        "district": "Centro",
        "street": "Travessa Anjos de Souza",
        "zipcode": "26525-425"
    },
    {
        "city": "Nilópolis",
        "state": "RJ",
        "district": "Centro",
        "street": "Travessa Professora Erlinda Soares da Silva",
        "zipcode": "26525-494"
    },
    {
        "city": "Nilópolis",
        "state": "RJ",
        "district": "Centro",
        "street": "Travessa José Madeira",
        "zipcode": "26525-830"
    },
    {
        "city": "Nilópolis",
        "state": "RJ",
        "district": "Nova Cidade",
        "street": "Rua São Mateus",
        "zipcode": "26530-230"
    },
    {
        "city": "Nilópolis",
        "state": "RJ",
        "district": "Nova Cidade",
        "street": "Travessa Francisco Medeiro da Silva",
        "zipcode": "26535-005"
    },
    {
        "city": "Nilópolis",
        "state": "RJ",
        "district": "Centro",
        "street": "Estrada Doutor Manuel Reis",
        "zipcode": "26515-402"
    },
    {
        "city": "Nilópolis",
        "state": "RJ",
        "district": "Centro",
        "street": "Rua Natividade",
        "zipcode": "26535-352"
    },
    {
        "city": "Nilópolis",
        "state": "RJ",
        "district": "Nova Cidade",
        "street": "Rua Marta Pedro Gonçalves",
        "zipcode": "26535-680"
    },
    {
        "city": "Nilópolis",
        "state": "RJ",
        "district": "Nova Cidade",
        "street": "Praça Beija",
        "zipcode": "26535-125"
    },
    {
        "city": "Nilópolis",
        "state": "RJ",
        "district": "Olinda",
        "street": "Travessa Nossa Senhora da Conceição",
        "zipcode": "26545-140"
    },
    {
        "city": "Nilópolis",
        "state": "RJ",
        "district": "Centro",
        "street": "Rua Olga Hermont",
        "zipcode": "26545-210"
    },
    {
        "city": "Nilópolis",
        "state": "RJ",
        "district": "Paiol de Pólvora",
        "street": "Travessa Domingos Marques Sá",
        "zipcode": "26545-237"
    },
    {
        "city": "Nilópolis",
        "state": "RJ",
        "district": "Olinda",
        "street": "Travessa Reinaldo Furtado",
        "zipcode": "26545-242"
    },
    {
        "city": "Nilópolis",
        "state": "RJ",
        "district": "Olinda",
        "street": "Rua Olivier Augusto de Oliveira",
        "zipcode": "26545-270"
    },
    {
        "city": "Nilópolis",
        "state": "RJ",
        "district": "Cabuis",
        "street": "Rua Júlio Berkowitz",
        "zipcode": "26545-441"
    },
    {
        "city": "Nilópolis",
        "state": "RJ",
        "district": "Paiol de Pólvora",
        "street": "Rua Antônio Macedo da Costa",
        "zipcode": "26545-390"
    },
    {
        "city": "Nilópolis",
        "state": "RJ",
        "district": "Centro",
        "street": "Travessa Antônio Augusto Paisano",
        "zipcode": "26525-553"
    },
    {
        "city": "Nilópolis",
        "state": "RJ",
        "district": "Cabral",
        "street": "Beco Otacílio",
        "zipcode": "26515-232"
    },
    {
        "city": "Nilópolis",
        "state": "RJ",
        "district": "Cabral",
        "street": "Travessa João Galdino da Silva",
        "zipcode": "26515-060"
    },
    {
        "city": "Nilópolis",
        "state": "RJ",
        "district": "Nossa Senhora de Fátima",
        "street": "Rua Leticia Tavares",
        "zipcode": "26521-240"
    },
    {
        "city": "Nilópolis",
        "state": "RJ",
        "district": "Paiol de Pólvora",
        "street": "Travessa Arlindo Brandão",
        "zipcode": "26545-458"
    },
    {
        "city": "Nilópolis",
        "state": "RJ",
        "district": "Cabuis",
        "street": "Beco Albino Pedrosa de Oliveira",
        "zipcode": "26545-640"
    },
    {
        "city": "Nilópolis",
        "state": "RJ",
        "district": "Nossa Senhora de Fátima",
        "street": "Travessa Sírio Valadão",
        "zipcode": "26521-451"
    },
    {
        "city": "Nilópolis",
        "state": "RJ",
        "district": "Centro",
        "street": "Vila Sarmieri",
        "zipcode": "26525-750"
    },
    {
        "city": "Nilópolis",
        "state": "RJ",
        "district": "Centro",
        "street": "Rua Antônio João Mendonça",
        "zipcode": "26515-591"
    },
    {
        "city": "Nilópolis",
        "state": "RJ",
        "district": "Centro",
        "street": "Beco Augusto Correia Pereira",
        "zipcode": "26515-475"
    },
    {
        "city": "Nilópolis",
        "state": "RJ",
        "district": "Nossa Senhora de Fátima",
        "street": "Rua Bispo Floriano",
        "zipcode": "26520-002"
    },
    {
        "city": "Nilópolis",
        "state": "RJ",
        "district": "Nossa Senhora de Fátima",
        "street": "Travessa Herculano Aranda",
        "zipcode": "26515-670"
    },
    {
        "city": "Nilópolis",
        "state": "RJ",
        "district": "Olinda",
        "street": "Rua José Martins Ribeiro",
        "zipcode": "26515-490"
    },
    {
        "city": "Nilópolis",
        "state": "RJ",
        "district": "Olinda",
        "street": "Praça Lázaro de Almeida",
        "zipcode": "26545-775"
    },
    {
        "city": "Nilópolis",
        "state": "RJ",
        "district": "Olinda",
        "street": "Rua Luís Fernandes Silverol",
        "zipcode": "26515-730"
    },
    {
        "city": "Nilópolis",
        "state": "RJ",
        "district": "Nossa Senhora de Fátima",
        "street": "Rua Luís Galvão",
        "zipcode": "26520-005"
    },
    {
        "city": "Nilópolis",
        "state": "RJ",
        "district": "Centro",
        "street": "Avenida Carmela Dutra",
        "zipcode": "26530-970"
    },
    {
        "city": "Nilópolis",
        "state": "RJ",
        "district": "Nova Cidade",
        "street": "Rua Castro Alves",
        "zipcode": "26535-030"
    },
    {
        "city": "Nilópolis",
        "state": "RJ",
        "district": "Nova Cidade",
        "street": "Travessa Albertino Dias Macedo",
        "zipcode": "26535-045"
    },
    {
        "city": "Nilópolis",
        "state": "RJ",
        "district": "Nova Cidade",
        "street": "Rua Antônio Ribeiro Guimarães",
        "zipcode": "26535-060"
    },
    {
        "city": "Nilópolis",
        "state": "RJ",
        "district": "Centro",
        "street": "Rua Américo Diamantino Lópes",
        "zipcode": "26535-160"
    },
    {
        "city": "Nilópolis",
        "state": "RJ",
        "district": "Centro",
        "street": "Rua José Tertuliano de Almeida",
        "zipcode": "26535-240"
    },
    {
        "city": "Nilópolis",
        "state": "RJ",
        "district": "Nova Cidade",
        "street": "Rua Maria da Glória Balthar",
        "zipcode": "26535-290"
    },
    {
        "city": "Nilópolis",
        "state": "RJ",
        "district": "Centro",
        "street": "Travessa Natividade",
        "zipcode": "26535-348"
    },
    {
        "city": "Nilópolis",
        "state": "RJ",
        "district": "Centro",
        "street": "Travessa Sargento Guedes de Moura",
        "zipcode": "26520-600"
    },
    {
        "city": "Nilópolis",
        "state": "RJ",
        "district": "Centro",
        "street": "Rua Antonio Pereira de Carvalho",
        "zipcode": "26540-000"
    },
    {
        "city": "Nilópolis",
        "state": "RJ",
        "district": "Nova Cidade",
        "street": "Rua Ascendino Augusto Barbosa",
        "zipcode": "26535-360"
    },
    {
        "city": "Nilópolis",
        "state": "RJ",
        "district": "Nova Cidade",
        "street": "Rua Antônio Rodrigues de Oliveira",
        "zipcode": "26535-440"
    },
    {
        "city": "Nilópolis",
        "state": "RJ",
        "district": "Centro",
        "street": "Travessa João da Mata Peixoto",
        "zipcode": "26535-530"
    },
    {
        "city": "Nilópolis",
        "state": "RJ",
        "district": "Centro",
        "street": "Rua Antonio Pereira de Carvalho",
        "zipcode": "26540-001"
    },
    {
        "city": "Nilópolis",
        "state": "RJ",
        "district": "Cabuis",
        "street": "Rua Antonio Pereira de Carvalho",
        "zipcode": "26540-005"
    },
    {
        "city": "Nilópolis",
        "state": "RJ",
        "district": "Cabuis",
        "street": "Travessa Silvino Luís de Oliveira",
        "zipcode": "26540-017"
    },
    {
        "city": "Nilópolis",
        "state": "RJ",
        "district": "Centro",
        "street": "Travessa Jaques Sarmento",
        "zipcode": "26540-200"
    },
    {
        "city": "Nilópolis",
        "state": "RJ",
        "district": "Cabuis",
        "street": "Travessa Hélio Muller",
        "zipcode": "26540-327"
    },
    {
        "city": "Nilópolis",
        "state": "RJ",
        "district": "Cabuis",
        "street": "Travessa Guilherme Vieira Dias",
        "zipcode": "26540-332"
    },
    {
        "city": "Nilópolis",
        "state": "RJ",
        "district": "Cabuis",
        "street": "Rua Carlos Alves de Oliveira",
        "zipcode": "26540-450"
    },
    {
        "city": "Nilópolis",
        "state": "RJ",
        "district": "Centro",
        "street": "Rua Esportista Caxicho Jorge dos Santos",
        "zipcode": "26515-110"
    },
    {
        "city": "Nilópolis",
        "state": "RJ",
        "district": "Centro",
        "street": "Estrada João Evangelista de Carvalho",
        "zipcode": "26520-500"
    },
    {
        "city": "Nilópolis",
        "state": "RJ",
        "district": "Centro",
        "street": "Estrada Eliseu de Alvarenga",
        "zipcode": "26525-101"
    },
    {
        "city": "Nilópolis",
        "state": "RJ",
        "district": "Paiol de Pólvora",
        "street": "Rua Cândida",
        "zipcode": "26545-150"
    },
    {
        "city": "Nilópolis",
        "state": "RJ",
        "district": "Centro",
        "street": "Rua Pracinha Wallace Paes Leme",
        "zipcode": "26525-045"
    },
    {
        "city": "Nilópolis",
        "state": "RJ",
        "district": "Olinda",
        "street": "Estrada Eliseu de Alvarenga",
        "zipcode": "26510-361"
    },
    {
        "city": "Nilópolis",
        "state": "RJ",
        "district": "Centro",
        "street": "Avenida Getúlio Vargas",
        "zipcode": "26525-022"
    },
    {
        "city": "Nilópolis",
        "state": "RJ",
        "district": "Nossa Senhora de Fátima",
        "street": "Rua Frederico Pereira Gauz",
        "zipcode": "26521-460"
    },
    {
        "city": "Nilópolis",
        "state": "RJ",
        "district": "Nossa Senhora de Fátima",
        "street": "Rua Ernesto Cardoso",
        "zipcode": "26521-456"
    },
    {
        "city": "Nilópolis",
        "state": "RJ",
        "district": "Centro",
        "street": "Rua Pracinha Wallace Paes Leme",
        "zipcode": "26525-046"
    },
    {
        "city": "Nilópolis",
        "state": "RJ",
        "district": "Centro",
        "street": "Travessa Vitória Pires Gomes",
        "zipcode": "26510-616"
    },
    {
        "city": "Nilópolis",
        "state": "RJ",
        "district": "Olinda",
        "street": "Travessa Luiz Martins do Amaral",
        "zipcode": "26515-034"
    },
    {
        "city": "Nilópolis",
        "state": "RJ",
        "district": "Nossa Senhora de Fátima",
        "street": "Travessa Sônia Cristina Cruz de Carvalho",
        "zipcode": "26520-030"
    },
    {
        "city": "Nilópolis",
        "state": "RJ",
        "district": "Nova Cidade",
        "street": "Estrada Antônio José Bittencourt",
        "zipcode": "26535-004"
    },
    {
        "city": "Nilópolis",
        "state": "RJ",
        "district": "Nossa Senhora de Fátima",
        "street": "Travessa Teodorico Mesquita dos Santos",
        "zipcode": "26521-073"
    },
    {
        "city": "Nilópolis",
        "state": "RJ",
        "district": "Nossa Senhora de Fátima",
        "street": "Estrada Marechal Castelo Branco",
        "zipcode": "26521-115"
    },
    {
        "city": "Nilópolis",
        "state": "RJ",
        "district": "Cabral",
        "street": "Rua João Rodrigues da Cunha",
        "zipcode": "26510-048"
    },
    {
        "city": "Nilópolis",
        "state": "RJ",
        "district": "Olinda",
        "street": "Travessa Edílson Santana",
        "zipcode": "26525-033"
    }
]