[
    {
        "city": "Quatis",
        "state": "RJ",
        "district": "Quatis",
        "street": "Rua Dr Teixeira Brandao",
        "zipcode": "27425-000"
    },
    {
        "city": "Quatis",
        "state": "RJ",
        "district": "Pilotos",
        "street": "Rua Guilhermina Alves de Lacarda",
        "zipcode": "27420-245"
    },
    {
        "city": "Quatis",
        "state": "RJ",
        "district": "Pilotos",
        "street": "Rua Abrahão Ribeiro Filho",
        "zipcode": "27420-243"
    },
    {
        "city": "Quatis",
        "state": "RJ",
        "district": "Quatis",
        "street": "Rua Vanderlino Teixeira",
        "zipcode": "27425-060"
    },
    {
        "city": "Quatis",
        "state": "RJ",
        "district": "Vila Santo Antônio",
        "street": "Rua José Germano de Almeida",
        "zipcode": "27430-195"
    },
    {
        "city": "Quatis",
        "state": "RJ",
        "district": "Ribeirão de São Joaquim",
        "street": "Praça Major Carlos de Oliveira Campbell",
        "zipcode": "27450-070"
    },
    {
        "city": "Quatis",
        "state": "RJ",
        "district": "Quatis",
        "street": "Rua Umbelina Vicenzio",
        "zipcode": "27425-040"
    },
    {
        "city": "Quatis",
        "state": "RJ",
        "district": "Quatis",
        "street": "Rua Monsenhor Roque",
        "zipcode": "27415-090"
    },
    {
        "city": "Quatis",
        "state": "RJ",
        "district": "Jardim Polastri",
        "street": "Rua Eleusina Marcondes Carvalho",
        "zipcode": "27420-090"
    },
    {
        "city": "Quatis",
        "state": "RJ",
        "district": "São Benedito",
        "street": "Rua Oito",
        "zipcode": "27430-160"
    },
    {
        "city": "Quatis",
        "state": "RJ",
        "district": "Loteamento Bondarovshy",
        "street": "Rua Humberto Amaral",
        "zipcode": "27410-380"
    },
    {
        "city": "Quatis",
        "state": "RJ",
        "district": "Mirandópolis",
        "street": "Rua Salvador Barbosa Lima",
        "zipcode": "27420-150"
    },
    {
        "city": "Quatis",
        "state": "RJ",
        "district": "Bela Vista",
        "street": "Rua Bela Vista",
        "zipcode": "27430-340"
    },
    {
        "city": "Quatis",
        "state": "RJ",
        "district": "Centro",
        "street": "Estrada Major José Isidro",
        "zipcode": "27420-230"
    },
    {
        "city": "Quatis",
        "state": "RJ",
        "district": "Centro",
        "street": "Rua Coronel Alfredo Soares de Oliveira",
        "zipcode": "27410-030"
    },
    {
        "city": "Quatis",
        "state": "RJ",
        "district": "Centro",
        "street": "Rua Coronel José Leite",
        "zipcode": "27410-050"
    },
    {
        "city": "Quatis",
        "state": "RJ",
        "district": "Quatis",
        "street": "Rua Dona Cirene",
        "zipcode": "27410-000"
    },
    {
        "city": "Quatis",
        "state": "RJ",
        "district": "Centro",
        "street": "Praça Doutor Teixeira Brandão",
        "zipcode": "27410-190"
    },
    {
        "city": "Quatis",
        "state": "RJ",
        "district": "Centro",
        "street": "Travessa Duduca",
        "zipcode": "27410-120"
    },
    {
        "city": "Quatis",
        "state": "RJ",
        "district": "Centro",
        "street": "Praça Expedicionário",
        "zipcode": "27410-060"
    },
    {
        "city": "Quatis",
        "state": "RJ",
        "district": "Quatis",
        "street": "Rua José Inácio",
        "zipcode": "27420-250"
    },
    {
        "city": "Quatis",
        "state": "RJ",
        "district": "Quatis",
        "street": "Rua Dos Mineiros",
        "zipcode": "27415-070"
    },
    {
        "city": "Quatis",
        "state": "RJ",
        "district": "Centro",
        "street": "Rua Getúlio Vargas",
        "zipcode": "27410-200"
    },
    {
        "city": "Quatis",
        "state": "RJ",
        "district": "Centro",
        "street": "Avenida Nossa Senhora do Rosário",
        "zipcode": "27410-140"
    },
    {
        "city": "Quatis",
        "state": "RJ",
        "district": "Centro",
        "street": "Rua Coronel Francisco Balbi",
        "zipcode": "27410-080"
    },
    {
        "city": "Quatis",
        "state": "RJ",
        "district": "Centro",
        "street": "Rua Professor Pessoa de Barros",
        "zipcode": "27410-040"
    },
    {
        "city": "Quatis",
        "state": "RJ",
        "district": "Centro",
        "street": "Rua Comendador Miranda",
        "zipcode": "27410-100"
    },
    {
        "city": "Quatis",
        "state": "RJ",
        "district": "Falcão",
        "street": "Praça do Centenário",
        "zipcode": "27440-130"
    },
    {
        "city": "Quatis",
        "state": "RJ",
        "district": "Mirandópolis",
        "street": "Rua Alfredo Sampaio",
        "zipcode": "27420-140"
    },
    {
        "city": "Quatis",
        "state": "RJ",
        "district": "São Benedito",
        "street": "Rua Alfem Ferreira de Oliveira",
        "zipcode": "27430-060"
    },
    {
        "city": "Quatis",
        "state": "RJ",
        "district": "Falcão",
        "street": "Rua Alves Mentor",
        "zipcode": "27440-040"
    },
    {
        "city": "Quatis",
        "state": "RJ",
        "district": "Falcão",
        "street": "Rua Antenor Martins",
        "zipcode": "27440-050"
    },
    {
        "city": "Quatis",
        "state": "RJ",
        "district": "Loteamento Bondarovshy",
        "street": "Rua Avelino Batista Soares",
        "zipcode": "27410-180"
    },
    {
        "city": "Quatis",
        "state": "RJ",
        "district": "Jardim Independência",
        "street": "Rua C",
        "zipcode": "27430-250"
    },
    {
        "city": "Quatis",
        "state": "RJ",
        "district": "Mirandópolis",
        "street": "Rua Capitão Alvim Fonseca",
        "zipcode": "27420-190"
    },
    {
        "city": "Quatis",
        "state": "RJ",
        "district": "Pilotos",
        "street": "Rua Carlos Inácio da Silva",
        "zipcode": "27420-240"
    },
    {
        "city": "Quatis",
        "state": "RJ",
        "district": "Jardim Independência",
        "street": "Rua Antonio Francisco de Lima",
        "zipcode": "27430-420"
    },
    {
        "city": "Quatis",
        "state": "RJ",
        "district": "Pilotos",
        "street": "Rua Manoel Lavínio de Castro",
        "zipcode": "27420-260"
    },
    {
        "city": "Quatis",
        "state": "RJ",
        "district": "Pilotos",
        "street": "Rua Frezolina de Oliveira Barros",
        "zipcode": "27420-280"
    },
    {
        "city": "Quatis",
        "state": "RJ",
        "district": "Jardim Polastri",
        "street": "Rua Guiomar Marcondes Oliveira",
        "zipcode": "27420-020"
    },
    {
        "city": "Quatis",
        "state": "RJ",
        "district": "Loteamento Bondarovshy",
        "street": "Rua Herman José da Fonseca",
        "zipcode": "27410-220"
    },
    {
        "city": "Quatis",
        "state": "RJ",
        "district": "Loteamento Bondarovshy",
        "street": "Rua Jaime Caetano de Oliveira",
        "zipcode": "27410-290"
    },
    {
        "city": "Quatis",
        "state": "RJ",
        "district": "São Benedito",
        "street": "Rua João Chiesse Filho",
        "zipcode": "27430-050"
    },
    {
        "city": "Quatis",
        "state": "RJ",
        "district": "Centro",
        "street": "Travessa João de Melo Faria",
        "zipcode": "27410-230"
    },
    {
        "city": "Quatis",
        "state": "RJ",
        "district": "Loteamento Bondarovshy",
        "street": "Rua José Bento dos Prazeres",
        "zipcode": "27410-360"
    },
    {
        "city": "Quatis",
        "state": "RJ",
        "district": "Vila Santo Antônio",
        "street": "Rua Armando Henrique Vieira",
        "zipcode": "27430-190"
    },
    {
        "city": "Quatis",
        "state": "RJ",
        "district": "Centro",
        "street": "Rua Faustino Pinheiro",
        "zipcode": "27410-130"
    },
    {
        "city": "Quatis",
        "state": "RJ",
        "district": "Jardim Independência",
        "street": "Rua I",
        "zipcode": "27430-300"
    },
    {
        "city": "Quatis",
        "state": "RJ",
        "district": "Falcão",
        "street": "Rua José Maria",
        "zipcode": "27440-020"
    },
    {
        "city": "Quatis",
        "state": "RJ",
        "district": "Loteamento Bondarovshy",
        "street": "Rua José Roberto de Mello Faria",
        "zipcode": "27410-240"
    },
    {
        "city": "Quatis",
        "state": "RJ",
        "district": "Barrinha",
        "street": "Rua Julieta",
        "zipcode": "27420-290"
    },
    {
        "city": "Quatis",
        "state": "RJ",
        "district": "Mirandópolis",
        "street": "Rua Luiz Nóbrega Soares",
        "zipcode": "27420-160"
    },
    {
        "city": "Quatis",
        "state": "RJ",
        "district": "Falcão",
        "street": "Rua Major Carvalho",
        "zipcode": "27440-010"
    },
    {
        "city": "Quatis",
        "state": "RJ",
        "district": "Loteamento Bondarovshy",
        "street": "Rua Maria Feliciana da Fonseca Duque",
        "zipcode": "27410-250"
    },
    {
        "city": "Quatis",
        "state": "RJ",
        "district": "Centro",
        "street": "Rua Monsenhor Roque",
        "zipcode": "27410-150"
    },
    {
        "city": "Quatis",
        "state": "RJ",
        "district": "São Benedito",
        "street": "Rua Padre Crush",
        "zipcode": "27430-070"
    },
    {
        "city": "Quatis",
        "state": "RJ",
        "district": "Jardim Independência",
        "street": "Rua Benedito Nunes de Paula",
        "zipcode": "27430-310"
    },
    {
        "city": "Quatis",
        "state": "RJ",
        "district": "Quatis",
        "street": "Rua Prefeito Oscar Teixeira de Mendonça",
        "zipcode": "27410-400"
    },
    {
        "city": "Quatis",
        "state": "RJ",
        "district": "São Benedito",
        "street": "Rua Padre Bueno",
        "zipcode": "27430-100"
    },
    {
        "city": "Quatis",
        "state": "RJ",
        "district": "Mirandópolis",
        "street": "Rua Pedro Monteiro",
        "zipcode": "27420-210"
    },
    {
        "city": "Quatis",
        "state": "RJ",
        "district": "Quatis",
        "street": "Estrada Quatis",
        "zipcode": "27420-300"
    },
    {
        "city": "Quatis",
        "state": "RJ",
        "district": "Vila Santo Antônio",
        "street": "Rua Quatro",
        "zipcode": "27430-430"
    },
    {
        "city": "Quatis",
        "state": "RJ",
        "district": "Jardim Independência",
        "street": "Rua Seis",
        "zipcode": "27430-220"
    },
    {
        "city": "Quatis",
        "state": "RJ",
        "district": "Centro",
        "street": "Travessa Teófilo Xavier",
        "zipcode": "27420-060"
    },
    {
        "city": "Quatis",
        "state": "RJ",
        "district": "Vila Santo Antônio",
        "street": "Rua Três",
        "zipcode": "27430-180"
    },
    {
        "city": "Quatis",
        "state": "RJ",
        "district": "Loteamento Bondarovshy",
        "street": "Rua Vinte",
        "zipcode": "27410-350"
    },
    {
        "city": "Quatis",
        "state": "RJ",
        "district": "Loteamento Bondarovshy",
        "street": "Rua Vinte e Quatro",
        "zipcode": "27410-300"
    },
    {
        "city": "Quatis",
        "state": "RJ",
        "district": "Loteamento Bondarovshy",
        "street": "Rua Vinte e Um",
        "zipcode": "27410-330"
    },
    {
        "city": "Quatis",
        "state": "RJ",
        "district": "São Benedito",
        "street": "Rua Wanderlino Teixeira Leite",
        "zipcode": "27430-010"
    },
    {
        "city": "Quatis",
        "state": "RJ",
        "district": "Quatis",
        "street": "Avenida Roberto Silveira",
        "zipcode": "27410-260"
    },
    {
        "city": "Quatis",
        "state": "RJ",
        "district": "Centro",
        "street": "Praça Santo Antônio",
        "zipcode": "27410-410"
    },
    {
        "city": "Quatis",
        "state": "RJ",
        "district": "Loteamento Bondarovshy",
        "street": "Rua José Souto",
        "zipcode": "27410-210"
    },
    {
        "city": "Quatis",
        "state": "RJ",
        "district": "Jardim Polastri",
        "street": "Rua Major Antônio Carvalho",
        "zipcode": "27420-100"
    },
    {
        "city": "Quatis",
        "state": "RJ",
        "district": "Jardim Independência",
        "street": "Rua Victor Marcondes Sampaio",
        "zipcode": "27430-110"
    },
    {
        "city": "Quatis",
        "state": "RJ",
        "district": "Jardim Polastri",
        "street": "Rua Alcebíades Marins",
        "zipcode": "27420-110"
    },
    {
        "city": "Quatis",
        "state": "RJ",
        "district": "São Francisco de Assis",
        "street": "Rua Cinco",
        "zipcode": "27430-170"
    },
    {
        "city": "Quatis",
        "state": "RJ",
        "district": "Centro",
        "street": "Rua Doutor Carlos Haasis",
        "zipcode": "27420-070"
    },
    {
        "city": "Quatis",
        "state": "RJ",
        "district": "São Francisco de Assis",
        "street": "Travessa A",
        "zipcode": "27430-380"
    },
    {
        "city": "Quatis",
        "state": "RJ",
        "district": "Loteamento Bondarovshy",
        "street": "Rua Professora Ana Ferreira de Oliveira",
        "zipcode": "27410-270"
    },
    {
        "city": "Quatis",
        "state": "RJ",
        "district": "Ribeirão de São Joaquim",
        "street": "Rua Antálcidas de Oliveira Gonçalves",
        "zipcode": "27450-020"
    },
    {
        "city": "Quatis",
        "state": "RJ",
        "district": "Ribeirão de São Joaquim",
        "street": "Rua Antenor José Gonçalves",
        "zipcode": "27450-040"
    },
    {
        "city": "Quatis",
        "state": "RJ",
        "district": "Nossa Senhora do Rosário",
        "street": "Avenida Affonso de Freitas Lustosa",
        "zipcode": "27430-040"
    },
    {
        "city": "Quatis",
        "state": "RJ",
        "district": "Jardim Polastri",
        "street": "Rua Alexandre Polastri",
        "zipcode": "27420-050"
    },
    {
        "city": "Quatis",
        "state": "RJ",
        "district": "Falcão",
        "street": "Travessa Alfredo da Fonseca Machado",
        "zipcode": "27440-030"
    },
    {
        "city": "Quatis",
        "state": "RJ",
        "district": "Falcão",
        "street": "Travessa Benedito Rodrigues",
        "zipcode": "27440-060"
    },
    {
        "city": "Quatis",
        "state": "RJ",
        "district": "Barrinha",
        "street": "Estrada do Castelo",
        "zipcode": "27420-310"
    },
    {
        "city": "Quatis",
        "state": "RJ",
        "district": "Jardim Polastri",
        "street": "Rua Desembargador Acácio Aragão",
        "zipcode": "27420-040"
    },
    {
        "city": "Quatis",
        "state": "RJ",
        "district": "Ribeirão de São Joaquim",
        "street": "Travessa Domingos Vieira",
        "zipcode": "27450-000"
    },
    {
        "city": "Quatis",
        "state": "RJ",
        "district": "Centro",
        "street": "Travessa Dona Ritinha Sampaio",
        "zipcode": "27410-170"
    },
    {
        "city": "Quatis",
        "state": "RJ",
        "district": "Bela Vista",
        "street": "Rua Doze de Abril",
        "zipcode": "27430-350"
    },
    {
        "city": "Quatis",
        "state": "RJ",
        "district": "Mirandópolis",
        "street": "Rua Elonir Nogueira da Silva",
        "zipcode": "27420-130"
    },
    {
        "city": "Quatis",
        "state": "RJ",
        "district": "Mirandópolis",
        "street": "Rua Maria Aparecida Moreira",
        "zipcode": "27420-170"
    },
    {
        "city": "Quatis",
        "state": "RJ",
        "district": "Nossa Senhora do Rosário",
        "street": "Rua Genésio Leite",
        "zipcode": "27430-140"
    },
    {
        "city": "Quatis",
        "state": "RJ",
        "district": "Centro",
        "street": "Rua Joaquim Delgado",
        "zipcode": "27410-090"
    },
    {
        "city": "Quatis",
        "state": "RJ",
        "district": "Ribeirão de São Joaquim",
        "street": "Rua José Antunes de Moura",
        "zipcode": "27450-060"
    },
    {
        "city": "Quatis",
        "state": "RJ",
        "district": "Centro",
        "street": "Rua Faustino Pinheiro",
        "zipcode": "27410-970"
    },
    {
        "city": "Quatis",
        "state": "RJ",
        "district": "Jardim Independência",
        "street": "Rua Aprigio Barbosa Lima",
        "zipcode": "27430-240"
    },
    {
        "city": "Quatis",
        "state": "RJ",
        "district": "Falcão",
        "street": "Praça Francisco de Sousa e Almeida",
        "zipcode": "27440-000"
    },
    {
        "city": "Quatis",
        "state": "RJ",
        "district": "Falcão",
        "street": "Travessa José Ferreira de Barros",
        "zipcode": "27440-090"
    },
    {
        "city": "Quatis",
        "state": "RJ",
        "district": "Centro",
        "street": "Rua Major Eugênio Caetano",
        "zipcode": "27410-010"
    },
    {
        "city": "Quatis",
        "state": "RJ",
        "district": "Ribeirão de São Joaquim",
        "street": "Praça Maria da Cunha Alves",
        "zipcode": "27450-150"
    },
    {
        "city": "Quatis",
        "state": "RJ",
        "district": "São Benedito",
        "street": "Rua Mário José dos Santos",
        "zipcode": "27430-080"
    },
    {
        "city": "Quatis",
        "state": "RJ",
        "district": "Bela Vista",
        "street": "Rua Monsenhor Roque",
        "zipcode": "27430-360"
    },
    {
        "city": "Quatis",
        "state": "RJ",
        "district": "Loteamento Bondarovshy",
        "street": "Rua Olavo de Castro Lobo",
        "zipcode": "27410-280"
    },
    {
        "city": "Quatis",
        "state": "RJ",
        "district": "Ribeirão de São Joaquim",
        "street": "Rua Autheberto Gomes de Oliveira Campbell",
        "zipcode": "27450-030"
    },
    {
        "city": "Quatis",
        "state": "RJ",
        "district": "Ribeirão de São Joaquim",
        "street": "Rua Orlando Ferreira da Costa",
        "zipcode": "27450-080"
    },
    {
        "city": "Quatis",
        "state": "RJ",
        "district": "Quatis",
        "street": "Estrada Quatis",
        "zipcode": "27420-000"
    },
    {
        "city": "Quatis",
        "state": "RJ",
        "district": "Centro",
        "street": "Rua Sebastião Martins Gonçalves",
        "zipcode": "27410-160"
    },
    {
        "city": "Quatis",
        "state": "RJ",
        "district": "Falcão",
        "street": "Travessa Terezinha Carlos de Oliveira Lima",
        "zipcode": "27440-150"
    },
    {
        "city": "Quatis",
        "state": "RJ",
        "district": "Vila Santo Antônio",
        "street": "Rua Um",
        "zipcode": "27430-200"
    },
    {
        "city": "Quatis",
        "state": "RJ",
        "district": "Loteamento Bondarovshy",
        "street": "Rua Umbelina Vicenzio Peixoto",
        "zipcode": "27410-320"
    },
    {
        "city": "Quatis",
        "state": "RJ",
        "district": "Bela Vista",
        "street": "Rua Vinte e Quatro de Agosto",
        "zipcode": "27430-370"
    },
    {
        "city": "Quatis",
        "state": "RJ",
        "district": "Ribeirão de São Joaquim",
        "street": "Rua Prudente Alves de Carvalho",
        "zipcode": "27450-090"
    },
    {
        "city": "Quatis",
        "state": "RJ",
        "district": "Loteamento Bondarovshy",
        "street": "Rua Rute Pessoa Barros Pimenta",
        "zipcode": "27410-370"
    },
    {
        "city": "Quatis",
        "state": "RJ",
        "district": "Falcão",
        "street": "Rua Vereador Reinaldo Fernandes Barcelos",
        "zipcode": "27440-170"
    },
    {
        "city": "Quatis",
        "state": "RJ",
        "district": "Ribeirão de São Joaquim",
        "street": "Rua Tancredo Vieira Alves",
        "zipcode": "27450-110"
    },
    {
        "city": "Quatis",
        "state": "RJ",
        "district": "Jardim Polastri",
        "street": "Rua Isaac Marcondes Sampaio",
        "zipcode": "27420-220"
    },
    {
        "city": "Quatis",
        "state": "RJ",
        "district": "Centro",
        "street": "Rua Major Francisco Franco",
        "zipcode": "27410-020"
    },
    {
        "city": "Quatis",
        "state": "RJ",
        "district": "Alto Paraíso",
        "street": "Rua Iolanda Gonçalves da Cunha",
        "zipcode": "27430-450"
    },
    {
        "city": "Quatis",
        "state": "RJ",
        "district": "São Benedito",
        "street": "Rua Dom José André Coimbra",
        "zipcode": "27430-095"
    },
    {
        "city": "Quatis",
        "state": "RJ",
        "district": "Pilotos",
        "street": "Rua Ary Moreira",
        "zipcode": "27420-270"
    },
    {
        "city": "Quatis",
        "state": "RJ",
        "district": "Loteamento Bondarovshy",
        "street": "Rua Vinte e Dois",
        "zipcode": "27410-340"
    },
    {
        "city": "Quatis",
        "state": "RJ",
        "district": "Barrinha",
        "street": "Rua das Laranjeiras (Res Serra Azul)",
        "zipcode": "27410-267"
    },
    {
        "city": "Quatis",
        "state": "RJ",
        "district": "Barrinha",
        "street": "Estrada dos Bagres",
        "zipcode": "27420-002"
    },
    {
        "city": "Quatis",
        "state": "RJ",
        "district": "Barrinha",
        "street": "Rua da Paz (Res Serra Bela)",
        "zipcode": "27410-268"
    },
    {
        "city": "Quatis",
        "state": "RJ",
        "district": "Ribeirão de São Joaquim",
        "street": "Travessa Albino da Cunha Pedroso",
        "zipcode": "27450-010"
    },
    {
        "city": "Quatis",
        "state": "RJ",
        "district": "Mirandópolis",
        "street": "Rua Capitão Antônio Lobo",
        "zipcode": "27420-200"
    },
    {
        "city": "Quatis",
        "state": "RJ",
        "district": "Jardim Independência",
        "street": "Rua José Antônio da Silva",
        "zipcode": "27430-255"
    },
    {
        "city": "Quatis",
        "state": "RJ",
        "district": "Alto Paraíso",
        "street": "Rua Albino da Cunha Pedrozo",
        "zipcode": "27430-440"
    },
    {
        "city": "Quatis",
        "state": "RJ",
        "district": "Centro",
        "street": "Rua Coronel João Tiburcio",
        "zipcode": "27410-070"
    },
    {
        "city": "Quatis",
        "state": "RJ",
        "district": "Centro",
        "street": "Rua Delfim Froes",
        "zipcode": "27410-110"
    },
    {
        "city": "Quatis",
        "state": "RJ",
        "district": "São Benedito",
        "street": "Rua Dom Agnelo Rossi",
        "zipcode": "27430-090"
    },
    {
        "city": "Quatis",
        "state": "RJ",
        "district": "Jardim Polastri",
        "street": "Praça Doutor Djair Machado Gomes",
        "zipcode": "27420-340"
    },
    {
        "city": "Quatis",
        "state": "RJ",
        "district": "Nossa Senhora do Rosário",
        "street": "Rua Francisco Lopes Faria",
        "zipcode": "27420-350"
    },
    {
        "city": "Quatis",
        "state": "RJ",
        "district": "Jardim Independência",
        "street": "Rua José do Nascimento",
        "zipcode": "27430-280"
    },
    {
        "city": "Quatis",
        "state": "RJ",
        "district": "Loteamento Bondarovshy",
        "street": "Rua General Humberto de Alencar Castelo Bran",
        "zipcode": "27410-390"
    },
    {
        "city": "Quatis",
        "state": "RJ",
        "district": "Jardim Independência",
        "street": "Rua Valdir José",
        "zipcode": "27430-290"
    },
    {
        "city": "Quatis",
        "state": "RJ",
        "district": "Jardim Polastri",
        "street": "Avenida Euclides Alves Guimarães Cotia",
        "zipcode": "27420-080"
    },
    {
        "city": "Quatis",
        "state": "RJ",
        "district": "Nossa Senhora do Rosário",
        "street": "Rua Geraldo Delgado da Silva",
        "zipcode": "27430-330"
    },
    {
        "city": "Quatis",
        "state": "RJ",
        "district": "Jardim Independência",
        "street": "Rua Geraldo Martins Gonçalves",
        "zipcode": "27430-320"
    },
    {
        "city": "Quatis",
        "state": "RJ",
        "district": "Bela Vista",
        "street": "Travessa Manuel Francisco da Costa",
        "zipcode": "27440-110"
    },
    {
        "city": "Quatis",
        "state": "RJ",
        "district": "Nossa Senhora do Rosário",
        "street": "Travessa Vereadora Rosa Idalina Nunes de Macêdo",
        "zipcode": "27430-130"
    },
    {
        "city": "Quatis",
        "state": "RJ",
        "district": "Santa Bárbara",
        "street": "Rua José Idelfonso Pereira",
        "zipcode": "27430-700"
    },
    {
        "city": "Quatis",
        "state": "RJ",
        "district": "Ribeirão de São Joaquim",
        "street": "Rua Autheberto Gomes de Oliveira Campbell",
        "zipcode": "27450-970"
    },
    {
        "city": "Quatis",
        "state": "RJ",
        "district": "Falcão",
        "street": "Rua Major Carvalho",
        "zipcode": "27440-970"
    },
    {
        "city": "Quatis",
        "state": "RJ",
        "district": "Jardim Independência",
        "street": "Rua Maria Madalena Beja",
        "zipcode": "27430-260"
    },
    {
        "city": "Quatis",
        "state": "RJ",
        "district": "Falcão",
        "street": "Rua Nestor Martins",
        "zipcode": "27440-120"
    },
    {
        "city": "Quatis",
        "state": "RJ",
        "district": "Nossa Senhora do Rosário",
        "street": "Avenida Augusto Sverbery",
        "zipcode": "27430-120"
    },
    {
        "city": "Quatis",
        "state": "RJ",
        "district": "Falcão",
        "street": "Praça Idalk Cândido de Paiva",
        "zipcode": "27440-180"
    },
    {
        "city": "Quatis",
        "state": "RJ",
        "district": "Falcão",
        "street": "Rua José de Paula Pacheco",
        "zipcode": "27440-080"
    },
    {
        "city": "Quatis",
        "state": "RJ",
        "district": "Ribeirão de São Joaquim",
        "street": "Rua São Joaquim",
        "zipcode": "27450-130"
    },
    {
        "city": "Quatis",
        "state": "RJ",
        "district": "Ribeirão de São Joaquim",
        "street": "Praça Trasibulo Gomes de Oliveira Campbel",
        "zipcode": "27450-120"
    },
    {
        "city": "Quatis",
        "state": "RJ",
        "district": "Falcão",
        "street": "Rua Vereador Clodoaldo da Rocha Pimentel",
        "zipcode": "27440-160"
    },
    {
        "city": "Quatis",
        "state": "RJ",
        "district": "São Francisco de Assis",
        "street": "Rua Padre José Belloti",
        "zipcode": "27430-030"
    },
    {
        "city": "Quatis",
        "state": "RJ",
        "district": "Falcão",
        "street": "Rua Saint",
        "zipcode": "27440-140"
    },
    {
        "city": "Quatis",
        "state": "RJ",
        "district": "Centro",
        "street": "Rua Joaquim Costa Salgueiro",
        "zipcode": "27420-320"
    },
    {
        "city": "Quatis",
        "state": "RJ",
        "district": "Mirandópolis",
        "street": "Rua Aarão Alves de Souza",
        "zipcode": "27420-120"
    },
    {
        "city": "Quatis",
        "state": "RJ",
        "district": "Jardim Independência",
        "street": "Avenida Georgeth Barbosa Leite",
        "zipcode": "27430-230"
    },
    {
        "city": "Quatis",
        "state": "RJ",
        "district": "Ribeirão de São Joaquim",
        "street": "Praça Nossa Senhora do Rosário",
        "zipcode": "27450-160"
    },
    {
        "city": "Quatis",
        "state": "RJ",
        "district": "Ribeirão de São Joaquim",
        "street": "Rua José Franklin Moreira",
        "zipcode": "27450-140"
    },
    {
        "city": "Quatis",
        "state": "RJ",
        "district": "Falcão",
        "street": "Praça Antônio de Paula Pacheco",
        "zipcode": "27440-070"
    },
    {
        "city": "Quatis",
        "state": "RJ",
        "district": "Nossa Senhora do Rosário",
        "street": "Rua Naldir Laranjeiras Baptista",
        "zipcode": "27430-020"
    },
    {
        "city": "Quatis",
        "state": "RJ",
        "district": "Ribeirão de São Joaquim",
        "street": "Via Stela Meireles de Carvalho",
        "zipcode": "27450-100"
    },
    {
        "city": "Quatis",
        "state": "RJ",
        "district": "Pilotos",
        "street": "Rua Dois (Ac R P Monteiro)",
        "zipcode": "27420-360"
    },
    {
        "city": "Quatis",
        "state": "RJ",
        "district": "Jardim Polastri",
        "street": "Rua da Esperança",
        "zipcode": "27420-025"
    },
    {
        "city": "Quatis",
        "state": "RJ",
        "district": "Barrinha",
        "street": "Rua das Flores (Res Vista Verde)",
        "zipcode": "27410-266"
    },
    {
        "city": "Quatis",
        "state": "RJ",
        "district": "Mirandópolis",
        "street": "Rua Alfredo de Oliveira Júnior",
        "zipcode": "27420-180"
    },
    {
        "city": "Quatis",
        "state": "RJ",
        "district": "Jardim Polastri",
        "street": "Rua Amelia de Carvalho Polastri",
        "zipcode": "27420-010"
    },
    {
        "city": "Quatis",
        "state": "RJ",
        "district": "Jardim Polastri",
        "street": "Rua Antônio Polastri",
        "zipcode": "27420-030"
    },
    {
        "city": "Quatis",
        "state": "RJ",
        "district": "Quatis",
        "street": "Praça Doutor Ferreira de Matos",
        "zipcode": "27420-330"
    },
    {
        "city": "Quatis",
        "state": "RJ",
        "district": "Jardim Independência",
        "street": "Rua Justino Maciel da Costa",
        "zipcode": "27430-325"
    },
    {
        "city": "Quatis",
        "state": "RJ",
        "district": "Mirandópolis",
        "street": "Travessa Myrthon Nogueira de Oliveira",
        "zipcode": "27420-173"
    },
    {
        "city": "Quatis",
        "state": "RJ",
        "district": "Centro",
        "street": "Rua Doutor Jorge Lisbôa",
        "zipcode": "27410-065"
    },
    {
        "city": "Quatis",
        "state": "RJ",
        "district": "Jardim Independência",
        "street": "Rua Antônio Bento Vieira",
        "zipcode": "27430-270"
    },
    {
        "city": "Quatis",
        "state": "RJ",
        "district": "Falcão",
        "street": "Travessa Justo Marcondes",
        "zipcode": "27440-100"
    },
    {
        "city": "Quatis",
        "state": "RJ",
        "district": "Ribeirão de São Joaquim",
        "street": "Rua Artur Leal Nogueira",
        "zipcode": "27450-050"
    },
    {
        "city": "Quatis",
        "state": "RJ",
        "district": "Barrinha",
        "street": "Estrada Quatis",
        "zipcode": "27420-001"
    },
    {
        "city": "Quatis",
        "state": "RJ",
        "district": "Loteamento Bondarovshy",
        "street": "Rua Vinte e Três",
        "zipcode": "27410-310"
    },
    {
        "city": "Quatis",
        "state": "RJ",
        "district": "Alto Paraíso",
        "street": "Rua Genésio Paulo Leite de Almeida",
        "zipcode": "27430-445"
    },
    {
        "city": "Quatis",
        "state": "RJ",
        "district": "Quatis",
        "street": "Rua Joaquim Delgado",
        "zipcode": "27430-150"
    },
    {
        "city": "Quatis",
        "state": "RJ",
        "district": "Santa Bárbara",
        "street": "Rua Lázaro José Alves",
        "zipcode": "27430-710"
    },
    {
        "city": "Quatis",
        "state": "RJ",
        "district": "Vila Santo Antônio",
        "street": "Alameda Vicente Matano",
        "zipcode": "27430-390"
    },
    {
        "city": "Quatis",
        "state": "RJ",
        "district": "Quatis",
        "street": "Rua Wanderlino Teixeira Leite",
        "zipcode": "27425-070"
    },
    {
        "city": "Quatis",
        "state": "RJ",
        "district": "Nossa Senhora do Rosário",
        "street": "Travessa Vereadora Idalina Nunes de Macedo",
        "zipcode": "27430-045"
    },
    {
        "city": "Quatis",
        "state": "RJ",
        "district": "Pilotos",
        "street": "Rua Mauro Barros Teixeira Franco",
        "zipcode": "27420-277"
    },
    {
        "city": "Quatis",
        "state": "RJ",
        "district": "Quatis",
        "street": "Rua Coronel Alfredo Soares De Oliveira",
        "zipcode": "27415-080"
    },
    {
        "city": "Quatis",
        "state": "RJ",
        "district": "Quatis",
        "street": "Rua Esperanto",
        "zipcode": "27425-050"
    },
    {
        "city": "Quatis",
        "state": "RJ",
        "district": "Quatis",
        "street": "Rua Faustino Pinheiro",
        "zipcode": "27425-170"
    },
    {
        "city": "Quatis",
        "state": "RJ",
        "district": "Quatis",
        "street": "Rua Francisco Franco",
        "zipcode": "27425-190"
    },
    {
        "city": "Quatis",
        "state": "RJ",
        "district": "Quatis",
        "street": "Avenida Euclides Cotia",
        "zipcode": "27425-130"
    },
    {
        "city": "Quatis",
        "state": "RJ",
        "district": "Quatis",
        "street": "Rua Coronel Francisco Balbi",
        "zipcode": "27415-130"
    },
    {
        "city": "Quatis",
        "state": "RJ",
        "district": "Quatis",
        "street": "Rua Carlos Inacio Da Silva",
        "zipcode": "27415-040"
    },
    {
        "city": "Quatis",
        "state": "RJ",
        "district": "Quatis",
        "street": "Alameda Vicente Matano",
        "zipcode": "27425-090"
    },
    {
        "city": "Quatis",
        "state": "RJ",
        "district": "Quatis",
        "street": "Rua Luiz Da Rocha Miranda",
        "zipcode": "27415-110"
    },
    {
        "city": "Quatis",
        "state": "RJ",
        "district": "Quatis",
        "street": "Rua Francisco Lopes Faria",
        "zipcode": "27430-000"
    },
    {
        "city": "Quatis",
        "state": "RJ",
        "district": "Quatis",
        "street": "Rua Maria Feliciana Da Fonseca Duque",
        "zipcode": "27415-030"
    },
    {
        "city": "Quatis",
        "state": "RJ",
        "district": "Nossa Senhora Do Rosario",
        "street": "Avenida Omar De Oliveira Barros",
        "zipcode": "27415-170"
    },
    {
        "city": "Quatis",
        "state": "RJ",
        "district": "Quatis",
        "street": "Rua Luiz Nobrega Soares",
        "zipcode": "27415-140"
    },
    {
        "city": "Quatis",
        "state": "RJ",
        "district": "Quatis",
        "street": "Rua Oscar Teixeira De Mendonca",
        "zipcode": "27415-190"
    },
    {
        "city": "Quatis",
        "state": "RJ",
        "district": "Quatis",
        "street": "Rua Maria Madalena Beja",
        "zipcode": "27415-050"
    },
    {
        "city": "Quatis",
        "state": "RJ",
        "district": "Quatis",
        "street": "Rua Victor Marcondes Sampaio",
        "zipcode": "27425-110"
    },
    {
        "city": "Quatis",
        "state": "RJ",
        "district": "Quatis",
        "street": "Praça Castro Alves",
        "zipcode": "27415-060"
    },
    {
        "city": "Quatis",
        "state": "RJ",
        "district": "Quatis",
        "street": "Rua Nossa Senhora Aparecida",
        "zipcode": "27415-150"
    },
    {
        "city": "Quatis",
        "state": "RJ",
        "district": "Quatis",
        "street": "Travessa Duduca",
        "zipcode": "27425-010"
    },
    {
        "city": "Quatis",
        "state": "RJ",
        "district": "Quatis",
        "street": "Rua Coronel Jose Leite",
        "zipcode": "27415-180"
    },
    {
        "city": "Quatis",
        "state": "RJ",
        "district": "Quatis",
        "street": "Rua Ana Ferreira De Oliveira",
        "zipcode": "27415-100"
    },
    {
        "city": "Quatis",
        "state": "RJ",
        "district": "Quatis",
        "street": "Rua Euclides Cotia",
        "zipcode": "27425-140"
    },
    {
        "city": "Quatis",
        "state": "RJ",
        "district": "Quatis",
        "street": "Travessa Teofilo Xavier",
        "zipcode": "27425-020"
    },
    {
        "city": "Quatis",
        "state": "RJ",
        "district": "Quatis",
        "street": "Estrada Euclides Alves Guimaraes Cotia",
        "zipcode": "27425-120"
    },
    {
        "city": "Quatis",
        "state": "RJ",
        "district": "Quatis",
        "street": "Rua Elonir Nogueira Da Silva",
        "zipcode": "27425-030"
    },
    {
        "city": "Quatis",
        "state": "RJ",
        "district": "Quatis",
        "street": "Estrada Euclides Alves Cotia",
        "zipcode": "27425-100"
    },
    {
        "city": "Quatis",
        "state": "RJ",
        "district": "Quatis",
        "street": "Rua Farmaceutico Eloy Barros",
        "zipcode": "27425-160"
    },
    {
        "city": "Quatis",
        "state": "RJ",
        "district": "Quatis",
        "street": "Praça Feliciano Sodre",
        "zipcode": "27425-180"
    },
    {
        "city": "Quatis",
        "state": "RJ",
        "district": "Quatis",
        "street": "Rua Naldir Laranjeiras Baptista",
        "zipcode": "27415-120"
    },
    {
        "city": "Quatis",
        "state": "RJ",
        "district": "Quatis",
        "street": "Rua Capitao Alvim Fonseca",
        "zipcode": "27415-000"
    },
    {
        "city": "Quatis",
        "state": "RJ",
        "district": "Quatis",
        "street": "Rua Coronel Joao Tiburcio",
        "zipcode": "27415-160"
    },
    {
        "city": "Quatis",
        "state": "RJ",
        "district": "Quatis",
        "street": "Rua Jose De Freitas",
        "zipcode": "27430-210"
    },
    {
        "city": "Quatis",
        "state": "RJ",
        "district": "Quatis",
        "street": "Rua Major Jose Isidro",
        "zipcode": "27415-010"
    },
    {
        "city": "Quatis",
        "state": "RJ",
        "district": "Quatis",
        "street": "Rua Da Estacao",
        "zipcode": "27425-080"
    },
    {
        "city": "Quatis",
        "state": "RJ",
        "district": "Quatis",
        "street": "Rua Capitao Antonio Lobo",
        "zipcode": "27415-020"
    },
    {
        "city": "Quatis",
        "state": "RJ",
        "district": "Quatis",
        "street": "Rua Expedicionario",
        "zipcode": "27425-150"
    },
    {
        "city": "Quatis",
        "state": "RJ",
        "district": "Área Rural de Quatis",
        "street": "Área Rural",
        "zipcode": "27459-899"
    }
]