[
    {
        "city": "Sao Goncalo",
        "state": "RJ",
        "district": "Alcantara",
        "street": "Rua Joaquim Viana",
        "zipcode": "24452-300"
    },
    {
        "city": "Sao Goncalo",
        "state": "RJ",
        "district": "Alcantara",
        "street": "Rua Niteroi",
        "zipcode": "24710-060"
    },
    {
        "city": "Sao Goncalo",
        "state": "RJ",
        "district": "Engenho Pequeno",
        "street": "Rua Marechal Pinto Aleixo",
        "zipcode": "24417-420"
    },
    {
        "city": "Sao Goncalo",
        "state": "RJ",
        "district": "Jardim Catarina",
        "street": "Avenida Dr Albino Imparato",
        "zipcode": "24716-455"
    },
    {
        "city": "Sao Goncalo",
        "state": "RJ",
        "district": "Trindade",
        "street": "Rua Araxa",
        "zipcode": "24630-560"
    },
    {
        "city": "Sao Goncalo",
        "state": "RJ",
        "district": "Jardim Catarina",
        "street": "Loteamento Novissimo",
        "zipcode": "24710-008"
    },
    {
        "city": "Sao Goncalo",
        "state": "RJ",
        "district": "Porto Velho",
        "street": "Rua Prof. Maria Amelia Romanazzi",
        "zipcode": "24430-165"
    },
    {
        "city": "Sao Goncalo",
        "state": "RJ",
        "district": "Coelho",
        "street": "Rua Candido Dos Reis",
        "zipcode": "24741-100"
    },
    {
        "city": "Sao Goncalo",
        "state": "RJ",
        "district": "Miriambi",
        "street": "Rua Rio Araguaia",
        "zipcode": "24720-390"
    },
    {
        "city": "Sao Goncalo",
        "state": "RJ",
        "district": "Coelho",
        "street": "Rua Edmundo Da Costa",
        "zipcode": "24730-510"
    },
    {
        "city": "Sao Goncalo",
        "state": "RJ",
        "district": "Colubande",
        "street": "Avenida Marica",
        "zipcode": "24710-007"
    },
    {
        "city": "Sao Goncalo",
        "state": "RJ",
        "district": "Coelho",
        "street": "Rua Joao Antero",
        "zipcode": "24726-345"
    },
    {
        "city": "Sao Goncalo",
        "state": "RJ",
        "district": "Centro",
        "street": "Travessa Miguel Pinto",
        "zipcode": "24420-095"
    },
    {
        "city": "Sao Goncalo",
        "state": "RJ",
        "district": "Galo Branco",
        "street": "Travessa Dr Castro Farias",
        "zipcode": "24421-146"
    },
    {
        "city": "Sao Goncalo",
        "state": "RJ",
        "district": "Santa Catarina",
        "street": "Avenida Santa Catarina",
        "zipcode": "24416-247"
    },
    {
        "city": "Sao Goncalo",
        "state": "RJ",
        "district": "Engenho Pequeno",
        "street": "Rua Dr Genesio De Sa",
        "zipcode": "24417-430"
    },
    {
        "city": "Sao Goncalo",
        "state": "RJ",
        "district": "Galo Branco",
        "street": "Travessa Joao Buffet",
        "zipcode": "24420-090"
    },
    {
        "city": "Sao Goncalo",
        "state": "RJ",
        "district": "Engenho Pequeno",
        "street": "Avenida Aprazivel",
        "zipcode": "24417-470"
    },
    {
        "city": "Sao Goncalo",
        "state": "RJ",
        "district": "Mutondo",
        "street": "Travessa Lauro Correia",
        "zipcode": "24452-185"
    },
    {
        "city": "Sao Goncalo",
        "state": "RJ",
        "district": "Antonina",
        "street": "Rua Alberto Paiva",
        "zipcode": "24630-006"
    },
    {
        "city": "Sao Goncalo",
        "state": "RJ",
        "district": "Jardim Catarina",
        "street": "Rua Cardeal Roncali",
        "zipcode": "24715-270"
    },
    {
        "city": "Sao Goncalo",
        "state": "RJ",
        "district": "Jardim Catarina",
        "street": "Rua Aimores",
        "zipcode": "24715-430"
    },
    {
        "city": "Sao Goncalo",
        "state": "RJ",
        "district": "Jardim Catarina",
        "street": "Rua Caetes",
        "zipcode": "24715-520"
    },
    {
        "city": "Sao Goncalo",
        "state": "RJ",
        "district": "Jardim Catarina",
        "street": "Rua Cariranha",
        "zipcode": "24715-550"
    },
    {
        "city": "Sao Goncalo",
        "state": "RJ",
        "district": "Alcantara",
        "street": "Rua Lindolfo Fernandes",
        "zipcode": "24711-180"
    },
    {
        "city": "Sao Goncalo",
        "state": "RJ",
        "district": "Jardim Catarina",
        "street": "Rua Souza Lopes",
        "zipcode": "24711-235"
    },
    {
        "city": "Sao Goncalo",
        "state": "RJ",
        "district": "Jardim Catarina",
        "street": "Rua Itororo",
        "zipcode": "24715-220"
    },
    {
        "city": "Sao Goncalo",
        "state": "RJ",
        "district": "Jardim Catarina",
        "street": "Rua Duarte Coelho",
        "zipcode": "24715-390"
    },
    {
        "city": "Sao Goncalo",
        "state": "RJ",
        "district": "Jardim Catarina",
        "street": "Rua Madeira De Freitas",
        "zipcode": "24715-410"
    },
    {
        "city": "Sao Goncalo",
        "state": "RJ",
        "district": "Jardim Catarina",
        "street": "Rua Marcos Da Costa",
        "zipcode": "24715-470"
    },
    {
        "city": "Sao Goncalo",
        "state": "RJ",
        "district": "Jardim Catarina",
        "street": "Rua Cristiano Figueiras",
        "zipcode": "24715-480"
    },
    {
        "city": "Sao Goncalo",
        "state": "RJ",
        "district": "Jardim Catarina",
        "street": "Rua Safira",
        "zipcode": "24715-530"
    },
    {
        "city": "Sao Goncalo",
        "state": "RJ",
        "district": "Jardim Catarina",
        "street": "Rua Xavantes",
        "zipcode": "24715-540"
    },
    {
        "city": "Sao Goncalo",
        "state": "RJ",
        "district": "Jardim Catarina",
        "street": "Rua Itacolomi",
        "zipcode": "24715-560"
    },
    {
        "city": "Sao Goncalo",
        "state": "RJ",
        "district": "Jardim Catarina",
        "street": "Rua Itambacuri",
        "zipcode": "24715-590"
    },
    {
        "city": "Sao Goncalo",
        "state": "RJ",
        "district": "Jardim Catarina",
        "street": "Rua Das Esmeraldas",
        "zipcode": "24715-600"
    },
    {
        "city": "Sao Goncalo",
        "state": "RJ",
        "district": "Jardim Catarina",
        "street": "Rua Dos Marfins",
        "zipcode": "24715-620"
    },
    {
        "city": "Sao Goncalo",
        "state": "RJ",
        "district": "Jardim Catarina",
        "street": "Rua Dos Rubis",
        "zipcode": "24715-630"
    },
    {
        "city": "Sao Goncalo",
        "state": "RJ",
        "district": "Jardim Catarina",
        "street": "Rua Ouro Branco",
        "zipcode": "24715-640"
    },
    {
        "city": "Sao Goncalo",
        "state": "RJ",
        "district": "Jardim Catarina",
        "street": "Rua Turquesas",
        "zipcode": "24715-660"
    },
    {
        "city": "Sao Goncalo",
        "state": "RJ",
        "district": "Jardim Catarina",
        "street": "Rua Turmalina",
        "zipcode": "24715-670"
    },
    {
        "city": "Sao Goncalo",
        "state": "RJ",
        "district": "Jardim Catarina",
        "street": "Rua Expedicionario Moises De Oliveira",
        "zipcode": "24716-040"
    },
    {
        "city": "Sao Goncalo",
        "state": "RJ",
        "district": "Jardim Catarina",
        "street": "Rua Expedicionario Alcebiades Sodre",
        "zipcode": "24716-045"
    },
    {
        "city": "Sao Goncalo",
        "state": "RJ",
        "district": "Trindade",
        "street": "Rua Itaocara",
        "zipcode": "24476-675"
    },
    {
        "city": "Sao Goncalo",
        "state": "RJ",
        "district": "Engenho Pequeno",
        "street": "Rua Monsenhor Jose Silveira",
        "zipcode": "24417-390"
    },
    {
        "city": "Sao Goncalo",
        "state": "RJ",
        "district": "Engenho Pequeno",
        "street": "Pra√ßa Maria Vilany",
        "zipcode": "24417-410"
    },
    {
        "city": "Sao Goncalo",
        "state": "RJ",
        "district": "Alcantara",
        "street": "Rua Sao Pedro Alcantara",
        "zipcode": "24452-010"
    },
    {
        "city": "Sao Goncalo",
        "state": "RJ",
        "district": "Boa Vista",
        "street": "Avenida Joaquim De Oliveira",
        "zipcode": "24466-140"
    },
    {
        "city": "Sao Goncalo",
        "state": "RJ",
        "district": "Porto Do Rosa",
        "street": "Rua Expedicionario Manoel Barbosa Da Silva",
        "zipcode": "24470-460"
    },
    {
        "city": "Sao Goncalo",
        "state": "RJ",
        "district": "Sete Pontes",
        "street": "Rua Rangel",
        "zipcode": "24412-150"
    },
    {
        "city": "Sao Goncalo",
        "state": "RJ",
        "district": "Jardim Catarina",
        "street": "Rua Cardeal Alvaro Silva",
        "zipcode": "24715-310"
    },
    {
        "city": "Sao Goncalo",
        "state": "RJ",
        "district": "Engenho Pequeno",
        "street": "Rua Aristarcho Pessoa",
        "zipcode": "24417-360"
    },
    {
        "city": "Sao Goncalo",
        "state": "RJ",
        "district": "Gradim",
        "street": "Travessa Adelia De Amorim Machado",
        "zipcode": "24412-655"
    },
    {
        "city": "Sao Goncalo",
        "state": "RJ",
        "district": "Itauna",
        "street": "Estrada Supucaia",
        "zipcode": "24474-625"
    },
    {
        "city": "Sao Goncalo",
        "state": "RJ",
        "district": "Boa Vista",
        "street": "Avenida Joaquim Oliveira",
        "zipcode": "24465-530"
    },
    {
        "city": "Sao Goncalo",
        "state": "RJ",
        "district": "Itauna",
        "street": "Rua Jose Nilton De Souza",
        "zipcode": "24476-615"
    },
    {
        "city": "Sao Goncalo",
        "state": "RJ",
        "district": "Piao",
        "street": "Travessa Zelia Briggs",
        "zipcode": "24620-000"
    },
    {
        "city": "Sao Goncalo",
        "state": "RJ",
        "district": "Porto Velho",
        "street": "Rua Dr Antonio Pedro",
        "zipcode": "24430-185"
    },
    {
        "city": "Sao Goncalo",
        "state": "RJ",
        "district": "Engenho Pequeno",
        "street": "Rua Maria Bastos",
        "zipcode": "24417-340"
    },
    {
        "city": "Sao Goncalo",
        "state": "RJ",
        "district": "Colubande",
        "street": "Rua Gumercindo Silva",
        "zipcode": "24451-625"
    },
    {
        "city": "Sao Goncalo",
        "state": "RJ",
        "district": "Jardim Catarina",
        "street": "Rua Goncalves Chaves",
        "zipcode": "24715-050"
    },
    {
        "city": "Sao Goncalo",
        "state": "RJ",
        "district": "Engenho Pequeno",
        "street": "Rua Noemia Ramos",
        "zipcode": "24417-400"
    },
    {
        "city": "Sao Goncalo",
        "state": "RJ",
        "district": "Alcantara",
        "street": "Rua Omar Cardoso",
        "zipcode": "24452-280"
    },
    {
        "city": "Sao Goncalo",
        "state": "RJ",
        "district": "Sete Pontes",
        "street": "Travessa Oliveira Martins",
        "zipcode": "24412-190"
    },
    {
        "city": "Sao Goncalo",
        "state": "RJ",
        "district": "Itauna",
        "street": "Rua Penedo",
        "zipcode": "24476-210"
    },
    {
        "city": "Sao Goncalo",
        "state": "RJ",
        "district": "Barreto",
        "street": "Travessa Petronilha Miranda",
        "zipcode": "24410-010"
    },
    {
        "city": "Sao Goncalo",
        "state": "RJ",
        "district": "Alcantara",
        "street": "Rua Concordia",
        "zipcode": "24452-260"
    },
    {
        "city": "Sao Goncalo",
        "state": "RJ",
        "district": "Sete Pontes",
        "street": "Travessa Del Duque",
        "zipcode": "24412-180"
    },
    {
        "city": "Sao Goncalo",
        "state": "RJ",
        "district": "Trindade",
        "street": "Avenida Ponte Seca",
        "zipcode": "24446-000"
    },
    {
        "city": "Sao Goncalo",
        "state": "RJ",
        "district": "Itaoca",
        "street": "Estrada Itaoca",
        "zipcode": "24471-230"
    },
    {
        "city": "Sao Goncalo",
        "state": "RJ",
        "district": "Itaoca",
        "street": "Estrada Das Palmeiras",
        "zipcode": "24473-180"
    },
    {
        "city": "Sao Goncalo",
        "state": "RJ",
        "district": "Alcantara",
        "street": "Rua Silvio Romero",
        "zipcode": "24452-250"
    },
    {
        "city": "Sao Goncalo",
        "state": "RJ",
        "district": "Galo Branco",
        "street": "Rua Dr Castro Farias",
        "zipcode": "24421-147"
    },
    {
        "city": "Sao Goncalo",
        "state": "RJ",
        "district": "Jardim Catarina",
        "street": "Rua Das Aguas Marinhas",
        "zipcode": "24715-320"
    },
    {
        "city": "Sao Goncalo",
        "state": "RJ",
        "district": "Barracao",
        "street": "Rua Padre Pedro C Marchet",
        "zipcode": "24735-000"
    },
    {
        "city": "Sao Goncalo",
        "state": "RJ",
        "district": "Itaoca",
        "street": "Estrada Itaoca",
        "zipcode": "24470-135"
    },
    {
        "city": "Sao Goncalo",
        "state": "RJ",
        "district": "Mutua",
        "street": "Rua Primavera",
        "zipcode": "24461-080"
    },
    {
        "city": "Sao Goncalo",
        "state": "RJ",
        "district": "Sete Pontes",
        "street": "Rua Amancio",
        "zipcode": "24412-170"
    },
    {
        "city": "Sao Goncalo",
        "state": "RJ",
        "district": "Amendoeira",
        "street": "Rua Luis Mota",
        "zipcode": "24710-720"
    },
    {
        "city": "Sao Goncalo",
        "state": "RJ",
        "district": "Alcantara",
        "street": "Rua Campos",
        "zipcode": "24710-010"
    },
    {
        "city": "Sao Goncalo",
        "state": "RJ",
        "district": "Alcantara",
        "street": "Rua Nestor Amaral",
        "zipcode": "24710-070"
    },
    {
        "city": "Sao Goncalo",
        "state": "RJ",
        "district": "Colubande",
        "street": "Rua Antonio Pinhao",
        "zipcode": "24710-100"
    },
    {
        "city": "Sao Goncalo",
        "state": "RJ",
        "district": "Alcantara",
        "street": "Rua Joaquim Dias",
        "zipcode": "24710-140"
    },
    {
        "city": "Sao Goncalo",
        "state": "RJ",
        "district": "Alcantara",
        "street": "Rua Rio Bonito",
        "zipcode": "24710-205"
    },
    {
        "city": "Sao Goncalo",
        "state": "RJ",
        "district": "Alcantara",
        "street": "Rua Artur Jardim",
        "zipcode": "24710-040"
    },
    {
        "city": "Sao Goncalo",
        "state": "RJ",
        "district": "Jardim Catarina",
        "street": "Rua Pedro Ferreira",
        "zipcode": "24715-380"
    },
    {
        "city": "Sao Goncalo",
        "state": "RJ",
        "district": "Jardim Catarina",
        "street": "Rua Mucuri",
        "zipcode": "24715-580"
    },
    {
        "city": "Sao Goncalo",
        "state": "RJ",
        "district": "Jardim Catarina",
        "street": "Avenida Santa Catarina",
        "zipcode": "24717-140"
    },
    {
        "city": "Sao Goncalo",
        "state": "RJ",
        "district": "Santa Isabel",
        "street": "Estrada Ipiiba",
        "zipcode": "24738-415"
    },
    {
        "city": "Sao Goncalo",
        "state": "RJ",
        "district": "Jardim Catarina",
        "street": "Rua Piracanjuba",
        "zipcode": "24716-050"
    },
    {
        "city": "Sao Goncalo",
        "state": "RJ",
        "district": "Jardim Catarina",
        "street": "Rua Soares Lisboa",
        "zipcode": "24716-060"
    },
    {
        "city": "Sao Goncalo",
        "state": "RJ",
        "district": "Jardim Catarina",
        "street": "Rua Navarro Da Costa",
        "zipcode": "24716-080"
    },
    {
        "city": "Sao Goncalo",
        "state": "RJ",
        "district": "Jardim Catarina",
        "street": "Rua Herminio Borges Nogueira",
        "zipcode": "24716-100"
    },
    {
        "city": "Sao Goncalo",
        "state": "RJ",
        "district": "Jardim Catarina",
        "street": "Rua Florentino Giovani",
        "zipcode": "24716-120"
    },
    {
        "city": "Sao Goncalo",
        "state": "RJ",
        "district": "Jardim Catarina",
        "street": "Rua Ouro Fino",
        "zipcode": "24716-580"
    },
    {
        "city": "Sao Goncalo",
        "state": "RJ",
        "district": "Jardim Catarina",
        "street": "Rua Expedicionario Aquiles Brasil",
        "zipcode": "24716-605"
    },
    {
        "city": "Sao Goncalo",
        "state": "RJ",
        "district": "Jardim Catarina",
        "street": "Rua Expedicionario Ari De Azevedo",
        "zipcode": "24716-610"
    },
    {
        "city": "Sao Goncalo",
        "state": "RJ",
        "district": "Jardim Catarina",
        "street": "Rua Waldir Francisco Nunes",
        "zipcode": "24716-640"
    },
    {
        "city": "Sao Goncalo",
        "state": "RJ",
        "district": "Jardim Catarina",
        "street": "Rua Expedicionario Celio Nascimento",
        "zipcode": "24716-650"
    },
    {
        "city": "Sao Goncalo",
        "state": "RJ",
        "district": "Jardim Catarina",
        "street": "Rua Expedicionario Francisco Dias",
        "zipcode": "24716-670"
    },
    {
        "city": "Sao Goncalo",
        "state": "RJ",
        "district": "Jardim Catarina",
        "street": "Rua Expedicionario Jose Ferreira Jardim",
        "zipcode": "24716-690"
    },
    {
        "city": "Sao Goncalo",
        "state": "RJ",
        "district": "Jardim Catarina",
        "street": "Rua Prado Lopes",
        "zipcode": "24717-065"
    },
    {
        "city": "Sao Goncalo",
        "state": "RJ",
        "district": "Jardim Catarina",
        "street": "Rua Eurico Do Vale",
        "zipcode": "24717-260"
    },
    {
        "city": "Sao Goncalo",
        "state": "RJ",
        "district": "Jardim Catarina",
        "street": "Avenida Padre Vieira",
        "zipcode": "24716-440"
    },
    {
        "city": "Sao Goncalo",
        "state": "RJ",
        "district": "Laranjal",
        "street": "Rua Reverendo Luis Feliciano",
        "zipcode": "24724-035"
    },
    {
        "city": "Sao Goncalo",
        "state": "RJ",
        "district": "Santa Isabel",
        "street": "Rua Profeta Baruc",
        "zipcode": "24752-465"
    },
    {
        "city": "Sao Goncalo",
        "state": "RJ",
        "district": "Jardim Catarina",
        "street": "Rua Anastacio Rosa",
        "zipcode": "24716-090"
    },
    {
        "city": "Sao Goncalo",
        "state": "RJ",
        "district": "Jardim Catarina",
        "street": "Rua Ferreira Borges",
        "zipcode": "24717-045"
    },
    {
        "city": "Sao Goncalo",
        "state": "RJ",
        "district": "Anaia Pequeno",
        "street": "Rua Loir Nogueira",
        "zipcode": "24745-840"
    },
    {
        "city": "Sao Goncalo",
        "state": "RJ",
        "district": "Jardim Catarina",
        "street": "Rua Alcebiades Sodre",
        "zipcode": "24716-030"
    },
    {
        "city": "Sao Goncalo",
        "state": "RJ",
        "district": "Miriambi",
        "street": "Rua Yara Rocha",
        "zipcode": "24731-270"
    },
    {
        "city": "Sao Goncalo",
        "state": "RJ",
        "district": "Coelho",
        "street": "Rua Dr Lopes Da Cruz",
        "zipcode": "24730-500"
    },
    {
        "city": "Sao Goncalo",
        "state": "RJ",
        "district": "Alcantara",
        "street": "Rua Dos Aliados",
        "zipcode": "24710-110"
    },
    {
        "city": "Sao Goncalo",
        "state": "RJ",
        "district": "Rio Do Ouro",
        "street": "Rua Avelino Pinheiro",
        "zipcode": "24752-730"
    },
    {
        "city": "Sao Goncalo",
        "state": "RJ",
        "district": "Alcantara",
        "street": "Travessa Menezes",
        "zipcode": "24710-090"
    },
    {
        "city": "Sao Goncalo",
        "state": "RJ",
        "district": "Rio Do Ouro",
        "street": "Rua Saulo Lima De Vasconcelos",
        "zipcode": "24753-260"
    },
    {
        "city": "Sao Goncalo",
        "state": "RJ",
        "district": "Jardim Catarina",
        "street": "Rua Engenheiro Bernardo Saiao",
        "zipcode": "24717-240"
    },
    {
        "city": "Sao Goncalo",
        "state": "RJ",
        "district": "Jardim Catarina",
        "street": "Rua Bernardo Faria",
        "zipcode": "24717-190"
    },
    {
        "city": "Sao Goncalo",
        "state": "RJ",
        "district": "Tribobo",
        "street": "Rua Aristides Gouveia",
        "zipcode": "24750-630"
    },
    {
        "city": "Sao Goncalo",
        "state": "RJ",
        "district": "Alcantara",
        "street": "Rua Julio Reis",
        "zipcode": "24710-030"
    },
    {
        "city": "Sao Goncalo",
        "state": "RJ",
        "district": "Jardim Catarina",
        "street": "Avenida Isaura Santarem",
        "zipcode": "24716-270"
    },
    {
        "city": "Sao Goncalo",
        "state": "RJ",
        "district": "Jardim Catarina",
        "street": "Rua Joao Correia D Avila",
        "zipcode": "24717-120"
    },
    {
        "city": "Sao Goncalo",
        "state": "RJ",
        "district": "Itauna",
        "street": "Rua Adao Peres",
        "zipcode": "24756-820"
    },
    {
        "city": "Sao Goncalo",
        "state": "RJ",
        "district": "Colubande",
        "street": "Rua Marcilio De Noronha",
        "zipcode": "24710-005"
    },
    {
        "city": "Sao Goncalo",
        "state": "RJ",
        "district": "Arsenal",
        "street": "Rua Aldea De Matos",
        "zipcode": "24716-550"
    },
    {
        "city": "Sao Goncalo",
        "state": "RJ",
        "district": "Santa Isabel",
        "street": "Rua Castro Nunes",
        "zipcode": "24735-030"
    },
    {
        "city": "Sao Goncalo",
        "state": "RJ",
        "district": "Jardim Catarina",
        "street": "Rua Marques De Resende",
        "zipcode": "24716-250"
    },
    {
        "city": "Sao Goncalo",
        "state": "RJ",
        "district": "Jardim Catarina",
        "street": "Avenida Domicio Da Gama",
        "zipcode": "24717-130"
    },
    {
        "city": "Sao Goncalo",
        "state": "RJ",
        "district": "Porto Do Rosa",
        "street": "Avenida Flavio Monteiro De Barros",
        "zipcode": "24472-010"
    },
    {
        "city": "Sao Goncalo",
        "state": "RJ",
        "district": "Jardim Catarina",
        "street": "Rua Fernando Lasalle",
        "zipcode": "24716-620"
    },
    {
        "city": "Sao Goncalo",
        "state": "RJ",
        "district": "Pacheco",
        "street": "Rua Francisco Porto",
        "zipcode": "24723-445"
    },
    {
        "city": "Sao Goncalo",
        "state": "RJ",
        "district": "Jardim Catarina",
        "street": "Rua Francisco Muniz",
        "zipcode": "24717-270"
    },
    {
        "city": "Sao Goncalo",
        "state": "RJ",
        "district": "Coelho",
        "street": "Rua Francisco Tamborim",
        "zipcode": "24746-070"
    },
    {
        "city": "Sao Goncalo",
        "state": "RJ",
        "district": "Tribobo",
        "street": "Avenida Fued Moises",
        "zipcode": "24744-315"
    },
    {
        "city": "Sao Goncalo",
        "state": "RJ",
        "district": "Jardim Catarina",
        "street": "Rua Nicolau Tolentino",
        "zipcode": "24716-240"
    },
    {
        "city": "Sao Goncalo",
        "state": "RJ",
        "district": "Anaia Pequeno",
        "street": "Rua Laudelina De Almeida",
        "zipcode": "24745-090"
    },
    {
        "city": "Sao Goncalo",
        "state": "RJ",
        "district": "Colubande",
        "street": "Estrada Do Anaia",
        "zipcode": "24742-000"
    },
    {
        "city": "Sao Goncalo",
        "state": "RJ",
        "district": "Trindade",
        "street": "Avenida Presidente Kennedy",
        "zipcode": "24455-045"
    },
    {
        "city": "Sao Goncalo",
        "state": "RJ",
        "district": "Jardim Catarina",
        "street": "Rua Cardeal Montini",
        "zipcode": "24715-405"
    },
    {
        "city": "Sao Goncalo",
        "state": "RJ",
        "district": "Jardim Catarina",
        "street": "Avenida Padre Manuel De Sa",
        "zipcode": "24716-230"
    },
    {
        "city": "Sao Goncalo",
        "state": "RJ",
        "district": "Jardim Catarina",
        "street": "Rua Carlos Fox",
        "zipcode": "24717-100"
    },
    {
        "city": "Sao Goncalo",
        "state": "RJ",
        "district": "Jardim Catarina",
        "street": "Rua Americo Miranda",
        "zipcode": "24717-250"
    },
    {
        "city": "Sao Goncalo",
        "state": "RJ",
        "district": "Alcantara",
        "street": "Rua Gloria Maria Tinoco",
        "zipcode": "24711-190"
    },
    {
        "city": "Sao Goncalo",
        "state": "RJ",
        "district": "Jardim Catarina",
        "street": "Rua Lamartine Babo",
        "zipcode": "24715-230"
    },
    {
        "city": "Sao Goncalo",
        "state": "RJ",
        "district": "Jardim Catarina",
        "street": "Rua Tapuias",
        "zipcode": "24715-420"
    },
    {
        "city": "Sao Goncalo",
        "state": "RJ",
        "district": "Jardim Catarina",
        "street": "Rua Olegario Do Nascimento",
        "zipcode": "24715-490"
    },
    {
        "city": "Sao Goncalo",
        "state": "RJ",
        "district": "Jardim Catarina",
        "street": "Rua Urucuia",
        "zipcode": "24715-570"
    },
    {
        "city": "Sao Goncalo",
        "state": "RJ",
        "district": "Jardim Catarina",
        "street": "Rua Perolas",
        "zipcode": "24715-610"
    },
    {
        "city": "Sao Goncalo",
        "state": "RJ",
        "district": "Jardim Catarina",
        "street": "Rua Diamantes",
        "zipcode": "24715-650"
    },
    {
        "city": "Sao Goncalo",
        "state": "RJ",
        "district": "Jardim Catarina",
        "street": "Rua Expedicionario Antenor Costa",
        "zipcode": "24716-010"
    },
    {
        "city": "Sao Goncalo",
        "state": "RJ",
        "district": "Jardim Catarina",
        "street": "Rua Miguel Glinka",
        "zipcode": "24716-070"
    },
    {
        "city": "Sao Goncalo",
        "state": "RJ",
        "district": "Jardim Catarina",
        "street": "Rua Eugenio Fromentin",
        "zipcode": "24716-110"
    },
    {
        "city": "Sao Goncalo",
        "state": "RJ",
        "district": "Jardim Catarina",
        "street": "Rua Expedicionario Soares Dos Reis",
        "zipcode": "24716-590"
    },
    {
        "city": "Sao Goncalo",
        "state": "RJ",
        "district": "Jardim Catarina",
        "street": "Rua Goncalo Sampaio",
        "zipcode": "24716-635"
    },
    {
        "city": "Sao Goncalo",
        "state": "RJ",
        "district": "Jardim Catarina",
        "street": "Rua Expedicionario Francisco Alves De Azevedo",
        "zipcode": "24716-660"
    },
    {
        "city": "Sao Goncalo",
        "state": "RJ",
        "district": "Jardim Catarina",
        "street": "Rua Leao Gambeta",
        "zipcode": "24717-110"
    },
    {
        "city": "Sao Goncalo",
        "state": "RJ",
        "district": "Alcantara",
        "street": "Rua Oduvaldo Cozzi",
        "zipcode": "24452-290"
    },
    {
        "city": "Sao Goncalo",
        "state": "RJ",
        "district": "Itauna",
        "street": "Estrada Das Palmeiras",
        "zipcode": "24475-000"
    },
    {
        "city": "Sao Goncalo",
        "state": "RJ",
        "district": "Alcantara",
        "street": "Rua Miracema",
        "zipcode": "24710-050"
    },
    {
        "city": "Sao Goncalo",
        "state": "RJ",
        "district": "Alcantara",
        "street": "Rua Ernesto Pereira",
        "zipcode": "24710-080"
    },
    {
        "city": "Sao Goncalo",
        "state": "RJ",
        "district": "Alcantara",
        "street": "Rua Geraldo Silva",
        "zipcode": "24710-130"
    },
    {
        "city": "Sao Goncalo",
        "state": "RJ",
        "district": "Engenho Pequeno",
        "street": "Rua Ataliba De Carvalho",
        "zipcode": "24417-370"
    },
    {
        "city": "Sao Goncalo",
        "state": "RJ",
        "district": "Alcantara",
        "street": "Rua Elvis Presley",
        "zipcode": "24452-270"
    },
    {
        "city": "Sao Goncalo",
        "state": "RJ",
        "district": "Jardim Catarina",
        "street": "Rua Luiz Ribeiro Pires",
        "zipcode": "24716-020"
    },
    {
        "city": "Sao Goncalo",
        "state": "RJ",
        "district": "Jardim Catarina",
        "street": "Rua Expedicionario Joao Nunes",
        "zipcode": "24716-680"
    },
    {
        "city": "Sao Goncalo",
        "state": "RJ",
        "district": "Sete Pontes",
        "street": "Rua Joao De Barros",
        "zipcode": "24412-210"
    },
    {
        "city": "Sao Goncalo",
        "state": "RJ",
        "district": "Trindade",
        "street": "Rua Afonso Quintao",
        "zipcode": "24630-005"
    },
    {
        "city": "Sao Goncalo",
        "state": "RJ",
        "district": "Nova Cidade",
        "street": "Rua Coronel Silveira",
        "zipcode": "24447-340"
    },
    {
        "city": "Sao Goncalo",
        "state": "RJ",
        "district": "Jardim Catarina",
        "street": "Rua Marcos Formont",
        "zipcode": "24710-006"
    },
    {
        "city": "Sao Goncalo",
        "state": "RJ",
        "district": "Pacheco",
        "street": "Rua Prof. Maria Machado Panza",
        "zipcode": "24733-260"
    },
    {
        "city": "Sao Goncalo",
        "state": "RJ",
        "district": "Sete Pontes",
        "street": "Travessa Miguel Bacon",
        "zipcode": "24412-160"
    },
    {
        "city": "Sao Goncalo",
        "state": "RJ",
        "district": "Colubande",
        "street": "Rua Emilio Ferreira Nunes",
        "zipcode": "24745-255"
    },
    {
        "city": "Sao Goncalo",
        "state": "RJ",
        "district": "Porto Do Rosa",
        "street": "Avenida Flavio Monteiro De Barros",
        "zipcode": "24470-001"
    },
    {
        "city": "Sao Goncalo",
        "state": "RJ",
        "district": "Lindo Parque",
        "street": "Rua Maria Angelica",
        "zipcode": "24420-115"
    },
    {
        "city": "Sao Goncalo",
        "state": "RJ",
        "district": "Jardim Catarina",
        "street": "Rua Dr Mario Mota",
        "zipcode": "24717-280"
    },
    {
        "city": "Sao Goncalo",
        "state": "RJ",
        "district": "Tribobo",
        "street": "Rua Expedicionario Paulo Transine",
        "zipcode": "24750-810"
    },
    {
        "city": "Sao Goncalo",
        "state": "RJ",
        "district": "Alcantara",
        "street": "Rua Da Concordia",
        "zipcode": "24625-000"
    },
    {
        "city": "Sao Goncalo",
        "state": "RJ",
        "district": "Alcantara",
        "street": "Rua Antonio Alves",
        "zipcode": "24452-240"
    }
]