[
    {
        "city": "Sao Joao De Meriti",
        "state": "RJ",
        "district": "Agostinho Porto",
        "street": "Rua Dr Agostinho Porto",
        "zipcode": "25510-060"
    },
    {
        "city": "Sao Joao De Meriti",
        "state": "RJ",
        "district": "Parque Sao Nicolau",
        "street": "Rua Antonio Hermont",
        "zipcode": "25525-640"
    },
    {
        "city": "Sao Joao De Meriti",
        "state": "RJ",
        "district": "Centro",
        "street": "Rua Tabeliao Elodir Livramento De Freitas",
        "zipcode": "25520-600"
    },
    {
        "city": "Sao Joao De Meriti",
        "state": "RJ",
        "district": "Eden",
        "street": "Rua Dr M Brandao",
        "zipcode": "25545-002"
    },
    {
        "city": "Sao Joao De Meriti",
        "state": "RJ",
        "district": "Parque Tiete",
        "street": "Rua Castro Alves",
        "zipcode": "25586-151"
    },
    {
        "city": "Sao Joao De Meriti",
        "state": "RJ",
        "district": "Coelho Da Rocha",
        "street": "Avenida Presidente Kennedy",
        "zipcode": "25550-021"
    },
    {
        "city": "Sao Joao De Meriti",
        "state": "RJ",
        "district": "Tomazinho",
        "street": "Rua Torres Homem",
        "zipcode": "25530-565"
    },
    {
        "city": "Sao Joao De Meriti",
        "state": "RJ",
        "district": "Tomazinho",
        "street": "Rua Tancredo Neves",
        "zipcode": "25530-564"
    },
    {
        "city": "Sao Joao De Meriti",
        "state": "RJ",
        "district": "Vila Zulmira",
        "street": "Avenida Goiania",
        "zipcode": "25545-020"
    },
    {
        "city": "Sao Joao De Meriti",
        "state": "RJ",
        "district": "Centro",
        "street": "Rua Judite",
        "zipcode": "25515-021"
    },
    {
        "city": "Sao Joao De Meriti",
        "state": "RJ",
        "district": "Centro",
        "street": "Rua Pedro Teles",
        "zipcode": "25515-030"
    },
    {
        "city": "Sao Joao De Meriti",
        "state": "RJ",
        "district": "Agostinho Porto",
        "street": "Rua Jose Antonio Nora",
        "zipcode": "25545-330"
    },
    {
        "city": "Sao Joao De Meriti",
        "state": "RJ",
        "district": "Agostinho Porto",
        "street": "Rua Carminda",
        "zipcode": "25545-381"
    },
    {
        "city": "Sao Joao De Meriti",
        "state": "RJ",
        "district": "Agostinho Porto",
        "street": "Rua Carminda",
        "zipcode": "25550-131"
    },
    {
        "city": "Sao Joao De Meriti",
        "state": "RJ",
        "district": "Vila Rosali",
        "street": "Avenida Carioca",
        "zipcode": "25555-330"
    },
    {
        "city": "Sao Joao De Meriti",
        "state": "RJ",
        "district": "Agostinho Porto",
        "street": "Avenida Fluminense",
        "zipcode": "25555-350"
    },
    {
        "city": "Sao Joao De Meriti",
        "state": "RJ",
        "district": "Centro",
        "street": "Rua Maria Augusta Da Silva",
        "zipcode": "25510-042"
    },
    {
        "city": "Sao Joao De Meriti",
        "state": "RJ",
        "district": "Agostinho Porto",
        "street": "Rua Carlos Sodre",
        "zipcode": "25510-091"
    },
    {
        "city": "Sao Joao De Meriti",
        "state": "RJ",
        "district": "Vila Rosali",
        "street": "Avenida Fluminense",
        "zipcode": "25510-141"
    },
    {
        "city": "Sao Joao De Meriti",
        "state": "RJ",
        "district": "Vila Rosali",
        "street": "Avenida Carioca",
        "zipcode": "25510-160"
    },
    {
        "city": "Sao Joao De Meriti",
        "state": "RJ",
        "district": "Centro",
        "street": "Rua Maria Augusta Da Silva",
        "zipcode": "25515-041"
    },
    {
        "city": "Sao Joao De Meriti",
        "state": "RJ",
        "district": "Centro",
        "street": "Rua Antonio Alexandre De Oliveira",
        "zipcode": "25515-050"
    },
    {
        "city": "Sao Joao De Meriti",
        "state": "RJ",
        "district": "Centro",
        "street": "Avenida Automovel Clube",
        "zipcode": "25515-120"
    },
    {
        "city": "Sao Joao De Meriti",
        "state": "RJ",
        "district": "Agostinho Porto",
        "street": "Rua Carlos Sodre",
        "zipcode": "25525-321"
    },
    {
        "city": "Sao Joao De Meriti",
        "state": "RJ",
        "district": "Jardim Metropole",
        "street": "Avenida Sao Joao De Meriti",
        "zipcode": "25571-160"
    },
    {
        "city": "Sao Joao De Meriti",
        "state": "RJ",
        "district": "Vilar Dos Teles",
        "street": "Avenida Comendador Teles",
        "zipcode": "25575-790"
    },
    {
        "city": "Sao Joao De Meriti",
        "state": "RJ",
        "district": "Sao Mateus",
        "street": "Rua Maria Bitencourt",
        "zipcode": "25530-211"
    },
    {
        "city": "Sao Joao De Meriti",
        "state": "RJ",
        "district": "Parque Sao Judas Tadeu",
        "street": "Avenida Goiania",
        "zipcode": "25540-451"
    },
    {
        "city": "Sao Joao De Meriti",
        "state": "RJ",
        "district": "Centro",
        "street": "Rua Estudante Eliane Castanheira",
        "zipcode": "25510-260"
    },
    {
        "city": "Sao Joao De Meriti",
        "state": "RJ",
        "district": "Vila Rosali",
        "street": "Avenida Primeiro De Novembro",
        "zipcode": "25510-291"
    },
    {
        "city": "Sao Joao De Meriti",
        "state": "RJ",
        "district": "Parque Tiete",
        "street": "Rua Castelo Branco",
        "zipcode": "25585-520"
    },
    {
        "city": "Sao Joao De Meriti",
        "state": "RJ",
        "district": "Tomazinho",
        "street": "Rua Manuel Gama",
        "zipcode": "25525-541"
    },
    {
        "city": "Sao Joao De Meriti",
        "state": "RJ",
        "district": "Centro",
        "street": "Rua Estudante Eliane Castanheira",
        "zipcode": "25515-020"
    },
    {
        "city": "Sao Joao De Meriti",
        "state": "RJ",
        "district": "Vila Rosali",
        "street": "Rua Doze De Outubro",
        "zipcode": "25510-280"
    },
    {
        "city": "Sao Joao De Meriti",
        "state": "RJ",
        "district": "Vila Rosali",
        "street": "Rua Maria Emilia",
        "zipcode": "25510-250"
    },
    {
        "city": "Sao Joao De Meriti",
        "state": "RJ",
        "district": "Coelho Da Rocha",
        "street": "Rua Arminda",
        "zipcode": "25545-380"
    },
    {
        "city": "Sao Joao De Meriti",
        "state": "RJ",
        "district": "Vila Rosali",
        "street": "Rua Judite",
        "zipcode": "25510-261"
    },
    {
        "city": "Sao Joao De Meriti",
        "state": "RJ",
        "district": "Parque Sao Judas Tadeu",
        "street": "Avenida Presidente Kennedy",
        "zipcode": "25540-411"
    },
    {
        "city": "Sao Joao De Meriti",
        "state": "RJ",
        "district": "Eden",
        "street": "Rua Domingos Alves De Oliveira",
        "zipcode": "25545-001"
    },
    {
        "city": "Sao Joao De Meriti",
        "state": "RJ",
        "district": "Coelho Da Rocha",
        "street": "Rua Jose Antonio Nora",
        "zipcode": "25550-120"
    },
    {
        "city": "Sao Joao De Meriti",
        "state": "RJ",
        "district": "Centro",
        "street": "Rua Sargento Manoel Honorato De Alexandria",
        "zipcode": "25520-002"
    },
    {
        "city": "Sao Joao De Meriti",
        "state": "RJ",
        "district": "Parque Sao Nicolau",
        "street": "Rua Sao Francisco De Assis",
        "zipcode": "25530-213"
    },
    {
        "city": "Sao Joao De Meriti",
        "state": "RJ",
        "district": "Parque Tiete",
        "street": "Avenida Castelo Branco",
        "zipcode": "25586-190"
    },
    {
        "city": "Sao Joao De Meriti",
        "state": "RJ",
        "district": "Jardim Meriti",
        "street": "Rua Felizardo Saavedra",
        "zipcode": "25555-909"
    },
    {
        "city": "Sao Joao De Meriti",
        "state": "RJ",
        "district": "Agostinho Porto",
        "street": "Rua Carlos Soares",
        "zipcode": "25525-320"
    },
    {
        "city": "Sao Joao De Meriti",
        "state": "RJ",
        "district": "Centro",
        "street": "Rua Tabeliao Elodir Livramento De Freitas",
        "zipcode": "25525-000"
    },
    {
        "city": "Sao Joao De Meriti",
        "state": "RJ",
        "district": "Tomazinho",
        "street": "Rua Tancredo Neves",
        "zipcode": "25530-563"
    },
    {
        "city": "Sao Joao De Meriti",
        "state": "RJ",
        "district": "Vila Rosali",
        "street": "Rua Antonio Alexandre De Oliveira",
        "zipcode": "25510-290"
    },
    {
        "city": "Sao Joao De Meriti",
        "state": "RJ",
        "district": "Parque Araruama",
        "street": "Rua Agostinho Menezes Da Cruz",
        "zipcode": "25585-116"
    },
    {
        "city": "Sao Joao De Meriti",
        "state": "RJ",
        "district": "Vila Rosali",
        "street": "Rua Dr Gil Mota",
        "zipcode": "25510-200"
    },
    {
        "city": "Sao Joao De Meriti",
        "state": "RJ",
        "district": "Parque Alian",
        "street": "Rua Caledonia",
        "zipcode": "25550-441"
    },
    {
        "city": "Sao Joao De Meriti",
        "state": "RJ",
        "district": "Jardim Meriti",
        "street": "Rua Dr Gil Mota",
        "zipcode": "25555-380"
    },
    {
        "city": "Sao Joao De Meriti",
        "state": "RJ",
        "district": "Coelho Da Rocha",
        "street": "Rua Arminda",
        "zipcode": "25550-130"
    },
    {
        "city": "Sao Joao De Meriti",
        "state": "RJ",
        "district": "Tomazinho",
        "street": "Rua Dr Belisario Pena",
        "zipcode": "25525-530"
    },
    {
        "city": "Sao Joao De Meriti",
        "state": "RJ",
        "district": "Vila Norma",
        "street": "Rua Francisco Xavier",
        "zipcode": "25535-251"
    },
    {
        "city": "Sao Joao De Meriti",
        "state": "RJ",
        "district": "Tomazinho",
        "street": "Rua Dr Belisario Pena",
        "zipcode": "25530-480"
    },
    {
        "city": "Sao Joao De Meriti",
        "state": "RJ",
        "district": "Agostinho Porto",
        "street": "Rua Dr Agostinho Porto",
        "zipcode": "25555-400"
    },
    {
        "city": "Sao Joao De Meriti",
        "state": "RJ",
        "district": "Agostinho Porto",
        "street": "Rua Carlos Soares",
        "zipcode": "25510-090"
    },
    {
        "city": "Sao Joao De Meriti",
        "state": "RJ",
        "district": "Parque Sao Nicolau",
        "street": "Rua Antonio Hermont",
        "zipcode": "25530-200"
    },
    {
        "city": "Sao Joao De Meriti",
        "state": "RJ",
        "district": "Eden",
        "street": "Rua Apolo",
        "zipcode": "25535-001"
    },
    {
        "city": "Sao Joao De Meriti",
        "state": "RJ",
        "district": "Tomazinho",
        "street": "Rua Apolo",
        "zipcode": "25530-560"
    },
    {
        "city": "Sao Joao De Meriti",
        "state": "RJ",
        "district": "Tomazinho",
        "street": "Rua Manuel Gama",
        "zipcode": "25530-360"
    },
    {
        "city": "Sao Joao De Meriti",
        "state": "RJ",
        "district": "Agostinho Porto",
        "street": "Avenida Getulio De Moura",
        "zipcode": "25545-200"
    },
    {
        "city": "Sao Joao De Meriti",
        "state": "RJ",
        "district": "Vilar Dos Teles",
        "street": "Avenida Comendador Teles",
        "zipcode": "25561-160"
    },
    {
        "city": "Sao Joao De Meriti",
        "state": "RJ",
        "district": "Centro",
        "street": "Rua Maria Emilia",
        "zipcode": "25515-010"
    },
    {
        "city": "Sao Joao De Meriti",
        "state": "RJ",
        "district": "Centro",
        "street": "Avenida Getulio De Moura",
        "zipcode": "25520-660"
    },
    {
        "city": "Sao Joao De Meriti",
        "state": "RJ",
        "district": "Centro",
        "street": "Avenida Sao Joao De Meriti",
        "zipcode": "25575-820"
    },
    {
        "city": "Sao Joao De Meriti",
        "state": "RJ",
        "district": "Jardim Jose Bonifacio",
        "street": "Avenida Automovel Clube",
        "zipcode": "25565-000"
    },
    {
        "city": "Sao Joao De Meriti",
        "state": "RJ",
        "district": "Vila Rosali",
        "street": "Rua Pedro Teles",
        "zipcode": "25510-270"
    },
    {
        "city": "Sao Joao De Meriti",
        "state": "RJ",
        "district": "Centro",
        "street": "Avenida Primeiro De Novembro",
        "zipcode": "25515-051"
    },
    {
        "city": "Sao Joao De Meriti",
        "state": "RJ",
        "district": "Centro",
        "street": "Rua Doze De Outubro",
        "zipcode": "25515-040"
    },
    {
        "city": "Sao Joao De Meriti",
        "state": "RJ",
        "district": "Parque Santana",
        "street": "Rua Castro Alves",
        "zipcode": "25586-150"
    },
    {
        "city": "Sao Joao De Meriti",
        "state": "RJ",
        "district": "Agostinho Porto",
        "street": "Avenida Dr Rubens Farrula",
        "zipcode": "25555-340"
    },
    {
        "city": "Sao Joao De Meriti",
        "state": "RJ",
        "district": "Sao Mateus",
        "street": "Rua Sao Francisco De Assis",
        "zipcode": "25525-760"
    },
    {
        "city": "Sao Joao De Meriti",
        "state": "RJ",
        "district": "Jardim Jose Bonifacio",
        "street": "Avenida Bela",
        "zipcode": "25515-320"
    },
    {
        "city": "Sao Joao De Meriti",
        "state": "RJ",
        "district": "Eden",
        "street": "Avenida Imperatriz Leopoldina",
        "zipcode": "25535-002"
    },
    {
        "city": "Sao Joao De Meriti",
        "state": "RJ",
        "district": "Tomazinho",
        "street": "Avenida Imperatriz Leopoldina",
        "zipcode": "25530-561"
    },
    {
        "city": "Sao Joao De Meriti",
        "state": "RJ",
        "district": "Vila Rosali",
        "street": "Avenida Dr Rubens Farrula",
        "zipcode": "25510-150"
    },
    {
        "city": "Sao Joao De Meriti",
        "state": "RJ",
        "district": "Eden",
        "street": "Rua Maria Das Dores De Andrade E Silva",
        "zipcode": "25525-453"
    }
]