[
    {
        "city": "São Francisco de Itabapoana",
        "state": "RJ",
        "district": "",
        "street": "",
        "zipcode": "28230-000"
    },
    {
        "city": "São Francisco de Itabapoana",
        "state": "RJ",
        "district": "Imburi",
        "street": "Rua Afonso Celso s/n",
        "zipcode": "28230-981"
    },
    {
        "city": "São Francisco de Itabapoana",
        "state": "RJ",
        "district": "Praça João Pessoa",
        "street": "Rua Joaquim Gomes Crespo s/n",
        "zipcode": "28230-977"
    },
    {
        "city": "São Francisco de Itabapoana",
        "state": "RJ",
        "district": "Centro",
        "street": "Rua Joaquim da Mota Sobrinho 190",
        "zipcode": "28230-970"
    },
    {
        "city": "São Francisco de Itabapoana",
        "state": "RJ",
        "district": "Amontoado Brejo Grande",
        "street": "Estrada do Amontoado s/n",
        "zipcode": "28230-971"
    },
    {
        "city": "São Francisco de Itabapoana",
        "state": "RJ",
        "district": "Estreito",
        "street": "Estrada do Estreito 866",
        "zipcode": "28230-983"
    },
    {
        "city": "São Francisco de Itabapoana",
        "state": "RJ",
        "district": "Gargau",
        "street": "Praça São Pedro s/n",
        "zipcode": "28230-973"
    },
    {
        "city": "São Francisco de Itabapoana",
        "state": "RJ",
        "district": "Praia de Santa Clara",
        "street": "Rua Alair Ferreira Oliveira 81",
        "zipcode": "28230-978"
    },
    {
        "city": "São Francisco de Itabapoana",
        "state": "RJ",
        "district": "Ponto de Cacimbas",
        "street": "Rodovia Simão Mansur",
        "zipcode": "28230-976"
    },
    {
        "city": "São Francisco de Itabapoana",
        "state": "RJ",
        "district": "Travessão da Barra",
        "street": "Rua Ferreira Paes 9",
        "zipcode": "28230-979"
    },
    {
        "city": "São Francisco de Itabapoana",
        "state": "RJ",
        "district": "Floresta",
        "street": "Rua Principal s/n",
        "zipcode": "28230-985"
    },
    {
        "city": "São Francisco de Itabapoana",
        "state": "RJ",
        "district": "Praia dos Sonhos",
        "street": "Avenida Principal 20",
        "zipcode": "28230-982"
    },
    {
        "city": "São Francisco de Itabapoana",
        "state": "RJ",
        "district": "Santa Rita",
        "street": "Rodovia Afonso Celso 479",
        "zipcode": "28230-984"
    },
    {
        "city": "São Francisco de Itabapoana",
        "state": "RJ",
        "district": "Buena",
        "street": "Praça Aníbal Viana s/n",
        "zipcode": "28230-972"
    },
    {
        "city": "São Francisco de Itabapoana",
        "state": "RJ",
        "district": "Barra do Itabapoana",
        "street": "Praça São Joaquim s/n",
        "zipcode": "28230-980"
    },
    {
        "city": "São Francisco de Itabapoana",
        "state": "RJ",
        "district": "Guaxindiba",
        "street": "Rua Júlio Barcelos 245",
        "zipcode": "28230-974"
    },
    {
        "city": "São Francisco de Itabapoana",
        "state": "RJ",
        "district": "Santa Luzia",
        "street": "Estrada Morro Alegre s/n",
        "zipcode": "28230-975"
    }
]