[
    {
        "city": "Seropédica",
        "state": "RJ",
        "district": "Campo Lindo",
        "street": "Rua Edith Lima",
        "zipcode": "23898-066"
    },
    {
        "city": "Seropédica",
        "state": "RJ",
        "district": "Boa Esperança",
        "street": "Travessa Valteneir Ribeiro Gabi",
        "zipcode": "23894-446"
    },
    {
        "city": "Seropédica",
        "state": "RJ",
        "district": "Boa Esperança",
        "street": "Rua H (Lot Vale do Ipê)",
        "zipcode": "23894-290"
    },
    {
        "city": "Seropédica",
        "state": "RJ",
        "district": "Boa Esperança",
        "street": "Rua F (Lot Vivendas da Flórida)",
        "zipcode": "23894-008"
    },
    {
        "city": "Seropédica",
        "state": "RJ",
        "district": "Boa Esperança",
        "street": "Rua Adilson Lauria do Barcelos",
        "zipcode": "23894-598"
    },
    {
        "city": "Seropédica",
        "state": "RJ",
        "district": "Santa Sofia",
        "street": "Rua da Assembleia",
        "zipcode": "23895-705"
    },
    {
        "city": "Seropédica",
        "state": "RJ",
        "district": "Jardins",
        "street": "Rua J (Lot Jd Central)",
        "zipcode": "23890-124"
    },
    {
        "city": "Seropédica",
        "state": "RJ",
        "district": "Campo Lindo",
        "street": "Rua Deoclécio Egídio",
        "zipcode": "23898-260"
    },
    {
        "city": "Seropédica",
        "state": "RJ",
        "district": "Boa Esperança",
        "street": "Rua Regina de Araújo Ferreira",
        "zipcode": "23894-758"
    },
    {
        "city": "Seropédica",
        "state": "RJ",
        "district": "Piranema",
        "street": "Estrada Reta dos Quatrocentos",
        "zipcode": "23898-890"
    },
    {
        "city": "Seropédica",
        "state": "RJ",
        "district": "Campo Lindo",
        "street": "Rua Sebastião Alves Pereira",
        "zipcode": "23898-325"
    },
    {
        "city": "Seropédica",
        "state": "RJ",
        "district": "Boa Esperança",
        "street": "Rua G (Lot Mutirão)",
        "zipcode": "23894-210"
    },
    {
        "city": "Seropédica",
        "state": "RJ",
        "district": "Boa Esperança",
        "street": "Rua F (Lot Mutirão)",
        "zipcode": "23894-214"
    },
    {
        "city": "Seropédica",
        "state": "RJ",
        "district": "Campo Lindo",
        "street": "Rua Antenor dos Santos",
        "zipcode": "23898-225"
    },
    {
        "city": "Seropédica",
        "state": "RJ",
        "district": "Boa Esperança",
        "street": "Rua Prefeito Abelardo Goulart",
        "zipcode": "23894-878"
    },
    {
        "city": "Seropédica",
        "state": "RJ",
        "district": "Boa Esperança",
        "street": "Rua E (Lot Vivendas da Flórida)",
        "zipcode": "23894-006"
    },
    {
        "city": "Seropédica",
        "state": "RJ",
        "district": "Fazenda Caxias",
        "street": "Rua Vereador José Omespere Moreira",
        "zipcode": "23895-325"
    },
    {
        "city": "Seropédica",
        "state": "RJ",
        "district": "Campo Lindo",
        "street": "Rua Azarias Neto da Silva",
        "zipcode": "23898-057"
    },
    {
        "city": "Seropédica",
        "state": "RJ",
        "district": "Jardim Maracanã",
        "street": "Rua Arlete da Silva Rodrigues",
        "zipcode": "23891-720"
    },
    {
        "city": "Seropédica",
        "state": "RJ",
        "district": "Boa Esperança",
        "street": "Rua E (Lot Vila Araújo)",
        "zipcode": "23894-762"
    },
    {
        "city": "Seropédica",
        "state": "RJ",
        "district": "Santa Sofia",
        "street": "Rua Ana Guedes da Cruz",
        "zipcode": "23895-515"
    },
    {
        "city": "Seropédica",
        "state": "RJ",
        "district": "Boa Esperança",
        "street": "Rua Dezoito (Lot Mutirão)",
        "zipcode": "23894-178"
    },
    {
        "city": "Seropédica",
        "state": "RJ",
        "district": "Campo Lindo",
        "street": "Rua José Moura",
        "zipcode": "23898-275"
    },
    {
        "city": "Seropédica",
        "state": "RJ",
        "district": "Boa Esperança",
        "street": "Rua José das Correias",
        "zipcode": "23894-566"
    },
    {
        "city": "Seropédica",
        "state": "RJ",
        "district": "Boa Esperança",
        "street": "Rua José Ferreira Batista",
        "zipcode": "23894-810"
    },
    {
        "city": "Seropédica",
        "state": "RJ",
        "district": "Campo Lindo",
        "street": "Rua Floripes C Cardoso",
        "zipcode": "23898-445"
    },
    {
        "city": "Seropédica",
        "state": "RJ",
        "district": "Jardins",
        "street": "Rua I (Lot Jd Acácias)",
        "zipcode": "23890-091"
    },
    {
        "city": "Seropédica",
        "state": "RJ",
        "district": "Boa Esperança",
        "street": "Rua Geraldo Moura",
        "zipcode": "23894-194"
    },
    {
        "city": "Seropédica",
        "state": "RJ",
        "district": "Canto do Rio",
        "street": "Beco São José",
        "zipcode": "23899-054"
    },
    {
        "city": "Seropédica",
        "state": "RJ",
        "district": "Fazenda Caxias",
        "street": "Rua Abílio Gomes",
        "zipcode": "23895-215"
    },
    {
        "city": "Seropédica",
        "state": "RJ",
        "district": "Parque Jacimar",
        "street": "Rua Abisayão Meireles",
        "zipcode": "23897-450"
    },
    {
        "city": "Seropédica",
        "state": "RJ",
        "district": "Parque Jacimar",
        "street": "Rua José Rodrigues Galvão",
        "zipcode": "23897-510"
    },
    {
        "city": "Seropédica",
        "state": "RJ",
        "district": "UFRRJ",
        "street": "Rua US",
        "zipcode": "23897-170"
    },
    {
        "city": "Seropédica",
        "state": "RJ",
        "district": "UFRRJ",
        "street": "Rua UT",
        "zipcode": "23897-185"
    },
    {
        "city": "Seropédica",
        "state": "RJ",
        "district": "UFRRJ",
        "street": "Rua UJ",
        "zipcode": "23897-195"
    },
    {
        "city": "Seropédica",
        "state": "RJ",
        "district": "Boa Esperança",
        "street": "Rua Maricá",
        "zipcode": "23894-326"
    },
    {
        "city": "Seropédica",
        "state": "RJ",
        "district": "Boa Esperança",
        "street": "Rua Nilópolis",
        "zipcode": "23894-318"
    },
    {
        "city": "Seropédica",
        "state": "RJ",
        "district": "Boa Esperança",
        "street": "Travessa C (Lot Zé do Norte)",
        "zipcode": "23894-766"
    },
    {
        "city": "Seropédica",
        "state": "RJ",
        "district": "Santa Sofia",
        "street": "Rua SantAna",
        "zipcode": "23895-770"
    },
    {
        "city": "Seropédica",
        "state": "RJ",
        "district": "Jardins",
        "street": "Rua do Dique",
        "zipcode": "23890-004"
    },
    {
        "city": "Seropédica",
        "state": "RJ",
        "district": "Jardins",
        "street": "Rua Olaria",
        "zipcode": "23890-010"
    },
    {
        "city": "Seropédica",
        "state": "RJ",
        "district": "Ecologia",
        "street": "Rua IBA",
        "zipcode": "23891-365"
    },
    {
        "city": "Seropédica",
        "state": "RJ",
        "district": "Ecologia",
        "street": "Rua Elipse Alta",
        "zipcode": "23891-460"
    },
    {
        "city": "Seropédica",
        "state": "RJ",
        "district": "Santa Sofia",
        "street": "Rua B",
        "zipcode": "23895-560"
    },
    {
        "city": "Seropédica",
        "state": "RJ",
        "district": "UFRRJ",
        "street": "Rua UAA",
        "zipcode": "23897-105"
    },
    {
        "city": "Seropédica",
        "state": "RJ",
        "district": "Santa Alice",
        "street": "Estrada A",
        "zipcode": "23892-095"
    },
    {
        "city": "Seropédica",
        "state": "RJ",
        "district": "Santa Alice",
        "street": "Estrada D",
        "zipcode": "23892-160"
    },
    {
        "city": "Seropédica",
        "state": "RJ",
        "district": "Jardim Maracanã",
        "street": "Rua do Canal",
        "zipcode": "23891-660"
    },
    {
        "city": "Seropédica",
        "state": "RJ",
        "district": "Santa Sofia",
        "street": "Rua do Cantão",
        "zipcode": "23895-575"
    },
    {
        "city": "Seropédica",
        "state": "RJ",
        "district": "Jardim Maracanã",
        "street": "Rua T (Lot São Pedro)",
        "zipcode": "23891-675"
    },
    {
        "city": "Seropédica",
        "state": "RJ",
        "district": "Jardim Maracanã",
        "street": "Rua G (Lot São Pedro)",
        "zipcode": "23891-680"
    },
    {
        "city": "Seropédica",
        "state": "RJ",
        "district": "Jardins",
        "street": "Rua José Carlos Ribeiro",
        "zipcode": "23890-046"
    },
    {
        "city": "Seropédica",
        "state": "RJ",
        "district": "Ecologia",
        "street": "Rua UBI",
        "zipcode": "23891-015"
    },
    {
        "city": "Seropédica",
        "state": "RJ",
        "district": "Ecologia",
        "street": "Rua Projetada D",
        "zipcode": "23891-385"
    },
    {
        "city": "Seropédica",
        "state": "RJ",
        "district": "São Miguel",
        "street": "Rua Cruzeiro do Sul",
        "zipcode": "23893-820"
    },
    {
        "city": "Seropédica",
        "state": "RJ",
        "district": "Nazaré",
        "street": "Rua Santiago",
        "zipcode": "23892-730"
    },
    {
        "city": "Seropédica",
        "state": "RJ",
        "district": "Jardins",
        "street": "Rua Emenergilda de Souza",
        "zipcode": "23890-103"
    },
    {
        "city": "Seropédica",
        "state": "RJ",
        "district": "Boa Esperança",
        "street": "Rua G (Lot Vivendas da Flórida)",
        "zipcode": "23894-010"
    },
    {
        "city": "Seropédica",
        "state": "RJ",
        "district": "São Miguel",
        "street": "Rua Jorge Alves de Souza",
        "zipcode": "23893-770"
    },
    {
        "city": "Seropédica",
        "state": "RJ",
        "district": "Nazaré",
        "street": "Rua Francisco da Costa Filho",
        "zipcode": "23892-770"
    },
    {
        "city": "Seropédica",
        "state": "RJ",
        "district": "São Miguel",
        "street": "Rua Cláudia B da Silva",
        "zipcode": "23893-715"
    },
    {
        "city": "Seropédica",
        "state": "RJ",
        "district": "Incra",
        "street": "Avenida Halbert Alves dos Santos",
        "zipcode": "23890-600"
    },
    {
        "city": "Seropédica",
        "state": "RJ",
        "district": "Nazaré",
        "street": "Rua Padre Anchieta",
        "zipcode": "23892-740"
    },
    {
        "city": "Seropédica",
        "state": "RJ",
        "district": "Jardins",
        "street": "Rua H (Lot Jd Acácias)",
        "zipcode": "23890-088"
    },
    {
        "city": "Seropédica",
        "state": "RJ",
        "district": "Jardim Maracanã",
        "street": "Rua N (Lot São Pedro)",
        "zipcode": "23891-690"
    },
    {
        "city": "Seropédica",
        "state": "RJ",
        "district": "Boa Esperança",
        "street": "Rua Canário",
        "zipcode": "23894-778"
    },
    {
        "city": "Seropédica",
        "state": "RJ",
        "district": "São Miguel",
        "street": "Rua da Sementeira",
        "zipcode": "23893-707"
    },
    {
        "city": "Seropédica",
        "state": "RJ",
        "district": "Santa Alice",
        "street": "Estrada dos Nordestinos",
        "zipcode": "23892-265"
    },
    {
        "city": "Seropédica",
        "state": "RJ",
        "district": "Incra",
        "street": "Rodovia BR",
        "zipcode": "23890-360"
    },
    {
        "city": "Seropédica",
        "state": "RJ",
        "district": "UFRRJ",
        "street": "Rua UW",
        "zipcode": "23897-165"
    },
    {
        "city": "Seropédica",
        "state": "RJ",
        "district": "UFRRJ",
        "street": "Rua USG",
        "zipcode": "23897-025"
    },
    {
        "city": "Seropédica",
        "state": "RJ",
        "district": "Campo Lindo",
        "street": "Alameda Bethânia",
        "zipcode": "23898-460"
    },
    {
        "city": "Seropédica",
        "state": "RJ",
        "district": "Boa Esperança",
        "street": "Rua Teodoro Nogueira",
        "zipcode": "23894-706"
    },
    {
        "city": "Seropédica",
        "state": "RJ",
        "district": "Boa Esperança",
        "street": "Rua Sebastiana Maria de Souza",
        "zipcode": "23894-714"
    },
    {
        "city": "Seropédica",
        "state": "RJ",
        "district": "Campo Lindo",
        "street": "Rua Guilhermina de Araújo",
        "zipcode": "23898-078"
    },
    {
        "city": "Seropédica",
        "state": "RJ",
        "district": "Campo Lindo",
        "street": "Rua José Miranda Pena",
        "zipcode": "23898-114"
    },
    {
        "city": "Seropédica",
        "state": "RJ",
        "district": "Jardins",
        "street": "Rua das Hortências",
        "zipcode": "23890-064"
    },
    {
        "city": "Seropédica",
        "state": "RJ",
        "district": "Jardins",
        "street": "Rua Martinho Duarte",
        "zipcode": "23890-067"
    },
    {
        "city": "Seropédica",
        "state": "RJ",
        "district": "Jardins",
        "street": "Rua Sebastião de Oliveira Silva",
        "zipcode": "23890-073"
    },
    {
        "city": "Seropédica",
        "state": "RJ",
        "district": "Jardins",
        "street": "Avenida Pedro Paulo Campos",
        "zipcode": "23890-076"
    },
    {
        "city": "Seropédica",
        "state": "RJ",
        "district": "Jardins",
        "street": "Rua Terezinha Evangelista de Oliveira",
        "zipcode": "23890-085"
    },
    {
        "city": "Seropédica",
        "state": "RJ",
        "district": "Jardins",
        "street": "Rua Valdir de Oliveira",
        "zipcode": "23890-094"
    },
    {
        "city": "Seropédica",
        "state": "RJ",
        "district": "Jardins",
        "street": "Rua J (Lot São Jorge)",
        "zipcode": "23890-097"
    },
    {
        "city": "Seropédica",
        "state": "RJ",
        "district": "Jardins",
        "street": "Rua Tenente Jesuíno de Souza",
        "zipcode": "23890-109"
    },
    {
        "city": "Seropédica",
        "state": "RJ",
        "district": "Jardins",
        "street": "Rua Deolinda Martins",
        "zipcode": "23890-112"
    },
    {
        "city": "Seropédica",
        "state": "RJ",
        "district": "Jardins",
        "street": "Rua Aparecida Resende",
        "zipcode": "23890-136"
    },
    {
        "city": "Seropédica",
        "state": "RJ",
        "district": "Jardins",
        "street": "Rua Dárida de Jesus",
        "zipcode": "23890-145"
    },
    {
        "city": "Seropédica",
        "state": "RJ",
        "district": "Jardins",
        "street": "Rua Cecília Lima",
        "zipcode": "23890-151"
    },
    {
        "city": "Seropédica",
        "state": "RJ",
        "district": "Jardins",
        "street": "Rua Valdomiro Aguiar",
        "zipcode": "23890-154"
    },
    {
        "city": "Seropédica",
        "state": "RJ",
        "district": "Incra",
        "street": "Estrada Raul Menezes Póvoa",
        "zipcode": "23890-370"
    },
    {
        "city": "Seropédica",
        "state": "RJ",
        "district": "Santa Sofia",
        "street": "Rodovia Presidente Dutra",
        "zipcode": "23895-845"
    },
    {
        "city": "Seropédica",
        "state": "RJ",
        "district": "Campo Lindo",
        "street": "Rua Nossa Senhora das Graças",
        "zipcode": "23898-290"
    },
    {
        "city": "Seropédica",
        "state": "RJ",
        "district": "Boa Esperança",
        "street": "Rua Trinta e Nove",
        "zipcode": "23894-606"
    },
    {
        "city": "Seropédica",
        "state": "RJ",
        "district": "Jardins",
        "street": "Rua João Augusto Paiva",
        "zipcode": "23890-049"
    },
    {
        "city": "Seropédica",
        "state": "RJ",
        "district": "Jardins",
        "street": "Rua Maria Santana Fernandes",
        "zipcode": "23890-052"
    },
    {
        "city": "Seropédica",
        "state": "RJ",
        "district": "Jardins",
        "street": "Rua Rodolpho Ferreira de Oliveira",
        "zipcode": "23890-058"
    },
    {
        "city": "Seropédica",
        "state": "RJ",
        "district": "Boa Esperança",
        "street": "Rua Cinquenta e Oito",
        "zipcode": "23894-654"
    },
    {
        "city": "Seropédica",
        "state": "RJ",
        "district": "Fazenda Caxias",
        "street": "Rua Maria Lourenço",
        "zipcode": "23895-295"
    },
    {
        "city": "Seropédica",
        "state": "RJ",
        "district": "Boa Esperança",
        "street": "Avenida Ministro Fernando Costa",
        "zipcode": "23894-358"
    },
    {
        "city": "Seropédica",
        "state": "RJ",
        "district": "Fazenda Caxias",
        "street": "Avenida Ministro Fernando Costa",
        "zipcode": "23895-005"
    },
    {
        "city": "Seropédica",
        "state": "RJ",
        "district": "Fazenda Caxias",
        "street": "Avenida Ministro Fernando Costa",
        "zipcode": "23895-971"
    },
    {
        "city": "Seropédica",
        "state": "RJ",
        "district": "UFRRJ",
        "street": "Rua UAF",
        "zipcode": "23897-145"
    },
    {
        "city": "Seropédica",
        "state": "RJ",
        "district": "UFRRJ",
        "street": "Rua UU",
        "zipcode": "23897-175"
    },
    {
        "city": "Seropédica",
        "state": "RJ",
        "district": "UFRRJ",
        "street": "Rua UM",
        "zipcode": "23897-210"
    },
    {
        "city": "Seropédica",
        "state": "RJ",
        "district": "UFRRJ",
        "street": "Rua UBC",
        "zipcode": "23897-015"
    },
    {
        "city": "Seropédica",
        "state": "RJ",
        "district": "Campo Lindo",
        "street": "Rua Dez",
        "zipcode": "23898-355"
    },
    {
        "city": "Seropédica",
        "state": "RJ",
        "district": "Campo Lindo",
        "street": "Rua Catorze",
        "zipcode": "23898-360"
    },
    {
        "city": "Seropédica",
        "state": "RJ",
        "district": "UFRRJ",
        "street": "Rua UAT",
        "zipcode": "23897-065"
    },
    {
        "city": "Seropédica",
        "state": "RJ",
        "district": "Boa Esperança",
        "street": "Rua João Ambrózio",
        "zipcode": "23894-750"
    },
    {
        "city": "Seropédica",
        "state": "RJ",
        "district": "Boa Esperança",
        "street": "Rua Mil e Sete",
        "zipcode": "23894-602"
    },
    {
        "city": "Seropédica",
        "state": "RJ",
        "district": "Canto do Rio",
        "street": "Beco Pedro",
        "zipcode": "23899-045"
    },
    {
        "city": "Seropédica",
        "state": "RJ",
        "district": "Boa Esperança",
        "street": "Rua Francisco Roberto",
        "zipcode": "23894-746"
    },
    {
        "city": "Seropédica",
        "state": "RJ",
        "district": "Boa Esperança",
        "street": "Rua Devid Gouveia Vieira",
        "zipcode": "23894-346"
    },
    {
        "city": "Seropédica",
        "state": "RJ",
        "district": "Boa Esperança",
        "street": "Rua Walcreuze Guimarães",
        "zipcode": "23894-458"
    },
    {
        "city": "Seropédica",
        "state": "RJ",
        "district": "Fazenda Caxias",
        "street": "Rua Engenheiro Carlos Augusto Soares",
        "zipcode": "23895-180"
    },
    {
        "city": "Seropédica",
        "state": "RJ",
        "district": "Boa Esperança",
        "street": "Rua Otacília Anastácia de Souza Araújo",
        "zipcode": "23894-726"
    },
    {
        "city": "Seropédica",
        "state": "RJ",
        "district": "Boa Esperança",
        "street": "Rua Mil e Dezesseis",
        "zipcode": "23894-354"
    },
    {
        "city": "Seropédica",
        "state": "RJ",
        "district": "UFRRJ",
        "street": "Rua UXA",
        "zipcode": "23897-180"
    },
    {
        "city": "Seropédica",
        "state": "RJ",
        "district": "Jardim Maracanã",
        "street": "Caminho Velho do Guandu",
        "zipcode": "23891-695"
    },
    {
        "city": "Seropédica",
        "state": "RJ",
        "district": "Parque Jacimar",
        "street": "Rua Ana Maria Cordeiro",
        "zipcode": "23897-670"
    },
    {
        "city": "Seropédica",
        "state": "RJ",
        "district": "Incra",
        "street": "Avenida Brasília",
        "zipcode": "23890-640"
    },
    {
        "city": "Seropédica",
        "state": "RJ",
        "district": "Incra",
        "street": "Avenida Lisboa",
        "zipcode": "23890-650"
    },
    {
        "city": "Seropédica",
        "state": "RJ",
        "district": "Incra",
        "street": "Avenida Rio de Janeiro",
        "zipcode": "23890-660"
    },
    {
        "city": "Seropédica",
        "state": "RJ",
        "district": "Ecologia",
        "street": "Rua UBG",
        "zipcode": "23891-005"
    },
    {
        "city": "Seropédica",
        "state": "RJ",
        "district": "Ecologia",
        "street": "Rua UBF",
        "zipcode": "23891-010"
    },
    {
        "city": "Seropédica",
        "state": "RJ",
        "district": "Ecologia",
        "street": "Rua UBH",
        "zipcode": "23891-020"
    },
    {
        "city": "Seropédica",
        "state": "RJ",
        "district": "Ecologia",
        "street": "Rua Colina",
        "zipcode": "23891-335"
    },
    {
        "city": "Seropédica",
        "state": "RJ",
        "district": "Ecologia",
        "street": "Rua Cruzeiro",
        "zipcode": "23891-340"
    },
    {
        "city": "Seropédica",
        "state": "RJ",
        "district": "Ecologia",
        "street": "Rua Ipiranga",
        "zipcode": "23891-345"
    },
    {
        "city": "Seropédica",
        "state": "RJ",
        "district": "Ecologia",
        "street": "Rua Monte Alegre",
        "zipcode": "23891-350"
    },
    {
        "city": "Seropédica",
        "state": "RJ",
        "district": "Ecologia",
        "street": "Rua Bela Vista",
        "zipcode": "23891-360"
    },
    {
        "city": "Seropédica",
        "state": "RJ",
        "district": "Ecologia",
        "street": "Rua Universidade",
        "zipcode": "23891-450"
    },
    {
        "city": "Seropédica",
        "state": "RJ",
        "district": "Ecologia",
        "street": "Rua Elipse Baixa",
        "zipcode": "23891-455"
    },
    {
        "city": "Seropédica",
        "state": "RJ",
        "district": "Ecologia",
        "street": "Rua da Glória",
        "zipcode": "23891-465"
    },
    {
        "city": "Seropédica",
        "state": "RJ",
        "district": "Ecologia",
        "street": "Rua UF",
        "zipcode": "23891-470"
    },
    {
        "city": "Seropédica",
        "state": "RJ",
        "district": "Ecologia",
        "street": "Rua Patioba",
        "zipcode": "23891-480"
    },
    {
        "city": "Seropédica",
        "state": "RJ",
        "district": "Incra",
        "street": "Rua Amazonas",
        "zipcode": "23890-590"
    },
    {
        "city": "Seropédica",
        "state": "RJ",
        "district": "Incra",
        "street": "Rua Cinco de Junho",
        "zipcode": "23890-610"
    },
    {
        "city": "Seropédica",
        "state": "RJ",
        "district": "Incra",
        "street": "Avenida Guanabara",
        "zipcode": "23890-620"
    },
    {
        "city": "Seropédica",
        "state": "RJ",
        "district": "Jardim Maracanã",
        "street": "Rua B (Lot São Pedro)",
        "zipcode": "23891-640"
    },
    {
        "city": "Seropédica",
        "state": "RJ",
        "district": "Jardim Maracanã",
        "street": "Rua A (Lot São Pedro)",
        "zipcode": "23891-645"
    },
    {
        "city": "Seropédica",
        "state": "RJ",
        "district": "Jardim Maracanã",
        "street": "Rua D (Lot São Pedro)",
        "zipcode": "23891-650"
    },
    {
        "city": "Seropédica",
        "state": "RJ",
        "district": "Piranema",
        "street": "Rua Treze",
        "zipcode": "23898-788"
    },
    {
        "city": "Seropédica",
        "state": "RJ",
        "district": "Santa Alice",
        "street": "Estrada C",
        "zipcode": "23892-055"
    },
    {
        "city": "Seropédica",
        "state": "RJ",
        "district": "Jardim Maracanã",
        "street": "Rua Neuza",
        "zipcode": "23891-700"
    },
    {
        "city": "Seropédica",
        "state": "RJ",
        "district": "Jardim Maracanã",
        "street": "Rua Sérgio Câmara",
        "zipcode": "23891-715"
    },
    {
        "city": "Seropédica",
        "state": "RJ",
        "district": "Jardim Maracanã",
        "street": "Rua Nadir Montes",
        "zipcode": "23891-725"
    },
    {
        "city": "Seropédica",
        "state": "RJ",
        "district": "Jardim Maracanã",
        "street": "Rua Trinta e Três",
        "zipcode": "23891-730"
    },
    {
        "city": "Seropédica",
        "state": "RJ",
        "district": "Jardim Maracanã",
        "street": "Rua Trinta e Quatro",
        "zipcode": "23891-735"
    },
    {
        "city": "Seropédica",
        "state": "RJ",
        "district": "Jardim Maracanã",
        "street": "Avenida A",
        "zipcode": "23891-745"
    },
    {
        "city": "Seropédica",
        "state": "RJ",
        "district": "Jardim Maracanã",
        "street": "Rua Trinta e Seis",
        "zipcode": "23891-750"
    },
    {
        "city": "Seropédica",
        "state": "RJ",
        "district": "Jardim Maracanã",
        "street": "Rua Trinta e Sete",
        "zipcode": "23891-755"
    },
    {
        "city": "Seropédica",
        "state": "RJ",
        "district": "Jardim Maracanã",
        "street": "Rua Vinte e Cinco",
        "zipcode": "23891-765"
    },
    {
        "city": "Seropédica",
        "state": "RJ",
        "district": "Jardim Maracanã",
        "street": "Rua Trinta e Nove",
        "zipcode": "23891-770"
    },
    {
        "city": "Seropédica",
        "state": "RJ",
        "district": "UFRRJ",
        "street": "Rua UAE",
        "zipcode": "23897-140"
    },
    {
        "city": "Seropédica",
        "state": "RJ",
        "district": "UFRRJ",
        "street": "Rua UAG",
        "zipcode": "23897-150"
    },
    {
        "city": "Seropédica",
        "state": "RJ",
        "district": "UFRRJ",
        "street": "Rua UAH",
        "zipcode": "23897-155"
    },
    {
        "city": "Seropédica",
        "state": "RJ",
        "district": "UFRRJ",
        "street": "Rua UP",
        "zipcode": "23897-205"
    },
    {
        "city": "Seropédica",
        "state": "RJ",
        "district": "UFRRJ",
        "street": "Rua UO",
        "zipcode": "23897-035"
    },
    {
        "city": "Seropédica",
        "state": "RJ",
        "district": "UFRRJ",
        "street": "Rua UBA",
        "zipcode": "23897-040"
    },
    {
        "city": "Seropédica",
        "state": "RJ",
        "district": "UFRRJ",
        "street": "Rua UAU",
        "zipcode": "23897-055"
    },
    {
        "city": "Seropédica",
        "state": "RJ",
        "district": "UFRRJ",
        "street": "Rua UAV",
        "zipcode": "23897-060"
    },
    {
        "city": "Seropédica",
        "state": "RJ",
        "district": "UFRRJ",
        "street": "Rua UAK",
        "zipcode": "23897-070"
    },
    {
        "city": "Seropédica",
        "state": "RJ",
        "district": "UFRRJ",
        "street": "Rua UAS",
        "zipcode": "23897-075"
    },
    {
        "city": "Seropédica",
        "state": "RJ",
        "district": "São Miguel",
        "street": "Rua do Contorno",
        "zipcode": "23893-745"
    },
    {
        "city": "Seropédica",
        "state": "RJ",
        "district": "São Miguel",
        "street": "Rua Califórnia",
        "zipcode": "23893-750"
    },
    {
        "city": "Seropédica",
        "state": "RJ",
        "district": "Boa Esperança",
        "street": "Rua Itamar de Souza",
        "zipcode": "23894-378"
    },
    {
        "city": "Seropédica",
        "state": "RJ",
        "district": "Piranema",
        "street": "Estrada Reta dos Setecentos",
        "zipcode": "23898-600"
    },
    {
        "city": "Seropédica",
        "state": "RJ",
        "district": "Boa Esperança",
        "street": "Rua Cabo Frio",
        "zipcode": "23894-282"
    },
    {
        "city": "Seropédica",
        "state": "RJ",
        "district": "São Miguel",
        "street": "Rua Gercy P da Silva",
        "zipcode": "23893-755"
    },
    {
        "city": "Seropédica",
        "state": "RJ",
        "district": "Jardim Maracanã",
        "street": "Rua Z (Lot São Pedro)",
        "zipcode": "23891-635"
    },
    {
        "city": "Seropédica",
        "state": "RJ",
        "district": "São Miguel",
        "street": "Rua da Lagoa",
        "zipcode": "23893-735"
    },
    {
        "city": "Seropédica",
        "state": "RJ",
        "district": "São Miguel",
        "street": "Rua Osvaldo Dantas Martins",
        "zipcode": "23893-730"
    },
    {
        "city": "Seropédica",
        "state": "RJ",
        "district": "Campo Lindo",
        "street": "Rua José Messias",
        "zipcode": "23898-400"
    },
    {
        "city": "Seropédica",
        "state": "RJ",
        "district": "Jardim Maracanã",
        "street": "Rua C (Lot São Pedro)",
        "zipcode": "23891-655"
    },
    {
        "city": "Seropédica",
        "state": "RJ",
        "district": "São Miguel",
        "street": "Rua Thaise Regina da Silva",
        "zipcode": "23893-740"
    },
    {
        "city": "Seropédica",
        "state": "RJ",
        "district": "Ecologia",
        "street": "Rua Projetada C",
        "zipcode": "23891-390"
    },
    {
        "city": "Seropédica",
        "state": "RJ",
        "district": "Jardins",
        "street": "Rua Pedro Térvulo de Araújo",
        "zipcode": "23890-070"
    },
    {
        "city": "Seropédica",
        "state": "RJ",
        "district": "Ecologia",
        "street": "Rua UBJ",
        "zipcode": "23891-025"
    },
    {
        "city": "Seropédica",
        "state": "RJ",
        "district": "São Miguel",
        "street": "Rua K",
        "zipcode": "23893-765"
    },
    {
        "city": "Seropédica",
        "state": "RJ",
        "district": "São Miguel",
        "street": "Rua Benedito Barbosa Silveira",
        "zipcode": "23893-785"
    },
    {
        "city": "Seropédica",
        "state": "RJ",
        "district": "São Miguel",
        "street": "Rua Ademar Ferreira da Silva",
        "zipcode": "23893-800"
    },
    {
        "city": "Seropédica",
        "state": "RJ",
        "district": "São Miguel",
        "street": "Avenida Bandeirantes",
        "zipcode": "23893-805"
    },
    {
        "city": "Seropédica",
        "state": "RJ",
        "district": "São Miguel",
        "street": "Rua Imperador",
        "zipcode": "23893-810"
    },
    {
        "city": "Seropédica",
        "state": "RJ",
        "district": "São Miguel",
        "street": "Rua Flamengo",
        "zipcode": "23893-825"
    },
    {
        "city": "Seropédica",
        "state": "RJ",
        "district": "São Miguel",
        "street": "Rua Joaquim Salazar",
        "zipcode": "23893-830"
    },
    {
        "city": "Seropédica",
        "state": "RJ",
        "district": "Jardim Maracanã",
        "street": "Rua Quarenta e Três",
        "zipcode": "23891-785"
    },
    {
        "city": "Seropédica",
        "state": "RJ",
        "district": "Jardim Maracanã",
        "street": "Rua Eugênio Oliveira Gomes",
        "zipcode": "23891-795"
    },
    {
        "city": "Seropédica",
        "state": "RJ",
        "district": "Jardim Maracanã",
        "street": "Rua Valdemir Maia",
        "zipcode": "23891-800"
    },
    {
        "city": "Seropédica",
        "state": "RJ",
        "district": "Jardim Maracanã",
        "street": "Rua Magno de Sá",
        "zipcode": "23891-820"
    },
    {
        "city": "Seropédica",
        "state": "RJ",
        "district": "Jardim Maracanã",
        "street": "Rua Vinte e Três",
        "zipcode": "23891-825"
    },
    {
        "city": "Seropédica",
        "state": "RJ",
        "district": "Jardim Maracanã",
        "street": "Rua Vinte e Dois",
        "zipcode": "23891-830"
    },
    {
        "city": "Seropédica",
        "state": "RJ",
        "district": "Jardim Maracanã",
        "street": "Rodovia Presidente Dutra",
        "zipcode": "23891-835"
    },
    {
        "city": "Seropédica",
        "state": "RJ",
        "district": "Santa Alice",
        "street": "Rodovia Presidente Dutra",
        "zipcode": "23892-275"
    },
    {
        "city": "Seropédica",
        "state": "RJ",
        "district": "Cabral",
        "street": "Rodovia Presidente Dutra",
        "zipcode": "23893-470"
    },
    {
        "city": "Seropédica",
        "state": "RJ",
        "district": "Jardim Maracanã",
        "street": "Estrada Santa Ângela",
        "zipcode": "23891-840"
    },
    {
        "city": "Seropédica",
        "state": "RJ",
        "district": "Santa Alice",
        "street": "Estrada B",
        "zipcode": "23892-050"
    },
    {
        "city": "Seropédica",
        "state": "RJ",
        "district": "Santa Alice",
        "street": "Via A",
        "zipcode": "23892-380"
    },
    {
        "city": "Seropédica",
        "state": "RJ",
        "district": "Santa Alice",
        "street": "Estrada de Miguel Pereira",
        "zipcode": "23892-490"
    },
    {
        "city": "Seropédica",
        "state": "RJ",
        "district": "Nazaré",
        "street": "Estrada de Miguel Pereira",
        "zipcode": "23892-500"
    },
    {
        "city": "Seropédica",
        "state": "RJ",
        "district": "Carretão",
        "street": "Estrada de Miguel Pereira",
        "zipcode": "23893-000"
    },
    {
        "city": "Seropédica",
        "state": "RJ",
        "district": "São Miguel",
        "street": "Estrada de Miguel Pereira",
        "zipcode": "23893-890"
    },
    {
        "city": "Seropédica",
        "state": "RJ",
        "district": "Nazaré",
        "street": "Rua do Canal",
        "zipcode": "23892-720"
    },
    {
        "city": "Seropédica",
        "state": "RJ",
        "district": "São Miguel",
        "street": "Rua Viúva Graça",
        "zipcode": "23893-700"
    },
    {
        "city": "Seropédica",
        "state": "RJ",
        "district": "São Miguel",
        "street": "Rua Castro Alves",
        "zipcode": "23893-710"
    },
    {
        "city": "Seropédica",
        "state": "RJ",
        "district": "Santa Sofia",
        "street": "Avenida Irmãos Carvalhos",
        "zipcode": "23895-745"
    },
    {
        "city": "Seropédica",
        "state": "RJ",
        "district": "Jardim Maracanã",
        "street": "Rua K (Lot São Pedro)",
        "zipcode": "23891-685"
    },
    {
        "city": "Seropédica",
        "state": "RJ",
        "district": "Jardim Maracanã",
        "street": "Rua Everaldo Neves Viana",
        "zipcode": "23891-780"
    },
    {
        "city": "Seropédica",
        "state": "RJ",
        "district": "São Miguel",
        "street": "Rua Novina de Souza Ramos",
        "zipcode": "23893-757"
    },
    {
        "city": "Seropédica",
        "state": "RJ",
        "district": "Boa Esperança",
        "street": "Rua D (Lot Vivendas da Flórida)",
        "zipcode": "23894-004"
    },
    {
        "city": "Seropédica",
        "state": "RJ",
        "district": "Boa Esperança",
        "street": "Rua K (Lot Vivendas da Flórida)",
        "zipcode": "23894-018"
    },
    {
        "city": "Seropédica",
        "state": "RJ",
        "district": "Boa Esperança",
        "street": "Rua C (Lot Vivendas da Flórida)",
        "zipcode": "23894-022"
    },
    {
        "city": "Seropédica",
        "state": "RJ",
        "district": "Boa Esperança",
        "street": "Estrada São Domingos",
        "zipcode": "23894-080"
    },
    {
        "city": "Seropédica",
        "state": "RJ",
        "district": "Boa Esperança",
        "street": "Rua Sete de Setembro",
        "zipcode": "23894-085"
    },
    {
        "city": "Seropédica",
        "state": "RJ",
        "district": "Boa Esperança",
        "street": "Rua Setenta e Dois",
        "zipcode": "23894-130"
    },
    {
        "city": "Seropédica",
        "state": "RJ",
        "district": "Boa Esperança",
        "street": "Avenida Bento Rodrigues Noia",
        "zipcode": "23894-170"
    },
    {
        "city": "Seropédica",
        "state": "RJ",
        "district": "Boa Esperança",
        "street": "Rua Pica",
        "zipcode": "23894-174"
    },
    {
        "city": "Seropédica",
        "state": "RJ",
        "district": "Boa Esperança",
        "street": "Rua Oitenta e Seis",
        "zipcode": "23894-186"
    },
    {
        "city": "Seropédica",
        "state": "RJ",
        "district": "Boa Esperança",
        "street": "Travessa I",
        "zipcode": "23894-190"
    },
    {
        "city": "Seropédica",
        "state": "RJ",
        "district": "São Miguel",
        "street": "Rua José Manuel da Silva",
        "zipcode": "23893-780"
    },
    {
        "city": "Seropédica",
        "state": "RJ",
        "district": "Boa Esperança",
        "street": "Rua L (Lot Vivendas da Flórida)",
        "zipcode": "23894-020"
    },
    {
        "city": "Seropédica",
        "state": "RJ",
        "district": "Cabral",
        "street": "Rua Serafin Moreira Cabral",
        "zipcode": "23893-480"
    },
    {
        "city": "Seropédica",
        "state": "RJ",
        "district": "Jardim Maracanã",
        "street": "Rua José Gabriel Martins Vale",
        "zipcode": "23891-760"
    },
    {
        "city": "Seropédica",
        "state": "RJ",
        "district": "Boa Esperança",
        "street": "Rua J (Lot Vivendas da Flórida)",
        "zipcode": "23894-016"
    },
    {
        "city": "Seropédica",
        "state": "RJ",
        "district": "Boa Esperança",
        "street": "Rua Mil e Vinte e Quatro",
        "zipcode": "23894-202"
    },
    {
        "city": "Seropédica",
        "state": "RJ",
        "district": "São Miguel",
        "street": "Rua Isabel de Souza Magalhães",
        "zipcode": "23893-775"
    },
    {
        "city": "Seropédica",
        "state": "RJ",
        "district": "Boa Esperança",
        "street": "Rua M (Lot Vivendas da Flórida)",
        "zipcode": "23894-024"
    },
    {
        "city": "Seropédica",
        "state": "RJ",
        "district": "Boa Esperança",
        "street": "Rua Trinta (Lot Mutirão)",
        "zipcode": "23894-198"
    },
    {
        "city": "Seropédica",
        "state": "RJ",
        "district": "Cabral",
        "street": "Estrada de Paulo de Frontin",
        "zipcode": "23893-460"
    },
    {
        "city": "Seropédica",
        "state": "RJ",
        "district": "Carretão",
        "street": "Estação do Carretão",
        "zipcode": "23893-010"
    },
    {
        "city": "Seropédica",
        "state": "RJ",
        "district": "Boa Esperança",
        "street": "Rua D (Lot Mutirão)",
        "zipcode": "23894-222"
    },
    {
        "city": "Seropédica",
        "state": "RJ",
        "district": "São Miguel",
        "street": "Estrada das Águas Lindas",
        "zipcode": "23893-835"
    },
    {
        "city": "Seropédica",
        "state": "RJ",
        "district": "Jardim Maracanã",
        "street": "Rua J (Lot São Pedro)",
        "zipcode": "23891-670"
    },
    {
        "city": "Seropédica",
        "state": "RJ",
        "district": "Nazaré",
        "street": "Rua Nossa Senhora da Conceição",
        "zipcode": "23892-750"
    },
    {
        "city": "Seropédica",
        "state": "RJ",
        "district": "São Miguel",
        "street": "Rua Ana Lúcia Leite Anselmo",
        "zipcode": "23893-790"
    },
    {
        "city": "Seropédica",
        "state": "RJ",
        "district": "Boa Esperança",
        "street": "Rua C (Lot Mutirão)",
        "zipcode": "23894-226"
    },
    {
        "city": "Seropédica",
        "state": "RJ",
        "district": "Boa Esperança",
        "street": "Rua Oitenta e Três",
        "zipcode": "23894-242"
    },
    {
        "city": "Seropédica",
        "state": "RJ",
        "district": "Boa Esperança",
        "street": "Rua Vinte e Quatro",
        "zipcode": "23894-482"
    },
    {
        "city": "Seropédica",
        "state": "RJ",
        "district": "Boa Esperança",
        "street": "Rua Oitenta e Quatro",
        "zipcode": "23894-246"
    },
    {
        "city": "Seropédica",
        "state": "RJ",
        "district": "Boa Esperança",
        "street": "Rua Noventa e Dois",
        "zipcode": "23894-250"
    },
    {
        "city": "Seropédica",
        "state": "RJ",
        "district": "Boa Esperança",
        "street": "Rua Oitenta e Um",
        "zipcode": "23894-254"
    },
    {
        "city": "Seropédica",
        "state": "RJ",
        "district": "Boa Esperança",
        "street": "Rua Oitenta",
        "zipcode": "23894-258"
    },
    {
        "city": "Seropédica",
        "state": "RJ",
        "district": "Boa Esperança",
        "street": "Rua Setenta e Oito",
        "zipcode": "23894-266"
    },
    {
        "city": "Seropédica",
        "state": "RJ",
        "district": "Boa Esperança",
        "street": "Rua Setenta e Sete",
        "zipcode": "23894-270"
    },
    {
        "city": "Seropédica",
        "state": "RJ",
        "district": "Boa Esperança",
        "street": "Rua Campo Grande",
        "zipcode": "23894-278"
    },
    {
        "city": "Seropédica",
        "state": "RJ",
        "district": "Boa Esperança",
        "street": "Rua Araruama",
        "zipcode": "23894-286"
    },
    {
        "city": "Seropédica",
        "state": "RJ",
        "district": "Boa Esperança",
        "street": "Rua D (Lot Vale do Ipê)",
        "zipcode": "23894-302"
    },
    {
        "city": "Seropédica",
        "state": "RJ",
        "district": "Boa Esperança",
        "street": "Rua Imbariê",
        "zipcode": "23894-314"
    },
    {
        "city": "Seropédica",
        "state": "RJ",
        "district": "Boa Esperança",
        "street": "Rua José Mendonça",
        "zipcode": "23894-322"
    },
    {
        "city": "Seropédica",
        "state": "RJ",
        "district": "Boa Esperança",
        "street": "Rua Tacaratu Marques",
        "zipcode": "23894-330"
    },
    {
        "city": "Seropédica",
        "state": "RJ",
        "district": "Boa Esperança",
        "street": "Rua Teresópolis",
        "zipcode": "23894-370"
    },
    {
        "city": "Seropédica",
        "state": "RJ",
        "district": "Boa Esperança",
        "street": "Rua Cambuci",
        "zipcode": "23894-374"
    },
    {
        "city": "Seropédica",
        "state": "RJ",
        "district": "Boa Esperança",
        "street": "Rua Petrópolis",
        "zipcode": "23894-386"
    },
    {
        "city": "Seropédica",
        "state": "RJ",
        "district": "Boa Esperança",
        "street": "Rua Magé",
        "zipcode": "23894-394"
    },
    {
        "city": "Seropédica",
        "state": "RJ",
        "district": "Boa Esperança",
        "street": "Rua Alcínio Moffato",
        "zipcode": "23894-402"
    },
    {
        "city": "Seropédica",
        "state": "RJ",
        "district": "Boa Esperança",
        "street": "Rua K",
        "zipcode": "23894-406"
    },
    {
        "city": "Seropédica",
        "state": "RJ",
        "district": "Boa Esperança",
        "street": "Rua Vassouras",
        "zipcode": "23894-414"
    },
    {
        "city": "Seropédica",
        "state": "RJ",
        "district": "Boa Esperança",
        "street": "Rua Jaime de Oliveira",
        "zipcode": "23894-422"
    },
    {
        "city": "Seropédica",
        "state": "RJ",
        "district": "Boa Esperança",
        "street": "Rua Jairo Ramalho",
        "zipcode": "23894-426"
    },
    {
        "city": "Seropédica",
        "state": "RJ",
        "district": "Boa Esperança",
        "street": "Rua Corália Vandeck",
        "zipcode": "23894-430"
    },
    {
        "city": "Seropédica",
        "state": "RJ",
        "district": "Boa Esperança",
        "street": "Rua Vereador Aldacir Medeiros",
        "zipcode": "23894-438"
    },
    {
        "city": "Seropédica",
        "state": "RJ",
        "district": "Boa Esperança",
        "street": "Avenida K",
        "zipcode": "23894-466"
    },
    {
        "city": "Seropédica",
        "state": "RJ",
        "district": "Boa Esperança",
        "street": "Rua Trinta e Quatro",
        "zipcode": "23894-526"
    },
    {
        "city": "Seropédica",
        "state": "RJ",
        "district": "Boa Esperança",
        "street": "Rua Trinta e Cinco",
        "zipcode": "23894-530"
    },
    {
        "city": "Seropédica",
        "state": "RJ",
        "district": "Boa Esperança",
        "street": "Rua Trinta e Seis",
        "zipcode": "23894-534"
    },
    {
        "city": "Seropédica",
        "state": "RJ",
        "district": "Boa Esperança",
        "street": "Rua Cinquenta e Um",
        "zipcode": "23894-546"
    },
    {
        "city": "Seropédica",
        "state": "RJ",
        "district": "Boa Esperança",
        "street": "Rua Cinquenta",
        "zipcode": "23894-550"
    },
    {
        "city": "Seropédica",
        "state": "RJ",
        "district": "Boa Esperança",
        "street": "Rua Quarenta e Nove",
        "zipcode": "23894-554"
    },
    {
        "city": "Seropédica",
        "state": "RJ",
        "district": "Boa Esperança",
        "street": "Rua Quarenta e Oito",
        "zipcode": "23894-558"
    },
    {
        "city": "Seropédica",
        "state": "RJ",
        "district": "Boa Esperança",
        "street": "Rua Diaconisa Euzeni de Aguiar da Silva",
        "zipcode": "23894-670"
    },
    {
        "city": "Seropédica",
        "state": "RJ",
        "district": "Boa Esperança",
        "street": "Rua João P Mello",
        "zipcode": "23894-678"
    },
    {
        "city": "Seropédica",
        "state": "RJ",
        "district": "Boa Esperança",
        "street": "Rua D Vila",
        "zipcode": "23894-682"
    },
    {
        "city": "Seropédica",
        "state": "RJ",
        "district": "Boa Esperança",
        "street": "Travessa D Vila",
        "zipcode": "23894-686"
    },
    {
        "city": "Seropédica",
        "state": "RJ",
        "district": "Boa Esperança",
        "street": "Rua Treze",
        "zipcode": "23894-694"
    },
    {
        "city": "Seropédica",
        "state": "RJ",
        "district": "Boa Esperança",
        "street": "Rua Antenisca Paula de Souza",
        "zipcode": "23894-698"
    },
    {
        "city": "Seropédica",
        "state": "RJ",
        "district": "Boa Esperança",
        "street": "Rua Vinte e Cinco",
        "zipcode": "23894-486"
    },
    {
        "city": "Seropédica",
        "state": "RJ",
        "district": "Boa Esperança",
        "street": "Rua Vinte e Seis",
        "zipcode": "23894-498"
    },
    {
        "city": "Seropédica",
        "state": "RJ",
        "district": "Boa Esperança",
        "street": "Rua Vinte e Sete",
        "zipcode": "23894-502"
    },
    {
        "city": "Seropédica",
        "state": "RJ",
        "district": "Boa Esperança",
        "street": "Rua Barra do Piraí",
        "zipcode": "23894-274"
    },
    {
        "city": "Seropédica",
        "state": "RJ",
        "district": "Boa Esperança",
        "street": "Rua Sebastião Rodrigues Vieira",
        "zipcode": "23894-342"
    },
    {
        "city": "Seropédica",
        "state": "RJ",
        "district": "Boa Esperança",
        "street": "Rua José Bebiano Vieira Filho",
        "zipcode": "23894-350"
    },
    {
        "city": "Seropédica",
        "state": "RJ",
        "district": "Boa Esperança",
        "street": "Rua F (Lot Vale do Ipê)",
        "zipcode": "23894-294"
    },
    {
        "city": "Seropédica",
        "state": "RJ",
        "district": "Boa Esperança",
        "street": "Rua Mil e Quinze",
        "zipcode": "23894-362"
    },
    {
        "city": "Seropédica",
        "state": "RJ",
        "district": "Boa Esperança",
        "street": "Rua José de Souza Nogueira",
        "zipcode": "23894-702"
    },
    {
        "city": "Seropédica",
        "state": "RJ",
        "district": "Boa Esperança",
        "street": "Rua G (Lot Vale do Ipê)",
        "zipcode": "23894-298"
    },
    {
        "city": "Seropédica",
        "state": "RJ",
        "district": "Boa Esperança",
        "street": "Rua Mil e Dezenove",
        "zipcode": "23894-542"
    },
    {
        "city": "Seropédica",
        "state": "RJ",
        "district": "Boa Esperança",
        "street": "Rua Quarenta e Cinco",
        "zipcode": "23894-574"
    },
    {
        "city": "Seropédica",
        "state": "RJ",
        "district": "Boa Esperança",
        "street": "Rua Quarenta e Quatro",
        "zipcode": "23894-578"
    },
    {
        "city": "Seropédica",
        "state": "RJ",
        "district": "Boa Esperança",
        "street": "Rua Pedro Afonso",
        "zipcode": "23894-334"
    },
    {
        "city": "Seropédica",
        "state": "RJ",
        "district": "Boa Esperança",
        "street": "Rua Rubens José da Silva",
        "zipcode": "23894-674"
    },
    {
        "city": "Seropédica",
        "state": "RJ",
        "district": "Boa Esperança",
        "street": "Rua Vinte e Cinco (Lot Mutirão)",
        "zipcode": "23894-494"
    },
    {
        "city": "Seropédica",
        "state": "RJ",
        "district": "Boa Esperança",
        "street": "Rua B (Lot Vale do Ipê)",
        "zipcode": "23894-306"
    },
    {
        "city": "Seropédica",
        "state": "RJ",
        "district": "Boa Esperança",
        "street": "Rua Quarenta e Três",
        "zipcode": "23894-582"
    },
    {
        "city": "Seropédica",
        "state": "RJ",
        "district": "Boa Esperança",
        "street": "Rua Geraldo Silva",
        "zipcode": "23894-590"
    },
    {
        "city": "Seropédica",
        "state": "RJ",
        "district": "Boa Esperança",
        "street": "Rua Trinta e Sete",
        "zipcode": "23894-614"
    },
    {
        "city": "Seropédica",
        "state": "RJ",
        "district": "Boa Esperança",
        "street": "Rua Dez",
        "zipcode": "23894-622"
    },
    {
        "city": "Seropédica",
        "state": "RJ",
        "district": "Boa Esperança",
        "street": "Rua José Lourenço do Nascimento",
        "zipcode": "23894-626"
    },
    {
        "city": "Seropédica",
        "state": "RJ",
        "district": "Boa Esperança",
        "street": "Rua Setenta e Três",
        "zipcode": "23894-630"
    },
    {
        "city": "Seropédica",
        "state": "RJ",
        "district": "Boa Esperança",
        "street": "Rua Vinte e Oito",
        "zipcode": "23894-506"
    },
    {
        "city": "Seropédica",
        "state": "RJ",
        "district": "Boa Esperança",
        "street": "Rua Vinte e Nove",
        "zipcode": "23894-510"
    },
    {
        "city": "Seropédica",
        "state": "RJ",
        "district": "Boa Esperança",
        "street": "Rua Trinta",
        "zipcode": "23894-514"
    },
    {
        "city": "Seropédica",
        "state": "RJ",
        "district": "Boa Esperança",
        "street": "Rua Josefa Domingos",
        "zipcode": "23894-666"
    },
    {
        "city": "Seropédica",
        "state": "RJ",
        "district": "Boa Esperança",
        "street": "Rua Cinquenta e Nove",
        "zipcode": "23894-650"
    },
    {
        "city": "Seropédica",
        "state": "RJ",
        "district": "Boa Esperança",
        "street": "Rua João Gonçalves Silva",
        "zipcode": "23894-774"
    },
    {
        "city": "Seropédica",
        "state": "RJ",
        "district": "Boa Esperança",
        "street": "Rua Maria Joaquina Ribeiro",
        "zipcode": "23894-790"
    },
    {
        "city": "Seropédica",
        "state": "RJ",
        "district": "Boa Esperança",
        "street": "Rua Jayme Martins Reis",
        "zipcode": "23894-798"
    },
    {
        "city": "Seropédica",
        "state": "RJ",
        "district": "Boa Esperança",
        "street": "Rua Virgílio M Santos",
        "zipcode": "23894-806"
    },
    {
        "city": "Seropédica",
        "state": "RJ",
        "district": "Boa Esperança",
        "street": "Rua C (Lot Vila Sônia)",
        "zipcode": "23894-814"
    },
    {
        "city": "Seropédica",
        "state": "RJ",
        "district": "Boa Esperança",
        "street": "Rua Orlando Costermani",
        "zipcode": "23894-818"
    },
    {
        "city": "Seropédica",
        "state": "RJ",
        "district": "Boa Esperança",
        "street": "Rua Itatiaia",
        "zipcode": "23894-822"
    },
    {
        "city": "Seropédica",
        "state": "RJ",
        "district": "Boa Esperança",
        "street": "Rua José Caetano",
        "zipcode": "23894-826"
    },
    {
        "city": "Seropédica",
        "state": "RJ",
        "district": "Boa Esperança",
        "street": "Avenida Jorge Luiz Gonçalves",
        "zipcode": "23894-658"
    },
    {
        "city": "Seropédica",
        "state": "RJ",
        "district": "Boa Esperança",
        "street": "Rua Oito",
        "zipcode": "23894-662"
    },
    {
        "city": "Seropédica",
        "state": "RJ",
        "district": "Boa Esperança",
        "street": "Rua Dois",
        "zipcode": "23894-828"
    },
    {
        "city": "Seropédica",
        "state": "RJ",
        "district": "Boa Esperança",
        "street": "Rua Doze",
        "zipcode": "23894-672"
    },
    {
        "city": "Seropédica",
        "state": "RJ",
        "district": "Campo Lindo",
        "street": "Rua Z",
        "zipcode": "23898-420"
    },
    {
        "city": "Seropédica",
        "state": "RJ",
        "district": "Boa Esperança",
        "street": "Travessa João Ambrózio",
        "zipcode": "23894-754"
    },
    {
        "city": "Seropédica",
        "state": "RJ",
        "district": "Boa Esperança",
        "street": "Rua Maria Augusta Grijó",
        "zipcode": "23894-838"
    },
    {
        "city": "Seropédica",
        "state": "RJ",
        "district": "Boa Esperança",
        "street": "Rua Marlene Nunes da Silva",
        "zipcode": "23894-842"
    },
    {
        "city": "Seropédica",
        "state": "RJ",
        "district": "Boa Esperança",
        "street": "Rua Cleodon Feliz Silva",
        "zipcode": "23894-850"
    },
    {
        "city": "Seropédica",
        "state": "RJ",
        "district": "Boa Esperança",
        "street": "Rua Rio das Flores",
        "zipcode": "23894-858"
    },
    {
        "city": "Seropédica",
        "state": "RJ",
        "district": "Boa Esperança",
        "street": "Rua Macaé",
        "zipcode": "23894-866"
    },
    {
        "city": "Seropédica",
        "state": "RJ",
        "district": "Boa Esperança",
        "street": "Rua Piraí",
        "zipcode": "23894-874"
    },
    {
        "city": "Seropédica",
        "state": "RJ",
        "district": "Fazenda Caxias",
        "street": "Estrada João Ferreira",
        "zipcode": "23895-010"
    },
    {
        "city": "Seropédica",
        "state": "RJ",
        "district": "Fazenda Caxias",
        "street": "Rua Dezessete",
        "zipcode": "23895-075"
    },
    {
        "city": "Seropédica",
        "state": "RJ",
        "district": "Fazenda Caxias",
        "street": "Rua Quinze",
        "zipcode": "23895-085"
    },
    {
        "city": "Seropédica",
        "state": "RJ",
        "district": "Fazenda Caxias",
        "street": "Rua Quatorze",
        "zipcode": "23895-090"
    },
    {
        "city": "Seropédica",
        "state": "RJ",
        "district": "Fazenda Caxias",
        "street": "Rua Vovó Romana",
        "zipcode": "23895-095"
    },
    {
        "city": "Seropédica",
        "state": "RJ",
        "district": "Fazenda Caxias",
        "street": "Rua Treze",
        "zipcode": "23895-100"
    },
    {
        "city": "Seropédica",
        "state": "RJ",
        "district": "Fazenda Caxias",
        "street": "Rua José Carlos do Nascimento",
        "zipcode": "23895-110"
    },
    {
        "city": "Seropédica",
        "state": "RJ",
        "district": "Fazenda Caxias",
        "street": "Rua Vinte e Seis",
        "zipcode": "23895-115"
    },
    {
        "city": "Seropédica",
        "state": "RJ",
        "district": "Boa Esperança",
        "street": "Rua Juraci Barbosa da Silva",
        "zipcode": "23894-638"
    },
    {
        "city": "Seropédica",
        "state": "RJ",
        "district": "Fazenda Caxias",
        "street": "Rua Pedro Carvalho",
        "zipcode": "23895-070"
    },
    {
        "city": "Seropédica",
        "state": "RJ",
        "district": "Boa Esperança",
        "street": "Rua Nicolau Tunala",
        "zipcode": "23894-434"
    },
    {
        "city": "Seropédica",
        "state": "RJ",
        "district": "Boa Esperança",
        "street": "Rua Pedro F Barbosa",
        "zipcode": "23894-846"
    },
    {
        "city": "Seropédica",
        "state": "RJ",
        "district": "Boa Esperança",
        "street": "Rua Jaime Garcez Bello",
        "zipcode": "23894-862"
    },
    {
        "city": "Seropédica",
        "state": "RJ",
        "district": "Boa Esperança",
        "street": "Rua José Paucino",
        "zipcode": "23894-586"
    },
    {
        "city": "Seropédica",
        "state": "RJ",
        "district": "Boa Esperança",
        "street": "Rua Pedro Pereira",
        "zipcode": "23894-734"
    },
    {
        "city": "Seropédica",
        "state": "RJ",
        "district": "Boa Esperança",
        "street": "Rua João Alberto Simões Júnior",
        "zipcode": "23894-474"
    },
    {
        "city": "Seropédica",
        "state": "RJ",
        "district": "Boa Esperança",
        "street": "Rua Belarmino Gonçalves Chaves",
        "zipcode": "23894-470"
    },
    {
        "city": "Seropédica",
        "state": "RJ",
        "district": "Boa Esperança",
        "street": "Rua José Justino de Souza",
        "zipcode": "23894-730"
    },
    {
        "city": "Seropédica",
        "state": "RJ",
        "district": "Boa Esperança",
        "street": "Rua Gedeo de Menezes",
        "zipcode": "23894-646"
    },
    {
        "city": "Seropédica",
        "state": "RJ",
        "district": "Santa Sofia",
        "street": "Estrada do Gado",
        "zipcode": "23895-685"
    },
    {
        "city": "Seropédica",
        "state": "RJ",
        "district": "Fazenda Caxias",
        "street": "Rua Onze",
        "zipcode": "23895-120"
    },
    {
        "city": "Seropédica",
        "state": "RJ",
        "district": "Fazenda Caxias",
        "street": "Rua Tropical",
        "zipcode": "23895-135"
    },
    {
        "city": "Seropédica",
        "state": "RJ",
        "district": "Fazenda Caxias",
        "street": "Rua Inês Rodrigues de Lima",
        "zipcode": "23895-155"
    },
    {
        "city": "Seropédica",
        "state": "RJ",
        "district": "Fazenda Caxias",
        "street": "Rua Meu Cantinho",
        "zipcode": "23895-130"
    },
    {
        "city": "Seropédica",
        "state": "RJ",
        "district": "Boa Esperança",
        "street": "Rua Vila Ramos",
        "zipcode": "23894-618"
    },
    {
        "city": "Seropédica",
        "state": "RJ",
        "district": "Boa Esperança",
        "street": "Rua Enoch Resende",
        "zipcode": "23894-478"
    },
    {
        "city": "Seropédica",
        "state": "RJ",
        "district": "Boa Esperança",
        "street": "Rua Jair de Sousa Fernandes",
        "zipcode": "23894-742"
    },
    {
        "city": "Seropédica",
        "state": "RJ",
        "district": "Fazenda Caxias",
        "street": "Rua Josino Fernandes Nunes",
        "zipcode": "23895-160"
    },
    {
        "city": "Seropédica",
        "state": "RJ",
        "district": "Fazenda Caxias",
        "street": "Rua Ana Fraga",
        "zipcode": "23895-165"
    },
    {
        "city": "Seropédica",
        "state": "RJ",
        "district": "Fazenda Caxias",
        "street": "Travessa Abgail Vicente de Lima",
        "zipcode": "23895-190"
    },
    {
        "city": "Seropédica",
        "state": "RJ",
        "district": "Fazenda Caxias",
        "street": "Rua Iná Nascimento de Souza",
        "zipcode": "23895-195"
    },
    {
        "city": "Seropédica",
        "state": "RJ",
        "district": "Fazenda Caxias",
        "street": "Rua Solange Barros de Souza",
        "zipcode": "23895-200"
    },
    {
        "city": "Seropédica",
        "state": "RJ",
        "district": "Piranema",
        "street": "Rua Trinta",
        "zipcode": "23898-776"
    },
    {
        "city": "Seropédica",
        "state": "RJ",
        "district": "Boa Esperança",
        "street": "Rua Silvia Pereira Lopes",
        "zipcode": "23894-802"
    },
    {
        "city": "Seropédica",
        "state": "RJ",
        "district": "Boa Esperança",
        "street": "Travessa Itaperuna",
        "zipcode": "23894-834"
    },
    {
        "city": "Seropédica",
        "state": "RJ",
        "district": "Fazenda Caxias",
        "street": "Rua João Moura de Oliveira",
        "zipcode": "23895-290"
    },
    {
        "city": "Seropédica",
        "state": "RJ",
        "district": "Fazenda Caxias",
        "street": "Rua Walter Silva Pontes",
        "zipcode": "23895-315"
    },
    {
        "city": "Seropédica",
        "state": "RJ",
        "district": "Fazenda Caxias",
        "street": "Rua Francisco Glória",
        "zipcode": "23895-220"
    },
    {
        "city": "Seropédica",
        "state": "RJ",
        "district": "Fazenda Caxias",
        "street": "Rua Nove de Janeiro",
        "zipcode": "23895-230"
    },
    {
        "city": "Seropédica",
        "state": "RJ",
        "district": "Fazenda Caxias",
        "street": "Rua Vereador Jaime de Azevedo",
        "zipcode": "23895-235"
    },
    {
        "city": "Seropédica",
        "state": "RJ",
        "district": "Fazenda Caxias",
        "street": "Rua Antônio Tunala",
        "zipcode": "23895-245"
    },
    {
        "city": "Seropédica",
        "state": "RJ",
        "district": "Fazenda Caxias",
        "street": "Travessa XXX",
        "zipcode": "23895-250"
    },
    {
        "city": "Seropédica",
        "state": "RJ",
        "district": "Fazenda Caxias",
        "street": "Rua Geraldo Ribeiro",
        "zipcode": "23895-255"
    },
    {
        "city": "Seropédica",
        "state": "RJ",
        "district": "Fazenda Caxias",
        "street": "Rua Benedito Coelho de Castro",
        "zipcode": "23895-260"
    },
    {
        "city": "Seropédica",
        "state": "RJ",
        "district": "Fazenda Caxias",
        "street": "Travessa Pereira",
        "zipcode": "23895-270"
    },
    {
        "city": "Seropédica",
        "state": "RJ",
        "district": "Fazenda Caxias",
        "street": "Rua Demerval José da Silva",
        "zipcode": "23895-285"
    },
    {
        "city": "Seropédica",
        "state": "RJ",
        "district": "Fazenda Caxias",
        "street": "Avenida Ministro Fernando Costa",
        "zipcode": "23895-225"
    },
    {
        "city": "Seropédica",
        "state": "RJ",
        "district": "Fazenda Caxias",
        "street": "Rua Onofre de Souza",
        "zipcode": "23895-015"
    },
    {
        "city": "Seropédica",
        "state": "RJ",
        "district": "Santa Sofia",
        "street": "Rodovia BR",
        "zipcode": "23895-500"
    },
    {
        "city": "Seropédica",
        "state": "RJ",
        "district": "UFRRJ",
        "street": "Rua Itaperuna",
        "zipcode": "23897-095"
    },
    {
        "city": "Seropédica",
        "state": "RJ",
        "district": "Parque Jacimar",
        "street": "Rua Manoel Souza",
        "zipcode": "23897-580"
    },
    {
        "city": "Seropédica",
        "state": "RJ",
        "district": "Parque Jacimar",
        "street": "Rua Osmar Bento Silva",
        "zipcode": "23897-590"
    },
    {
        "city": "Seropédica",
        "state": "RJ",
        "district": "Parque Jacimar",
        "street": "Rua Maria C Silva",
        "zipcode": "23897-600"
    },
    {
        "city": "Seropédica",
        "state": "RJ",
        "district": "Parque Jacimar",
        "street": "Rua Manoel Cordeiro",
        "zipcode": "23897-640"
    },
    {
        "city": "Seropédica",
        "state": "RJ",
        "district": "Parque Jacimar",
        "street": "Rua Sérgio Bento Silva",
        "zipcode": "23897-660"
    },
    {
        "city": "Seropédica",
        "state": "RJ",
        "district": "Parque Jacimar",
        "street": "Rua Ana Vieira",
        "zipcode": "23897-680"
    },
    {
        "city": "Seropédica",
        "state": "RJ",
        "district": "Parque Jacimar",
        "street": "Avenida Eris Nunes Duarte",
        "zipcode": "23897-690"
    },
    {
        "city": "Seropédica",
        "state": "RJ",
        "district": "Campo Lindo",
        "street": "Rua Raul Alves",
        "zipcode": "23898-006"
    },
    {
        "city": "Seropédica",
        "state": "RJ",
        "district": "Campo Lindo",
        "street": "Rua Maria da Aparecida Souza",
        "zipcode": "23898-009"
    },
    {
        "city": "Seropédica",
        "state": "RJ",
        "district": "Campo Lindo",
        "street": "Rua Izabel Carmo de Azevedo",
        "zipcode": "23898-015"
    },
    {
        "city": "Seropédica",
        "state": "RJ",
        "district": "Campo Lindo",
        "street": "Rua Niterói",
        "zipcode": "23898-024"
    },
    {
        "city": "Seropédica",
        "state": "RJ",
        "district": "Campo Lindo",
        "street": "Rua Maria Tereza",
        "zipcode": "23898-027"
    },
    {
        "city": "Seropédica",
        "state": "RJ",
        "district": "Campo Lindo",
        "street": "Alameda Irinea Vercosa",
        "zipcode": "23898-030"
    },
    {
        "city": "Seropédica",
        "state": "RJ",
        "district": "Santa Sofia",
        "street": "Rua Professor José Maria de Brito",
        "zipcode": "23895-520"
    },
    {
        "city": "Seropédica",
        "state": "RJ",
        "district": "Santa Sofia",
        "street": "Estrada da Fonte Limpa",
        "zipcode": "23895-530"
    },
    {
        "city": "Seropédica",
        "state": "RJ",
        "district": "Santa Sofia",
        "street": "Rua F",
        "zipcode": "23895-535"
    },
    {
        "city": "Seropédica",
        "state": "RJ",
        "district": "Santa Sofia",
        "street": "Rua D",
        "zipcode": "23895-540"
    },
    {
        "city": "Seropédica",
        "state": "RJ",
        "district": "Santa Sofia",
        "street": "Rua G",
        "zipcode": "23895-545"
    },
    {
        "city": "Seropédica",
        "state": "RJ",
        "district": "Santa Sofia",
        "street": "Rua C",
        "zipcode": "23895-550"
    },
    {
        "city": "Seropédica",
        "state": "RJ",
        "district": "Santa Sofia",
        "street": "Travessa das Almas",
        "zipcode": "23895-690"
    },
    {
        "city": "Seropédica",
        "state": "RJ",
        "district": "Santa Sofia",
        "street": "Rua João Delmiro",
        "zipcode": "23895-695"
    },
    {
        "city": "Seropédica",
        "state": "RJ",
        "district": "Santa Sofia",
        "street": "Rua das Almas",
        "zipcode": "23895-700"
    },
    {
        "city": "Seropédica",
        "state": "RJ",
        "district": "Santa Sofia",
        "street": "Rua Aderito Cruz",
        "zipcode": "23895-505"
    },
    {
        "city": "Seropédica",
        "state": "RJ",
        "district": "Boa Esperança",
        "street": "Rua José Pereira Santos",
        "zipcode": "23894-786"
    },
    {
        "city": "Seropédica",
        "state": "RJ",
        "district": "Fazenda Caxias",
        "street": "Rua Emanuel Tomaz de Araújo",
        "zipcode": "23895-150"
    },
    {
        "city": "Seropédica",
        "state": "RJ",
        "district": "Santa Sofia",
        "street": "Rua Ademir da S Santos",
        "zipcode": "23895-525"
    },
    {
        "city": "Seropédica",
        "state": "RJ",
        "district": "Fazenda Caxias",
        "street": "Rua Pedacinho do Céu",
        "zipcode": "23895-125"
    },
    {
        "city": "Seropédica",
        "state": "RJ",
        "district": "Santa Sofia",
        "street": "Rua Santo Antônio",
        "zipcode": "23895-710"
    },
    {
        "city": "Seropédica",
        "state": "RJ",
        "district": "Santa Sofia",
        "street": "Rua São Sebastião",
        "zipcode": "23895-730"
    },
    {
        "city": "Seropédica",
        "state": "RJ",
        "district": "Santa Sofia",
        "street": "Rua São Judas Tadeu",
        "zipcode": "23895-775"
    },
    {
        "city": "Seropédica",
        "state": "RJ",
        "district": "Santa Sofia",
        "street": "Rua Santa Sofia",
        "zipcode": "23895-835"
    },
    {
        "city": "Seropédica",
        "state": "RJ",
        "district": "Santa Sofia",
        "street": "Rua São Luiz",
        "zipcode": "23895-720"
    },
    {
        "city": "Seropédica",
        "state": "RJ",
        "district": "Santa Sofia",
        "street": "Rua Pedro Valente",
        "zipcode": "23895-510"
    },
    {
        "city": "Seropédica",
        "state": "RJ",
        "district": "Boa Esperança",
        "street": "Rua Carlos Pinheiro da Gama",
        "zipcode": "23894-782"
    },
    {
        "city": "Seropédica",
        "state": "RJ",
        "district": "Chaperó",
        "street": "Estrada Santa Rosa",
        "zipcode": "23896-880"
    },
    {
        "city": "Seropédica",
        "state": "RJ",
        "district": "Parque Jacimar",
        "street": "Rua Manoel Matos",
        "zipcode": "23897-470"
    },
    {
        "city": "Seropédica",
        "state": "RJ",
        "district": "Parque Jacimar",
        "street": "Rua Adolfo Lima",
        "zipcode": "23897-480"
    },
    {
        "city": "Seropédica",
        "state": "RJ",
        "district": "Parque Jacimar",
        "street": "Rua Enedino Tavares",
        "zipcode": "23897-490"
    },
    {
        "city": "Seropédica",
        "state": "RJ",
        "district": "Parque Jacimar",
        "street": "Rua G",
        "zipcode": "23897-530"
    },
    {
        "city": "Seropédica",
        "state": "RJ",
        "district": "Fazenda Caxias",
        "street": "Rua Faustino Fernandes Moura",
        "zipcode": "23895-210"
    },
    {
        "city": "Seropédica",
        "state": "RJ",
        "district": "UFRRJ",
        "street": "Rua da Floresta",
        "zipcode": "23897-005"
    },
    {
        "city": "Seropédica",
        "state": "RJ",
        "district": "Fazenda Caxias",
        "street": "Rua Faustino Fernandes de Moura",
        "zipcode": "23895-300"
    },
    {
        "city": "Seropédica",
        "state": "RJ",
        "district": "Fazenda Caxias",
        "street": "Rua A (Lot Heny)",
        "zipcode": "23895-305"
    },
    {
        "city": "Seropédica",
        "state": "RJ",
        "district": "Fazenda Caxias",
        "street": "Rua B (Lot Heny)",
        "zipcode": "23895-310"
    },
    {
        "city": "Seropédica",
        "state": "RJ",
        "district": "Fazenda Caxias",
        "street": "Rua Isidro Borges",
        "zipcode": "23895-330"
    },
    {
        "city": "Seropédica",
        "state": "RJ",
        "district": "Fazenda Caxias",
        "street": "Rua João Flausino",
        "zipcode": "23895-335"
    },
    {
        "city": "Seropédica",
        "state": "RJ",
        "district": "Fazenda Caxias",
        "street": "Rua Vinte e Quatro",
        "zipcode": "23895-345"
    },
    {
        "city": "Seropédica",
        "state": "RJ",
        "district": "Fazenda Caxias",
        "street": "Rua Vinte e Três",
        "zipcode": "23895-350"
    },
    {
        "city": "Seropédica",
        "state": "RJ",
        "district": "Fazenda Caxias",
        "street": "Rua Vinte e Dois",
        "zipcode": "23895-355"
    },
    {
        "city": "Seropédica",
        "state": "RJ",
        "district": "Fazenda Caxias",
        "street": "Rua Vinte e Um",
        "zipcode": "23895-360"
    },
    {
        "city": "Seropédica",
        "state": "RJ",
        "district": "Fazenda Caxias",
        "street": "Rua Demétrio de Brito",
        "zipcode": "23895-280"
    },
    {
        "city": "Seropédica",
        "state": "RJ",
        "district": "Parque Jacimar",
        "street": "Estrada Reta de Piranema",
        "zipcode": "23897-550"
    },
    {
        "city": "Seropédica",
        "state": "RJ",
        "district": "Parque Jacimar",
        "street": "Rua Jacimar",
        "zipcode": "23897-570"
    },
    {
        "city": "Seropédica",
        "state": "RJ",
        "district": "Campo Lindo",
        "street": "Rua Marcílio Dias",
        "zipcode": "23898-036"
    },
    {
        "city": "Seropédica",
        "state": "RJ",
        "district": "Campo Lindo",
        "street": "Rua Waldetario Cruz",
        "zipcode": "23898-042"
    },
    {
        "city": "Seropédica",
        "state": "RJ",
        "district": "Campo Lindo",
        "street": "Rua Manoel Gomes Novo",
        "zipcode": "23898-045"
    },
    {
        "city": "Seropédica",
        "state": "RJ",
        "district": "Campo Lindo",
        "street": "Rua José Monteiro",
        "zipcode": "23898-048"
    },
    {
        "city": "Seropédica",
        "state": "RJ",
        "district": "Campo Lindo",
        "street": "Rua Vicente Celestino",
        "zipcode": "23898-054"
    },
    {
        "city": "Seropédica",
        "state": "RJ",
        "district": "Campo Lindo",
        "street": "Rua Pedro Santana",
        "zipcode": "23898-063"
    },
    {
        "city": "Seropédica",
        "state": "RJ",
        "district": "Campo Lindo",
        "street": "Rua Sabiá",
        "zipcode": "23898-069"
    },
    {
        "city": "Seropédica",
        "state": "RJ",
        "district": "Campo Lindo",
        "street": "Rua Pardais",
        "zipcode": "23898-072"
    },
    {
        "city": "Seropédica",
        "state": "RJ",
        "district": "Campo Lindo",
        "street": "Rua Rita Batista",
        "zipcode": "23898-081"
    },
    {
        "city": "Seropédica",
        "state": "RJ",
        "district": "Campo Lindo",
        "street": "Rua Natalício Cardoso dos Santos",
        "zipcode": "23898-087"
    },
    {
        "city": "Seropédica",
        "state": "RJ",
        "district": "Campo Lindo",
        "street": "Rua João da Luz",
        "zipcode": "23898-090"
    },
    {
        "city": "Seropédica",
        "state": "RJ",
        "district": "Campo Lindo",
        "street": "Rua Pedro Galvão",
        "zipcode": "23898-093"
    },
    {
        "city": "Seropédica",
        "state": "RJ",
        "district": "Campo Lindo",
        "street": "Rua Manoel Lopes de Oliveira",
        "zipcode": "23898-096"
    },
    {
        "city": "Seropédica",
        "state": "RJ",
        "district": "Campo Lindo",
        "street": "Rua Seminarista Marconi",
        "zipcode": "23898-102"
    },
    {
        "city": "Seropédica",
        "state": "RJ",
        "district": "Campo Lindo",
        "street": "Rua Gilberto Stanek Filho",
        "zipcode": "23898-105"
    },
    {
        "city": "Seropédica",
        "state": "RJ",
        "district": "Campo Lindo",
        "street": "Rua João Fabiano",
        "zipcode": "23898-108"
    },
    {
        "city": "Seropédica",
        "state": "RJ",
        "district": "Campo Lindo",
        "street": "Rua Santa Maria",
        "zipcode": "23898-111"
    },
    {
        "city": "Seropédica",
        "state": "RJ",
        "district": "Campo Lindo",
        "street": "Rua das Flores",
        "zipcode": "23898-120"
    },
    {
        "city": "Seropédica",
        "state": "RJ",
        "district": "Campo Lindo",
        "street": "Rua O",
        "zipcode": "23898-123"
    },
    {
        "city": "Seropédica",
        "state": "RJ",
        "district": "Campo Lindo",
        "street": "Rua Vinte e Nove",
        "zipcode": "23898-160"
    },
    {
        "city": "Seropédica",
        "state": "RJ",
        "district": "Campo Lindo",
        "street": "Alameda Trinta",
        "zipcode": "23898-165"
    },
    {
        "city": "Seropédica",
        "state": "RJ",
        "district": "Campo Lindo",
        "street": "Rua Quarenta e Cinco",
        "zipcode": "23898-170"
    },
    {
        "city": "Seropédica",
        "state": "RJ",
        "district": "Santa Sofia",
        "street": "Rua Ivan Jorge B Viana",
        "zipcode": "23895-830"
    },
    {
        "city": "Seropédica",
        "state": "RJ",
        "district": "Parque Jacimar",
        "street": "Rua Aroldo Brazato",
        "zipcode": "23897-650"
    },
    {
        "city": "Seropédica",
        "state": "RJ",
        "district": "Parque Jacimar",
        "street": "Rua Durvalino F Jesus",
        "zipcode": "23897-620"
    },
    {
        "city": "Seropédica",
        "state": "RJ",
        "district": "Parque Jacimar",
        "street": "Rua Júlia C de Lemos",
        "zipcode": "23897-610"
    },
    {
        "city": "Seropédica",
        "state": "RJ",
        "district": "Santa Sofia",
        "street": "Rua Jaimir Ramos",
        "zipcode": "23895-735"
    },
    {
        "city": "Seropédica",
        "state": "RJ",
        "district": "Santa Sofia",
        "street": "Rua João da Cruz",
        "zipcode": "23895-715"
    },
    {
        "city": "Seropédica",
        "state": "RJ",
        "district": "Parque Jacimar",
        "street": "Rua Benedito E de Oliveira",
        "zipcode": "23897-430"
    },
    {
        "city": "Seropédica",
        "state": "RJ",
        "district": "Fazenda Caxias",
        "street": "Rua Euclides Pereira",
        "zipcode": "23895-275"
    },
    {
        "city": "Seropédica",
        "state": "RJ",
        "district": "Campo Lindo",
        "street": "Rua Vinte e Oito",
        "zipcode": "23898-180"
    },
    {
        "city": "Seropédica",
        "state": "RJ",
        "district": "Campo Lindo",
        "street": "Rua Vinte e Sete",
        "zipcode": "23898-185"
    },
    {
        "city": "Seropédica",
        "state": "RJ",
        "district": "Campo Lindo",
        "street": "Rua Vinte e Seis",
        "zipcode": "23898-190"
    },
    {
        "city": "Seropédica",
        "state": "RJ",
        "district": "Campo Lindo",
        "street": "Rua Canalizada",
        "zipcode": "23898-195"
    },
    {
        "city": "Seropédica",
        "state": "RJ",
        "district": "Santa Sofia",
        "street": "Rua Álvaro Barbosa",
        "zipcode": "23895-755"
    },
    {
        "city": "Seropédica",
        "state": "RJ",
        "district": "Santa Sofia",
        "street": "Rua Joaquim Ramos",
        "zipcode": "23895-785"
    },
    {
        "city": "Seropédica",
        "state": "RJ",
        "district": "Campo Lindo",
        "street": "Rua Engenheiro Konrado Door",
        "zipcode": "23898-012"
    },
    {
        "city": "Seropédica",
        "state": "RJ",
        "district": "Santa Sofia",
        "street": "Rua Jurandir Silva de Carvalho",
        "zipcode": "23895-790"
    },
    {
        "city": "Seropédica",
        "state": "RJ",
        "district": "Campo Lindo",
        "street": "Rua Raimundo Antônio dos Santos",
        "zipcode": "23898-018"
    },
    {
        "city": "Seropédica",
        "state": "RJ",
        "district": "Campo Lindo",
        "street": "Alameda Oito",
        "zipcode": "23898-255"
    },
    {
        "city": "Seropédica",
        "state": "RJ",
        "district": "Campo Lindo",
        "street": "Rua Quarenta e Nove",
        "zipcode": "23898-295"
    },
    {
        "city": "Seropédica",
        "state": "RJ",
        "district": "Campo Lindo",
        "street": "Rua Quarenta e Sete",
        "zipcode": "23898-300"
    },
    {
        "city": "Seropédica",
        "state": "RJ",
        "district": "Campo Lindo",
        "street": "Alameda Seis",
        "zipcode": "23898-310"
    },
    {
        "city": "Seropédica",
        "state": "RJ",
        "district": "Campo Lindo",
        "street": "Rua Dezoito",
        "zipcode": "23898-330"
    },
    {
        "city": "Seropédica",
        "state": "RJ",
        "district": "Campo Lindo",
        "street": "Rua Dezessete",
        "zipcode": "23898-335"
    },
    {
        "city": "Seropédica",
        "state": "RJ",
        "district": "Parque Jacimar",
        "street": "Rua José P Santos",
        "zipcode": "23897-500"
    },
    {
        "city": "Seropédica",
        "state": "RJ",
        "district": "Campo Lindo",
        "street": "Rua José Eleotério",
        "zipcode": "23898-220"
    },
    {
        "city": "Seropédica",
        "state": "RJ",
        "district": "Campo Lindo",
        "street": "Rua Manoel Gonçalves",
        "zipcode": "23898-230"
    },
    {
        "city": "Seropédica",
        "state": "RJ",
        "district": "Campo Lindo",
        "street": "Rua Trinta e Um",
        "zipcode": "23898-240"
    },
    {
        "city": "Seropédica",
        "state": "RJ",
        "district": "Campo Lindo",
        "street": "Rua Um",
        "zipcode": "23898-410"
    },
    {
        "city": "Seropédica",
        "state": "RJ",
        "district": "Campo Lindo",
        "street": "Rua X",
        "zipcode": "23898-430"
    },
    {
        "city": "Seropédica",
        "state": "RJ",
        "district": "Campo Lindo",
        "street": "Rua Manoel Rocha",
        "zipcode": "23898-455"
    },
    {
        "city": "Seropédica",
        "state": "RJ",
        "district": "Piranema",
        "street": "Estrada dos Bandeirantes",
        "zipcode": "23898-893"
    },
    {
        "city": "Seropédica",
        "state": "RJ",
        "district": "Piranema",
        "street": "Estrada João Ferreira",
        "zipcode": "23898-770"
    },
    {
        "city": "Seropédica",
        "state": "RJ",
        "district": "Campo Lindo",
        "street": "Rua João Pereira dos Santos",
        "zipcode": "23898-155"
    },
    {
        "city": "Seropédica",
        "state": "RJ",
        "district": "Incra",
        "street": "Avenida Recife",
        "zipcode": "23890-630"
    },
    {
        "city": "Seropédica",
        "state": "RJ",
        "district": "Incra",
        "street": "Avenida dos Eucaliptos",
        "zipcode": "23890-670"
    },
    {
        "city": "Seropédica",
        "state": "RJ",
        "district": "Ecologia",
        "street": "Rua Vitória",
        "zipcode": "23891-330"
    },
    {
        "city": "Seropédica",
        "state": "RJ",
        "district": "Ecologia",
        "street": "Rua Meteorologia",
        "zipcode": "23891-355"
    },
    {
        "city": "Seropédica",
        "state": "RJ",
        "district": "Ecologia",
        "street": "Rua K",
        "zipcode": "23891-370"
    },
    {
        "city": "Seropédica",
        "state": "RJ",
        "district": "Jardins",
        "street": "Rua Adolfo Cardoso",
        "zipcode": "23890-061"
    },
    {
        "city": "Seropédica",
        "state": "RJ",
        "district": "Jardins",
        "street": "Rua Jorge Soares de Souza",
        "zipcode": "23890-079"
    },
    {
        "city": "Seropédica",
        "state": "RJ",
        "district": "Jardins",
        "street": "Rua Jorge da Silva",
        "zipcode": "23890-100"
    },
    {
        "city": "Seropédica",
        "state": "RJ",
        "district": "Jardins",
        "street": "Rua Júlia Martins",
        "zipcode": "23890-148"
    },
    {
        "city": "Seropédica",
        "state": "RJ",
        "district": "Piranema",
        "street": "Rua Fábio Alves",
        "zipcode": "23898-503"
    },
    {
        "city": "Seropédica",
        "state": "RJ",
        "district": "Piranema",
        "street": "Rua Ângelo Campos",
        "zipcode": "23898-524"
    },
    {
        "city": "Seropédica",
        "state": "RJ",
        "district": "Piranema",
        "street": "Rua Dois",
        "zipcode": "23898-527"
    },
    {
        "city": "Seropédica",
        "state": "RJ",
        "district": "Piranema",
        "street": "Rua Gilmar N Francisco",
        "zipcode": "23898-539"
    },
    {
        "city": "Seropédica",
        "state": "RJ",
        "district": "Piranema",
        "street": "Rua Manoel Campos",
        "zipcode": "23898-542"
    },
    {
        "city": "Seropédica",
        "state": "RJ",
        "district": "Piranema",
        "street": "Estrada Santa Rosa",
        "zipcode": "23898-772"
    },
    {
        "city": "Seropédica",
        "state": "RJ",
        "district": "Piranema",
        "street": "Rua Vinte e Três",
        "zipcode": "23898-778"
    },
    {
        "city": "Seropédica",
        "state": "RJ",
        "district": "Piranema",
        "street": "Rua Vinte e Oito",
        "zipcode": "23898-780"
    },
    {
        "city": "Seropédica",
        "state": "RJ",
        "district": "Piranema",
        "street": "Rua Vinte e Cinco",
        "zipcode": "23898-782"
    },
    {
        "city": "Seropédica",
        "state": "RJ",
        "district": "Piranema",
        "street": "Rua Vinte e Seis",
        "zipcode": "23898-784"
    },
    {
        "city": "Seropédica",
        "state": "RJ",
        "district": "Piranema",
        "street": "Rua Manoel M Vasconcelos",
        "zipcode": "23898-790"
    },
    {
        "city": "Seropédica",
        "state": "RJ",
        "district": "Canto do Rio",
        "street": "Estrada do Cortume",
        "zipcode": "23899-006"
    },
    {
        "city": "Seropédica",
        "state": "RJ",
        "district": "Canto do Rio",
        "street": "Rua B",
        "zipcode": "23899-009"
    },
    {
        "city": "Seropédica",
        "state": "RJ",
        "district": "Canto do Rio",
        "street": "Rua D",
        "zipcode": "23899-015"
    },
    {
        "city": "Seropédica",
        "state": "RJ",
        "district": "Canto do Rio",
        "street": "Rua F",
        "zipcode": "23899-021"
    },
    {
        "city": "Seropédica",
        "state": "RJ",
        "district": "Canto do Rio",
        "street": "Rua A",
        "zipcode": "23899-024"
    },
    {
        "city": "Seropédica",
        "state": "RJ",
        "district": "Campo Lindo",
        "street": "Rua Geraldo Alves",
        "zipcode": "23898-415"
    },
    {
        "city": "Seropédica",
        "state": "RJ",
        "district": "Santa Sofia",
        "street": "Rua São Marcos",
        "zipcode": "23895-780"
    },
    {
        "city": "Seropédica",
        "state": "RJ",
        "district": "Campo Lindo",
        "street": "Rua João Damasceno Fontes",
        "zipcode": "23898-265"
    },
    {
        "city": "Seropédica",
        "state": "RJ",
        "district": "Campo Lindo",
        "street": "Rua Senhor Severino",
        "zipcode": "23898-200"
    },
    {
        "city": "Seropédica",
        "state": "RJ",
        "district": "Parque Jacimar",
        "street": "Avenida Magaldi",
        "zipcode": "23897-520"
    },
    {
        "city": "Seropédica",
        "state": "RJ",
        "district": "Campo Lindo",
        "street": "Rua Quinze",
        "zipcode": "23898-340"
    },
    {
        "city": "Seropédica",
        "state": "RJ",
        "district": "Campo Lindo",
        "street": "Rua Olaria",
        "zipcode": "23898-345"
    },
    {
        "city": "Seropédica",
        "state": "RJ",
        "district": "Piranema",
        "street": "Rua Onze",
        "zipcode": "23898-800"
    },
    {
        "city": "Seropédica",
        "state": "RJ",
        "district": "Piranema",
        "street": "Rua Quatorze",
        "zipcode": "23898-794"
    },
    {
        "city": "Seropédica",
        "state": "RJ",
        "district": "Piranema",
        "street": "Rua Nove",
        "zipcode": "23898-796"
    },
    {
        "city": "Seropédica",
        "state": "RJ",
        "district": "Piranema",
        "street": "Rua Doze",
        "zipcode": "23898-798"
    },
    {
        "city": "Seropédica",
        "state": "RJ",
        "district": "Piranema",
        "street": "Rua Quinze",
        "zipcode": "23898-804"
    },
    {
        "city": "Seropédica",
        "state": "RJ",
        "district": "Campo Lindo",
        "street": "Rua Galdino Emídio",
        "zipcode": "23898-210"
    },
    {
        "city": "Seropédica",
        "state": "RJ",
        "district": "Campo Lindo",
        "street": "Rua Cinquenta",
        "zipcode": "23898-305"
    },
    {
        "city": "Seropédica",
        "state": "RJ",
        "district": "Santa Sofia",
        "street": "Rua Fernandes de Brito",
        "zipcode": "23895-825"
    },
    {
        "city": "Seropédica",
        "state": "RJ",
        "district": "Santa Sofia",
        "street": "Rua São Cristóvão",
        "zipcode": "23895-800"
    },
    {
        "city": "Seropédica",
        "state": "RJ",
        "district": "Santa Sofia",
        "street": "Rua José Sobral",
        "zipcode": "23895-815"
    },
    {
        "city": "Seropédica",
        "state": "RJ",
        "district": "Santa Sofia",
        "street": "Rua da Ferradura",
        "zipcode": "23895-840"
    },
    {
        "city": "Seropédica",
        "state": "RJ",
        "district": "Santa Sofia",
        "street": "Rua João Martins Azeredo",
        "zipcode": "23895-795"
    },
    {
        "city": "Seropédica",
        "state": "RJ",
        "district": "Piranema",
        "street": "Rua Vinte e Dois",
        "zipcode": "23898-806"
    },
    {
        "city": "Seropédica",
        "state": "RJ",
        "district": "Piranema",
        "street": "Rua Dezenove",
        "zipcode": "23898-808"
    },
    {
        "city": "Seropédica",
        "state": "RJ",
        "district": "Piranema",
        "street": "Rua Vinte",
        "zipcode": "23898-810"
    },
    {
        "city": "Seropédica",
        "state": "RJ",
        "district": "Piranema",
        "street": "Rua Dezoito",
        "zipcode": "23898-814"
    },
    {
        "city": "Seropédica",
        "state": "RJ",
        "district": "Piranema",
        "street": "Rua Dezessete",
        "zipcode": "23898-816"
    },
    {
        "city": "Seropédica",
        "state": "RJ",
        "district": "Piranema",
        "street": "Rua Dezesseis",
        "zipcode": "23898-818"
    },
    {
        "city": "Seropédica",
        "state": "RJ",
        "district": "Piranema",
        "street": "Rua Plínio de Barros",
        "zipcode": "23898-824"
    },
    {
        "city": "Seropédica",
        "state": "RJ",
        "district": "Piranema",
        "street": "Rua Alberto Marques",
        "zipcode": "23898-828"
    },
    {
        "city": "Seropédica",
        "state": "RJ",
        "district": "Piranema",
        "street": "Rua Germano Miguel da Silva",
        "zipcode": "23898-832"
    },
    {
        "city": "Seropédica",
        "state": "RJ",
        "district": "Campo Lindo",
        "street": "Rua João Salustiano",
        "zipcode": "23898-223"
    },
    {
        "city": "Seropédica",
        "state": "RJ",
        "district": "Fazenda Caxias",
        "street": "Rodovia BR",
        "zipcode": "23895-000"
    },
    {
        "city": "Seropédica",
        "state": "RJ",
        "district": "Boa Esperança",
        "street": "Rua Trinta e Um",
        "zipcode": "23894-518"
    },
    {
        "city": "Seropédica",
        "state": "RJ",
        "district": "Boa Esperança",
        "street": "Rua Quarenta e Seis",
        "zipcode": "23894-570"
    },
    {
        "city": "Seropédica",
        "state": "RJ",
        "district": "Piranema",
        "street": "Estrada Reta de Piranema",
        "zipcode": "23898-500"
    },
    {
        "city": "Seropédica",
        "state": "RJ",
        "district": "Boa Esperança",
        "street": "Rua Oitenta e Oito",
        "zipcode": "23894-182"
    },
    {
        "city": "Seropédica",
        "state": "RJ",
        "district": "Boa Esperança",
        "street": "Rua Noventa e Três",
        "zipcode": "23894-238"
    },
    {
        "city": "Seropédica",
        "state": "RJ",
        "district": "Campo Lindo",
        "street": "Rua Maria Rejoy Guerra",
        "zipcode": "23898-450"
    },
    {
        "city": "Seropédica",
        "state": "RJ",
        "district": "Boa Esperança",
        "street": "Travessa Quatorze",
        "zipcode": "23894-690"
    },
    {
        "city": "Seropédica",
        "state": "RJ",
        "district": "Boa Esperança",
        "street": "Rua Itaboraí",
        "zipcode": "23894-854"
    },
    {
        "city": "Seropédica",
        "state": "RJ",
        "district": "Boa Esperança",
        "street": "Rua Bento Rodrigues",
        "zipcode": "23894-490"
    },
    {
        "city": "Seropédica",
        "state": "RJ",
        "district": "Piranema",
        "street": "Rua A (Lot Boa Fé)",
        "zipcode": "23898-506"
    },
    {
        "city": "Seropédica",
        "state": "RJ",
        "district": "Piranema",
        "street": "Rua B (Lot Boa Fé)",
        "zipcode": "23898-509"
    },
    {
        "city": "Seropédica",
        "state": "RJ",
        "district": "Piranema",
        "street": "Rua D (Lot Boa Fé)",
        "zipcode": "23898-515"
    },
    {
        "city": "Seropédica",
        "state": "RJ",
        "district": "Piranema",
        "street": "Rua E (Lot Boa Fé)",
        "zipcode": "23898-518"
    },
    {
        "city": "Seropédica",
        "state": "RJ",
        "district": "Piranema",
        "street": "Rua Maria Antonieta",
        "zipcode": "23898-521"
    },
    {
        "city": "Seropédica",
        "state": "RJ",
        "district": "Piranema",
        "street": "Rua Padre Rafael Scarfo",
        "zipcode": "23898-530"
    },
    {
        "city": "Seropédica",
        "state": "RJ",
        "district": "Piranema",
        "street": "Rua Vereador Dalto Apolinário",
        "zipcode": "23898-536"
    },
    {
        "city": "Seropédica",
        "state": "RJ",
        "district": "Piranema",
        "street": "Rua Rui Lucas Oliveira",
        "zipcode": "23898-545"
    },
    {
        "city": "Seropédica",
        "state": "RJ",
        "district": "Canto do Rio",
        "street": "Beco São Jorge II",
        "zipcode": "23899-027"
    },
    {
        "city": "Seropédica",
        "state": "RJ",
        "district": "Canto do Rio",
        "street": "Beco das Flores",
        "zipcode": "23899-033"
    },
    {
        "city": "Seropédica",
        "state": "RJ",
        "district": "Canto do Rio",
        "street": "Rua Jaqueira",
        "zipcode": "23899-051"
    },
    {
        "city": "Seropédica",
        "state": "RJ",
        "district": "Jardim Maracanã",
        "street": "Rua Quarenta e Nove",
        "zipcode": "23891-805"
    },
    {
        "city": "Seropédica",
        "state": "RJ",
        "district": "Jardim Maracanã",
        "street": "Rua Quarenta e Quatro",
        "zipcode": "23891-815"
    },
    {
        "city": "Seropédica",
        "state": "RJ",
        "district": "São Miguel",
        "street": "Rodovia Presidente Dutra",
        "zipcode": "23893-690"
    },
    {
        "city": "Seropédica",
        "state": "RJ",
        "district": "Boa Esperança",
        "street": "Rodovia Presidente Dutra",
        "zipcode": "23894-026"
    },
    {
        "city": "Seropédica",
        "state": "RJ",
        "district": "Santa Alice",
        "street": "Estrada Santa Alice",
        "zipcode": "23892-270"
    },
    {
        "city": "Seropédica",
        "state": "RJ",
        "district": "Canto do Rio",
        "street": "Rua São Jorge",
        "zipcode": "23899-048"
    },
    {
        "city": "Seropédica",
        "state": "RJ",
        "district": "Canto do Rio",
        "street": "Beco do Tadeu",
        "zipcode": "23899-036"
    },
    {
        "city": "Seropédica",
        "state": "RJ",
        "district": "Canto do Rio",
        "street": "Rua Feliciano",
        "zipcode": "23899-063"
    },
    {
        "city": "Seropédica",
        "state": "RJ",
        "district": "Canto do Rio",
        "street": "Rua Projetada C",
        "zipcode": "23899-000"
    },
    {
        "city": "Seropédica",
        "state": "RJ",
        "district": "Campo Lindo",
        "street": "Rua Milton Francisco Filho",
        "zipcode": "23898-320"
    },
    {
        "city": "Seropédica",
        "state": "RJ",
        "district": "Campo Lindo",
        "street": "Rua José Laino",
        "zipcode": "23898-280"
    },
    {
        "city": "Seropédica",
        "state": "RJ",
        "district": "Campo Lindo",
        "street": "Alameda Ricardo Marantes",
        "zipcode": "23898-235"
    },
    {
        "city": "Seropédica",
        "state": "RJ",
        "district": "Canto do Rio",
        "street": "Beco da Paz",
        "zipcode": "23899-060"
    },
    {
        "city": "Seropédica",
        "state": "RJ",
        "district": "Campo Lindo",
        "street": "Rua Rutilene Ribeiro Correa",
        "zipcode": "23898-440"
    },
    {
        "city": "Seropédica",
        "state": "RJ",
        "district": "Jardim Maracanã",
        "street": "Rua R (Lot São Pedro)",
        "zipcode": "23891-630"
    },
    {
        "city": "Seropédica",
        "state": "RJ",
        "district": "Campo Lindo",
        "street": "Rua Maria Júlia da Silva",
        "zipcode": "23898-245"
    },
    {
        "city": "Seropédica",
        "state": "RJ",
        "district": "São Miguel",
        "street": "Rua E",
        "zipcode": "23893-720"
    },
    {
        "city": "Seropédica",
        "state": "RJ",
        "district": "Boa Esperança",
        "street": "Rua Trinta e Oito",
        "zipcode": "23894-610"
    },
    {
        "city": "Seropédica",
        "state": "RJ",
        "district": "Boa Esperança",
        "street": "Rua Sessenta e Dois",
        "zipcode": "23894-634"
    },
    {
        "city": "Seropédica",
        "state": "RJ",
        "district": "Boa Esperança",
        "street": "Rua Sessenta e Um",
        "zipcode": "23894-642"
    },
    {
        "city": "Seropédica",
        "state": "RJ",
        "district": "Jardim Maracanã",
        "street": "Caminho Guandu Novo",
        "zipcode": "23891-705"
    },
    {
        "city": "Seropédica",
        "state": "RJ",
        "district": "Jardim Maracanã",
        "street": "Rua Trinta e Cinco",
        "zipcode": "23891-740"
    },
    {
        "city": "Seropédica",
        "state": "RJ",
        "district": "Jardim Maracanã",
        "street": "Rua Quarenta e Um",
        "zipcode": "23891-775"
    },
    {
        "city": "Seropédica",
        "state": "RJ",
        "district": "Boa Esperança",
        "street": "Rua Itaperuna",
        "zipcode": "23894-830"
    },
    {
        "city": "Seropédica",
        "state": "RJ",
        "district": "Nazaré",
        "street": "Estrada Municipal de Nazaré",
        "zipcode": "23892-710"
    },
    {
        "city": "Seropédica",
        "state": "RJ",
        "district": "Canto do Rio",
        "street": "Rua Projetada",
        "zipcode": "23899-039"
    },
    {
        "city": "Seropédica",
        "state": "RJ",
        "district": "Canto do Rio",
        "street": "Beco Projetado",
        "zipcode": "23899-042"
    },
    {
        "city": "Seropédica",
        "state": "RJ",
        "district": "Boa Esperança",
        "street": "Rua Setenta e Nove",
        "zipcode": "23894-262"
    },
    {
        "city": "Seropédica",
        "state": "RJ",
        "district": "Boa Esperança",
        "street": "Rua Gregório Rocha",
        "zipcode": "23894-310"
    },
    {
        "city": "Seropédica",
        "state": "RJ",
        "district": "Boa Esperança",
        "street": "Rua Marquês de Valença",
        "zipcode": "23894-338"
    },
    {
        "city": "Seropédica",
        "state": "RJ",
        "district": "Boa Esperança",
        "street": "Rua Volta Redonda",
        "zipcode": "23894-390"
    },
    {
        "city": "Seropédica",
        "state": "RJ",
        "district": "Boa Esperança",
        "street": "Rua José Túnula",
        "zipcode": "23894-418"
    },
    {
        "city": "Seropédica",
        "state": "RJ",
        "district": "Boa Esperança",
        "street": "Avenida H",
        "zipcode": "23894-454"
    },
    {
        "city": "Seropédica",
        "state": "RJ",
        "district": "Boa Esperança",
        "street": "Rua Projetada B (Lot Vale do Sol)",
        "zipcode": "23894-717"
    },
    {
        "city": "Seropédica",
        "state": "RJ",
        "district": "Campo Lindo",
        "street": "Rodovia BR",
        "zipcode": "23898-000"
    },
    {
        "city": "Seropédica",
        "state": "RJ",
        "district": "Boa Esperança",
        "street": "Rua Trinta e Sete (Lot Mutirão)",
        "zipcode": "23894-538"
    },
    {
        "city": "Seropédica",
        "state": "RJ",
        "district": "UFRRJ",
        "street": "Rua UIZ",
        "zipcode": "23897-115"
    },
    {
        "city": "Seropédica",
        "state": "RJ",
        "district": "Parque Jacimar",
        "street": "Rua Miguel Honorato",
        "zipcode": "23897-460"
    },
    {
        "city": "Seropédica",
        "state": "RJ",
        "district": "Campo Lindo",
        "street": "Rua Onze",
        "zipcode": "23898-365"
    },
    {
        "city": "Seropédica",
        "state": "RJ",
        "district": "Campo Lindo",
        "street": "Rua Nove",
        "zipcode": "23898-370"
    },
    {
        "city": "Seropédica",
        "state": "RJ",
        "district": "Campo Lindo",
        "street": "Rua Oito",
        "zipcode": "23898-375"
    },
    {
        "city": "Seropédica",
        "state": "RJ",
        "district": "Campo Lindo",
        "street": "Rua Sete",
        "zipcode": "23898-380"
    },
    {
        "city": "Seropédica",
        "state": "RJ",
        "district": "Campo Lindo",
        "street": "Rua Cinco",
        "zipcode": "23898-390"
    },
    {
        "city": "Seropédica",
        "state": "RJ",
        "district": "Campo Lindo",
        "street": "Rua Quatro",
        "zipcode": "23898-395"
    },
    {
        "city": "Seropédica",
        "state": "RJ",
        "district": "Campo Lindo",
        "street": "Rua Y",
        "zipcode": "23898-425"
    },
    {
        "city": "Seropédica",
        "state": "RJ",
        "district": "UFRRJ",
        "street": "Estrada dos Bandeirantes",
        "zipcode": "23897-080"
    },
    {
        "city": "Seropédica",
        "state": "RJ",
        "district": "Fazenda Caxias",
        "street": "Rua Dezesseis",
        "zipcode": "23895-080"
    },
    {
        "city": "Seropédica",
        "state": "RJ",
        "district": "Fazenda Caxias",
        "street": "Rua Trinta e Sete",
        "zipcode": "23895-105"
    },
    {
        "city": "Seropédica",
        "state": "RJ",
        "district": "Fazenda Caxias",
        "street": "Rua B",
        "zipcode": "23895-145"
    },
    {
        "city": "Seropédica",
        "state": "RJ",
        "district": "Fazenda Caxias",
        "street": "Rua Desidério Pereira Morandi",
        "zipcode": "23895-170"
    },
    {
        "city": "Seropédica",
        "state": "RJ",
        "district": "Fazenda Caxias",
        "street": "Rua Joana Resende",
        "zipcode": "23895-205"
    },
    {
        "city": "Seropédica",
        "state": "RJ",
        "district": "Parque Jacimar",
        "street": "Rua Jacinto Monteiro",
        "zipcode": "23897-560"
    },
    {
        "city": "Seropédica",
        "state": "RJ",
        "district": "Campo Lindo",
        "street": "Rua Antônio José Rodrigues Passo",
        "zipcode": "23898-021"
    },
    {
        "city": "Seropédica",
        "state": "RJ",
        "district": "Campo Lindo",
        "street": "Rua Firmino Modesto",
        "zipcode": "23898-039"
    },
    {
        "city": "Seropédica",
        "state": "RJ",
        "district": "Campo Lindo",
        "street": "Rua Emília dos Santos",
        "zipcode": "23898-060"
    },
    {
        "city": "Seropédica",
        "state": "RJ",
        "district": "Campo Lindo",
        "street": "Rua Josefa Fernandes Plaza",
        "zipcode": "23898-084"
    },
    {
        "city": "Seropédica",
        "state": "RJ",
        "district": "Campo Lindo",
        "street": "Rua Rodolfo Anechino",
        "zipcode": "23898-099"
    },
    {
        "city": "Seropédica",
        "state": "RJ",
        "district": "Campo Lindo",
        "street": "Rua Quarenta e Seis",
        "zipcode": "23898-175"
    },
    {
        "city": "Seropédica",
        "state": "RJ",
        "district": "Piranema",
        "street": "Rua Antônio Júlio",
        "zipcode": "23898-533"
    },
    {
        "city": "Seropédica",
        "state": "RJ",
        "district": "Piranema",
        "street": "Rua Vinte e Sete",
        "zipcode": "23898-774"
    },
    {
        "city": "Seropédica",
        "state": "RJ",
        "district": "Piranema",
        "street": "Rua Vinte e Quatro",
        "zipcode": "23898-786"
    },
    {
        "city": "Seropédica",
        "state": "RJ",
        "district": "Piranema",
        "street": "Rua Sete",
        "zipcode": "23898-792"
    },
    {
        "city": "Seropédica",
        "state": "RJ",
        "district": "São Miguel",
        "street": "Rua Abdias Antunes de Sá",
        "zipcode": "23893-815"
    },
    {
        "city": "Seropédica",
        "state": "RJ",
        "district": "Canto do Rio",
        "street": "Estrada Comporta",
        "zipcode": "23899-003"
    },
    {
        "city": "Seropédica",
        "state": "RJ",
        "district": "Canto do Rio",
        "street": "Rua E",
        "zipcode": "23899-018"
    },
    {
        "city": "Seropédica",
        "state": "RJ",
        "district": "Santa Sofia",
        "street": "Rua São Jorge",
        "zipcode": "23895-725"
    },
    {
        "city": "Seropédica",
        "state": "RJ",
        "district": "Piranema",
        "street": "Rua João Francisco Soares",
        "zipcode": "23898-826"
    },
    {
        "city": "Seropédica",
        "state": "RJ",
        "district": "UFRRJ",
        "street": "Rua UBE",
        "zipcode": "23897-010"
    },
    {
        "city": "Seropédica",
        "state": "RJ",
        "district": "Santa Sofia",
        "street": "Estrada Valão da Louça",
        "zipcode": "23895-570"
    },
    {
        "city": "Seropédica",
        "state": "RJ",
        "district": "Piranema",
        "street": "Estrada Reta dos Duzentos",
        "zipcode": "23898-896"
    },
    {
        "city": "Seropédica",
        "state": "RJ",
        "district": "Fazenda Caxias",
        "street": "Rua Tharsis e Paula",
        "zipcode": "23895-175"
    },
    {
        "city": "Seropédica",
        "state": "RJ",
        "district": "Piranema",
        "street": "Rua Jordelina Meira",
        "zipcode": "23898-830"
    },
    {
        "city": "Seropédica",
        "state": "RJ",
        "district": "Boa Esperança",
        "street": "Rua B (Lot Vivendas da Flórida)",
        "zipcode": "23894-002"
    },
    {
        "city": "Seropédica",
        "state": "RJ",
        "district": "Santa Sofia",
        "street": "Estrada do Cemitério",
        "zipcode": "23895-680"
    },
    {
        "city": "Seropédica",
        "state": "RJ",
        "district": "Santa Sofia",
        "street": "Rua Antônio Rosa",
        "zipcode": "23895-740"
    },
    {
        "city": "Seropédica",
        "state": "RJ",
        "district": "Boa Esperança",
        "street": "Rua C (Lot Vila Araújo)",
        "zipcode": "23894-770"
    },
    {
        "city": "Seropédica",
        "state": "RJ",
        "district": "Piranema",
        "street": "Rua Dez",
        "zipcode": "23898-802"
    },
    {
        "city": "Seropédica",
        "state": "RJ",
        "district": "Piranema",
        "street": "Rua Vinte e Um",
        "zipcode": "23898-812"
    },
    {
        "city": "Seropédica",
        "state": "RJ",
        "district": "Piranema",
        "street": "Rua Alípio Gonçalves da Silva",
        "zipcode": "23898-822"
    },
    {
        "city": "Seropédica",
        "state": "RJ",
        "district": "Fazenda Caxias",
        "street": "Rua Bernarda Maria da Conceição",
        "zipcode": "23895-320"
    },
    {
        "city": "Seropédica",
        "state": "RJ",
        "district": "Fazenda Caxias",
        "street": "Rua Vinte",
        "zipcode": "23895-365"
    },
    {
        "city": "Seropédica",
        "state": "RJ",
        "district": "Fazenda Caxias",
        "street": "Rua Dezenove",
        "zipcode": "23895-370"
    },
    {
        "city": "Seropédica",
        "state": "RJ",
        "district": "Fazenda Caxias",
        "street": "Rua Prefeito José Maria de Brito",
        "zipcode": "23895-490"
    },
    {
        "city": "Seropédica",
        "state": "RJ",
        "district": "São Miguel",
        "street": "Rua Marlene Antônia da Silva",
        "zipcode": "23893-795"
    },
    {
        "city": "Seropédica",
        "state": "RJ",
        "district": "Boa Esperança",
        "street": "Rua Trinta e Um de Março",
        "zipcode": "23894-882"
    },
    {
        "city": "Seropédica",
        "state": "RJ",
        "district": "Fazenda Caxias",
        "street": "Rua Benedito Rosa",
        "zipcode": "23895-240"
    },
    {
        "city": "Seropédica",
        "state": "RJ",
        "district": "Fazenda Caxias",
        "street": "Avenida Ministro Fernando Costa",
        "zipcode": "23895-265"
    },
    {
        "city": "Seropédica",
        "state": "RJ",
        "district": "Boa Esperança",
        "street": "Avenida Sebastião Ferreira da Silva",
        "zipcode": "23894-450"
    },
    {
        "city": "Seropédica",
        "state": "RJ",
        "district": "Ecologia",
        "street": "Rua M",
        "zipcode": "23891-363"
    },
    {
        "city": "Seropédica",
        "state": "RJ",
        "district": "Jardins",
        "street": "Rua José Coelho Ribeiro",
        "zipcode": "23890-040"
    },
    {
        "city": "Seropédica",
        "state": "RJ",
        "district": "Boa Esperança",
        "street": "Avenida Fernando Teixeira",
        "zipcode": "23894-562"
    },
    {
        "city": "Seropédica",
        "state": "RJ",
        "district": "UFRRJ",
        "street": "Rua UAD",
        "zipcode": "23897-110"
    },
    {
        "city": "Seropédica",
        "state": "RJ",
        "district": "UFRRJ",
        "street": "Rua UY",
        "zipcode": "23897-120"
    },
    {
        "city": "Seropédica",
        "state": "RJ",
        "district": "UFRRJ",
        "street": "Rua UAC",
        "zipcode": "23897-125"
    },
    {
        "city": "Seropédica",
        "state": "RJ",
        "district": "UFRRJ",
        "street": "Rua UX",
        "zipcode": "23897-160"
    },
    {
        "city": "Seropédica",
        "state": "RJ",
        "district": "UFRRJ",
        "street": "Rua UR",
        "zipcode": "23897-190"
    },
    {
        "city": "Seropédica",
        "state": "RJ",
        "district": "UFRRJ",
        "street": "Rua UQ",
        "zipcode": "23897-200"
    },
    {
        "city": "Seropédica",
        "state": "RJ",
        "district": "UFRRJ",
        "street": "Estrada Reta de Piranema",
        "zipcode": "23897-215"
    },
    {
        "city": "Seropédica",
        "state": "RJ",
        "district": "UFRRJ",
        "street": "Rua UAR",
        "zipcode": "23897-030"
    },
    {
        "city": "Seropédica",
        "state": "RJ",
        "district": "UFRRJ",
        "street": "Rua UAI",
        "zipcode": "23897-085"
    },
    {
        "city": "Seropédica",
        "state": "RJ",
        "district": "Fazenda Caxias",
        "street": "Rua Manoel Clarindo Monteiro",
        "zipcode": "23895-185"
    },
    {
        "city": "Seropédica",
        "state": "RJ",
        "district": "Parque Jacimar",
        "street": "Rua Amaro Faria Fonseca",
        "zipcode": "23897-630"
    },
    {
        "city": "Seropédica",
        "state": "RJ",
        "district": "Campo Lindo",
        "street": "Rua Cândida Maria da Conceição",
        "zipcode": "23898-003"
    },
    {
        "city": "Seropédica",
        "state": "RJ",
        "district": "Campo Lindo",
        "street": "Rua F",
        "zipcode": "23898-075"
    },
    {
        "city": "Seropédica",
        "state": "RJ",
        "district": "Campo Lindo",
        "street": "Rua Cinquenta e Três",
        "zipcode": "23898-150"
    },
    {
        "city": "Seropédica",
        "state": "RJ",
        "district": "Incra",
        "street": "Estrada do Dique do Guandu",
        "zipcode": "23890-680"
    },
    {
        "city": "Seropédica",
        "state": "RJ",
        "district": "Santa Sofia",
        "street": "Rua E",
        "zipcode": "23895-555"
    },
    {
        "city": "Seropédica",
        "state": "RJ",
        "district": "Santa Sofia",
        "street": "Rua A",
        "zipcode": "23895-565"
    },
    {
        "city": "Seropédica",
        "state": "RJ",
        "district": "Canto do Rio",
        "street": "Rua C",
        "zipcode": "23899-012"
    },
    {
        "city": "Seropédica",
        "state": "RJ",
        "district": "UFRRJ",
        "street": "Rua UAB",
        "zipcode": "23897-100"
    },
    {
        "city": "Seropédica",
        "state": "RJ",
        "district": "Jardim Maracanã",
        "street": "Rua Rubem dos Santos Ramos",
        "zipcode": "23891-810"
    },
    {
        "city": "Seropédica",
        "state": "RJ",
        "district": "Cabral",
        "street": "Rua Manoel da Silva Cabral",
        "zipcode": "23893-490"
    },
    {
        "city": "Seropédica",
        "state": "RJ",
        "district": "Santa Sofia",
        "street": "Travessa Legal",
        "zipcode": "23895-805"
    },
    {
        "city": "Seropédica",
        "state": "RJ",
        "district": "Campo Lindo",
        "street": "Rua Manoel Silva",
        "zipcode": "23898-270"
    },
    {
        "city": "Seropédica",
        "state": "RJ",
        "district": "Parque Jacimar",
        "street": "Rua Clarice Rosa Silva",
        "zipcode": "23897-540"
    },
    {
        "city": "Seropédica",
        "state": "RJ",
        "district": "Ecologia",
        "street": "Rua Projetada E",
        "zipcode": "23891-375"
    },
    {
        "city": "Seropédica",
        "state": "RJ",
        "district": "Santa Sofia",
        "street": "Rua Gilson da Silva",
        "zipcode": "23895-810"
    },
    {
        "city": "Seropédica",
        "state": "RJ",
        "district": "Boa Esperança",
        "street": "Rua Joel Ribeiro",
        "zipcode": "23894-718"
    },
    {
        "city": "Seropédica",
        "state": "RJ",
        "district": "Campo Lindo",
        "street": "Rua Laura Stefany da Silva Aragão",
        "zipcode": "23898-117"
    },
    {
        "city": "Seropédica",
        "state": "RJ",
        "district": "Boa Esperança",
        "street": "Rua E (Lot Mutirão)",
        "zipcode": "23894-218"
    },
    {
        "city": "Seropédica",
        "state": "RJ",
        "district": "Santa Sofia",
        "street": "Rua José Benedito Magalhães",
        "zipcode": "23895-820"
    },
    {
        "city": "Seropédica",
        "state": "RJ",
        "district": "Boa Esperança",
        "street": "Rua A (Lot Mutirão)",
        "zipcode": "23894-230"
    },
    {
        "city": "Seropédica",
        "state": "RJ",
        "district": "Campo Lindo",
        "street": "Rua Cinquenta e Um",
        "zipcode": "23898-315"
    },
    {
        "city": "Seropédica",
        "state": "RJ",
        "district": "Jardim Maracanã",
        "street": "Rua Decleciano Rodrigues Silva",
        "zipcode": "23891-790"
    },
    {
        "city": "Seropédica",
        "state": "RJ",
        "district": "Nazaré",
        "street": "Rua Amazonas",
        "zipcode": "23892-760"
    },
    {
        "city": "Seropédica",
        "state": "RJ",
        "district": "Campo Lindo",
        "street": "Rua Cinquenta e Dois",
        "zipcode": "23898-215"
    },
    {
        "city": "Seropédica",
        "state": "RJ",
        "district": "Campo Lindo",
        "street": "Rua Doze",
        "zipcode": "23898-350"
    },
    {
        "city": "Seropédica",
        "state": "RJ",
        "district": "Boa Esperança",
        "street": "Rua Odalina Maria Bernatti Pimenta",
        "zipcode": "23894-794"
    },
    {
        "city": "Seropédica",
        "state": "RJ",
        "district": "Fazenda Caxias",
        "street": "Rua João Fernandes de Oliveira Neto",
        "zipcode": "23895-340"
    },
    {
        "city": "Seropédica",
        "state": "RJ",
        "district": "Fazenda Caxias",
        "street": "Rua Faustino Fernandes Moura",
        "zipcode": "23895-970"
    },
    {
        "city": "Seropédica",
        "state": "RJ",
        "district": "UFRRJ",
        "street": "Rua UO",
        "zipcode": "23897-970"
    },
    {
        "city": "Seropédica",
        "state": "RJ",
        "district": "Incra",
        "street": "Avenida Pará",
        "zipcode": "23890-585"
    },
    {
        "city": "Seropédica",
        "state": "RJ",
        "district": "Canto do Rio",
        "street": "Beco São Jorge",
        "zipcode": "23899-066"
    },
    {
        "city": "Seropédica",
        "state": "RJ",
        "district": "Boa Esperança",
        "street": "Rua H (Lot Vivendas da Flórida)",
        "zipcode": "23894-012"
    },
    {
        "city": "Seropédica",
        "state": "RJ",
        "district": "Jardins",
        "street": "Rua Júlio Teixeira da Silva",
        "zipcode": "23890-055"
    },
    {
        "city": "Seropédica",
        "state": "RJ",
        "district": "Campo Lindo",
        "street": "Rua Rock Paulino",
        "zipcode": "23898-205"
    },
    {
        "city": "Seropédica",
        "state": "RJ",
        "district": "Jardim Maracanã",
        "street": "Estrada do Dique (Lot São Pedro)",
        "zipcode": "23891-665"
    },
    {
        "city": "Seropédica",
        "state": "RJ",
        "district": "Boa Esperança",
        "street": "Travessa Oitenta e Cinco (Lot Mutirão)",
        "zipcode": "23894-188"
    },
    {
        "city": "Seropédica",
        "state": "RJ",
        "district": "Ecologia",
        "street": "Rua Projetada B",
        "zipcode": "23891-380"
    },
    {
        "city": "Seropédica",
        "state": "RJ",
        "district": "Jardins",
        "street": "Rua Antônio Honorato da Silva",
        "zipcode": "23890-007"
    },
    {
        "city": "Seropédica",
        "state": "RJ",
        "district": "Canto do Rio",
        "street": "Rua Antonio Barbosa",
        "zipcode": "23899-057"
    },
    {
        "city": "Seropédica",
        "state": "RJ",
        "district": "Boa Esperança",
        "street": "Rua Adelino Gregio de Souza",
        "zipcode": "23894-442"
    },
    {
        "city": "Seropédica",
        "state": "RJ",
        "district": "Piranema",
        "street": "Estrada Vicinal",
        "zipcode": "23898-867"
    },
    {
        "city": "Seropédica",
        "state": "RJ",
        "district": "Canto do Rio",
        "street": "Rua São Francisco",
        "zipcode": "23899-072"
    },
    {
        "city": "Seropédica",
        "state": "RJ",
        "district": "São Miguel",
        "street": "Rua Belvedere",
        "zipcode": "23893-705"
    },
    {
        "city": "Seropédica",
        "state": "RJ",
        "district": "Boa Esperança",
        "street": "Rua Saquarema",
        "zipcode": "23894-870"
    },
    {
        "city": "Seropédica",
        "state": "RJ",
        "district": "Boa Esperança",
        "street": "Rua Cento e Sessenta e Oito",
        "zipcode": "23894-366"
    },
    {
        "city": "Seropédica",
        "state": "RJ",
        "district": "UFRRJ",
        "street": "Rua MT",
        "zipcode": "23897-050"
    },
    {
        "city": "Seropédica",
        "state": "RJ",
        "district": "Área Rural de Seropédica",
        "street": "Área Rural",
        "zipcode": "23899-899"
    },
    {
        "city": "Seropédica",
        "state": "RJ",
        "district": "Ecologia",
        "street": "Rua José Izidro da Silva",
        "zipcode": "23891-373"
    },
    {
        "city": "Seropédica",
        "state": "RJ",
        "district": "Boa Esperança",
        "street": "Rua Setenta e Um",
        "zipcode": "23894-656"
    },
    {
        "city": "Seropédica",
        "state": "RJ",
        "district": "Boa Esperança",
        "street": "Rua Projetada Seis (Lot Vale do Sol)",
        "zipcode": "23894-716"
    },
    {
        "city": "Seropédica",
        "state": "RJ",
        "district": "Ecologia",
        "street": "Rua da Pátria",
        "zipcode": "23891-347"
    },
    {
        "city": "Seropédica",
        "state": "RJ",
        "district": "Boa Esperança",
        "street": "Rua Marlúcia da Silva Mendonça",
        "zipcode": "23894-880"
    },
    {
        "city": "Seropédica",
        "state": "RJ",
        "district": "Boa Esperança",
        "street": "Rodovia BR",
        "zipcode": "23894-890"
    },
    {
        "city": "Seropédica",
        "state": "RJ",
        "district": "Ecologia",
        "street": "Rodovia BR",
        "zipcode": "23891-000"
    },
    {
        "city": "Seropédica",
        "state": "RJ",
        "district": "Parque Jacimar",
        "street": "Rodovia BR",
        "zipcode": "23897-420"
    },
    {
        "city": "Seropédica",
        "state": "RJ",
        "district": "UFRRJ",
        "street": "Rodovia BR",
        "zipcode": "23897-000"
    },
    {
        "city": "Seropédica",
        "state": "RJ",
        "district": "Jardins",
        "street": "Rodovia BR",
        "zipcode": "23890-001"
    },
    {
        "city": "Seropédica",
        "state": "RJ",
        "district": "Boa Esperança",
        "street": "Rua Trinta e Dois",
        "zipcode": "23894-522"
    },
    {
        "city": "Seropédica",
        "state": "RJ",
        "district": "UFRRJ",
        "street": "Rua UBZ",
        "zipcode": "23897-135"
    },
    {
        "city": "Seropédica",
        "state": "RJ",
        "district": "Parque Jacimar",
        "street": "Rua Altino Moreira",
        "zipcode": "23897-440"
    },
    {
        "city": "Seropédica",
        "state": "RJ",
        "district": "UFRRJ",
        "street": "Rua UBD",
        "zipcode": "23897-020"
    },
    {
        "city": "Seropédica",
        "state": "RJ",
        "district": "UFRRJ",
        "street": "Rua UAX",
        "zipcode": "23897-045"
    },
    {
        "city": "Seropédica",
        "state": "RJ",
        "district": "Boa Esperança",
        "street": "Rua Oitenta e Dois",
        "zipcode": "23894-234"
    },
    {
        "city": "Seropédica",
        "state": "RJ",
        "district": "Campo Lindo",
        "street": "Rua Seis",
        "zipcode": "23898-385"
    },
    {
        "city": "Seropédica",
        "state": "RJ",
        "district": "Campo Lindo",
        "street": "Rua Dois",
        "zipcode": "23898-405"
    },
    {
        "city": "Seropédica",
        "state": "RJ",
        "district": "Campo Lindo",
        "street": "Rua Orlando Franceline Júnior",
        "zipcode": "23898-435"
    },
    {
        "city": "Seropédica",
        "state": "RJ",
        "district": "UFRRJ",
        "street": "Rua UAJ",
        "zipcode": "23897-090"
    },
    {
        "city": "Seropédica",
        "state": "RJ",
        "district": "Campo Lindo",
        "street": "Rua Adolfo Antônio Gouveia",
        "zipcode": "23898-033"
    },
    {
        "city": "Seropédica",
        "state": "RJ",
        "district": "Ecologia",
        "street": "Rua do Estado",
        "zipcode": "23891-475"
    },
    {
        "city": "Seropédica",
        "state": "RJ",
        "district": "Jardins",
        "street": "Rua Manoel Teixeira da Costa",
        "zipcode": "23890-082"
    },
    {
        "city": "Seropédica",
        "state": "RJ",
        "district": "Incra",
        "street": "Rua Alexsandra Cristiane Pereira de Oliveira",
        "zipcode": "23890-580"
    },
    {
        "city": "Seropédica",
        "state": "RJ",
        "district": "Piranema",
        "street": "Rua C (Lot Boa Fé)",
        "zipcode": "23898-512"
    },
    {
        "city": "Seropédica",
        "state": "RJ",
        "district": "Ecologia",
        "street": "Rua Ligação",
        "zipcode": "23891-453"
    },
    {
        "city": "Seropédica",
        "state": "RJ",
        "district": "UFRRJ",
        "street": "Rua UBR",
        "zipcode": "23897-130"
    },
    {
        "city": "Seropédica",
        "state": "RJ",
        "district": "Boa Esperança",
        "street": "Rua João Roberto",
        "zipcode": "23894-722"
    },
    {
        "city": "Seropédica",
        "state": "RJ",
        "district": "Boa Esperança",
        "street": "Rua Maria José Magalhães Ribeiro",
        "zipcode": "23894-738"
    },
    {
        "city": "Seropédica",
        "state": "RJ",
        "district": "Boa Esperança",
        "street": "Rua A (Lot Vivendas da Flórida)",
        "zipcode": "23894-000"
    },
    {
        "city": "Seropédica",
        "state": "RJ",
        "district": "Canto do Rio",
        "street": "Rua Três Marias",
        "zipcode": "23899-069"
    },
    {
        "city": "Seropédica",
        "state": "RJ",
        "district": "Boa Esperança",
        "street": "Rua I (Lot Vivendas da Flórida)",
        "zipcode": "23894-014"
    },
    {
        "city": "Seropédica",
        "state": "RJ",
        "district": "Boa Esperança",
        "street": "Rua Edson Nascimento dos Santos",
        "zipcode": "23894-410"
    },
    {
        "city": "Seropédica",
        "state": "RJ",
        "district": "Canto do Rio",
        "street": "Beco Mirim I",
        "zipcode": "23899-030"
    },
    {
        "city": "Seropédica",
        "state": "RJ",
        "district": "Fazenda Caxias",
        "street": "Rua Maria do Carmo Veiga Duarte",
        "zipcode": "23895-140"
    },
    {
        "city": "Seropédica",
        "state": "RJ",
        "district": "Ecologia",
        "street": "Rua UH",
        "zipcode": "23891-485"
    },
    {
        "city": "Seropédica",
        "state": "RJ",
        "district": "Boa Esperança",
        "street": "Rua Natalino Antônio de Souza",
        "zipcode": "23894-462"
    },
    {
        "city": "Seropédica",
        "state": "RJ",
        "district": "Boa Esperança",
        "street": "Rua Colibri",
        "zipcode": "23894-710"
    },
    {
        "city": "Seropédica",
        "state": "RJ",
        "district": "Piranema",
        "street": "Rua Antônio Manoel Pereira",
        "zipcode": "23898-820"
    },
    {
        "city": "Seropédica",
        "state": "RJ",
        "district": "Boa Esperança",
        "street": "Rua Albertina Rosa",
        "zipcode": "23894-382"
    },
    {
        "city": "Seropédica",
        "state": "RJ",
        "district": "São Miguel",
        "street": "Rua Waldir Pedro Medeiros",
        "zipcode": "23893-725"
    },
    {
        "city": "Seropédica",
        "state": "RJ",
        "district": "São Miguel",
        "street": "Rua Francisco Gomes de Carvalho",
        "zipcode": "23893-760"
    },
    {
        "city": "Seropédica",
        "state": "RJ",
        "district": "São Miguel",
        "street": "Rua José Graça Leite",
        "zipcode": "23893-695"
    },
    {
        "city": "Seropédica",
        "state": "RJ",
        "district": "Santa Sofia",
        "street": "Avenida Sebastião José de Souza",
        "zipcode": "23895-750"
    },
    {
        "city": "Seropédica",
        "state": "RJ",
        "district": "Santa Sofia",
        "street": "Rua Roque dos Santos",
        "zipcode": "23895-760"
    },
    {
        "city": "Seropédica",
        "state": "RJ",
        "district": "Santa Sofia",
        "street": "Rua Olívia de Carvalho",
        "zipcode": "23895-765"
    },
    {
        "city": "Seropédica",
        "state": "RJ",
        "district": "Campo Lindo",
        "street": "Rua João dos Santos",
        "zipcode": "23898-250"
    },
    {
        "city": "Seropédica",
        "state": "RJ",
        "district": "Campo Lindo",
        "street": "Rua Trinta e Nove",
        "zipcode": "23898-285"
    },
    {
        "city": "Seropédica",
        "state": "RJ",
        "district": "Boa Esperança",
        "street": "Rua Regina Soares",
        "zipcode": "23894-594"
    },
    {
        "city": "Seropédica",
        "state": "RJ",
        "district": "Jardins",
        "street": "Rua Luiz Araújo Dantas",
        "zipcode": "23890-043"
    },
    {
        "city": "Seropédica",
        "state": "RJ",
        "district": "Boa Esperança",
        "street": "Avenida Ministro Fernando Costa",
        "zipcode": "23894-886"
    },
    {
        "city": "Seropédica",
        "state": "RJ",
        "district": "Boa Esperança",
        "street": "Travessa Dezesseis",
        "zipcode": "23894-398"
    },
    {
        "city": "Seropédica",
        "state": "RJ",
        "district": "Ecologia",
        "street": "Rua UI",
        "zipcode": "23891-490"
    },
    {
        "city": "Seropédica",
        "state": "RJ",
        "district": "Piranema",
        "street": "Estrada Reta dos Quinhentos",
        "zipcode": "23898-870"
    },
    {
        "city": "Seropédica",
        "state": "RJ",
        "district": "Campo Lindo",
        "street": "Rua João Rodrigues da Silva",
        "zipcode": "23898-025"
    }
]