[
    {
        "city": "Silva Jardim",
        "state": "RJ",
        "district": "Imbaú",
        "street": "Avenida Professor José de Souza Herdy 35",
        "zipcode": "28820-971"
    },
    {
        "city": "Silva Jardim",
        "state": "RJ",
        "district": "Varginha",
        "street": "Avenida Geneciano Luz s/n",
        "zipcode": "28820-972"
    },
    {
        "city": "Silva Jardim",
        "state": "RJ",
        "district": "Fazenda Brasil",
        "street": "Avenida Silva Jardim 1331 Loja 2",
        "zipcode": "28820-977"
    },
    {
        "city": "Silva Jardim",
        "state": "RJ",
        "district": "Boqueirão",
        "street": "Praça Elvira Alves do Nascimento",
        "zipcode": "28820-975"
    },
    {
        "city": "Silva Jardim",
        "state": "RJ",
        "district": "",
        "street": "",
        "zipcode": "28820-000"
    },
    {
        "city": "Silva Jardim",
        "state": "RJ",
        "district": "Bananeiras",
        "street": "Rua Principal s/n",
        "zipcode": "28820-974"
    },
    {
        "city": "Silva Jardim",
        "state": "RJ",
        "district": "Aldeia Velha",
        "street": "Rua Joaquim Belmiro Machado s/n",
        "zipcode": "28820-973"
    },
    {
        "city": "Silva Jardim",
        "state": "RJ",
        "district": "Coqueiro",
        "street": "Rua Gonçala Saraiva da Silva 18",
        "zipcode": "28820-978"
    },
    {
        "city": "Silva Jardim",
        "state": "RJ",
        "district": "Centro",
        "street": "Rua Borges Alfredique 47",
        "zipcode": "28820-970"
    },
    {
        "city": "Silva Jardim",
        "state": "RJ",
        "district": "Caxito",
        "street": "Rua do Caxito s/n",
        "zipcode": "28820-976"
    }
]