[
    {
        "city": "Teresopolis",
        "state": "RJ",
        "district": "Varzea",
        "street": "Avenida Delfim Moreira",
        "zipcode": "25953-180"
    },
    {
        "city": "Teresopolis",
        "state": "RJ",
        "district": "Varzea",
        "street": "Avenida Delfim Moreira",
        "zipcode": "25953-181"
    },
    {
        "city": "Teresopolis",
        "state": "RJ",
        "district": "Varzea",
        "street": "Avenida Delfim Moreira",
        "zipcode": "25953-183"
    },
    {
        "city": "Teresopolis",
        "state": "RJ",
        "district": "Varzea",
        "street": "Avenida Delfim Moreira",
        "zipcode": "25953-184"
    },
    {
        "city": "Teresopolis",
        "state": "RJ",
        "district": "Posse",
        "street": "Estrada Parque Do Imbui",
        "zipcode": "25970-830"
    },
    {
        "city": "Teresopolis",
        "state": "RJ",
        "district": "Posse",
        "street": "Estrada Parque Do Imbui",
        "zipcode": "25973-660"
    },
    {
        "city": "Teresopolis",
        "state": "RJ",
        "district": "Alto",
        "street": "Rua Flavio Bortoluzzi De Souza",
        "zipcode": "25960-235"
    },
    {
        "city": "Teresopolis",
        "state": "RJ",
        "district": "Carlos Guinle",
        "street": "Rua Carlos Guinle",
        "zipcode": "25958-401"
    },
    {
        "city": "Teresopolis",
        "state": "RJ",
        "district": "Alto",
        "street": "Avenida Oliveira Botelho",
        "zipcode": "25961-140"
    },
    {
        "city": "Teresopolis",
        "state": "RJ",
        "district": "Varzea",
        "street": "Avenida Feliciano Sodre",
        "zipcode": "25963-023"
    },
    {
        "city": "Teresopolis",
        "state": "RJ",
        "district": "Varzea",
        "street": "Avenida Feliciano Sodre",
        "zipcode": "25963-000"
    },
    {
        "city": "Teresopolis",
        "state": "RJ",
        "district": "Alto",
        "street": "Avenida Oliveira Botelho",
        "zipcode": "25961-142"
    },
    {
        "city": "Teresopolis",
        "state": "RJ",
        "district": "Alto",
        "street": "Rua Sloper",
        "zipcode": "25961-270"
    },
    {
        "city": "Teresopolis",
        "state": "RJ",
        "district": "Alto",
        "street": "Avenida Alberto Torres",
        "zipcode": "25964-001"
    },
    {
        "city": "Teresopolis",
        "state": "RJ",
        "district": "Varzea",
        "street": "Avenida Feliciano Sodre",
        "zipcode": "25963-001"
    },
    {
        "city": "Teresopolis",
        "state": "RJ",
        "district": "Agrioes",
        "street": "Rua Vereador Jose Elias Zaquem",
        "zipcode": "25964-375"
    },
    {
        "city": "Teresopolis",
        "state": "RJ",
        "district": "Alto",
        "street": "Avenida Oliveira Botelho",
        "zipcode": "25961-141"
    },
    {
        "city": "Teresopolis",
        "state": "RJ",
        "district": "Araras",
        "street": "Rua Parana",
        "zipcode": "25957-245"
    },
    {
        "city": "Teresopolis",
        "state": "RJ",
        "district": "Vale Do Paraiso",
        "street": "Rua Dona Pura Dias",
        "zipcode": "25976-395"
    },
    {
        "city": "Teresopolis",
        "state": "RJ",
        "district": "Varzea",
        "street": "Rua Manoel Jose Librao",
        "zipcode": "25975-201"
    },
    {
        "city": "Teresopolis",
        "state": "RJ",
        "district": "Alto",
        "street": "Avenida Alberto Torres",
        "zipcode": "25964-000"
    },
    {
        "city": "Teresopolis",
        "state": "RJ",
        "district": "Alto",
        "street": "Rua Sloper",
        "zipcode": "25959-310"
    },
    {
        "city": "Teresopolis",
        "state": "RJ",
        "district": "Varzea",
        "street": "Rua Prefeito Sebastiao Teixeira",
        "zipcode": "25953-202"
    },
    {
        "city": "Teresopolis",
        "state": "RJ",
        "district": "Nossa Senhora De Fatima",
        "street": "Rua Sao Francisco",
        "zipcode": "25957-001"
    },
    {
        "city": "Teresopolis",
        "state": "RJ",
        "district": "Varzea",
        "street": "Avenida Delfim Moreira",
        "zipcode": "25953-182"
    },
    {
        "city": "Teresopolis",
        "state": "RJ",
        "district": "Agrioes",
        "street": "Rua Vereador Jose Elias Zaquem",
        "zipcode": "25963-401"
    },
    {
        "city": "Teresopolis",
        "state": "RJ",
        "district": "Alto",
        "street": "Rua Sao Francisco",
        "zipcode": "25957-000"
    },
    {
        "city": "Teresopolis",
        "state": "RJ",
        "district": "Nossa Senhora De Fatima",
        "street": "Rua Beira",
        "zipcode": "25961-360"
    },
    {
        "city": "Teresopolis",
        "state": "RJ",
        "district": "Vale Do Paraiso",
        "street": "Avenida Delfim Moreira",
        "zipcode": "25976-015"
    },
    {
        "city": "Teresopolis",
        "state": "RJ",
        "district": "Alto",
        "street": "Rua Flavio Bortoluzzi De Souza",
        "zipcode": "25959-135"
    },
    {
        "city": "Teresopolis",
        "state": "RJ",
        "district": "Vila Muqui",
        "street": "Avenida Presidente Roosevelt",
        "zipcode": "25965-000"
    }
]