[
    {
        "city": "Tres Rios",
        "state": "RJ",
        "district": "Centro",
        "street": "Rua Maconaria",
        "zipcode": "25805-020"
    },
    {
        "city": "Tres Rios",
        "state": "RJ",
        "district": "Cantagalo",
        "street": "Rodovia Lucio Meira Br 393 De 119000 Ao 122999",
        "zipcode": "25806-000"
    },
    {
        "city": "Tres Rios",
        "state": "RJ",
        "district": "Moura Brasil",
        "street": "Rua C (Vale Das Palmas)",
        "zipcode": "25821-590"
    },
    {
        "city": "Tres Rios",
        "state": "RJ",
        "district": "Moura Brasil",
        "street": "Rodovia Lucio Meira",
        "zipcode": "25821-330"
    },
    {
        "city": "Tres Rios",
        "state": "RJ",
        "district": "Boa Uniao",
        "street": "Estrada Uniao Industria",
        "zipcode": "25810-120"
    },
    {
        "city": "Tres Rios",
        "state": "RJ",
        "district": "Vila Isabel",
        "street": "Avenida Petrobras",
        "zipcode": "25812-460"
    },
    {
        "city": "Tres Rios",
        "state": "RJ",
        "district": "Centro",
        "street": "Rua Maconaria",
        "zipcode": "25805-021"
    },
    {
        "city": "Tres Rios",
        "state": "RJ",
        "district": "Centro",
        "street": "Pra√ßa Autonomia",
        "zipcode": "25802-320"
    }
]