[
    {
        "city": "Aquiraz",
        "state": "CE",
        "district": "Porto das Dunas",
        "street": "Avenida Litorânea s/n Comércio Local Shopping Lojas 1 a 4",
        "zipcode": "61700-976"
    },
    {
        "city": "Aquiraz",
        "state": "CE",
        "district": null,
        "street": "Vila Machuca",
        "zipcode": "61700-993"
    },
    {
        "city": "Aquiraz",
        "state": "CE",
        "district": null,
        "street": "Rua Cândido Benício Sampaio",
        "zipcode": "61754-990"
    },
    {
        "city": "Aquiraz",
        "state": "CE",
        "district": null,
        "street": "Rua Josué Leite de Freitas",
        "zipcode": "61756-990"
    },
    {
        "city": "Aquiraz",
        "state": "CE",
        "district": null,
        "street": "Rua Osvaldo Studart",
        "zipcode": "61752-990"
    },
    {
        "city": "Aquiraz",
        "state": "CE",
        "district": null,
        "street": "Rua Rufino C. de Assunção",
        "zipcode": "61751-990"
    },
    {
        "city": "Aquiraz",
        "state": "CE",
        "district": "Centro",
        "street": "Avenida Santos Dumont 111",
        "zipcode": "61700-970"
    },
    {
        "city": "Aquiraz",
        "state": "CE",
        "district": null,
        "street": "Avenida Noé Leite de Freitas",
        "zipcode": "61700-992"
    },
    {
        "city": "Aquiraz",
        "state": "CE",
        "district": null,
        "street": "Avenida Arterial I",
        "zipcode": "61700-995"
    },
    {
        "city": "Aquiraz",
        "state": "CE",
        "district": null,
        "street": "Rua João Ferreira de Freitas",
        "zipcode": "61758-990"
    },
    {
        "city": "Aquiraz",
        "state": "CE",
        "district": null,
        "street": "Rua Doca Sales",
        "zipcode": "61753-990"
    },
    {
        "city": "Aquiraz",
        "state": "CE",
        "district": "",
        "street": "",
        "zipcode": "61700-000"
    },
    {
        "city": "Aquiraz",
        "state": "CE",
        "district": null,
        "street": "Rua Damião Tavares de Souza",
        "zipcode": "61700-990"
    },
    {
        "city": "Aquiraz",
        "state": "CE",
        "district": null,
        "street": "Rod Ce 040 Escola Ótavio Correia Lima",
        "zipcode": "61700-996"
    }
]