[
    {
        "city": "Crateús",
        "state": "CE",
        "district": "Centro",
        "street": "Rua Barão do Rio Branco",
        "zipcode": "63700-073"
    },
    {
        "city": "Crateús",
        "state": "CE",
        "district": "Centro",
        "street": "Praça Presidente Castelo Branco",
        "zipcode": "63700-022"
    },
    {
        "city": "Crateús",
        "state": "CE",
        "district": "Centro",
        "street": "Galeria Florentino Cardoso",
        "zipcode": "63700-115"
    },
    {
        "city": "Crateús",
        "state": "CE",
        "district": "Cajás",
        "street": "Rodovia CE",
        "zipcode": "63707-096"
    },
    {
        "city": "Crateús",
        "state": "CE",
        "district": "Centro",
        "street": "Rua Almirante Tamandaré",
        "zipcode": "63700-094"
    },
    {
        "city": "Crateús",
        "state": "CE",
        "district": "Centro",
        "street": "Rua Barão do Rio Branco",
        "zipcode": "63700-070"
    },
    {
        "city": "Crateús",
        "state": "CE",
        "district": "Centro",
        "street": "Galeria Gentil Cardoso",
        "zipcode": "63700-136"
    },
    {
        "city": "Crateús",
        "state": "CE",
        "district": "Centro",
        "street": "Praça da Matriz",
        "zipcode": "63700-043"
    },
    {
        "city": "Crateús",
        "state": "CE",
        "district": "Centro",
        "street": "Rua Clóvis Beviláqua",
        "zipcode": "63700-142"
    },
    {
        "city": "Crateús",
        "state": "CE",
        "district": "Centro",
        "street": "Rua Bento Coutinho",
        "zipcode": "63700-010"
    },
    {
        "city": "Crateús",
        "state": "CE",
        "district": "José Rosa",
        "street": "Rodovia CE",
        "zipcode": "63707-410"
    },
    {
        "city": "Crateús",
        "state": "CE",
        "district": "Venâncios",
        "street": "Rua Central",
        "zipcode": "63708-705"
    },
    {
        "city": "Crateús",
        "state": "CE",
        "district": "Centro",
        "street": "Rua Doutor José Coriolano",
        "zipcode": "63700-040"
    },
    {
        "city": "Crateús",
        "state": "CE",
        "district": "Centro",
        "street": "Rua Tabelião Francisco Antero",
        "zipcode": "63700-124"
    },
    {
        "city": "Crateús",
        "state": "CE",
        "district": "Centro",
        "street": "Rua Doutor Moreira da Rocha",
        "zipcode": "63700-088"
    },
    {
        "city": "Crateús",
        "state": "CE",
        "district": "Maratoan",
        "street": "Rua 103",
        "zipcode": "63700-495"
    },
    {
        "city": "Crateús",
        "state": "CE",
        "district": "Centro",
        "street": "Rua Gentil Linhares",
        "zipcode": "63700-121"
    },
    {
        "city": "Crateús",
        "state": "CE",
        "district": "São Vicente",
        "street": "Rua Coronel Jiló",
        "zipcode": "63700-340"
    },
    {
        "city": "Crateús",
        "state": "CE",
        "district": "Centro",
        "street": "Rua Padre Macedo",
        "zipcode": "63700-052"
    },
    {
        "city": "Crateús",
        "state": "CE",
        "district": "Ipase",
        "street": "Avenida Professor Neto",
        "zipcode": "63700-465"
    },
    {
        "city": "Crateús",
        "state": "CE",
        "district": "Ponte Preta",
        "street": "Rua Coronel Tobias",
        "zipcode": "63704-555"
    },
    {
        "city": "Crateús",
        "state": "CE",
        "district": "Venâncios",
        "street": "Rua Projetada 125",
        "zipcode": "63708-410"
    },
    {
        "city": "Crateús",
        "state": "CE",
        "district": "São José",
        "street": "Rua Coronel Zezé",
        "zipcode": "63704-030"
    },
    {
        "city": "Crateús",
        "state": "CE",
        "district": "Centro",
        "street": "Rua José Sabóia Livreiro",
        "zipcode": "63700-103"
    },
    {
        "city": "Crateús",
        "state": "CE",
        "district": "Venâncios",
        "street": "Avenida A (Lot Cidade Universitária Leste)",
        "zipcode": "63708-759"
    },
    {
        "city": "Crateús",
        "state": "CE",
        "district": "Venâncios",
        "street": "Rua Projetada 130",
        "zipcode": "63708-700"
    },
    {
        "city": "Crateús",
        "state": "CE",
        "district": "Centro",
        "street": "Rua Padre Antônio Tomáz",
        "zipcode": "63700-100"
    },
    {
        "city": "Crateús",
        "state": "CE",
        "district": "Centro",
        "street": "Rua Instituto Santa Inês",
        "zipcode": "63700-031"
    },
    {
        "city": "Crateús",
        "state": "CE",
        "district": "Centro",
        "street": "Rua Coronel Totó",
        "zipcode": "63700-109"
    },
    {
        "city": "Crateús",
        "state": "CE",
        "district": "Centro",
        "street": "Rua Dom Pedro II",
        "zipcode": "63700-079"
    },
    {
        "city": "Crateús",
        "state": "CE",
        "district": "Centro",
        "street": "Rua Farias Brito",
        "zipcode": "63700-004"
    },
    {
        "city": "Crateús",
        "state": "CE",
        "district": "Centro",
        "street": "Rua Firmino Rosa",
        "zipcode": "63700-028"
    },
    {
        "city": "Crateús",
        "state": "CE",
        "district": "Centro",
        "street": "Rua Francisco Sá",
        "zipcode": "63700-019"
    },
    {
        "city": "Crateús",
        "state": "CE",
        "district": "Centro",
        "street": "Travessa Santo Antônio",
        "zipcode": "63700-007"
    },
    {
        "city": "Crateús",
        "state": "CE",
        "district": "Fátima I",
        "street": "Avenida Nonato Bonfim",
        "zipcode": "63703-110"
    },
    {
        "city": "Crateús",
        "state": "CE",
        "district": "Centro",
        "street": "Rua Doutor Moura Fé",
        "zipcode": "63700-127"
    },
    {
        "city": "Crateús",
        "state": "CE",
        "district": "Ipase",
        "street": "Rua Marliane Torres",
        "zipcode": "63700-460"
    },
    {
        "city": "Crateús",
        "state": "CE",
        "district": "Centro",
        "street": "Rua Santos Dumont",
        "zipcode": "63700-034"
    },
    {
        "city": "Crateús",
        "state": "CE",
        "district": "Centro",
        "street": "Rua Doutor Júlio Lima",
        "zipcode": "63700-133"
    },
    {
        "city": "Crateús",
        "state": "CE",
        "district": "Centro",
        "street": "Rua Poty",
        "zipcode": "63700-037"
    },
    {
        "city": "Crateús",
        "state": "CE",
        "district": "Centro",
        "street": "Rua Firmino Rosa",
        "zipcode": "63700-025"
    },
    {
        "city": "Crateús",
        "state": "CE",
        "district": "Fátima II",
        "street": "Avenida Edilberto Frota",
        "zipcode": "63702-030"
    },
    {
        "city": "Crateús",
        "state": "CE",
        "district": "Centro",
        "street": "Rua Doutor João Tomé",
        "zipcode": "63700-049"
    },
    {
        "city": "Crateús",
        "state": "CE",
        "district": "Planalto",
        "street": "Avenida Edilberto Frota",
        "zipcode": "63702-415"
    },
    {
        "city": "Crateús",
        "state": "CE",
        "district": "São José",
        "street": "Travessa Coronel Tobias",
        "zipcode": "63704-080"
    },
    {
        "city": "Crateús",
        "state": "CE",
        "district": "Centro",
        "street": "Rua Doutor João Tomé",
        "zipcode": "63700-112"
    },
    {
        "city": "Crateús",
        "state": "CE",
        "district": "São José",
        "street": "Rua Coronel Antônio Leitão",
        "zipcode": "63704-065"
    },
    {
        "city": "Crateús",
        "state": "CE",
        "district": "Maratoan",
        "street": "Avenida Raimundo Soares Resende",
        "zipcode": "63700-535"
    },
    {
        "city": "Crateús",
        "state": "CE",
        "district": "Fátima II",
        "street": "Avenida Edilberto Frota",
        "zipcode": "63702-025"
    },
    {
        "city": "Crateús",
        "state": "CE",
        "district": "Altamira",
        "street": "Rua Manoel Cesário",
        "zipcode": "63704-255"
    },
    {
        "city": "Crateús",
        "state": "CE",
        "district": "Centro",
        "street": "Rua Coronel Zezé",
        "zipcode": "63700-064"
    },
    {
        "city": "Crateús",
        "state": "CE",
        "district": "São Vicente",
        "street": "Rua Coronel Totó",
        "zipcode": "63700-265"
    },
    {
        "city": "Crateús",
        "state": "CE",
        "district": "Ponte Preta",
        "street": "Rua Coronel Antônio de Melo",
        "zipcode": "63704-550"
    },
    {
        "city": "Crateús",
        "state": "CE",
        "district": "São José",
        "street": "Rua Coronel Tobias",
        "zipcode": "63704-075"
    },
    {
        "city": "Crateús",
        "state": "CE",
        "district": "Campo Velho",
        "street": "Avenida Edilberto Frota",
        "zipcode": "63701-250"
    },
    {
        "city": "Crateús",
        "state": "CE",
        "district": "Centro",
        "street": "Rua Francisco Mariano",
        "zipcode": "63700-118"
    },
    {
        "city": "Crateús",
        "state": "CE",
        "district": "Centro",
        "street": "Rua Tenente Manuel Ferreira dos Anjos",
        "zipcode": "63700-016"
    },
    {
        "city": "Crateús",
        "state": "CE",
        "district": "José Rosa",
        "street": "Avenida Juvenal Melo Cavalcante",
        "zipcode": "63707-815"
    },
    {
        "city": "Crateús",
        "state": "CE",
        "district": "José Rosa",
        "street": "Avenida Jovino Melo Lima",
        "zipcode": "63707-875"
    },
    {
        "city": "Crateús",
        "state": "CE",
        "district": "Santa Luzia",
        "street": "Rua Projetada 157",
        "zipcode": "63700-790"
    },
    {
        "city": "Crateús",
        "state": "CE",
        "district": "Centro",
        "street": "Travessa Doutor Moura Fé",
        "zipcode": "63700-130"
    },
    {
        "city": "Crateús",
        "state": "CE",
        "district": "Centro",
        "street": "Rua Coronel Zezé",
        "zipcode": "63700-055"
    },
    {
        "city": "Crateús",
        "state": "CE",
        "district": "Maratoan",
        "street": "Avenida José de Oliveira Camerino",
        "zipcode": "63700-480"
    },
    {
        "city": "Crateús",
        "state": "CE",
        "district": "Venâncios",
        "street": "Avenida Doutor Geraldo Barbosa Marques",
        "zipcode": "63708-260"
    },
    {
        "city": "Crateús",
        "state": "CE",
        "district": "Santa Luzia",
        "street": "Avenida Palmares",
        "zipcode": "63700-810"
    },
    {
        "city": "Crateús",
        "state": "CE",
        "district": "Altamira",
        "street": "Rua Antônio Soares Lins",
        "zipcode": "63704-170"
    },
    {
        "city": "Crateús",
        "state": "CE",
        "district": "Venâncios",
        "street": "Rua Artur Pereira dos Santos",
        "zipcode": "63708-235"
    },
    {
        "city": "Crateús",
        "state": "CE",
        "district": "José Rosa",
        "street": "Rua Antônio Henrique Soares Machado",
        "zipcode": "63707-866"
    },
    {
        "city": "Crateús",
        "state": "CE",
        "district": "São Vicente",
        "street": "Rua Auton Aragão",
        "zipcode": "63700-290"
    },
    {
        "city": "Crateús",
        "state": "CE",
        "district": "José Rosa",
        "street": "Rua Benedito Barroso",
        "zipcode": "63707-500"
    },
    {
        "city": "Crateús",
        "state": "CE",
        "district": "Santa Luzia",
        "street": "Rua André Moreira",
        "zipcode": "63700-785"
    },
    {
        "city": "Crateús",
        "state": "CE",
        "district": "Cidade Nova",
        "street": "Rua Anastácio Fidélis",
        "zipcode": "63705-798"
    },
    {
        "city": "Crateús",
        "state": "CE",
        "district": "José Rosa",
        "street": "Rua Antônio Coelho da Silva",
        "zipcode": "63707-540"
    },
    {
        "city": "Crateús",
        "state": "CE",
        "district": "Campo Velho",
        "street": "Rua Antônio José",
        "zipcode": "63701-175"
    },
    {
        "city": "Crateús",
        "state": "CE",
        "district": "Ponte Preta",
        "street": "Rua Antônia Cipriana",
        "zipcode": "63704-515"
    },
    {
        "city": "Crateús",
        "state": "CE",
        "district": "José Rosa",
        "street": "Rodovia BR",
        "zipcode": "63707-800"
    },
    {
        "city": "Crateús",
        "state": "CE",
        "district": "Venâncios",
        "street": "Rodovia BR",
        "zipcode": "63708-690"
    },
    {
        "city": "Crateús",
        "state": "CE",
        "district": "Cidade 2000",
        "street": "Rua Beato Frederico Ozanam",
        "zipcode": "63705-255"
    },
    {
        "city": "Crateús",
        "state": "CE",
        "district": "Cidade Nova",
        "street": "Rua Alfredo Bezerra Camelo",
        "zipcode": "63705-790"
    },
    {
        "city": "Crateús",
        "state": "CE",
        "district": "Planalto",
        "street": "Rua Afonso Chaves",
        "zipcode": "63702-300"
    },
    {
        "city": "Crateús",
        "state": "CE",
        "district": "Fátima I",
        "street": "Rua Bento Vieira Lima",
        "zipcode": "63703-075"
    },
    {
        "city": "Crateús",
        "state": "CE",
        "district": "Altamira",
        "street": "Rua B (Lot Altamira)",
        "zipcode": "63704-210"
    },
    {
        "city": "Crateús",
        "state": "CE",
        "district": "José Rosa",
        "street": "Rua Antônio Carlos Moreira",
        "zipcode": "63707-863"
    },
    {
        "city": "Crateús",
        "state": "CE",
        "district": "Venâncios",
        "street": "Rua Benedito Ferreira da Silva",
        "zipcode": "63708-290"
    },
    {
        "city": "Crateús",
        "state": "CE",
        "district": "Venâncios",
        "street": "Rua Alexandre Bonfim",
        "zipcode": "63708-295"
    },
    {
        "city": "Crateús",
        "state": "CE",
        "district": "Venâncios",
        "street": "Rua Antônio Valmir Soares Pinho Júnior",
        "zipcode": "63708-250"
    },
    {
        "city": "Crateús",
        "state": "CE",
        "district": "José Rosa",
        "street": "Rua Anastácio Campina",
        "zipcode": "63707-495"
    },
    {
        "city": "Crateús",
        "state": "CE",
        "district": "Ipase",
        "street": "Rua Antônio Soares de Oliveira",
        "zipcode": "63700-435"
    },
    {
        "city": "Crateús",
        "state": "CE",
        "district": "Cidade Nova",
        "street": "Rua Agamenon Machado",
        "zipcode": "63705-846"
    },
    {
        "city": "Crateús",
        "state": "CE",
        "district": "Altamira",
        "street": "Rua Almirante Tamandaré",
        "zipcode": "63704-100"
    },
    {
        "city": "Crateús",
        "state": "CE",
        "district": "Campo Velho",
        "street": "Rua Arcelino da Silva Lima",
        "zipcode": "63701-425"
    },
    {
        "city": "Crateús",
        "state": "CE",
        "district": "Altamira",
        "street": "Rua Boa Esperança",
        "zipcode": "63704-180"
    },
    {
        "city": "Crateús",
        "state": "CE",
        "district": "Maratoan",
        "street": "Rua Alvina Torres Martins",
        "zipcode": "63700-595"
    },
    {
        "city": "Crateús",
        "state": "CE",
        "district": "Ponte Preta",
        "street": "Rua Antônio Jucá",
        "zipcode": "63704-535"
    },
    {
        "city": "Crateús",
        "state": "CE",
        "district": "Fátima I",
        "street": "Rua Afonso Chaves",
        "zipcode": "63703-030"
    },
    {
        "city": "Crateús",
        "state": "CE",
        "district": "São Vicente",
        "street": "Rua A (Lot Beira Rio)",
        "zipcode": "63700-380"
    },
    {
        "city": "Crateús",
        "state": "CE",
        "district": "São José",
        "street": "Rua Almirante Tamandaré",
        "zipcode": "63704-035"
    },
    {
        "city": "Crateús",
        "state": "CE",
        "district": "Ipase",
        "street": "Rua Antônio Francisco de Macedo",
        "zipcode": "63700-470"
    },
    {
        "city": "Crateús",
        "state": "CE",
        "district": "Altamira",
        "street": "Rua Antônio Minelvino",
        "zipcode": "63704-285"
    },
    {
        "city": "Crateús",
        "state": "CE",
        "district": "Ipase",
        "street": "Rua Antônio Sales",
        "zipcode": "63700-410"
    },
    {
        "city": "Crateús",
        "state": "CE",
        "district": "Ponte Preta",
        "street": "Rua Antônia Sipriana Primeiro",
        "zipcode": "63704-565"
    },
    {
        "city": "Crateús",
        "state": "CE",
        "district": "São Vicente",
        "street": "Avenida Sargento Hermínio",
        "zipcode": "63700-310"
    },
    {
        "city": "Crateús",
        "state": "CE",
        "district": "Ipase",
        "street": "Avenida Sargento Hermínio",
        "zipcode": "63700-400"
    },
    {
        "city": "Crateús",
        "state": "CE",
        "district": "Cidade 2000",
        "street": "Avenida Vera Mourão",
        "zipcode": "63705-260"
    },
    {
        "city": "Crateús",
        "state": "CE",
        "district": "Campo Velho",
        "street": "Rua Antônio Evaldo Frota",
        "zipcode": "63701-240"
    },
    {
        "city": "Crateús",
        "state": "CE",
        "district": "São Vicente",
        "street": "Rua Antônio Pierre de Aguiar",
        "zipcode": "63700-255"
    },
    {
        "city": "Crateús",
        "state": "CE",
        "district": "Venâncios",
        "street": "Rua Antônio Penha Sousa",
        "zipcode": "63708-345"
    },
    {
        "city": "Crateús",
        "state": "CE",
        "district": "Planalto",
        "street": "Rua Abdias Ferreira das Flores",
        "zipcode": "63702-440"
    },
    {
        "city": "Crateús",
        "state": "CE",
        "district": "Altamira",
        "street": "Rua Antônio Jucá",
        "zipcode": "63704-240"
    },
    {
        "city": "Crateús",
        "state": "CE",
        "district": "Fátima I",
        "street": "Rua Aldir Mota",
        "zipcode": "63703-090"
    },
    {
        "city": "Crateús",
        "state": "CE",
        "district": "José Rosa",
        "street": "Rua Artagnan de Melo Machado",
        "zipcode": "63707-821"
    },
    {
        "city": "Crateús",
        "state": "CE",
        "district": "Cidade Nova",
        "street": "Rua Anísio Frota Ferreira",
        "zipcode": "63705-726"
    },
    {
        "city": "Crateús",
        "state": "CE",
        "district": "São Vicente",
        "street": "Rua Abdias Veras",
        "zipcode": "63700-260"
    },
    {
        "city": "Crateús",
        "state": "CE",
        "district": "São Vicente",
        "street": "Rua Antônio Catunda",
        "zipcode": "63700-295"
    },
    {
        "city": "Crateús",
        "state": "CE",
        "district": "São Vicente",
        "street": "Rua Antônio Leite Sobrinho",
        "zipcode": "63700-365"
    },
    {
        "city": "Crateús",
        "state": "CE",
        "district": "Cidade Nova",
        "street": "Rua Antônio Pereira de Paula",
        "zipcode": "63705-878"
    },
    {
        "city": "Crateús",
        "state": "CE",
        "district": "Planalto",
        "street": "Avenida Tabelião Edmar Lopes Martins",
        "zipcode": "63702-515"
    },
    {
        "city": "Crateús",
        "state": "CE",
        "district": "Planalto",
        "street": "Avenida Tabelião Edmar Lopes Martins",
        "zipcode": "63702-520"
    },
    {
        "city": "Crateús",
        "state": "CE",
        "district": "José Rosa",
        "street": "Rua Antônio Frederico de Sousa Aguiar",
        "zipcode": "63707-570"
    },
    {
        "city": "Crateús",
        "state": "CE",
        "district": "Campo Velho",
        "street": "Rua Edmundo Pinto da Silva",
        "zipcode": "63701-430"
    },
    {
        "city": "Crateús",
        "state": "CE",
        "district": "Altamira",
        "street": "Rua Chaves Martins",
        "zipcode": "63704-165"
    },
    {
        "city": "Crateús",
        "state": "CE",
        "district": "São José",
        "street": "Rua Carlos Rolim",
        "zipcode": "63704-020"
    },
    {
        "city": "Crateús",
        "state": "CE",
        "district": "São Vicente",
        "street": "Rua Doutor Moura Fé",
        "zipcode": "63700-240"
    },
    {
        "city": "Crateús",
        "state": "CE",
        "district": "Nova Terra",
        "street": "Rua Doutor José Bezerra Melo",
        "zipcode": "63702-232"
    },
    {
        "city": "Crateús",
        "state": "CE",
        "district": "Campo Velho",
        "street": "Rua Doutor Júlio Lima",
        "zipcode": "63701-230"
    },
    {
        "city": "Crateús",
        "state": "CE",
        "district": "Patriarcas",
        "street": "Rua Carlos Ednardo Ferreira Morais",
        "zipcode": "63705-505"
    },
    {
        "city": "Crateús",
        "state": "CE",
        "district": "Cajás",
        "street": "Rua da Libertação",
        "zipcode": "63707-064"
    },
    {
        "city": "Crateús",
        "state": "CE",
        "district": "Campo Velho",
        "street": "Rua da Paz",
        "zipcode": "63701-215"
    },
    {
        "city": "Crateús",
        "state": "CE",
        "district": "Cidade Nova",
        "street": "Rua Doutor José Furtado",
        "zipcode": "63705-766"
    },
    {
        "city": "Crateús",
        "state": "CE",
        "district": "Patriarcas",
        "street": "Rua Contador Raimundo Luis",
        "zipcode": "63705-410"
    },
    {
        "city": "Crateús",
        "state": "CE",
        "district": "Fátima II",
        "street": "Rua Capistrano de Abreu",
        "zipcode": "63702-090"
    },
    {
        "city": "Crateús",
        "state": "CE",
        "district": "Ipase",
        "street": "Rua Brasiliana Maria Chaves",
        "zipcode": "63700-455"
    },
    {
        "city": "Crateús",
        "state": "CE",
        "district": "Cidade Nova",
        "street": "Rua Dom Antônio Batista Fragoso",
        "zipcode": "63705-838"
    },
    {
        "city": "Crateús",
        "state": "CE",
        "district": "José Rosa",
        "street": "Rua Capitão Castro",
        "zipcode": "63707-440"
    },
    {
        "city": "Crateús",
        "state": "CE",
        "district": "São Vicente",
        "street": "Rua Capistrano de Abreu",
        "zipcode": "63700-170"
    },
    {
        "city": "Crateús",
        "state": "CE",
        "district": "Planalto",
        "street": "Rua Doutor Hermínio Bezerra",
        "zipcode": "63702-380"
    },
    {
        "city": "Crateús",
        "state": "CE",
        "district": "Fátima II",
        "street": "Rua Calixto Ribeiro do Carmo",
        "zipcode": "63702-190"
    },
    {
        "city": "Crateús",
        "state": "CE",
        "district": "Cidade 2000",
        "street": "Rua Dom José Tupinambá da Frota",
        "zipcode": "63705-315"
    },
    {
        "city": "Crateús",
        "state": "CE",
        "district": "Venâncios",
        "street": "Rua Edmundo Pinto",
        "zipcode": "63708-435"
    },
    {
        "city": "Crateús",
        "state": "CE",
        "district": "São Vicente",
        "street": "Rua Clóvis Beviláqua",
        "zipcode": "63700-155"
    },
    {
        "city": "Crateús",
        "state": "CE",
        "district": "Patriarcas",
        "street": "Rua Capitão Eduardo",
        "zipcode": "63705-430"
    },
    {
        "city": "Crateús",
        "state": "CE",
        "district": "São Vicente",
        "street": "Rua Doutor Moura Fé",
        "zipcode": "63700-245"
    },
    {
        "city": "Crateús",
        "state": "CE",
        "district": "Altamira",
        "street": "Rua Doutor Almir Sabino",
        "zipcode": "63704-175"
    },
    {
        "city": "Crateús",
        "state": "CE",
        "district": "José Rosa",
        "street": "Rua Danilo Claudino Rodrigues",
        "zipcode": "63707-430"
    },
    {
        "city": "Crateús",
        "state": "CE",
        "district": "Venâncios",
        "street": "Rua Doutor Washington Vale",
        "zipcode": "63708-420"
    },
    {
        "city": "Crateús",
        "state": "CE",
        "district": "José Rosa",
        "street": "Rua Chico Lopes",
        "zipcode": "63707-465"
    },
    {
        "city": "Crateús",
        "state": "CE",
        "district": "José Rosa",
        "street": "Rua Edmilson Nonato do Vale",
        "zipcode": "63707-590"
    },
    {
        "city": "Crateús",
        "state": "CE",
        "district": "Fátima II",
        "street": "Rua Doutor Moreira da Rocha",
        "zipcode": "63702-015"
    },
    {
        "city": "Crateús",
        "state": "CE",
        "district": "Cidade 2000",
        "street": "Rua Cícero Patriarca",
        "zipcode": "63705-035"
    },
    {
        "city": "Crateús",
        "state": "CE",
        "district": "São Vicente",
        "street": "Rua D (Lot Beira Rio)",
        "zipcode": "63700-385"
    },
    {
        "city": "Crateús",
        "state": "CE",
        "district": "Cidade Nova",
        "street": "Rua Cazuza Ferreira",
        "zipcode": "63705-742"
    },
    {
        "city": "Crateús",
        "state": "CE",
        "district": "Fátima I",
        "street": "Rua Deolino Barreto",
        "zipcode": "63702-845"
    },
    {
        "city": "Crateús",
        "state": "CE",
        "district": "Planalto",
        "street": "Rua Doutor Hermínio Bezerra",
        "zipcode": "63702-375"
    },
    {
        "city": "Crateús",
        "state": "CE",
        "district": "Nova Terra",
        "street": "Rua Euclides Alcântara",
        "zipcode": "63702-226"
    },
    {
        "city": "Crateús",
        "state": "CE",
        "district": "São Vicente",
        "street": "Rua Elício Pereira de Carvalho",
        "zipcode": "63700-325"
    },
    {
        "city": "Crateús",
        "state": "CE",
        "district": "Fátima II",
        "street": "Rua Doutor Hermínio Bezerra",
        "zipcode": "63702-175"
    },
    {
        "city": "Crateús",
        "state": "CE",
        "district": "Venâncios",
        "street": "Rua Demócrito Rocha",
        "zipcode": "63708-450"
    },
    {
        "city": "Crateús",
        "state": "CE",
        "district": "Planalto",
        "street": "Rua Doutor Francisco Sales de Macedo",
        "zipcode": "63702-555"
    },
    {
        "city": "Crateús",
        "state": "CE",
        "district": "Fátima II",
        "street": "Rua Dom Pedro II",
        "zipcode": "63702-045"
    },
    {
        "city": "Crateús",
        "state": "CE",
        "district": "Cidade 2000",
        "street": "Rua Doutor José Maria Leitão",
        "zipcode": "63705-045"
    },
    {
        "city": "Crateús",
        "state": "CE",
        "district": "Fátima I",
        "street": "Rua Doutor João Tomé",
        "zipcode": "63702-885"
    },
    {
        "city": "Crateús",
        "state": "CE",
        "district": "Maratoan",
        "street": "Rua Doutor Abdoral Martins Machado",
        "zipcode": "63700-590"
    },
    {
        "city": "Crateús",
        "state": "CE",
        "district": "Altamira",
        "street": "Rua C (Lot Altamira)",
        "zipcode": "63704-190"
    },
    {
        "city": "Crateús",
        "state": "CE",
        "district": "Fátima II",
        "street": "Rua Domingos Soares Rodrigues",
        "zipcode": "63702-200"
    },
    {
        "city": "Crateús",
        "state": "CE",
        "district": "São Vicente",
        "street": "Rua dos Tabajaras",
        "zipcode": "63700-350"
    },
    {
        "city": "Crateús",
        "state": "CE",
        "district": "Cidade 2000",
        "street": "Rua Contador Raimundo Luis",
        "zipcode": "63705-085"
    },
    {
        "city": "Crateús",
        "state": "CE",
        "district": "São Vicente",
        "street": "Rua E (Lot Beira Rio)",
        "zipcode": "63700-390"
    },
    {
        "city": "Crateús",
        "state": "CE",
        "district": "São José",
        "street": "Rua Delmiro Gouveia",
        "zipcode": "63704-070"
    },
    {
        "city": "Crateús",
        "state": "CE",
        "district": "São Vicente",
        "street": "Rua Dom Pedro II",
        "zipcode": "63700-160"
    },
    {
        "city": "Crateús",
        "state": "CE",
        "district": "Fátima I",
        "street": "Rua Emilio Falcão",
        "zipcode": "63702-890"
    },
    {
        "city": "Crateús",
        "state": "CE",
        "district": "Nova Terra",
        "street": "Rua Doutor Hermínio Bezerra",
        "zipcode": "63702-229"
    },
    {
        "city": "Crateús",
        "state": "CE",
        "district": "São Vicente",
        "street": "Rua Desembargador Olavo Frota",
        "zipcode": "63700-250"
    },
    {
        "city": "Crateús",
        "state": "CE",
        "district": "Venâncios",
        "street": "Rua Duque de Caxias",
        "zipcode": "63708-465"
    },
    {
        "city": "Crateús",
        "state": "CE",
        "district": "Planalto",
        "street": "Rua D (Lot Planalto Principe Imperial)",
        "zipcode": "63702-310"
    },
    {
        "city": "Crateús",
        "state": "CE",
        "district": "Fátima I",
        "street": "Rua Firmino Rocha Aguiar",
        "zipcode": "63703-080"
    },
    {
        "city": "Crateús",
        "state": "CE",
        "district": "Campo Velho",
        "street": "Rua Francisco Rufino da Silva",
        "zipcode": "63701-245"
    },
    {
        "city": "Crateús",
        "state": "CE",
        "district": "Ipase",
        "street": "Rua Euclides da Cunha",
        "zipcode": "63700-440"
    },
    {
        "city": "Crateús",
        "state": "CE",
        "district": "Maratoan",
        "street": "Rua Francisco de Sousa Torres",
        "zipcode": "63700-570"
    },
    {
        "city": "Crateús",
        "state": "CE",
        "district": "Campo Velho",
        "street": "Rua Frei Damião",
        "zipcode": "63701-220"
    },
    {
        "city": "Crateús",
        "state": "CE",
        "district": "São Vicente",
        "street": "Rua Gomes Coutinho",
        "zipcode": "63700-315"
    },
    {
        "city": "Crateús",
        "state": "CE",
        "district": "Planalto",
        "street": "Rua Francisco Sérgio Ricart Quirino",
        "zipcode": "63702-550"
    },
    {
        "city": "Crateús",
        "state": "CE",
        "district": "José Rosa",
        "street": "Rua Francisco Camurça Filho",
        "zipcode": "63707-530"
    },
    {
        "city": "Crateús",
        "state": "CE",
        "district": "Cidade 2000",
        "street": "Rua Francisca Conegundes",
        "zipcode": "63705-285"
    },
    {
        "city": "Crateús",
        "state": "CE",
        "district": "Nova Terra",
        "street": "Rua Francimar Alves",
        "zipcode": "63702-223"
    },
    {
        "city": "Crateús",
        "state": "CE",
        "district": "Fátima I",
        "street": "Rua Francisco Batista de Sousa",
        "zipcode": "63703-000"
    },
    {
        "city": "Crateús",
        "state": "CE",
        "district": "Cidade Nova",
        "street": "Rua Enoque Mourão",
        "zipcode": "63705-694"
    },
    {
        "city": "Crateús",
        "state": "CE",
        "district": "Planalto",
        "street": "Rua Gentil Barreira",
        "zipcode": "63702-260"
    },
    {
        "city": "Crateús",
        "state": "CE",
        "district": "José Rosa",
        "street": "Rua Francisco de Araújo Lima",
        "zipcode": "63707-575"
    },
    {
        "city": "Crateús",
        "state": "CE",
        "district": "Altamira",
        "street": "Rua Francisco Denis de Macedo",
        "zipcode": "63704-160"
    },
    {
        "city": "Crateús",
        "state": "CE",
        "district": "Fátima I",
        "street": "Rua Gentil Barreira",
        "zipcode": "63702-860"
    },
    {
        "city": "Crateús",
        "state": "CE",
        "district": "José Rosa",
        "street": "Rua Expedito Veras",
        "zipcode": "63707-435"
    },
    {
        "city": "Crateús",
        "state": "CE",
        "district": "Cidade 2000",
        "street": "Rua Gonçalo de Melo Lima",
        "zipcode": "63705-305"
    },
    {
        "city": "Crateús",
        "state": "CE",
        "district": "Ponte Preta",
        "street": "Rua Frei Vidal da Penha",
        "zipcode": "63704-560"
    },
    {
        "city": "Crateús",
        "state": "CE",
        "district": "Venâncios",
        "street": "Rua Francisco Leitão",
        "zipcode": "63708-230"
    },
    {
        "city": "Crateús",
        "state": "CE",
        "district": "Maratoan",
        "street": "Rua Francisca Vieira Rodrigues",
        "zipcode": "63700-580"
    },
    {
        "city": "Crateús",
        "state": "CE",
        "district": "José Rosa",
        "street": "Rua Gonçalo Araújo Lima",
        "zipcode": "63707-854"
    },
    {
        "city": "Crateús",
        "state": "CE",
        "district": "José Rosa",
        "street": "Rua Francisco Bonfim de Sousa",
        "zipcode": "63707-806"
    },
    {
        "city": "Crateús",
        "state": "CE",
        "district": "Cidade 2000",
        "street": "Rua Francisco Sobreira Leite",
        "zipcode": "63705-240"
    },
    {
        "city": "Crateús",
        "state": "CE",
        "district": "Fátima I",
        "street": "Rua Francisco Damião Rodrigues",
        "zipcode": "63703-025"
    },
    {
        "city": "Crateús",
        "state": "CE",
        "district": "José Rosa",
        "street": "Rua Guia Lopes",
        "zipcode": "63707-420"
    },
    {
        "city": "Crateús",
        "state": "CE",
        "district": "Planalto",
        "street": "Rua Gonçalves Braz de Pinho",
        "zipcode": "63702-410"
    },
    {
        "city": "Crateús",
        "state": "CE",
        "district": "Venâncios",
        "street": "Rua Genésia Romana de Oliveira",
        "zipcode": "63708-265"
    },
    {
        "city": "Crateús",
        "state": "CE",
        "district": "Cajás",
        "street": "Rua Francisco Alves Ferreira",
        "zipcode": "63707-040"
    },
    {
        "city": "Crateús",
        "state": "CE",
        "district": "São Vicente",
        "street": "Rua Francisco Elício de Araújo",
        "zipcode": "63700-375"
    },
    {
        "city": "Crateús",
        "state": "CE",
        "district": "Planalto",
        "street": "Rua Francisco Mariano",
        "zipcode": "63702-250"
    },
    {
        "city": "Crateús",
        "state": "CE",
        "district": "Planalto",
        "street": "Rua Emilio Falcão",
        "zipcode": "63702-285"
    },
    {
        "city": "Crateús",
        "state": "CE",
        "district": "Altamira",
        "street": "Rua Francisco Maciel Azevedo Melo",
        "zipcode": "63704-110"
    },
    {
        "city": "Crateús",
        "state": "CE",
        "district": "Venâncios",
        "street": "Rua Eva Rodrigues de Oliveira",
        "zipcode": "63708-430"
    },
    {
        "city": "Crateús",
        "state": "CE",
        "district": "Planalto",
        "street": "Rua Francisco Moreira de Brito",
        "zipcode": "63702-465"
    },
    {
        "city": "Crateús",
        "state": "CE",
        "district": "Ponte Preta",
        "street": "Rua Fransquinha Machado",
        "zipcode": "63704-545"
    },
    {
        "city": "Crateús",
        "state": "CE",
        "district": "Cidade 2000",
        "street": "Rua Gentil Falcão",
        "zipcode": "63705-020"
    },
    {
        "city": "Crateús",
        "state": "CE",
        "district": "São José",
        "street": "Rua Fransquinha Machado",
        "zipcode": "63704-085"
    },
    {
        "city": "Crateús",
        "state": "CE",
        "district": "Cidade 2000",
        "street": "Rua Gonçalo Soares Dias",
        "zipcode": "63705-275"
    },
    {
        "city": "Crateús",
        "state": "CE",
        "district": "Cidade 2000",
        "street": "Rua Francisco Carlos Mourão",
        "zipcode": "63705-245"
    },
    {
        "city": "Crateús",
        "state": "CE",
        "district": "Planalto",
        "street": "Rua Francisco Rodrigues das Flores",
        "zipcode": "63702-420"
    },
    {
        "city": "Crateús",
        "state": "CE",
        "district": "Campo Velho",
        "street": "Rua Gentil Cardoso",
        "zipcode": "63701-210"
    },
    {
        "city": "Crateús",
        "state": "CE",
        "district": "Fátima I",
        "street": "Rua Francisco Artur Moreira",
        "zipcode": "63703-125"
    },
    {
        "city": "Crateús",
        "state": "CE",
        "district": "Cidade Nova",
        "street": "Rua Félix de Sousa",
        "zipcode": "63705-686"
    },
    {
        "city": "Crateús",
        "state": "CE",
        "district": "Ipase",
        "street": "Rua Gustavo Barroso",
        "zipcode": "63700-420"
    },
    {
        "city": "Crateús",
        "state": "CE",
        "district": "Fátima II",
        "street": "Rua Francisco Bonfim Neto",
        "zipcode": "63702-180"
    },
    {
        "city": "Crateús",
        "state": "CE",
        "district": "José Rosa",
        "street": "Rua Hilda Mourão",
        "zipcode": "63707-525"
    },
    {
        "city": "Crateús",
        "state": "CE",
        "district": "Venâncios",
        "street": "Rua Joana Rodrigues Palhano",
        "zipcode": "63708-415"
    },
    {
        "city": "Crateús",
        "state": "CE",
        "district": "Fátima I",
        "street": "Rua Francisco Barbosa de Sousa",
        "zipcode": "63703-050"
    },
    {
        "city": "Crateús",
        "state": "CE",
        "district": "Cidade Nova",
        "street": "Rua Francisco Rodrigues Balacó",
        "zipcode": "63705-894"
    },
    {
        "city": "Crateús",
        "state": "CE",
        "district": "Altamira",
        "street": "Rua Hermelindo Balé",
        "zipcode": "63704-150"
    },
    {
        "city": "Crateús",
        "state": "CE",
        "district": "São Vicente",
        "street": "Rua Jacob de Melo",
        "zipcode": "63700-280"
    },
    {
        "city": "Crateús",
        "state": "CE",
        "district": "Maratoan",
        "street": "Rua Isabel Gonçalves da Silva",
        "zipcode": "63700-525"
    },
    {
        "city": "Crateús",
        "state": "CE",
        "district": "Altamira",
        "street": "Rua Francisco Coelho",
        "zipcode": "63704-125"
    },
    {
        "city": "Crateús",
        "state": "CE",
        "district": "Fátima II",
        "street": "Rua Francisco Mariano",
        "zipcode": "63702-000"
    },
    {
        "city": "Crateús",
        "state": "CE",
        "district": "Campo Velho",
        "street": "Rua Eva Batista Pereira",
        "zipcode": "63701-415"
    },
    {
        "city": "Crateús",
        "state": "CE",
        "district": "Venâncios",
        "street": "Rua Guia Lopes",
        "zipcode": "63708-300"
    },
    {
        "city": "Crateús",
        "state": "CE",
        "district": "José Rosa",
        "street": "Rua Francisco Nivardo Pinto",
        "zipcode": "63707-565"
    },
    {
        "city": "Crateús",
        "state": "CE",
        "district": "Patriarcas",
        "street": "Rua Florenço Gomes de Sousa",
        "zipcode": "63705-470"
    },
    {
        "city": "Crateús",
        "state": "CE",
        "district": "Cidade 2000",
        "street": "Rua João Eva",
        "zipcode": "63705-070"
    },
    {
        "city": "Crateús",
        "state": "CE",
        "district": "Fátima I",
        "street": "Rua José Albano",
        "zipcode": "63703-035"
    },
    {
        "city": "Crateús",
        "state": "CE",
        "district": "Planalto",
        "street": "Rua Izauro Machado Portela",
        "zipcode": "63702-255"
    },
    {
        "city": "Crateús",
        "state": "CE",
        "district": "Venâncios",
        "street": "Rua João Pinto de Macedo",
        "zipcode": "63708-355"
    },
    {
        "city": "Crateús",
        "state": "CE",
        "district": "José Rosa",
        "street": "Rua Helena Honorato",
        "zipcode": "63707-842"
    },
    {
        "city": "Crateús",
        "state": "CE",
        "district": "Planalto",
        "street": "Rua José Carlos de Pinho",
        "zipcode": "63702-330"
    },
    {
        "city": "Crateús",
        "state": "CE",
        "district": "José Rosa",
        "street": "Rua Izabel Moraes Machado",
        "zipcode": "63707-869"
    },
    {
        "city": "Crateús",
        "state": "CE",
        "district": "Patriarcas",
        "street": "Rua José de Sousa Martins",
        "zipcode": "63705-440"
    },
    {
        "city": "Crateús",
        "state": "CE",
        "district": "Venâncios",
        "street": "Rua José Melo Filho",
        "zipcode": "63708-320"
    },
    {
        "city": "Crateús",
        "state": "CE",
        "district": "Maratoan",
        "street": "Rua João Machado Melo Filho",
        "zipcode": "63700-490"
    },
    {
        "city": "Crateús",
        "state": "CE",
        "district": "Campo Velho",
        "street": "Rua Jonas Gomes de Freitas",
        "zipcode": "63701-235"
    },
    {
        "city": "Crateús",
        "state": "CE",
        "district": "Fátima I",
        "street": "Rua João Ribeiro Lima",
        "zipcode": "63703-015"
    },
    {
        "city": "Crateús",
        "state": "CE",
        "district": "Fátima I",
        "street": "Rua Izauro Machado Portela",
        "zipcode": "63702-855"
    },
    {
        "city": "Crateús",
        "state": "CE",
        "district": "Venâncios",
        "street": "Rua José Menezes",
        "zipcode": "63708-245"
    },
    {
        "city": "Crateús",
        "state": "CE",
        "district": "Planalto",
        "street": "Rua José Martins",
        "zipcode": "63702-350"
    },
    {
        "city": "Crateús",
        "state": "CE",
        "district": "Cidade 2000",
        "street": "Rua Gutierre Lunaro Vieira da Costa",
        "zipcode": "63705-340"
    },
    {
        "city": "Crateús",
        "state": "CE",
        "district": "Planalto",
        "street": "Rua José Pacheco Marques",
        "zipcode": "63702-450"
    },
    {
        "city": "Crateús",
        "state": "CE",
        "district": "Patriarcas",
        "street": "Rua José Araújo Chaves",
        "zipcode": "63705-500"
    },
    {
        "city": "Crateús",
        "state": "CE",
        "district": "Planalto",
        "street": "Rua José Maria Ximenes",
        "zipcode": "63702-560"
    },
    {
        "city": "Crateús",
        "state": "CE",
        "district": "Maratoan",
        "street": "Rua João Calunga",
        "zipcode": "63700-530"
    },
    {
        "city": "Crateús",
        "state": "CE",
        "district": "Fátima II",
        "street": "Rua Humberto de Campos",
        "zipcode": "63702-160"
    },
    {
        "city": "Crateús",
        "state": "CE",
        "district": "Patriarcas",
        "street": "Rua João Eva",
        "zipcode": "63705-435"
    },
    {
        "city": "Crateús",
        "state": "CE",
        "district": "José Rosa",
        "street": "Rua Homero Fontenele",
        "zipcode": "63707-460"
    },
    {
        "city": "Crateús",
        "state": "CE",
        "district": "José Rosa",
        "street": "Rua João Gomes",
        "zipcode": "63707-520"
    },
    {
        "city": "Crateús",
        "state": "CE",
        "district": "Planalto",
        "street": "Rua Humberto de Campos",
        "zipcode": "63702-280"
    },
    {
        "city": "Crateús",
        "state": "CE",
        "district": "São José",
        "street": "Rua João Soares",
        "zipcode": "63704-040"
    },
    {
        "city": "Crateús",
        "state": "CE",
        "district": "Cidade 2000",
        "street": "Rua José Osmo Mota",
        "zipcode": "63705-300"
    },
    {
        "city": "Crateús",
        "state": "CE",
        "district": "Cidade 2000",
        "street": "Rua José Bezerra de Sousa",
        "zipcode": "63705-310"
    },
    {
        "city": "Crateús",
        "state": "CE",
        "district": "Altamira",
        "street": "Rua João Aragão",
        "zipcode": "63704-195"
    },
    {
        "city": "Crateús",
        "state": "CE",
        "district": "Altamira",
        "street": "Rua José Machado Neto",
        "zipcode": "63704-200"
    },
    {
        "city": "Crateús",
        "state": "CE",
        "district": "José Rosa",
        "street": "Rua João Batista de Melo",
        "zipcode": "63707-585"
    },
    {
        "city": "Crateús",
        "state": "CE",
        "district": "Planalto",
        "street": "Rua José Albano",
        "zipcode": "63702-275"
    },
    {
        "city": "Crateús",
        "state": "CE",
        "district": "José Rosa",
        "street": "Rua João Estevão",
        "zipcode": "63707-445"
    },
    {
        "city": "Crateús",
        "state": "CE",
        "district": "Patriarcas",
        "street": "Rua José Freire Filho",
        "zipcode": "63705-425"
    },
    {
        "city": "Crateús",
        "state": "CE",
        "district": "Santa Luzia",
        "street": "Rua Manoel Balbino",
        "zipcode": "63700-740"
    },
    {
        "city": "Crateús",
        "state": "CE",
        "district": "Cidade 2000",
        "street": "Rua Joaquim Lopes Araújo",
        "zipcode": "63705-050"
    },
    {
        "city": "Crateús",
        "state": "CE",
        "district": "José Rosa",
        "street": "Rua Luis Vieira da Costa",
        "zipcode": "63707-836"
    },
    {
        "city": "Crateús",
        "state": "CE",
        "district": "Venâncios",
        "street": "Rua Leandro Martins",
        "zipcode": "63708-365"
    },
    {
        "city": "Crateús",
        "state": "CE",
        "district": "Planalto",
        "street": "Rua José Martins 1",
        "zipcode": "63702-455"
    },
    {
        "city": "Crateús",
        "state": "CE",
        "district": "Fátima I",
        "street": "Rua João Soares",
        "zipcode": "63703-085"
    },
    {
        "city": "Crateús",
        "state": "CE",
        "district": "Cajás",
        "street": "Rua Laerte de Melo",
        "zipcode": "63707-048"
    },
    {
        "city": "Crateús",
        "state": "CE",
        "district": "Fátima II",
        "street": "Rua Lucas Bezerra de Menezes",
        "zipcode": "63702-150"
    },
    {
        "city": "Crateús",
        "state": "CE",
        "district": "Cidade Nova",
        "street": "Rua José Gomes dos Anjos",
        "zipcode": "63705-806"
    },
    {
        "city": "Crateús",
        "state": "CE",
        "district": "Campo Velho",
        "street": "Rua José Claudino",
        "zipcode": "63701-205"
    },
    {
        "city": "Crateús",
        "state": "CE",
        "district": "Cajás",
        "street": "Rua Lima Campos",
        "zipcode": "63707-008"
    },
    {
        "city": "Crateús",
        "state": "CE",
        "district": "Planalto",
        "street": "Rua José Sidney Martins",
        "zipcode": "63702-460"
    },
    {
        "city": "Crateús",
        "state": "CE",
        "district": "São Vicente",
        "street": "Rua Macilon Bezerra Carvalho",
        "zipcode": "63700-180"
    },
    {
        "city": "Crateús",
        "state": "CE",
        "district": "Altamira",
        "street": "Rua Joaquim Martins",
        "zipcode": "63704-135"
    },
    {
        "city": "Crateús",
        "state": "CE",
        "district": "Santa Luzia",
        "street": "Rua João Moreira",
        "zipcode": "63700-800"
    },
    {
        "city": "Crateús",
        "state": "CE",
        "district": "Patriarcas",
        "street": "Rua José Carlos de Melo",
        "zipcode": "63705-455"
    },
    {
        "city": "Crateús",
        "state": "CE",
        "district": "Altamira",
        "street": "Rua João Soares",
        "zipcode": "63704-105"
    },
    {
        "city": "Crateús",
        "state": "CE",
        "district": "José Rosa",
        "street": "Rua Joaquim Lopes Araújo",
        "zipcode": "63707-515"
    },
    {
        "city": "Crateús",
        "state": "CE",
        "district": "Venâncios",
        "street": "Rua Luis Rodrigues Filho",
        "zipcode": "63708-310"
    },
    {
        "city": "Crateús",
        "state": "CE",
        "district": "Fátima I",
        "street": "Rua Magda Machado Portela",
        "zipcode": "63703-012"
    },
    {
        "city": "Crateús",
        "state": "CE",
        "district": "Cidade Nova",
        "street": "Rua Joelson Silva Barros",
        "zipcode": "63705-774"
    },
    {
        "city": "Crateús",
        "state": "CE",
        "district": "Cidade 2000",
        "street": "Rua José Edvaldo Rodrigues Leitão",
        "zipcode": "63705-280"
    },
    {
        "city": "Crateús",
        "state": "CE",
        "district": "Cidade 2000",
        "street": "Rua José Freire Filho",
        "zipcode": "63705-075"
    },
    {
        "city": "Crateús",
        "state": "CE",
        "district": "José Rosa",
        "street": "Rua José Fernandes",
        "zipcode": "63707-485"
    },
    {
        "city": "Crateús",
        "state": "CE",
        "district": "Venâncios",
        "street": "Rua José Torres",
        "zipcode": "63708-385"
    },
    {
        "city": "Crateús",
        "state": "CE",
        "district": "Fátima II",
        "street": "Rua Manoel Idelfonso",
        "zipcode": "63702-110"
    },
    {
        "city": "Crateús",
        "state": "CE",
        "district": "Fátima II",
        "street": "Rua Judá da Costa Sales",
        "zipcode": "63702-155"
    },
    {
        "city": "Crateús",
        "state": "CE",
        "district": "Planalto",
        "street": "Rua Magda Machado Portela",
        "zipcode": "63702-290"
    },
    {
        "city": "Crateús",
        "state": "CE",
        "district": "Altamira",
        "street": "Rua José Sabóia Livreiro",
        "zipcode": "63704-155"
    },
    {
        "city": "Crateús",
        "state": "CE",
        "district": "Santa Luzia",
        "street": "Rua Maria Soares Benevides",
        "zipcode": "63700-760"
    },
    {
        "city": "Crateús",
        "state": "CE",
        "district": "São Vicente",
        "street": "Rua Manoel Augustinho",
        "zipcode": "63700-300"
    },
    {
        "city": "Crateús",
        "state": "CE",
        "district": "Venâncios",
        "street": "Rua Leônidas Bezerra",
        "zipcode": "63708-370"
    },
    {
        "city": "Crateús",
        "state": "CE",
        "district": "São Vicente",
        "street": "Rua Marechal Hermes",
        "zipcode": "63700-320"
    },
    {
        "city": "Crateús",
        "state": "CE",
        "district": "Venâncios",
        "street": "Rua Leonardo Mota",
        "zipcode": "63708-460"
    },
    {
        "city": "Crateús",
        "state": "CE",
        "district": "Venâncios",
        "street": "Rua Lopes Vieira",
        "zipcode": "63708-305"
    },
    {
        "city": "Crateús",
        "state": "CE",
        "district": "São Vicente",
        "street": "Rua Juvenal Galeno",
        "zipcode": "63700-230"
    },
    {
        "city": "Crateús",
        "state": "CE",
        "district": "Altamira",
        "street": "Rua Manoel Barbosa",
        "zipcode": "63704-280"
    },
    {
        "city": "Crateús",
        "state": "CE",
        "district": "José Rosa",
        "street": "Rua Maria Lúcia Alencar Cavalcante",
        "zipcode": "63707-845"
    },
    {
        "city": "Crateús",
        "state": "CE",
        "district": "Maratoan",
        "street": "Rua Manoel Balbino",
        "zipcode": "63700-600"
    },
    {
        "city": "Crateús",
        "state": "CE",
        "district": "José Rosa",
        "street": "Rua José Pereira Filho",
        "zipcode": "63707-545"
    },
    {
        "city": "Crateús",
        "state": "CE",
        "district": "Planalto",
        "street": "Rua Marcos Alves",
        "zipcode": "63702-315"
    },
    {
        "city": "Crateús",
        "state": "CE",
        "district": "Fátima I",
        "street": "Rua José Sabóia Livreiro",
        "zipcode": "63703-070"
    },
    {
        "city": "Crateús",
        "state": "CE",
        "district": "Planalto",
        "street": "Rua Maria Fagundes dos Santos",
        "zipcode": "63702-570"
    },
    {
        "city": "Crateús",
        "state": "CE",
        "district": "Planalto",
        "street": "Rua Maria Falcão",
        "zipcode": "63702-505"
    },
    {
        "city": "Crateús",
        "state": "CE",
        "district": "Maratoan",
        "street": "Rua Marcelo Dias de Carvalho",
        "zipcode": "63700-585"
    },
    {
        "city": "Crateús",
        "state": "CE",
        "district": "Fátima II",
        "street": "Rua Manoel Balbino",
        "zipcode": "63702-170"
    },
    {
        "city": "Crateús",
        "state": "CE",
        "district": "Ponte Preta",
        "street": "Rua Luiz Gonzaga",
        "zipcode": "63704-525"
    },
    {
        "city": "Crateús",
        "state": "CE",
        "district": "Altamira",
        "street": "Rua José Vieira",
        "zipcode": "63704-250"
    },
    {
        "city": "Crateús",
        "state": "CE",
        "district": "Cidade 2000",
        "street": "Rua Manoel Martins Cavalcante",
        "zipcode": "63705-265"
    },
    {
        "city": "Crateús",
        "state": "CE",
        "district": "Planalto",
        "street": "Rua Leôncio Araújo Veras",
        "zipcode": "63702-340"
    },
    {
        "city": "Crateús",
        "state": "CE",
        "district": "Venâncios",
        "street": "Rua José Regino",
        "zipcode": "63708-325"
    },
    {
        "city": "Crateús",
        "state": "CE",
        "district": "Planalto",
        "street": "Rua Manoel Sousa Lima",
        "zipcode": "63702-385"
    },
    {
        "city": "Crateús",
        "state": "CE",
        "district": "Venâncios",
        "street": "Rua Maria José Menezes",
        "zipcode": "63708-240"
    },
    {
        "city": "Crateús",
        "state": "CE",
        "district": "Venâncios",
        "street": "Rua Manoel Moreira",
        "zipcode": "63708-400"
    },
    {
        "city": "Crateús",
        "state": "CE",
        "district": "Planalto",
        "street": "Rua Josefa Rodrigues Bonfim",
        "zipcode": "63702-580"
    },
    {
        "city": "Crateús",
        "state": "CE",
        "district": "Planalto",
        "street": "Rua Maria Adelaide de Sousa",
        "zipcode": "63702-470"
    },
    {
        "city": "Crateús",
        "state": "CE",
        "district": "Cidade Nova",
        "street": "Rua Luiz Chaves Melo",
        "zipcode": "63705-870"
    },
    {
        "city": "Crateús",
        "state": "CE",
        "district": "Campo Velho",
        "street": "Rua Juliana Soares de Oliveira",
        "zipcode": "63701-180"
    },
    {
        "city": "Crateús",
        "state": "CE",
        "district": "José Rosa",
        "street": "Rua Maria Teixeira Dantas",
        "zipcode": "63707-455"
    },
    {
        "city": "Crateús",
        "state": "CE",
        "district": "Cidade 2000",
        "street": "Rua José Ximenes Aragão",
        "zipcode": "63705-330"
    },
    {
        "city": "Crateús",
        "state": "CE",
        "district": "Cidade 2000",
        "street": "Rua Maria Libânia Mourão",
        "zipcode": "63705-250"
    },
    {
        "city": "Crateús",
        "state": "CE",
        "district": "Patriarcas",
        "street": "Rua Projetada 11",
        "zipcode": "63705-415"
    },
    {
        "city": "Crateús",
        "state": "CE",
        "district": "São Vicente",
        "street": "Rua Maximiano Barreto",
        "zipcode": "63700-220"
    },
    {
        "city": "Crateús",
        "state": "CE",
        "district": "Ipase",
        "street": "Rua Monteiro Lobato",
        "zipcode": "63700-445"
    },
    {
        "city": "Crateús",
        "state": "CE",
        "district": "Santa Luzia",
        "street": "Rua Maria Eunice Soares Sales",
        "zipcode": "63700-750"
    },
    {
        "city": "Crateús",
        "state": "CE",
        "district": "Altamira",
        "street": "Rua Maria Amélia Silveira Aragão",
        "zipcode": "63704-245"
    },
    {
        "city": "Crateús",
        "state": "CE",
        "district": "Cidade 2000",
        "street": "Rua Projetada 06",
        "zipcode": "63705-040"
    },
    {
        "city": "Crateús",
        "state": "CE",
        "district": "Santa Luzia",
        "street": "Rua Maria Arruda Linhares",
        "zipcode": "63700-745"
    },
    {
        "city": "Crateús",
        "state": "CE",
        "district": "José Rosa",
        "street": "Rua Maria Selma Leite Pereira",
        "zipcode": "63707-480"
    },
    {
        "city": "Crateús",
        "state": "CE",
        "district": "Venâncios",
        "street": "Rua Pedro Borges",
        "zipcode": "63708-275"
    },
    {
        "city": "Crateús",
        "state": "CE",
        "district": "José Rosa",
        "street": "Rua Marlene Vieira Chaves Rodrigues",
        "zipcode": "63707-535"
    },
    {
        "city": "Crateús",
        "state": "CE",
        "district": "Nova Terra",
        "street": "Rua Professor Fernando Martins",
        "zipcode": "63702-235"
    },
    {
        "city": "Crateús",
        "state": "CE",
        "district": "Ipase",
        "street": "Rua Professora Nélia Timbó",
        "zipcode": "63700-430"
    },
    {
        "city": "Crateús",
        "state": "CE",
        "district": "Fátima II",
        "street": "Rua Padre Gerard Faber",
        "zipcode": "63702-140"
    },
    {
        "city": "Crateús",
        "state": "CE",
        "district": "Altamira",
        "street": "Rua Padre Cícero",
        "zipcode": "63704-140"
    },
    {
        "city": "Crateús",
        "state": "CE",
        "district": "Maratoan",
        "street": "Rua Maria Cordeiro Sales",
        "zipcode": "63700-555"
    },
    {
        "city": "Crateús",
        "state": "CE",
        "district": "Fátima II",
        "street": "Rua Manoel Rodrigues de Sousa",
        "zipcode": "63702-185"
    },
    {
        "city": "Crateús",
        "state": "CE",
        "district": "Planalto",
        "street": "Rua Maria das Dores da Silva",
        "zipcode": "63702-320"
    },
    {
        "city": "Crateús",
        "state": "CE",
        "district": "José Rosa",
        "street": "Rua Maria Marli Costa",
        "zipcode": "63707-848"
    },
    {
        "city": "Crateús",
        "state": "CE",
        "district": "Cidade Nova",
        "street": "Rua Moacir Bezerra",
        "zipcode": "63705-702"
    },
    {
        "city": "Crateús",
        "state": "CE",
        "district": "Cidade 2000",
        "street": "Rua Menino Jesus",
        "zipcode": "63705-350"
    },
    {
        "city": "Crateús",
        "state": "CE",
        "district": "Venâncios",
        "street": "Rua Mônica Leitão Rosa",
        "zipcode": "63708-390"
    },
    {
        "city": "Crateús",
        "state": "CE",
        "district": "Santa Luzia",
        "street": "Rua Maria Bezerra Resende",
        "zipcode": "63700-770"
    },
    {
        "city": "Crateús",
        "state": "CE",
        "district": "Planalto",
        "street": "Rua Mauro Edson Vieira Barbosa",
        "zipcode": "63702-495"
    },
    {
        "city": "Crateús",
        "state": "CE",
        "district": "Venâncios",
        "street": "Rua Ozanan Bonfim",
        "zipcode": "63708-285"
    },
    {
        "city": "Crateús",
        "state": "CE",
        "district": "Fátima II",
        "street": "Rua Padre Eliezio dos Santos",
        "zipcode": "63702-165"
    },
    {
        "city": "Crateús",
        "state": "CE",
        "district": "Cidade 2000",
        "street": "Rua Pio de Sousa Lima",
        "zipcode": "63705-030"
    },
    {
        "city": "Crateús",
        "state": "CE",
        "district": "Altamira",
        "street": "Rua Nova Alvorada",
        "zipcode": "63704-235"
    },
    {
        "city": "Crateús",
        "state": "CE",
        "district": "Cajás",
        "street": "Rua Menino Jesus",
        "zipcode": "63707-032"
    },
    {
        "city": "Crateús",
        "state": "CE",
        "district": "Planalto",
        "street": "Rua Padre Mororó",
        "zipcode": "63702-325"
    },
    {
        "city": "Crateús",
        "state": "CE",
        "district": "Patriarcas",
        "street": "Rua Pio de Sousa Lima",
        "zipcode": "63705-495"
    },
    {
        "city": "Crateús",
        "state": "CE",
        "district": "Campo Velho",
        "street": "Rua Odésio Gomes de Freitas",
        "zipcode": "63701-225"
    },
    {
        "city": "Crateús",
        "state": "CE",
        "district": "José Rosa",
        "street": "Rua Onildo Soares Evangelista",
        "zipcode": "63707-857"
    },
    {
        "city": "Crateús",
        "state": "CE",
        "district": "Venâncios",
        "street": "Rua Nelson Escóssia de Meneses",
        "zipcode": "63708-335"
    },
    {
        "city": "Crateús",
        "state": "CE",
        "district": "São Vicente",
        "street": "Rua Presidente José Linhares",
        "zipcode": "63700-355"
    },
    {
        "city": "Crateús",
        "state": "CE",
        "district": "Venâncios",
        "street": "Rua Professor Oliveira",
        "zipcode": "63708-375"
    },
    {
        "city": "Crateús",
        "state": "CE",
        "district": "Altamira",
        "street": "Rua Montevidéu",
        "zipcode": "63704-205"
    },
    {
        "city": "Crateús",
        "state": "CE",
        "district": "Nova Terra",
        "street": "Rua Oscar Lopes",
        "zipcode": "63702-220"
    },
    {
        "city": "Crateús",
        "state": "CE",
        "district": "Fátima II",
        "street": "Rua Norberto Ferreira de Sousa",
        "zipcode": "63702-050"
    },
    {
        "city": "Crateús",
        "state": "CE",
        "district": "Planalto",
        "street": "Rua Nelson Martins",
        "zipcode": "63702-335"
    },
    {
        "city": "Crateús",
        "state": "CE",
        "district": "Fátima II",
        "street": "Rua Oscar Lopes",
        "zipcode": "63702-075"
    },
    {
        "city": "Crateús",
        "state": "CE",
        "district": "Venâncios",
        "street": "Rua Mestre Hermínio Batista",
        "zipcode": "63708-395"
    },
    {
        "city": "Crateús",
        "state": "CE",
        "district": "Nova Terra",
        "street": "Rua Padre Mororó",
        "zipcode": "63702-241"
    },
    {
        "city": "Crateús",
        "state": "CE",
        "district": "Venâncios",
        "street": "Rua Nossa Senhora Aparecida",
        "zipcode": "63708-695"
    },
    {
        "city": "Crateús",
        "state": "CE",
        "district": "São Vicente",
        "street": "Rua Professor Aurélio Neto",
        "zipcode": "63700-205"
    },
    {
        "city": "Crateús",
        "state": "CE",
        "district": "José Rosa",
        "street": "Rua Padre Alfredinho",
        "zipcode": "63707-490"
    },
    {
        "city": "Crateús",
        "state": "CE",
        "district": "Ponte Preta",
        "street": "Rua Padre Moacir",
        "zipcode": "63704-520"
    },
    {
        "city": "Crateús",
        "state": "CE",
        "district": "Fátima II",
        "street": "Rua Professor Lisboa Rodrigues",
        "zipcode": "63702-080"
    },
    {
        "city": "Crateús",
        "state": "CE",
        "district": "Cidade 2000",
        "street": "Rua Pastor Antônio Alves",
        "zipcode": "63705-290"
    },
    {
        "city": "Crateús",
        "state": "CE",
        "district": "Cidade 2000",
        "street": "Rua Padre Luiz Dias Rodrigues",
        "zipcode": "63705-320"
    },
    {
        "city": "Crateús",
        "state": "CE",
        "district": "Venâncios",
        "street": "Rua Nelson Vieira dos Santos",
        "zipcode": "63708-315"
    },
    {
        "city": "Crateús",
        "state": "CE",
        "district": "Cidade Nova",
        "street": "Rua Menezes Pimentel",
        "zipcode": "63705-670"
    },
    {
        "city": "Crateús",
        "state": "CE",
        "district": "Planalto",
        "street": "Rua Otávio Neres Barbosa",
        "zipcode": "63702-485"
    },
    {
        "city": "Crateús",
        "state": "CE",
        "district": "São Vicente",
        "street": "Rua Professor Odésio Frota Gomes",
        "zipcode": "63700-175"
    },
    {
        "city": "Crateús",
        "state": "CE",
        "district": "Planalto",
        "street": "Rua Professor Alberto Jorge",
        "zipcode": "63702-490"
    },
    {
        "city": "Crateús",
        "state": "CE",
        "district": "Cidade Nova",
        "street": "Rua Pedro Calixto",
        "zipcode": "63705-782"
    },
    {
        "city": "Crateús",
        "state": "CE",
        "district": "Ipase",
        "street": "Rua Osvaldo Cruz",
        "zipcode": "63700-425"
    },
    {
        "city": "Crateús",
        "state": "CE",
        "district": "Cajás",
        "street": "Rua Projetada 10",
        "zipcode": "63707-024"
    },
    {
        "city": "Crateús",
        "state": "CE",
        "district": "Patriarcas",
        "street": "Rua Menezes Pimentel",
        "zipcode": "63705-450"
    },
    {
        "city": "Crateús",
        "state": "CE",
        "district": "Cidade 2000",
        "street": "Rua Projetada 10",
        "zipcode": "63705-345"
    },
    {
        "city": "Crateús",
        "state": "CE",
        "district": "Venâncios",
        "street": "Rua Onélia Teles Sousa",
        "zipcode": "63708-270"
    },
    {
        "city": "Crateús",
        "state": "CE",
        "district": "São José",
        "street": "Rua Padre Macedo",
        "zipcode": "63704-005"
    },
    {
        "city": "Crateús",
        "state": "CE",
        "district": "Altamira",
        "street": "Rua Padre Ibiapina",
        "zipcode": "63704-145"
    },
    {
        "city": "Crateús",
        "state": "CE",
        "district": "Fátima I",
        "street": "Rua Olavo Balbino",
        "zipcode": "63703-060"
    },
    {
        "city": "Crateús",
        "state": "CE",
        "district": "Altamira",
        "street": "Rua Nova Esperança",
        "zipcode": "63704-290"
    },
    {
        "city": "Crateús",
        "state": "CE",
        "district": "Campo Velho",
        "street": "Rua São Francisco",
        "zipcode": "63701-410"
    },
    {
        "city": "Crateús",
        "state": "CE",
        "district": "Venâncios",
        "street": "Rua Raimunda Flôr do Nascimento",
        "zipcode": "63708-340"
    },
    {
        "city": "Crateús",
        "state": "CE",
        "district": "Cidade Nova",
        "street": "Rua Raimundo Bezerra",
        "zipcode": "63705-718"
    },
    {
        "city": "Crateús",
        "state": "CE",
        "district": "São Vicente",
        "street": "Rua Siqueira Campos",
        "zipcode": "63700-185"
    },
    {
        "city": "Crateús",
        "state": "CE",
        "district": "São Vicente",
        "street": "Rua Sérgio Feitosa do Vale",
        "zipcode": "63700-270"
    },
    {
        "city": "Crateús",
        "state": "CE",
        "district": "Fátima I",
        "street": "Rua Vereador José Veras",
        "zipcode": "63703-105"
    },
    {
        "city": "Crateús",
        "state": "CE",
        "district": "Venâncios",
        "street": "Rua Zé Artur",
        "zipcode": "63708-455"
    },
    {
        "city": "Crateús",
        "state": "CE",
        "district": "Venâncios",
        "street": "Rua Técio Rodrigues",
        "zipcode": "63708-715"
    },
    {
        "city": "Crateús",
        "state": "CE",
        "district": "Fátima I",
        "street": "Rua Raimunda Bandeira Teixeira",
        "zipcode": "63703-115"
    },
    {
        "city": "Crateús",
        "state": "CE",
        "district": "Cidade Nova",
        "street": "Rua Saturnino Silveira",
        "zipcode": "63705-758"
    },
    {
        "city": "Crateús",
        "state": "CE",
        "district": "Fátima I",
        "street": "Rua Tabelião Francisco Antero",
        "zipcode": "63702-880"
    },
    {
        "city": "Crateús",
        "state": "CE",
        "district": "Cidade Nova",
        "street": "Rua Valdemir Rosa",
        "zipcode": "63705-822"
    },
    {
        "city": "Crateús",
        "state": "CE",
        "district": "São José",
        "street": "Rua Raimundo Rodrigues",
        "zipcode": "63704-055"
    },
    {
        "city": "Crateús",
        "state": "CE",
        "district": "Planalto",
        "street": "Rua Renato Braga",
        "zipcode": "63702-270"
    },
    {
        "city": "Crateús",
        "state": "CE",
        "district": "Venâncios",
        "street": "Rua Raimundo Pereira Lima",
        "zipcode": "63708-350"
    },
    {
        "city": "Crateús",
        "state": "CE",
        "district": "Maratoan",
        "street": "Rua Sebastião Ferreira da Costa",
        "zipcode": "63700-520"
    },
    {
        "city": "Crateús",
        "state": "CE",
        "district": "Cidade 2000",
        "street": "Rua Socorro Melo",
        "zipcode": "63705-270"
    },
    {
        "city": "Crateús",
        "state": "CE",
        "district": "Fátima I",
        "street": "Rua Vicente Facundo Barros",
        "zipcode": "63703-045"
    },
    {
        "city": "Crateús",
        "state": "CE",
        "district": "Ponte Preta",
        "street": "Rua São José",
        "zipcode": "63704-540"
    },
    {
        "city": "Crateús",
        "state": "CE",
        "district": "Fátima II",
        "street": "Rua Ubaldino Souto Maior",
        "zipcode": "63702-105"
    },
    {
        "city": "Crateús",
        "state": "CE",
        "district": "Patriarcas",
        "street": "Rua Severino Soares Dias",
        "zipcode": "63705-480"
    },
    {
        "city": "Crateús",
        "state": "CE",
        "district": "Ipase",
        "street": "Rua Siqueira Campos",
        "zipcode": "63700-415"
    },
    {
        "city": "Crateús",
        "state": "CE",
        "district": "Planalto",
        "street": "Rua Zacarias Vieira Rosa",
        "zipcode": "63702-445"
    },
    {
        "city": "Crateús",
        "state": "CE",
        "district": "Venâncios",
        "street": "Rua 10 (Lot Cidade Universitária Leste)",
        "zipcode": "63708-816"
    },
    {
        "city": "Crateús",
        "state": "CE",
        "district": "Cidade 2000",
        "street": "Rua Projetada 77",
        "zipcode": "63705-065"
    },
    {
        "city": "Crateús",
        "state": "CE",
        "district": "Cidade 2000",
        "street": "Rua Rosalina Sabino Monteiro",
        "zipcode": "63705-335"
    },
    {
        "city": "Crateús",
        "state": "CE",
        "district": "Cidade Nova",
        "street": "Rua Zuca Morais",
        "zipcode": "63706-048"
    },
    {
        "city": "Crateús",
        "state": "CE",
        "district": "Fátima II",
        "street": "Rua Tabelião Francisco Antero",
        "zipcode": "63702-005"
    },
    {
        "city": "Crateús",
        "state": "CE",
        "district": "Altamira",
        "street": "Rua Vicença de Araújo Veras",
        "zipcode": "63704-115"
    },
    {
        "city": "Crateús",
        "state": "CE",
        "district": "São Vicente",
        "street": "Rua Sargento Milton",
        "zipcode": "63700-370"
    },
    {
        "city": "Crateús",
        "state": "CE",
        "district": "Venâncios",
        "street": "Rua SDO 88",
        "zipcode": "63708-475"
    },
    {
        "city": "Crateús",
        "state": "CE",
        "district": "José Rosa",
        "street": "Rua Samuel Lins Cavalcante",
        "zipcode": "63707-425"
    },
    {
        "city": "Crateús",
        "state": "CE",
        "district": "Cidade Nova",
        "street": "Rua Projetada 79",
        "zipcode": "63706-000"
    },
    {
        "city": "Crateús",
        "state": "CE",
        "district": "São Vicente",
        "street": "Rua Raimundo Barbeiro",
        "zipcode": "63700-360"
    },
    {
        "city": "Crateús",
        "state": "CE",
        "district": "São Vicente",
        "street": "Rua Zacarias Carlos de Melo",
        "zipcode": "63700-190"
    },
    {
        "city": "Crateús",
        "state": "CE",
        "district": "Altamira",
        "street": "Rua Projetada 63 (Lot Altamira)",
        "zipcode": "63704-220"
    },
    {
        "city": "Crateús",
        "state": "CE",
        "district": "Planalto",
        "street": "Rua SDO 114 (Lot Planalto Principe Imperial)",
        "zipcode": "63702-355"
    },
    {
        "city": "Crateús",
        "state": "CE",
        "district": "Cajás",
        "street": "Rua Vicente Carepina",
        "zipcode": "63707-072"
    },
    {
        "city": "Crateús",
        "state": "CE",
        "district": "Cidade 2000",
        "street": "Rua Sebastiana Soares de Oliveira",
        "zipcode": "63705-325"
    },
    {
        "city": "Crateús",
        "state": "CE",
        "district": "Venâncios",
        "street": "Rua 1 (Lot Cidade Universitária Leste)",
        "zipcode": "63708-726"
    },
    {
        "city": "Crateús",
        "state": "CE",
        "district": "Fátima I",
        "street": "Rua Renato Braga",
        "zipcode": "63702-895"
    },
    {
        "city": "Crateús",
        "state": "CE",
        "district": "São Vicente",
        "street": "Rua Ubaldino Souto Maior",
        "zipcode": "63700-200"
    },
    {
        "city": "Crateús",
        "state": "CE",
        "district": "Fátima II",
        "street": "Rua Zeca Araújo",
        "zipcode": "63702-020"
    },
    {
        "city": "Crateús",
        "state": "CE",
        "district": "São Vicente",
        "street": "Rua Senhor do Bonfim",
        "zipcode": "63700-345"
    },
    {
        "city": "Crateús",
        "state": "CE",
        "district": "Planalto",
        "street": "Rua Radialista Rodrigues Vale",
        "zipcode": "63702-480"
    },
    {
        "city": "Crateús",
        "state": "CE",
        "district": "Cidade Nova",
        "street": "Rua Vinte e Um de Abril",
        "zipcode": "63705-678"
    },
    {
        "city": "Crateús",
        "state": "CE",
        "district": "Planalto",
        "street": "Rua Zacarias Costa dos Santos",
        "zipcode": "63702-540"
    },
    {
        "city": "Crateús",
        "state": "CE",
        "district": "Fátima II",
        "street": "Rua Renato Braga",
        "zipcode": "63702-085"
    },
    {
        "city": "Crateús",
        "state": "CE",
        "district": "Altamira",
        "street": "Rua Projetada 53",
        "zipcode": "63704-225"
    },
    {
        "city": "Crateús",
        "state": "CE",
        "district": "Planalto",
        "street": "Rua Rizalva Vieira de Oliveira",
        "zipcode": "63702-530"
    },
    {
        "city": "Crateús",
        "state": "CE",
        "district": "Venâncios",
        "street": "Rua Projetada 32",
        "zipcode": "63708-405"
    },
    {
        "city": "Crateús",
        "state": "CE",
        "district": "Altamira",
        "street": "Rua Projetada 32",
        "zipcode": "63704-230"
    },
    {
        "city": "Crateús",
        "state": "CE",
        "district": "Fátima I",
        "street": "Rua Sônia Maria Albuquerque",
        "zipcode": "63703-130"
    },
    {
        "city": "Crateús",
        "state": "CE",
        "district": "Cajás",
        "street": "Travessa Lima Campos",
        "zipcode": "63707-016"
    },
    {
        "city": "Crateús",
        "state": "CE",
        "district": "Maratoan",
        "street": "Travessa Humberto de Campos",
        "zipcode": "63700-575"
    },
    {
        "city": "Crateús",
        "state": "CE",
        "district": "Venâncios",
        "street": "Rua 5 (Lot Cidade Universitária Leste)",
        "zipcode": "63708-750"
    },
    {
        "city": "Crateús",
        "state": "CE",
        "district": "Cidade Nova",
        "street": "Travessa Miguel Cardoso",
        "zipcode": "63706-016"
    },
    {
        "city": "Crateús",
        "state": "CE",
        "district": "José Rosa",
        "street": "Travessa Daniel Bezerra Bonfim",
        "zipcode": "63707-824"
    },
    {
        "city": "Crateús",
        "state": "CE",
        "district": "Altamira",
        "street": "Travessa Nova Alvorada",
        "zipcode": "63704-300"
    },
    {
        "city": "Crateús",
        "state": "CE",
        "district": "São Vicente",
        "street": "Travessa Antônio Catunda",
        "zipcode": "63700-335"
    },
    {
        "city": "Crateús",
        "state": "CE",
        "district": "Fátima I",
        "street": "Rua 13 de Maio",
        "zipcode": "63703-005"
    },
    {
        "city": "Crateús",
        "state": "CE",
        "district": "Fátima I",
        "street": "Rua Zé Zacarias",
        "zipcode": "63703-055"
    },
    {
        "city": "Crateús",
        "state": "CE",
        "district": "Ponte Preta",
        "street": "Travessa Luiz Gonzaga",
        "zipcode": "63704-530"
    },
    {
        "city": "Crateús",
        "state": "CE",
        "district": "Planalto",
        "street": "Rua Zequinha Leitão",
        "zipcode": "63702-565"
    },
    {
        "city": "Crateús",
        "state": "CE",
        "district": "Cajás",
        "street": "Travessa Quintino Cunha",
        "zipcode": "63707-080"
    },
    {
        "city": "Crateús",
        "state": "CE",
        "district": "Cidade 2000",
        "street": "Travessa Doutor José Maria Leitão",
        "zipcode": "63705-080"
    },
    {
        "city": "Crateús",
        "state": "CE",
        "district": "Altamira",
        "street": "Travessa Nova Esperança",
        "zipcode": "63704-295"
    },
    {
        "city": "Crateús",
        "state": "CE",
        "district": "Cidade Nova",
        "street": "Travessa Betrônio Frota",
        "zipcode": "63706-008"
    },
    {
        "city": "Crateús",
        "state": "CE",
        "district": "Altamira",
        "street": "Rua 5 (Lot Altamira)",
        "zipcode": "63704-275"
    },
    {
        "city": "Crateús",
        "state": "CE",
        "district": "José Rosa",
        "street": "Via Local 05 (Lot Cidade Universitária)",
        "zipcode": "63708-000"
    },
    {
        "city": "Crateús",
        "state": "CE",
        "district": "Venâncios",
        "street": "Rua 7 (Lot Cidade Universitária Leste)",
        "zipcode": "63708-762"
    },
    {
        "city": "Crateús",
        "state": "CE",
        "district": "Cidade Nova",
        "street": "Travessa Cazuza Ferreira",
        "zipcode": "63705-750"
    },
    {
        "city": "Crateús",
        "state": "CE",
        "district": "Cidade Nova",
        "street": "Travessa Betrônio Frota I",
        "zipcode": "63706-032"
    },
    {
        "city": "Crateús",
        "state": "CE",
        "district": "José Rosa",
        "street": "Via Local 04 (Lot Cidade Universitária)",
        "zipcode": "63708-003"
    },
    {
        "city": "Crateús",
        "state": "CE",
        "district": "José Rosa",
        "street": "Unidade M (Lot Cidade Universitária)",
        "zipcode": "63707-812"
    },
    {
        "city": "Crateús",
        "state": "CE",
        "district": "Cidade Nova",
        "street": "Travessa Zuca Morais",
        "zipcode": "63706-040"
    },
    {
        "city": "Crateús",
        "state": "CE",
        "district": "Venâncios",
        "street": "Rua 9 (Lot Cidade Universitária Leste)",
        "zipcode": "63708-813"
    },
    {
        "city": "Crateús",
        "state": "CE",
        "district": "José Rosa",
        "street": "Via Local 13 (Lot Cidade Universitária)",
        "zipcode": "63707-893"
    },
    {
        "city": "Crateús",
        "state": "CE",
        "district": "Campo Velho",
        "street": "Rua 19 de Março",
        "zipcode": "63701-185"
    },
    {
        "city": "Crateús",
        "state": "CE",
        "district": "Venâncios",
        "street": "Travessa 1 (Lot Cidade Universitária Leste)",
        "zipcode": "63708-738"
    },
    {
        "city": "Crateús",
        "state": "CE",
        "district": "Altamira",
        "street": "Travessa José Vieira",
        "zipcode": "63704-260"
    },
    {
        "city": "Crateús",
        "state": "CE",
        "district": "José Rosa",
        "street": "Via Local 09 (Lot Cidade Universitária)",
        "zipcode": "63707-884"
    },
    {
        "city": "Crateús",
        "state": "CE",
        "district": "Cajás",
        "street": "Travessa Cabo Gentil Lima",
        "zipcode": "63707-056"
    },
    {
        "city": "Crateús",
        "state": "CE",
        "district": "Patriarcas",
        "street": "Travessa José Carlos de Melo",
        "zipcode": "63705-460"
    },
    {
        "city": "Crateús",
        "state": "CE",
        "district": "Planalto",
        "street": "Rua 8 (Lot Morada dos Ventos II)",
        "zipcode": "63702-430"
    },
    {
        "city": "Crateús",
        "state": "CE",
        "district": "Fátima I",
        "street": "Travessa Gentil Barreira",
        "zipcode": "63702-870"
    },
    {
        "city": "Crateús",
        "state": "CE",
        "district": "Patriarcas",
        "street": "Rua 6 de Julho",
        "zipcode": "63705-485"
    },
    {
        "city": "Crateús",
        "state": "CE",
        "district": "Venâncios",
        "street": "Rua 4 (Lot Cidade Universitária Leste)",
        "zipcode": "63708-753"
    },
    {
        "city": "Crateús",
        "state": "CE",
        "district": "Cidade Nova",
        "street": "Travessa Tenente Hermógenes",
        "zipcode": "63706-024"
    },
    {
        "city": "Crateús",
        "state": "CE",
        "district": "Planalto",
        "street": "Rua 2 (Lot Morada dos Ventos II)",
        "zipcode": "63702-405"
    },
    {
        "city": "Crateús",
        "state": "CE",
        "district": "Planalto",
        "street": "Travessa José Pedro",
        "zipcode": "63702-370"
    },
    {
        "city": "Crateús",
        "state": "CE",
        "district": "Fátima I",
        "street": "Travessa Afonso Chaves",
        "zipcode": "63703-065"
    },
    {
        "city": "Crateús",
        "state": "CE",
        "district": "Venâncios",
        "street": "Rua 15 (Lot Cidade Universitária Leste)",
        "zipcode": "63708-744"
    },
    {
        "city": "Crateús",
        "state": "CE",
        "district": "Fátima I",
        "street": "Travessa 13 de Maio",
        "zipcode": "63703-010"
    },
    {
        "city": "Crateús",
        "state": "CE",
        "district": "Venâncios",
        "street": "Rua 8 (Lot Cidade Universitária Leste)",
        "zipcode": "63708-810"
    },
    {
        "city": "Crateús",
        "state": "CE",
        "district": "Planalto",
        "street": "Rua 6 (Lot Morada dos Ventos II)",
        "zipcode": "63702-395"
    },
    {
        "city": "Crateús",
        "state": "CE",
        "district": "José Rosa",
        "street": "Via Local 01 (Lot Cidade Universitária)",
        "zipcode": "63708-006"
    },
    {
        "city": "Crateús",
        "state": "CE",
        "district": "Fátima II",
        "street": "Travessa Norberto Ferreira de Sousa",
        "zipcode": "63702-055"
    },
    {
        "city": "Crateús",
        "state": "CE",
        "district": "Cidade 2000",
        "street": "Travessa Joaquim Izídio Braz",
        "zipcode": "63705-060"
    },
    {
        "city": "Crateús",
        "state": "CE",
        "district": "José Rosa",
        "street": "Via Local 08 (Lot Cidade Universitária)",
        "zipcode": "63707-887"
    },
    {
        "city": "Crateús",
        "state": "CE",
        "district": "Fátima II",
        "street": "Travessa Renato Braga",
        "zipcode": "63702-070"
    },
    {
        "city": "Crateús",
        "state": "CE",
        "district": "Venâncios",
        "street": "Rua 3 (Lot Cidade Universitária Leste)",
        "zipcode": "63708-747"
    },
    {
        "city": "Crateús",
        "state": "CE",
        "district": "Venâncios",
        "street": "Rua 16 (Lot Cidade Universitária Leste)",
        "zipcode": "63708-741"
    },
    {
        "city": "Crateús",
        "state": "CE",
        "district": "Fátima II",
        "street": "Travessa Professor Lisboa",
        "zipcode": "63702-125"
    },
    {
        "city": "Crateús",
        "state": "CE",
        "district": "Venâncios",
        "street": "Rua 2 (Lot Cidade Universitária Leste)",
        "zipcode": "63708-735"
    },
    {
        "city": "Crateús",
        "state": "CE",
        "district": "José Rosa",
        "street": "Via Local 10 (Lot Cidade Universitária)",
        "zipcode": "63707-881"
    },
    {
        "city": "Crateús",
        "state": "CE",
        "district": "Santa Luzia",
        "street": "Vila Padre Cícero",
        "zipcode": "63700-805"
    },
    {
        "city": "Crateús",
        "state": "CE",
        "district": "José Rosa",
        "street": "Via Local 11 (Lot Cidade Universitária)",
        "zipcode": "63707-878"
    },
    {
        "city": "Crateús",
        "state": "CE",
        "district": "Cidade Nova",
        "street": "Vila do Povo",
        "zipcode": "63705-710"
    },
    {
        "city": "Crateús",
        "state": "CE",
        "district": "Centro",
        "street": "Praça João Melo Cavalcante",
        "zipcode": "63700-970"
    },
    {
        "city": "Crateús",
        "state": "CE",
        "district": "Venâncios",
        "street": "Avenida Benony Mourão Filho",
        "zipcode": "63708-220"
    },
    {
        "city": "Crateús",
        "state": "CE",
        "district": "Centro",
        "street": "Rua Dom Pedro II",
        "zipcode": "63700-139"
    },
    {
        "city": "Crateús",
        "state": "CE",
        "district": "Centro",
        "street": "Rua Carlos Rolim",
        "zipcode": "63700-046"
    },
    {
        "city": "Crateús",
        "state": "CE",
        "district": "Centro",
        "street": "Rua Francisco Coelho",
        "zipcode": "63700-097"
    },
    {
        "city": "Crateús",
        "state": "CE",
        "district": "José Rosa",
        "street": "Avenida Maria Helena Melo Cavalcante",
        "zipcode": "63707-833"
    },
    {
        "city": "Crateús",
        "state": "CE",
        "district": "Centro",
        "street": "Rua Coronel Lúcio",
        "zipcode": "63700-061"
    },
    {
        "city": "Crateús",
        "state": "CE",
        "district": "Centro",
        "street": "Rua Instituto Santa Inês",
        "zipcode": "63700-076"
    },
    {
        "city": "Crateús",
        "state": "CE",
        "district": "Centro",
        "street": "Rua 13 de Maio",
        "zipcode": "63700-106"
    },
    {
        "city": "Crateús",
        "state": "CE",
        "district": "Santa Luzia",
        "street": "Rua Projetada 158",
        "zipcode": "63700-780"
    },
    {
        "city": "Crateús",
        "state": "CE",
        "district": "Fátima I",
        "street": "Rua Coronel Totó",
        "zipcode": "63702-840"
    },
    {
        "city": "Crateús",
        "state": "CE",
        "district": "Centro",
        "street": "Rua Principal s/n  AGC Curral do Meio",
        "zipcode": "63700-977"
    },
    {
        "city": "Crateús",
        "state": "CE",
        "district": "Centro",
        "street": "Rua Doutor Moreira da Rocha",
        "zipcode": "63700-085"
    },
    {
        "city": "Crateús",
        "state": "CE",
        "district": "São José",
        "street": "Rua Coronel Antônio de Melo",
        "zipcode": "63704-060"
    },
    {
        "city": "Crateús",
        "state": "CE",
        "district": "Centro",
        "street": "Rua Cônego Rosa",
        "zipcode": "63700-013"
    },
    {
        "city": "Crateús",
        "state": "CE",
        "district": "Nova Terra",
        "street": "Avenida Edilberto Frota",
        "zipcode": "63702-244"
    },
    {
        "city": "Crateús",
        "state": "CE",
        "district": "Centro",
        "street": "Praça João Melo Cavalcante",
        "zipcode": "63700-058"
    },
    {
        "city": "Crateús",
        "state": "CE",
        "district": "Planalto",
        "street": "Rua Antônio Alberto Andrade Leite",
        "zipcode": "63702-525"
    },
    {
        "city": "Crateús",
        "state": "CE",
        "district": "Fátima II",
        "street": "Rua Carlos Alberto Batista",
        "zipcode": "63702-060"
    },
    {
        "city": "Crateús",
        "state": "CE",
        "district": "Altamira",
        "street": "Rua A (Lot Altamira)",
        "zipcode": "63704-215"
    },
    {
        "city": "Crateús",
        "state": "CE",
        "district": "Maratoan",
        "street": "Rua Gustavo Barroso",
        "zipcode": "63700-510"
    },
    {
        "city": "Crateús",
        "state": "CE",
        "district": "Fátima I",
        "street": "Rua Adriano Soares Barbosa",
        "zipcode": "63703-095"
    },
    {
        "city": "Crateús",
        "state": "CE",
        "district": "Cidade 2000",
        "street": "Rua Joaquim Izidio Braz",
        "zipcode": "63705-055"
    },
    {
        "city": "Crateús",
        "state": "CE",
        "district": "Venâncios",
        "street": "Rua Eduardo Albuquerque",
        "zipcode": "63708-330"
    },
    {
        "city": "Crateús",
        "state": "CE",
        "district": "Venâncios",
        "street": "Rua Eva de Oliveira",
        "zipcode": "63708-425"
    },
    {
        "city": "Crateús",
        "state": "CE",
        "district": "Maratoan",
        "street": "Rua Francisco Torres Martins",
        "zipcode": "63700-560"
    },
    {
        "city": "Crateús",
        "state": "CE",
        "district": "Patriarcas",
        "street": "Rua Haneman Almeida Magalhães",
        "zipcode": "63705-420"
    },
    {
        "city": "Crateús",
        "state": "CE",
        "district": "Planalto",
        "street": "Rua Emídio Paula da Silva",
        "zipcode": "63702-305"
    },
    {
        "city": "Crateús",
        "state": "CE",
        "district": "Venâncios",
        "street": "Rua Francisco Aguiar",
        "zipcode": "63708-710"
    },
    {
        "city": "Crateús",
        "state": "CE",
        "district": "Patriarcas",
        "street": "Rua Gonçalo de Melo Soares",
        "zipcode": "63705-475"
    },
    {
        "city": "Crateús",
        "state": "CE",
        "district": "Planalto",
        "street": "Rua Francisco Cleyton Cardoso Martins",
        "zipcode": "63702-575"
    },
    {
        "city": "Crateús",
        "state": "CE",
        "district": "José Rosa",
        "street": "Rua João Estevão Sobrinho",
        "zipcode": "63707-470"
    },
    {
        "city": "Crateús",
        "state": "CE",
        "district": "Campo Velho",
        "street": "Rua Doutor Hermínio Bezerra",
        "zipcode": "63701-195"
    },
    {
        "city": "Crateús",
        "state": "CE",
        "district": "Venâncios",
        "street": "Avenida Sargento Hermínio",
        "zipcode": "63708-445"
    },
    {
        "city": "Crateús",
        "state": "CE",
        "district": "Planalto",
        "street": "Rua Francisco Rodrigues da Silva",
        "zipcode": "63702-360"
    },
    {
        "city": "Crateús",
        "state": "CE",
        "district": "São Vicente",
        "street": "Rua Demontier",
        "zipcode": "63700-210"
    },
    {
        "city": "Crateús",
        "state": "CE",
        "district": "Altamira",
        "street": "Rua Antônio José Filho",
        "zipcode": "63704-265"
    },
    {
        "city": "Crateús",
        "state": "CE",
        "district": "Fátima II",
        "street": "Rua Doutor Júlio Lima",
        "zipcode": "63702-040"
    },
    {
        "city": "Crateús",
        "state": "CE",
        "district": "São José",
        "street": "Rua Firmino Rosa",
        "zipcode": "63704-010"
    },
    {
        "city": "Crateús",
        "state": "CE",
        "district": "Maratoan",
        "street": "Rua Humberto de Campos",
        "zipcode": "63700-540"
    },
    {
        "city": "Crateús",
        "state": "CE",
        "district": "Patriarcas",
        "street": "Rua Gentil Falcão",
        "zipcode": "63705-465"
    },
    {
        "city": "Crateús",
        "state": "CE",
        "district": "Cidade Nova",
        "street": "Rua Clóvis Catunda",
        "zipcode": "63705-830"
    },
    {
        "city": "Crateús",
        "state": "CE",
        "district": "Fátima II",
        "street": "Rua José Albano",
        "zipcode": "63702-145"
    },
    {
        "city": "Crateús",
        "state": "CE",
        "district": "Planalto",
        "street": "Rua João Ribeiro Lima",
        "zipcode": "63702-295"
    },
    {
        "city": "Crateús",
        "state": "CE",
        "district": "Planalto",
        "street": "Rua Enéas Vieira do Nascimento",
        "zipcode": "63702-545"
    },
    {
        "city": "Crateús",
        "state": "CE",
        "district": "Fátima II",
        "street": "Rua Doutor Moura Fé",
        "zipcode": "63702-035"
    },
    {
        "city": "Crateús",
        "state": "CE",
        "district": "Altamira",
        "street": "Rua José Benony Mourão",
        "zipcode": "63704-185"
    },
    {
        "city": "Crateús",
        "state": "CE",
        "district": "Planalto",
        "street": "Rua Doutor João Tomé",
        "zipcode": "63702-265"
    },
    {
        "city": "Crateús",
        "state": "CE",
        "district": "Fátima I",
        "street": "Rua D (Lot Planalto Principe Imperial)",
        "zipcode": "63703-040"
    },
    {
        "city": "Crateús",
        "state": "CE",
        "district": "Venâncios",
        "street": "Avenida Sargento Hermínio",
        "zipcode": "63708-440"
    },
    {
        "city": "Crateús",
        "state": "CE",
        "district": "Fátima II",
        "street": "Rua Izauro Machado Portela",
        "zipcode": "63702-065"
    },
    {
        "city": "Crateús",
        "state": "CE",
        "district": "Maratoan",
        "street": "Rua André Moreira",
        "zipcode": "63700-500"
    },
    {
        "city": "Crateús",
        "state": "CE",
        "district": "Campo Velho",
        "street": "Rua José Cavalcante Melo",
        "zipcode": "63701-190"
    },
    {
        "city": "Crateús",
        "state": "CE",
        "district": "Fátima I",
        "street": "Rua Chaves Martins",
        "zipcode": "63703-100"
    },
    {
        "city": "Crateús",
        "state": "CE",
        "district": "Fátima II",
        "street": "Rua Antônio Soares de Oliveira",
        "zipcode": "63702-130"
    },
    {
        "city": "Crateús",
        "state": "CE",
        "district": "Ipase",
        "street": "Rua Francisco Elício de Araújo",
        "zipcode": "63700-405"
    },
    {
        "city": "Crateús",
        "state": "CE",
        "district": "Planalto",
        "street": "Rua Francisco Bonfim",
        "zipcode": "63702-500"
    },
    {
        "city": "Crateús",
        "state": "CE",
        "district": "Patriarcas",
        "street": "Rua João Lins Cavalcante",
        "zipcode": "63705-445"
    },
    {
        "city": "Crateús",
        "state": "CE",
        "district": "José Rosa",
        "street": "Rua Agostinho Beloneto",
        "zipcode": "63707-580"
    },
    {
        "city": "Crateús",
        "state": "CE",
        "district": "Fátima II",
        "street": "Rua Diderot Catunda Melo",
        "zipcode": "63702-135"
    },
    {
        "city": "Crateús",
        "state": "CE",
        "district": "Ipase",
        "street": "Rua Capistrano de Abreu",
        "zipcode": "63700-450"
    },
    {
        "city": "Crateús",
        "state": "CE",
        "district": "Altamira",
        "street": "Rua Barão do Rio Branco",
        "zipcode": "63704-120"
    },
    {
        "city": "Crateús",
        "state": "CE",
        "district": "Cidade Nova",
        "street": "Rua Betrônio Frota",
        "zipcode": "63705-886"
    },
    {
        "city": "Crateús",
        "state": "CE",
        "district": "Fátima I",
        "street": "Rua Francisco Mariano",
        "zipcode": "63702-850"
    },
    {
        "city": "Crateús",
        "state": "CE",
        "district": "São Vicente",
        "street": "Rua Gustavo Barroso",
        "zipcode": "63700-235"
    },
    {
        "city": "Crateús",
        "state": "CE",
        "district": "Campo Velho",
        "street": "Rua Dom Pedro II",
        "zipcode": "63701-200"
    },
    {
        "city": "Crateús",
        "state": "CE",
        "district": "São José",
        "street": "Rua Frei Vidal da Penha",
        "zipcode": "63704-015"
    },
    {
        "city": "Crateús",
        "state": "CE",
        "district": "Maratoan",
        "street": "Rua Antônio Paulino dos Santos",
        "zipcode": "63700-550"
    },
    {
        "city": "Crateús",
        "state": "CE",
        "district": "Fátima II",
        "street": "Rua João Amaro Bezerra",
        "zipcode": "63702-010"
    },
    {
        "city": "Crateús",
        "state": "CE",
        "district": "Fátima II",
        "street": "Rua Bonfim Quitéria de Lima",
        "zipcode": "63702-195"
    },
    {
        "city": "Crateús",
        "state": "CE",
        "district": "Planalto",
        "street": "Rua 7 (Lot Morada dos Ventos II)",
        "zipcode": "63702-435"
    },
    {
        "city": "Crateús",
        "state": "CE",
        "district": "Fátima I",
        "street": "Rua Projetada 18",
        "zipcode": "63703-135"
    },
    {
        "city": "Crateús",
        "state": "CE",
        "district": "Santa Luzia",
        "street": "Rua Tobias Soares Resende",
        "zipcode": "63700-755"
    },
    {
        "city": "Crateús",
        "state": "CE",
        "district": "São José",
        "street": "Rua Poty",
        "zipcode": "63704-000"
    },
    {
        "city": "Crateús",
        "state": "CE",
        "district": "Fátima II",
        "street": "Rua Zacarias Carlos de Melo",
        "zipcode": "63702-100"
    },
    {
        "city": "Crateús",
        "state": "CE",
        "district": "José Rosa",
        "street": "Rua José Francisco Carneiro",
        "zipcode": "63707-851"
    },
    {
        "city": "Crateús",
        "state": "CE",
        "district": "Santa Luzia",
        "street": "Rua Maria Alves Moreira Oliveira",
        "zipcode": "63700-795"
    },
    {
        "city": "Crateús",
        "state": "CE",
        "district": "Cidade 2000",
        "street": "Rua Manoel Vieira de Sousa",
        "zipcode": "63705-295"
    },
    {
        "city": "Crateús",
        "state": "CE",
        "district": "São Vicente",
        "street": "Rua Senhor do Bonfim",
        "zipcode": "63700-305"
    },
    {
        "city": "Crateús",
        "state": "CE",
        "district": "São Vicente",
        "street": "Rua Professor Lisboa Rodrigues",
        "zipcode": "63700-165"
    },
    {
        "city": "Crateús",
        "state": "CE",
        "district": "Altamira",
        "street": "Rua Maria Moura",
        "zipcode": "63704-270"
    },
    {
        "city": "Crateús",
        "state": "CE",
        "district": "Fátima II",
        "street": "Rua Maximiano Barreto",
        "zipcode": "63702-115"
    },
    {
        "city": "Crateús",
        "state": "CE",
        "district": "São José",
        "street": "Rua Padre José Juvêncio de Andrade",
        "zipcode": "63704-050"
    },
    {
        "city": "Crateús",
        "state": "CE",
        "district": "São José",
        "street": "Travessa Carlos Rolim",
        "zipcode": "63704-045"
    },
    {
        "city": "Crateús",
        "state": "CE",
        "district": "José Rosa",
        "street": "Rua José Mendes da Rocha",
        "zipcode": "63707-860"
    },
    {
        "city": "Crateús",
        "state": "CE",
        "district": "José Rosa",
        "street": "Rua Maria Carmelita da Conceição",
        "zipcode": "63707-827"
    },
    {
        "city": "Crateús",
        "state": "CE",
        "district": "Maratoan",
        "street": "Rua Sebastiana Rodrigues Soares",
        "zipcode": "63700-565"
    },
    {
        "city": "Crateús",
        "state": "CE",
        "district": "José Rosa",
        "street": "Rua Luiz Lopes Veras",
        "zipcode": "63707-510"
    },
    {
        "city": "Crateús",
        "state": "CE",
        "district": "José Rosa",
        "street": "Rua Olimpio Lopes Bonfim",
        "zipcode": "63707-555"
    },
    {
        "city": "Crateús",
        "state": "CE",
        "district": "Cidade Nova",
        "street": "Travessa José de Alencar",
        "zipcode": "63705-734"
    },
    {
        "city": "Crateús",
        "state": "CE",
        "district": "Altamira",
        "street": "Rua Padre Antônio Tomáz",
        "zipcode": "63704-130"
    },
    {
        "city": "Crateús",
        "state": "CE",
        "district": "José Rosa",
        "street": "Rua Marneide Carneiro Machado",
        "zipcode": "63707-803"
    },
    {
        "city": "Crateús",
        "state": "CE",
        "district": "Campo Velho",
        "street": "Rua Manoel Balbino",
        "zipcode": "63701-170"
    },
    {
        "city": "Crateús",
        "state": "CE",
        "district": "Venâncios",
        "street": "Rua Nivaldo Soares de Pinho",
        "zipcode": "63708-225"
    },
    {
        "city": "Crateús",
        "state": "CE",
        "district": "Planalto",
        "street": "Rua Meton Carvalho de Macedo",
        "zipcode": "63702-390"
    },
    {
        "city": "Crateús",
        "state": "CE",
        "district": "José Rosa",
        "street": "Rua Sylvio Bezerra",
        "zipcode": "63707-560"
    },
    {
        "city": "Crateús",
        "state": "CE",
        "district": "Cajás",
        "street": "Rua Quintino Cunha",
        "zipcode": "63707-088"
    },
    {
        "city": "Crateús",
        "state": "CE",
        "district": "Fátima II",
        "street": "Rua Padre Mororó",
        "zipcode": "63702-205"
    },
    {
        "city": "Crateús",
        "state": "CE",
        "district": "Planalto",
        "street": "Rua 26 (Lot Morada dos Ventos II)",
        "zipcode": "63702-510"
    },
    {
        "city": "Crateús",
        "state": "CE",
        "district": "José Rosa",
        "street": "Rua Maria Vilanir Araújo Silva",
        "zipcode": "63707-505"
    },
    {
        "city": "Crateús",
        "state": "CE",
        "district": "Venâncios",
        "street": "Rua Osmar Lucena",
        "zipcode": "63708-470"
    },
    {
        "city": "Crateús",
        "state": "CE",
        "district": "Patriarcas",
        "street": "Rua José Vicente",
        "zipcode": "63705-510"
    },
    {
        "city": "Crateús",
        "state": "CE",
        "district": "Campo Velho",
        "street": "Rua Luis Félix da Silva",
        "zipcode": "63701-420"
    },
    {
        "city": "Crateús",
        "state": "CE",
        "district": "São José",
        "street": "Travessa Fransquinha Machado",
        "zipcode": "63704-090"
    },
    {
        "city": "Crateús",
        "state": "CE",
        "district": "Altamira",
        "street": "Travessa Almirante Tamandaré",
        "zipcode": "63704-305"
    },
    {
        "city": "Crateús",
        "state": "CE",
        "district": "Maratoan",
        "street": "Rua Projetada 41",
        "zipcode": "63700-545"
    },
    {
        "city": "Crateús",
        "state": "CE",
        "district": "Planalto",
        "street": "Rua José Maria Fernandes",
        "zipcode": "63702-535"
    },
    {
        "city": "Crateús",
        "state": "CE",
        "district": "Planalto",
        "street": "Rua Vereador Antônio Lopes de Araújo",
        "zipcode": "63702-475"
    },
    {
        "city": "Crateús",
        "state": "CE",
        "district": "Venâncios",
        "street": "Unidade 14 (Lot Cidade Universitária Leste)",
        "zipcode": "63708-732"
    },
    {
        "city": "Crateús",
        "state": "CE",
        "district": "São José",
        "street": "Rua Raimundo Alves",
        "zipcode": "63704-025"
    },
    {
        "city": "Crateús",
        "state": "CE",
        "district": "Fátima I",
        "street": "Rua Zeca Araújo",
        "zipcode": "63702-875"
    },
    {
        "city": "Crateús",
        "state": "CE",
        "district": "Maratoan",
        "street": "Rua Raimundo Romeu Menezes",
        "zipcode": "63700-515"
    },
    {
        "city": "Crateús",
        "state": "CE",
        "district": "Planalto",
        "street": "Rua Rosa Rufino Avelino",
        "zipcode": "63702-425"
    },
    {
        "city": "Crateús",
        "state": "CE",
        "district": "José Rosa",
        "street": "Travessa Paulo Moreira de Brito",
        "zipcode": "63707-830"
    },
    {
        "city": "Crateús",
        "state": "CE",
        "district": "Venâncios",
        "street": "Rua 13 (Lot Cidade Universitária Leste)",
        "zipcode": "63708-729"
    },
    {
        "city": "Crateús",
        "state": "CE",
        "district": "José Rosa",
        "street": "Rua L (Lot Cidade Universitária)",
        "zipcode": "63707-809"
    },
    {
        "city": "Crateús",
        "state": "CE",
        "district": "Venâncios",
        "street": "Rua Pedro Inácio da Silva",
        "zipcode": "63708-380"
    },
    {
        "city": "Crateús",
        "state": "CE",
        "district": "Venâncios",
        "street": "Rua 11 (Lot Cidade Universitária Leste)",
        "zipcode": "63708-819"
    },
    {
        "city": "Crateús",
        "state": "CE",
        "district": "São Vicente",
        "street": "Rua Manoel Idelfonso",
        "zipcode": "63700-215"
    },
    {
        "city": "Crateús",
        "state": "CE",
        "district": "Fátima I",
        "street": "Rua São Sebastião",
        "zipcode": "63703-020"
    },
    {
        "city": "Crateús",
        "state": "CE",
        "district": "Planalto",
        "street": "Rua 5 (Lot Morada dos Ventos II)",
        "zipcode": "63702-400"
    },
    {
        "city": "Crateús",
        "state": "CE",
        "district": "São Vicente",
        "street": "Rua Juarez Távora",
        "zipcode": "63700-330"
    },
    {
        "city": "Crateús",
        "state": "CE",
        "district": "Fátima II",
        "street": "Rua Leôncio Araújo Veras",
        "zipcode": "63702-210"
    },
    {
        "city": "Crateús",
        "state": "CE",
        "district": "Cidade Nova",
        "street": "Rua José Rodrigues da Silva",
        "zipcode": "63705-814"
    },
    {
        "city": "Crateús",
        "state": "CE",
        "district": "Planalto",
        "street": "Rua José Pedro da Silva",
        "zipcode": "63702-365"
    },
    {
        "city": "Crateús",
        "state": "CE",
        "district": "Planalto",
        "street": "Rua Vicente Ripardo",
        "zipcode": "63702-345"
    },
    {
        "city": "Crateús",
        "state": "CE",
        "district": "José Rosa",
        "street": "Rua Maria Ferreira Bonfim",
        "zipcode": "63707-872"
    },
    {
        "city": "Crateús",
        "state": "CE",
        "district": "Cajás",
        "street": "Travessa Menino Jesus",
        "zipcode": "63707-000"
    },
    {
        "city": "Crateús",
        "state": "CE",
        "district": "Venâncios",
        "street": "Vila dos Sargentos",
        "zipcode": "63708-480"
    },
    {
        "city": "Crateús",
        "state": "CE",
        "district": "José Rosa",
        "street": "Via Local 15 (Lot Cidade Universitária)",
        "zipcode": "63707-890"
    },
    {
        "city": "Crateús",
        "state": "CE",
        "district": "Cidade Nova",
        "street": "Travessa Tenente João Vieira",
        "zipcode": "63705-854"
    },
    {
        "city": "Crateús",
        "state": "CE",
        "district": "José Rosa",
        "street": "Via Local 07 (Lot Cidade Universitária)",
        "zipcode": "63707-896"
    },
    {
        "city": "Crateús",
        "state": "CE",
        "district": "Venâncios",
        "street": "Rua Nossa Senhora do Carmo",
        "zipcode": "63708-720"
    },
    {
        "city": "Crateús",
        "state": "CE",
        "district": "Fátima I",
        "street": "Rua Norberto Ferreira de Sousa",
        "zipcode": "63702-865"
    },
    {
        "city": "Crateús",
        "state": "CE",
        "district": "José Rosa",
        "street": "Rua José Cavalcante de Melo",
        "zipcode": "63707-839"
    },
    {
        "city": "Crateús",
        "state": "CE",
        "district": "José Rosa",
        "street": "Rua Cezário Rodrigues de Souza",
        "zipcode": "63707-550"
    },
    {
        "city": "Crateús",
        "state": "CE",
        "district": "Venâncios",
        "street": "Rua Antônio Fernandes",
        "zipcode": "63708-360"
    },
    {
        "city": "Crateús",
        "state": "CE",
        "district": "Fátima II",
        "street": "Rua Gustavo Barroso",
        "zipcode": "63702-120"
    },
    {
        "city": "Crateús",
        "state": "CE",
        "district": "Centro",
        "street": "Rua Almirante Tamandaré",
        "zipcode": "63700-091"
    },
    {
        "city": "Crateús",
        "state": "CE",
        "district": "São Vicente",
        "street": "Rua Clóvis Beviláqua",
        "zipcode": "63700-150"
    },
    {
        "city": "Crateús",
        "state": "CE",
        "district": "Maratoan",
        "street": "Rua Antônio Soares de Oliveira",
        "zipcode": "63700-485"
    },
    {
        "city": "Crateús",
        "state": "CE",
        "district": "Fátima I",
        "street": "Rua Juvenal Alves Reis",
        "zipcode": "63703-120"
    },
    {
        "city": "Crateús",
        "state": "CE",
        "district": "Venâncios",
        "street": "Rua 6 (Lot Cidade Universitária Leste)",
        "zipcode": "63708-756"
    },
    {
        "city": "Crateús",
        "state": "CE",
        "district": "Venâncios",
        "street": "Rua 12 (Lot Cidade Universitária Leste)",
        "zipcode": "63708-723"
    },
    {
        "city": "Crateús",
        "state": "CE",
        "district": "Santa Luzia",
        "street": "Rua Gustavo Barroso",
        "zipcode": "63700-775"
    },
    {
        "city": "Crateús",
        "state": "CE",
        "district": "Centro",
        "street": "Rua Coronel Zezé",
        "zipcode": "63700-067"
    },
    {
        "city": "Crateús",
        "state": "CE",
        "district": "São Vicente",
        "street": "Avenida Sargento Hermínio",
        "zipcode": "63700-285"
    },
    {
        "city": "Crateús",
        "state": "CE",
        "district": "Fátima II",
        "street": "Rua Professor Odésio Frota Gomes",
        "zipcode": "63702-095"
    },
    {
        "city": "Crateús",
        "state": "CE",
        "district": "José Rosa",
        "street": "Rua Viginha de Pinho Borges",
        "zipcode": "63707-450"
    },
    {
        "city": "Crateús",
        "state": "CE",
        "district": "Venâncios",
        "street": "Rua Dennis James Rufino Melo",
        "zipcode": "63708-280"
    },
    {
        "city": "Crateús",
        "state": "CE",
        "district": "Maratoan",
        "street": "Travessa André Moreira",
        "zipcode": "63700-505"
    },
    {
        "city": "Crateús",
        "state": "CE",
        "district": "Santana",
        "street": "",
        "zipcode": "63735-000"
    },
    {
        "city": "Crateús",
        "state": "CE",
        "district": "Patriarcas",
        "street": "Rua Joaquim Izidio Braz",
        "zipcode": "63705-490"
    },
    {
        "city": "Crateús",
        "state": "CE",
        "district": "Curral Velho",
        "street": "",
        "zipcode": "63716-000"
    },
    {
        "city": "Crateús",
        "state": "CE",
        "district": "Centro",
        "street": "Rua Paulo Soares Cavalcante",
        "zipcode": "63700-082"
    },
    {
        "city": "Crateús",
        "state": "CE",
        "district": "Venâncios",
        "street": "Rua Pedro Moacir",
        "zipcode": "63708-255"
    },
    {
        "city": "Crateús",
        "state": "CE",
        "district": "Santa Luzia",
        "street": "Rua Vicente Ferreira de Melo",
        "zipcode": "63700-765"
    },
    {
        "city": "Crateús",
        "state": "CE",
        "district": "José Rosa",
        "street": "Rua Agaci Machado",
        "zipcode": "63707-475"
    },
    {
        "city": "Crateús",
        "state": "CE",
        "district": "",
        "street": "Rua Várzea de Aguiar",
        "zipcode": "63725-990"
    },
    {
        "city": "Crateús",
        "state": "CE",
        "district": "São Vicente",
        "street": "Rua Morais Rolim",
        "zipcode": "63700-225"
    },
    {
        "city": "Crateús",
        "state": "CE",
        "district": "São Vicente",
        "street": "Rua Almirante Tamandaré",
        "zipcode": "63700-275"
    },
    {
        "city": "Crateús",
        "state": "CE",
        "district": "Cidade 2000",
        "street": "Rua Haneman Almeida Magalhães",
        "zipcode": "63705-025"
    },
    {
        "city": "Crateús",
        "state": "CE",
        "district": "Nova Terra",
        "street": "Rua Doutor Júlio Lima",
        "zipcode": "63702-238"
    },
    {
        "city": "Crateús",
        "state": "CE",
        "district": "Centro",
        "street": "Rua Coronel Lúcio",
        "zipcode": "63700-001"
    },
    {
        "city": "Crateús",
        "state": "CE",
        "district": "Cidade Nova",
        "street": "Rua José Amâncio Correia Lima",
        "zipcode": "63705-862"
    },
    {
        "city": "Crateús",
        "state": "CE",
        "district": "José Rosa",
        "street": "Via Local 06 (Lot Cidade Universitária)",
        "zipcode": "63707-899"
    },
    {
        "city": "Crateús",
        "state": "CE",
        "district": "Venâncios",
        "street": "Rua Projetada (Lot Cidade Universitária Leste)",
        "zipcode": "63708-822"
    },
    {
        "city": "Crateús",
        "state": "CE",
        "district": "José Rosa",
        "street": "Rua Arabela Cavalcante de Melo",
        "zipcode": "63707-818"
    },
    {
        "city": "Crateús",
        "state": "CE",
        "district": "José Rosa",
        "street": "Avenida Benony Mourão Filho",
        "zipcode": "63707-415"
    },
    {
        "city": "Crateús",
        "state": "CE",
        "district": "Ponte Preta",
        "street": "Rua Almirante Tamandaré",
        "zipcode": "63704-510"
    },
    {
        "city": "Crateús",
        "state": "CE",
        "district": "São Vicente",
        "street": "Rua Norberto Ferreira de Sousa",
        "zipcode": "63700-195"
    },
    {
        "city": "Crateús",
        "state": "CE",
        "district": "",
        "street": "",
        "zipcode": "63700-000"
    },
    {
        "city": "Crateús",
        "state": "CE",
        "district": "",
        "street": "Rua Central",
        "zipcode": "63710-990"
    },
    {
        "city": "Crateús",
        "state": "CE",
        "district": "",
        "street": "Rua Principal",
        "zipcode": "63705-990"
    },
    {
        "city": "Crateús",
        "state": "CE",
        "district": "",
        "street": "Rua Enoque Barros",
        "zipcode": "63715-990"
    },
    {
        "city": "Crateús",
        "state": "CE",
        "district": "Lagoa das Pedras",
        "street": "",
        "zipcode": "63714-000"
    },
    {
        "city": "Crateús",
        "state": "CE",
        "district": "Poti",
        "street": "",
        "zipcode": "63720-000"
    }
]