[
    {
        "city": "Eusébio",
        "state": "CE",
        "district": "Centro",
        "street": "Avenida Eduardo Sá 81",
        "zipcode": "61760-970"
    },
    {
        "city": "Eusébio",
        "state": "CE",
        "district": null,
        "street": "Estrada do Fio",
        "zipcode": "61760-990"
    },
    {
        "city": "Eusébio",
        "state": "CE",
        "district": null,
        "street": "Rua Santa Rosa",
        "zipcode": "61760-991"
    },
    {
        "city": "Eusébio",
        "state": "CE",
        "district": null,
        "street": "Rua Izídio José Campina",
        "zipcode": "61760-997"
    },
    {
        "city": "Eusébio",
        "state": "CE",
        "district": "Cararu",
        "street": "Avenida Litorânea s/n",
        "zipcode": "61760-905"
    },
    {
        "city": "Eusébio",
        "state": "CE",
        "district": "Coaçu",
        "street": "Avenida José Moraes de Almeida 777",
        "zipcode": "61760-907"
    },
    {
        "city": "Eusébio",
        "state": "CE",
        "district": "Precabura",
        "street": "Avenida Santa Marta 300",
        "zipcode": "61760-906"
    },
    {
        "city": "Eusébio",
        "state": "CE",
        "district": "Coaçu",
        "street": "Rodovia CE",
        "zipcode": "61760-908"
    },
    {
        "city": "Eusébio",
        "state": "CE",
        "district": "Guaribas",
        "street": "Rua Manoel Jorge de Castro 341",
        "zipcode": "61760-909"
    },
    {
        "city": "Eusébio",
        "state": "CE",
        "district": "",
        "street": "",
        "zipcode": "61760-000"
    },
    {
        "city": "Eusébio",
        "state": "CE",
        "district": "Pires Façanha",
        "street": "Rodovia CE",
        "zipcode": "61760-903"
    },
    {
        "city": "Eusébio",
        "state": "CE",
        "district": null,
        "street": "Rua Bons Amigos",
        "zipcode": "61760-995"
    }
]