[
    {
        "city": "Maranguape",
        "state": "CE",
        "district": "Outra Banda",
        "street": "Rua Marfisa Gondim Barros",
        "zipcode": "61942-080"
    },
    {
        "city": "Maranguape",
        "state": "CE",
        "district": "Novo Maranguape II",
        "street": "Rua José Américo",
        "zipcode": "61944-170"
    },
    {
        "city": "Maranguape",
        "state": "CE",
        "district": "Gavião",
        "street": "Praça Sarah Carvalho da Silva",
        "zipcode": "61940-705"
    },
    {
        "city": "Maranguape",
        "state": "CE",
        "district": "Tangueira",
        "street": "Rua Santa Inácia",
        "zipcode": "61946-230"
    },
    {
        "city": "Maranguape",
        "state": "CE",
        "district": "Centro",
        "street": "Rua do Trilho",
        "zipcode": "61940-030"
    },
    {
        "city": "Maranguape",
        "state": "CE",
        "district": "Centro",
        "street": "Rua Agostinho Fernandes",
        "zipcode": "61940-185"
    },
    {
        "city": "Maranguape",
        "state": "CE",
        "district": "Centro",
        "street": "Rua Desembargador Moreira",
        "zipcode": "61940-155"
    },
    {
        "city": "Maranguape",
        "state": "CE",
        "district": "Centro",
        "street": "Rua Domingos Façanha",
        "zipcode": "61940-140"
    },
    {
        "city": "Maranguape",
        "state": "CE",
        "district": "Centro",
        "street": "Rua José Maria Almeida",
        "zipcode": "61940-143"
    },
    {
        "city": "Maranguape",
        "state": "CE",
        "district": "Centro",
        "street": "Praça Desembargador Pontes Vieira",
        "zipcode": "61940-165"
    },
    {
        "city": "Maranguape",
        "state": "CE",
        "district": "Outra Banda",
        "street": "Rua Maurício Sombra",
        "zipcode": "61942-050"
    },
    {
        "city": "Maranguape",
        "state": "CE",
        "district": "Outra Banda",
        "street": "Rua Campo do Cruzeiro",
        "zipcode": "61942-100"
    },
    {
        "city": "Maranguape",
        "state": "CE",
        "district": "Parque Santa Fé",
        "street": "Rua Álvaro Câmara",
        "zipcode": "61940-400"
    },
    {
        "city": "Maranguape",
        "state": "CE",
        "district": "Cônego Raimundo Pinto",
        "street": "Rua Piauí",
        "zipcode": "61945-200"
    },
    {
        "city": "Maranguape",
        "state": "CE",
        "district": "Santos Dumont",
        "street": "Rua Padre Quinderé",
        "zipcode": "61948-610"
    },
    {
        "city": "Maranguape",
        "state": "CE",
        "district": "Centro",
        "street": "Rua João Barbosa",
        "zipcode": "61940-025"
    },
    {
        "city": "Maranguape",
        "state": "CE",
        "district": "Centro",
        "street": "Rua Valderi Ferreira de Andrade",
        "zipcode": "61940-045"
    },
    {
        "city": "Maranguape",
        "state": "CE",
        "district": "Centro",
        "street": "Rua São Tarcísio",
        "zipcode": "61940-050"
    },
    {
        "city": "Maranguape",
        "state": "CE",
        "district": "Guabiraba",
        "street": "Rua Genésio Leite de Abreu",
        "zipcode": "61940-610"
    },
    {
        "city": "Maranguape",
        "state": "CE",
        "district": "Pirapora",
        "street": "Beco Orange",
        "zipcode": "61941-007"
    },
    {
        "city": "Maranguape",
        "state": "CE",
        "district": "Cônego Raimundo Pinto",
        "street": "Rua Bahia",
        "zipcode": "61945-090"
    },
    {
        "city": "Maranguape",
        "state": "CE",
        "district": "Cônego Raimundo Pinto",
        "street": "Rua Iguatu",
        "zipcode": "61945-120"
    },
    {
        "city": "Maranguape",
        "state": "CE",
        "district": "",
        "street": "Praça Adelino Coelho",
        "zipcode": "61979-990"
    },
    {
        "city": "Maranguape",
        "state": "CE",
        "district": "Parque Iracema",
        "street": "Rua Maria Nunes da Silva",
        "zipcode": "61948-320"
    },
    {
        "city": "Maranguape",
        "state": "CE",
        "district": "Parque Iracema",
        "street": "Rua Manoel Pacheco",
        "zipcode": "61948-340"
    },
    {
        "city": "Maranguape",
        "state": "CE",
        "district": "Santos Dumont",
        "street": "Rua G (Cj Res Iracema)",
        "zipcode": "61948-510"
    },
    {
        "city": "Maranguape",
        "state": "CE",
        "district": "Centro",
        "street": "Travessa Afro",
        "zipcode": "61940-007"
    },
    {
        "city": "Maranguape",
        "state": "CE",
        "district": "Centro",
        "street": "Rua Roberto Braqueais",
        "zipcode": "61940-080"
    },
    {
        "city": "Maranguape",
        "state": "CE",
        "district": "Centro",
        "street": "Rua Major Agostinho",
        "zipcode": "61940-090"
    },
    {
        "city": "Maranguape",
        "state": "CE",
        "district": "Centro",
        "street": "Rua Sete de Setembro",
        "zipcode": "61940-100"
    },
    {
        "city": "Maranguape",
        "state": "CE",
        "district": "Centro",
        "street": "Travessa Sinfronio do Nascimento",
        "zipcode": "61940-120"
    },
    {
        "city": "Maranguape",
        "state": "CE",
        "district": "Centro",
        "street": "Praça Getúlio Vargas",
        "zipcode": "61940-175"
    },
    {
        "city": "Maranguape",
        "state": "CE",
        "district": "Centro",
        "street": "Rua Coronel Manoel Paula",
        "zipcode": "61940-065"
    },
    {
        "city": "Maranguape",
        "state": "CE",
        "district": "Centro",
        "street": "Rua Walter Lopes",
        "zipcode": "61940-110"
    },
    {
        "city": "Maranguape",
        "state": "CE",
        "district": "Guabiraba",
        "street": "Rua Antônio Eduardo Girão",
        "zipcode": "61940-540"
    },
    {
        "city": "Maranguape",
        "state": "CE",
        "district": "Gavião",
        "street": "Beco do Escorrego",
        "zipcode": "61940-735"
    },
    {
        "city": "Maranguape",
        "state": "CE",
        "district": "Pirapora",
        "street": "Beco Dídimo",
        "zipcode": "61941-005"
    },
    {
        "city": "Maranguape",
        "state": "CE",
        "district": "Preguiça",
        "street": "Rua João de Deus Paula",
        "zipcode": "61941-150"
    },
    {
        "city": "Maranguape",
        "state": "CE",
        "district": "Preguiça",
        "street": "Estrada dos Mavignier",
        "zipcode": "61941-190"
    },
    {
        "city": "Maranguape",
        "state": "CE",
        "district": "Novo Maranguape I",
        "street": "Rua Irmã Irene",
        "zipcode": "61943-190"
    },
    {
        "city": "Maranguape",
        "state": "CE",
        "district": "Novo Maranguape I",
        "street": "Rua João Eudes",
        "zipcode": "61943-240"
    },
    {
        "city": "Maranguape",
        "state": "CE",
        "district": "Novo Maranguape II",
        "street": "Rua Belinha Braga",
        "zipcode": "61944-090"
    },
    {
        "city": "Maranguape",
        "state": "CE",
        "district": "Novo Maranguape II",
        "street": "Rua João Soares Silva",
        "zipcode": "61944-600"
    },
    {
        "city": "Maranguape",
        "state": "CE",
        "district": "Guabiraba",
        "street": "Rua Francisco Fialho",
        "zipcode": "61940-520"
    },
    {
        "city": "Maranguape",
        "state": "CE",
        "district": "Guabiraba",
        "street": "Rua Enói de Abreu Braga",
        "zipcode": "61940-530"
    },
    {
        "city": "Maranguape",
        "state": "CE",
        "district": "Gavião",
        "street": "Rua João Campos Paiva",
        "zipcode": "61940-740"
    },
    {
        "city": "Maranguape",
        "state": "CE",
        "district": "Outra Banda",
        "street": "Rua do Açude",
        "zipcode": "61942-120"
    },
    {
        "city": "Maranguape",
        "state": "CE",
        "district": "Novo Maranguape I",
        "street": "Rua Chico Lemos",
        "zipcode": "61943-120"
    },
    {
        "city": "Maranguape",
        "state": "CE",
        "district": "Parque Santa Fé",
        "street": "Rua Manoel Domingos",
        "zipcode": "61940-350"
    },
    {
        "city": "Maranguape",
        "state": "CE",
        "district": "Preguiça",
        "street": "Rua Raimundo Herbster",
        "zipcode": "61941-100"
    },
    {
        "city": "Maranguape",
        "state": "CE",
        "district": "Preguiça",
        "street": "Rua José Valdir Barbosa",
        "zipcode": "61941-130"
    },
    {
        "city": "Maranguape",
        "state": "CE",
        "district": "Preguiça",
        "street": "Rua Joaquim Tibúrcio",
        "zipcode": "61941-170"
    },
    {
        "city": "Maranguape",
        "state": "CE",
        "district": "Outra Banda",
        "street": "Rua Senador Almir Pinto",
        "zipcode": "61942-015"
    },
    {
        "city": "Maranguape",
        "state": "CE",
        "district": "Novo Maranguape II",
        "street": "Rua Josefa Costa Menezes",
        "zipcode": "61944-050"
    },
    {
        "city": "Maranguape",
        "state": "CE",
        "district": "Guabiraba",
        "street": "Rua Manoel Alcides da Silva",
        "zipcode": "61940-625"
    },
    {
        "city": "Maranguape",
        "state": "CE",
        "district": "Outra Banda",
        "street": "Rua João Travassos",
        "zipcode": "61942-480"
    },
    {
        "city": "Maranguape",
        "state": "CE",
        "district": "Outra Banda",
        "street": "Vila Maria Dolares",
        "zipcode": "61942-021"
    },
    {
        "city": "Maranguape",
        "state": "CE",
        "district": "Outra Banda",
        "street": "Vila Regina",
        "zipcode": "61942-131"
    },
    {
        "city": "Maranguape",
        "state": "CE",
        "district": "Pirapora",
        "street": "Vila São José",
        "zipcode": "61941-003"
    },
    {
        "city": "Maranguape",
        "state": "CE",
        "district": "Pirapora",
        "street": "Travessa Júlio Lima Sucupira",
        "zipcode": "61941-015"
    },
    {
        "city": "Maranguape",
        "state": "CE",
        "district": "Outra Banda",
        "street": "Rua José Pinheiro Pessoa",
        "zipcode": "61942-345"
    },
    {
        "city": "Maranguape",
        "state": "CE",
        "district": "Outra Banda",
        "street": "Praça Arco",
        "zipcode": "61942-350"
    },
    {
        "city": "Maranguape",
        "state": "CE",
        "district": "Novo Maranguape II",
        "street": "Rua José M. Câmara",
        "zipcode": "61944-330"
    },
    {
        "city": "Maranguape",
        "state": "CE",
        "district": "Outra Banda",
        "street": "Beco Novo",
        "zipcode": "61942-175"
    },
    {
        "city": "Maranguape",
        "state": "CE",
        "district": "Novo Maranguape I",
        "street": "Rua José Feliciano",
        "zipcode": "61943-230"
    },
    {
        "city": "Maranguape",
        "state": "CE",
        "district": "Novo Maranguape II",
        "street": "Rua Jorge Bília",
        "zipcode": "61944-230"
    },
    {
        "city": "Maranguape",
        "state": "CE",
        "district": "Novo Maranguape II",
        "street": "Rua Minas Gerais",
        "zipcode": "61944-380"
    },
    {
        "city": "Maranguape",
        "state": "CE",
        "district": "Novo Maranguape II",
        "street": "Rua José Bittencourt da Silva",
        "zipcode": "61944-390"
    },
    {
        "city": "Maranguape",
        "state": "CE",
        "district": "Novo Maranguape II",
        "street": "Rua Raimundo Pacheco",
        "zipcode": "61944-430"
    },
    {
        "city": "Maranguape",
        "state": "CE",
        "district": "Novo Maranguape II",
        "street": "Rua Natal",
        "zipcode": "61944-480"
    },
    {
        "city": "Maranguape",
        "state": "CE",
        "district": "Parque São João",
        "street": "Rua F (Cj Dakota)",
        "zipcode": "61946-125"
    },
    {
        "city": "Maranguape",
        "state": "CE",
        "district": "Parque São João",
        "street": "Rua Joaquim Ubelino Sobrinho",
        "zipcode": "61946-155"
    },
    {
        "city": "Maranguape",
        "state": "CE",
        "district": "Santos Dumont",
        "street": "Rua Padre Rosa",
        "zipcode": "61948-560"
    },
    {
        "city": "Maranguape",
        "state": "CE",
        "district": "Guabiraba",
        "street": "Rua Professor Nazareno Machado",
        "zipcode": "61940-620"
    },
    {
        "city": "Maranguape",
        "state": "CE",
        "district": "Outra Banda",
        "street": "Rua Manoel Rufino de Matos",
        "zipcode": "61942-450"
    },
    {
        "city": "Maranguape",
        "state": "CE",
        "district": "Novo Maranguape II",
        "street": "Rua José Oriá Serpa",
        "zipcode": "61944-540"
    },
    {
        "city": "Maranguape",
        "state": "CE",
        "district": "Santos Dumont",
        "street": "Rua Monsenhor Salazar",
        "zipcode": "61948-570"
    },
    {
        "city": "Maranguape",
        "state": "CE",
        "district": "Outra Banda",
        "street": "Rua dos Funcionários",
        "zipcode": "61942-140"
    },
    {
        "city": "Maranguape",
        "state": "CE",
        "district": "Outra Banda",
        "street": "Rua Francisco Geraldo de Sousa",
        "zipcode": "61942-150"
    },
    {
        "city": "Maranguape",
        "state": "CE",
        "district": "Outra Banda",
        "street": "Rua Gontran Nascimento",
        "zipcode": "61942-220"
    },
    {
        "city": "Maranguape",
        "state": "CE",
        "district": "Outra Banda",
        "street": "Rua Antônio Teixeira",
        "zipcode": "61942-310"
    },
    {
        "city": "Maranguape",
        "state": "CE",
        "district": "Outra Banda",
        "street": "Rua das Palmeiras",
        "zipcode": "61942-390"
    },
    {
        "city": "Maranguape",
        "state": "CE",
        "district": "Novo Maranguape II",
        "street": "Rua Antônio Gondim Costa",
        "zipcode": "61944-130"
    },
    {
        "city": "Maranguape",
        "state": "CE",
        "district": "Novo Maranguape II",
        "street": "Rua João Madeira Barros",
        "zipcode": "61944-260"
    },
    {
        "city": "Maranguape",
        "state": "CE",
        "district": "Novo Maranguape II",
        "street": "Rua Fernando Bessa",
        "zipcode": "61944-500"
    },
    {
        "city": "Maranguape",
        "state": "CE",
        "district": "Gavião",
        "street": "Parque Gavião",
        "zipcode": "61940-785"
    },
    {
        "city": "Maranguape",
        "state": "CE",
        "district": "Outra Banda",
        "street": "Rua do Matadouro",
        "zipcode": "61942-410"
    },
    {
        "city": "Maranguape",
        "state": "CE",
        "district": "Parque Santa Fé",
        "street": "Rua Professor Osório Uchoa Soares Campos",
        "zipcode": "61940-380"
    },
    {
        "city": "Maranguape",
        "state": "CE",
        "district": "Guabiraba",
        "street": "Rua Nossa Senhora da Penha",
        "zipcode": "61940-550"
    },
    {
        "city": "Maranguape",
        "state": "CE",
        "district": "Gavião",
        "street": "Rua Rosalita Passos da Silva",
        "zipcode": "61940-745"
    },
    {
        "city": "Maranguape",
        "state": "CE",
        "district": "Outra Banda",
        "street": "Rua José de Sousa Mota",
        "zipcode": "61942-180"
    },
    {
        "city": "Maranguape",
        "state": "CE",
        "district": "Outra Banda",
        "street": "Rua José Artur do Nascimento",
        "zipcode": "61942-260"
    },
    {
        "city": "Maranguape",
        "state": "CE",
        "district": "Outra Banda",
        "street": "Rua Sol Nascente",
        "zipcode": "61942-330"
    },
    {
        "city": "Maranguape",
        "state": "CE",
        "district": "Outra Banda",
        "street": "Rua Raimundo Justini de Morais",
        "zipcode": "61942-420"
    },
    {
        "city": "Maranguape",
        "state": "CE",
        "district": "Outra Banda",
        "street": "Rua José Teixeira da Cunha",
        "zipcode": "61942-500"
    },
    {
        "city": "Maranguape",
        "state": "CE",
        "district": "Novo Maranguape I",
        "street": "Rua Josué Teixeira de Abreu",
        "zipcode": "61943-080"
    },
    {
        "city": "Maranguape",
        "state": "CE",
        "district": "Novo Maranguape I",
        "street": "Rua José Martins",
        "zipcode": "61943-140"
    },
    {
        "city": "Maranguape",
        "state": "CE",
        "district": "Novo Maranguape I",
        "street": "Rua Sílvio Antônio",
        "zipcode": "61943-170"
    },
    {
        "city": "Maranguape",
        "state": "CE",
        "district": "Novo Maranguape I",
        "street": "Rua Neném Bastos",
        "zipcode": "61943-250"
    },
    {
        "city": "Maranguape",
        "state": "CE",
        "district": "Novo Maranguape I",
        "street": "Rua Macário Pontes",
        "zipcode": "61943-280"
    },
    {
        "city": "Maranguape",
        "state": "CE",
        "district": "Novo Maranguape I",
        "street": "Rua Luiz Girão",
        "zipcode": "61943-410"
    },
    {
        "city": "Maranguape",
        "state": "CE",
        "district": "Novo Maranguape II",
        "street": "Rua Maria das Dores",
        "zipcode": "61944-150"
    },
    {
        "city": "Maranguape",
        "state": "CE",
        "district": "Novo Maranguape II",
        "street": "Rua Jocely Lopes",
        "zipcode": "61944-240"
    },
    {
        "city": "Maranguape",
        "state": "CE",
        "district": "Novo Maranguape II",
        "street": "Rua Pernambuco",
        "zipcode": "61944-370"
    },
    {
        "city": "Maranguape",
        "state": "CE",
        "district": "Novo Maranguape II",
        "street": "Rua Professora Valderina Barros",
        "zipcode": "61944-490"
    },
    {
        "city": "Maranguape",
        "state": "CE",
        "district": "Novo Maranguape II",
        "street": "Rua José Sales",
        "zipcode": "61944-550"
    },
    {
        "city": "Maranguape",
        "state": "CE",
        "district": "Gavião",
        "street": "Vila São Francisco",
        "zipcode": "61940-731"
    },
    {
        "city": "Maranguape",
        "state": "CE",
        "district": "Preguiça",
        "street": "Vila Coração de Jesus",
        "zipcode": "61941-183"
    },
    {
        "city": "Maranguape",
        "state": "CE",
        "district": "Outra Banda",
        "street": "Vila Amarela",
        "zipcode": "61942-121"
    },
    {
        "city": "Maranguape",
        "state": "CE",
        "district": "Outra Banda",
        "street": "Vila Maria Odete",
        "zipcode": "61942-122"
    },
    {
        "city": "Maranguape",
        "state": "CE",
        "district": "Gavião",
        "street": "Vila Santa Maria",
        "zipcode": "61940-720"
    },
    {
        "city": "Maranguape",
        "state": "CE",
        "district": "Novo Maranguape II",
        "street": "Rua Augusto Pinto",
        "zipcode": "61944-640"
    },
    {
        "city": "Maranguape",
        "state": "CE",
        "district": "Cônego Raimundo Pinto",
        "street": "Rua São Paulo",
        "zipcode": "61945-190"
    },
    {
        "city": "Maranguape",
        "state": "CE",
        "district": "Parque São João",
        "street": "Rua Antônio Lopes de Brito",
        "zipcode": "61946-010"
    },
    {
        "city": "Maranguape",
        "state": "CE",
        "district": "Parque São João",
        "street": "Rua José Leão",
        "zipcode": "61946-050"
    },
    {
        "city": "Maranguape",
        "state": "CE",
        "district": "Parque São João",
        "street": "Rua Cônego Heitor Vieira Cavalcante",
        "zipcode": "61946-060"
    },
    {
        "city": "Maranguape",
        "state": "CE",
        "district": "Parque São João",
        "street": "Rua Eliomar Nunes Costa",
        "zipcode": "61946-095"
    },
    {
        "city": "Maranguape",
        "state": "CE",
        "district": "Coité",
        "street": "Rua da Igreja",
        "zipcode": "61946-350"
    },
    {
        "city": "Maranguape",
        "state": "CE",
        "district": "Lameirão",
        "street": "Rua Flor da Papoula",
        "zipcode": "61946-400"
    },
    {
        "city": "Maranguape",
        "state": "CE",
        "district": "Lameirão",
        "street": "Rua Flor do Girassol",
        "zipcode": "61946-480"
    },
    {
        "city": "Maranguape",
        "state": "CE",
        "district": "Lameirão",
        "street": "Rua Flor da Acácia",
        "zipcode": "61946-490"
    },
    {
        "city": "Maranguape",
        "state": "CE",
        "district": "Aldeoma",
        "street": "Rua Camilo de Castro",
        "zipcode": "61948-010"
    },
    {
        "city": "Maranguape",
        "state": "CE",
        "district": "Parque Iracema",
        "street": "Rua Otávio Bernardino da Silva",
        "zipcode": "61948-350"
    },
    {
        "city": "Maranguape",
        "state": "CE",
        "district": "Parque Iracema",
        "street": "Alameda dos Maçons",
        "zipcode": "61948-390"
    },
    {
        "city": "Maranguape",
        "state": "CE",
        "district": "Santos Dumont",
        "street": "Rua Rubens Herbster",
        "zipcode": "61948-400"
    },
    {
        "city": "Maranguape",
        "state": "CE",
        "district": "Santos Dumont",
        "street": "Rua Otávio Albino",
        "zipcode": "61948-440"
    },
    {
        "city": "Maranguape",
        "state": "CE",
        "district": "Santos Dumont",
        "street": "Rua Chico Feliciano",
        "zipcode": "61948-670"
    },
    {
        "city": "Maranguape",
        "state": "CE",
        "district": "Novo Parque Iracema",
        "street": "Rua Antônio Jéferson dos Santos",
        "zipcode": "61949-230"
    },
    {
        "city": "Maranguape",
        "state": "CE",
        "district": "Cônego Raimundo Pinto",
        "street": "Rua José Pacheco",
        "zipcode": "61945-030"
    },
    {
        "city": "Maranguape",
        "state": "CE",
        "district": "Parque São João",
        "street": "Rua Antônio Nunes Pinheiro",
        "zipcode": "61946-015"
    },
    {
        "city": "Maranguape",
        "state": "CE",
        "district": "Aldeoma",
        "street": "Avenida Doutor Stênio Gomes",
        "zipcode": "61948-040"
    },
    {
        "city": "Maranguape",
        "state": "CE",
        "district": "Novo Parque Iracema",
        "street": "Rua Chico Pessoa",
        "zipcode": "61949-100"
    },
    {
        "city": "Maranguape",
        "state": "CE",
        "district": "Santos Dumont",
        "street": "Rua E (Cj Res Iracema)",
        "zipcode": "61948-490"
    },
    {
        "city": "Maranguape",
        "state": "CE",
        "district": "Santos Dumont",
        "street": "Rua H (Cj Res Iracema)",
        "zipcode": "61948-520"
    },
    {
        "city": "Maranguape",
        "state": "CE",
        "district": "Novo Parque Iracema",
        "street": "Rua Afrânio Mendes Costa",
        "zipcode": "61949-030"
    },
    {
        "city": "Maranguape",
        "state": "CE",
        "district": "Novo Parque Iracema",
        "street": "Rua Lauro Cirino",
        "zipcode": "61949-150"
    },
    {
        "city": "Maranguape",
        "state": "CE",
        "district": "Novo Parque Iracema",
        "street": "Rua José Carlos Holanda",
        "zipcode": "61949-180"
    },
    {
        "city": "Maranguape",
        "state": "CE",
        "district": "Novo Parque Iracema",
        "street": "Rua Nilo Campelo",
        "zipcode": "61949-190"
    },
    {
        "city": "Maranguape",
        "state": "CE",
        "district": "Novo Maranguape I",
        "street": "Rua Jacinta Marta F. de Oliveira",
        "zipcode": "61943-380"
    },
    {
        "city": "Maranguape",
        "state": "CE",
        "district": "Novo Maranguape I",
        "street": "Rua Humberto Vieira",
        "zipcode": "61943-460"
    },
    {
        "city": "Maranguape",
        "state": "CE",
        "district": "Novo Maranguape II",
        "street": "Rua Alfredo Brandão",
        "zipcode": "61944-010"
    },
    {
        "city": "Maranguape",
        "state": "CE",
        "district": "Novo Maranguape II",
        "street": "Rua Chico Cirino",
        "zipcode": "61944-680"
    },
    {
        "city": "Maranguape",
        "state": "CE",
        "district": "Novo Maranguape II",
        "street": "Rua João Sousa Filho",
        "zipcode": "61944-690"
    },
    {
        "city": "Maranguape",
        "state": "CE",
        "district": "Novo Maranguape II",
        "street": "Rua João Magalhães",
        "zipcode": "61944-720"
    },
    {
        "city": "Maranguape",
        "state": "CE",
        "district": "Outra Banda",
        "street": "Rua Francisco Dorneles",
        "zipcode": "61942-290"
    },
    {
        "city": "Maranguape",
        "state": "CE",
        "district": "Outra Banda",
        "street": "Praça da Ecologia",
        "zipcode": "61942-380"
    },
    {
        "city": "Maranguape",
        "state": "CE",
        "district": "Novo Maranguape II",
        "street": "Rua Antônio Junior da Silva",
        "zipcode": "61944-020"
    },
    {
        "city": "Maranguape",
        "state": "CE",
        "district": "Novo Maranguape II",
        "street": "Rua Albertina Paz Oliveira",
        "zipcode": "61944-290"
    },
    {
        "city": "Maranguape",
        "state": "CE",
        "district": "Cônego Raimundo Pinto",
        "street": "Rua Izaura Barros",
        "zipcode": "61945-050"
    },
    {
        "city": "Maranguape",
        "state": "CE",
        "district": "Cônego Raimundo Pinto",
        "street": "Rua João Diogo",
        "zipcode": "61945-060"
    },
    {
        "city": "Maranguape",
        "state": "CE",
        "district": "Novo Maranguape I",
        "street": "Rua Raimundo Martins",
        "zipcode": "61943-470"
    },
    {
        "city": "Maranguape",
        "state": "CE",
        "district": "Novo Maranguape II",
        "street": "Rua Josefa Parão",
        "zipcode": "61944-070"
    },
    {
        "city": "Maranguape",
        "state": "CE",
        "district": "Novo Maranguape II",
        "street": "Rua Nely Oliveira Sousa",
        "zipcode": "61944-080"
    },
    {
        "city": "Maranguape",
        "state": "CE",
        "district": "Novo Maranguape II",
        "street": "Rua Raimundo Maria Sales",
        "zipcode": "61944-200"
    },
    {
        "city": "Maranguape",
        "state": "CE",
        "district": "Novo Maranguape II",
        "street": "Rua Nonato Rufino",
        "zipcode": "61944-220"
    },
    {
        "city": "Maranguape",
        "state": "CE",
        "district": "Novo Maranguape II",
        "street": "Rua Maria Clemilda Marques",
        "zipcode": "61944-570"
    },
    {
        "city": "Maranguape",
        "state": "CE",
        "district": "Novo Maranguape II",
        "street": "Rua Maurício Silveira",
        "zipcode": "61944-740"
    },
    {
        "city": "Maranguape",
        "state": "CE",
        "district": "Novo Maranguape II",
        "street": "Rua Madalena Araújo Sampaio",
        "zipcode": "61944-745"
    },
    {
        "city": "Maranguape",
        "state": "CE",
        "district": "Novo Maranguape II",
        "street": "Rua Vicente Maciel",
        "zipcode": "61944-760"
    },
    {
        "city": "Maranguape",
        "state": "CE",
        "district": "Santos Dumont",
        "street": "Rua Zeca Fernandes",
        "zipcode": "61948-410"
    },
    {
        "city": "Maranguape",
        "state": "CE",
        "district": "Parque São João",
        "street": "Rua João Belo",
        "zipcode": "61946-110"
    },
    {
        "city": "Maranguape",
        "state": "CE",
        "district": "Parque São João",
        "street": "Rua Juvenília Mavignier",
        "zipcode": "61946-140"
    },
    {
        "city": "Maranguape",
        "state": "CE",
        "district": "Coité",
        "street": "Rua José Augusto da Silva",
        "zipcode": "61946-320"
    },
    {
        "city": "Maranguape",
        "state": "CE",
        "district": "Lameirão",
        "street": "Rua Flor Sempre Viva",
        "zipcode": "61946-440"
    },
    {
        "city": "Maranguape",
        "state": "CE",
        "district": "Lameirão",
        "street": "Rua Rosa Mística",
        "zipcode": "61946-460"
    },
    {
        "city": "Maranguape",
        "state": "CE",
        "district": "Lameirão",
        "street": "Rua Rosa Jasmim",
        "zipcode": "61946-540"
    },
    {
        "city": "Maranguape",
        "state": "CE",
        "district": "Lameirão",
        "street": "Rua Flor Margarida",
        "zipcode": "61946-560"
    },
    {
        "city": "Maranguape",
        "state": "CE",
        "district": "Aldeoma",
        "street": "Rua João Bessa",
        "zipcode": "61948-060"
    },
    {
        "city": "Maranguape",
        "state": "CE",
        "district": "Aldeoma",
        "street": "Rua Jean Roberto Braqueais",
        "zipcode": "61948-070"
    },
    {
        "city": "Maranguape",
        "state": "CE",
        "district": "Santos Dumont",
        "street": "Rua Doutor Laerte Colares",
        "zipcode": "61948-580"
    },
    {
        "city": "Maranguape",
        "state": "CE",
        "district": "Santos Dumont",
        "street": "Rua B (Cj Planalto Paraíso)",
        "zipcode": "61948-640"
    },
    {
        "city": "Maranguape",
        "state": "CE",
        "district": "Santos Dumont",
        "street": "Rua Francisco Lopes de Sousa",
        "zipcode": "61948-700"
    },
    {
        "city": "Maranguape",
        "state": "CE",
        "district": "Urucará",
        "street": "Praça Urucará",
        "zipcode": "61948-820"
    },
    {
        "city": "Maranguape",
        "state": "CE",
        "district": "Novo Parque Iracema",
        "street": "Rua Manoel Bandeira Cruz",
        "zipcode": "61949-060"
    },
    {
        "city": "Maranguape",
        "state": "CE",
        "district": "Novo Maranguape II",
        "street": "Rua Marcos Antônio Santos",
        "zipcode": "61944-270"
    },
    {
        "city": "Maranguape",
        "state": "CE",
        "district": "Novo Maranguape II",
        "street": "Rua Belo Horizonte",
        "zipcode": "61944-360"
    },
    {
        "city": "Maranguape",
        "state": "CE",
        "district": "Cônego Raimundo Pinto",
        "street": "Beco do Educandário",
        "zipcode": "61945-065"
    },
    {
        "city": "Maranguape",
        "state": "CE",
        "district": "Cônego Raimundo Pinto",
        "street": "Rua Jaguaribe",
        "zipcode": "61945-110"
    },
    {
        "city": "Maranguape",
        "state": "CE",
        "district": "Lameirão",
        "street": "Rua Flor Maravilha",
        "zipcode": "61946-530"
    },
    {
        "city": "Maranguape",
        "state": "CE",
        "district": "Aldeoma",
        "street": "Rua Francisco Camilo",
        "zipcode": "61948-005"
    },
    {
        "city": "Maranguape",
        "state": "CE",
        "district": "Aldeoma",
        "street": "Rua José Batista",
        "zipcode": "61948-050"
    },
    {
        "city": "Maranguape",
        "state": "CE",
        "district": "Santos Dumont",
        "street": "Rua D (Cj Res Iracema)",
        "zipcode": "61948-480"
    },
    {
        "city": "Maranguape",
        "state": "CE",
        "district": "Santos Dumont",
        "street": "Rua Joaquim Carlos Fernandes",
        "zipcode": "61948-650"
    },
    {
        "city": "Maranguape",
        "state": "CE",
        "district": "Novo Parque Iracema",
        "street": "Rua Oséias Silva Braga",
        "zipcode": "61949-090"
    },
    {
        "city": "Maranguape",
        "state": "CE",
        "district": "Novo Parque Iracema",
        "street": "Rua José Pereira Filho",
        "zipcode": "61949-010"
    },
    {
        "city": "Maranguape",
        "state": "CE",
        "district": "Novo Parque Iracema",
        "street": "Rua Antônio Vieira dos Santos",
        "zipcode": "61949-070"
    },
    {
        "city": "Maranguape",
        "state": "CE",
        "district": "Parque Iracema",
        "street": "Rua Mariita Collares Garcia",
        "zipcode": "61948-210"
    },
    {
        "city": "Maranguape",
        "state": "CE",
        "district": "Parque Iracema",
        "street": "Vila Severino",
        "zipcode": "61948-285"
    },
    {
        "city": "Maranguape",
        "state": "CE",
        "district": "Parque Iracema",
        "street": "Rua João Mendes de Vasconcelos",
        "zipcode": "61948-300"
    },
    {
        "city": "Maranguape",
        "state": "CE",
        "district": "Parque Iracema",
        "street": "Rua José Amauri S. Oliveira",
        "zipcode": "61948-395"
    },
    {
        "city": "Maranguape",
        "state": "CE",
        "district": "Novo Parque Iracema",
        "street": "Rua Francisco Cavalcante",
        "zipcode": "61949-020"
    },
    {
        "city": "Maranguape",
        "state": "CE",
        "district": "Novo Parque Iracema",
        "street": "Rua Inácio Braga",
        "zipcode": "61949-080"
    },
    {
        "city": "Maranguape",
        "state": "CE",
        "district": "Novo Parque Iracema",
        "street": "Rua Francisco Carioca",
        "zipcode": "61949-160"
    },
    {
        "city": "Maranguape",
        "state": "CE",
        "district": "Outra Banda",
        "street": "Rua Maria Estrela",
        "zipcode": "61942-430"
    },
    {
        "city": "Maranguape",
        "state": "CE",
        "district": "Centro",
        "street": "Rua Benoni Rodrigues",
        "zipcode": "61940-055"
    },
    {
        "city": "Maranguape",
        "state": "CE",
        "district": "Pirapora",
        "street": "Estrada dos Mavignier",
        "zipcode": "61941-020"
    },
    {
        "city": "Maranguape",
        "state": "CE",
        "district": "Outra Banda",
        "street": "Rua Ana Nogueira da Silva",
        "zipcode": "61942-190"
    },
    {
        "city": "Maranguape",
        "state": "CE",
        "district": "Outra Banda",
        "street": "Rua das Samambaias",
        "zipcode": "61942-360"
    },
    {
        "city": "Maranguape",
        "state": "CE",
        "district": "Novo Maranguape II",
        "street": "Rua Francisco Gomes S. Filho",
        "zipcode": "61944-780"
    },
    {
        "city": "Maranguape",
        "state": "CE",
        "district": "Novo Maranguape II",
        "street": "Rua Geraldo Rufino de Sousa",
        "zipcode": "61944-840"
    },
    {
        "city": "Maranguape",
        "state": "CE",
        "district": "Novo Maranguape II",
        "street": "Rua Belém",
        "zipcode": "61944-460"
    },
    {
        "city": "Maranguape",
        "state": "CE",
        "district": "Novo Maranguape II",
        "street": "Rua Feliciano Vieira Rocha",
        "zipcode": "61944-830"
    },
    {
        "city": "Maranguape",
        "state": "CE",
        "district": "Cônego Raimundo Pinto",
        "street": "Rua João Pessoa",
        "zipcode": "61945-150"
    },
    {
        "city": "Maranguape",
        "state": "CE",
        "district": "Guabiraba",
        "street": "Rua Major Napoleão Lima",
        "zipcode": "61940-590"
    },
    {
        "city": "Maranguape",
        "state": "CE",
        "district": "Outra Banda",
        "street": "Rua Maria Bandeira Soares",
        "zipcode": "61942-040"
    },
    {
        "city": "Maranguape",
        "state": "CE",
        "district": "Outra Banda",
        "street": "Rua Maria de Freitas Leite",
        "zipcode": "61942-160"
    },
    {
        "city": "Maranguape",
        "state": "CE",
        "district": "Outra Banda",
        "street": "Rua Raimundo Paiva de Abreu",
        "zipcode": "61942-560"
    },
    {
        "city": "Maranguape",
        "state": "CE",
        "district": "Novo Maranguape I",
        "street": "Rua Manoel Barros da Silva",
        "zipcode": "61943-180"
    },
    {
        "city": "Maranguape",
        "state": "CE",
        "district": "Cônego Raimundo Pinto",
        "street": "Rua Maria Augusta",
        "zipcode": "61945-012"
    },
    {
        "city": "Maranguape",
        "state": "CE",
        "district": "Parque Santa Fé",
        "street": "Rua Vicente Alves dos Santos",
        "zipcode": "61940-410"
    },
    {
        "city": "Maranguape",
        "state": "CE",
        "district": "Preguiça",
        "street": "Travessa Chico Amador",
        "zipcode": "61941-165"
    },
    {
        "city": "Maranguape",
        "state": "CE",
        "district": "Novo Maranguape I",
        "street": "Via Arterial",
        "zipcode": "61943-115"
    },
    {
        "city": "Maranguape",
        "state": "CE",
        "district": "Pirapora",
        "street": "Rua Silva Cavalcante",
        "zipcode": "61941-002"
    },
    {
        "city": "Maranguape",
        "state": "CE",
        "district": "Novo Maranguape II",
        "street": "Rua Pedro Lucas",
        "zipcode": "61944-190"
    },
    {
        "city": "Maranguape",
        "state": "CE",
        "district": "Cônego Raimundo Pinto",
        "street": "Rua Sobral",
        "zipcode": "61945-170"
    },
    {
        "city": "Maranguape",
        "state": "CE",
        "district": "Parque Iracema",
        "street": "Rua Irmã Cândida Maria",
        "zipcode": "61948-230"
    },
    {
        "city": "Maranguape",
        "state": "CE",
        "district": "Santos Dumont",
        "street": "Travessa Professora Juvita Nunes",
        "zipcode": "61948-420"
    },
    {
        "city": "Maranguape",
        "state": "CE",
        "district": "Santos Dumont",
        "street": "Rua Neném Maia",
        "zipcode": "61948-550"
    },
    {
        "city": "Maranguape",
        "state": "CE",
        "district": "Santos Dumont",
        "street": "Rua Paulo Campos",
        "zipcode": "61948-660"
    },
    {
        "city": "Maranguape",
        "state": "CE",
        "district": "Novo Parque Iracema",
        "street": "Rua Manoel Duarte Mesquita",
        "zipcode": "61949-050"
    },
    {
        "city": "Maranguape",
        "state": "CE",
        "district": "Guabiraba",
        "street": "Rua Agostinho Fernandes",
        "zipcode": "61940-630"
    },
    {
        "city": "Maranguape",
        "state": "CE",
        "district": "Novo Maranguape I",
        "street": "Rua João Nogueira de Queiroz",
        "zipcode": "61943-220"
    },
    {
        "city": "Maranguape",
        "state": "CE",
        "district": "Santos Dumont",
        "street": "Avenida Doutor Stênio Gomes",
        "zipcode": "61948-690"
    },
    {
        "city": "Maranguape",
        "state": "CE",
        "district": "",
        "street": "Rua Central",
        "zipcode": "61955-990"
    },
    {
        "city": "Maranguape",
        "state": "CE",
        "district": "Novo Maranguape II",
        "street": "Rua Nonato Figueiredo",
        "zipcode": "61944-320"
    },
    {
        "city": "Maranguape",
        "state": "CE",
        "district": "Lameirão",
        "street": "Rua Rosa Amélia",
        "zipcode": "61946-550"
    },
    {
        "city": "Maranguape",
        "state": "CE",
        "district": "Parque Iracema",
        "street": "Rua Pedro Luiz Braga Lessa",
        "zipcode": "61948-250"
    },
    {
        "city": "Maranguape",
        "state": "CE",
        "district": "Novo Parque Iracema",
        "street": "Rua Professora Francisca Leila Alexandre",
        "zipcode": "61949-130"
    },
    {
        "city": "Maranguape",
        "state": "CE",
        "district": "Novo Parque Iracema",
        "street": "Rua Caetano Rodrigues",
        "zipcode": "61949-200"
    },
    {
        "city": "Maranguape",
        "state": "CE",
        "district": "Centro",
        "street": "Rua Chico Anísio",
        "zipcode": "61940-020"
    },
    {
        "city": "Maranguape",
        "state": "CE",
        "district": "Centro",
        "street": "Rua Treze de Maio",
        "zipcode": "61940-095"
    },
    {
        "city": "Maranguape",
        "state": "CE",
        "district": "Centro",
        "street": "Rua Coronel Afro Campos",
        "zipcode": "61940-115"
    },
    {
        "city": "Maranguape",
        "state": "CE",
        "district": "Centro",
        "street": "Praça Capistrano de Abreu",
        "zipcode": "61940-135"
    },
    {
        "city": "Maranguape",
        "state": "CE",
        "district": "Centro",
        "street": "Rua Major Napoleão Lima",
        "zipcode": "61940-180"
    },
    {
        "city": "Maranguape",
        "state": "CE",
        "district": "Parque Santa Fé",
        "street": "Rua Coronel Antônio Botelho de Sousa",
        "zipcode": "61940-310"
    },
    {
        "city": "Maranguape",
        "state": "CE",
        "district": "Guabiraba",
        "street": "Beco da Balbina",
        "zipcode": "61940-505"
    },
    {
        "city": "Maranguape",
        "state": "CE",
        "district": "Guabiraba",
        "street": "Rua Antônio Marques de Abreu",
        "zipcode": "61940-510"
    },
    {
        "city": "Maranguape",
        "state": "CE",
        "district": "Preguiça",
        "street": "Rua Chico Amador",
        "zipcode": "61941-160"
    },
    {
        "city": "Maranguape",
        "state": "CE",
        "district": "Outra Banda",
        "street": "Rua Amaro de Morais",
        "zipcode": "61942-020"
    },
    {
        "city": "Maranguape",
        "state": "CE",
        "district": "Outra Banda",
        "street": "Rua Francisco Paulino",
        "zipcode": "61942-240"
    },
    {
        "city": "Maranguape",
        "state": "CE",
        "district": "Outra Banda",
        "street": "Rua Encontro das Águas",
        "zipcode": "61942-370"
    },
    {
        "city": "Maranguape",
        "state": "CE",
        "district": "Outra Banda",
        "street": "Rua Alcides Moreira",
        "zipcode": "61942-556"
    },
    {
        "city": "Maranguape",
        "state": "CE",
        "district": "Novo Maranguape I",
        "street": "Rua Fernando Bessa",
        "zipcode": "61943-340"
    },
    {
        "city": "Maranguape",
        "state": "CE",
        "district": "Novo Maranguape I",
        "street": "Rua Isabel Mendes Vasconcelos",
        "zipcode": "61943-350"
    },
    {
        "city": "Maranguape",
        "state": "CE",
        "district": "Novo Maranguape I",
        "street": "Rua Francisco Anselmo",
        "zipcode": "61943-360"
    },
    {
        "city": "Maranguape",
        "state": "CE",
        "district": "Gavião",
        "street": "Rua Antônio Feliciano Moreira",
        "zipcode": "61940-760"
    },
    {
        "city": "Maranguape",
        "state": "CE",
        "district": "Outra Banda",
        "street": "Rua da Ecologia II",
        "zipcode": "61942-395"
    },
    {
        "city": "Maranguape",
        "state": "CE",
        "district": "Cônego Raimundo Pinto",
        "street": "Rua Acaraú",
        "zipcode": "61945-130"
    },
    {
        "city": "Maranguape",
        "state": "CE",
        "district": "Parque Santa Fé",
        "street": "Rua Tenente Mário Pereira",
        "zipcode": "61940-335"
    },
    {
        "city": "Maranguape",
        "state": "CE",
        "district": "Outra Banda",
        "street": "Rua José Mendes Vasconcelos",
        "zipcode": "61942-030"
    },
    {
        "city": "Maranguape",
        "state": "CE",
        "district": "Outra Banda",
        "street": "Rua Silvandra Melo",
        "zipcode": "61942-554"
    },
    {
        "city": "Maranguape",
        "state": "CE",
        "district": "Novo Maranguape I",
        "street": "Rua Tamira Keila",
        "zipcode": "61943-490"
    },
    {
        "city": "Maranguape",
        "state": "CE",
        "district": "Novo Maranguape II",
        "street": "Rua Osimo de Alencar Lima",
        "zipcode": "61944-235"
    },
    {
        "city": "Maranguape",
        "state": "CE",
        "district": "Novo Maranguape II",
        "street": "Rua São Jerônimo",
        "zipcode": "61944-620"
    },
    {
        "city": "Maranguape",
        "state": "CE",
        "district": "Novo Maranguape II",
        "street": "Rua Maria Alice Holanda",
        "zipcode": "61944-710"
    },
    {
        "city": "Maranguape",
        "state": "CE",
        "district": "Novo Maranguape II",
        "street": "Rua Moacir Pereira Queiroz",
        "zipcode": "61944-750"
    },
    {
        "city": "Maranguape",
        "state": "CE",
        "district": "Novo Maranguape II",
        "street": "Rua José do Pedro",
        "zipcode": "61944-790"
    },
    {
        "city": "Maranguape",
        "state": "CE",
        "district": "Novo Maranguape II",
        "street": "Rua Raimundo Inácio da Silva",
        "zipcode": "61944-810"
    },
    {
        "city": "Maranguape",
        "state": "CE",
        "district": "Preguiça",
        "street": "Rua Tenente Valdemar Pereira",
        "zipcode": "61941-140"
    },
    {
        "city": "Maranguape",
        "state": "CE",
        "district": "Parque São João",
        "street": "Rua Valfrido Machado de Abreu",
        "zipcode": "61946-005"
    },
    {
        "city": "Maranguape",
        "state": "CE",
        "district": "Tangueira",
        "street": "Vila São José",
        "zipcode": "61946-225"
    },
    {
        "city": "Maranguape",
        "state": "CE",
        "district": "Aldeoma",
        "street": "Travessa Francisco Coelho da Silva",
        "zipcode": "61948-110"
    },
    {
        "city": "Maranguape",
        "state": "CE",
        "district": "Novo Maranguape I",
        "street": "Rua Doutor Belo Mota",
        "zipcode": "61943-420"
    },
    {
        "city": "Maranguape",
        "state": "CE",
        "district": "Parque São João",
        "street": "Rua Raimundo Girão",
        "zipcode": "61946-020"
    },
    {
        "city": "Maranguape",
        "state": "CE",
        "district": "Parque São João",
        "street": "Rua Geremias Bezerra da Luz",
        "zipcode": "61946-170"
    },
    {
        "city": "Maranguape",
        "state": "CE",
        "district": "Parque São João",
        "street": "Rua Mariita Collares Garcia",
        "zipcode": "61946-190"
    },
    {
        "city": "Maranguape",
        "state": "CE",
        "district": "Lameirão",
        "street": "Rua Flor Primavera",
        "zipcode": "61946-410"
    },
    {
        "city": "Maranguape",
        "state": "CE",
        "district": "Lameirão",
        "street": "Rua Flor Gardênia",
        "zipcode": "61946-450"
    },
    {
        "city": "Maranguape",
        "state": "CE",
        "district": "Lameirão",
        "street": "Rua Flor Violeta",
        "zipcode": "61946-520"
    },
    {
        "city": "Maranguape",
        "state": "CE",
        "district": "Santos Dumont",
        "street": "Rua Guiomar Câmara",
        "zipcode": "61948-540"
    },
    {
        "city": "Maranguape",
        "state": "CE",
        "district": "Coité",
        "street": "Rua Manoel Queiroz de Oliveira",
        "zipcode": "61946-340"
    },
    {
        "city": "Maranguape",
        "state": "CE",
        "district": "Aldeoma",
        "street": "Rua Cônego Heitor Vieira Cavalcante",
        "zipcode": "61948-080"
    },
    {
        "city": "Maranguape",
        "state": "CE",
        "district": "Parque Iracema",
        "street": "Rua Antônio Gomes Bessa",
        "zipcode": "61948-220"
    },
    {
        "city": "Maranguape",
        "state": "CE",
        "district": "Santos Dumont",
        "street": "Rua B (Cj Res Iracema)",
        "zipcode": "61948-460"
    },
    {
        "city": "Maranguape",
        "state": "CE",
        "district": "Lameirão",
        "street": "Rua Flor Sorriso de Maria",
        "zipcode": "61946-510"
    },
    {
        "city": "Maranguape",
        "state": "CE",
        "district": "Parque Iracema",
        "street": "Rua José Alexandre dos Santos",
        "zipcode": "61948-310"
    },
    {
        "city": "Maranguape",
        "state": "CE",
        "district": "Parque Iracema",
        "street": "Rua José Juarez",
        "zipcode": "61948-380"
    },
    {
        "city": "Maranguape",
        "state": "CE",
        "district": "Centro",
        "street": "Rua Rosalba Bastos Rodrigues",
        "zipcode": "61940-060"
    },
    {
        "city": "Maranguape",
        "state": "CE",
        "district": "Novo Maranguape II",
        "street": "Rua Francisco Holanda Oliveira",
        "zipcode": "61944-110"
    },
    {
        "city": "Maranguape",
        "state": "CE",
        "district": "Novo Maranguape II",
        "street": "Rua Francisco Silva Oliveira",
        "zipcode": "61944-210"
    },
    {
        "city": "Maranguape",
        "state": "CE",
        "district": "Novo Maranguape II",
        "street": "Rua Francisca Sousa",
        "zipcode": "61944-520"
    },
    {
        "city": "Maranguape",
        "state": "CE",
        "district": "Novo Maranguape II",
        "street": "Rua Francisco José Sousa",
        "zipcode": "61944-590"
    },
    {
        "city": "Maranguape",
        "state": "CE",
        "district": "Novo Maranguape II",
        "street": "Rua Capitão Holdermes Vieira",
        "zipcode": "61944-610"
    },
    {
        "city": "Maranguape",
        "state": "CE",
        "district": "Gavião",
        "street": "Rua Benedito Prata",
        "zipcode": "61940-750"
    },
    {
        "city": "Maranguape",
        "state": "CE",
        "district": "Outra Banda",
        "street": "Rua Capitão Jeová Collares",
        "zipcode": "61942-460"
    },
    {
        "city": "Maranguape",
        "state": "CE",
        "district": "Novo Maranguape I",
        "street": "Rua da Praça",
        "zipcode": "61943-015"
    },
    {
        "city": "Maranguape",
        "state": "CE",
        "district": "Parque Santa Fé",
        "street": "Rua Juscelino Kubitschek de Oliveira",
        "zipcode": "61940-390"
    },
    {
        "city": "Maranguape",
        "state": "CE",
        "district": "Outra Banda",
        "street": "Rua Lauro Travassos Pimentel",
        "zipcode": "61942-200"
    },
    {
        "city": "Maranguape",
        "state": "CE",
        "district": "Outra Banda",
        "street": "Rua Rogério Lobo",
        "zipcode": "61942-300"
    },
    {
        "city": "Maranguape",
        "state": "CE",
        "district": "Novo Maranguape I",
        "street": "Rua Nonato Cacau",
        "zipcode": "61943-370"
    },
    {
        "city": "Maranguape",
        "state": "CE",
        "district": "Novo Maranguape II",
        "street": "Rua Luís Carlos Barros",
        "zipcode": "61944-005"
    },
    {
        "city": "Maranguape",
        "state": "CE",
        "district": "Novo Maranguape II",
        "street": "Rua Paraná",
        "zipcode": "61944-350"
    },
    {
        "city": "Maranguape",
        "state": "CE",
        "district": "Novo Maranguape II",
        "street": "Rua José Maria Almeida",
        "zipcode": "61944-440"
    },
    {
        "city": "Maranguape",
        "state": "CE",
        "district": "Novo Maranguape II",
        "street": "Rua Maria Anita Silva",
        "zipcode": "61944-670"
    },
    {
        "city": "Maranguape",
        "state": "CE",
        "district": "Guabiraba",
        "street": "Rua Walter Lopes",
        "zipcode": "61940-570"
    },
    {
        "city": "Maranguape",
        "state": "CE",
        "district": "Novo Maranguape I",
        "street": "Rua Luís Humberto da Costa",
        "zipcode": "61943-330"
    },
    {
        "city": "Maranguape",
        "state": "CE",
        "district": "Parque São João",
        "street": "Rua Professor Henrique Chaves",
        "zipcode": "61946-130"
    },
    {
        "city": "Maranguape",
        "state": "CE",
        "district": "Parque São João",
        "street": "Rua Luciano Mota",
        "zipcode": "61946-180"
    },
    {
        "city": "Maranguape",
        "state": "CE",
        "district": "Tangueira",
        "street": "Rua Professor Henrique Chaves",
        "zipcode": "61946-220"
    },
    {
        "city": "Maranguape",
        "state": "CE",
        "district": "Novo Parque Iracema",
        "street": "Rua João Xavier Matos",
        "zipcode": "61949-240"
    },
    {
        "city": "Maranguape",
        "state": "CE",
        "district": "",
        "street": "Avenida Tabatinga",
        "zipcode": "61950-990"
    },
    {
        "city": "Maranguape",
        "state": "CE",
        "district": "Novo Maranguape I",
        "street": "Rua Ieldo Rolim",
        "zipcode": "61943-440"
    },
    {
        "city": "Maranguape",
        "state": "CE",
        "district": "Novo Maranguape I",
        "street": "Rua Otaviano Seresteiro",
        "zipcode": "61943-200"
    },
    {
        "city": "Maranguape",
        "state": "CE",
        "district": "Novo Maranguape I",
        "street": "Rua Monsenhor Assis Portela",
        "zipcode": "61943-270"
    },
    {
        "city": "Maranguape",
        "state": "CE",
        "district": "Novo Maranguape I",
        "street": "Rua Oliveira Cavalcante",
        "zipcode": "61943-300"
    },
    {
        "city": "Maranguape",
        "state": "CE",
        "district": "Novo Maranguape I",
        "street": "Rua Moisés Gonssos",
        "zipcode": "61943-090"
    },
    {
        "city": "Maranguape",
        "state": "CE",
        "district": "Gavião",
        "street": "Vila São José",
        "zipcode": "61940-711"
    },
    {
        "city": "Maranguape",
        "state": "CE",
        "district": "Novo Maranguape I",
        "street": "Rua Sidney Oliveira Santos",
        "zipcode": "61943-310"
    },
    {
        "city": "Maranguape",
        "state": "CE",
        "district": "Novo Maranguape II",
        "street": "Rua José Lito",
        "zipcode": "61944-580"
    },
    {
        "city": "Maranguape",
        "state": "CE",
        "district": "Santos Dumont",
        "street": "Rua H (Cj Planalto Paraíso)",
        "zipcode": "61948-630"
    },
    {
        "city": "Maranguape",
        "state": "CE",
        "district": "Cônego Raimundo Pinto",
        "street": "Rua Bela Cruz",
        "zipcode": "61945-140"
    },
    {
        "city": "Maranguape",
        "state": "CE",
        "district": "Novo Maranguape I",
        "street": "Rua José Ferreira Cavalcante",
        "zipcode": "61943-130"
    },
    {
        "city": "Maranguape",
        "state": "CE",
        "district": "Novo Maranguape II",
        "street": "Rua Maria Mendes",
        "zipcode": "61944-530"
    },
    {
        "city": "Maranguape",
        "state": "CE",
        "district": "Guabiraba",
        "street": "Rua Treze de Maio",
        "zipcode": "61940-500"
    },
    {
        "city": "Maranguape",
        "state": "CE",
        "district": "Outra Banda",
        "street": "Rua José Bonifácio Câmara",
        "zipcode": "61942-340"
    },
    {
        "city": "Maranguape",
        "state": "CE",
        "district": "Outra Banda",
        "street": "Rua José de Paula Cavalcante",
        "zipcode": "61942-550"
    },
    {
        "city": "Maranguape",
        "state": "CE",
        "district": "Santos Dumont",
        "street": "Rua Vinte de Janeiro",
        "zipcode": "61948-600"
    },
    {
        "city": "Maranguape",
        "state": "CE",
        "district": "Outra Banda",
        "street": "Rua Vereador Pedro Gilson de Oliveira Paiva",
        "zipcode": "61942-562"
    },
    {
        "city": "Maranguape",
        "state": "CE",
        "district": "Santos Dumont",
        "street": "Rua A (Cj Res Iracema)",
        "zipcode": "61948-450"
    },
    {
        "city": "Maranguape",
        "state": "CE",
        "district": "Novo Parque Iracema",
        "street": "Rua Alice Maria Carioca",
        "zipcode": "61949-250"
    },
    {
        "city": "Maranguape",
        "state": "CE",
        "district": "Novo Maranguape II",
        "street": "Rua Ceará",
        "zipcode": "61944-340"
    },
    {
        "city": "Maranguape",
        "state": "CE",
        "district": "Outra Banda",
        "street": "Avenida Comandante Aviador Childerico Motta",
        "zipcode": "61942-173"
    },
    {
        "city": "Maranguape",
        "state": "CE",
        "district": "Outra Banda",
        "street": "Avenida Marta Maria Carvalho Nojoza",
        "zipcode": "61942-355"
    },
    {
        "city": "Maranguape",
        "state": "CE",
        "district": "Novo Maranguape II",
        "street": "Rua Francisco Viana Lopes",
        "zipcode": "61944-843"
    },
    {
        "city": "Maranguape",
        "state": "CE",
        "district": "Novo Maranguape II",
        "street": "Rua Maria Helena Costa Nogueira",
        "zipcode": "61944-846"
    },
    {
        "city": "Maranguape",
        "state": "CE",
        "district": "Novo Maranguape II",
        "street": "Rua Luís Torquato Cordeiro",
        "zipcode": "61944-852"
    },
    {
        "city": "Maranguape",
        "state": "CE",
        "district": "Novo Maranguape II",
        "street": "Rua Luciola Carvalho Lourenço",
        "zipcode": "61944-855"
    },
    {
        "city": "Maranguape",
        "state": "CE",
        "district": "Urucará",
        "street": "Avenida Comandante Aviador Childerico Motta",
        "zipcode": "61948-815"
    },
    {
        "city": "Maranguape",
        "state": "CE",
        "district": "Área Rural de Maranguape",
        "street": "Área Rural",
        "zipcode": "61949-899"
    },
    {
        "city": "Maranguape",
        "state": "CE",
        "district": "Outra Banda",
        "street": "Avenida Comandante Aviador Childerico Motta",
        "zipcode": "61942-440"
    },
    {
        "city": "Maranguape",
        "state": "CE",
        "district": "Parque São João",
        "street": "Avenida Comandante Aviador Childerico Motta",
        "zipcode": "61946-105"
    },
    {
        "city": "Maranguape",
        "state": "CE",
        "district": "Tangueira",
        "street": "Avenida Comandante Aviador Childerico Motta",
        "zipcode": "61946-210"
    },
    {
        "city": "Maranguape",
        "state": "CE",
        "district": "Tangueira",
        "street": "Avenida Comandante Aviador Childerico Motta",
        "zipcode": "61946-215"
    },
    {
        "city": "Maranguape",
        "state": "CE",
        "district": "Coité",
        "street": "Avenida Comandante Aviador Childerico Motta",
        "zipcode": "61946-345"
    },
    {
        "city": "Maranguape",
        "state": "CE",
        "district": "Aldeoma",
        "street": "Rua Luiza de Marilac",
        "zipcode": "61948-100"
    },
    {
        "city": "Maranguape",
        "state": "CE",
        "district": "Centro",
        "street": "Rua Zelito Félix",
        "zipcode": "61940-117"
    },
    {
        "city": "Maranguape",
        "state": "CE",
        "district": "Centro",
        "street": "Rua Cleide Correia Mota",
        "zipcode": "61940-035"
    },
    {
        "city": "Maranguape",
        "state": "CE",
        "district": "Parque Santa Fé",
        "street": "Rua C Lot Jardim Taíza",
        "zipcode": "61940-332"
    },
    {
        "city": "Maranguape",
        "state": "CE",
        "district": "Gavião",
        "street": "Estrada Gavião",
        "zipcode": "61940-780"
    },
    {
        "city": "Maranguape",
        "state": "CE",
        "district": "Centro",
        "street": "Rua Coronel Antônio Botelho de Sousa",
        "zipcode": "61940-005"
    },
    {
        "city": "Maranguape",
        "state": "CE",
        "district": "Centro",
        "street": "Travessa Lourival Mariano Ribeiro",
        "zipcode": "61940-008"
    },
    {
        "city": "Maranguape",
        "state": "CE",
        "district": "Centro",
        "street": "Rua José Jackson de Oliveira e Silva",
        "zipcode": "61940-012"
    },
    {
        "city": "Maranguape",
        "state": "CE",
        "district": "Centro",
        "street": "Avenida Comandante Aviador Childerico Motta",
        "zipcode": "61940-027"
    },
    {
        "city": "Maranguape",
        "state": "CE",
        "district": "Centro",
        "street": "Rua Professor Francisco de Oliveira Conde",
        "zipcode": "61940-085"
    },
    {
        "city": "Maranguape",
        "state": "CE",
        "district": "Centro",
        "street": "Rua Antônio Marques de Abreu",
        "zipcode": "61940-105"
    },
    {
        "city": "Maranguape",
        "state": "CE",
        "district": "Centro",
        "street": "Rua Doutor João Bezerra",
        "zipcode": "61940-125"
    },
    {
        "city": "Maranguape",
        "state": "CE",
        "district": "Centro",
        "street": "Rua Mundica Paula",
        "zipcode": "61940-145"
    },
    {
        "city": "Maranguape",
        "state": "CE",
        "district": "Centro",
        "street": "Rua Raimundo Herbster",
        "zipcode": "61940-150"
    },
    {
        "city": "Maranguape",
        "state": "CE",
        "district": "Centro",
        "street": "Rua Coronel Joaquim Sombra",
        "zipcode": "61940-160"
    },
    {
        "city": "Maranguape",
        "state": "CE",
        "district": "Centro",
        "street": "Rua Capitão Manoel Bandeira",
        "zipcode": "61940-170"
    },
    {
        "city": "Maranguape",
        "state": "CE",
        "district": "Parque Santa Fé",
        "street": "Avenida Doutor Stênio Gomes",
        "zipcode": "61940-330"
    },
    {
        "city": "Maranguape",
        "state": "CE",
        "district": "Outra Banda",
        "street": "Avenida Doutor Argeu Gurgel Braga Herbster",
        "zipcode": "61942-005"
    },
    {
        "city": "Maranguape",
        "state": "CE",
        "district": "Outra Banda",
        "street": "Rua Maria Cecília dos Santos",
        "zipcode": "61942-110"
    },
    {
        "city": "Maranguape",
        "state": "CE",
        "district": "Parque Santa Fé",
        "street": "Rua Agostinho Fernandes",
        "zipcode": "61940-360"
    },
    {
        "city": "Maranguape",
        "state": "CE",
        "district": "Guabiraba",
        "street": "Rua Benedito Prata",
        "zipcode": "61940-560"
    },
    {
        "city": "Maranguape",
        "state": "CE",
        "district": "Gavião",
        "street": "Estrada Cascatinha Clube de Serra",
        "zipcode": "61940-775"
    },
    {
        "city": "Maranguape",
        "state": "CE",
        "district": "Pirapora",
        "street": "Estrada Pirapora",
        "zipcode": "61941-010"
    },
    {
        "city": "Maranguape",
        "state": "CE",
        "district": "Preguiça",
        "street": "Rua Francisco Paulo Dias",
        "zipcode": "61941-120"
    },
    {
        "city": "Maranguape",
        "state": "CE",
        "district": "Outra Banda",
        "street": "Rua Eurendina Mendes Titara",
        "zipcode": "61942-060"
    },
    {
        "city": "Maranguape",
        "state": "CE",
        "district": "Outra Banda",
        "street": "Rua Antônio Bessa",
        "zipcode": "61942-070"
    },
    {
        "city": "Maranguape",
        "state": "CE",
        "district": "Outra Banda",
        "street": "Rua Francisco Lopes Amorim",
        "zipcode": "61942-210"
    },
    {
        "city": "Maranguape",
        "state": "CE",
        "district": "Outra Banda",
        "street": "Rua Irmã Cristina Maria",
        "zipcode": "61942-250"
    },
    {
        "city": "Maranguape",
        "state": "CE",
        "district": "Outra Banda",
        "street": "Rua Doutor Pedro Matos",
        "zipcode": "61942-270"
    },
    {
        "city": "Maranguape",
        "state": "CE",
        "district": "Parque Santa Fé",
        "street": "Rua José Fernandes Vieira",
        "zipcode": "61940-320"
    },
    {
        "city": "Maranguape",
        "state": "CE",
        "district": "Parque Santa Fé",
        "street": "Rua Maria Gonzaga das Neves",
        "zipcode": "61940-340"
    },
    {
        "city": "Maranguape",
        "state": "CE",
        "district": "Preguiça",
        "street": "Rua Sinésio Pontes Tavares",
        "zipcode": "61941-180"
    },
    {
        "city": "Maranguape",
        "state": "CE",
        "district": "Outra Banda",
        "street": "Rua Tenente Valdemar Pereira",
        "zipcode": "61942-130"
    },
    {
        "city": "Maranguape",
        "state": "CE",
        "district": "Outra Banda",
        "street": "Rua Pedro Silva",
        "zipcode": "61942-170"
    },
    {
        "city": "Maranguape",
        "state": "CE",
        "district": "Parque Santa Fé",
        "street": "Rua Valter Pimenta Lira",
        "zipcode": "61940-370"
    },
    {
        "city": "Maranguape",
        "state": "CE",
        "district": "Parque Santa Fé",
        "street": "Travessa Valter Pimenta Lira",
        "zipcode": "61940-373"
    },
    {
        "city": "Maranguape",
        "state": "CE",
        "district": "Gavião",
        "street": "Vila do Cajueiro",
        "zipcode": "61940-721"
    },
    {
        "city": "Maranguape",
        "state": "CE",
        "district": "Pirapora",
        "street": "Vila dos Wangles",
        "zipcode": "61941-012"
    },
    {
        "city": "Maranguape",
        "state": "CE",
        "district": "Novo Maranguape II",
        "street": "Rua José Bandeira",
        "zipcode": "61944-820"
    },
    {
        "city": "Maranguape",
        "state": "CE",
        "district": "Guabiraba",
        "street": "Rua Zequinha Cirino",
        "zipcode": "61940-600"
    },
    {
        "city": "Maranguape",
        "state": "CE",
        "district": "Centro",
        "street": "Avenida Doutor Stênio Gomes",
        "zipcode": "61940-070"
    },
    {
        "city": "Maranguape",
        "state": "CE",
        "district": "Outra Banda",
        "street": "Rua Abreu Costa",
        "zipcode": "61942-280"
    },
    {
        "city": "Maranguape",
        "state": "CE",
        "district": "Outra Banda",
        "street": "Rua da Ecologia I",
        "zipcode": "61942-385"
    },
    {
        "city": "Maranguape",
        "state": "CE",
        "district": "Outra Banda",
        "street": "Rua Francisco Anísio de Oliveira Paula",
        "zipcode": "61942-470"
    },
    {
        "city": "Maranguape",
        "state": "CE",
        "district": "Novo Maranguape I",
        "street": "Rua Francisco Braga Filho",
        "zipcode": "61943-005"
    },
    {
        "city": "Maranguape",
        "state": "CE",
        "district": "Novo Maranguape I",
        "street": "Rua Farmacêutico Firmo Jacinto Sampaio",
        "zipcode": "61943-050"
    },
    {
        "city": "Maranguape",
        "state": "CE",
        "district": "Novo Maranguape I",
        "street": "Praça da Paz",
        "zipcode": "61943-070"
    },
    {
        "city": "Maranguape",
        "state": "CE",
        "district": "Novo Maranguape I",
        "street": "Rua Chico Pacheco",
        "zipcode": "61943-260"
    },
    {
        "city": "Maranguape",
        "state": "CE",
        "district": "Novo Maranguape I",
        "street": "Rua Joaninha Vieira",
        "zipcode": "61943-290"
    },
    {
        "city": "Maranguape",
        "state": "CE",
        "district": "Novo Maranguape I",
        "street": "Rua João Batista da Silva",
        "zipcode": "61943-320"
    },
    {
        "city": "Maranguape",
        "state": "CE",
        "district": "Novo Maranguape I",
        "street": "Rua Irmã Vicência",
        "zipcode": "61943-390"
    },
    {
        "city": "Maranguape",
        "state": "CE",
        "district": "Novo Maranguape I",
        "street": "Rua Gonçalo Cândido",
        "zipcode": "61943-480"
    },
    {
        "city": "Maranguape",
        "state": "CE",
        "district": "Novo Maranguape II",
        "street": "Rua Gonçalo Cândido",
        "zipcode": "61944-065"
    },
    {
        "city": "Maranguape",
        "state": "CE",
        "district": "Novo Maranguape II",
        "street": "Rua Benedito Assunção",
        "zipcode": "61944-120"
    },
    {
        "city": "Maranguape",
        "state": "CE",
        "district": "Novo Maranguape II",
        "street": "Rua Francisca Gurgel Vasconcelos",
        "zipcode": "61944-140"
    },
    {
        "city": "Maranguape",
        "state": "CE",
        "district": "Novo Maranguape II",
        "street": "Rua Armênia Barbosa",
        "zipcode": "61944-180"
    },
    {
        "city": "Maranguape",
        "state": "CE",
        "district": "Novo Maranguape II",
        "street": "Rua Cândido Miguel Vitorino",
        "zipcode": "61944-300"
    },
    {
        "city": "Maranguape",
        "state": "CE",
        "district": "Novo Maranguape II",
        "street": "Rua João Damasceno Ramos",
        "zipcode": "61944-410"
    },
    {
        "city": "Maranguape",
        "state": "CE",
        "district": "Novo Maranguape II",
        "street": "Rua João Paula Costa",
        "zipcode": "61944-650"
    },
    {
        "city": "Maranguape",
        "state": "CE",
        "district": "Novo Maranguape II",
        "street": "Rua Eduardo Monteiro e Silva",
        "zipcode": "61944-660"
    },
    {
        "city": "Maranguape",
        "state": "CE",
        "district": "Novo Maranguape II",
        "street": "Praça da Fé",
        "zipcode": "61944-730"
    },
    {
        "city": "Maranguape",
        "state": "CE",
        "district": "Novo Maranguape II",
        "street": "Rua Cabo Nogueira",
        "zipcode": "61944-800"
    },
    {
        "city": "Maranguape",
        "state": "CE",
        "district": "Parque Santa Fé",
        "street": "Rua João Rodrigues Martins",
        "zipcode": "61940-420"
    },
    {
        "city": "Maranguape",
        "state": "CE",
        "district": "Gavião",
        "street": "Beco do Burão",
        "zipcode": "61940-730"
    },
    {
        "city": "Maranguape",
        "state": "CE",
        "district": "Outra Banda",
        "street": "Rua Lírio Verde",
        "zipcode": "61942-320"
    },
    {
        "city": "Maranguape",
        "state": "CE",
        "district": "Outra Banda",
        "street": "Rua José Teixeira Leite",
        "zipcode": "61942-510"
    },
    {
        "city": "Maranguape",
        "state": "CE",
        "district": "Outra Banda",
        "street": "Rua José Nivardo de Amorim",
        "zipcode": "61942-558"
    },
    {
        "city": "Maranguape",
        "state": "CE",
        "district": "Novo Maranguape I",
        "street": "Rua Paulo Barbosa",
        "zipcode": "61943-040"
    },
    {
        "city": "Maranguape",
        "state": "CE",
        "district": "Novo Maranguape I",
        "street": "Rua Manuelito Travassos",
        "zipcode": "61943-100"
    },
    {
        "city": "Maranguape",
        "state": "CE",
        "district": "Novo Maranguape I",
        "street": "Rua Taveirinha",
        "zipcode": "61943-210"
    },
    {
        "city": "Maranguape",
        "state": "CE",
        "district": "Novo Maranguape I",
        "street": "Rua Raimundo Bessa",
        "zipcode": "61943-450"
    },
    {
        "city": "Maranguape",
        "state": "CE",
        "district": "Novo Maranguape II",
        "street": "Rua Lúcia Helena Batista",
        "zipcode": "61944-030"
    },
    {
        "city": "Maranguape",
        "state": "CE",
        "district": "Novo Maranguape II",
        "street": "Rua Raimundo Batista Silva",
        "zipcode": "61944-040"
    },
    {
        "city": "Maranguape",
        "state": "CE",
        "district": "Novo Maranguape II",
        "street": "Rua Nonato Tibúrcio",
        "zipcode": "61944-245"
    },
    {
        "city": "Maranguape",
        "state": "CE",
        "district": "Novo Maranguape II",
        "street": "Rua Luís Tibúrcio",
        "zipcode": "61944-400"
    },
    {
        "city": "Maranguape",
        "state": "CE",
        "district": "Novo Maranguape II",
        "street": "Rua José Arimar Nunes",
        "zipcode": "61944-510"
    },
    {
        "city": "Maranguape",
        "state": "CE",
        "district": "Novo Maranguape II",
        "street": "Rua Manoel Oliveira Lima",
        "zipcode": "61944-560"
    },
    {
        "city": "Maranguape",
        "state": "CE",
        "district": "Novo Maranguape II",
        "street": "Rua José Severino",
        "zipcode": "61944-700"
    },
    {
        "city": "Maranguape",
        "state": "CE",
        "district": "Novo Maranguape II",
        "street": "Rua Novo Sol",
        "zipcode": "61944-815"
    },
    {
        "city": "Maranguape",
        "state": "CE",
        "district": "Novo Maranguape II",
        "street": "Rua Miguel Alves Nojosa",
        "zipcode": "61944-849"
    },
    {
        "city": "Maranguape",
        "state": "CE",
        "district": "Cônego Raimundo Pinto",
        "street": "Rua Senador Almir Pinto",
        "zipcode": "61945-010"
    },
    {
        "city": "Maranguape",
        "state": "CE",
        "district": "Gavião",
        "street": "Rua Santa Rita",
        "zipcode": "61940-710"
    },
    {
        "city": "Maranguape",
        "state": "CE",
        "district": "Novo Maranguape II",
        "street": "Rua Vera Cláudia",
        "zipcode": "61944-630"
    },
    {
        "city": "Maranguape",
        "state": "CE",
        "district": "Novo Maranguape II",
        "street": "Rua Zeca Virgílio",
        "zipcode": "61944-770"
    },
    {
        "city": "Maranguape",
        "state": "CE",
        "district": "Novo Maranguape II",
        "street": "Rua Raimundo Pinto",
        "zipcode": "61944-280"
    },
    {
        "city": "Maranguape",
        "state": "CE",
        "district": "Novo Maranguape II",
        "street": "Rua Joaquim Saturnino",
        "zipcode": "61944-310"
    },
    {
        "city": "Maranguape",
        "state": "CE",
        "district": "Novo Maranguape II",
        "street": "Rua Pedro Mendes Vasconcelos",
        "zipcode": "61944-450"
    },
    {
        "city": "Maranguape",
        "state": "CE",
        "district": "Cônego Raimundo Pinto",
        "street": "Rua José Xavier",
        "zipcode": "61945-020"
    },
    {
        "city": "Maranguape",
        "state": "CE",
        "district": "Cônego Raimundo Pinto",
        "street": "Rua Teresina",
        "zipcode": "61945-080"
    },
    {
        "city": "Maranguape",
        "state": "CE",
        "district": "Cônego Raimundo Pinto",
        "street": "Rua São Luiz",
        "zipcode": "61945-165"
    },
    {
        "city": "Maranguape",
        "state": "CE",
        "district": "Cônego Raimundo Pinto",
        "street": "Rua Belém",
        "zipcode": "61945-180"
    },
    {
        "city": "Maranguape",
        "state": "CE",
        "district": "Parque São João",
        "street": "Rua Manoel Paz de Oliveira",
        "zipcode": "61946-030"
    },
    {
        "city": "Maranguape",
        "state": "CE",
        "district": "Parque São João",
        "street": "Rua Jaime de Abreu",
        "zipcode": "61946-070"
    },
    {
        "city": "Maranguape",
        "state": "CE",
        "district": "Parque São João",
        "street": "Rua Demétrio Ferreira de Oliveira",
        "zipcode": "61946-075"
    },
    {
        "city": "Maranguape",
        "state": "CE",
        "district": "Parque São João",
        "street": "Rua do Peixe",
        "zipcode": "61946-080"
    },
    {
        "city": "Maranguape",
        "state": "CE",
        "district": "Parque São João",
        "street": "Rua Raimundo Bonifácio da Silva",
        "zipcode": "61946-115"
    },
    {
        "city": "Maranguape",
        "state": "CE",
        "district": "Parque São João",
        "street": "Rua Antônio Alves Cavalcante",
        "zipcode": "61946-150"
    },
    {
        "city": "Maranguape",
        "state": "CE",
        "district": "Tangueira",
        "street": "Rua Idelfonso Dias",
        "zipcode": "61946-200"
    },
    {
        "city": "Maranguape",
        "state": "CE",
        "district": "Lameirão",
        "street": "Rua Flor do Lírio",
        "zipcode": "61946-420"
    },
    {
        "city": "Maranguape",
        "state": "CE",
        "district": "Lameirão",
        "street": "Rua Flor Saudade",
        "zipcode": "61946-430"
    },
    {
        "city": "Maranguape",
        "state": "CE",
        "district": "Lameirão",
        "street": "Rua Flor da Orquídea",
        "zipcode": "61946-470"
    },
    {
        "city": "Maranguape",
        "state": "CE",
        "district": "Lameirão",
        "street": "Rua Flor Jerusalém",
        "zipcode": "61946-500"
    },
    {
        "city": "Maranguape",
        "state": "CE",
        "district": "Lameirão",
        "street": "Rua do Açude",
        "zipcode": "61946-570"
    },
    {
        "city": "Maranguape",
        "state": "CE",
        "district": "Lameirão",
        "street": "Estrada da Ypioca",
        "zipcode": "61946-600"
    },
    {
        "city": "Maranguape",
        "state": "CE",
        "district": "Aldeoma",
        "street": "Rua Mariita Collares Garcia",
        "zipcode": "61948-020"
    },
    {
        "city": "Maranguape",
        "state": "CE",
        "district": "Aldeoma",
        "street": "Rua Professora Áurea Pontes Vieira",
        "zipcode": "61948-030"
    },
    {
        "city": "Maranguape",
        "state": "CE",
        "district": "Aldeoma",
        "street": "Rua José Mota",
        "zipcode": "61948-090"
    },
    {
        "city": "Maranguape",
        "state": "CE",
        "district": "Santos Dumont",
        "street": "Rua José Afro Campos",
        "zipcode": "61948-430"
    },
    {
        "city": "Maranguape",
        "state": "CE",
        "district": "Santos Dumont",
        "street": "Rua Gervásio Colares",
        "zipcode": "61948-530"
    },
    {
        "city": "Maranguape",
        "state": "CE",
        "district": "Santos Dumont",
        "street": "Rua Oito de Setembro",
        "zipcode": "61948-590"
    },
    {
        "city": "Maranguape",
        "state": "CE",
        "district": "Santos Dumont",
        "street": "Rua José de Oliveira",
        "zipcode": "61948-620"
    },
    {
        "city": "Maranguape",
        "state": "CE",
        "district": "Santos Dumont",
        "street": "Rua Maria Socorro A. Menezes",
        "zipcode": "61948-625"
    },
    {
        "city": "Maranguape",
        "state": "CE",
        "district": "Santos Dumont",
        "street": "Rua Francisco Lemos Barbosa",
        "zipcode": "61948-680"
    },
    {
        "city": "Maranguape",
        "state": "CE",
        "district": "Santos Dumont",
        "street": "Rua João Ferreira Serpa",
        "zipcode": "61948-720"
    },
    {
        "city": "Maranguape",
        "state": "CE",
        "district": "Urucará",
        "street": "Rua Alberto Lopes",
        "zipcode": "61948-810"
    },
    {
        "city": "Maranguape",
        "state": "CE",
        "district": "Parque Iracema",
        "street": "Rua Afonso Cordeiro",
        "zipcode": "61948-240"
    },
    {
        "city": "Maranguape",
        "state": "CE",
        "district": "Parque Iracema",
        "street": "Rua Sebastião de Abreu",
        "zipcode": "61948-290"
    },
    {
        "city": "Maranguape",
        "state": "CE",
        "district": "Parque Iracema",
        "street": "Rua São José",
        "zipcode": "61948-360"
    },
    {
        "city": "Maranguape",
        "state": "CE",
        "district": "Parque Iracema",
        "street": "Rua João Ricardo Medeiros",
        "zipcode": "61948-365"
    },
    {
        "city": "Maranguape",
        "state": "CE",
        "district": "Santos Dumont",
        "street": "Rua C (Cj Res Iracema)",
        "zipcode": "61948-470"
    },
    {
        "city": "Maranguape",
        "state": "CE",
        "district": "Santos Dumont",
        "street": "Rua F (Cj Res Iracema)",
        "zipcode": "61948-500"
    },
    {
        "city": "Maranguape",
        "state": "CE",
        "district": "Parque São João",
        "street": "Avenida Comandante Aviador Childerico Motta",
        "zipcode": "61946-100"
    },
    {
        "city": "Maranguape",
        "state": "CE",
        "district": "Parque São João",
        "street": "Avenida Maria Efigênia Campos Teles",
        "zipcode": "61946-120"
    },
    {
        "city": "Maranguape",
        "state": "CE",
        "district": "Coité",
        "street": "Avenida Comandante Aviador Childerico Motta",
        "zipcode": "61946-347"
    },
    {
        "city": "Maranguape",
        "state": "CE",
        "district": "Outra Banda",
        "street": "Rua Humtemberg Melo",
        "zipcode": "61942-552"
    },
    {
        "city": "Maranguape",
        "state": "CE",
        "district": "Novo Maranguape I",
        "street": "Rua João Sousa Fialho",
        "zipcode": "61943-150"
    },
    {
        "city": "Maranguape",
        "state": "CE",
        "district": "Novo Maranguape II",
        "street": "Rua Francisco Franco Oliveira",
        "zipcode": "61944-420"
    },
    {
        "city": "Maranguape",
        "state": "CE",
        "district": "Outra Banda",
        "street": "Rua Vale das Flores",
        "zipcode": "61942-400"
    },
    {
        "city": "Maranguape",
        "state": "CE",
        "district": "Outra Banda",
        "street": "Rua Raimundo Pereira da Silva",
        "zipcode": "61942-520"
    },
    {
        "city": "Maranguape",
        "state": "CE",
        "district": "Novo Maranguape I",
        "street": "Rua Ulisses Santos",
        "zipcode": "61943-010"
    },
    {
        "city": "Maranguape",
        "state": "CE",
        "district": "Novo Maranguape I",
        "street": "Rua Joaquim Tibúrcio",
        "zipcode": "61943-020"
    },
    {
        "city": "Maranguape",
        "state": "CE",
        "district": "Outra Banda",
        "street": "Travessa Cruzeiro",
        "zipcode": "61942-101"
    },
    {
        "city": "Maranguape",
        "state": "CE",
        "district": "Outra Banda",
        "street": "Vila Pedro Câmara",
        "zipcode": "61942-230"
    },
    {
        "city": "Maranguape",
        "state": "CE",
        "district": "Outra Banda",
        "street": "Vila Cristina",
        "zipcode": "61942-481"
    },
    {
        "city": "Maranguape",
        "state": "CE",
        "district": "Novo Maranguape II",
        "street": "Rua Waldemar Ferreira do Vale",
        "zipcode": "61944-250"
    },
    {
        "city": "Maranguape",
        "state": "CE",
        "district": "Novo Parque Iracema",
        "street": "Rua Pedro Alves de Moura",
        "zipcode": "61949-220"
    },
    {
        "city": "Maranguape",
        "state": "CE",
        "district": "",
        "street": "Rua José da Silva",
        "zipcode": "61956-990"
    },
    {
        "city": "Maranguape",
        "state": "CE",
        "district": "Centro",
        "street": "Rua Manoel Moreira de Oliveira",
        "zipcode": "61940-040"
    },
    {
        "city": "Maranguape",
        "state": "CE",
        "district": "Centro",
        "street": "Rua Antônio Baima",
        "zipcode": "61940-075"
    },
    {
        "city": "Maranguape",
        "state": "CE",
        "district": "Parque Santa Fé",
        "street": "Beco São João",
        "zipcode": "61940-430"
    },
    {
        "city": "Maranguape",
        "state": "CE",
        "district": "Preguiça",
        "street": "Rua São Vicente de Paula",
        "zipcode": "61941-110"
    },
    {
        "city": "Maranguape",
        "state": "CE",
        "district": "Outra Banda",
        "street": "Praça Raimundo Soares Ramos",
        "zipcode": "61942-490"
    },
    {
        "city": "Maranguape",
        "state": "CE",
        "district": "Novo Maranguape II",
        "street": "Rua Porto Alegre",
        "zipcode": "61944-470"
    },
    {
        "city": "Maranguape",
        "state": "CE",
        "district": "Novo Parque Iracema",
        "street": "Rua Professora Maria Iracema Lima Paiva",
        "zipcode": "61949-040"
    },
    {
        "city": "Maranguape",
        "state": "CE",
        "district": "Novo Parque Iracema",
        "street": "Rua Natanael Cortez",
        "zipcode": "61949-170"
    },
    {
        "city": "Maranguape",
        "state": "CE",
        "district": "Novo Parque Iracema",
        "street": "Avenida Joaquim Lopes de Abreu",
        "zipcode": "61949-210"
    },
    {
        "city": "Maranguape",
        "state": "CE",
        "district": "Cônego Raimundo Pinto",
        "street": "Rua Juvêncio Batista",
        "zipcode": "61945-070"
    },
    {
        "city": "Maranguape",
        "state": "CE",
        "district": "Cônego Raimundo Pinto",
        "street": "Rua Brasil",
        "zipcode": "61945-210"
    },
    {
        "city": "Maranguape",
        "state": "CE",
        "district": "Parque São João",
        "street": "Rua Expedito Pereira Gomes",
        "zipcode": "61946-040"
    },
    {
        "city": "Maranguape",
        "state": "CE",
        "district": "Parque Iracema",
        "street": "Rua Suzete Mendes Silva",
        "zipcode": "61948-225"
    },
    {
        "city": "Maranguape",
        "state": "CE",
        "district": "Parque Iracema",
        "street": "Rua Francisco Paulo da Fonsêca",
        "zipcode": "61948-280"
    },
    {
        "city": "Maranguape",
        "state": "CE",
        "district": "Santos Dumont",
        "street": "Rua Raimundo Anselmo de Lima",
        "zipcode": "61948-710"
    },
    {
        "city": "Maranguape",
        "state": "CE",
        "district": "Novo Parque Iracema",
        "street": "Rua Manuel Nunes do Nascimento",
        "zipcode": "61949-110"
    },
    {
        "city": "Maranguape",
        "state": "CE",
        "district": "",
        "street": "Rua Manuel Guedes",
        "zipcode": "61988-990"
    },
    {
        "city": "Maranguape",
        "state": "CE",
        "district": "Novo Parque Iracema",
        "street": "Rua Celso Nogueira",
        "zipcode": "61949-140"
    },
    {
        "city": "Maranguape",
        "state": "CE",
        "district": "Centro",
        "street": "Rua José Fernandes Vieira",
        "zipcode": "61940-010"
    },
    {
        "city": "Maranguape",
        "state": "CE",
        "district": "Cônego Raimundo Pinto",
        "street": "Rua Paraná",
        "zipcode": "61945-160"
    },
    {
        "city": "Maranguape",
        "state": "CE",
        "district": "Parque Iracema",
        "street": "Rua Osmar Luiz da Silva",
        "zipcode": "61948-370"
    },
    {
        "city": "Maranguape",
        "state": "CE",
        "district": "",
        "street": "Rua Central",
        "zipcode": "61976-990"
    },
    {
        "city": "Maranguape",
        "state": "CE",
        "district": "Parque Iracema",
        "street": "Rua Cônego Raimundo Pinto de Albuquerque",
        "zipcode": "61948-270"
    },
    {
        "city": "Maranguape",
        "state": "CE",
        "district": "Centro",
        "street": "Travessa Quinderé",
        "zipcode": "61940-130"
    },
    {
        "city": "Maranguape",
        "state": "CE",
        "district": "Parque Santa Fé",
        "street": "Rua Roberto Braqueais",
        "zipcode": "61940-300"
    },
    {
        "city": "Maranguape",
        "state": "CE",
        "district": "Parque Santa Fé",
        "street": "Travessa Agostinho Fernandes",
        "zipcode": "61940-363"
    },
    {
        "city": "Maranguape",
        "state": "CE",
        "district": "Guabiraba",
        "street": "Rua João Tobias Ramos",
        "zipcode": "61940-580"
    },
    {
        "city": "Maranguape",
        "state": "CE",
        "district": "Novo Maranguape I",
        "street": "Rua Paulo Pereira Lima",
        "zipcode": "61943-110"
    },
    {
        "city": "Maranguape",
        "state": "CE",
        "district": "Novo Maranguape I",
        "street": "Rua Dídimo Cidrak",
        "zipcode": "61943-160"
    },
    {
        "city": "Maranguape",
        "state": "CE",
        "district": "Novo Maranguape I",
        "street": "Rua Ivete Nobre",
        "zipcode": "61943-400"
    },
    {
        "city": "Maranguape",
        "state": "CE",
        "district": "Novo Maranguape II",
        "street": "Rua Moacir Madeira Barros",
        "zipcode": "61944-060"
    },
    {
        "city": "Maranguape",
        "state": "CE",
        "district": "Novo Maranguape II",
        "street": "Rua João Ferreira Lopes",
        "zipcode": "61944-160"
    },
    {
        "city": "Maranguape",
        "state": "CE",
        "district": "Centro",
        "street": "Rua Coronel Manoel Paula",
        "zipcode": "61940-970"
    },
    {
        "city": "Maranguape",
        "state": "CE",
        "district": "Parque São João",
        "street": "Rua Maria das Dores Silva Inácio",
        "zipcode": "61946-085"
    },
    {
        "city": "Maranguape",
        "state": "CE",
        "district": "Parque São João",
        "street": "Rua José Pereira de Abreu",
        "zipcode": "61946-090"
    },
    {
        "city": "Maranguape",
        "state": "CE",
        "district": "Parque São João",
        "street": "Rua Antônia Botelho",
        "zipcode": "61946-160"
    },
    {
        "city": "Maranguape",
        "state": "CE",
        "district": "Coité",
        "street": "Rua Olímpio Miguel dos Santos",
        "zipcode": "61946-330"
    },
    {
        "city": "Maranguape",
        "state": "CE",
        "district": "Parque Iracema",
        "street": "Avenida Doutor Stênio Gomes",
        "zipcode": "61948-260"
    },
    {
        "city": "Maranguape",
        "state": "CE",
        "district": "Urucará",
        "street": "Avenida Joaquim Lopes de Abreu",
        "zipcode": "61948-805"
    },
    {
        "city": "Maranguape",
        "state": "CE",
        "district": "Novo Parque Iracema",
        "street": "Rua Cícero Plácido Abreu",
        "zipcode": "61949-120"
    },
    {
        "city": "Maranguape",
        "state": "CE",
        "district": "Cônego Raimundo Pinto",
        "street": "Rua Francisco de Jesus",
        "zipcode": "61945-040"
    },
    {
        "city": "Maranguape",
        "state": "CE",
        "district": "Cônego Raimundo Pinto",
        "street": "Rua Dezesseis de Agosto",
        "zipcode": "61945-100"
    },
    {
        "city": "Maranguape",
        "state": "CE",
        "district": "Parque Iracema",
        "street": "Avenida Comandante Aviador Childerico Motta",
        "zipcode": "61948-265"
    },
    {
        "city": "Maranguape",
        "state": "CE",
        "district": "Parque Iracema",
        "street": "Avenida Maria Efigênia Campos Teles",
        "zipcode": "61948-200"
    },
    {
        "city": "Maranguape",
        "state": "CE",
        "district": "Parque Iracema",
        "street": "Rua Maria Socorro A. Menezes",
        "zipcode": "61948-330"
    },
    {
        "city": "Maranguape",
        "state": "CE",
        "district": "Novo Parque Iracema",
        "street": "Rua João Albano da Costa",
        "zipcode": "61949-005"
    },
    {
        "city": "Maranguape",
        "state": "CE",
        "district": "Novo Maranguape I",
        "street": "Rua Evandro Araújo",
        "zipcode": "61943-030"
    },
    {
        "city": "Maranguape",
        "state": "CE",
        "district": "Outra Banda",
        "street": "Rua Senador Almir Pinto",
        "zipcode": "61942-010"
    },
    {
        "city": "Maranguape",
        "state": "CE",
        "district": "Novo Maranguape I",
        "street": "Rua Senador Almir Pinto",
        "zipcode": "61943-060"
    },
    {
        "city": "Maranguape",
        "state": "CE",
        "district": "Novo Maranguape I",
        "street": "Rua Raimundo Cavalcante de Sousa",
        "zipcode": "61943-430"
    },
    {
        "city": "Maranguape",
        "state": "CE",
        "district": "Novo Maranguape II",
        "street": "Rua Senador Almir Pinto",
        "zipcode": "61944-105"
    },
    {
        "city": "Maranguape",
        "state": "CE",
        "district": "Cônego Raimundo Pinto",
        "street": "Rua Senador Almir Pinto",
        "zipcode": "61945-005"
    }
]