[
    {
        "city": "Morada Nova",
        "state": "CE",
        "district": null,
        "street": "Rua Raimundo José",
        "zipcode": "62951-990"
    },
    {
        "city": "Morada Nova",
        "state": "CE",
        "district": "Centro",
        "street": "Rua Coronel José Epifânio 24",
        "zipcode": "62940-970"
    },
    {
        "city": "Morada Nova",
        "state": "CE",
        "district": null,
        "street": "Rua Ana Nogueira",
        "zipcode": "62943-990"
    },
    {
        "city": "Morada Nova",
        "state": "CE",
        "district": null,
        "street": "Travessa Luiz Vieira",
        "zipcode": "62948-990"
    },
    {
        "city": "Morada Nova",
        "state": "CE",
        "district": null,
        "street": "Rua do Juazeiro",
        "zipcode": "62953-990"
    },
    {
        "city": "Morada Nova",
        "state": "CE",
        "district": null,
        "street": "Rua Maria Paula",
        "zipcode": "62950-990"
    },
    {
        "city": "Morada Nova",
        "state": "CE",
        "district": "",
        "street": "",
        "zipcode": "62940-000"
    },
    {
        "city": "Morada Nova",
        "state": "CE",
        "district": null,
        "street": "Vila Juazeiro da Quintina",
        "zipcode": "62945-990"
    },
    {
        "city": "Morada Nova",
        "state": "CE",
        "district": null,
        "street": "Rua Moisés Rabelo",
        "zipcode": "62942-990"
    },
    {
        "city": "Morada Nova",
        "state": "CE",
        "district": "Centro",
        "street": "Setor 1 Perímêtro Irrigado Morada Nova s/n",
        "zipcode": "62940-974"
    }
]