[
    {
        "city": "Pacatuba",
        "state": "CE",
        "district": "Alto São João",
        "street": "Rua José Possidônio Neto",
        "zipcode": "61800-620"
    },
    {
        "city": "Pacatuba",
        "state": "CE",
        "district": "Pavuna",
        "street": "Rua 40 (Lot Alto da Pavuna)",
        "zipcode": "61808-080"
    },
    {
        "city": "Pacatuba",
        "state": "CE",
        "district": "Pavuna",
        "street": "Rua 44 (Lot Alto da Pavuna)",
        "zipcode": "61808-185"
    },
    {
        "city": "Pacatuba",
        "state": "CE",
        "district": "Pavuna",
        "street": "Rua 42 (Lot Alto da Pavuna)",
        "zipcode": "61808-090"
    },
    {
        "city": "Pacatuba",
        "state": "CE",
        "district": "Pavuna",
        "street": "Rua 34 (Lot Alto da Pavuna)",
        "zipcode": "61808-050"
    },
    {
        "city": "Pacatuba",
        "state": "CE",
        "district": "Alto São João",
        "street": "Travessa José Possidônio Neto",
        "zipcode": "61800-630"
    },
    {
        "city": "Pacatuba",
        "state": "CE",
        "district": "Monguba",
        "street": "Rua 4 (Lot Uirapuru)",
        "zipcode": "61805-315"
    },
    {
        "city": "Pacatuba",
        "state": "CE",
        "district": "Pavuna",
        "street": "Rua Ipioca",
        "zipcode": "61809-340"
    },
    {
        "city": "Pacatuba",
        "state": "CE",
        "district": "Centro",
        "street": "Rua Presidente Getúlio Vargas 145",
        "zipcode": "61800-970"
    },
    {
        "city": "Pacatuba",
        "state": "CE",
        "district": "Monguba",
        "street": "Rua 16 (Lot Nova Monguba)",
        "zipcode": "61805-805"
    },
    {
        "city": "Pacatuba",
        "state": "CE",
        "district": "Pavuna",
        "street": "Avenida 1 (Lot Alto da Pavuna)",
        "zipcode": "61808-110"
    },
    {
        "city": "Pacatuba",
        "state": "CE",
        "district": "Monguba",
        "street": "Rua 10 (Lot Nova Monguba)",
        "zipcode": "61805-830"
    },
    {
        "city": "Pacatuba",
        "state": "CE",
        "district": "Pavuna",
        "street": "Rua 11 (Lot Alto da Pavuna)",
        "zipcode": "61808-105"
    },
    {
        "city": "Pacatuba",
        "state": "CE",
        "district": "Pavuna",
        "street": "Rua Um (Lot Morada da Boa Vizinhança Pacatu",
        "zipcode": "61810-340"
    },
    {
        "city": "Pacatuba",
        "state": "CE",
        "district": "Pavuna",
        "street": "Rua 10 (Lot Morada da Boa Vizinhança Pacatu",
        "zipcode": "61810-350"
    },
    {
        "city": "Pacatuba",
        "state": "CE",
        "district": "Pavuna",
        "street": "Rua 08 (Lot Morada da Boa Vizinhança Pacatu",
        "zipcode": "61810-360"
    },
    {
        "city": "Pacatuba",
        "state": "CE",
        "district": "Pavuna",
        "street": "Rua 06 (Lot Morada da Boa Vizinhança Pacatu",
        "zipcode": "61810-375"
    },
    {
        "city": "Pacatuba",
        "state": "CE",
        "district": "Monguba",
        "street": "Rua 19 (Lot Nova Monguba)",
        "zipcode": "61805-785"
    },
    {
        "city": "Pacatuba",
        "state": "CE",
        "district": "Monguba",
        "street": "Rua 20 (Lot Nova Monguba)",
        "zipcode": "61805-790"
    },
    {
        "city": "Pacatuba",
        "state": "CE",
        "district": "Monguba",
        "street": "Rua 17 (Lot Nova Monguba)",
        "zipcode": "61805-800"
    },
    {
        "city": "Pacatuba",
        "state": "CE",
        "district": "Monguba",
        "street": "Rua 15 (Lot Nova Monguba)",
        "zipcode": "61805-810"
    },
    {
        "city": "Pacatuba",
        "state": "CE",
        "district": "Pavuna",
        "street": "Rua 31 (Lot Alto da Pavuna)",
        "zipcode": "61808-030"
    },
    {
        "city": "Pacatuba",
        "state": "CE",
        "district": "Pavuna",
        "street": "Rua 33 (Lot Alto da Pavuna)",
        "zipcode": "61808-045"
    },
    {
        "city": "Pacatuba",
        "state": "CE",
        "district": "Pavuna",
        "street": "Rua 15 (Lot Alto da Pavuna)",
        "zipcode": "61808-065"
    },
    {
        "city": "Pacatuba",
        "state": "CE",
        "district": "Monguba",
        "street": "Rua 22 (Lot Nova Monguba)",
        "zipcode": "61805-775"
    },
    {
        "city": "Pacatuba",
        "state": "CE",
        "district": "Monguba",
        "street": "Rua 13 (Lot Nova Monguba)",
        "zipcode": "61805-820"
    },
    {
        "city": "Pacatuba",
        "state": "CE",
        "district": null,
        "street": null,
        "zipcode": "61800-000"
    },
    {
        "city": "Pacatuba",
        "state": "CE",
        "district": "Senador Carlos Jereissati",
        "street": "Rua Santa Efigênia",
        "zipcode": "61814-416"
    },
    {
        "city": "Pacatuba",
        "state": "CE",
        "district": "Senador Carlos Jereissati",
        "street": "Rua 1 (Res Bom Futuro)",
        "zipcode": "61814-424"
    },
    {
        "city": "Pacatuba",
        "state": "CE",
        "district": "Pavuna",
        "street": "Rua 36 (Lot Alto da Pavuna)",
        "zipcode": "61808-060"
    },
    {
        "city": "Pacatuba",
        "state": "CE",
        "district": "Pavuna",
        "street": "Rua 32 (Lot Alto da Pavuna)",
        "zipcode": "61808-035"
    },
    {
        "city": "Pacatuba",
        "state": "CE",
        "district": "Pavuna",
        "street": "Avenida 2 (Lot Alto da Pavuna)",
        "zipcode": "61808-040"
    },
    {
        "city": "Pacatuba",
        "state": "CE",
        "district": "Senador Carlos Jereissati",
        "street": "Rua 2 (Res Bom Futuro)",
        "zipcode": "61814-428"
    },
    {
        "city": "Pacatuba",
        "state": "CE",
        "district": "Senador Carlos Jereissati",
        "street": "Rua 4 (Res Bom Futuro)",
        "zipcode": "61814-436"
    },
    {
        "city": "Pacatuba",
        "state": "CE",
        "district": "Senador Carlos Jereissati",
        "street": "Rua 5 (Res Bom Futuro)",
        "zipcode": "61814-440"
    },
    {
        "city": "Pacatuba",
        "state": "CE",
        "district": "Senador Carlos Jereissati",
        "street": "Rua 7 (Res Bom Futuro)",
        "zipcode": "61814-448"
    },
    {
        "city": "Pacatuba",
        "state": "CE",
        "district": "Senador Carlos Jereissati",
        "street": "Rua 11 (Res Bom Futuro)",
        "zipcode": "61814-464"
    },
    {
        "city": "Pacatuba",
        "state": "CE",
        "district": "Senador Carlos Jereissati",
        "street": "Rua 12 (Res Bom Futuro)",
        "zipcode": "61814-468"
    },
    {
        "city": "Pacatuba",
        "state": "CE",
        "district": "Senador Carlos Jereissati",
        "street": "Rua 15 (Res Bom Futuro)",
        "zipcode": "61814-480"
    },
    {
        "city": "Pacatuba",
        "state": "CE",
        "district": "Senador Carlos Jereissati",
        "street": "Rua 16 (Res Bom Futuro)",
        "zipcode": "61814-484"
    },
    {
        "city": "Pacatuba",
        "state": "CE",
        "district": "Senador Carlos Jereissati",
        "street": "Rua 18 (Res Bom Futuro)",
        "zipcode": "61814-492"
    },
    {
        "city": "Pacatuba",
        "state": "CE",
        "district": "Senador Carlos Jereissati",
        "street": "Rua 23 (Res Bom Futuro)",
        "zipcode": "61814-500"
    },
    {
        "city": "Pacatuba",
        "state": "CE",
        "district": "Senador Carlos Jereissati",
        "street": "Rua 19 (Res Bom Futuro)",
        "zipcode": "61814-508"
    },
    {
        "city": "Pacatuba",
        "state": "CE",
        "district": "Senador Carlos Jereissati",
        "street": "Rua 20 (Res Santa Marta)",
        "zipcode": "61814-512"
    },
    {
        "city": "Pacatuba",
        "state": "CE",
        "district": "Senador Carlos Jereissati",
        "street": "Rua 18 (Res Santa Marta)",
        "zipcode": "61814-520"
    },
    {
        "city": "Pacatuba",
        "state": "CE",
        "district": "Senador Carlos Jereissati",
        "street": "Rua 17 (Res Santa Marta)",
        "zipcode": "61814-524"
    },
    {
        "city": "Pacatuba",
        "state": "CE",
        "district": "Senador Carlos Jereissati",
        "street": "Rua 16 (Res Santa Marta)",
        "zipcode": "61814-528"
    },
    {
        "city": "Pacatuba",
        "state": "CE",
        "district": "Senador Carlos Jereissati",
        "street": "Rua 21 (Res Santa Marta)",
        "zipcode": "61814-536"
    },
    {
        "city": "Pacatuba",
        "state": "CE",
        "district": "Pavuna",
        "street": "Rua Moacir Corrêia",
        "zipcode": "61809-360"
    },
    {
        "city": "Pacatuba",
        "state": "CE",
        "district": "Pavuna",
        "street": "Rua 07 (Lot Morada da Boa Vizinhança Pacatu",
        "zipcode": "61810-370"
    },
    {
        "city": "Pacatuba",
        "state": "CE",
        "district": "",
        "street": "Rua Antônio de Luiz de Souza",
        "zipcode": "61860-990"
    },
    {
        "city": "Pacatuba",
        "state": "CE",
        "district": "Pavuna",
        "street": "Rua 2 (Lot Timbó)",
        "zipcode": "61809-425"
    },
    {
        "city": "Pacatuba",
        "state": "CE",
        "district": "Senador Carlos Jereissati",
        "street": "Avenida XIX (Conj Jereissati II)",
        "zipcode": "61814-320"
    },
    {
        "city": "Pacatuba",
        "state": "CE",
        "district": "Senador Carlos Jereissati",
        "street": "Avenida Planalto",
        "zipcode": "61814-372"
    },
    {
        "city": "Pacatuba",
        "state": "CE",
        "district": "Quandu",
        "street": "Rua 4 (Lot Quandu)",
        "zipcode": "61800-120"
    },
    {
        "city": "Pacatuba",
        "state": "CE",
        "district": "Quandu",
        "street": "Rua 23 (Lot Quandu)",
        "zipcode": "61800-130"
    },
    {
        "city": "Pacatuba",
        "state": "CE",
        "district": "Quandu",
        "street": "Rua 5 (Lot Quandu)",
        "zipcode": "61800-140"
    },
    {
        "city": "Pacatuba",
        "state": "CE",
        "district": "Quandu",
        "street": "Rua 6 (Lot Quandu)",
        "zipcode": "61800-145"
    },
    {
        "city": "Pacatuba",
        "state": "CE",
        "district": "Pavuna",
        "street": "Rua 37 (Lot Alto da Pavuna)",
        "zipcode": "61808-070"
    },
    {
        "city": "Pacatuba",
        "state": "CE",
        "district": "Pavuna",
        "street": "Rua 38 (Lot Alto da Pavuna)",
        "zipcode": "61808-075"
    },
    {
        "city": "Pacatuba",
        "state": "CE",
        "district": "Pavuna",
        "street": "Rua 41 (Lot Alto da Pavuna)",
        "zipcode": "61808-085"
    },
    {
        "city": "Pacatuba",
        "state": "CE",
        "district": "Monguba",
        "street": "Rua 9 (Lot Vale das Almeiras)",
        "zipcode": "61805-505"
    },
    {
        "city": "Pacatuba",
        "state": "CE",
        "district": "Pavuna",
        "street": "Rua 8",
        "zipcode": "61810-365"
    },
    {
        "city": "Pacatuba",
        "state": "CE",
        "district": "Senador Carlos Jereissati",
        "street": "Rua 8 (Res Bom Futuro)",
        "zipcode": "61814-452"
    },
    {
        "city": "Pacatuba",
        "state": "CE",
        "district": "Senador Carlos Jereissati",
        "street": "Rua 9 (Res Bom Futuro)",
        "zipcode": "61814-456"
    },
    {
        "city": "Pacatuba",
        "state": "CE",
        "district": "Senador Carlos Jereissati",
        "street": "Rua Padre Cícero",
        "zipcode": "61814-184"
    },
    {
        "city": "Pacatuba",
        "state": "CE",
        "district": "Senador Carlos Jereissati",
        "street": "Rua São Francisco",
        "zipcode": "61814-188"
    },
    {
        "city": "Pacatuba",
        "state": "CE",
        "district": "Senador Carlos Jereissati",
        "street": "Rua Santos Dumont",
        "zipcode": "61814-196"
    },
    {
        "city": "Pacatuba",
        "state": "CE",
        "district": "Senador Carlos Jereissati",
        "street": "Rua São Pedro",
        "zipcode": "61814-204"
    },
    {
        "city": "Pacatuba",
        "state": "CE",
        "district": "Senador Carlos Jereissati",
        "street": "Rua Nossa Senhora do Desterro",
        "zipcode": "61814-216"
    },
    {
        "city": "Pacatuba",
        "state": "CE",
        "district": "Senador Carlos Jereissati",
        "street": "Rua 7 de Setembro",
        "zipcode": "61814-220"
    },
    {
        "city": "Pacatuba",
        "state": "CE",
        "district": "Senador Carlos Jereissati",
        "street": "Rua 68 (Conj Jereissati II)",
        "zipcode": "61814-292"
    },
    {
        "city": "Pacatuba",
        "state": "CE",
        "district": "Senador Carlos Jereissati",
        "street": "Rua XVII (Conj Jereissati II)",
        "zipcode": "61814-324"
    },
    {
        "city": "Pacatuba",
        "state": "CE",
        "district": "Senador Carlos Jereissati",
        "street": "Avenida XV (Conj Jereissati II)",
        "zipcode": "61814-328"
    },
    {
        "city": "Pacatuba",
        "state": "CE",
        "district": "Senador Carlos Jereissati",
        "street": "Rua Walter Costa do Carmo",
        "zipcode": "61814-364"
    },
    {
        "city": "Pacatuba",
        "state": "CE",
        "district": "Senador Carlos Jereissati",
        "street": "Travessa Libânia",
        "zipcode": "61814-380"
    },
    {
        "city": "Pacatuba",
        "state": "CE",
        "district": "Senador Carlos Jereissati",
        "street": "Rua Santa Madalena",
        "zipcode": "61814-396"
    },
    {
        "city": "Pacatuba",
        "state": "CE",
        "district": "Senador Carlos Jereissati",
        "street": "Rua Recanto Tranquilo",
        "zipcode": "61814-400"
    },
    {
        "city": "Pacatuba",
        "state": "CE",
        "district": "Senador Carlos Jereissati",
        "street": "Rua Montevidéu",
        "zipcode": "61814-408"
    },
    {
        "city": "Pacatuba",
        "state": "CE",
        "district": "Senador Carlos Jereissati",
        "street": "Rua 15 (Res Santa Marta)",
        "zipcode": "61814-540"
    },
    {
        "city": "Pacatuba",
        "state": "CE",
        "district": "Senador Carlos Jereissati",
        "street": "Rua 14 (Res Santa Marta)",
        "zipcode": "61814-544"
    },
    {
        "city": "Pacatuba",
        "state": "CE",
        "district": "Senador Carlos Jereissati",
        "street": "Rua 11 (Res Santa Marta)",
        "zipcode": "61814-560"
    },
    {
        "city": "Pacatuba",
        "state": "CE",
        "district": "Senador Carlos Jereissati",
        "street": "Rua 1 (Res São Francisco)",
        "zipcode": "61814-576"
    },
    {
        "city": "Pacatuba",
        "state": "CE",
        "district": "Senador Carlos Jereissati",
        "street": "Rua 6 (Res São Francisco)",
        "zipcode": "61814-588"
    },
    {
        "city": "Pacatuba",
        "state": "CE",
        "district": "Senador Carlos Jereissati",
        "street": "Rua 5 (Res São Francisco)",
        "zipcode": "61814-592"
    },
    {
        "city": "Pacatuba",
        "state": "CE",
        "district": "Senador Carlos Jereissati",
        "street": "Rua 4 (Res São Francisco)",
        "zipcode": "61814-596"
    },
    {
        "city": "Pacatuba",
        "state": "CE",
        "district": "Senador Carlos Jereissati",
        "street": "Rua 14 (Res Bom Futuro)",
        "zipcode": "61814-476"
    },
    {
        "city": "Pacatuba",
        "state": "CE",
        "district": "Senador Carlos Jereissati",
        "street": "Rua 21 (Res Bom Futuro)",
        "zipcode": "61814-496"
    },
    {
        "city": "Pacatuba",
        "state": "CE",
        "district": "Senador Carlos Jereissati",
        "street": "Rua 3 (Res São Francisco)",
        "zipcode": "61814-580"
    },
    {
        "city": "Pacatuba",
        "state": "CE",
        "district": "Pavuna",
        "street": "Rua Raimundo Avelino",
        "zipcode": "61809-420"
    },
    {
        "city": "Pacatuba",
        "state": "CE",
        "district": "Senador Carlos Jereissati",
        "street": "Travessa Estrela",
        "zipcode": "61814-376"
    },
    {
        "city": "Pacatuba",
        "state": "CE",
        "district": "Pavuna",
        "street": "Avenida Contorno Norte (Conj Pajuçara II)",
        "zipcode": "61812-567"
    },
    {
        "city": "Pacatuba",
        "state": "CE",
        "district": "Senador Carlos Jereissati",
        "street": "Avenida B (Conj Jereissati III)",
        "zipcode": "61814-004"
    },
    {
        "city": "Pacatuba",
        "state": "CE",
        "district": "Senador Carlos Jereissati",
        "street": "Avenida F (Conj Jereissati III)",
        "zipcode": "61814-056"
    },
    {
        "city": "Pacatuba",
        "state": "CE",
        "district": "Senador Carlos Jereissati",
        "street": "Avenida XXI (Conj Jereissati II)",
        "zipcode": "61814-144"
    },
    {
        "city": "Pacatuba",
        "state": "CE",
        "district": "Senador Carlos Jereissati",
        "street": "Avenida XXV (Conj Jereissati II)",
        "zipcode": "61814-148"
    },
    {
        "city": "Pacatuba",
        "state": "CE",
        "district": "Senador Carlos Jereissati",
        "street": "Avenida XX (Conj Jereissati II)",
        "zipcode": "61814-236"
    },
    {
        "city": "Pacatuba",
        "state": "CE",
        "district": "Senador Carlos Jereissati",
        "street": "Avenida XXIV (Conj Jereissati II)",
        "zipcode": "61814-272"
    },
    {
        "city": "Pacatuba",
        "state": "CE",
        "district": "Senador Carlos Jereissati",
        "street": "Avenida XVIII (Conj Jereissati II)",
        "zipcode": "61814-356"
    },
    {
        "city": "Pacatuba",
        "state": "CE",
        "district": "Senador Carlos Jereissati",
        "street": "Avenida Valdomiro do Nascimento de Sousa",
        "zipcode": "61814-556"
    },
    {
        "city": "Pacatuba",
        "state": "CE",
        "district": "Senador Carlos Jereissati",
        "street": "Rua 33 (Conj Jereissati III)",
        "zipcode": "61814-024"
    },
    {
        "city": "Pacatuba",
        "state": "CE",
        "district": "Senador Carlos Jereissati",
        "street": "Rua 80 (Conj Jereissati II)",
        "zipcode": "61814-240"
    },
    {
        "city": "Pacatuba",
        "state": "CE",
        "district": "Senador Carlos Jereissati",
        "street": "Rua 85 (Conj Jereissati II)",
        "zipcode": "61814-260"
    },
    {
        "city": "Pacatuba",
        "state": "CE",
        "district": "Senador Carlos Jereissati",
        "street": "Rua 86 (Conj Jereissati II)",
        "zipcode": "61814-264"
    },
    {
        "city": "Pacatuba",
        "state": "CE",
        "district": "Senador Carlos Jereissati",
        "street": "Rua 70 (Conj Jereissati II)",
        "zipcode": "61814-300"
    },
    {
        "city": "Pacatuba",
        "state": "CE",
        "district": "Senador Carlos Jereissati",
        "street": "Rua 73 (Conj Jereissati II)",
        "zipcode": "61814-312"
    },
    {
        "city": "Pacatuba",
        "state": "CE",
        "district": "Senador Carlos Jereissati",
        "street": "Rua 76 (Conj Jereissati II)",
        "zipcode": "61814-340"
    },
    {
        "city": "Pacatuba",
        "state": "CE",
        "district": "Senador Carlos Jereissati",
        "street": "Rua 77 (Conj Jereissati II)",
        "zipcode": "61814-344"
    },
    {
        "city": "Pacatuba",
        "state": "CE",
        "district": "Senador Carlos Jereissati",
        "street": "Rua 79 (Conj Jereissati II)",
        "zipcode": "61814-352"
    },
    {
        "city": "Pacatuba",
        "state": "CE",
        "district": "Senador Carlos Jereissati",
        "street": "Rua 9 (Res São Francisco)",
        "zipcode": "61814-568"
    },
    {
        "city": "Pacatuba",
        "state": "CE",
        "district": "Senador Carlos Jereissati",
        "street": "Rua 8 (Res São Francisco)",
        "zipcode": "61814-572"
    },
    {
        "city": "Pacatuba",
        "state": "CE",
        "district": "Senador Carlos Jereissati",
        "street": "Rua 74",
        "zipcode": "61814-970"
    },
    {
        "city": "Pacatuba",
        "state": "CE",
        "district": "Pavuna",
        "street": "Rua I (Lot Panorama I)",
        "zipcode": "61810-445"
    },
    {
        "city": "Pacatuba",
        "state": "CE",
        "district": "Pavuna",
        "street": "Rua L (Lot Panorama I)",
        "zipcode": "61810-455"
    },
    {
        "city": "Pacatuba",
        "state": "CE",
        "district": "Pavuna",
        "street": "Rua N (Lot Panorama I)",
        "zipcode": "61810-465"
    },
    {
        "city": "Pacatuba",
        "state": "CE",
        "district": "Pavuna",
        "street": "Rua O (Lot Panorama I)",
        "zipcode": "61810-470"
    },
    {
        "city": "Pacatuba",
        "state": "CE",
        "district": "Pavuna",
        "street": "Rua Q (Lot Panorama I)",
        "zipcode": "61810-480"
    },
    {
        "city": "Pacatuba",
        "state": "CE",
        "district": "Pavuna",
        "street": "Rua B (Lot Panorama I)",
        "zipcode": "61810-485"
    },
    {
        "city": "Pacatuba",
        "state": "CE",
        "district": "Pavuna",
        "street": "Rua 10 (Lot Panorama II)",
        "zipcode": "61810-495"
    },
    {
        "city": "Pacatuba",
        "state": "CE",
        "district": "Pavuna",
        "street": "Rua Passeio Pedestre II (Lot Panorama II)",
        "zipcode": "61810-505"
    },
    {
        "city": "Pacatuba",
        "state": "CE",
        "district": "Pavuna",
        "street": "Rua 1 (Lot Panorama II)",
        "zipcode": "61810-540"
    },
    {
        "city": "Pacatuba",
        "state": "CE",
        "district": "Pavuna",
        "street": "Rua 103",
        "zipcode": "61812-435"
    },
    {
        "city": "Pacatuba",
        "state": "CE",
        "district": "Senador Carlos Jereissati",
        "street": "Rua 11 (Conj Jereissati III)",
        "zipcode": "61814-128"
    },
    {
        "city": "Pacatuba",
        "state": "CE",
        "district": "Pavuna",
        "street": "Rua 104 (Conj Pajuçara I)",
        "zipcode": "61812-432"
    },
    {
        "city": "Pacatuba",
        "state": "CE",
        "district": "Senador Carlos Jereissati",
        "street": "Rua São José",
        "zipcode": "61814-200"
    },
    {
        "city": "Pacatuba",
        "state": "CE",
        "district": "Senador Carlos Jereissati",
        "street": "Rua Santo Antônio",
        "zipcode": "61814-224"
    },
    {
        "city": "Pacatuba",
        "state": "CE",
        "district": "Senador Carlos Jereissati",
        "street": "Rua 66 (Conj Jereissati II)",
        "zipcode": "61814-284"
    },
    {
        "city": "Pacatuba",
        "state": "CE",
        "district": "Senador Carlos Jereissati",
        "street": "Rua 69 (Conj Jereissati II)",
        "zipcode": "61814-296"
    },
    {
        "city": "Pacatuba",
        "state": "CE",
        "district": "Senador Carlos Jereissati",
        "street": "Rua Lírio do Vale",
        "zipcode": "61814-392"
    },
    {
        "city": "Pacatuba",
        "state": "CE",
        "district": "Senador Carlos Jereissati",
        "street": "Rua da Paz",
        "zipcode": "61814-404"
    },
    {
        "city": "Pacatuba",
        "state": "CE",
        "district": "Pavuna",
        "street": "Avenida Contorno Sul",
        "zipcode": "61812-420"
    },
    {
        "city": "Pacatuba",
        "state": "CE",
        "district": "Pavuna",
        "street": "Avenida C (Conj Pajuçara I)",
        "zipcode": "61812-447"
    },
    {
        "city": "Pacatuba",
        "state": "CE",
        "district": "Pavuna",
        "street": "Avenida B (Conj Pajuçara I)",
        "zipcode": "61812-462"
    },
    {
        "city": "Pacatuba",
        "state": "CE",
        "district": "Pavuna",
        "street": "Avenida F (Conj Pajuçara I)",
        "zipcode": "61812-489"
    },
    {
        "city": "Pacatuba",
        "state": "CE",
        "district": "Pavuna",
        "street": "Avenida E (Conj Pajuçara I)",
        "zipcode": "61812-492"
    },
    {
        "city": "Pacatuba",
        "state": "CE",
        "district": "Pavuna",
        "street": "Avenida D (Conj Pajuçara I)",
        "zipcode": "61812-501"
    },
    {
        "city": "Pacatuba",
        "state": "CE",
        "district": "Pavuna",
        "street": "Avenida G (Conj Pajuçara I)",
        "zipcode": "61812-504"
    },
    {
        "city": "Pacatuba",
        "state": "CE",
        "district": "Pavuna",
        "street": "Avenida C (Conj Pajuçara II)",
        "zipcode": "61812-519"
    },
    {
        "city": "Pacatuba",
        "state": "CE",
        "district": "Senador Carlos Jereissati",
        "street": "Avenida XXIII (Conj Jereissati II)",
        "zipcode": "61814-276"
    },
    {
        "city": "Pacatuba",
        "state": "CE",
        "district": "Senador Carlos Jereissati",
        "street": "Avenida XXII (Conj Jereissati II)",
        "zipcode": "61814-316"
    },
    {
        "city": "Pacatuba",
        "state": "CE",
        "district": "Senador Carlos Jereissati",
        "street": "Rua 46 (Conj Jereissati III)",
        "zipcode": "61814-008"
    },
    {
        "city": "Pacatuba",
        "state": "CE",
        "district": "Senador Carlos Jereissati",
        "street": "Rua 45 (Conj Jereissati III)",
        "zipcode": "61814-016"
    },
    {
        "city": "Pacatuba",
        "state": "CE",
        "district": "Senador Carlos Jereissati",
        "street": "Rua 27 (Conj Jereissati III)",
        "zipcode": "61814-028"
    },
    {
        "city": "Pacatuba",
        "state": "CE",
        "district": "Senador Carlos Jereissati",
        "street": "Rua 21 (Conj Jereissati III)",
        "zipcode": "61814-032"
    },
    {
        "city": "Pacatuba",
        "state": "CE",
        "district": "Senador Carlos Jereissati",
        "street": "Rua 4 (Conj Jereissati III)",
        "zipcode": "61814-052"
    },
    {
        "city": "Pacatuba",
        "state": "CE",
        "district": "Senador Carlos Jereissati",
        "street": "Rua 13 (Conj Jereissati III)",
        "zipcode": "61814-072"
    },
    {
        "city": "Pacatuba",
        "state": "CE",
        "district": "Senador Carlos Jereissati",
        "street": "Rua 25 (Conj Jereissati III)",
        "zipcode": "61814-084"
    },
    {
        "city": "Pacatuba",
        "state": "CE",
        "district": "Senador Carlos Jereissati",
        "street": "Rua 37 (Conj Jereissati III)",
        "zipcode": "61814-092"
    },
    {
        "city": "Pacatuba",
        "state": "CE",
        "district": "Senador Carlos Jereissati",
        "street": "Rua 43 (Conj Jereissati III)",
        "zipcode": "61814-096"
    },
    {
        "city": "Pacatuba",
        "state": "CE",
        "district": "Senador Carlos Jereissati",
        "street": "Rua 12 (Conj Jereissati III)",
        "zipcode": "61814-104"
    },
    {
        "city": "Pacatuba",
        "state": "CE",
        "district": "Senador Carlos Jereissati",
        "street": "Rua 41 (Conj Jereissati III)",
        "zipcode": "61814-108"
    },
    {
        "city": "Pacatuba",
        "state": "CE",
        "district": "Senador Carlos Jereissati",
        "street": "Rua 17 (Conj Jereissati III)",
        "zipcode": "61814-124"
    },
    {
        "city": "Pacatuba",
        "state": "CE",
        "district": "Senador Carlos Jereissati",
        "street": "Rua 5 (Conj Jereissati III)",
        "zipcode": "61814-132"
    },
    {
        "city": "Pacatuba",
        "state": "CE",
        "district": "Senador Carlos Jereissati",
        "street": "Rua 9 (Conj Jereissati III)",
        "zipcode": "61814-044"
    },
    {
        "city": "Pacatuba",
        "state": "CE",
        "district": "Senador Carlos Jereissati",
        "street": "Rua 93 (Conj Jereissati II)",
        "zipcode": "61814-140"
    },
    {
        "city": "Pacatuba",
        "state": "CE",
        "district": "Senador Carlos Jereissati",
        "street": "Rua 92 (Conj Jereissati II)",
        "zipcode": "61814-152"
    },
    {
        "city": "Pacatuba",
        "state": "CE",
        "district": "Senador Carlos Jereissati",
        "street": "Rua 89 (Conj Jereissati II)",
        "zipcode": "61814-164"
    },
    {
        "city": "Pacatuba",
        "state": "CE",
        "district": "Senador Carlos Jereissati",
        "street": "Rua 88 (Conj Jereissati II)",
        "zipcode": "61814-168"
    },
    {
        "city": "Pacatuba",
        "state": "CE",
        "district": "Senador Carlos Jereissati",
        "street": "Rua 81 (Conj Jereissati II)",
        "zipcode": "61814-244"
    },
    {
        "city": "Pacatuba",
        "state": "CE",
        "district": "Senador Carlos Jereissati",
        "street": "Rua 74 (Conj Jereissati II)",
        "zipcode": "61814-332"
    },
    {
        "city": "Pacatuba",
        "state": "CE",
        "district": "Senador Carlos Jereissati",
        "street": "Rua 83 (Conj Jereissati II)",
        "zipcode": "61814-252"
    },
    {
        "city": "Pacatuba",
        "state": "CE",
        "district": "Pavuna",
        "street": "Rua Agapito dos Santos",
        "zipcode": "61810-240"
    },
    {
        "city": "Pacatuba",
        "state": "CE",
        "district": "Pavuna",
        "street": "Rua José Alves Moura",
        "zipcode": "61810-250"
    },
    {
        "city": "Pacatuba",
        "state": "CE",
        "district": "Pavuna",
        "street": "Rua Antônio Alves",
        "zipcode": "61810-255"
    },
    {
        "city": "Pacatuba",
        "state": "CE",
        "district": "Pavuna",
        "street": "Rua Joaquim Cândido",
        "zipcode": "61810-265"
    },
    {
        "city": "Pacatuba",
        "state": "CE",
        "district": "Pavuna",
        "street": "Rua do Cilírio",
        "zipcode": "61810-275"
    },
    {
        "city": "Pacatuba",
        "state": "CE",
        "district": "Pavuna",
        "street": "Passeio Pedestre 8 (Lot Marajó)",
        "zipcode": "61810-305"
    },
    {
        "city": "Pacatuba",
        "state": "CE",
        "district": "Pavuna",
        "street": "Passeio Pedestre 7 (Lot Marajó)",
        "zipcode": "61810-330"
    },
    {
        "city": "Pacatuba",
        "state": "CE",
        "district": "Pavuna",
        "street": "Rua C (Lot Panorama I)",
        "zipcode": "61810-410"
    },
    {
        "city": "Pacatuba",
        "state": "CE",
        "district": "Pavuna",
        "street": "Rua D (Lot Panorama I)",
        "zipcode": "61810-415"
    },
    {
        "city": "Pacatuba",
        "state": "CE",
        "district": "Pavuna",
        "street": "Rua A (Lot Panorama I)",
        "zipcode": "61810-430"
    },
    {
        "city": "Pacatuba",
        "state": "CE",
        "district": "Pavuna",
        "street": "Rua 4 (Lot Panorama II)",
        "zipcode": "61810-525"
    },
    {
        "city": "Pacatuba",
        "state": "CE",
        "district": "Pavuna",
        "street": "Rua 106 (Conj Pajuçara I)",
        "zipcode": "61812-444"
    },
    {
        "city": "Pacatuba",
        "state": "CE",
        "district": "Pavuna",
        "street": "Rua 108 (Conj Pajuçara I)",
        "zipcode": "61812-453"
    },
    {
        "city": "Pacatuba",
        "state": "CE",
        "district": "Pavuna",
        "street": "Rua Doutor José Soares Freire",
        "zipcode": "61809-415"
    },
    {
        "city": "Pacatuba",
        "state": "CE",
        "district": "Pavuna",
        "street": "Rua Nossa Senhora do Perpétuo Socorro",
        "zipcode": "61810-175"
    },
    {
        "city": "Pacatuba",
        "state": "CE",
        "district": "Pavuna",
        "street": "Rua Lindalva Duca",
        "zipcode": "61810-190"
    },
    {
        "city": "Pacatuba",
        "state": "CE",
        "district": "Pavuna",
        "street": "Rua Euclides Augustin",
        "zipcode": "61810-210"
    },
    {
        "city": "Pacatuba",
        "state": "CE",
        "district": "Pavuna",
        "street": "Rua E (Lot Panorama I)",
        "zipcode": "61810-420"
    },
    {
        "city": "Pacatuba",
        "state": "CE",
        "district": "Pavuna",
        "street": "Rua 107 (Conj Pajuçara I)",
        "zipcode": "61812-456"
    },
    {
        "city": "Pacatuba",
        "state": "CE",
        "district": "Pavuna",
        "street": "Rua 109 (Conj Pajuçara I)",
        "zipcode": "61812-465"
    },
    {
        "city": "Pacatuba",
        "state": "CE",
        "district": "Pavuna",
        "street": "Rua 131 (Conj Pajuçara I)",
        "zipcode": "61812-474"
    },
    {
        "city": "Pacatuba",
        "state": "CE",
        "district": "Pavuna",
        "street": "Rua 135 (Conj Pajuçara I)",
        "zipcode": "61812-486"
    },
    {
        "city": "Pacatuba",
        "state": "CE",
        "district": "Pavuna",
        "street": "Rua 129 (Conj Pajuçara I)",
        "zipcode": "61812-498"
    },
    {
        "city": "Pacatuba",
        "state": "CE",
        "district": "Pavuna",
        "street": "Rua 119 (Conj Pajuçara II)",
        "zipcode": "61812-540"
    },
    {
        "city": "Pacatuba",
        "state": "CE",
        "district": "Pavuna",
        "street": "Rua 118 (Conj Pajuçara II)",
        "zipcode": "61812-546"
    },
    {
        "city": "Pacatuba",
        "state": "CE",
        "district": "Pavuna",
        "street": "Rua 120 (Conj Pajuçara II)",
        "zipcode": "61812-552"
    },
    {
        "city": "Pacatuba",
        "state": "CE",
        "district": "Pavuna",
        "street": "Rua 116 (Conj Pajuçara II)",
        "zipcode": "61812-555"
    },
    {
        "city": "Pacatuba",
        "state": "CE",
        "district": "Pavuna",
        "street": "Rua 113 (Conj Pajuçara II)",
        "zipcode": "61812-564"
    },
    {
        "city": "Pacatuba",
        "state": "CE",
        "district": "Senador Carlos Jereissati",
        "street": "Rua 2 (Conj Jereissati III)",
        "zipcode": "61814-012"
    },
    {
        "city": "Pacatuba",
        "state": "CE",
        "district": "Senador Carlos Jereissati",
        "street": "Rua 7 (Conj Jereissati III)",
        "zipcode": "61814-068"
    },
    {
        "city": "Pacatuba",
        "state": "CE",
        "district": "Senador Carlos Jereissati",
        "street": "Rua 6 (Conj Jereissati III)",
        "zipcode": "61814-076"
    },
    {
        "city": "Pacatuba",
        "state": "CE",
        "district": "Senador Carlos Jereissati",
        "street": "Rua 29 (Conj Jereissati III)",
        "zipcode": "61814-116"
    },
    {
        "city": "Pacatuba",
        "state": "CE",
        "district": "Pavuna",
        "street": "Rua Esmeralda",
        "zipcode": "61810-160"
    },
    {
        "city": "Pacatuba",
        "state": "CE",
        "district": "Pavuna",
        "street": "Rua Monte da Oliveiras",
        "zipcode": "61810-170"
    },
    {
        "city": "Pacatuba",
        "state": "CE",
        "district": "Pavuna",
        "street": "Rua 2 (Lot Panorama II)",
        "zipcode": "61810-545"
    },
    {
        "city": "Pacatuba",
        "state": "CE",
        "district": "Pavuna",
        "street": "Rua 104",
        "zipcode": "61812-438"
    },
    {
        "city": "Pacatuba",
        "state": "CE",
        "district": "Pavuna",
        "street": "Rua 134 (Conj Pajuçara I)",
        "zipcode": "61812-483"
    },
    {
        "city": "Pacatuba",
        "state": "CE",
        "district": "Pavuna",
        "street": "Rua José Ernandes Gadelha",
        "zipcode": "61809-395"
    },
    {
        "city": "Pacatuba",
        "state": "CE",
        "district": "Pavuna",
        "street": "Rua 126 (Conj Pajuçara I)",
        "zipcode": "61812-516"
    },
    {
        "city": "Pacatuba",
        "state": "CE",
        "district": "Pavuna",
        "street": "Avenida Rafael Arcanjo",
        "zipcode": "61809-455"
    },
    {
        "city": "Pacatuba",
        "state": "CE",
        "district": "Pavuna",
        "street": "Rua José Elias dos Santos",
        "zipcode": "61809-390"
    },
    {
        "city": "Pacatuba",
        "state": "CE",
        "district": "Pavuna",
        "street": "Rua José Mendes da Silva",
        "zipcode": "61809-400"
    },
    {
        "city": "Pacatuba",
        "state": "CE",
        "district": "Pavuna",
        "street": "Rua Antônio Sales",
        "zipcode": "61810-200"
    },
    {
        "city": "Pacatuba",
        "state": "CE",
        "district": "Pavuna",
        "street": "Rua Pedrina da Silva",
        "zipcode": "61809-435"
    },
    {
        "city": "Pacatuba",
        "state": "CE",
        "district": "Pavuna",
        "street": "Rua Raimundo do Vale",
        "zipcode": "61810-235"
    },
    {
        "city": "Pacatuba",
        "state": "CE",
        "district": "Pavuna",
        "street": "Rua 6 (Lot Panorama II)",
        "zipcode": "61810-515"
    },
    {
        "city": "Pacatuba",
        "state": "CE",
        "district": "Pavuna",
        "street": "Rua 3 (Lot Panorama II)",
        "zipcode": "61810-530"
    },
    {
        "city": "Pacatuba",
        "state": "CE",
        "district": "Pavuna",
        "street": "Rua 127 (Conj Pajuçara I)",
        "zipcode": "61812-513"
    },
    {
        "city": "Pacatuba",
        "state": "CE",
        "district": "Pavuna",
        "street": "Rua 125 (Conj Pajuçara II)",
        "zipcode": "61812-525"
    },
    {
        "city": "Pacatuba",
        "state": "CE",
        "district": "Pavuna",
        "street": "Rua 124 (Conj Pajuçara II)",
        "zipcode": "61812-528"
    },
    {
        "city": "Pacatuba",
        "state": "CE",
        "district": "Pavuna",
        "street": "Rua 122 (Conj Pajuçara II)",
        "zipcode": "61812-531"
    },
    {
        "city": "Pacatuba",
        "state": "CE",
        "district": "Pavuna",
        "street": "Rua 121",
        "zipcode": "61812-537"
    },
    {
        "city": "Pacatuba",
        "state": "CE",
        "district": "Pavuna",
        "street": "Rua 117 (Conj Pajuçara II)",
        "zipcode": "61812-543"
    },
    {
        "city": "Pacatuba",
        "state": "CE",
        "district": "Senador Carlos Jereissati",
        "street": "Rua 91 (Conj Jereissati II)",
        "zipcode": "61814-156"
    },
    {
        "city": "Pacatuba",
        "state": "CE",
        "district": "Pavuna",
        "street": "Rua Israel",
        "zipcode": "61809-300"
    },
    {
        "city": "Pacatuba",
        "state": "CE",
        "district": "Pavuna",
        "street": "Rua Manaimam",
        "zipcode": "61809-310"
    },
    {
        "city": "Pacatuba",
        "state": "CE",
        "district": "Pavuna",
        "street": "Rua Ângela Campos",
        "zipcode": "61809-145"
    },
    {
        "city": "Pacatuba",
        "state": "CE",
        "district": "Pavuna",
        "street": "Rua Tropical",
        "zipcode": "61809-380"
    },
    {
        "city": "Pacatuba",
        "state": "CE",
        "district": "Pavuna",
        "street": "Rua Fé e Caridade",
        "zipcode": "61809-130"
    },
    {
        "city": "Pacatuba",
        "state": "CE",
        "district": "Pavuna",
        "street": "Rua Seis (Lot Torrões)",
        "zipcode": "61809-335"
    },
    {
        "city": "Pacatuba",
        "state": "CE",
        "district": "Pavuna",
        "street": "Rua Mozart Alves de Oliveira",
        "zipcode": "61809-350"
    },
    {
        "city": "Pacatuba",
        "state": "CE",
        "district": "Pavuna",
        "street": "Rua São João (Lot Timbó)",
        "zipcode": "61809-445"
    },
    {
        "city": "Pacatuba",
        "state": "CE",
        "district": "Pavuna",
        "street": "Rua 13 (Lot Marajó)",
        "zipcode": "61810-310"
    },
    {
        "city": "Pacatuba",
        "state": "CE",
        "district": "Pavuna",
        "street": "Rua Geraldo Alves dos Santos",
        "zipcode": "61810-185"
    },
    {
        "city": "Pacatuba",
        "state": "CE",
        "district": "Pavuna",
        "street": "Rua 7 (Lot Panorama II)",
        "zipcode": "61810-510"
    },
    {
        "city": "Pacatuba",
        "state": "CE",
        "district": "Pavuna",
        "street": "Rua 110 (Conj Pajuçara I)",
        "zipcode": "61812-468"
    },
    {
        "city": "Pacatuba",
        "state": "CE",
        "district": "Monguba",
        "street": "Avenida Doutor Mendel Steinbruch",
        "zipcode": "61805-000"
    },
    {
        "city": "Pacatuba",
        "state": "CE",
        "district": "Pavuna",
        "street": "Avenida Pedro de Sá Roriz",
        "zipcode": "61809-125"
    },
    {
        "city": "Pacatuba",
        "state": "CE",
        "district": "Pavuna",
        "street": "Avenida Doutor Mendel Steinbruch",
        "zipcode": "61809-320"
    },
    {
        "city": "Pacatuba",
        "state": "CE",
        "district": "Pavuna",
        "street": "Avenida Setenta e sete (Lot Torrões)",
        "zipcode": "61809-345"
    },
    {
        "city": "Pacatuba",
        "state": "CE",
        "district": "Pavuna",
        "street": "Avenida José Guilherme",
        "zipcode": "61809-225"
    },
    {
        "city": "Pacatuba",
        "state": "CE",
        "district": "São Luiz",
        "street": "Rua Assuério Ferrer de LIma",
        "zipcode": "61803-220"
    },
    {
        "city": "Pacatuba",
        "state": "CE",
        "district": "Pavuna",
        "street": "Rua E (Lot Nossa Sª. de Fátima)",
        "zipcode": "61808-210"
    },
    {
        "city": "Pacatuba",
        "state": "CE",
        "district": "Pavuna",
        "street": "Rua D (Lot Nossa Sª. de Fátima)",
        "zipcode": "61808-215"
    },
    {
        "city": "Pacatuba",
        "state": "CE",
        "district": "Pavuna",
        "street": "Rua do Chiquinho",
        "zipcode": "61809-090"
    },
    {
        "city": "Pacatuba",
        "state": "CE",
        "district": "Pavuna",
        "street": "Rua Cabo João",
        "zipcode": "61809-140"
    },
    {
        "city": "Pacatuba",
        "state": "CE",
        "district": "Pavuna",
        "street": "Rua Jardim da Infância",
        "zipcode": "61809-190"
    },
    {
        "city": "Pacatuba",
        "state": "CE",
        "district": "Pavuna",
        "street": "Rua do Triângulo",
        "zipcode": "61809-220"
    },
    {
        "city": "Pacatuba",
        "state": "CE",
        "district": "Pavuna",
        "street": "Rua Edgar Ferreira da Costa",
        "zipcode": "61809-235"
    },
    {
        "city": "Pacatuba",
        "state": "CE",
        "district": "Pavuna",
        "street": "Rua José Ivan de Oliveira",
        "zipcode": "61809-250"
    },
    {
        "city": "Pacatuba",
        "state": "CE",
        "district": "Pavuna",
        "street": "Rua Granja Novo Clima",
        "zipcode": "61809-280"
    },
    {
        "city": "Pacatuba",
        "state": "CE",
        "district": "Pavuna",
        "street": "Rua Antônio Corrêia",
        "zipcode": "61809-290"
    },
    {
        "city": "Pacatuba",
        "state": "CE",
        "district": "Pavuna",
        "street": "Rua Joaquim Paiva de Oliveira",
        "zipcode": "61809-315"
    },
    {
        "city": "Pacatuba",
        "state": "CE",
        "district": "Pavuna",
        "street": "Rua Dom Luís",
        "zipcode": "61809-325"
    },
    {
        "city": "Pacatuba",
        "state": "CE",
        "district": "Pavuna",
        "street": "Rua A (Lot Nossa Sª. de Fátima)",
        "zipcode": "61808-205"
    },
    {
        "city": "Pacatuba",
        "state": "CE",
        "district": "Pavuna",
        "street": "Rua Anjo Gabriel",
        "zipcode": "61809-110"
    },
    {
        "city": "Pacatuba",
        "state": "CE",
        "district": "Pavuna",
        "street": "Rua da Paz",
        "zipcode": "61809-165"
    },
    {
        "city": "Pacatuba",
        "state": "CE",
        "district": "Pavuna",
        "street": "Rua Clóvis de Castro",
        "zipcode": "61809-175"
    },
    {
        "city": "Pacatuba",
        "state": "CE",
        "district": "Pavuna",
        "street": "Rua José Monteiro da Silva",
        "zipcode": "61809-240"
    },
    {
        "city": "Pacatuba",
        "state": "CE",
        "district": "Pavuna",
        "street": "Rua Tenente Cravo",
        "zipcode": "61809-100"
    },
    {
        "city": "Pacatuba",
        "state": "CE",
        "district": "Pavuna",
        "street": "Rua São Francisco",
        "zipcode": "61809-115"
    },
    {
        "city": "Pacatuba",
        "state": "CE",
        "district": "Pavuna",
        "street": "Rua Santana da Paraiba",
        "zipcode": "61809-155"
    },
    {
        "city": "Pacatuba",
        "state": "CE",
        "district": "Pavuna",
        "street": "Rua São José II",
        "zipcode": "61809-200"
    },
    {
        "city": "Pacatuba",
        "state": "CE",
        "district": "Pavuna",
        "street": "Rua Mauricio Alves de Oliveira",
        "zipcode": "61809-245"
    },
    {
        "city": "Pacatuba",
        "state": "CE",
        "district": "Pavuna",
        "street": "Rua Pavuna Velha",
        "zipcode": "61809-265"
    },
    {
        "city": "Pacatuba",
        "state": "CE",
        "district": "Pavuna",
        "street": "Rua Milton Cordeiro",
        "zipcode": "61809-105"
    },
    {
        "city": "Pacatuba",
        "state": "CE",
        "district": "Pavuna",
        "street": "Rua São José",
        "zipcode": "61809-195"
    },
    {
        "city": "Pacatuba",
        "state": "CE",
        "district": "Pavuna",
        "street": "Rua São João",
        "zipcode": "61809-210"
    },
    {
        "city": "Pacatuba",
        "state": "CE",
        "district": "Pavuna",
        "street": "Rua Três (Lot Torrões)",
        "zipcode": "61809-365"
    },
    {
        "city": "Pacatuba",
        "state": "CE",
        "district": "Pavuna",
        "street": "Rua Três Irmãos",
        "zipcode": "61809-430"
    },
    {
        "city": "Pacatuba",
        "state": "CE",
        "district": "Pavuna",
        "street": "Rua Topázio",
        "zipcode": "61810-220"
    },
    {
        "city": "Pacatuba",
        "state": "CE",
        "district": "Pavuna",
        "street": "Rua São Benedito (Lot Jardim Bandeirante)",
        "zipcode": "61810-285"
    },
    {
        "city": "Pacatuba",
        "state": "CE",
        "district": "Pavuna",
        "street": "Rua Santa Terezinha",
        "zipcode": "61810-290"
    },
    {
        "city": "Pacatuba",
        "state": "CE",
        "district": "Pavuna",
        "street": "Rua 05 (Lot Morada da Boa Vizinhança Pacatu",
        "zipcode": "61810-380"
    },
    {
        "city": "Pacatuba",
        "state": "CE",
        "district": "Pavuna",
        "street": "Rua 03 (Lot Morada da Boa Vizinhança Pacatu",
        "zipcode": "61810-390"
    },
    {
        "city": "Pacatuba",
        "state": "CE",
        "district": "Pavuna",
        "street": "Rua 02 (Lot Morada da Boa Vizinhança Pacatu",
        "zipcode": "61810-395"
    },
    {
        "city": "Pacatuba",
        "state": "CE",
        "district": "Pavuna",
        "street": "Rua 12 (Lot Marajó)",
        "zipcode": "61810-325"
    },
    {
        "city": "Pacatuba",
        "state": "CE",
        "district": "Pavuna",
        "street": "Travessa Pavuna Velha",
        "zipcode": "61809-260"
    },
    {
        "city": "Pacatuba",
        "state": "CE",
        "district": "Pavuna",
        "street": "Rua 7 (Lot Alto da Pavuna)",
        "zipcode": "61808-130"
    },
    {
        "city": "Pacatuba",
        "state": "CE",
        "district": "São Luiz",
        "street": "Rua André Novais de Oliveira",
        "zipcode": "61803-240"
    },
    {
        "city": "Pacatuba",
        "state": "CE",
        "district": "Monguba",
        "street": "Rua XXIX (Lot Planalto Resdêncial)",
        "zipcode": "61805-610"
    },
    {
        "city": "Pacatuba",
        "state": "CE",
        "district": "Monguba",
        "street": "Rua XVII (Lot Planalto Residêncial)",
        "zipcode": "61805-710"
    },
    {
        "city": "Pacatuba",
        "state": "CE",
        "district": "Pavuna",
        "street": "Rua 1 (Lot Alto da Pavuna)",
        "zipcode": "61808-155"
    },
    {
        "city": "Pacatuba",
        "state": "CE",
        "district": "Pracinha",
        "street": "Rua Coronel José do Carmo",
        "zipcode": "61801-470"
    },
    {
        "city": "Pacatuba",
        "state": "CE",
        "district": "Pracinha",
        "street": "Travessa Coronel José do Carmo",
        "zipcode": "61801-475"
    },
    {
        "city": "Pacatuba",
        "state": "CE",
        "district": "Pracinha",
        "street": "Avenida Capitão Manuel Medeiros",
        "zipcode": "61801-500"
    },
    {
        "city": "Pacatuba",
        "state": "CE",
        "district": "São Bento",
        "street": "Avenida Governador Faustino de Albuquerque",
        "zipcode": "61801-660"
    },
    {
        "city": "Pacatuba",
        "state": "CE",
        "district": "Monguba",
        "street": "Avenida A (Lot Uirapuru)",
        "zipcode": "61805-220"
    },
    {
        "city": "Pacatuba",
        "state": "CE",
        "district": "São Bento",
        "street": "Rua Aurora Galdêncio de Sousa",
        "zipcode": "61801-670"
    },
    {
        "city": "Pacatuba",
        "state": "CE",
        "district": "São Bento",
        "street": "Rua Jaime Eduardo de Sousa",
        "zipcode": "61801-760"
    },
    {
        "city": "Pacatuba",
        "state": "CE",
        "district": "Monguba",
        "street": "Rua Antônio Joaquim de Araújo (Lot Acarauzinho)",
        "zipcode": "61805-015"
    },
    {
        "city": "Pacatuba",
        "state": "CE",
        "district": "Monguba",
        "street": "Rua A (Lot Uirapuru)",
        "zipcode": "61805-215"
    },
    {
        "city": "Pacatuba",
        "state": "CE",
        "district": "Monguba",
        "street": "Rua B (Lot Uirapuru)",
        "zipcode": "61805-225"
    },
    {
        "city": "Pacatuba",
        "state": "CE",
        "district": "Monguba",
        "street": "Rua IX (Lot Planalto Residêncial)",
        "zipcode": "61805-615"
    },
    {
        "city": "Pacatuba",
        "state": "CE",
        "district": "Monguba",
        "street": "Rua Antônio Luís de Sousa",
        "zipcode": "61805-770"
    },
    {
        "city": "Pacatuba",
        "state": "CE",
        "district": "Pavuna",
        "street": "Rua C (Lot Nossa Sª. de Fátima)",
        "zipcode": "61808-190"
    },
    {
        "city": "Pacatuba",
        "state": "CE",
        "district": "Pavuna",
        "street": "Rua B (Lot Nossa Sª. de Fátima)",
        "zipcode": "61808-200"
    },
    {
        "city": "Pacatuba",
        "state": "CE",
        "district": "Monguba",
        "street": "Rua D (Lot Acarauzinho)",
        "zipcode": "61805-010"
    },
    {
        "city": "Pacatuba",
        "state": "CE",
        "district": "Monguba",
        "street": "Rua VIII (Lot Planalto Residêncial)",
        "zipcode": "61805-585"
    },
    {
        "city": "Pacatuba",
        "state": "CE",
        "district": "Monguba",
        "street": "Rua XXVII (Lot Planalto Residêncial)",
        "zipcode": "61805-590"
    },
    {
        "city": "Pacatuba",
        "state": "CE",
        "district": "Monguba",
        "street": "Rua XXVIII (Lot Planalto Residêncial)",
        "zipcode": "61805-605"
    },
    {
        "city": "Pacatuba",
        "state": "CE",
        "district": "Monguba",
        "street": "Rua XXXIII (Lot Planalto Residêncial)",
        "zipcode": "61805-630"
    },
    {
        "city": "Pacatuba",
        "state": "CE",
        "district": "Monguba",
        "street": "Rua XXIII (Lot Planalto Residêncial)",
        "zipcode": "61805-640"
    },
    {
        "city": "Pacatuba",
        "state": "CE",
        "district": "Monguba",
        "street": "Rua XXI (Lot Planalto Residêncial)",
        "zipcode": "61805-655"
    },
    {
        "city": "Pacatuba",
        "state": "CE",
        "district": "Monguba",
        "street": "Rua XIX (Lot Planalto Residencial)",
        "zipcode": "61805-665"
    },
    {
        "city": "Pacatuba",
        "state": "CE",
        "district": "Monguba",
        "street": "Rua XVIII (Lot Planalto Residêncial)",
        "zipcode": "61805-670"
    },
    {
        "city": "Pacatuba",
        "state": "CE",
        "district": "Monguba",
        "street": "Rua XXXII (Lot Planalto Residêncial)",
        "zipcode": "61805-680"
    },
    {
        "city": "Pacatuba",
        "state": "CE",
        "district": "Monguba",
        "street": "Rua XII (Lot Planalto Residêncial)",
        "zipcode": "61805-685"
    },
    {
        "city": "Pacatuba",
        "state": "CE",
        "district": "Monguba",
        "street": "Rua XV (Lot Planalto Residêncial)",
        "zipcode": "61805-700"
    },
    {
        "city": "Pacatuba",
        "state": "CE",
        "district": "Monguba",
        "street": "Rua 1 (Lot Nova Monguba)",
        "zipcode": "61805-855"
    },
    {
        "city": "Pacatuba",
        "state": "CE",
        "district": "Pavuna",
        "street": "Rua 10 (Lot Alto da Pavuna)",
        "zipcode": "61808-115"
    },
    {
        "city": "Pacatuba",
        "state": "CE",
        "district": "Monguba",
        "street": "Rua X (Lot Planalto Residêncial)",
        "zipcode": "61805-620"
    },
    {
        "city": "Pacatuba",
        "state": "CE",
        "district": "Monguba",
        "street": "Rua 3 (Lot Nova Monguba)",
        "zipcode": "61805-865"
    },
    {
        "city": "Pacatuba",
        "state": "CE",
        "district": "Monguba",
        "street": "Rua 6 (Lot Nova Monguba)",
        "zipcode": "61805-880"
    },
    {
        "city": "Pacatuba",
        "state": "CE",
        "district": "Monguba",
        "street": "Rua 5 (Lot Nova Monguba)",
        "zipcode": "61805-885"
    },
    {
        "city": "Pacatuba",
        "state": "CE",
        "district": "Pavuna",
        "street": "Rua 23 (Lot Alto da Pavuna)",
        "zipcode": "61808-000"
    },
    {
        "city": "Pacatuba",
        "state": "CE",
        "district": "Pavuna",
        "street": "Rua 24 (Lot Alto da Pavuna)",
        "zipcode": "61808-010"
    },
    {
        "city": "Pacatuba",
        "state": "CE",
        "district": "Pavuna",
        "street": "Rua 4 (Lot Alto da Pavuna)",
        "zipcode": "61808-015"
    },
    {
        "city": "Pacatuba",
        "state": "CE",
        "district": "Pavuna",
        "street": "Rua 39 (Lot Alto da Pavuna)",
        "zipcode": "61808-120"
    },
    {
        "city": "Pacatuba",
        "state": "CE",
        "district": "Pavuna",
        "street": "Rua 29 (Lot Alto da Pavuna)",
        "zipcode": "61808-140"
    },
    {
        "city": "Pacatuba",
        "state": "CE",
        "district": "Pavuna",
        "street": "Rua 27 (Lot Alto da Pavuna)",
        "zipcode": "61808-150"
    },
    {
        "city": "Pacatuba",
        "state": "CE",
        "district": "Pavuna",
        "street": "Rua 2 (Lot Alto da Pavuna)",
        "zipcode": "61808-165"
    },
    {
        "city": "Pacatuba",
        "state": "CE",
        "district": "Pavuna",
        "street": "Rua 21 (Lot Alto da Pavuna)",
        "zipcode": "61808-170"
    },
    {
        "city": "Pacatuba",
        "state": "CE",
        "district": "Pavuna",
        "street": "Rua 20 (Lot Alto da Pavuna)",
        "zipcode": "61808-175"
    },
    {
        "city": "Pacatuba",
        "state": "CE",
        "district": "Monguba",
        "street": "Rua 4 (Lot Nova Pacatuba)",
        "zipcode": "61805-875"
    },
    {
        "city": "Pacatuba",
        "state": "CE",
        "district": "Pavuna",
        "street": "Rua 5 (Lot Alto da Pavuna)",
        "zipcode": "61808-005"
    },
    {
        "city": "Pacatuba",
        "state": "CE",
        "district": "Pavuna",
        "street": "Rua 3 (Lot Alto da Pavuna)",
        "zipcode": "61808-180"
    },
    {
        "city": "Pacatuba",
        "state": "CE",
        "district": "Monguba",
        "street": "Rua 8 (Lot Nova Monguba)",
        "zipcode": "61805-850"
    },
    {
        "city": "Pacatuba",
        "state": "CE",
        "district": "Pavuna",
        "street": "Rua 8 (Lot Alto da Pavuna)",
        "zipcode": "61808-125"
    },
    {
        "city": "Pacatuba",
        "state": "CE",
        "district": "São José",
        "street": "Rua Antônio Cândido",
        "zipcode": "61802-190"
    },
    {
        "city": "Pacatuba",
        "state": "CE",
        "district": "São Luiz",
        "street": "Rua José Marcio Ferrer",
        "zipcode": "61803-180"
    },
    {
        "city": "Pacatuba",
        "state": "CE",
        "district": "Monguba",
        "street": "Rua N1 (Lot Uirapuru)",
        "zipcode": "61805-305"
    },
    {
        "city": "Pacatuba",
        "state": "CE",
        "district": "Monguba",
        "street": "Rua IV (Lot Planalto Residêncial)",
        "zipcode": "61805-550"
    },
    {
        "city": "Pacatuba",
        "state": "CE",
        "district": "Pavuna",
        "street": "Rua 28 (Lot Alto da Pavuna)",
        "zipcode": "61808-145"
    },
    {
        "city": "Pacatuba",
        "state": "CE",
        "district": "São Bento",
        "street": "Rua Francisco Uruburana de Lima",
        "zipcode": "61801-680"
    },
    {
        "city": "Pacatuba",
        "state": "CE",
        "district": "São Luiz",
        "street": "Rua Maria Vilanir",
        "zipcode": "61803-260"
    },
    {
        "city": "Pacatuba",
        "state": "CE",
        "district": "Forquilha",
        "street": "Rua Vicente Ferreira",
        "zipcode": "61802-530"
    },
    {
        "city": "Pacatuba",
        "state": "CE",
        "district": "Centro",
        "street": "Rua São Joaquim",
        "zipcode": "61801-100"
    },
    {
        "city": "Pacatuba",
        "state": "CE",
        "district": "Centro",
        "street": "Rua do Cemitério",
        "zipcode": "61801-110"
    },
    {
        "city": "Pacatuba",
        "state": "CE",
        "district": "Centro",
        "street": "Rua Leopoldo Assunção Nepomuceno",
        "zipcode": "61801-195"
    },
    {
        "city": "Pacatuba",
        "state": "CE",
        "district": "Centro",
        "street": "Rua Sebastião Alves Cavalcante",
        "zipcode": "61801-200"
    },
    {
        "city": "Pacatuba",
        "state": "CE",
        "district": "Centro",
        "street": "Rua Major Crisanto de Almeida",
        "zipcode": "61801-205"
    },
    {
        "city": "Pacatuba",
        "state": "CE",
        "district": "Centro",
        "street": "Rua Coronel João Carlos",
        "zipcode": "61801-225"
    },
    {
        "city": "Pacatuba",
        "state": "CE",
        "district": "Centro",
        "street": "Rua Caio Cid",
        "zipcode": "61801-230"
    },
    {
        "city": "Pacatuba",
        "state": "CE",
        "district": "Centro",
        "street": "Rua Raimundo Siqueira",
        "zipcode": "61801-245"
    },
    {
        "city": "Pacatuba",
        "state": "CE",
        "district": "Centro",
        "street": "Rua Coronel José Libânio",
        "zipcode": "61801-250"
    },
    {
        "city": "Pacatuba",
        "state": "CE",
        "district": "São José",
        "street": "Rua Coronel José do Carmo",
        "zipcode": "61802-160"
    },
    {
        "city": "Pacatuba",
        "state": "CE",
        "district": "São José",
        "street": "Avenida Capitão Manuel Medeiros",
        "zipcode": "61802-180"
    },
    {
        "city": "Pacatuba",
        "state": "CE",
        "district": "São José",
        "street": "Avenida Maria Lira",
        "zipcode": "61802-280"
    },
    {
        "city": "Pacatuba",
        "state": "CE",
        "district": "São José",
        "street": "Avenida Sérgio Protásio Silva",
        "zipcode": "61802-200"
    },
    {
        "city": "Pacatuba",
        "state": "CE",
        "district": "São Bento",
        "street": "Rua Francisco Bispo da Silva",
        "zipcode": "61801-770"
    },
    {
        "city": "Pacatuba",
        "state": "CE",
        "district": "São Luiz",
        "street": "Rua Laura Barros de Lima",
        "zipcode": "61803-150"
    },
    {
        "city": "Pacatuba",
        "state": "CE",
        "district": "Monguba",
        "street": "Rua E (Lot Acarauzinho)",
        "zipcode": "61805-020"
    },
    {
        "city": "Pacatuba",
        "state": "CE",
        "district": "Monguba",
        "street": "Rua F (Lot Acarauzinho)",
        "zipcode": "61805-030"
    },
    {
        "city": "Pacatuba",
        "state": "CE",
        "district": "Monguba",
        "street": "Rua D (Lot Uirapuru)",
        "zipcode": "61805-245"
    },
    {
        "city": "Pacatuba",
        "state": "CE",
        "district": "Monguba",
        "street": "Rua E (Lot Uirapuru)",
        "zipcode": "61805-255"
    },
    {
        "city": "Pacatuba",
        "state": "CE",
        "district": "Monguba",
        "street": "Rua F (Lot Uirapuru)",
        "zipcode": "61805-260"
    },
    {
        "city": "Pacatuba",
        "state": "CE",
        "district": "Monguba",
        "street": "Rua H (Lot Uirapuru)",
        "zipcode": "61805-270"
    },
    {
        "city": "Pacatuba",
        "state": "CE",
        "district": "Monguba",
        "street": "Rua I (Lot Uirapuru)",
        "zipcode": "61805-275"
    },
    {
        "city": "Pacatuba",
        "state": "CE",
        "district": "Monguba",
        "street": "Rua J (Lot Uirapuru)",
        "zipcode": "61805-290"
    },
    {
        "city": "Pacatuba",
        "state": "CE",
        "district": "Monguba",
        "street": "Rua L (Lot Uirapuru)",
        "zipcode": "61805-295"
    },
    {
        "city": "Pacatuba",
        "state": "CE",
        "district": "Monguba",
        "street": "Rua I (Lot Planalto Residêncial)",
        "zipcode": "61805-535"
    },
    {
        "city": "Pacatuba",
        "state": "CE",
        "district": "Monguba",
        "street": "Rua II (Lot Planalto Residêncial)",
        "zipcode": "61805-540"
    },
    {
        "city": "Pacatuba",
        "state": "CE",
        "district": "São Luiz",
        "street": "Rua Francisco Pedro Gomes da Silva",
        "zipcode": "61803-030"
    },
    {
        "city": "Pacatuba",
        "state": "CE",
        "district": "São Luiz",
        "street": "Rua Antônio Joaquim de Araújo",
        "zipcode": "61803-080"
    },
    {
        "city": "Pacatuba",
        "state": "CE",
        "district": "São Luiz",
        "street": "Rua Jorge Ferrer de LIma",
        "zipcode": "61803-130"
    },
    {
        "city": "Pacatuba",
        "state": "CE",
        "district": "São Luiz",
        "street": "Rua Maria Mercedes Martins Ferrer",
        "zipcode": "61803-140"
    },
    {
        "city": "Pacatuba",
        "state": "CE",
        "district": "São Luiz",
        "street": "Rua Raimundo Ferrer de Lima",
        "zipcode": "61803-250"
    },
    {
        "city": "Pacatuba",
        "state": "CE",
        "district": "Monguba",
        "street": "Rua Senador Pompeu",
        "zipcode": "61805-040"
    },
    {
        "city": "Pacatuba",
        "state": "CE",
        "district": "Monguba",
        "street": "Rua Vicente Ferreira",
        "zipcode": "61805-050"
    },
    {
        "city": "Pacatuba",
        "state": "CE",
        "district": "Monguba",
        "street": "Rua M (Lot Uirapuru)",
        "zipcode": "61805-210"
    },
    {
        "city": "Pacatuba",
        "state": "CE",
        "district": "Monguba",
        "street": "Rua 1 (Lot Uirapuru)",
        "zipcode": "61805-240"
    },
    {
        "city": "Pacatuba",
        "state": "CE",
        "district": "Monguba",
        "street": "Rua O (Lot Uirapuru)",
        "zipcode": "61805-310"
    },
    {
        "city": "Pacatuba",
        "state": "CE",
        "district": "Monguba",
        "street": "Rua 10 (Lot Vale das Almeiras)",
        "zipcode": "61805-495"
    },
    {
        "city": "Pacatuba",
        "state": "CE",
        "district": "Monguba",
        "street": "Rua 1 (Lot Vales das Almeiras)",
        "zipcode": "61805-500"
    },
    {
        "city": "Pacatuba",
        "state": "CE",
        "district": "Monguba",
        "street": "Rua XXIV (Lot Planalto Residêncial)",
        "zipcode": "61805-565"
    },
    {
        "city": "Pacatuba",
        "state": "CE",
        "district": "Monguba",
        "street": "Rua VI (Lot Planalto Residêncial)",
        "zipcode": "61805-570"
    },
    {
        "city": "Pacatuba",
        "state": "CE",
        "district": "São Luiz",
        "street": "Rua Luiz Ferrer de Lima",
        "zipcode": "61803-230"
    },
    {
        "city": "Pacatuba",
        "state": "CE",
        "district": "Monguba",
        "street": "Rua XXV (Lot Planalto Residêncial)",
        "zipcode": "61805-560"
    },
    {
        "city": "Pacatuba",
        "state": "CE",
        "district": "Monguba",
        "street": "Rua 25 (Lot Vale das Almeiras)",
        "zipcode": "61805-480"
    },
    {
        "city": "Pacatuba",
        "state": "CE",
        "district": "Monguba",
        "street": "Rua 7 (Lot Vale das Almeiras)",
        "zipcode": "61805-515"
    },
    {
        "city": "Pacatuba",
        "state": "CE",
        "district": "Monguba",
        "street": "Rua 6 (Lot Vale das Almeiras)",
        "zipcode": "61805-520"
    },
    {
        "city": "Pacatuba",
        "state": "CE",
        "district": "Quandu",
        "street": "Rua 20 (Lot Quandu)",
        "zipcode": "61800-155"
    },
    {
        "city": "Pacatuba",
        "state": "CE",
        "district": "Quandu",
        "street": "Rua 27 (Lot Quandu)",
        "zipcode": "61800-230"
    },
    {
        "city": "Pacatuba",
        "state": "CE",
        "district": "Pracinha",
        "street": "Rua João Batista",
        "zipcode": "61801-505"
    },
    {
        "city": "Pacatuba",
        "state": "CE",
        "district": "São Luiz",
        "street": "Rua Manoel Adalberto de Araújo",
        "zipcode": "61803-070"
    },
    {
        "city": "Pacatuba",
        "state": "CE",
        "district": "Centro",
        "street": "Rua Presidente Getúlio Vargas",
        "zipcode": "61801-240"
    },
    {
        "city": "Pacatuba",
        "state": "CE",
        "district": "São Luiz",
        "street": "Rua José Soares de Albuquerque",
        "zipcode": "61803-000"
    },
    {
        "city": "Pacatuba",
        "state": "CE",
        "district": "São Luiz",
        "street": "Rua Pedro Sebastião de Sousa",
        "zipcode": "61803-040"
    },
    {
        "city": "Pacatuba",
        "state": "CE",
        "district": "Centro",
        "street": "Rua Irmãs Florêncio",
        "zipcode": "61801-275"
    },
    {
        "city": "Pacatuba",
        "state": "CE",
        "district": "Centro",
        "street": "Rua João Pereira Cavalcante",
        "zipcode": "61801-280"
    },
    {
        "city": "Pacatuba",
        "state": "CE",
        "district": "Centro",
        "street": "Rua Eliezer Martins da Silva",
        "zipcode": "61801-300"
    },
    {
        "city": "Pacatuba",
        "state": "CE",
        "district": "Centro",
        "street": "Rua Joana Albuquerque de Medeiros",
        "zipcode": "61801-320"
    },
    {
        "city": "Pacatuba",
        "state": "CE",
        "district": "Centro",
        "street": "Rua Ângela Costa Campos",
        "zipcode": "61801-330"
    },
    {
        "city": "Pacatuba",
        "state": "CE",
        "district": "Centro",
        "street": "Rua Antônio Valentim da Silva",
        "zipcode": "61801-335"
    },
    {
        "city": "Pacatuba",
        "state": "CE",
        "district": "Centro",
        "street": "Rua São Gregório",
        "zipcode": "61801-345"
    },
    {
        "city": "Pacatuba",
        "state": "CE",
        "district": "Centro",
        "street": "Rua Durval Freire de Medeiros",
        "zipcode": "61801-350"
    },
    {
        "city": "Pacatuba",
        "state": "CE",
        "district": "Centro",
        "street": "Rua Urbano Pinheiro",
        "zipcode": "61801-270"
    },
    {
        "city": "Pacatuba",
        "state": "CE",
        "district": "Centro",
        "street": "Avenida Governador Faustino de Albuquerque",
        "zipcode": "61801-170"
    },
    {
        "city": "Pacatuba",
        "state": "CE",
        "district": "Centro",
        "street": "Rua Caio Prado",
        "zipcode": "61801-180"
    },
    {
        "city": "Pacatuba",
        "state": "CE",
        "district": "Centro",
        "street": "Rua Josué Mateus de Figueiredo",
        "zipcode": "61801-215"
    },
    {
        "city": "Pacatuba",
        "state": "CE",
        "district": "Centro",
        "street": "Rua Antônio Cavalcante",
        "zipcode": "61801-285"
    },
    {
        "city": "Pacatuba",
        "state": "CE",
        "district": "Centro",
        "street": "Travessa Antônio Raimundo Cavalcante",
        "zipcode": "61801-290"
    },
    {
        "city": "Pacatuba",
        "state": "CE",
        "district": "Centro",
        "street": "Rua Rogemir Ferreira Machado",
        "zipcode": "61801-310"
    },
    {
        "city": "Pacatuba",
        "state": "CE",
        "district": "Centro",
        "street": "Rua Raquel Ferrer de Albuquerque",
        "zipcode": "61801-315"
    },
    {
        "city": "Pacatuba",
        "state": "CE",
        "district": "Pracinha",
        "street": "Rua José Cavalcante",
        "zipcode": "61801-490"
    },
    {
        "city": "Pacatuba",
        "state": "CE",
        "district": "São Bento",
        "street": "Rua Luca Ferrer",
        "zipcode": "61801-690"
    },
    {
        "city": "Pacatuba",
        "state": "CE",
        "district": "São Bento",
        "street": "Rua João Araújo de Castro",
        "zipcode": "61801-710"
    },
    {
        "city": "Pacatuba",
        "state": "CE",
        "district": "São Bento",
        "street": "Rua José Tavares de Souza",
        "zipcode": "61801-730"
    },
    {
        "city": "Pacatuba",
        "state": "CE",
        "district": "São Bento",
        "street": "Rua José Soares de Albuquerque",
        "zipcode": "61801-780"
    },
    {
        "city": "Pacatuba",
        "state": "CE",
        "district": "São José",
        "street": "Rua João Batista de Lima",
        "zipcode": "61802-170"
    },
    {
        "city": "Pacatuba",
        "state": "CE",
        "district": "São José",
        "street": "Rua João Evangelista de Santana",
        "zipcode": "61802-270"
    },
    {
        "city": "Pacatuba",
        "state": "CE",
        "district": "São Luiz",
        "street": "Rua João Sebastião de Sousa 1",
        "zipcode": "61803-010"
    },
    {
        "city": "Pacatuba",
        "state": "CE",
        "district": "São Luiz",
        "street": "Rua João Batista Araújo",
        "zipcode": "61803-020"
    },
    {
        "city": "Pacatuba",
        "state": "CE",
        "district": "Alto São João",
        "street": "Rua Afonso Xavier da Silva",
        "zipcode": "61800-700"
    },
    {
        "city": "Pacatuba",
        "state": "CE",
        "district": "São Luiz",
        "street": "Rua José Sebastião de Sousa",
        "zipcode": "61803-110"
    },
    {
        "city": "Pacatuba",
        "state": "CE",
        "district": "Quandu",
        "street": "Rua 10 (Lot Quandu)",
        "zipcode": "61800-170"
    },
    {
        "city": "Pacatuba",
        "state": "CE",
        "district": "Piripau",
        "street": "Rua Urbano Pinheiro",
        "zipcode": "61801-445"
    },
    {
        "city": "Pacatuba",
        "state": "CE",
        "district": "Pracinha",
        "street": "Rua Raimundo Pereira Cavalcante",
        "zipcode": "61801-495"
    },
    {
        "city": "Pacatuba",
        "state": "CE",
        "district": "São José",
        "street": "Rua Vicente Salgueiro",
        "zipcode": "61802-210"
    },
    {
        "city": "Pacatuba",
        "state": "CE",
        "district": "São José",
        "street": "Rua Senador Pompeu",
        "zipcode": "61802-300"
    },
    {
        "city": "Pacatuba",
        "state": "CE",
        "district": "Quandu",
        "street": "Rua 21 (Lot Quandu)",
        "zipcode": "61800-180"
    },
    {
        "city": "Pacatuba",
        "state": "CE",
        "district": "Quandu",
        "street": "Rua 22 (Lot Quandu)",
        "zipcode": "61800-185"
    },
    {
        "city": "Pacatuba",
        "state": "CE",
        "district": "Quandu",
        "street": "Rua 13 (Lot Quandu)",
        "zipcode": "61800-195"
    },
    {
        "city": "Pacatuba",
        "state": "CE",
        "district": "Quandu",
        "street": "Rua 15 (Lot Quandu)",
        "zipcode": "61800-205"
    },
    {
        "city": "Pacatuba",
        "state": "CE",
        "district": "Quandu",
        "street": "Rua 17 (Lot Quandu)",
        "zipcode": "61800-215"
    },
    {
        "city": "Pacatuba",
        "state": "CE",
        "district": "Quandu",
        "street": "Rua 24 (Lot Quandu)",
        "zipcode": "61800-220"
    },
    {
        "city": "Pacatuba",
        "state": "CE",
        "district": "Quandu",
        "street": "Rua 9 (Lot Quandu)",
        "zipcode": "61800-165"
    },
    {
        "city": "Pacatuba",
        "state": "CE",
        "district": "Piripau",
        "street": "Travessa Urbano Pinheiro",
        "zipcode": "61801-440"
    },
    {
        "city": "Pacatuba",
        "state": "CE",
        "district": "São José",
        "street": "Vila Maria Luiza",
        "zipcode": "61802-290"
    },
    {
        "city": "Pacatuba",
        "state": "CE",
        "district": "São José",
        "street": "Travessa Maria Lira",
        "zipcode": "61802-250"
    },
    {
        "city": "Pacatuba",
        "state": "CE",
        "district": "Alto São João",
        "street": "Rua Raimundo Severo Viana",
        "zipcode": "61800-710"
    },
    {
        "city": "Pacatuba",
        "state": "CE",
        "district": "Quandu",
        "street": "Rua 14 (Lot Quandu)",
        "zipcode": "61800-200"
    },
    {
        "city": "Pacatuba",
        "state": "CE",
        "district": "Alto São João",
        "street": "Rua Luiz Anselmo da Silva",
        "zipcode": "61800-740"
    },
    {
        "city": "Pacatuba",
        "state": "CE",
        "district": "Alto São João",
        "street": "Rua João Inácio",
        "zipcode": "61800-780"
    },
    {
        "city": "Pacatuba",
        "state": "CE",
        "district": "Alto São João",
        "street": "Avenida Capitão Manuel Medeiros",
        "zipcode": "61800-530"
    },
    {
        "city": "Pacatuba",
        "state": "CE",
        "district": "Monguba",
        "street": "Avenida das Mongubeiras",
        "zipcode": "61805-715"
    },
    {
        "city": "Pacatuba",
        "state": "CE",
        "district": "Cajazeiras",
        "street": "Rua José Possidônio Neto",
        "zipcode": "61800-290"
    },
    {
        "city": "Pacatuba",
        "state": "CE",
        "district": "Alto São João",
        "street": "Rua Abdon Santiago da Costa",
        "zipcode": "61800-540"
    },
    {
        "city": "Pacatuba",
        "state": "CE",
        "district": "Alto São João",
        "street": "Estrada João Cavalcante Filho",
        "zipcode": "61800-560"
    },
    {
        "city": "Pacatuba",
        "state": "CE",
        "district": "Alto São João",
        "street": "Rua Ana Luci de Souza",
        "zipcode": "61800-600"
    },
    {
        "city": "Pacatuba",
        "state": "CE",
        "district": "Alto São João",
        "street": "Rua Lucas de Sousa Neres",
        "zipcode": "61800-610"
    },
    {
        "city": "Pacatuba",
        "state": "CE",
        "district": "Alto São João",
        "street": "Rua Joaquim Alexandre",
        "zipcode": "61800-640"
    },
    {
        "city": "Pacatuba",
        "state": "CE",
        "district": "Carnaubinha",
        "street": "Rua João Ferreira Pinto",
        "zipcode": "61801-375"
    },
    {
        "city": "Pacatuba",
        "state": "CE",
        "district": "Carnaubinha",
        "street": "Rua Francisco Valberto M. da Silva",
        "zipcode": "61801-380"
    },
    {
        "city": "Pacatuba",
        "state": "CE",
        "district": "Alto São João",
        "street": "Rua Jovina do Carmo de Santana",
        "zipcode": "61800-570"
    },
    {
        "city": "Pacatuba",
        "state": "CE",
        "district": "Alto São João",
        "street": "Rua Domingos Cachoeira",
        "zipcode": "61800-670"
    },
    {
        "city": "Pacatuba",
        "state": "CE",
        "district": "Alto São João",
        "street": "Rua José Franklin",
        "zipcode": "61800-730"
    },
    {
        "city": "Pacatuba",
        "state": "CE",
        "district": "Alto São João",
        "street": "Rua Francisco Sales Souza",
        "zipcode": "61800-750"
    },
    {
        "city": "Pacatuba",
        "state": "CE",
        "district": "Cajazeiras",
        "street": "Rua Luís Manoel dos Santos",
        "zipcode": "61800-270"
    },
    {
        "city": "Pacatuba",
        "state": "CE",
        "district": "Alto São João",
        "street": "Rua Pedro Soares de Melo",
        "zipcode": "61800-580"
    },
    {
        "city": "Pacatuba",
        "state": "CE",
        "district": "Alto São João",
        "street": "Rua Maria Vicente Ferreira",
        "zipcode": "61800-660"
    },
    {
        "city": "Pacatuba",
        "state": "CE",
        "district": "Alto São João",
        "street": "Rua Maximiano Laurentino Sales",
        "zipcode": "61800-650"
    },
    {
        "city": "Pacatuba",
        "state": "CE",
        "district": "Quandu",
        "street": "Rua 19 (Lot Quandu)",
        "zipcode": "61800-235"
    },
    {
        "city": "Pacatuba",
        "state": "CE",
        "district": "Quandu",
        "street": "Rua 18 (Lot Quandu)",
        "zipcode": "61800-240"
    },
    {
        "city": "Pacatuba",
        "state": "CE",
        "district": "Cajazeiras",
        "street": "Travessa Arco Íris",
        "zipcode": "61800-260"
    },
    {
        "city": "Pacatuba",
        "state": "CE",
        "district": "Alto São João",
        "street": "Travessa Arco Íris",
        "zipcode": "61800-490"
    },
    {
        "city": "Pacatuba",
        "state": "CE",
        "district": "Alto São João",
        "street": "Travessa Luís Manoel dos Santos",
        "zipcode": "61800-510"
    },
    {
        "city": "Pacatuba",
        "state": "CE",
        "district": "Alto São João",
        "street": "Travessa São Joaquim",
        "zipcode": "61800-770"
    },
    {
        "city": "Pacatuba",
        "state": "CE",
        "district": "Alto São João",
        "street": "Travessa São Mateus",
        "zipcode": "61800-790"
    },
    {
        "city": "Pacatuba",
        "state": "CE",
        "district": "Senador Carlos Jereissati",
        "street": "Avenida Estrela",
        "zipcode": "61814-384"
    },
    {
        "city": "Pacatuba",
        "state": "CE",
        "district": "Forquilha",
        "street": "Travessa Etelvira Vieira Cunha",
        "zipcode": "61802-600"
    },
    {
        "city": "Pacatuba",
        "state": "CE",
        "district": "Pavuna",
        "street": "Rua Liberdade",
        "zipcode": "61810-659"
    },
    {
        "city": "Pacatuba",
        "state": "CE",
        "district": "Pavuna",
        "street": "Rua São Francisco (Lot Parque Monteiro)",
        "zipcode": "61810-677"
    },
    {
        "city": "Pacatuba",
        "state": "CE",
        "district": "Senador Carlos Jereissati",
        "street": "Avenida A (Conj Jereissati III)",
        "zipcode": "61814-036"
    },
    {
        "city": "Pacatuba",
        "state": "CE",
        "district": "São José",
        "street": "Rua Luís Carlos de Abreu",
        "zipcode": "61802-185"
    },
    {
        "city": "Pacatuba",
        "state": "CE",
        "district": "Pavuna",
        "street": "Rua São Paulo",
        "zipcode": "61810-668"
    },
    {
        "city": "Pacatuba",
        "state": "CE",
        "district": "Quandu",
        "street": "Avenida Adalto Medeiros",
        "zipcode": "61800-125"
    },
    {
        "city": "Pacatuba",
        "state": "CE",
        "district": "São Luiz",
        "street": "Avenida Francisco Kauê Oliveira Mariano",
        "zipcode": "61803-178"
    },
    {
        "city": "Pacatuba",
        "state": "CE",
        "district": "São Luiz",
        "street": "Avenida Rita Ferrer Mariano",
        "zipcode": "61803-184"
    },
    {
        "city": "Pacatuba",
        "state": "CE",
        "district": "Monguba",
        "street": "Avenida A (Lot Planalto Residêncial)",
        "zipcode": "61805-580"
    },
    {
        "city": "Pacatuba",
        "state": "CE",
        "district": "São Luiz",
        "street": "Avenida Maria Novais de Lima",
        "zipcode": "61803-172"
    },
    {
        "city": "Pacatuba",
        "state": "CE",
        "district": "São Luiz",
        "street": "Avenida Antônia Ferreira de Lima",
        "zipcode": "61803-174"
    },
    {
        "city": "Pacatuba",
        "state": "CE",
        "district": "Monguba",
        "street": "Alameda 43 (Lot Uirapuru)",
        "zipcode": "61805-285"
    },
    {
        "city": "Pacatuba",
        "state": "CE",
        "district": "Pavuna",
        "street": "Avenida A (Conj Pajuçara I)",
        "zipcode": "61812-450"
    },
    {
        "city": "Pacatuba",
        "state": "CE",
        "district": "Alto São João",
        "street": "Rua Joaquim Antônio de Souza",
        "zipcode": "61800-555"
    },
    {
        "city": "Pacatuba",
        "state": "CE",
        "district": "São José",
        "street": "Rua José de Assis Lima",
        "zipcode": "61802-205"
    },
    {
        "city": "Pacatuba",
        "state": "CE",
        "district": "Monguba",
        "street": "Rua Santa Inês",
        "zipcode": "61805-765"
    },
    {
        "city": "Pacatuba",
        "state": "CE",
        "district": "São José",
        "street": "Travessa Antônio Eder da Silva Barbosa",
        "zipcode": "61802-275"
    },
    {
        "city": "Pacatuba",
        "state": "CE",
        "district": "Pavuna",
        "street": "Travessa Rozélia da Silva Leite",
        "zipcode": "61810-217"
    },
    {
        "city": "Pacatuba",
        "state": "CE",
        "district": "Pavuna",
        "street": "Avenida Central",
        "zipcode": "61809-355"
    },
    {
        "city": "Pacatuba",
        "state": "CE",
        "district": "Pavuna",
        "street": "Rua Largo do Cysne",
        "zipcode": "61809-375"
    },
    {
        "city": "Pacatuba",
        "state": "CE",
        "district": "Quandu",
        "street": "Rua 1 (Lot Quandu)",
        "zipcode": "61800-105"
    },
    {
        "city": "Pacatuba",
        "state": "CE",
        "district": "Quandu",
        "street": "Avenida Governador Faustino de Albuquerque",
        "zipcode": "61800-100"
    },
    {
        "city": "Pacatuba",
        "state": "CE",
        "district": "Cajazeiras",
        "street": "Avenida Governador Faustino de Albuquerque",
        "zipcode": "61800-250"
    },
    {
        "city": "Pacatuba",
        "state": "CE",
        "district": "Alto São João",
        "street": "Avenida Governador Faustino de Albuquerque",
        "zipcode": "61800-800"
    },
    {
        "city": "Pacatuba",
        "state": "CE",
        "district": "Cajazeiras",
        "street": "Estrada dos Padres",
        "zipcode": "61800-280"
    },
    {
        "city": "Pacatuba",
        "state": "CE",
        "district": "Alto São João",
        "street": "Rua Francisco Lopes Sobrinho",
        "zipcode": "61800-525"
    },
    {
        "city": "Pacatuba",
        "state": "CE",
        "district": "Alto São João",
        "street": "Rua Alice Franklin Lopes",
        "zipcode": "61800-550"
    },
    {
        "city": "Pacatuba",
        "state": "CE",
        "district": "Alto São João",
        "street": "Rua Beatriz Anselmo da Silva",
        "zipcode": "61800-590"
    },
    {
        "city": "Pacatuba",
        "state": "CE",
        "district": "Alto São João",
        "street": "Rua Antônio Araújo Vieira",
        "zipcode": "61800-635"
    },
    {
        "city": "Pacatuba",
        "state": "CE",
        "district": "Alto São João",
        "street": "Rua Luís Manoel dos Santos",
        "zipcode": "61800-500"
    },
    {
        "city": "Pacatuba",
        "state": "CE",
        "district": "Alto São João",
        "street": "Rua Maria do Carmo da Silva",
        "zipcode": "61800-680"
    },
    {
        "city": "Pacatuba",
        "state": "CE",
        "district": "Quandu",
        "street": "Rua 3 (Lot Quandu)",
        "zipcode": "61800-115"
    },
    {
        "city": "Pacatuba",
        "state": "CE",
        "district": "Quandu",
        "street": "Rua 26 (Lot Quandu)",
        "zipcode": "61800-135"
    },
    {
        "city": "Pacatuba",
        "state": "CE",
        "district": "Quandu",
        "street": "Rua 7 (Lot Quandu)",
        "zipcode": "61800-150"
    },
    {
        "city": "Pacatuba",
        "state": "CE",
        "district": "Quandu",
        "street": "Rua 11 (Lot Quandu)",
        "zipcode": "61800-175"
    },
    {
        "city": "Pacatuba",
        "state": "CE",
        "district": "Quandu",
        "street": "Rua 12 (Lot Quandu)",
        "zipcode": "61800-190"
    },
    {
        "city": "Pacatuba",
        "state": "CE",
        "district": "Quandu",
        "street": "Rua 16 (Lot Quandu)",
        "zipcode": "61800-210"
    },
    {
        "city": "Pacatuba",
        "state": "CE",
        "district": "Quandu",
        "street": "Rua 25 (Lot Quandu)",
        "zipcode": "61800-225"
    },
    {
        "city": "Pacatuba",
        "state": "CE",
        "district": "Quandu",
        "street": "Rua 8 (Lot Quandu)",
        "zipcode": "61800-160"
    },
    {
        "city": "Pacatuba",
        "state": "CE",
        "district": "Forquilha",
        "street": "Rua Senador Pompeu",
        "zipcode": "61802-540"
    },
    {
        "city": "Pacatuba",
        "state": "CE",
        "district": "Monguba",
        "street": "Rua C (Lot Uirapuru)",
        "zipcode": "61805-235"
    },
    {
        "city": "Pacatuba",
        "state": "CE",
        "district": "Monguba",
        "street": "Rua 5 (Lot Vale das Almeiras)",
        "zipcode": "61805-525"
    },
    {
        "city": "Pacatuba",
        "state": "CE",
        "district": "Monguba",
        "street": "Rua XI (Lot Planalto Residêncial)",
        "zipcode": "61805-625"
    },
    {
        "city": "Pacatuba",
        "state": "CE",
        "district": "Centro",
        "street": "Avenida Capitão Manuel Medeiros",
        "zipcode": "61801-105"
    },
    {
        "city": "Pacatuba",
        "state": "CE",
        "district": "Centro",
        "street": "Rua Raimunda Maria Pereira Cavalcante",
        "zipcode": "61801-190"
    },
    {
        "city": "Pacatuba",
        "state": "CE",
        "district": "Centro",
        "street": "Rua Carlos Costa Carmo",
        "zipcode": "61801-220"
    },
    {
        "city": "Pacatuba",
        "state": "CE",
        "district": "Centro",
        "street": "Rua Manoel Novaes",
        "zipcode": "61801-235"
    },
    {
        "city": "Pacatuba",
        "state": "CE",
        "district": "Centro",
        "street": "Rua Raimundo Pereira Campos",
        "zipcode": "61801-295"
    },
    {
        "city": "Pacatuba",
        "state": "CE",
        "district": "Centro",
        "street": "Rua Cândido Campelim",
        "zipcode": "61801-325"
    },
    {
        "city": "Pacatuba",
        "state": "CE",
        "district": "Centro",
        "street": "Rua Ernestina Valentim da Silva",
        "zipcode": "61801-340"
    },
    {
        "city": "Pacatuba",
        "state": "CE",
        "district": "Piripau",
        "street": "Rua Coronel José do Carmo",
        "zipcode": "61801-455"
    },
    {
        "city": "Pacatuba",
        "state": "CE",
        "district": "Centro",
        "street": "Rua Presidente Getúlio Vargas",
        "zipcode": "61801-970"
    },
    {
        "city": "Pacatuba",
        "state": "CE",
        "district": "São Luiz",
        "street": "Avenida Vicente Ferrer de Lima",
        "zipcode": "61803-190"
    },
    {
        "city": "Pacatuba",
        "state": "CE",
        "district": "Monguba",
        "street": "Avenida Presidente Tancredo Neves",
        "zipcode": "61805-035"
    },
    {
        "city": "Pacatuba",
        "state": "CE",
        "district": "Monguba",
        "street": "Avenida B (Lot Planalto Residêncial)",
        "zipcode": "61805-595"
    },
    {
        "city": "Pacatuba",
        "state": "CE",
        "district": "Carnaubinha",
        "street": "Rua Caio Cid",
        "zipcode": "61801-365"
    },
    {
        "city": "Pacatuba",
        "state": "CE",
        "district": "Piripau",
        "street": "Rua Irmãs Florêncio",
        "zipcode": "61801-450"
    },
    {
        "city": "Pacatuba",
        "state": "CE",
        "district": "Pracinha",
        "street": "Rua Irmãs Florêncio",
        "zipcode": "61801-480"
    },
    {
        "city": "Pacatuba",
        "state": "CE",
        "district": "Pracinha",
        "street": "Rua João Pereira Cavalcante",
        "zipcode": "61801-485"
    },
    {
        "city": "Pacatuba",
        "state": "CE",
        "district": "São Bento",
        "street": "Rua João Pereira da Silva",
        "zipcode": "61801-720"
    },
    {
        "city": "Pacatuba",
        "state": "CE",
        "district": "São Bento",
        "street": "Rua Francisco Pereira da Silva",
        "zipcode": "61801-740"
    },
    {
        "city": "Pacatuba",
        "state": "CE",
        "district": "São José",
        "street": "Rua Durval Freire de Medeiros",
        "zipcode": "61802-220"
    },
    {
        "city": "Pacatuba",
        "state": "CE",
        "district": "São José",
        "street": "Rua Francisco Belarmino de Paiva",
        "zipcode": "61802-235"
    },
    {
        "city": "Pacatuba",
        "state": "CE",
        "district": "São Luiz",
        "street": "Rua Jackson Roberto da Silva Araújo",
        "zipcode": "61803-090"
    },
    {
        "city": "Pacatuba",
        "state": "CE",
        "district": "São Luiz",
        "street": "Rua Antônio Ferrer de Lima",
        "zipcode": "61803-160"
    },
    {
        "city": "Pacatuba",
        "state": "CE",
        "district": "São Luiz",
        "street": "Rua Francisca Gaudêncio de Morais",
        "zipcode": "61803-182"
    },
    {
        "city": "Pacatuba",
        "state": "CE",
        "district": "São Luiz",
        "street": "Rua João Ferrer de Lima",
        "zipcode": "61803-200"
    },
    {
        "city": "Pacatuba",
        "state": "CE",
        "district": "Monguba",
        "street": "Rua C (Lot Acarauzinho)",
        "zipcode": "61805-005"
    },
    {
        "city": "Pacatuba",
        "state": "CE",
        "district": "Monguba",
        "street": "Rua G (Lot Acarauzinho)",
        "zipcode": "61805-045"
    },
    {
        "city": "Pacatuba",
        "state": "CE",
        "district": "Monguba",
        "street": "Rua G (Lot Uirapuru)",
        "zipcode": "61805-265"
    },
    {
        "city": "Pacatuba",
        "state": "CE",
        "district": "Carnaubinha",
        "street": "Rua Manoel Novaes",
        "zipcode": "61801-360"
    },
    {
        "city": "Pacatuba",
        "state": "CE",
        "district": "São Bento",
        "street": "Rua São Joaquim",
        "zipcode": "61801-650"
    },
    {
        "city": "Pacatuba",
        "state": "CE",
        "district": "São Bento",
        "street": "Rua São Gregório",
        "zipcode": "61801-790"
    },
    {
        "city": "Pacatuba",
        "state": "CE",
        "district": "São José",
        "street": "Rua Othon de Oliveira",
        "zipcode": "61802-150"
    },
    {
        "city": "Pacatuba",
        "state": "CE",
        "district": "São José",
        "street": "Rua São Gregório",
        "zipcode": "61802-260"
    },
    {
        "city": "Pacatuba",
        "state": "CE",
        "district": "São Luiz",
        "street": "Rua Manoel Olimpio de Moura",
        "zipcode": "61803-050"
    },
    {
        "city": "Pacatuba",
        "state": "CE",
        "district": "São Luiz",
        "street": "Rua Raimunda Maria da Silva Ferrer",
        "zipcode": "61803-100"
    },
    {
        "city": "Pacatuba",
        "state": "CE",
        "district": "Monguba",
        "street": "Rua Oliveira Lopes",
        "zipcode": "61805-025"
    },
    {
        "city": "Pacatuba",
        "state": "CE",
        "district": "Monguba",
        "street": "Rua N (Lot Uirapuru)",
        "zipcode": "61805-230"
    },
    {
        "city": "Pacatuba",
        "state": "CE",
        "district": "Monguba",
        "street": "Rua M1 (Lot Uirapuru)",
        "zipcode": "61805-300"
    },
    {
        "city": "Pacatuba",
        "state": "CE",
        "district": "Monguba",
        "street": "Rua V (Lot Planalto Residêncial)",
        "zipcode": "61805-555"
    },
    {
        "city": "Pacatuba",
        "state": "CE",
        "district": "Monguba",
        "street": "Rua XXII (Lot Planalto Residêncial)",
        "zipcode": "61805-650"
    },
    {
        "city": "Pacatuba",
        "state": "CE",
        "district": "Monguba",
        "street": "Rua XXXV (Lot Planalto Residêncial)",
        "zipcode": "61805-675"
    },
    {
        "city": "Pacatuba",
        "state": "CE",
        "district": "Monguba",
        "street": "Rua XIII (Lot Planalto Residêncial)",
        "zipcode": "61805-690"
    },
    {
        "city": "Pacatuba",
        "state": "CE",
        "district": "Monguba",
        "street": "Rua 3 (Lot Uirapuru)",
        "zipcode": "61805-250"
    },
    {
        "city": "Pacatuba",
        "state": "CE",
        "district": "Monguba",
        "street": "Rua 2 (Lot Uirapuru)",
        "zipcode": "61805-280"
    },
    {
        "city": "Pacatuba",
        "state": "CE",
        "district": "Monguba",
        "street": "Rua 5 (Lot Uirapuru)",
        "zipcode": "61805-320"
    },
    {
        "city": "Pacatuba",
        "state": "CE",
        "district": "Monguba",
        "street": "Rua 11 (Lot Vale das Almeiras)",
        "zipcode": "61805-490"
    },
    {
        "city": "Pacatuba",
        "state": "CE",
        "district": "Monguba",
        "street": "Rua 8 (Lot Vale das Aimeiras)",
        "zipcode": "61805-510"
    },
    {
        "city": "Pacatuba",
        "state": "CE",
        "district": "Monguba",
        "street": "Rua 7 (Lot Nova Monguba)",
        "zipcode": "61805-870"
    },
    {
        "city": "Pacatuba",
        "state": "CE",
        "district": "Pavuna",
        "street": "Rua Pedro de Sá Roriz",
        "zipcode": "61809-120"
    },
    {
        "city": "Pacatuba",
        "state": "CE",
        "district": "Carnaubinha",
        "street": "Rua Chagas Silva",
        "zipcode": "61801-370"
    },
    {
        "city": "Pacatuba",
        "state": "CE",
        "district": "São Luiz",
        "street": "Avenida Alice Novais de Lima",
        "zipcode": "61803-176"
    },
    {
        "city": "Pacatuba",
        "state": "CE",
        "district": "Monguba",
        "street": "Avenida Doutor Mendel Steinbruch",
        "zipcode": "61805-890"
    },
    {
        "city": "Pacatuba",
        "state": "CE",
        "district": "Pavuna",
        "street": "Avenida Dois Irmãos",
        "zipcode": "61809-385"
    },
    {
        "city": "Pacatuba",
        "state": "CE",
        "district": "Monguba",
        "street": "Rua Carlos Alberto Ribeiro Paiva",
        "zipcode": "61805-895"
    },
    {
        "city": "Pacatuba",
        "state": "CE",
        "district": "Monguba",
        "street": "Rua Antônio Luís de Sousa",
        "zipcode": "61805-970"
    },
    {
        "city": "Pacatuba",
        "state": "CE",
        "district": "Pavuna",
        "street": "Rua F (Lot Nossa Sª. de Fátima)",
        "zipcode": "61808-195"
    },
    {
        "city": "Pacatuba",
        "state": "CE",
        "district": "Pavuna",
        "street": "Rua Francisco Carioca de Farias",
        "zipcode": "61809-230"
    },
    {
        "city": "Pacatuba",
        "state": "CE",
        "district": "Pavuna",
        "street": "Rua Lírio Verde",
        "zipcode": "61809-295"
    },
    {
        "city": "Pacatuba",
        "state": "CE",
        "district": "Pavuna",
        "street": "Rua Alfredo Corrêa das Chagas",
        "zipcode": "61809-330"
    },
    {
        "city": "Pacatuba",
        "state": "CE",
        "district": "Monguba",
        "street": "Rua III (Lot Planalto Residêncial)",
        "zipcode": "61805-545"
    },
    {
        "city": "Pacatuba",
        "state": "CE",
        "district": "Pavuna",
        "street": "Rua Geraldo Martins",
        "zipcode": "61809-075"
    },
    {
        "city": "Pacatuba",
        "state": "CE",
        "district": "Pavuna",
        "street": "Rua Joaquim Lopes",
        "zipcode": "61809-135"
    },
    {
        "city": "Pacatuba",
        "state": "CE",
        "district": "Pavuna",
        "street": "Rua Cosme e Damião",
        "zipcode": "61809-205"
    },
    {
        "city": "Pacatuba",
        "state": "CE",
        "district": "Pavuna",
        "street": "Rua Antônio Facundo",
        "zipcode": "61809-410"
    },
    {
        "city": "Pacatuba",
        "state": "CE",
        "district": "Pavuna",
        "street": "Rua Senador Pompeu",
        "zipcode": "61809-070"
    },
    {
        "city": "Pacatuba",
        "state": "CE",
        "district": "Pavuna",
        "street": "Rua Tancredo Sá",
        "zipcode": "61809-095"
    },
    {
        "city": "Pacatuba",
        "state": "CE",
        "district": "Pavuna",
        "street": "Rua São Jorge",
        "zipcode": "61809-150"
    },
    {
        "city": "Pacatuba",
        "state": "CE",
        "district": "Pavuna",
        "street": "Rua São Mateus",
        "zipcode": "61809-160"
    },
    {
        "city": "Pacatuba",
        "state": "CE",
        "district": "Pavuna",
        "street": "Rua São Benedito",
        "zipcode": "61809-215"
    },
    {
        "city": "Pacatuba",
        "state": "CE",
        "district": "Pavuna",
        "street": "Rua Neusa Bezerra de Almeida",
        "zipcode": "61809-255"
    },
    {
        "city": "Pacatuba",
        "state": "CE",
        "district": "Pavuna",
        "street": "Rua Vicente Farias",
        "zipcode": "61809-270"
    },
    {
        "city": "Pacatuba",
        "state": "CE",
        "district": "Pavuna",
        "street": "Rua Raimundo Batista de Almeida",
        "zipcode": "61809-305"
    },
    {
        "city": "Pacatuba",
        "state": "CE",
        "district": "Alto São João",
        "street": "Rua Maria Dolores Sales",
        "zipcode": "61800-690"
    },
    {
        "city": "Pacatuba",
        "state": "CE",
        "district": "Alto São João",
        "street": "Rua São Joaquim",
        "zipcode": "61800-760"
    },
    {
        "city": "Pacatuba",
        "state": "CE",
        "district": "São José",
        "street": "Rua Vicente Ferreira",
        "zipcode": "61802-310"
    },
    {
        "city": "Pacatuba",
        "state": "CE",
        "district": "São Luiz",
        "street": "Rua Raimundo de Sousa",
        "zipcode": "61803-120"
    },
    {
        "city": "Pacatuba",
        "state": "CE",
        "district": "São Luiz",
        "street": "Rua Luciano Novais Ferrer",
        "zipcode": "61803-210"
    },
    {
        "city": "Pacatuba",
        "state": "CE",
        "district": "Monguba",
        "street": "Rua VII (Lot Planalto Residêncial)",
        "zipcode": "61805-575"
    },
    {
        "city": "Pacatuba",
        "state": "CE",
        "district": "Monguba",
        "street": "Rua XX (Lot Planalto Residêncial)",
        "zipcode": "61805-660"
    },
    {
        "city": "Pacatuba",
        "state": "CE",
        "district": "Pavuna",
        "street": "Rua São Pedro",
        "zipcode": "61809-170"
    },
    {
        "city": "Pacatuba",
        "state": "CE",
        "district": "Pavuna",
        "street": "Rua Santo Antônio",
        "zipcode": "61809-185"
    },
    {
        "city": "Pacatuba",
        "state": "CE",
        "district": "Pavuna",
        "street": "Rua Menino Jesus",
        "zipcode": "61809-275"
    },
    {
        "city": "Pacatuba",
        "state": "CE",
        "district": "Pavuna",
        "street": "Rua São Francisco (Lot Timbó)",
        "zipcode": "61809-405"
    },
    {
        "city": "Pacatuba",
        "state": "CE",
        "district": "Monguba",
        "street": "Rua 21 (Lot Nova Monguba)",
        "zipcode": "61805-780"
    },
    {
        "city": "Pacatuba",
        "state": "CE",
        "district": "Monguba",
        "street": "Rua 18 (Lot Nova Monguba)",
        "zipcode": "61805-795"
    },
    {
        "city": "Pacatuba",
        "state": "CE",
        "district": "Monguba",
        "street": "Rua 14 (Lot Nova Monguba)",
        "zipcode": "61805-815"
    },
    {
        "city": "Pacatuba",
        "state": "CE",
        "district": "Monguba",
        "street": "Rua 12 (Lot Nova Monguba)",
        "zipcode": "61805-835"
    },
    {
        "city": "Pacatuba",
        "state": "CE",
        "district": "Monguba",
        "street": "Rua 2 (Lot Nova Monguba)",
        "zipcode": "61805-860"
    },
    {
        "city": "Pacatuba",
        "state": "CE",
        "district": "Pavuna",
        "street": "Rua 25 (Lot Alto da Pavuna)",
        "zipcode": "61808-020"
    },
    {
        "city": "Pacatuba",
        "state": "CE",
        "district": "Pavuna",
        "street": "Rua 6 (Lot Alto da Pavuna)",
        "zipcode": "61808-025"
    },
    {
        "city": "Pacatuba",
        "state": "CE",
        "district": "Pavuna",
        "street": "Rua 35 (Lot Alto da Pavuna)",
        "zipcode": "61808-055"
    },
    {
        "city": "Pacatuba",
        "state": "CE",
        "district": "Pavuna",
        "street": "Rua 43 (Lot Alto da Pavuna)",
        "zipcode": "61808-095"
    },
    {
        "city": "Pacatuba",
        "state": "CE",
        "district": "Pavuna",
        "street": "Rua 22 (Lot Alto da Pavuna)",
        "zipcode": "61808-160"
    },
    {
        "city": "Pacatuba",
        "state": "CE",
        "district": "Monguba",
        "street": "Rua 11 (Lot Nova Monguba)",
        "zipcode": "61805-825"
    },
    {
        "city": "Pacatuba",
        "state": "CE",
        "district": "Monguba",
        "street": "Rua 9 (Lot Nova Monguba)",
        "zipcode": "61805-840"
    },
    {
        "city": "Pacatuba",
        "state": "CE",
        "district": "Pavuna",
        "street": "Rua Edmilson dos Santos",
        "zipcode": "61810-245"
    },
    {
        "city": "Pacatuba",
        "state": "CE",
        "district": "Pavuna",
        "street": "Rua Aspásio de Sá Roriz",
        "zipcode": "61810-280"
    },
    {
        "city": "Pacatuba",
        "state": "CE",
        "district": "Pavuna",
        "street": "Rua São Pedro (Lot Jardim Bandeirante)",
        "zipcode": "61810-295"
    },
    {
        "city": "Pacatuba",
        "state": "CE",
        "district": "Pavuna",
        "street": "Passeio Pedestre 4 (Lot Marajó)",
        "zipcode": "61810-315"
    },
    {
        "city": "Pacatuba",
        "state": "CE",
        "district": "Pavuna",
        "street": "Passeio Pedestre 2 (Lot Marajó)",
        "zipcode": "61810-335"
    },
    {
        "city": "Pacatuba",
        "state": "CE",
        "district": "Pavuna",
        "street": "Rua F (Lot Panorama I)",
        "zipcode": "61810-425"
    },
    {
        "city": "Pacatuba",
        "state": "CE",
        "district": "Pavuna",
        "street": "Rua G (Lot Panorama I)",
        "zipcode": "61810-435"
    },
    {
        "city": "Pacatuba",
        "state": "CE",
        "district": "Pavuna",
        "street": "Rua 30 (Lot Alto da Pavuna)",
        "zipcode": "61808-135"
    },
    {
        "city": "Pacatuba",
        "state": "CE",
        "district": "Pavuna",
        "street": "Rua J (Lot Panorama I)",
        "zipcode": "61810-450"
    },
    {
        "city": "Pacatuba",
        "state": "CE",
        "district": "Pavuna",
        "street": "Rua M (Lot Panorama I)",
        "zipcode": "61810-460"
    },
    {
        "city": "Pacatuba",
        "state": "CE",
        "district": "Pavuna",
        "street": "Rua P (Lot Panorama I)",
        "zipcode": "61810-475"
    },
    {
        "city": "Pacatuba",
        "state": "CE",
        "district": "Pavuna",
        "street": "Avenida 1 (Lot Panorama II)",
        "zipcode": "61810-490"
    },
    {
        "city": "Pacatuba",
        "state": "CE",
        "district": "Pavuna",
        "street": "Rua 103 (Conj Pajuçara I)",
        "zipcode": "61812-429"
    },
    {
        "city": "Pacatuba",
        "state": "CE",
        "district": "Pavuna",
        "street": "Rua 105 (Conj Pajuçara I)",
        "zipcode": "61812-441"
    },
    {
        "city": "Pacatuba",
        "state": "CE",
        "district": "Pavuna",
        "street": "Rua 120",
        "zipcode": "61812-549"
    },
    {
        "city": "Pacatuba",
        "state": "CE",
        "district": "Senador Carlos Jereissati",
        "street": "Rua 10 (Conj Jereissati III)",
        "zipcode": "61814-100"
    },
    {
        "city": "Pacatuba",
        "state": "CE",
        "district": "Senador Carlos Jereissati",
        "street": "Rua 1 (Conj Jereissati III)",
        "zipcode": "61814-136"
    },
    {
        "city": "Pacatuba",
        "state": "CE",
        "district": "Senador Carlos Jereissati",
        "street": "Rua Joaquim Pinto de Sousa",
        "zipcode": "61814-176"
    },
    {
        "city": "Pacatuba",
        "state": "CE",
        "district": "Senador Carlos Jereissati",
        "street": "Rua Santa Edwirges",
        "zipcode": "61814-208"
    },
    {
        "city": "Pacatuba",
        "state": "CE",
        "district": "Senador Carlos Jereissati",
        "street": "Rua Nossa Senhora da Palma",
        "zipcode": "61814-228"
    },
    {
        "city": "Pacatuba",
        "state": "CE",
        "district": "Senador Carlos Jereissati",
        "street": "Rua 67 (Conj Jereissati II)",
        "zipcode": "61814-288"
    },
    {
        "city": "Pacatuba",
        "state": "CE",
        "district": "Senador Carlos Jereissati",
        "street": "Rua São Francisco (Res Benjamin)",
        "zipcode": "61814-388"
    },
    {
        "city": "Pacatuba",
        "state": "CE",
        "district": "Senador Carlos Jereissati",
        "street": "Rua Santiago",
        "zipcode": "61814-412"
    },
    {
        "city": "Pacatuba",
        "state": "CE",
        "district": "Pavuna",
        "street": "Avenida Contorno Sul",
        "zipcode": "61812-423"
    },
    {
        "city": "Pacatuba",
        "state": "CE",
        "district": "Pavuna",
        "street": "Avenida Norte Sul (Conj Pajuçara I)",
        "zipcode": "61812-471"
    },
    {
        "city": "Pacatuba",
        "state": "CE",
        "district": "Senador Carlos Jereissati",
        "street": "Avenida Doutor Mendel Steinbruch",
        "zipcode": "61814-000"
    },
    {
        "city": "Pacatuba",
        "state": "CE",
        "district": "Senador Carlos Jereissati",
        "street": "Avenida Marginal Nordeste (Conj Jereissati III)",
        "zipcode": "61814-048"
    },
    {
        "city": "Pacatuba",
        "state": "CE",
        "district": "Senador Carlos Jereissati",
        "street": "Avenida Virgilio Távora",
        "zipcode": "61814-192"
    },
    {
        "city": "Pacatuba",
        "state": "CE",
        "district": "Senador Carlos Jereissati",
        "street": "Avenida Senador Carlos Jereissati",
        "zipcode": "61814-212"
    },
    {
        "city": "Pacatuba",
        "state": "CE",
        "district": "Senador Carlos Jereissati",
        "street": "Avenida XVI (Conj Jereissati II)",
        "zipcode": "61814-360"
    },
    {
        "city": "Pacatuba",
        "state": "CE",
        "district": "Pavuna",
        "street": "Rua Maria Santa",
        "zipcode": "61810-165"
    },
    {
        "city": "Pacatuba",
        "state": "CE",
        "district": "Pavuna",
        "street": "Rua Sabino Chagas",
        "zipcode": "61810-225"
    },
    {
        "city": "Pacatuba",
        "state": "CE",
        "district": "Pavuna",
        "street": "Rua Padre Cícero Romão",
        "zipcode": "61810-260"
    },
    {
        "city": "Pacatuba",
        "state": "CE",
        "district": "Pavuna",
        "street": "Rua 11 (Lot Morada da Boa Vizinhança Pacatu",
        "zipcode": "61810-345"
    },
    {
        "city": "Pacatuba",
        "state": "CE",
        "district": "Pavuna",
        "street": "Rua 04 (Lot Morada da Boa Vizinhança Pacatu",
        "zipcode": "61810-385"
    },
    {
        "city": "Pacatuba",
        "state": "CE",
        "district": "Pavuna",
        "street": "Rua 5 (Lot Panorama II)",
        "zipcode": "61810-520"
    },
    {
        "city": "Pacatuba",
        "state": "CE",
        "district": "Pavuna",
        "street": "Rua 132 (Conj Pajuçara I)",
        "zipcode": "61812-477"
    },
    {
        "city": "Pacatuba",
        "state": "CE",
        "district": "Pavuna",
        "street": "Rua 123 (Conj Pajuçara II)",
        "zipcode": "61812-522"
    },
    {
        "city": "Pacatuba",
        "state": "CE",
        "district": "Pavuna",
        "street": "Rua 121 (Conj Pajuçara II)",
        "zipcode": "61812-534"
    },
    {
        "city": "Pacatuba",
        "state": "CE",
        "district": "Pavuna",
        "street": "Rua 115 (Conj Pajuçara II)",
        "zipcode": "61812-558"
    },
    {
        "city": "Pacatuba",
        "state": "CE",
        "district": "Senador Carlos Jereissati",
        "street": "Rua 39 (Conj Jereissati III)",
        "zipcode": "61814-020"
    },
    {
        "city": "Pacatuba",
        "state": "CE",
        "district": "Senador Carlos Jereissati",
        "street": "Rua 15 (Conj Jereissati III)",
        "zipcode": "61814-040"
    },
    {
        "city": "Pacatuba",
        "state": "CE",
        "district": "Senador Carlos Jereissati",
        "street": "Rua 31 (Conj Jereissati III)",
        "zipcode": "61814-088"
    },
    {
        "city": "Pacatuba",
        "state": "CE",
        "district": "Senador Carlos Jereissati",
        "street": "Rua 23 (Conj Jereissati III)",
        "zipcode": "61814-120"
    },
    {
        "city": "Pacatuba",
        "state": "CE",
        "district": "Pavuna",
        "street": "Rua 8 de Outubro",
        "zipcode": "61810-683"
    },
    {
        "city": "Pacatuba",
        "state": "CE",
        "district": "Senador Carlos Jereissati",
        "street": "Rua 90 (Conj Jereissati II)",
        "zipcode": "61814-160"
    },
    {
        "city": "Pacatuba",
        "state": "CE",
        "district": "Senador Carlos Jereissati",
        "street": "Travessa Santa Clara",
        "zipcode": "61814-198"
    },
    {
        "city": "Pacatuba",
        "state": "CE",
        "district": "Senador Carlos Jereissati",
        "street": "Rua 84 (Conj Jereissati II)",
        "zipcode": "61814-256"
    },
    {
        "city": "Pacatuba",
        "state": "CE",
        "district": "Senador Carlos Jereissati",
        "street": "Rua 72 (Conj Jereissati II)",
        "zipcode": "61814-308"
    },
    {
        "city": "Pacatuba",
        "state": "CE",
        "district": "Senador Carlos Jereissati",
        "street": "Rua 75 (Conj Jereissati II)",
        "zipcode": "61814-336"
    },
    {
        "city": "Pacatuba",
        "state": "CE",
        "district": "Senador Carlos Jereissati",
        "street": "Rua 78 (Conj Jereissati II)",
        "zipcode": "61814-348"
    },
    {
        "city": "Pacatuba",
        "state": "CE",
        "district": "Senador Carlos Jereissati",
        "street": "Rua 3 (Res Bom Futuro)",
        "zipcode": "61814-432"
    },
    {
        "city": "Pacatuba",
        "state": "CE",
        "district": "Senador Carlos Jereissati",
        "street": "Rua 6 (Res Bom Futuro)",
        "zipcode": "61814-444"
    },
    {
        "city": "Pacatuba",
        "state": "CE",
        "district": "Senador Carlos Jereissati",
        "street": "Rua 10 (Res Bom Futuro)",
        "zipcode": "61814-460"
    },
    {
        "city": "Pacatuba",
        "state": "CE",
        "district": "Senador Carlos Jereissati",
        "street": "Rua 13 (Res Bom Futuro)",
        "zipcode": "61814-472"
    },
    {
        "city": "Pacatuba",
        "state": "CE",
        "district": "Senador Carlos Jereissati",
        "street": "Rua 17 (Res Bom Futuro)",
        "zipcode": "61814-488"
    },
    {
        "city": "Pacatuba",
        "state": "CE",
        "district": "Senador Carlos Jereissati",
        "street": "Rua 20 (Res Bom Futuro)",
        "zipcode": "61814-504"
    },
    {
        "city": "Pacatuba",
        "state": "CE",
        "district": "Senador Carlos Jereissati",
        "street": "Rua 19 (Res Santa Marta)",
        "zipcode": "61814-516"
    },
    {
        "city": "Pacatuba",
        "state": "CE",
        "district": "Senador Carlos Jereissati",
        "street": "Rua 22 (Res Santa Marta)",
        "zipcode": "61814-532"
    },
    {
        "city": "Pacatuba",
        "state": "CE",
        "district": "Senador Carlos Jereissati",
        "street": "Rua 13 (Res Santa Marta)",
        "zipcode": "61814-548"
    },
    {
        "city": "Pacatuba",
        "state": "CE",
        "district": "Senador Carlos Jereissati",
        "street": "Rua 10 (Res São Francisco)",
        "zipcode": "61814-564"
    },
    {
        "city": "Pacatuba",
        "state": "CE",
        "district": "Senador Carlos Jereissati",
        "street": "Rua 7 (Res São Francisco)",
        "zipcode": "61814-584"
    },
    {
        "city": "Pacatuba",
        "state": "CE",
        "district": "Alto São João",
        "street": "Rua Maria Cipriano da Silva",
        "zipcode": "61800-720"
    },
    {
        "city": "Pacatuba",
        "state": "CE",
        "district": "São Bento",
        "street": "Rua Eliza Soares G. Lima",
        "zipcode": "61801-750"
    },
    {
        "city": "Pacatuba",
        "state": "CE",
        "district": "São José",
        "street": "Rua José Ricardo da Silva",
        "zipcode": "61802-240"
    },
    {
        "city": "Pacatuba",
        "state": "CE",
        "district": "São Luiz",
        "street": "Estrada Lagoa de Dentro",
        "zipcode": "61803-170"
    },
    {
        "city": "Pacatuba",
        "state": "CE",
        "district": "Monguba",
        "street": "Rua XXIV A (Lot Planalto Residêncial)",
        "zipcode": "61805-645"
    },
    {
        "city": "Pacatuba",
        "state": "CE",
        "district": "Pavuna",
        "street": "Rua Maria de Sá Roriz",
        "zipcode": "61809-080"
    },
    {
        "city": "Pacatuba",
        "state": "CE",
        "district": "Pavuna",
        "street": "Rua Francisco Balbino",
        "zipcode": "61809-285"
    },
    {
        "city": "Pacatuba",
        "state": "CE",
        "district": "Pavuna",
        "street": "Rua São José (Lot Torrões)",
        "zipcode": "61809-370"
    },
    {
        "city": "Pacatuba",
        "state": "CE",
        "district": "Pavuna",
        "street": "Avenida José Guilherme",
        "zipcode": "61809-974"
    },
    {
        "city": "Pacatuba",
        "state": "CE",
        "district": "Pavuna",
        "street": "Rua Luciano Carneiro",
        "zipcode": "61810-180"
    },
    {
        "city": "Pacatuba",
        "state": "CE",
        "district": "Pavuna",
        "street": "Rua Antônio Gonzaga",
        "zipcode": "61810-230"
    },
    {
        "city": "Pacatuba",
        "state": "CE",
        "district": "Pavuna",
        "street": "Rua Alvorada",
        "zipcode": "61810-680"
    },
    {
        "city": "Pacatuba",
        "state": "CE",
        "district": "Pavuna",
        "street": "Rua 111 (Conj Pajuçara I)",
        "zipcode": "61812-459"
    },
    {
        "city": "Pacatuba",
        "state": "CE",
        "district": "Pavuna",
        "street": "Rua 133 (Conj Pajuçara I)",
        "zipcode": "61812-480"
    },
    {
        "city": "Pacatuba",
        "state": "CE",
        "district": "Pavuna",
        "street": "Rua 136 (Conj Pajuçara I)",
        "zipcode": "61812-507"
    },
    {
        "city": "Pacatuba",
        "state": "CE",
        "district": "Pavuna",
        "street": "Rua 114 (Conj Pajuçara II)",
        "zipcode": "61812-561"
    },
    {
        "city": "Pacatuba",
        "state": "CE",
        "district": "Senador Carlos Jereissati",
        "street": "Rua 3 (Conj Jereissati III)",
        "zipcode": "61814-060"
    },
    {
        "city": "Pacatuba",
        "state": "CE",
        "district": "Senador Carlos Jereissati",
        "street": "Rua 35 (Conj Jereissati III)",
        "zipcode": "61814-112"
    },
    {
        "city": "Pacatuba",
        "state": "CE",
        "district": "Senador Carlos Jereissati",
        "street": "Rua Santa Terezinha",
        "zipcode": "61814-232"
    },
    {
        "city": "Pacatuba",
        "state": "CE",
        "district": "Senador Carlos Jereissati",
        "street": "Avenida B",
        "zipcode": "61814-901"
    },
    {
        "city": "Pacatuba",
        "state": "CE",
        "district": "",
        "street": "Avenida José Guilherme",
        "zipcode": "61870-990"
    },
    {
        "city": "Pacatuba",
        "state": "CE",
        "district": "Centro",
        "street": "Rua Major Cícero Franklin",
        "zipcode": "61801-210"
    },
    {
        "city": "Pacatuba",
        "state": "CE",
        "district": "Centro",
        "street": "Rua Chagas Silva",
        "zipcode": "61801-255"
    },
    {
        "city": "Pacatuba",
        "state": "CE",
        "district": "Centro",
        "street": "Rua Aila da Silva",
        "zipcode": "61801-305"
    },
    {
        "city": "Pacatuba",
        "state": "CE",
        "district": "Pavuna",
        "street": "Avenida Contorno Leste (Conj Pajuçara I e II)",
        "zipcode": "61812-510"
    },
    {
        "city": "Pacatuba",
        "state": "CE",
        "district": "Senador Carlos Jereissati",
        "street": "Rua 87 (Conj Jereissati II)",
        "zipcode": "61814-268"
    },
    {
        "city": "Pacatuba",
        "state": "CE",
        "district": "Senador Carlos Jereissati",
        "street": "Rua 71 (Conj Jereissati II)",
        "zipcode": "61814-304"
    },
    {
        "city": "Pacatuba",
        "state": "CE",
        "district": "Senador Carlos Jereissati",
        "street": "Avenida B",
        "zipcode": "61814-900"
    },
    {
        "city": "Pacatuba",
        "state": "CE",
        "district": "Senador Carlos Jereissati",
        "street": "Travessa São Gerardo",
        "zipcode": "61814-368"
    },
    {
        "city": "Pacatuba",
        "state": "CE",
        "district": "Pavuna",
        "street": "Rua Fortcal",
        "zipcode": "61809-450"
    },
    {
        "city": "Pacatuba",
        "state": "CE",
        "district": "Pavuna",
        "street": "Rua Antônio Araújo",
        "zipcode": "61810-195"
    },
    {
        "city": "Pacatuba",
        "state": "CE",
        "district": "Pavuna",
        "street": "Via Pedestre (Conj Pajuçara I)",
        "zipcode": "61812-426"
    },
    {
        "city": "Pacatuba",
        "state": "CE",
        "district": "Pavuna",
        "street": "Rua Araújo e Silva",
        "zipcode": "61809-440"
    },
    {
        "city": "Pacatuba",
        "state": "CE",
        "district": "Centro",
        "street": "Rua Maria do Carmo Benevides",
        "zipcode": "61801-265"
    },
    {
        "city": "Pacatuba",
        "state": "CE",
        "district": "Pavuna",
        "street": "Rua Campos do Jordão",
        "zipcode": "61810-270"
    },
    {
        "city": "Pacatuba",
        "state": "CE",
        "district": "Pavuna",
        "street": "Rua Cícero Rodrigues de Moura",
        "zipcode": "61810-297"
    },
    {
        "city": "Pacatuba",
        "state": "CE",
        "district": "Pavuna",
        "street": "Rua 130 (Conj Pajuçara I)",
        "zipcode": "61812-495"
    },
    {
        "city": "Pacatuba",
        "state": "CE",
        "district": "Senador Carlos Jereissati",
        "street": "Rua 65 (Conj Jereissati II)",
        "zipcode": "61814-280"
    },
    {
        "city": "Pacatuba",
        "state": "CE",
        "district": "Quandu",
        "street": "Rua 2 (Lot Quandu)",
        "zipcode": "61800-110"
    },
    {
        "city": "Pacatuba",
        "state": "CE",
        "district": "Forquilha",
        "street": "Avenida Doutor Mendel Steinbruch",
        "zipcode": "61802-520"
    },
    {
        "city": "Pacatuba",
        "state": "CE",
        "district": "Monguba",
        "street": "Rua XIV (Lot Planalto Residêncial)",
        "zipcode": "61805-695"
    },
    {
        "city": "Pacatuba",
        "state": "CE",
        "district": "Pavuna",
        "street": "Rua José Gomes de Oliveira",
        "zipcode": "61809-085"
    },
    {
        "city": "Pacatuba",
        "state": "CE",
        "district": "São José",
        "street": "Avenida Governador Faustino de Albuquerque",
        "zipcode": "61802-230"
    },
    {
        "city": "Pacatuba",
        "state": "CE",
        "district": "Monguba",
        "street": "Rua XXXI (Lot Planalto Residêncial)",
        "zipcode": "61805-635"
    },
    {
        "city": "Pacatuba",
        "state": "CE",
        "district": "Pavuna",
        "street": "Rua Francisco Cabral",
        "zipcode": "61810-215"
    },
    {
        "city": "Pacatuba",
        "state": "CE",
        "district": "Pavuna",
        "street": "Passeio Pedestre 5 (Lot Marajó)",
        "zipcode": "61810-300"
    },
    {
        "city": "Pacatuba",
        "state": "CE",
        "district": "Pavuna",
        "street": "Rua 01 (Lot Morada da Boa Vizinhança Pacatu",
        "zipcode": "61810-400"
    },
    {
        "city": "Pacatuba",
        "state": "CE",
        "district": "Pavuna",
        "street": "Rua H (Lot Panorama I)",
        "zipcode": "61810-440"
    },
    {
        "city": "Pacatuba",
        "state": "CE",
        "district": "Pavuna",
        "street": "Rua Passeio Pedestre I (Lot Panorama II)",
        "zipcode": "61810-535"
    },
    {
        "city": "Pacatuba",
        "state": "CE",
        "district": "Senador Carlos Jereissati",
        "street": "Rua 19 (Conj Jereissati III)",
        "zipcode": "61814-080"
    },
    {
        "city": "Pacatuba",
        "state": "CE",
        "district": "Senador Carlos Jereissati",
        "street": "Rua Quinze de Novembro",
        "zipcode": "61814-180"
    },
    {
        "city": "Pacatuba",
        "state": "CE",
        "district": "Senador Carlos Jereissati",
        "street": "Rua Florianópolis",
        "zipcode": "61814-420"
    },
    {
        "city": "Pacatuba",
        "state": "CE",
        "district": "Pavuna",
        "street": "Rua Passeio Pedestre III (Lot Panorama II)",
        "zipcode": "61810-500"
    },
    {
        "city": "Pacatuba",
        "state": "CE",
        "district": "Senador Carlos Jereissati",
        "street": "Rua 12 (Res Santa Marta)",
        "zipcode": "61814-552"
    },
    {
        "city": "Pacatuba",
        "state": "CE",
        "district": "Pavuna",
        "street": "Rua 09 (Lot Morada da Boa Vizinhança Pacatu",
        "zipcode": "61810-355"
    },
    {
        "city": "Pacatuba",
        "state": "CE",
        "district": "Centro",
        "street": "Rua Coronel José do Carmo",
        "zipcode": "61801-185"
    },
    {
        "city": "Pacatuba",
        "state": "CE",
        "district": "Centro",
        "street": "Rua João Clementino de Sousa",
        "zipcode": "61801-260"
    },
    {
        "city": "Pacatuba",
        "state": "CE",
        "district": "Pavuna",
        "street": "Avenida 01 (Lot Morada da Boa Vizinhança Pacatu",
        "zipcode": "61810-320"
    },
    {
        "city": "Pacatuba",
        "state": "CE",
        "district": "Senador Carlos Jereissati",
        "street": "Avenida XXVI (Conj Jereissati II)",
        "zipcode": "61814-172"
    },
    {
        "city": "Pacatuba",
        "state": "CE",
        "district": "São Luiz",
        "street": "Rua João Sebastião de Sousa",
        "zipcode": "61803-060"
    },
    {
        "city": "Pacatuba",
        "state": "CE",
        "district": "Alto São João",
        "street": "Rua Luiz Alexandre da Silva",
        "zipcode": "61800-520"
    },
    {
        "city": "Pacatuba",
        "state": "CE",
        "district": "Monguba",
        "street": "Rua XXXVI (Lot Planalto Residêncial)",
        "zipcode": "61805-600"
    },
    {
        "city": "Pacatuba",
        "state": "CE",
        "district": "Monguba",
        "street": "Rua XVI (Lot Planalto Residêncial)",
        "zipcode": "61805-705"
    },
    {
        "city": "Pacatuba",
        "state": "CE",
        "district": "Pavuna",
        "street": "Rua Zuleide de Sá Roriz",
        "zipcode": "61809-180"
    },
    {
        "city": "Pacatuba",
        "state": "CE",
        "district": "Pavuna",
        "street": "Rua 19 (Lot Alto da Pavuna)",
        "zipcode": "61808-100"
    },
    {
        "city": "Pacatuba",
        "state": "CE",
        "district": "Monguba",
        "street": "Rua 2 (Lot Vale das Almeiras)",
        "zipcode": "61805-530"
    },
    {
        "city": "Pacatuba",
        "state": "CE",
        "district": "Senador Carlos Jereissati",
        "street": "Rua 8 (Conj Jereissati III)",
        "zipcode": "61814-064"
    },
    {
        "city": "Pacatuba",
        "state": "CE",
        "district": "Senador Carlos Jereissati",
        "street": "Rua 82 (Conj Jereissati II)",
        "zipcode": "61814-248"
    },
    {
        "city": "Pacatuba",
        "state": "CE",
        "district": "Pavuna",
        "street": "Rua Francisco Pereira",
        "zipcode": "61810-205"
    }
]