[
    {
        "city": "Quixada",
        "state": "CE",
        "district": "Campo Novo",
        "street": "Rua Jose Lourenco da Silva",
        "zipcode": "63905-585"
    },
    {
        "city": "Quixada",
        "state": "CE",
        "district": "Campo Novo",
        "street": "Avenida Benjamim Moreira de Sousa",
        "zipcode": "63905-573"
    },
    {
        "city": "Quixada",
        "state": "CE",
        "district": "Campo Novo",
        "street": "Rua Antao Mendes Farias",
        "zipcode": "63905-588"
    },
    {
        "city": "Quixada",
        "state": "CE",
        "district": "Campo Novo",
        "street": "Rua José Paulino",
        "zipcode": "63905-609"
    },
    {
        "city": "Quixada",
        "state": "CE",
        "district": "Campo Novo",
        "street": "Rua Otávio Belizário de Sousa",
        "zipcode": "63905-579"
    },
    {
        "city": "Quixada",
        "state": "CE",
        "district": "Campo Novo",
        "street": "Rua Joao Santino de Lima",
        "zipcode": "63905-594"
    },
    {
        "city": "Quixada",
        "state": "CE",
        "district": "Campo Novo",
        "street": "Rua Paulo Soares de Lima",
        "zipcode": "63905-600"
    },
    {
        "city": "Quixada",
        "state": "CE",
        "district": "Campo Novo",
        "street": "Rua Vandra Maria Viana de Sousa",
        "zipcode": "63905-612"
    },
    {
        "city": "Quixada",
        "state": "CE",
        "district": "Campo Novo",
        "street": "Rua Carlos Augusto Nepomuceno Bezerra Carneiro",
        "zipcode": "63905-576"
    },
    {
        "city": "Quixada",
        "state": "CE",
        "district": "Campo Novo",
        "street": "Rua Jose Mauro de Oliveira",
        "zipcode": "63905-624"
    },
    {
        "city": "Quixada",
        "state": "CE",
        "district": "Campo Novo",
        "street": "Rua Neusa Mendes de Aquino",
        "zipcode": "63905-615"
    },
    {
        "city": "Quixada",
        "state": "CE",
        "district": "Campo Novo",
        "street": "Rua Joao Xavier de Lima",
        "zipcode": "63905-591"
    },
    {
        "city": "Quixada",
        "state": "CE",
        "district": "Campo Novo",
        "street": "Rua Milton André Pereira",
        "zipcode": "63905-606"
    },
    {
        "city": "Quixada",
        "state": "CE",
        "district": "Campo Novo",
        "street": "Avenida Damião Carneiro",
        "zipcode": "63905-570"
    },
    {
        "city": "Quixada",
        "state": "CE",
        "district": "Campo Novo",
        "street": "Rua Paschoal Venâncio da Silva",
        "zipcode": "63905-621"
    },
    {
        "city": "Quixada",
        "state": "CE",
        "district": "Campo Novo",
        "street": "Rua Lauro Ferreira Lima",
        "zipcode": "63905-597"
    },
    {
        "city": "Quixada",
        "state": "CE",
        "district": "Campo Novo",
        "street": "Rua Maria Conceicao de Sousa",
        "zipcode": "63905-582"
    },
    {
        "city": "Quixada",
        "state": "CE",
        "district": "Campo Novo",
        "street": "Rua Antonio Lineu Costa",
        "zipcode": "63905-618"
    },
    {
        "city": "Quixada",
        "state": "CE",
        "district": "Campo Novo",
        "street": "Rua Jônatas Brito de Alencar",
        "zipcode": "63905-603"
    }
]