[
    {
        "city": "Viçosa do Ceará",
        "state": "CE",
        "district": null,
        "street": "Rua Principal",
        "zipcode": "62300-991"
    },
    {
        "city": "Viçosa do Ceará",
        "state": "CE",
        "district": "Centro",
        "street": "Rua Padre José Beviláqua 622",
        "zipcode": "62300-970"
    },
    {
        "city": "Viçosa do Ceará",
        "state": "CE",
        "district": "Centro",
        "street": "Vila Oiticica s/n",
        "zipcode": "62300-976"
    },
    {
        "city": "Viçosa do Ceará",
        "state": "CE",
        "district": "",
        "street": "",
        "zipcode": "62300-000"
    },
    {
        "city": "Viçosa do Ceará",
        "state": "CE",
        "district": null,
        "street": "Rua Principal",
        "zipcode": "62300-990"
    },
    {
        "city": "Viçosa do Ceará",
        "state": "CE",
        "district": null,
        "street": "Rua Principal",
        "zipcode": "62300-992"
    },
    {
        "city": "Viçosa do Ceará",
        "state": "CE",
        "district": null,
        "street": "Rua Principal",
        "zipcode": "62315-990"
    },
    {
        "city": "Viçosa do Ceará",
        "state": "CE",
        "district": null,
        "street": "Rua Principal",
        "zipcode": "62310-990"
    }
]