[
    {
        "city": "Joao Pessoa",
        "state": "PB",
        "district": "Bessa",
        "street": "Rua Jose Tavares Benevides",
        "zipcode": "58036-370"
    },
    {
        "city": "Joao Pessoa",
        "state": "PB",
        "district": "Brisamar",
        "street": "Rua Antonio Alberto Dantas",
        "zipcode": "58033-420"
    },
    {
        "city": "Joao Pessoa",
        "state": "PB",
        "district": "Bessa",
        "street": "Rua Oceano Indico",
        "zipcode": "58036-410"
    },
    {
        "city": "Joao Pessoa",
        "state": "PB",
        "district": "Bessa",
        "street": "Condomínio Lucy Ii",
        "zipcode": "58037-455"
    },
    {
        "city": "Joao Pessoa",
        "state": "PB",
        "district": "Brisamar",
        "street": "Rua Jovita Gomes Alves",
        "zipcode": "58033-590"
    },
    {
        "city": "Joao Pessoa",
        "state": "PB",
        "district": "Treze De Maio",
        "street": "Rua Mardokeu Nacre",
        "zipcode": "58025-800"
    },
    {
        "city": "Joao Pessoa",
        "state": "PB",
        "district": "Bessa",
        "street": "Rua Ariosvaldo Alves De Azevedo",
        "zipcode": "58037-190"
    },
    {
        "city": "Joao Pessoa",
        "state": "PB",
        "district": "Mares",
        "street": "Rua Manoel Farias Leite",
        "zipcode": "58088-210"
    },
    {
        "city": "Joao Pessoa",
        "state": "PB",
        "district": "Jardim Planalto",
        "street": "Rua Projetada Morada Sul",
        "zipcode": "58088-145"
    },
    {
        "city": "Joao Pessoa",
        "state": "PB",
        "district": "Mandacaru",
        "street": "Rua Jornalista Andre Reboucas",
        "zipcode": "58027-400"
    },
    {
        "city": "Joao Pessoa",
        "state": "PB",
        "district": "Mandacaru",
        "street": "Rua Papa Leao Xiii",
        "zipcode": "58027-393"
    },
    {
        "city": "Joao Pessoa",
        "state": "PB",
        "district": "Bessa",
        "street": "Rua Lourdes Ferrer De Andrade",
        "zipcode": "58037-277"
    },
    {
        "city": "Joao Pessoa",
        "state": "PB",
        "district": "Brisamar",
        "street": "Conjunto Deputado Jose Janduhy Carneiro",
        "zipcode": "58033-350"
    },
    {
        "city": "Joao Pessoa",
        "state": "PB",
        "district": "Bessa",
        "street": "Rua Maria De Lourdes G. Nobrega",
        "zipcode": "58037-395"
    },
    {
        "city": "Joao Pessoa",
        "state": "PB",
        "district": "Alto Do Mateus",
        "street": "Rua Pastor Jose Severino De Oliveira",
        "zipcode": "58090-040"
    },
    {
        "city": "Joao Pessoa",
        "state": "PB",
        "district": "Bessa",
        "street": "Rua Joaquim Mesquita Filho",
        "zipcode": "58037-400"
    },
    {
        "city": "Joao Pessoa",
        "state": "PB",
        "district": "Alto Cabo Branco",
        "street": "Loteamento Jardim Bela Vista",
        "zipcode": "58046-400"
    },
    {
        "city": "Joao Pessoa",
        "state": "PB",
        "district": "Bessa",
        "street": "Rua Auta Luna Alves",
        "zipcode": "58035-293"
    },
    {
        "city": "Joao Pessoa",
        "state": "PB",
        "district": "Bessa",
        "street": "Rua Deputado Balduino Minervino De Carvalho",
        "zipcode": "58035-390"
    },
    {
        "city": "Joao Pessoa",
        "state": "PB",
        "district": "Alto Do Mateus",
        "street": "Rua Ninfa Tavares Do Egito De Araujo",
        "zipcode": "58090-060"
    },
    {
        "city": "Joao Pessoa",
        "state": "PB",
        "district": "Mandacaru",
        "street": "Rua Jose Betanio",
        "zipcode": "58027-348"
    },
    {
        "city": "Joao Pessoa",
        "state": "PB",
        "district": "Bessa",
        "street": "Rua Oceano Atlantico",
        "zipcode": "58036-290"
    },
    {
        "city": "Joao Pessoa",
        "state": "PB",
        "district": "Bessa",
        "street": "Rua Conselheiro Paulo De Assis Soares",
        "zipcode": "58037-620"
    },
    {
        "city": "Joao Pessoa",
        "state": "PB",
        "district": "Agua Fria",
        "street": "Rua Itapoa",
        "zipcode": "58073-570"
    },
    {
        "city": "Joao Pessoa",
        "state": "PB",
        "district": "Mandacaru",
        "street": "Rua Goncalves Dias",
        "zipcode": "58027-420"
    },
    {
        "city": "Joao Pessoa",
        "state": "PB",
        "district": "Bessa",
        "street": "Rua Joao Paiva Ponce De Leon",
        "zipcode": "58036-280"
    },
    {
        "city": "Joao Pessoa",
        "state": "PB",
        "district": "Bessa",
        "street": "Rua Oceano Pacifico",
        "zipcode": "58036-310"
    },
    {
        "city": "Joao Pessoa",
        "state": "PB",
        "district": "Centro",
        "street": "Praça Da Independencia",
        "zipcode": "58013-490"
    },
    {
        "city": "Joao Pessoa",
        "state": "PB",
        "district": "Mandacaru",
        "street": "Rua Dois De Dezembro",
        "zipcode": "58028-033"
    },
    {
        "city": "Joao Pessoa",
        "state": "PB",
        "district": "Mandacaru",
        "street": "Rua Isabel Paiva",
        "zipcode": "58027-580"
    },
    {
        "city": "Joao Pessoa",
        "state": "PB",
        "district": "Mandacaru",
        "street": "Rua Luis De Franca Camboim",
        "zipcode": "58027-015"
    },
    {
        "city": "Joao Pessoa",
        "state": "PB",
        "district": "Mandacaru",
        "street": "Rua Jornalista Jose Do Patrocinio",
        "zipcode": "58027-190"
    },
    {
        "city": "Joao Pessoa",
        "state": "PB",
        "district": "Mandacaru",
        "street": "Rua Joao Fernandes Vieira",
        "zipcode": "58027-460"
    },
    {
        "city": "Joao Pessoa",
        "state": "PB",
        "district": "Mandacaru",
        "street": "Rua Emilia Julia Cruz",
        "zipcode": "58027-270"
    },
    {
        "city": "Joao Pessoa",
        "state": "PB",
        "district": "Treze De Maio",
        "street": "Loteamento Sao Bento",
        "zipcode": "58025-570"
    },
    {
        "city": "Joao Pessoa",
        "state": "PB",
        "district": "Treze De Maio",
        "street": "Conjunto Jacinto Medeiros",
        "zipcode": "58026-080"
    },
    {
        "city": "Joao Pessoa",
        "state": "PB",
        "district": "Treze De Maio",
        "street": "Conjunto Mirassol",
        "zipcode": "58026-060"
    },
    {
        "city": "Joao Pessoa",
        "state": "PB",
        "district": "Treze De Maio",
        "street": "Rua Fagundes Varela",
        "zipcode": "58025-550"
    },
    {
        "city": "Joao Pessoa",
        "state": "PB",
        "district": "Mandacaru",
        "street": "Jardim Ester",
        "zipcode": "58028-035"
    },
    {
        "city": "Joao Pessoa",
        "state": "PB",
        "district": "Mandacaru",
        "street": "Rua Dos Palmares",
        "zipcode": "58027-396"
    },
    {
        "city": "Joao Pessoa",
        "state": "PB",
        "district": "Mandacaru",
        "street": "Rua Martim Afonso De Souza",
        "zipcode": "58027-480"
    },
    {
        "city": "Joao Pessoa",
        "state": "PB",
        "district": "Mandacaru",
        "street": "Rua Arconcio Pereira Da Silva",
        "zipcode": "58027-095"
    },
    {
        "city": "Joao Pessoa",
        "state": "PB",
        "district": "Mandacaru",
        "street": "Rua Alfredo Jose Athaide",
        "zipcode": "58027-300"
    },
    {
        "city": "Joao Pessoa",
        "state": "PB",
        "district": "Ipes",
        "street": "Rua Frei Joaquim",
        "zipcode": "58028-100"
    },
    {
        "city": "Joao Pessoa",
        "state": "PB",
        "district": "Mandacaru",
        "street": "Rua Comerciante Jose Augusto Trindade",
        "zipcode": "58027-230"
    },
    {
        "city": "Joao Pessoa",
        "state": "PB",
        "district": "Mandacaru",
        "street": "Rua Indio Felipe Camarao",
        "zipcode": "58027-130"
    },
    {
        "city": "Joao Pessoa",
        "state": "PB",
        "district": "Mandacaru",
        "street": "Rua Joaquim Goncalves Ledo",
        "zipcode": "58027-440"
    },
    {
        "city": "Joao Pessoa",
        "state": "PB",
        "district": "Mandacaru",
        "street": "Rua Frei Agostinho",
        "zipcode": "58028-080"
    },
    {
        "city": "Joao Pessoa",
        "state": "PB",
        "district": "Mandacaru",
        "street": "Rua Padre Antonio Diogo Feijo",
        "zipcode": "58027-290"
    },
    {
        "city": "Joao Pessoa",
        "state": "PB",
        "district": "Treze De Maio",
        "street": "Rua Monsenhor Joao Coutinho",
        "zipcode": "58025-710"
    },
    {
        "city": "Joao Pessoa",
        "state": "PB",
        "district": "Mandacaru",
        "street": "Rua Das Mangueiras",
        "zipcode": "58027-394"
    },
    {
        "city": "Joao Pessoa",
        "state": "PB",
        "district": "Mandacaru",
        "street": "Rua General Antero De Brito",
        "zipcode": "58027-240"
    },
    {
        "city": "Joao Pessoa",
        "state": "PB",
        "district": "Mandacaru",
        "street": "Rua Santa Lucia",
        "zipcode": "58027-403"
    },
    {
        "city": "Joao Pessoa",
        "state": "PB",
        "district": "Mandacaru",
        "street": "Rua Bento Machado",
        "zipcode": "58027-670"
    },
    {
        "city": "Joao Pessoa",
        "state": "PB",
        "district": "Tambia",
        "street": "Rua Joao De Brito Lima Moura",
        "zipcode": "58020-290"
    },
    {
        "city": "Joao Pessoa",
        "state": "PB",
        "district": "Treze De Maio",
        "street": "Rua Pedro Faustino",
        "zipcode": "58025-750"
    },
    {
        "city": "Joao Pessoa",
        "state": "PB",
        "district": "Treze De Maio",
        "street": "Loteamento Ipes",
        "zipcode": "58025-043"
    },
    {
        "city": "Joao Pessoa",
        "state": "PB",
        "district": "Mandacaru",
        "street": "Rua Francisca Maria Da Conceicao",
        "zipcode": "58027-462"
    },
    {
        "city": "Joao Pessoa",
        "state": "PB",
        "district": "Mandacaru",
        "street": "Rua Do Oeste",
        "zipcode": "58027-700"
    },
    {
        "city": "Joao Pessoa",
        "state": "PB",
        "district": "Mandacaru",
        "street": "Rua Santa Maria",
        "zipcode": "58027-404"
    },
    {
        "city": "Joao Pessoa",
        "state": "PB",
        "district": "Treze De Maio",
        "street": "Rua Irma Elvira Malagutti",
        "zipcode": "58025-730"
    },
    {
        "city": "Joao Pessoa",
        "state": "PB",
        "district": "Mandacaru",
        "street": "Rua Botafogo",
        "zipcode": "58027-210"
    },
    {
        "city": "Joao Pessoa",
        "state": "PB",
        "district": "Mandacaru",
        "street": "Rua Rubens Falcao",
        "zipcode": "58027-363"
    },
    {
        "city": "Joao Pessoa",
        "state": "PB",
        "district": "Mandacaru",
        "street": "Rua Governador Matias De Albuquerque",
        "zipcode": "58027-380"
    },
    {
        "city": "Joao Pessoa",
        "state": "PB",
        "district": "Treze De Maio",
        "street": "Conjunto Cidade Padre Ze",
        "zipcode": "58025-590"
    },
    {
        "city": "Joao Pessoa",
        "state": "PB",
        "district": "Mandacaru",
        "street": "Rua Rodrigues Alves",
        "zipcode": "58027-340"
    },
    {
        "city": "Joao Pessoa",
        "state": "PB",
        "district": "Treze De Maio",
        "street": "Rua Etiene Travassos",
        "zipcode": "58025-170"
    },
    {
        "city": "Joao Pessoa",
        "state": "PB",
        "district": "Mandacaru",
        "street": "Rua Prof. Anibal Moura",
        "zipcode": "58027-050"
    },
    {
        "city": "Joao Pessoa",
        "state": "PB",
        "district": "Mandacaru",
        "street": "Rua Prof. Luiza Ramalho",
        "zipcode": "58027-250"
    },
    {
        "city": "Joao Pessoa",
        "state": "PB",
        "district": "Mandacaru",
        "street": "Rua Jose Gomes Junior",
        "zipcode": "58027-245"
    },
    {
        "city": "Joao Pessoa",
        "state": "PB",
        "district": "Treze De Maio",
        "street": "Rua Frei Albino",
        "zipcode": "58025-010"
    },
    {
        "city": "Joao Pessoa",
        "state": "PB",
        "district": "Treze De Maio",
        "street": "Rua Padre Joao Felix Da Silva",
        "zipcode": "58025-610"
    },
    {
        "city": "Joao Pessoa",
        "state": "PB",
        "district": "Treze De Maio",
        "street": "Rua Jornalista Dulcidio Moreira",
        "zipcode": "58025-050"
    },
    {
        "city": "Joao Pessoa",
        "state": "PB",
        "district": "Treze De Maio",
        "street": "Rua Deputado Sostenes Pedro",
        "zipcode": "58025-840"
    },
    {
        "city": "Joao Pessoa",
        "state": "PB",
        "district": "Mandacaru",
        "street": "Rua Manoel Ferreira Machado",
        "zipcode": "58028-000"
    },
    {
        "city": "Joao Pessoa",
        "state": "PB",
        "district": "Ipes",
        "street": "Rua Gil Furtado",
        "zipcode": "58028-050"
    },
    {
        "city": "Joao Pessoa",
        "state": "PB",
        "district": "Bessa",
        "street": "Avenida Governador Argemiro De Figueiredo",
        "zipcode": "58036-030"
    },
    {
        "city": "Joao Pessoa",
        "state": "PB",
        "district": "Ipes",
        "street": "Rua Lauro Firmino Da Silva",
        "zipcode": "58028-640"
    },
    {
        "city": "Joao Pessoa",
        "state": "PB",
        "district": "Ipes",
        "street": "Rua Josemar De Castro Barreto",
        "zipcode": "58028-040"
    },
    {
        "city": "Joao Pessoa",
        "state": "PB",
        "district": "Bessa",
        "street": "Rua Luiz De Franca Pontes",
        "zipcode": "58036-380"
    },
    {
        "city": "Joao Pessoa",
        "state": "PB",
        "district": "Bessa",
        "street": "Rua Sebastiao Interaminense",
        "zipcode": "58036-300"
    },
    {
        "city": "Joao Pessoa",
        "state": "PB",
        "district": "Ipes",
        "street": "Rua Dep. Jose Res. Da Costa Filho",
        "zipcode": "58028-140"
    },
    {
        "city": "Joao Pessoa",
        "state": "PB",
        "district": "Bessa",
        "street": "Vila Santa Lucia",
        "zipcode": "58035-435"
    },
    {
        "city": "Joao Pessoa",
        "state": "PB",
        "district": "Mandacaru",
        "street": "Rua Santa Ceciliana",
        "zipcode": "58027-397"
    },
    {
        "city": "Joao Pessoa",
        "state": "PB",
        "district": "Brisamar",
        "street": "Conjunto Joao Agripino",
        "zipcode": "58034-070"
    },
    {
        "city": "Joao Pessoa",
        "state": "PB",
        "district": "Bessa",
        "street": "Rua Joao Domingos De Araujo",
        "zipcode": "58036-041"
    },
    {
        "city": "Joao Pessoa",
        "state": "PB",
        "district": "Bessa",
        "street": "Rua Joakim Schuler",
        "zipcode": "58036-360"
    },
    {
        "city": "Joao Pessoa",
        "state": "PB",
        "district": "Mandacaru",
        "street": "Rua Sao George",
        "zipcode": "58027-408"
    },
    {
        "city": "Joao Pessoa",
        "state": "PB",
        "district": "Bessa",
        "street": "Loteamento Jardim America",
        "zipcode": "58035-250"
    },
    {
        "city": "Joao Pessoa",
        "state": "PB",
        "district": "Bessa",
        "street": "Rua Comerciante Francisco Inacio Da Silva",
        "zipcode": "58036-365"
    },
    {
        "city": "Joao Pessoa",
        "state": "PB",
        "district": "Bessa",
        "street": "Rua Francisco Pereira Dantas",
        "zipcode": "58036-240"
    },
    {
        "city": "Joao Pessoa",
        "state": "PB",
        "district": "Brisamar",
        "street": "Praça Dr Joao Medeiros",
        "zipcode": "58034-180"
    },
    {
        "city": "Joao Pessoa",
        "state": "PB",
        "district": "Bessa",
        "street": "Rua Severino Nicolau De Melo",
        "zipcode": "58036-260"
    },
    {
        "city": "Joao Pessoa",
        "state": "PB",
        "district": "Estados",
        "street": "Rua General Renato Ribeiro De Morais",
        "zipcode": "58028-060"
    },
    {
        "city": "Joao Pessoa",
        "state": "PB",
        "district": "Mandacaru",
        "street": "Rua Santa Rita",
        "zipcode": "58027-405"
    },
    {
        "city": "Joao Pessoa",
        "state": "PB",
        "district": "Mandacaru",
        "street": "Rua Jose Geronimo De Lira",
        "zipcode": "58027-710"
    },
    {
        "city": "Joao Pessoa",
        "state": "PB",
        "district": "Mandacaru",
        "street": "Rua Porfirio Ribeiro",
        "zipcode": "58027-280"
    },
    {
        "city": "Joao Pessoa",
        "state": "PB",
        "district": "Bessa",
        "street": "Rua Maria Liliam Dantas Da Nobrega",
        "zipcode": "58036-395"
    },
    {
        "city": "Joao Pessoa",
        "state": "PB",
        "district": "Mandacaru",
        "street": "Rua Prof. Luiz Burity",
        "zipcode": "58027-030"
    },
    {
        "city": "Joao Pessoa",
        "state": "PB",
        "district": "Mandacaru",
        "street": "Rua Felipe Dos Santos",
        "zipcode": "58027-320"
    },
    {
        "city": "Joao Pessoa",
        "state": "PB",
        "district": "Bessa",
        "street": "Rua Jose Patricio De Almeida",
        "zipcode": "58036-120"
    },
    {
        "city": "Joao Pessoa",
        "state": "PB",
        "district": "Ipes",
        "street": "Rua Abdon Chianca",
        "zipcode": "58028-120"
    },
    {
        "city": "Joao Pessoa",
        "state": "PB",
        "district": "Bessa",
        "street": "Rua Carmem Romero",
        "zipcode": "58036-020"
    },
    {
        "city": "Joao Pessoa",
        "state": "PB",
        "district": "Brisamar",
        "street": "Rua Adalida Suassuna Barreto",
        "zipcode": "58033-430"
    },
    {
        "city": "Joao Pessoa",
        "state": "PB",
        "district": "Ipes",
        "street": "Rua Prof. Maria Monteiro Maul",
        "zipcode": "58028-020"
    },
    {
        "city": "Joao Pessoa",
        "state": "PB",
        "district": "Brisamar",
        "street": "Rua Barao De Ramiz Galvao",
        "zipcode": "58033-400"
    },
    {
        "city": "Joao Pessoa",
        "state": "PB",
        "district": "Bessa",
        "street": "Rua Prof. Ana Lianza Lombardi",
        "zipcode": "58036-320"
    },
    {
        "city": "Joao Pessoa",
        "state": "PB",
        "district": "Bessa",
        "street": "Loteamento Jardim Bessamar",
        "zipcode": "58035-230"
    },
    {
        "city": "Joao Pessoa",
        "state": "PB",
        "district": "Bessa",
        "street": "Rua Clotilde Rocha Cabral",
        "zipcode": "58036-045"
    },
    {
        "city": "Joao Pessoa",
        "state": "PB",
        "district": "Bessa",
        "street": "Rua Joao Batista De Menezes",
        "zipcode": "58036-113"
    },
    {
        "city": "Joao Pessoa",
        "state": "PB",
        "district": "Bessa",
        "street": "Rua Noberto De Castro Nogueira",
        "zipcode": "58036-080"
    },
    {
        "city": "Joao Pessoa",
        "state": "PB",
        "district": "Bessa",
        "street": "Rua Prof. Maria Jacy Pinto Costa",
        "zipcode": "58036-110"
    },
    {
        "city": "Joao Pessoa",
        "state": "PB",
        "district": "Bessa",
        "street": "Jardim Pan",
        "zipcode": "58035-210"
    },
    {
        "city": "Joao Pessoa",
        "state": "PB",
        "district": "Bessa",
        "street": "Rua Vanja Viana Salles",
        "zipcode": "58036-060"
    },
    {
        "city": "Joao Pessoa",
        "state": "PB",
        "district": "Bessa",
        "street": "Rua Rosa Xavier",
        "zipcode": "58036-150"
    },
    {
        "city": "Joao Pessoa",
        "state": "PB",
        "district": "Bessa",
        "street": "Rua Beira Mar",
        "zipcode": "58036-025"
    },
    {
        "city": "Joao Pessoa",
        "state": "PB",
        "district": "Bessa",
        "street": "Rua Ariosvaldo Goncalves",
        "zipcode": "58036-230"
    },
    {
        "city": "Joao Pessoa",
        "state": "PB",
        "district": "Bessa",
        "street": "Rua Tenente Mario De Souza Correia",
        "zipcode": "58036-180"
    },
    {
        "city": "Joao Pessoa",
        "state": "PB",
        "district": "Bessa",
        "street": "Rua Garibaldi Teixeira De Carvalho",
        "zipcode": "58036-160"
    },
    {
        "city": "Joao Pessoa",
        "state": "PB",
        "district": "Bessa",
        "street": "Rua Severino Linhares Pordeus",
        "zipcode": "58036-340"
    },
    {
        "city": "Joao Pessoa",
        "state": "PB",
        "district": "Treze De Maio",
        "street": "Rua Ranulfo Lourenco Dos Santos",
        "zipcode": "58025-780"
    },
    {
        "city": "Joao Pessoa",
        "state": "PB",
        "district": "Bessa",
        "street": "Rua Dr Abel Beltrao",
        "zipcode": "58036-220"
    },
    {
        "city": "Joao Pessoa",
        "state": "PB",
        "district": "Bessa",
        "street": "Rua Oldena Carneiro Pereira De Melo",
        "zipcode": "58036-170"
    },
    {
        "city": "Joao Pessoa",
        "state": "PB",
        "district": "Bessa",
        "street": "Rua Evandil Bandeira",
        "zipcode": "58036-265"
    },
    {
        "city": "Joao Pessoa",
        "state": "PB",
        "district": "Bessa",
        "street": "Rua Poeta Luiz Raimundo Batista De Carvalho",
        "zipcode": "58036-040"
    },
    {
        "city": "Joao Pessoa",
        "state": "PB",
        "district": "Bessa",
        "street": "Rua Adao Viana Rosa",
        "zipcode": "58035-295"
    },
    {
        "city": "Joao Pessoa",
        "state": "PB",
        "district": "Ipes",
        "street": "Rua Prof. Manoel Coutinho",
        "zipcode": "58028-130"
    },
    {
        "city": "Joao Pessoa",
        "state": "PB",
        "district": "Bessa",
        "street": "Jardim Oceania",
        "zipcode": "58036-250"
    },
    {
        "city": "Joao Pessoa",
        "state": "PB",
        "district": "Bessa",
        "street": "Rua Maria Jose A. Espinola",
        "zipcode": "58036-115"
    },
    {
        "city": "Joao Pessoa",
        "state": "PB",
        "district": "Bessa",
        "street": "Rua Fernando Torres",
        "zipcode": "58036-350"
    },
    {
        "city": "Joao Pessoa",
        "state": "PB",
        "district": "Treze De Maio",
        "street": "Rua Carlos A. Moura Filho",
        "zipcode": "58025-738"
    },
    {
        "city": "Joao Pessoa",
        "state": "PB",
        "district": "Brisamar",
        "street": "Conjunto Waldecy Paiva",
        "zipcode": "58031-240"
    },
    {
        "city": "Joao Pessoa",
        "state": "PB",
        "district": "Bessa",
        "street": "Rua Josemar Rodrigues De Carvalho",
        "zipcode": "58036-090"
    },
    {
        "city": "Joao Pessoa",
        "state": "PB",
        "district": "Bessa",
        "street": "Rua Vicente Barbosa",
        "zipcode": "58036-050"
    },
    {
        "city": "Joao Pessoa",
        "state": "PB",
        "district": "Brisamar",
        "street": "Loteamento Jardim Panoramico",
        "zipcode": "58033-573"
    },
    {
        "city": "Joao Pessoa",
        "state": "PB",
        "district": "Mandacaru",
        "street": "Rua Jose Lins De Albuquerque",
        "zipcode": "58027-010"
    },
    {
        "city": "Joao Pessoa",
        "state": "PB",
        "district": "Bessa",
        "street": "Rua Jose Ferreira Ramos",
        "zipcode": "58036-034"
    },
    {
        "city": "Joao Pessoa",
        "state": "PB",
        "district": "Ipes",
        "street": "Rua San Juan",
        "zipcode": "58028-090"
    },
    {
        "city": "Joao Pessoa",
        "state": "PB",
        "district": "Bessa",
        "street": "Rua Joao Murilo Leite",
        "zipcode": "58036-210"
    },
    {
        "city": "Joao Pessoa",
        "state": "PB",
        "district": "Bessa",
        "street": "Rua Maria Augusta De Araujo Dias",
        "zipcode": "58037-610"
    },
    {
        "city": "Joao Pessoa",
        "state": "PB",
        "district": "Bessa",
        "street": "Rua Joao Batista Fernandes",
        "zipcode": "58037-310"
    },
    {
        "city": "Joao Pessoa",
        "state": "PB",
        "district": "Bessa",
        "street": "Rua Francisco G. Abrantes",
        "zipcode": "58037-055"
    },
    {
        "city": "Joao Pessoa",
        "state": "PB",
        "district": "Bessa",
        "street": "Rua Engenheiro Normando Gomes De Araujo",
        "zipcode": "58037-340"
    },
    {
        "city": "Joao Pessoa",
        "state": "PB",
        "district": "Bessa",
        "street": "Rua Jose Teotonio Dos Santos",
        "zipcode": "58037-052"
    },
    {
        "city": "Joao Pessoa",
        "state": "PB",
        "district": "Bessa",
        "street": "Rua Franca Pontes",
        "zipcode": "58035-075"
    },
    {
        "city": "Joao Pessoa",
        "state": "PB",
        "district": "Bessa",
        "street": "Rua Doralice De Almeida Lira",
        "zipcode": "58037-560"
    },
    {
        "city": "Joao Pessoa",
        "state": "PB",
        "district": "Manaira",
        "street": "Loteamento Sao Goncalo",
        "zipcode": "58038-350"
    },
    {
        "city": "Joao Pessoa",
        "state": "PB",
        "district": "Bessa",
        "street": "Rua Joao Soares Padilha",
        "zipcode": "58037-200"
    },
    {
        "city": "Joao Pessoa",
        "state": "PB",
        "district": "Bessa",
        "street": "Rua Dr Arnaldo Gomes Da Silva",
        "zipcode": "58037-410"
    },
    {
        "city": "Joao Pessoa",
        "state": "PB",
        "district": "Bessa",
        "street": "Rua Vicente Paulo Leite",
        "zipcode": "58037-490"
    },
    {
        "city": "Joao Pessoa",
        "state": "PB",
        "district": "Bessa",
        "street": "Rua Huerta Ferreira De Melo",
        "zipcode": "58037-460"
    },
    {
        "city": "Joao Pessoa",
        "state": "PB",
        "district": "Bessa",
        "street": "Rua Rosa Sabino De Andrade",
        "zipcode": "58037-278"
    },
    {
        "city": "Joao Pessoa",
        "state": "PB",
        "district": "Bessa",
        "street": "Rua Coronel Jose Gomes De Sa Filho",
        "zipcode": "58037-580"
    },
    {
        "city": "Joao Pessoa",
        "state": "PB",
        "district": "Bessa",
        "street": "Rua Cantora Maria Da Gloria G. De Vasconcelos",
        "zipcode": "58037-290"
    },
    {
        "city": "Joao Pessoa",
        "state": "PB",
        "district": "Bessa",
        "street": "Rua Dom Jose Tomaz",
        "zipcode": "58037-040"
    },
    {
        "city": "Joao Pessoa",
        "state": "PB",
        "district": "Bessa",
        "street": "Rua Julio Correia De Andrade",
        "zipcode": "58037-600"
    },
    {
        "city": "Joao Pessoa",
        "state": "PB",
        "district": "Bessa",
        "street": "Rua Antonio Batista De Araujo",
        "zipcode": "58037-300"
    },
    {
        "city": "Joao Pessoa",
        "state": "PB",
        "district": "Bessa",
        "street": "Rua Maria Amelia Negocio",
        "zipcode": "58037-505"
    },
    {
        "city": "Joao Pessoa",
        "state": "PB",
        "district": "Bessa",
        "street": "Rua Jacob Alves De Azevedo",
        "zipcode": "58036-200"
    },
    {
        "city": "Joao Pessoa",
        "state": "PB",
        "district": "Bessa",
        "street": "Rua Maria Rosa Padilha",
        "zipcode": "58037-260"
    },
    {
        "city": "Joao Pessoa",
        "state": "PB",
        "district": "Bessa",
        "street": "Rua Maria Alves Da Rocha",
        "zipcode": "58037-095"
    },
    {
        "city": "Joao Pessoa",
        "state": "PB",
        "district": "Bessa",
        "street": "Rua Engenheiro Luiz Ribeiro Beltrao",
        "zipcode": "58037-230"
    },
    {
        "city": "Joao Pessoa",
        "state": "PB",
        "district": "Bessa",
        "street": "Rua Poeta Geraldo Alverga",
        "zipcode": "58037-140"
    },
    {
        "city": "Joao Pessoa",
        "state": "PB",
        "district": "Bessa",
        "street": "Rua Aprigio Espinola",
        "zipcode": "58037-430"
    },
    {
        "city": "Joao Pessoa",
        "state": "PB",
        "district": "Bessa",
        "street": "Rua Albertino Alfredo Araujo Filho",
        "zipcode": "58037-450"
    },
    {
        "city": "Joao Pessoa",
        "state": "PB",
        "district": "Ernesto Geisel",
        "street": "Jardim Das Oliveira",
        "zipcode": "58075-429"
    },
    {
        "city": "Joao Pessoa",
        "state": "PB",
        "district": "Bessa",
        "street": "Rua Herberto Pereira De Lucena",
        "zipcode": "58037-440"
    },
    {
        "city": "Joao Pessoa",
        "state": "PB",
        "district": "Bessa",
        "street": "Rua Dr Vanildo Guedes Pessoa",
        "zipcode": "58037-130"
    },
    {
        "city": "Joao Pessoa",
        "state": "PB",
        "district": "Bessa",
        "street": "Rua Coronel Martinho Da Mota Silveira",
        "zipcode": "58037-420"
    },
    {
        "city": "Joao Pessoa",
        "state": "PB",
        "district": "Bessa",
        "street": "Rua Edvaldo Silva Brandao",
        "zipcode": "58037-110"
    },
    {
        "city": "Joao Pessoa",
        "state": "PB",
        "district": "Bessa",
        "street": "Rua Dr Alvin Schimmelpfeng",
        "zipcode": "58037-080"
    },
    {
        "city": "Joao Pessoa",
        "state": "PB",
        "district": "Bessa",
        "street": "Rua Prof. Antonia Batista Palitot Pereira",
        "zipcode": "58037-510"
    },
    {
        "city": "Joao Pessoa",
        "state": "PB",
        "district": "Bessa",
        "street": "Rua Ivanice Martins Da Camara",
        "zipcode": "58037-320"
    },
    {
        "city": "Joao Pessoa",
        "state": "PB",
        "district": "Bessa",
        "street": "Rua Juiz Joao Navarro Filho",
        "zipcode": "58037-250"
    },
    {
        "city": "Joao Pessoa",
        "state": "PB",
        "district": "Bessa",
        "street": "Rua Desportista Waldemir Braga",
        "zipcode": "58037-060"
    },
    {
        "city": "Joao Pessoa",
        "state": "PB",
        "district": "Bessa",
        "street": "Rua Debora Da Silva Braga",
        "zipcode": "58037-350"
    },
    {
        "city": "Joao Pessoa",
        "state": "PB",
        "district": "Bessa",
        "street": "Rua Tiago Dos Anjos Lins",
        "zipcode": "58037-262"
    },
    {
        "city": "Joao Pessoa",
        "state": "PB",
        "district": "Bessa",
        "street": "Rua Odisa Eliseu Da Nobrega",
        "zipcode": "58037-170"
    },
    {
        "city": "Joao Pessoa",
        "state": "PB",
        "district": "Bessa",
        "street": "Rua Dr Americo Cavalcanti",
        "zipcode": "58037-240"
    },
    {
        "city": "Joao Pessoa",
        "state": "PB",
        "district": "Estados",
        "street": "Rua Conego Luiz Gonzaga De Oliveira",
        "zipcode": "58028-210"
    },
    {
        "city": "Joao Pessoa",
        "state": "PB",
        "district": "Bessa",
        "street": "Rua Suzy Lacerda",
        "zipcode": "58037-160"
    },
    {
        "city": "Joao Pessoa",
        "state": "PB",
        "district": "Bessa",
        "street": "Rua Dr Rui Pereira",
        "zipcode": "58037-180"
    },
    {
        "city": "Joao Pessoa",
        "state": "PB",
        "district": "Torre",
        "street": "Rua Borja Peregrino",
        "zipcode": "58040-050"
    },
    {
        "city": "Joao Pessoa",
        "state": "PB",
        "district": "Ipes",
        "street": "Loteamento Santo Antonio",
        "zipcode": "58028-510"
    },
    {
        "city": "Joao Pessoa",
        "state": "PB",
        "district": "Ipes",
        "street": "Rua Leonidio Francisco De Oliveira",
        "zipcode": "58028-170"
    },
    {
        "city": "Joao Pessoa",
        "state": "PB",
        "district": "Bessa",
        "street": "Rua Violeta Maria Formiga",
        "zipcode": "58036-042"
    },
    {
        "city": "Joao Pessoa",
        "state": "PB",
        "district": "Bessa",
        "street": "Rua Jose Goncalves De Abrantes",
        "zipcode": "58037-500"
    },
    {
        "city": "Joao Pessoa",
        "state": "PB",
        "district": "Bessa",
        "street": "Rua Silvio Coelho De Alverga",
        "zipcode": "58037-330"
    },
    {
        "city": "Joao Pessoa",
        "state": "PB",
        "district": "Bessa",
        "street": "Rua Noberto De Castro Nogueira",
        "zipcode": "58037-090"
    },
    {
        "city": "Joao Pessoa",
        "state": "PB",
        "district": "Bessa",
        "street": "Rua Anezia Clarice De Campos",
        "zipcode": "58036-135"
    },
    {
        "city": "Joao Pessoa",
        "state": "PB",
        "district": "Bessa",
        "street": "Rua Benjamin Rabelo",
        "zipcode": "58037-275"
    },
    {
        "city": "Joao Pessoa",
        "state": "PB",
        "district": "Bessa",
        "street": "Rua Maria Aparecida Neiva De Gouveia",
        "zipcode": "58037-150"
    },
    {
        "city": "Joao Pessoa",
        "state": "PB",
        "district": "Ipes",
        "street": "Rua Manoel Madruga",
        "zipcode": "58028-190"
    },
    {
        "city": "Joao Pessoa",
        "state": "PB",
        "district": "Bessa",
        "street": "Rua Benigno Barcia",
        "zipcode": "58037-276"
    },
    {
        "city": "Joao Pessoa",
        "state": "PB",
        "district": "Torre",
        "street": "Rua Pereira Da Silva",
        "zipcode": "58040-010"
    },
    {
        "city": "Joao Pessoa",
        "state": "PB",
        "district": "Bessa",
        "street": "Rua Valdemar Chianca",
        "zipcode": "58037-480"
    },
    {
        "city": "Joao Pessoa",
        "state": "PB",
        "district": "Bessa",
        "street": "Rua Maria De Lourdes Cardoso De Oliveira",
        "zipcode": "58037-386"
    },
    {
        "city": "Joao Pessoa",
        "state": "PB",
        "district": "Bessa",
        "street": "Rua Themistocles Da Costa Brito",
        "zipcode": "58036-390"
    },
    {
        "city": "Joao Pessoa",
        "state": "PB",
        "district": "Bessa",
        "street": "Rua Aldson Gomes Cavalcanti",
        "zipcode": "58037-083"
    },
    {
        "city": "Joao Pessoa",
        "state": "PB",
        "district": "Mangabeira",
        "street": "Rua Ivalcio De Lacerda Lima",
        "zipcode": "58037-315"
    },
    {
        "city": "Joao Pessoa",
        "state": "PB",
        "district": "Valentina Figueiredo",
        "street": "Rua Marcos Albino Rafael",
        "zipcode": "58063-305"
    },
    {
        "city": "Joao Pessoa",
        "state": "PB",
        "district": "Valentina Figueiredo",
        "street": "Rua Gumercindo Leite Sobrinho",
        "zipcode": "58063-360"
    },
    {
        "city": "Joao Pessoa",
        "state": "PB",
        "district": "Funcionarios Ii",
        "street": "Rua Nossa Senhora Da Paz",
        "zipcode": "58078-570"
    },
    {
        "city": "Joao Pessoa",
        "state": "PB",
        "district": "Funcionarios Ii",
        "street": "Rua Severino Bento De Morais",
        "zipcode": "58078-430"
    },
    {
        "city": "Joao Pessoa",
        "state": "PB",
        "district": "Mangabeira",
        "street": "Rua Rita Pereira Da Silva",
        "zipcode": "58055-720"
    },
    {
        "city": "Joao Pessoa",
        "state": "PB",
        "district": "Funcionarios Ii",
        "street": "Rua Maria Da Penha Farias",
        "zipcode": "58078-420"
    },
    {
        "city": "Joao Pessoa",
        "state": "PB",
        "district": "Ernesto Geisel",
        "street": "Rua Dr Claudio Lemos",
        "zipcode": "58075-667"
    },
    {
        "city": "Joao Pessoa",
        "state": "PB",
        "district": "Mangabeira",
        "street": "Rua Manoel Pires Bezerra",
        "zipcode": "58057-308"
    },
    {
        "city": "Joao Pessoa",
        "state": "PB",
        "district": "Bessa",
        "street": "Rua Josefa De Miranda Freire",
        "zipcode": "58037-540"
    },
    {
        "city": "Joao Pessoa",
        "state": "PB",
        "district": "Mangabeira",
        "street": "Rua Dr Jose Aloysio Da Costa Machado",
        "zipcode": "58058-380"
    },
    {
        "city": "Joao Pessoa",
        "state": "PB",
        "district": "Ernesto Geisel",
        "street": "Rua Joao Filadelfo De Carvalho",
        "zipcode": "58075-650"
    },
    {
        "city": "Joao Pessoa",
        "state": "PB",
        "district": "Agua Fria",
        "street": "Rua Bessa",
        "zipcode": "58073-500"
    },
    {
        "city": "Joao Pessoa",
        "state": "PB",
        "district": "Agua Fria",
        "street": "Loteamento Colibris",
        "zipcode": "58053-200"
    },
    {
        "city": "Joao Pessoa",
        "state": "PB",
        "district": "Funcionarios Ii",
        "street": "Rua Comerciante Manoel Pitombeira",
        "zipcode": "58078-460"
    },
    {
        "city": "Joao Pessoa",
        "state": "PB",
        "district": "Ernesto Geisel",
        "street": "Rua Prof. Maria Dos Anjos",
        "zipcode": "58075-432"
    },
    {
        "city": "Joao Pessoa",
        "state": "PB",
        "district": "Agua Fria",
        "street": "Rua Ponta Negra",
        "zipcode": "58073-510"
    },
    {
        "city": "Joao Pessoa",
        "state": "PB",
        "district": "Jardim Cidade Universitaria",
        "street": "Rua Luiz De Moura Resende",
        "zipcode": "58051-030"
    },
    {
        "city": "Joao Pessoa",
        "state": "PB",
        "district": "Agua Fria",
        "street": "Rua Tambau",
        "zipcode": "58073-620"
    },
    {
        "city": "Joao Pessoa",
        "state": "PB",
        "district": "Agua Fria",
        "street": "Rua Ivanise Lopes Lordao",
        "zipcode": "58053-222"
    },
    {
        "city": "Joao Pessoa",
        "state": "PB",
        "district": "Jardim Cidade Universitaria",
        "street": "Rua Francisco Dantas De Souza",
        "zipcode": "58052-450"
    },
    {
        "city": "Joao Pessoa",
        "state": "PB",
        "district": "Jardim Cidade Universitaria",
        "street": "Conjunto Dos Bancarios",
        "zipcode": "58052-680"
    },
    {
        "city": "Joao Pessoa",
        "state": "PB",
        "district": "Agua Fria",
        "street": "Rua Luiz Jose Batista",
        "zipcode": "58053-220"
    },
    {
        "city": "Joao Pessoa",
        "state": "PB",
        "district": "Castelo Branco",
        "street": "Rua Valderez Andrade",
        "zipcode": "58050-062"
    },
    {
        "city": "Joao Pessoa",
        "state": "PB",
        "district": "Agua Fria",
        "street": "Rua Iracema",
        "zipcode": "58073-610"
    },
    {
        "city": "Joao Pessoa",
        "state": "PB",
        "district": "Tambauzinho",
        "street": "Loteamento Jardim Paraiso",
        "zipcode": "58042-130"
    },
    {
        "city": "Joao Pessoa",
        "state": "PB",
        "district": "Funcionarios Ii",
        "street": "Rua Natalia Luiza Dos Santos",
        "zipcode": "58078-495"
    },
    {
        "city": "Joao Pessoa",
        "state": "PB",
        "district": "Bessa",
        "street": "Rua Vereador Gumercindo Barbosa Dunda",
        "zipcode": "58037-390"
    },
    {
        "city": "Joao Pessoa",
        "state": "PB",
        "district": "Alto Cabo Branco",
        "street": "Loteamento Eldorado",
        "zipcode": "58046-440"
    },
    {
        "city": "Joao Pessoa",
        "state": "PB",
        "district": "Miramar",
        "street": "Loteamento Patamares",
        "zipcode": "58043-290"
    },
    {
        "city": "Joao Pessoa",
        "state": "PB",
        "district": "Funcionarios Ii",
        "street": "Rua Nossa Senhora De Guadalupe",
        "zipcode": "58078-600"
    },
    {
        "city": "Joao Pessoa",
        "state": "PB",
        "district": "Agua Fria",
        "street": "Rua Violinista Rafael Rabelo",
        "zipcode": "58053-226"
    },
    {
        "city": "Joao Pessoa",
        "state": "PB",
        "district": "Funcionarios Ii",
        "street": "Loteamento Joao Paulo Ii",
        "zipcode": "58078-490"
    },
    {
        "city": "Joao Pessoa",
        "state": "PB",
        "district": "Agua Fria",
        "street": "Rua Vicente De Paulo Chianca",
        "zipcode": "58053-231"
    },
    {
        "city": "Joao Pessoa",
        "state": "PB",
        "district": "Ernesto Geisel",
        "street": "Rua Edvaldo Ferreira Ouro",
        "zipcode": "58075-642"
    },
    {
        "city": "Joao Pessoa",
        "state": "PB",
        "district": "Valentina Figueiredo",
        "street": "Praia Do Sol",
        "zipcode": "58066-500"
    },
    {
        "city": "Joao Pessoa",
        "state": "PB",
        "district": "Agua Fria",
        "street": "Rua Pajucara",
        "zipcode": "58073-530"
    },
    {
        "city": "Joao Pessoa",
        "state": "PB",
        "district": "Agua Fria",
        "street": "Rua Jacuma",
        "zipcode": "58073-600"
    },
    {
        "city": "Joao Pessoa",
        "state": "PB",
        "district": "Alto Cabo Branco",
        "street": "Loteamento Cidade Recreio Cabo Branco",
        "zipcode": "58046-420"
    },
    {
        "city": "Joao Pessoa",
        "state": "PB",
        "district": "Ernesto Geisel",
        "street": "Rua Eugenio Pacceli De Souza",
        "zipcode": "58075-666"
    },
    {
        "city": "Joao Pessoa",
        "state": "PB",
        "district": "Alto Cabo Branco",
        "street": "Conjunto Altiplano Cabo Branco",
        "zipcode": "58046-360"
    },
    {
        "city": "Joao Pessoa",
        "state": "PB",
        "district": "Agua Fria",
        "street": "Rua Josue Clemente De Farias",
        "zipcode": "58053-227"
    },
    {
        "city": "Joao Pessoa",
        "state": "PB",
        "district": "Jardim Cidade Universitaria",
        "street": "Rua Maria Do Carmo Souto Ramos",
        "zipcode": "58051-190"
    },
    {
        "city": "Joao Pessoa",
        "state": "PB",
        "district": "Bessa",
        "street": "Rua Mar Norte",
        "zipcode": "58037-585"
    },
    {
        "city": "Joao Pessoa",
        "state": "PB",
        "district": "Jardim Cidade Universitaria",
        "street": "Rua Dorival C. Albuquerque",
        "zipcode": "58051-680"
    },
    {
        "city": "Joao Pessoa",
        "state": "PB",
        "district": "Jardim Cidade Universitaria",
        "street": "Rua Zelia Maria De Araujo",
        "zipcode": "58051-758"
    },
    {
        "city": "Joao Pessoa",
        "state": "PB",
        "district": "Bessa",
        "street": "Rua Estudante Jose Klean Pereira Moura",
        "zipcode": "58037-220"
    },
    {
        "city": "Joao Pessoa",
        "state": "PB",
        "district": "Funcionarios Ii",
        "street": "Rua Nossa Senhora Da Guia",
        "zipcode": "58078-610"
    },
    {
        "city": "Joao Pessoa",
        "state": "PB",
        "district": "Agua Fria",
        "street": "Rua Mucuripe",
        "zipcode": "58073-520"
    },
    {
        "city": "Joao Pessoa",
        "state": "PB",
        "district": "Valentina Figueiredo",
        "street": "Rua Risoldo Ferreira De Lima Rizzo",
        "zipcode": "58063-680"
    },
    {
        "city": "Joao Pessoa",
        "state": "PB",
        "district": "Ernesto Geisel",
        "street": "Conjunto Nova Republica",
        "zipcode": "58075-780"
    },
    {
        "city": "Joao Pessoa",
        "state": "PB",
        "district": "Torre",
        "street": "Rua Clarice Justa",
        "zipcode": "58040-070"
    },
    {
        "city": "Joao Pessoa",
        "state": "PB",
        "district": "Agua Fria",
        "street": "Rua Manoel Alexandrino De Araujo",
        "zipcode": "58053-180"
    },
    {
        "city": "Joao Pessoa",
        "state": "PB",
        "district": "Ernesto Geisel",
        "street": "Rua Irami De Farias Dallas Barba",
        "zipcode": "58075-668"
    },
    {
        "city": "Joao Pessoa",
        "state": "PB",
        "district": "Ernesto Geisel",
        "street": "Rua Fernando Jorge Barros De Oliveira",
        "zipcode": "58075-658"
    },
    {
        "city": "Joao Pessoa",
        "state": "PB",
        "district": "Funcionarios Ii",
        "street": "Rua Nossa Senhora Do Rosario",
        "zipcode": "58078-580"
    },
    {
        "city": "Joao Pessoa",
        "state": "PB",
        "district": "Funcionarios Ii",
        "street": "Rua Laudina Da Cunha Santos",
        "zipcode": "58079-123"
    },
    {
        "city": "Joao Pessoa",
        "state": "PB",
        "district": "Alto Do Mateus",
        "street": "Rua Antonio Pereira Do Nascimento",
        "zipcode": "58090-022"
    },
    {
        "city": "Joao Pessoa",
        "state": "PB",
        "district": "Ernesto Geisel",
        "street": "Rua Manoel Francisco De Melo",
        "zipcode": "58075-645"
    },
    {
        "city": "Joao Pessoa",
        "state": "PB",
        "district": "Cidade Dos Funcionarios",
        "street": "Rua Joao Mota Da Silva",
        "zipcode": "58087-188"
    },
    {
        "city": "Joao Pessoa",
        "state": "PB",
        "district": "Mares",
        "street": "Estrada Nova",
        "zipcode": "58088-211"
    },
    {
        "city": "Joao Pessoa",
        "state": "PB",
        "district": "Alto Do Mateus",
        "street": "Rua Mateus Ribeiro",
        "zipcode": "58090-222"
    },
    {
        "city": "Joao Pessoa",
        "state": "PB",
        "district": "Mares",
        "street": "Rua Da Mangueira",
        "zipcode": "58088-220"
    },
    {
        "city": "Joao Pessoa",
        "state": "PB",
        "district": "Funcionarios Ii",
        "street": "Rua Estudante Joseane Ferreira Aguiar",
        "zipcode": "58079-655"
    },
    {
        "city": "Joao Pessoa",
        "state": "PB",
        "district": "Funcionarios Ii",
        "street": "Rua Francisco Francelino Goncalves",
        "zipcode": "58079-665"
    },
    {
        "city": "Joao Pessoa",
        "state": "PB",
        "district": "Funcionarios Ii",
        "street": "Rua Adao Viana Rosa",
        "zipcode": "58078-540"
    },
    {
        "city": "Joao Pessoa",
        "state": "PB",
        "district": "Alto Do Mateus",
        "street": "Rua Manoel Alves Pereira",
        "zipcode": "58090-046"
    },
    {
        "city": "Joao Pessoa",
        "state": "PB",
        "district": "Ernani Satiro",
        "street": "Rua Ernesto Sorrentino",
        "zipcode": "58081-290"
    },
    {
        "city": "Joao Pessoa",
        "state": "PB",
        "district": "Alto Do Mateus",
        "street": "Rua Anisberto Lins De Albuquerque",
        "zipcode": "58090-010"
    },
    {
        "city": "Joao Pessoa",
        "state": "PB",
        "district": "Alto Do Mateus",
        "street": "Rua Ambrozio Rodrigues De Souza",
        "zipcode": "58090-025"
    },
    {
        "city": "Joao Pessoa",
        "state": "PB",
        "district": "Alto Do Mateus",
        "street": "Rua Maria De Lourdes Meira De Araujo",
        "zipcode": "58090-020"
    },
    {
        "city": "Joao Pessoa",
        "state": "PB",
        "district": "Alto Do Mateus",
        "street": "Rua Maria Tavares Araujo",
        "zipcode": "58090-045"
    },
    {
        "city": "Joao Pessoa",
        "state": "PB",
        "district": "Mandacaru",
        "street": "Rua Maria Pereira Machado",
        "zipcode": "58027-170"
    },
    {
        "city": "Joao Pessoa",
        "state": "PB",
        "district": "Bessa",
        "street": "Rua Lindolfo Jose Correia Das Neves",
        "zipcode": "58037-520"
    },
    {
        "city": "Joao Pessoa",
        "state": "PB",
        "district": "Ernani Satiro",
        "street": "Rua Manoel Maria Figueiredo",
        "zipcode": "58081-340"
    },
    {
        "city": "Joao Pessoa",
        "state": "PB",
        "district": "Centro",
        "street": "Avenida Almirante Barroso",
        "zipcode": "58040-220"
    },
    {
        "city": "Joao Pessoa",
        "state": "PB",
        "district": "Treze De Maio",
        "street": "Rua Jaime Pereira Felix",
        "zipcode": "58025-785"
    },
    {
        "city": "Joao Pessoa",
        "state": "PB",
        "district": "Bessa",
        "street": "Rua Antonio Justino De Andrade",
        "zipcode": "58037-280"
    },
    {
        "city": "Joao Pessoa",
        "state": "PB",
        "district": "Funcionarios Ii",
        "street": "Rua Espedito Delmiro Santos",
        "zipcode": "58078-435"
    },
    {
        "city": "Joao Pessoa",
        "state": "PB",
        "district": "Manaira",
        "street": "Conjunto Claudio De Paiva Leite",
        "zipcode": "58038-610"
    },
    {
        "city": "Joao Pessoa",
        "state": "PB",
        "district": "Funcionarios Ii",
        "street": "Rua Maria Chaves Do Nascimento",
        "zipcode": "58078-500"
    },
    {
        "city": "Joao Pessoa",
        "state": "PB",
        "district": "Seixas",
        "street": "Loteamento Urban",
        "zipcode": "58045-570"
    },
    {
        "city": "Joao Pessoa",
        "state": "PB",
        "district": "Mandacaru",
        "street": "Rua Sao Francisco Xavier",
        "zipcode": "58027-415"
    },
    {
        "city": "Joao Pessoa",
        "state": "PB",
        "district": "Bessa",
        "street": "Rua Desembargador Joaquim Da Silva Carvalho",
        "zipcode": "58037-360"
    },
    {
        "city": "Joao Pessoa",
        "state": "PB",
        "district": "Bessa",
        "street": "Rua Maria De Lourdes De Vasconcelos Cardoso",
        "zipcode": "58035-290"
    },
    {
        "city": "Joao Pessoa",
        "state": "PB",
        "district": "Agua Fria",
        "street": "Rua Manaira",
        "zipcode": "58073-630"
    },
    {
        "city": "Joao Pessoa",
        "state": "PB",
        "district": "Alto Cabo Branco",
        "street": "Loteamento Coqueiral",
        "zipcode": "58046-450"
    },
    {
        "city": "Joao Pessoa",
        "state": "PB",
        "district": "Mandacaru",
        "street": "Rua Visconde De Ouro Preto",
        "zipcode": "58027-110"
    },
    {
        "city": "Joao Pessoa",
        "state": "PB",
        "district": "Bessa",
        "street": "Rua Tenente Rivaldo Antonio Araujo",
        "zipcode": "58036-305"
    },
    {
        "city": "Joao Pessoa",
        "state": "PB",
        "district": "Bessa",
        "street": "Rua Oceano Antartico",
        "zipcode": "58036-400"
    },
    {
        "city": "Joao Pessoa",
        "state": "PB",
        "district": "Brisamar",
        "street": "Rua Afonso Barbosa",
        "zipcode": "58033-450"
    },
    {
        "city": "Joao Pessoa",
        "state": "PB",
        "district": "Brisamar",
        "street": "Rua Antonio Regis De Brito",
        "zipcode": "58034-230"
    },
    {
        "city": "Joao Pessoa",
        "state": "PB",
        "district": "Bessa",
        "street": "Rua Oceano Artico",
        "zipcode": "58036-270"
    },
    {
        "city": "Joao Pessoa",
        "state": "PB",
        "district": "Bessa",
        "street": "Rua Silvano Domingos De Araujo",
        "zipcode": "58036-070"
    },
    {
        "city": "Joao Pessoa",
        "state": "PB",
        "district": "Mandacaru",
        "street": "Rua Monte Castelo",
        "zipcode": "58027-530"
    },
    {
        "city": "Joao Pessoa",
        "state": "PB",
        "district": "Mandacaru",
        "street": "Rua Do Norte",
        "zipcode": "58027-705"
    },
    {
        "city": "Joao Pessoa",
        "state": "PB",
        "district": "Bessa",
        "street": "Rua Raimundo S. De Carvalho",
        "zipcode": "58036-000"
    },
    {
        "city": "Joao Pessoa",
        "state": "PB",
        "district": "Treze De Maio",
        "street": "Conjunto Dos Jornalistas",
        "zipcode": "58025-770"
    },
    {
        "city": "Joao Pessoa",
        "state": "PB",
        "district": "Bessa",
        "street": "Rua Ulrico Oliveira Cavalcante (Dr Helio Fonseca)",
        "zipcode": "58037-105"
    },
    {
        "city": "Joao Pessoa",
        "state": "PB",
        "district": "Ernesto Geisel",
        "street": "Rua Estudante Geraldo Macario Santana De Oliveira",
        "zipcode": "58075-655"
    },
    {
        "city": "Joao Pessoa",
        "state": "PB",
        "district": "Bessa",
        "street": "Rua Marino Oliveira Luna",
        "zipcode": "58036-100"
    },
    {
        "city": "Joao Pessoa",
        "state": "PB",
        "district": "Jardim Planalto",
        "street": "Beco Dos Bambus",
        "zipcode": "58088-180"
    },
    {
        "city": "Joao Pessoa",
        "state": "PB",
        "district": "Bessa",
        "street": "Avenida Joao Mauricio",
        "zipcode": "58036-010"
    },
    {
        "city": "Joao Pessoa",
        "state": "PB",
        "district": "Mandacaru",
        "street": "Rua Jornalista Luiz Gama",
        "zipcode": "58027-360"
    },
    {
        "city": "Joao Pessoa",
        "state": "PB",
        "district": "Brisamar",
        "street": "Jardim Ribamar",
        "zipcode": "58031-260"
    },
    {
        "city": "Joao Pessoa",
        "state": "PB",
        "district": "Ernesto Geisel",
        "street": "Rua Juiz Manoel Joao Da Silva",
        "zipcode": "58075-428"
    },
    {
        "city": "Joao Pessoa",
        "state": "PB",
        "district": "Mangabeira",
        "street": "Rua Gumercindo Cabral De Lucena Filho",
        "zipcode": "58058-813"
    },
    {
        "city": "Joao Pessoa",
        "state": "PB",
        "district": "Funcionarios Ii",
        "street": "Rua Joao Maurilio Leite",
        "zipcode": "58078-620"
    },
    {
        "city": "Joao Pessoa",
        "state": "PB",
        "district": "Mandacaru",
        "street": "Rua Sao Bernardo",
        "zipcode": "58027-402"
    },
    {
        "city": "Joao Pessoa",
        "state": "PB",
        "district": "Bessa",
        "street": "Rua Deputado Napoleao Nobrega",
        "zipcode": "58037-210"
    },
    {
        "city": "Joao Pessoa",
        "state": "PB",
        "district": "Bessa",
        "street": "Rua Elisio Jorge Brito",
        "zipcode": "58036-285"
    },
    {
        "city": "Joao Pessoa",
        "state": "PB",
        "district": "Bessa",
        "street": "Rua Flavio De Melo Uchoa",
        "zipcode": "58037-100"
    },
    {
        "city": "Joao Pessoa",
        "state": "PB",
        "district": "Treze De Maio",
        "street": "Conjunto Carlos Coelho",
        "zipcode": "58025-230"
    },
    {
        "city": "Joao Pessoa",
        "state": "PB",
        "district": "Mandacaru",
        "street": "Rua Almeida Junior",
        "zipcode": "58027-330"
    },
    {
        "city": "Joao Pessoa",
        "state": "PB",
        "district": "Bessa",
        "street": "Rua Universitario Luiz Alves Da Rocha",
        "zipcode": "58037-380"
    },
    {
        "city": "Joao Pessoa",
        "state": "PB",
        "district": "Bessa",
        "street": "Rua Comerciante Jose Miranda De Araujo",
        "zipcode": "58036-112"
    },
    {
        "city": "Joao Pessoa",
        "state": "PB",
        "district": "Mandacaru",
        "street": "Rua Isabel Medeiros Correia",
        "zipcode": "58027-560"
    },
    {
        "city": "Joao Pessoa",
        "state": "PB",
        "district": "Bessa",
        "street": "Rua Anastacio Camilo De Oliveira",
        "zipcode": "58037-470"
    },
    {
        "city": "Joao Pessoa",
        "state": "PB",
        "district": "Agua Fria",
        "street": "Rua Guarapari",
        "zipcode": "58073-550"
    },
    {
        "city": "Joao Pessoa",
        "state": "PB",
        "district": "Treze De Maio",
        "street": "Loteamento Eugenio Neiva",
        "zipcode": "58025-023"
    },
    {
        "city": "Joao Pessoa",
        "state": "PB",
        "district": "Bessa",
        "street": "Rua Fernando Honorato Pereira",
        "zipcode": "58036-430"
    },
    {
        "city": "Joao Pessoa",
        "state": "PB",
        "district": "Mandacaru",
        "street": "Rua Adalgisa Targino Da Silva",
        "zipcode": "58027-135"
    },
    {
        "city": "Joao Pessoa",
        "state": "PB",
        "district": "Treze De Maio",
        "street": "Rua Prefeito Joao Fausto De Figueiredo",
        "zipcode": "58025-150"
    },
    {
        "city": "Joao Pessoa",
        "state": "PB",
        "district": "Bessa",
        "street": "Rua Miriam Barreto Rabelo",
        "zipcode": "58037-270"
    },
    {
        "city": "Joao Pessoa",
        "state": "PB",
        "district": "Bessa",
        "street": "Rua Iolanda Henriques Cavalcante",
        "zipcode": "58037-120"
    },
    {
        "city": "Joao Pessoa",
        "state": "PB",
        "district": "Ipes",
        "street": "Loteamento Sao Joaquim",
        "zipcode": "58028-113"
    },
    {
        "city": "Joao Pessoa",
        "state": "PB",
        "district": "Funcionarios Ii",
        "street": "Rua Sindicalista Pedro Ribeiro",
        "zipcode": "58078-450"
    },
    {
        "city": "Joao Pessoa",
        "state": "PB",
        "district": "Ipes",
        "street": "Rua Maestro Osvaldo Evaristo Costa",
        "zipcode": "58028-150"
    },
    {
        "city": "Joao Pessoa",
        "state": "PB",
        "district": "Mares",
        "street": "Rua Das Domesticas",
        "zipcode": "58088-240"
    },
    {
        "city": "Joao Pessoa",
        "state": "PB",
        "district": "Mandacaru",
        "street": "Rua Prof. Barroso",
        "zipcode": "58028-030"
    },
    {
        "city": "Joao Pessoa",
        "state": "PB",
        "district": "Bessa",
        "street": "Rua Antonio Gomes Carneiro",
        "zipcode": "58037-020"
    },
    {
        "city": "Joao Pessoa",
        "state": "PB",
        "district": "Mandacaru",
        "street": "Rua Oito De Marco",
        "zipcode": "58027-389"
    },
    {
        "city": "Joao Pessoa",
        "state": "PB",
        "district": "Castelo Branco",
        "street": "Praça Engenheiro Francisco Cicero De Melo Filho",
        "zipcode": "58050-175"
    },
    {
        "city": "Joao Pessoa",
        "state": "PB",
        "district": "Cristo Redentor",
        "street": "Rua Juiz Elmano Pereira Siqueira",
        "zipcode": "58071-350"
    },
    {
        "city": "Joao Pessoa",
        "state": "PB",
        "district": "Bessa",
        "street": "Rua Aviador Roberto Marques",
        "zipcode": "58037-370"
    },
    {
        "city": "Joao Pessoa",
        "state": "PB",
        "district": "Agua Fria",
        "street": "Rua Italmar Neiva Monteiro",
        "zipcode": "58053-225"
    },
    {
        "city": "Joao Pessoa",
        "state": "PB",
        "district": "Alto Do Mateus",
        "street": "Rua Tertuliano Tavares De Araujo",
        "zipcode": "58090-048"
    },
    {
        "city": "Joao Pessoa",
        "state": "PB",
        "district": "Funcionarios Ii",
        "street": "Rua Abdias Genuino De Lima",
        "zipcode": "58078-560"
    },
    {
        "city": "Joao Pessoa",
        "state": "PB",
        "district": "Ipes",
        "street": "Rua Joaquim Pires Ferreira",
        "zipcode": "58028-110"
    },
    {
        "city": "Joao Pessoa",
        "state": "PB",
        "district": "Bessa",
        "street": "Rua Waldir Braga",
        "zipcode": "58036-330"
    }
]