[
    {
        "city": "Santa Rita",
        "state": "PB",
        "district": "Municípios",
        "street": "Rua Agripino Moura",
        "zipcode": "58303-110"
    },
    {
        "city": "Santa Rita",
        "state": "PB",
        "district": "Popular",
        "street": "Rua Generino Honorato da Silva",
        "zipcode": "58301-626"
    },
    {
        "city": "Santa Rita",
        "state": "PB",
        "district": "Municípios",
        "street": "Rua Gondim da Fonseca",
        "zipcode": "58303-145"
    },
    {
        "city": "Santa Rita",
        "state": "PB",
        "district": "Vila Tibiri",
        "street": "Rua Augusto dos Anjos",
        "zipcode": "58300-710"
    },
    {
        "city": "Santa Rita",
        "state": "PB",
        "district": "Vila Tibiri",
        "street": "Rua Deputado Manoel Joaquim",
        "zipcode": "58300-760"
    },
    {
        "city": "Santa Rita",
        "state": "PB",
        "district": "Centro",
        "street": "Rua Professora B. Consita de Barros",
        "zipcode": "58300-210"
    },
    {
        "city": "Santa Rita",
        "state": "PB",
        "district": "Municípios",
        "street": "Rua Barão de Baraúna",
        "zipcode": "58303-260"
    },
    {
        "city": "Santa Rita",
        "state": "PB",
        "district": "Municípios",
        "street": "Rua Marlene Farias de Albuquerque",
        "zipcode": "58303-343"
    },
    {
        "city": "Santa Rita",
        "state": "PB",
        "district": "Popular",
        "street": "Rua Lourival Ferreira da Silva",
        "zipcode": "58301-537"
    },
    {
        "city": "Santa Rita",
        "state": "PB",
        "district": "Vila Tibiri",
        "street": "Rua do Cadeado",
        "zipcode": "58300-290"
    },
    {
        "city": "Santa Rita",
        "state": "PB",
        "district": "Municípios",
        "street": "Rua Estudante Edson Luiz",
        "zipcode": "58303-090"
    },
    {
        "city": "Santa Rita",
        "state": "PB",
        "district": "Municípios",
        "street": "Rua Horácio Figueiredo",
        "zipcode": "58303-020"
    },
    {
        "city": "Santa Rita",
        "state": "PB",
        "district": "Popular",
        "street": "Rua Otávio da Silva",
        "zipcode": "58303-540"
    },
    {
        "city": "Santa Rita",
        "state": "PB",
        "district": "Popular",
        "street": "Rua Alagoas",
        "zipcode": "58301-540"
    },
    {
        "city": "Santa Rita",
        "state": "PB",
        "district": "Popular",
        "street": "Rua Paraná",
        "zipcode": "58301-395"
    },
    {
        "city": "Santa Rita",
        "state": "PB",
        "district": "Municípios",
        "street": "Estrada Acesso a João Pessoa",
        "zipcode": "58302-530"
    },
    {
        "city": "Santa Rita",
        "state": "PB",
        "district": "Popular",
        "street": "Rua Acre",
        "zipcode": "58301-370"
    },
    {
        "city": "Santa Rita",
        "state": "PB",
        "district": "Popular",
        "street": "Rua Alcaide Francisco Cartejon",
        "zipcode": "58301-285"
    },
    {
        "city": "Santa Rita",
        "state": "PB",
        "district": "Liberdade",
        "street": "Praça Amaro Ferraz",
        "zipcode": "58300-570"
    },
    {
        "city": "Santa Rita",
        "state": "PB",
        "district": "Popular",
        "street": "Rua Ambrósio Fernando Brandão",
        "zipcode": "58301-295"
    },
    {
        "city": "Santa Rita",
        "state": "PB",
        "district": "Municípios",
        "street": "Rua Antenor Navarro",
        "zipcode": "58302-165"
    },
    {
        "city": "Santa Rita",
        "state": "PB",
        "district": "Popular",
        "street": "Rua Bahia",
        "zipcode": "58301-365"
    },
    {
        "city": "Santa Rita",
        "state": "PB",
        "district": "Popular",
        "street": "Rua Barão de Maraú",
        "zipcode": "58301-310"
    },
    {
        "city": "Santa Rita",
        "state": "PB",
        "district": "Municípios",
        "street": "Rua Bonsucesso",
        "zipcode": "58302-135"
    },
    {
        "city": "Santa Rita",
        "state": "PB",
        "district": "Popular",
        "street": "Rua Carlos Gomes",
        "zipcode": "58303-525"
    },
    {
        "city": "Santa Rita",
        "state": "PB",
        "district": "Popular",
        "street": "Rua Ceará",
        "zipcode": "58301-450"
    },
    {
        "city": "Santa Rita",
        "state": "PB",
        "district": "Municípios",
        "street": "Rua Coremas",
        "zipcode": "58302-110"
    },
    {
        "city": "Santa Rita",
        "state": "PB",
        "district": "Popular",
        "street": "Rua Coronel Aureliano",
        "zipcode": "58301-085"
    },
    {
        "city": "Santa Rita",
        "state": "PB",
        "district": "Municípios",
        "street": "Rua Cubati",
        "zipcode": "58302-125"
    },
    {
        "city": "Santa Rita",
        "state": "PB",
        "district": "Popular",
        "street": "Rua Deputado João Úrsulo Filho",
        "zipcode": "58301-305"
    },
    {
        "city": "Santa Rita",
        "state": "PB",
        "district": "Municípios",
        "street": "Rua Diamante",
        "zipcode": "58302-155"
    },
    {
        "city": "Santa Rita",
        "state": "PB",
        "district": "Municípios",
        "street": "Rua Frutuoso Barbosa",
        "zipcode": "58303-115"
    },
    {
        "city": "Santa Rita",
        "state": "PB",
        "district": "Popular",
        "street": "Rua Goiás",
        "zipcode": "58301-400"
    },
    {
        "city": "Santa Rita",
        "state": "PB",
        "district": "Popular",
        "street": "Rua Horácio Carneiro",
        "zipcode": "58301-345"
    },
    {
        "city": "Santa Rita",
        "state": "PB",
        "district": "Municípios",
        "street": "Rua Jericó",
        "zipcode": "58302-145"
    },
    {
        "city": "Santa Rita",
        "state": "PB",
        "district": "Popular",
        "street": "Rua João de Deus",
        "zipcode": "58301-275"
    },
    {
        "city": "Santa Rita",
        "state": "PB",
        "district": "Municípios",
        "street": "Rua João Vieira",
        "zipcode": "58303-195"
    },
    {
        "city": "Santa Rita",
        "state": "PB",
        "district": "Popular",
        "street": "Rua Maranhão",
        "zipcode": "58301-445"
    },
    {
        "city": "Santa Rita",
        "state": "PB",
        "district": "Popular",
        "street": "Rua Nova",
        "zipcode": "58301-080"
    },
    {
        "city": "Santa Rita",
        "state": "PB",
        "district": "Popular",
        "street": "Rua Padre Ferreira",
        "zipcode": "58301-265"
    },
    {
        "city": "Santa Rita",
        "state": "PB",
        "district": "Popular",
        "street": "Rua Santa Rita",
        "zipcode": "58301-270"
    },
    {
        "city": "Santa Rita",
        "state": "PB",
        "district": "Municípios",
        "street": "Rua Sapé",
        "zipcode": "58302-025"
    },
    {
        "city": "Santa Rita",
        "state": "PB",
        "district": "Popular",
        "street": "Rua Sergipe",
        "zipcode": "58301-360"
    },
    {
        "city": "Santa Rita",
        "state": "PB",
        "district": "Municípios",
        "street": "Rua Serra Redonda",
        "zipcode": "58302-175"
    },
    {
        "city": "Santa Rita",
        "state": "PB",
        "district": "Municípios",
        "street": "Rua Visconde Cavalcante",
        "zipcode": "58303-250"
    },
    {
        "city": "Santa Rita",
        "state": "PB",
        "district": "Popular",
        "street": "Rua Rio Grande do Sul",
        "zipcode": "58301-355"
    },
    {
        "city": "Santa Rita",
        "state": "PB",
        "district": "Centro",
        "street": "Vila Alvina Cavalcante",
        "zipcode": "58300-425"
    },
    {
        "city": "Santa Rita",
        "state": "PB",
        "district": "Centro",
        "street": "Rua Américo Falcão",
        "zipcode": "58300-470"
    },
    {
        "city": "Santa Rita",
        "state": "PB",
        "district": "Municípios",
        "street": "Rua Anciato Borges",
        "zipcode": "58303-005"
    },
    {
        "city": "Santa Rita",
        "state": "PB",
        "district": "Centro",
        "street": "Rua Antônio Ferreira Nunes",
        "zipcode": "58300-190"
    },
    {
        "city": "Santa Rita",
        "state": "PB",
        "district": "Municípios",
        "street": "Rua Antônio P. Almeida",
        "zipcode": "58303-010"
    },
    {
        "city": "Santa Rita",
        "state": "PB",
        "district": "Municípios",
        "street": "Rua Ascendino M. da Silva",
        "zipcode": "58303-035"
    },
    {
        "city": "Santa Rita",
        "state": "PB",
        "district": "Centro",
        "street": "Vila Adriana",
        "zipcode": "58300-430"
    },
    {
        "city": "Santa Rita",
        "state": "PB",
        "district": "Popular",
        "street": "Rua Olivina Carneiro da Cunha",
        "zipcode": "58301-110"
    },
    {
        "city": "Santa Rita",
        "state": "PB",
        "district": "Vila Tibiri",
        "street": "Vila do Cadeado",
        "zipcode": "58300-295"
    },
    {
        "city": "Santa Rita",
        "state": "PB",
        "district": "Centro",
        "street": "Largo Mercado Público Municipal",
        "zipcode": "58300-020"
    },
    {
        "city": "Santa Rita",
        "state": "PB",
        "district": "Capitão",
        "street": "Rua Principal",
        "zipcode": "58303-970"
    },
    {
        "city": "Santa Rita",
        "state": "PB",
        "district": "Liberdade",
        "street": "Rua Boa Vista",
        "zipcode": "58300-520"
    },
    {
        "city": "Santa Rita",
        "state": "PB",
        "district": "Centro",
        "street": "Rua Cardoso Vieira",
        "zipcode": "58300-070"
    },
    {
        "city": "Santa Rita",
        "state": "PB",
        "district": "Municípios",
        "street": "Rua Catolé do Rocha",
        "zipcode": "58302-085"
    },
    {
        "city": "Santa Rita",
        "state": "PB",
        "district": "Centro",
        "street": "Largo da Conceição",
        "zipcode": "58300-120"
    },
    {
        "city": "Santa Rita",
        "state": "PB",
        "district": "Centro",
        "street": "Rua Coronel Domiciano",
        "zipcode": "58300-170"
    },
    {
        "city": "Santa Rita",
        "state": "PB",
        "district": "Centro",
        "street": "Rua Doutor Fonseca",
        "zipcode": "58300-100"
    },
    {
        "city": "Santa Rita",
        "state": "PB",
        "district": "Municípios",
        "street": "Rua Estácio de Sá",
        "zipcode": "58303-015"
    },
    {
        "city": "Santa Rita",
        "state": "PB",
        "district": "Popular",
        "street": "Rua Francisco Tito da Silva",
        "zipcode": "58301-240"
    },
    {
        "city": "Santa Rita",
        "state": "PB",
        "district": "Centro",
        "street": "Rua Frederico Ozanan",
        "zipcode": "58300-280"
    },
    {
        "city": "Santa Rita",
        "state": "PB",
        "district": "Liberdade",
        "street": "Rua Frei Martinho",
        "zipcode": "58300-490"
    },
    {
        "city": "Santa Rita",
        "state": "PB",
        "district": "Centro",
        "street": "Rua Horácio Furtado",
        "zipcode": "58300-380"
    },
    {
        "city": "Santa Rita",
        "state": "PB",
        "district": "Liberdade",
        "street": "Praça da Independência",
        "zipcode": "58300-550"
    },
    {
        "city": "Santa Rita",
        "state": "PB",
        "district": "Centro",
        "street": "Rua Ivo Borges",
        "zipcode": "58300-040"
    },
    {
        "city": "Santa Rita",
        "state": "PB",
        "district": "Popular",
        "street": "Rua Mestre Amaro",
        "zipcode": "58303-510"
    },
    {
        "city": "Santa Rita",
        "state": "PB",
        "district": "Popular",
        "street": "Vila Vasco da Gama",
        "zipcode": "58301-480"
    },
    {
        "city": "Santa Rita",
        "state": "PB",
        "district": "Centro",
        "street": "Rua Joaquim Gomes da Silveira",
        "zipcode": "58300-240"
    },
    {
        "city": "Santa Rita",
        "state": "PB",
        "district": "Municípios",
        "street": "Rua Antônio Freire",
        "zipcode": "58303-270"
    },
    {
        "city": "Santa Rita",
        "state": "PB",
        "district": "Liberdade",
        "street": "Rua Jerusalém",
        "zipcode": "58300-510"
    },
    {
        "city": "Santa Rita",
        "state": "PB",
        "district": "Centro",
        "street": "Rua João Vitorino Raposo",
        "zipcode": "58300-260"
    },
    {
        "city": "Santa Rita",
        "state": "PB",
        "district": "Centro",
        "street": "Rua Juarez Távora",
        "zipcode": "58300-410"
    },
    {
        "city": "Santa Rita",
        "state": "PB",
        "district": "Centro",
        "street": "Rua Luís Porto",
        "zipcode": "58300-200"
    },
    {
        "city": "Santa Rita",
        "state": "PB",
        "district": "Liberdade",
        "street": "Vila Monsenhor Melibeu",
        "zipcode": "58300-563"
    },
    {
        "city": "Santa Rita",
        "state": "PB",
        "district": "Liberdade",
        "street": "Rua Monsenhor Melibeu",
        "zipcode": "58300-560"
    },
    {
        "city": "Santa Rita",
        "state": "PB",
        "district": "Centro",
        "street": "Praça Monsenhor Rafael de Barros",
        "zipcode": "58300-160"
    },
    {
        "city": "Santa Rita",
        "state": "PB",
        "district": "Centro",
        "street": "Rua Olinto Freitas",
        "zipcode": "58300-460"
    },
    {
        "city": "Santa Rita",
        "state": "PB",
        "district": "Centro",
        "street": "Rua Othon Pedrosa",
        "zipcode": "58300-360"
    },
    {
        "city": "Santa Rita",
        "state": "PB",
        "district": "Municípios",
        "street": "Rua Professor Bayar",
        "zipcode": "58303-030"
    },
    {
        "city": "Santa Rita",
        "state": "PB",
        "district": "Centro",
        "street": "Rua Professor Luiz Soares",
        "zipcode": "58300-320"
    },
    {
        "city": "Santa Rita",
        "state": "PB",
        "district": "Municípios",
        "street": "Rua Remígio",
        "zipcode": "58302-040"
    },
    {
        "city": "Santa Rita",
        "state": "PB",
        "district": "Centro",
        "street": "Rua da República",
        "zipcode": "58300-060"
    },
    {
        "city": "Santa Rita",
        "state": "PB",
        "district": "Municípios",
        "street": "Rua São Bento",
        "zipcode": "58302-550"
    },
    {
        "city": "Santa Rita",
        "state": "PB",
        "district": "Centro",
        "street": "Rua São João",
        "zipcode": "58300-150"
    },
    {
        "city": "Santa Rita",
        "state": "PB",
        "district": "Centro",
        "street": "Travessa Semeão Leal",
        "zipcode": "58300-115"
    },
    {
        "city": "Santa Rita",
        "state": "PB",
        "district": "Municípios",
        "street": "Rua Serra Branca",
        "zipcode": "58302-055"
    },
    {
        "city": "Santa Rita",
        "state": "PB",
        "district": "Popular",
        "street": "Rua do Sol",
        "zipcode": "58301-225"
    },
    {
        "city": "Santa Rita",
        "state": "PB",
        "district": "Municípios",
        "street": "Rua Soledade",
        "zipcode": "58302-075"
    },
    {
        "city": "Santa Rita",
        "state": "PB",
        "district": "Municípios",
        "street": "Rua Sousa",
        "zipcode": "58302-035"
    },
    {
        "city": "Santa Rita",
        "state": "PB",
        "district": "Municípios",
        "street": "Rua Sumé",
        "zipcode": "58302-060"
    },
    {
        "city": "Santa Rita",
        "state": "PB",
        "district": "Popular",
        "street": "Rua Tiradentes",
        "zipcode": "58301-230"
    },
    {
        "city": "Santa Rita",
        "state": "PB",
        "district": "Municípios",
        "street": "Rua Vagner Jeferson",
        "zipcode": "58302-525"
    },
    {
        "city": "Santa Rita",
        "state": "PB",
        "district": "Municípios",
        "street": "Rua Virgínio da Gama e Melo",
        "zipcode": "58303-055"
    },
    {
        "city": "Santa Rita",
        "state": "PB",
        "district": "Municípios",
        "street": "Rua Umbuzeiro",
        "zipcode": "58302-095"
    },
    {
        "city": "Santa Rita",
        "state": "PB",
        "district": "Centro",
        "street": "Rua Lourival Machado",
        "zipcode": "58300-340"
    },
    {
        "city": "Santa Rita",
        "state": "PB",
        "district": "Municípios",
        "street": "Rua Carrapateira",
        "zipcode": "58302-105"
    },
    {
        "city": "Santa Rita",
        "state": "PB",
        "district": "Municípios",
        "street": "Rua Cuité",
        "zipcode": "58302-045"
    },
    {
        "city": "Santa Rita",
        "state": "PB",
        "district": "Centro",
        "street": "Rua Peregrino de Carvalho",
        "zipcode": "58300-050"
    },
    {
        "city": "Santa Rita",
        "state": "PB",
        "district": "Centro",
        "street": "Vila São José",
        "zipcode": "58300-105"
    },
    {
        "city": "Santa Rita",
        "state": "PB",
        "district": "Centro",
        "street": "Avenida Flávio Ribeiro Coutinho",
        "zipcode": "58300-220"
    },
    {
        "city": "Santa Rita",
        "state": "PB",
        "district": "Municípios",
        "street": "Rua Rui Barbosa",
        "zipcode": "58303-045"
    },
    {
        "city": "Santa Rita",
        "state": "PB",
        "district": "Centro",
        "street": "Rua Senador José Américo",
        "zipcode": "58300-250"
    },
    {
        "city": "Santa Rita",
        "state": "PB",
        "district": "Municípios",
        "street": "Rua Silvino José da Silva",
        "zipcode": "58302-520"
    },
    {
        "city": "Santa Rita",
        "state": "PB",
        "district": "Popular",
        "street": "Rua Adalberto Cândido de Melo",
        "zipcode": "58301-090"
    },
    {
        "city": "Santa Rita",
        "state": "PB",
        "district": "Popular",
        "street": "Rua Afonso Pena",
        "zipcode": "58301-155"
    },
    {
        "city": "Santa Rita",
        "state": "PB",
        "district": "Vila Tibiri",
        "street": "Rua Alcides Carneiro",
        "zipcode": "58300-780"
    },
    {
        "city": "Santa Rita",
        "state": "PB",
        "district": "Municípios",
        "street": "Rua Arara",
        "zipcode": "58302-465"
    },
    {
        "city": "Santa Rita",
        "state": "PB",
        "district": "Municípios",
        "street": "Rua Araruna",
        "zipcode": "58302-020"
    },
    {
        "city": "Santa Rita",
        "state": "PB",
        "district": "Popular",
        "street": "Rua Bela Vista",
        "zipcode": "58301-220"
    },
    {
        "city": "Santa Rita",
        "state": "PB",
        "district": "Popular",
        "street": "Rua Campos Sales",
        "zipcode": "58301-160"
    },
    {
        "city": "Santa Rita",
        "state": "PB",
        "district": "Popular",
        "street": "Rua Castelo Branco",
        "zipcode": "58301-100"
    },
    {
        "city": "Santa Rita",
        "state": "PB",
        "district": "Municípios",
        "street": "Rua Cidade de Brieno",
        "zipcode": "58303-290"
    },
    {
        "city": "Santa Rita",
        "state": "PB",
        "district": "Municípios",
        "street": "Rua Coelho Neto",
        "zipcode": "58303-295"
    },
    {
        "city": "Santa Rita",
        "state": "PB",
        "district": "Municípios",
        "street": "Rua David Nasser",
        "zipcode": "58303-435"
    },
    {
        "city": "Santa Rita",
        "state": "PB",
        "district": "Municípios",
        "street": "Rua Deputado Soares Madruga",
        "zipcode": "58303-355"
    },
    {
        "city": "Santa Rita",
        "state": "PB",
        "district": "Municípios",
        "street": "Rua Dois Irmãos",
        "zipcode": "58303-305"
    },
    {
        "city": "Santa Rita",
        "state": "PB",
        "district": "Municípios",
        "street": "Rua Doutor Francisco Retumba",
        "zipcode": "58302-485"
    },
    {
        "city": "Santa Rita",
        "state": "PB",
        "district": "Municípios",
        "street": "Rua Doutor Hermano Sá",
        "zipcode": "58303-320"
    },
    {
        "city": "Santa Rita",
        "state": "PB",
        "district": "Popular",
        "street": "Rua Doutor Pedrosa",
        "zipcode": "58301-005"
    },
    {
        "city": "Santa Rita",
        "state": "PB",
        "district": "Municípios",
        "street": "Rua Eduardo Martins",
        "zipcode": "58303-415"
    },
    {
        "city": "Santa Rita",
        "state": "PB",
        "district": "Municípios",
        "street": "Rua Escritor Tito Filho",
        "zipcode": "58303-370"
    },
    {
        "city": "Santa Rita",
        "state": "PB",
        "district": "Municípios",
        "street": "Rua Euclides Bandeira",
        "zipcode": "58302-480"
    },
    {
        "city": "Santa Rita",
        "state": "PB",
        "district": "Vila Tibiri",
        "street": "Rua Fernandes C. Gouveia",
        "zipcode": "58300-740"
    },
    {
        "city": "Santa Rita",
        "state": "PB",
        "district": "Municípios",
        "street": "Rua João Paulo",
        "zipcode": "58303-335"
    },
    {
        "city": "Santa Rita",
        "state": "PB",
        "district": "Municípios",
        "street": "Rua Jornalista Hélio Fernandes",
        "zipcode": "58303-315"
    },
    {
        "city": "Santa Rita",
        "state": "PB",
        "district": "Municípios",
        "street": "Rua Jornalista Roberto Marinho",
        "zipcode": "58303-345"
    },
    {
        "city": "Santa Rita",
        "state": "PB",
        "district": "Popular",
        "street": "Rua José Paulino Cavalcante",
        "zipcode": "58301-015"
    },
    {
        "city": "Santa Rita",
        "state": "PB",
        "district": "Municípios",
        "street": "Rua Lamartine Holanda Júnior",
        "zipcode": "58303-445"
    },
    {
        "city": "Santa Rita",
        "state": "PB",
        "district": "Municípios",
        "street": "Rua Luís Francisco da Costa",
        "zipcode": "58303-395"
    },
    {
        "city": "Santa Rita",
        "state": "PB",
        "district": "Vila Tibiri",
        "street": "Rua Luiz Porto",
        "zipcode": "58300-730"
    },
    {
        "city": "Santa Rita",
        "state": "PB",
        "district": "Popular",
        "street": "Rua Major Terêncio",
        "zipcode": "58301-045"
    },
    {
        "city": "Santa Rita",
        "state": "PB",
        "district": "Popular",
        "street": "Rua Minas Gerais",
        "zipcode": "58301-070"
    },
    {
        "city": "Santa Rita",
        "state": "PB",
        "district": "Popular",
        "street": "Rua Monte Alegre",
        "zipcode": "58301-215"
    },
    {
        "city": "Santa Rita",
        "state": "PB",
        "district": "Popular",
        "street": "Rua Monte Castelo",
        "zipcode": "58301-140"
    },
    {
        "city": "Santa Rita",
        "state": "PB",
        "district": "Popular",
        "street": "Rua Noberto Farias",
        "zipcode": "58301-020"
    },
    {
        "city": "Santa Rita",
        "state": "PB",
        "district": "Vila Tibiri",
        "street": "Rua Osvaldo Cruz",
        "zipcode": "58300-690"
    },
    {
        "city": "Santa Rita",
        "state": "PB",
        "district": "Vila Tibiri",
        "street": "Rua Padre Roma",
        "zipcode": "58300-770"
    },
    {
        "city": "Santa Rita",
        "state": "PB",
        "district": "Vila Tibiri",
        "street": "Rua Pedro Américo",
        "zipcode": "58300-680"
    },
    {
        "city": "Santa Rita",
        "state": "PB",
        "district": "Municípios",
        "street": "Rua Pitimbu",
        "zipcode": "58302-460"
    },
    {
        "city": "Santa Rita",
        "state": "PB",
        "district": "Municípios",
        "street": "Rua Prefeito Antônio Teixeira",
        "zipcode": "58303-420"
    },
    {
        "city": "Santa Rita",
        "state": "PB",
        "district": "Popular",
        "street": "Rua Primeiro de Maio",
        "zipcode": "58301-175"
    },
    {
        "city": "Santa Rita",
        "state": "PB",
        "district": "Popular",
        "street": "Rua Professor Severo Rodrigues",
        "zipcode": "58301-000"
    },
    {
        "city": "Santa Rita",
        "state": "PB",
        "district": "Popular",
        "street": "Avenida Rio Branco",
        "zipcode": "58301-195"
    },
    {
        "city": "Santa Rita",
        "state": "PB",
        "district": "Municípios",
        "street": "Rua Rubens Braga",
        "zipcode": "58303-400"
    },
    {
        "city": "Santa Rita",
        "state": "PB",
        "district": "Municípios",
        "street": "Rua Sá Andrade",
        "zipcode": "58302-515"
    },
    {
        "city": "Santa Rita",
        "state": "PB",
        "district": "Vila Tibiri",
        "street": "Rua Santos Dumont",
        "zipcode": "58300-650"
    },
    {
        "city": "Santa Rita",
        "state": "PB",
        "district": "Popular",
        "street": "Rua São José",
        "zipcode": "58301-125"
    },
    {
        "city": "Santa Rita",
        "state": "PB",
        "district": "Municípios",
        "street": "Rua Senador Adalberto Ribeiro",
        "zipcode": "58302-475"
    },
    {
        "city": "Santa Rita",
        "state": "PB",
        "district": "Municípios",
        "street": "Loteamento Tibiri",
        "zipcode": "58303-385"
    },
    {
        "city": "Santa Rita",
        "state": "PB",
        "district": "Municípios",
        "street": "Rua Tomaz Morus",
        "zipcode": "58303-375"
    },
    {
        "city": "Santa Rita",
        "state": "PB",
        "district": "Municípios",
        "street": "Rua Vereador Israel Diniz",
        "zipcode": "58302-495"
    },
    {
        "city": "Santa Rita",
        "state": "PB",
        "district": "Popular",
        "street": "Rua Vinte e Dois de Maio",
        "zipcode": "58301-050"
    },
    {
        "city": "Santa Rita",
        "state": "PB",
        "district": "Municípios",
        "street": "Rua Prefeita Lia Beltrão",
        "zipcode": "58303-440"
    },
    {
        "city": "Santa Rita",
        "state": "PB",
        "district": "Municípios",
        "street": "Rua Antônio Lira",
        "zipcode": "58303-465"
    },
    {
        "city": "Santa Rita",
        "state": "PB",
        "district": "Vila Tibiri",
        "street": "Rua Índio Piragibe",
        "zipcode": "58300-670"
    },
    {
        "city": "Santa Rita",
        "state": "PB",
        "district": "Popular",
        "street": "Rua Maria Santiago",
        "zipcode": "58301-060"
    },
    {
        "city": "Santa Rita",
        "state": "PB",
        "district": "Popular",
        "street": "Rua Altina de Vasconcelos",
        "zipcode": "58301-030"
    },
    {
        "city": "Santa Rita",
        "state": "PB",
        "district": "Popular",
        "street": "Rua Dom Adauto",
        "zipcode": "58301-200"
    },
    {
        "city": "Santa Rita",
        "state": "PB",
        "district": "Municípios",
        "street": "Rua Celi Mare Batista",
        "zipcode": "58303-249"
    },
    {
        "city": "Santa Rita",
        "state": "PB",
        "district": "Municípios",
        "street": "Rua Afrísio José A. de Jesus",
        "zipcode": "58303-265"
    },
    {
        "city": "Santa Rita",
        "state": "PB",
        "district": "Municípios",
        "street": "Rua Arruda Câmara",
        "zipcode": "58303-175"
    },
    {
        "city": "Santa Rita",
        "state": "PB",
        "district": "Municípios",
        "street": "Rua Ataídes de Brito",
        "zipcode": "58303-275"
    },
    {
        "city": "Santa Rita",
        "state": "PB",
        "district": "Municípios",
        "street": "Rua Baía da Traição",
        "zipcode": "58302-425"
    },
    {
        "city": "Santa Rita",
        "state": "PB",
        "district": "Municípios",
        "street": "Rua Barão de Mamanguape",
        "zipcode": "58303-255"
    },
    {
        "city": "Santa Rita",
        "state": "PB",
        "district": "Municípios",
        "street": "Rua Bayeux",
        "zipcode": "58302-015"
    },
    {
        "city": "Santa Rita",
        "state": "PB",
        "district": "Municípios",
        "street": "Rua Belém",
        "zipcode": "58302-405"
    },
    {
        "city": "Santa Rita",
        "state": "PB",
        "district": "Popular",
        "street": "Rodovia BR",
        "zipcode": "58301-645"
    },
    {
        "city": "Santa Rita",
        "state": "PB",
        "district": "Municípios",
        "street": "Rua Caapora",
        "zipcode": "58302-445"
    },
    {
        "city": "Santa Rita",
        "state": "PB",
        "district": "Municípios",
        "street": "Rua Cajá",
        "zipcode": "58302-440"
    },
    {
        "city": "Santa Rita",
        "state": "PB",
        "district": "Municípios",
        "street": "Rua Caraná",
        "zipcode": "58303-285"
    },
    {
        "city": "Santa Rita",
        "state": "PB",
        "district": "Municípios",
        "street": "Rua Cinco de Agosto",
        "zipcode": "58303-380"
    },
    {
        "city": "Santa Rita",
        "state": "PB",
        "district": "Popular",
        "street": "Rua Cosma Lopes Dias",
        "zipcode": "58301-600"
    },
    {
        "city": "Santa Rita",
        "state": "PB",
        "district": "Municípios",
        "street": "Rua Deputado Everaldo Agra",
        "zipcode": "58303-460"
    },
    {
        "city": "Santa Rita",
        "state": "PB",
        "district": "Popular",
        "street": "Rua Doutor João Pimentel",
        "zipcode": "58301-590"
    },
    {
        "city": "Santa Rita",
        "state": "PB",
        "district": "Municípios",
        "street": "Rua Drelzia Matos",
        "zipcode": "58303-405"
    },
    {
        "city": "Santa Rita",
        "state": "PB",
        "district": "Popular",
        "street": "Rua Eduardo Martins",
        "zipcode": "58303-515"
    },
    {
        "city": "Santa Rita",
        "state": "PB",
        "district": "Popular",
        "street": "Praça Eitel Santiago",
        "zipcode": "58301-405"
    },
    {
        "city": "Santa Rita",
        "state": "PB",
        "district": "Popular",
        "street": "Rua Enéas Flávio Soares de Morais",
        "zipcode": "58301-620"
    },
    {
        "city": "Santa Rita",
        "state": "PB",
        "district": "Municípios",
        "street": "Rua Eurípedes Tavares",
        "zipcode": "58303-425"
    },
    {
        "city": "Santa Rita",
        "state": "PB",
        "district": "Popular",
        "street": "Rua Flaviano Ribeiro",
        "zipcode": "58301-585"
    },
    {
        "city": "Santa Rita",
        "state": "PB",
        "district": "Popular",
        "street": "Rua Flodoaldo da Silveira",
        "zipcode": "58301-580"
    },
    {
        "city": "Santa Rita",
        "state": "PB",
        "district": "Popular",
        "street": "Rua Francisco Viegas",
        "zipcode": "58301-475"
    },
    {
        "city": "Santa Rita",
        "state": "PB",
        "district": "Popular",
        "street": "Rua Geni Batista",
        "zipcode": "58301-515"
    },
    {
        "city": "Santa Rita",
        "state": "PB",
        "district": "Municípios",
        "street": "Rua Hermenegildo Gomes",
        "zipcode": "58303-325"
    },
    {
        "city": "Santa Rita",
        "state": "PB",
        "district": "Popular",
        "street": "Rua Hermógenes Miranda",
        "zipcode": "58303-500"
    },
    {
        "city": "Santa Rita",
        "state": "PB",
        "district": "Municípios",
        "street": "Rua Itabaiana",
        "zipcode": "58302-010"
    },
    {
        "city": "Santa Rita",
        "state": "PB",
        "district": "Popular",
        "street": "Rua Jaciara de Almeida Lima",
        "zipcode": "58303-520"
    },
    {
        "city": "Santa Rita",
        "state": "PB",
        "district": "Popular",
        "street": "Rua João Francisco de Araújo",
        "zipcode": "58301-565"
    },
    {
        "city": "Santa Rita",
        "state": "PB",
        "district": "Municípios",
        "street": "Rua João Medeiros",
        "zipcode": "58303-180"
    },
    {
        "city": "Santa Rita",
        "state": "PB",
        "district": "Popular",
        "street": "Rua José Domingos Porto",
        "zipcode": "58301-510"
    },
    {
        "city": "Santa Rita",
        "state": "PB",
        "district": "Municípios",
        "street": "Rua Lagoa Seca",
        "zipcode": "58302-430"
    },
    {
        "city": "Santa Rita",
        "state": "PB",
        "district": "Municípios",
        "street": "Rua Lima Sobrinho",
        "zipcode": "58303-235"
    },
    {
        "city": "Santa Rita",
        "state": "PB",
        "district": "Municípios",
        "street": "Rua Monteiro Lobato",
        "zipcode": "58303-165"
    },
    {
        "city": "Santa Rita",
        "state": "PB",
        "district": "Municípios",
        "street": "Rua Padre José Coutinho",
        "zipcode": "58303-230"
    },
    {
        "city": "Santa Rita",
        "state": "PB",
        "district": "Popular",
        "street": "Rua Pastor Inácio de Freitas",
        "zipcode": "58301-610"
    },
    {
        "city": "Santa Rita",
        "state": "PB",
        "district": "Popular",
        "street": "Rua Pedro Pedrito de Morais",
        "zipcode": "58301-555"
    },
    {
        "city": "Santa Rita",
        "state": "PB",
        "district": "Popular",
        "street": "Rua Pernambuco",
        "zipcode": "58301-525"
    },
    {
        "city": "Santa Rita",
        "state": "PB",
        "district": "Municípios",
        "street": "Rua Petrônio Alves Nilo",
        "zipcode": "58303-340"
    },
    {
        "city": "Santa Rita",
        "state": "PB",
        "district": "Popular",
        "street": "Rua Piauí",
        "zipcode": "58301-430"
    },
    {
        "city": "Santa Rita",
        "state": "PB",
        "district": "Popular",
        "street": "Rua Plínio Bastos",
        "zipcode": "58301-465"
    },
    {
        "city": "Santa Rita",
        "state": "PB",
        "district": "Popular",
        "street": "Rua Primo Basílio",
        "zipcode": "58301-495"
    },
    {
        "city": "Santa Rita",
        "state": "PB",
        "district": "Popular",
        "street": "Rua Rio de Janeiro",
        "zipcode": "58301-420"
    },
    {
        "city": "Santa Rita",
        "state": "PB",
        "district": "Popular",
        "street": "Rua Rio Grande do Norte",
        "zipcode": "58301-440"
    },
    {
        "city": "Santa Rita",
        "state": "PB",
        "district": "Popular",
        "street": "Rua Rodolfo Lins da Nóbrega",
        "zipcode": "58301-560"
    },
    {
        "city": "Santa Rita",
        "state": "PB",
        "district": "Popular",
        "street": "Rua Santa Catarina",
        "zipcode": "58301-425"
    },
    {
        "city": "Santa Rita",
        "state": "PB",
        "district": "Popular",
        "street": "Rua São Paulo",
        "zipcode": "58301-520"
    },
    {
        "city": "Santa Rita",
        "state": "PB",
        "district": "Popular",
        "street": "Rua Severina Nunes Padilha",
        "zipcode": "58301-625"
    },
    {
        "city": "Santa Rita",
        "state": "PB",
        "district": "Municípios",
        "street": "Rua Tacima",
        "zipcode": "58302-410"
    },
    {
        "city": "Santa Rita",
        "state": "PB",
        "district": "Municípios",
        "street": "Rua Washington Luís",
        "zipcode": "58303-205"
    },
    {
        "city": "Santa Rita",
        "state": "PB",
        "district": "Municípios",
        "street": "Rua Frei Caneca",
        "zipcode": "58303-245"
    },
    {
        "city": "Santa Rita",
        "state": "PB",
        "district": "Municípios",
        "street": "Rua Mari",
        "zipcode": "58302-320"
    },
    {
        "city": "Santa Rita",
        "state": "PB",
        "district": "Municípios",
        "street": "Rua Osvaldo Aranha",
        "zipcode": "58303-200"
    },
    {
        "city": "Santa Rita",
        "state": "PB",
        "district": "Municípios",
        "street": "Rua Lucena",
        "zipcode": "58302-400"
    },
    {
        "city": "Santa Rita",
        "state": "PB",
        "district": "Municípios",
        "street": "Rua Alexandre C. Lima",
        "zipcode": "58303-105"
    },
    {
        "city": "Santa Rita",
        "state": "PB",
        "district": "Municípios",
        "street": "Rua Aracagi",
        "zipcode": "58302-120"
    },
    {
        "city": "Santa Rita",
        "state": "PB",
        "district": "Municípios",
        "street": "Rua Areia",
        "zipcode": "58302-345"
    },
    {
        "city": "Santa Rita",
        "state": "PB",
        "district": "Municípios",
        "street": "Rua Bananeiras",
        "zipcode": "58302-360"
    },
    {
        "city": "Santa Rita",
        "state": "PB",
        "district": "Municípios",
        "street": "Rua Barra de São Miguel",
        "zipcode": "58302-265"
    },
    {
        "city": "Santa Rita",
        "state": "PB",
        "district": "Municípios",
        "street": "Rua Boqueirão",
        "zipcode": "58302-375"
    },
    {
        "city": "Santa Rita",
        "state": "PB",
        "district": "Municípios",
        "street": "Rua Cabaceiras",
        "zipcode": "58302-260"
    },
    {
        "city": "Santa Rita",
        "state": "PB",
        "district": "Municípios",
        "street": "Rua Cabedelo",
        "zipcode": "58302-250"
    },
    {
        "city": "Santa Rita",
        "state": "PB",
        "district": "Municípios",
        "street": "Rua Caiçara",
        "zipcode": "58302-240"
    },
    {
        "city": "Santa Rita",
        "state": "PB",
        "district": "Municípios",
        "street": "Rua Conceição",
        "zipcode": "58302-380"
    },
    {
        "city": "Santa Rita",
        "state": "PB",
        "district": "Municípios",
        "street": "Rua Conde",
        "zipcode": "58302-220"
    },
    {
        "city": "Santa Rita",
        "state": "PB",
        "district": "Municípios",
        "street": "Rua Domingos J. Martins",
        "zipcode": "58303-095"
    },
    {
        "city": "Santa Rita",
        "state": "PB",
        "district": "Municípios",
        "street": "Rua Dona Inês",
        "zipcode": "58302-415"
    },
    {
        "city": "Santa Rita",
        "state": "PB",
        "district": "Municípios",
        "street": "Rua Duque de Caxias",
        "zipcode": "58303-000"
    },
    {
        "city": "Santa Rita",
        "state": "PB",
        "district": "Municípios",
        "street": "Rua Edson Queiroz",
        "zipcode": "58303-130"
    },
    {
        "city": "Santa Rita",
        "state": "PB",
        "district": "Municípios",
        "street": "Rua Embaixador Milton Cabral",
        "zipcode": "58302-510"
    },
    {
        "city": "Santa Rita",
        "state": "PB",
        "district": "Municípios",
        "street": "Rua Guarabira",
        "zipcode": "58302-070"
    },
    {
        "city": "Santa Rita",
        "state": "PB",
        "district": "Municípios",
        "street": "Rua Gurinhém",
        "zipcode": "58302-140"
    },
    {
        "city": "Santa Rita",
        "state": "PB",
        "district": "Municípios",
        "street": "Rua Frutuoso Dantas",
        "zipcode": "58303-215"
    },
    {
        "city": "Santa Rita",
        "state": "PB",
        "district": "Municípios",
        "street": "Rua Ibiara",
        "zipcode": "58302-100"
    },
    {
        "city": "Santa Rita",
        "state": "PB",
        "district": "Municípios",
        "street": "Rua Ingá",
        "zipcode": "58302-355"
    },
    {
        "city": "Santa Rita",
        "state": "PB",
        "district": "Municípios",
        "street": "Rua Jacarau",
        "zipcode": "58302-005"
    },
    {
        "city": "Santa Rita",
        "state": "PB",
        "district": "Municípios",
        "street": "Rua João Machado",
        "zipcode": "58303-190"
    },
    {
        "city": "Santa Rita",
        "state": "PB",
        "district": "Municípios",
        "street": "Rua João Soares",
        "zipcode": "58303-135"
    },
    {
        "city": "Santa Rita",
        "state": "PB",
        "district": "Municípios",
        "street": "Rua Juripiranga",
        "zipcode": "58302-435"
    },
    {
        "city": "Santa Rita",
        "state": "PB",
        "district": "Municípios",
        "street": "Rua Lagoa de Dentro",
        "zipcode": "58302-255"
    },
    {
        "city": "Santa Rita",
        "state": "PB",
        "district": "Municípios",
        "street": "Rua Malta",
        "zipcode": "58302-280"
    },
    {
        "city": "Santa Rita",
        "state": "PB",
        "district": "Municípios",
        "street": "Rua Massaranduba",
        "zipcode": "58302-190"
    },
    {
        "city": "Santa Rita",
        "state": "PB",
        "district": "Municípios",
        "street": "Rua Miguel Couto",
        "zipcode": "58303-155"
    },
    {
        "city": "Santa Rita",
        "state": "PB",
        "district": "Municípios",
        "street": "Rua Mogeiro",
        "zipcode": "58302-325"
    },
    {
        "city": "Santa Rita",
        "state": "PB",
        "district": "Municípios",
        "street": "Rua Monte Horebe",
        "zipcode": "58302-180"
    },
    {
        "city": "Santa Rita",
        "state": "PB",
        "district": "Municípios",
        "street": "Rua Olívio Câmara Maroja",
        "zipcode": "58302-535"
    },
    {
        "city": "Santa Rita",
        "state": "PB",
        "district": "Municípios",
        "street": "Rua Padre Miguelino",
        "zipcode": "58303-120"
    },
    {
        "city": "Santa Rita",
        "state": "PB",
        "district": "Municípios",
        "street": "Rua Padre Vieira",
        "zipcode": "58303-210"
    },
    {
        "city": "Santa Rita",
        "state": "PB",
        "district": "Municípios",
        "street": "Rua Patos",
        "zipcode": "58302-290"
    },
    {
        "city": "Santa Rita",
        "state": "PB",
        "district": "Municípios",
        "street": "Rua Paulino Bastos",
        "zipcode": "58303-040"
    },
    {
        "city": "Santa Rita",
        "state": "PB",
        "district": "Municípios",
        "street": "Rua Piancó",
        "zipcode": "58302-365"
    },
    {
        "city": "Santa Rita",
        "state": "PB",
        "district": "Municípios",
        "street": "Rua Picui",
        "zipcode": "58302-310"
    },
    {
        "city": "Santa Rita",
        "state": "PB",
        "district": "Municípios",
        "street": "Rua Pirpirituba",
        "zipcode": "58302-395"
    },
    {
        "city": "Santa Rita",
        "state": "PB",
        "district": "Municípios",
        "street": "Rua Pocinhos",
        "zipcode": "58302-235"
    },
    {
        "city": "Santa Rita",
        "state": "PB",
        "district": "Municípios",
        "street": "Rua Pombal",
        "zipcode": "58302-300"
    },
    {
        "city": "Santa Rita",
        "state": "PB",
        "district": "Municípios",
        "street": "Rua Princesa Isabel",
        "zipcode": "58302-090"
    },
    {
        "city": "Santa Rita",
        "state": "PB",
        "district": "Municípios",
        "street": "Rua Puxinana",
        "zipcode": "58302-295"
    },
    {
        "city": "Santa Rita",
        "state": "PB",
        "district": "Municípios",
        "street": "Rua Riacho dos Cavalos",
        "zipcode": "58302-225"
    },
    {
        "city": "Santa Rita",
        "state": "PB",
        "district": "Municípios",
        "street": "Rua Rio Tinto",
        "zipcode": "58302-305"
    },
    {
        "city": "Santa Rita",
        "state": "PB",
        "district": "Municípios",
        "street": "Rua Santa Terezinha",
        "zipcode": "58302-200"
    },
    {
        "city": "Santa Rita",
        "state": "PB",
        "district": "Municípios",
        "street": "Rua Santana dos Garrotes",
        "zipcode": "58302-285"
    },
    {
        "city": "Santa Rita",
        "state": "PB",
        "district": "Municípios",
        "street": "Rua São João do Cariri",
        "zipcode": "58302-205"
    },
    {
        "city": "Santa Rita",
        "state": "PB",
        "district": "Municípios",
        "street": "Rua Serra da Raiz",
        "zipcode": "58302-210"
    },
    {
        "city": "Santa Rita",
        "state": "PB",
        "district": "Municípios",
        "street": "Rua Tavares",
        "zipcode": "58302-215"
    },
    {
        "city": "Santa Rita",
        "state": "PB",
        "district": "Municípios",
        "street": "Rua Teixeira",
        "zipcode": "58302-370"
    },
    {
        "city": "Santa Rita",
        "state": "PB",
        "district": "Municípios",
        "street": "Rua Jornal do Brasil",
        "zipcode": "58302-505"
    },
    {
        "city": "Santa Rita",
        "state": "PB",
        "district": "Municípios",
        "street": "Rua Bom Jesus",
        "zipcode": "58302-335"
    },
    {
        "city": "Santa Rita",
        "state": "PB",
        "district": "Municípios",
        "street": "Rua Montadas",
        "zipcode": "58302-185"
    },
    {
        "city": "Santa Rita",
        "state": "PB",
        "district": "Municípios",
        "street": "Rua Pedras de Fogo",
        "zipcode": "58302-390"
    },
    {
        "city": "Santa Rita",
        "state": "PB",
        "district": "Centro",
        "street": "Praça Antenor Navarro",
        "zipcode": "58300-971"
    },
    {
        "city": "Santa Rita",
        "state": "PB",
        "district": "Centro",
        "street": "Rua Alvina Cavalcante",
        "zipcode": "58300-420"
    },
    {
        "city": "Santa Rita",
        "state": "PB",
        "district": "Popular",
        "street": "Rua Amazonas",
        "zipcode": "58301-545"
    },
    {
        "city": "Santa Rita",
        "state": "PB",
        "district": "Popular",
        "street": "Praça Antônio Ribeiro Pessoa",
        "zipcode": "58301-460"
    },
    {
        "city": "Santa Rita",
        "state": "PB",
        "district": "Popular",
        "street": "Rua Antônio Soares de Souza",
        "zipcode": "58301-330"
    },
    {
        "city": "Santa Rita",
        "state": "PB",
        "district": "Centro",
        "street": "Vila Ascendino Teixeira",
        "zipcode": "58300-315"
    },
    {
        "city": "Santa Rita",
        "state": "PB",
        "district": "Popular",
        "street": "Rua Capitão José Inácio",
        "zipcode": "58301-530"
    },
    {
        "city": "Santa Rita",
        "state": "PB",
        "district": "Popular",
        "street": "Rua Carlos Drumond de Andrade",
        "zipcode": "58303-490"
    },
    {
        "city": "Santa Rita",
        "state": "PB",
        "district": "Vila Tibiri",
        "street": "Rua Carlos Gomes",
        "zipcode": "58300-610"
    },
    {
        "city": "Santa Rita",
        "state": "PB",
        "district": "Popular",
        "street": "Praça Deputado Luís Ribeiro Coutinho",
        "zipcode": "58301-390"
    },
    {
        "city": "Santa Rita",
        "state": "PB",
        "district": "Vila Tibiri",
        "street": "Praça Dom Pedro II",
        "zipcode": "58300-665"
    },
    {
        "city": "Santa Rita",
        "state": "PB",
        "district": "Vila Tibiri",
        "street": "Rua Dom Pedro II",
        "zipcode": "58300-660"
    },
    {
        "city": "Santa Rita",
        "state": "PB",
        "district": "Liberdade",
        "street": "Rua Dom Ulrico",
        "zipcode": "58300-540"
    },
    {
        "city": "Santa Rita",
        "state": "PB",
        "district": "Centro",
        "street": "Travessa Doutor Fonseca",
        "zipcode": "58300-103"
    },
    {
        "city": "Santa Rita",
        "state": "PB",
        "district": "Municípios",
        "street": "Rua Durval Falcão",
        "zipcode": "58303-455"
    },
    {
        "city": "Santa Rita",
        "state": "PB",
        "district": "Centro",
        "street": "Rua Eliza de Moraes",
        "zipcode": "58300-330"
    },
    {
        "city": "Santa Rita",
        "state": "PB",
        "district": "Popular",
        "street": "Rua Eurico Dutra",
        "zipcode": "58301-055"
    },
    {
        "city": "Santa Rita",
        "state": "PB",
        "district": "Municípios",
        "street": "Rua Gasparino Ribeiro",
        "zipcode": "58303-475"
    },
    {
        "city": "Santa Rita",
        "state": "PB",
        "district": "Popular",
        "street": "Rua Graciliano Ramos",
        "zipcode": "58301-615"
    },
    {
        "city": "Santa Rita",
        "state": "PB",
        "district": "Municípios",
        "street": "Rua Carlos D. Fernandes",
        "zipcode": "58303-160"
    },
    {
        "city": "Santa Rita",
        "state": "PB",
        "district": "Municípios",
        "street": "Rua Horácio de Almeida",
        "zipcode": "58303-150"
    },
    {
        "city": "Santa Rita",
        "state": "PB",
        "district": "Municípios",
        "street": "Rua Nara Cascudo",
        "zipcode": "58303-225"
    },
    {
        "city": "Santa Rita",
        "state": "PB",
        "district": "Liberdade",
        "street": "Rua Ivan Santiago",
        "zipcode": "58300-500"
    },
    {
        "city": "Santa Rita",
        "state": "PB",
        "district": "Popular",
        "street": "Rua João Albino Meireles",
        "zipcode": "58301-570"
    },
    {
        "city": "Santa Rita",
        "state": "PB",
        "district": "Centro",
        "street": "Praça João Pessoa",
        "zipcode": "58300-140"
    },
    {
        "city": "Santa Rita",
        "state": "PB",
        "district": "Centro",
        "street": "Rua João Ribeiro Coutinho",
        "zipcode": "58300-230"
    },
    {
        "city": "Santa Rita",
        "state": "PB",
        "district": "Centro",
        "street": "Rua Joaquim Guedes",
        "zipcode": "58300-480"
    },
    {
        "city": "Santa Rita",
        "state": "PB",
        "district": "Municípios",
        "street": "Rua Marcos Vlademir Alves",
        "zipcode": "58303-430"
    },
    {
        "city": "Santa Rita",
        "state": "PB",
        "district": "Popular",
        "street": "Rua Maria Dalva O. Falcone",
        "zipcode": "58301-635"
    },
    {
        "city": "Santa Rita",
        "state": "PB",
        "district": "Popular",
        "street": "Rua Maria Eulina",
        "zipcode": "58301-075"
    },
    {
        "city": "Santa Rita",
        "state": "PB",
        "district": "Liberdade",
        "street": "Travessa Monsenhor Melibeu",
        "zipcode": "58300-565"
    },
    {
        "city": "Santa Rita",
        "state": "PB",
        "district": "Municípios",
        "street": "Rua Monsenhor S. Pires Ferreira",
        "zipcode": "58303-360"
    },
    {
        "city": "Santa Rita",
        "state": "PB",
        "district": "Popular",
        "street": "Rua Nossa Senhora do Carmo",
        "zipcode": "58301-135"
    },
    {
        "city": "Santa Rita",
        "state": "PB",
        "district": "Popular",
        "street": "Rua Padre Amaro",
        "zipcode": "58301-505"
    },
    {
        "city": "Santa Rita",
        "state": "PB",
        "district": "Popular",
        "street": "Rua Pará",
        "zipcode": "58301-380"
    },
    {
        "city": "Santa Rita",
        "state": "PB",
        "district": "Popular",
        "street": "Rua Paraíba",
        "zipcode": "58301-350"
    },
    {
        "city": "Santa Rita",
        "state": "PB",
        "district": "Popular",
        "street": "Rua Coronel Oswaldo Pio da Rocha",
        "zipcode": "58301-385"
    },
    {
        "city": "Santa Rita",
        "state": "PB",
        "district": "Popular",
        "street": "Praça Pedro Gomes Pereira",
        "zipcode": "58301-415"
    },
    {
        "city": "Santa Rita",
        "state": "PB",
        "district": "Municípios",
        "street": "Rua Poeta J. Lisboa",
        "zipcode": "58303-170"
    },
    {
        "city": "Santa Rita",
        "state": "PB",
        "district": "Municípios",
        "street": "Rua Radialista Enoque Pelágio",
        "zipcode": "58303-390"
    },
    {
        "city": "Santa Rita",
        "state": "PB",
        "district": "Popular",
        "street": "Rua Rodrigues Alves",
        "zipcode": "58301-210"
    },
    {
        "city": "Santa Rita",
        "state": "PB",
        "district": "Popular",
        "street": "Rua São Pedro",
        "zipcode": "58301-250"
    },
    {
        "city": "Santa Rita",
        "state": "PB",
        "district": "Popular",
        "street": "Rua Senador Epitacinho",
        "zipcode": "58301-280"
    },
    {
        "city": "Santa Rita",
        "state": "PB",
        "district": "Popular",
        "street": "Rua Severino Lourenço",
        "zipcode": "58301-490"
    },
    {
        "city": "Santa Rita",
        "state": "PB",
        "district": "Centro",
        "street": "Rua Siqueira Campos",
        "zipcode": "58300-180"
    },
    {
        "city": "Santa Rita",
        "state": "PB",
        "district": "Popular",
        "street": "Rua Telêmaco Santiago",
        "zipcode": "58301-095"
    },
    {
        "city": "Santa Rita",
        "state": "PB",
        "district": "Popular",
        "street": "Rua Tenente Francisco Pedro",
        "zipcode": "58301-235"
    },
    {
        "city": "Santa Rita",
        "state": "PB",
        "district": "Centro",
        "street": "Rua Virgínio Veloso Borges",
        "zipcode": "58300-270"
    },
    {
        "city": "Santa Rita",
        "state": "PB",
        "district": "Popular",
        "street": "Travessa Campos Sales",
        "zipcode": "58301-165"
    },
    {
        "city": "Santa Rita",
        "state": "PB",
        "district": "Municípios",
        "street": "Rua Félix Figueiredo de Oliveira",
        "zipcode": "58303-480"
    },
    {
        "city": "Santa Rita",
        "state": "PB",
        "district": "Popular",
        "street": "Rua General Diogo Flores Valdez",
        "zipcode": "58301-320"
    },
    {
        "city": "Santa Rita",
        "state": "PB",
        "district": "Popular",
        "street": "Rua Capitão Joca Medeiros",
        "zipcode": "58301-010"
    },
    {
        "city": "Santa Rita",
        "state": "PB",
        "district": "Centro",
        "street": "Rua Edson de Queiroz",
        "zipcode": "58300-370"
    },
    {
        "city": "Santa Rita",
        "state": "PB",
        "district": "Centro",
        "street": "Rua Joana Gomes da Silveira",
        "zipcode": "58300-450"
    },
    {
        "city": "Santa Rita",
        "state": "PB",
        "district": "Municípios",
        "street": "Rua Alhandra",
        "zipcode": "58302-450"
    },
    {
        "city": "Santa Rita",
        "state": "PB",
        "district": "Centro",
        "street": "Praça Amaro Coutinho",
        "zipcode": "58300-080"
    },
    {
        "city": "Santa Rita",
        "state": "PB",
        "district": "Popular",
        "street": "Rua Antônio Dourado de Azevedo",
        "zipcode": "58301-605"
    },
    {
        "city": "Santa Rita",
        "state": "PB",
        "district": "Popular",
        "street": "Rua Ascendino Monteiro da Silva",
        "zipcode": "58301-595"
    },
    {
        "city": "Santa Rita",
        "state": "PB",
        "district": "Municípios",
        "street": "Rua Barão do Abiay",
        "zipcode": "58303-240"
    },
    {
        "city": "Santa Rita",
        "state": "PB",
        "district": "Municípios",
        "street": "Rua Barra de Santa Rosa",
        "zipcode": "58302-065"
    },
    {
        "city": "Santa Rita",
        "state": "PB",
        "district": "Municípios",
        "street": "Rua Boa Ventura",
        "zipcode": "58302-160"
    },
    {
        "city": "Santa Rita",
        "state": "PB",
        "district": "Municípios",
        "street": "Rua Cajazeiras",
        "zipcode": "58302-030"
    },
    {
        "city": "Santa Rita",
        "state": "PB",
        "district": "Municípios",
        "street": "Avenida Campina Grande",
        "zipcode": "58302-195"
    },
    {
        "city": "Santa Rita",
        "state": "PB",
        "district": "Popular",
        "street": "Praça Castelo Branco",
        "zipcode": "58301-375"
    },
    {
        "city": "Santa Rita",
        "state": "PB",
        "district": "Popular",
        "street": "Rua Deputado Flaviano Ribeiro Coutinho Filho",
        "zipcode": "58301-630"
    },
    {
        "city": "Santa Rita",
        "state": "PB",
        "district": "Municípios",
        "street": "Rua Desembargador Aurélio Albuquerque",
        "zipcode": "58303-280"
    },
    {
        "city": "Santa Rita",
        "state": "PB",
        "district": "Municípios",
        "street": "Praça Elpídio de Almeida",
        "zipcode": "58303-300"
    },
    {
        "city": "Santa Rita",
        "state": "PB",
        "district": "Popular",
        "street": "Rua Escritor Carlos Porto",
        "zipcode": "58301-300"
    },
    {
        "city": "Santa Rita",
        "state": "PB",
        "district": "Municípios",
        "street": "Rua Esperança",
        "zipcode": "58302-340"
    },
    {
        "city": "Santa Rita",
        "state": "PB",
        "district": "Popular",
        "street": "Rua Espírito Santo",
        "zipcode": "58301-455"
    },
    {
        "city": "Santa Rita",
        "state": "PB",
        "district": "Municípios",
        "street": "Rua Francisco da Silveira",
        "zipcode": "58303-085"
    },
    {
        "city": "Santa Rita",
        "state": "PB",
        "district": "Municípios",
        "street": "Rua General Demóstenes Nassa",
        "zipcode": "58303-220"
    },
    {
        "city": "Santa Rita",
        "state": "PB",
        "district": "Vila Tibiri",
        "street": "Rua General Osório",
        "zipcode": "58300-600"
    },
    {
        "city": "Santa Rita",
        "state": "PB",
        "district": "Municípios",
        "street": "Rua Governador Ivan Bichara",
        "zipcode": "58302-490"
    },
    {
        "city": "Santa Rita",
        "state": "PB",
        "district": "Popular",
        "street": "Rua Guanabara",
        "zipcode": "58301-325"
    },
    {
        "city": "Santa Rita",
        "state": "PB",
        "district": "Municípios",
        "street": "Rua Itaporanga",
        "zipcode": "58302-385"
    },
    {
        "city": "Santa Rita",
        "state": "PB",
        "district": "Centro",
        "street": "Travessa Ivo Borges",
        "zipcode": "58300-045"
    },
    {
        "city": "Santa Rita",
        "state": "PB",
        "district": "Municípios",
        "street": "Rua José Vaz",
        "zipcode": "58303-060"
    },
    {
        "city": "Santa Rita",
        "state": "PB",
        "district": "Municípios",
        "street": "Rua Juazeirinho",
        "zipcode": "58302-150"
    },
    {
        "city": "Santa Rita",
        "state": "PB",
        "district": "Municípios",
        "street": "Rua Juscelino Kubitschek",
        "zipcode": "58303-100"
    },
    {
        "city": "Santa Rita",
        "state": "PB",
        "district": "Municípios",
        "street": "Rua Mamanguape",
        "zipcode": "58302-315"
    },
    {
        "city": "Santa Rita",
        "state": "PB",
        "district": "Popular",
        "street": "Rua Manoel Veloso Borges",
        "zipcode": "58301-115"
    },
    {
        "city": "Santa Rita",
        "state": "PB",
        "district": "Popular",
        "street": "Rua Margarida de Souza Coutinho",
        "zipcode": "58301-485"
    },
    {
        "city": "Santa Rita",
        "state": "PB",
        "district": "Popular",
        "street": "Rua Maria da Paz Lacet",
        "zipcode": "58301-040"
    },
    {
        "city": "Santa Rita",
        "state": "PB",
        "district": "Municípios",
        "street": "Rua Martim Leitão",
        "zipcode": "58303-140"
    },
    {
        "city": "Santa Rita",
        "state": "PB",
        "district": "Municípios",
        "street": "Rua Mataraca",
        "zipcode": "58302-420"
    },
    {
        "city": "Santa Rita",
        "state": "PB",
        "district": "Popular",
        "street": "Rua Mato Grosso",
        "zipcode": "58301-410"
    },
    {
        "city": "Santa Rita",
        "state": "PB",
        "district": "Municípios",
        "street": "Rua Nazarezinho",
        "zipcode": "58302-245"
    },
    {
        "city": "Santa Rita",
        "state": "PB",
        "district": "Popular",
        "street": "Rua Nilo Peçanha",
        "zipcode": "58301-205"
    },
    {
        "city": "Santa Rita",
        "state": "PB",
        "district": "Popular",
        "street": "Rua Nossa Senhora Aparecida",
        "zipcode": "58301-290"
    },
    {
        "city": "Santa Rita",
        "state": "PB",
        "district": "Municípios",
        "street": "Rua Nova Floresta",
        "zipcode": "58302-275"
    },
    {
        "city": "Santa Rita",
        "state": "PB",
        "district": "Municípios",
        "street": "Rua Paulista",
        "zipcode": "58302-230"
    },
    {
        "city": "Santa Rita",
        "state": "PB",
        "district": "Municípios",
        "street": "Rua Pereira da Silva",
        "zipcode": "58302-545"
    },
    {
        "city": "Santa Rita",
        "state": "PB",
        "district": "Vila Tibiri",
        "street": "Rua Érico Veríssimo",
        "zipcode": "58300-620"
    },
    {
        "city": "Santa Rita",
        "state": "PB",
        "district": "Popular",
        "street": "Rua Pimentel Gomes",
        "zipcode": "58301-535"
    },
    {
        "city": "Santa Rita",
        "state": "PB",
        "district": "Popular",
        "street": "Jardim Planalto",
        "zipcode": "58301-640"
    },
    {
        "city": "Santa Rita",
        "state": "PB",
        "district": "Municípios",
        "street": "Rua Prata",
        "zipcode": "58302-270"
    },
    {
        "city": "Santa Rita",
        "state": "PB",
        "district": "Popular",
        "street": "Rua Samuel Pereira Borba",
        "zipcode": "58301-245"
    },
    {
        "city": "Santa Rita",
        "state": "PB",
        "district": "Popular",
        "street": "Rua Santo Antônio",
        "zipcode": "58301-065"
    },
    {
        "city": "Santa Rita",
        "state": "PB",
        "district": "Municípios",
        "street": "Rua Solânea",
        "zipcode": "58302-350"
    },
    {
        "city": "Santa Rita",
        "state": "PB",
        "district": "Popular",
        "street": "Rua Solon de Lucena",
        "zipcode": "58301-170"
    },
    {
        "city": "Santa Rita",
        "state": "PB",
        "district": "Popular",
        "street": "Rua Venâncio Correia",
        "zipcode": "58301-575"
    },
    {
        "city": "Santa Rita",
        "state": "PB",
        "district": "Municípios",
        "street": "Rua João José de Aguiar",
        "zipcode": "58302-500"
    },
    {
        "city": "Santa Rita",
        "state": "PB",
        "district": "Municípios",
        "street": "Rua Santa Luzia",
        "zipcode": "58302-050"
    },
    {
        "city": "Santa Rita",
        "state": "PB",
        "district": "Popular",
        "street": "Rua do Colégio",
        "zipcode": "58301-340"
    },
    {
        "city": "Santa Rita",
        "state": "PB",
        "district": "Popular",
        "street": "Rua Nossa Senhora do Rosário",
        "zipcode": "58301-190"
    },
    {
        "city": "Santa Rita",
        "state": "PB",
        "district": "Centro",
        "street": "Vila Alice",
        "zipcode": "58300-440"
    },
    {
        "city": "Santa Rita",
        "state": "PB",
        "district": "Vila Tibiri",
        "street": "Largo André Vidal de Negreiros",
        "zipcode": "58300-630"
    },
    {
        "city": "Santa Rita",
        "state": "PB",
        "district": "Liberdade",
        "street": "Avenida Anizio Pereira Borges",
        "zipcode": "58300-580"
    },
    {
        "city": "Santa Rita",
        "state": "PB",
        "district": "Centro",
        "street": "Praça Antenor Navarro",
        "zipcode": "58300-010"
    },
    {
        "city": "Santa Rita",
        "state": "PB",
        "district": "Vila Tibiri",
        "street": "Rua Antônio Pereira",
        "zipcode": "58300-720"
    },
    {
        "city": "Santa Rita",
        "state": "PB",
        "district": "Centro",
        "street": "Rua Ascendino Teixeira",
        "zipcode": "58300-310"
    },
    {
        "city": "Santa Rita",
        "state": "PB",
        "district": "Popular",
        "street": "Rua Atriz Mautília Mendonça",
        "zipcode": "58301-470"
    },
    {
        "city": "Santa Rita",
        "state": "PB",
        "district": "Municípios",
        "street": "Rua Café Filho",
        "zipcode": "58303-080"
    },
    {
        "city": "Santa Rita",
        "state": "PB",
        "district": "Vila Tibiri",
        "street": "Rua Carneiro",
        "zipcode": "58300-750"
    },
    {
        "city": "Santa Rita",
        "state": "PB",
        "district": "Municípios",
        "street": "Rua Cruz do Espírito Santo",
        "zipcode": "58302-115"
    },
    {
        "city": "Santa Rita",
        "state": "PB",
        "district": "Popular",
        "street": "Rua Doutor Cassiano Ribeiro",
        "zipcode": "58303-530"
    },
    {
        "city": "Santa Rita",
        "state": "PB",
        "district": "Municípios",
        "street": "Rua Doutor Delmaryo Gouveia",
        "zipcode": "58302-540"
    },
    {
        "city": "Santa Rita",
        "state": "PB",
        "district": "Municípios",
        "street": "Rua Eudézia Vieira",
        "zipcode": "58303-470"
    },
    {
        "city": "Santa Rita",
        "state": "PB",
        "district": "Centro",
        "street": "Rua Francisco Gomes de Azevedo",
        "zipcode": "58300-390"
    },
    {
        "city": "Santa Rita",
        "state": "PB",
        "district": "Centro",
        "street": "Praça Getúlio Vargas",
        "zipcode": "58300-130"
    },
    {
        "city": "Santa Rita",
        "state": "PB",
        "district": "Municípios",
        "street": "Rua Manaíra",
        "zipcode": "58302-170"
    },
    {
        "city": "Santa Rita",
        "state": "PB",
        "district": "Popular",
        "street": "Rua Nabuco Melo",
        "zipcode": "58303-535"
    },
    {
        "city": "Santa Rita",
        "state": "PB",
        "district": "Popular",
        "street": "Rua Normando Guedes Pereira",
        "zipcode": "58303-505"
    },
    {
        "city": "Santa Rita",
        "state": "PB",
        "district": "Popular",
        "street": "Travessa Nossa Senhora do Rosário",
        "zipcode": "58301-193"
    },
    {
        "city": "Santa Rita",
        "state": "PB",
        "district": "Centro",
        "street": "Rua Otávio Amorim",
        "zipcode": "58300-300"
    },
    {
        "city": "Santa Rita",
        "state": "PB",
        "district": "Municípios",
        "street": "Rua Palmira Delmira Ferreira",
        "zipcode": "58303-410"
    },
    {
        "city": "Santa Rita",
        "state": "PB",
        "district": "Popular",
        "street": "Rua Doutor Abdom Miranda",
        "zipcode": "58301-500"
    },
    {
        "city": "Santa Rita",
        "state": "PB",
        "district": "Municípios",
        "street": "Rua Elízio Mota",
        "zipcode": "58303-485"
    },
    {
        "city": "Santa Rita",
        "state": "PB",
        "district": "Capitão",
        "street": "Rua Principal",
        "zipcode": "58303-895"
    },
    {
        "city": "Santa Rita",
        "state": "PB",
        "district": "Municípios",
        "street": "Rua Peregrino Asfora",
        "zipcode": "58303-185"
    },
    {
        "city": "Santa Rita",
        "state": "PB",
        "district": "Vila Tibiri",
        "street": "Rua José de Alencar",
        "zipcode": "58300-590"
    },
    {
        "city": "Santa Rita",
        "state": "PB",
        "district": "Popular",
        "street": "Praça do Trabalhador",
        "zipcode": "58301-035"
    },
    {
        "city": "Santa Rita",
        "state": "PB",
        "district": "Popular",
        "street": "Praça Diógenes Chianca",
        "zipcode": "58301-435"
    },
    {
        "city": "Santa Rita",
        "state": "PB",
        "district": "Municípios",
        "street": "Rua Geraldo Lins Gonçalves de Albuquerque",
        "zipcode": "58303-347"
    },
    {
        "city": "Santa Rita",
        "state": "PB",
        "district": "Municípios",
        "street": "Rua Professor Luiz Porto",
        "zipcode": "58303-050"
    },
    {
        "city": "Santa Rita",
        "state": "PB",
        "district": "Municípios",
        "street": "Rua Professora Isabel",
        "zipcode": "58303-330"
    },
    {
        "city": "Santa Rita",
        "state": "PB",
        "district": "Liberdade",
        "street": "Rua Quatro de Outubro",
        "zipcode": "58300-530"
    },
    {
        "city": "Santa Rita",
        "state": "PB",
        "district": "Municípios",
        "street": "Rua Santa Tereza de Jesus",
        "zipcode": "58303-365"
    },
    {
        "city": "Santa Rita",
        "state": "PB",
        "district": "Centro",
        "street": "Rua Sebastião Madruga",
        "zipcode": "58300-350"
    },
    {
        "city": "Santa Rita",
        "state": "PB",
        "district": "Centro",
        "street": "Rua Semeão Leal",
        "zipcode": "58300-110"
    },
    {
        "city": "Santa Rita",
        "state": "PB",
        "district": "Vila Tibiri",
        "street": "Rua do Sossego",
        "zipcode": "58300-640"
    },
    {
        "city": "Santa Rita",
        "state": "PB",
        "district": "Vila Tibiri",
        "street": "Rua Três de Maio",
        "zipcode": "58300-700"
    },
    {
        "city": "Santa Rita",
        "state": "PB",
        "district": "Municípios",
        "street": "Rua Vereador Severino Rodrigo",
        "zipcode": "58303-350"
    },
    {
        "city": "Santa Rita",
        "state": "PB",
        "district": "Centro",
        "street": "Rua Vinte e Nove de Julho",
        "zipcode": "58300-090"
    },
    {
        "city": "Santa Rita",
        "state": "PB",
        "district": "Vila Tibiri",
        "street": "Rua Doutor Sobral Pinto",
        "zipcode": "58300-790"
    },
    {
        "city": "Santa Rita",
        "state": "PB",
        "district": "Centro",
        "street": "Praça Venâncio Neiva",
        "zipcode": "58300-800"
    },
    {
        "city": "Santa Rita",
        "state": "PB",
        "district": "Municípios",
        "street": "Rua Argemiro de Figueiredo",
        "zipcode": "58303-125"
    },
    {
        "city": "Santa Rita",
        "state": "PB",
        "district": "Municípios",
        "street": "Rua Sindicalista Gabriel Cavalcante Costa",
        "zipcode": "58303-310"
    },
    {
        "city": "Santa Rita",
        "state": "PB",
        "district": "Popular",
        "street": "Rua Professor Pereira Lira",
        "zipcode": "58301-025"
    },
    {
        "city": "Santa Rita",
        "state": "PB",
        "district": "Centro",
        "street": "Rua Epitácio Pessoa",
        "zipcode": "58300-030"
    },
    {
        "city": "Santa Rita",
        "state": "PB",
        "district": "Popular",
        "street": "Rua Professor Bayar",
        "zipcode": "58301-315"
    },
    {
        "city": "Santa Rita",
        "state": "PB",
        "district": "Municípios",
        "street": "Rua Sargento Cícero Januário da Silva",
        "zipcode": "58302-130"
    },
    {
        "city": "Santa Rita",
        "state": "PB",
        "district": "Municípios",
        "street": "Avenida João Pessoa",
        "zipcode": "58302-000"
    },
    {
        "city": "Santa Rita",
        "state": "PB",
        "district": "Popular",
        "street": "Rua Radialista Zé Bezerra",
        "zipcode": "58303-495"
    },
    {
        "city": "Santa Rita",
        "state": "PB",
        "district": "Popular",
        "street": "Rua Júlia Freire de Lima",
        "zipcode": "58301-567"
    },
    {
        "city": "Santa Rita",
        "state": "PB",
        "district": "Municípios",
        "street": "Rua Ana Virgínia Torre de Figueiredo Lucena",
        "zipcode": "58303-247"
    },
    {
        "city": "Santa Rita",
        "state": "PB",
        "district": "Centro",
        "street": "Praça Getúlio Vargas",
        "zipcode": "58300-970"
    },
    {
        "city": "Santa Rita",
        "state": "PB",
        "district": "Municípios",
        "street": "Rua Abiatar de Vasconcelos",
        "zipcode": "58302-470"
    },
    {
        "city": "Santa Rita",
        "state": "PB",
        "district": "Municípios",
        "street": "Rua Água Branca",
        "zipcode": "58302-455"
    },
    {
        "city": "Santa Rita",
        "state": "PB",
        "district": "Centro",
        "street": "Rua Alípio Gomes da Silveira",
        "zipcode": "58300-400"
    },
    {
        "city": "Santa Rita",
        "state": "PB",
        "district": "Popular",
        "street": "Rua Desembargador Sindulfo Santiago",
        "zipcode": "58301-180"
    },
    {
        "city": "Santa Rita",
        "state": "PB",
        "district": "Centro",
        "street": "Travessa Joana Gomes da Silveira",
        "zipcode": "58300-455"
    },
    {
        "city": "Santa Rita",
        "state": "PB",
        "district": "Popular",
        "street": "Rua Nestor Cerdeira",
        "zipcode": "58301-255"
    },
    {
        "city": "Santa Rita",
        "state": "PB",
        "district": "Municípios",
        "street": "Rua Salgado de São Félix",
        "zipcode": "58302-330"
    },
    {
        "city": "Santa Rita",
        "state": "PB",
        "district": "Municípios",
        "street": "Rua Severina Ramos Andrade",
        "zipcode": "58303-450"
    },
    {
        "city": "Santa Rita",
        "state": "PB",
        "district": "Municípios",
        "street": "Rua Visconde de Mauá",
        "zipcode": "58303-025"
    },
    {
        "city": "Santa Rita",
        "state": "PB",
        "district": "Área Rural de Santa Rita",
        "street": "Área Rural",
        "zipcode": "58303-899"
    },
    {
        "city": "Santa Rita",
        "state": "PB",
        "district": "Municípios",
        "street": "Rua Samuel Duarte",
        "zipcode": "58303-075"
    }
]