[
    {
        "city": "Sousa",
        "state": "PB",
        "district": "Jardim Bela Vista",
        "street": "Rua Jucélio Rocha de Sá",
        "zipcode": "58808-340"
    },
    {
        "city": "Sousa",
        "state": "PB",
        "district": "Estacao",
        "street": "Rua Coronel Augusto Rocha",
        "zipcode": "58803-430"
    },
    {
        "city": "Sousa",
        "state": "PB",
        "district": "Maria De Lourdes Sarmento Meira",
        "street": "Rua Tomaz Pires Dos Santos",
        "zipcode": "58802-700"
    },
    {
        "city": "Sousa",
        "state": "PB",
        "district": "Estacao",
        "street": "Rua Epitacio Pessoa",
        "zipcode": "58803-190"
    },
    {
        "city": "Sousa",
        "state": "PB",
        "district": "Jardins",
        "street": "Rua Francisco Neves de Sá",
        "zipcode": "58802-310"
    },
    {
        "city": "Sousa",
        "state": "PB",
        "district": "Guanabara",
        "street": "Rua Joaquim Coelho",
        "zipcode": "58801-218"
    },
    {
        "city": "Sousa",
        "state": "PB",
        "district": "Várzea da Cruz",
        "street": "Rua Antônio Gonçalves de Oliveira",
        "zipcode": "58806-735"
    },
    {
        "city": "Sousa",
        "state": "PB",
        "district": "Jardim Iracema",
        "street": "Rua Arquimedes Souto Maior",
        "zipcode": "58807-050"
    },
    {
        "city": "Sousa",
        "state": "PB",
        "district": "Bela Vista",
        "street": "Rua Gastao Medeiros Forte",
        "zipcode": "58806-730"
    },
    {
        "city": "Sousa",
        "state": "PB",
        "district": "Alto do Cruzeiro",
        "street": "Avenida Saul Pedrosa de Sá Melo",
        "zipcode": "58806-000"
    },
    {
        "city": "Sousa",
        "state": "PB",
        "district": "José Lins do Rego",
        "street": "Rua Filomena Fontes Gadelha",
        "zipcode": "58804-102"
    },
    {
        "city": "Sousa",
        "state": "PB",
        "district": "Jardim Santana",
        "street": "Rua Manoel Belarmino",
        "zipcode": "58807-435"
    },
    {
        "city": "Sousa",
        "state": "PB",
        "district": "Alto do Cruzeiro",
        "street": "Travessa Laura Cartaxo Gadelha",
        "zipcode": "58806-005"
    },
    {
        "city": "Sousa",
        "state": "PB",
        "district": "Bancários",
        "street": "Rua Joaquim Gadelha Nóbrega",
        "zipcode": "58800-833"
    },
    {
        "city": "Sousa",
        "state": "PB",
        "district": "Jardim Bela Vista",
        "street": "Rua Francisco Joaquim de Sousa",
        "zipcode": "58808-320"
    },
    {
        "city": "Sousa",
        "state": "PB",
        "district": "Sao Jose",
        "street": "Rua Tiburtino Marques Rolim",
        "zipcode": "58804-207"
    },
    {
        "city": "Sousa",
        "state": "PB",
        "district": "Jardim Bela Vista",
        "street": "Rua Tiburtino Marques Rolim",
        "zipcode": "58808-328"
    },
    {
        "city": "Sousa",
        "state": "PB",
        "district": "Jardim Sorrilândia III",
        "street": "Rua Enilde Maria Figueiroa Guedes",
        "zipcode": "58805-573"
    },
    {
        "city": "Sousa",
        "state": "PB",
        "district": "Bancários",
        "street": "Rua Mestre Júlio Sarmento",
        "zipcode": "58800-813"
    },
    {
        "city": "Sousa",
        "state": "PB",
        "district": "Maria De Lourdes Sarmento Meira",
        "street": "Rua Sinfronio Nazare",
        "zipcode": "58802-690"
    },
    {
        "city": "Sousa",
        "state": "PB",
        "district": "Jardim Sorrilandia",
        "street": "Rua Domiciano Pires Braga",
        "zipcode": "58805-480"
    },
    {
        "city": "Sousa",
        "state": "PB",
        "district": "Assis Garrido",
        "street": "Rua Cecília Garrido",
        "zipcode": "58800-735"
    },
    {
        "city": "Sousa",
        "state": "PB",
        "district": "Estacao",
        "street": "Travessa Duque De Caxias",
        "zipcode": "58803-495"
    },
    {
        "city": "Sousa",
        "state": "PB",
        "district": "José Lins do Rego",
        "street": "Rua Doutor João Soares",
        "zipcode": "58804-105"
    },
    {
        "city": "Sousa",
        "state": "PB",
        "district": "Alto do Cruzeiro",
        "street": "Rua Helena Pastora",
        "zipcode": "58806-020"
    },
    {
        "city": "Sousa",
        "state": "PB",
        "district": "Augusto Braga",
        "street": "Rua Severina Leite de Almeida",
        "zipcode": "58808-530"
    },
    {
        "city": "Sousa",
        "state": "PB",
        "district": "Maria De Lourdes Sarmento Meira",
        "street": "Rua Felix Araujo",
        "zipcode": "58802-760"
    },
    {
        "city": "Sousa",
        "state": "PB",
        "district": "José Lins do Rego",
        "street": "Rua Antônio Assis Costa",
        "zipcode": "58804-100"
    },
    {
        "city": "Sousa",
        "state": "PB",
        "district": "Bancários",
        "street": "Rua Maria Dolores Nóbrega",
        "zipcode": "58800-840"
    },
    {
        "city": "Sousa",
        "state": "PB",
        "district": "Bancários",
        "street": "Rua Raimunda Marques dos Santos",
        "zipcode": "58800-835"
    },
    {
        "city": "Sousa",
        "state": "PB",
        "district": "Jardim Santana",
        "street": "Rua Maria José Marques da Silva",
        "zipcode": "58807-393"
    },
    {
        "city": "Sousa",
        "state": "PB",
        "district": "Andre Gadelha",
        "street": "Rua Antonio De Paiva Gadelha",
        "zipcode": "58806-500"
    },
    {
        "city": "Sousa",
        "state": "PB",
        "district": "Várzea da Cruz",
        "street": "Rua Cecília Abrantes Gadelha",
        "zipcode": "58806-620"
    },
    {
        "city": "Sousa",
        "state": "PB",
        "district": "Centro",
        "street": "Rua Luciander Rocha Melo de Lucena",
        "zipcode": "58800-710"
    },
    {
        "city": "Sousa",
        "state": "PB",
        "district": "Estacao",
        "street": "Rua Dom Moises Coelho",
        "zipcode": "58803-450"
    },
    {
        "city": "Sousa",
        "state": "PB",
        "district": "Assis Garrido",
        "street": "Rua Francisco Antônio Bezerra",
        "zipcode": "58800-750"
    },
    {
        "city": "Sousa",
        "state": "PB",
        "district": "Estação",
        "street": "Beco do Capão",
        "zipcode": "58807-252"
    },
    {
        "city": "Sousa",
        "state": "PB",
        "district": "Estação",
        "street": "Rua Ana Garibaldi",
        "zipcode": "58807-225"
    },
    {
        "city": "Sousa",
        "state": "PB",
        "district": "Angelim",
        "street": "Rua José Dantas de Sousa",
        "zipcode": "58801-720"
    },
    {
        "city": "Sousa",
        "state": "PB",
        "district": "São José",
        "street": "Rua Lourival Tomaz de Aquino",
        "zipcode": "58804-255"
    },
    {
        "city": "Sousa",
        "state": "PB",
        "district": "Maria Rachel",
        "street": "Rua José Pereira da Costa",
        "zipcode": "58804-681"
    },
    {
        "city": "Sousa",
        "state": "PB",
        "district": "Maria Rachel",
        "street": "Rua Genuino Gomes Sarmento",
        "zipcode": "58804-683"
    },
    {
        "city": "Sousa",
        "state": "PB",
        "district": "Zú Silva",
        "street": "Rua Benedito Ferreira de Lima",
        "zipcode": "58804-510"
    },
    {
        "city": "Sousa",
        "state": "PB",
        "district": "Maria Rachel",
        "street": "Rua Francisco Homero Duarte Pinto",
        "zipcode": "58804-675"
    },
    {
        "city": "Sousa",
        "state": "PB",
        "district": "Jardim Brasília",
        "street": "Rua Teotônio Ferreira de Almeida",
        "zipcode": "58808-005"
    },
    {
        "city": "Sousa",
        "state": "PB",
        "district": "Gato Preto",
        "street": "Rua Sady Fernandes Aragão",
        "zipcode": "58802-030"
    },
    {
        "city": "Sousa",
        "state": "PB",
        "district": "Jardim Sorrilândia III",
        "street": "Rua Maria Augusta Braga Rocha",
        "zipcode": "58805-510"
    },
    {
        "city": "Sousa",
        "state": "PB",
        "district": "Jardim Sorrilândia I",
        "street": "Rua Nelson Meira",
        "zipcode": "58805-180"
    },
    {
        "city": "Sousa",
        "state": "PB",
        "district": "Estação",
        "street": "Rua Manoel Basílio Silva",
        "zipcode": "58807-204"
    },
    {
        "city": "Sousa",
        "state": "PB",
        "district": "Estreito",
        "street": "Rua Lídia Meira",
        "zipcode": "58800-762"
    },
    {
        "city": "Sousa",
        "state": "PB",
        "district": "Jardim Sorrilândia III",
        "street": "Rua Tiburtino Gomes de Sá",
        "zipcode": "58805-360"
    },
    {
        "city": "Sousa",
        "state": "PB",
        "district": "Jardim Sorrilândia III",
        "street": "Rua Osmar Aquino",
        "zipcode": "58805-390"
    },
    {
        "city": "Sousa",
        "state": "PB",
        "district": "Gato Preto",
        "street": "Rua Capitão Antônio Vieira",
        "zipcode": "58802-050"
    },
    {
        "city": "Sousa",
        "state": "PB",
        "district": "Boa Vista",
        "street": "Rua Timóteo Pereira de Morais",
        "zipcode": "58801-350"
    },
    {
        "city": "Sousa",
        "state": "PB",
        "district": "Centro",
        "street": "Rua Basílio Silva",
        "zipcode": "58800-680"
    },
    {
        "city": "Sousa",
        "state": "PB",
        "district": "Centro",
        "street": "Rua Bento Freire",
        "zipcode": "58800-138"
    },
    {
        "city": "Sousa",
        "state": "PB",
        "district": "Estreito",
        "street": "Rua Félix Araújo",
        "zipcode": "58800-773"
    },
    {
        "city": "Sousa",
        "state": "PB",
        "district": "Jardim Sorrilândia II",
        "street": "Rua Gastão Medeiros Forte",
        "zipcode": "58805-290"
    },
    {
        "city": "Sousa",
        "state": "PB",
        "district": "Areias",
        "street": "Rua Gualberto Filho",
        "zipcode": "58801-600"
    },
    {
        "city": "Sousa",
        "state": "PB",
        "district": "Centro",
        "street": "Rua Coronel Antônio Soares",
        "zipcode": "58800-200"
    },
    {
        "city": "Sousa",
        "state": "PB",
        "district": "Centro",
        "street": "Rua Nestor José Sarmento",
        "zipcode": "58800-100"
    },
    {
        "city": "Sousa",
        "state": "PB",
        "district": "Areias",
        "street": "Rua Deocleciano Pires",
        "zipcode": "58801-530"
    },
    {
        "city": "Sousa",
        "state": "PB",
        "district": "Centro",
        "street": "Rua Maria Marques de Souza",
        "zipcode": "58800-210"
    },
    {
        "city": "Sousa",
        "state": "PB",
        "district": "Angelim",
        "street": "Avenida Angelim",
        "zipcode": "58801-670"
    },
    {
        "city": "Sousa",
        "state": "PB",
        "district": "Centro",
        "street": "Rua Antônio Fontes",
        "zipcode": "58800-250"
    },
    {
        "city": "Sousa",
        "state": "PB",
        "district": "Areias",
        "street": "Rua Cilinha Gadelha",
        "zipcode": "58801-580"
    },
    {
        "city": "Sousa",
        "state": "PB",
        "district": "Centro",
        "street": "Rua Cônego José Neves",
        "zipcode": "58800-190"
    },
    {
        "city": "Sousa",
        "state": "PB",
        "district": "Centro",
        "street": "Rua Coronel André Avelino",
        "zipcode": "58800-530"
    },
    {
        "city": "Sousa",
        "state": "PB",
        "district": "Areias",
        "street": "Rua Deputado Manoel Gonçalves",
        "zipcode": "58801-460"
    },
    {
        "city": "Sousa",
        "state": "PB",
        "district": "Centro",
        "street": "Rua Emílio Pires",
        "zipcode": "58800-270"
    },
    {
        "city": "Sousa",
        "state": "PB",
        "district": "Areias",
        "street": "Rua Espedito Abrantes de Lima",
        "zipcode": "58801-540"
    },
    {
        "city": "Sousa",
        "state": "PB",
        "district": "Areias",
        "street": "Rua Francisco Pereira Lacerda",
        "zipcode": "58801-470"
    },
    {
        "city": "Sousa",
        "state": "PB",
        "district": "Centro",
        "street": "Rua Getúlio Vargas",
        "zipcode": "58800-110"
    },
    {
        "city": "Sousa",
        "state": "PB",
        "district": "Centro",
        "street": "Rua Djalma Gomes de Sá",
        "zipcode": "58800-150"
    },
    {
        "city": "Sousa",
        "state": "PB",
        "district": "Jardim Sorrilândia II",
        "street": "Rua Cônego Oriel Fernandes",
        "zipcode": "58805-283"
    },
    {
        "city": "Sousa",
        "state": "PB",
        "district": "Centro",
        "street": "Rua Coronel José Vicente",
        "zipcode": "58800-970"
    },
    {
        "city": "Sousa",
        "state": "PB",
        "district": "Centro",
        "street": "Rua Antônio Marinho Correia",
        "zipcode": "58800-160"
    },
    {
        "city": "Sousa",
        "state": "PB",
        "district": "Maria Rachel",
        "street": "Rua Azarias Sobreira de Sousa",
        "zipcode": "58804-684"
    },
    {
        "city": "Sousa",
        "state": "PB",
        "district": "Jardim Bela Vista",
        "street": "Rua Sales Facundo de Lira",
        "zipcode": "58808-258"
    },
    {
        "city": "Sousa",
        "state": "PB",
        "district": "Centro",
        "street": "Travessa Hélio Silva",
        "zipcode": "58800-515"
    },
    {
        "city": "Sousa",
        "state": "PB",
        "district": "Gato Preto",
        "street": "Rua Henrique Rodrigues da Silva",
        "zipcode": "58802-095"
    },
    {
        "city": "Sousa",
        "state": "PB",
        "district": "Gato Preto",
        "street": "Rua Ivo Cordeiro Cavalcante",
        "zipcode": "58802-082"
    },
    {
        "city": "Sousa",
        "state": "PB",
        "district": "Areias",
        "street": "Rua João Gonçalves dos Santos",
        "zipcode": "58801-500"
    },
    {
        "city": "Sousa",
        "state": "PB",
        "district": "Angelim",
        "street": "Rua João Moreira",
        "zipcode": "58801-700"
    },
    {
        "city": "Sousa",
        "state": "PB",
        "district": "Gato Preto",
        "street": "Rua Joaquim Pinto de Oliveira",
        "zipcode": "58802-090"
    },
    {
        "city": "Sousa",
        "state": "PB",
        "district": "Centro",
        "street": "Rua José Dário Formiga",
        "zipcode": "58800-590"
    },
    {
        "city": "Sousa",
        "state": "PB",
        "district": "Jardim Sorrilândia III",
        "street": "Avenida Juvêncio Vieira",
        "zipcode": "58805-340"
    },
    {
        "city": "Sousa",
        "state": "PB",
        "district": "Gato Preto",
        "street": "Rua Lúcia de Fátima de Sousa",
        "zipcode": "58802-098"
    },
    {
        "city": "Sousa",
        "state": "PB",
        "district": "Gato Preto",
        "street": "Rua Maria Edília Figueiredo",
        "zipcode": "58802-020"
    },
    {
        "city": "Sousa",
        "state": "PB",
        "district": "Centro",
        "street": "Praça da Matriz",
        "zipcode": "58800-480"
    },
    {
        "city": "Sousa",
        "state": "PB",
        "district": "Centro",
        "street": "Rua Nestorina Abrantes",
        "zipcode": "58800-668"
    },
    {
        "city": "Sousa",
        "state": "PB",
        "district": "Centro",
        "street": "Rua Padre Correia de Sá",
        "zipcode": "58800-430"
    },
    {
        "city": "Sousa",
        "state": "PB",
        "district": "Areias",
        "street": "Rua Professor José Lopes",
        "zipcode": "58801-480"
    },
    {
        "city": "Sousa",
        "state": "PB",
        "district": "Centro",
        "street": "Rua Quintino Bocaiúva",
        "zipcode": "58800-060"
    },
    {
        "city": "Sousa",
        "state": "PB",
        "district": "Centro",
        "street": "Rua Rui Barbosa",
        "zipcode": "58800-080"
    },
    {
        "city": "Sousa",
        "state": "PB",
        "district": "Centro",
        "street": "Rua Tenente Alvino",
        "zipcode": "58800-230"
    },
    {
        "city": "Sousa",
        "state": "PB",
        "district": "Estreito",
        "street": "Rua Verônica Silveira",
        "zipcode": "58800-780"
    },
    {
        "city": "Sousa",
        "state": "PB",
        "district": "Centro",
        "street": "Vila Hamilton",
        "zipcode": "58800-295"
    },
    {
        "city": "Sousa",
        "state": "PB",
        "district": "Centro",
        "street": "Rua João Gualberto",
        "zipcode": "58800-490"
    },
    {
        "city": "Sousa",
        "state": "PB",
        "district": "São José",
        "street": "Rua José Abrantes Filho",
        "zipcode": "58804-257"
    },
    {
        "city": "Sousa",
        "state": "PB",
        "district": "Bancários",
        "street": "Rua Augusto Langbeehn",
        "zipcode": "58800-810"
    },
    {
        "city": "Sousa",
        "state": "PB",
        "district": "Centro",
        "street": "Rua Raimundo de Paiva Gadelha",
        "zipcode": "58800-520"
    },
    {
        "city": "Sousa",
        "state": "PB",
        "district": "Areias",
        "street": "Rua Doutor Carlos Pires de Sá",
        "zipcode": "58801-550"
    },
    {
        "city": "Sousa",
        "state": "PB",
        "district": "Estação",
        "street": "Rua Ester Fernandes Oliveira",
        "zipcode": "58807-248"
    },
    {
        "city": "Sousa",
        "state": "PB",
        "district": "Estação",
        "street": "Rua Joana DArc",
        "zipcode": "58807-173"
    },
    {
        "city": "Sousa",
        "state": "PB",
        "district": "Jardim Santana",
        "street": "Rua João Nobre",
        "zipcode": "58807-420"
    },
    {
        "city": "Sousa",
        "state": "PB",
        "district": "Maria Rachel",
        "street": "Rua José Facundo de Lira",
        "zipcode": "58804-710"
    },
    {
        "city": "Sousa",
        "state": "PB",
        "district": "Estação",
        "street": "Rua Júlio Ferreira",
        "zipcode": "58807-260"
    },
    {
        "city": "Sousa",
        "state": "PB",
        "district": "Estação",
        "street": "Rua Visconde de Barbacena",
        "zipcode": "58807-202"
    },
    {
        "city": "Sousa",
        "state": "PB",
        "district": "Estação",
        "street": "Rua João Malvino Filho",
        "zipcode": "58807-208"
    },
    {
        "city": "Sousa",
        "state": "PB",
        "district": "Jardim Sorrilândia I",
        "street": "Rua Assis Melo Rocha",
        "zipcode": "58805-093"
    },
    {
        "city": "Sousa",
        "state": "PB",
        "district": "Estação",
        "street": "Rua São Paulo",
        "zipcode": "58807-245"
    },
    {
        "city": "Sousa",
        "state": "PB",
        "district": "Maria Rachel",
        "street": "Rua Aldemir Paulo da Silva",
        "zipcode": "58804-678"
    },
    {
        "city": "Sousa",
        "state": "PB",
        "district": "Doutor Zezé",
        "street": "Rua Francisco José Braga Rolim",
        "zipcode": "58804-390"
    },
    {
        "city": "Sousa",
        "state": "PB",
        "district": "Maria Rachel",
        "street": "Rua Espedito Lourenço de Sousa",
        "zipcode": "58804-680"
    },
    {
        "city": "Sousa",
        "state": "PB",
        "district": "São José",
        "street": "Rua Ademar Rufino da Silva",
        "zipcode": "58804-270"
    },
    {
        "city": "Sousa",
        "state": "PB",
        "district": "Jardim Sorrilândia I",
        "street": "Rua Afonso Vieira",
        "zipcode": "58805-050"
    },
    {
        "city": "Sousa",
        "state": "PB",
        "district": "Centro",
        "street": "Rua Coronel José Elias",
        "zipcode": "58800-020"
    },
    {
        "city": "Sousa",
        "state": "PB",
        "district": "Jardim Sorrilândia I",
        "street": "Rua Dez de Julho",
        "zipcode": "58805-090"
    },
    {
        "city": "Sousa",
        "state": "PB",
        "district": "Estação",
        "street": "Rua Dom Moisés Coelho",
        "zipcode": "58807-220"
    },
    {
        "city": "Sousa",
        "state": "PB",
        "district": "Centro",
        "street": "Rua Doutor José Mariz",
        "zipcode": "58800-380"
    },
    {
        "city": "Sousa",
        "state": "PB",
        "district": "São José",
        "street": "Rua Doutor Seixas",
        "zipcode": "58804-210"
    },
    {
        "city": "Sousa",
        "state": "PB",
        "district": "Estação",
        "street": "Travessa Duque de Caxias",
        "zipcode": "58807-177"
    },
    {
        "city": "Sousa",
        "state": "PB",
        "district": "Jardim Brasília",
        "street": "Rua Francisco Duarte",
        "zipcode": "58808-170"
    },
    {
        "city": "Sousa",
        "state": "PB",
        "district": "São José",
        "street": "Rua Gilvandro Cartaxo de Sá",
        "zipcode": "58804-250"
    },
    {
        "city": "Sousa",
        "state": "PB",
        "district": "Jardim Iracema",
        "street": "Rua João Malvino da Silveira",
        "zipcode": "58807-040"
    },
    {
        "city": "Sousa",
        "state": "PB",
        "district": "Estação",
        "street": "Rua Pedro Queiroga de Oliveira",
        "zipcode": "58807-153"
    },
    {
        "city": "Sousa",
        "state": "PB",
        "district": "Maria Rachel",
        "street": "Rua Raimundo Marques Braga",
        "zipcode": "58804-720"
    },
    {
        "city": "Sousa",
        "state": "PB",
        "district": "Maria Rachel",
        "street": "Rua Francisco Vieira da Costa",
        "zipcode": "58804-725"
    },
    {
        "city": "Sousa",
        "state": "PB",
        "district": "Bancários",
        "street": "Rua Princesa Isabel",
        "zipcode": "58800-820"
    },
    {
        "city": "Sousa",
        "state": "PB",
        "district": "Bancários",
        "street": "Rua Francisco Sarmento Medeiros",
        "zipcode": "58800-803"
    },
    {
        "city": "Sousa",
        "state": "PB",
        "district": "Bancários",
        "street": "Rua José Facundo de Lira",
        "zipcode": "58800-860"
    },
    {
        "city": "Sousa",
        "state": "PB",
        "district": "Bancários",
        "street": "Rua Manoel Gadelha Filho",
        "zipcode": "58800-850"
    },
    {
        "city": "Sousa",
        "state": "PB",
        "district": "Estação",
        "street": "Rua Nelson Meira",
        "zipcode": "58807-200"
    },
    {
        "city": "Sousa",
        "state": "PB",
        "district": "Alto do Cruzeiro",
        "street": "Travessa Maria do Socorro Abrantes",
        "zipcode": "58806-065"
    },
    {
        "city": "Sousa",
        "state": "PB",
        "district": "Jardim Sorrilândia I",
        "street": "Rua José Quintiliano Xavier",
        "zipcode": "58805-115"
    },
    {
        "city": "Sousa",
        "state": "PB",
        "district": "Gato Preto",
        "street": "Rua José Neves Garrido",
        "zipcode": "58802-088"
    },
    {
        "city": "Sousa",
        "state": "PB",
        "district": "Maria Rachel",
        "street": "Rua João Vieira Almeida",
        "zipcode": "58804-715"
    },
    {
        "city": "Sousa",
        "state": "PB",
        "district": "Jardim Iracema",
        "street": "Rua João Rabelo de Sá",
        "zipcode": "58807-090"
    },
    {
        "city": "Sousa",
        "state": "PB",
        "district": "Jardim Iracema",
        "street": "Rua Lelino Vieira",
        "zipcode": "58807-030"
    },
    {
        "city": "Sousa",
        "state": "PB",
        "district": "Centro",
        "street": "Rua Luís Pereira da Silva",
        "zipcode": "58800-040"
    },
    {
        "city": "Sousa",
        "state": "PB",
        "district": "Jardim Sorrilândia I",
        "street": "Rua Manoel Basílio Silva",
        "zipcode": "58805-030"
    },
    {
        "city": "Sousa",
        "state": "PB",
        "district": "Jardim Brasília",
        "street": "Rua Maria Hermínia",
        "zipcode": "58808-110"
    },
    {
        "city": "Sousa",
        "state": "PB",
        "district": "Jardim Brasília",
        "street": "Rua Maria Lourenço de Franca",
        "zipcode": "58808-070"
    },
    {
        "city": "Sousa",
        "state": "PB",
        "district": "Jardim Iracema",
        "street": "Rua Maria Olívia Sarmento Rocha",
        "zipcode": "58807-020"
    },
    {
        "city": "Sousa",
        "state": "PB",
        "district": "Jardim Brasília",
        "street": "Rua Onofre Pinto de Almeida",
        "zipcode": "58808-150"
    },
    {
        "city": "Sousa",
        "state": "PB",
        "district": "Várzea da Cruz",
        "street": "Rua Pedro Celeste",
        "zipcode": "58806-652"
    },
    {
        "city": "Sousa",
        "state": "PB",
        "district": "Jardim Brasília",
        "street": "Avenida São João",
        "zipcode": "58808-210"
    },
    {
        "city": "Sousa",
        "state": "PB",
        "district": "Jardim Sorrilândia I",
        "street": "Travessa Vinte de Abril",
        "zipcode": "58805-060"
    },
    {
        "city": "Sousa",
        "state": "PB",
        "district": "Centro",
        "street": "Rua Pedro Vieira da Costa",
        "zipcode": "58800-390"
    },
    {
        "city": "Sousa",
        "state": "PB",
        "district": "Alto do Capanema",
        "street": "Rua Doutor José Gadelha",
        "zipcode": "58807-610"
    },
    {
        "city": "Sousa",
        "state": "PB",
        "district": "Alto do Capanema",
        "street": "Rua Djacir Marques Pinto",
        "zipcode": "58807-630"
    },
    {
        "city": "Sousa",
        "state": "PB",
        "district": "Alto do Capanema",
        "street": "Rua Júlio Melo",
        "zipcode": "58807-655"
    },
    {
        "city": "Sousa",
        "state": "PB",
        "district": "Alto do Capanema",
        "street": "Rua Tiradentes",
        "zipcode": "58807-620"
    },
    {
        "city": "Sousa",
        "state": "PB",
        "district": "Alto do Cruzeiro",
        "street": "Rua Monsenhor Vicente de Freitas",
        "zipcode": "58806-180"
    },
    {
        "city": "Sousa",
        "state": "PB",
        "district": "Doutor Zezé",
        "street": "Rua Simão Afonso de Carvalho",
        "zipcode": "58804-410"
    },
    {
        "city": "Sousa",
        "state": "PB",
        "district": "Guanabara",
        "street": "Rua Francisco Gonçalves Ribeiro",
        "zipcode": "58801-215"
    },
    {
        "city": "Sousa",
        "state": "PB",
        "district": "Assis Garrido",
        "street": "Rua Antônio Teodoro Neto",
        "zipcode": "58800-740"
    },
    {
        "city": "Sousa",
        "state": "PB",
        "district": "Bancários",
        "street": "Rua João Nóbrega Gadelha",
        "zipcode": "58800-818"
    },
    {
        "city": "Sousa",
        "state": "PB",
        "district": "Bancários",
        "street": "Rua Tomaz Pires dos Santos",
        "zipcode": "58800-823"
    },
    {
        "city": "Sousa",
        "state": "PB",
        "district": "Zú Silva",
        "street": "Rua José Vieira da Silva",
        "zipcode": "58804-590"
    },
    {
        "city": "Sousa",
        "state": "PB",
        "district": "André Gadelha",
        "street": "Rua Adilmar da Paiva Gadelha",
        "zipcode": "58806-400"
    },
    {
        "city": "Sousa",
        "state": "PB",
        "district": "Alto do Capanema",
        "street": "Rua Amadeu Silva",
        "zipcode": "58807-605"
    },
    {
        "city": "Sousa",
        "state": "PB",
        "district": "Jardim Sorrilândia III",
        "street": "Rua Antônio Pinto de Oliveira",
        "zipcode": "58805-440"
    },
    {
        "city": "Sousa",
        "state": "PB",
        "district": "Alto do Cruzeiro",
        "street": "Rua Azarias Sarmento",
        "zipcode": "58806-190"
    },
    {
        "city": "Sousa",
        "state": "PB",
        "district": "André Gadelha",
        "street": "Rua Beatriz Mendes Júlia",
        "zipcode": "58806-420"
    },
    {
        "city": "Sousa",
        "state": "PB",
        "district": "Alto do Capanema",
        "street": "Rua Bruno Figueiredo Pinto",
        "zipcode": "58807-720"
    },
    {
        "city": "Sousa",
        "state": "PB",
        "district": "Alto do Cruzeiro",
        "street": "Rua Cândida Maria da Silva",
        "zipcode": "58806-010"
    },
    {
        "city": "Sousa",
        "state": "PB",
        "district": "Jardim Brasília",
        "street": "Avenida Cândida Sarmento",
        "zipcode": "58808-040"
    },
    {
        "city": "Sousa",
        "state": "PB",
        "district": "Alto do Cruzeiro",
        "street": "Rua Francisca Celeste Santos",
        "zipcode": "58806-120"
    },
    {
        "city": "Sousa",
        "state": "PB",
        "district": "Jardim Brasília",
        "street": "Avenida Clotário de Paiva Gadelha",
        "zipcode": "58808-060"
    },
    {
        "city": "Sousa",
        "state": "PB",
        "district": "Centro",
        "street": "Rua Cônego Bernardino Vieira",
        "zipcode": "58800-350"
    },
    {
        "city": "Sousa",
        "state": "PB",
        "district": "Jardim Iracema",
        "street": "Rua Desembargador Sílvio Porto",
        "zipcode": "58807-110"
    },
    {
        "city": "Sousa",
        "state": "PB",
        "district": "Gato Preto",
        "street": "Rua Doutor Gustan Forte Medeiros",
        "zipcode": "58802-162"
    },
    {
        "city": "Sousa",
        "state": "PB",
        "district": "Jardim Sorrilândia III",
        "street": "Rua Francisco Chagas de Morais",
        "zipcode": "58805-490"
    },
    {
        "city": "Sousa",
        "state": "PB",
        "district": "Jardim Brasília",
        "street": "Rua Francisco Elias de Queiroga",
        "zipcode": "58808-050"
    },
    {
        "city": "Sousa",
        "state": "PB",
        "district": "Alto do Cruzeiro",
        "street": "Rua Francisco Nazaré Formiga",
        "zipcode": "58806-050"
    },
    {
        "city": "Sousa",
        "state": "PB",
        "district": "Alto do Capanema",
        "street": "Rua Genésio Gambarra",
        "zipcode": "58807-650"
    },
    {
        "city": "Sousa",
        "state": "PB",
        "district": "Alto do Cruzeiro",
        "street": "Rua J. César",
        "zipcode": "58806-100"
    },
    {
        "city": "Sousa",
        "state": "PB",
        "district": "Alto do Cruzeiro",
        "street": "Rua José Francisco do Nascimento",
        "zipcode": "58806-210"
    },
    {
        "city": "Sousa",
        "state": "PB",
        "district": "São José",
        "street": "Rua José Marques Formiga",
        "zipcode": "58804-220"
    },
    {
        "city": "Sousa",
        "state": "PB",
        "district": "Gato Preto",
        "street": "Rua Luiz Lucélio Ferreira",
        "zipcode": "58802-158"
    },
    {
        "city": "Sousa",
        "state": "PB",
        "district": "Jardim Brasília",
        "street": "Rua Marcos Augusto Gonçalves",
        "zipcode": "58808-090"
    },
    {
        "city": "Sousa",
        "state": "PB",
        "district": "Jardim Brasília",
        "street": "Rua Maria Marques de Sousa",
        "zipcode": "58808-030"
    },
    {
        "city": "Sousa",
        "state": "PB",
        "district": "Centro",
        "street": "Rua Nabor Meira",
        "zipcode": "58800-310"
    },
    {
        "city": "Sousa",
        "state": "PB",
        "district": "Jardim Brasília",
        "street": "Rua Narciza Hermínia",
        "zipcode": "58808-190"
    },
    {
        "city": "Sousa",
        "state": "PB",
        "district": "Jardim Sorrilândia III",
        "street": "Rua Rosa Maria Soares",
        "zipcode": "58805-530"
    },
    {
        "city": "Sousa",
        "state": "PB",
        "district": "Maria Rachel",
        "street": "Rua Wosley Rodrigues Durand",
        "zipcode": "58804-690"
    },
    {
        "city": "Sousa",
        "state": "PB",
        "district": "André Gadelha",
        "street": "Rua Eduardo Estrela da Silva",
        "zipcode": "58806-450"
    },
    {
        "city": "Sousa",
        "state": "PB",
        "district": "Centro",
        "street": "Rua Gil Nestor Sarmento",
        "zipcode": "58800-120"
    },
    {
        "city": "Sousa",
        "state": "PB",
        "district": "Bancários",
        "street": "Rua João Teodoro de Oliveira",
        "zipcode": "58800-848"
    },
    {
        "city": "Sousa",
        "state": "PB",
        "district": "Jardim Bela Vista",
        "street": "Rua Lúcia Nogueira Elias",
        "zipcode": "58808-295"
    },
    {
        "city": "Sousa",
        "state": "PB",
        "district": "Centro",
        "street": "Rua Manoel Mendes Vieira Campos",
        "zipcode": "58800-035"
    },
    {
        "city": "Sousa",
        "state": "PB",
        "district": "Projeto Mariz",
        "street": "Rua Augustina Alves",
        "zipcode": "58808-560"
    },
    {
        "city": "Sousa",
        "state": "PB",
        "district": "Jardim Brasília",
        "street": "Rua Salustiano José Pinto",
        "zipcode": "58808-000"
    },
    {
        "city": "Sousa",
        "state": "PB",
        "district": "Centro",
        "street": "Rua São Francisco",
        "zipcode": "58800-320"
    },
    {
        "city": "Sousa",
        "state": "PB",
        "district": "Centro",
        "street": "Rua São José",
        "zipcode": "58800-340"
    },
    {
        "city": "Sousa",
        "state": "PB",
        "district": "Alto do Cruzeiro",
        "street": "Rua Severino Cardoso de Araújo",
        "zipcode": "58806-150"
    },
    {
        "city": "Sousa",
        "state": "PB",
        "district": "André Gadelha",
        "street": "Rua Tomé Batista dos Santos",
        "zipcode": "58806-460"
    },
    {
        "city": "Sousa",
        "state": "PB",
        "district": "Alto do Capanema",
        "street": "Rua Vicente Vieira",
        "zipcode": "58807-675"
    },
    {
        "city": "Sousa",
        "state": "PB",
        "district": "Alto do Capanema",
        "street": "Rua Vital Gomes de Sousa",
        "zipcode": "58807-667"
    },
    {
        "city": "Sousa",
        "state": "PB",
        "district": "André Gadelha",
        "street": "Rua Aloísio Cartaxo de Sá",
        "zipcode": "58806-490"
    },
    {
        "city": "Sousa",
        "state": "PB",
        "district": "André Gadelha",
        "street": "Rua Joaquim Gonzaga de Queiroga",
        "zipcode": "58806-440"
    },
    {
        "city": "Sousa",
        "state": "PB",
        "district": "Alto do Capanema",
        "street": "Rua Primeiro de Maio",
        "zipcode": "58807-673"
    },
    {
        "city": "Sousa",
        "state": "PB",
        "district": "Estação",
        "street": "Rua Assis Chateaubriand",
        "zipcode": "58807-215"
    },
    {
        "city": "Sousa",
        "state": "PB",
        "district": "Alto do Capanema",
        "street": "Rua Professor Trajano",
        "zipcode": "58807-653"
    },
    {
        "city": "Sousa",
        "state": "PB",
        "district": "Estação",
        "street": "Rua Basílio Silva",
        "zipcode": "58807-292"
    },
    {
        "city": "Sousa",
        "state": "PB",
        "district": "São José",
        "street": "Rua Doutor Carlos Pires de Sá",
        "zipcode": "58804-200"
    },
    {
        "city": "Sousa",
        "state": "PB",
        "district": "Alto do Capanema",
        "street": "Rua João Rocha",
        "zipcode": "58807-665"
    },
    {
        "city": "Sousa",
        "state": "PB",
        "district": "Alto do Capanema",
        "street": "Rua Professora Clotilde Meira",
        "zipcode": "58807-603"
    },
    {
        "city": "Sousa",
        "state": "PB",
        "district": "Jardim Santana",
        "street": "Rua Professora Clotilde Meira",
        "zipcode": "58807-377"
    },
    {
        "city": "Sousa",
        "state": "PB",
        "district": "Estação",
        "street": "Rua Dom Pedro II",
        "zipcode": "58807-345"
    },
    {
        "city": "Sousa",
        "state": "PB",
        "district": "Estação",
        "street": "Rua Francisco Cartaxo Correia de Sá",
        "zipcode": "58807-325"
    },
    {
        "city": "Sousa",
        "state": "PB",
        "district": "José Lins do Rego",
        "street": "Rua Azarias Abrantes Gadelha",
        "zipcode": "58804-108"
    },
    {
        "city": "Sousa",
        "state": "PB",
        "district": "Estação",
        "street": "Rua Tiburtino Afonso de Carvalho",
        "zipcode": "58807-240"
    },
    {
        "city": "Sousa",
        "state": "PB",
        "district": "Jardins",
        "street": "Rua João Bosco Marques de Sousa",
        "zipcode": "58802-400"
    },
    {
        "city": "Sousa",
        "state": "PB",
        "district": "Augusto Braga",
        "street": "Rua Augustina Alves",
        "zipcode": "58808-533"
    },
    {
        "city": "Sousa",
        "state": "PB",
        "district": "Jardim Santana",
        "street": "Rua Francisco Cartaxo Correia de Sá",
        "zipcode": "58807-372"
    },
    {
        "city": "Sousa",
        "state": "PB",
        "district": "Jardim Iracema",
        "street": "Travessa Joana DArc",
        "zipcode": "58807-122"
    },
    {
        "city": "Sousa",
        "state": "PB",
        "district": "Estação",
        "street": "Rua Doutor Manoel Mendes Virgínio",
        "zipcode": "58807-206"
    },
    {
        "city": "Sousa",
        "state": "PB",
        "district": "Jardim Brasília",
        "street": "Rua Manoel Duarte Monteiro",
        "zipcode": "58808-003"
    },
    {
        "city": "Sousa",
        "state": "PB",
        "district": "Estação",
        "street": "Rua Deputado Lindolfo Pires",
        "zipcode": "58807-303"
    },
    {
        "city": "Sousa",
        "state": "PB",
        "district": "Jardim Santana",
        "street": "Rua Epitácio Pessoa",
        "zipcode": "58807-380"
    },
    {
        "city": "Sousa",
        "state": "PB",
        "district": "Estação",
        "street": "Rua Sargento Brasil",
        "zipcode": "58807-168"
    },
    {
        "city": "Sousa",
        "state": "PB",
        "district": "Doutor Zezé",
        "street": "Rua Maria Dolores Marcelino Meira",
        "zipcode": "58804-375"
    },
    {
        "city": "Sousa",
        "state": "PB",
        "district": "Gato Preto",
        "street": "Rua Antônio de Paiva Gadelha",
        "zipcode": "58802-155"
    },
    {
        "city": "Sousa",
        "state": "PB",
        "district": "Centro",
        "street": "Rua Capitão Manoel Gadelha",
        "zipcode": "58800-300"
    },
    {
        "city": "Sousa",
        "state": "PB",
        "district": "Estação",
        "street": "Rua Raimundo Gonçalves Ribeiro",
        "zipcode": "58807-298"
    },
    {
        "city": "Sousa",
        "state": "PB",
        "district": "Estação",
        "street": "Rua Cônego José Viana",
        "zipcode": "58807-320"
    },
    {
        "city": "Sousa",
        "state": "PB",
        "district": "Alto do Cruzeiro",
        "street": "Rua Dorgival da Nóbrega Assis",
        "zipcode": "58806-250"
    },
    {
        "city": "Sousa",
        "state": "PB",
        "district": "Alto do Capanema",
        "street": "Rua Eládio Pedrosa de Melo",
        "zipcode": "58807-680"
    },
    {
        "city": "Sousa",
        "state": "PB",
        "district": "Estação",
        "street": "Rua José Benedito de Sousa",
        "zipcode": "58807-295"
    },
    {
        "city": "Sousa",
        "state": "PB",
        "district": "Estação",
        "street": "Rua José Pereira Fontes",
        "zipcode": "58807-330"
    },
    {
        "city": "Sousa",
        "state": "PB",
        "district": "Estação",
        "street": "Rua José Vieira",
        "zipcode": "58807-347"
    },
    {
        "city": "Sousa",
        "state": "PB",
        "district": "Jardins",
        "street": "Rua Francisco Gervásio de Medeiros",
        "zipcode": "58802-315"
    },
    {
        "city": "Sousa",
        "state": "PB",
        "district": "Jardim Bela Vista",
        "street": "Rua Tiburtino Rabelo de Sá",
        "zipcode": "58808-298"
    },
    {
        "city": "Sousa",
        "state": "PB",
        "district": "Augusto Braga",
        "street": "Rua Maria Roque",
        "zipcode": "58808-538"
    },
    {
        "city": "Sousa",
        "state": "PB",
        "district": "Alto do Cruzeiro",
        "street": "Rua José Pordeus",
        "zipcode": "58806-140"
    },
    {
        "city": "Sousa",
        "state": "PB",
        "district": "Jardim Bela Vista",
        "street": "Rua Valdeciro Ribeiro de Sá",
        "zipcode": "58808-280"
    },
    {
        "city": "Sousa",
        "state": "PB",
        "district": "Augusto Braga",
        "street": "Rua Joaquim Anacleto",
        "zipcode": "58808-473"
    },
    {
        "city": "Sousa",
        "state": "PB",
        "district": "Alto do Cruzeiro",
        "street": "Rua Manoel Batista de Sousa",
        "zipcode": "58806-160"
    },
    {
        "city": "Sousa",
        "state": "PB",
        "district": "Augusto Braga",
        "street": "Rua Isaura Ferreira",
        "zipcode": "58808-540"
    },
    {
        "city": "Sousa",
        "state": "PB",
        "district": "José Lins do Rego",
        "street": "Rua Tiburtino Leite Matos",
        "zipcode": "58804-110"
    },
    {
        "city": "Sousa",
        "state": "PB",
        "district": "Augusto Braga",
        "street": "Rua Valdemar de Oliveira",
        "zipcode": "58808-480"
    },
    {
        "city": "Sousa",
        "state": "PB",
        "district": "Augusto Braga",
        "street": "Travessa Adelina Josefa",
        "zipcode": "58808-458"
    },
    {
        "city": "Sousa",
        "state": "PB",
        "district": "Augusto Braga",
        "street": "Rua Isabel Leite",
        "zipcode": "58808-460"
    },
    {
        "city": "Sousa",
        "state": "PB",
        "district": "Jardim Santana",
        "street": "Rua Manoel Galdino da Costa",
        "zipcode": "58807-395"
    },
    {
        "city": "Sousa",
        "state": "PB",
        "district": "Jardim Santana",
        "street": "Rua Otaviano Fontes",
        "zipcode": "58807-390"
    },
    {
        "city": "Sousa",
        "state": "PB",
        "district": "Jardim Santana",
        "street": "Rua Padre Ibiapina",
        "zipcode": "58807-383"
    },
    {
        "city": "Sousa",
        "state": "PB",
        "district": "Estação",
        "street": "Rua Pedro Álvares Cabral",
        "zipcode": "58807-333"
    },
    {
        "city": "Sousa",
        "state": "PB",
        "district": "Jardim Santana",
        "street": "Rua Quatro de Outubro",
        "zipcode": "58807-375"
    },
    {
        "city": "Sousa",
        "state": "PB",
        "district": "Jardim Santana",
        "street": "Rua Severino Barbosa",
        "zipcode": "58807-415"
    },
    {
        "city": "Sousa",
        "state": "PB",
        "district": "Estação",
        "street": "Travessa Dom Pedro II",
        "zipcode": "58807-343"
    },
    {
        "city": "Sousa",
        "state": "PB",
        "district": "Gato Preto",
        "street": "Rua Evangelina Abrantes de Sena",
        "zipcode": "58802-040"
    },
    {
        "city": "Sousa",
        "state": "PB",
        "district": "André Gadelha",
        "street": "Rua Salatiel Marques Fontes",
        "zipcode": "58806-470"
    },
    {
        "city": "Sousa",
        "state": "PB",
        "district": "Jardim Iracema",
        "street": "Rua Francisca Iran de Sousa",
        "zipcode": "58807-035"
    },
    {
        "city": "Sousa",
        "state": "PB",
        "district": "Jardim Sorrilândia III",
        "street": "Rua Clarice Pires de Sá",
        "zipcode": "58805-514"
    },
    {
        "city": "Sousa",
        "state": "PB",
        "district": "Estação",
        "street": "Rua Clarice Pires de Sá",
        "zipcode": "58807-213"
    },
    {
        "city": "Sousa",
        "state": "PB",
        "district": "Estação",
        "street": "Rua José Leandro Sobrinho",
        "zipcode": "58807-280"
    },
    {
        "city": "Sousa",
        "state": "PB",
        "district": "Jardim Sorrilândia III",
        "street": "Rua Francisco Paulino da Silva",
        "zipcode": "58805-528"
    },
    {
        "city": "Sousa",
        "state": "PB",
        "district": "Jardim Sorrilândia III",
        "street": "Rua Gastão Medeiros Forte",
        "zipcode": "58805-505"
    },
    {
        "city": "Sousa",
        "state": "PB",
        "district": "Jardim Sorrilândia III",
        "street": "Rua Júlio Ferreira",
        "zipcode": "58805-524"
    },
    {
        "city": "Sousa",
        "state": "PB",
        "district": "André Gadelha",
        "street": "Rua Monsenhor Vicente de Freitas",
        "zipcode": "58806-380"
    },
    {
        "city": "Sousa",
        "state": "PB",
        "district": "Jardim Sorrilândia III",
        "street": "Rua São Paulo",
        "zipcode": "58805-518"
    },
    {
        "city": "Sousa",
        "state": "PB",
        "district": "Jardim Iracema",
        "street": "Rua Nelson Meira",
        "zipcode": "58807-115"
    },
    {
        "city": "Sousa",
        "state": "PB",
        "district": "Augusto Braga",
        "street": "Rua Manoel Eufrálio",
        "zipcode": "58808-475"
    },
    {
        "city": "Sousa",
        "state": "PB",
        "district": "Augusto Braga",
        "street": "Rua Pedro Paulino",
        "zipcode": "58808-535"
    },
    {
        "city": "Sousa",
        "state": "PB",
        "district": "Jardim Iracema",
        "street": "Rua Emídio Cartaxo de Sá",
        "zipcode": "58807-125"
    },
    {
        "city": "Sousa",
        "state": "PB",
        "district": "Estação",
        "street": "Rua Emídio Cartaxo de Sá",
        "zipcode": "58807-150"
    },
    {
        "city": "Sousa",
        "state": "PB",
        "district": "Alto do Capanema",
        "street": "Rua Crizeuda Gadelha",
        "zipcode": "58807-640"
    },
    {
        "city": "Sousa",
        "state": "PB",
        "district": "Augusto Braga",
        "street": "Rua Cesário Miguel",
        "zipcode": "58808-465"
    },
    {
        "city": "Sousa",
        "state": "PB",
        "district": "Augusto Braga",
        "street": "Rua Jucélio Rocha de Sá",
        "zipcode": "58808-485"
    },
    {
        "city": "Sousa",
        "state": "PB",
        "district": "Jardim Sorrilândia III",
        "street": "Campo de Aviação",
        "zipcode": "58805-550"
    },
    {
        "city": "Sousa",
        "state": "PB",
        "district": "Augusto Braga",
        "street": "Rua Vereador José Gonçalves Formiga",
        "zipcode": "58808-470"
    },
    {
        "city": "Sousa",
        "state": "PB",
        "district": "Augusto Braga",
        "street": "Travessa José Mendes",
        "zipcode": "58808-448"
    },
    {
        "city": "Sousa",
        "state": "PB",
        "district": "Jardim Sorrilândia III",
        "street": "Rua Tancredo Neves",
        "zipcode": "58805-345"
    },
    {
        "city": "Sousa",
        "state": "PB",
        "district": "Jardim Sorrilândia III",
        "street": "Rua José Sarmento Júnior",
        "zipcode": "58805-355"
    },
    {
        "city": "Sousa",
        "state": "PB",
        "district": "Jardim Sorrilândia III",
        "street": "Rua Joaquim Sarmento",
        "zipcode": "58805-414"
    },
    {
        "city": "Sousa",
        "state": "PB",
        "district": "Várzea da Cruz",
        "street": "Rua Manoel Celestino de Paula",
        "zipcode": "58806-658"
    },
    {
        "city": "Sousa",
        "state": "PB",
        "district": "Várzea da Cruz",
        "street": "Rua Antônio Lima Silva",
        "zipcode": "58806-670"
    },
    {
        "city": "Sousa",
        "state": "PB",
        "district": "Várzea da Cruz",
        "street": "Rua Treze de Maio",
        "zipcode": "58806-673"
    },
    {
        "city": "Sousa",
        "state": "PB",
        "district": "Várzea da Cruz",
        "street": "Rua João Crispim",
        "zipcode": "58806-675"
    },
    {
        "city": "Sousa",
        "state": "PB",
        "district": "Várzea da Cruz",
        "street": "Rua Maria Alves de Paula",
        "zipcode": "58806-725"
    },
    {
        "city": "Sousa",
        "state": "PB",
        "district": "Jardim Iracema",
        "street": "Rua Lianou Bezerra Leite",
        "zipcode": "58807-043"
    },
    {
        "city": "Sousa",
        "state": "PB",
        "district": "Jardim Iracema",
        "street": "Rua Maria Augusta Florentino",
        "zipcode": "58807-048"
    },
    {
        "city": "Sousa",
        "state": "PB",
        "district": "Alto do Cruzeiro",
        "street": "Rua Dilberto Fortunato de Sousa",
        "zipcode": "58806-060"
    },
    {
        "city": "Sousa",
        "state": "PB",
        "district": "Augusto Braga",
        "street": "Rua João Alves",
        "zipcode": "58808-430"
    },
    {
        "city": "Sousa",
        "state": "PB",
        "district": "Augusto Braga",
        "street": "Travessa Cilírio José",
        "zipcode": "58808-445"
    },
    {
        "city": "Sousa",
        "state": "PB",
        "district": "Alto do Cruzeiro",
        "street": "Rua Júlio Estrela de Oliveira",
        "zipcode": "58806-178"
    },
    {
        "city": "Sousa",
        "state": "PB",
        "district": "Jardim Bela Vista",
        "street": "Rua Alfredo Severiano da Costa",
        "zipcode": "58808-343"
    },
    {
        "city": "Sousa",
        "state": "PB",
        "district": "Jardim Bela Vista",
        "street": "Rua João Alves",
        "zipcode": "58808-420"
    },
    {
        "city": "Sousa",
        "state": "PB",
        "district": "Jardim Bela Vista",
        "street": "Rua Adeilde Vieira de Oliveira",
        "zipcode": "58808-313"
    },
    {
        "city": "Sousa",
        "state": "PB",
        "district": "Alto do Capanema",
        "street": "Rua Maria Emília Ferreira Sarmento",
        "zipcode": "58807-642"
    },
    {
        "city": "Sousa",
        "state": "PB",
        "district": "Jardim Santana",
        "street": "Rua Expedito Dias de França",
        "zipcode": "58807-398"
    },
    {
        "city": "Sousa",
        "state": "PB",
        "district": "Jardim Bela Vista",
        "street": "Rua Francisco Tomaz da Silva",
        "zipcode": "58808-315"
    },
    {
        "city": "Sousa",
        "state": "PB",
        "district": "Areias",
        "street": "Rua Vereador José Francisco Vieira de Figueiredo",
        "zipcode": "58801-455"
    },
    {
        "city": "Sousa",
        "state": "PB",
        "district": "Augusto Braga",
        "street": "Rua José da Silva Cavalcante",
        "zipcode": "58808-440"
    },
    {
        "city": "Sousa",
        "state": "PB",
        "district": "Estação",
        "street": "Rua Cezar Amaro da Silva",
        "zipcode": "58807-185"
    },
    {
        "city": "Sousa",
        "state": "PB",
        "district": "Jardim Iracema",
        "street": "Rua José Virgínio Mendes",
        "zipcode": "58807-055"
    },
    {
        "city": "Sousa",
        "state": "PB",
        "district": "Maria Rachel",
        "street": "Rua Domingos Figueiredo de Oliveira",
        "zipcode": "58804-705"
    },
    {
        "city": "Sousa",
        "state": "PB",
        "district": "Jardim Bela Vista",
        "street": "Travessa José Evandro Pereira",
        "zipcode": "58808-255"
    },
    {
        "city": "Sousa",
        "state": "PB",
        "district": "Augusto Braga",
        "street": "Travessa Napoleão Pereira",
        "zipcode": "58808-443"
    },
    {
        "city": "Sousa",
        "state": "PB",
        "district": "Jardins",
        "street": "Rua Félix Sucupira de Queiroga",
        "zipcode": "58802-308"
    },
    {
        "city": "Sousa",
        "state": "PB",
        "district": "Jardim Iracema",
        "street": "Rua Enaldo Torres Fernandes",
        "zipcode": "58807-070"
    },
    {
        "city": "Sousa",
        "state": "PB",
        "district": "Jardim Sorrilândia III",
        "street": "Rua Norioval Dantas Gadelha",
        "zipcode": "58805-370"
    },
    {
        "city": "Sousa",
        "state": "PB",
        "district": "Estação",
        "street": "Rua Almirante Tamandaré",
        "zipcode": "58807-290"
    },
    {
        "city": "Sousa",
        "state": "PB",
        "district": "Várzea da Cruz",
        "street": "Rua João Miguel Ramos",
        "zipcode": "58806-680"
    },
    {
        "city": "Sousa",
        "state": "PB",
        "district": "Gato Preto",
        "street": "Rua Francisco Alves de Morais",
        "zipcode": "58802-172"
    },
    {
        "city": "Sousa",
        "state": "PB",
        "district": "Jardim Sorrilândia I",
        "street": "Rua Nossa Senhora do Rosário",
        "zipcode": "58805-113"
    },
    {
        "city": "Sousa",
        "state": "PB",
        "district": "Gato Preto",
        "street": "Rua Deputado José de Paiva Gadelha",
        "zipcode": "58802-085"
    },
    {
        "city": "Sousa",
        "state": "PB",
        "district": "São José",
        "street": "Rua Félix Araújo",
        "zipcode": "58804-205"
    },
    {
        "city": "Sousa",
        "state": "PB",
        "district": "Jardim Sorrilândia I",
        "street": "Rua Gastão Medeiros Forte",
        "zipcode": "58805-170"
    },
    {
        "city": "Sousa",
        "state": "PB",
        "district": "Gato Preto",
        "street": "Rua Adjesun Viana dos Santos",
        "zipcode": "58802-110"
    },
    {
        "city": "Sousa",
        "state": "PB",
        "district": "Maria Rachel",
        "street": "Rua Antônio Gonçalves de Abrantes",
        "zipcode": "58804-698"
    },
    {
        "city": "Sousa",
        "state": "PB",
        "district": "Jardim Sorrilândia I",
        "street": "Travessa José Evandro Pereira",
        "zipcode": "58805-095"
    },
    {
        "city": "Sousa",
        "state": "PB",
        "district": "São José",
        "street": "Rua Nestor José Sarmento",
        "zipcode": "58804-260"
    },
    {
        "city": "Sousa",
        "state": "PB",
        "district": "Gato Preto",
        "street": "Rua Pedro Celestino de Paula",
        "zipcode": "58802-118"
    },
    {
        "city": "Sousa",
        "state": "PB",
        "district": "Jardim Sorrilândia II",
        "street": "Rua Assis Melo Rocha",
        "zipcode": "58805-258"
    },
    {
        "city": "Sousa",
        "state": "PB",
        "district": "Frei Damião",
        "street": "Avenida José Gadelha de Oliveira",
        "zipcode": "58804-070"
    },
    {
        "city": "Sousa",
        "state": "PB",
        "district": "Jardim Sorrilândia II",
        "street": "Rua Ary Fernandes de Aragão",
        "zipcode": "58805-265"
    },
    {
        "city": "Sousa",
        "state": "PB",
        "district": "Frei Damião",
        "street": "Rua Maria de Lourdes",
        "zipcode": "58804-022"
    },
    {
        "city": "Sousa",
        "state": "PB",
        "district": "Frei Damião",
        "street": "Rua Raimundo Irineu",
        "zipcode": "58804-028"
    },
    {
        "city": "Sousa",
        "state": "PB",
        "district": "Frei Damião",
        "street": "Rua Otacílio Raimundo Vieira",
        "zipcode": "58804-042"
    },
    {
        "city": "Sousa",
        "state": "PB",
        "district": "Frei Damião",
        "street": "Rua Sérgio Abrantes",
        "zipcode": "58804-045"
    },
    {
        "city": "Sousa",
        "state": "PB",
        "district": "Maria Rachel",
        "street": "Rua Pedro Alves Sobrinho",
        "zipcode": "58804-688"
    },
    {
        "city": "Sousa",
        "state": "PB",
        "district": "Estação",
        "street": "Rua Enéas Elias de Sá",
        "zipcode": "58807-323"
    },
    {
        "city": "Sousa",
        "state": "PB",
        "district": "Jardim Iracema",
        "street": "Rua Maria do Socorro Freitas da Silva",
        "zipcode": "58807-062"
    },
    {
        "city": "Sousa",
        "state": "PB",
        "district": "Jardim Brasília",
        "street": "Rua Max Helder Gomes Mendes",
        "zipcode": "58808-195"
    },
    {
        "city": "Sousa",
        "state": "PB",
        "district": "Estação",
        "street": "Rua Francisco Pereira de Assis",
        "zipcode": "58807-155"
    },
    {
        "city": "Sousa",
        "state": "PB",
        "district": "Jardim Brasília",
        "street": "Rua Jucélio Rocha de Sá",
        "zipcode": "58808-200"
    },
    {
        "city": "Sousa",
        "state": "PB",
        "district": "Augusto Braga",
        "street": "Rua Edísio Justino Figueiredo",
        "zipcode": "58808-450"
    },
    {
        "city": "Sousa",
        "state": "PB",
        "district": "Jardim Bela Vista",
        "street": "Rua Raimundo Nunes Gomes",
        "zipcode": "58808-305"
    },
    {
        "city": "Sousa",
        "state": "PB",
        "district": "Maria Rachel",
        "street": "Rua Ana Cartaxo da Nóbrega",
        "zipcode": "58804-695"
    },
    {
        "city": "Sousa",
        "state": "PB",
        "district": "Maria Rachel",
        "street": "Rua Haroldo Nazareth",
        "zipcode": "58804-718"
    },
    {
        "city": "Sousa",
        "state": "PB",
        "district": "Maria Rachel",
        "street": "Rua João Patrício de Lima",
        "zipcode": "58804-760"
    },
    {
        "city": "Sousa",
        "state": "PB",
        "district": "André Gadelha",
        "street": "Rua Jornalista Paulo Brandão",
        "zipcode": "58806-475"
    },
    {
        "city": "Sousa",
        "state": "PB",
        "district": "Gato Preto",
        "street": "Rua Raimundo Jerônimo",
        "zipcode": "58802-178"
    },
    {
        "city": "Sousa",
        "state": "PB",
        "district": "Gato Preto",
        "street": "Rua João Ferreira Lúcio",
        "zipcode": "58802-182"
    },
    {
        "city": "Sousa",
        "state": "PB",
        "district": "Jardim Sorrilândia II",
        "street": "Rua Raul Meira Pordeus",
        "zipcode": "58805-312"
    },
    {
        "city": "Sousa",
        "state": "PB",
        "district": "Maria Rachel",
        "street": "Rua Josias Vieira de Figueiredo",
        "zipcode": "58804-670"
    },
    {
        "city": "Sousa",
        "state": "PB",
        "district": "Jardim Iracema",
        "street": "Rua Toni Cássio Rodrigues",
        "zipcode": "58807-018"
    },
    {
        "city": "Sousa",
        "state": "PB",
        "district": "Estação",
        "street": "Rua Joana Lacerda Figueiredo",
        "zipcode": "58807-183"
    },
    {
        "city": "Sousa",
        "state": "PB",
        "district": "Alto do Cruzeiro",
        "street": "Rua Josefa Estrela de Oliveira",
        "zipcode": "58806-200"
    },
    {
        "city": "Sousa",
        "state": "PB",
        "district": "Várzea da Cruz",
        "street": "Travessa Djalma Lima",
        "zipcode": "58806-622"
    },
    {
        "city": "Sousa",
        "state": "PB",
        "district": "André Gadelha",
        "street": "Rua Valmir Estrela Pinheiro",
        "zipcode": "58806-390"
    },
    {
        "city": "Sousa",
        "state": "PB",
        "district": "Jardim Santana",
        "street": "Rua Espedito Gonçalves dos Santos",
        "zipcode": "58807-425"
    },
    {
        "city": "Sousa",
        "state": "PB",
        "district": "André Gadelha",
        "street": "Rua Manoel Batista de Sousa",
        "zipcode": "58806-410"
    },
    {
        "city": "Sousa",
        "state": "PB",
        "district": "Alto do Cruzeiro",
        "street": "Travessa Josefa de Oliveira",
        "zipcode": "58806-240"
    },
    {
        "city": "Sousa",
        "state": "PB",
        "district": "Jardim Sorrilândia II",
        "street": "Rua Pedro Aniceto Alves",
        "zipcode": "58805-253"
    },
    {
        "city": "Sousa",
        "state": "PB",
        "district": "André Gadelha",
        "street": "Rua Mestre Deocleciano Rezende",
        "zipcode": "58806-405"
    },
    {
        "city": "Sousa",
        "state": "PB",
        "district": "Estação",
        "street": "Rua Francisca Maria de Abrantes",
        "zipcode": "58807-305"
    },
    {
        "city": "Sousa",
        "state": "PB",
        "district": "Várzea da Cruz",
        "street": "Travessa Milton Gonçalves de Paula",
        "zipcode": "58806-628"
    },
    {
        "city": "Sousa",
        "state": "PB",
        "district": "Jardim Sorrilândia II",
        "street": "Rua Sales Facundo de Lira",
        "zipcode": "58805-255"
    },
    {
        "city": "Sousa",
        "state": "PB",
        "district": "Várzea da Cruz",
        "street": "Travessa Dimas Abrantes Gadelha",
        "zipcode": "58806-624"
    },
    {
        "city": "Sousa",
        "state": "PB",
        "district": "Jardim Bela Vista",
        "street": "Rua Emídio Sarmento de Sá",
        "zipcode": "58808-293"
    },
    {
        "city": "Sousa",
        "state": "PB",
        "district": "Jardim Santana",
        "street": "Rua Francisco Nogueira",
        "zipcode": "58807-430"
    },
    {
        "city": "Sousa",
        "state": "PB",
        "district": "Jardim Sorrilândia I",
        "street": "Rua José Bonifácio",
        "zipcode": "58805-070"
    },
    {
        "city": "Sousa",
        "state": "PB",
        "district": "Gato Preto",
        "street": "Rua José Francisco de Sousa",
        "zipcode": "58802-175"
    },
    {
        "city": "Sousa",
        "state": "PB",
        "district": "Jardins",
        "street": "Rua Leopoldo José de Melo",
        "zipcode": "58802-370"
    },
    {
        "city": "Sousa",
        "state": "PB",
        "district": "Gato Preto",
        "street": "Rua Doutor Otávio Mariz",
        "zipcode": "58802-080"
    },
    {
        "city": "Sousa",
        "state": "PB",
        "district": "Jardim Sorrilândia III",
        "street": "Rua Francisco Estrela Dantas",
        "zipcode": "58805-578"
    },
    {
        "city": "Sousa",
        "state": "PB",
        "district": "Alto do Capanema",
        "street": "Rua João Pordeus de Araújo",
        "zipcode": "58807-635"
    },
    {
        "city": "Sousa",
        "state": "PB",
        "district": "Estreito",
        "street": "Rua Doutor José Gadelha",
        "zipcode": "58800-765"
    },
    {
        "city": "Sousa",
        "state": "PB",
        "district": "Centro",
        "street": "Rua Doutor José Gadelha",
        "zipcode": "58800-660"
    },
    {
        "city": "Sousa",
        "state": "PB",
        "district": "Estreito",
        "street": "Rua Augusto dos Anjos",
        "zipcode": "58800-775"
    },
    {
        "city": "Sousa",
        "state": "PB",
        "district": "Areias",
        "street": "Rua Deputado José de Paiva Gadelha",
        "zipcode": "58801-620"
    },
    {
        "city": "Sousa",
        "state": "PB",
        "district": "Estreito",
        "street": "Rua Doutor Carlos Pires de Sá",
        "zipcode": "58800-790"
    },
    {
        "city": "Sousa",
        "state": "PB",
        "district": "Maria Rachel",
        "street": "Rua João Bosco Marques de Sousa",
        "zipcode": "58804-750"
    },
    {
        "city": "Sousa",
        "state": "PB",
        "district": "Areias",
        "street": "Rua Sady Fernandes Aragão",
        "zipcode": "58801-570"
    },
    {
        "city": "Sousa",
        "state": "PB",
        "district": "Estreito",
        "street": "Rua Sinfrônio Nazaré",
        "zipcode": "58800-788"
    },
    {
        "city": "Sousa",
        "state": "PB",
        "district": "Estreito",
        "street": "Rua Nestor José Sarmento",
        "zipcode": "58800-770"
    },
    {
        "city": "Sousa",
        "state": "PB",
        "district": "Estreito",
        "street": "Rua Princesa Isabel",
        "zipcode": "58800-778"
    },
    {
        "city": "Sousa",
        "state": "PB",
        "district": "Centro",
        "street": "Rua Francisco de Assis de Souza",
        "zipcode": "58800-663"
    },
    {
        "city": "Sousa",
        "state": "PB",
        "district": "Guanabara",
        "street": "Rua Edilson Coelho de Oliveira",
        "zipcode": "58801-213"
    },
    {
        "city": "Sousa",
        "state": "PB",
        "district": "Angelim",
        "street": "Rua Antônio Martins",
        "zipcode": "58801-698"
    },
    {
        "city": "Sousa",
        "state": "PB",
        "district": "Angelim",
        "street": "Rua Maria Catarina",
        "zipcode": "58801-725"
    },
    {
        "city": "Sousa",
        "state": "PB",
        "district": "Angelim",
        "street": "Rua Francisco Ferreira Sarmento",
        "zipcode": "58801-728"
    },
    {
        "city": "Sousa",
        "state": "PB",
        "district": "Várzea da Cruz",
        "street": "Travessa José Celestino de Paula",
        "zipcode": "58806-626"
    },
    {
        "city": "Sousa",
        "state": "PB",
        "district": "Jardim Sorrilândia II",
        "street": "Rua Bernadete Martins Saraiva",
        "zipcode": "58805-268"
    },
    {
        "city": "Sousa",
        "state": "PB",
        "district": "Jardins",
        "street": "Rua José Facundo de Lira",
        "zipcode": "58802-305"
    },
    {
        "city": "Sousa",
        "state": "PB",
        "district": "Jardim Iracema",
        "street": "Rua Janduir Morais",
        "zipcode": "58807-045"
    },
    {
        "city": "Sousa",
        "state": "PB",
        "district": "André Gadelha",
        "street": "Rua José Gonçalves Ribeiro",
        "zipcode": "58806-382"
    },
    {
        "city": "Sousa",
        "state": "PB",
        "district": "Várzea da Cruz",
        "street": "Rua Afonso Pereira Gadelha",
        "zipcode": "58806-630"
    },
    {
        "city": "Sousa",
        "state": "PB",
        "district": "Várzea da Cruz",
        "street": "Rua José Constantino de Araújo",
        "zipcode": "58806-656"
    },
    {
        "city": "Sousa",
        "state": "PB",
        "district": "Maria Rachel",
        "street": "Rua Júlio Vieira de Almeida",
        "zipcode": "58804-685"
    },
    {
        "city": "Sousa",
        "state": "PB",
        "district": "José Lins do Rego",
        "street": "Rua Francisco Cruz",
        "zipcode": "58804-115"
    },
    {
        "city": "Sousa",
        "state": "PB",
        "district": "Várzea da Cruz",
        "street": "Rua Raimundo José Silva",
        "zipcode": "58806-715"
    },
    {
        "city": "Sousa",
        "state": "PB",
        "district": "Frei Damião",
        "street": "Rua Pedro Aniceto Alves",
        "zipcode": "58804-050"
    },
    {
        "city": "Sousa",
        "state": "PB",
        "district": "Jardim Sorrilândia III",
        "street": "Rua Francisco Arnóbio Estrela de Queiroz",
        "zipcode": "58805-502"
    },
    {
        "city": "Sousa",
        "state": "PB",
        "district": "Várzea da Cruz",
        "street": "Rua Estéfano Celestino de Paula",
        "zipcode": "58806-654"
    },
    {
        "city": "Sousa",
        "state": "PB",
        "district": "Angelim",
        "street": "Rua Espedito Braga",
        "zipcode": "58801-730"
    },
    {
        "city": "Sousa",
        "state": "PB",
        "district": "Angelim",
        "street": "Rua Mãe Chiquinha",
        "zipcode": "58801-740"
    },
    {
        "city": "Sousa",
        "state": "PB",
        "district": "Boa Vista",
        "street": "Rua José Ferreira da Silva",
        "zipcode": "58801-353"
    },
    {
        "city": "Sousa",
        "state": "PB",
        "district": "Estreito",
        "street": "Rua Sargento Sarmento",
        "zipcode": "58800-785"
    },
    {
        "city": "Sousa",
        "state": "PB",
        "district": "Doutor Zezé",
        "street": "Travessa Antônio José",
        "zipcode": "58804-393"
    },
    {
        "city": "Sousa",
        "state": "PB",
        "district": "Zú Silva",
        "street": "Travessa Benício Alves Vieira",
        "zipcode": "58804-505"
    },
    {
        "city": "Sousa",
        "state": "PB",
        "district": "Doutor Zezé",
        "street": "Rua Wosley Rodrigues Durand",
        "zipcode": "58804-460"
    },
    {
        "city": "Sousa",
        "state": "PB",
        "district": "Zú Silva",
        "street": "Travessa Rita de Cássia",
        "zipcode": "58804-515"
    },
    {
        "city": "Sousa",
        "state": "PB",
        "district": "Nossa Senhora de Fátima",
        "street": "Rua Raul Meira Pordeus",
        "zipcode": "58804-605"
    },
    {
        "city": "Sousa",
        "state": "PB",
        "district": "Maria Rachel",
        "street": "Rua José Elias de Figueiredo",
        "zipcode": "58804-672"
    },
    {
        "city": "Sousa",
        "state": "PB",
        "district": "Doutor Zezé",
        "street": "Rua Doutor Carlos Pires de Sá",
        "zipcode": "58804-420"
    },
    {
        "city": "Sousa",
        "state": "PB",
        "district": "Zú Silva",
        "street": "Rua Deocleciano Nunes Resende",
        "zipcode": "58804-500"
    },
    {
        "city": "Sousa",
        "state": "PB",
        "district": "Centro",
        "street": "Rua Padre Aprígio de Sá",
        "zipcode": "58800-090"
    },
    {
        "city": "Sousa",
        "state": "PB",
        "district": "Nossa Senhora de Fátima",
        "street": "Rua Hosval Anunciato da Costa",
        "zipcode": "58804-625"
    },
    {
        "city": "Sousa",
        "state": "PB",
        "district": "Maria Rachel",
        "street": "Rua Afra Maria Virgínio Rocha",
        "zipcode": "58804-655"
    },
    {
        "city": "Sousa",
        "state": "PB",
        "district": "São José",
        "street": "Rua Ines Mariz",
        "zipcode": "58804-282"
    },
    {
        "city": "Sousa",
        "state": "PB",
        "district": "Maria Rachel",
        "street": "Rua Geraldo Gonçalves Sarmento",
        "zipcode": "58804-780"
    },
    {
        "city": "Sousa",
        "state": "PB",
        "district": "Jardim Sorrilândia I",
        "street": "Travessa Nelson Meira",
        "zipcode": "58805-185"
    },
    {
        "city": "Sousa",
        "state": "PB",
        "district": "Alto do Cruzeiro",
        "street": "Rua Raimundo Fernandes de Aragão",
        "zipcode": "58806-230"
    },
    {
        "city": "Sousa",
        "state": "PB",
        "district": "Frei Damião",
        "street": "Rua José Macedo Pereira",
        "zipcode": "58804-012"
    },
    {
        "city": "Sousa",
        "state": "PB",
        "district": "Jardins",
        "street": "Rua Adjesun Viana dos Santos",
        "zipcode": "58802-362"
    },
    {
        "city": "Sousa",
        "state": "PB",
        "district": "Frei Damião",
        "street": "Rua Joaquim Andrade Lacerda",
        "zipcode": "58804-025"
    },
    {
        "city": "Sousa",
        "state": "PB",
        "district": "Alto do Cruzeiro",
        "street": "Rua Padre Inácio Ribeiro de Melo",
        "zipcode": "58806-172"
    },
    {
        "city": "Sousa",
        "state": "PB",
        "district": "Augusto Braga",
        "street": "Rua Rita de Cássia",
        "zipcode": "58808-500"
    },
    {
        "city": "Sousa",
        "state": "PB",
        "district": "José Lins do Rego",
        "street": "Avenida José Gadelha de Oliveira",
        "zipcode": "58804-090"
    },
    {
        "city": "Sousa",
        "state": "PB",
        "district": "Jardins",
        "street": "Rua José Alexandre Nunes",
        "zipcode": "58802-365"
    },
    {
        "city": "Sousa",
        "state": "PB",
        "district": "Jardins",
        "street": "Rua Henrique Evangelista China",
        "zipcode": "58802-323"
    },
    {
        "city": "Sousa",
        "state": "PB",
        "district": "Alto do Cruzeiro",
        "street": "Rua Santino Pereira da Silva",
        "zipcode": "58806-130"
    },
    {
        "city": "Sousa",
        "state": "PB",
        "district": "Doutor Zezé",
        "street": "Travessa João de Deus",
        "zipcode": "58804-395"
    },
    {
        "city": "Sousa",
        "state": "PB",
        "district": "Zú Silva",
        "street": "Rua Doutor Carlos Pires de Sá",
        "zipcode": "58804-572"
    },
    {
        "city": "Sousa",
        "state": "PB",
        "district": "Areias",
        "street": "Rua Engenheiro Joaquim Vieira Figueiredo",
        "zipcode": "58801-490"
    },
    {
        "city": "Sousa",
        "state": "PB",
        "district": "Gato Preto",
        "street": "Rua Manoel Fernandes Aragão",
        "zipcode": "58802-010"
    },
    {
        "city": "Sousa",
        "state": "PB",
        "district": "Areias",
        "street": "Rua Floriano Peixoto",
        "zipcode": "58801-450"
    },
    {
        "city": "Sousa",
        "state": "PB",
        "district": "Jardim Sorrilândia III",
        "street": "Rua Célio Pires de Sá",
        "zipcode": "58805-572"
    },
    {
        "city": "Sousa",
        "state": "PB",
        "district": "Jardim Sorrilândia III",
        "street": "Rua Mário Morais da Silva",
        "zipcode": "58805-570"
    },
    {
        "city": "Sousa",
        "state": "PB",
        "district": "Jardim Iracema",
        "street": "Rua Vitória Alves da Silva",
        "zipcode": "58807-037"
    },
    {
        "city": "Sousa",
        "state": "PB",
        "district": "Jardim Sorrilândia III",
        "street": "Rua Assis Chateaubriand",
        "zipcode": "58805-516"
    },
    {
        "city": "Sousa",
        "state": "PB",
        "district": "Estação",
        "street": "Rua Coronel Manoel Isidro Rocha",
        "zipcode": "58807-250"
    },
    {
        "city": "Sousa",
        "state": "PB",
        "district": "Centro",
        "street": "Rua Gualberto Filho",
        "zipcode": "58800-262"
    },
    {
        "city": "Sousa",
        "state": "PB",
        "district": "Estação",
        "street": "Rua Joaquim Nabuco",
        "zipcode": "58807-180"
    },
    {
        "city": "Sousa",
        "state": "PB",
        "district": "Jardim Iracema",
        "street": "Rua Joaquim Nabuco",
        "zipcode": "58807-118"
    },
    {
        "city": "Sousa",
        "state": "PB",
        "district": "Centro",
        "street": "Rua Sady Fernandes Aragão",
        "zipcode": "58800-135"
    },
    {
        "city": "Sousa",
        "state": "PB",
        "district": "Estação",
        "street": "Rua Severino Ferreira de Souza",
        "zipcode": "58807-160"
    },
    {
        "city": "Sousa",
        "state": "PB",
        "district": "Centro",
        "street": "Rua Telegrafista Antônio Amorim",
        "zipcode": "58800-266"
    },
    {
        "city": "Sousa",
        "state": "PB",
        "district": "Centro",
        "street": "Rua Tiradentes",
        "zipcode": "58800-658"
    },
    {
        "city": "Sousa",
        "state": "PB",
        "district": "Várzea da Cruz",
        "street": "Rua Monsenhor Vicente de Freitas",
        "zipcode": "58806-700"
    },
    {
        "city": "Sousa",
        "state": "PB",
        "district": "Centro",
        "street": "Rua Deocleciano Pires",
        "zipcode": "58800-285"
    },
    {
        "city": "Sousa",
        "state": "PB",
        "district": "Jardim Santana",
        "street": "Rua Dom Pedro II",
        "zipcode": "58807-370"
    },
    {
        "city": "Sousa",
        "state": "PB",
        "district": "Jardim Sorrilândia III",
        "street": "Rua Ary Fernandes de Aragão",
        "zipcode": "58805-535"
    },
    {
        "city": "Sousa",
        "state": "PB",
        "district": "Centro",
        "street": "Rua Manoel Fernandes",
        "zipcode": "58800-132"
    },
    {
        "city": "Sousa",
        "state": "PB",
        "district": "Guanabara",
        "street": "Rua José Alexandre dos Santos",
        "zipcode": "58801-250"
    },
    {
        "city": "Sousa",
        "state": "PB",
        "district": "Guanabara",
        "street": "Rua Alexandre Marques Formiga",
        "zipcode": "58801-272"
    },
    {
        "city": "Sousa",
        "state": "PB",
        "district": "Angelim",
        "street": "Rua José Leite da Silva",
        "zipcode": "58801-690"
    },
    {
        "city": "Sousa",
        "state": "PB",
        "district": "Jardins",
        "street": "Rua Francisco Gomes Sarmento",
        "zipcode": "58802-390"
    },
    {
        "city": "Sousa",
        "state": "PB",
        "district": "Frei Damião",
        "street": "Rua José Roque da Paz",
        "zipcode": "58804-015"
    },
    {
        "city": "Sousa",
        "state": "PB",
        "district": "Maria Rachel",
        "street": "Rua Francisco Gonçalves Sarmento",
        "zipcode": "58804-732"
    },
    {
        "city": "Sousa",
        "state": "PB",
        "district": "Bancários",
        "street": "Rua Domingos Figueiredo de Oliveira",
        "zipcode": "58800-865"
    },
    {
        "city": "Sousa",
        "state": "PB",
        "district": "Gato Preto",
        "street": "Rua Eliza Maria de Sousa",
        "zipcode": "58802-075"
    },
    {
        "city": "Sousa",
        "state": "PB",
        "district": "Alto do Capanema",
        "street": "Rua Doutor Silvino Xavier dos Santos",
        "zipcode": "58807-638"
    },
    {
        "city": "Sousa",
        "state": "PB",
        "district": "Jardim Iracema",
        "street": "Rua Francisco Estrela de Oliveira",
        "zipcode": "58807-058"
    },
    {
        "city": "Sousa",
        "state": "PB",
        "district": "Estação",
        "street": "Rua Epitácio Pessoa",
        "zipcode": "58807-310"
    },
    {
        "city": "Sousa",
        "state": "PB",
        "district": "André Gadelha",
        "street": "Rua Aldo Justino de Oliveira",
        "zipcode": "58806-480"
    },
    {
        "city": "Sousa",
        "state": "PB",
        "district": "Centro",
        "street": "Rua Almeida Barreto",
        "zipcode": "58800-540"
    },
    {
        "city": "Sousa",
        "state": "PB",
        "district": "Areias",
        "street": "Rua Assis Rocha",
        "zipcode": "58801-560"
    },
    {
        "city": "Sousa",
        "state": "PB",
        "district": "Centro",
        "street": "Rua Lafayette Pires Ferreira",
        "zipcode": "58800-510"
    },
    {
        "city": "Sousa",
        "state": "PB",
        "district": "Alto do Capanema",
        "street": "Rua Coronel Augusto Braga",
        "zipcode": "58807-645"
    },
    {
        "city": "Sousa",
        "state": "PB",
        "district": "Centro",
        "street": "Rua Coronel José Gomes de Sá",
        "zipcode": "58800-050"
    },
    {
        "city": "Sousa",
        "state": "PB",
        "district": "Estação",
        "street": "Rua Dom Pedro I",
        "zipcode": "58807-340"
    },
    {
        "city": "Sousa",
        "state": "PB",
        "district": "Estação",
        "street": "Rua Duque de Caxias",
        "zipcode": "58807-175"
    },
    {
        "city": "Sousa",
        "state": "PB",
        "district": "Jardim Brasília",
        "street": "Rua Feliciano Guimarães",
        "zipcode": "58808-010"
    },
    {
        "city": "Sousa",
        "state": "PB",
        "district": "Centro",
        "street": "Rua Francisco Gadelha",
        "zipcode": "58800-650"
    },
    {
        "city": "Sousa",
        "state": "PB",
        "district": "Alto do Capanema",
        "street": "Rua João Bosco Sarmento",
        "zipcode": "58807-670"
    },
    {
        "city": "Sousa",
        "state": "PB",
        "district": "Estação",
        "street": "Rua Joaquim Pinto Neto",
        "zipcode": "58807-275"
    },
    {
        "city": "Sousa",
        "state": "PB",
        "district": "Centro",
        "street": "Travessa Napoleão Gomes",
        "zipcode": "58800-293"
    },
    {
        "city": "Sousa",
        "state": "PB",
        "district": "Centro",
        "street": "Rua Nicodemos Gadelha",
        "zipcode": "58800-170"
    },
    {
        "city": "Sousa",
        "state": "PB",
        "district": "Estação",
        "street": "Rua João Fernandes da Silva",
        "zipcode": "58807-308"
    },
    {
        "city": "Sousa",
        "state": "PB",
        "district": "Jardim Santana",
        "street": "Travessa Padre Ibiapina",
        "zipcode": "58807-385"
    },
    {
        "city": "Sousa",
        "state": "PB",
        "district": "Centro",
        "street": "Rua Presidente João Pessoa",
        "zipcode": "58800-010"
    },
    {
        "city": "Sousa",
        "state": "PB",
        "district": "Alto do Cruzeiro",
        "street": "Rua Raimundo Nonato Marques",
        "zipcode": "58806-170"
    },
    {
        "city": "Sousa",
        "state": "PB",
        "district": "Guanabara",
        "street": "Rua Antônio Vicente de Sousa",
        "zipcode": "58801-252"
    },
    {
        "city": "Sousa",
        "state": "PB",
        "district": "Guanabara",
        "street": "Rua Paulo Leite",
        "zipcode": "58801-255"
    },
    {
        "city": "Sousa",
        "state": "PB",
        "district": "Centro",
        "street": "Rua Coronel José Vicente",
        "zipcode": "58800-971"
    },
    {
        "city": "Sousa",
        "state": "PB",
        "district": "Bancários",
        "street": "Rua Luiz Cassimiro de Almeida",
        "zipcode": "58800-838"
    },
    {
        "city": "Sousa",
        "state": "PB",
        "district": "Bancários",
        "street": "Rua João Torres Ribeiro",
        "zipcode": "58800-842"
    },
    {
        "city": "Sousa",
        "state": "PB",
        "district": "Areias",
        "street": "Praça Campo Santo",
        "zipcode": "58801-520"
    },
    {
        "city": "Sousa",
        "state": "PB",
        "district": "Bancários",
        "street": "Rua Antônio Teodoro Neto",
        "zipcode": "58800-830"
    },
    {
        "city": "Sousa",
        "state": "PB",
        "district": "José Lins do Rego",
        "street": "Rua Henrique Evangelista China",
        "zipcode": "58804-130"
    },
    {
        "city": "Sousa",
        "state": "PB",
        "district": "Guanabara",
        "street": "Rua Maria do Socorro Medeiros dos Santos",
        "zipcode": "58801-205"
    },
    {
        "city": "Sousa",
        "state": "PB",
        "district": "Centro",
        "street": "Rua Ulisses de Barros",
        "zipcode": "58800-460"
    },
    {
        "city": "Sousa",
        "state": "PB",
        "district": "Jardim Sorrilândia I",
        "street": "Rua Clarice Pires de Sá",
        "zipcode": "58805-020"
    },
    {
        "city": "Sousa",
        "state": "PB",
        "district": "Jardim Sorrilândia I",
        "street": "Rua Domiciano Pires Braga",
        "zipcode": "58805-155"
    },
    {
        "city": "Sousa",
        "state": "PB",
        "district": "Jardim Sorrilândia I",
        "street": "Rua Coronel Manoel Isidro Rocha",
        "zipcode": "58805-220"
    },
    {
        "city": "Sousa",
        "state": "PB",
        "district": "Guanabara",
        "street": "Rua Timóteo Pereira de Morais",
        "zipcode": "58801-210"
    },
    {
        "city": "Sousa",
        "state": "PB",
        "district": "Gato Preto",
        "street": "Rua Bento Freire",
        "zipcode": "58802-060"
    },
    {
        "city": "Sousa",
        "state": "PB",
        "district": "Jardim Sorrilândia II",
        "street": "Rua José Leandro Sobrinho",
        "zipcode": "58805-300"
    },
    {
        "city": "Sousa",
        "state": "PB",
        "district": "Jardim Sorrilândia I",
        "street": "Rua Ester Fernandes Oliveira",
        "zipcode": "58805-010"
    },
    {
        "city": "Sousa",
        "state": "PB",
        "district": "Jardim Sorrilândia I",
        "street": "Rua Júlio Ferreira",
        "zipcode": "58805-240"
    },
    {
        "city": "Sousa",
        "state": "PB",
        "district": "Jardim Sorrilândia III",
        "street": "Rua Antônio Gonçalves de Abrantes",
        "zipcode": "58805-410"
    },
    {
        "city": "Sousa",
        "state": "PB",
        "district": "Estreito",
        "street": "Rua Coronel Antônio Soares",
        "zipcode": "58800-782"
    },
    {
        "city": "Sousa",
        "state": "PB",
        "district": "São José",
        "street": "Rua Coronel Antônio Soares",
        "zipcode": "58804-240"
    },
    {
        "city": "Sousa",
        "state": "PB",
        "district": "Guanabara",
        "street": "Rua Telegrafista Antônio Amorim",
        "zipcode": "58801-270"
    },
    {
        "city": "Sousa",
        "state": "PB",
        "district": "Jardim Sorrilândia I",
        "street": "Rua Visconde de Barbacena",
        "zipcode": "58805-140"
    },
    {
        "city": "Sousa",
        "state": "PB",
        "district": "Gato Preto",
        "street": "Rua Manoel Gadelha Filho",
        "zipcode": "58802-000"
    },
    {
        "city": "Sousa",
        "state": "PB",
        "district": "Areias",
        "street": "Rua Padre Isidro de Sá",
        "zipcode": "58801-485"
    },
    {
        "city": "Sousa",
        "state": "PB",
        "district": "Boa Vista",
        "street": "Rua Padre Isidro de Sá",
        "zipcode": "58801-390"
    },
    {
        "city": "Sousa",
        "state": "PB",
        "district": "Jardins",
        "street": "Rua Pedro Celestino de Paula",
        "zipcode": "58802-320"
    },
    {
        "city": "Sousa",
        "state": "PB",
        "district": "Jardim Sorrilândia I",
        "street": "Rua João Malvino Filho",
        "zipcode": "58805-040"
    },
    {
        "city": "Sousa",
        "state": "PB",
        "district": "Jardim Sorrilândia III",
        "street": "Rua João Malvino Filho",
        "zipcode": "58805-512"
    },
    {
        "city": "Sousa",
        "state": "PB",
        "district": "Jardim Sorrilândia I",
        "street": "Rua Raimundo Pereira de Oliveira",
        "zipcode": "58805-150"
    },
    {
        "city": "Sousa",
        "state": "PB",
        "district": "Jardim Sorrilândia I",
        "street": "Rua Sales Facundo de Lira",
        "zipcode": "58805-130"
    },
    {
        "city": "Sousa",
        "state": "PB",
        "district": "Jardim Sorrilândia I",
        "street": "Rua São Paulo",
        "zipcode": "58805-200"
    },
    {
        "city": "Sousa",
        "state": "PB",
        "district": "Bancários",
        "street": "Rua Augusto dos Anjos",
        "zipcode": "58800-815"
    },
    {
        "city": "Sousa",
        "state": "PB",
        "district": "Alto do Capanema",
        "street": "Rua Anísio Fausto",
        "zipcode": "58807-633"
    },
    {
        "city": "Sousa",
        "state": "PB",
        "district": "Assis Garrido",
        "street": "Rua Doutor Carlos Pires de Sá",
        "zipcode": "58800-730"
    },
    {
        "city": "Sousa",
        "state": "PB",
        "district": "Centro",
        "street": "Rua Nivaldo Gomes de Sá",
        "zipcode": "58800-272"
    },
    {
        "city": "Sousa",
        "state": "PB",
        "district": "Jardim Sorrilândia II",
        "street": "Rua Herotides Serafim dos Santos",
        "zipcode": "58805-270"
    },
    {
        "city": "Sousa",
        "state": "PB",
        "district": "Jardim Sorrilândia II",
        "street": "Avenida José Gadelha de Oliveira",
        "zipcode": "58805-280"
    },
    {
        "city": "Sousa",
        "state": "PB",
        "district": "Frei Damião",
        "street": "Rua José Inácio",
        "zipcode": "58804-038"
    },
    {
        "city": "Sousa",
        "state": "PB",
        "district": "Gato Preto",
        "street": "Rua Francisco Estrela de Oliveira",
        "zipcode": "58802-165"
    },
    {
        "city": "Sousa",
        "state": "PB",
        "district": "Centro",
        "street": "Rua Alexandre Marques Formiga",
        "zipcode": "58800-278"
    },
    {
        "city": "Sousa",
        "state": "PB",
        "district": "Guanabara",
        "street": "Rua José Ferreira da Silva",
        "zipcode": "58801-203"
    },
    {
        "city": "Sousa",
        "state": "PB",
        "district": "Jardim Sorrilândia I",
        "street": "Rua Doutor Manoel Mendes Virgínio",
        "zipcode": "58805-045"
    },
    {
        "city": "Sousa",
        "state": "PB",
        "district": "Maria Rachel",
        "street": "Rua Vicente Damião",
        "zipcode": "58804-660"
    },
    {
        "city": "Sousa",
        "state": "PB",
        "district": "Doutor Zezé",
        "street": "Rua Deocleciano Nunes Resende",
        "zipcode": "58804-470"
    },
    {
        "city": "Sousa",
        "state": "PB",
        "district": "Jardim Sorrilândia III",
        "street": "Rua Adauto Ferreira de Andrade",
        "zipcode": "58805-350"
    },
    {
        "city": "Sousa",
        "state": "PB",
        "district": "São José",
        "street": "Rua Batista Leite",
        "zipcode": "58804-230"
    },
    {
        "city": "Sousa",
        "state": "PB",
        "district": "Guanabara",
        "street": "Rua Carlos Gomes",
        "zipcode": "58801-200"
    },
    {
        "city": "Sousa",
        "state": "PB",
        "district": "Jardim Sorrilândia I",
        "street": "Travessa Coronel Manoel Isidro Rocha",
        "zipcode": "58805-225"
    },
    {
        "city": "Sousa",
        "state": "PB",
        "district": "Gato Preto",
        "street": "Travessa Coronel Otacílio Afonso de Sousa",
        "zipcode": "58802-035"
    },
    {
        "city": "Sousa",
        "state": "PB",
        "district": "Angelim",
        "street": "Rua Domingos Afonso",
        "zipcode": "58801-680"
    },
    {
        "city": "Sousa",
        "state": "PB",
        "district": "Jardim Sorrilândia III",
        "street": "Rua Edgar de Sá Sarmento",
        "zipcode": "58805-420"
    },
    {
        "city": "Sousa",
        "state": "PB",
        "district": "Jardim Sorrilândia III",
        "street": "Rua José Ribamar Pereira",
        "zipcode": "58805-460"
    },
    {
        "city": "Sousa",
        "state": "PB",
        "district": "Jardim Sorrilândia III",
        "street": "Rua Pedro Antunes de Oliveira",
        "zipcode": "58805-330"
    },
    {
        "city": "Sousa",
        "state": "PB",
        "district": "Jardim Bela Vista",
        "street": "Rua Maria Augusta Braga Rocha",
        "zipcode": "58808-290"
    },
    {
        "city": "Sousa",
        "state": "PB",
        "district": "Bancários",
        "street": "Rua Izaac Moreira de Queiroga",
        "zipcode": "58800-828"
    },
    {
        "city": "Sousa",
        "state": "PB",
        "district": "Bancários",
        "street": "Rua Vicente Gonçalves Ribeiro",
        "zipcode": "58800-845"
    },
    {
        "city": "Sousa",
        "state": "PB",
        "district": "Assis Garrido",
        "street": "Rua Antônio Ferreira de Araújo",
        "zipcode": "58800-745"
    },
    {
        "city": "Sousa",
        "state": "PB",
        "district": "Centro",
        "street": "Rua José Dias de França",
        "zipcode": "58800-695"
    },
    {
        "city": "Sousa",
        "state": "PB",
        "district": "Bancários",
        "street": "Rua Doutor Carlos Pires de Sá",
        "zipcode": "58800-800"
    },
    {
        "city": "Sousa",
        "state": "PB",
        "district": "Bancários",
        "street": "Rua José Moreira Lima",
        "zipcode": "58800-808"
    },
    {
        "city": "Sousa",
        "state": "PB",
        "district": "Centro",
        "street": "Rua José Moreira Sobrinho",
        "zipcode": "58800-595"
    },
    {
        "city": "Sousa",
        "state": "PB",
        "district": "Alto do Cruzeiro",
        "street": "Rua Anuana de Sena Gonçalves",
        "zipcode": "58806-153"
    },
    {
        "city": "Sousa",
        "state": "PB",
        "district": "Centro",
        "street": "Rua João Pordeus de Araújo",
        "zipcode": "58800-690"
    },
    {
        "city": "Sousa",
        "state": "PB",
        "district": "Jardim Sorrilândia III",
        "street": "Rua Coronel Manoel Isidro Rocha",
        "zipcode": "58805-522"
    },
    {
        "city": "Sousa",
        "state": "PB",
        "district": "Estação",
        "street": "Rua Nossa Senhora do Rosário",
        "zipcode": "58807-262"
    },
    {
        "city": "Sousa",
        "state": "PB",
        "district": "Centro",
        "street": "Rua Professor Trajano",
        "zipcode": "58800-630"
    },
    {
        "city": "Sousa",
        "state": "PB",
        "district": "Centro",
        "street": "Rua Boa Ventura Rocha",
        "zipcode": "58800-570"
    },
    {
        "city": "Sousa",
        "state": "PB",
        "district": "Centro",
        "street": "Rua Djacir Marques Pinto",
        "zipcode": "58800-655"
    },
    {
        "city": "Sousa",
        "state": "PB",
        "district": "Alto do Capanema",
        "street": "Rua Francisco Almeida de Figueiredo",
        "zipcode": "58807-658"
    },
    {
        "city": "Sousa",
        "state": "PB",
        "district": "Jardim Sorrilândia I",
        "street": "Rua Francisco Paulino da Silva",
        "zipcode": "58805-110"
    },
    {
        "city": "Sousa",
        "state": "PB",
        "district": "Estação",
        "street": "Rua Francisco Paulino da Silva",
        "zipcode": "58807-265"
    },
    {
        "city": "Sousa",
        "state": "PB",
        "district": "Jardim Iracema",
        "street": "Rua Joana DArc",
        "zipcode": "58807-120"
    },
    {
        "city": "Sousa",
        "state": "PB",
        "district": "Centro",
        "street": "Rua João Rocha",
        "zipcode": "58800-610"
    },
    {
        "city": "Sousa",
        "state": "PB",
        "district": "Centro",
        "street": "Rua Júlio Melo",
        "zipcode": "58800-420"
    },
    {
        "city": "Sousa",
        "state": "PB",
        "district": "Centro",
        "street": "Rua Sinfrônio Nazaré",
        "zipcode": "58800-240"
    },
    {
        "city": "Sousa",
        "state": "PB",
        "district": "Jardim Sorrilândia I",
        "street": "Rua Maria Augusta Braga Rocha",
        "zipcode": "58805-055"
    },
    {
        "city": "Sousa",
        "state": "PB",
        "district": "Jardim Iracema",
        "street": "Rua Ana Abrantes Gadelha",
        "zipcode": "58807-060"
    },
    {
        "city": "Sousa",
        "state": "PB",
        "district": "Centro",
        "street": "Rua Major Lindolfo Pires",
        "zipcode": "58800-450"
    },
    {
        "city": "Sousa",
        "state": "PB",
        "district": "Estação",
        "street": "Rua Cônego José Viana",
        "zipcode": "58807-970"
    },
    {
        "city": "Sousa",
        "state": "PB",
        "district": "Doutor Zezé",
        "street": "Rua Valdemar Batista da Silva",
        "zipcode": "58804-350"
    },
    {
        "city": "Sousa",
        "state": "PB",
        "district": "Alto do Cruzeiro",
        "street": "Avenida Américo Dantas de Assis",
        "zipcode": "58806-175"
    },
    {
        "city": "Sousa",
        "state": "PB",
        "district": "Gato Preto",
        "street": "Rua Ana Nery",
        "zipcode": "58802-070"
    },
    {
        "city": "Sousa",
        "state": "PB",
        "district": "Jardim Brasília",
        "street": "Rua Beatriz de Paiva Gadelha",
        "zipcode": "58808-130"
    },
    {
        "city": "Sousa",
        "state": "PB",
        "district": "Centro",
        "street": "Praça Bom Jesus",
        "zipcode": "58800-260"
    },
    {
        "city": "Sousa",
        "state": "PB",
        "district": "Centro",
        "street": "Rua Manoel Meira Garrido",
        "zipcode": "58800-198"
    },
    {
        "city": "Sousa",
        "state": "PB",
        "district": "Projeto Mariz",
        "street": "Rua Maria de Jesus",
        "zipcode": "58808-562"
    },
    {
        "city": "Sousa",
        "state": "PB",
        "district": "Estreito",
        "street": "Rua Ines Mariz",
        "zipcode": "58800-760"
    },
    {
        "city": "Sousa",
        "state": "PB",
        "district": "Augusto Braga",
        "street": "Rua Nonato Vieira",
        "zipcode": "58808-478"
    },
    {
        "city": "Sousa",
        "state": "PB",
        "district": "Alto do Capanema",
        "street": "Rua Francisco de Assis de Souza",
        "zipcode": "58807-618"
    },
    {
        "city": "Sousa",
        "state": "PB",
        "district": "Projeto Mariz",
        "street": "Rua Laércio Wilder Sá",
        "zipcode": "58808-575"
    },
    {
        "city": "Sousa",
        "state": "PB",
        "district": "Angelim",
        "street": "Rua Jornalista Francisco Jânio Abrantes Ferreira",
        "zipcode": "58801-695"
    },
    {
        "city": "Sousa",
        "state": "PB",
        "district": "Jardim Bela Vista",
        "street": "Rua Gastão Medeiros Forte",
        "zipcode": "58808-270"
    },
    {
        "city": "Sousa",
        "state": "PB",
        "district": "Centro",
        "street": "Rua Coronel João Alvino Gomes de Sá",
        "zipcode": "58800-030"
    },
    {
        "city": "Sousa",
        "state": "PB",
        "district": "Centro",
        "street": "Travessa Coronel José Gomes de Sá",
        "zipcode": "58800-055"
    },
    {
        "city": "Sousa",
        "state": "PB",
        "district": "Centro",
        "street": "Rua Doutor Silva Mariz",
        "zipcode": "58800-290"
    },
    {
        "city": "Sousa",
        "state": "PB",
        "district": "Centro",
        "street": "Rua Fausto Meira",
        "zipcode": "58800-470"
    },
    {
        "city": "Sousa",
        "state": "PB",
        "district": "Centro",
        "street": "Rua Galdino Formiga",
        "zipcode": "58800-070"
    },
    {
        "city": "Sousa",
        "state": "PB",
        "district": "Jardim Sorrilândia II",
        "street": "Rua José Honório",
        "zipcode": "58805-250"
    },
    {
        "city": "Sousa",
        "state": "PB",
        "district": "Centro",
        "street": "Rua Manoel Mariz",
        "zipcode": "58800-180"
    },
    {
        "city": "Sousa",
        "state": "PB",
        "district": "Centro",
        "street": "Rua Mizael Morais",
        "zipcode": "58800-360"
    },
    {
        "city": "Sousa",
        "state": "PB",
        "district": "Jardim Sorrilândia III",
        "street": "Rua Neuma Sarmento Lopes",
        "zipcode": "58805-400"
    },
    {
        "city": "Sousa",
        "state": "PB",
        "district": "Centro",
        "street": "Rua Odon Bezerra",
        "zipcode": "58800-130"
    },
    {
        "city": "Sousa",
        "state": "PB",
        "district": "Centro",
        "street": "Rua Professor Virgílio Pinto",
        "zipcode": "58800-550"
    },
    {
        "city": "Sousa",
        "state": "PB",
        "district": "Estação",
        "street": "Rua Santa Ana",
        "zipcode": "58807-270"
    },
    {
        "city": "Sousa",
        "state": "PB",
        "district": "Gato Preto",
        "street": "Rua Augusto Marques Seixas",
        "zipcode": "58802-115"
    },
    {
        "city": "Sousa",
        "state": "PB",
        "district": "Centro",
        "street": "Rua Emídio Moura",
        "zipcode": "58800-342"
    },
    {
        "city": "Sousa",
        "state": "PB",
        "district": "Centro",
        "street": "Rua Brigadeiro Eduardo Gomes de Sá",
        "zipcode": "58800-275"
    },
    {
        "city": "Sousa",
        "state": "PB",
        "district": "André Gadelha",
        "street": "Rua Regiane Macário da Silva",
        "zipcode": "58806-465"
    },
    {
        "city": "Sousa",
        "state": "PB",
        "district": "Projeto Mariz",
        "street": "Rua Rita de Cássia",
        "zipcode": "58808-570"
    },
    {
        "city": "Sousa",
        "state": "PB",
        "district": "Jardim Bela Vista",
        "street": "Rua Raimundo Pereira de Oliveira",
        "zipcode": "58808-260"
    },
    {
        "city": "Sousa",
        "state": "PB",
        "district": "Jardim Bela Vista",
        "street": "Rua Domiciano Pires Braga",
        "zipcode": "58808-265"
    },
    {
        "city": "Sousa",
        "state": "PB",
        "district": "Jardim Sorrilândia III",
        "street": "Rua Cícero Cândido",
        "zipcode": "58805-320"
    },
    {
        "city": "Sousa",
        "state": "PB",
        "district": "José Lins do Rego",
        "street": "Rua Francisco de Assis Gadelha",
        "zipcode": "58804-120"
    },
    {
        "city": "Sousa",
        "state": "PB",
        "district": "Augusto Braga",
        "street": "Rua Regina Rodrigues",
        "zipcode": "58808-510"
    },
    {
        "city": "Sousa",
        "state": "PB",
        "district": "Jardim Bela Vista",
        "street": "Rua Lindalva Dias",
        "zipcode": "58808-300"
    },
    {
        "city": "Sousa",
        "state": "PB",
        "district": "Estação",
        "street": "Rua Coronel José Augusto Rocha",
        "zipcode": "58807-228"
    },
    {
        "city": "Sousa",
        "state": "PB",
        "district": "Projeto Mariz",
        "street": "Rua Isaura Ferreira",
        "zipcode": "58808-568"
    },
    {
        "city": "Sousa",
        "state": "PB",
        "district": "Guanabara",
        "street": "Rua Nivaldo Gomes de Sá",
        "zipcode": "58801-290"
    },
    {
        "city": "Sousa",
        "state": "PB",
        "district": "Jardim Santana",
        "street": "Rua Vicente Gonçalves Ribeiro Neto",
        "zipcode": "58807-440"
    },
    {
        "city": "Sousa",
        "state": "PB",
        "district": "Boa Vista",
        "street": "Rua Alcides Ferreira Dantas",
        "zipcode": "58801-355"
    },
    {
        "city": "Sousa",
        "state": "PB",
        "district": "Assis Garrido",
        "street": "Rua Joaquim Gadelha Nóbrega",
        "zipcode": "58800-748"
    },
    {
        "city": "Sousa",
        "state": "PB",
        "district": "Centro",
        "street": "Rua Doutor Carlos Pires de Sá",
        "zipcode": "58800-280"
    },
    {
        "city": "Sousa",
        "state": "PB",
        "district": "Centro",
        "street": "Rua Francisco Almeida de Figueiredo",
        "zipcode": "58800-400"
    },
    {
        "city": "Sousa",
        "state": "PB",
        "district": "Várzea da Cruz",
        "street": "Rua Manoel Dionísio de Sousa",
        "zipcode": "58806-660"
    },
    {
        "city": "Sousa",
        "state": "PB",
        "district": "Zú Silva",
        "street": "Rua José Gadelha Camarão",
        "zipcode": "58804-585"
    },
    {
        "city": "Sousa",
        "state": "PB",
        "district": "Centro",
        "street": "Rua Ananias Gadelha",
        "zipcode": "58800-500"
    },
    {
        "city": "Sousa",
        "state": "PB",
        "district": "Maria Rachel",
        "street": "Rua Clotário de Paiva Gadelha",
        "zipcode": "58804-730"
    },
    {
        "city": "Sousa",
        "state": "PB",
        "district": "Areias",
        "street": "Rua Professora Francisca Angelina Moreira",
        "zipcode": "58801-510"
    },
    {
        "city": "Sousa",
        "state": "PB",
        "district": "Alto do Capanema",
        "street": "Rua Epitácio Pessoa",
        "zipcode": "58807-600"
    },
    {
        "city": "Sousa",
        "state": "PB",
        "district": "Maria Rachel",
        "street": "Rua Sargento Veríssimo Pereira Nóbrega",
        "zipcode": "58804-790"
    },
    {
        "city": "Sousa",
        "state": "PB",
        "district": "Bancários",
        "street": "Rua Sargento Sarmento",
        "zipcode": "58800-825"
    },
    {
        "city": "Sousa",
        "state": "PB",
        "district": "Centro",
        "street": "Rua Epitácio Pessoa",
        "zipcode": "58800-665"
    },
    {
        "city": "Sousa",
        "state": "PB",
        "district": "Centro",
        "street": "Rua Sargento Edésio de Carvalho",
        "zipcode": "58800-330"
    },
    {
        "city": "Sousa",
        "state": "PB",
        "district": "Centro",
        "street": "Rua Aproniano Gomes de Sá",
        "zipcode": "58800-140"
    },
    {
        "city": "Sousa",
        "state": "PB",
        "district": "São José",
        "street": "Rua Maria Eulina",
        "zipcode": "58804-280"
    },
    {
        "city": "Sousa",
        "state": "PB",
        "district": "Doutor Zezé",
        "street": "Travessa Jackson de Almeida Queiroz",
        "zipcode": "58804-433"
    },
    {
        "city": "Sousa",
        "state": "PB",
        "district": "Doutor Zezé",
        "street": "Rua Raimundo Marques Braga Rolim Filho",
        "zipcode": "58804-450"
    },
    {
        "city": "Sousa",
        "state": "PB",
        "district": "Doutor Zezé",
        "street": "Travessa Francisco Celestino de Paula",
        "zipcode": "58804-455"
    },
    {
        "city": "Sousa",
        "state": "PB",
        "district": "Zú Silva",
        "street": "Travessa Katiane Maria Maniçoba",
        "zipcode": "58804-575"
    },
    {
        "city": "Sousa",
        "state": "PB",
        "district": "Zú Silva",
        "street": "Rua Marcos de Paiva Gadelha",
        "zipcode": "58804-578"
    },
    {
        "city": "Sousa",
        "state": "PB",
        "district": "Maria Rachel",
        "street": "Rua José Antônio de Figueiredo",
        "zipcode": "58804-658"
    },
    {
        "city": "Sousa",
        "state": "PB",
        "district": "Maria Rachel",
        "street": "Rua Severino França de Andrade",
        "zipcode": "58804-668"
    },
    {
        "city": "Sousa",
        "state": "PB",
        "district": "São José",
        "street": "Rua Tenente Zuca",
        "zipcode": "58804-295"
    },
    {
        "city": "Sousa",
        "state": "PB",
        "district": "Doutor Zezé",
        "street": "Rua Francisco Sarmento Medeiros",
        "zipcode": "58804-370"
    },
    {
        "city": "Sousa",
        "state": "PB",
        "district": "Zú Silva",
        "street": "Rua Francisco Antônio de Sousa",
        "zipcode": "58804-550"
    },
    {
        "city": "Sousa",
        "state": "PB",
        "district": "Zú Silva",
        "street": "Rua Arnóbio Bezerra da Silva",
        "zipcode": "58804-570"
    },
    {
        "city": "Sousa",
        "state": "PB",
        "district": "Jardim Bela Vista",
        "street": "Rua Aliete Augusta de Sá",
        "zipcode": "58808-308"
    },
    {
        "city": "Sousa",
        "state": "PB",
        "district": "São José",
        "street": "Travessa Francisco Antônio de Figueiredo",
        "zipcode": "58804-208"
    },
    {
        "city": "Sousa",
        "state": "PB",
        "district": "Projeto Mariz",
        "street": "Rua Jucélio Rocha de Sá",
        "zipcode": "58808-580"
    },
    {
        "city": "Sousa",
        "state": "PB",
        "district": "Doutor Zezé",
        "street": "Rua Raimunda Xavier Ferreira de Sousa",
        "zipcode": "58804-430"
    },
    {
        "city": "Sousa",
        "state": "PB",
        "district": "Doutor Zezé",
        "street": "Travessa Manoel Zuza",
        "zipcode": "58804-435"
    },
    {
        "city": "Sousa",
        "state": "PB",
        "district": "Zú Silva",
        "street": "Rua Vicente Damião",
        "zipcode": "58804-560"
    },
    {
        "city": "Sousa",
        "state": "PB",
        "district": "São José",
        "street": "Rua da Palha",
        "zipcode": "58804-310"
    },
    {
        "city": "Sousa",
        "state": "PB",
        "district": "São José",
        "street": "Rua João Lira Braga",
        "zipcode": "58804-330"
    },
    {
        "city": "Sousa",
        "state": "PB",
        "district": "Zú Silva",
        "street": "Rua Francisco Paulo Coelho",
        "zipcode": "58804-530"
    },
    {
        "city": "Sousa",
        "state": "PB",
        "district": "Nossa Senhora de Fátima",
        "street": "Rua Gastão Medeiros Forte",
        "zipcode": "58804-615"
    },
    {
        "city": "Sousa",
        "state": "PB",
        "district": "Alto do Cruzeiro",
        "street": "Rua Sebastião Eduardo de Sousa",
        "zipcode": "58806-115"
    },
    {
        "city": "Sousa",
        "state": "PB",
        "district": "Jardim Sorrilândia III",
        "street": "Rua Maria Vieira Pereira",
        "zipcode": "58805-576"
    },
    {
        "city": "Sousa",
        "state": "PB",
        "district": "Jardim Sorrilândia III",
        "street": "Rua José Nóbrega Gadelha de Queiroga",
        "zipcode": "58805-574"
    },
    {
        "city": "Sousa",
        "state": "PB",
        "district": "Bancários",
        "street": "Rua Valdemar Batista da Silva",
        "zipcode": "58800-805"
    },
    {
        "city": "Sousa",
        "state": "PB",
        "district": "Jardim Sorrilândia III",
        "street": "Rua José Bento de Oliveira",
        "zipcode": "58805-584"
    },
    {
        "city": "Sousa",
        "state": "PB",
        "district": "Centro",
        "street": "Rua Coronel José Vicente",
        "zipcode": "58800-005"
    },
    {
        "city": "Sousa",
        "state": "PB",
        "district": "Jardim Iracema",
        "street": "Rua José Vicente de Andrade",
        "zipcode": "58807-053"
    },
    {
        "city": "Sousa",
        "state": "PB",
        "district": "Jardim Brasília",
        "street": "Rua Maria Leonília de Abrantes",
        "zipcode": "58808-015"
    },
    {
        "city": "Sousa",
        "state": "PB",
        "district": "Centro",
        "street": "Rua Maria do Socorro Medeiros dos Santos",
        "zipcode": "58800-264"
    },
    {
        "city": "Sousa",
        "state": "PB",
        "district": "Jardim Sorrilândia I",
        "street": "Rua Herotides Serafim dos Santos",
        "zipcode": "58805-125"
    },
    {
        "city": "Sousa",
        "state": "PB",
        "district": "Centro",
        "street": "Rua Antônio Ferreira de Araújo",
        "zipcode": "58800-195"
    },
    {
        "city": "Sousa",
        "state": "PB",
        "district": "Guanabara",
        "street": "Rua Brigadeiro Eduardo Gomes de Sá",
        "zipcode": "58801-275"
    },
    {
        "city": "Sousa",
        "state": "PB",
        "district": "Projeto Mariz",
        "street": "Rua Antônio Ribeiro",
        "zipcode": "58808-565"
    },
    {
        "city": "Sousa",
        "state": "PB",
        "district": "Jardim Bela Vista",
        "street": "Rua Nelson Meira",
        "zipcode": "58808-250"
    },
    {
        "city": "Sousa",
        "state": "PB",
        "district": "Augusto Braga",
        "street": "Travessa Macionília Tavares",
        "zipcode": "58808-454"
    },
    {
        "city": "Sousa",
        "state": "PB",
        "district": "Centro",
        "street": "Rua Ines Mariz",
        "zipcode": "58800-684"
    },
    {
        "city": "Sousa",
        "state": "PB",
        "district": "Augusto Braga",
        "street": "Rua Raimunda Maria Conceição",
        "zipcode": "58808-525"
    },
    {
        "city": "Sousa",
        "state": "PB",
        "district": "Maria Rachel",
        "street": "Rua Beatriz Figueiredo Dantas",
        "zipcode": "58804-682"
    },
    {
        "city": "Sousa",
        "state": "PB",
        "district": "Gato Preto",
        "street": "Rua José Martins Irmão",
        "zipcode": "58802-093"
    },
    {
        "city": "Sousa",
        "state": "PB",
        "district": "Gato Preto",
        "street": "Rua Manoel Mendes Vieira Campos",
        "zipcode": "58802-100"
    },
    {
        "city": "Sousa",
        "state": "PB",
        "district": "Maria Rachel",
        "street": "Rua Karla Raquel Elias Formiga",
        "zipcode": "58804-763"
    },
    {
        "city": "Sousa",
        "state": "PB",
        "district": "Alto do Cruzeiro",
        "street": "Rua Amaro Florentino dos Santos",
        "zipcode": "58806-155"
    },
    {
        "city": "Sousa",
        "state": "PB",
        "district": "Jardim Iracema",
        "street": "Rua Teotônio Ferreira de Almeida",
        "zipcode": "58807-080"
    },
    {
        "city": "Sousa",
        "state": "PB",
        "district": "Jardim Sorrilândia III",
        "street": "Rua Maria de Lourdes Morais Alves",
        "zipcode": "58805-582"
    },
    {
        "city": "Sousa",
        "state": "PB",
        "district": "Gato Preto",
        "street": "Rua J. Martins",
        "zipcode": "58802-240"
    },
    {
        "city": "Sousa",
        "state": "PB",
        "district": "Gato Preto",
        "street": "Rua Jose Sarmento Santos",
        "zipcode": "58802-360"
    },
    {
        "city": "Sousa",
        "state": "PB",
        "district": "Gato Preto",
        "street": "Rua Cecilia Garrido",
        "zipcode": "58802-120"
    },
    {
        "city": "Sousa",
        "state": "PB",
        "district": "Gato Preto",
        "street": "Largo Do Mercado",
        "zipcode": "58802-170"
    },
    {
        "city": "Sousa",
        "state": "PB",
        "district": "Gato Preto",
        "street": "Rua Clotario De Paiva Gadelha",
        "zipcode": "58802-190"
    },
    {
        "city": "Sousa",
        "state": "PB",
        "district": "Maria Rachel",
        "street": "Rua José Abrantes de Lima",
        "zipcode": "58804-742"
    },
    {
        "city": "Sousa",
        "state": "PB",
        "district": "Centro",
        "street": "Rua Genesio Gambarra",
        "zipcode": "58800-670"
    },
    {
        "city": "Sousa",
        "state": "PB",
        "district": "Recreio",
        "street": "Rua Brigadeiro Eduardo Gomes De Sa",
        "zipcode": "58801-000"
    },
    {
        "city": "Sousa",
        "state": "PB",
        "district": "Alto do Cruzeiro",
        "street": "Rua Zilda Alves de Sousa",
        "zipcode": "58806-108"
    },
    {
        "city": "Sousa",
        "state": "PB",
        "district": "Gato Preto",
        "street": "Rua Lucia De Fatima De Sousa",
        "zipcode": "58802-280"
    },
    {
        "city": "Sousa",
        "state": "PB",
        "district": "Guanabara",
        "street": "Acesso Do Matadouro",
        "zipcode": "58801-240"
    },
    {
        "city": "Sousa",
        "state": "PB",
        "district": "André Gadelha",
        "street": "Vila Beatriz Júlia de Sousa",
        "zipcode": "58806-384"
    },
    {
        "city": "Sousa",
        "state": "PB",
        "district": "Maria De Lourdes Sarmento Meira",
        "street": "Rua Princesa Isabel",
        "zipcode": "58802-660"
    },
    {
        "city": "Sousa",
        "state": "PB",
        "district": "Alto do Cruzeiro",
        "street": "Rua João Trajano Júnior",
        "zipcode": "58806-111"
    },
    {
        "city": "Sousa",
        "state": "PB",
        "district": "Guanabara",
        "street": "Rua Francisco Goncalves Ribeiro",
        "zipcode": "58801-300"
    },
    {
        "city": "Sousa",
        "state": "PB",
        "district": "Alto do Cruzeiro",
        "street": "Rua Sócrates Abrantes da Silva",
        "zipcode": "58806-063"
    },
    {
        "city": "Sousa",
        "state": "PB",
        "district": "Gato Preto",
        "street": "Rua Raimunda Marques Dos Santos",
        "zipcode": "58802-160"
    },
    {
        "city": "Sousa",
        "state": "PB",
        "district": "Estreito",
        "street": "Rua Tenente Zuca",
        "zipcode": "58802-790"
    },
    {
        "city": "Sousa",
        "state": "PB",
        "district": "Guanabara",
        "street": "Rua Boa Vista",
        "zipcode": "58801-220"
    },
    {
        "city": "Sousa",
        "state": "PB",
        "district": "Maria Rachel",
        "street": "Rua Fábio Rocha",
        "zipcode": "58804-796"
    },
    {
        "city": "Sousa",
        "state": "PB",
        "district": "Alto do Cruzeiro",
        "street": "Rua Maria de Lourdes Almeida de Oliveira",
        "zipcode": "58806-104"
    },
    {
        "city": "Sousa",
        "state": "PB",
        "district": "Estacao",
        "street": "Largo Do Mercado",
        "zipcode": "58803-330"
    },
    {
        "city": "Sousa",
        "state": "PB",
        "district": "Alto do Cruzeiro",
        "street": "Rua Raimundo Nonato da Silva",
        "zipcode": "58806-102"
    },
    {
        "city": "Sousa",
        "state": "PB",
        "district": "Gato Preto",
        "street": "Rua Professor Edinaldo Ferreira de Sousa",
        "zipcode": "58802-072"
    },
    {
        "city": "Sousa",
        "state": "PB",
        "district": "Maria De Lourdes Sarmento Meira",
        "street": "Rua Sargento Sarmento",
        "zipcode": "58802-720"
    },
    {
        "city": "Sousa",
        "state": "PB",
        "district": "Angelim",
        "street": "Avenida Angelim",
        "zipcode": "58804-000"
    },
    {
        "city": "Sousa",
        "state": "PB",
        "district": "Maria De Lourdes Sarmento Meira",
        "street": "Rua Augusto Dos Anjos",
        "zipcode": "58802-740"
    },
    {
        "city": "Sousa",
        "state": "PB",
        "district": "Gato Preto",
        "street": "Rua Jose Fagundes De Lira",
        "zipcode": "58802-180"
    },
    {
        "city": "Sousa",
        "state": "PB",
        "district": "Alto Capanema",
        "street": "Fazenda Diamante",
        "zipcode": "58803-790"
    },
    {
        "city": "Sousa",
        "state": "PB",
        "district": "Maria De Lourdes Sarmento Meira",
        "street": "Avenida Engenheiro Carlos Pires De Sa",
        "zipcode": "58802-710"
    },
    {
        "city": "Sousa",
        "state": "PB",
        "district": "Alto do Cruzeiro",
        "street": "Rua Maria do Carmo Facundo",
        "zipcode": "58806-112"
    },
    {
        "city": "Sousa",
        "state": "PB",
        "district": "Maria De Lourdes Sarmento Meira",
        "street": "Rua Veronica Silveira",
        "zipcode": "58802-680"
    },
    {
        "city": "Sousa",
        "state": "PB",
        "district": "Alto do Cruzeiro",
        "street": "Rua Francisco Abrantes Sarmento Filho",
        "zipcode": "58806-113"
    },
    {
        "city": "Sousa",
        "state": "PB",
        "district": "Estacao",
        "street": "Avenida Nelson Meira",
        "zipcode": "58803-420"
    },
    {
        "city": "Sousa",
        "state": "PB",
        "district": "Estreito",
        "street": "Rua Ines Mariz",
        "zipcode": "58802-800"
    },
    {
        "city": "Sousa",
        "state": "PB",
        "district": "Angelim",
        "street": "Rua Maria das Dores Moreira da Silveira",
        "zipcode": "58801-718"
    },
    {
        "city": "Sousa",
        "state": "PB",
        "district": "Gato Preto",
        "street": "Travessa Lidia Meira",
        "zipcode": "58802-125"
    },
    {
        "city": "Sousa",
        "state": "PB",
        "district": "Maria De Lourdes Sarmento Meira",
        "street": "Rua Joao Nobrega Gadelha",
        "zipcode": "58802-730"
    },
    {
        "city": "Sousa",
        "state": "PB",
        "district": "Alto do Cruzeiro",
        "street": "Rua Rubismar Albuquerque Farias",
        "zipcode": "58806-244"
    },
    {
        "city": "Sousa",
        "state": "PB",
        "district": "Centro",
        "street": "Rua Dr Marinho Correia",
        "zipcode": "58800-700"
    },
    {
        "city": "Sousa",
        "state": "PB",
        "district": "Gato Preto",
        "street": "Rua Felix Sucupira De Queiroga",
        "zipcode": "58802-200"
    },
    {
        "city": "Sousa",
        "state": "PB",
        "district": "Área Rural de Sousa",
        "street": "Área Rural",
        "zipcode": "58809-899"
    },
    {
        "city": "Sousa",
        "state": "PB",
        "district": "Gato Preto",
        "street": "Rua Henrique Rodrigues Da Silva",
        "zipcode": "58802-380"
    },
    {
        "city": "Sousa",
        "state": "PB",
        "district": "Alto do Cruzeiro",
        "street": "Rua Justino Aranha",
        "zipcode": "58806-118"
    },
    {
        "city": "Sousa",
        "state": "PB",
        "district": "Estreito",
        "street": "Rua Lidia Meira",
        "zipcode": "58802-830"
    },
    {
        "city": "Sousa",
        "state": "PB",
        "district": "Gato Preto",
        "street": "Vila Ipase",
        "zipcode": "58802-225"
    },
    {
        "city": "Sousa",
        "state": "PB",
        "district": "Gato Preto",
        "street": "Rua Joao Bosco M. De Sousa",
        "zipcode": "58802-340"
    },
    {
        "city": "Sousa",
        "state": "PB",
        "district": "Alto do Capanema",
        "street": "Rua Josefa Clementino da Silva",
        "zipcode": "58807-606"
    },
    {
        "city": "Sousa",
        "state": "PB",
        "district": "Gato Preto",
        "street": "Rua Joao Teodoro De Oliveira",
        "zipcode": "58802-130"
    },
    {
        "city": "Sousa",
        "state": "PB",
        "district": "Gato Preto",
        "street": "Rua Augusto M. Seixas",
        "zipcode": "58802-300"
    },
    {
        "city": "Sousa",
        "state": "PB",
        "district": "Maria De Lourdes Sarmento Meira",
        "street": "Rua Antonio Teodoro Neto",
        "zipcode": "58802-770"
    },
    {
        "city": "Sousa",
        "state": "PB",
        "district": "Gato Preto",
        "street": "Rua Izaac Moreira",
        "zipcode": "58802-140"
    },
    {
        "city": "Sousa",
        "state": "PB",
        "district": "Centro",
        "street": "Rua Tiburtino Leite Matos",
        "zipcode": "58800-440"
    },
    {
        "city": "Sousa",
        "state": "PB",
        "district": "Guanabara",
        "street": "Largo Do Mercado De Frutas",
        "zipcode": "58801-260"
    },
    {
        "city": "Sousa",
        "state": "PB",
        "district": "Maria Rachel",
        "street": "Rua Wandergilza Batista de Sousa",
        "zipcode": "58804-792"
    },
    {
        "city": "Sousa",
        "state": "PB",
        "district": "Estacao",
        "street": "Rua Emidio Cartaxo",
        "zipcode": "58803-510"
    },
    {
        "city": "Sousa",
        "state": "PB",
        "district": "Estacao",
        "street": "Rua Eneas Elias",
        "zipcode": "58803-300"
    },
    {
        "city": "Sousa",
        "state": "PB",
        "district": "Sao Jose",
        "street": "Rua Marcos De Paiva Gadelha",
        "zipcode": "58804-206"
    },
    {
        "city": "Sousa",
        "state": "PB",
        "district": "Estacao",
        "street": "Rua Duque De Caxias",
        "zipcode": "58803-490"
    },
    {
        "city": "Sousa",
        "state": "PB",
        "district": "Estacao",
        "street": "Rua Joao Nobre",
        "zipcode": "58803-250"
    },
    {
        "city": "Sousa",
        "state": "PB",
        "district": "Estacao",
        "street": "Rua Ana Garibaldi",
        "zipcode": "58803-440"
    },
    {
        "city": "Sousa",
        "state": "PB",
        "district": "Bela Vista",
        "street": "Campo De Aviacao",
        "zipcode": "58805-310"
    },
    {
        "city": "Sousa",
        "state": "PB",
        "district": "Estacao",
        "street": "Rua Tapuia",
        "zipcode": "58803-465"
    },
    {
        "city": "Sousa",
        "state": "PB",
        "district": "Estacao",
        "street": "Rua Deputado Lindolfo Pires",
        "zipcode": "58803-180"
    },
    {
        "city": "Sousa",
        "state": "PB",
        "district": "Estacao",
        "street": "Rua Conego Jose Viana",
        "zipcode": "58803-160"
    },
    {
        "city": "Sousa",
        "state": "PB",
        "district": "Estacao",
        "street": "Rua Djacir Marques Pinto",
        "zipcode": "58803-320"
    },
    {
        "city": "Sousa",
        "state": "PB",
        "district": "Angelim",
        "street": "Fazenda Fabiana",
        "zipcode": "58804-030"
    },
    {
        "city": "Sousa",
        "state": "PB",
        "district": "Sao Jose",
        "street": "Rua Dr Joao Soares",
        "zipcode": "58804-202"
    },
    {
        "city": "Sousa",
        "state": "PB",
        "district": "Sao Jose",
        "street": "Rua Nossa Senhora De Fatima",
        "zipcode": "58804-290"
    },
    {
        "city": "Sousa",
        "state": "PB",
        "district": "Jardim Brasilia",
        "street": "Fazenda Lagoa Dos Patos",
        "zipcode": "58808-230"
    },
    {
        "city": "Sousa",
        "state": "PB",
        "district": "Estacao",
        "street": "Rua Sargento Brasil",
        "zipcode": "58803-600"
    },
    {
        "city": "Sousa",
        "state": "PB",
        "district": "Alto Capanema",
        "street": "Rua Vicente Vieira",
        "zipcode": "58803-700"
    },
    {
        "city": "Sousa",
        "state": "PB",
        "district": "Estacao",
        "street": "Rua Jose Pereira Fontes",
        "zipcode": "58803-340"
    },
    {
        "city": "Sousa",
        "state": "PB",
        "district": "Estacao",
        "street": "Rua Nestorina Abrantes",
        "zipcode": "58803-220"
    },
    {
        "city": "Sousa",
        "state": "PB",
        "district": "Estacao",
        "street": "Praça Senador Rui Carneiro",
        "zipcode": "58803-310"
    },
    {
        "city": "Sousa",
        "state": "PB",
        "district": "Estacao",
        "street": "Rua Senhora Santana",
        "zipcode": "58803-410"
    },
    {
        "city": "Sousa",
        "state": "PB",
        "district": "Varzea Da Cruz",
        "street": "Rua Monsenhor Vicente Freitas",
        "zipcode": "58803-820"
    },
    {
        "city": "Sousa",
        "state": "PB",
        "district": "Alto Capanema",
        "street": "Rua Dr Jose Gadelha",
        "zipcode": "58803-760"
    },
    {
        "city": "Sousa",
        "state": "PB",
        "district": "Estacao",
        "street": "Rua Jose Vieira",
        "zipcode": "58803-280"
    },
    {
        "city": "Sousa",
        "state": "PB",
        "district": "Estreito",
        "street": "Rua Veronica Silveira",
        "zipcode": "58802-855"
    },
    {
        "city": "Sousa",
        "state": "PB",
        "district": "Sao Jose",
        "street": "Rua Luiz Virginio",
        "zipcode": "58804-204"
    },
    {
        "city": "Sousa",
        "state": "PB",
        "district": "Alto Capanema",
        "street": "Rua Tiradentes",
        "zipcode": "58803-740"
    },
    {
        "city": "Sousa",
        "state": "PB",
        "district": "Estacao",
        "street": "Rua Castro Alves",
        "zipcode": "58803-200"
    },
    {
        "city": "Sousa",
        "state": "PB",
        "district": "Estacao",
        "street": "Rua Sao Raimundo",
        "zipcode": "58803-470"
    },
    {
        "city": "Sousa",
        "state": "PB",
        "district": "Estacao",
        "street": "Praça Joaquim Pinto",
        "zipcode": "58803-350"
    },
    {
        "city": "Sousa",
        "state": "PB",
        "district": "Estreito",
        "street": "Rua Prof. Batista Leite",
        "zipcode": "58802-820"
    },
    {
        "city": "Sousa",
        "state": "PB",
        "district": "Alto Capanema",
        "street": "Rua Genesio Cambrans",
        "zipcode": "58803-650"
    },
    {
        "city": "Sousa",
        "state": "PB",
        "district": "Estacao",
        "street": "Rua Nossa Senhora Do Rosario",
        "zipcode": "58803-540"
    },
    {
        "city": "Sousa",
        "state": "PB",
        "district": "Estacao",
        "street": "Rua Tiradentes",
        "zipcode": "58803-270"
    },
    {
        "city": "Sousa",
        "state": "PB",
        "district": "Sao Jose",
        "street": "Conjunto Zu Silva",
        "zipcode": "58804-580"
    },
    {
        "city": "Sousa",
        "state": "PB",
        "district": "Estacao",
        "street": "Rua Coronel Isidro Rocha",
        "zipcode": "58803-500"
    },
    {
        "city": "Sousa",
        "state": "PB",
        "district": "Angelim",
        "street": "Rua Joao Moreira",
        "zipcode": "58804-020"
    },
    {
        "city": "Sousa",
        "state": "PB",
        "district": "Estacao",
        "street": "Rua Pedro Alvares Cabral",
        "zipcode": "58803-360"
    },
    {
        "city": "Sousa",
        "state": "PB",
        "district": "Estacao",
        "street": "Rua Almirante Tamandare",
        "zipcode": "58803-370"
    },
    {
        "city": "Sousa",
        "state": "PB",
        "district": "Alto Capanema",
        "street": "Rua Coronel Augusto Braga",
        "zipcode": "58803-660"
    },
    {
        "city": "Sousa",
        "state": "PB",
        "district": "Alto Capanema",
        "street": "Rua Joao Bosco Sarmento",
        "zipcode": "58803-690"
    },
    {
        "city": "Sousa",
        "state": "PB",
        "district": "Angelim",
        "street": "Conjunto Maria Rachel",
        "zipcode": "58804-060"
    },
    {
        "city": "Sousa",
        "state": "PB",
        "district": "Estacao",
        "street": "Rua Joana Darc",
        "zipcode": "58803-580"
    },
    {
        "city": "Sousa",
        "state": "PB",
        "district": "Alto Capanema",
        "street": "Rua Amadeu Silva",
        "zipcode": "58803-770"
    },
    {
        "city": "Sousa",
        "state": "PB",
        "district": "Estreito",
        "street": "Rua Dr Jose Gadelha",
        "zipcode": "58802-850"
    },
    {
        "city": "Sousa",
        "state": "PB",
        "district": "Sao Jose",
        "street": "Conjunto Dr Zeze Sarmento",
        "zipcode": "58804-490"
    },
    {
        "city": "Sousa",
        "state": "PB",
        "district": "Varzea Da Cruz",
        "street": "Rua Pedro Celeste",
        "zipcode": "58803-810"
    },
    {
        "city": "Sousa",
        "state": "PB",
        "district": "Alto Capanema",
        "street": "Rua Maria Emilia F. Sarmento",
        "zipcode": "58803-680"
    },
    {
        "city": "Sousa",
        "state": "PB",
        "district": "Alto Do Cruzeiro",
        "street": "Fazenda Riachao",
        "zipcode": "58806-290"
    },
    {
        "city": "Sousa",
        "state": "PB",
        "district": "Estacao",
        "street": "Rua Dom Pedro I",
        "zipcode": "58803-380"
    },
    {
        "city": "Sousa",
        "state": "PB",
        "district": "Angelim",
        "street": "Rua Da Lagoa",
        "zipcode": "58804-010"
    },
    {
        "city": "Sousa",
        "state": "PB",
        "district": "Alto Do Cruzeiro",
        "street": "Avenida Americo Dantas De Assis",
        "zipcode": "58806-040"
    },
    {
        "city": "Sousa",
        "state": "PB",
        "district": "Estacao",
        "street": "Rua Basilio Silva",
        "zipcode": "58803-240"
    },
    {
        "city": "Sousa",
        "state": "PB",
        "district": "Estacao",
        "street": "Rua Joaquim Nabuco",
        "zipcode": "58803-560"
    },
    {
        "city": "Sousa",
        "state": "PB",
        "district": "Alto Capanema",
        "street": "Rua Crizeuda Gadelha",
        "zipcode": "58803-640"
    },
    {
        "city": "Sousa",
        "state": "PB",
        "district": "Alto Capanema",
        "street": "Rua Bruno Figueiredo Pinto",
        "zipcode": "58803-780"
    },
    {
        "city": "Sousa",
        "state": "PB",
        "district": "Estreito",
        "street": "Rua Prof. Maria Eulina",
        "zipcode": "58802-840"
    },
    {
        "city": "Sousa",
        "state": "PB",
        "district": "Jardim Sorrilandia",
        "street": "Conjunto Jose Lins Do Rego",
        "zipcode": "58805-230"
    },
    {
        "city": "Sousa",
        "state": "PB",
        "district": "Estacao",
        "street": "Travessa Dom Pedro Ii",
        "zipcode": "58803-405"
    },
    {
        "city": "Sousa",
        "state": "PB",
        "district": "Estacao",
        "street": "Rua Dom Pedro Ii",
        "zipcode": "58803-400"
    },
    {
        "city": "Sousa",
        "state": "PB",
        "district": "Alto Capanema",
        "street": "Rua Primeiro De Maio",
        "zipcode": "58803-720"
    },
    {
        "city": "Sousa",
        "state": "PB",
        "district": "Angelim",
        "street": "Rua Domingos Afonso",
        "zipcode": "58804-040"
    },
    {
        "city": "Sousa",
        "state": "PB",
        "district": "Estacao",
        "street": "Rua Francisca M. De Abrantes",
        "zipcode": "58803-230"
    },
    {
        "city": "Sousa",
        "state": "PB",
        "district": "Estacao",
        "street": "Rua Tiburtino Afonso De Carvalho",
        "zipcode": "58803-460"
    },
    {
        "city": "Sousa",
        "state": "PB",
        "district": "Jardim Sorrilândia II",
        "street": "Rua Major João César de Castro",
        "zipcode": "58805-295"
    },
    {
        "city": "Sousa",
        "state": "PB",
        "district": "Alto do Cruzeiro",
        "street": "Rua Geraldo José de Lima",
        "zipcode": "58806-255"
    },
    {
        "city": "Sousa",
        "state": "PB",
        "district": "Jardim Santana",
        "street": "Rua Vicente Maciel",
        "zipcode": "58807-410"
    },
    {
        "city": "Sousa",
        "state": "PB",
        "district": "Centro",
        "street": "Rua Capitão Antônio Vieira",
        "zipcode": "58800-370"
    },
    {
        "city": "Sousa",
        "state": "PB",
        "district": "Jardim Sorrilândia I",
        "street": "Rua Assis Chateaubriand",
        "zipcode": "58805-000"
    },
    {
        "city": "Sousa",
        "state": "PB",
        "district": "Areias",
        "street": "Rua Francisco Alves de Morais",
        "zipcode": "58801-590"
    },
    {
        "city": "Sousa",
        "state": "PB",
        "district": "Jardim Sorrilândia II",
        "street": "Rua Nossa Senhora do Rosário",
        "zipcode": "58805-260"
    },
    {
        "city": "Sousa",
        "state": "PB",
        "district": "Jardim Sorrilândia III",
        "street": "Rua Nossa Senhora do Rosário",
        "zipcode": "58805-526"
    },
    {
        "city": "Sousa",
        "state": "PB",
        "district": "Alto do Capanema",
        "street": "Rua Boa Ventura Rocha",
        "zipcode": "58807-660"
    },
    {
        "city": "Sousa",
        "state": "PB",
        "district": "Jardim Sorrilândia II",
        "street": "Rua Francisco Paulino da Silva",
        "zipcode": "58805-263"
    },
    {
        "city": "Sousa",
        "state": "PB",
        "district": "Estação",
        "street": "Rua João Nobre",
        "zipcode": "58807-300"
    },
    {
        "city": "Sousa",
        "state": "PB",
        "district": "Jardim Iracema",
        "street": "Rua Severino Ferreira de Souza",
        "zipcode": "58807-095"
    },
    {
        "city": "Sousa",
        "state": "PB",
        "district": "Gato Preto",
        "street": "Rua Francisco Antônio Bezerra",
        "zipcode": "58802-198"
    },
    {
        "city": "Sousa",
        "state": "PB",
        "district": "Doutor Zezé",
        "street": "Travessa Jucely Gomes da Silva",
        "zipcode": "58804-413"
    },
    {
        "city": "Sousa",
        "state": "PB",
        "district": "São José",
        "street": "Rua João Trajano Sobrinho",
        "zipcode": "58804-275"
    },
    {
        "city": "Sousa",
        "state": "PB",
        "district": "Jardim Iracema",
        "street": "Rua Francisco Celeste",
        "zipcode": "58807-010"
    },
    {
        "city": "Sousa",
        "state": "PB",
        "district": "Maria Rachel",
        "street": "Rua Agacy Nunes Camboim",
        "zipcode": "58804-665"
    },
    {
        "city": "Sousa",
        "state": "PB",
        "district": "Alto do Cruzeiro",
        "street": "Rua Cícero Policarpo Furtado",
        "zipcode": "58806-030"
    },
    {
        "city": "Sousa",
        "state": "PB",
        "district": "Jardim Sorrilândia III",
        "street": "Rua Francisco Sérgio de Abrantes",
        "zipcode": "58805-500"
    },
    {
        "city": "Sousa",
        "state": "PB",
        "district": "Jardim Sorrilândia I",
        "street": "Travessa José Bonifácio",
        "zipcode": "58805-075"
    },
    {
        "city": "Sousa",
        "state": "PB",
        "district": "Alto do Cruzeiro",
        "street": "Avenida Manoel Francisco de Barros",
        "zipcode": "58806-110"
    },
    {
        "city": "Sousa",
        "state": "PB",
        "district": "Jardim Sorrilândia II",
        "street": "Rua Vereador Possidônio Queiroga",
        "zipcode": "58805-288"
    },
    {
        "city": "Sousa",
        "state": "PB",
        "district": "Andre Gadelha",
        "street": "Rua Luiz Lucelio Ferreira",
        "zipcode": "58806-560"
    },
    {
        "city": "Sousa",
        "state": "PB",
        "district": "Gato Preto",
        "street": "Conjunto Vicente Gadelha",
        "zipcode": "58802-220"
    },
    {
        "city": "Sousa",
        "state": "PB",
        "district": "Sao Jose",
        "street": "Rua Maria Dolores Marcelino Meira",
        "zipcode": "58804-320"
    },
    {
        "city": "Sousa",
        "state": "PB",
        "district": "Assis Garrido",
        "street": "Rua Israel Pordeus Garrido",
        "zipcode": "58800-732"
    },
    {
        "city": "Sousa",
        "state": "PB",
        "district": "Jardim Sorrilandia",
        "street": "Rua Emidio Sarmento De Sa",
        "zipcode": "58805-120"
    },
    {
        "city": "Sousa",
        "state": "PB",
        "district": "Jardim Santana",
        "street": "Rua Manoel Belarmino",
        "zipcode": "58804-610"
    },
    {
        "city": "Sousa",
        "state": "PB",
        "district": "Alto Do Cruzeiro",
        "street": "Rua Santo Amaro",
        "zipcode": "58806-300"
    },
    {
        "city": "Sousa",
        "state": "PB",
        "district": "Jardim Sorrilandia",
        "street": "Rua Fernando Cunha Lima",
        "zipcode": "58805-380"
    },
    {
        "city": "Sousa",
        "state": "PB",
        "district": "Jardim Dezire",
        "street": "Rua Silvio Porto",
        "zipcode": "58807-400"
    },
    {
        "city": "Sousa",
        "state": "PB",
        "district": "Jardim Sorrilandia",
        "street": "Rua Julio Estrela De Oliveira",
        "zipcode": "58805-100"
    },
    {
        "city": "Sousa",
        "state": "PB",
        "district": "Jardim Brasilia",
        "street": "Rua Castelo Branco",
        "zipcode": "58808-020"
    },
    {
        "city": "Sousa",
        "state": "PB",
        "district": "Jardim Iracema",
        "street": "Rua Maria Alves Pereira",
        "zipcode": "58807-025"
    },
    {
        "city": "Sousa",
        "state": "PB",
        "district": "Gato Preto",
        "street": "Rua Gilneto Barbosa da Silveira",
        "zipcode": "58802-032"
    },
    {
        "city": "Sousa",
        "state": "PB",
        "district": "Jardim Sorrilandia",
        "street": "Avenida Central",
        "zipcode": "58805-190"
    },
    {
        "city": "Sousa",
        "state": "PB",
        "district": "Augusto Braga",
        "street": "Rua Valdemiro Queiroga de Figueiredo",
        "zipcode": "58808-550"
    },
    {
        "city": "Sousa",
        "state": "PB",
        "district": "Bela Vista",
        "street": "Rua Lindalva Dias",
        "zipcode": "58806-710"
    },
    {
        "city": "Sousa",
        "state": "PB",
        "district": "Jardim Santana",
        "street": "Rua Maria Jose M. Silva",
        "zipcode": "58804-640"
    },
    {
        "city": "Sousa",
        "state": "PB",
        "district": "Jardim Sorrilandia",
        "street": "Rua Tiburtino Rabelo De Sa",
        "zipcode": "58805-080"
    },
    {
        "city": "Sousa",
        "state": "PB",
        "district": "Andre Gadelha",
        "street": "Rua Jose Neves Garrido",
        "zipcode": "58806-540"
    },
    {
        "city": "Sousa",
        "state": "PB",
        "district": "Jardim Sorrilandia",
        "street": "Rua Vereador Possidonio Queiroga",
        "zipcode": "58805-540"
    },
    {
        "city": "Sousa",
        "state": "PB",
        "district": "Jardim Santana",
        "street": "Rua Francisco Nogueira",
        "zipcode": "58804-630"
    },
    {
        "city": "Sousa",
        "state": "PB",
        "district": "Bela Vista",
        "street": "Rua Valdeciro Ribeiro De Sa",
        "zipcode": "58806-720"
    },
    {
        "city": "Sousa",
        "state": "PB",
        "district": "Jardim Santana",
        "street": "Rua Otaviano Fontes",
        "zipcode": "58804-620"
    },
    {
        "city": "Sousa",
        "state": "PB",
        "district": "Andre Gadelha",
        "street": "Rua Ivo Cordeiro Cavalcante",
        "zipcode": "58806-530"
    },
    {
        "city": "Sousa",
        "state": "PB",
        "district": "Alto Do Cruzeiro",
        "street": "Rua Padre Inacio Ribeiro De Melo",
        "zipcode": "58806-080"
    },
    {
        "city": "Sousa",
        "state": "PB",
        "district": "Jardim Sorrilândia III",
        "street": "Rua Francisco de Assis Gadelha de Queiroga",
        "zipcode": "58805-375"
    },
    {
        "city": "Sousa",
        "state": "PB",
        "district": "Jardim Sorrilândia II",
        "street": "Rua Maria de Fátima Barbosa Gomes",
        "zipcode": "58805-285"
    },
    {
        "city": "Sousa",
        "state": "PB",
        "district": "Jardim Sorrilandia",
        "street": "Rua Assis Melo Rocha",
        "zipcode": "58805-470"
    },
    {
        "city": "Sousa",
        "state": "PB",
        "district": "Andre Gadelha",
        "street": "Rua Henrique Evangelista China",
        "zipcode": "58806-520"
    },
    {
        "city": "Sousa",
        "state": "PB",
        "district": "Maria Rachel",
        "street": "Rua Tipógrafo Manoel Marques Mariz",
        "zipcode": "58804-700"
    },
    {
        "city": "Sousa",
        "state": "PB",
        "district": "Alto Do Cruzeiro",
        "street": "Rua Monsenhor Vicente Freitas",
        "zipcode": "58806-270"
    },
    {
        "city": "Sousa",
        "state": "PB",
        "district": "Jardim Iracema",
        "street": "Rua Fernando Henrique Lima de Queiroz",
        "zipcode": "58807-015"
    },
    {
        "city": "Sousa",
        "state": "PB",
        "district": "Jardim Brasilia",
        "street": "Rua Conego Oriel",
        "zipcode": "58808-240"
    },
    {
        "city": "Sousa",
        "state": "PB",
        "district": "Sao Jose",
        "street": "Rua Jose Gadelha Camarao",
        "zipcode": "58804-203"
    },
    {
        "city": "Sousa",
        "state": "PB",
        "district": "Andre Gadelha",
        "street": "Rua Jose Francisco De Sousa",
        "zipcode": "58806-550"
    },
    {
        "city": "Sousa",
        "state": "PB",
        "district": "Alto Capanema",
        "street": "Avenida Epitacio Pessoa",
        "zipcode": "58803-750"
    },
    {
        "city": "Sousa",
        "state": "PB",
        "district": "Jardim Bela Vista",
        "street": "Rua Antonio Damião",
        "zipcode": "58808-303"
    },
    {
        "city": "Sousa",
        "state": "PB",
        "district": "Varzea Da Cruz",
        "street": "Rua Vasco Da Gama",
        "zipcode": "58803-800"
    },
    {
        "city": "Sousa",
        "state": "PB",
        "district": "Gato Preto",
        "street": "Rua Francisco Neves De Sa",
        "zipcode": "58802-260"
    },
    {
        "city": "Sousa",
        "state": "PB",
        "district": "Estacao",
        "street": "Praça Da Estacao",
        "zipcode": "58803-315"
    },
    {
        "city": "Sousa",
        "state": "PB",
        "district": "Estacao",
        "street": "Rua Nossa Senhora Dos Remedios",
        "zipcode": "58803-210"
    },
    {
        "city": "Sousa",
        "state": "PB",
        "district": "Estacao",
        "street": "Rua Severino Ferreira",
        "zipcode": "58803-620"
    },
    {
        "city": "Sousa",
        "state": "PB",
        "district": "Gato Preto",
        "street": "Rua Domingos Figueiredo De Oliveira",
        "zipcode": "58802-150"
    },
    {
        "city": "Sousa",
        "state": "PB",
        "district": "Estacao",
        "street": "Rua Julio Ferreira",
        "zipcode": "58803-520"
    },
    {
        "city": "Sousa",
        "state": "PB",
        "district": "Varzea Da Cruz",
        "street": "Rua Azarias Sarmento Gadelha",
        "zipcode": "58803-830"
    },
    {
        "city": "Sousa",
        "state": "PB",
        "district": "Estacao",
        "street": "Rua Sao Paulo",
        "zipcode": "58803-480"
    },
    {
        "city": "Sousa",
        "state": "PB",
        "district": "Alto Capanema",
        "street": "Rua Prof. Clotilde Meira",
        "zipcode": "58803-710"
    },
    {
        "city": "Sousa",
        "state": "PB",
        "district": "Jardim Santana",
        "street": "Rua Espedito G. Dos Santos",
        "zipcode": "58804-650"
    },
    {
        "city": "Sousa",
        "state": "PB",
        "district": "Jardim Iracema",
        "street": "Rua Vicente Goncalves Neto",
        "zipcode": "58807-000"
    },
    {
        "city": "Sousa",
        "state": "PB",
        "district": "Andre Gadelha",
        "street": "Fazenda Calaboca",
        "zipcode": "58806-430"
    },
    {
        "city": "Sousa",
        "state": "PB",
        "district": "Sao Jose",
        "street": "Rua Joao Nobrega",
        "zipcode": "58804-300"
    },
    {
        "city": "Sousa",
        "state": "PB",
        "district": "Estacao",
        "street": "Rua Joaquim Pinto Neto",
        "zipcode": "58803-390"
    },
    {
        "city": "Sousa",
        "state": "PB",
        "district": "Gato Preto",
        "street": "Rua Francisco Antonio Bezerra",
        "zipcode": "58802-350"
    },
    {
        "city": "Sousa",
        "state": "PB",
        "district": "Alto Capanema",
        "street": "Rua Eladio Pedrosa De Melo",
        "zipcode": "58803-730"
    },
    {
        "city": "Sousa",
        "state": "PB",
        "district": "Estreito",
        "street": "Rua Coronel Nestor Jose Sarmento",
        "zipcode": "58802-810"
    },
    {
        "city": "Sousa",
        "state": "PB",
        "district": "Jardim Sorrilandia",
        "street": "Rua Lucia Nogueira Elias",
        "zipcode": "58805-160"
    },
    {
        "city": "Sousa",
        "state": "PB",
        "district": "Estacao",
        "street": "Jardim Francisco Cartaxo Correia De Sa",
        "zipcode": "58803-290"
    },
    {
        "city": "Sousa",
        "state": "PB",
        "district": "Alto do Cruzeiro",
        "street": "Rua Vicente Francisco do Nascimento",
        "zipcode": "58806-106"
    },
    {
        "city": "Sousa",
        "state": "PB",
        "district": "Maria Rachel",
        "street": "Rua José Evânio Marques de Abrantes",
        "zipcode": "58804-797"
    },
    {
        "city": "Sousa",
        "state": "PB",
        "district": "Guanabara",
        "street": "Rua Padre Isidro De Sa",
        "zipcode": "58801-230"
    },
    {
        "city": "Sousa",
        "state": "PB",
        "district": "Maria De Lourdes Sarmento Meira",
        "street": "Travessa Sargento Sarmento",
        "zipcode": "58802-725"
    },
    {
        "city": "Sousa",
        "state": "PB",
        "district": "Alto Capanema",
        "street": "Rua Vital Gomes De Sousa",
        "zipcode": "58803-670"
    },
    {
        "city": "Sousa",
        "state": "PB",
        "district": "Estacao",
        "street": "Rua Jose Benedito De Sousa",
        "zipcode": "58803-260"
    },
    {
        "city": "Sousa",
        "state": "PB",
        "district": "Alto do Cruzeiro",
        "street": "Rua Valdir ferreira de Sousa",
        "zipcode": "58806-242"
    },
    {
        "city": "Sousa",
        "state": "PB",
        "district": "Jardim Sorrilandia",
        "street": "Conjunto Frei Damiao",
        "zipcode": "58805-210"
    },
    {
        "city": "Sousa",
        "state": "PB",
        "district": "Jardim Santana",
        "street": "Rua Quatro De Outubro",
        "zipcode": "58804-600"
    },
    {
        "city": "Sousa",
        "state": "PB",
        "district": "Estacao",
        "street": "Rua Dr Jose Gadelha",
        "zipcode": "58803-170"
    },
    {
        "city": "Sousa",
        "state": "PB",
        "district": "Jardim Sorrilandia",
        "street": "Rua Presidente Juscelino Kubitschek",
        "zipcode": "58805-520"
    },
    {
        "city": "Sousa",
        "state": "PB",
        "district": "Andre Gadelha",
        "street": "Rua Dr Gustan Forte Medeiros",
        "zipcode": "58806-510"
    },
    {
        "city": "Sousa",
        "state": "PB",
        "district": "Maria De Lourdes Sarmento Meira",
        "street": "Rua Coronel Antonio Soares",
        "zipcode": "58802-670"
    }
]