[
    {
        "city": "Agudos",
        "state": "SP",
        "district": "",
        "street": "",
        "zipcode": "17120-000"
    },
    {
        "city": "Agudos",
        "state": "SP",
        "district": "Jardim Márcia II",
        "street": "Avenida João Wolber",
        "zipcode": "17123-100"
    },
    {
        "city": "Agudos",
        "state": "SP",
        "district": "Vila Honorina",
        "street": "Avenida Cleophano Pitaguari",
        "zipcode": "17123-020"
    },
    {
        "city": "Agudos",
        "state": "SP",
        "district": "Centro",
        "street": "Avenida Celidônio Neto",
        "zipcode": "17120-023"
    },
    {
        "city": "Agudos",
        "state": "SP",
        "district": "Jardim Santo Antônio",
        "street": "Avenida Cleophano Pitaguari",
        "zipcode": "17123-030"
    },
    {
        "city": "Agudos",
        "state": "SP",
        "district": "Vila Professor Simões",
        "street": "Avenida Gerônimo Bigarelli",
        "zipcode": "17120-086"
    },
    {
        "city": "Agudos",
        "state": "SP",
        "district": "Chácara Alvorada",
        "street": "Avenida Fernando Machado",
        "zipcode": "17132-004"
    },
    {
        "city": "Agudos",
        "state": "SP",
        "district": "Centro",
        "street": "Avenida Carlos Gomes",
        "zipcode": "17120-033"
    },
    {
        "city": "Agudos",
        "state": "SP",
        "district": "Vila Honorina",
        "street": "Avenida Egydio Freire Penteado",
        "zipcode": "17123-016"
    },
    {
        "city": "Agudos",
        "state": "SP",
        "district": "Jardim Vienense",
        "street": "Avenida Alfredo Pauletti",
        "zipcode": "17132-216"
    },
    {
        "city": "Agudos",
        "state": "SP",
        "district": "Parque Pampulha",
        "street": "Avenida Antonio Maria dos Santos Escada",
        "zipcode": "17132-356"
    },
    {
        "city": "Agudos",
        "state": "SP",
        "district": "Centro",
        "street": "Avenida Benedito Otoni",
        "zipcode": "17120-017"
    },
    {
        "city": "Agudos",
        "state": "SP",
        "district": "Jardim Márcia I",
        "street": "Avenida Doutor Ezequiel de Castro Guedes",
        "zipcode": "17123-050"
    },
    {
        "city": "Agudos",
        "state": "SP",
        "district": "Vila Professor Simões",
        "street": "Avenida Carlos Gomes",
        "zipcode": "17120-060"
    },
    {
        "city": "Agudos",
        "state": "SP",
        "district": "Jardim Santo Antônio",
        "street": "Avenida Egydio Freire Penteado",
        "zipcode": "17123-040"
    },
    {
        "city": "Agudos",
        "state": "SP",
        "district": "Jardim Cruzeiro",
        "street": "Avenida João Wolber",
        "zipcode": "17123-170"
    },
    {
        "city": "Agudos",
        "state": "SP",
        "district": "Jardim Europa",
        "street": "Avenida Joaquim Ortensi",
        "zipcode": "17129-072"
    },
    {
        "city": "Agudos",
        "state": "SP",
        "district": "Centro",
        "street": "Avenida Fernando Machado",
        "zipcode": "17120-015"
    },
    {
        "city": "Agudos",
        "state": "SP",
        "district": "Jardim São Vicente II",
        "street": "Avenida Gerônimo Bigarelli",
        "zipcode": "17120-126"
    },
    {
        "city": "Agudos",
        "state": "SP",
        "district": "Centro",
        "street": "Avenida João Travaini",
        "zipcode": "17120-039"
    },
    {
        "city": "Agudos",
        "state": "SP",
        "district": "Jardim Vienense",
        "street": "Avenida Hilário Ramos",
        "zipcode": "17132-210"
    },
    {
        "city": "Agudos",
        "state": "SP",
        "district": "Parque Pampulha",
        "street": "Avenida Alcides Escada",
        "zipcode": "17132-328"
    },
    {
        "city": "Agudos",
        "state": "SP",
        "district": "Vila Professor Simões",
        "street": "Avenida Braz Perni",
        "zipcode": "17120-098"
    },
    {
        "city": "Agudos",
        "state": "SP",
        "district": "Centro",
        "street": "Avenida Major Gasparino de Quadros",
        "zipcode": "17120-021"
    },
    {
        "city": "Agudos",
        "state": "SP",
        "district": "Centro (Domélia)",
        "street": "Avenida Therezinha Andreotti de Mattos",
        "zipcode": "17135-000"
    },
    {
        "city": "Agudos",
        "state": "SP",
        "district": "Jardim Santo Antônio",
        "street": "Rua Affonso Alcoba Ruiz",
        "zipcode": "17123-044"
    },
    {
        "city": "Agudos",
        "state": "SP",
        "district": "Vila Professor Simões",
        "street": "Avenida Faustino Ribeiro",
        "zipcode": "17120-058"
    },
    {
        "city": "Agudos",
        "state": "SP",
        "district": "Jardim Bela Vista",
        "street": "Avenida José Bonifácio",
        "zipcode": "17120-192"
    },
    {
        "city": "Agudos",
        "state": "SP",
        "district": "Centro",
        "street": "Avenida Joaquim Ferreira Souto",
        "zipcode": "17120-019"
    },
    {
        "city": "Agudos",
        "state": "SP",
        "district": "Vila Professor Simões",
        "street": "Avenida Gonçalves Dias",
        "zipcode": "17120-100"
    },
    {
        "city": "Agudos",
        "state": "SP",
        "district": "Vila Professor Simões",
        "street": "Avenida João Pessoa",
        "zipcode": "17120-052"
    },
    {
        "city": "Agudos",
        "state": "SP",
        "district": "Vila Professor Simões",
        "street": "Avenida Carlos Alberto Repke",
        "zipcode": "17120-104"
    },
    {
        "city": "Agudos",
        "state": "SP",
        "district": "Jardim Canaã",
        "street": "Avenida Emanuel Octaviani",
        "zipcode": "17128-110"
    },
    {
        "city": "Agudos",
        "state": "SP",
        "district": "Residencial Parque Smeralda",
        "street": "Rua Ada Barbanti",
        "zipcode": "17128-086"
    },
    {
        "city": "Agudos",
        "state": "SP",
        "district": "Vila Professor Simões",
        "street": "Avenida Carlos Travain",
        "zipcode": "17120-088"
    },
    {
        "city": "Agudos",
        "state": "SP",
        "district": "Vila Santa Cecilia",
        "street": "Avenida Sebastiana Leite",
        "zipcode": "17132-034"
    },
    {
        "city": "Agudos",
        "state": "SP",
        "district": "Vila Professor Simões",
        "street": "Avenida José Bonifácio",
        "zipcode": "17120-094"
    },
    {
        "city": "Agudos",
        "state": "SP",
        "district": "Vila Andreotti",
        "street": "Avenida Sebastiana Leite",
        "zipcode": "17120-378"
    },
    {
        "city": "Agudos",
        "state": "SP",
        "district": "Jardim São Vicente II",
        "street": "Avenida Carlos Travain",
        "zipcode": "17120-124"
    },
    {
        "city": "Agudos",
        "state": "SP",
        "district": "Vila Professor Simões",
        "street": "Avenida Elias Ayub",
        "zipcode": "17120-090"
    },
    {
        "city": "Agudos",
        "state": "SP",
        "district": "Residencial Parque Smeralda",
        "street": "Avenida Hanna Assad Ayub",
        "zipcode": "17128-092"
    },
    {
        "city": "Agudos",
        "state": "SP",
        "district": "Vila Professor Simões",
        "street": "Avenida João Travaini",
        "zipcode": "17120-054"
    },
    {
        "city": "Agudos",
        "state": "SP",
        "district": "Residencial Parque Smeralda",
        "street": "Avenida Newton DAvilla",
        "zipcode": "17128-070"
    },
    {
        "city": "Agudos",
        "state": "SP",
        "district": "Centro",
        "street": "Avenida Sargento Andirás",
        "zipcode": "17120-031"
    },
    {
        "city": "Agudos",
        "state": "SP",
        "district": "Vila Santa Terezinha",
        "street": "Avenida Joaquim Ferreira Souto",
        "zipcode": "17120-388"
    },
    {
        "city": "Agudos",
        "state": "SP",
        "district": "Jardim Márcia I",
        "street": "Avenida Said Handen",
        "zipcode": "17123-066"
    },
    {
        "city": "Agudos",
        "state": "SP",
        "district": "Vila Santa Terezinha",
        "street": "Avenida Major Gasparino de Quadros",
        "zipcode": "17120-384"
    },
    {
        "city": "Agudos",
        "state": "SP",
        "district": "Jardim Nilce",
        "street": "Avenida Rubens Venturini",
        "zipcode": "17132-308"
    },
    {
        "city": "Agudos",
        "state": "SP",
        "district": "Jardim Europa",
        "street": "Avenida Dirceu Luiz Portela",
        "zipcode": "17129-086"
    },
    {
        "city": "Agudos",
        "state": "SP",
        "district": "Distrito Industrial Hatsuta",
        "street": "Avenida Sebastião Ferreira de Barros",
        "zipcode": "17123-228"
    },
    {
        "city": "Agudos",
        "state": "SP",
        "district": "Jardim Bela Vista",
        "street": "Avenida Braz Perni",
        "zipcode": "17120-210"
    },
    {
        "city": "Agudos",
        "state": "SP",
        "district": "Vila Santa Cecilia",
        "street": "Avenida Rui Barbosa",
        "zipcode": "17132-036"
    },
    {
        "city": "Agudos",
        "state": "SP",
        "district": "Jardim Europa",
        "street": "Avenida Joaquim Godiano",
        "zipcode": "17129-056"
    },
    {
        "city": "Agudos",
        "state": "SP",
        "district": "Vila Santa Cecilia",
        "street": "Avenida Celidônio Neto",
        "zipcode": "17132-030"
    },
    {
        "city": "Agudos",
        "state": "SP",
        "district": "Vila Santa Cecilia",
        "street": "Avenida Sargento Andirás",
        "zipcode": "17132-044"
    },
    {
        "city": "Agudos",
        "state": "SP",
        "district": "Jardim Márcia II",
        "street": "Rua Antônio Crescione",
        "zipcode": "17123-084"
    },
    {
        "city": "Agudos",
        "state": "SP",
        "district": "Jardim Santa Angelina",
        "street": "Rua Alberto Escada",
        "zipcode": "17123-164"
    },
    {
        "city": "Agudos",
        "state": "SP",
        "district": "Centro",
        "street": "Avenida Odon Pessoa de Albuquerque",
        "zipcode": "17120-029"
    },
    {
        "city": "Agudos",
        "state": "SP",
        "district": "Centro",
        "street": "Avenida Rui Barbosa",
        "zipcode": "17120-027"
    },
    {
        "city": "Agudos",
        "state": "SP",
        "district": "Vila Andreotti",
        "street": "Avenida Rui Barbosa",
        "zipcode": "17120-376"
    },
    {
        "city": "Agudos",
        "state": "SP",
        "district": "Vila Santa Terezinha",
        "street": "Rua Ádamo Sozzi",
        "zipcode": "17120-396"
    },
    {
        "city": "Agudos",
        "state": "SP",
        "district": "Jardim Europa",
        "street": "Avenida José Luiz Filho",
        "zipcode": "17129-084"
    },
    {
        "city": "Agudos",
        "state": "SP",
        "district": "Distrito Industrial I",
        "street": "Avenida Monsenhor José Maria da Silva Paes",
        "zipcode": "17123-202"
    },
    {
        "city": "Agudos",
        "state": "SP",
        "district": "Centro",
        "street": "Avenida Rangel Pestana",
        "zipcode": "17120-037"
    },
    {
        "city": "Agudos",
        "state": "SP",
        "district": "Distrito Industrial Hatsuta",
        "street": "Avenida Marginal Vereador Delfino Tendolo",
        "zipcode": "17123-220"
    },
    {
        "city": "Agudos",
        "state": "SP",
        "district": "Jardim Márcia I",
        "street": "Rua Antonieta Diório Catini",
        "zipcode": "17123-064"
    },
    {
        "city": "Agudos",
        "state": "SP",
        "district": "Jardim Europa",
        "street": "Avenida Prefeito Doutor Manoel Lopes",
        "zipcode": "17129-032"
    },
    {
        "city": "Agudos",
        "state": "SP",
        "district": "Jardim Europa",
        "street": "Avenida Vereador Octacilio Lodeiro",
        "zipcode": "17129-052"
    },
    {
        "city": "Agudos",
        "state": "SP",
        "district": "Residencial Bem Viver",
        "street": "Rua Angelo Sandri",
        "zipcode": "17129-090"
    },
    {
        "city": "Agudos",
        "state": "SP",
        "district": "Vila Professor Simões",
        "street": "Avenida Rangel Pestana",
        "zipcode": "17120-056"
    },
    {
        "city": "Agudos",
        "state": "SP",
        "district": "Núcleo Doutor João Ferreira Silveira",
        "street": "Rua Antônio Galego",
        "zipcode": "17129-174"
    },
    {
        "city": "Agudos",
        "state": "SP",
        "district": "Vila Honorina",
        "street": "Rua Arcângelo Napoleone",
        "zipcode": "17123-010"
    },
    {
        "city": "Agudos",
        "state": "SP",
        "district": "Núcleo Vereador Mário Campesato",
        "street": "Avenida Rubens Venturini",
        "zipcode": "17132-290"
    },
    {
        "city": "Agudos",
        "state": "SP",
        "district": "Residencial e Comercial Santanna",
        "street": "Rua Alcides Valêncio",
        "zipcode": "17128-028"
    },
    {
        "city": "Agudos",
        "state": "SP",
        "district": "Jardim Europa",
        "street": "Avenida Wandyrcin Cantador Cavalari",
        "zipcode": "17129-080"
    },
    {
        "city": "Agudos",
        "state": "SP",
        "district": "Vila Honorina",
        "street": "Rua Affonso Alcoba Ruiz",
        "zipcode": "17123-014"
    },
    {
        "city": "Agudos",
        "state": "SP",
        "district": "Vila Andreotti",
        "street": "Avenida Odon Pessoa de Albuquerque",
        "zipcode": "17120-372"
    },
    {
        "city": "Agudos",
        "state": "SP",
        "district": "Parque Pampulha",
        "street": "Avenida Prefeito Doutor Manoel Lopes",
        "zipcode": "17132-310"
    },
    {
        "city": "Agudos",
        "state": "SP",
        "district": "Chácara Alvorada",
        "street": "Rua Andrade Neves",
        "zipcode": "17132-008"
    },
    {
        "city": "Agudos",
        "state": "SP",
        "district": "Vila Santa Cecilia",
        "street": "Rua Andrade Neves",
        "zipcode": "17132-022"
    },
    {
        "city": "Agudos",
        "state": "SP",
        "district": "Vila Santa Cecilia",
        "street": "Avenida Odon Pessoa de Albuquerque",
        "zipcode": "17132-042"
    },
    {
        "city": "Agudos",
        "state": "SP",
        "district": "Jardim Santo Antônio",
        "street": "Avenida Odorico de Castro Pompéia",
        "zipcode": "17123-036"
    },
    {
        "city": "Agudos",
        "state": "SP",
        "district": "Residencial Centenário Park",
        "street": "Avenida Sebastião Mendonça",
        "zipcode": "17129-020"
    },
    {
        "city": "Agudos",
        "state": "SP",
        "district": "Núcleo Doutor João Ferreira Silveira",
        "street": "Rua Cezar de Conti",
        "zipcode": "17129-164"
    },
    {
        "city": "Agudos",
        "state": "SP",
        "district": "Núcleo Doutor João Ferreira Silveira",
        "street": "Rua Antônio Crês",
        "zipcode": "17129-160"
    },
    {
        "city": "Agudos",
        "state": "SP",
        "district": "Jardim Vienense",
        "street": "Rua Amâncio Torres da Silva",
        "zipcode": "17132-234"
    },
    {
        "city": "Agudos",
        "state": "SP",
        "district": "Jardim São Vicente I",
        "street": "Rua Afonso Lima dos Santos",
        "zipcode": "17120-140"
    },
    {
        "city": "Agudos",
        "state": "SP",
        "district": "Residencial e Comercial Santanna",
        "street": "Rua Alexandre Cortez",
        "zipcode": "17128-024"
    },
    {
        "city": "Agudos",
        "state": "SP",
        "district": "Vila Avato",
        "street": "Rua Barbacena",
        "zipcode": "17132-086"
    },
    {
        "city": "Agudos",
        "state": "SP",
        "district": "Vila São Faustino",
        "street": "Rua Antônio Porcino Filho",
        "zipcode": "17120-410"
    },
    {
        "city": "Agudos",
        "state": "SP",
        "district": "Jardim Danúbio",
        "street": "Rua Aurea Damaceno Zebini",
        "zipcode": "17132-246"
    },
    {
        "city": "Agudos",
        "state": "SP",
        "district": "Núcleo Doutor João Ferreira Silveira",
        "street": "Rua Audálio Soares de Almeida",
        "zipcode": "17129-156"
    },
    {
        "city": "Agudos",
        "state": "SP",
        "district": "Jardim Santa Angelina",
        "street": "Rua Cypriano Rodrigues da Silva",
        "zipcode": "17123-122"
    },
    {
        "city": "Agudos",
        "state": "SP",
        "district": "Vila São Faustino",
        "street": "Rua Dilson Silva de Oliveira",
        "zipcode": "17120-404"
    },
    {
        "city": "Agudos",
        "state": "SP",
        "district": "Chácaras Nova Califórnia",
        "street": "Rua das Gameleiras",
        "zipcode": "17125-032"
    },
    {
        "city": "Agudos",
        "state": "SP",
        "district": "Jardim Santa Angelina",
        "street": "Rua das Zinias",
        "zipcode": "17123-134"
    },
    {
        "city": "Agudos",
        "state": "SP",
        "district": "Residencial Parque Smeralda",
        "street": "Rua Anuar José Antônio",
        "zipcode": "17128-078"
    },
    {
        "city": "Agudos",
        "state": "SP",
        "district": "Jardim Vienense",
        "street": "Rua Antonio Feitosa dos Santos",
        "zipcode": "17132-230"
    },
    {
        "city": "Agudos",
        "state": "SP",
        "district": "Jardim Vienense",
        "street": "Rua Divino de Jesus",
        "zipcode": "17132-220"
    },
    {
        "city": "Agudos",
        "state": "SP",
        "district": "Jardim Europa",
        "street": "Rua Ângelo Zonta",
        "zipcode": "17129-036"
    },
    {
        "city": "Agudos",
        "state": "SP",
        "district": "Parque Santo Antônio",
        "street": "Rua Cuiabá",
        "zipcode": "17120-170"
    },
    {
        "city": "Agudos",
        "state": "SP",
        "district": "Vila Honorina",
        "street": "Rua Alfredo Penna",
        "zipcode": "17123-026"
    },
    {
        "city": "Agudos",
        "state": "SP",
        "district": "Jardim Márcia II",
        "street": "Rua Augusto Siqueira",
        "zipcode": "17123-080"
    },
    {
        "city": "Agudos",
        "state": "SP",
        "district": "Chácaras Nova Califórnia",
        "street": "Rua das Paineiras",
        "zipcode": "17125-040"
    },
    {
        "city": "Agudos",
        "state": "SP",
        "district": "Centro (Domélia)",
        "street": "Rua Dom Pedro I",
        "zipcode": "17135-014"
    },
    {
        "city": "Agudos",
        "state": "SP",
        "district": "Jardim Santa Cândida",
        "street": "Rua Antônia Alves Ferreira",
        "zipcode": "17120-336"
    },
    {
        "city": "Agudos",
        "state": "SP",
        "district": "Parque Pampulha",
        "street": "Rua Dácio Delázari",
        "zipcode": "17132-360"
    },
    {
        "city": "Agudos",
        "state": "SP",
        "district": "Vila Avato",
        "street": "Rua Armando Cândido",
        "zipcode": "17132-072"
    },
    {
        "city": "Agudos",
        "state": "SP",
        "district": "Vila Santa Terezinha",
        "street": "Rua Décio Antônio Balesta",
        "zipcode": "17120-386"
    },
    {
        "city": "Agudos",
        "state": "SP",
        "district": "Jardim Bela Vista",
        "street": "Rua Álvaro Ortelan",
        "zipcode": "17120-204"
    },
    {
        "city": "Agudos",
        "state": "SP",
        "district": "Jardim Canaã",
        "street": "Rua Antonio Mauri da Silva",
        "zipcode": "17128-128"
    },
    {
        "city": "Agudos",
        "state": "SP",
        "district": "Jardim Europa",
        "street": "Rua Antonio de Oliveira Valim",
        "zipcode": "17129-048"
    },
    {
        "city": "Agudos",
        "state": "SP",
        "district": "Chácara Alvorada",
        "street": "Rua Coripheu Pereira de Moraes",
        "zipcode": "17132-010"
    },
    {
        "city": "Agudos",
        "state": "SP",
        "district": "Jardim Santa Cândida",
        "street": "Rua Aref Saab",
        "zipcode": "17120-324"
    },
    {
        "city": "Agudos",
        "state": "SP",
        "district": "Vila São Faustino",
        "street": "Rua do Joá",
        "zipcode": "17120-402"
    },
    {
        "city": "Agudos",
        "state": "SP",
        "district": "Jardim Cruzeiro",
        "street": "Rua Arsênio de Conti",
        "zipcode": "17123-174"
    },
    {
        "city": "Agudos",
        "state": "SP",
        "district": "Vila Honorina",
        "street": "Rua Doutor Francisco Peixoto Gomide",
        "zipcode": "17123-022"
    },
    {
        "city": "Agudos",
        "state": "SP",
        "district": "Parque Pampulha",
        "street": "Rua Carlos Alberto Cabreira Machado",
        "zipcode": "17132-358"
    },
    {
        "city": "Agudos",
        "state": "SP",
        "district": "Núcleo Doutor João Ferreira Silveira",
        "street": "Rua Armando Malakowski",
        "zipcode": "17129-158"
    },
    {
        "city": "Agudos",
        "state": "SP",
        "district": "Chácaras Nova Califórnia",
        "street": "Rua dos Cajazeiras",
        "zipcode": "17125-048"
    },
    {
        "city": "Agudos",
        "state": "SP",
        "district": "Jardim Márcia I",
        "street": "Rua Augusto Siqueira",
        "zipcode": "17123-058"
    },
    {
        "city": "Agudos",
        "state": "SP",
        "district": "Vila Santa Cecilia",
        "street": "Rua Capitão Francisco Avato",
        "zipcode": "17132-024"
    },
    {
        "city": "Agudos",
        "state": "SP",
        "district": "Vila Professor Simões",
        "street": "Rua Arlindo Delfino Simões",
        "zipcode": "17120-068"
    },
    {
        "city": "Agudos",
        "state": "SP",
        "district": "Chácaras Nova Califórnia",
        "street": "Rua dos Cedros",
        "zipcode": "17125-034"
    },
    {
        "city": "Agudos",
        "state": "SP",
        "district": "Jardim Vienense",
        "street": "Rua Cristina Conceição Marques de Oliveira",
        "zipcode": "17132-232"
    },
    {
        "city": "Agudos",
        "state": "SP",
        "district": "Vila Avato",
        "street": "Rua Dionísio SantAnna",
        "zipcode": "17132-084"
    },
    {
        "city": "Agudos",
        "state": "SP",
        "district": "Jardim Europa",
        "street": "Rua Benedita Miguel",
        "zipcode": "17129-034"
    },
    {
        "city": "Agudos",
        "state": "SP",
        "district": "Jardim Santa Cândida",
        "street": "Rua Arlindo Coneglian",
        "zipcode": "17120-332"
    },
    {
        "city": "Agudos",
        "state": "SP",
        "district": "Jardim São Vicente I",
        "street": "Rua Clariciana Barbosa de Godói",
        "zipcode": "17120-148"
    },
    {
        "city": "Agudos",
        "state": "SP",
        "district": "Jardim Maria Luiza",
        "street": "Rua Augusto de Conti",
        "zipcode": "17120-430"
    },
    {
        "city": "Agudos",
        "state": "SP",
        "district": "Chácaras Nova Califórnia",
        "street": "Rua das Seringueiras",
        "zipcode": "17125-030"
    },
    {
        "city": "Agudos",
        "state": "SP",
        "district": "Residencial Bem Viver",
        "street": "Rua Ariosto Gonçalves Barca",
        "zipcode": "17129-134"
    },
    {
        "city": "Agudos",
        "state": "SP",
        "district": "Jardim Cruzeiro",
        "street": "Rua Celso Morato Leite",
        "zipcode": "17123-172"
    },
    {
        "city": "Agudos",
        "state": "SP",
        "district": "Chácaras Nova Califórnia",
        "street": "Rua dos Mandacarus",
        "zipcode": "17125-038"
    },
    {
        "city": "Agudos",
        "state": "SP",
        "district": "Residencial Bem Viver",
        "street": "Rua Caetano Bianchi",
        "zipcode": "17129-128"
    },
    {
        "city": "Agudos",
        "state": "SP",
        "district": "Jardim Santa Angelina",
        "street": "Rua Cristóvão Campos",
        "zipcode": "17123-142"
    },
    {
        "city": "Agudos",
        "state": "SP",
        "district": "Vila Professor Simões",
        "street": "Rua Botucatu",
        "zipcode": "17120-102"
    },
    {
        "city": "Agudos",
        "state": "SP",
        "district": "Vila Santa Cecilia",
        "street": "Rua Doutor Fábio Leite Guimarães",
        "zipcode": "17132-020"
    },
    {
        "city": "Agudos",
        "state": "SP",
        "district": "Jardim Canaã",
        "street": "Rua Dirceu Luciano",
        "zipcode": "17128-104"
    },
    {
        "city": "Agudos",
        "state": "SP",
        "district": "Residencial e Comercial Santanna",
        "street": "Rua Dilce Mariano da Silva",
        "zipcode": "17128-032"
    },
    {
        "city": "Agudos",
        "state": "SP",
        "district": "Jardim São Vicente II",
        "street": "Rua Clariciana Barbosa de Godói",
        "zipcode": "17120-128"
    },
    {
        "city": "Agudos",
        "state": "SP",
        "district": "Chácaras Nova Califórnia",
        "street": "Rua dos Tarumãs",
        "zipcode": "17125-044"
    },
    {
        "city": "Agudos",
        "state": "SP",
        "district": "Chácaras Nova Califórnia",
        "street": "Rua dos Jequitibás",
        "zipcode": "17125-042"
    },
    {
        "city": "Agudos",
        "state": "SP",
        "district": "Parque Santo Antônio",
        "street": "Rua Bela Vista",
        "zipcode": "17120-178"
    },
    {
        "city": "Agudos",
        "state": "SP",
        "district": "Parque Pampulha",
        "street": "Rua Budapeste",
        "zipcode": "17132-368"
    },
    {
        "city": "Agudos",
        "state": "SP",
        "district": "Chácara Alvorada",
        "street": "Rua Doutor Fábio Leite Guimarães",
        "zipcode": "17132-006"
    },
    {
        "city": "Agudos",
        "state": "SP",
        "district": "Residencial Parque Smeralda",
        "street": "Rua Camilo de Conti",
        "zipcode": "17128-074"
    },
    {
        "city": "Agudos",
        "state": "SP",
        "district": "Parque Pampulha",
        "street": "Rua Dionízio Dalbeto",
        "zipcode": "17132-320"
    },
    {
        "city": "Agudos",
        "state": "SP",
        "district": "Parque Santo Antônio",
        "street": "Rua Belo Horizonte",
        "zipcode": "17120-174"
    },
    {
        "city": "Agudos",
        "state": "SP",
        "district": "Jardim Santa Cândida",
        "street": "Rua Fernando Martim Martim",
        "zipcode": "17120-344"
    },
    {
        "city": "Agudos",
        "state": "SP",
        "district": "Jardim Europa",
        "street": "Rua Ednea Aparecida Bueno",
        "zipcode": "17129-070"
    },
    {
        "city": "Agudos",
        "state": "SP",
        "district": "Vila Professor Simões",
        "street": "Rua Dona Julia de Almeida Azevedo",
        "zipcode": "17120-078"
    },
    {
        "city": "Agudos",
        "state": "SP",
        "district": "Vila Professor Simões",
        "street": "Rua Frei Sebastião Ellebrachp",
        "zipcode": "17120-084"
    },
    {
        "city": "Agudos",
        "state": "SP",
        "district": "Chácaras Nova Califórnia",
        "street": "Rua dos Eucaliptos",
        "zipcode": "17125-046"
    },
    {
        "city": "Agudos",
        "state": "SP",
        "district": "Núcleo Vereador Mário Campesato",
        "street": "Rua Elias Garcia",
        "zipcode": "17132-280"
    },
    {
        "city": "Agudos",
        "state": "SP",
        "district": "Recanto dos Nobres I",
        "street": "Rua Doutor Jorge Ayub",
        "zipcode": "17125-002"
    },
    {
        "city": "Agudos",
        "state": "SP",
        "district": "Jardim São Vicente II",
        "street": "Rua Frei Sebastião Ellebrachp",
        "zipcode": "17120-130"
    },
    {
        "city": "Agudos",
        "state": "SP",
        "district": "Jardim Cruzeiro",
        "street": "Rua Frederico Pagani",
        "zipcode": "17123-178"
    },
    {
        "city": "Agudos",
        "state": "SP",
        "district": "Jardim Santa Angelina",
        "street": "Rua Fausto Delazari",
        "zipcode": "17123-136"
    },
    {
        "city": "Agudos",
        "state": "SP",
        "district": "Núcleo Vereador Mário Campesato",
        "street": "Rua Emílio da Riva",
        "zipcode": "17132-282"
    },
    {
        "city": "Agudos",
        "state": "SP",
        "district": "Jardim Santa Angelina",
        "street": "Rua dos Gladiolos",
        "zipcode": "17123-130"
    },
    {
        "city": "Agudos",
        "state": "SP",
        "district": "Recanto dos Nobres I",
        "street": "Rua Doutora Maria Virginia Ribeiro Rasetto",
        "zipcode": "17125-004"
    },
    {
        "city": "Agudos",
        "state": "SP",
        "district": "Parque Santo Antônio",
        "street": "Rua Goiânia",
        "zipcode": "17120-168"
    },
    {
        "city": "Agudos",
        "state": "SP",
        "district": "Jardim Cruzeiro",
        "street": "Rua Francisco Alves Barbosa",
        "zipcode": "17123-192"
    },
    {
        "city": "Agudos",
        "state": "SP",
        "district": "Vila Honorina",
        "street": "Rua Elmo Benetti",
        "zipcode": "17123-004"
    },
    {
        "city": "Agudos",
        "state": "SP",
        "district": "Distrito Industrial Hatsuta",
        "street": "Rua Hugo Bombonatti",
        "zipcode": "17123-236"
    },
    {
        "city": "Agudos",
        "state": "SP",
        "district": "Centro (Domélia)",
        "street": "Rua Dom Pedro II",
        "zipcode": "17135-012"
    },
    {
        "city": "Agudos",
        "state": "SP",
        "district": "Jardim Márcia II",
        "street": "Rua Francisco Placco",
        "zipcode": "17123-086"
    },
    {
        "city": "Agudos",
        "state": "SP",
        "district": "Residencial e Comercial Santanna",
        "street": "Rua Engenheiro Benedito Carlos da Silva Machado",
        "zipcode": "17128-036"
    },
    {
        "city": "Agudos",
        "state": "SP",
        "district": "Parque Santo Antônio",
        "street": "Rua Itú",
        "zipcode": "17120-166"
    },
    {
        "city": "Agudos",
        "state": "SP",
        "district": "Parque Pampulha",
        "street": "Rua Grécia",
        "zipcode": "17132-354"
    },
    {
        "city": "Agudos",
        "state": "SP",
        "district": "Vila Andreotti",
        "street": "Rua Fortunato Andreotti",
        "zipcode": "17120-374"
    },
    {
        "city": "Agudos",
        "state": "SP",
        "district": "Vila Professor Simões",
        "street": "Rua Joaquim Rondina",
        "zipcode": "17120-064"
    },
    {
        "city": "Agudos",
        "state": "SP",
        "district": "Jardim Márcia I",
        "street": "Rua Francisco Placco",
        "zipcode": "17123-052"
    },
    {
        "city": "Agudos",
        "state": "SP",
        "district": "Parque Pampulha",
        "street": "Rua Hugo Caldieri Luciano",
        "zipcode": "17132-340"
    },
    {
        "city": "Agudos",
        "state": "SP",
        "district": "Residencial Bem Viver",
        "street": "Rua Emilio Tendolo",
        "zipcode": "17129-098"
    },
    {
        "city": "Agudos",
        "state": "SP",
        "district": "Jardim Márcia II",
        "street": "Rua Ermelinda Fantini Pereira",
        "zipcode": "17123-096"
    },
    {
        "city": "Agudos",
        "state": "SP",
        "district": "Núcleo Doutor João Ferreira Silveira",
        "street": "Rua José Antônio Lanzoni",
        "zipcode": "17129-142"
    },
    {
        "city": "Agudos",
        "state": "SP",
        "district": "Jardim Santa Angelina",
        "street": "Rua Helena Gotô",
        "zipcode": "17123-152"
    },
    {
        "city": "Agudos",
        "state": "SP",
        "district": "Residencial Bem Viver",
        "street": "Rua Izete Garcia Travain",
        "zipcode": "17129-124"
    },
    {
        "city": "Agudos",
        "state": "SP",
        "district": "Vila Malvina",
        "street": "Rua Francisco Lopes Rubio",
        "zipcode": "17128-014"
    },
    {
        "city": "Agudos",
        "state": "SP",
        "district": "Jardim Danúbio",
        "street": "Rua Geraldo Santiago",
        "zipcode": "17132-244"
    },
    {
        "city": "Agudos",
        "state": "SP",
        "district": "Jardim Cruzeiro",
        "street": "Rua Guido Corradi",
        "zipcode": "17123-190"
    },
    {
        "city": "Agudos",
        "state": "SP",
        "district": "Residencial e Comercial Santanna",
        "street": "Rua Eleonor Lopes Neves Antonio",
        "zipcode": "17128-040"
    },
    {
        "city": "Agudos",
        "state": "SP",
        "district": "Parque Pampulha",
        "street": "Rua Francisco Jerônymo Lopes",
        "zipcode": "17132-334"
    },
    {
        "city": "Agudos",
        "state": "SP",
        "district": "Vila Professor Simões",
        "street": "Rua General Osório",
        "zipcode": "17120-092"
    },
    {
        "city": "Agudos",
        "state": "SP",
        "district": "Parque Pampulha",
        "street": "Rua Ida Vidalli Mazzoni",
        "zipcode": "17132-326"
    },
    {
        "city": "Agudos",
        "state": "SP",
        "district": "Vila Santa Cecilia",
        "street": "Rua Francisco Benjamim",
        "zipcode": "17132-046"
    },
    {
        "city": "Agudos",
        "state": "SP",
        "district": "Jardim Santa Angelina",
        "street": "Rua Frederico Paludetto",
        "zipcode": "17123-154"
    },
    {
        "city": "Agudos",
        "state": "SP",
        "district": "Distrito Industrial I",
        "street": "Rua José André Garrido",
        "zipcode": "17123-204"
    },
    {
        "city": "Agudos",
        "state": "SP",
        "district": "Residencial Centenário Park",
        "street": "Rua Evaldo Hellinger",
        "zipcode": "17129-010"
    },
    {
        "city": "Agudos",
        "state": "SP",
        "district": "Jardim Canaã",
        "street": "Rua Geraldo Mazzoni",
        "zipcode": "17128-118"
    },
    {
        "city": "Agudos",
        "state": "SP",
        "district": "Chácaras City",
        "street": "Rua Gabriela Camargo Brega Pereira",
        "zipcode": "17125-024"
    },
    {
        "city": "Agudos",
        "state": "SP",
        "district": "Jardim Danúbio",
        "street": "Rua Honorato Bazzo",
        "zipcode": "17132-276"
    },
    {
        "city": "Agudos",
        "state": "SP",
        "district": "Residencial Bem Viver",
        "street": "Rua Hamilton Caldieri",
        "zipcode": "17129-130"
    },
    {
        "city": "Agudos",
        "state": "SP",
        "district": "Jardim Santo Antônio",
        "street": "Rua Geraldo Aparecido Teixeira",
        "zipcode": "17123-038"
    },
    {
        "city": "Agudos",
        "state": "SP",
        "district": "Residencial Bem Viver",
        "street": "Rua Fernando de Paula Freitas",
        "zipcode": "17129-136"
    },
    {
        "city": "Agudos",
        "state": "SP",
        "district": "Vila Professor Simões",
        "street": "Rua Frei Lauro Formigoni",
        "zipcode": "17120-082"
    },
    {
        "city": "Agudos",
        "state": "SP",
        "district": "Residencial Bem Viver",
        "street": "Rua João Francisco Barbirato",
        "zipcode": "17129-104"
    },
    {
        "city": "Agudos",
        "state": "SP",
        "district": "Jardim Cruzeiro",
        "street": "Rua João Batista Garbino",
        "zipcode": "17123-184"
    },
    {
        "city": "Agudos",
        "state": "SP",
        "district": "Jardim Cruzeiro",
        "street": "Rua José André Garrido",
        "zipcode": "17123-182"
    },
    {
        "city": "Agudos",
        "state": "SP",
        "district": "Residencial Centenário Park",
        "street": "Rua Joaquim Marciano",
        "zipcode": "17129-008"
    },
    {
        "city": "Agudos",
        "state": "SP",
        "district": "Vila Santa Cecilia",
        "street": "Rua José Gimenez Padilha",
        "zipcode": "17132-050"
    },
    {
        "city": "Agudos",
        "state": "SP",
        "district": "Jardim Danúbio",
        "street": "Rua Luis de Bortolli",
        "zipcode": "17132-248"
    },
    {
        "city": "Agudos",
        "state": "SP",
        "district": "Vila Avato",
        "street": "Rua José Ferreira Martins",
        "zipcode": "17132-092"
    },
    {
        "city": "Agudos",
        "state": "SP",
        "district": "Jardim Europa",
        "street": "Rua Leonides da Silva",
        "zipcode": "17129-088"
    },
    {
        "city": "Agudos",
        "state": "SP",
        "district": "Parque Santo Antônio",
        "street": "Rua Macapá",
        "zipcode": "17120-172"
    },
    {
        "city": "Agudos",
        "state": "SP",
        "district": "Residencial Bem Viver",
        "street": "Rua Luisa Helena Monchelato Galdino",
        "zipcode": "17129-102"
    },
    {
        "city": "Agudos",
        "state": "SP",
        "district": "Vila Malvina",
        "street": "Rua José Gomes Gutierrez",
        "zipcode": "17128-010"
    },
    {
        "city": "Agudos",
        "state": "SP",
        "district": "Jardim Bela Vista",
        "street": "Rua José Hernandes Porta",
        "zipcode": "17120-206"
    },
    {
        "city": "Agudos",
        "state": "SP",
        "district": "Jardim Vienense",
        "street": "Rua Luiz Vicente",
        "zipcode": "17132-224"
    },
    {
        "city": "Agudos",
        "state": "SP",
        "district": "Vila Santa Terezinha",
        "street": "Rua Luiz Scimini",
        "zipcode": "17120-394"
    },
    {
        "city": "Agudos",
        "state": "SP",
        "district": "Parque Pampulha",
        "street": "Rua Luiz Vicentini",
        "zipcode": "17132-324"
    },
    {
        "city": "Agudos",
        "state": "SP",
        "district": "Jardim Cruzeiro",
        "street": "Rua Jacinto Sanches",
        "zipcode": "17123-186"
    },
    {
        "city": "Agudos",
        "state": "SP",
        "district": "Jardim Santa Angelina",
        "street": "Rua Lázaro Francisco",
        "zipcode": "17123-148"
    },
    {
        "city": "Agudos",
        "state": "SP",
        "district": "Distrito Industrial Hatsuta",
        "street": "Rua Luiz Debortolli",
        "zipcode": "17123-224"
    },
    {
        "city": "Agudos",
        "state": "SP",
        "district": "Jardim Santa Cândida",
        "street": "Rua João Farragoni",
        "zipcode": "17120-356"
    },
    {
        "city": "Agudos",
        "state": "SP",
        "district": "Jardim Márcia II",
        "street": "Rua Kimi Goto",
        "zipcode": "17123-094"
    },
    {
        "city": "Agudos",
        "state": "SP",
        "district": "Jardim Vienense",
        "street": "Rua Manoel Faria",
        "zipcode": "17132-226"
    },
    {
        "city": "Agudos",
        "state": "SP",
        "district": "Vila Honorina",
        "street": "Rua José de Santi",
        "zipcode": "17123-002"
    },
    {
        "city": "Agudos",
        "state": "SP",
        "district": "Residencial Centenário Park",
        "street": "Rua João Ramos",
        "zipcode": "17129-006"
    },
    {
        "city": "Agudos",
        "state": "SP",
        "district": "Jardim Santa Cândida",
        "street": "Rua Luis Romeu Marques",
        "zipcode": "17120-322"
    },
    {
        "city": "Agudos",
        "state": "SP",
        "district": "Jardim Santa Angelina",
        "street": "Rua Luiz Artur Andreotti",
        "zipcode": "17123-128"
    },
    {
        "city": "Agudos",
        "state": "SP",
        "district": "Jardim Danúbio",
        "street": "Rua Manoel Faria",
        "zipcode": "17132-262"
    },
    {
        "city": "Agudos",
        "state": "SP",
        "district": "Chácaras City",
        "street": "Rua João Candosin",
        "zipcode": "17125-026"
    },
    {
        "city": "Agudos",
        "state": "SP",
        "district": "Vila Malvina",
        "street": "Rua José Furlani",
        "zipcode": "17128-012"
    },
    {
        "city": "Agudos",
        "state": "SP",
        "district": "Jardim Cruzeiro",
        "street": "Rua Lucentino Catini",
        "zipcode": "17123-176"
    },
    {
        "city": "Agudos",
        "state": "SP",
        "district": "Centro",
        "street": "Rua Joaquim Rondina",
        "zipcode": "17120-005"
    },
    {
        "city": "Agudos",
        "state": "SP",
        "district": "Parque Pampulha",
        "street": "Rua José Antônio Serafim",
        "zipcode": "17132-318"
    },
    {
        "city": "Agudos",
        "state": "SP",
        "district": "Residencial Parque Smeralda",
        "street": "Rua Lázaro Moreno",
        "zipcode": "17128-062"
    },
    {
        "city": "Agudos",
        "state": "SP",
        "district": "Jardim Santa Cândida",
        "street": "Rua José Pedro Nadin",
        "zipcode": "17120-348"
    },
    {
        "city": "Agudos",
        "state": "SP",
        "district": "Jardim Europa",
        "street": "Rua Lucia Gasparotti Ricci",
        "zipcode": "17129-038"
    },
    {
        "city": "Agudos",
        "state": "SP",
        "district": "Jardim Santa Cândida",
        "street": "Rua José Zaniratto",
        "zipcode": "17120-352"
    },
    {
        "city": "Agudos",
        "state": "SP",
        "district": "Centro",
        "street": "Rua José Salmem",
        "zipcode": "17120-003"
    },
    {
        "city": "Agudos",
        "state": "SP",
        "district": "Vila São Faustino",
        "street": "Rua Mamede de Souza Goering",
        "zipcode": "17120-406"
    },
    {
        "city": "Agudos",
        "state": "SP",
        "district": "Residencial Parque Smeralda",
        "street": "Rua José Sanches Peres",
        "zipcode": "17128-060"
    },
    {
        "city": "Agudos",
        "state": "SP",
        "district": "Jardim Santa Cândida",
        "street": "Rua Lourival Ramos dos Santos",
        "zipcode": "17120-334"
    },
    {
        "city": "Agudos",
        "state": "SP",
        "district": "Chácara Alvorada",
        "street": "Rua José Salmem",
        "zipcode": "17132-002"
    },
    {
        "city": "Agudos",
        "state": "SP",
        "district": "Jardim Cruzeiro",
        "street": "Rua Lindolpho Leite de Mattos",
        "zipcode": "17123-194"
    },
    {
        "city": "Agudos",
        "state": "SP",
        "district": "Jardim Danúbio",
        "street": "Rua Luiz Vicente",
        "zipcode": "17132-266"
    },
    {
        "city": "Agudos",
        "state": "SP",
        "district": "Jardim Santa Angelina",
        "street": "Rua Maestro José Benincasa",
        "zipcode": "17123-168"
    },
    {
        "city": "Agudos",
        "state": "SP",
        "district": "Recanto dos Nobres I",
        "street": "Rua Julcir Venturini",
        "zipcode": "17125-008"
    },
    {
        "city": "Agudos",
        "state": "SP",
        "district": "Jardim Vienense",
        "street": "Rua José Mendes Ribeiro",
        "zipcode": "17132-218"
    },
    {
        "city": "Agudos",
        "state": "SP",
        "district": "Vila Malvina",
        "street": "Rua Luiza Bastos Mendes",
        "zipcode": "17128-008"
    },
    {
        "city": "Agudos",
        "state": "SP",
        "district": "Jardim Santa Cândida",
        "street": "Rua Luiz Cezarotti",
        "zipcode": "17120-358"
    },
    {
        "city": "Agudos",
        "state": "SP",
        "district": "Jardim Europa",
        "street": "Rua José Lovisi",
        "zipcode": "17129-030"
    },
    {
        "city": "Agudos",
        "state": "SP",
        "district": "Vila Professor Simões",
        "street": "Rua José Salmem",
        "zipcode": "17120-062"
    },
    {
        "city": "Agudos",
        "state": "SP",
        "district": "Vila Avato",
        "street": "Rua José Dadamos Simões",
        "zipcode": "17132-080"
    },
    {
        "city": "Agudos",
        "state": "SP",
        "district": "Residencial Bem Viver",
        "street": "Rua Julia Perosin",
        "zipcode": "17129-126"
    },
    {
        "city": "Agudos",
        "state": "SP",
        "district": "Vila Avato",
        "street": "Rua José Sebastião Paes",
        "zipcode": "17132-088"
    },
    {
        "city": "Agudos",
        "state": "SP",
        "district": "Jardim Canaã",
        "street": "Rua José Octaviani Filho",
        "zipcode": "17128-106"
    },
    {
        "city": "Agudos",
        "state": "SP",
        "district": "Parque Pampulha",
        "street": "Rua Manoel da Costa",
        "zipcode": "17132-316"
    },
    {
        "city": "Agudos",
        "state": "SP",
        "district": "Residencial e Comercial Santanna",
        "street": "Rua José Antunes de Oliveira",
        "zipcode": "17128-038"
    },
    {
        "city": "Agudos",
        "state": "SP",
        "district": "Chácaras City",
        "street": "Rua José Palmeira Pereira",
        "zipcode": "17125-022"
    },
    {
        "city": "Agudos",
        "state": "SP",
        "district": "Jardim Canaã",
        "street": "Rua José Camargo",
        "zipcode": "17128-124"
    },
    {
        "city": "Agudos",
        "state": "SP",
        "district": "Jardim Vienense",
        "street": "Rua Leônidas dos Santos",
        "zipcode": "17132-214"
    },
    {
        "city": "Agudos",
        "state": "SP",
        "district": "Jardim Odilla Propheta Sormani",
        "street": "Rua Josefina Carlim Vitti",
        "zipcode": "17132-068"
    },
    {
        "city": "Agudos",
        "state": "SP",
        "district": "Núcleo Vereador Mário Campesato",
        "street": "Rua Lázaro de Barros Mattos",
        "zipcode": "17132-288"
    },
    {
        "city": "Agudos",
        "state": "SP",
        "district": "Vila Honorina",
        "street": "Rua José Antunes de Oliveira",
        "zipcode": "17123-006"
    },
    {
        "city": "Agudos",
        "state": "SP",
        "district": "Jardim Danúbio",
        "street": "Rua José Jandreich Filho",
        "zipcode": "17132-264"
    },
    {
        "city": "Agudos",
        "state": "SP",
        "district": "Residencial Parque Smeralda",
        "street": "Rua Kotoko Taira",
        "zipcode": "17128-084"
    },
    {
        "city": "Agudos",
        "state": "SP",
        "district": "Jardim Santa Cândida",
        "street": "Rua Juarez de Carvalho Barros",
        "zipcode": "17120-364"
    },
    {
        "city": "Agudos",
        "state": "SP",
        "district": "Jardim Santa Angelina",
        "street": "Rua José de Rosa",
        "zipcode": "17123-116"
    },
    {
        "city": "Agudos",
        "state": "SP",
        "district": "Jardim Santa Angelina",
        "street": "Rua Lindolpho Pereira",
        "zipcode": "17123-118"
    },
    {
        "city": "Agudos",
        "state": "SP",
        "district": "Jardim Canaã",
        "street": "Rua Manoel Esquerdo",
        "zipcode": "17128-120"
    },
    {
        "city": "Agudos",
        "state": "SP",
        "district": "Residencial Bem Viver",
        "street": "Rua José Fernando Bazzo",
        "zipcode": "17129-114"
    },
    {
        "city": "Agudos",
        "state": "SP",
        "district": "Parque São Miguel",
        "street": "Rua Madre Ida",
        "zipcode": "17132-208"
    },
    {
        "city": "Agudos",
        "state": "SP",
        "district": "Jardim Europa",
        "street": "Rua Oswaldo Pisano",
        "zipcode": "17129-076"
    },
    {
        "city": "Agudos",
        "state": "SP",
        "district": "Jardim Canaã",
        "street": "Rua Maria Aparecida Gaburo Venturini",
        "zipcode": "17128-112"
    },
    {
        "city": "Agudos",
        "state": "SP",
        "district": "Jardim Márcia I",
        "street": "Rua Nilo Mazzoni",
        "zipcode": "17123-060"
    },
    {
        "city": "Agudos",
        "state": "SP",
        "district": "Jardim Odilla Propheta Sormani",
        "street": "Rua Miguel Leão",
        "zipcode": "17132-060"
    },
    {
        "city": "Agudos",
        "state": "SP",
        "district": "Jardim Canaã",
        "street": "Rua Nilo Monchelato",
        "zipcode": "17128-102"
    },
    {
        "city": "Agudos",
        "state": "SP",
        "district": "Distrito Industrial I",
        "street": "Rua Nayá Silva de Conti",
        "zipcode": "17123-214"
    },
    {
        "city": "Agudos",
        "state": "SP",
        "district": "Jardim São Vicente II",
        "street": "Rua Ophelis de Almeida Françoso",
        "zipcode": "17120-120"
    },
    {
        "city": "Agudos",
        "state": "SP",
        "district": "Jardim Vienense",
        "street": "Rua Miguel Leão",
        "zipcode": "17132-212"
    },
    {
        "city": "Agudos",
        "state": "SP",
        "district": "Vila Santa Cecilia",
        "street": "Rua Miguel Leão",
        "zipcode": "17132-052"
    },
    {
        "city": "Agudos",
        "state": "SP",
        "district": "Recanto dos Nobres I",
        "street": "Rua Olga Ayub",
        "zipcode": "17125-010"
    },
    {
        "city": "Agudos",
        "state": "SP",
        "district": "Jardim Santa Angelina",
        "street": "Rua Oscar Doca",
        "zipcode": "17123-160"
    },
    {
        "city": "Agudos",
        "state": "SP",
        "district": "Núcleo Doutor João Ferreira Silveira",
        "street": "Rua Osmar de Souza",
        "zipcode": "17129-170"
    },
    {
        "city": "Agudos",
        "state": "SP",
        "district": "Jardim Danúbio",
        "street": "Rua Marina Zenilda dos Santos Nogueira",
        "zipcode": "17132-258"
    },
    {
        "city": "Agudos",
        "state": "SP",
        "district": "Parque Pampulha",
        "street": "Rua Nelson Bertho",
        "zipcode": "17132-352"
    },
    {
        "city": "Agudos",
        "state": "SP",
        "district": "Jardim Márcia I",
        "street": "Rua Octávio Tendolo",
        "zipcode": "17123-056"
    },
    {
        "city": "Agudos",
        "state": "SP",
        "district": "Jardim Vienense",
        "street": "Rua Marina Zenilda dos Santos Nogueira",
        "zipcode": "17132-228"
    },
    {
        "city": "Agudos",
        "state": "SP",
        "district": "Jardim Maria Luiza",
        "street": "Rua Maria de Lourdes Carvalho Gonzales",
        "zipcode": "17120-424"
    },
    {
        "city": "Agudos",
        "state": "SP",
        "district": "Jardim Danúbio",
        "street": "Rua Marcinilia de Souza Ferreira",
        "zipcode": "17132-270"
    },
    {
        "city": "Agudos",
        "state": "SP",
        "district": "Jardim Vienense",
        "street": "Rua Marcinilia de Souza Ferreira",
        "zipcode": "17132-222"
    },
    {
        "city": "Agudos",
        "state": "SP",
        "district": "Parque São Miguel",
        "street": "Rua Maria Josefina Garcia",
        "zipcode": "17132-206"
    },
    {
        "city": "Agudos",
        "state": "SP",
        "district": "Núcleo Doutor João Ferreira Silveira",
        "street": "Rua Maria Bushini Ortensi",
        "zipcode": "17129-144"
    },
    {
        "city": "Agudos",
        "state": "SP",
        "district": "Chácaras Nova Califórnia",
        "street": "Rua Maria Ornellas de Barros",
        "zipcode": "17125-052"
    },
    {
        "city": "Agudos",
        "state": "SP",
        "district": "Jardim Europa",
        "street": "Rua Miguel Ferreira Couto",
        "zipcode": "17129-042"
    },
    {
        "city": "Agudos",
        "state": "SP",
        "district": "Jardim Danúbio",
        "street": "Rua Maria Aparecida Guering Virtuan",
        "zipcode": "17132-252"
    },
    {
        "city": "Agudos",
        "state": "SP",
        "district": "Vila Avato",
        "street": "Rua Maria Aparecida Pereira Ramos",
        "zipcode": "17132-090"
    },
    {
        "city": "Agudos",
        "state": "SP",
        "district": "Parque Santo Antônio",
        "street": "Rua Osório Amâncio",
        "zipcode": "17120-162"
    },
    {
        "city": "Agudos",
        "state": "SP",
        "district": "Jardim Nilce",
        "street": "Rua Nagib Benedicto Saab",
        "zipcode": "17132-302"
    },
    {
        "city": "Agudos",
        "state": "SP",
        "district": "Jardim Santa Cândida",
        "street": "Rua Orlando Domingues",
        "zipcode": "17120-354"
    },
    {
        "city": "Agudos",
        "state": "SP",
        "district": "Chácaras Meu Cantinho",
        "street": "Rua Maria Ornellas de Barros",
        "zipcode": "17125-060"
    },
    {
        "city": "Agudos",
        "state": "SP",
        "district": "Parque Pampulha",
        "street": "Rua Otávio Alves",
        "zipcode": "17132-366"
    },
    {
        "city": "Agudos",
        "state": "SP",
        "district": "Vila Santa Terezinha",
        "street": "Rua Mário Paschoal",
        "zipcode": "17120-382"
    },
    {
        "city": "Agudos",
        "state": "SP",
        "district": "Residencial Bem Viver",
        "street": "Rua Olympia Ana SantAnna Sawaia",
        "zipcode": "17129-118"
    },
    {
        "city": "Agudos",
        "state": "SP",
        "district": "Núcleo Vereador Mário Campesato",
        "street": "Rua Orlando Leão",
        "zipcode": "17132-286"
    },
    {
        "city": "Agudos",
        "state": "SP",
        "district": "Parque Pampulha",
        "street": "Rua Miguel Narciso Luciano",
        "zipcode": "17132-322"
    },
    {
        "city": "Agudos",
        "state": "SP",
        "district": "Jardim Nilce",
        "street": "Rua Mario Guimarães Pinto",
        "zipcode": "17132-300"
    },
    {
        "city": "Agudos",
        "state": "SP",
        "district": "Jardim Santa Angelina",
        "street": "Rua Mário Francisco de Oliveira",
        "zipcode": "17123-166"
    },
    {
        "city": "Agudos",
        "state": "SP",
        "district": "Jardim Nilce",
        "street": "Rua Oumaya Anis Rayes Bino",
        "zipcode": "17132-304"
    },
    {
        "city": "Agudos",
        "state": "SP",
        "district": "Vila Professor Simões",
        "street": "Rua Mário Benetti",
        "zipcode": "17120-050"
    },
    {
        "city": "Agudos",
        "state": "SP",
        "district": "Jardim Maria Luiza",
        "street": "Rua Miguel Octaviani",
        "zipcode": "17120-422"
    },
    {
        "city": "Agudos",
        "state": "SP",
        "district": "Jardim Europa",
        "street": "Rua Mauricio Garcia",
        "zipcode": "17129-054"
    },
    {
        "city": "Agudos",
        "state": "SP",
        "district": "Vila Professor Simões",
        "street": "Rua Mooca",
        "zipcode": "17120-096"
    },
    {
        "city": "Agudos",
        "state": "SP",
        "district": "Residencial Parque Smeralda",
        "street": "Rua Noemio Delázari",
        "zipcode": "17128-056"
    },
    {
        "city": "Agudos",
        "state": "SP",
        "district": "Residencial Centenário Park",
        "street": "Rua Manoel Tibúrcio de Albuquerque",
        "zipcode": "17129-012"
    },
    {
        "city": "Agudos",
        "state": "SP",
        "district": "Jardim Danúbio",
        "street": "Rua Maria Floriza Barbosa Paludetto",
        "zipcode": "17132-268"
    },
    {
        "city": "Agudos",
        "state": "SP",
        "district": "Jardim Márcia II",
        "street": "Rua Nilo Mazzoni",
        "zipcode": "17123-078"
    },
    {
        "city": "Agudos",
        "state": "SP",
        "district": "Vila Avato",
        "street": "Rua Miguel Leão",
        "zipcode": "17132-070"
    },
    {
        "city": "Agudos",
        "state": "SP",
        "district": "Jardim Europa",
        "street": "Rua Otávio Monteiro",
        "zipcode": "17129-074"
    },
    {
        "city": "Agudos",
        "state": "SP",
        "district": "Jardim Santa Angelina",
        "street": "Rua Nair Pereira de Oliveira",
        "zipcode": "17123-114"
    },
    {
        "city": "Agudos",
        "state": "SP",
        "district": "Parque São Miguel",
        "street": "Rua Miguel Leão",
        "zipcode": "17132-204"
    },
    {
        "city": "Agudos",
        "state": "SP",
        "district": "Jardim Maria Luiza",
        "street": "Rua Maria Flórida Ton de Mattos",
        "zipcode": "17120-420"
    },
    {
        "city": "Agudos",
        "state": "SP",
        "district": "Residencial Parque Smeralda",
        "street": "Rua Maria do Carmo Damante Paschoal",
        "zipcode": "17128-052"
    },
    {
        "city": "Agudos",
        "state": "SP",
        "district": "Jardim Márcia II",
        "street": "Rua Octávio Tendolo",
        "zipcode": "17123-082"
    },
    {
        "city": "Agudos",
        "state": "SP",
        "district": "Centro (Domélia)",
        "street": "Rua Marechal Deodoro",
        "zipcode": "17135-006"
    },
    {
        "city": "Agudos",
        "state": "SP",
        "district": "Parque Santo Antônio",
        "street": "Rua Nivaldo Bertolo",
        "zipcode": "17120-160"
    },
    {
        "city": "Agudos",
        "state": "SP",
        "district": "Jardim Santa Cândida",
        "street": "Rua Nenê Travain",
        "zipcode": "17120-350"
    },
    {
        "city": "Agudos",
        "state": "SP",
        "district": "Jardim Europa",
        "street": "Rua Maura Pinto Piovesan",
        "zipcode": "17129-046"
    },
    {
        "city": "Agudos",
        "state": "SP",
        "district": "Jardim Canaã",
        "street": "Rua Professor José Nogueira de Abreu",
        "zipcode": "17128-100"
    },
    {
        "city": "Agudos",
        "state": "SP",
        "district": "Residencial e Comercial Santanna",
        "street": "Rua Pastor Edivaldo Alves da Silva",
        "zipcode": "17128-034"
    },
    {
        "city": "Agudos",
        "state": "SP",
        "district": "Vila Andreotti",
        "street": "Rua Paulo Nelli",
        "zipcode": "17120-370"
    },
    {
        "city": "Agudos",
        "state": "SP",
        "district": "Vila Honorina",
        "street": "Rua Professor José Nogueira de Abreu",
        "zipcode": "17123-001"
    },
    {
        "city": "Agudos",
        "state": "SP",
        "district": "Jardim Bela Vista",
        "street": "Rua São Domingos",
        "zipcode": "17120-202"
    },
    {
        "city": "Agudos",
        "state": "SP",
        "district": "Jardim Nilce",
        "street": "Rua Paula Cristina Ghirotti Bartalotti",
        "zipcode": "17132-306"
    },
    {
        "city": "Agudos",
        "state": "SP",
        "district": "Parque Santo Antônio",
        "street": "Rua Ribeirão Preto",
        "zipcode": "17120-182"
    },
    {
        "city": "Agudos",
        "state": "SP",
        "district": "Jardim Bela Vista",
        "street": "Rua Santo Evaristo",
        "zipcode": "17120-200"
    },
    {
        "city": "Agudos",
        "state": "SP",
        "district": "Residencial Bem Viver",
        "street": "Rua Sargento Ricardo Claro de Assis",
        "zipcode": "17129-112"
    },
    {
        "city": "Agudos",
        "state": "SP",
        "district": "Jardim Márcia II",
        "street": "Rua Paulo Toledo",
        "zipcode": "17123-088"
    },
    {
        "city": "Agudos",
        "state": "SP",
        "district": "Jardim Santa Angelina",
        "street": "Rua Santo Mainini",
        "zipcode": "17123-126"
    },
    {
        "city": "Agudos",
        "state": "SP",
        "district": "Distrito Industrial Hatsuta",
        "street": "Rua Salin Fayad",
        "zipcode": "17123-232"
    },
    {
        "city": "Agudos",
        "state": "SP",
        "district": "Distrito Industrial I",
        "street": "Rua Pedro Carmine Deo",
        "zipcode": "17123-210"
    },
    {
        "city": "Agudos",
        "state": "SP",
        "district": "Jardim São Vicente II",
        "street": "Rua Santo Antônio",
        "zipcode": "17120-122"
    },
    {
        "city": "Agudos",
        "state": "SP",
        "district": "Residencial Parque Smeralda",
        "street": "Rua Paschoal Bianchi",
        "zipcode": "17128-080"
    },
    {
        "city": "Agudos",
        "state": "SP",
        "district": "Centro",
        "street": "Rua Quinze de Novembro",
        "zipcode": "17120-007"
    },
    {
        "city": "Agudos",
        "state": "SP",
        "district": "Jardim Danúbio",
        "street": "Rua Paulo Coutinho",
        "zipcode": "17132-240"
    },
    {
        "city": "Agudos",
        "state": "SP",
        "district": "Vila Professor Simões",
        "street": "Rua Prefeito Doutor Antônio Condi",
        "zipcode": "17120-074"
    },
    {
        "city": "Agudos",
        "state": "SP",
        "district": "Residencial Bem Viver",
        "street": "Rua Ruth Maria Raimundo Messias",
        "zipcode": "17129-122"
    },
    {
        "city": "Agudos",
        "state": "SP",
        "district": "Jardim Santo Antônio",
        "street": "Rua Porto Alegre",
        "zipcode": "17123-046"
    },
    {
        "city": "Agudos",
        "state": "SP",
        "district": "Jardim Bela Vista",
        "street": "Rua São Francisco",
        "zipcode": "17120-198"
    },
    {
        "city": "Agudos",
        "state": "SP",
        "district": "Centro (Domélia)",
        "street": "Rua Quintino Bocaiúva",
        "zipcode": "17135-004"
    },
    {
        "city": "Agudos",
        "state": "SP",
        "district": "Núcleo Doutor João Ferreira Silveira",
        "street": "Rua Renaldo Fredel",
        "zipcode": "17129-166"
    },
    {
        "city": "Agudos",
        "state": "SP",
        "district": "Jardim Canaã",
        "street": "Rua Sebastião Ferreira de Barros",
        "zipcode": "17128-116"
    },
    {
        "city": "Agudos",
        "state": "SP",
        "district": "Jardim Márcia II",
        "street": "Rua Reinaldo Fogagnoli",
        "zipcode": "17123-092"
    },
    {
        "city": "Agudos",
        "state": "SP",
        "district": "Vila Malvina",
        "street": "Rua Rotary Club",
        "zipcode": "17128-004"
    },
    {
        "city": "Agudos",
        "state": "SP",
        "district": "Jardim Cruzeiro",
        "street": "Rua Professor Syllas de Carvalho Barros",
        "zipcode": "17123-188"
    },
    {
        "city": "Agudos",
        "state": "SP",
        "district": "Residencial Parque Smeralda",
        "street": "Rua Santo Delucci",
        "zipcode": "17128-088"
    },
    {
        "city": "Agudos",
        "state": "SP",
        "district": "Jardim Santa Cândida",
        "street": "Rua Raimundo Alves",
        "zipcode": "17120-346"
    },
    {
        "city": "Agudos",
        "state": "SP",
        "district": "Jardim Europa",
        "street": "Rua Professora Nair Rocha Lopes",
        "zipcode": "17129-040"
    },
    {
        "city": "Agudos",
        "state": "SP",
        "district": "Jardim Santa Cândida",
        "street": "Rua Presbítero Lourenço de Matos",
        "zipcode": "17120-342"
    },
    {
        "city": "Agudos",
        "state": "SP",
        "district": "Jardim Vienense",
        "street": "Rua Paulo Coutinho",
        "zipcode": "17132-236"
    },
    {
        "city": "Agudos",
        "state": "SP",
        "district": "Jardim Bela Vista",
        "street": "Rua Santo Henrique",
        "zipcode": "17120-194"
    },
    {
        "city": "Agudos",
        "state": "SP",
        "district": "Vila Avato",
        "street": "Rua Ovídio Bicudo",
        "zipcode": "17132-074"
    },
    {
        "city": "Agudos",
        "state": "SP",
        "district": "Residencial Centenário Park",
        "street": "Rua Pedro Rudini",
        "zipcode": "17129-000"
    },
    {
        "city": "Agudos",
        "state": "SP",
        "district": "Jardim Europa",
        "street": "Rua Rita Cândida Villas Boas Franco",
        "zipcode": "17129-044"
    },
    {
        "city": "Agudos",
        "state": "SP",
        "district": "Jardim Europa",
        "street": "Rua Professora Nadir Garcia Padilha",
        "zipcode": "17129-058"
    },
    {
        "city": "Agudos",
        "state": "SP",
        "district": "Jardim Danúbio",
        "street": "Rua Romão Taveira Fuentes",
        "zipcode": "17132-272"
    },
    {
        "city": "Agudos",
        "state": "SP",
        "district": "Vila Honorina",
        "street": "Rua Professor José Francisco dos Santos",
        "zipcode": "17123-024"
    },
    {
        "city": "Agudos",
        "state": "SP",
        "district": "Núcleo Doutor João Ferreira Silveira",
        "street": "Rua Santo Bertolucci",
        "zipcode": "17129-172"
    },
    {
        "city": "Agudos",
        "state": "SP",
        "district": "Jardim Europa",
        "street": "Rua Professor Luiz Pedro da Cunha",
        "zipcode": "17129-078"
    },
    {
        "city": "Agudos",
        "state": "SP",
        "district": "Jardim Santa Angelina",
        "street": "Rua Quirino Bianchi",
        "zipcode": "17123-140"
    },
    {
        "city": "Agudos",
        "state": "SP",
        "district": "Distrito Industrial I",
        "street": "Rua Paulino Luciano",
        "zipcode": "17123-212"
    },
    {
        "city": "Agudos",
        "state": "SP",
        "district": "Vila Santa Cecilia",
        "street": "Rua São Benedito",
        "zipcode": "17132-040"
    },
    {
        "city": "Agudos",
        "state": "SP",
        "district": "Vila Santa Terezinha",
        "street": "Rua Paulo Nelli",
        "zipcode": "17120-392"
    },
    {
        "city": "Agudos",
        "state": "SP",
        "district": "Centro (Domélia)",
        "street": "Rua Prudente de Moraes",
        "zipcode": "17135-002"
    },
    {
        "city": "Agudos",
        "state": "SP",
        "district": "Jardim Santa Angelina",
        "street": "Rua Rubens de Almeida Françoso",
        "zipcode": "17123-112"
    },
    {
        "city": "Agudos",
        "state": "SP",
        "district": "Vila São Faustino",
        "street": "Rua São Pedro",
        "zipcode": "17120-408"
    },
    {
        "city": "Agudos",
        "state": "SP",
        "district": "Residencial Centenário Park",
        "street": "Rua Rinaldo Bacchi",
        "zipcode": "17129-016"
    },
    {
        "city": "Agudos",
        "state": "SP",
        "district": "Vila Avato",
        "street": "Rua Sebastião Faustino Martins",
        "zipcode": "17132-094"
    },
    {
        "city": "Agudos",
        "state": "SP",
        "district": "Parque Pampulha",
        "street": "Rua Professora Elizabel Pirozzi Baptista",
        "zipcode": "17132-314"
    },
    {
        "city": "Agudos",
        "state": "SP",
        "district": "Residencial Bem Viver",
        "street": "Rua Paulo Cesar Wolber",
        "zipcode": "17129-108"
    },
    {
        "city": "Agudos",
        "state": "SP",
        "district": "Vila Professor Simões",
        "street": "Rua Quinze de Novembro",
        "zipcode": "17120-066"
    },
    {
        "city": "Agudos",
        "state": "SP",
        "district": "Vila Malvina",
        "street": "Rua Professor José Nogueira de Abreu",
        "zipcode": "17128-000"
    },
    {
        "city": "Agudos",
        "state": "SP",
        "district": "Centro (Domélia)",
        "street": "Rua Rangel Pestana",
        "zipcode": "17135-018"
    },
    {
        "city": "Agudos",
        "state": "SP",
        "district": "Chácaras Meu Cantinho",
        "street": "Rua Sargento Ítalo Silva",
        "zipcode": "17125-064"
    },
    {
        "city": "Agudos",
        "state": "SP",
        "district": "Núcleo Doutor João Ferreira Silveira",
        "street": "Avenida Sebastião Mendonça",
        "zipcode": "17129-148"
    },
    {
        "city": "Agudos",
        "state": "SP",
        "district": "Jardim Santa Cândida",
        "street": "Rua Waldemar Duarte",
        "zipcode": "17120-330"
    },
    {
        "city": "Agudos",
        "state": "SP",
        "district": "Vila Professor Simões",
        "street": "Rua Sete de Setembro",
        "zipcode": "17120-072"
    },
    {
        "city": "Agudos",
        "state": "SP",
        "district": "Jardim Cruzeiro",
        "street": "Avenida Monsenhor José Maria da Silva Paes",
        "zipcode": "17123-180"
    },
    {
        "city": "Agudos",
        "state": "SP",
        "district": "Jardim Odilla Propheta Sormani",
        "street": "Travessa Hércules Sormani",
        "zipcode": "17132-062"
    },
    {
        "city": "Agudos",
        "state": "SP",
        "district": "Centro",
        "street": "Rua Treze de Maio",
        "zipcode": "17120-009"
    },
    {
        "city": "Agudos",
        "state": "SP",
        "district": "Jardim São Vicente I",
        "street": "Avenida Carlos Travain",
        "zipcode": "17120-142"
    },
    {
        "city": "Agudos",
        "state": "SP",
        "district": "Vila Santa Terezinha",
        "street": "Avenida Celidônio Neto",
        "zipcode": "17120-380"
    },
    {
        "city": "Agudos",
        "state": "SP",
        "district": "Jardim Santa Angelina",
        "street": "Avenida João Wolber",
        "zipcode": "17123-110"
    },
    {
        "city": "Agudos",
        "state": "SP",
        "district": "Residencial Parque Smeralda",
        "street": "Rua Vereador Silvio Amato",
        "zipcode": "17128-066"
    },
    {
        "city": "Agudos",
        "state": "SP",
        "district": "Distrito Industrial Hatsuta",
        "street": "Rua Youssef Boulos Ayub",
        "zipcode": "17123-226"
    },
    {
        "city": "Agudos",
        "state": "SP",
        "district": "Vila Avato",
        "street": "Travessa José Baptista",
        "zipcode": "17132-082"
    },
    {
        "city": "Agudos",
        "state": "SP",
        "district": "Parque Pampulha",
        "street": "Travessa Santa Marcelina",
        "zipcode": "17132-342"
    },
    {
        "city": "Agudos",
        "state": "SP",
        "district": "Vila Honorina",
        "street": "Rua Virginia Furlani Ribeiro",
        "zipcode": "17123-008"
    },
    {
        "city": "Agudos",
        "state": "SP",
        "district": "Jardim Canaã",
        "street": "Rua Vitório Ton",
        "zipcode": "17128-122"
    },
    {
        "city": "Agudos",
        "state": "SP",
        "district": "Residencial Parque Smeralda",
        "street": "Rua Valmir Saracini",
        "zipcode": "17128-054"
    },
    {
        "city": "Agudos",
        "state": "SP",
        "district": "Centro",
        "street": "Rua Sete de Setembro",
        "zipcode": "17120-011"
    },
    {
        "city": "Agudos",
        "state": "SP",
        "district": "Residencial Parque Smeralda",
        "street": "Rua Vereador José Leão",
        "zipcode": "17128-082"
    },
    {
        "city": "Agudos",
        "state": "SP",
        "district": "Parque Pampulha",
        "street": "Travessa Santa Maria",
        "zipcode": "17132-338"
    },
    {
        "city": "Agudos",
        "state": "SP",
        "district": "Jardim Santa Angelina",
        "street": "Avenida Álvaro Paixão",
        "zipcode": "17123-144"
    },
    {
        "city": "Agudos",
        "state": "SP",
        "district": "Jardim Santa Cândida",
        "street": "Rua Tunísia",
        "zipcode": "17120-338"
    },
    {
        "city": "Agudos",
        "state": "SP",
        "district": "Parque Pampulha",
        "street": "Travessa Santa Lúcia",
        "zipcode": "17132-330"
    },
    {
        "city": "Agudos",
        "state": "SP",
        "district": "Jardim Danúbio",
        "street": "Rua Ubirajara Dias Maia",
        "zipcode": "17132-256"
    },
    {
        "city": "Agudos",
        "state": "SP",
        "district": "Vila Santa Cecilia",
        "street": "Travessa São Vicente de Paula",
        "zipcode": "17132-032"
    },
    {
        "city": "Agudos",
        "state": "SP",
        "district": "Vila Avato",
        "street": "Avenida Rui Barbosa",
        "zipcode": "17132-078"
    },
    {
        "city": "Agudos",
        "state": "SP",
        "district": "Parque Pampulha",
        "street": "Travessa Santa Cruz",
        "zipcode": "17132-344"
    },
    {
        "city": "Agudos",
        "state": "SP",
        "district": "Parque Pampulha",
        "street": "Rua Wilma Maria Venturini Tiszolczki",
        "zipcode": "17132-362"
    },
    {
        "city": "Agudos",
        "state": "SP",
        "district": "Vila Santa Terezinha",
        "street": "Avenida Benedito Otoni",
        "zipcode": "17120-390"
    },
    {
        "city": "Agudos",
        "state": "SP",
        "district": "Vila Professor Simões",
        "street": "Rua Severino Gaburo",
        "zipcode": "17120-076"
    },
    {
        "city": "Agudos",
        "state": "SP",
        "district": "Centro",
        "street": "Avenida Faustino Ribeiro",
        "zipcode": "17120-035"
    },
    {
        "city": "Agudos",
        "state": "SP",
        "district": "Jardim Danúbio",
        "street": "Rua Vereador Jose Aparecido Rodrigues de Oliveira",
        "zipcode": "17132-260"
    },
    {
        "city": "Agudos",
        "state": "SP",
        "district": "Vila Professor Simões",
        "street": "Rua Treze de Maio",
        "zipcode": "17120-070"
    },
    {
        "city": "Agudos",
        "state": "SP",
        "district": "Vila Honorina",
        "street": "Avenida Odorico de Castro Pompéia",
        "zipcode": "17123-018"
    },
    {
        "city": "Agudos",
        "state": "SP",
        "district": "Jardim Santa Angelina",
        "street": "Rua Wilson Ton",
        "zipcode": "17123-132"
    },
    {
        "city": "Agudos",
        "state": "SP",
        "district": "Residencial Bem Viver",
        "street": "Rua Waldemar de Castro Andrade",
        "zipcode": "17129-110"
    },
    {
        "city": "Agudos",
        "state": "SP",
        "district": "Vila Santa Cecilia",
        "street": "Travessa Antônio Gonçalves",
        "zipcode": "17132-048"
    },
    {
        "city": "Agudos",
        "state": "SP",
        "district": "Área Rural de Agudos",
        "street": "Área Rural",
        "zipcode": "17139-899"
    },
    {
        "city": "Agudos",
        "state": "SP",
        "district": "Recanto dos Nobres I",
        "street": "Rua Zarcilio Rodrigues Barbosa",
        "zipcode": "17125-006"
    },
    {
        "city": "Agudos",
        "state": "SP",
        "district": "Jardim São Vicente I",
        "street": "Avenida Gerônimo Bigarelli",
        "zipcode": "17120-144"
    },
    {
        "city": "Agudos",
        "state": "SP",
        "district": "Vila Santa Cecilia",
        "street": "Avenida Joaquim Ferreira Souto",
        "zipcode": "17132-026"
    },
    {
        "city": "Agudos",
        "state": "SP",
        "district": "Residencial Parque Smeralda",
        "street": "Avenida José Benázio",
        "zipcode": "17128-050"
    },
    {
        "city": "Agudos",
        "state": "SP",
        "district": "Centro",
        "street": "Avenida Joaquim Ferreira Souto",
        "zipcode": "17120-970"
    },
    {
        "city": "Agudos",
        "state": "SP",
        "district": "Vila Avato",
        "street": "Travessa Geralda Alves de Jesus",
        "zipcode": "17132-096"
    },
    {
        "city": "Agudos",
        "state": "SP",
        "district": "Residencial Bem Viver",
        "street": "Rua Sergio Augusto Andreciolli",
        "zipcode": "17129-132"
    },
    {
        "city": "Agudos",
        "state": "SP",
        "district": "Centro (Domélia)",
        "street": "Rua Tiradentes",
        "zipcode": "17135-016"
    },
    {
        "city": "Agudos",
        "state": "SP",
        "district": "Parque Pampulha",
        "street": "Travessa Santa Tereza",
        "zipcode": "17132-336"
    },
    {
        "city": "Agudos",
        "state": "SP",
        "district": "Jardim Santa Angelina",
        "street": "Rua Sebastião Padilha",
        "zipcode": "17123-120"
    },
    {
        "city": "Agudos",
        "state": "SP",
        "district": "Jardim Márcia II",
        "street": "Rua Zuleika Haggi Oliveira Lima",
        "zipcode": "17123-070"
    },
    {
        "city": "Agudos",
        "state": "SP",
        "district": "Vila Professor Simões",
        "street": "Rua Tenente Armando de Oliveira Gonzaga",
        "zipcode": "17120-106"
    },
    {
        "city": "Agudos",
        "state": "SP",
        "district": "Jardim Santa Angelina",
        "street": "Rua Thelma Felão de Toledo",
        "zipcode": "17123-146"
    },
    {
        "city": "Agudos",
        "state": "SP",
        "district": "Parque Pampulha",
        "street": "Travessa Santa Filomena",
        "zipcode": "17132-348"
    },
    {
        "city": "Agudos",
        "state": "SP",
        "district": "Centro",
        "street": "Avenida Sebastiana Leite",
        "zipcode": "17120-025"
    },
    {
        "city": "Agudos",
        "state": "SP",
        "district": "Residencial Parque Smeralda",
        "street": "Rua Vicente Napoleone",
        "zipcode": "17128-058"
    },
    {
        "city": "Agudos",
        "state": "SP",
        "district": "Jardim Europa",
        "street": "Avenida Domingos Rodrigues Mendes",
        "zipcode": "17129-060"
    },
    {
        "city": "Agudos",
        "state": "SP",
        "district": "Vila Santa Cecilia",
        "street": "Rua Sebastião Galdino",
        "zipcode": "17132-038"
    },
    {
        "city": "Agudos",
        "state": "SP",
        "district": "Distrito Industrial I",
        "street": "Rua Lindolpho Leite de Mattos",
        "zipcode": "17123-200"
    },
    {
        "city": "Agudos",
        "state": "SP",
        "district": "Parque Santo Antônio",
        "street": "Rua Alcides Valadão",
        "zipcode": "17120-180"
    },
    {
        "city": "Agudos",
        "state": "SP",
        "district": "Distrito Industrial I",
        "street": "Rua João Batista Garbino",
        "zipcode": "17123-206"
    },
    {
        "city": "Agudos",
        "state": "SP",
        "district": "Jardim Santa Cândida",
        "street": "Rua Manoel Alves de Lima",
        "zipcode": "17120-328"
    },
    {
        "city": "Agudos",
        "state": "SP",
        "district": "Vila Malvina",
        "street": "Rua Jayme Lisboa",
        "zipcode": "17128-006"
    },
    {
        "city": "Agudos",
        "state": "SP",
        "district": "Chácaras Nova Califórnia",
        "street": "Rua dos Buritis",
        "zipcode": "17125-050"
    },
    {
        "city": "Agudos",
        "state": "SP",
        "district": "Residencial Bem Viver",
        "street": "Rua Anita Alves Sampietro",
        "zipcode": "17129-106"
    },
    {
        "city": "Agudos",
        "state": "SP",
        "district": "Jardim Santa Cândida",
        "street": "Rua José Gagliani",
        "zipcode": "17120-320"
    },
    {
        "city": "Agudos",
        "state": "SP",
        "district": "Chácara Alvorada",
        "street": "Rua Calimério Pereira de Moraes",
        "zipcode": "17132-012"
    },
    {
        "city": "Agudos",
        "state": "SP",
        "district": "Residencial Parque Smeralda",
        "street": "Rua Hilário de Conti",
        "zipcode": "17128-090"
    },
    {
        "city": "Agudos",
        "state": "SP",
        "district": "Distrito Industrial Hatsuta",
        "street": "Rua Mauro Pereira de Mesquita",
        "zipcode": "17123-234"
    },
    {
        "city": "Agudos",
        "state": "SP",
        "district": "Residencial Parque Smeralda",
        "street": "Rua Mário Sandri",
        "zipcode": "17128-068"
    },
    {
        "city": "Agudos",
        "state": "SP",
        "district": "Chácaras Nova Califórnia",
        "street": "Rua das Cerejeiras",
        "zipcode": "17125-036"
    },
    {
        "city": "Agudos",
        "state": "SP",
        "district": "Jardim São Vicente I",
        "street": "Rua Manoel Ferreira da Silva",
        "zipcode": "17120-150"
    },
    {
        "city": "Agudos",
        "state": "SP",
        "district": "Parque São Miguel",
        "street": "Rua Domingos Leão",
        "zipcode": "17132-202"
    },
    {
        "city": "Agudos",
        "state": "SP",
        "district": "Jardim Santo Antônio",
        "street": "Rua Laurindo Cavalari",
        "zipcode": "17123-042"
    },
    {
        "city": "Agudos",
        "state": "SP",
        "district": "Jardim Santa Cândida",
        "street": "Rua Maria José Pescinelli Duran",
        "zipcode": "17120-340"
    },
    {
        "city": "Agudos",
        "state": "SP",
        "district": "Centro",
        "street": "Rua Doutor Fábio Leite Guimarães",
        "zipcode": "17120-001"
    },
    {
        "city": "Agudos",
        "state": "SP",
        "district": "Núcleo Doutor João Ferreira Silveira",
        "street": "Rua Atílio Andriciolli",
        "zipcode": "17129-168"
    },
    {
        "city": "Agudos",
        "state": "SP",
        "district": "Centro (Domélia)",
        "street": "Rua Benjamin Constant",
        "zipcode": "17135-008"
    },
    {
        "city": "Agudos",
        "state": "SP",
        "district": "Jardim Danúbio",
        "street": "Rua Cristina Conceição Marques de Oliveira",
        "zipcode": "17132-250"
    },
    {
        "city": "Agudos",
        "state": "SP",
        "district": "Centro (Domélia)",
        "street": "Rua General Osório",
        "zipcode": "17135-010"
    },
    {
        "city": "Agudos",
        "state": "SP",
        "district": "Parque Santo Antônio",
        "street": "Rua Frei Lauro Formigoni",
        "zipcode": "17120-164"
    },
    {
        "city": "Agudos",
        "state": "SP",
        "district": "Residencial Bem Viver",
        "street": "Rua Antonio Carreiro",
        "zipcode": "17129-100"
    },
    {
        "city": "Agudos",
        "state": "SP",
        "district": "Jardim Santa Cândida",
        "street": "Rua Diamantino Paludetto",
        "zipcode": "17120-326"
    },
    {
        "city": "Agudos",
        "state": "SP",
        "district": "Jardim Santa Angelina",
        "street": "Rua José Antonio Piedade Castiglia",
        "zipcode": "17123-156"
    },
    {
        "city": "Agudos",
        "state": "SP",
        "district": "Residencial e Comercial Santanna",
        "street": "Rua Francisco Lopes Rubio",
        "zipcode": "17128-020"
    },
    {
        "city": "Agudos",
        "state": "SP",
        "district": "Vila Nossa Senhora Aparecida",
        "street": "Rua Mário Benetti",
        "zipcode": "17120-112"
    },
    {
        "city": "Agudos",
        "state": "SP",
        "district": "Jardim Santa Angelina",
        "street": "Rua Miguel Leão Filho",
        "zipcode": "17123-138"
    },
    {
        "city": "Agudos",
        "state": "SP",
        "district": "Jardim Márcia I",
        "street": "Rua Antônio Crescione",
        "zipcode": "17123-054"
    },
    {
        "city": "Agudos",
        "state": "SP",
        "district": "Residencial Parque Smeralda",
        "street": "Rua Aristides da Silva Machado",
        "zipcode": "17128-076"
    },
    {
        "city": "Agudos",
        "state": "SP",
        "district": "Vila Avato",
        "street": "Rua Jorgina Ribeiro",
        "zipcode": "17132-076"
    },
    {
        "city": "Agudos",
        "state": "SP",
        "district": "Jardim Canaã",
        "street": "Rua Júlio Virtuan",
        "zipcode": "17128-108"
    },
    {
        "city": "Agudos",
        "state": "SP",
        "district": "Jardim Santo Antônio",
        "street": "Rua José Manoel Valêncio",
        "zipcode": "17123-032"
    },
    {
        "city": "Agudos",
        "state": "SP",
        "district": "Distrito Industrial Hatsuta",
        "street": "Rua Luiz Alfredo Bigarelli",
        "zipcode": "17123-238"
    },
    {
        "city": "Agudos",
        "state": "SP",
        "district": "Jardim Danúbio",
        "street": "Rua Antonio Sanches Tosta",
        "zipcode": "17132-242"
    },
    {
        "city": "Agudos",
        "state": "SP",
        "district": "Residencial Bem Viver",
        "street": "Rua Doutor Walter Villas Boas Franco",
        "zipcode": "17129-116"
    },
    {
        "city": "Agudos",
        "state": "SP",
        "district": "Chácaras Meu Cantinho",
        "street": "Rua dos Expedicionários",
        "zipcode": "17125-062"
    },
    {
        "city": "Agudos",
        "state": "SP",
        "district": "Vila Nossa Senhora Aparecida",
        "street": "Rua Lucio de Oliveira Lima",
        "zipcode": "17120-114"
    },
    {
        "city": "Agudos",
        "state": "SP",
        "district": "Residencial Parque Smeralda",
        "street": "Rua Emília Carvalho Balestra",
        "zipcode": "17128-064"
    },
    {
        "city": "Agudos",
        "state": "SP",
        "district": "Jardim Danúbio",
        "street": "Rua Antonio Feitosa dos Santos",
        "zipcode": "17132-254"
    },
    {
        "city": "Agudos",
        "state": "SP",
        "district": "Núcleo Vereador Mário Campesato",
        "street": "Rua José de Moraes Ferreira",
        "zipcode": "17132-284"
    },
    {
        "city": "Agudos",
        "state": "SP",
        "district": "Jardim São Vicente I",
        "street": "Rua José Silveira Rodrigues Júnior",
        "zipcode": "17120-152"
    },
    {
        "city": "Agudos",
        "state": "SP",
        "district": "Residencial e Comercial Santanna",
        "street": "Rua José Rodrigues dos Santos",
        "zipcode": "17128-042"
    },
    {
        "city": "Agudos",
        "state": "SP",
        "district": "Jardim Danúbio",
        "street": "Rua Divino de Jesus",
        "zipcode": "17132-274"
    },
    {
        "city": "Agudos",
        "state": "SP",
        "district": "Jardim Europa",
        "street": "Rua Idalina Manhanini Miliani",
        "zipcode": "17129-082"
    },
    {
        "city": "Agudos",
        "state": "SP",
        "district": "Residencial Bem Viver",
        "street": "Rua Cezar de Conti",
        "zipcode": "17129-094"
    },
    {
        "city": "Agudos",
        "state": "SP",
        "district": "Chácaras City",
        "street": "Rua Gonçalo Ribas Filho",
        "zipcode": "17125-020"
    },
    {
        "city": "Agudos",
        "state": "SP",
        "district": "Jardim Europa",
        "street": "Rua João Gilberto Andreotti",
        "zipcode": "17129-064"
    },
    {
        "city": "Agudos",
        "state": "SP",
        "district": "Jardim Santo Antônio",
        "street": "Rua Flávio Francisco",
        "zipcode": "17123-034"
    },
    {
        "city": "Agudos",
        "state": "SP",
        "district": "Núcleo Doutor João Ferreira Silveira",
        "street": "Rua Luiz da Riva Filho",
        "zipcode": "17129-146"
    },
    {
        "city": "Agudos",
        "state": "SP",
        "district": "Centro (Domélia)",
        "street": "Rua Marechal Deodoro",
        "zipcode": "17135-970"
    },
    {
        "city": "Agudos",
        "state": "SP",
        "district": "Jardim Santa Cândida",
        "street": "Rua Maria de Jesus Escada",
        "zipcode": "17120-360"
    },
    {
        "city": "Agudos",
        "state": "SP",
        "district": "Vila São Faustino",
        "street": "Rua Adriano Valsésia",
        "zipcode": "17120-400"
    },
    {
        "city": "Agudos",
        "state": "SP",
        "district": "Domélia",
        "street": "",
        "zipcode": "17123-000"
    },
    {
        "city": "Agudos",
        "state": "SP",
        "district": "Núcleo Doutor João Ferreira Silveira",
        "street": "Rua Valdomiro Mesquita",
        "zipcode": "17129-162"
    },
    {
        "city": "Agudos",
        "state": "SP",
        "district": "Jardim Canaã",
        "street": "Rua Walter Wolber",
        "zipcode": "17128-126"
    },
    {
        "city": "Agudos",
        "state": "SP",
        "district": "Jardim Bela Vista",
        "street": "Rua São Gonçalo",
        "zipcode": "17120-196"
    },
    {
        "city": "Agudos",
        "state": "SP",
        "district": "Jardim Santa Cândida",
        "street": "Rua Newton Rodrigues Felão",
        "zipcode": "17120-362"
    },
    {
        "city": "Agudos",
        "state": "SP",
        "district": "Jardim Odilla Propheta Sormani",
        "street": "Travessa Professora Áurea Garcia Napoleone",
        "zipcode": "17132-064"
    },
    {
        "city": "Agudos",
        "state": "SP",
        "district": "Residencial Bem Viver",
        "street": "Rua Oswaldo Lucio da Silva",
        "zipcode": "17129-096"
    },
    {
        "city": "Agudos",
        "state": "SP",
        "district": "Jardim Santa Angelina",
        "street": "Rua Noêmia Mariano Pereira",
        "zipcode": "17123-158"
    },
    {
        "city": "Agudos",
        "state": "SP",
        "district": "Jardim Márcia I",
        "street": "Rua Virgílio Porcino de Mello",
        "zipcode": "17123-062"
    },
    {
        "city": "Agudos",
        "state": "SP",
        "district": "Jardim Maria Luiza",
        "street": "Rua Professora Florentina Colpaert Godinho Ferro",
        "zipcode": "17120-432"
    },
    {
        "city": "Agudos",
        "state": "SP",
        "district": "Jardim Europa",
        "street": "Rua Ovídio de Conti",
        "zipcode": "17129-062"
    },
    {
        "city": "Agudos",
        "state": "SP",
        "district": "Núcleo Doutor João Ferreira Silveira",
        "street": "Rua Sargento Roque Silva",
        "zipcode": "17129-152"
    },
    {
        "city": "Agudos",
        "state": "SP",
        "district": "Jardim Bela Vista",
        "street": "Rua Santo Antônio",
        "zipcode": "17120-208"
    },
    {
        "city": "Agudos",
        "state": "SP",
        "district": "Parque Santo Antônio",
        "street": "Rua Pederneiras",
        "zipcode": "17120-176"
    },
    {
        "city": "Agudos",
        "state": "SP",
        "district": "Jardim Santa Angelina",
        "street": "Rua Romano Dalbeto",
        "zipcode": "17123-124"
    },
    {
        "city": "Agudos",
        "state": "SP",
        "district": "Vila Professor Simões",
        "street": "Rua Ophelis de Almeida Françoso",
        "zipcode": "17120-080"
    },
    {
        "city": "Agudos",
        "state": "SP",
        "district": "Distrito Industrial I",
        "street": "Rua Olímpio Rondina",
        "zipcode": "17123-208"
    },
    {
        "city": "Agudos",
        "state": "SP",
        "district": "Jardim Márcia II",
        "street": "Rua Nair Pereira de Oliveira",
        "zipcode": "17123-072"
    },
    {
        "city": "Agudos",
        "state": "SP",
        "district": "Núcleo Doutor João Ferreira Silveira",
        "street": "Rua Sérgio Antônio Garbuglio",
        "zipcode": "17129-150"
    },
    {
        "city": "Agudos",
        "state": "SP",
        "district": "Vila Santa Terezinha",
        "street": "Rua Nildo Ferro",
        "zipcode": "17120-398"
    },
    {
        "city": "Agudos",
        "state": "SP",
        "district": "Distrito Industrial Hatsuta",
        "street": "Rua Zendin Mahmoud",
        "zipcode": "17123-230"
    },
    {
        "city": "Agudos",
        "state": "SP",
        "district": "Jardim Bela Vista",
        "street": "Rua Santo Ildefonso",
        "zipcode": "17120-190"
    },
    {
        "city": "Agudos",
        "state": "SP",
        "district": "Residencial Centenário Park",
        "street": "Rua Renê Bachi",
        "zipcode": "17129-018"
    },
    {
        "city": "Agudos",
        "state": "SP",
        "district": "Residencial e Comercial Santanna",
        "street": "Rua Professor José Nogueira de Abreu",
        "zipcode": "17128-026"
    },
    {
        "city": "Agudos",
        "state": "SP",
        "district": "Residencial Centenário Park",
        "street": "Rua Regina Torres Moraes",
        "zipcode": "17129-002"
    },
    {
        "city": "Agudos",
        "state": "SP",
        "district": "Recanto dos Nobres I",
        "street": "Rua Tomiko Goto Kuninari",
        "zipcode": "17125-000"
    },
    {
        "city": "Agudos",
        "state": "SP",
        "district": "Centro (Domélia)",
        "street": "Rua Quinze de Novembro",
        "zipcode": "17135-020"
    },
    {
        "city": "Agudos",
        "state": "SP",
        "district": "Vila Nossa Senhora Aparecida",
        "street": "Travessa Vitorino Pedroso",
        "zipcode": "17120-110"
    },
    {
        "city": "Agudos",
        "state": "SP",
        "district": "Vila Malvina",
        "street": "Avenida Cleophano Pitaguari",
        "zipcode": "17128-002"
    },
    {
        "city": "Agudos",
        "state": "SP",
        "district": "Residencial Centenário Park",
        "street": "Rua Kiei Arakak",
        "zipcode": "17129-004"
    },
    {
        "city": "Agudos",
        "state": "SP",
        "district": "Residencial Bem Viver",
        "street": "Rua Alzira caires de Sousa Laurentino",
        "zipcode": "17129-092"
    },
    {
        "city": "Agudos",
        "state": "SP",
        "district": "Residencial Bem Viver",
        "street": "Rua Anthero Gomes SantAnna",
        "zipcode": "17129-120"
    },
    {
        "city": "Agudos",
        "state": "SP",
        "district": "Jardim Europa",
        "street": "Rua Mauro Alcarria",
        "zipcode": "17129-050"
    },
    {
        "city": "Agudos",
        "state": "SP",
        "district": "Parque Pampulha",
        "street": "Travessa Santa Rosa",
        "zipcode": "17132-332"
    },
    {
        "city": "Agudos",
        "state": "SP",
        "district": "Parque São Miguel",
        "street": "Rua Sebastião Faustino Martins",
        "zipcode": "17132-200"
    },
    {
        "city": "Agudos",
        "state": "SP",
        "district": "Jardim Canaã",
        "street": "Rua Benedita de Morais Francisco",
        "zipcode": "17128-114"
    },
    {
        "city": "Agudos",
        "state": "SP",
        "district": "Jardim Odilla Propheta Sormani",
        "street": "Rua Oswaldo Furlani",
        "zipcode": "17132-066"
    },
    {
        "city": "Agudos",
        "state": "SP",
        "district": "Parque Pampulha",
        "street": "Rua Irmã Edti Burga",
        "zipcode": "17132-364"
    },
    {
        "city": "Agudos",
        "state": "SP",
        "district": "Residencial Parque Smeralda",
        "street": "Avenida Manoel Haggi Filho",
        "zipcode": "17128-072"
    },
    {
        "city": "Agudos",
        "state": "SP",
        "district": "Vila Honorina",
        "street": "Avenida Antônio Venturini",
        "zipcode": "17123-012"
    },
    {
        "city": "Agudos",
        "state": "SP",
        "district": "Parque Pampulha",
        "street": "Travessa Santa Margarida",
        "zipcode": "17132-350"
    },
    {
        "city": "Agudos",
        "state": "SP",
        "district": "Centro",
        "street": "Rua Mário Benetti",
        "zipcode": "17120-043"
    },
    {
        "city": "Agudos",
        "state": "SP",
        "district": "Centro",
        "street": "Rua Prefeito Doutor Antônio Condi",
        "zipcode": "17120-013"
    },
    {
        "city": "Agudos",
        "state": "SP",
        "district": "Jardim Márcia II",
        "street": "Rua Kaizo Kuninari",
        "zipcode": "17123-090"
    },
    {
        "city": "Agudos",
        "state": "SP",
        "district": "Núcleo Doutor João Ferreira Silveira",
        "street": "Rua Euclides Rudini",
        "zipcode": "17129-154"
    },
    {
        "city": "Agudos",
        "state": "SP",
        "district": "Parque Pampulha",
        "street": "Rua Claudemir Sheshel Zago",
        "zipcode": "17132-346"
    },
    {
        "city": "Agudos",
        "state": "SP",
        "district": "Jardim Santa Angelina",
        "street": "Rua Manoel Rodrigues Macedo",
        "zipcode": "17123-162"
    },
    {
        "city": "Agudos",
        "state": "SP",
        "district": "Residencial e Comercial Santanna",
        "street": "Avenida Joana Gonçalves Octaviani",
        "zipcode": "17128-022"
    },
    {
        "city": "Agudos",
        "state": "SP",
        "district": "Vila Nossa Senhora Aparecida",
        "street": "Rua Ophelis de Almeida Françoso",
        "zipcode": "17120-116"
    },
    {
        "city": "Agudos",
        "state": "SP",
        "district": "Jardim Europa",
        "street": "Avenida Alzira Fraga Lima",
        "zipcode": "17129-066"
    },
    {
        "city": "Agudos",
        "state": "SP",
        "district": "Jardim Márcia II",
        "street": "Rua Virgílio Porcino de Mello",
        "zipcode": "17123-076"
    },
    {
        "city": "Agudos",
        "state": "SP",
        "district": "Jardim Márcia II",
        "street": "Rua Antonieta Diório Catini",
        "zipcode": "17123-074"
    },
    {
        "city": "Agudos",
        "state": "SP",
        "district": "Parque Pampulha",
        "street": "Rua Izaura Balduzi Pereira",
        "zipcode": "17132-312"
    },
    {
        "city": "Agudos",
        "state": "SP",
        "district": "Jardim Maria Luiza",
        "street": "Rua Maria das Graças de Vellis Sandri",
        "zipcode": "17120-426"
    },
    {
        "city": "Agudos",
        "state": "SP",
        "district": "Residencial Centenário Park",
        "street": "Rua Paulo Benedito Simão",
        "zipcode": "17129-014"
    },
    {
        "city": "Agudos",
        "state": "SP",
        "district": "Distrito Industrial Hatsuta",
        "street": "Rua Batista Andreotti",
        "zipcode": "17123-222"
    },
    {
        "city": "Agudos",
        "state": "SP",
        "district": "Jardim Santa Angelina",
        "street": "Rua Pedro Carmine Deo",
        "zipcode": "17123-150"
    },
    {
        "city": "Agudos",
        "state": "SP",
        "district": "Jardim São Vicente I",
        "street": "Rua Frei Sebastião Ellebrachp",
        "zipcode": "17120-146"
    },
    {
        "city": "Agudos",
        "state": "SP",
        "district": "Residencial e Comercial Santanna",
        "street": "Rua Luiza Bastos Mendes",
        "zipcode": "17128-030"
    },
    {
        "city": "Agudos",
        "state": "SP",
        "district": "Jardim Márcia II",
        "street": "Rua Professora Maria Anália Paranhos Benjamin",
        "zipcode": "17123-098"
    },
    {
        "city": "Agudos",
        "state": "SP",
        "district": "Jardim Maria Luiza",
        "street": "Rua Joaquim Marciano Antonio",
        "zipcode": "17120-428"
    },
    {
        "city": "Agudos",
        "state": "SP",
        "district": "Núcleo Doutor João Ferreira Silveira",
        "street": "Rua Eugênio Ferreira Sobrinho",
        "zipcode": "17129-140"
    },
    {
        "city": "Agudos",
        "state": "SP",
        "district": "Jardim Europa",
        "street": "Avenida Professor Luiz Odassi Neto",
        "zipcode": "17129-068"
    },
    {
        "city": "Agudos",
        "state": "SP",
        "district": "Vila Santa Cecilia",
        "street": "Avenida Major Gasparino de Quadros",
        "zipcode": "17132-028"
    },
    {
        "city": "Agudos",
        "state": "SP",
        "district": "Centro",
        "street": "Avenida João Pessoa",
        "zipcode": "17120-041"
    },
    {
        "city": "Agudos",
        "state": "SP",
        "district": "Chácara Alvorada",
        "street": "Avenida Ratelif",
        "zipcode": "17132-000"
    }
]