[
    {
        "city": "Amparo",
        "state": "SP",
        "district": "Jardim das Orquídeas",
        "street": "Rua Turim",
        "zipcode": "13901-030"
    },
    {
        "city": "Amparo",
        "state": "SP",
        "district": "Centro",
        "street": "Rua Comendador Guimarães",
        "zipcode": "13900-970"
    },
    {
        "city": "Amparo",
        "state": "SP",
        "district": "Centro",
        "street": "Rua General Câmara",
        "zipcode": "13900-280"
    },
    {
        "city": "Amparo",
        "state": "SP",
        "district": "Jardim Nova Era",
        "street": "Rua Sargento Arnaldo O. Aguiar",
        "zipcode": "13901-645"
    },
    {
        "city": "Amparo",
        "state": "SP",
        "district": "São Roque (Três Pontes)",
        "street": "Rua Emily Cristienne Giovanini",
        "zipcode": "13909-105"
    },
    {
        "city": "Amparo",
        "state": "SP",
        "district": "Parque Flamboyant",
        "street": "Rua Mogi",
        "zipcode": "13904-530"
    },
    {
        "city": "Amparo",
        "state": "SP",
        "district": "São Judas",
        "street": "Rua Professor João Barbosa",
        "zipcode": "13901-271"
    },
    {
        "city": "Amparo",
        "state": "SP",
        "district": "Retiro Luiz Cenati",
        "street": "Rua José Angelo Marson",
        "zipcode": "13903-395"
    },
    {
        "city": "Amparo",
        "state": "SP",
        "district": "Retiro Luiz Cenati",
        "street": "Rua José Angelo Marson",
        "zipcode": "13903-970"
    },
    {
        "city": "Amparo",
        "state": "SP",
        "district": "Centro",
        "street": "Avenida Bernardino de Campos",
        "zipcode": "13900-907"
    },
    {
        "city": "Amparo",
        "state": "SP",
        "district": "Centro",
        "street": "Avenida Bernardino de Campos",
        "zipcode": "13900-913"
    },
    {
        "city": "Amparo",
        "state": "SP",
        "district": "Centro",
        "street": "Rua Antônio Joaquim de Almeida",
        "zipcode": "13900-510"
    },
    {
        "city": "Amparo",
        "state": "SP",
        "district": "Centro",
        "street": "Rua Arinda Wadt Pimenta",
        "zipcode": "13900-381"
    },
    {
        "city": "Amparo",
        "state": "SP",
        "district": "Centro",
        "street": "Rua Capitão Alceu Vieira",
        "zipcode": "13900-325"
    },
    {
        "city": "Amparo",
        "state": "SP",
        "district": "Centro",
        "street": "Rua Capitão Miranda",
        "zipcode": "13900-030"
    },
    {
        "city": "Amparo",
        "state": "SP",
        "district": "Centro",
        "street": "Rua Comendador Guimarães",
        "zipcode": "13900-470"
    },
    {
        "city": "Amparo",
        "state": "SP",
        "district": "Jardim Silmara",
        "street": "Rua Constante Cazalini",
        "zipcode": "13905-260"
    },
    {
        "city": "Amparo",
        "state": "SP",
        "district": "Centro",
        "street": "Rua Coronel Bernardino Galvão Prestes",
        "zipcode": "13900-265"
    },
    {
        "city": "Amparo",
        "state": "SP",
        "district": "Jardim Itália",
        "street": "Avenida Doutor Carlos Burgos",
        "zipcode": "13901-080"
    },
    {
        "city": "Amparo",
        "state": "SP",
        "district": "Jardim Itália",
        "street": "Rua Florença",
        "zipcode": "13901-072"
    },
    {
        "city": "Amparo",
        "state": "SP",
        "district": "Centro",
        "street": "Rua Francisco Xavier dos Passos",
        "zipcode": "13900-180"
    },
    {
        "city": "Amparo",
        "state": "SP",
        "district": "Centro",
        "street": "Rua Doutor Franco da Rocha",
        "zipcode": "13900-060"
    },
    {
        "city": "Amparo",
        "state": "SP",
        "district": "Centro",
        "street": "Rua da Glória",
        "zipcode": "13900-107"
    },
    {
        "city": "Amparo",
        "state": "SP",
        "district": "Jardim Santo Antônio",
        "street": "Rua da Imperatriz",
        "zipcode": "13901-230"
    },
    {
        "city": "Amparo",
        "state": "SP",
        "district": "Centro",
        "street": "Praça João Belarmino",
        "zipcode": "13900-389"
    },
    {
        "city": "Amparo",
        "state": "SP",
        "district": "Jardim São Roberto",
        "street": "Rua José Silveira Franco",
        "zipcode": "13901-131"
    },
    {
        "city": "Amparo",
        "state": "SP",
        "district": "Centro",
        "street": "Praça Lions Internacional",
        "zipcode": "13900-272"
    },
    {
        "city": "Amparo",
        "state": "SP",
        "district": "Centro",
        "street": "Rua Luiz Leite",
        "zipcode": "13900-240"
    },
    {
        "city": "Amparo",
        "state": "SP",
        "district": "Jardim Novo Amparo",
        "street": "Rua dos Flamboyants",
        "zipcode": "13901-342"
    },
    {
        "city": "Amparo",
        "state": "SP",
        "district": "Chácara Bocaina",
        "street": "Rua Madame Curie",
        "zipcode": "13902-832"
    },
    {
        "city": "Amparo",
        "state": "SP",
        "district": "Castelo",
        "street": "Rua Edesio de Almeida",
        "zipcode": "13902-110"
    },
    {
        "city": "Amparo",
        "state": "SP",
        "district": "Centro",
        "street": "Rua Afonso Pacetta",
        "zipcode": "13900-540"
    },
    {
        "city": "Amparo",
        "state": "SP",
        "district": "Jardim Santana",
        "street": "Rua Saldanha Marinho",
        "zipcode": "13902-070"
    },
    {
        "city": "Amparo",
        "state": "SP",
        "district": "Centro",
        "street": "Rua Madre França",
        "zipcode": "13900-530"
    },
    {
        "city": "Amparo",
        "state": "SP",
        "district": "Centro",
        "street": "Rua Marechal Deodoro",
        "zipcode": "13900-130"
    },
    {
        "city": "Amparo",
        "state": "SP",
        "district": "Jardim Itália",
        "street": "Rua Nápoles",
        "zipcode": "13901-101"
    },
    {
        "city": "Amparo",
        "state": "SP",
        "district": "Silvestre",
        "street": "Rua Polônia",
        "zipcode": "13901-002"
    },
    {
        "city": "Amparo",
        "state": "SP",
        "district": "Jardim Santo Antônio",
        "street": "Rua Princesa Isabel",
        "zipcode": "13901-210"
    },
    {
        "city": "Amparo",
        "state": "SP",
        "district": "Centro",
        "street": "Rua Prudente de Moraes",
        "zipcode": "13900-270"
    },
    {
        "city": "Amparo",
        "state": "SP",
        "district": "Centro",
        "street": "Rua Quintino Bocaiúva",
        "zipcode": "13900-340"
    },
    {
        "city": "Amparo",
        "state": "SP",
        "district": "Silvestre",
        "street": "Rua Salermo",
        "zipcode": "13901-010"
    },
    {
        "city": "Amparo",
        "state": "SP",
        "district": "São Judas",
        "street": "Rua Santo Bruschini",
        "zipcode": "13901-290"
    },
    {
        "city": "Amparo",
        "state": "SP",
        "district": "Centro",
        "street": "Rua São Benedito",
        "zipcode": "13900-250"
    },
    {
        "city": "Amparo",
        "state": "SP",
        "district": "Centro",
        "street": "Rua Silva Pinto",
        "zipcode": "13900-290"
    },
    {
        "city": "Amparo",
        "state": "SP",
        "district": "Centro",
        "street": "Praça Tenente José Ferraz de Oliveira",
        "zipcode": "13900-029"
    },
    {
        "city": "Amparo",
        "state": "SP",
        "district": "Centro",
        "street": "Rua Treze de Maio",
        "zipcode": "13900-005"
    },
    {
        "city": "Amparo",
        "state": "SP",
        "district": "Jardim Itália",
        "street": "Rua Wilson Vita",
        "zipcode": "13901-061"
    },
    {
        "city": "Amparo",
        "state": "SP",
        "district": "Chácara Brumado",
        "street": "Rua Dois",
        "zipcode": "13901-811"
    },
    {
        "city": "Amparo",
        "state": "SP",
        "district": "Velhobol",
        "street": "Rua Albano Pereira",
        "zipcode": "13902-151"
    },
    {
        "city": "Amparo",
        "state": "SP",
        "district": "Chácara Brumado",
        "street": "Rua Seis",
        "zipcode": "13901-815"
    },
    {
        "city": "Amparo",
        "state": "SP",
        "district": "Jardim Santa Cecília",
        "street": "Rua Tapajós",
        "zipcode": "13902-381"
    },
    {
        "city": "Amparo",
        "state": "SP",
        "district": "Centro",
        "street": "Avenida Prefeito Raul de Oliveira Fagundes",
        "zipcode": "13900-560"
    },
    {
        "city": "Amparo",
        "state": "SP",
        "district": "Centro",
        "street": "Rua Barão de Campinas",
        "zipcode": "13900-110"
    },
    {
        "city": "Amparo",
        "state": "SP",
        "district": "Silvestre",
        "street": "Rua Particular",
        "zipcode": "13901-009"
    },
    {
        "city": "Amparo",
        "state": "SP",
        "district": "Chácara Abdalla",
        "street": "Rua Doutor Bento Souza",
        "zipcode": "13901-162"
    },
    {
        "city": "Amparo",
        "state": "SP",
        "district": "Centro",
        "street": "Rua Rodrigo Silva",
        "zipcode": "13900-150"
    },
    {
        "city": "Amparo",
        "state": "SP",
        "district": "Jardim Primavera",
        "street": "Rua Ana Cintra",
        "zipcode": "13901-310"
    },
    {
        "city": "Amparo",
        "state": "SP",
        "district": "Jardim Adélia",
        "street": "Rua Antilhas",
        "zipcode": "13904-170"
    },
    {
        "city": "Amparo",
        "state": "SP",
        "district": "Jardim Santa Cecília",
        "street": "Rua Araguaia",
        "zipcode": "13902-383"
    },
    {
        "city": "Amparo",
        "state": "SP",
        "district": "Jardim São Francisco",
        "street": "Rua Arthur Alves de Godoy",
        "zipcode": "13903-125"
    },
    {
        "city": "Amparo",
        "state": "SP",
        "district": "Jardim São Sebastião",
        "street": "Rua Bem",
        "zipcode": "13903-332"
    },
    {
        "city": "Amparo",
        "state": "SP",
        "district": "Ribeirão",
        "street": "Rua Cabo João dos Santos",
        "zipcode": "13904-025"
    },
    {
        "city": "Amparo",
        "state": "SP",
        "district": "Jardim Santa Helena",
        "street": "Rua Dois",
        "zipcode": "13901-411"
    },
    {
        "city": "Amparo",
        "state": "SP",
        "district": "Centro",
        "street": "Rua Doutor Arruda",
        "zipcode": "13900-450"
    },
    {
        "city": "Amparo",
        "state": "SP",
        "district": "Jardim Real",
        "street": "Rua Doutor Pedro Azevedo",
        "zipcode": "13902-150"
    },
    {
        "city": "Amparo",
        "state": "SP",
        "district": "Jardim Primavera",
        "street": "Rua Ana Cintra",
        "zipcode": "13901-901"
    },
    {
        "city": "Amparo",
        "state": "SP",
        "district": "Parque Dona Virgínia",
        "street": "Rua Doutor Francisco Franco de Moraes",
        "zipcode": "13903-205"
    },
    {
        "city": "Amparo",
        "state": "SP",
        "district": "Ribeirão",
        "street": "Rua Francisco Luiz da Silva",
        "zipcode": "13904-055"
    },
    {
        "city": "Amparo",
        "state": "SP",
        "district": "Jardim América",
        "street": "Rua das Guianas",
        "zipcode": "13904-110"
    },
    {
        "city": "Amparo",
        "state": "SP",
        "district": "Jardim Moreirinha",
        "street": "Rua Hermes Moreira",
        "zipcode": "13903-334"
    },
    {
        "city": "Amparo",
        "state": "SP",
        "district": "Jardim Real",
        "street": "Rua Horácio Scrosoppi",
        "zipcode": "13902-160"
    },
    {
        "city": "Amparo",
        "state": "SP",
        "district": "Jardim Moreirinha",
        "street": "Avenida Joaquim Moreira",
        "zipcode": "13903-380"
    },
    {
        "city": "Amparo",
        "state": "SP",
        "district": "Jardim Alberto",
        "street": "Rua José Ângelo Matiolli",
        "zipcode": "13903-101"
    },
    {
        "city": "Amparo",
        "state": "SP",
        "district": "Jardim Nova Era",
        "street": "Rua José Guerino Previatello",
        "zipcode": "13901-644"
    },
    {
        "city": "Amparo",
        "state": "SP",
        "district": "Chácara São Francisco",
        "street": "Rua José Rosseti",
        "zipcode": "13902-412"
    },
    {
        "city": "Amparo",
        "state": "SP",
        "district": "Jardim Novo Amparo",
        "street": "Rua das Magnólias",
        "zipcode": "13901-341"
    },
    {
        "city": "Amparo",
        "state": "SP",
        "district": "Jardim Novo Amparo",
        "street": "Rua dos Manacás",
        "zipcode": "13901-330"
    },
    {
        "city": "Amparo",
        "state": "SP",
        "district": "Jardim Cachoeira",
        "street": "Rua Marcílio Consoli",
        "zipcode": "13902-821"
    },
    {
        "city": "Amparo",
        "state": "SP",
        "district": "Jardim Santana",
        "street": "Rua Maria Cecília Rebiere",
        "zipcode": "13902-040"
    },
    {
        "city": "Amparo",
        "state": "SP",
        "district": "Jardim Brasil",
        "street": "Avenida Paraná",
        "zipcode": "13902-230"
    },
    {
        "city": "Amparo",
        "state": "SP",
        "district": "Jardim das Aves",
        "street": "Rua Pelicano",
        "zipcode": "13903-450"
    },
    {
        "city": "Amparo",
        "state": "SP",
        "district": "Jardim Brasil",
        "street": "Rua Piauí",
        "zipcode": "13902-330"
    },
    {
        "city": "Amparo",
        "state": "SP",
        "district": "Jardim das Aves",
        "street": "Rua Pingüim",
        "zipcode": "13903-422"
    },
    {
        "city": "Amparo",
        "state": "SP",
        "district": "Planalto da Serra",
        "street": "Avenida Principal",
        "zipcode": "13902-850"
    },
    {
        "city": "Amparo",
        "state": "SP",
        "district": "Ribeirão",
        "street": "Rua Riachuelo",
        "zipcode": "13904-040"
    },
    {
        "city": "Amparo",
        "state": "SP",
        "district": "Jardim Brasil",
        "street": "Rua Rio Grande do Norte",
        "zipcode": "13902-310"
    },
    {
        "city": "Amparo",
        "state": "SP",
        "district": "Jardim São Dimas",
        "street": "Rua Nelson Vaz",
        "zipcode": "13905-628"
    },
    {
        "city": "Amparo",
        "state": "SP",
        "district": "Velhobol",
        "street": "Rua Albano Pereira",
        "zipcode": "13902-530"
    },
    {
        "city": "Amparo",
        "state": "SP",
        "district": "Chácara Brumado",
        "street": "Rua Quatro",
        "zipcode": "13901-813"
    },
    {
        "city": "Amparo",
        "state": "SP",
        "district": "Chácara Brumado",
        "street": "Rua Um",
        "zipcode": "13901-810"
    },
    {
        "city": "Amparo",
        "state": "SP",
        "district": "Jardim Silvestre IV",
        "street": "Rua Lynda Bellix de Brito",
        "zipcode": "13905-505"
    },
    {
        "city": "Amparo",
        "state": "SP",
        "district": "Chácara Brumado",
        "street": "Rua Oito",
        "zipcode": "13901-817"
    },
    {
        "city": "Amparo",
        "state": "SP",
        "district": "Jardim Brasil",
        "street": "Rua Rio Grande do Sul",
        "zipcode": "13902-290"
    },
    {
        "city": "Amparo",
        "state": "SP",
        "district": "Jardim Brasil",
        "street": "Avenida São Paulo",
        "zipcode": "13902-185"
    },
    {
        "city": "Amparo",
        "state": "SP",
        "district": "Planalto da Serra",
        "street": "Rua Sete",
        "zipcode": "13902-844"
    },
    {
        "city": "Amparo",
        "state": "SP",
        "district": "Jardim das Aves",
        "street": "Rua Siriema",
        "zipcode": "13903-462"
    },
    {
        "city": "Amparo",
        "state": "SP",
        "district": "Planalto da Serra",
        "street": "Rua Um",
        "zipcode": "13902-852"
    },
    {
        "city": "Amparo",
        "state": "SP",
        "district": "Jardim Adélia",
        "street": "Rua Uruguai",
        "zipcode": "13904-250"
    },
    {
        "city": "Amparo",
        "state": "SP",
        "district": "Jardim Adélia",
        "street": "Rua Venezuela",
        "zipcode": "13904-210"
    },
    {
        "city": "Amparo",
        "state": "SP",
        "district": "Chácara Vitória",
        "street": "Rua Victória Régia",
        "zipcode": "13901-680"
    },
    {
        "city": "Amparo",
        "state": "SP",
        "district": "Jardim América",
        "street": "Rua Bolívia",
        "zipcode": "13904-101"
    },
    {
        "city": "Amparo",
        "state": "SP",
        "district": "Jardim Alberto",
        "street": "Rua Antônio de Camargo Andrade",
        "zipcode": "13903-100"
    },
    {
        "city": "Amparo",
        "state": "SP",
        "district": "Centro (Arcadas)",
        "street": "Praça André Jacobsen",
        "zipcode": "13908-050"
    },
    {
        "city": "Amparo",
        "state": "SP",
        "district": "Fazenda Tamburi",
        "street": "Alameda das Paineiras",
        "zipcode": "13903-813"
    },
    {
        "city": "Amparo",
        "state": "SP",
        "district": "Recanto Haydee",
        "street": "Rua Ruy Silva",
        "zipcode": "13902-754"
    },
    {
        "city": "Amparo",
        "state": "SP",
        "district": "Fazenda Tamburi",
        "street": "Alameda dos Flamboyants",
        "zipcode": "13903-814"
    },
    {
        "city": "Amparo",
        "state": "SP",
        "district": "Parque Modelo",
        "street": "Rua Pedro Pacetta",
        "zipcode": "13905-528"
    },
    {
        "city": "Amparo",
        "state": "SP",
        "district": "Castelo",
        "street": "Rua Projetada",
        "zipcode": "13902-120"
    },
    {
        "city": "Amparo",
        "state": "SP",
        "district": "Jardim Bela Vista",
        "street": "Rua Albino Piffer",
        "zipcode": "13903-070"
    },
    {
        "city": "Amparo",
        "state": "SP",
        "district": "Fazenda do Túnel (Arcadas)",
        "street": "Rua Écio Marchiori",
        "zipcode": "13908-553"
    },
    {
        "city": "Amparo",
        "state": "SP",
        "district": "Parque Rodrigues",
        "street": "Rua João José Gutierrez",
        "zipcode": "13903-181"
    },
    {
        "city": "Amparo",
        "state": "SP",
        "district": "Recanto Haydee",
        "street": "Rua Geraldino Rodrigues",
        "zipcode": "13902-755"
    },
    {
        "city": "Amparo",
        "state": "SP",
        "district": "Jardim Silvestre IV",
        "street": "Rua Waldemar Piovesan",
        "zipcode": "13905-511"
    },
    {
        "city": "Amparo",
        "state": "SP",
        "district": "Chácara Flor da Porcelana (Arcadas)",
        "street": "Rua Alceu Toneloto",
        "zipcode": "13908-521"
    },
    {
        "city": "Amparo",
        "state": "SP",
        "district": "Jardim São Sebastião (Arcadas)",
        "street": "Rua Alcides Rocha",
        "zipcode": "13908-400"
    },
    {
        "city": "Amparo",
        "state": "SP",
        "district": "Centro (Três Pontes)",
        "street": "Avenida Anésio Guide",
        "zipcode": "13909-000"
    },
    {
        "city": "Amparo",
        "state": "SP",
        "district": "Centro",
        "street": "Praça da Bandeira",
        "zipcode": "13900-039"
    },
    {
        "city": "Amparo",
        "state": "SP",
        "district": "Jardim Camandocaia",
        "street": "Rua Bélgica",
        "zipcode": "13905-111"
    },
    {
        "city": "Amparo",
        "state": "SP",
        "district": "Centro",
        "street": "Rua Conde Parnaíba",
        "zipcode": "13900-140"
    },
    {
        "city": "Amparo",
        "state": "SP",
        "district": "Centro",
        "street": "Praça Doutor Araújo",
        "zipcode": "13900-038"
    },
    {
        "city": "Amparo",
        "state": "SP",
        "district": "Centro",
        "street": "Parque Doutor Arruda",
        "zipcode": "13900-309"
    },
    {
        "city": "Amparo",
        "state": "SP",
        "district": "Centro",
        "street": "Rua Duque de Caxias",
        "zipcode": "13900-100"
    },
    {
        "city": "Amparo",
        "state": "SP",
        "district": "Jardim Andréia",
        "street": "Rua Engenheiro Edmur Guimarães Pinheiro",
        "zipcode": "13905-320"
    },
    {
        "city": "Amparo",
        "state": "SP",
        "district": "Jardim São Sebastião (Arcadas)",
        "street": "Rua Ernesto Chinaglia",
        "zipcode": "13908-406"
    },
    {
        "city": "Amparo",
        "state": "SP",
        "district": "Jardim Europa",
        "street": "Rua Luis Odair Pires de Araújo",
        "zipcode": "13905-546"
    },
    {
        "city": "Amparo",
        "state": "SP",
        "district": "Ribeirão",
        "street": "Rua Rio Branco",
        "zipcode": "13904-901"
    },
    {
        "city": "Amparo",
        "state": "SP",
        "district": "Jardim Figueira",
        "street": "Rua Rio Jordão",
        "zipcode": "13904-905"
    },
    {
        "city": "Amparo",
        "state": "SP",
        "district": "Jardim Camandocaia",
        "street": "Avenida Europa",
        "zipcode": "13905-902"
    },
    {
        "city": "Amparo",
        "state": "SP",
        "district": "Conjunto Habitacional Vereador Hermínio Gerbi",
        "street": "Rua Filósofo Belloni",
        "zipcode": "13905-683"
    },
    {
        "city": "Amparo",
        "state": "SP",
        "district": "Jardim São Sebastião (Arcadas)",
        "street": "Rua Francisco Liza",
        "zipcode": "13908-404"
    },
    {
        "city": "Amparo",
        "state": "SP",
        "district": "Jardim Silmara",
        "street": "Rua Frederico Trentini",
        "zipcode": "13905-300"
    },
    {
        "city": "Amparo",
        "state": "SP",
        "district": "Jardim Camandocaia",
        "street": "Rua Grécia",
        "zipcode": "13905-122"
    },
    {
        "city": "Amparo",
        "state": "SP",
        "district": "Jardim Figueira",
        "street": "Rua Haiti",
        "zipcode": "13904-407"
    },
    {
        "city": "Amparo",
        "state": "SP",
        "district": "Centro (Arcadas)",
        "street": "Rua Henrique Frederico",
        "zipcode": "13908-200"
    },
    {
        "city": "Amparo",
        "state": "SP",
        "district": "Centro",
        "street": "Rua Hilário Zanesco",
        "zipcode": "13900-106"
    },
    {
        "city": "Amparo",
        "state": "SP",
        "district": "Jardim São Dimas",
        "street": "Rua João Candelária",
        "zipcode": "13905-623"
    },
    {
        "city": "Amparo",
        "state": "SP",
        "district": "Jardim Silvestre I",
        "street": "Rua João Petroli",
        "zipcode": "13905-463"
    },
    {
        "city": "Amparo",
        "state": "SP",
        "district": "Centro (Arcadas)",
        "street": "Rua José Macedo",
        "zipcode": "13908-221"
    },
    {
        "city": "Amparo",
        "state": "SP",
        "district": "Conjunto Habitacional Vereador Hermínio Gerbi",
        "street": "Rua José Mendes de Oliveira",
        "zipcode": "13905-681"
    },
    {
        "city": "Amparo",
        "state": "SP",
        "district": "Jardim Camandocaia",
        "street": "Rua José Siqueira Cezar",
        "zipcode": "13905-145"
    },
    {
        "city": "Amparo",
        "state": "SP",
        "district": "Centro (Arcadas)",
        "street": "Rua Luís Possolini",
        "zipcode": "13908-010"
    },
    {
        "city": "Amparo",
        "state": "SP",
        "district": "Parque Flamboyant",
        "street": "Rua Monte Alegre do Sul",
        "zipcode": "13904-511"
    },
    {
        "city": "Amparo",
        "state": "SP",
        "district": "Parque Flamboyant",
        "street": "Rua Morungaba",
        "zipcode": "13904-533"
    },
    {
        "city": "Amparo",
        "state": "SP",
        "district": "Centro",
        "street": "Rua Oito de Abril",
        "zipcode": "13900-070"
    },
    {
        "city": "Amparo",
        "state": "SP",
        "district": "Centro",
        "street": "Rua Prefeito Alcides Penteado",
        "zipcode": "13900-050"
    },
    {
        "city": "Amparo",
        "state": "SP",
        "district": "Jardim Modelo",
        "street": "Rua Professor José Geraldo Alves",
        "zipcode": "13905-651"
    },
    {
        "city": "Amparo",
        "state": "SP",
        "district": "Centro (Três Pontes)",
        "street": "Rua Professora Pedrina Maria da S. Valente",
        "zipcode": "13909-100"
    },
    {
        "city": "Amparo",
        "state": "SP",
        "district": "Jardim Camandocaia",
        "street": "Rótula Paulo Bernardino da Silva",
        "zipcode": "13905-159"
    },
    {
        "city": "Amparo",
        "state": "SP",
        "district": "Chácara Brumado",
        "street": "Rua Sete",
        "zipcode": "13901-816"
    },
    {
        "city": "Amparo",
        "state": "SP",
        "district": "Centro",
        "street": "Rua Quinze de Novembro",
        "zipcode": "13900-090"
    },
    {
        "city": "Amparo",
        "state": "SP",
        "district": "Jardim Camandocaia",
        "street": "Rua Ricieri Petri",
        "zipcode": "13905-162"
    },
    {
        "city": "Amparo",
        "state": "SP",
        "district": "Jardim Figueira",
        "street": "Rua Rio Jordão",
        "zipcode": "13904-350"
    },
    {
        "city": "Amparo",
        "state": "SP",
        "district": "Jardim Figueira",
        "street": "Rua Rio Tigre",
        "zipcode": "13904-300"
    },
    {
        "city": "Amparo",
        "state": "SP",
        "district": "Jardim Silvestre I",
        "street": "Rua Rosário Ferrari",
        "zipcode": "13905-467"
    },
    {
        "city": "Amparo",
        "state": "SP",
        "district": "Centro (Arcadas)",
        "street": "Rua Santo Agostinho",
        "zipcode": "13908-080"
    },
    {
        "city": "Amparo",
        "state": "SP",
        "district": "Parque Cecap",
        "street": "Rua Argemiro V. de Oliveira",
        "zipcode": "13905-173"
    },
    {
        "city": "Amparo",
        "state": "SP",
        "district": "Chácara São João",
        "street": "Estrada Municipal do Modelo (AMP",
        "zipcode": "13905-700"
    },
    {
        "city": "Amparo",
        "state": "SP",
        "district": "Centro",
        "street": "Rua Jundiaí",
        "zipcode": "13900-360"
    },
    {
        "city": "Amparo",
        "state": "SP",
        "district": "Jardim Figueira",
        "street": "Avenida Rio Danúbio",
        "zipcode": "13904-360"
    },
    {
        "city": "Amparo",
        "state": "SP",
        "district": "Parque Modelo",
        "street": "Rua Antônio Angelo Carvalho",
        "zipcode": "13905-521"
    },
    {
        "city": "Amparo",
        "state": "SP",
        "district": "Parque Modelo",
        "street": "Rua Maria Monteiro Merlo",
        "zipcode": "13905-525"
    },
    {
        "city": "Amparo",
        "state": "SP",
        "district": "Vale Verde",
        "street": "Rua Ceverino Vicentini",
        "zipcode": "13904-800"
    },
    {
        "city": "Amparo",
        "state": "SP",
        "district": "Residencial Santa Maria Amparo",
        "street": "Rua Professora Dona Nini",
        "zipcode": "13905-766"
    },
    {
        "city": "Amparo",
        "state": "SP",
        "district": "Centro",
        "street": "Rua Ângelo de Vitta",
        "zipcode": "13900-440"
    },
    {
        "city": "Amparo",
        "state": "SP",
        "district": "Jardim Nova Era",
        "street": "Rua Euclydes Avancini",
        "zipcode": "13901-634"
    },
    {
        "city": "Amparo",
        "state": "SP",
        "district": "Fazenda do Túnel (Arcadas)",
        "street": "Rua Luiz Toniati",
        "zipcode": "13908-554"
    },
    {
        "city": "Amparo",
        "state": "SP",
        "district": "Centro",
        "street": "Rua Antônio Maurano",
        "zipcode": "13900-405"
    },
    {
        "city": "Amparo",
        "state": "SP",
        "district": "Centro",
        "street": "Rua Argemiro Silvestre",
        "zipcode": "13900-375"
    },
    {
        "city": "Amparo",
        "state": "SP",
        "district": "Centro",
        "street": "Rua Benjamin Constant",
        "zipcode": "13900-160"
    },
    {
        "city": "Amparo",
        "state": "SP",
        "district": "Parque do Sol",
        "street": "Rua C",
        "zipcode": "13901-660"
    },
    {
        "city": "Amparo",
        "state": "SP",
        "district": "Centro",
        "street": "Rua Carlos de Campos",
        "zipcode": "13900-260"
    },
    {
        "city": "Amparo",
        "state": "SP",
        "district": "Centro",
        "street": "Rua Carlos Gomes",
        "zipcode": "13900-371"
    },
    {
        "city": "Amparo",
        "state": "SP",
        "district": "Jardim das Orquídeas",
        "street": "Rua Catânia",
        "zipcode": "13901-031"
    },
    {
        "city": "Amparo",
        "state": "SP",
        "district": "Silvestre",
        "street": "Rua Tchecoslováquia",
        "zipcode": "13901-007"
    },
    {
        "city": "Amparo",
        "state": "SP",
        "district": "Centro",
        "street": "Rua Deputado Narciso Pieroni",
        "zipcode": "13900-262"
    },
    {
        "city": "Amparo",
        "state": "SP",
        "district": "Centro",
        "street": "Praça Doutor Virgílio de Araújo",
        "zipcode": "13900-415"
    },
    {
        "city": "Amparo",
        "state": "SP",
        "district": "Jardim Bandeirantes (Arcadas)",
        "street": "Rua Eneida Angelina Lodetti",
        "zipcode": "13908-320"
    },
    {
        "city": "Amparo",
        "state": "SP",
        "district": "Centro",
        "street": "Rua Floriano Peixoto",
        "zipcode": "13900-330"
    },
    {
        "city": "Amparo",
        "state": "SP",
        "district": "Centro",
        "street": "Rua Francisco de Souza Araújo",
        "zipcode": "13900-310"
    },
    {
        "city": "Amparo",
        "state": "SP",
        "district": "Centro",
        "street": "Avenida Francisco Prestes Maia",
        "zipcode": "13900-200"
    },
    {
        "city": "Amparo",
        "state": "SP",
        "district": "Centro",
        "street": "Rua Galvão Bueno",
        "zipcode": "13900-267"
    },
    {
        "city": "Amparo",
        "state": "SP",
        "district": "Centro",
        "street": "Rua Humberto Beretta",
        "zipcode": "13900-220"
    },
    {
        "city": "Amparo",
        "state": "SP",
        "district": "Centro",
        "street": "Rua José Alves de Godoy",
        "zipcode": "13900-390"
    },
    {
        "city": "Amparo",
        "state": "SP",
        "district": "Centro",
        "street": "Rua José Araújo Cintra",
        "zipcode": "13900-460"
    },
    {
        "city": "Amparo",
        "state": "SP",
        "district": "Centro",
        "street": "Rua José Bonifácio",
        "zipcode": "13900-320"
    },
    {
        "city": "Amparo",
        "state": "SP",
        "district": "Centro",
        "street": "Rua José Fontana",
        "zipcode": "13900-480"
    },
    {
        "city": "Amparo",
        "state": "SP",
        "district": "Jardim São Francisco",
        "street": "Rua José Jacinto de Araújo Cintra",
        "zipcode": "13903-120"
    },
    {
        "city": "Amparo",
        "state": "SP",
        "district": "Centro",
        "street": "Rua Manoel de Miranda Antunes",
        "zipcode": "13900-263"
    },
    {
        "city": "Amparo",
        "state": "SP",
        "district": "Centro",
        "street": "Rua Manoel Heitor",
        "zipcode": "13900-550"
    },
    {
        "city": "Amparo",
        "state": "SP",
        "district": "Centro",
        "street": "Rua Manoel Vaz Pinto",
        "zipcode": "13900-520"
    },
    {
        "city": "Amparo",
        "state": "SP",
        "district": "Jardim das Orquídeas",
        "street": "Rua Mantova",
        "zipcode": "13901-032"
    },
    {
        "city": "Amparo",
        "state": "SP",
        "district": "Centro",
        "street": "Praça Meireles Reis",
        "zipcode": "13900-376"
    },
    {
        "city": "Amparo",
        "state": "SP",
        "district": "Jardim das Orquídeas",
        "street": "Rua Monza",
        "zipcode": "13901-035"
    },
    {
        "city": "Amparo",
        "state": "SP",
        "district": "Jardim Alberto",
        "street": "Rua Nicolau Maffei",
        "zipcode": "13903-080"
    },
    {
        "city": "Amparo",
        "state": "SP",
        "district": "Silvestre",
        "street": "Rua Pedro Fernandes",
        "zipcode": "13901-005"
    },
    {
        "city": "Amparo",
        "state": "SP",
        "district": "Jardim Itália",
        "street": "Rua Roma",
        "zipcode": "13901-060"
    },
    {
        "city": "Amparo",
        "state": "SP",
        "district": "Centro",
        "street": "Largo do Rosário",
        "zipcode": "13900-319"
    },
    {
        "city": "Amparo",
        "state": "SP",
        "district": "Centro",
        "street": "Largo Santa Cruz",
        "zipcode": "13900-359"
    },
    {
        "city": "Amparo",
        "state": "SP",
        "district": "Centro",
        "street": "Avenida da Saudade",
        "zipcode": "13900-570"
    },
    {
        "city": "Amparo",
        "state": "SP",
        "district": "Silvestre",
        "street": "Rua Suíça",
        "zipcode": "13901-008"
    },
    {
        "city": "Amparo",
        "state": "SP",
        "district": "Centro",
        "street": "Rua do Triunfo",
        "zipcode": "13900-109"
    },
    {
        "city": "Amparo",
        "state": "SP",
        "district": "Centro",
        "street": "Rua Valeriana Cintra",
        "zipcode": "13900-350"
    },
    {
        "city": "Amparo",
        "state": "SP",
        "district": "Centro",
        "street": "Rua Visconde de Soutelo",
        "zipcode": "13900-120"
    },
    {
        "city": "Amparo",
        "state": "SP",
        "district": "São Judas",
        "street": "Rua Nelson de Souza Andrade",
        "zipcode": "13901-272"
    },
    {
        "city": "Amparo",
        "state": "SP",
        "district": "Centro",
        "street": "Praça Irmã Irene",
        "zipcode": "13900-268"
    },
    {
        "city": "Amparo",
        "state": "SP",
        "district": "Loteamento Panorama Tropical",
        "street": "Rua Ilmen Therezinha Carlini Geraldino",
        "zipcode": "13905-482"
    },
    {
        "city": "Amparo",
        "state": "SP",
        "district": "Centro",
        "street": "Praça Ignácio Pupo",
        "zipcode": "13900-269"
    },
    {
        "city": "Amparo",
        "state": "SP",
        "district": "Centro",
        "street": "Rua Décio Pacheco da Silveira",
        "zipcode": "13900-230"
    },
    {
        "city": "Amparo",
        "state": "SP",
        "district": "Silvestre",
        "street": "Rua Doutor Constâncio Cintra",
        "zipcode": "13901-011"
    },
    {
        "city": "Amparo",
        "state": "SP",
        "district": "Silvestre",
        "street": "Rua José Carlos Duo",
        "zipcode": "13901-001"
    },
    {
        "city": "Amparo",
        "state": "SP",
        "district": "Silvestre",
        "street": "Rua Ovando de Campos",
        "zipcode": "13901-004"
    },
    {
        "city": "Amparo",
        "state": "SP",
        "district": "Centro",
        "street": "Rua Vitale Tambellini",
        "zipcode": "13900-135"
    },
    {
        "city": "Amparo",
        "state": "SP",
        "district": "Residencial Villagio Di Fiori",
        "street": "Alameda Capitão Lucas Cardoso da Silva",
        "zipcode": "13901-505"
    },
    {
        "city": "Amparo",
        "state": "SP",
        "district": "Arruda",
        "street": "Estrada Affonso Ribeiro Persicano",
        "zipcode": "13901-805"
    },
    {
        "city": "Amparo",
        "state": "SP",
        "district": "Jardim Santo Antônio",
        "street": "Praça Pedro Flaiban",
        "zipcode": "13901-219"
    },
    {
        "city": "Amparo",
        "state": "SP",
        "district": "Fazenda São José (Arcadas)",
        "street": "Rua Quatro",
        "zipcode": "13908-653"
    },
    {
        "city": "Amparo",
        "state": "SP",
        "district": "Jardim São Sebastião (Arcadas)",
        "street": "Rua Jácomo Cassiani",
        "zipcode": "13908-407"
    },
    {
        "city": "Amparo",
        "state": "SP",
        "district": "Recanto do Lago",
        "street": "Rua Antônio Carlos Arruda Campos",
        "zipcode": "13904-710"
    },
    {
        "city": "Amparo",
        "state": "SP",
        "district": "Ribeirão",
        "street": "Rua Carlos Cassino",
        "zipcode": "13904-031"
    },
    {
        "city": "Amparo",
        "state": "SP",
        "district": "Jardim Silvestre IV",
        "street": "Rua Hermínio Monti",
        "zipcode": "13905-503"
    },
    {
        "city": "Amparo",
        "state": "SP",
        "district": "Centro",
        "street": "Rua Pedro Mansani Mazini",
        "zipcode": "13900-264"
    },
    {
        "city": "Amparo",
        "state": "SP",
        "district": "Loteamento Panorama Tropical",
        "street": "Rua Antônio Gonçalves Ferreira",
        "zipcode": "13905-481"
    },
    {
        "city": "Amparo",
        "state": "SP",
        "district": "Centro",
        "street": "Praça Rubens Rosasco",
        "zipcode": "13900-266"
    },
    {
        "city": "Amparo",
        "state": "SP",
        "district": "Jardim São José",
        "street": "Rua Ana Bernardino",
        "zipcode": "13901-160"
    },
    {
        "city": "Amparo",
        "state": "SP",
        "district": "Jardim Itália",
        "street": "Rua Ancona",
        "zipcode": "13901-071"
    },
    {
        "city": "Amparo",
        "state": "SP",
        "district": "Jardim Santo Antônio",
        "street": "Rua Antônio do Canto e Castro",
        "zipcode": "13901-240"
    },
    {
        "city": "Amparo",
        "state": "SP",
        "district": "Jardim Nova Era",
        "street": "Rua B",
        "zipcode": "13901-632"
    },
    {
        "city": "Amparo",
        "state": "SP",
        "district": "São Judas",
        "street": "Rua Barão Cintra",
        "zipcode": "13901-280"
    },
    {
        "city": "Amparo",
        "state": "SP",
        "district": "Jardim Itália",
        "street": "Rua Bolonha",
        "zipcode": "13901-093"
    },
    {
        "city": "Amparo",
        "state": "SP",
        "district": "Chácara Vitória",
        "street": "Rua Camélias",
        "zipcode": "13901-681"
    },
    {
        "city": "Amparo",
        "state": "SP",
        "district": "Jardim São Roberto",
        "street": "Avenida Carlos Augusto do Amaral Sobrinho",
        "zipcode": "13901-150"
    },
    {
        "city": "Amparo",
        "state": "SP",
        "district": "Jardim Primavera",
        "street": "Rua dos Chorões",
        "zipcode": "13901-321"
    },
    {
        "city": "Amparo",
        "state": "SP",
        "district": "Chácara Vitória",
        "street": "Rua Ciprestes",
        "zipcode": "13901-683"
    },
    {
        "city": "Amparo",
        "state": "SP",
        "district": "Parque do Sol",
        "street": "Rua Daniel Fachardo Junqueira",
        "zipcode": "13901-663"
    },
    {
        "city": "Amparo",
        "state": "SP",
        "district": "Parque do Sol",
        "street": "Rua Dez",
        "zipcode": "13901-675"
    },
    {
        "city": "Amparo",
        "state": "SP",
        "district": "Jardim Santo Antônio",
        "street": "Rua Dom Pedro II",
        "zipcode": "13901-220"
    },
    {
        "city": "Amparo",
        "state": "SP",
        "district": "Jardim São Roberto",
        "street": "Rua Francisco DAssis Prado",
        "zipcode": "13901-130"
    },
    {
        "city": "Amparo",
        "state": "SP",
        "district": "São Judas",
        "street": "Rua Frei Serafim",
        "zipcode": "13901-273"
    },
    {
        "city": "Amparo",
        "state": "SP",
        "district": "Loteamento Marson",
        "street": "Rua Gustavo Vasconcellos",
        "zipcode": "13901-170"
    },
    {
        "city": "Amparo",
        "state": "SP",
        "district": "Chácara Vitória",
        "street": "Rua Hortências",
        "zipcode": "13901-685"
    },
    {
        "city": "Amparo",
        "state": "SP",
        "district": "Jardim Novo Amparo",
        "street": "Rua dos Ibiscos",
        "zipcode": "13901-332"
    },
    {
        "city": "Amparo",
        "state": "SP",
        "district": "Centro",
        "street": "Rua General Osório",
        "zipcode": "13900-380"
    },
    {
        "city": "Amparo",
        "state": "SP",
        "district": "Jardim Primavera",
        "street": "Rua dos Ypês",
        "zipcode": "13901-323"
    },
    {
        "city": "Amparo",
        "state": "SP",
        "district": "Jardim Nova Era",
        "street": "Rua Irene de A. Vasconcellos",
        "zipcode": "13901-640"
    },
    {
        "city": "Amparo",
        "state": "SP",
        "district": "Jardim Nova Era",
        "street": "Rua João Pagan",
        "zipcode": "13901-642"
    },
    {
        "city": "Amparo",
        "state": "SP",
        "district": "Jardim São José",
        "street": "Rua Jorge José",
        "zipcode": "13901-154"
    },
    {
        "city": "Amparo",
        "state": "SP",
        "district": "Jardim Nova Era",
        "street": "Rua José Caram Matta",
        "zipcode": "13901-643"
    },
    {
        "city": "Amparo",
        "state": "SP",
        "district": "Chácara Vitória",
        "street": "Rua Lírios",
        "zipcode": "13901-684"
    },
    {
        "city": "Amparo",
        "state": "SP",
        "district": "Jardim Santo Antônio",
        "street": "Rua Manoel Henrique",
        "zipcode": "13901-250"
    },
    {
        "city": "Amparo",
        "state": "SP",
        "district": "Jardim Itália",
        "street": "Rua Milão",
        "zipcode": "13901-070"
    },
    {
        "city": "Amparo",
        "state": "SP",
        "district": "Jardim Santa Helena",
        "street": "Estrada Municipal do Jaburu",
        "zipcode": "13901-400"
    },
    {
        "city": "Amparo",
        "state": "SP",
        "district": "Loteamento Marson",
        "street": "Rua Melvin Jones",
        "zipcode": "13901-171"
    },
    {
        "city": "Amparo",
        "state": "SP",
        "district": "Parque do Sol",
        "street": "Rua Nove",
        "zipcode": "13901-674"
    },
    {
        "city": "Amparo",
        "state": "SP",
        "district": "Parque do Sol",
        "street": "Rua Oscar Rosa dos Santos",
        "zipcode": "13901-661"
    },
    {
        "city": "Amparo",
        "state": "SP",
        "district": "Parque do Sol",
        "street": "Rua Padre João Manuel de Carvalho",
        "zipcode": "13901-664"
    },
    {
        "city": "Amparo",
        "state": "SP",
        "district": "Chácara Abdalla",
        "street": "Rua Padre Narciso",
        "zipcode": "13901-163"
    },
    {
        "city": "Amparo",
        "state": "SP",
        "district": "Jardim Primavera",
        "street": "Rua Primavera",
        "zipcode": "13901-320"
    },
    {
        "city": "Amparo",
        "state": "SP",
        "district": "São Judas",
        "street": "Rua Professor Antônio Locks",
        "zipcode": "13901-292"
    },
    {
        "city": "Amparo",
        "state": "SP",
        "district": "Jardim Seabra",
        "street": "Rua Wanda Seabra",
        "zipcode": "13902-763"
    },
    {
        "city": "Amparo",
        "state": "SP",
        "district": "Jardim Novo Amparo",
        "street": "Rua das Quaresmeiras",
        "zipcode": "13901-331"
    },
    {
        "city": "Amparo",
        "state": "SP",
        "district": "Jardim Itália",
        "street": "Rua Romeu Mezzacapa",
        "zipcode": "13901-115"
    },
    {
        "city": "Amparo",
        "state": "SP",
        "district": "Jardim Santa Helena",
        "street": "Rua Seis",
        "zipcode": "13901-414"
    },
    {
        "city": "Amparo",
        "state": "SP",
        "district": "Jardim Itália",
        "street": "Rua Siena",
        "zipcode": "13901-111"
    },
    {
        "city": "Amparo",
        "state": "SP",
        "district": "Jardim Santa Helena",
        "street": "Rua Um",
        "zipcode": "13901-410"
    },
    {
        "city": "Amparo",
        "state": "SP",
        "district": "Jardim Nova Era",
        "street": "Rua Um",
        "zipcode": "13901-630"
    },
    {
        "city": "Amparo",
        "state": "SP",
        "district": "Jardim Itália",
        "street": "Rua Vaticano",
        "zipcode": "13901-090"
    },
    {
        "city": "Amparo",
        "state": "SP",
        "district": "Jardim Itália",
        "street": "Rua Livorno",
        "zipcode": "13901-092"
    },
    {
        "city": "Amparo",
        "state": "SP",
        "district": "Arruda",
        "street": "Rodovia Antônio Cazarini (SP",
        "zipcode": "13901-800"
    },
    {
        "city": "Amparo",
        "state": "SP",
        "district": "Jardim Itália",
        "street": "Rua Gênova",
        "zipcode": "13901-091"
    },
    {
        "city": "Amparo",
        "state": "SP",
        "district": "Jardim São Roberto",
        "street": "Rua Professor José Lourenço Gomes",
        "zipcode": "13901-135"
    },
    {
        "city": "Amparo",
        "state": "SP",
        "district": "Loteamento Marson",
        "street": "Rua Dario Pires",
        "zipcode": "13901-180"
    },
    {
        "city": "Amparo",
        "state": "SP",
        "district": "Jardim Brasil",
        "street": "Rua Acre",
        "zipcode": "13902-171"
    },
    {
        "city": "Amparo",
        "state": "SP",
        "district": "Jardim Brasil",
        "street": "Rua Alagoas",
        "zipcode": "13902-170"
    },
    {
        "city": "Amparo",
        "state": "SP",
        "district": "Jardim Vila Rica",
        "street": "Rua Alcides Barrassa",
        "zipcode": "13903-150"
    },
    {
        "city": "Amparo",
        "state": "SP",
        "district": "Chácara Bocaina",
        "street": "Rua Amadeu Lombardi",
        "zipcode": "13902-836"
    },
    {
        "city": "Amparo",
        "state": "SP",
        "district": "Jardim Brasil",
        "street": "Rua Amapá",
        "zipcode": "13902-272"
    },
    {
        "city": "Amparo",
        "state": "SP",
        "district": "Jardim Brasil",
        "street": "Rua Amazonas",
        "zipcode": "13902-180"
    },
    {
        "city": "Amparo",
        "state": "SP",
        "district": "Jardim Primavera",
        "street": "Rua Waldir Sibinelli",
        "zipcode": "13901-324"
    },
    {
        "city": "Amparo",
        "state": "SP",
        "district": "Jardim Cachoeira",
        "street": "Rodovia Amparo",
        "zipcode": "13902-800"
    },
    {
        "city": "Amparo",
        "state": "SP",
        "district": "Jardim Santa Júlia",
        "street": "Rua Ângelo Bastos",
        "zipcode": "13902-402"
    },
    {
        "city": "Amparo",
        "state": "SP",
        "district": "Jardim Seabra",
        "street": "Rua Antônio Miotta",
        "zipcode": "13902-760"
    },
    {
        "city": "Amparo",
        "state": "SP",
        "district": "Jardim Silvana",
        "street": "Rua Antônio Moreira da Silva",
        "zipcode": "13903-133"
    },
    {
        "city": "Amparo",
        "state": "SP",
        "district": "Jardim Brasil",
        "street": "Rua Bahia",
        "zipcode": "13902-370"
    },
    {
        "city": "Amparo",
        "state": "SP",
        "district": "Chácara São Francisco",
        "street": "Rua Benedito Gonçalves",
        "zipcode": "13902-413"
    },
    {
        "city": "Amparo",
        "state": "SP",
        "district": "Jardim Cachoeira",
        "street": "Rua Carlos de Campos Bueno",
        "zipcode": "13902-823"
    },
    {
        "city": "Amparo",
        "state": "SP",
        "district": "Jardim Brasil",
        "street": "Rua Ceará",
        "zipcode": "13902-361"
    },
    {
        "city": "Amparo",
        "state": "SP",
        "district": "Planalto da Serra",
        "street": "Rua Cinco",
        "zipcode": "13902-843"
    },
    {
        "city": "Amparo",
        "state": "SP",
        "district": "Planalto da Serra",
        "street": "Rua Dez",
        "zipcode": "13902-853"
    },
    {
        "city": "Amparo",
        "state": "SP",
        "district": "Jardim Cachoeira",
        "street": "Rua Edmundo José Ferraroli",
        "zipcode": "13902-822"
    },
    {
        "city": "Amparo",
        "state": "SP",
        "district": "Jardim Brasil",
        "street": "Rua Goiás",
        "zipcode": "13902-350"
    },
    {
        "city": "Amparo",
        "state": "SP",
        "district": "Jardim Brasil",
        "street": "Rua Guanabara",
        "zipcode": "13902-340"
    },
    {
        "city": "Amparo",
        "state": "SP",
        "district": "Jardim Real",
        "street": "Rua Homero da Costa Pimentel",
        "zipcode": "13902-165"
    },
    {
        "city": "Amparo",
        "state": "SP",
        "district": "Jardim Alberto",
        "street": "Rua João Lourenço Rodrigues",
        "zipcode": "13903-102"
    },
    {
        "city": "Amparo",
        "state": "SP",
        "district": "Jardim Santana",
        "street": "Rua Leopoldo Cunha",
        "zipcode": "13902-060"
    },
    {
        "city": "Amparo",
        "state": "SP",
        "district": "Jardim Alberto",
        "street": "Rua Manoel de Mattos Azevedo",
        "zipcode": "13903-090"
    },
    {
        "city": "Amparo",
        "state": "SP",
        "district": "Jardim Brasil",
        "street": "Rua Maranhão",
        "zipcode": "13902-190"
    },
    {
        "city": "Amparo",
        "state": "SP",
        "district": "Jardim Brasil",
        "street": "Rua Minas Gerais",
        "zipcode": "13902-210"
    },
    {
        "city": "Amparo",
        "state": "SP",
        "district": "Chácara Bocaina",
        "street": "Rua Nicolau Martorano",
        "zipcode": "13902-833"
    },
    {
        "city": "Amparo",
        "state": "SP",
        "district": "Chácara Bocaina",
        "street": "Avenida Nossa Senhora do Amparo",
        "zipcode": "13902-831"
    },
    {
        "city": "Amparo",
        "state": "SP",
        "district": "Planalto da Serra",
        "street": "Rua Nove",
        "zipcode": "13902-846"
    },
    {
        "city": "Amparo",
        "state": "SP",
        "district": "Velhobol",
        "street": "Rua Odilon Monteiro",
        "zipcode": "13902-520"
    },
    {
        "city": "Amparo",
        "state": "SP",
        "district": "Planalto da Serra",
        "street": "Rua Oito",
        "zipcode": "13902-847"
    },
    {
        "city": "Amparo",
        "state": "SP",
        "district": "Jardim Brasil",
        "street": "Rua Pará",
        "zipcode": "13902-200"
    },
    {
        "city": "Amparo",
        "state": "SP",
        "district": "Jardim Brasil",
        "street": "Rua Paraíba",
        "zipcode": "13902-300"
    },
    {
        "city": "Amparo",
        "state": "SP",
        "district": "Recanto Haydee",
        "street": "Rua Professor Ennio Freddi",
        "zipcode": "13902-751"
    },
    {
        "city": "Amparo",
        "state": "SP",
        "district": "Planalto da Serra",
        "street": "Rua Quatro",
        "zipcode": "13902-848"
    },
    {
        "city": "Amparo",
        "state": "SP",
        "district": "Chácara Bocaina",
        "street": "Rua Rafael Ricardo Rossi",
        "zipcode": "13902-838"
    },
    {
        "city": "Amparo",
        "state": "SP",
        "district": "Jardim Brasil",
        "street": "Rua Rio de Janeiro",
        "zipcode": "13902-240"
    },
    {
        "city": "Amparo",
        "state": "SP",
        "district": "Jardim Brasil",
        "street": "Rua Roraima",
        "zipcode": "13902-260"
    },
    {
        "city": "Amparo",
        "state": "SP",
        "district": "Jardim Brasil",
        "street": "Rua Sergipe",
        "zipcode": "13902-271"
    },
    {
        "city": "Amparo",
        "state": "SP",
        "district": "Jardim Santa Cecília",
        "street": "Rua Solimões",
        "zipcode": "13902-400"
    },
    {
        "city": "Amparo",
        "state": "SP",
        "district": "Jardim Alberto",
        "street": "Rua Tristão da Silveira Campos",
        "zipcode": "13903-081"
    },
    {
        "city": "Amparo",
        "state": "SP",
        "district": "Recanto Haydee",
        "street": "Rua Vereador Pedro Piva",
        "zipcode": "13902-752"
    },
    {
        "city": "Amparo",
        "state": "SP",
        "district": "Castelo",
        "street": "Rua Vicente José Alberti",
        "zipcode": "13902-100"
    },
    {
        "city": "Amparo",
        "state": "SP",
        "district": "Jardim Cachoeira",
        "street": "Rua José Franco de Ávila",
        "zipcode": "13902-824"
    },
    {
        "city": "Amparo",
        "state": "SP",
        "district": "Jardim Santana",
        "street": "Rua Nove de Julho",
        "zipcode": "13902-030"
    },
    {
        "city": "Amparo",
        "state": "SP",
        "district": "Planalto da Serra",
        "street": "Rua Seis",
        "zipcode": "13902-842"
    },
    {
        "city": "Amparo",
        "state": "SP",
        "district": "Jardim Real",
        "street": "Rua Madre Maria C. de Sena",
        "zipcode": "13902-155"
    },
    {
        "city": "Amparo",
        "state": "SP",
        "district": "Jardim São Sebastião",
        "street": "Rua Amadeu Lombardi",
        "zipcode": "13903-250"
    },
    {
        "city": "Amparo",
        "state": "SP",
        "district": "Jardim Nova Era",
        "street": "Rua Francisco Tavella",
        "zipcode": "13901-635"
    },
    {
        "city": "Amparo",
        "state": "SP",
        "district": "Jardim Santa Júlia",
        "street": "Rua João Panegassi",
        "zipcode": "13902-403"
    },
    {
        "city": "Amparo",
        "state": "SP",
        "district": "Residencial Paulistano",
        "street": "Rua Maria Castelucci",
        "zipcode": "13901-264"
    },
    {
        "city": "Amparo",
        "state": "SP",
        "district": "Jardim São Sebastião",
        "street": "Rua Andorinha",
        "zipcode": "13903-333"
    },
    {
        "city": "Amparo",
        "state": "SP",
        "district": "Jardim São Sebastião",
        "street": "Rua Aracarí",
        "zipcode": "13903-320"
    },
    {
        "city": "Amparo",
        "state": "SP",
        "district": "Parque Dona Virgínia",
        "street": "Rua Ataliba Teixeira",
        "zipcode": "13903-211"
    },
    {
        "city": "Amparo",
        "state": "SP",
        "district": "Jardim Vila Rica",
        "street": "Rua Augusto de Abreu",
        "zipcode": "13903-151"
    },
    {
        "city": "Amparo",
        "state": "SP",
        "district": "Jardim Adélia",
        "street": "Rua Caribe",
        "zipcode": "13904-220"
    },
    {
        "city": "Amparo",
        "state": "SP",
        "district": "Jardim Moreirinha",
        "street": "Rua Carmem Moreira Paiva",
        "zipcode": "13903-390"
    },
    {
        "city": "Amparo",
        "state": "SP",
        "district": "Jardim São Sebastião",
        "street": "Rua Claudino de Araújo",
        "zipcode": "13903-280"
    },
    {
        "city": "Amparo",
        "state": "SP",
        "district": "Jardim Adélia",
        "street": "Rua Colômbia",
        "zipcode": "13904-190"
    },
    {
        "city": "Amparo",
        "state": "SP",
        "district": "Jardim América",
        "street": "Rua Costa Rica",
        "zipcode": "13904-120"
    },
    {
        "city": "Amparo",
        "state": "SP",
        "district": "Jardim Adélia",
        "street": "Rua Doutor Demétrio de Toledo",
        "zipcode": "13904-232"
    },
    {
        "city": "Amparo",
        "state": "SP",
        "district": "Jardim Adélia",
        "street": "Rua Doutor José Leite Cotrim",
        "zipcode": "13904-231"
    },
    {
        "city": "Amparo",
        "state": "SP",
        "district": "Eucalíptos",
        "street": "Rua Moacir Pereira",
        "zipcode": "13901-707"
    },
    {
        "city": "Amparo",
        "state": "SP",
        "district": "Eucalíptos",
        "street": "Rua Paulino Antônio de Camargo",
        "zipcode": "13901-704"
    },
    {
        "city": "Amparo",
        "state": "SP",
        "district": "Recanto Haydee",
        "street": "Rua Geraldo Rodrigues",
        "zipcode": "13902-753"
    },
    {
        "city": "Amparo",
        "state": "SP",
        "district": "Ribeirão",
        "street": "Rua Doutor Paulino Recch",
        "zipcode": "13904-052"
    },
    {
        "city": "Amparo",
        "state": "SP",
        "district": "Jardim América",
        "street": "Rua Equador",
        "zipcode": "13904-102"
    },
    {
        "city": "Amparo",
        "state": "SP",
        "district": "Parque Dona Virgínia",
        "street": "Rua Floriano Flavigna",
        "zipcode": "13903-230"
    },
    {
        "city": "Amparo",
        "state": "SP",
        "district": "Ribeirão",
        "street": "Rua Francisco Canini",
        "zipcode": "13904-051"
    },
    {
        "city": "Amparo",
        "state": "SP",
        "district": "Parque Rodrigues",
        "street": "Rua Gilberto Gallo",
        "zipcode": "13903-173"
    },
    {
        "city": "Amparo",
        "state": "SP",
        "district": "Jardim Adélia",
        "street": "Rua Jamaica",
        "zipcode": "13904-180"
    },
    {
        "city": "Amparo",
        "state": "SP",
        "district": "Jardim Adélia",
        "street": "Rua João Blumer",
        "zipcode": "13904-233"
    },
    {
        "city": "Amparo",
        "state": "SP",
        "district": "Ribeirão",
        "street": "Rua João Bueno",
        "zipcode": "13904-045"
    },
    {
        "city": "Amparo",
        "state": "SP",
        "district": "Jardim América",
        "street": "Rua João Rodrigues Fontes",
        "zipcode": "13904-100"
    },
    {
        "city": "Amparo",
        "state": "SP",
        "district": "Jardim São Sebastião",
        "street": "Rua Joaquim Domingos Cardoso",
        "zipcode": "13903-310"
    },
    {
        "city": "Amparo",
        "state": "SP",
        "district": "Parque Dona Virgínia",
        "street": "Rua José Maurício Andretta",
        "zipcode": "13903-212"
    },
    {
        "city": "Amparo",
        "state": "SP",
        "district": "Parque Dona Virgínia",
        "street": "Rua Luiz de Mattos",
        "zipcode": "13903-201"
    },
    {
        "city": "Amparo",
        "state": "SP",
        "district": "Ribeirão",
        "street": "Rua Marcílio Dias",
        "zipcode": "13904-035"
    },
    {
        "city": "Amparo",
        "state": "SP",
        "district": "Jardim Moreirinha",
        "street": "Rua Maria José Moreira Franco",
        "zipcode": "13903-350"
    },
    {
        "city": "Amparo",
        "state": "SP",
        "district": "Jardim Moreirinha",
        "street": "Rua Olímpia Silveira Moreira",
        "zipcode": "13903-370"
    },
    {
        "city": "Amparo",
        "state": "SP",
        "district": "Jardim América",
        "street": "Rua Panamá",
        "zipcode": "13904-073"
    },
    {
        "city": "Amparo",
        "state": "SP",
        "district": "Jardim das Aves",
        "street": "Rua Pardal",
        "zipcode": "13903-421"
    },
    {
        "city": "Amparo",
        "state": "SP",
        "district": "Jardim São Lourenço",
        "street": "Rua Pedro Marigliani",
        "zipcode": "13904-160"
    },
    {
        "city": "Amparo",
        "state": "SP",
        "district": "Jardim das Aves",
        "street": "Rua Pintassilgo",
        "zipcode": "13903-410"
    },
    {
        "city": "Amparo",
        "state": "SP",
        "district": "Jardim Bela Vista",
        "street": "Rua Professor Herculano Monteiro",
        "zipcode": "13903-073"
    },
    {
        "city": "Amparo",
        "state": "SP",
        "district": "Jardim Adélia",
        "street": "Rua Professor Horácio Quaglio",
        "zipcode": "13904-171"
    },
    {
        "city": "Amparo",
        "state": "SP",
        "district": "Ribeirão",
        "street": "Rua Rio Branco",
        "zipcode": "13904-020"
    },
    {
        "city": "Amparo",
        "state": "SP",
        "district": "Jardim das Aves",
        "street": "Rua Rola",
        "zipcode": "13903-451"
    },
    {
        "city": "Amparo",
        "state": "SP",
        "district": "Jardim Figueira",
        "street": "Rua Sebastião Gonçalves Cruz",
        "zipcode": "13904-080"
    },
    {
        "city": "Amparo",
        "state": "SP",
        "district": "Jardim Moreirinha",
        "street": "Rua Teodomira M. Persicano",
        "zipcode": "13903-372"
    },
    {
        "city": "Amparo",
        "state": "SP",
        "district": "Jardim das Aves",
        "street": "Rua Tico",
        "zipcode": "13903-442"
    },
    {
        "city": "Amparo",
        "state": "SP",
        "district": "Jardim das Aves",
        "street": "Rua Tordo",
        "zipcode": "13903-430"
    },
    {
        "city": "Amparo",
        "state": "SP",
        "district": "Jardim das Aves",
        "street": "Rua Uirapuru",
        "zipcode": "13903-403"
    },
    {
        "city": "Amparo",
        "state": "SP",
        "district": "Parque Dona Virgínia",
        "street": "Avenida Vereador Remo Baroni",
        "zipcode": "13903-202"
    },
    {
        "city": "Amparo",
        "state": "SP",
        "district": "Jardim Adélia",
        "street": "Rua Doutor Alberico Prado Pastana",
        "zipcode": "13904-230"
    },
    {
        "city": "Amparo",
        "state": "SP",
        "district": "Jardim Adélia",
        "street": "Rua Honduras",
        "zipcode": "13904-270"
    },
    {
        "city": "Amparo",
        "state": "SP",
        "district": "Jardim São Sebastião",
        "street": "Rua Araponga",
        "zipcode": "13903-331"
    },
    {
        "city": "Amparo",
        "state": "SP",
        "district": "Jardim Camandocaia",
        "street": "Rua Américo Mendes do Amaral",
        "zipcode": "13905-161"
    },
    {
        "city": "Amparo",
        "state": "SP",
        "district": "Jardim Adélia",
        "street": "Rua Antônio Edgar Zampoli",
        "zipcode": "13904-271"
    },
    {
        "city": "Amparo",
        "state": "SP",
        "district": "Jardim Camandocaia",
        "street": "Rua Áustria",
        "zipcode": "13905-105"
    },
    {
        "city": "Amparo",
        "state": "SP",
        "district": "Jardim Adélia",
        "street": "Rua Bahamas",
        "zipcode": "13904-251"
    },
    {
        "city": "Amparo",
        "state": "SP",
        "district": "Jardim Camandocaia",
        "street": "Rua Benedito Guedes",
        "zipcode": "13905-155"
    },
    {
        "city": "Amparo",
        "state": "SP",
        "district": "Parque Flamboyant",
        "street": "Rua Bragança Paulista",
        "zipcode": "13904-524"
    },
    {
        "city": "Amparo",
        "state": "SP",
        "district": "Jardim Camandocaia",
        "street": "Rua Bulgária",
        "zipcode": "13905-112"
    },
    {
        "city": "Amparo",
        "state": "SP",
        "district": "Parque Flamboyant",
        "street": "Rua Campinas",
        "zipcode": "13904-534"
    },
    {
        "city": "Amparo",
        "state": "SP",
        "district": "Loteamento Alto da Serra",
        "street": "Rua Um",
        "zipcode": "13903-830"
    },
    {
        "city": "Amparo",
        "state": "SP",
        "district": "Ribeirão",
        "street": "Rua Amélia Martins Ferreira",
        "zipcode": "13904-062"
    },
    {
        "city": "Amparo",
        "state": "SP",
        "district": "Jardim Adélia",
        "street": "Rua Cuba",
        "zipcode": "13904-262"
    },
    {
        "city": "Amparo",
        "state": "SP",
        "district": "Jardim Camandocaia",
        "street": "Rua Dinamarca",
        "zipcode": "13905-121"
    },
    {
        "city": "Amparo",
        "state": "SP",
        "district": "Jardim Camandocaia",
        "street": "Rua Doutor Carlos Affonso Moraes de Burgos",
        "zipcode": "13905-160"
    },
    {
        "city": "Amparo",
        "state": "SP",
        "district": "Ribeirão",
        "street": "Rua Doutor Laudo de Camargo",
        "zipcode": "13904-012"
    },
    {
        "city": "Amparo",
        "state": "SP",
        "district": "Parque Dona Virgínia",
        "street": "Rua Ettore Possebom",
        "zipcode": "13903-220"
    },
    {
        "city": "Amparo",
        "state": "SP",
        "district": "Jardim Alberto",
        "street": "Praça Mauro Henrique Teixeira",
        "zipcode": "13903-109"
    },
    {
        "city": "Amparo",
        "state": "SP",
        "district": "Parque Dona Virgínia",
        "street": "Rua Nelson Henrique da Silva",
        "zipcode": "13903-235"
    },
    {
        "city": "Amparo",
        "state": "SP",
        "district": "Vila Nova",
        "street": "Rodovia Amparo",
        "zipcode": "13903-800"
    },
    {
        "city": "Amparo",
        "state": "SP",
        "district": "Fazenda Tamburi",
        "street": "Alameda das Casuarinas",
        "zipcode": "13903-810"
    },
    {
        "city": "Amparo",
        "state": "SP",
        "district": "Jardim Moreirinha",
        "street": "Rua Wilson Moreira",
        "zipcode": "13903-351"
    },
    {
        "city": "Amparo",
        "state": "SP",
        "district": "Ribeirão",
        "street": "Praça Antônio Rodrigues",
        "zipcode": "13904-069"
    },
    {
        "city": "Amparo",
        "state": "SP",
        "district": "Jardim Vila Rica",
        "street": "Rua Fioravante Bassan",
        "zipcode": "13903-153"
    },
    {
        "city": "Amparo",
        "state": "SP",
        "district": "Jardim Vila Rica",
        "street": "Rua José Virson dos Santos",
        "zipcode": "13903-152"
    },
    {
        "city": "Amparo",
        "state": "SP",
        "district": "Planalto da Serra",
        "street": "Avenida Marginal",
        "zipcode": "13902-841"
    },
    {
        "city": "Amparo",
        "state": "SP",
        "district": "Jardim Camandocaia",
        "street": "Rua Escócia",
        "zipcode": "13905-113"
    },
    {
        "city": "Amparo",
        "state": "SP",
        "district": "Jardim Camandocaia",
        "street": "Rua Espanha",
        "zipcode": "13905-120"
    },
    {
        "city": "Amparo",
        "state": "SP",
        "district": "Jardim Camandocaia",
        "street": "Avenida Europa",
        "zipcode": "13905-100"
    },
    {
        "city": "Amparo",
        "state": "SP",
        "district": "Loteamento Nardini",
        "street": "Rua França",
        "zipcode": "13905-080"
    },
    {
        "city": "Amparo",
        "state": "SP",
        "district": "Jardim Figueira",
        "street": "Rua Francisco Segatto",
        "zipcode": "13904-410"
    },
    {
        "city": "Amparo",
        "state": "SP",
        "district": "Jardim Camandocaia",
        "street": "Rua Gales",
        "zipcode": "13905-123"
    },
    {
        "city": "Amparo",
        "state": "SP",
        "district": "Jardim Camandocaia",
        "street": "Rua Hungria",
        "zipcode": "13905-132"
    },
    {
        "city": "Amparo",
        "state": "SP",
        "district": "Jardim Camandocaia",
        "street": "Avenida Itália",
        "zipcode": "13905-170"
    },
    {
        "city": "Amparo",
        "state": "SP",
        "district": "Vale Verde",
        "street": "Rua José Osvaldo Giron Filho",
        "zipcode": "13904-808"
    },
    {
        "city": "Amparo",
        "state": "SP",
        "district": "Parque Flamboyant",
        "street": "Rua Itapira",
        "zipcode": "13904-532"
    },
    {
        "city": "Amparo",
        "state": "SP",
        "district": "Parque Flamboyant",
        "street": "Rua Mogi",
        "zipcode": "13904-525"
    },
    {
        "city": "Amparo",
        "state": "SP",
        "district": "Parque Flamboyant",
        "street": "Rua Lindóia",
        "zipcode": "13904-512"
    },
    {
        "city": "Amparo",
        "state": "SP",
        "district": "Jardim Figueira",
        "street": "Rua México",
        "zipcode": "13904-395"
    },
    {
        "city": "Amparo",
        "state": "SP",
        "district": "Jardim América",
        "street": "Rua Nicarágua",
        "zipcode": "13904-072"
    },
    {
        "city": "Amparo",
        "state": "SP",
        "district": "Loteamento Nardini",
        "street": "Rua Noruega",
        "zipcode": "13905-060"
    },
    {
        "city": "Amparo",
        "state": "SP",
        "district": "Parque Flamboyant",
        "street": "Rua Pedreira",
        "zipcode": "13904-520"
    },
    {
        "city": "Amparo",
        "state": "SP",
        "district": "Jardim Figueira",
        "street": "Rua Peru",
        "zipcode": "13904-420"
    },
    {
        "city": "Amparo",
        "state": "SP",
        "district": "Loteamento Nardini",
        "street": "Rua Portugal",
        "zipcode": "13905-070"
    },
    {
        "city": "Amparo",
        "state": "SP",
        "district": "Parque Flamboyant",
        "street": "Rua Quatro",
        "zipcode": "13904-513"
    },
    {
        "city": "Amparo",
        "state": "SP",
        "district": "Jardim Figueira",
        "street": "Rua Rio Congo",
        "zipcode": "13904-390"
    },
    {
        "city": "Amparo",
        "state": "SP",
        "district": "Jardim Figueira",
        "street": "Rua Rio do Pó",
        "zipcode": "13904-301"
    },
    {
        "city": "Amparo",
        "state": "SP",
        "district": "Jardim Figueira",
        "street": "Avenida Rio Nilo",
        "zipcode": "13904-380"
    },
    {
        "city": "Amparo",
        "state": "SP",
        "district": "Jardim Figueira",
        "street": "Rua Rio Tâmisa",
        "zipcode": "13904-330"
    },
    {
        "city": "Amparo",
        "state": "SP",
        "district": "Jardim Figueira",
        "street": "Rua Rio Tejo",
        "zipcode": "13904-321"
    },
    {
        "city": "Amparo",
        "state": "SP",
        "district": "Jardim Figueira",
        "street": "Rua Rio Tibre",
        "zipcode": "13904-310"
    },
    {
        "city": "Amparo",
        "state": "SP",
        "district": "Jardim Figueira",
        "street": "Rua Rio Volga",
        "zipcode": "13904-370"
    },
    {
        "city": "Amparo",
        "state": "SP",
        "district": "Jardim das Aves",
        "street": "Rua Sabiá",
        "zipcode": "13903-460"
    },
    {
        "city": "Amparo",
        "state": "SP",
        "district": "Jardim Camandocaia",
        "street": "Praça Sebastião Rodrigues de Almeida",
        "zipcode": "13905-169"
    },
    {
        "city": "Amparo",
        "state": "SP",
        "district": "Parque Flamboyant",
        "street": "Rua Serra Negra",
        "zipcode": "13904-510"
    },
    {
        "city": "Amparo",
        "state": "SP",
        "district": "Parque Flamboyant",
        "street": "Rua Socorro",
        "zipcode": "13904-521"
    },
    {
        "city": "Amparo",
        "state": "SP",
        "district": "Jardim Camandocaia",
        "street": "Rua Virgílio Salles Mugnai",
        "zipcode": "13905-165"
    },
    {
        "city": "Amparo",
        "state": "SP",
        "district": "Jardim Camandocaia",
        "street": "Rua Finlândia",
        "zipcode": "13905-150"
    },
    {
        "city": "Amparo",
        "state": "SP",
        "district": "Jardim América",
        "street": "Rua Suriname",
        "zipcode": "13904-121"
    },
    {
        "city": "Amparo",
        "state": "SP",
        "district": "Vale Verde",
        "street": "Rua João Barbi",
        "zipcode": "13904-802"
    },
    {
        "city": "Amparo",
        "state": "SP",
        "district": "Loteamento Panorama Tropical",
        "street": "Rua Albertina Aparecida Lopes",
        "zipcode": "13905-485"
    },
    {
        "city": "Amparo",
        "state": "SP",
        "district": "Jardim Silvestre I",
        "street": "Rua Alberto Pagan",
        "zipcode": "13905-451"
    },
    {
        "city": "Amparo",
        "state": "SP",
        "district": "Jardim Silmara",
        "street": "Rua Alfredo Lenzi",
        "zipcode": "13905-250"
    },
    {
        "city": "Amparo",
        "state": "SP",
        "district": "Conjunto Habitacional Alberto Marques",
        "street": "Rua Ângelo Frare",
        "zipcode": "13905-675"
    },
    {
        "city": "Amparo",
        "state": "SP",
        "district": "Conjunto Habitacional Vereador Hermínio Gerbi",
        "street": "Rua Ariovaldo Barros Camargo",
        "zipcode": "13905-692"
    },
    {
        "city": "Amparo",
        "state": "SP",
        "district": "Jardim Silvestre I",
        "street": "Rua Arthur Pinto Lima",
        "zipcode": "13905-450"
    },
    {
        "city": "Amparo",
        "state": "SP",
        "district": "Jardim Bianca",
        "street": "Rua Baptista Belizário",
        "zipcode": "13905-493"
    },
    {
        "city": "Amparo",
        "state": "SP",
        "district": "Jardim Modelo",
        "street": "Rua Benedito Lino de Campos",
        "zipcode": "13905-642"
    },
    {
        "city": "Amparo",
        "state": "SP",
        "district": "Conjunto Habitacional Vereador Hermínio Gerbi",
        "street": "Rua Benjamin Jorge",
        "zipcode": "13905-690"
    },
    {
        "city": "Amparo",
        "state": "SP",
        "district": "Jardim Silmara",
        "street": "Rua Ernesto Damato",
        "zipcode": "13905-310"
    },
    {
        "city": "Amparo",
        "state": "SP",
        "district": "Parque Cecap",
        "street": "Rua Fausto Lisboa Leme",
        "zipcode": "13905-174"
    },
    {
        "city": "Amparo",
        "state": "SP",
        "district": "Jardim Silmara",
        "street": "Rua Fioravante Barassa",
        "zipcode": "13905-302"
    },
    {
        "city": "Amparo",
        "state": "SP",
        "district": "Jardim São Dimas",
        "street": "Rua Henrique Castejon",
        "zipcode": "13905-626"
    },
    {
        "city": "Amparo",
        "state": "SP",
        "district": "Jardim Silvestre II",
        "street": "Rua Hermínio Luchine",
        "zipcode": "13905-474"
    },
    {
        "city": "Amparo",
        "state": "SP",
        "district": "Jardim São Dimas",
        "street": "Rua João Alves",
        "zipcode": "13905-621"
    },
    {
        "city": "Amparo",
        "state": "SP",
        "district": "Jardim Modelo",
        "street": "Rua José Teixeira Roque",
        "zipcode": "13905-652"
    },
    {
        "city": "Amparo",
        "state": "SP",
        "district": "Jardim São Dimas",
        "street": "Rua Leonel Mantovani",
        "zipcode": "13905-622"
    },
    {
        "city": "Amparo",
        "state": "SP",
        "district": "Conjunto Habitacional Vereador Hermínio Gerbi",
        "street": "Rua Olga Pinarelo Almeida",
        "zipcode": "13905-691"
    },
    {
        "city": "Amparo",
        "state": "SP",
        "district": "Jardim das Aves",
        "street": "Estrada Municipal Boa Vereda (AMP",
        "zipcode": "13903-470"
    },
    {
        "city": "Amparo",
        "state": "SP",
        "district": "Jardim América",
        "street": "Praça João de Freitas",
        "zipcode": "13904-130"
    },
    {
        "city": "Amparo",
        "state": "SP",
        "district": "Ribeirão",
        "street": "Rua João Peixoto de Oliveira",
        "zipcode": "13904-033"
    },
    {
        "city": "Amparo",
        "state": "SP",
        "district": "Jardim Silmara",
        "street": "Rua Olímpio Geraldini",
        "zipcode": "13905-303"
    },
    {
        "city": "Amparo",
        "state": "SP",
        "district": "Parque Cecap",
        "street": "Rua Pracinha Silvino Scorcer",
        "zipcode": "13905-200"
    },
    {
        "city": "Amparo",
        "state": "SP",
        "district": "Jardim São Dimas",
        "street": "Rua Romeu Daolio",
        "zipcode": "13905-627"
    },
    {
        "city": "Amparo",
        "state": "SP",
        "district": "Jardim Silmara",
        "street": "Rua Romoaldo Luís Galassi",
        "zipcode": "13905-301"
    },
    {
        "city": "Amparo",
        "state": "SP",
        "district": "Jardim Europa",
        "street": "Rua Antonio Frederico Ozanam",
        "zipcode": "13905-544"
    },
    {
        "city": "Amparo",
        "state": "SP",
        "district": "Jardim Europa",
        "street": "Rua Américo Giglio",
        "zipcode": "13905-542"
    },
    {
        "city": "Amparo",
        "state": "SP",
        "district": "Jardim Europa",
        "street": "Rua Francisco Gomes",
        "zipcode": "13905-536"
    },
    {
        "city": "Amparo",
        "state": "SP",
        "district": "Jardim Silvestre IV",
        "street": "Rua Joaquim Pereira de Oliveira",
        "zipcode": "13905-516"
    },
    {
        "city": "Amparo",
        "state": "SP",
        "district": "Jardim Silvestre I",
        "street": "Rua Tau Nóbrega",
        "zipcode": "13905-466"
    },
    {
        "city": "Amparo",
        "state": "SP",
        "district": "Jardim São Dimas",
        "street": "Avenida Ulderico Batoni",
        "zipcode": "13905-610"
    },
    {
        "city": "Amparo",
        "state": "SP",
        "district": "Jardim Silvestre I",
        "street": "Avenida Um",
        "zipcode": "13905-460"
    },
    {
        "city": "Amparo",
        "state": "SP",
        "district": "Parque Cecap",
        "street": "Rua Valentim Gerbi",
        "zipcode": "13905-172"
    },
    {
        "city": "Amparo",
        "state": "SP",
        "district": "Jardim Silvestre II",
        "street": "Rua Vereador João José Jorge",
        "zipcode": "13905-472"
    },
    {
        "city": "Amparo",
        "state": "SP",
        "district": "Jardim Modelo",
        "street": "Rua Vereador Rômulo Molinari",
        "zipcode": "13905-640"
    },
    {
        "city": "Amparo",
        "state": "SP",
        "district": "Parque Cecap",
        "street": "Rua Liberalino Nogueira",
        "zipcode": "13905-175"
    },
    {
        "city": "Amparo",
        "state": "SP",
        "district": "Jardim São Dimas",
        "street": "Avenida Orlando Audrai Barros Bueno",
        "zipcode": "13905-600"
    },
    {
        "city": "Amparo",
        "state": "SP",
        "district": "Parque Modelo",
        "street": "Rua José Domingos Fachini",
        "zipcode": "13905-520"
    },
    {
        "city": "Amparo",
        "state": "SP",
        "district": "Parque Modelo",
        "street": "Rua Carlos Francisco Merlo",
        "zipcode": "13905-522"
    },
    {
        "city": "Amparo",
        "state": "SP",
        "district": "Parque Modelo",
        "street": "Rua Francesco Paolo Lena",
        "zipcode": "13905-523"
    },
    {
        "city": "Amparo",
        "state": "SP",
        "district": "Parque Modelo",
        "street": "Rua Pedro Mioti",
        "zipcode": "13905-527"
    },
    {
        "city": "Amparo",
        "state": "SP",
        "district": "Jardim Silvestre IV",
        "street": "Rua Alair Pimentel de Godoy",
        "zipcode": "13905-500"
    },
    {
        "city": "Amparo",
        "state": "SP",
        "district": "Jardim Silvestre IV",
        "street": "Rua Natal Urbano",
        "zipcode": "13905-507"
    },
    {
        "city": "Amparo",
        "state": "SP",
        "district": "Jardim Silvestre IV",
        "street": "Rua Romeu Longo",
        "zipcode": "13905-508"
    },
    {
        "city": "Amparo",
        "state": "SP",
        "district": "Jardim Silvestre IV",
        "street": "Rua Sidney Corsi",
        "zipcode": "13905-509"
    },
    {
        "city": "Amparo",
        "state": "SP",
        "district": "Jardim Silvestre IV",
        "street": "Rua Theófilo de Brito",
        "zipcode": "13905-510"
    },
    {
        "city": "Amparo",
        "state": "SP",
        "district": "Silvestre",
        "street": "Avenida da Saudade",
        "zipcode": "13901-014"
    },
    {
        "city": "Amparo",
        "state": "SP",
        "district": "Jardim Modelo",
        "street": "Rua Benedito Honório Coelho",
        "zipcode": "13905-653"
    },
    {
        "city": "Amparo",
        "state": "SP",
        "district": "Centro (Arcadas)",
        "street": "Rua Benta Maria de Barros",
        "zipcode": "13908-000"
    },
    {
        "city": "Amparo",
        "state": "SP",
        "district": "Centro (Arcadas)",
        "street": "Rua Carlos Viaro",
        "zipcode": "13908-210"
    },
    {
        "city": "Amparo",
        "state": "SP",
        "district": "Jardim Camandocaia",
        "street": "Rua Holanda",
        "zipcode": "13905-130"
    },
    {
        "city": "Amparo",
        "state": "SP",
        "district": "Parque do Sol",
        "street": "Rua Doutor Alceu Cordeiro Fernandes",
        "zipcode": "13901-662"
    },
    {
        "city": "Amparo",
        "state": "SP",
        "district": "Jardim São Roberto",
        "street": "Rua Felício Granato",
        "zipcode": "13901-120"
    },
    {
        "city": "Amparo",
        "state": "SP",
        "district": "Centro",
        "street": "Rua Francisco Silveira Franco",
        "zipcode": "13900-190"
    },
    {
        "city": "Amparo",
        "state": "SP",
        "district": "Centro (Arcadas)",
        "street": "Rua Guaracy Paulino de Oliveira",
        "zipcode": "13908-190"
    },
    {
        "city": "Amparo",
        "state": "SP",
        "district": "Centro (Arcadas)",
        "street": "Rua Hermínio Gallo",
        "zipcode": "13908-270"
    },
    {
        "city": "Amparo",
        "state": "SP",
        "district": "Jardim Bandeirantes (Arcadas)",
        "street": "Rua Horacílio Rodrigues Alves",
        "zipcode": "13908-350"
    },
    {
        "city": "Amparo",
        "state": "SP",
        "district": "Centro (Arcadas)",
        "street": "Rua João Ecel",
        "zipcode": "13908-230"
    },
    {
        "city": "Amparo",
        "state": "SP",
        "district": "Chácara São João",
        "street": "Rua João Vieira",
        "zipcode": "13905-713"
    },
    {
        "city": "Amparo",
        "state": "SP",
        "district": "Figueira",
        "street": "Avenida Waldyr Beira",
        "zipcode": "13904-452"
    },
    {
        "city": "Amparo",
        "state": "SP",
        "district": "Jardim Camandocaia",
        "street": "Rua Noedir Mazzini",
        "zipcode": "13905-163"
    },
    {
        "city": "Amparo",
        "state": "SP",
        "district": "Jardim Silvestre II",
        "street": "Rua Hernani Jacomasso",
        "zipcode": "13905-473"
    },
    {
        "city": "Amparo",
        "state": "SP",
        "district": "Jardim Figueira",
        "street": "Rua Rio Missouri",
        "zipcode": "13904-381"
    },
    {
        "city": "Amparo",
        "state": "SP",
        "district": "Vale Verde",
        "street": "Rua Ederaldo Antonio Pagan",
        "zipcode": "13904-801"
    },
    {
        "city": "Amparo",
        "state": "SP",
        "district": "Loteamento Panorama Tropical",
        "street": "Rua Geraldo Moreira",
        "zipcode": "13905-484"
    },
    {
        "city": "Amparo",
        "state": "SP",
        "district": "Centro (Arcadas)",
        "street": "Rua Joaquim Paulino de Oliveira",
        "zipcode": "13908-180"
    },
    {
        "city": "Amparo",
        "state": "SP",
        "district": "Centro",
        "street": "Praça Jorge Pires de Godoy",
        "zipcode": "13900-149"
    },
    {
        "city": "Amparo",
        "state": "SP",
        "district": "Conjunto Habitacional Vereador Hermínio Gerbi",
        "street": "Rua José Bueno de Godoy",
        "zipcode": "13905-694"
    },
    {
        "city": "Amparo",
        "state": "SP",
        "district": "Centro (Arcadas)",
        "street": "Rua José Jacobsen",
        "zipcode": "13908-030"
    },
    {
        "city": "Amparo",
        "state": "SP",
        "district": "Centro (Arcadas)",
        "street": "Rua Júlio Madler",
        "zipcode": "13908-070"
    },
    {
        "city": "Amparo",
        "state": "SP",
        "district": "Jardim São Sebastião (Arcadas)",
        "street": "Rua Leoni Marchiori",
        "zipcode": "13908-403"
    },
    {
        "city": "Amparo",
        "state": "SP",
        "district": "Jardim Juliana",
        "street": "Rua Attílio Cilotti",
        "zipcode": "13905-390"
    },
    {
        "city": "Amparo",
        "state": "SP",
        "district": "Jardim Figueira",
        "street": "Rua Rio Orinoco",
        "zipcode": "13904-341"
    },
    {
        "city": "Amparo",
        "state": "SP",
        "district": "Jardim Silmara",
        "street": "Rua Francisco Rodolpho Müller Carioba",
        "zipcode": "13905-292"
    },
    {
        "city": "Amparo",
        "state": "SP",
        "district": "Jardim Silvestre I",
        "street": "Rua José Carlos Rielli",
        "zipcode": "13905-462"
    },
    {
        "city": "Amparo",
        "state": "SP",
        "district": "Jardim Figueira",
        "street": "Avenida Purina",
        "zipcode": "13904-385"
    },
    {
        "city": "Amparo",
        "state": "SP",
        "district": "Centro (Arcadas)",
        "street": "Rua Manoel da Costa",
        "zipcode": "13908-250"
    },
    {
        "city": "Amparo",
        "state": "SP",
        "district": "Chácara São João",
        "street": "Rua Paulino Bertino",
        "zipcode": "13905-711"
    },
    {
        "city": "Amparo",
        "state": "SP",
        "district": "Centro (Arcadas)",
        "street": "Rua Pedro Alves da Silva",
        "zipcode": "13908-100"
    },
    {
        "city": "Amparo",
        "state": "SP",
        "district": "Conjunto Habitacional Doutor Attílio Mazzini (Arcadas)",
        "street": "Rua Marcilio Batelli",
        "zipcode": "13907-072"
    },
    {
        "city": "Amparo",
        "state": "SP",
        "district": "Jardim Silvestre I",
        "street": "Rodovia João Beira",
        "zipcode": "13905-412"
    },
    {
        "city": "Amparo",
        "state": "SP",
        "district": "Jardim Europa",
        "street": "Rua Renato Vitale",
        "zipcode": "13905-538"
    },
    {
        "city": "Amparo",
        "state": "SP",
        "district": "Jardim Europa",
        "street": "Rua Alcides Vido",
        "zipcode": "13905-534"
    },
    {
        "city": "Amparo",
        "state": "SP",
        "district": "Jardim São Sebastião (Arcadas)",
        "street": "Rua Pedro Rampagna",
        "zipcode": "13908-405"
    },
    {
        "city": "Amparo",
        "state": "SP",
        "district": "Chácara São João",
        "street": "Rua Ribeirão Preto",
        "zipcode": "13905-714"
    },
    {
        "city": "Amparo",
        "state": "SP",
        "district": "Jardim Bandeirantes (Arcadas)",
        "street": "Rua Rubens Paulino de Oliveira",
        "zipcode": "13908-340"
    },
    {
        "city": "Amparo",
        "state": "SP",
        "district": "Chácara São João",
        "street": "Rua Santo Moretto",
        "zipcode": "13905-712"
    },
    {
        "city": "Amparo",
        "state": "SP",
        "district": "Centro",
        "street": "Largo São Benedito",
        "zipcode": "13900-259"
    },
    {
        "city": "Amparo",
        "state": "SP",
        "district": "Parque do Sol",
        "street": "Rua Seis",
        "zipcode": "13901-673"
    },
    {
        "city": "Amparo",
        "state": "SP",
        "district": "Jardim Itália",
        "street": "Rua Verona",
        "zipcode": "13901-110"
    },
    {
        "city": "Amparo",
        "state": "SP",
        "district": "Centro",
        "street": "Rua Doutor Virgílio Paiva Júnior",
        "zipcode": "13900-271"
    },
    {
        "city": "Amparo",
        "state": "SP",
        "district": "Jardim São Sebastião (Arcadas)",
        "street": "Rua Dorival Costa",
        "zipcode": "13908-401"
    },
    {
        "city": "Amparo",
        "state": "SP",
        "district": "Centro (Arcadas)",
        "street": "Rua Henrique Rebieri",
        "zipcode": "13908-040"
    },
    {
        "city": "Amparo",
        "state": "SP",
        "district": "Recanto Haydee",
        "street": "Rua André Brambilla Vaccari",
        "zipcode": "13902-750"
    },
    {
        "city": "Amparo",
        "state": "SP",
        "district": "Parque Rodrigues",
        "street": "Rua Armando Bartolomeu",
        "zipcode": "13903-175"
    },
    {
        "city": "Amparo",
        "state": "SP",
        "district": "Centro (Três Pontes)",
        "street": "Rua Cláudio Gilmar Guide",
        "zipcode": "13909-030"
    },
    {
        "city": "Amparo",
        "state": "SP",
        "district": "Centro",
        "street": "Rua Doutor Vasco de Toledo",
        "zipcode": "13900-377"
    },
    {
        "city": "Amparo",
        "state": "SP",
        "district": "Centro (Três Pontes)",
        "street": "Rua Eugênio Langoni",
        "zipcode": "13909-020"
    },
    {
        "city": "Amparo",
        "state": "SP",
        "district": "Centro",
        "street": "Rua Ferrúcio Guarizzo",
        "zipcode": "13900-490"
    },
    {
        "city": "Amparo",
        "state": "SP",
        "district": "Jardim Brasil",
        "street": "Avenida Francisco Morato de Oliveira",
        "zipcode": "13902-265"
    },
    {
        "city": "Amparo",
        "state": "SP",
        "district": "Chácara Flor da Porcelana (Arcadas)",
        "street": "Rua João Baseio",
        "zipcode": "13908-532"
    },
    {
        "city": "Amparo",
        "state": "SP",
        "district": "Centro",
        "street": "Rua João de Arruda Pastana",
        "zipcode": "13900-500"
    },
    {
        "city": "Amparo",
        "state": "SP",
        "district": "Centro (Arcadas)",
        "street": "Rua João Gueratto",
        "zipcode": "13908-060"
    },
    {
        "city": "Amparo",
        "state": "SP",
        "district": "Jardim Bandeirantes (Arcadas)",
        "street": "Rua Leone Piffer",
        "zipcode": "13908-300"
    },
    {
        "city": "Amparo",
        "state": "SP",
        "district": "Centro",
        "street": "Rua Madre Maria Emília",
        "zipcode": "13900-300"
    },
    {
        "city": "Amparo",
        "state": "SP",
        "district": "Ribeirão",
        "street": "Rua Manoel Ferreira",
        "zipcode": "13904-061"
    },
    {
        "city": "Amparo",
        "state": "SP",
        "district": "Centro (Três Pontes)",
        "street": "Rua Maria Balduíno Urbano",
        "zipcode": "13909-050"
    },
    {
        "city": "Amparo",
        "state": "SP",
        "district": "Centro",
        "street": "Rua Monsenhor Pedro dos Santos",
        "zipcode": "13900-430"
    },
    {
        "city": "Amparo",
        "state": "SP",
        "district": "Centro (Três Pontes)",
        "street": "Rua Raphael Rossi",
        "zipcode": "13909-060"
    },
    {
        "city": "Amparo",
        "state": "SP",
        "district": "Ribeirão",
        "street": "Rua Antônio Cazalini",
        "zipcode": "13904-021"
    },
    {
        "city": "Amparo",
        "state": "SP",
        "district": "Jardim Europa",
        "street": "Rua José Pedroso de Moraes",
        "zipcode": "13905-550"
    },
    {
        "city": "Amparo",
        "state": "SP",
        "district": "Chácara Flor da Porcelana (Arcadas)",
        "street": "Rua Oito",
        "zipcode": "13908-535"
    },
    {
        "city": "Amparo",
        "state": "SP",
        "district": "Jardim Bianca",
        "street": "Avenida Marginal",
        "zipcode": "13905-490"
    },
    {
        "city": "Amparo",
        "state": "SP",
        "district": "Chácara Flor da Porcelana (Arcadas)",
        "street": "Avenida Jair Moreira Cezar",
        "zipcode": "13908-530"
    },
    {
        "city": "Amparo",
        "state": "SP",
        "district": "Parque Modelo",
        "street": "Rua Maria Roza Federicce",
        "zipcode": "13905-526"
    },
    {
        "city": "Amparo",
        "state": "SP",
        "district": "Jardim Modelo",
        "street": "Rua Vereador Giovani Eugênio Benedetti",
        "zipcode": "13905-641"
    },
    {
        "city": "Amparo",
        "state": "SP",
        "district": "Centro (Arcadas)",
        "street": "Rua Benedito Marcatto",
        "zipcode": "13908-220"
    },
    {
        "city": "Amparo",
        "state": "SP",
        "district": "Jardim Modelo",
        "street": "Rua Vitaliano Lavezzo",
        "zipcode": "13905-654"
    },
    {
        "city": "Amparo",
        "state": "SP",
        "district": "Jardim Silvestre IV",
        "street": "Rua Eliseu Catelli",
        "zipcode": "13905-501"
    },
    {
        "city": "Amparo",
        "state": "SP",
        "district": "Centro",
        "street": "Praça Paul P. Harris",
        "zipcode": "13900-425"
    },
    {
        "city": "Amparo",
        "state": "SP",
        "district": "Parque Rodrigues",
        "street": "Rua Paulino Joaquim Michelazzo",
        "zipcode": "13903-172"
    },
    {
        "city": "Amparo",
        "state": "SP",
        "district": "Centro (Arcadas)",
        "street": "Praça Cherubin de Campos Leme",
        "zipcode": "13908-039"
    },
    {
        "city": "Amparo",
        "state": "SP",
        "district": "Jardim Silvestre IV",
        "street": "Rua Adalgiso Batoni",
        "zipcode": "13905-513"
    },
    {
        "city": "Amparo",
        "state": "SP",
        "district": "Jardim Silvestre IV",
        "street": "Rua João Marson",
        "zipcode": "13905-504"
    },
    {
        "city": "Amparo",
        "state": "SP",
        "district": "Jardim Bela Vista (Arcadas)",
        "street": "Rua Ovídio Endrighi",
        "zipcode": "13907-001"
    },
    {
        "city": "Amparo",
        "state": "SP",
        "district": "Jardim Bianca",
        "street": "Rua Romualdo Borgarelli",
        "zipcode": "13905-491"
    },
    {
        "city": "Amparo",
        "state": "SP",
        "district": "Jardim Modelo",
        "street": "Rua Pedro Barreto Silveira",
        "zipcode": "13905-656"
    },
    {
        "city": "Amparo",
        "state": "SP",
        "district": "Chácara Ancona (Arcadas)",
        "street": "Rua Gervásio Costa",
        "zipcode": "13908-504"
    },
    {
        "city": "Amparo",
        "state": "SP",
        "district": "Eucalíptos",
        "street": "Rua Cyro Vencchiarutti",
        "zipcode": "13901-701"
    },
    {
        "city": "Amparo",
        "state": "SP",
        "district": "Chácara Flor da Porcelana (Arcadas)",
        "street": "Rua Francisco Gallo",
        "zipcode": "13908-533"
    },
    {
        "city": "Amparo",
        "state": "SP",
        "district": "Jardim Figueira",
        "street": "Rua Rio Eufrates",
        "zipcode": "13904-302"
    },
    {
        "city": "Amparo",
        "state": "SP",
        "district": "Centro",
        "street": "Rua Comendador Guimarães",
        "zipcode": "13900-908"
    },
    {
        "city": "Amparo",
        "state": "SP",
        "district": "Centro",
        "street": "Rua Manoel Heitor",
        "zipcode": "13900-911"
    },
    {
        "city": "Amparo",
        "state": "SP",
        "district": "Centro",
        "street": "Rua General Osório",
        "zipcode": "13900-906"
    },
    {
        "city": "Amparo",
        "state": "SP",
        "district": "Centro",
        "street": "Rua Comendador Guimarães",
        "zipcode": "13900-909"
    },
    {
        "city": "Amparo",
        "state": "SP",
        "district": "Centro",
        "street": "Rua Duque de Caxias",
        "zipcode": "13900-903"
    },
    {
        "city": "Amparo",
        "state": "SP",
        "district": "Centro",
        "street": "Rua Comendador Guimarães",
        "zipcode": "13900-910"
    },
    {
        "city": "Amparo",
        "state": "SP",
        "district": "Centro",
        "street": "Rua Rodrigo Silva",
        "zipcode": "13900-904"
    },
    {
        "city": "Amparo",
        "state": "SP",
        "district": "Centro (Arcadas)",
        "street": "Rua Rubens Alves de Oliveira",
        "zipcode": "13908-020"
    },
    {
        "city": "Amparo",
        "state": "SP",
        "district": "Jardim das Aves",
        "street": "Rua Sanhaço",
        "zipcode": "13903-461"
    },
    {
        "city": "Amparo",
        "state": "SP",
        "district": "Chácara Flor da Porcelana (Arcadas)",
        "street": "Rua Vicentin Bosco",
        "zipcode": "13908-522"
    },
    {
        "city": "Amparo",
        "state": "SP",
        "district": "Centro",
        "street": "Rua Jacinta Cintra",
        "zipcode": "13900-351"
    },
    {
        "city": "Amparo",
        "state": "SP",
        "district": "Residencial Santa Maria Amparo",
        "street": "Rua Reinero Guimarães",
        "zipcode": "13905-767"
    },
    {
        "city": "Amparo",
        "state": "SP",
        "district": "Residencial Santa Maria Amparo",
        "street": "Avenida José de Giuseppe",
        "zipcode": "13905-775"
    },
    {
        "city": "Amparo",
        "state": "SP",
        "district": "Jardim Vista Alegre (Arcadas)",
        "street": "Rodovia SP 107",
        "zipcode": "13908-615"
    },
    {
        "city": "Amparo",
        "state": "SP",
        "district": "Centro (Arcadas)",
        "street": "Rua Alfredo Leopoldino de Campos",
        "zipcode": "13908-170"
    },
    {
        "city": "Amparo",
        "state": "SP",
        "district": "Jardim Santo Antônio",
        "street": "Avenida Allan Kardec",
        "zipcode": "13901-260"
    },
    {
        "city": "Amparo",
        "state": "SP",
        "district": "Jardim Silvestre II",
        "street": "Rua Arlindo Fava",
        "zipcode": "13905-470"
    },
    {
        "city": "Amparo",
        "state": "SP",
        "district": "Jardim São Dimas",
        "street": "Rua Benedicto Pompeu",
        "zipcode": "13905-625"
    },
    {
        "city": "Amparo",
        "state": "SP",
        "district": "Jardim das Orquídeas",
        "street": "Rua Capri",
        "zipcode": "13901-040"
    },
    {
        "city": "Amparo",
        "state": "SP",
        "district": "Jardim São Roberto",
        "street": "Rua Doutor Carmo Cintra",
        "zipcode": "13901-140"
    },
    {
        "city": "Amparo",
        "state": "SP",
        "district": "Loteamento Marson",
        "street": "Rua Dom Pedro I",
        "zipcode": "13901-200"
    },
    {
        "city": "Amparo",
        "state": "SP",
        "district": "Jardim Santana",
        "street": "Rua Doutor Aristides A. Fernandes",
        "zipcode": "13902-050"
    },
    {
        "city": "Amparo",
        "state": "SP",
        "district": "Jardim Novo Amparo",
        "street": "Avenida Doutor Carlos Burgos",
        "zipcode": "13901-350"
    },
    {
        "city": "Amparo",
        "state": "SP",
        "district": "Jardim Nova Era",
        "street": "Rua Doutor Mário Ferreira Burgos",
        "zipcode": "13901-633"
    },
    {
        "city": "Amparo",
        "state": "SP",
        "district": "Jardim Brasil",
        "street": "Rua Espírito Santo",
        "zipcode": "13902-360"
    },
    {
        "city": "Amparo",
        "state": "SP",
        "district": "Silvestre",
        "street": "Rua Felizardo Pompeu",
        "zipcode": "13901-003"
    },
    {
        "city": "Amparo",
        "state": "SP",
        "district": "Jardim Novo Amparo",
        "street": "Rua Hidelbrando Moysés",
        "zipcode": "13901-340"
    },
    {
        "city": "Amparo",
        "state": "SP",
        "district": "São Judas",
        "street": "Rua José Camargo Bichinho",
        "zipcode": "13901-270"
    },
    {
        "city": "Amparo",
        "state": "SP",
        "district": "Jardim Real",
        "street": "Rua Leonídio Rossi",
        "zipcode": "13902-140"
    },
    {
        "city": "Amparo",
        "state": "SP",
        "district": "Conjunto Habitacional Alberto Marques",
        "street": "Rua Ludovico Altomani",
        "zipcode": "13905-674"
    },
    {
        "city": "Amparo",
        "state": "SP",
        "district": "Jardim Brasil",
        "street": "Rua Mato Grosso",
        "zipcode": "13902-201"
    },
    {
        "city": "Amparo",
        "state": "SP",
        "district": "Jardim Brasil",
        "street": "Rua Mato Grosso do Sul",
        "zipcode": "13902-172"
    },
    {
        "city": "Amparo",
        "state": "SP",
        "district": "Chácara Vitória",
        "street": "Rua Orquídeas",
        "zipcode": "13901-682"
    },
    {
        "city": "Amparo",
        "state": "SP",
        "district": "Castelo",
        "street": "Rua Otávio Correia Marinho",
        "zipcode": "13902-093"
    },
    {
        "city": "Amparo",
        "state": "SP",
        "district": "Jardim Santa Helena",
        "street": "Rua Particular 1",
        "zipcode": "13901-413"
    },
    {
        "city": "Amparo",
        "state": "SP",
        "district": "Jardim Brasil",
        "street": "Rua Pernambuco",
        "zipcode": "13902-280"
    },
    {
        "city": "Amparo",
        "state": "SP",
        "district": "Jardim Silmara",
        "street": "Rua Professor Aristides Gurjão",
        "zipcode": "13905-280"
    },
    {
        "city": "Amparo",
        "state": "SP",
        "district": "Centro (Arcadas)",
        "street": "Rua Álvaro da Costa",
        "zipcode": "13908-222"
    },
    {
        "city": "Amparo",
        "state": "SP",
        "district": "Centro (Arcadas)",
        "street": "Praça Maria Cecília Rebiere",
        "zipcode": "13908-009"
    },
    {
        "city": "Amparo",
        "state": "SP",
        "district": "Jardim São Roberto",
        "street": "Rua José Rebelo Amorin",
        "zipcode": "13901-121"
    },
    {
        "city": "Amparo",
        "state": "SP",
        "district": "Residencial Santa Maria Amparo",
        "street": "Rua Eliete Maria Neves",
        "zipcode": "13905-762"
    },
    {
        "city": "Amparo",
        "state": "SP",
        "district": "Jardim Vista Alegre (Arcadas)",
        "street": "Rua Quatro",
        "zipcode": "13908-603"
    },
    {
        "city": "Amparo",
        "state": "SP",
        "district": "Jardim Vista Alegre (Arcadas)",
        "street": "Rua Bazilides Barbosa",
        "zipcode": "13908-601"
    },
    {
        "city": "Amparo",
        "state": "SP",
        "district": "Fazenda do Túnel (Arcadas)",
        "street": "Rua Augusto Marcatto",
        "zipcode": "13908-552"
    },
    {
        "city": "Amparo",
        "state": "SP",
        "district": "Centro (Três Pontes)",
        "street": "Praça Albino Vezani",
        "zipcode": "13909-019"
    },
    {
        "city": "Amparo",
        "state": "SP",
        "district": "Fazenda São José (Arcadas)",
        "street": "Rua Dois",
        "zipcode": "13908-651"
    },
    {
        "city": "Amparo",
        "state": "SP",
        "district": "Chácara Brumado",
        "street": "Rua Cinco",
        "zipcode": "13901-814"
    },
    {
        "city": "Amparo",
        "state": "SP",
        "district": "Conjunto Habitacional Doutor Attílio Mazzini (Arcadas)",
        "street": "Rua Maria Pierim Piffer",
        "zipcode": "13907-068"
    },
    {
        "city": "Amparo",
        "state": "SP",
        "district": "Residencial Santa Maria Amparo",
        "street": "Rua Reyne Vido",
        "zipcode": "13905-769"
    },
    {
        "city": "Amparo",
        "state": "SP",
        "district": "Chácara Ancona (Arcadas)",
        "street": "Rua C",
        "zipcode": "13908-505"
    },
    {
        "city": "Amparo",
        "state": "SP",
        "district": "Velhobol",
        "street": "Rua Valentin Remorini",
        "zipcode": "13902-510"
    },
    {
        "city": "Amparo",
        "state": "SP",
        "district": "Eucalíptos",
        "street": "Rua Benedito Vilas Boas",
        "zipcode": "13901-700"
    },
    {
        "city": "Amparo",
        "state": "SP",
        "district": "Jardim Nova Era",
        "street": "Rua João Nogueira Júnior",
        "zipcode": "13901-641"
    },
    {
        "city": "Amparo",
        "state": "SP",
        "district": "Chácara Flor da Porcelana (Arcadas)",
        "street": "Avenida Rosária Estuane Pavan",
        "zipcode": "13908-534"
    },
    {
        "city": "Amparo",
        "state": "SP",
        "district": "Jardim Brasil",
        "street": "Rua Rondônia",
        "zipcode": "13902-250"
    },
    {
        "city": "Amparo",
        "state": "SP",
        "district": "Chácara Abdalla",
        "street": "Rua Salim Oasi",
        "zipcode": "13901-161"
    },
    {
        "city": "Amparo",
        "state": "SP",
        "district": "Silvestre",
        "street": "Rua Polônia",
        "zipcode": "13901-900"
    },
    {
        "city": "Amparo",
        "state": "SP",
        "district": "Jardim Itália",
        "street": "Avenida Doutor Carlos Burgos",
        "zipcode": "13901-902"
    },
    {
        "city": "Amparo",
        "state": "SP",
        "district": "Centro",
        "street": "Rua General Osório",
        "zipcode": "13900-915"
    },
    {
        "city": "Amparo",
        "state": "SP",
        "district": "Centro",
        "street": "Avenida Bernardino de Campos",
        "zipcode": "13900-916"
    },
    {
        "city": "Amparo",
        "state": "SP",
        "district": "Centro",
        "street": "Avenida da Saudade",
        "zipcode": "13900-912"
    },
    {
        "city": "Amparo",
        "state": "SP",
        "district": "Centro",
        "street": "Praça Doutor Virgílio de Araújo",
        "zipcode": "13900-914"
    },
    {
        "city": "Amparo",
        "state": "SP",
        "district": "Jardim das Orquídeas",
        "street": "Rua Sardenha",
        "zipcode": "13901-021"
    },
    {
        "city": "Amparo",
        "state": "SP",
        "district": "Jardim Santa Cecília",
        "street": "Rua Tocantins",
        "zipcode": "13902-382"
    },
    {
        "city": "Amparo",
        "state": "SP",
        "district": "Jardim Itália",
        "street": "Rua Veneza",
        "zipcode": "13901-100"
    },
    {
        "city": "Amparo",
        "state": "SP",
        "district": "Jardim Camandocaia",
        "street": "Rua Rodrigo de Arruda Botelho",
        "zipcode": "13905-140"
    },
    {
        "city": "Amparo",
        "state": "SP",
        "district": "Jardim Itália",
        "street": "Rua Perúsia",
        "zipcode": "13901-062"
    },
    {
        "city": "Amparo",
        "state": "SP",
        "district": "Jardim Primavera",
        "street": "Rua dos Alecrins",
        "zipcode": "13901-322"
    },
    {
        "city": "Amparo",
        "state": "SP",
        "district": "Chácara Abdalla",
        "street": "Rua José Batoni",
        "zipcode": "13901-164"
    },
    {
        "city": "Amparo",
        "state": "SP",
        "district": "Jardim São Sebastião",
        "street": "Rua Alberto Santos Correira",
        "zipcode": "13903-301"
    },
    {
        "city": "Amparo",
        "state": "SP",
        "district": "Jardim Camandocaia",
        "street": "Rua Andorra",
        "zipcode": "13905-115"
    },
    {
        "city": "Amparo",
        "state": "SP",
        "district": "Jardim São Francisco",
        "street": "Rua Ângelo José de Araújo",
        "zipcode": "13903-110"
    },
    {
        "city": "Amparo",
        "state": "SP",
        "district": "Jardim São Lourenço",
        "street": "Rua Ari Barroso",
        "zipcode": "13904-161"
    },
    {
        "city": "Amparo",
        "state": "SP",
        "district": "Jardim Bela Vista",
        "street": "Rua B",
        "zipcode": "13903-060"
    },
    {
        "city": "Amparo",
        "state": "SP",
        "district": "Jardim São Lourenço",
        "street": "Rua Cacilda Becker",
        "zipcode": "13904-151"
    },
    {
        "city": "Amparo",
        "state": "SP",
        "district": "Planalto da Serra",
        "street": "Avenida Circular",
        "zipcode": "13902-840"
    },
    {
        "city": "Amparo",
        "state": "SP",
        "district": "Jardim Vila Rica",
        "street": "Rua Doutor Áureo de Almeida Camargo",
        "zipcode": "13903-142"
    },
    {
        "city": "Amparo",
        "state": "SP",
        "district": "Jardim São Lourenço",
        "street": "Rua Doutor Coriolano Burgos",
        "zipcode": "13904-150"
    },
    {
        "city": "Amparo",
        "state": "SP",
        "district": "Jardim Bela Vista",
        "street": "Rua Doutor José Oscar de Araújo",
        "zipcode": "13903-072"
    },
    {
        "city": "Amparo",
        "state": "SP",
        "district": "Chácara Bocaina",
        "street": "Rua Doutor Pedro de Araújo",
        "zipcode": "13902-837"
    },
    {
        "city": "Amparo",
        "state": "SP",
        "district": "Jardim Figueira",
        "street": "Rua El Salvador",
        "zipcode": "13904-400"
    },
    {
        "city": "Amparo",
        "state": "SP",
        "district": "Ribeirão",
        "street": "Avenida Fioravante Gerbi",
        "zipcode": "13904-060"
    },
    {
        "city": "Amparo",
        "state": "SP",
        "district": "Ribeirão",
        "street": "Rua Gustavo de Souza",
        "zipcode": "13904-030"
    },
    {
        "city": "Amparo",
        "state": "SP",
        "district": "Parque Flamboyant",
        "street": "Rua Itatiba",
        "zipcode": "13904-535"
    },
    {
        "city": "Amparo",
        "state": "SP",
        "district": "Jardim Moreirinha",
        "street": "Rua José Luiz Camargo Moreira",
        "zipcode": "13903-371"
    },
    {
        "city": "Amparo",
        "state": "SP",
        "district": "Jardim Cachoeira",
        "street": "Rua José Rodrigues da Silva Júnior",
        "zipcode": "13902-820"
    },
    {
        "city": "Amparo",
        "state": "SP",
        "district": "Jardim Seabra",
        "street": "Rua Luiz Mantovani",
        "zipcode": "13902-762"
    },
    {
        "city": "Amparo",
        "state": "SP",
        "district": "Ribeirão",
        "street": "Rua Marechal Bitencourt",
        "zipcode": "13904-050"
    },
    {
        "city": "Amparo",
        "state": "SP",
        "district": "Jardim América",
        "street": "Rua Paraguai",
        "zipcode": "13904-090"
    },
    {
        "city": "Amparo",
        "state": "SP",
        "district": "Jardim Santa Júlia",
        "street": "Rua Paulino Lippi",
        "zipcode": "13902-401"
    },
    {
        "city": "Amparo",
        "state": "SP",
        "district": "Jardim Figueira",
        "street": "Rua Rio Mississipi",
        "zipcode": "13904-382"
    },
    {
        "city": "Amparo",
        "state": "SP",
        "district": "Jardim Figueira",
        "street": "Rua Rio Sena",
        "zipcode": "13904-340"
    },
    {
        "city": "Amparo",
        "state": "SP",
        "district": "Jardim América",
        "street": "Rua São Domingos",
        "zipcode": "13904-071"
    },
    {
        "city": "Amparo",
        "state": "SP",
        "district": "Jardim São Sebastião",
        "street": "Rua São Sebastião",
        "zipcode": "13903-270"
    },
    {
        "city": "Amparo",
        "state": "SP",
        "district": "Loteamento Nardini",
        "street": "Rua Suécia",
        "zipcode": "13905-071"
    },
    {
        "city": "Amparo",
        "state": "SP",
        "district": "Jardim das Aves",
        "street": "Rua Tangará",
        "zipcode": "13903-420"
    },
    {
        "city": "Amparo",
        "state": "SP",
        "district": "Planalto da Serra",
        "street": "Rua Três",
        "zipcode": "13902-845"
    },
    {
        "city": "Amparo",
        "state": "SP",
        "district": "Jardim das Aves",
        "street": "Rua Tucano",
        "zipcode": "13903-440"
    },
    {
        "city": "Amparo",
        "state": "SP",
        "district": "Jardim Moreirinha",
        "street": "Rua Ramira Moreira Siqueira",
        "zipcode": "13903-340"
    },
    {
        "city": "Amparo",
        "state": "SP",
        "district": "Parque Flamboyant",
        "street": "Estrada Municipal do Barreiro (AMP",
        "zipcode": "13904-500"
    },
    {
        "city": "Amparo",
        "state": "SP",
        "district": "Fazenda São José (Arcadas)",
        "street": "Rua Seis",
        "zipcode": "13908-655"
    },
    {
        "city": "Amparo",
        "state": "SP",
        "district": "Fazenda Tamburi",
        "street": "Alameda dos Pinheiros",
        "zipcode": "13903-812"
    },
    {
        "city": "Amparo",
        "state": "SP",
        "district": "Ribeirão",
        "street": "Praça Attílio P. Piffer",
        "zipcode": "13904-018"
    },
    {
        "city": "Amparo",
        "state": "SP",
        "district": "Jardim Adélia",
        "street": "Rua Antônio Pacetta",
        "zipcode": "13904-290"
    },
    {
        "city": "Amparo",
        "state": "SP",
        "district": "Fazenda São José (Arcadas)",
        "street": "Rua Três",
        "zipcode": "13908-652"
    },
    {
        "city": "Amparo",
        "state": "SP",
        "district": "Fazenda São José (Arcadas)",
        "street": "Rua Sete",
        "zipcode": "13908-656"
    },
    {
        "city": "Amparo",
        "state": "SP",
        "district": "Eucalíptos",
        "street": "Rua Waldomiro dos Santos",
        "zipcode": "13901-706"
    },
    {
        "city": "Amparo",
        "state": "SP",
        "district": "Chácara Ancona (Arcadas)",
        "street": "Rua Ângelo Baseio",
        "zipcode": "13908-502"
    },
    {
        "city": "Amparo",
        "state": "SP",
        "district": "São Judas",
        "street": "Largo São Judas Tadeu",
        "zipcode": "13901-299"
    },
    {
        "city": "Amparo",
        "state": "SP",
        "district": "Chácara Bocaina",
        "street": "Avenida Ovando de Campos",
        "zipcode": "13902-830"
    },
    {
        "city": "Amparo",
        "state": "SP",
        "district": "Parque Dona Virgínia",
        "street": "Avenida Vereador Armando Fornari",
        "zipcode": "13903-210"
    },
    {
        "city": "Amparo",
        "state": "SP",
        "district": "Vale Verde",
        "street": "Rua José Moreira",
        "zipcode": "13904-807"
    },
    {
        "city": "Amparo",
        "state": "SP",
        "district": "Silvestre",
        "street": "Rodovia João Beira",
        "zipcode": "13904-900"
    },
    {
        "city": "Amparo",
        "state": "SP",
        "district": "Jardim Figueira",
        "street": "Rua Sebastião Gonçalves Cruz",
        "zipcode": "13904-904"
    },
    {
        "city": "Amparo",
        "state": "SP",
        "district": "Jardim Figueira",
        "street": "Rua Sebastião Gonçalves Cruz",
        "zipcode": "13904-902"
    },
    {
        "city": "Amparo",
        "state": "SP",
        "district": "Parque Dona Virgínia",
        "street": "Rua Doutor Francisco Franco de Moraes",
        "zipcode": "13903-900"
    },
    {
        "city": "Amparo",
        "state": "SP",
        "district": "Ribeirão",
        "street": "Rua Gustavo de Souza",
        "zipcode": "13904-903"
    },
    {
        "city": "Amparo",
        "state": "SP",
        "district": "Parque Dona Virgínia",
        "street": "Rua Vereador Virgílio da S. Nogueira",
        "zipcode": "13903-225"
    },
    {
        "city": "Amparo",
        "state": "SP",
        "district": "Jardim Camandocaia",
        "street": "Rua Alemanha",
        "zipcode": "13905-110"
    },
    {
        "city": "Amparo",
        "state": "SP",
        "district": "Loteamento Nardini",
        "street": "Rua Albânia",
        "zipcode": "13905-090"
    },
    {
        "city": "Amparo",
        "state": "SP",
        "district": "Jardim Figueira",
        "street": "Rua Rio Reno",
        "zipcode": "13904-320"
    },
    {
        "city": "Amparo",
        "state": "SP",
        "district": "Parque Flamboyant",
        "street": "Rua Doze",
        "zipcode": "13904-514"
    },
    {
        "city": "Amparo",
        "state": "SP",
        "district": "Jardim Silvana",
        "street": "Rua Professor Joaquim S. de Camargo",
        "zipcode": "13903-130"
    },
    {
        "city": "Amparo",
        "state": "SP",
        "district": "Chácara das Águas (Três Pontes)",
        "street": "Rua Ângelo Arsuffi",
        "zipcode": "13909-300"
    },
    {
        "city": "Amparo",
        "state": "SP",
        "district": "Jardim das Aves",
        "street": "Rua Beija",
        "zipcode": "13903-465"
    },
    {
        "city": "Amparo",
        "state": "SP",
        "district": "Conjunto Habitacional Vereador Hermínio Gerbi",
        "street": "Rua Antônio Antoneli",
        "zipcode": "13905-684"
    },
    {
        "city": "Amparo",
        "state": "SP",
        "district": "Jardim Silvestre I",
        "street": "Rua Antônio Olívio Nardine",
        "zipcode": "13905-465"
    },
    {
        "city": "Amparo",
        "state": "SP",
        "district": "Centro (Arcadas)",
        "street": "Rua Azevedo Ferreira",
        "zipcode": "13908-260"
    },
    {
        "city": "Amparo",
        "state": "SP",
        "district": "Jardim Camandocaia",
        "street": "Rua Benedito Alves da Silva",
        "zipcode": "13905-164"
    },
    {
        "city": "Amparo",
        "state": "SP",
        "district": "Centro (Três Pontes)",
        "street": "Rua Carlos Humberto Rossi",
        "zipcode": "13909-040"
    },
    {
        "city": "Amparo",
        "state": "SP",
        "district": "Parque Cecap",
        "street": "Rua Engenheiro José Pereira Rebouças",
        "zipcode": "13905-171"
    },
    {
        "city": "Amparo",
        "state": "SP",
        "district": "Jardim Silmara",
        "street": "Rua Ernesto Corsi",
        "zipcode": "13905-270"
    },
    {
        "city": "Amparo",
        "state": "SP",
        "district": "Centro (Arcadas)",
        "street": "Rua Eugênio Bertolla",
        "zipcode": "13908-090"
    },
    {
        "city": "Amparo",
        "state": "SP",
        "district": "Jardim Silmara",
        "street": "Rua Eugênio Dorigan",
        "zipcode": "13905-304"
    },
    {
        "city": "Amparo",
        "state": "SP",
        "district": "Jardim Camandocaia",
        "street": "Rua Farah Cury",
        "zipcode": "13905-141"
    },
    {
        "city": "Amparo",
        "state": "SP",
        "district": "Jardim Bandeirantes (Arcadas)",
        "street": "Rua Humberto Vitório Gueratto",
        "zipcode": "13908-310"
    },
    {
        "city": "Amparo",
        "state": "SP",
        "district": "Jardim Silvestre I",
        "street": "Rua José Moreira dos Santos Filho (Moreira do Cavaquinho)",
        "zipcode": "13905-410"
    },
    {
        "city": "Amparo",
        "state": "SP",
        "district": "Jardim Silvestre I",
        "street": "Rua Marcelino Marchi",
        "zipcode": "13905-461"
    },
    {
        "city": "Amparo",
        "state": "SP",
        "district": "Centro (Três Pontes)",
        "street": "Praça Nelson José Urbano",
        "zipcode": "13909-009"
    },
    {
        "city": "Amparo",
        "state": "SP",
        "district": "Centro",
        "street": "Rua Doutor Osvaldo Cruz",
        "zipcode": "13900-010"
    },
    {
        "city": "Amparo",
        "state": "SP",
        "district": "Parque Cecap",
        "street": "Rua Pedro Alves de Siqueira",
        "zipcode": "13905-176"
    },
    {
        "city": "Amparo",
        "state": "SP",
        "district": "Centro",
        "street": "Rua Doutor Plínio do Amaral",
        "zipcode": "13900-040"
    },
    {
        "city": "Amparo",
        "state": "SP",
        "district": "Jardim Modelo",
        "street": "Rua Tácito Loschiavo",
        "zipcode": "13905-650"
    },
    {
        "city": "Amparo",
        "state": "SP",
        "district": "Conjunto Habitacional Vereador Hermínio Gerbi",
        "street": "Avenida Carlos Baroni",
        "zipcode": "13905-680"
    },
    {
        "city": "Amparo",
        "state": "SP",
        "district": "Conjunto Habitacional Doutor Attílio Mazzini (Arcadas)",
        "street": "Rua Ramiro Pires de Camargo",
        "zipcode": "13907-074"
    },
    {
        "city": "Amparo",
        "state": "SP",
        "district": "Parque Modelo",
        "street": "Rodovia João Beira",
        "zipcode": "13905-529"
    },
    {
        "city": "Amparo",
        "state": "SP",
        "district": "Jardim Europa",
        "street": "Rua Iracema de Deus Batoni",
        "zipcode": "13905-548"
    },
    {
        "city": "Amparo",
        "state": "SP",
        "district": "Centro (Três Pontes)",
        "street": "Praça Nelson José Urbano",
        "zipcode": "13909-970"
    },
    {
        "city": "Amparo",
        "state": "SP",
        "district": "Loteamento Panorama Tropical",
        "street": "Rua Carlos Alberto C. Tambelini",
        "zipcode": "13905-483"
    },
    {
        "city": "Amparo",
        "state": "SP",
        "district": "Chácara Flor da Porcelana (Arcadas)",
        "street": "Rua José da Costa",
        "zipcode": "13908-536"
    },
    {
        "city": "Amparo",
        "state": "SP",
        "district": "Loteamento Jardim Guarani",
        "street": "Rua Guilherme Ferrarin",
        "zipcode": "13908-380"
    },
    {
        "city": "Amparo",
        "state": "SP",
        "district": "Loteamento Jardim Guarani",
        "street": "Rua Edilson José de Oliveira",
        "zipcode": "13908-382"
    },
    {
        "city": "Amparo",
        "state": "SP",
        "district": "Jardim São Dimas",
        "street": "Avenida Osmar Zocchio",
        "zipcode": "13905-630"
    },
    {
        "city": "Amparo",
        "state": "SP",
        "district": "Loteamento Panorama Tropical",
        "street": "Rua Michel Elias Harriz",
        "zipcode": "13905-480"
    },
    {
        "city": "Amparo",
        "state": "SP",
        "district": "Jardim Modelo",
        "street": "Rua Luiz Antônio M. Persicano",
        "zipcode": "13905-655"
    },
    {
        "city": "Amparo",
        "state": "SP",
        "district": "Vale Verde",
        "street": "Rua Luiz Vanderlei Pagan",
        "zipcode": "13904-803"
    },
    {
        "city": "Amparo",
        "state": "SP",
        "district": "Loteamento Jardim Guarani",
        "street": "Rua Adriano Lippi",
        "zipcode": "13908-384"
    },
    {
        "city": "Amparo",
        "state": "SP",
        "district": "Jardim Europa",
        "street": "Rua Antonio Pavani",
        "zipcode": "13905-540"
    },
    {
        "city": "Amparo",
        "state": "SP",
        "district": "Centro (Arcadas)",
        "street": "Rótula Álvaro Costa",
        "zipcode": "13908-229"
    },
    {
        "city": "Amparo",
        "state": "SP",
        "district": "Chácara Flor da Porcelana (Arcadas)",
        "street": "Rua Augusto Marchiori",
        "zipcode": "13908-531"
    },
    {
        "city": "Amparo",
        "state": "SP",
        "district": "Jardim São Dimas",
        "street": "Rua Gilmar Michelazzo",
        "zipcode": "13905-624"
    },
    {
        "city": "Amparo",
        "state": "SP",
        "district": "Chácara Flor da Porcelana (Arcadas)",
        "street": "Avenida Elias Domingos dos Santos",
        "zipcode": "13908-520"
    },
    {
        "city": "Amparo",
        "state": "SP",
        "district": "Conjunto Habitacional Alberto Marques",
        "street": "Rua Maximino do Carmo",
        "zipcode": "13905-673"
    },
    {
        "city": "Amparo",
        "state": "SP",
        "district": "Parque Flamboyant",
        "street": "Rua Santa Bárbara DOeste",
        "zipcode": "13904-523"
    },
    {
        "city": "Amparo",
        "state": "SP",
        "district": "Centro (Três Pontes)",
        "street": "Rua Maria Balduíno Urbano",
        "zipcode": "13909-900"
    },
    {
        "city": "Amparo",
        "state": "SP",
        "district": "Jardim Vista Alegre (Arcadas)",
        "street": "Rodovia SP 107",
        "zipcode": "13908-901"
    },
    {
        "city": "Amparo",
        "state": "SP",
        "district": "Centro (Arcadas)",
        "street": "Rua Henrique Rebieri",
        "zipcode": "13908-900"
    },
    {
        "city": "Amparo",
        "state": "SP",
        "district": "Chácara das Águas (Três Pontes)",
        "street": "Rua Albertino Lastória",
        "zipcode": "13909-305"
    },
    {
        "city": "Amparo",
        "state": "SP",
        "district": "Jardim Silvestre II",
        "street": "Rua Sebastião de Oliveira",
        "zipcode": "13905-475"
    },
    {
        "city": "Amparo",
        "state": "SP",
        "district": "Jardim Silvestre IV",
        "street": "Rua Gracinda de Jesus Batista",
        "zipcode": "13905-502"
    },
    {
        "city": "Amparo",
        "state": "SP",
        "district": "Jardim Silvestre IV",
        "street": "Rua Moisés Turato Filho",
        "zipcode": "13905-506"
    },
    {
        "city": "Amparo",
        "state": "SP",
        "district": "Residencial Santa Maria Amparo",
        "street": "Rua André Billi",
        "zipcode": "13905-760"
    },
    {
        "city": "Amparo",
        "state": "SP",
        "district": "Residencial Santa Maria Amparo",
        "street": "Rua Paulo Silveira Monteiro",
        "zipcode": "13905-765"
    },
    {
        "city": "Amparo",
        "state": "SP",
        "district": "Vale Verde",
        "street": "Rua Ulisses Vieira e Silva",
        "zipcode": "13904-804"
    },
    {
        "city": "Amparo",
        "state": "SP",
        "district": "Parque Rodrigues",
        "street": "Rua Amílcar Pieroni",
        "zipcode": "13903-170"
    },
    {
        "city": "Amparo",
        "state": "SP",
        "district": "Centro",
        "street": "Rua Antônio Prado",
        "zipcode": "13900-374"
    },
    {
        "city": "Amparo",
        "state": "SP",
        "district": "Jardim Adélia",
        "street": "Rua Chile",
        "zipcode": "13904-200"
    },
    {
        "city": "Amparo",
        "state": "SP",
        "district": "Centro",
        "street": "Rua Dona Ritinha",
        "zipcode": "13900-170"
    },
    {
        "city": "Amparo",
        "state": "SP",
        "district": "Loteamento Nardini",
        "street": "Avenida Doutor Carlos Burgos",
        "zipcode": "13905-000"
    },
    {
        "city": "Amparo",
        "state": "SP",
        "district": "Centro",
        "street": "Travessa Gildo Gelmini",
        "zipcode": "13900-221"
    },
    {
        "city": "Amparo",
        "state": "SP",
        "district": "Jardim São Lourenço",
        "street": "Rua Guilherme de Almeida",
        "zipcode": "13904-152"
    },
    {
        "city": "Amparo",
        "state": "SP",
        "district": "Chácara São Francisco",
        "street": "Rua José Feliciano de Camargo Júnior",
        "zipcode": "13902-420"
    },
    {
        "city": "Amparo",
        "state": "SP",
        "district": "Conjunto Habitacional Alberto Marques",
        "street": "Rua Lupércio Lopes da Silva",
        "zipcode": "13905-671"
    },
    {
        "city": "Amparo",
        "state": "SP",
        "district": "Centro",
        "street": "Praça Monsenhor João Batista Lisboa",
        "zipcode": "13900-080"
    },
    {
        "city": "Amparo",
        "state": "SP",
        "district": "Velhobol",
        "street": "Estrada Municipal do Bairro Três Pontes (AMP",
        "zipcode": "13902-500"
    },
    {
        "city": "Amparo",
        "state": "SP",
        "district": "Parque do Sol",
        "street": "Rua Onze",
        "zipcode": "13901-676"
    },
    {
        "city": "Amparo",
        "state": "SP",
        "district": "Jardim das Orquídeas",
        "street": "Rua Palermo",
        "zipcode": "13901-020"
    },
    {
        "city": "Amparo",
        "state": "SP",
        "district": "Jardim Santa Cecília",
        "street": "Rua do Prata",
        "zipcode": "13902-390"
    },
    {
        "city": "Amparo",
        "state": "SP",
        "district": "Parque Rodrigues",
        "street": "Rua Professor Sílvio Vichi",
        "zipcode": "13903-165"
    },
    {
        "city": "Amparo",
        "state": "SP",
        "district": "Centro",
        "street": "Rua Sete de Setembro",
        "zipcode": "13900-372"
    },
    {
        "city": "Amparo",
        "state": "SP",
        "district": "Parque do Sol",
        "street": "Rua Três",
        "zipcode": "13901-671"
    },
    {
        "city": "Amparo",
        "state": "SP",
        "district": "Loteamento Panorama Tropical",
        "street": "Rua Vereador Doutor Carlos Campos Sampaio",
        "zipcode": "13905-486"
    },
    {
        "city": "Amparo",
        "state": "SP",
        "district": "Centro",
        "street": "Rua Benvinda Pinto",
        "zipcode": "13900-261"
    },
    {
        "city": "Amparo",
        "state": "SP",
        "district": "Centro",
        "street": "Rua Guadalajara",
        "zipcode": "13900-378"
    },
    {
        "city": "Amparo",
        "state": "SP",
        "district": "Residencial Paulistano",
        "street": "Rua Anna Domingas Grolla Vido",
        "zipcode": "13901-265"
    },
    {
        "city": "Amparo",
        "state": "SP",
        "district": "Jardim Santo Antônio",
        "street": "Rua Joffre Vieira da Rocha",
        "zipcode": "13901-225"
    },
    {
        "city": "Amparo",
        "state": "SP",
        "district": "Centro (Arcadas)",
        "street": "Rua José Jacobsen",
        "zipcode": "13908-970"
    },
    {
        "city": "Amparo",
        "state": "SP",
        "district": "Centro",
        "street": "Praça Monsenhor João Batista Lisboa",
        "zipcode": "13900-999"
    },
    {
        "city": "Amparo",
        "state": "SP",
        "district": "Loteamento Nardini",
        "street": "Rua Julião Martins",
        "zipcode": "13905-072"
    },
    {
        "city": "Amparo",
        "state": "SP",
        "district": "Centro",
        "street": "Praça Alonso Ferreira de Camargo",
        "zipcode": "13900-279"
    },
    {
        "city": "Amparo",
        "state": "SP",
        "district": "Residencial Santa Maria Amparo",
        "street": "Rua Nelson Spajari",
        "zipcode": "13905-771"
    },
    {
        "city": "Amparo",
        "state": "SP",
        "district": "Jardim das Aves",
        "street": "Rua Tuim",
        "zipcode": "13903-401"
    },
    {
        "city": "Amparo",
        "state": "SP",
        "district": "Vila Nova",
        "street": "Rua Hermelindo Armelini",
        "zipcode": "13903-803"
    },
    {
        "city": "Amparo",
        "state": "SP",
        "district": "Jardim Figueira",
        "street": "Praça Salomão José Stéfano",
        "zipcode": "13904-329"
    },
    {
        "city": "Amparo",
        "state": "SP",
        "district": "Vila Nova",
        "street": "Rua José Feres",
        "zipcode": "13903-802"
    },
    {
        "city": "Amparo",
        "state": "SP",
        "district": "Castelo",
        "street": "Avenida Sleiman José Stephan",
        "zipcode": "13902-092"
    },
    {
        "city": "Amparo",
        "state": "SP",
        "district": "Parque Modelo",
        "street": "Rodovia João Beira",
        "zipcode": "13905-900"
    },
    {
        "city": "Amparo",
        "state": "SP",
        "district": "Centro",
        "street": "Praça Rui Barbosa",
        "zipcode": "13900-049"
    },
    {
        "city": "Amparo",
        "state": "SP",
        "district": "Castelo",
        "street": "Rua Amadeu Fredericci",
        "zipcode": "13902-091"
    },
    {
        "city": "Amparo",
        "state": "SP",
        "district": "Jardim Silmara",
        "street": "Rua Francisco Pacetta",
        "zipcode": "13905-261"
    },
    {
        "city": "Amparo",
        "state": "SP",
        "district": "Fazenda São José (Arcadas)",
        "street": "Rua Cinco",
        "zipcode": "13908-654"
    },
    {
        "city": "Amparo",
        "state": "SP",
        "district": "Jardim Vista Alegre (Arcadas)",
        "street": "Rua Fioravante Marchiori",
        "zipcode": "13908-605"
    },
    {
        "city": "Amparo",
        "state": "SP",
        "district": "Jardim Silmara",
        "street": "Avenida Marginal",
        "zipcode": "13905-293"
    },
    {
        "city": "Amparo",
        "state": "SP",
        "district": "Jardim Vista Alegre (Arcadas)",
        "street": "Rua Emerson Rodrigues",
        "zipcode": "13908-600"
    },
    {
        "city": "Amparo",
        "state": "SP",
        "district": "Jardim Adélia",
        "street": "Rua Natal Dorigatti",
        "zipcode": "13904-240"
    },
    {
        "city": "Amparo",
        "state": "SP",
        "district": "Jardim Vista Alegre (Arcadas)",
        "street": "Rua Clovis Apparecido Domingues de Almeida",
        "zipcode": "13908-602"
    },
    {
        "city": "Amparo",
        "state": "SP",
        "district": "Loteamento Estância Netinho",
        "street": "Rua B",
        "zipcode": "13904-761"
    },
    {
        "city": "Amparo",
        "state": "SP",
        "district": "Centro",
        "street": "Rua Delfina Cintra",
        "zipcode": "13900-352"
    },
    {
        "city": "Amparo",
        "state": "SP",
        "district": "Centro",
        "street": "Rua Humberto Beretta",
        "zipcode": "13900-905"
    },
    {
        "city": "Amparo",
        "state": "SP",
        "district": "Centro",
        "street": "Praça Monsenhor João Batista Lisboa",
        "zipcode": "13900-902"
    },
    {
        "city": "Amparo",
        "state": "SP",
        "district": "Castelo",
        "street": "Rua Doutor Antônio de Oliveira Nóbrega",
        "zipcode": "13902-900"
    },
    {
        "city": "Amparo",
        "state": "SP",
        "district": "Parque Rodrigues",
        "street": "Rua Waldomiro Rosetti",
        "zipcode": "13903-160"
    },
    {
        "city": "Amparo",
        "state": "SP",
        "district": "Residencial Santa Maria Amparo",
        "street": "Rua Francisco Luiz dos Santos",
        "zipcode": "13905-764"
    },
    {
        "city": "Amparo",
        "state": "SP",
        "district": "Jardim Silvestre I",
        "street": "Avenida Augusto Barassa",
        "zipcode": "13905-411"
    },
    {
        "city": "Amparo",
        "state": "SP",
        "district": "Jardim América",
        "street": "Rua Chile",
        "zipcode": "13904-124"
    },
    {
        "city": "Amparo",
        "state": "SP",
        "district": "Jardim América",
        "street": "Rua Venezuela",
        "zipcode": "13904-125"
    },
    {
        "city": "Amparo",
        "state": "SP",
        "district": "Jardim América",
        "street": "Rua Uruguai",
        "zipcode": "13904-126"
    },
    {
        "city": "Amparo",
        "state": "SP",
        "district": "Residencial Villagio Di Fiori",
        "street": "Alameda Aldo Bruschini Lippi",
        "zipcode": "13901-506"
    },
    {
        "city": "Amparo",
        "state": "SP",
        "district": "Centro",
        "street": "Rua da Alegria",
        "zipcode": "13900-108"
    },
    {
        "city": "Amparo",
        "state": "SP",
        "district": "Centro",
        "street": "Rua Ângelo Lavezzo",
        "zipcode": "13900-370"
    },
    {
        "city": "Amparo",
        "state": "SP",
        "district": "Chácara São Francisco",
        "street": "Rua Isaura de Oliveira Scalui",
        "zipcode": "13902-410"
    },
    {
        "city": "Amparo",
        "state": "SP",
        "district": "Arruda",
        "street": "Praça Olavo Bilac",
        "zipcode": "13901-809"
    },
    {
        "city": "Amparo",
        "state": "SP",
        "district": "Jardim das Aves",
        "street": "Rua Perdiz",
        "zipcode": "13903-441"
    },
    {
        "city": "Amparo",
        "state": "SP",
        "district": "Jardim das Aves",
        "street": "Rua Pica",
        "zipcode": "13903-443"
    },
    {
        "city": "Amparo",
        "state": "SP",
        "district": "Jardim Bandeirantes (Arcadas)",
        "street": "Rua Ricieri Marchiori",
        "zipcode": "13908-330"
    },
    {
        "city": "Amparo",
        "state": "SP",
        "district": "Jardim Figueira",
        "street": "Rua Rio Arno",
        "zipcode": "13904-371"
    },
    {
        "city": "Amparo",
        "state": "SP",
        "district": "Jardim das Aves",
        "street": "Rua Tie",
        "zipcode": "13903-402"
    },
    {
        "city": "Amparo",
        "state": "SP",
        "district": "Jardim São Dimas",
        "street": "Rua Adolfo Cristiani",
        "zipcode": "13905-611"
    },
    {
        "city": "Amparo",
        "state": "SP",
        "district": "Residencial Villaggio di Fiori",
        "street": "Residencial Villaggio di Fiori",
        "zipcode": "13901-500"
    },
    {
        "city": "Amparo",
        "state": "SP",
        "district": "Centro",
        "street": "Praça Tenente José Ferraz de Oliveira",
        "zipcode": "13900-901"
    },
    {
        "city": "Amparo",
        "state": "SP",
        "district": "Jardim São José",
        "street": "Rua Amadeu Gomes de Souza",
        "zipcode": "13901-153"
    },
    {
        "city": "Amparo",
        "state": "SP",
        "district": "Parque Modelo",
        "street": "Rua João Alexandre Bispo",
        "zipcode": "13905-524"
    },
    {
        "city": "Amparo",
        "state": "SP",
        "district": "Parque Flamboyant",
        "street": "Rua Jaguariúna",
        "zipcode": "13904-536"
    },
    {
        "city": "Amparo",
        "state": "SP",
        "district": "Planalto da Serra",
        "street": "Rua Dois",
        "zipcode": "13902-851"
    },
    {
        "city": "Amparo",
        "state": "SP",
        "district": "Centro",
        "street": "Rua Pedro Penteado",
        "zipcode": "13900-420"
    },
    {
        "city": "Amparo",
        "state": "SP",
        "district": "São Roque (Três Pontes)",
        "street": "Rua Sylvio Marques Almeida",
        "zipcode": "13909-101"
    },
    {
        "city": "Amparo",
        "state": "SP",
        "district": "São Roque (Três Pontes)",
        "street": "Rua Antônio Pierin",
        "zipcode": "13909-103"
    },
    {
        "city": "Amparo",
        "state": "SP",
        "district": "Loteamento Jardim Guarani",
        "street": "Rua João Carlos Gallo da Cruz",
        "zipcode": "13908-386"
    },
    {
        "city": "Amparo",
        "state": "SP",
        "district": "Conjunto Habitacional de Interesse Social Vila das Pedras",
        "street": "Rua Adney Reynaldo Siqueira Buzo",
        "zipcode": "13904-495"
    },
    {
        "city": "Amparo",
        "state": "SP",
        "district": "Residencial Santa Maria Amparo",
        "street": "Rua Cecília Giardini da Silva",
        "zipcode": "13905-763"
    },
    {
        "city": "Amparo",
        "state": "SP",
        "district": "Centro",
        "street": "Avenida Bernardino de Campos",
        "zipcode": "13900-972"
    },
    {
        "city": "Amparo",
        "state": "SP",
        "district": "Recanto das Paineiras",
        "street": "Rua Luiz Augusto Lemes",
        "zipcode": "13905-400"
    },
    {
        "city": "Amparo",
        "state": "SP",
        "district": "Jardim Adélia",
        "street": "Rua Ângelo Jacomasso",
        "zipcode": "13904-291"
    },
    {
        "city": "Amparo",
        "state": "SP",
        "district": "Centro",
        "street": "Rua Washington Luiz",
        "zipcode": "13900-020"
    },
    {
        "city": "Amparo",
        "state": "SP",
        "district": "Jardim Primavera",
        "street": "Praça Domingos Marcellini",
        "zipcode": "13901-329"
    },
    {
        "city": "Amparo",
        "state": "SP",
        "district": "São Judas",
        "street": "Rua Bartolomeu Rossi",
        "zipcode": "13901-291"
    },
    {
        "city": "Amparo",
        "state": "SP",
        "district": "Parque do Sol",
        "street": "Rua David Alssufi",
        "zipcode": "13901-670"
    },
    {
        "city": "Amparo",
        "state": "SP",
        "district": "Jardim Serra das Estâncias",
        "street": "Rua Paulino Calviello",
        "zipcode": "13902-866"
    },
    {
        "city": "Amparo",
        "state": "SP",
        "district": "Figueira",
        "street": "Avenida Waldyr Beira",
        "zipcode": "13904-906"
    },
    {
        "city": "Amparo",
        "state": "SP",
        "district": "Silvestre",
        "street": "Rua Luiz Precoppe",
        "zipcode": "13901-006"
    },
    {
        "city": "Amparo",
        "state": "SP",
        "district": "Jardim Serra das Estâncias",
        "street": "Rua Martha Vaccari Bellagamba Orlandi",
        "zipcode": "13902-863"
    },
    {
        "city": "Amparo",
        "state": "SP",
        "district": "Jardim Serra das Estâncias",
        "street": "Avenida Francisco Lazarini",
        "zipcode": "13902-871"
    },
    {
        "city": "Amparo",
        "state": "SP",
        "district": "Jardim Serra das Estâncias",
        "street": "Rua Armando Bellagamba Orlandi",
        "zipcode": "13902-864"
    },
    {
        "city": "Amparo",
        "state": "SP",
        "district": "Jardim Serra das Estâncias",
        "street": "Rua Orlando Bellagamba Orlandi",
        "zipcode": "13902-861"
    },
    {
        "city": "Amparo",
        "state": "SP",
        "district": "Jardim Serra das Estâncias",
        "street": "Rua Rodolpho Zeni",
        "zipcode": "13902-869"
    },
    {
        "city": "Amparo",
        "state": "SP",
        "district": "Jardim Silmara",
        "street": "Rua Luís Romano Bortolatti",
        "zipcode": "13905-291"
    },
    {
        "city": "Amparo",
        "state": "SP",
        "district": "Jardim Serra das Estâncias",
        "street": "Avenida Gerônimo Stafocher",
        "zipcode": "13902-868"
    },
    {
        "city": "Amparo",
        "state": "SP",
        "district": "Eucalíptos",
        "street": "Rua Luiz José de Souza",
        "zipcode": "13901-703"
    },
    {
        "city": "Amparo",
        "state": "SP",
        "district": "Jardim Silvestre II",
        "street": "Rua Vereador Clementino Lúcio Longo",
        "zipcode": "13905-471"
    },
    {
        "city": "Amparo",
        "state": "SP",
        "district": "Jardim São Lourenço",
        "street": "Praça Francisco Couceiro",
        "zipcode": "13904-159"
    },
    {
        "city": "Amparo",
        "state": "SP",
        "district": "Centro",
        "street": "Praça Pádua Salles",
        "zipcode": "13900-410"
    },
    {
        "city": "Amparo",
        "state": "SP",
        "district": "São Roque (Três Pontes)",
        "street": "Rua Paulo Rospendowski",
        "zipcode": "13909-107"
    },
    {
        "city": "Amparo",
        "state": "SP",
        "district": "Jardim Seabra",
        "street": "Rua Armandino Seabra",
        "zipcode": "13902-761"
    },
    {
        "city": "Amparo",
        "state": "SP",
        "district": "Jardim Brasil",
        "street": "Rua Santa Catarina",
        "zipcode": "13902-270"
    },
    {
        "city": "Amparo",
        "state": "SP",
        "district": "Chácara das Águas (Três Pontes)",
        "street": "Rua Valentim Guarizzo",
        "zipcode": "13909-307"
    },
    {
        "city": "Amparo",
        "state": "SP",
        "district": "Parque Flamboyant",
        "street": "Rua Alfeu Humberto Cozoli",
        "zipcode": "13904-527"
    },
    {
        "city": "Amparo",
        "state": "SP",
        "district": "Parque Modelo",
        "street": "Rua João Tescarolli",
        "zipcode": "13905-519"
    },
    {
        "city": "Amparo",
        "state": "SP",
        "district": "Jardim São Dimas",
        "street": "Avenida Ayrton Senna da Silva",
        "zipcode": "13905-612"
    },
    {
        "city": "Amparo",
        "state": "SP",
        "district": "Residencial Villagio Di Fiori",
        "street": "Alameda Irmã Jaci Maria Félix",
        "zipcode": "13901-502"
    },
    {
        "city": "Amparo",
        "state": "SP",
        "district": "Jardim América",
        "street": "Rua Colômbia",
        "zipcode": "13904-123"
    },
    {
        "city": "Amparo",
        "state": "SP",
        "district": "Residencial Villagio Di Fiori",
        "street": "Alameda Orlando Mechi",
        "zipcode": "13901-504"
    },
    {
        "city": "Amparo",
        "state": "SP",
        "district": "Área Rural de Amparo",
        "street": "Área Rural",
        "zipcode": "13909-899"
    },
    {
        "city": "Amparo",
        "state": "SP",
        "district": "Jardim Bela Vista",
        "street": "Rua A",
        "zipcode": "13903-050"
    },
    {
        "city": "Amparo",
        "state": "SP",
        "district": "Jardim Primavera",
        "street": "Rua das Acácias",
        "zipcode": "13901-325"
    },
    {
        "city": "Amparo",
        "state": "SP",
        "district": "Jardim Santana",
        "street": "Rua Afonso Celso de Toledo Franco",
        "zipcode": "13902-080"
    },
    {
        "city": "Amparo",
        "state": "SP",
        "district": "Chácara Bocaina",
        "street": "Rua Afonso Celso Toledo Franco",
        "zipcode": "13902-834"
    },
    {
        "city": "Amparo",
        "state": "SP",
        "district": "Conjunto Habitacional Alberto Marques",
        "street": "Rua Afonso Geremias",
        "zipcode": "13905-670"
    },
    {
        "city": "Amparo",
        "state": "SP",
        "district": "Jardim Camandocaia",
        "street": "Rua Afonso Novelli",
        "zipcode": "13905-142"
    },
    {
        "city": "Amparo",
        "state": "SP",
        "district": "Chácara Bocaina",
        "street": "Rua Agnelo Bastos",
        "zipcode": "13902-835"
    },
    {
        "city": "Amparo",
        "state": "SP",
        "district": "Parque Flamboyant",
        "street": "Rua Águas de Lindóia",
        "zipcode": "13904-531"
    },
    {
        "city": "Amparo",
        "state": "SP",
        "district": "Centro",
        "street": "Rua Albino Alves",
        "zipcode": "13900-373"
    },
    {
        "city": "Amparo",
        "state": "SP",
        "district": "Chácara São Francisco",
        "street": "Rua Alcides dos Santos",
        "zipcode": "13902-411"
    },
    {
        "city": "Amparo",
        "state": "SP",
        "district": "Jardim São Dimas",
        "street": "Rua Alcides Postali",
        "zipcode": "13905-620"
    },
    {
        "city": "Amparo",
        "state": "SP",
        "district": "Centro (Arcadas)",
        "street": "Rua Alfredo de Barros",
        "zipcode": "13908-240"
    },
    {
        "city": "Amparo",
        "state": "SP",
        "district": "Parque Rodrigues",
        "street": "Rua Antônio Gomes Leal",
        "zipcode": "13903-185"
    },
    {
        "city": "Amparo",
        "state": "SP",
        "district": "Jardim América",
        "street": "Rua Argentina",
        "zipcode": "13904-070"
    },
    {
        "city": "Amparo",
        "state": "SP",
        "district": "Parque Rodrigues",
        "street": "Rua Bento dos Santos Guerra",
        "zipcode": "13903-180"
    },
    {
        "city": "Amparo",
        "state": "SP",
        "district": "Centro",
        "street": "Avenida Bernardino de Campos",
        "zipcode": "13900-400"
    },
    {
        "city": "Amparo",
        "state": "SP",
        "district": "Castelo",
        "street": "Rua Doutor Antônio de Oliveira Nóbrega",
        "zipcode": "13902-090"
    },
    {
        "city": "Amparo",
        "state": "SP",
        "district": "Parque do Sol",
        "street": "Rua Doutor Aristeu A. de Souza Lima",
        "zipcode": "13901-672"
    },
    {
        "city": "Amparo",
        "state": "SP",
        "district": "Jardim Silmara",
        "street": "Rua Doutor Geraldo Godoy de Burgos",
        "zipcode": "13905-290"
    },
    {
        "city": "Amparo",
        "state": "SP",
        "district": "Jardim São Sebastião",
        "street": "Rua Doutor Raul de Souza Leite",
        "zipcode": "13903-260"
    },
    {
        "city": "Amparo",
        "state": "SP",
        "district": "Jardim Camandocaia",
        "street": "Rua Inglaterra",
        "zipcode": "13905-131"
    },
    {
        "city": "Amparo",
        "state": "SP",
        "district": "Jardim Santo Antônio",
        "street": "Rua José Roberto Gonçalves Cruz",
        "zipcode": "13901-241"
    },
    {
        "city": "Amparo",
        "state": "SP",
        "district": "Jardim Santa Helena",
        "street": "Rua Particular",
        "zipcode": "13901-412"
    },
    {
        "city": "Amparo",
        "state": "SP",
        "district": "Centro",
        "street": "Rua Peixoto Gomide",
        "zipcode": "13900-210"
    },
    {
        "city": "Amparo",
        "state": "SP",
        "district": "Parque Dona Virgínia",
        "street": "Rua Pracinha José Trancolin",
        "zipcode": "13903-240"
    },
    {
        "city": "Amparo",
        "state": "SP",
        "district": "Jardim Silvana",
        "street": "Rua Prefeito Aristides V. Fabrini",
        "zipcode": "13903-131"
    },
    {
        "city": "Amparo",
        "state": "SP",
        "district": "Centro (Três Pontes)",
        "street": "Rua Rachid Kassouf",
        "zipcode": "13909-010"
    },
    {
        "city": "Amparo",
        "state": "SP",
        "district": "Jardim São Sebastião (Arcadas)",
        "street": "Rua Cavalheiro Rosa Liza",
        "zipcode": "13908-402"
    },
    {
        "city": "Amparo",
        "state": "SP",
        "district": "Conjunto Habitacional Vereador Hermínio Gerbi",
        "street": "Rua Vítor Farah",
        "zipcode": "13905-693"
    },
    {
        "city": "Amparo",
        "state": "SP",
        "district": "Chácara São João",
        "street": "Rua Francisco Luís da Silveira Campos",
        "zipcode": "13905-710"
    },
    {
        "city": "Amparo",
        "state": "SP",
        "district": "Jardim Silvana",
        "street": "Rua Prefeito Horacílio de Souza Araújo",
        "zipcode": "13903-132"
    },
    {
        "city": "Amparo",
        "state": "SP",
        "district": "Chácara Flor da Porcelana (Arcadas)",
        "street": "Rua Sebastião Leite de Camargo",
        "zipcode": "13908-523"
    },
    {
        "city": "Amparo",
        "state": "SP",
        "district": "Jardim Silvana",
        "street": "Rua Vereador Daniel Rotta Ferrari",
        "zipcode": "13903-141"
    },
    {
        "city": "Amparo",
        "state": "SP",
        "district": "Conjunto Habitacional Alberto Marques",
        "street": "Praça Carlos de Toledo Pizza",
        "zipcode": "13905-679"
    },
    {
        "city": "Amparo",
        "state": "SP",
        "district": "Centro",
        "street": "Praça Rachide Domingues",
        "zipcode": "13900-409"
    },
    {
        "city": "Amparo",
        "state": "SP",
        "district": "Chácara Ancona (Arcadas)",
        "street": "Rua Amadeu Guarizzo",
        "zipcode": "13908-501"
    },
    {
        "city": "Amparo",
        "state": "SP",
        "district": "Loteamento Estância Netinho",
        "street": "Rua A",
        "zipcode": "13904-760"
    },
    {
        "city": "Amparo",
        "state": "SP",
        "district": "Chácara Bocaina",
        "street": "Praça Alberto Pastana",
        "zipcode": "13902-839"
    },
    {
        "city": "Amparo",
        "state": "SP",
        "district": "Jardim São Sebastião",
        "street": "Praça Adelino Beviláqua",
        "zipcode": "13903-289"
    },
    {
        "city": "Amparo",
        "state": "SP",
        "district": "Vila Nova",
        "street": "Rua Jose Feres",
        "zipcode": "13904-241"
    },
    {
        "city": "Amparo",
        "state": "SP",
        "district": "Conjunto Habitacional Vereador Hermínio Gerbi",
        "street": "Rua Domingos Alberto Marson",
        "zipcode": "13905-682"
    },
    {
        "city": "Amparo",
        "state": "SP",
        "district": "Recanto do Lago",
        "street": "Rua Adelino Panegassi",
        "zipcode": "13904-711"
    },
    {
        "city": "Amparo",
        "state": "SP",
        "district": "Loteamento Nardini",
        "street": "Avenida Saudade",
        "zipcode": "13901-000"
    },
    {
        "city": "Amparo",
        "state": "SP",
        "district": "Centro",
        "street": "Rua Hilario Zanesco",
        "zipcode": "13901-311"
    },
    {
        "city": "Amparo",
        "state": "SP",
        "district": "Centro",
        "street": "Rua Da Alegria",
        "zipcode": "13901-313"
    },
    {
        "city": "Amparo",
        "state": "SP",
        "district": "Centro",
        "street": "Rua Do Triunfo",
        "zipcode": "13901-314"
    },
    {
        "city": "Amparo",
        "state": "SP",
        "district": "Centro",
        "street": "Rua Manoel De Miranda Antunes",
        "zipcode": "13902-001"
    },
    {
        "city": "Amparo",
        "state": "SP",
        "district": "Centro",
        "street": "Rua Carlos Gomes",
        "zipcode": "13903-000"
    },
    {
        "city": "Amparo",
        "state": "SP",
        "district": "Centro",
        "street": "Rua Sete De Setembro",
        "zipcode": "13903-010"
    },
    {
        "city": "Amparo",
        "state": "SP",
        "district": "Centro",
        "street": "Avenida Prefeito Raul De Oliveira Fagundes",
        "zipcode": "13904-000"
    },
    {
        "city": "Amparo",
        "state": "SP",
        "district": "Centro",
        "street": "Avenida Bernardino De Campos",
        "zipcode": "13904-010"
    },
    {
        "city": "Amparo",
        "state": "SP",
        "district": "Jardim Figueira",
        "street": "Rua Mexico",
        "zipcode": "13904-211"
    },
    {
        "city": "Amparo",
        "state": "SP",
        "district": "Ribeirao",
        "street": "Rua Marcilio Dias",
        "zipcode": "13903-290"
    },
    {
        "city": "Amparo",
        "state": "SP",
        "district": "Jardim Figueira",
        "street": "Rua Francisco Segatto",
        "zipcode": "13904-261"
    },
    {
        "city": "Amparo",
        "state": "SP",
        "district": "Jardim Santo Antonio",
        "street": "Avenida Dr Carlos Burgos",
        "zipcode": "13901-300"
    },
    {
        "city": "Amparo",
        "state": "SP",
        "district": "Jardim Figueira",
        "street": "Rua Peru",
        "zipcode": "13904-213"
    },
    {
        "city": "Amparo",
        "state": "SP",
        "district": "Parque Dona Virginia",
        "street": "Rua Pracinha Jose Trancolin",
        "zipcode": "13903-200"
    },
    {
        "city": "Amparo",
        "state": "SP",
        "district": "Centro",
        "street": "Rua Antonio Maurano",
        "zipcode": "13904-011"
    },
    {
        "city": "Amparo",
        "state": "SP",
        "district": "Fazenda Sao Jose",
        "street": "Rua Dois",
        "zipcode": "13905-751"
    },
    {
        "city": "Amparo",
        "state": "SP",
        "district": "Jardim Real",
        "street": "Rua Leonidio Rossi",
        "zipcode": "13902-181"
    },
    {
        "city": "Amparo",
        "state": "SP",
        "district": "Parque Rodrigues",
        "street": "Rua Amilcar Pieroni",
        "zipcode": "13903-222"
    },
    {
        "city": "Amparo",
        "state": "SP",
        "district": "Fazenda Sao Jose",
        "street": "Rua Seis",
        "zipcode": "13905-755"
    },
    {
        "city": "Amparo",
        "state": "SP",
        "district": "Silvestre",
        "street": "Rua Suica",
        "zipcode": "13905-050"
    },
    {
        "city": "Amparo",
        "state": "SP",
        "district": "Ribeirao",
        "street": "Rua Francisco Luiz Da Silva",
        "zipcode": "13903-330"
    },
    {
        "city": "Amparo",
        "state": "SP",
        "district": "Jardim Das Aves",
        "street": "Estrada Municipal Boa Vereda (Amp",
        "zipcode": "13903-700"
    },
    {
        "city": "Amparo",
        "state": "SP",
        "district": "Jardim Real",
        "street": "Rua Madre Maria C. De Sena",
        "zipcode": "13902-191"
    },
    {
        "city": "Amparo",
        "state": "SP",
        "district": "Jardim Camandocaia",
        "street": "Rua Benedito Guedes",
        "zipcode": "13905-190"
    },
    {
        "city": "Amparo",
        "state": "SP",
        "district": "Jardim Santa Cecilia",
        "street": "Rua Solimoes",
        "zipcode": "13902-320"
    },
    {
        "city": "Amparo",
        "state": "SP",
        "district": "Centro",
        "street": "Praça Lions Internacional",
        "zipcode": "13902-809"
    },
    {
        "city": "Amparo",
        "state": "SP",
        "district": "Fazenda Sao Jose",
        "street": "Rua Um",
        "zipcode": "13905-750"
    },
    {
        "city": "Amparo",
        "state": "SP",
        "district": "Jardim Santana",
        "street": "Rua Nelson Marques De Almeida",
        "zipcode": "13902-380"
    },
    {
        "city": "Amparo",
        "state": "SP",
        "district": "Fazenda Sao Jose",
        "street": "Rua Tres",
        "zipcode": "13905-752"
    },
    {
        "city": "Amparo",
        "state": "SP",
        "district": "Silvestre",
        "street": "Rodovia Joao Beira",
        "zipcode": "13904-005"
    },
    {
        "city": "Amparo",
        "state": "SP",
        "district": "Silvestre",
        "street": "Rua Particular",
        "zipcode": "13905-051"
    },
    {
        "city": "Amparo",
        "state": "SP",
        "district": "Centro",
        "street": "Rua Galvao Bueno",
        "zipcode": "13902-010"
    },
    {
        "city": "Amparo",
        "state": "SP",
        "district": "Jardim Figueira",
        "street": "Rua Haiti",
        "zipcode": "13904-212"
    },
    {
        "city": "Amparo",
        "state": "SP",
        "district": "Jardim Sao Roberto",
        "street": "Rua Carmo Cintra",
        "zipcode": "13901-152"
    },
    {
        "city": "Amparo",
        "state": "SP",
        "district": "Silvestre",
        "street": "Rua Felizardo Pompeu",
        "zipcode": "13905-020"
    },
    {
        "city": "Amparo",
        "state": "SP",
        "district": "Centro",
        "street": "Praça Irma Irene",
        "zipcode": "13902-019"
    },
    {
        "city": "Amparo",
        "state": "SP",
        "district": "Fazenda Sao Jose",
        "street": "Rua Sete",
        "zipcode": "13905-756"
    },
    {
        "city": "Amparo",
        "state": "SP",
        "district": "Arcadas",
        "street": "Rua Rubens Paulino De Oliveira",
        "zipcode": "13908-150"
    },
    {
        "city": "Amparo",
        "state": "SP",
        "district": "Residencial Paulistano",
        "street": "Rua Humberto Afonso Cozoli",
        "zipcode": "13901-263"
    },
    {
        "city": "Amparo",
        "state": "SP",
        "district": "Arruda",
        "street": "Estrada Affonso Ribeiro Persicano",
        "zipcode": "13901-600"
    },
    {
        "city": "Amparo",
        "state": "SP",
        "district": "Jardim Camandocaia",
        "street": "Rua Jose Siqueira Cezar",
        "zipcode": "13905-180"
    },
    {
        "city": "Amparo",
        "state": "SP",
        "district": "Jardim Real",
        "street": "Rua Horacio Scrosoppi",
        "zipcode": "13902-211"
    },
    {
        "city": "Amparo",
        "state": "SP",
        "district": "Centro",
        "street": "Rua Argemiro Silvestre",
        "zipcode": "13903-040"
    },
    {
        "city": "Amparo",
        "state": "SP",
        "district": "Jardim Bela Vista",
        "street": "Rua Ovidio Endrighi",
        "zipcode": "13903-071"
    },
    {
        "city": "Amparo",
        "state": "SP",
        "district": "Parque Dona Virginia",
        "street": "Rua Nelson Henrique Da Silva",
        "zipcode": "13903-190"
    },
    {
        "city": "Amparo",
        "state": "SP",
        "district": "Jardim America",
        "street": "Praça Joao De Freitas",
        "zipcode": "13904-179"
    },
    {
        "city": "Amparo",
        "state": "SP",
        "district": "Silvestre",
        "street": "Rua Dr Constancio Cintra",
        "zipcode": "13904-002"
    },
    {
        "city": "Amparo",
        "state": "SP",
        "district": "Jardim Camandocaia",
        "street": "Rua Andorra",
        "zipcode": "13905-081"
    },
    {
        "city": "Amparo",
        "state": "SP",
        "district": "Centro",
        "street": "Praça Rubens Rosasco",
        "zipcode": "13902-009"
    },
    {
        "city": "Amparo",
        "state": "SP",
        "district": "Silvestre",
        "street": "Rua Polonia",
        "zipcode": "13905-010"
    },
    {
        "city": "Amparo",
        "state": "SP",
        "district": "Arcadas",
        "street": "Rua Leone Piffer",
        "zipcode": "13908-110"
    },
    {
        "city": "Amparo",
        "state": "SP",
        "district": "Arcadas",
        "street": "Rua Ricieri Marchiori",
        "zipcode": "13908-140"
    },
    {
        "city": "Amparo",
        "state": "SP",
        "district": "Castelo",
        "street": "Rua Vicente Jose Alberti",
        "zipcode": "13902-130"
    },
    {
        "city": "Amparo",
        "state": "SP",
        "district": "Parque Rodrigues",
        "street": "Rua Prof. Silvio Vichi",
        "zipcode": "13903-221"
    },
    {
        "city": "Amparo",
        "state": "SP",
        "district": "Parque Dona Virginia",
        "street": "Rua Ettore Possebom",
        "zipcode": "13903-161"
    },
    {
        "city": "Amparo",
        "state": "SP",
        "district": "Silvestre",
        "street": "Rua Ovando De Campos",
        "zipcode": "13905-030"
    },
    {
        "city": "Amparo",
        "state": "SP",
        "district": "Ribeirao",
        "street": "Rua Dr Paulo Nobrega",
        "zipcode": "13904-243"
    },
    {
        "city": "Amparo",
        "state": "SP",
        "district": "Jardim Figueira",
        "street": "Rua El Salvador",
        "zipcode": "13904-260"
    },
    {
        "city": "Amparo",
        "state": "SP",
        "district": "Silvestre",
        "street": "Rua Checoslovaquia",
        "zipcode": "13905-040"
    },
    {
        "city": "Amparo",
        "state": "SP",
        "district": "Jardim Juliana",
        "street": "Rua Attilio Cilotti",
        "zipcode": "13905-271"
    },
    {
        "city": "Amparo",
        "state": "SP",
        "district": "Silvestre",
        "street": "Rua Pedro Fernandes",
        "zipcode": "13905-031"
    },
    {
        "city": "Amparo",
        "state": "SP",
        "district": "Centro",
        "street": "Rua Pedro Mansani Mazini",
        "zipcode": "13902-002"
    },
    {
        "city": "Amparo",
        "state": "SP",
        "district": "Fazenda Sao Jose",
        "street": "Rua Quatro",
        "zipcode": "13905-753"
    },
    {
        "city": "Amparo",
        "state": "SP",
        "district": "Residencial Santa Maria Amparo",
        "street": "Rua Simão de Oliveira",
        "zipcode": "13905-768"
    },
    {
        "city": "Amparo",
        "state": "SP",
        "district": "Conjunto Habitacional Doutor Attílio Mazzini (Arcadas)",
        "street": "Rua Carlos Afonso Pedroso",
        "zipcode": "13907-062"
    },
    {
        "city": "Amparo",
        "state": "SP",
        "district": "Conjunto Habitacional Doutor Attílio Mazzini (Arcadas)",
        "street": "Rua Olivia Pereira dos Santos",
        "zipcode": "13907-066"
    },
    {
        "city": "Amparo",
        "state": "SP",
        "district": "Conjunto Habitacional Doutor Attílio Mazzini (Arcadas)",
        "street": "Rua Wilma Maria Padovani Cavalheiro",
        "zipcode": "13907-070"
    },
    {
        "city": "Amparo",
        "state": "SP",
        "district": "Jardim Silvestre II",
        "street": "Rua Antonio Francisco Biotto",
        "zipcode": "13905-476"
    },
    {
        "city": "Amparo",
        "state": "SP",
        "district": "Jardim Silvestre IV",
        "street": "Rua Lázaro Gonçalves Lopes",
        "zipcode": "13905-512"
    },
    {
        "city": "Amparo",
        "state": "SP",
        "district": "Jardim Figueira",
        "street": "Rodovia João Beira",
        "zipcode": "13904-450"
    },
    {
        "city": "Amparo",
        "state": "SP",
        "district": "Jardim Itália",
        "street": "Rua Turim",
        "zipcode": "13901-051"
    },
    {
        "city": "Amparo",
        "state": "SP",
        "district": "Vale Verde",
        "street": "Rua José Bertola",
        "zipcode": "13904-806"
    },
    {
        "city": "Amparo",
        "state": "SP",
        "district": "Jardim Silvestre IV",
        "street": "Rua José Amílcar Lugli",
        "zipcode": "13905-517"
    },
    {
        "city": "Amparo",
        "state": "SP",
        "district": "Residencial Villagio Di Fiori",
        "street": "Alameda Prefeito Walter Zelante de Godoy",
        "zipcode": "13901-501"
    },
    {
        "city": "Amparo",
        "state": "SP",
        "district": "Centro",
        "street": "Praça Tenente José Ferraz de Oliveira",
        "zipcode": "13900-900"
    },
    {
        "city": "Amparo",
        "state": "SP",
        "district": "Centro",
        "street": "Rua Da Gloria",
        "zipcode": "13901-312"
    },
    {
        "city": "Amparo",
        "state": "SP",
        "district": "Centro",
        "street": "Rua Deputado Narciso Pieroni",
        "zipcode": "13902-000"
    },
    {
        "city": "Amparo",
        "state": "SP",
        "district": "Centro",
        "street": "Rua Coronel Bernardino Galvao Prestes",
        "zipcode": "13902-003"
    },
    {
        "city": "Amparo",
        "state": "SP",
        "district": "Centro",
        "street": "Rua Albino Alves",
        "zipcode": "13903-020"
    },
    {
        "city": "Amparo",
        "state": "SP",
        "district": "Arcadas",
        "street": "Rua Eneida Angelina Lodetti",
        "zipcode": "13908-130"
    },
    {
        "city": "Amparo",
        "state": "SP",
        "district": "Parque Rodrigues",
        "street": "Rua Antonio Gomes Leal",
        "zipcode": "13903-231"
    },
    {
        "city": "Amparo",
        "state": "SP",
        "district": "Jardim Camandocaia",
        "street": "Rua Austria",
        "zipcode": "13905-073"
    },
    {
        "city": "Amparo",
        "state": "SP",
        "district": "Tres Pontes",
        "street": "Rodovia Prof. Pedrina Maria Da Silva Valente",
        "zipcode": "13909-800"
    },
    {
        "city": "Amparo",
        "state": "SP",
        "district": "Centro",
        "street": "Praça Dr Virgilio De Araujo",
        "zipcode": "13904-029"
    },
    {
        "city": "Amparo",
        "state": "SP",
        "district": "Jardim Bela Vista",
        "street": "Rua B",
        "zipcode": "13904-791"
    },
    {
        "city": "Amparo",
        "state": "SP",
        "district": "Parque Dona Virginia",
        "street": "Rua Francisco Franco De Moraes",
        "zipcode": "13903-400"
    },
    {
        "city": "Amparo",
        "state": "SP",
        "district": "Jardim Vista Alegre (Arcadas)",
        "street": "Rua Pedro Zorzetti",
        "zipcode": "13908-604"
    },
    {
        "city": "Amparo",
        "state": "SP",
        "district": "Conjunto Habitacional Doutor Attílio Mazzini (Arcadas)",
        "street": "Rua Victório Piffer",
        "zipcode": "13907-064"
    },
    {
        "city": "Amparo",
        "state": "SP",
        "district": "Vila Nova",
        "street": "Rua Hermelindo Armelini",
        "zipcode": "13904-242"
    },
    {
        "city": "Amparo",
        "state": "SP",
        "district": "Jardim Italia",
        "street": "Rua Romeu Mezzacapa",
        "zipcode": "13901-050"
    },
    {
        "city": "Amparo",
        "state": "SP",
        "district": "Chacara Bocaina",
        "street": "Rua Rafael Ricardo Rossi",
        "zipcode": "13902-880"
    },
    {
        "city": "Amparo",
        "state": "SP",
        "district": "Jardim Serra das Estâncias",
        "street": "Rua Natal Pitarello",
        "zipcode": "13902-867"
    },
    {
        "city": "Amparo",
        "state": "SP",
        "district": "Parque Dona Virginia",
        "street": "Rua Floriano Flavigna",
        "zipcode": "13903-171"
    },
    {
        "city": "Amparo",
        "state": "SP",
        "district": "Jardim Sao Sebastiao (Arcadas)",
        "street": "Rua Jacomo Cassiani",
        "zipcode": "13905-407"
    },
    {
        "city": "Amparo",
        "state": "SP",
        "district": "Silvestre",
        "street": "Rua Luis Precoppe",
        "zipcode": "13905-032"
    },
    {
        "city": "Amparo",
        "state": "SP",
        "district": "Centro",
        "street": "Praça Meireles Reis",
        "zipcode": "13903-049"
    },
    {
        "city": "Amparo",
        "state": "SP",
        "district": "Arcadas",
        "street": "Rua Humberto Vitorio Gueratto",
        "zipcode": "13908-120"
    },
    {
        "city": "Amparo",
        "state": "SP",
        "district": "Centro",
        "street": "Rua Antonio Prado",
        "zipcode": "13903-030"
    },
    {
        "city": "Amparo",
        "state": "SP",
        "district": "Fazenda Sao Jose",
        "street": "Rua Cinco",
        "zipcode": "13905-754"
    },
    {
        "city": "Amparo",
        "state": "SP",
        "district": "Centro",
        "street": "Praça Paul P. Harris",
        "zipcode": "13904-009"
    },
    {
        "city": "Amparo",
        "state": "SP",
        "district": "Jardim Santa Cecilia",
        "street": "Rua Do Prata",
        "zipcode": "13902-281"
    },
    {
        "city": "Amparo",
        "state": "SP",
        "district": "Arcadas",
        "street": "Rua Horacilio Rodrigues Alves",
        "zipcode": "13908-160"
    },
    {
        "city": "Amparo",
        "state": "SP",
        "district": "Jardim Serra das Estâncias",
        "street": "Estrada Municipal (AMP",
        "zipcode": "13902-870"
    },
    {
        "city": "Amparo",
        "state": "SP",
        "district": "Jardim Serra das Estâncias",
        "street": "Rua Amabile Guarizzo",
        "zipcode": "13902-862"
    },
    {
        "city": "Amparo",
        "state": "SP",
        "district": "Jardim Serra das Estâncias",
        "street": "Rua Elenir Bellagamba Orlandi",
        "zipcode": "13902-865"
    },
    {
        "city": "Amparo",
        "state": "SP",
        "district": "Jardim Serra das Estâncias",
        "street": "Avenida Jácomo Dionysio Camilotti",
        "zipcode": "13902-860"
    },
    {
        "city": "Amparo",
        "state": "SP",
        "district": "Parque Flamboyant",
        "street": "Rua Americana",
        "zipcode": "13904-522"
    },
    {
        "city": "Amparo",
        "state": "SP",
        "district": "Ribeirao",
        "street": "Rua Joao Bueno",
        "zipcode": "13903-300"
    },
    {
        "city": "Amparo",
        "state": "SP",
        "district": "Vila Nova",
        "street": "Rua Doutor Paulo Nóbrega",
        "zipcode": "13903-801"
    },
    {
        "city": "Amparo",
        "state": "SP",
        "district": "Jardim Santana",
        "street": "Rua Nelson Marques de Almeida",
        "zipcode": "13902-020"
    },
    {
        "city": "Amparo",
        "state": "SP",
        "district": "Residencial Santa Maria Amparo",
        "street": "Rua Carlos Antonio Brait",
        "zipcode": "13905-761"
    },
    {
        "city": "Amparo",
        "state": "SP",
        "district": "Jardim Camandocaia",
        "street": "Praça Olímpio Ribeiro",
        "zipcode": "13905-109"
    },
    {
        "city": "Amparo",
        "state": "SP",
        "district": "Ribeirão",
        "street": "Praça da Liberdade",
        "zipcode": "13904-019"
    },
    {
        "city": "Amparo",
        "state": "SP",
        "district": "Loteamento Alto da Serra",
        "street": "Rua Dois",
        "zipcode": "13903-831"
    },
    {
        "city": "Amparo",
        "state": "SP",
        "district": "Loteamento Estância Netinho",
        "street": "Estrada Municipal do Modelo",
        "zipcode": "13904-750"
    },
    {
        "city": "Amparo",
        "state": "SP",
        "district": "Jardim Das Orquideas",
        "street": "Rua Monza",
        "zipcode": "13901-022"
    },
    {
        "city": "Amparo",
        "state": "SP",
        "district": "Fazenda do Túnel (Arcadas)",
        "street": "Rua Noêmia Pádula Toniati",
        "zipcode": "13908-550"
    },
    {
        "city": "Amparo",
        "state": "SP",
        "district": "Jardim Silvana",
        "street": "Rua Vereador Guerino Brunelli",
        "zipcode": "13903-140"
    },
    {
        "city": "Amparo",
        "state": "SP",
        "district": "Retiro Luiz Cenati",
        "street": "Rua Jose Angelo Marson",
        "zipcode": "13903-360"
    },
    {
        "city": "Amparo",
        "state": "SP",
        "district": "Residencial Villagio Di Fiori",
        "street": "Alameda Professor Juarez Monteiro",
        "zipcode": "13901-503"
    },
    {
        "city": "Amparo",
        "state": "SP",
        "district": "Fazenda do Túnel (Arcadas)",
        "street": "Rua Sebastião Martineli",
        "zipcode": "13908-551"
    },
    {
        "city": "Amparo",
        "state": "SP",
        "district": "Chácara São Francisco",
        "street": "Rua José Del Rosso",
        "zipcode": "13902-415"
    },
    {
        "city": "Amparo",
        "state": "SP",
        "district": "Eucalíptos",
        "street": "Rua Flávio Vasconcellos",
        "zipcode": "13901-702"
    },
    {
        "city": "Amparo",
        "state": "SP",
        "district": "Jardim Real",
        "street": "Rua Homero Da Costa Pimentel",
        "zipcode": "13902-220"
    },
    {
        "city": "Amparo",
        "state": "SP",
        "district": "Jardim Nova Era",
        "street": "Rua Alberto Cilotti",
        "zipcode": "13901-631"
    },
    {
        "city": "Amparo",
        "state": "SP",
        "district": "Jardim Europa",
        "street": "Avenida Doutor Roberto Amparo Pastana Câmara",
        "zipcode": "13905-531"
    },
    {
        "city": "Amparo",
        "state": "SP",
        "district": "Ribeirão",
        "street": "Rua Oscar Pereira de Toledo",
        "zipcode": "13904-032"
    },
    {
        "city": "Amparo",
        "state": "SP",
        "district": "Fazenda São José (Arcadas)",
        "street": "Rua Um",
        "zipcode": "13908-650"
    },
    {
        "city": "Amparo",
        "state": "SP",
        "district": "Chácara Ancona (Arcadas)",
        "street": "Rua Antônio Altheman",
        "zipcode": "13908-500"
    },
    {
        "city": "Amparo",
        "state": "SP",
        "district": "Jardim Bianca",
        "street": "Rua Existente",
        "zipcode": "13905-492"
    },
    {
        "city": "Amparo",
        "state": "SP",
        "district": "Jardim Bela Vista",
        "street": "Rua A",
        "zipcode": "13904-790"
    },
    {
        "city": "Amparo",
        "state": "SP",
        "district": "Residencial Santa Maria Amparo",
        "street": "Rua Wolfgang F. Alberto Müller Carioba",
        "zipcode": "13905-773"
    },
    {
        "city": "Amparo",
        "state": "SP",
        "district": "Loteamento Marson",
        "street": "Rua Lídio Marson",
        "zipcode": "13901-190"
    },
    {
        "city": "Amparo",
        "state": "SP",
        "district": "Fazenda Tamburi",
        "street": "Alameda das Seringueiras",
        "zipcode": "13903-816"
    },
    {
        "city": "Amparo",
        "state": "SP",
        "district": "Jardim Primavera",
        "street": "Praça Primavera",
        "zipcode": "13901-319"
    },
    {
        "city": "Amparo",
        "state": "SP",
        "district": "Castelo",
        "street": "Rua Doutor Nelson de Souza Campos",
        "zipcode": "13902-094"
    },
    {
        "city": "Amparo",
        "state": "SP",
        "district": "Vale Verde",
        "street": "Rua Romualdo Marson",
        "zipcode": "13904-805"
    },
    {
        "city": "Amparo",
        "state": "SP",
        "district": "Fazenda Tamburi",
        "street": "Alameda dos Jequitibás",
        "zipcode": "13903-815"
    },
    {
        "city": "Amparo",
        "state": "SP",
        "district": "Jardim Adélia",
        "street": "Rua Ermelino Armellini",
        "zipcode": "13904-280"
    },
    {
        "city": "Amparo",
        "state": "SP",
        "district": "Jardim São Sebastião",
        "street": "Praça Américo Ferreira de Camargo",
        "zipcode": "13903-279"
    },
    {
        "city": "Amparo",
        "state": "SP",
        "district": "Chácara Brumado",
        "street": "Rua Três",
        "zipcode": "13901-812"
    },
    {
        "city": "Amparo",
        "state": "SP",
        "district": "Jardim Adélia",
        "street": "Rua Manágua",
        "zipcode": "13904-221"
    },
    {
        "city": "Amparo",
        "state": "SP",
        "district": "Jardim Sao Roberto",
        "street": "Rua Prof. Jose Lourenco Gomes",
        "zipcode": "13901-151"
    },
    {
        "city": "Amparo",
        "state": "SP",
        "district": "Chácara Ancona (Arcadas)",
        "street": "Rua Carlos Liza",
        "zipcode": "13908-503"
    },
    {
        "city": "Amparo",
        "state": "SP",
        "district": "Jardim Real",
        "street": "Rua Dr Pedro Azevedo",
        "zipcode": "13902-182"
    },
    {
        "city": "Amparo",
        "state": "SP",
        "district": "Fazenda Tamburi",
        "street": "Alameda dos Eucaliptos",
        "zipcode": "13903-811"
    },
    {
        "city": "Amparo",
        "state": "SP",
        "district": "Conjunto Habitacional Doutor Attílio Mazzini (Arcadas)",
        "street": "Rua Joaquim Gil Corrêa",
        "zipcode": "13907-060"
    },
    {
        "city": "Amparo",
        "state": "SP",
        "district": "Conjunto Habitacional Alberto Marques",
        "street": "Rua João Acquati",
        "zipcode": "13905-672"
    }
]