[
    {
        "city": "Artur Nogueira",
        "state": "SP",
        "district": "",
        "street": "",
        "zipcode": "13160-000"
    },
    {
        "city": "Artur Nogueira",
        "state": "SP",
        "district": null,
        "street": "Estrada Vicinal Artur Nogueira/Limeira",
        "zipcode": "13160-990"
    },
    {
        "city": "Artur Nogueira",
        "state": "SP",
        "district": "Jardim Santa Rosa",
        "street": "Rua de Santo Favéri 381",
        "zipcode": "13160-970"
    },
    {
        "city": "Artur Nogueira",
        "state": "SP",
        "district": "Jardim Blumenau",
        "street": "Rua Engenheiro Coelho",
        "zipcode": "13169-240"
    },
    {
        "city": "Artur Nogueira",
        "state": "SP",
        "district": "Residencial San Marino",
        "street": "Avenida Floresta",
        "zipcode": "13161-130"
    },
    {
        "city": "Artur Nogueira",
        "state": "SP",
        "district": "Residencial Recanto das Palmeiras",
        "street": "Alameda 01",
        "zipcode": "13165-700"
    },
    {
        "city": "Artur Nogueira",
        "state": "SP",
        "district": "Núcleo Campos Sales",
        "street": "Alameda Rosangela do Prado Lúcio",
        "zipcode": "13160-604"
    },
    {
        "city": "Artur Nogueira",
        "state": "SP",
        "district": "Centro",
        "street": "Avenida Doutor Tancredo de Almeida Neves",
        "zipcode": "13160-142"
    },
    {
        "city": "Artur Nogueira",
        "state": "SP",
        "district": "Centro",
        "street": "Avenida Doutor Fernando Arens Junior",
        "zipcode": "13160-110"
    },
    {
        "city": "Artur Nogueira",
        "state": "SP",
        "district": "São João das Palmeiras",
        "street": "Alameda 01",
        "zipcode": "13167-670"
    },
    {
        "city": "Artur Nogueira",
        "state": "SP",
        "district": "Residencial Recanto das Palmeiras",
        "street": "Alameda 03",
        "zipcode": "13165-702"
    },
    {
        "city": "Artur Nogueira",
        "state": "SP",
        "district": "Residencial Villa Nogueira",
        "street": "Alameda Antônio de Faveri Neto",
        "zipcode": "13165-286"
    },
    {
        "city": "Artur Nogueira",
        "state": "SP",
        "district": "Vila Queiroz",
        "street": "Avenida Doutor Fernando Arens Junior",
        "zipcode": "13163-006"
    },
    {
        "city": "Artur Nogueira",
        "state": "SP",
        "district": "Residencial Recanto das Palmeiras",
        "street": "Alameda José Antônio Paradello",
        "zipcode": "13165-704"
    },
    {
        "city": "Artur Nogueira",
        "state": "SP",
        "district": "Jardim da Saudade",
        "street": "Avenida da Saudade",
        "zipcode": "13165-030"
    },
    {
        "city": "Artur Nogueira",
        "state": "SP",
        "district": "Centro",
        "street": "Avenida Doutor Fernando Arens Junior",
        "zipcode": "13160-154"
    },
    {
        "city": "Artur Nogueira",
        "state": "SP",
        "district": "Portal dos Manacás",
        "street": "Alameda dos Aroeiras",
        "zipcode": "13162-324"
    },
    {
        "city": "Artur Nogueira",
        "state": "SP",
        "district": "Jardim de Colores",
        "street": "Rua Luiz Spadaro Cropanise",
        "zipcode": "13163-290"
    },
    {
        "city": "Artur Nogueira",
        "state": "SP",
        "district": "Núcleo Campos Sales",
        "street": "Alameda Erotides Rita de Sá",
        "zipcode": "13160-602"
    },
    {
        "city": "Artur Nogueira",
        "state": "SP",
        "district": "Parque das Orquídeas II",
        "street": "Alameda das Acácias",
        "zipcode": "13165-174"
    },
    {
        "city": "Artur Nogueira",
        "state": "SP",
        "district": "Núcleo Campos Sales",
        "street": "Alameda 04",
        "zipcode": "13160-606"
    },
    {
        "city": "Artur Nogueira",
        "state": "SP",
        "district": "Portal dos Manacás",
        "street": "Alameda das Sibipirunas",
        "zipcode": "13162-326"
    },
    {
        "city": "Artur Nogueira",
        "state": "SP",
        "district": "Portal dos Manacás",
        "street": "Alameda dos Resedas",
        "zipcode": "13162-322"
    },
    {
        "city": "Artur Nogueira",
        "state": "SP",
        "district": "Núcleo Campos Sales",
        "street": "Alameda Aurora Montoya Duzzi",
        "zipcode": "13160-600"
    },
    {
        "city": "Artur Nogueira",
        "state": "SP",
        "district": "Jardim Amaro",
        "street": "Rua Luiz Spadaro Cropanise",
        "zipcode": "13163-068"
    },
    {
        "city": "Artur Nogueira",
        "state": "SP",
        "district": "Parque das Orquídeas II",
        "street": "Alameda dos Jatobás",
        "zipcode": "13165-176"
    },
    {
        "city": "Artur Nogueira",
        "state": "SP",
        "district": "Portal dos Manacás",
        "street": "Alameda dos Jasmins",
        "zipcode": "13162-330"
    },
    {
        "city": "Artur Nogueira",
        "state": "SP",
        "district": "Nova Artur",
        "street": "Alameda Norivaldo Teodoro de Abreu",
        "zipcode": "13162-066"
    },
    {
        "city": "Artur Nogueira",
        "state": "SP",
        "district": "Alto da Florada",
        "street": "Avenida Floresta",
        "zipcode": "13161-270"
    },
    {
        "city": "Artur Nogueira",
        "state": "SP",
        "district": "Portal dos Manacás",
        "street": "Alameda dos Flamboyants",
        "zipcode": "13162-320"
    },
    {
        "city": "Artur Nogueira",
        "state": "SP",
        "district": "Rota das Flores",
        "street": "Avenida Floresta",
        "zipcode": "13161-110"
    },
    {
        "city": "Artur Nogueira",
        "state": "SP",
        "district": "Jardim do Lago",
        "street": "Rua Luiz Spadaro Cropanise",
        "zipcode": "13163-484"
    },
    {
        "city": "Artur Nogueira",
        "state": "SP",
        "district": "São João das Palmeiras",
        "street": "Alameda 02",
        "zipcode": "13167-672"
    },
    {
        "city": "Artur Nogueira",
        "state": "SP",
        "district": "Portal dos Manacás",
        "street": "Alameda dos Ipês",
        "zipcode": "13162-334"
    },
    {
        "city": "Artur Nogueira",
        "state": "SP",
        "district": "Jardim Conservani",
        "street": "Rua Luiz Spadaro Cropanise",
        "zipcode": "13163-266"
    },
    {
        "city": "Artur Nogueira",
        "state": "SP",
        "district": "Jardim Rezek III",
        "street": "Avenida Japão",
        "zipcode": "13160-306"
    },
    {
        "city": "Artur Nogueira",
        "state": "SP",
        "district": "Cidade Jardim",
        "street": "Avenida da Saudade",
        "zipcode": "13165-018"
    },
    {
        "city": "Artur Nogueira",
        "state": "SP",
        "district": "Jardim Rezek I",
        "street": "Avenida Doutor Tancredo de Almeida Neves",
        "zipcode": "13160-276"
    },
    {
        "city": "Artur Nogueira",
        "state": "SP",
        "district": "Jardim Rezek IV",
        "street": "Avenida Japão",
        "zipcode": "13160-375"
    },
    {
        "city": "Artur Nogueira",
        "state": "SP",
        "district": "Portal dos Manacás",
        "street": "Alameda das Grevilhas",
        "zipcode": "13162-328"
    },
    {
        "city": "Artur Nogueira",
        "state": "SP",
        "district": "Parque das Orquídeas II",
        "street": "Alameda dos Buritis",
        "zipcode": "13165-172"
    },
    {
        "city": "Artur Nogueira",
        "state": "SP",
        "district": "Jardim Rezek II",
        "street": "Avenida Doutor Tancredo de Almeida Neves",
        "zipcode": "13160-326"
    },
    {
        "city": "Artur Nogueira",
        "state": "SP",
        "district": "Novo Tempo",
        "street": "Avenida Japão",
        "zipcode": "13160-485"
    },
    {
        "city": "Artur Nogueira",
        "state": "SP",
        "district": "Nova Artur",
        "street": "Avenida Floresta",
        "zipcode": "13162-064"
    },
    {
        "city": "Artur Nogueira",
        "state": "SP",
        "district": "Residencial Boa Esperança",
        "street": "Rua Luiz Sprovieri",
        "zipcode": "13165-636"
    },
    {
        "city": "Artur Nogueira",
        "state": "SP",
        "district": "Jardim Europa II",
        "street": "Rua Adelino Fernandes",
        "zipcode": "13162-030"
    },
    {
        "city": "Artur Nogueira",
        "state": "SP",
        "district": "Residencial da Torre",
        "street": "Rua Adilson Carlos Peloia",
        "zipcode": "13165-624"
    },
    {
        "city": "Artur Nogueira",
        "state": "SP",
        "district": "Jardim dos Ipês",
        "street": "Rua Alberto Fischer",
        "zipcode": "13165-504"
    },
    {
        "city": "Artur Nogueira",
        "state": "SP",
        "district": "Residencial Villa Nogueira",
        "street": "Avenida Vereador Arthur Alves Carneiro",
        "zipcode": "13165-288"
    },
    {
        "city": "Artur Nogueira",
        "state": "SP",
        "district": "Centro",
        "street": "Rua Adhemar de Barros",
        "zipcode": "13160-072"
    },
    {
        "city": "Artur Nogueira",
        "state": "SP",
        "district": "Coração Criança",
        "street": "Rua Agustinho Romolini",
        "zipcode": "13167-610"
    },
    {
        "city": "Artur Nogueira",
        "state": "SP",
        "district": "São Bento",
        "street": "Estrada Municipal Antonio Fontana",
        "zipcode": "13162-310"
    },
    {
        "city": "Artur Nogueira",
        "state": "SP",
        "district": "Jardim Vista Alegre",
        "street": "Rua Albertino Stocco",
        "zipcode": "13167-576"
    },
    {
        "city": "Artur Nogueira",
        "state": "SP",
        "district": "Egydio Tagliari",
        "street": "Rua Alberto Boer",
        "zipcode": "13163-332"
    },
    {
        "city": "Artur Nogueira",
        "state": "SP",
        "district": "Jardim Rezek I",
        "street": "Avenida Professora Magdalena Sanseverino Grosso",
        "zipcode": "13160-272"
    },
    {
        "city": "Artur Nogueira",
        "state": "SP",
        "district": "Residencial Manhattan",
        "street": "Avenida Pedro Pinto de Oliveira",
        "zipcode": "13162-080"
    },
    {
        "city": "Artur Nogueira",
        "state": "SP",
        "district": "Chácaras Benvenuto IV",
        "street": "Rodovia dos Agricultores",
        "zipcode": "13165-330"
    },
    {
        "city": "Artur Nogueira",
        "state": "SP",
        "district": "Residencial da Torre",
        "street": "Estrada Municipal ATN 345",
        "zipcode": "13165-610"
    },
    {
        "city": "Artur Nogueira",
        "state": "SP",
        "district": "Nosso Sonho",
        "street": "Rua Adhemar Clovis Fonseca",
        "zipcode": "13164-278"
    },
    {
        "city": "Artur Nogueira",
        "state": "SP",
        "district": "Parque das Flores",
        "street": "Rua Acrísio dos Santos",
        "zipcode": "13165-528"
    },
    {
        "city": "Artur Nogueira",
        "state": "SP",
        "district": "Jardim dos Ipês",
        "street": "Rua Agostinho Berne",
        "zipcode": "13165-496"
    },
    {
        "city": "Artur Nogueira",
        "state": "SP",
        "district": "Residencial das Orquídeas",
        "street": "Avenida Japão",
        "zipcode": "13160-478"
    },
    {
        "city": "Artur Nogueira",
        "state": "SP",
        "district": "Josephim Tagliari",
        "street": "Rua Alberto Boer",
        "zipcode": "13163-320"
    },
    {
        "city": "Artur Nogueira",
        "state": "SP",
        "district": "José Capello",
        "street": "Rua Adhemar de Barros",
        "zipcode": "13167-002"
    },
    {
        "city": "Artur Nogueira",
        "state": "SP",
        "district": "Núcleo Ayres",
        "street": "Avenida Japão",
        "zipcode": "13160-500"
    },
    {
        "city": "Artur Nogueira",
        "state": "SP",
        "district": "Jardim dos Ipês",
        "street": "Rua Adelino Vancetto",
        "zipcode": "13165-500"
    },
    {
        "city": "Artur Nogueira",
        "state": "SP",
        "district": "Parque Residencial Nosso Chão",
        "street": "Rua Agustinho Romolini",
        "zipcode": "13167-588"
    },
    {
        "city": "Artur Nogueira",
        "state": "SP",
        "district": "Jardim Sacilotto II",
        "street": "Rua Afonso Facini",
        "zipcode": "13167-360"
    },
    {
        "city": "Artur Nogueira",
        "state": "SP",
        "district": "Parque das Palmeiras",
        "street": "Rua Acrísio dos Santos",
        "zipcode": "13165-590"
    },
    {
        "city": "Artur Nogueira",
        "state": "SP",
        "district": "Recanto Vale do Sol",
        "street": "Avenida 01",
        "zipcode": "13167-784"
    },
    {
        "city": "Artur Nogueira",
        "state": "SP",
        "district": "Centro",
        "street": "Rua Adhemar de Barros",
        "zipcode": "13160-160"
    },
    {
        "city": "Artur Nogueira",
        "state": "SP",
        "district": "Centro",
        "street": "Rua Adhemar de Barros",
        "zipcode": "13160-186"
    },
    {
        "city": "Artur Nogueira",
        "state": "SP",
        "district": "Jardim Santa Isabel",
        "street": "Rua Adhemar de Barros",
        "zipcode": "13160-218"
    },
    {
        "city": "Artur Nogueira",
        "state": "SP",
        "district": "Coração Criança",
        "street": "Avenida Marginal",
        "zipcode": "13167-602"
    },
    {
        "city": "Artur Nogueira",
        "state": "SP",
        "district": "Jardim Santa Rosa",
        "street": "Rua Adhemar de Barros",
        "zipcode": "13167-108"
    },
    {
        "city": "Artur Nogueira",
        "state": "SP",
        "district": "São Miguel",
        "street": "Avenida Japão",
        "zipcode": "13160-490"
    },
    {
        "city": "Artur Nogueira",
        "state": "SP",
        "district": "Jardim Medeiros",
        "street": "Rua Adailton Denófrio",
        "zipcode": "13167-324"
    },
    {
        "city": "Artur Nogueira",
        "state": "SP",
        "district": "Residencial California",
        "street": "Rua A",
        "zipcode": "13165-712"
    },
    {
        "city": "Artur Nogueira",
        "state": "SP",
        "district": "Jardim Arrivabene II",
        "street": "Rua Adhemar de Barros",
        "zipcode": "13167-126"
    },
    {
        "city": "Artur Nogueira",
        "state": "SP",
        "district": "Jardim Vista Alegre",
        "street": "Rua Accacio Capato",
        "zipcode": "13167-572"
    },
    {
        "city": "Artur Nogueira",
        "state": "SP",
        "district": "Centro",
        "street": "Avenida Marginal",
        "zipcode": "13160-172"
    },
    {
        "city": "Artur Nogueira",
        "state": "SP",
        "district": "Jardim Bela Vista II",
        "street": "Avenida João Miranda",
        "zipcode": "13165-110"
    },
    {
        "city": "Artur Nogueira",
        "state": "SP",
        "district": "José Capello",
        "street": "Rua Alberto Capello",
        "zipcode": "13167-012"
    },
    {
        "city": "Artur Nogueira",
        "state": "SP",
        "district": "Jardim Rezek II",
        "street": "Avenida Professora Magdalena Sanseverino Grosso",
        "zipcode": "13160-340"
    },
    {
        "city": "Artur Nogueira",
        "state": "SP",
        "district": "Jardim Sacilotto",
        "street": "Rua Albertino Fontana",
        "zipcode": "13167-304"
    },
    {
        "city": "Artur Nogueira",
        "state": "SP",
        "district": "Parque Industrial Batistela",
        "street": "Rua Alcindo Simões",
        "zipcode": "13167-554"
    },
    {
        "city": "Artur Nogueira",
        "state": "SP",
        "district": "Jardim Sacilotto II",
        "street": "Rua Alfredo Strassa",
        "zipcode": "13167-376"
    },
    {
        "city": "Artur Nogueira",
        "state": "SP",
        "district": "Parque das Flores",
        "street": "Rua Adelino Vancetto",
        "zipcode": "13165-546"
    },
    {
        "city": "Artur Nogueira",
        "state": "SP",
        "district": "Jardim Sacilotto II",
        "street": "Rua Alcindo Boer",
        "zipcode": "13167-368"
    },
    {
        "city": "Artur Nogueira",
        "state": "SP",
        "district": "Chácaras Benvenuto II",
        "street": "Rua Alonso Ribeiro",
        "zipcode": "13165-374"
    },
    {
        "city": "Artur Nogueira",
        "state": "SP",
        "district": "Jardim Planalto",
        "street": "Rua Alberto de Oliveira Delgado",
        "zipcode": "13167-476"
    },
    {
        "city": "Artur Nogueira",
        "state": "SP",
        "district": "Residencial Villa Nogueira",
        "street": "Avenida João Miranda",
        "zipcode": "13165-280"
    },
    {
        "city": "Artur Nogueira",
        "state": "SP",
        "district": "Centro",
        "street": "Avenida Professora Magdalena Sanseverino Grosso",
        "zipcode": "13160-144"
    },
    {
        "city": "Artur Nogueira",
        "state": "SP",
        "district": "Jardim dos Ipês",
        "street": "Rua Alcides Vicensotti",
        "zipcode": "13165-506"
    },
    {
        "city": "Artur Nogueira",
        "state": "SP",
        "district": "Parque Residencial Martinelli",
        "street": "Estrada Municipal Antonio Fontana",
        "zipcode": "13162-304"
    },
    {
        "city": "Artur Nogueira",
        "state": "SP",
        "district": "Centro",
        "street": "Rua Alice Pereira Mansur",
        "zipcode": "13160-102"
    },
    {
        "city": "Artur Nogueira",
        "state": "SP",
        "district": "Parque das Flores",
        "street": "Rua Alcides Vicensotti",
        "zipcode": "13165-540"
    },
    {
        "city": "Artur Nogueira",
        "state": "SP",
        "district": "Parque das Flores",
        "street": "Rua Antonio Cyrilo Rocha",
        "zipcode": "13165-564"
    },
    {
        "city": "Artur Nogueira",
        "state": "SP",
        "district": "Parque das Flores",
        "street": "Rua Ângelo Setin",
        "zipcode": "13165-566"
    },
    {
        "city": "Artur Nogueira",
        "state": "SP",
        "district": "Parque das Paineiras",
        "street": "Rua Ângelo Tebaldi",
        "zipcode": "13167-186"
    },
    {
        "city": "Artur Nogueira",
        "state": "SP",
        "district": "Residencial das Orquídeas",
        "street": "Rua Amélio Tagliari",
        "zipcode": "13160-472"
    },
    {
        "city": "Artur Nogueira",
        "state": "SP",
        "district": "Jardim Olinda",
        "street": "Rua Anésio Bertini",
        "zipcode": "13164-014"
    },
    {
        "city": "Artur Nogueira",
        "state": "SP",
        "district": "Jardim Sacilotto",
        "street": "Rua Ângelo Tebaldi",
        "zipcode": "13167-308"
    },
    {
        "city": "Artur Nogueira",
        "state": "SP",
        "district": "Parque das Palmeiras",
        "street": "Rua Alcindo Strassa",
        "zipcode": "13165-598"
    },
    {
        "city": "Artur Nogueira",
        "state": "SP",
        "district": "São Miguel",
        "street": "Rua Antonio Barbosa Godinho",
        "zipcode": "13160-494"
    },
    {
        "city": "Artur Nogueira",
        "state": "SP",
        "district": "Jardim Santa Isabel",
        "street": "Rua Ângela Piceferrari",
        "zipcode": "13160-212"
    },
    {
        "city": "Artur Nogueira",
        "state": "SP",
        "district": "Residencial São Luiz",
        "street": "Rua Antônio Carlos Bueno da Silva",
        "zipcode": "13161-160"
    },
    {
        "city": "Artur Nogueira",
        "state": "SP",
        "district": "Residencial Conquista",
        "street": "Rua Angelino de Paulo Turato",
        "zipcode": "13160-442"
    },
    {
        "city": "Artur Nogueira",
        "state": "SP",
        "district": "Parque Residencial Humberto Rossetti",
        "street": "Rua Antonio de Campos",
        "zipcode": "13164-090"
    },
    {
        "city": "Artur Nogueira",
        "state": "SP",
        "district": "Jardim Sacilotto II",
        "street": "Rua Antonio da Cunha Claro",
        "zipcode": "13167-358"
    },
    {
        "city": "Artur Nogueira",
        "state": "SP",
        "district": "Parque Nosso Lar",
        "street": "Rua Ângelo Tebaldi",
        "zipcode": "13167-244"
    },
    {
        "city": "Artur Nogueira",
        "state": "SP",
        "district": "Jardim Sacilotto",
        "street": "Rua Antônio César Druzian",
        "zipcode": "13167-312"
    },
    {
        "city": "Artur Nogueira",
        "state": "SP",
        "district": "Jardim Paraíso",
        "street": "Rua Antônio César Druzian",
        "zipcode": "13167-466"
    },
    {
        "city": "Artur Nogueira",
        "state": "SP",
        "district": "Residencial Dona Leda",
        "street": "Rua Antônio de Sá",
        "zipcode": "13160-364"
    },
    {
        "city": "Artur Nogueira",
        "state": "SP",
        "district": "Parque Nosso Lar",
        "street": "Rua Ângelo Tebaldi",
        "zipcode": "13167-246"
    },
    {
        "city": "Artur Nogueira",
        "state": "SP",
        "district": "Jardim do Lago",
        "street": "Rua Antônio dos Santos",
        "zipcode": "13163-492"
    },
    {
        "city": "Artur Nogueira",
        "state": "SP",
        "district": "Parque das Flores",
        "street": "Rua Ângela de Fáveri Luiz",
        "zipcode": "13165-534"
    },
    {
        "city": "Artur Nogueira",
        "state": "SP",
        "district": "Egydio Tagliari",
        "street": "Rua Amadeu de Fáveri",
        "zipcode": "13163-348"
    },
    {
        "city": "Artur Nogueira",
        "state": "SP",
        "district": "Jardim Rezek II",
        "street": "Rua Antônio de Sá",
        "zipcode": "13160-344"
    },
    {
        "city": "Artur Nogueira",
        "state": "SP",
        "district": "Jardim Sacilotto II",
        "street": "Rua Amália Vicensotti",
        "zipcode": "13167-380"
    },
    {
        "city": "Artur Nogueira",
        "state": "SP",
        "district": "Jardim Sacilotto",
        "street": "Rua Ângelo Tebaldi",
        "zipcode": "13167-306"
    },
    {
        "city": "Artur Nogueira",
        "state": "SP",
        "district": "Parque Residencial Ida Sia",
        "street": "Rua Anésio Bertini",
        "zipcode": "13164-024"
    },
    {
        "city": "Artur Nogueira",
        "state": "SP",
        "district": "Jardim Bela Vista",
        "street": "Rua Antônio Arrivabene",
        "zipcode": "13165-066"
    },
    {
        "city": "Artur Nogueira",
        "state": "SP",
        "district": "Jardim dos Ipês",
        "street": "Rua Ângelo Toniolo",
        "zipcode": "13165-510"
    },
    {
        "city": "Artur Nogueira",
        "state": "SP",
        "district": "Parque Residencial Martinelli",
        "street": "Rua Angelina Mauro Tagliari",
        "zipcode": "13162-300"
    },
    {
        "city": "Artur Nogueira",
        "state": "SP",
        "district": "Parque das Flores",
        "street": "Rua Ângelo Toniolo",
        "zipcode": "13165-536"
    },
    {
        "city": "Artur Nogueira",
        "state": "SP",
        "district": "Parque Residencial da Piscina",
        "street": "Rua Antonio Modolo",
        "zipcode": "13161-050"
    },
    {
        "city": "Artur Nogueira",
        "state": "SP",
        "district": "Parque Residencial Carolina",
        "street": "Rua Antonio Sia",
        "zipcode": "13164-132"
    },
    {
        "city": "Artur Nogueira",
        "state": "SP",
        "district": "Parque dos Trabalhadores",
        "street": "Rua Antônio de Fáveri",
        "zipcode": "13167-530"
    },
    {
        "city": "Artur Nogueira",
        "state": "SP",
        "district": "Parque Residencial Bom Jardim",
        "street": "Rua Amadeu Jorge Teresani",
        "zipcode": "13165-318"
    },
    {
        "city": "Artur Nogueira",
        "state": "SP",
        "district": "Residencial do Bosque",
        "street": "Rua Antonio Germano",
        "zipcode": "13167-278"
    },
    {
        "city": "Artur Nogueira",
        "state": "SP",
        "district": "Jardim São José",
        "street": "Rua Ângela Piceferrari",
        "zipcode": "13160-234"
    },
    {
        "city": "Artur Nogueira",
        "state": "SP",
        "district": "Centro",
        "street": "Rua Antonio Sia",
        "zipcode": "13160-038"
    },
    {
        "city": "Artur Nogueira",
        "state": "SP",
        "district": "Jardim Planalto II",
        "street": "Rua Ângelo Tebaldi",
        "zipcode": "13167-198"
    },
    {
        "city": "Artur Nogueira",
        "state": "SP",
        "district": "Residencial São Luiz",
        "street": "Rua Alzira Balbina Fermiano",
        "zipcode": "13161-154"
    },
    {
        "city": "Artur Nogueira",
        "state": "SP",
        "district": "Jardim Planalto II",
        "street": "Rua Antônio César Druzian",
        "zipcode": "13167-202"
    },
    {
        "city": "Artur Nogueira",
        "state": "SP",
        "district": "Cidade Jardim II",
        "street": "Rua Antoninha Blumer Turato",
        "zipcode": "13165-024"
    },
    {
        "city": "Artur Nogueira",
        "state": "SP",
        "district": "Jardim Bela Vista II",
        "street": "Rua Anésio Botasso",
        "zipcode": "13165-106"
    },
    {
        "city": "Artur Nogueira",
        "state": "SP",
        "district": "Florindo Caetano",
        "street": "Rua Antonio Sia",
        "zipcode": "13163-224"
    },
    {
        "city": "Artur Nogueira",
        "state": "SP",
        "district": "Jardim Vista Alegre",
        "street": "Rua Álvaro de Oliveira",
        "zipcode": "13167-570"
    },
    {
        "city": "Artur Nogueira",
        "state": "SP",
        "district": "Jardim da Saudade",
        "street": "Rua Antoninha Blumer Turato",
        "zipcode": "13165-032"
    },
    {
        "city": "Artur Nogueira",
        "state": "SP",
        "district": "Antonio Modolo",
        "street": "Rua Antonio Sia",
        "zipcode": "13163-230"
    },
    {
        "city": "Artur Nogueira",
        "state": "SP",
        "district": "Jardim de Faveri",
        "street": "Rua Antonio Sia",
        "zipcode": "13163-110"
    },
    {
        "city": "Artur Nogueira",
        "state": "SP",
        "district": "Jardim Bela Vista II",
        "street": "Rua Antônio Arrivabene",
        "zipcode": "13165-086"
    },
    {
        "city": "Artur Nogueira",
        "state": "SP",
        "district": "Jardim Santo Amaro",
        "street": "Rua Antonio Matheus",
        "zipcode": "13163-044"
    },
    {
        "city": "Artur Nogueira",
        "state": "SP",
        "district": "Chácaras Benvenuto I",
        "street": "Rua Antônio Campinas",
        "zipcode": "13165-366"
    },
    {
        "city": "Artur Nogueira",
        "state": "SP",
        "district": "Jardim Arrivabene",
        "street": "Rua Antonio Sia",
        "zipcode": "13163-162"
    },
    {
        "city": "Artur Nogueira",
        "state": "SP",
        "district": "Residencial Villa Nogueira",
        "street": "Rua Aparecida Rodrigues Sia",
        "zipcode": "13165-294"
    },
    {
        "city": "Artur Nogueira",
        "state": "SP",
        "district": "Parque Residencial Martinelli",
        "street": "Rua Antonio Garbelini",
        "zipcode": "13162-306"
    },
    {
        "city": "Artur Nogueira",
        "state": "SP",
        "district": "Jardim Paraíso",
        "street": "Rua Armando Beck",
        "zipcode": "13167-448"
    },
    {
        "city": "Artur Nogueira",
        "state": "SP",
        "district": "Residencial California",
        "street": "Rua B",
        "zipcode": "13165-722"
    },
    {
        "city": "Artur Nogueira",
        "state": "SP",
        "district": "Parque das Palmeiras",
        "street": "Rua Belizário Antonio Neves",
        "zipcode": "13165-580"
    },
    {
        "city": "Artur Nogueira",
        "state": "SP",
        "district": "Jardim Bela Vista II",
        "street": "Rua Antônio Villela",
        "zipcode": "13165-080"
    },
    {
        "city": "Artur Nogueira",
        "state": "SP",
        "district": "Parque Residencial Bom Jardim",
        "street": "Rua Antonio Mauro",
        "zipcode": "13165-310"
    },
    {
        "city": "Artur Nogueira",
        "state": "SP",
        "district": "Jardim Planalto III",
        "street": "Rua Augusto de Mello Gonçalves",
        "zipcode": "13167-212"
    },
    {
        "city": "Artur Nogueira",
        "state": "SP",
        "district": "Nosso Sonho",
        "street": "Rua Antonio Sia",
        "zipcode": "13164-270"
    },
    {
        "city": "Artur Nogueira",
        "state": "SP",
        "district": "Jardim Medeiros",
        "street": "Rua Armando Vigna",
        "zipcode": "13167-328"
    },
    {
        "city": "Artur Nogueira",
        "state": "SP",
        "district": "Jardim dos Ipês",
        "street": "Rua Antonio Franco Garcia",
        "zipcode": "13165-502"
    },
    {
        "city": "Artur Nogueira",
        "state": "SP",
        "district": "Centro",
        "street": "Rua Antonio Matheus",
        "zipcode": "13160-104"
    },
    {
        "city": "Artur Nogueira",
        "state": "SP",
        "district": "Jardim Del Alamo",
        "street": "Rua Antonio Sia",
        "zipcode": "13160-011"
    },
    {
        "city": "Artur Nogueira",
        "state": "SP",
        "district": "Centro",
        "street": "Rua Antonio Sia",
        "zipcode": "13160-030"
    },
    {
        "city": "Artur Nogueira",
        "state": "SP",
        "district": "Parque Nosso Recanto",
        "street": "Rua Basílio Antônio Fernandes",
        "zipcode": "13164-058"
    },
    {
        "city": "Artur Nogueira",
        "state": "SP",
        "district": "Parque das Paineiras",
        "street": "Rua Antonio Germano",
        "zipcode": "13167-178"
    },
    {
        "city": "Artur Nogueira",
        "state": "SP",
        "district": "Jardim Rezek II",
        "street": "Rua Avelino Magossi",
        "zipcode": "13160-338"
    },
    {
        "city": "Artur Nogueira",
        "state": "SP",
        "district": "Jardim Sacilotto II",
        "street": "Rua Aristides Cabrino",
        "zipcode": "13167-346"
    },
    {
        "city": "Artur Nogueira",
        "state": "SP",
        "district": "Parque Nosso Lar",
        "street": "Rua Arcângelo Calabrez",
        "zipcode": "13167-248"
    },
    {
        "city": "Artur Nogueira",
        "state": "SP",
        "district": "Parque das Palmeiras",
        "street": "Rua Antonio Duzzi",
        "zipcode": "13165-588"
    },
    {
        "city": "Artur Nogueira",
        "state": "SP",
        "district": "Jardim Leonor",
        "street": "Rua Attílio Arrivabene",
        "zipcode": "13165-120"
    },
    {
        "city": "Artur Nogueira",
        "state": "SP",
        "district": "Vila Queiroz",
        "street": "Rua Antonio Matheus",
        "zipcode": "13163-018"
    },
    {
        "city": "Artur Nogueira",
        "state": "SP",
        "district": "Parque Residencial Bom Jardim",
        "street": "Rua Antonio Pelóia",
        "zipcode": "13165-324"
    },
    {
        "city": "Artur Nogueira",
        "state": "SP",
        "district": "Parque dos Trabalhadores",
        "street": "Rua Armelino Gallo",
        "zipcode": "13167-526"
    },
    {
        "city": "Artur Nogueira",
        "state": "SP",
        "district": "Jardim Europa",
        "street": "Rua Antonio Matheus",
        "zipcode": "13162-012"
    },
    {
        "city": "Artur Nogueira",
        "state": "SP",
        "district": "Jardim Europa",
        "street": "Rua Aparecido Atair Machado",
        "zipcode": "13162-014"
    },
    {
        "city": "Artur Nogueira",
        "state": "SP",
        "district": "Jardim Sacilotto II",
        "street": "Rua Antonio Pedro Pinto",
        "zipcode": "13167-370"
    },
    {
        "city": "Artur Nogueira",
        "state": "SP",
        "district": "Parque Residencial Itamaraty",
        "street": "Rua Antônio Tagliari",
        "zipcode": "13163-528"
    },
    {
        "city": "Artur Nogueira",
        "state": "SP",
        "district": "Vila Queiroz",
        "street": "Rua Antonio Matheus",
        "zipcode": "13163-016"
    },
    {
        "city": "Artur Nogueira",
        "state": "SP",
        "district": "Jardim Rezek III",
        "street": "Rua Avelino Magossi",
        "zipcode": "13160-304"
    },
    {
        "city": "Artur Nogueira",
        "state": "SP",
        "district": "Jardim Planalto",
        "street": "Rua João Benvenuto",
        "zipcode": "13167-480"
    },
    {
        "city": "Artur Nogueira",
        "state": "SP",
        "district": "Jardim Conservani",
        "street": "Rua Antonio Sia",
        "zipcode": "13163-260"
    },
    {
        "city": "Artur Nogueira",
        "state": "SP",
        "district": "Egydio Tagliari",
        "street": "Rua Antonio Sia",
        "zipcode": "13163-356"
    },
    {
        "city": "Artur Nogueira",
        "state": "SP",
        "district": "Parque Residencial Ida Sia",
        "street": "Rua Benedito Filippini",
        "zipcode": "13164-038"
    },
    {
        "city": "Artur Nogueira",
        "state": "SP",
        "district": "Parque Orlando Correa Barbosa",
        "street": "Rua Benedito Filippini",
        "zipcode": "13164-112"
    },
    {
        "city": "Artur Nogueira",
        "state": "SP",
        "district": "Área 1",
        "street": "Rua Benedito Antonio Ferreira",
        "zipcode": "13167-230"
    },
    {
        "city": "Artur Nogueira",
        "state": "SP",
        "district": "Residencial do Bosque",
        "street": "Rua Bruno Carlstron",
        "zipcode": "13167-270"
    },
    {
        "city": "Artur Nogueira",
        "state": "SP",
        "district": "Parque das Flores",
        "street": "Rua Belmiro Arrivabene",
        "zipcode": "13165-524"
    },
    {
        "city": "Artur Nogueira",
        "state": "SP",
        "district": "Residencial Conquista II",
        "street": "Rua Armando Kuhl",
        "zipcode": "13160-462"
    },
    {
        "city": "Artur Nogueira",
        "state": "SP",
        "district": "Jardim Arrivabene III",
        "street": "Rua Bruno Carlstron",
        "zipcode": "13167-080"
    },
    {
        "city": "Artur Nogueira",
        "state": "SP",
        "district": "Jardim Bela Vista II",
        "street": "Rua Belizário Ferreira de Oliveira",
        "zipcode": "13165-088"
    },
    {
        "city": "Artur Nogueira",
        "state": "SP",
        "district": "Jardim Planalto",
        "street": "Rua Armando Beck",
        "zipcode": "13167-500"
    },
    {
        "city": "Artur Nogueira",
        "state": "SP",
        "district": "Residencial Manhattan",
        "street": "Rua Aurora Boer",
        "zipcode": "13162-082"
    },
    {
        "city": "Artur Nogueira",
        "state": "SP",
        "district": "Jardim de Faveri",
        "street": "Rua Caetano Martinelli",
        "zipcode": "13163-108"
    },
    {
        "city": "Artur Nogueira",
        "state": "SP",
        "district": "Jardim Bela Vista II",
        "street": "Rua Aparecido Alberto Fontana",
        "zipcode": "13165-090"
    },
    {
        "city": "Artur Nogueira",
        "state": "SP",
        "district": "Parque das Flores",
        "street": "Rua Arnaldo Caetano",
        "zipcode": "13165-522"
    },
    {
        "city": "Artur Nogueira",
        "state": "SP",
        "district": "Parque Nosso Lar",
        "street": "Rua Benedito Antonio Ferreira",
        "zipcode": "13167-242"
    },
    {
        "city": "Artur Nogueira",
        "state": "SP",
        "district": "Parque Residencial Bom Jardim",
        "street": "Rua Benedito de Moraes Filho",
        "zipcode": "13165-314"
    },
    {
        "city": "Artur Nogueira",
        "state": "SP",
        "district": "Parque Industrial Batistela",
        "street": "Rua Armelino Gallo",
        "zipcode": "13167-546"
    },
    {
        "city": "Artur Nogueira",
        "state": "SP",
        "district": "Parque Residencial Ida Sia",
        "street": "Rua Carlos Sérgio Rottoli",
        "zipcode": "13164-028"
    },
    {
        "city": "Artur Nogueira",
        "state": "SP",
        "district": "Jardim Sacilotto",
        "street": "Rua Bruno Carlstron",
        "zipcode": "13167-290"
    },
    {
        "city": "Artur Nogueira",
        "state": "SP",
        "district": "Parque Residencial Carolina",
        "street": "Rua Benedito Filippini",
        "zipcode": "13164-142"
    },
    {
        "city": "Artur Nogueira",
        "state": "SP",
        "district": "Centro",
        "street": "Rua Campos Salles",
        "zipcode": "13160-118"
    },
    {
        "city": "Artur Nogueira",
        "state": "SP",
        "district": "Parque Nosso Recanto",
        "street": "Rua Constabile Romano",
        "zipcode": "13164-056"
    },
    {
        "city": "Artur Nogueira",
        "state": "SP",
        "district": "Jardim Planalto",
        "street": "Rua Bruno Carlstron",
        "zipcode": "13167-490"
    },
    {
        "city": "Artur Nogueira",
        "state": "SP",
        "district": "Jardim Arrivabene III",
        "street": "Rua de Santo Fáveri",
        "zipcode": "13167-082"
    },
    {
        "city": "Artur Nogueira",
        "state": "SP",
        "district": "Centro",
        "street": "Rua Caetano Martinelli",
        "zipcode": "13160-034"
    },
    {
        "city": "Artur Nogueira",
        "state": "SP",
        "district": "Nova Artur",
        "street": "Rua Carmelina Baptistella Olivério",
        "zipcode": "13162-070"
    },
    {
        "city": "Artur Nogueira",
        "state": "SP",
        "district": "Residencial California",
        "street": "Rua C",
        "zipcode": "13165-710"
    },
    {
        "city": "Artur Nogueira",
        "state": "SP",
        "district": "Parque das Flores",
        "street": "Rua Clóvis Rossetti",
        "zipcode": "13165-562"
    },
    {
        "city": "Artur Nogueira",
        "state": "SP",
        "district": "Jardim Vista Alegre",
        "street": "Rua Carlos de Fáveri",
        "zipcode": "13167-568"
    },
    {
        "city": "Artur Nogueira",
        "state": "SP",
        "district": "Vila São Vicente",
        "street": "Rua Constabile Romano",
        "zipcode": "13163-198"
    },
    {
        "city": "Artur Nogueira",
        "state": "SP",
        "district": "Jardim do Lago",
        "street": "Rua Biaggio Mauro",
        "zipcode": "13163-488"
    },
    {
        "city": "Artur Nogueira",
        "state": "SP",
        "district": "Vila Queiroz",
        "street": "Rua Boa Vista",
        "zipcode": "13163-020"
    },
    {
        "city": "Artur Nogueira",
        "state": "SP",
        "district": "Jardim dos Ipês",
        "street": "Rua Dante Scandolara",
        "zipcode": "13165-490"
    },
    {
        "city": "Artur Nogueira",
        "state": "SP",
        "district": "Centro",
        "street": "Rua Boa Vista",
        "zipcode": "13160-108"
    },
    {
        "city": "Artur Nogueira",
        "state": "SP",
        "district": "Nosso Sonho",
        "street": "Rua Cristian César Carrari",
        "zipcode": "13164-284"
    },
    {
        "city": "Artur Nogueira",
        "state": "SP",
        "district": "Residencial Conquista II",
        "street": "Rua Benedito Ferreira",
        "zipcode": "13160-464"
    },
    {
        "city": "Artur Nogueira",
        "state": "SP",
        "district": "Nosso Sonho",
        "street": "Rua das Nogueiras",
        "zipcode": "13164-280"
    },
    {
        "city": "Artur Nogueira",
        "state": "SP",
        "district": "Jardim Sacilotto",
        "street": "Rua Benedito Bueno de Oliveira Filho",
        "zipcode": "13167-296"
    },
    {
        "city": "Artur Nogueira",
        "state": "SP",
        "district": "Jardim Leonor",
        "street": "Rua Clementina Cardoso de Faveri",
        "zipcode": "13165-130"
    },
    {
        "city": "Artur Nogueira",
        "state": "SP",
        "district": "Parque Nosso Lar",
        "street": "Rua Carlos Carlstron",
        "zipcode": "13167-250"
    },
    {
        "city": "Artur Nogueira",
        "state": "SP",
        "district": "Parque Residencial Humberto Rossetti",
        "street": "Rua Cyro Motta dos Reis",
        "zipcode": "13164-088"
    },
    {
        "city": "Artur Nogueira",
        "state": "SP",
        "district": "Lolli",
        "street": "Rua Clementino Bertaglia",
        "zipcode": "13163-374"
    },
    {
        "city": "Artur Nogueira",
        "state": "SP",
        "district": "Parque Residencial da Piscina",
        "street": "Rua Benedito Olivério",
        "zipcode": "13161-052"
    },
    {
        "city": "Artur Nogueira",
        "state": "SP",
        "district": "Jardim Planalto",
        "street": "Rua Bruno Carlstron",
        "zipcode": "13167-470"
    },
    {
        "city": "Artur Nogueira",
        "state": "SP",
        "district": "Residencial California",
        "street": "Rua D",
        "zipcode": "13165-714"
    },
    {
        "city": "Artur Nogueira",
        "state": "SP",
        "district": "Jardim Bela Vista",
        "street": "Rua Benedito Franco de Moraes",
        "zipcode": "13165-062"
    },
    {
        "city": "Artur Nogueira",
        "state": "SP",
        "district": "Jardim Paraíso",
        "street": "Rua Bruno Carlstron",
        "zipcode": "13167-468"
    },
    {
        "city": "Artur Nogueira",
        "state": "SP",
        "district": "Josephim Tagliari",
        "street": "Rua Dario Custódio dos Santos",
        "zipcode": "13163-312"
    },
    {
        "city": "Artur Nogueira",
        "state": "SP",
        "district": "Jardim Amaro",
        "street": "Rua Caetano Martinelli",
        "zipcode": "13163-062"
    },
    {
        "city": "Artur Nogueira",
        "state": "SP",
        "district": "Residencial do Bosque",
        "street": "Rua Carlos Carlstron",
        "zipcode": "13167-274"
    },
    {
        "city": "Artur Nogueira",
        "state": "SP",
        "district": "Parque dos Trabalhadores",
        "street": "Rua Claudemir Tagliari",
        "zipcode": "13167-514"
    },
    {
        "city": "Artur Nogueira",
        "state": "SP",
        "district": "Centro",
        "street": "Rua de Santo Fáveri",
        "zipcode": "13160-064"
    },
    {
        "city": "Artur Nogueira",
        "state": "SP",
        "district": "Centro",
        "street": "Rua de Santo Fáveri",
        "zipcode": "13160-066"
    },
    {
        "city": "Artur Nogueira",
        "state": "SP",
        "district": "Jardim Bela Vista II",
        "street": "Rua Elvira Vicensotti",
        "zipcode": "13165-082"
    },
    {
        "city": "Artur Nogueira",
        "state": "SP",
        "district": "Parque das Palmeiras",
        "street": "Rua Eder Mengue",
        "zipcode": "13165-596"
    },
    {
        "city": "Artur Nogueira",
        "state": "SP",
        "district": "Parque Residencial Ida Sia",
        "street": "Rua Constabile Romano",
        "zipcode": "13164-034"
    },
    {
        "city": "Artur Nogueira",
        "state": "SP",
        "district": "Cidade Jardim",
        "street": "Rua Clóvis dos Santos",
        "zipcode": "13165-014"
    },
    {
        "city": "Artur Nogueira",
        "state": "SP",
        "district": "Josephim Tagliari",
        "street": "Rua Delfina Queiroz da Silva Barros",
        "zipcode": "13163-316"
    },
    {
        "city": "Artur Nogueira",
        "state": "SP",
        "district": "Residencial San Marino",
        "street": "Rua das Acácias",
        "zipcode": "13161-134"
    },
    {
        "city": "Artur Nogueira",
        "state": "SP",
        "district": "Jardim Bela Vista II",
        "street": "Rua Dário Rodrigues Barreto",
        "zipcode": "13165-092"
    },
    {
        "city": "Artur Nogueira",
        "state": "SP",
        "district": "Jardim Rezek I",
        "street": "Rua Doutor Mário de Oliveira",
        "zipcode": "13160-274"
    },
    {
        "city": "Artur Nogueira",
        "state": "SP",
        "district": "Parque Residencial Arrivabene",
        "street": "Rua Domingos Geraldo",
        "zipcode": "13165-154"
    },
    {
        "city": "Artur Nogueira",
        "state": "SP",
        "district": "Jardim Paraíso",
        "street": "Rua Domingos Neves",
        "zipcode": "13167-444"
    },
    {
        "city": "Artur Nogueira",
        "state": "SP",
        "district": "Jardim do Trevo",
        "street": "Rua Doutor Mário de Oliveira",
        "zipcode": "13160-292"
    },
    {
        "city": "Artur Nogueira",
        "state": "SP",
        "district": "Antonio Modolo",
        "street": "Rua Deputado Federal Ulysses Guimarães",
        "zipcode": "13163-240"
    },
    {
        "city": "Artur Nogueira",
        "state": "SP",
        "district": "Egydio Tagliari",
        "street": "Rua Eduardo Tebar",
        "zipcode": "13163-340"
    },
    {
        "city": "Artur Nogueira",
        "state": "SP",
        "district": "Jardim Planalto",
        "street": "Rua Elysiário DelAlamo",
        "zipcode": "13167-472"
    },
    {
        "city": "Artur Nogueira",
        "state": "SP",
        "district": "Residencial Villa Nogueira",
        "street": "Rua Elvira Strassa Sia",
        "zipcode": "13165-298"
    },
    {
        "city": "Artur Nogueira",
        "state": "SP",
        "district": "Parque dos Trabalhadores",
        "street": "Rua Doutor Daniel Marun",
        "zipcode": "13167-520"
    },
    {
        "city": "Artur Nogueira",
        "state": "SP",
        "district": "Jardim Sacilotto II",
        "street": "Rua Diego Garcia",
        "zipcode": "13167-340"
    },
    {
        "city": "Artur Nogueira",
        "state": "SP",
        "district": "Antonio Modolo",
        "street": "Rua Deputado Federal Ulysses Guimarães",
        "zipcode": "13163-242"
    },
    {
        "city": "Artur Nogueira",
        "state": "SP",
        "district": "Centro",
        "street": "Rua Duque de Caxias",
        "zipcode": "13160-074"
    },
    {
        "city": "Artur Nogueira",
        "state": "SP",
        "district": "Residencial da Torre",
        "street": "Rua Delmo Duzzi",
        "zipcode": "13165-620"
    },
    {
        "city": "Artur Nogueira",
        "state": "SP",
        "district": "Centro",
        "street": "Rua de Santo Fáveri",
        "zipcode": "13160-070"
    },
    {
        "city": "Artur Nogueira",
        "state": "SP",
        "district": "Jardim Conservani",
        "street": "Rua Delegado Humberto Alves SantAnna",
        "zipcode": "13163-258"
    },
    {
        "city": "Artur Nogueira",
        "state": "SP",
        "district": "Jardim Rezek II",
        "street": "Rua Duque de Caxias",
        "zipcode": "13160-324"
    },
    {
        "city": "Artur Nogueira",
        "state": "SP",
        "district": "Jardim São José",
        "street": "Rua Duque de Caxias",
        "zipcode": "13160-232"
    },
    {
        "city": "Artur Nogueira",
        "state": "SP",
        "district": "Jardim Medeiros",
        "street": "Rua Diego Garcia",
        "zipcode": "13167-332"
    },
    {
        "city": "Artur Nogueira",
        "state": "SP",
        "district": "Parque Residencial Carolina",
        "street": "Rua Dirce Tagliari de Quintal",
        "zipcode": "13164-148"
    },
    {
        "city": "Artur Nogueira",
        "state": "SP",
        "district": "José Capello",
        "street": "Rua Duque de Caxias",
        "zipcode": "13167-000"
    },
    {
        "city": "Artur Nogueira",
        "state": "SP",
        "district": "Jardim de Faveri",
        "street": "Rua de Santo Fáveri",
        "zipcode": "13163-116"
    },
    {
        "city": "Artur Nogueira",
        "state": "SP",
        "district": "Parque das Palmeiras",
        "street": "Rua Dyonisio Mauro",
        "zipcode": "13165-600"
    },
    {
        "city": "Artur Nogueira",
        "state": "SP",
        "district": "Jardim Rezek I",
        "street": "Rua Duque de Caxias",
        "zipcode": "13160-278"
    },
    {
        "city": "Artur Nogueira",
        "state": "SP",
        "district": "Jardim de Faveri",
        "street": "Rua de Santo Fáveri",
        "zipcode": "13163-124"
    },
    {
        "city": "Artur Nogueira",
        "state": "SP",
        "district": "Josephim Tagliari",
        "street": "Rua Eduardo Tebar",
        "zipcode": "13163-310"
    },
    {
        "city": "Artur Nogueira",
        "state": "SP",
        "district": "Jardim Rezek III",
        "street": "Rua Duque de Caxias",
        "zipcode": "13160-300"
    },
    {
        "city": "Artur Nogueira",
        "state": "SP",
        "district": "Jardim Medeiros",
        "street": "Rua Diego Garcia",
        "zipcode": "13167-334"
    },
    {
        "city": "Artur Nogueira",
        "state": "SP",
        "district": "Residencial Boa Esperança",
        "street": "Rua Doutor Josué Leandro",
        "zipcode": "13165-642"
    },
    {
        "city": "Artur Nogueira",
        "state": "SP",
        "district": "Jatobá",
        "street": "Rua Ernesto Boer",
        "zipcode": "13163-508"
    },
    {
        "city": "Artur Nogueira",
        "state": "SP",
        "district": "Parque Residencial Nosso Chão",
        "street": "Rua Emílio Dias do Prado",
        "zipcode": "13167-596"
    },
    {
        "city": "Artur Nogueira",
        "state": "SP",
        "district": "Wada",
        "street": "Rua Duque de Caxias",
        "zipcode": "13167-144"
    },
    {
        "city": "Artur Nogueira",
        "state": "SP",
        "district": "Jardim Medeiros",
        "street": "Rua Domingos Gallo",
        "zipcode": "13167-330"
    },
    {
        "city": "Artur Nogueira",
        "state": "SP",
        "district": "Centro",
        "street": "Rua Duque de Caxias",
        "zipcode": "13160-192"
    },
    {
        "city": "Artur Nogueira",
        "state": "SP",
        "district": "Nosso Sonho",
        "street": "Rua Edelcio Jesus Duzzi",
        "zipcode": "13164-274"
    },
    {
        "city": "Artur Nogueira",
        "state": "SP",
        "district": "Parque Residencial Carolina",
        "street": "Rua Denilson Amaro Rodrigues",
        "zipcode": "13164-150"
    },
    {
        "city": "Artur Nogueira",
        "state": "SP",
        "district": "Jardim Santa Rosa",
        "street": "Rua de Santo Fáveri",
        "zipcode": "13167-112"
    },
    {
        "city": "Artur Nogueira",
        "state": "SP",
        "district": "Egydio Tagliari",
        "street": "Rua Delfina Queiroz da Silva Barros",
        "zipcode": "13163-336"
    },
    {
        "city": "Artur Nogueira",
        "state": "SP",
        "district": "Jardim Santa Rosa",
        "street": "Rua Duque de Caxias",
        "zipcode": "13167-110"
    },
    {
        "city": "Artur Nogueira",
        "state": "SP",
        "district": "Jardim Medeiros",
        "street": "Rua Dirceu Gallo",
        "zipcode": "13167-322"
    },
    {
        "city": "Artur Nogueira",
        "state": "SP",
        "district": "Residencial California",
        "street": "Rua E",
        "zipcode": "13165-716"
    },
    {
        "city": "Artur Nogueira",
        "state": "SP",
        "district": "Nosso Sonho",
        "street": "Rua dos Ipês",
        "zipcode": "13164-272"
    },
    {
        "city": "Artur Nogueira",
        "state": "SP",
        "district": "Parque Residencial Ida Sia",
        "street": "Rua Fiorigi Duzzi",
        "zipcode": "13164-026"
    },
    {
        "city": "Artur Nogueira",
        "state": "SP",
        "district": "Jardim Del Alamo",
        "street": "Rua Floriano Peixoto",
        "zipcode": "13160-001"
    },
    {
        "city": "Artur Nogueira",
        "state": "SP",
        "district": "Chácaras Benvenuto I",
        "street": "Rua Enrico Giovanni Chiste",
        "zipcode": "13165-362"
    },
    {
        "city": "Artur Nogueira",
        "state": "SP",
        "district": "Centro",
        "street": "Rua Floriano Peixoto",
        "zipcode": "13160-148"
    },
    {
        "city": "Artur Nogueira",
        "state": "SP",
        "district": "Jardim Santo Amaro",
        "street": "Rua Expedicionários",
        "zipcode": "13163-034"
    },
    {
        "city": "Artur Nogueira",
        "state": "SP",
        "district": "Centro",
        "street": "Rua Fernando Huck",
        "zipcode": "13160-076"
    },
    {
        "city": "Artur Nogueira",
        "state": "SP",
        "district": "Centro",
        "street": "Rua Floriano Peixoto",
        "zipcode": "13160-046"
    },
    {
        "city": "Artur Nogueira",
        "state": "SP",
        "district": "Centro",
        "street": "Rua Expedicionários",
        "zipcode": "13160-026"
    },
    {
        "city": "Artur Nogueira",
        "state": "SP",
        "district": "Parque Orlando Correa Barbosa",
        "street": "Rua Florindo Caetano",
        "zipcode": "13164-120"
    },
    {
        "city": "Artur Nogueira",
        "state": "SP",
        "district": "Chácaras Benvenuto III",
        "street": "Rua Enrico Giovanni Chiste",
        "zipcode": "13165-356"
    },
    {
        "city": "Artur Nogueira",
        "state": "SP",
        "district": "Centro",
        "street": "Rua Floriano Peixoto",
        "zipcode": "13160-146"
    },
    {
        "city": "Artur Nogueira",
        "state": "SP",
        "district": "Parque Residencial Itamaraty",
        "street": "Rua Fernando Sia",
        "zipcode": "13163-548"
    },
    {
        "city": "Artur Nogueira",
        "state": "SP",
        "district": "Jardim Amaro",
        "street": "Rua Expedicionários",
        "zipcode": "13163-052"
    },
    {
        "city": "Artur Nogueira",
        "state": "SP",
        "district": "Parque Residencial Carolina",
        "street": "Rua Florindo Caetano",
        "zipcode": "13164-130"
    },
    {
        "city": "Artur Nogueira",
        "state": "SP",
        "district": "Centro",
        "street": "Rua Ernesto Tagliari",
        "zipcode": "13160-140"
    },
    {
        "city": "Artur Nogueira",
        "state": "SP",
        "district": "Jardim Santo Amaro",
        "street": "Rua Ernesto Tagliari",
        "zipcode": "13163-032"
    },
    {
        "city": "Artur Nogueira",
        "state": "SP",
        "district": "Vila Rodrigues",
        "street": "Rua Florindo Caetano",
        "zipcode": "13164-004"
    },
    {
        "city": "Artur Nogueira",
        "state": "SP",
        "district": "Lolli",
        "street": "Rua Erich Schwarz",
        "zipcode": "13163-372"
    },
    {
        "city": "Artur Nogueira",
        "state": "SP",
        "district": "Vila Rodrigues",
        "street": "Rua Florindo Caetano",
        "zipcode": "13164-006"
    },
    {
        "city": "Artur Nogueira",
        "state": "SP",
        "district": "Jatobá",
        "street": "Rua Fernando Sia",
        "zipcode": "13163-502"
    },
    {
        "city": "Artur Nogueira",
        "state": "SP",
        "district": "Parque Nosso Recanto",
        "street": "Rua Florindo Caetano",
        "zipcode": "13164-052"
    },
    {
        "city": "Artur Nogueira",
        "state": "SP",
        "district": "Centro",
        "street": "Rua Ernesto Tagliari",
        "zipcode": "13160-036"
    },
    {
        "city": "Artur Nogueira",
        "state": "SP",
        "district": "Lolli",
        "street": "Rua Eugênia Toniolo Capelo",
        "zipcode": "13163-370"
    },
    {
        "city": "Artur Nogueira",
        "state": "SP",
        "district": "São Miguel",
        "street": "Rua Evair João Orlandini",
        "zipcode": "13160-492"
    },
    {
        "city": "Artur Nogueira",
        "state": "SP",
        "district": "Vila São Vicente",
        "street": "Rua Floriano Peixoto",
        "zipcode": "13163-182"
    },
    {
        "city": "Artur Nogueira",
        "state": "SP",
        "district": "Parque Industrial Itamaraty",
        "street": "Rua Ernesto Boer",
        "zipcode": "13163-580"
    },
    {
        "city": "Artur Nogueira",
        "state": "SP",
        "district": "Nosso Sonho",
        "street": "Rua Flamboyant",
        "zipcode": "13164-290"
    },
    {
        "city": "Artur Nogueira",
        "state": "SP",
        "district": "Jardim Sacilotto II",
        "street": "Rua Fernando Repache",
        "zipcode": "13167-356"
    },
    {
        "city": "Artur Nogueira",
        "state": "SP",
        "district": "Parque das Palmeiras",
        "street": "Rua Flávio Antonio Olivério",
        "zipcode": "13165-602"
    },
    {
        "city": "Artur Nogueira",
        "state": "SP",
        "district": "Egydio Tagliari",
        "street": "Rua Francisca Maria de Jesus",
        "zipcode": "13163-358"
    },
    {
        "city": "Artur Nogueira",
        "state": "SP",
        "district": "Jardim Ricardo Duzzi",
        "street": "Rua Ernesto Tagliari",
        "zipcode": "13161-014"
    },
    {
        "city": "Artur Nogueira",
        "state": "SP",
        "district": "Jardim Santo Amaro",
        "street": "Rua Expedicionários",
        "zipcode": "13163-036"
    },
    {
        "city": "Artur Nogueira",
        "state": "SP",
        "district": "Centro",
        "street": "Rua Ernesto Tagliari",
        "zipcode": "13160-116"
    },
    {
        "city": "Artur Nogueira",
        "state": "SP",
        "district": "Parque das Laranjeiras",
        "street": "Rua Florindo Caetano",
        "zipcode": "13164-074"
    },
    {
        "city": "Artur Nogueira",
        "state": "SP",
        "district": "Vila Queiroz",
        "street": "Rua Ernesto Tagliari",
        "zipcode": "13163-008"
    },
    {
        "city": "Artur Nogueira",
        "state": "SP",
        "district": "Jardim Arrivabene",
        "street": "Rua Floriano Peixoto",
        "zipcode": "13163-144"
    },
    {
        "city": "Artur Nogueira",
        "state": "SP",
        "district": "Jardim Arrivabene",
        "street": "Rua Ernesto Tagliari",
        "zipcode": "13163-154"
    },
    {
        "city": "Artur Nogueira",
        "state": "SP",
        "district": "Residencial Dona Leda",
        "street": "Rua Ernesto Tagliari",
        "zipcode": "13160-354"
    },
    {
        "city": "Artur Nogueira",
        "state": "SP",
        "district": "Parque das Laranjeiras",
        "street": "Rua Ernesto Tagliari",
        "zipcode": "13164-072"
    },
    {
        "city": "Artur Nogueira",
        "state": "SP",
        "district": "Centro",
        "street": "Rua Expedicionários",
        "zipcode": "13160-028"
    },
    {
        "city": "Artur Nogueira",
        "state": "SP",
        "district": "Residencial California",
        "street": "Rua F",
        "zipcode": "13165-718"
    },
    {
        "city": "Artur Nogueira",
        "state": "SP",
        "district": "Vila São Vicente",
        "street": "Rua Ernesto Tagliari",
        "zipcode": "13163-176"
    },
    {
        "city": "Artur Nogueira",
        "state": "SP",
        "district": "Jardim de Faveri",
        "street": "Rua Floriano Peixoto",
        "zipcode": "13163-120"
    },
    {
        "city": "Artur Nogueira",
        "state": "SP",
        "district": "Jardim Ouro Branco",
        "street": "Rua Floriano Peixoto",
        "zipcode": "13163-082"
    },
    {
        "city": "Artur Nogueira",
        "state": "SP",
        "district": "Jardim José Alves Carneiro",
        "street": "Rua Francisco Cabrino",
        "zipcode": "13161-040"
    },
    {
        "city": "Artur Nogueira",
        "state": "SP",
        "district": "Agostinho Del Alamo",
        "street": "Rua Expedicionários",
        "zipcode": "13167-020"
    },
    {
        "city": "Artur Nogueira",
        "state": "SP",
        "district": "Egydio Tagliari",
        "street": "Rua Eugênia Toniolo Capelo",
        "zipcode": "13163-360"
    },
    {
        "city": "Artur Nogueira",
        "state": "SP",
        "district": "Centro",
        "street": "Rua Expedicionários",
        "zipcode": "13160-082"
    },
    {
        "city": "Artur Nogueira",
        "state": "SP",
        "district": "Centro",
        "street": "Rua Expedicionários",
        "zipcode": "13160-080"
    },
    {
        "city": "Artur Nogueira",
        "state": "SP",
        "district": "Centro",
        "street": "Rua Floriano Peixoto",
        "zipcode": "13160-058"
    },
    {
        "city": "Artur Nogueira",
        "state": "SP",
        "district": "Jardim dos Ipês",
        "street": "Rua Frederico Luk",
        "zipcode": "13165-514"
    },
    {
        "city": "Artur Nogueira",
        "state": "SP",
        "district": "Parque das Paineiras",
        "street": "Rua Gustavo Beck",
        "zipcode": "13167-180"
    },
    {
        "city": "Artur Nogueira",
        "state": "SP",
        "district": "Parque Residencial Humberto Rossetti",
        "street": "Rua Francisco Cabrino",
        "zipcode": "13164-100"
    },
    {
        "city": "Artur Nogueira",
        "state": "SP",
        "district": "Parque Residencial Bom Jardim",
        "street": "Rua Gustavo Strassa Neto",
        "zipcode": "13165-322"
    },
    {
        "city": "Artur Nogueira",
        "state": "SP",
        "district": "Jardim Bela Vista II",
        "street": "Rua Gagliano Fontana",
        "zipcode": "13165-094"
    },
    {
        "city": "Artur Nogueira",
        "state": "SP",
        "district": "Jardim Bela Vista II",
        "street": "Rua Jacob Stein",
        "zipcode": "13165-100"
    },
    {
        "city": "Artur Nogueira",
        "state": "SP",
        "district": "Egydio Tagliari",
        "street": "Rua Guilherme Sia",
        "zipcode": "13163-350"
    },
    {
        "city": "Artur Nogueira",
        "state": "SP",
        "district": "Nosso Sonho",
        "street": "Rua Hugo Warner Carlstron",
        "zipcode": "13164-276"
    },
    {
        "city": "Artur Nogueira",
        "state": "SP",
        "district": "Jardim Conservani",
        "street": "Rua Guilherme Sia",
        "zipcode": "13163-264"
    },
    {
        "city": "Artur Nogueira",
        "state": "SP",
        "district": "Florindo Caetano",
        "street": "Rua Heitor Caetano",
        "zipcode": "13163-220"
    },
    {
        "city": "Artur Nogueira",
        "state": "SP",
        "district": "Jardim Amaro",
        "street": "Rua Francisco Cabrino",
        "zipcode": "13163-056"
    },
    {
        "city": "Artur Nogueira",
        "state": "SP",
        "district": "Rota das Flores",
        "street": "Rua Gumercindo Bueno",
        "zipcode": "13161-112"
    },
    {
        "city": "Artur Nogueira",
        "state": "SP",
        "district": "Josephim Tagliari",
        "street": "Rua Humberto Rossetti",
        "zipcode": "13163-314"
    },
    {
        "city": "Artur Nogueira",
        "state": "SP",
        "district": "Jardim Arrivabene",
        "street": "Rua Francisco Cabrino",
        "zipcode": "13163-160"
    },
    {
        "city": "Artur Nogueira",
        "state": "SP",
        "district": "Jardim Amaro",
        "street": "Rua Humberto Rossetti",
        "zipcode": "13163-060"
    },
    {
        "city": "Artur Nogueira",
        "state": "SP",
        "district": "Centro",
        "street": "Rua Francisco Cabrino",
        "zipcode": "13160-100"
    },
    {
        "city": "Artur Nogueira",
        "state": "SP",
        "district": "Centro",
        "street": "Rua Humberto Rossetti",
        "zipcode": "13160-032"
    },
    {
        "city": "Artur Nogueira",
        "state": "SP",
        "district": "Jardim Sacilotto II",
        "street": "Rua Guido Del Bianco",
        "zipcode": "13167-350"
    },
    {
        "city": "Artur Nogueira",
        "state": "SP",
        "district": "Residencial Conquista II",
        "street": "Rua Geralcina Chaves dos Santos",
        "zipcode": "13160-460"
    },
    {
        "city": "Artur Nogueira",
        "state": "SP",
        "district": "Jardim Ouro Branco",
        "street": "Rua Humberto Rossetti",
        "zipcode": "13163-090"
    },
    {
        "city": "Artur Nogueira",
        "state": "SP",
        "district": "Residencial San Marino",
        "street": "Rua Hortências",
        "zipcode": "13161-138"
    },
    {
        "city": "Artur Nogueira",
        "state": "SP",
        "district": "Josephim Tagliari",
        "street": "Rua Guilherme Sia",
        "zipcode": "13163-300"
    },
    {
        "city": "Artur Nogueira",
        "state": "SP",
        "district": "Cidade Jardim",
        "street": "Rua Geraldo Artusi",
        "zipcode": "13165-016"
    },
    {
        "city": "Artur Nogueira",
        "state": "SP",
        "district": "Florindo Caetano",
        "street": "Rua Francisco Cabrino",
        "zipcode": "13163-212"
    },
    {
        "city": "Artur Nogueira",
        "state": "SP",
        "district": "Parque Nosso Lar",
        "street": "Rua Guilherme Luck",
        "zipcode": "13167-252"
    },
    {
        "city": "Artur Nogueira",
        "state": "SP",
        "district": "Jardim Sacilotto II",
        "street": "Rua Herminio Berton",
        "zipcode": "13167-352"
    },
    {
        "city": "Artur Nogueira",
        "state": "SP",
        "district": "Jardim Paraíso",
        "street": "Rua Izabel de Campos Neves",
        "zipcode": "13167-442"
    },
    {
        "city": "Artur Nogueira",
        "state": "SP",
        "district": "Residencial da Torre",
        "street": "Rua Francisco Pellice Licio",
        "zipcode": "13165-614"
    },
    {
        "city": "Artur Nogueira",
        "state": "SP",
        "district": "Jardim Bela Vista",
        "street": "Rua Francisco Ramiel",
        "zipcode": "13165-058"
    },
    {
        "city": "Artur Nogueira",
        "state": "SP",
        "district": "Parque Nosso Lar",
        "street": "Rua Geraldo Caetano",
        "zipcode": "13167-260"
    },
    {
        "city": "Artur Nogueira",
        "state": "SP",
        "district": "Nova Artur",
        "street": "Rua Gerson Marcelo Dias Artusi",
        "zipcode": "13162-068"
    },
    {
        "city": "Artur Nogueira",
        "state": "SP",
        "district": "Jardim Planalto III",
        "street": "Rua Glycério Caetano",
        "zipcode": "13167-218"
    },
    {
        "city": "Artur Nogueira",
        "state": "SP",
        "district": "Parque das Flores",
        "street": "Rua Henrique Petsch",
        "zipcode": "13165-558"
    },
    {
        "city": "Artur Nogueira",
        "state": "SP",
        "district": "Egydio Tagliari",
        "street": "Rua Guilherme Sia",
        "zipcode": "13163-352"
    },
    {
        "city": "Artur Nogueira",
        "state": "SP",
        "district": "Vila São Vicente",
        "street": "Rua Francisco Cabrino",
        "zipcode": "13163-170"
    },
    {
        "city": "Artur Nogueira",
        "state": "SP",
        "district": "Egydio Tagliari",
        "street": "Rua Humberto Rossetti",
        "zipcode": "13163-334"
    },
    {
        "city": "Artur Nogueira",
        "state": "SP",
        "district": "Residencial California",
        "street": "Rua G",
        "zipcode": "13165-720"
    },
    {
        "city": "Artur Nogueira",
        "state": "SP",
        "district": "Parque Residencial Martinelli",
        "street": "Rua Ida Selani",
        "zipcode": "13162-308"
    },
    {
        "city": "Artur Nogueira",
        "state": "SP",
        "district": "Vila Queiroz",
        "street": "Rua Francisco Cabrino",
        "zipcode": "13163-014"
    },
    {
        "city": "Artur Nogueira",
        "state": "SP",
        "district": "Antonio Modolo",
        "street": "Rua Humberto Rossetti",
        "zipcode": "13163-234"
    },
    {
        "city": "Artur Nogueira",
        "state": "SP",
        "district": "Jardim Planalto II",
        "street": "Rua Frederico Tagliari",
        "zipcode": "13167-194"
    },
    {
        "city": "Artur Nogueira",
        "state": "SP",
        "district": "Jardim Conservani",
        "street": "Rua Humberto Rossetti",
        "zipcode": "13163-256"
    },
    {
        "city": "Artur Nogueira",
        "state": "SP",
        "district": "São Miguel",
        "street": "Rua Jaime Xavier",
        "zipcode": "13160-498"
    },
    {
        "city": "Artur Nogueira",
        "state": "SP",
        "district": "Jardim Paraíso",
        "street": "Rua Glycério Caetano",
        "zipcode": "13167-462"
    },
    {
        "city": "Artur Nogueira",
        "state": "SP",
        "district": "Residencial Parque Imperial",
        "street": "Rua Izaura Sia Boer",
        "zipcode": "13160-386"
    },
    {
        "city": "Artur Nogueira",
        "state": "SP",
        "district": "Vila Queiroz",
        "street": "Rua Francisco Cabrino",
        "zipcode": "13163-012"
    },
    {
        "city": "Artur Nogueira",
        "state": "SP",
        "district": "Novo Tempo",
        "street": "Rua Jaime Xavier",
        "zipcode": "13160-482"
    },
    {
        "city": "Artur Nogueira",
        "state": "SP",
        "district": "Parque Residencial da Piscina",
        "street": "Rua João Cândido de Souza",
        "zipcode": "13161-056"
    },
    {
        "city": "Artur Nogueira",
        "state": "SP",
        "district": "Centro",
        "street": "Rua José Amaro Rodrigues",
        "zipcode": "13160-048"
    },
    {
        "city": "Artur Nogueira",
        "state": "SP",
        "district": "Jardim Rezek I",
        "street": "Rua Jorge Rezek",
        "zipcode": "13160-268"
    },
    {
        "city": "Artur Nogueira",
        "state": "SP",
        "district": "Centro",
        "street": "Rua José Amaro Rodrigues",
        "zipcode": "13160-042"
    },
    {
        "city": "Artur Nogueira",
        "state": "SP",
        "district": "Residencial Manhattan",
        "street": "Rua José Abelardo Cia",
        "zipcode": "13162-090"
    },
    {
        "city": "Artur Nogueira",
        "state": "SP",
        "district": "Centro",
        "street": "Rua José Amaro Rodrigues",
        "zipcode": "13160-040"
    },
    {
        "city": "Artur Nogueira",
        "state": "SP",
        "district": "Jardim Paraíso",
        "street": "Rua Johannes Theodorus de Wit",
        "zipcode": "13167-460"
    },
    {
        "city": "Artur Nogueira",
        "state": "SP",
        "district": "Jardim Bela Vista",
        "street": "Rua João Luiz Machado",
        "zipcode": "13165-050"
    },
    {
        "city": "Artur Nogueira",
        "state": "SP",
        "district": "Parque Residencial Itamaraty",
        "street": "Rua João Mendes",
        "zipcode": "13163-524"
    },
    {
        "city": "Artur Nogueira",
        "state": "SP",
        "district": "Josephim Tagliari",
        "street": "Rua José Amaro Rodrigues",
        "zipcode": "13163-302"
    },
    {
        "city": "Artur Nogueira",
        "state": "SP",
        "district": "Jardim Ricardo Duzzi",
        "street": "Rua João Pulz",
        "zipcode": "13161-006"
    },
    {
        "city": "Artur Nogueira",
        "state": "SP",
        "district": "Jardim Bela Vista II",
        "street": "Rua João Luiz Machado",
        "zipcode": "13165-084"
    },
    {
        "city": "Artur Nogueira",
        "state": "SP",
        "district": "Jardim Olinda",
        "street": "Rua João Carrari",
        "zipcode": "13164-016"
    },
    {
        "city": "Artur Nogueira",
        "state": "SP",
        "district": "Jardim Planalto III",
        "street": "Rua Johannes Theodorus de Wit",
        "zipcode": "13167-216"
    },
    {
        "city": "Artur Nogueira",
        "state": "SP",
        "district": "Antonio Modolo",
        "street": "Rua José Amaro Rodrigues",
        "zipcode": "13163-236"
    },
    {
        "city": "Artur Nogueira",
        "state": "SP",
        "district": "Jardim Paraíso",
        "street": "Rua Jorge Linares",
        "zipcode": "13167-456"
    },
    {
        "city": "Artur Nogueira",
        "state": "SP",
        "district": "Residencial Villa Nogueira",
        "street": "Rua Joao Chichurra",
        "zipcode": "13165-300"
    },
    {
        "city": "Artur Nogueira",
        "state": "SP",
        "district": "Jardim José Alves Carneiro",
        "street": "Rua João Pulz",
        "zipcode": "13161-032"
    },
    {
        "city": "Artur Nogueira",
        "state": "SP",
        "district": "Parque das Flores",
        "street": "Rua João Gomes Barbosa",
        "zipcode": "13165-554"
    },
    {
        "city": "Artur Nogueira",
        "state": "SP",
        "district": "Novo Tempo",
        "street": "Rua Jorge Gnann",
        "zipcode": "13160-484"
    },
    {
        "city": "Artur Nogueira",
        "state": "SP",
        "district": "Residencial das Orquídeas",
        "street": "Rua Jorge Gnann",
        "zipcode": "13160-474"
    },
    {
        "city": "Artur Nogueira",
        "state": "SP",
        "district": "Jardim Amaro",
        "street": "Rua José Amaro Rodrigues",
        "zipcode": "13163-054"
    },
    {
        "city": "Artur Nogueira",
        "state": "SP",
        "district": "Residencial Conquista",
        "street": "Rua Jorge Gnann",
        "zipcode": "13160-444"
    },
    {
        "city": "Artur Nogueira",
        "state": "SP",
        "district": "Residencial Conquista II",
        "street": "Rua Joaquim Paula Fernandes",
        "zipcode": "13160-468"
    },
    {
        "city": "Artur Nogueira",
        "state": "SP",
        "district": "Jardim Rezek IV",
        "street": "Rua Jorge Rezek",
        "zipcode": "13160-372"
    },
    {
        "city": "Artur Nogueira",
        "state": "SP",
        "district": "Parque Residencial da Piscina",
        "street": "Rua João Crivelli",
        "zipcode": "13161-054"
    },
    {
        "city": "Artur Nogueira",
        "state": "SP",
        "district": "Residencial Villa Nogueira",
        "street": "Rua João Tagliari",
        "zipcode": "13165-282"
    },
    {
        "city": "Artur Nogueira",
        "state": "SP",
        "district": "Jardim Europa",
        "street": "Rua João Pulz",
        "zipcode": "13162-018"
    },
    {
        "city": "Artur Nogueira",
        "state": "SP",
        "district": "Jardim São José",
        "street": "Rua João Pulz",
        "zipcode": "13160-242"
    },
    {
        "city": "Artur Nogueira",
        "state": "SP",
        "district": "Parque Residencial Itamaraty",
        "street": "Rua João Montoya",
        "zipcode": "13163-558"
    },
    {
        "city": "Artur Nogueira",
        "state": "SP",
        "district": "Jardim Conservani",
        "street": "Rua José Amaro Rodrigues",
        "zipcode": "13163-252"
    },
    {
        "city": "Artur Nogueira",
        "state": "SP",
        "district": "Nova Artur",
        "street": "Rua Jorge Francisco Albino",
        "zipcode": "13162-058"
    },
    {
        "city": "Artur Nogueira",
        "state": "SP",
        "district": "Jardim Planalto",
        "street": "Rua João Setin",
        "zipcode": "13167-482"
    },
    {
        "city": "Artur Nogueira",
        "state": "SP",
        "district": "José Capello",
        "street": "Rua José Amaro Rodrigues",
        "zipcode": "13167-004"
    },
    {
        "city": "Artur Nogueira",
        "state": "SP",
        "district": "Centro",
        "street": "Rua João Pulz",
        "zipcode": "13160-128"
    },
    {
        "city": "Artur Nogueira",
        "state": "SP",
        "district": "Jardim Santa Isabel",
        "street": "Rua João Pulz",
        "zipcode": "13160-216"
    },
    {
        "city": "Artur Nogueira",
        "state": "SP",
        "district": "Jardim Ricardo Duzzi",
        "street": "Rua João Pulz",
        "zipcode": "13161-004"
    },
    {
        "city": "Artur Nogueira",
        "state": "SP",
        "district": "Parque Residencial Arrivabene",
        "street": "Rua João Woord",
        "zipcode": "13165-148"
    },
    {
        "city": "Artur Nogueira",
        "state": "SP",
        "district": "Jardim São José",
        "street": "Rua João Pulz",
        "zipcode": "13160-240"
    },
    {
        "city": "Artur Nogueira",
        "state": "SP",
        "district": "Jardim Sacilotto II",
        "street": "Rua João Gazola",
        "zipcode": "13167-344"
    },
    {
        "city": "Artur Nogueira",
        "state": "SP",
        "district": "Jardim dos Ipês",
        "street": "Rua João Gomes Barbosa",
        "zipcode": "13165-492"
    },
    {
        "city": "Artur Nogueira",
        "state": "SP",
        "district": "Jardim Ouro Branco",
        "street": "Rua José Amaro Rodrigues",
        "zipcode": "13163-080"
    },
    {
        "city": "Artur Nogueira",
        "state": "SP",
        "district": "Parque Residencial Itamaraty",
        "street": "Rua João Bombo",
        "zipcode": "13163-568"
    },
    {
        "city": "Artur Nogueira",
        "state": "SP",
        "district": "Jardim Sacilotto",
        "street": "Rua Joaquim Francisco Albino",
        "zipcode": "13167-294"
    },
    {
        "city": "Artur Nogueira",
        "state": "SP",
        "district": "Parque Residencial Humberto Rossetti",
        "street": "Rua Joaquim Maria Matheus",
        "zipcode": "13164-082"
    },
    {
        "city": "Artur Nogueira",
        "state": "SP",
        "district": "Centro",
        "street": "Rua João Pulz",
        "zipcode": "13160-126"
    },
    {
        "city": "Artur Nogueira",
        "state": "SP",
        "district": "Jardim Arrivabene III",
        "street": "Rua José Guidotti",
        "zipcode": "13167-086"
    },
    {
        "city": "Artur Nogueira",
        "state": "SP",
        "district": "Parque Residencial Itamaraty",
        "street": "Rua José Tagliari",
        "zipcode": "13163-544"
    },
    {
        "city": "Artur Nogueira",
        "state": "SP",
        "district": "Jardim Arrivabene III",
        "street": "Rua José DelAlamo",
        "zipcode": "13167-084"
    },
    {
        "city": "Artur Nogueira",
        "state": "SP",
        "district": "Parque Industrial Itamaraty",
        "street": "Rua José Sampaio Pires",
        "zipcode": "13163-588"
    },
    {
        "city": "Artur Nogueira",
        "state": "SP",
        "district": "Chácaras Benvenuto III",
        "street": "Rua José Joaquim de Araújo",
        "zipcode": "13165-350"
    },
    {
        "city": "Artur Nogueira",
        "state": "SP",
        "district": "Jardim Planalto",
        "street": "Rua José Aparecido Neves",
        "zipcode": "13167-492"
    },
    {
        "city": "Artur Nogueira",
        "state": "SP",
        "district": "Jardim dos Ipês",
        "street": "Rua José Augusto Mengue",
        "zipcode": "13165-482"
    },
    {
        "city": "Artur Nogueira",
        "state": "SP",
        "district": "Recanto Vale do Sol",
        "street": "Rua José de Oliveira",
        "zipcode": "13167-780"
    },
    {
        "city": "Artur Nogueira",
        "state": "SP",
        "district": "Chácaras Benvenuto I",
        "street": "Rua José Joaquim de Santana",
        "zipcode": "13165-364"
    },
    {
        "city": "Artur Nogueira",
        "state": "SP",
        "district": "Jardim Ricardo Duzzi",
        "street": "Rua José Amaro Rodrigues Filho",
        "zipcode": "13161-016"
    },
    {
        "city": "Artur Nogueira",
        "state": "SP",
        "district": "Jardim do Lago",
        "street": "Rua José Sia",
        "zipcode": "13163-494"
    },
    {
        "city": "Artur Nogueira",
        "state": "SP",
        "district": "Jardim Planalto",
        "street": "Rua José Mansur",
        "zipcode": "13167-504"
    },
    {
        "city": "Artur Nogueira",
        "state": "SP",
        "district": "Parque dos Trabalhadores",
        "street": "Rua José Mansur",
        "zipcode": "13167-512"
    },
    {
        "city": "Artur Nogueira",
        "state": "SP",
        "district": "Parque Industrial Itamaraty",
        "street": "Rua José Ruivo Evangelista",
        "zipcode": "13163-572"
    },
    {
        "city": "Artur Nogueira",
        "state": "SP",
        "district": "Jardim Europa",
        "street": "Rua José Amaro Rodrigues Filho",
        "zipcode": "13162-022"
    },
    {
        "city": "Artur Nogueira",
        "state": "SP",
        "district": "Jardim Rezek I",
        "street": "Rua José Amaro Rodrigues Filho",
        "zipcode": "13160-262"
    },
    {
        "city": "Artur Nogueira",
        "state": "SP",
        "district": "Parque Residencial Humberto Rossetti",
        "street": "Rua José Testi",
        "zipcode": "13164-096"
    },
    {
        "city": "Artur Nogueira",
        "state": "SP",
        "district": "Parque Residencial Arrivabene",
        "street": "Rua José Benedicto Filho",
        "zipcode": "13165-142"
    },
    {
        "city": "Artur Nogueira",
        "state": "SP",
        "district": "Centro",
        "street": "Rua José Amaro Rodrigues Filho",
        "zipcode": "13160-190"
    },
    {
        "city": "Artur Nogueira",
        "state": "SP",
        "district": "Jardim Arrivabene II",
        "street": "Rua José de Fáveri",
        "zipcode": "13167-120"
    },
    {
        "city": "Artur Nogueira",
        "state": "SP",
        "district": "Jardim Paraíso",
        "street": "Rua José Aparecido Neves",
        "zipcode": "13167-454"
    },
    {
        "city": "Artur Nogueira",
        "state": "SP",
        "district": "Parque Residencial Itamaraty",
        "street": "Rua José Sampaio Pires",
        "zipcode": "13163-534"
    },
    {
        "city": "Artur Nogueira",
        "state": "SP",
        "district": "Área 1",
        "street": "Rua José Saturno",
        "zipcode": "13167-232"
    },
    {
        "city": "Artur Nogueira",
        "state": "SP",
        "district": "Parque Industrial Batistela",
        "street": "Rua José Margonar",
        "zipcode": "13167-544"
    },
    {
        "city": "Artur Nogueira",
        "state": "SP",
        "district": "Jardim dos Ipês",
        "street": "Rua José Vinha",
        "zipcode": "13165-508"
    },
    {
        "city": "Artur Nogueira",
        "state": "SP",
        "district": "Jardim Sacilotto",
        "street": "Rua José Aparecido Franco de Oliveira",
        "zipcode": "13167-302"
    },
    {
        "city": "Artur Nogueira",
        "state": "SP",
        "district": "Parque Industrial Batistela",
        "street": "Rua José Aparecido Neves",
        "zipcode": "13167-540"
    },
    {
        "city": "Artur Nogueira",
        "state": "SP",
        "district": "Jardim do Lago",
        "street": "Rua José Ruivo Evangelista",
        "zipcode": "13163-490"
    },
    {
        "city": "Artur Nogueira",
        "state": "SP",
        "district": "Jardim Santa Rosa",
        "street": "Rua José de Fáveri",
        "zipcode": "13167-116"
    },
    {
        "city": "Artur Nogueira",
        "state": "SP",
        "district": "Chácaras Benvenuto V",
        "street": "Rua José Joaquim de Araújo",
        "zipcode": "13165-342"
    },
    {
        "city": "Artur Nogueira",
        "state": "SP",
        "district": "Jardim Paraíso",
        "street": "Rua José Margonar",
        "zipcode": "13167-440"
    },
    {
        "city": "Artur Nogueira",
        "state": "SP",
        "district": "Jardim Santa Rosa",
        "street": "Rua José Guidotti",
        "zipcode": "13167-102"
    },
    {
        "city": "Artur Nogueira",
        "state": "SP",
        "district": "Jardim Vista Alegre",
        "street": "Rua José Aparecido Neves",
        "zipcode": "13167-560"
    },
    {
        "city": "Artur Nogueira",
        "state": "SP",
        "district": "Jardim Planalto II",
        "street": "Rua José Saturno",
        "zipcode": "13167-200"
    },
    {
        "city": "Artur Nogueira",
        "state": "SP",
        "district": "Jardim Arrivabene II",
        "street": "Rua José de Fáveri",
        "zipcode": "13167-122"
    },
    {
        "city": "Artur Nogueira",
        "state": "SP",
        "district": "Jatobá",
        "street": "Rua José Tagliari",
        "zipcode": "13163-506"
    },
    {
        "city": "Artur Nogueira",
        "state": "SP",
        "district": "Jardim Vista Alegre",
        "street": "Rua Julieta Caetano de Menezes",
        "zipcode": "13167-578"
    },
    {
        "city": "Artur Nogueira",
        "state": "SP",
        "district": "Parque das Flores",
        "street": "Rua José Vinha",
        "zipcode": "13165-538"
    },
    {
        "city": "Artur Nogueira",
        "state": "SP",
        "district": "Jardim Sacilotto",
        "street": "Rua José Saturno",
        "zipcode": "13167-310"
    },
    {
        "city": "Artur Nogueira",
        "state": "SP",
        "district": "Chácaras Benvenuto I",
        "street": "Rua José Joaquim de Santana",
        "zipcode": "13165-360"
    },
    {
        "city": "Artur Nogueira",
        "state": "SP",
        "district": "Chácaras Benvenuto II",
        "street": "Rua José Joaquim de Santana",
        "zipcode": "13165-372"
    },
    {
        "city": "Artur Nogueira",
        "state": "SP",
        "district": "Residencial Manhattan",
        "street": "Rua Juberti José Sia",
        "zipcode": "13162-088"
    },
    {
        "city": "Artur Nogueira",
        "state": "SP",
        "district": "Residencial do Bosque",
        "street": "Rua José Humberto Campos",
        "zipcode": "13167-280"
    },
    {
        "city": "Artur Nogueira",
        "state": "SP",
        "district": "Cidade Jardim II",
        "street": "Rua José Amazílio Teresani",
        "zipcode": "13165-022"
    },
    {
        "city": "Artur Nogueira",
        "state": "SP",
        "district": "Jardim José Alves Carneiro",
        "street": "Rua José Amaro Rodrigues Filho",
        "zipcode": "13161-042"
    },
    {
        "city": "Artur Nogueira",
        "state": "SP",
        "district": "Jardim Ouro Branco",
        "street": "Rua Laura Miranda",
        "zipcode": "13163-094"
    },
    {
        "city": "Artur Nogueira",
        "state": "SP",
        "district": "Residencial Conquista",
        "street": "Rua Lino de Souza Ferraz",
        "zipcode": "13160-450"
    },
    {
        "city": "Artur Nogueira",
        "state": "SP",
        "district": "Residencial da Torre",
        "street": "Rua Leonardo Del Alamo",
        "zipcode": "13165-618"
    },
    {
        "city": "Artur Nogueira",
        "state": "SP",
        "district": "Jardim do Lago",
        "street": "Rua Luiz Rossetti",
        "zipcode": "13163-480"
    },
    {
        "city": "Artur Nogueira",
        "state": "SP",
        "district": "Jardim Arrivabene",
        "street": "Rua Laura Miranda",
        "zipcode": "13163-148"
    },
    {
        "city": "Artur Nogueira",
        "state": "SP",
        "district": "Jardim da Saudade",
        "street": "Rua Juvenal Simões",
        "zipcode": "13165-036"
    },
    {
        "city": "Artur Nogueira",
        "state": "SP",
        "district": "Jardim Bela Vista",
        "street": "Rua Juvenal Simões",
        "zipcode": "13165-052"
    },
    {
        "city": "Artur Nogueira",
        "state": "SP",
        "district": "Parque Residencial Arrivabene",
        "street": "Rua Lourenço Arrivabene",
        "zipcode": "13165-144"
    },
    {
        "city": "Artur Nogueira",
        "state": "SP",
        "district": "Residencial Boa Esperança",
        "street": "Rua Letícia Giacomelli Guisso",
        "zipcode": "13165-630"
    },
    {
        "city": "Artur Nogueira",
        "state": "SP",
        "district": "Jardim de Faveri",
        "street": "Rua Júlio Caetano",
        "zipcode": "13163-122"
    },
    {
        "city": "Artur Nogueira",
        "state": "SP",
        "district": "Residencial San Marino",
        "street": "Rua Lírios",
        "zipcode": "13161-132"
    },
    {
        "city": "Artur Nogueira",
        "state": "SP",
        "district": "Jardim Paraíso",
        "street": "Rua Manoel Joaquim Menezes",
        "zipcode": "13167-452"
    },
    {
        "city": "Artur Nogueira",
        "state": "SP",
        "district": "Centro",
        "street": "Rua Laura Miranda",
        "zipcode": "13160-020"
    },
    {
        "city": "Artur Nogueira",
        "state": "SP",
        "district": "Vila São Vicente",
        "street": "Rua Júlio Caetano",
        "zipcode": "13163-186"
    },
    {
        "city": "Artur Nogueira",
        "state": "SP",
        "district": "Jardim Olinda",
        "street": "Rua Júlio Caetano",
        "zipcode": "13164-010"
    },
    {
        "city": "Artur Nogueira",
        "state": "SP",
        "district": "Residencial Villa Nogueira",
        "street": "Rua Lucinda da Rocha Pavão",
        "zipcode": "13165-302"
    },
    {
        "city": "Artur Nogueira",
        "state": "SP",
        "district": "Vila Queiroz",
        "street": "Rua Laura Miranda",
        "zipcode": "13163-002"
    },
    {
        "city": "Artur Nogueira",
        "state": "SP",
        "district": "Jardim de Colores",
        "street": "Rua Madalena Pereira Gomes de Campos",
        "zipcode": "13163-296"
    },
    {
        "city": "Artur Nogueira",
        "state": "SP",
        "district": "Recanto Vale do Sol",
        "street": "Rua Lazarina da Cruz Oliveira",
        "zipcode": "13167-782"
    },
    {
        "city": "Artur Nogueira",
        "state": "SP",
        "district": "Jardim Del Alamo",
        "street": "Rua Laura Miranda",
        "zipcode": "13160-013"
    },
    {
        "city": "Artur Nogueira",
        "state": "SP",
        "district": "São Miguel",
        "street": "Rua Manoel Pereira de Castro",
        "zipcode": "13160-496"
    },
    {
        "city": "Artur Nogueira",
        "state": "SP",
        "district": "Rota das Flores",
        "street": "Rua Luiz Filippini",
        "zipcode": "13161-118"
    },
    {
        "city": "Artur Nogueira",
        "state": "SP",
        "district": "Jardim Sacilotto II",
        "street": "Rua Luiz Carlos Sia",
        "zipcode": "13167-382"
    },
    {
        "city": "Artur Nogueira",
        "state": "SP",
        "district": "Parque das Flores",
        "street": "Rua Luiz Strassa",
        "zipcode": "13165-570"
    },
    {
        "city": "Artur Nogueira",
        "state": "SP",
        "district": "Parque das Flores",
        "street": "Rua Lindor Alves da Silva",
        "zipcode": "13165-530"
    },
    {
        "city": "Artur Nogueira",
        "state": "SP",
        "district": "Jardim Sacilotto II",
        "street": "Rua Luiz Hilário Duzzi",
        "zipcode": "13167-374"
    },
    {
        "city": "Artur Nogueira",
        "state": "SP",
        "district": "Jardim Sacilotto",
        "street": "Rua Luiz Amaro Rodrigues Filho",
        "zipcode": "13167-300"
    },
    {
        "city": "Artur Nogueira",
        "state": "SP",
        "district": "Centro",
        "street": "Rua Laura Miranda",
        "zipcode": "13160-022"
    },
    {
        "city": "Artur Nogueira",
        "state": "SP",
        "district": "Parque Residencial Carolina",
        "street": "Rua Olympio Tagliari",
        "zipcode": "13164-146"
    },
    {
        "city": "Artur Nogueira",
        "state": "SP",
        "district": "Jardim Rezek II",
        "street": "Rua Leonardo Caetano",
        "zipcode": "13160-322"
    },
    {
        "city": "Artur Nogueira",
        "state": "SP",
        "district": "Jatobá",
        "street": "Rua Luiz Rossetti",
        "zipcode": "13163-500"
    },
    {
        "city": "Artur Nogueira",
        "state": "SP",
        "district": "Jardim Sacilotto II",
        "street": "Rua Manoel Rodrigues Junior",
        "zipcode": "13167-372"
    },
    {
        "city": "Artur Nogueira",
        "state": "SP",
        "district": "Jardim de Faveri",
        "street": "Rua Laura Miranda",
        "zipcode": "13163-102"
    },
    {
        "city": "Artur Nogueira",
        "state": "SP",
        "district": "Residencial da Torre",
        "street": "Rua Júlio Montoya",
        "zipcode": "13165-626"
    },
    {
        "city": "Artur Nogueira",
        "state": "SP",
        "district": "Jardim Arrivabene",
        "street": "Rua Júlio Caetano",
        "zipcode": "13163-140"
    },
    {
        "city": "Artur Nogueira",
        "state": "SP",
        "district": "Parque Residencial Humberto Rossetti",
        "street": "Rua Leonice Rodrigues",
        "zipcode": "13164-094"
    },
    {
        "city": "Artur Nogueira",
        "state": "SP",
        "district": "Vila São Vicente",
        "street": "Rua Júlio Caetano",
        "zipcode": "13163-184"
    },
    {
        "city": "Artur Nogueira",
        "state": "SP",
        "district": "Jardim Ouro Branco",
        "street": "Rua Laura Miranda",
        "zipcode": "13163-096"
    },
    {
        "city": "Artur Nogueira",
        "state": "SP",
        "district": "Parque Residencial Arrivabene",
        "street": "Rua Luiz Scandolara Neto",
        "zipcode": "13165-156"
    },
    {
        "city": "Artur Nogueira",
        "state": "SP",
        "district": "Jardim Bela Vista II",
        "street": "Rua Luzia Vancetto Gazola",
        "zipcode": "13165-108"
    },
    {
        "city": "Artur Nogueira",
        "state": "SP",
        "district": "Parque Residencial Itamaraty",
        "street": "Rua Luiz Rossetti",
        "zipcode": "13163-520"
    },
    {
        "city": "Artur Nogueira",
        "state": "SP",
        "district": "Jardim Ouro Branco",
        "street": "Rua Júlio Caetano",
        "zipcode": "13163-084"
    },
    {
        "city": "Artur Nogueira",
        "state": "SP",
        "district": "Centro",
        "street": "Rua Júlio Caetano",
        "zipcode": "13160-050"
    },
    {
        "city": "Artur Nogueira",
        "state": "SP",
        "district": "Residencial Dona Leda",
        "street": "Rua Leonardo Caetano",
        "zipcode": "13160-352"
    },
    {
        "city": "Artur Nogueira",
        "state": "SP",
        "district": "Jardim Planalto",
        "street": "Rua Luiz Carlos Tagliari",
        "zipcode": "13167-494"
    },
    {
        "city": "Artur Nogueira",
        "state": "SP",
        "district": "Parque Residencial Itamaraty",
        "street": "Rua Luiz Rossetti",
        "zipcode": "13163-522"
    },
    {
        "city": "Artur Nogueira",
        "state": "SP",
        "district": "Lolli",
        "street": "Rua Luiz Rossetti",
        "zipcode": "13163-378"
    },
    {
        "city": "Artur Nogueira",
        "state": "SP",
        "district": "Jardim Arrivabene",
        "street": "Rua Mário Godoy",
        "zipcode": "13163-158"
    },
    {
        "city": "Artur Nogueira",
        "state": "SP",
        "district": "Jardim Rezek II",
        "street": "Rua Marcelino Boer",
        "zipcode": "13160-342"
    },
    {
        "city": "Artur Nogueira",
        "state": "SP",
        "district": "Jardim dos Ipês",
        "street": "Rua Mario DelÁlamo",
        "zipcode": "13165-494"
    },
    {
        "city": "Artur Nogueira",
        "state": "SP",
        "district": "Parque das Paineiras",
        "street": "Rua Motanios Jorge Abugerab",
        "zipcode": "13167-184"
    },
    {
        "city": "Artur Nogueira",
        "state": "SP",
        "district": "Jardim Paraíso",
        "street": "Rua Noel da Conceição",
        "zipcode": "13167-458"
    },
    {
        "city": "Artur Nogueira",
        "state": "SP",
        "district": "Wada",
        "street": "Rua Maria Marson Sia",
        "zipcode": "13167-150"
    },
    {
        "city": "Artur Nogueira",
        "state": "SP",
        "district": "Parque Residencial Carolina",
        "street": "Rua Miguel Vicensotti",
        "zipcode": "13164-154"
    },
    {
        "city": "Artur Nogueira",
        "state": "SP",
        "district": "Jardim Rezek IV",
        "street": "Rua Nelson Luiz Sereno",
        "zipcode": "13160-374"
    },
    {
        "city": "Artur Nogueira",
        "state": "SP",
        "district": "Residencial Dona Leda",
        "street": "Rua Maria Simões Andrade",
        "zipcode": "13160-362"
    },
    {
        "city": "Artur Nogueira",
        "state": "SP",
        "district": "Parque das Paineiras",
        "street": "Rua Mário Sia",
        "zipcode": "13167-182"
    },
    {
        "city": "Artur Nogueira",
        "state": "SP",
        "district": "Jardim Sacilotto II",
        "street": "Rua Marcos Boer",
        "zipcode": "13167-384"
    },
    {
        "city": "Artur Nogueira",
        "state": "SP",
        "district": "Centro",
        "street": "Rua Nossa Senhora das Dores",
        "zipcode": "13160-166"
    },
    {
        "city": "Artur Nogueira",
        "state": "SP",
        "district": "Residencial Villa Nogueira",
        "street": "Rua Mario Germano",
        "zipcode": "13165-284"
    },
    {
        "city": "Artur Nogueira",
        "state": "SP",
        "district": "Parque Nosso Lar",
        "street": "Rua Motanios Jorge Abugerab",
        "zipcode": "13167-254"
    },
    {
        "city": "Artur Nogueira",
        "state": "SP",
        "district": "Jardim Amaro",
        "street": "Rua Maria Simões Andrade",
        "zipcode": "13163-058"
    },
    {
        "city": "Artur Nogueira",
        "state": "SP",
        "district": "Parque Industrial Itamaraty",
        "street": "Rua Máximo Gallo",
        "zipcode": "13163-592"
    },
    {
        "city": "Artur Nogueira",
        "state": "SP",
        "district": "Parque Industrial Itamaraty",
        "street": "Rua Nicolau de Sá",
        "zipcode": "13163-582"
    },
    {
        "city": "Artur Nogueira",
        "state": "SP",
        "district": "Centro",
        "street": "Rua Maria Simões Andrade",
        "zipcode": "13160-098"
    },
    {
        "city": "Artur Nogueira",
        "state": "SP",
        "district": "Jatobá",
        "street": "Rua Nicolau de Sá",
        "zipcode": "13163-510"
    },
    {
        "city": "Artur Nogueira",
        "state": "SP",
        "district": "Wada",
        "street": "Rua Monteiro Lobato",
        "zipcode": "13167-142"
    },
    {
        "city": "Artur Nogueira",
        "state": "SP",
        "district": "Jardim Ricardo Duzzi",
        "street": "Rua Maria Simões Andrade",
        "zipcode": "13161-022"
    },
    {
        "city": "Artur Nogueira",
        "state": "SP",
        "district": "Jardim Santa Rosa",
        "street": "Rua Nossa Senhora das Dores",
        "zipcode": "13167-100"
    },
    {
        "city": "Artur Nogueira",
        "state": "SP",
        "district": "Parque das Paineiras",
        "street": "Rua Nossa Senhora das Dores",
        "zipcode": "13167-174"
    },
    {
        "city": "Artur Nogueira",
        "state": "SP",
        "district": "Parque Residencial Arrivabene",
        "street": "Rua Odilla Furim Berni",
        "zipcode": "13165-146"
    },
    {
        "city": "Artur Nogueira",
        "state": "SP",
        "district": "Parque das Flores",
        "street": "Rua Mario DelÁlamo",
        "zipcode": "13165-552"
    },
    {
        "city": "Artur Nogueira",
        "state": "SP",
        "district": "Jardim de Faveri",
        "street": "Rua Mário Godoy",
        "zipcode": "13163-112"
    },
    {
        "city": "Artur Nogueira",
        "state": "SP",
        "district": "Residencial Dona Leda",
        "street": "Rua Marcelino Boer",
        "zipcode": "13160-360"
    },
    {
        "city": "Artur Nogueira",
        "state": "SP",
        "district": "Jardim Bela Vista",
        "street": "Rua Mariano Martins",
        "zipcode": "13165-054"
    },
    {
        "city": "Artur Nogueira",
        "state": "SP",
        "district": "Residencial Villa Nogueira",
        "street": "Rua Oito",
        "zipcode": "13165-292"
    },
    {
        "city": "Artur Nogueira",
        "state": "SP",
        "district": "Nova Artur",
        "street": "Rua Maria Rossetti de Oliveira",
        "zipcode": "13162-072"
    },
    {
        "city": "Artur Nogueira",
        "state": "SP",
        "district": "Residencial São Luiz",
        "street": "Rua Maria Gláucia Teixeira",
        "zipcode": "13161-152"
    },
    {
        "city": "Artur Nogueira",
        "state": "SP",
        "district": "Residencial Conquista",
        "street": "Rua Marta Nair dos Santos Ferraz",
        "zipcode": "13160-448"
    },
    {
        "city": "Artur Nogueira",
        "state": "SP",
        "district": "Jardim Ricardo Duzzi",
        "street": "Rua Maria Simões Andrade",
        "zipcode": "13161-018"
    },
    {
        "city": "Artur Nogueira",
        "state": "SP",
        "district": "Parque Residencial Humberto Rossetti",
        "street": "Rua Nair Fontana Rodrigues",
        "zipcode": "13164-084"
    },
    {
        "city": "Artur Nogueira",
        "state": "SP",
        "district": "Parque das Paineiras",
        "street": "Rua Nossa Senhora das Dores",
        "zipcode": "13167-172"
    },
    {
        "city": "Artur Nogueira",
        "state": "SP",
        "district": "Jardim do Lago",
        "street": "Rua Mário de Almeida",
        "zipcode": "13163-482"
    },
    {
        "city": "Artur Nogueira",
        "state": "SP",
        "district": "Vila São Vicente",
        "street": "Rua Monteiro Lobato",
        "zipcode": "13163-172"
    },
    {
        "city": "Artur Nogueira",
        "state": "SP",
        "district": "Jardim Arrivabene III",
        "street": "Rua Nossa Senhora das Dores",
        "zipcode": "13167-090"
    },
    {
        "city": "Artur Nogueira",
        "state": "SP",
        "district": "Residencial Parque Imperial",
        "street": "Rua Nelson Luiz Sereno",
        "zipcode": "13160-382"
    },
    {
        "city": "Artur Nogueira",
        "state": "SP",
        "district": "Jardim Santo Amaro",
        "street": "Rua Maria Simões Andrade",
        "zipcode": "13163-038"
    },
    {
        "city": "Artur Nogueira",
        "state": "SP",
        "district": "Parque Nosso Lar",
        "street": "Rua Mário Sia",
        "zipcode": "13167-256"
    },
    {
        "city": "Artur Nogueira",
        "state": "SP",
        "district": "Rota das Flores",
        "street": "Rua Nelson Caetano",
        "zipcode": "13161-114"
    },
    {
        "city": "Artur Nogueira",
        "state": "SP",
        "district": "Vila São Vicente",
        "street": "Rua Maria Marson Sia",
        "zipcode": "13163-200"
    },
    {
        "city": "Artur Nogueira",
        "state": "SP",
        "district": "José Capello",
        "street": "Rua Nossa Senhora das Dores",
        "zipcode": "13167-010"
    },
    {
        "city": "Artur Nogueira",
        "state": "SP",
        "district": "Alto da Florada",
        "street": "Rua Nair de Fáveri Oliveira",
        "zipcode": "13161-272"
    },
    {
        "city": "Artur Nogueira",
        "state": "SP",
        "district": "Vila Queiroz",
        "street": "Rua Maria Simões Andrade",
        "zipcode": "13163-010"
    },
    {
        "city": "Artur Nogueira",
        "state": "SP",
        "district": "Jardim Rezek III",
        "street": "Rua Marcelino Boer",
        "zipcode": "13160-308"
    },
    {
        "city": "Artur Nogueira",
        "state": "SP",
        "district": "Nosso Sonho",
        "street": "Rua Osvaldir Capello",
        "zipcode": "13164-288"
    },
    {
        "city": "Artur Nogueira",
        "state": "SP",
        "district": "Centro",
        "street": "Rua Orlando Furim",
        "zipcode": "13160-168"
    },
    {
        "city": "Artur Nogueira",
        "state": "SP",
        "district": "Parque das Flores",
        "street": "Rua Pedro Fernandes",
        "zipcode": "13165-568"
    },
    {
        "city": "Artur Nogueira",
        "state": "SP",
        "district": "Parque Residencial Itamaraty",
        "street": "Rua Pedro Luiz Botechia",
        "zipcode": "13163-536"
    },
    {
        "city": "Artur Nogueira",
        "state": "SP",
        "district": "Jardim Planalto",
        "street": "Rua Pastor José Apolinário Filho",
        "zipcode": "13167-506"
    },
    {
        "city": "Artur Nogueira",
        "state": "SP",
        "district": "Nosso Sonho",
        "street": "Rua Otacilio Ferreira Natal",
        "zipcode": "13164-286"
    },
    {
        "city": "Artur Nogueira",
        "state": "SP",
        "district": "Jardim Europa",
        "street": "Rua Raul Grosso",
        "zipcode": "13162-024"
    },
    {
        "city": "Artur Nogueira",
        "state": "SP",
        "district": "Parque Residencial Ida Sia",
        "street": "Rua Professor Edmo Wilson Cardoso",
        "zipcode": "13164-022"
    },
    {
        "city": "Artur Nogueira",
        "state": "SP",
        "district": "Parque Orlando Correa Barbosa",
        "street": "Rua Papa João Paulo II",
        "zipcode": "13164-114"
    },
    {
        "city": "Artur Nogueira",
        "state": "SP",
        "district": "Jardim Rezek I",
        "street": "Rua Raul Grosso",
        "zipcode": "13160-266"
    },
    {
        "city": "Artur Nogueira",
        "state": "SP",
        "district": "Parque das Laranjeiras",
        "street": "Rua Presidente Marechal Humberto de Alencar Castello Branco",
        "zipcode": "13164-076"
    },
    {
        "city": "Artur Nogueira",
        "state": "SP",
        "district": "Nova Artur",
        "street": "Rua Professora Alcídia Teixeira Witaker Matteis",
        "zipcode": "13162-060"
    },
    {
        "city": "Artur Nogueira",
        "state": "SP",
        "district": "Centro",
        "street": "Rua Ricardo Duzzi",
        "zipcode": "13160-136"
    },
    {
        "city": "Artur Nogueira",
        "state": "SP",
        "district": "Jardim Ricardo Duzzi",
        "street": "Rua Professora Alcídia Teixeira Witaker Matteis",
        "zipcode": "13161-026"
    },
    {
        "city": "Artur Nogueira",
        "state": "SP",
        "district": "Parque das Palmeiras",
        "street": "Rua Osvaldo Chiste",
        "zipcode": "13165-592"
    },
    {
        "city": "Artur Nogueira",
        "state": "SP",
        "district": "Jardim do Trevo",
        "street": "Rua Professora Alcídia Teixeira Witaker Matteis",
        "zipcode": "13160-288"
    },
    {
        "city": "Artur Nogueira",
        "state": "SP",
        "district": "Jardim José Alves Carneiro",
        "street": "Rua Professora Alcídia Teixeira Witaker Matteis",
        "zipcode": "13161-046"
    },
    {
        "city": "Artur Nogueira",
        "state": "SP",
        "district": "Florindo Caetano",
        "street": "Rua Papa João Paulo II",
        "zipcode": "13163-218"
    },
    {
        "city": "Artur Nogueira",
        "state": "SP",
        "district": "Residencial da Torre",
        "street": "Rua Orlando Correa Barbosa",
        "zipcode": "13165-612"
    },
    {
        "city": "Artur Nogueira",
        "state": "SP",
        "district": "Rota das Flores",
        "street": "Rua Osvaldo José de Carvalho",
        "zipcode": "13161-122"
    },
    {
        "city": "Artur Nogueira",
        "state": "SP",
        "district": "Jardim Paraíso",
        "street": "Rua Raul Furlan",
        "zipcode": "13167-446"
    },
    {
        "city": "Artur Nogueira",
        "state": "SP",
        "district": "Parque das Palmeiras",
        "street": "Rua Paulo Rodrigues",
        "zipcode": "13165-594"
    },
    {
        "city": "Artur Nogueira",
        "state": "SP",
        "district": "Parque Industrial Itamaraty",
        "street": "Rua Pedro Luiz Botechia",
        "zipcode": "13163-586"
    },
    {
        "city": "Artur Nogueira",
        "state": "SP",
        "district": "Jardim Sacilotto II",
        "street": "Rua Pedro Paulo Pires de Campos",
        "zipcode": "13167-378"
    },
    {
        "city": "Artur Nogueira",
        "state": "SP",
        "district": "Parque Residencial Bom Jardim",
        "street": "Rua Orestes Guisso",
        "zipcode": "13165-320"
    },
    {
        "city": "Artur Nogueira",
        "state": "SP",
        "district": "Parque Residencial Bom Jardim",
        "street": "Rua Pedro Morais",
        "zipcode": "13165-316"
    },
    {
        "city": "Artur Nogueira",
        "state": "SP",
        "district": "Jardim José Alves Carneiro",
        "street": "Rua Raul Grosso",
        "zipcode": "13161-044"
    },
    {
        "city": "Artur Nogueira",
        "state": "SP",
        "district": "Parque Residencial Carolina",
        "street": "Rua Primo Guidotti",
        "zipcode": "13164-138"
    },
    {
        "city": "Artur Nogueira",
        "state": "SP",
        "district": "Jardim Leonor",
        "street": "Rua Reynaldo Germano Stein",
        "zipcode": "13165-132"
    },
    {
        "city": "Artur Nogueira",
        "state": "SP",
        "district": "Vila São Vicente",
        "street": "Rua Oswaldo Cruz",
        "zipcode": "13163-188"
    },
    {
        "city": "Artur Nogueira",
        "state": "SP",
        "district": "Parque Residencial Carolina",
        "street": "Rua Papa João Paulo II",
        "zipcode": "13164-144"
    },
    {
        "city": "Artur Nogueira",
        "state": "SP",
        "district": "Jardim Sacilotto",
        "street": "Rua Raymundo Berni",
        "zipcode": "13167-314"
    },
    {
        "city": "Artur Nogueira",
        "state": "SP",
        "district": "Parque das Palmeiras",
        "street": "Rua Professor Luiz Carlos Canellas",
        "zipcode": "13165-582"
    },
    {
        "city": "Artur Nogueira",
        "state": "SP",
        "district": "Parque das Flores",
        "street": "Rua Onofre Mariano do Prado",
        "zipcode": "13165-548"
    },
    {
        "city": "Artur Nogueira",
        "state": "SP",
        "district": "Coração Criança",
        "street": "Rua Professor Icílio Dantas de Vasconcellos",
        "zipcode": "13167-608"
    },
    {
        "city": "Artur Nogueira",
        "state": "SP",
        "district": "Jardim dos Ipês",
        "street": "Rua Onofre Mariano do Prado",
        "zipcode": "13165-498"
    },
    {
        "city": "Artur Nogueira",
        "state": "SP",
        "district": "Parque Orlando Correa Barbosa",
        "street": "Rua Primo Guidotti",
        "zipcode": "13164-122"
    },
    {
        "city": "Artur Nogueira",
        "state": "SP",
        "district": "Jardim Europa",
        "street": "Rua Professora Alcídia Teixeira Witaker Matteis",
        "zipcode": "13162-026"
    },
    {
        "city": "Artur Nogueira",
        "state": "SP",
        "district": "Centro",
        "street": "Rua Raul Grosso",
        "zipcode": "13160-138"
    },
    {
        "city": "Artur Nogueira",
        "state": "SP",
        "district": "Parque das Flores",
        "street": "Rua Orlando Arrivabene",
        "zipcode": "13165-560"
    },
    {
        "city": "Artur Nogueira",
        "state": "SP",
        "district": "Jardim Ricardo Duzzi",
        "street": "Rua Ricardo Duzzi",
        "zipcode": "13161-010"
    },
    {
        "city": "Artur Nogueira",
        "state": "SP",
        "district": "Parque das Flores",
        "street": "Rua Osvaldo Chiste",
        "zipcode": "13165-526"
    },
    {
        "city": "Artur Nogueira",
        "state": "SP",
        "district": "Residencial Boa Esperança",
        "street": "Rua Primo Boer",
        "zipcode": "13165-638"
    },
    {
        "city": "Artur Nogueira",
        "state": "SP",
        "district": "Parque Residencial Arrivabene",
        "street": "Rua Reynaldo Germano Stein",
        "zipcode": "13165-140"
    },
    {
        "city": "Artur Nogueira",
        "state": "SP",
        "district": "Parque Nosso Recanto",
        "street": "Rua Professor Edmo Wilson Cardoso",
        "zipcode": "13164-050"
    },
    {
        "city": "Artur Nogueira",
        "state": "SP",
        "district": "Residencial do Bosque",
        "street": "Rua Santos Dumont",
        "zipcode": "13167-272"
    },
    {
        "city": "Artur Nogueira",
        "state": "SP",
        "district": "Parque das Paineiras",
        "street": "Rua Santos Dumont",
        "zipcode": "13167-170"
    },
    {
        "city": "Artur Nogueira",
        "state": "SP",
        "district": "José Capello",
        "street": "Rua Santo Amaro",
        "zipcode": "13167-014"
    },
    {
        "city": "Artur Nogueira",
        "state": "SP",
        "district": "Vila Rodrigues",
        "street": "Rua Santos Dumont",
        "zipcode": "13164-000"
    },
    {
        "city": "Artur Nogueira",
        "state": "SP",
        "district": "Egydio Tagliari",
        "street": "Rua Santos Dumont",
        "zipcode": "13163-330"
    },
    {
        "city": "Artur Nogueira",
        "state": "SP",
        "district": "Lolli",
        "street": "Rua Santos Dumont",
        "zipcode": "13163-376"
    },
    {
        "city": "Artur Nogueira",
        "state": "SP",
        "district": "Parque Residencial Itamaraty",
        "street": "Rua Santos Dumont",
        "zipcode": "13163-566"
    },
    {
        "city": "Artur Nogueira",
        "state": "SP",
        "district": "Parque das Laranjeiras",
        "street": "Rua Santos Dumont",
        "zipcode": "13164-070"
    },
    {
        "city": "Artur Nogueira",
        "state": "SP",
        "district": "Jardim Bela Vista",
        "street": "Rua Santo Amaro",
        "zipcode": "13165-064"
    },
    {
        "city": "Artur Nogueira",
        "state": "SP",
        "district": "Jardim Arrivabene III",
        "street": "Rua Santo Amaro",
        "zipcode": "13167-088"
    },
    {
        "city": "Artur Nogueira",
        "state": "SP",
        "district": "Parque Orlando Correa Barbosa",
        "street": "Rua Santos Dumont",
        "zipcode": "13164-124"
    },
    {
        "city": "Artur Nogueira",
        "state": "SP",
        "district": "Jardim Bela Vista II",
        "street": "Rua Santo Amaro",
        "zipcode": "13165-096"
    },
    {
        "city": "Artur Nogueira",
        "state": "SP",
        "district": "Agostinho Del Alamo",
        "street": "Rua Santo Amaro",
        "zipcode": "13167-022"
    },
    {
        "city": "Artur Nogueira",
        "state": "SP",
        "district": "Centro",
        "street": "Rua Santo Antônio",
        "zipcode": "13160-164"
    },
    {
        "city": "Artur Nogueira",
        "state": "SP",
        "district": "Parque Residencial Bom Jardim",
        "street": "Rua Santo Amaro",
        "zipcode": "13165-312"
    },
    {
        "city": "Artur Nogueira",
        "state": "SP",
        "district": "Parque das Paineiras",
        "street": "Rua Santo Amaro",
        "zipcode": "13167-176"
    },
    {
        "city": "Artur Nogueira",
        "state": "SP",
        "district": "Parque Residencial Nosso Chão",
        "street": "Rua Rosária Jorge de Almeida",
        "zipcode": "13167-592"
    },
    {
        "city": "Artur Nogueira",
        "state": "SP",
        "district": "Jardim Medeiros",
        "street": "Rua Rosa Arrivabene Rodrigues",
        "zipcode": "13167-320"
    },
    {
        "city": "Artur Nogueira",
        "state": "SP",
        "district": "Antonio Modolo",
        "street": "Rua Roberto Amaral Green",
        "zipcode": "13163-232"
    },
    {
        "city": "Artur Nogueira",
        "state": "SP",
        "district": "Jardim da Saudade",
        "street": "Rua Rosa Vicensotti",
        "zipcode": "13165-038"
    },
    {
        "city": "Artur Nogueira",
        "state": "SP",
        "district": "Vila Queiroz",
        "street": "Rua Rui Barbosa",
        "zipcode": "13163-022"
    },
    {
        "city": "Artur Nogueira",
        "state": "SP",
        "district": "Jardim Vista Alegre",
        "street": "Rua Ricardo Tagliari",
        "zipcode": "13167-574"
    },
    {
        "city": "Artur Nogueira",
        "state": "SP",
        "district": "Coração Criança",
        "street": "Rua Samuel Valle",
        "zipcode": "13167-606"
    },
    {
        "city": "Artur Nogueira",
        "state": "SP",
        "district": "Centro",
        "street": "Rua Rui Barbosa",
        "zipcode": "13160-090"
    },
    {
        "city": "Artur Nogueira",
        "state": "SP",
        "district": "Jardim Amaro",
        "street": "Rua Roberto Amaral Green",
        "zipcode": "13163-070"
    },
    {
        "city": "Artur Nogueira",
        "state": "SP",
        "district": "Jardim Planalto",
        "street": "Rua Ricardo Tagliari",
        "zipcode": "13167-508"
    },
    {
        "city": "Artur Nogueira",
        "state": "SP",
        "district": "Residencial Conquista II",
        "street": "Rua Ricardo Macedo Moreno",
        "zipcode": "13160-466"
    },
    {
        "city": "Artur Nogueira",
        "state": "SP",
        "district": "Novo Tempo",
        "street": "Rua Roberto Bentlin",
        "zipcode": "13160-480"
    },
    {
        "city": "Artur Nogueira",
        "state": "SP",
        "district": "Jardim Amaro",
        "street": "Rua Rui Barbosa",
        "zipcode": "13163-066"
    },
    {
        "city": "Artur Nogueira",
        "state": "SP",
        "district": "Jardim Paraíso",
        "street": "Rua Romão Del Alamo",
        "zipcode": "13167-464"
    },
    {
        "city": "Artur Nogueira",
        "state": "SP",
        "district": "Parque Residencial Nosso Chão",
        "street": "Rua Samuel Valle",
        "zipcode": "13167-582"
    },
    {
        "city": "Artur Nogueira",
        "state": "SP",
        "district": "Vila Queiroz",
        "street": "Rua Rui Barbosa",
        "zipcode": "13163-024"
    },
    {
        "city": "Artur Nogueira",
        "state": "SP",
        "district": "Jardim Sacilotto",
        "street": "Rua Rosária Maria Neves",
        "zipcode": "13167-292"
    },
    {
        "city": "Artur Nogueira",
        "state": "SP",
        "district": "Centro",
        "street": "Rua Rui Barbosa",
        "zipcode": "13160-086"
    },
    {
        "city": "Artur Nogueira",
        "state": "SP",
        "district": "Coração Criança",
        "street": "Rua Ricardo Tagliari",
        "zipcode": "13167-614"
    },
    {
        "city": "Artur Nogueira",
        "state": "SP",
        "district": "Jardim Planalto III",
        "street": "Rua Romão Del Alamo",
        "zipcode": "13167-220"
    },
    {
        "city": "Artur Nogueira",
        "state": "SP",
        "district": "Jardim Amaro",
        "street": "Rua Santiago Calvo",
        "zipcode": "13163-072"
    },
    {
        "city": "Artur Nogueira",
        "state": "SP",
        "district": "Centro",
        "street": "Rua Santo Amaro",
        "zipcode": "13160-084"
    },
    {
        "city": "Artur Nogueira",
        "state": "SP",
        "district": "Residencial Conquista",
        "street": "Rua Ricieri Bertini",
        "zipcode": "13160-440"
    },
    {
        "city": "Artur Nogueira",
        "state": "SP",
        "district": "Parque dos Trabalhadores",
        "street": "Rua Rosa Margarida Carmona",
        "zipcode": "13167-516"
    },
    {
        "city": "Artur Nogueira",
        "state": "SP",
        "district": "Centro",
        "street": "Rua Ricardo Duzzi",
        "zipcode": "13160-120"
    },
    {
        "city": "Artur Nogueira",
        "state": "SP",
        "district": "Florindo Caetano",
        "street": "Rua Rosa Giacomelli Caetano",
        "zipcode": "13163-216"
    },
    {
        "city": "Artur Nogueira",
        "state": "SP",
        "district": "Jardim Rezek IV",
        "street": "Rua Ricieri Bertini",
        "zipcode": "13160-376"
    },
    {
        "city": "Artur Nogueira",
        "state": "SP",
        "district": "Jardim Sacilotto II",
        "street": "Rua Rosa Arrivabene Rodrigues",
        "zipcode": "13167-342"
    },
    {
        "city": "Artur Nogueira",
        "state": "SP",
        "district": "Jardim Conservani",
        "street": "Rua Ricardo Duzzi Sobrinho",
        "zipcode": "13163-262"
    },
    {
        "city": "Artur Nogueira",
        "state": "SP",
        "district": "Jardim Del Alamo",
        "street": "Rua Rui Barbosa",
        "zipcode": "13160-007"
    },
    {
        "city": "Artur Nogueira",
        "state": "SP",
        "district": "Residencial das Orquídeas",
        "street": "Rua Ricieri Bertini",
        "zipcode": "13160-476"
    },
    {
        "city": "Artur Nogueira",
        "state": "SP",
        "district": "Centro",
        "street": "Rua São Bento",
        "zipcode": "13160-132"
    },
    {
        "city": "Artur Nogueira",
        "state": "SP",
        "district": "Centro",
        "street": "Rua São Bento",
        "zipcode": "13160-125"
    },
    {
        "city": "Artur Nogueira",
        "state": "SP",
        "district": "Centro",
        "street": "Rua São Bento",
        "zipcode": "13160-124"
    },
    {
        "city": "Artur Nogueira",
        "state": "SP",
        "district": "Centro",
        "street": "Rua São José",
        "zipcode": "13160-122"
    },
    {
        "city": "Artur Nogueira",
        "state": "SP",
        "district": "Vila São Vicente",
        "street": "Rua Santos Dumont",
        "zipcode": "13163-196"
    },
    {
        "city": "Artur Nogueira",
        "state": "SP",
        "district": "Jardim Ricardo Duzzi",
        "street": "Rua São Bento",
        "zipcode": "13161-000"
    },
    {
        "city": "Artur Nogueira",
        "state": "SP",
        "district": "Jatobá",
        "street": "Rua Seraphim da Silva Barros",
        "zipcode": "13163-512"
    },
    {
        "city": "Artur Nogueira",
        "state": "SP",
        "district": "Parque Residencial Ida Sia",
        "street": "Rua Sebastião Rodrigues",
        "zipcode": "13164-040"
    },
    {
        "city": "Artur Nogueira",
        "state": "SP",
        "district": "Parque dos Trabalhadores",
        "street": "Rua Sérgio Gallo",
        "zipcode": "13167-524"
    },
    {
        "city": "Artur Nogueira",
        "state": "SP",
        "district": "Parque Residencial Carolina",
        "street": "Rua Sebastião Rodrigues",
        "zipcode": "13164-136"
    },
    {
        "city": "Artur Nogueira",
        "state": "SP",
        "district": "Nosso Sonho",
        "street": "Rua Sebastião Pedro Miranda",
        "zipcode": "13164-282"
    },
    {
        "city": "Artur Nogueira",
        "state": "SP",
        "district": "Jardim dos Ipês",
        "street": "Rua Silvino Dias do Prado",
        "zipcode": "13165-488"
    },
    {
        "city": "Artur Nogueira",
        "state": "SP",
        "district": "Florindo Caetano",
        "street": "Rua Thiago Aurélio de Carvalho",
        "zipcode": "13163-214"
    },
    {
        "city": "Artur Nogueira",
        "state": "SP",
        "district": "Jardim Rezek II",
        "street": "Rua Vereador Adelino Francisco Guímaro",
        "zipcode": "13160-332"
    },
    {
        "city": "Artur Nogueira",
        "state": "SP",
        "district": "Parque Industrial Itamaraty",
        "street": "Rua Seraphim da Silva Barros",
        "zipcode": "13163-584"
    },
    {
        "city": "Artur Nogueira",
        "state": "SP",
        "district": "Jardim dos Ipês",
        "street": "Rua Sinclair Adão Boer",
        "zipcode": "13165-486"
    },
    {
        "city": "Artur Nogueira",
        "state": "SP",
        "district": "Residencial San Marino",
        "street": "Rua Tulipas",
        "zipcode": "13161-136"
    },
    {
        "city": "Artur Nogueira",
        "state": "SP",
        "district": "Jardim Rezek II",
        "street": "Rua Vereador Adelino Francisco Guímaro",
        "zipcode": "13160-334"
    },
    {
        "city": "Artur Nogueira",
        "state": "SP",
        "district": "Residencial Boa Esperança",
        "street": "Rua Valdir Zuin",
        "zipcode": "13165-632"
    },
    {
        "city": "Artur Nogueira",
        "state": "SP",
        "district": "Chácaras Benvenuto IV",
        "street": "Rua Sebastião Claudino de Souza",
        "zipcode": "13165-334"
    },
    {
        "city": "Artur Nogueira",
        "state": "SP",
        "district": "Nascente Cristalina",
        "street": "Rua Um",
        "zipcode": "13164-260"
    },
    {
        "city": "Artur Nogueira",
        "state": "SP",
        "district": "Josephim Tagliari",
        "street": "Rua Sílvio Artuzi",
        "zipcode": "13163-308"
    },
    {
        "city": "Artur Nogueira",
        "state": "SP",
        "district": "Parque Residencial Itamaraty",
        "street": "Rua Seraphim da Silva Barros",
        "zipcode": "13163-538"
    },
    {
        "city": "Artur Nogueira",
        "state": "SP",
        "district": "Centro",
        "street": "Rua Tiradentes",
        "zipcode": "13160-096"
    },
    {
        "city": "Artur Nogueira",
        "state": "SP",
        "district": "Centro",
        "street": "Rua Tiradentes",
        "zipcode": "13160-094"
    },
    {
        "city": "Artur Nogueira",
        "state": "SP",
        "district": "Jardim Europa",
        "street": "Rua Tiradentes",
        "zipcode": "13162-010"
    },
    {
        "city": "Artur Nogueira",
        "state": "SP",
        "district": "Jardim São Francisco",
        "street": "Rua São Sebastião",
        "zipcode": "13160-204"
    },
    {
        "city": "Artur Nogueira",
        "state": "SP",
        "district": "Rota das Flores",
        "street": "Rua Vereador Adelino Francisco Guímaro",
        "zipcode": "13161-116"
    },
    {
        "city": "Artur Nogueira",
        "state": "SP",
        "district": "Parque das Flores",
        "street": "Rua Silvino Dias do Prado",
        "zipcode": "13165-556"
    },
    {
        "city": "Artur Nogueira",
        "state": "SP",
        "district": "Parque Orlando Correa Barbosa",
        "street": "Rua Sílvio Gomes Alves",
        "zipcode": "13164-118"
    },
    {
        "city": "Artur Nogueira",
        "state": "SP",
        "district": "Jardim de Colores",
        "street": "Rua Três",
        "zipcode": "13163-294"
    },
    {
        "city": "Artur Nogueira",
        "state": "SP",
        "district": "Residencial Dona Leda",
        "street": "Rua Vereador Adelino Francisco Guímaro",
        "zipcode": "13160-356"
    },
    {
        "city": "Artur Nogueira",
        "state": "SP",
        "district": "Parque Residencial Ida Sia",
        "street": "Rua Teodoro Alfredo Tetzner",
        "zipcode": "13164-032"
    },
    {
        "city": "Artur Nogueira",
        "state": "SP",
        "district": "Parque Industrial Itamaraty",
        "street": "Rua Vereador Arthur Gazotto",
        "zipcode": "13163-590"
    },
    {
        "city": "Artur Nogueira",
        "state": "SP",
        "district": "Centro",
        "street": "Rua Tiradentes",
        "zipcode": "13160-114"
    },
    {
        "city": "Artur Nogueira",
        "state": "SP",
        "district": "Egydio Tagliari",
        "street": "Rua Sílvio Artuzi",
        "zipcode": "13163-342"
    },
    {
        "city": "Artur Nogueira",
        "state": "SP",
        "district": "Parque Residencial Carolina",
        "street": "Rua Sílvio Gomes Alves",
        "zipcode": "13164-140"
    },
    {
        "city": "Artur Nogueira",
        "state": "SP",
        "district": "Florindo Caetano",
        "street": "Rua Sílvio Gomes Alves",
        "zipcode": "13163-222"
    },
    {
        "city": "Artur Nogueira",
        "state": "SP",
        "district": "Jardim Leonor",
        "street": "Rua Vereador Alcides Pulz",
        "zipcode": "13165-128"
    },
    {
        "city": "Artur Nogueira",
        "state": "SP",
        "district": "Residencial Villa Nogueira",
        "street": "Rua Seis",
        "zipcode": "13165-290"
    },
    {
        "city": "Artur Nogueira",
        "state": "SP",
        "district": "Jardim Olinda",
        "street": "Rua Sebastião Rodrigues",
        "zipcode": "13164-012"
    },
    {
        "city": "Artur Nogueira",
        "state": "SP",
        "district": "Jardim Leonor",
        "street": "Rua Vereador Adivaldo Tagliari Barbosa",
        "zipcode": "13165-122"
    },
    {
        "city": "Artur Nogueira",
        "state": "SP",
        "district": "Jardim de Colores",
        "street": "Rua Um",
        "zipcode": "13163-298"
    },
    {
        "city": "Artur Nogueira",
        "state": "SP",
        "district": "Jardim Santa Isabel",
        "street": "Rua São Sebastião",
        "zipcode": "13160-220"
    },
    {
        "city": "Artur Nogueira",
        "state": "SP",
        "district": "Jardim dos Ipês",
        "street": "Rua Valério Cia",
        "zipcode": "13165-484"
    },
    {
        "city": "Artur Nogueira",
        "state": "SP",
        "district": "Cidade Jardim",
        "street": "Rua Sebastião Rodrigues",
        "zipcode": "13165-012"
    },
    {
        "city": "Artur Nogueira",
        "state": "SP",
        "district": "Nova Artur",
        "street": "Rua Valdelir Luiz de Quintal",
        "zipcode": "13162-074"
    },
    {
        "city": "Artur Nogueira",
        "state": "SP",
        "district": "Josephim Tagliari",
        "street": "Rua Sílvio Artuzi",
        "zipcode": "13163-306"
    },
    {
        "city": "Artur Nogueira",
        "state": "SP",
        "district": "Jardim São José",
        "street": "Rua 1º de Janeiro",
        "zipcode": "13160-238"
    },
    {
        "city": "Artur Nogueira",
        "state": "SP",
        "district": "Jardim do Trevo",
        "street": "Rua 10 de Abril",
        "zipcode": "13160-284"
    },
    {
        "city": "Artur Nogueira",
        "state": "SP",
        "district": "Parque dos Trabalhadores",
        "street": "Rua Vereador Luiz Guidotti",
        "zipcode": "13167-518"
    },
    {
        "city": "Artur Nogueira",
        "state": "SP",
        "district": "Jardim Sacilotto II",
        "street": "Rua Vitalina Crivelaro Carrari",
        "zipcode": "13167-354"
    },
    {
        "city": "Artur Nogueira",
        "state": "SP",
        "district": "Centro",
        "street": "Rua 1º de Maio",
        "zipcode": "13160-056"
    },
    {
        "city": "Artur Nogueira",
        "state": "SP",
        "district": "Jardim Vista Alegre",
        "street": "Rua Vereador Luiz Guidotti",
        "zipcode": "13167-564"
    },
    {
        "city": "Artur Nogueira",
        "state": "SP",
        "district": "Jardim José Sampaio Pires",
        "street": "Rua 1º de Janeiro",
        "zipcode": "13160-252"
    },
    {
        "city": "Artur Nogueira",
        "state": "SP",
        "district": "Jardim Arrivabene",
        "street": "Rua Vereador José Bervinde",
        "zipcode": "13163-152"
    },
    {
        "city": "Artur Nogueira",
        "state": "SP",
        "district": "Centro",
        "street": "Rua Vereador Luciano Antônio Carmona",
        "zipcode": "13160-182"
    },
    {
        "city": "Artur Nogueira",
        "state": "SP",
        "district": "Jardim Ricardo Duzzi",
        "street": "Rua Vereador Elysio Quinteiro",
        "zipcode": "13161-024"
    },
    {
        "city": "Artur Nogueira",
        "state": "SP",
        "district": "Centro",
        "street": "Rua Vereador Luciano Antônio Carmona",
        "zipcode": "13160-130"
    },
    {
        "city": "Artur Nogueira",
        "state": "SP",
        "district": "Centro",
        "street": "Rua Vereador Julio de Faveri",
        "zipcode": "13160-112"
    },
    {
        "city": "Artur Nogueira",
        "state": "SP",
        "district": "Centro",
        "street": "Rua 10 de Abril",
        "zipcode": "13160-068"
    },
    {
        "city": "Artur Nogueira",
        "state": "SP",
        "district": "Jardim Arrivabene III",
        "street": "Rua 10 de Abril",
        "zipcode": "13167-092"
    },
    {
        "city": "Artur Nogueira",
        "state": "SP",
        "district": "Coração Criança",
        "street": "Rua Waldemar Augusto Hobus",
        "zipcode": "13167-600"
    },
    {
        "city": "Artur Nogueira",
        "state": "SP",
        "district": "Jardim de Faveri",
        "street": "Rua Vereador José Bervinde",
        "zipcode": "13163-128"
    },
    {
        "city": "Artur Nogueira",
        "state": "SP",
        "district": "Jardim Rezek II",
        "street": "Rua 1º de Janeiro",
        "zipcode": "13160-330"
    },
    {
        "city": "Artur Nogueira",
        "state": "SP",
        "district": "Centro",
        "street": "Rua 1º de Janeiro",
        "zipcode": "13160-150"
    },
    {
        "city": "Artur Nogueira",
        "state": "SP",
        "district": "Rota das Flores",
        "street": "Rua Vilma Apparecida Repache",
        "zipcode": "13161-120"
    },
    {
        "city": "Artur Nogueira",
        "state": "SP",
        "district": "Jardim de Colores",
        "street": "Rua Vereador Armando Tagliari",
        "zipcode": "13163-292"
    },
    {
        "city": "Artur Nogueira",
        "state": "SP",
        "district": "Parque Industrial Batistela",
        "street": "Rua Xisto Pietrobom",
        "zipcode": "13167-548"
    },
    {
        "city": "Artur Nogueira",
        "state": "SP",
        "district": "Jardim Rezek I",
        "street": "Rua 1º de Janeiro",
        "zipcode": "13160-264"
    },
    {
        "city": "Artur Nogueira",
        "state": "SP",
        "district": "Jardim Europa II",
        "street": "Rua Vereador Luciano Antônio Carmona",
        "zipcode": "13162-038"
    },
    {
        "city": "Artur Nogueira",
        "state": "SP",
        "district": "Jardim José Sampaio Pires",
        "street": "Rua Vereador Luciano Antônio Carmona",
        "zipcode": "13160-254"
    },
    {
        "city": "Artur Nogueira",
        "state": "SP",
        "district": "Recanto Vale do Sol",
        "street": "Rua 03",
        "zipcode": "13167-786"
    },
    {
        "city": "Artur Nogueira",
        "state": "SP",
        "district": "Jardim José Alves Carneiro",
        "street": "Rua Vereador Elysio Quinteiro",
        "zipcode": "13161-034"
    },
    {
        "city": "Artur Nogueira",
        "state": "SP",
        "district": "Jardim Europa II",
        "street": "Rua Zulmiro de Oliveira Boer",
        "zipcode": "13162-040"
    },
    {
        "city": "Artur Nogueira",
        "state": "SP",
        "district": "Recanto Vale do Sol",
        "street": "Rua 04",
        "zipcode": "13167-792"
    },
    {
        "city": "Artur Nogueira",
        "state": "SP",
        "district": "Parque Residencial Carolina",
        "street": "Rua Vereador Belizário Neves",
        "zipcode": "13164-134"
    },
    {
        "city": "Artur Nogueira",
        "state": "SP",
        "district": "Jardim Europa",
        "street": "Rua Zulmiro de Oliveira Boer",
        "zipcode": "13162-016"
    },
    {
        "city": "Artur Nogueira",
        "state": "SP",
        "district": "Residencial Boa Esperança",
        "street": "Rua Vergílio Duzzi",
        "zipcode": "13165-634"
    },
    {
        "city": "Artur Nogueira",
        "state": "SP",
        "district": "Jardim Ricardo Duzzi",
        "street": "Rua Vereador Luciano Antônio Carmona",
        "zipcode": "13161-012"
    },
    {
        "city": "Artur Nogueira",
        "state": "SP",
        "district": "Jardim Leonor",
        "street": "Rua Vereador João Benevide Montoya",
        "zipcode": "13165-124"
    },
    {
        "city": "Artur Nogueira",
        "state": "SP",
        "district": "Jardim Leonor",
        "street": "Rua Vereador Mário de Faveri",
        "zipcode": "13165-126"
    },
    {
        "city": "Artur Nogueira",
        "state": "SP",
        "district": "Jardim Vista Alegre",
        "street": "Rua Xisto Pietrobom",
        "zipcode": "13167-562"
    },
    {
        "city": "Artur Nogueira",
        "state": "SP",
        "district": "Parque Residencial Nosso Chão",
        "street": "Rua Virginia Boer",
        "zipcode": "13167-590"
    },
    {
        "city": "Artur Nogueira",
        "state": "SP",
        "district": "Jatobá",
        "street": "Rua Vicente Peloia",
        "zipcode": "13163-504"
    },
    {
        "city": "Artur Nogueira",
        "state": "SP",
        "district": "Nova Artur",
        "street": "Rua Vereador Luciano Antônio Carmona",
        "zipcode": "13162-054"
    },
    {
        "city": "Artur Nogueira",
        "state": "SP",
        "district": "Parque dos Trabalhadores",
        "street": "Rua Vereador Marcílio Cons",
        "zipcode": "13167-522"
    },
    {
        "city": "Artur Nogueira",
        "state": "SP",
        "district": "Residencial da Torre",
        "street": "Rua Vitória",
        "zipcode": "13165-622"
    },
    {
        "city": "Artur Nogueira",
        "state": "SP",
        "district": "Jardim Europa II",
        "street": "Rua Vereador Julio de Faveri",
        "zipcode": "13162-034"
    },
    {
        "city": "Artur Nogueira",
        "state": "SP",
        "district": "Recanto Vale do Sol",
        "street": "Rua 05",
        "zipcode": "13167-788"
    },
    {
        "city": "Artur Nogueira",
        "state": "SP",
        "district": "Centro",
        "street": "Rua 10 de Abril",
        "zipcode": "13160-162"
    },
    {
        "city": "Artur Nogueira",
        "state": "SP",
        "district": "Jardim Ouro Branco",
        "street": "Rua 1º de Maio",
        "zipcode": "13163-086"
    },
    {
        "city": "Artur Nogueira",
        "state": "SP",
        "district": "Parque das Paineiras",
        "street": "Rua 15 de Novembro",
        "zipcode": "13167-160"
    },
    {
        "city": "Artur Nogueira",
        "state": "SP",
        "district": "Parque Residencial Itamaraty",
        "street": "Rua Vicente Peloia",
        "zipcode": "13163-546"
    },
    {
        "city": "Artur Nogueira",
        "state": "SP",
        "district": "Jardim Sacilotto",
        "street": "Rua Zeno Capato",
        "zipcode": "13167-298"
    },
    {
        "city": "Artur Nogueira",
        "state": "SP",
        "district": "Jardim de Faveri",
        "street": "Rua Vereador José Bervinde",
        "zipcode": "13163-130"
    },
    {
        "city": "Artur Nogueira",
        "state": "SP",
        "district": "José Capello",
        "street": "Rua 10 de Abril",
        "zipcode": "13167-006"
    },
    {
        "city": "Artur Nogueira",
        "state": "SP",
        "district": "Jardim Santa Rosa",
        "street": "Rua 10 de Abril",
        "zipcode": "13167-104"
    },
    {
        "city": "Artur Nogueira",
        "state": "SP",
        "district": "Centro",
        "street": "Rua 24 de Outubro",
        "zipcode": "13160-060"
    },
    {
        "city": "Artur Nogueira",
        "state": "SP",
        "district": "Centro",
        "street": "Rua 10 de Abril",
        "zipcode": "13160-184"
    },
    {
        "city": "Artur Nogueira",
        "state": "SP",
        "district": "Wada",
        "street": "Rua 15 de Novembro",
        "zipcode": "13167-140"
    },
    {
        "city": "Artur Nogueira",
        "state": "SP",
        "district": "Centro",
        "street": "Rua 13 de Maio",
        "zipcode": "13160-170"
    },
    {
        "city": "Artur Nogueira",
        "state": "SP",
        "district": "Jardim Ouro Branco",
        "street": "Rua 24 de Outubro",
        "zipcode": "13163-092"
    },
    {
        "city": "Artur Nogueira",
        "state": "SP",
        "district": "Jardim dos Ipês",
        "street": "Rua 15 de Novembro",
        "zipcode": "13165-480"
    },
    {
        "city": "Artur Nogueira",
        "state": "SP",
        "district": "Jardim São Francisco",
        "street": "Rua 10 de Abril",
        "zipcode": "13160-206"
    },
    {
        "city": "Artur Nogueira",
        "state": "SP",
        "district": "Jardim Del Alamo",
        "street": "Rua 24 de Outubro",
        "zipcode": "13160-009"
    },
    {
        "city": "Artur Nogueira",
        "state": "SP",
        "district": "Jardim Santa Isabel",
        "street": "Rua 10 de Abril",
        "zipcode": "13160-214"
    },
    {
        "city": "Artur Nogueira",
        "state": "SP",
        "district": "Chácaras Benvenuto III",
        "street": "Rua 15 de Novembro",
        "zipcode": "13165-352"
    },
    {
        "city": "Artur Nogueira",
        "state": "SP",
        "district": "Wada",
        "street": "Rua 10 de Abril",
        "zipcode": "13167-148"
    },
    {
        "city": "Artur Nogueira",
        "state": "SP",
        "district": "Chácaras Benvenuto V",
        "street": "Rua 15 de Novembro",
        "zipcode": "13165-344"
    },
    {
        "city": "Artur Nogueira",
        "state": "SP",
        "district": "Centro",
        "street": "Rua 7 de Setembro",
        "zipcode": "13160-078"
    },
    {
        "city": "Artur Nogueira",
        "state": "SP",
        "district": "Jardim Planalto II",
        "street": "Rua 15 de Novembro",
        "zipcode": "13167-190"
    },
    {
        "city": "Artur Nogueira",
        "state": "SP",
        "district": "Centro",
        "street": "Rua 24 de Outubro",
        "zipcode": "13160-044"
    },
    {
        "city": "Artur Nogueira",
        "state": "SP",
        "district": "Jardim Planalto III",
        "street": "Rua 15 de Novembro",
        "zipcode": "13167-210"
    },
    {
        "city": "Artur Nogueira",
        "state": "SP",
        "district": "Jardim Rezek III",
        "street": "Rua 7 de Setembro",
        "zipcode": "13160-310"
    },
    {
        "city": "Artur Nogueira",
        "state": "SP",
        "district": "Jardim Santa Isabel",
        "street": "Rua 10 de Abril",
        "zipcode": "13160-210"
    },
    {
        "city": "Artur Nogueira",
        "state": "SP",
        "district": "Vila São Vicente",
        "street": "Rua 24 de Outubro",
        "zipcode": "13163-180"
    },
    {
        "city": "Artur Nogueira",
        "state": "SP",
        "district": "Jardim Bela Vista",
        "street": "Rua 15 de Novembro",
        "zipcode": "13165-056"
    },
    {
        "city": "Artur Nogueira",
        "state": "SP",
        "district": "Centro",
        "street": "Rua 15 de Novembro",
        "zipcode": "13160-054"
    },
    {
        "city": "Artur Nogueira",
        "state": "SP",
        "district": "Centro",
        "street": "Rua 24 de Outubro",
        "zipcode": "13160-092"
    },
    {
        "city": "Artur Nogueira",
        "state": "SP",
        "district": "Jardim São José",
        "street": "Rua 7 de Setembro",
        "zipcode": "13160-236"
    },
    {
        "city": "Artur Nogueira",
        "state": "SP",
        "district": "Jardim Santa Rosa",
        "street": "Rua 15 de Novembro",
        "zipcode": "13167-114"
    },
    {
        "city": "Artur Nogueira",
        "state": "SP",
        "district": "Jardim Bela Vista II",
        "street": "Rua 15 de Novembro",
        "zipcode": "13165-102"
    },
    {
        "city": "Artur Nogueira",
        "state": "SP",
        "district": "Jardim de Faveri",
        "street": "Rua 15 de Novembro",
        "zipcode": "13163-126"
    },
    {
        "city": "Artur Nogueira",
        "state": "SP",
        "district": "Vila São Vicente",
        "street": "Rua 15 de Novembro",
        "zipcode": "13163-190"
    },
    {
        "city": "Artur Nogueira",
        "state": "SP",
        "district": "Jardim Blumenau",
        "street": "Rua Limeira",
        "zipcode": "13169-234"
    },
    {
        "city": "Artur Nogueira",
        "state": "SP",
        "district": "Josephim Tagliari",
        "street": "Rua Francisca Maria de Jesus",
        "zipcode": "13163-322"
    },
    {
        "city": "Artur Nogueira",
        "state": "SP",
        "district": "Jardim da Saudade",
        "street": "Rua Alcides Haeck",
        "zipcode": "13165-034"
    },
    {
        "city": "Artur Nogueira",
        "state": "SP",
        "district": "Jardim Bela Vista",
        "street": "Rua Belizário Ferreira de Oliveira",
        "zipcode": "13165-068"
    },
    {
        "city": "Artur Nogueira",
        "state": "SP",
        "district": "Jardim Santo Amaro",
        "street": "Rua Francisco Cabrino",
        "zipcode": "13163-040"
    },
    {
        "city": "Artur Nogueira",
        "state": "SP",
        "district": "Jardim Planalto II",
        "street": "Rua Glycério Caetano",
        "zipcode": "13167-206"
    },
    {
        "city": "Artur Nogueira",
        "state": "SP",
        "district": "José Capello",
        "street": "Rua Expedicionários",
        "zipcode": "13167-016"
    },
    {
        "city": "Artur Nogueira",
        "state": "SP",
        "district": "Parque Residencial Itamaraty",
        "street": "Rua Ernesto Boer",
        "zipcode": "13163-542"
    },
    {
        "city": "Artur Nogueira",
        "state": "SP",
        "district": "Jardim Planalto III",
        "street": "Rua Antônio César Druzian",
        "zipcode": "13167-222"
    },
    {
        "city": "Artur Nogueira",
        "state": "SP",
        "district": "Chácaras Benvenuto IV",
        "street": "Rua Enrico Giovanni Chiste",
        "zipcode": "13165-332"
    },
    {
        "city": "Artur Nogueira",
        "state": "SP",
        "district": "Parque Residencial Itamaraty",
        "street": "Rua Biaggio Mauro",
        "zipcode": "13163-556"
    },
    {
        "city": "Artur Nogueira",
        "state": "SP",
        "district": "Jardim Amaro",
        "street": "Rua Antonio Matheus",
        "zipcode": "13163-050"
    },
    {
        "city": "Artur Nogueira",
        "state": "SP",
        "district": "Parque Residencial Itamaraty",
        "street": "Rua Antônio dos Santos",
        "zipcode": "13163-552"
    },
    {
        "city": "Artur Nogueira",
        "state": "SP",
        "district": "Coração Criança",
        "street": "Rua Albertino Stocco",
        "zipcode": "13167-616"
    },
    {
        "city": "Artur Nogueira",
        "state": "SP",
        "district": "Sítio Novo",
        "street": "Avenida Japão",
        "zipcode": "13160-515"
    },
    {
        "city": "Artur Nogueira",
        "state": "SP",
        "district": "Parque Residencial Humberto Rossetti",
        "street": "Rua João Carrari",
        "zipcode": "13164-086"
    },
    {
        "city": "Artur Nogueira",
        "state": "SP",
        "district": "Jardim Sacilotto II",
        "street": "Rua Domingos Gallo",
        "zipcode": "13167-362"
    },
    {
        "city": "Artur Nogueira",
        "state": "SP",
        "district": "Parque Industrial Itamaraty",
        "street": "Rua João Bombo",
        "zipcode": "13163-570"
    },
    {
        "city": "Artur Nogueira",
        "state": "SP",
        "district": "Jardim Sacilotto II",
        "street": "Rua Armando Beck",
        "zipcode": "13167-366"
    },
    {
        "city": "Artur Nogueira",
        "state": "SP",
        "district": "Josephim Tagliari",
        "street": "Rua Amadeu de Fáveri",
        "zipcode": "13163-304"
    },
    {
        "city": "Artur Nogueira",
        "state": "SP",
        "district": "Jardim Rezek IV",
        "street": "Avenida Professora Magdalena Sanseverino Grosso",
        "zipcode": "13160-378"
    },
    {
        "city": "Artur Nogueira",
        "state": "SP",
        "district": "Wada",
        "street": "Rua Santos Dumont",
        "zipcode": "13167-152"
    },
    {
        "city": "Artur Nogueira",
        "state": "SP",
        "district": "Parque Industrial Batistela",
        "street": "Rua Julieta Caetano de Menezes",
        "zipcode": "13167-552"
    },
    {
        "city": "Artur Nogueira",
        "state": "SP",
        "district": "Jardim Rezek I",
        "street": "Rua 7 de Setembro",
        "zipcode": "13160-260"
    },
    {
        "city": "Artur Nogueira",
        "state": "SP",
        "district": "Parque Residencial Itamaraty",
        "street": "Rua Vereador Arthur Gazotto",
        "zipcode": "13163-532"
    },
    {
        "city": "Artur Nogueira",
        "state": "SP",
        "district": "Jardim Europa II",
        "street": "Rua Professora Alcídia Teixeira Witaker Matteis",
        "zipcode": "13162-032"
    },
    {
        "city": "Artur Nogueira",
        "state": "SP",
        "district": "Jardim Arrivabene",
        "street": "Rua Oswaldo Cruz",
        "zipcode": "13163-142"
    },
    {
        "city": "Artur Nogueira",
        "state": "SP",
        "district": "Parque Residencial Ida Sia",
        "street": "Rua Nair Fontana Rodrigues",
        "zipcode": "13164-020"
    },
    {
        "city": "Artur Nogueira",
        "state": "SP",
        "district": "Jardim Arrivabene II",
        "street": "Rua 10 de Abril",
        "zipcode": "13167-124"
    },
    {
        "city": "Artur Nogueira",
        "state": "SP",
        "district": "Vila Rodrigues",
        "street": "Rua Júlio Caetano",
        "zipcode": "13164-008"
    },
    {
        "city": "Artur Nogueira",
        "state": "SP",
        "district": "Jardim Ricardo Duzzi",
        "street": "Rua Ricardo Duzzi",
        "zipcode": "13161-008"
    },
    {
        "city": "Artur Nogueira",
        "state": "SP",
        "district": "Residencial Parque Imperial",
        "street": "Rua Ricieri Bertini",
        "zipcode": "13160-388"
    },
    {
        "city": "Artur Nogueira",
        "state": "SP",
        "district": "Jardim Medeiros",
        "street": "Rua Onofre Filipini",
        "zipcode": "13167-326"
    },
    {
        "city": "Artur Nogueira",
        "state": "SP",
        "district": "Parque Nosso Lar",
        "street": "Rua José Saturno",
        "zipcode": "13167-240"
    },
    {
        "city": "Artur Nogueira",
        "state": "SP",
        "district": "Residencial Parque Imperial",
        "street": "Rua Manuel Machado",
        "zipcode": "13160-380"
    },
    {
        "city": "Artur Nogueira",
        "state": "SP",
        "district": "Parque Residencial Nosso Chão",
        "street": "Rua Waldemar Augusto Hobus",
        "zipcode": "13167-586"
    },
    {
        "city": "Artur Nogueira",
        "state": "SP",
        "district": "Vila Queiroz",
        "street": "Rua Tiradentes",
        "zipcode": "13163-000"
    },
    {
        "city": "Artur Nogueira",
        "state": "SP",
        "district": "Centro",
        "street": "Rua São Sebastião",
        "zipcode": "13160-174"
    },
    {
        "city": "Artur Nogueira",
        "state": "SP",
        "district": "Florindo Caetano",
        "street": "Rua Maria Marson Sia",
        "zipcode": "13163-210"
    },
    {
        "city": "Artur Nogueira",
        "state": "SP",
        "district": "Centro",
        "street": "Rua José Amaro Rodrigues Filho",
        "zipcode": "13160-188"
    },
    {
        "city": "Artur Nogueira",
        "state": "SP",
        "district": "Agostinho Del Alamo",
        "street": "Rua José Amaro Rodrigues",
        "zipcode": "13167-024"
    },
    {
        "city": "Artur Nogueira",
        "state": "SP",
        "district": "Josephim Tagliari",
        "street": "Rua Alberto Boer",
        "zipcode": "13163-318"
    },
    {
        "city": "Artur Nogueira",
        "state": "SP",
        "district": "Jardim de Faveri",
        "street": "Rua Ernesto Tagliari",
        "zipcode": "13163-106"
    },
    {
        "city": "Artur Nogueira",
        "state": "SP",
        "district": "Residencial Parque Imperial",
        "street": "Rua Armando Boer",
        "zipcode": "13160-384"
    },
    {
        "city": "Artur Nogueira",
        "state": "SP",
        "district": "Nova Artur",
        "street": "Alameda Vereador João Cantarelli",
        "zipcode": "13162-050"
    },
    {
        "city": "Artur Nogueira",
        "state": "SP",
        "district": "Centro",
        "street": "Rua de Santo Fáveri",
        "zipcode": "13160-062"
    },
    {
        "city": "Artur Nogueira",
        "state": "SP",
        "district": "Wada",
        "street": "Rua Adhemar de Barros",
        "zipcode": "13167-146"
    },
    {
        "city": "Artur Nogueira",
        "state": "SP",
        "district": "Sítio Novo",
        "street": "Avenida Japão",
        "zipcode": "13160-510"
    },
    {
        "city": "Artur Nogueira",
        "state": "SP",
        "district": "Residencial Manhattan",
        "street": "Rua Aparecida de Oliveira Delgado",
        "zipcode": "13162-086"
    },
    {
        "city": "Artur Nogueira",
        "state": "SP",
        "district": "Jardim de Faveri",
        "street": "Rua de Santo Fáveri",
        "zipcode": "13163-104"
    },
    {
        "city": "Artur Nogueira",
        "state": "SP",
        "district": "Parque Residencial Ida Sia",
        "street": "Rua João Carrari",
        "zipcode": "13164-030"
    },
    {
        "city": "Artur Nogueira",
        "state": "SP",
        "district": "Parque Industrial Batistela",
        "street": "Rua Álvaro de Oliveira",
        "zipcode": "13167-550"
    },
    {
        "city": "Artur Nogueira",
        "state": "SP",
        "district": "Jardim Del Alamo",
        "street": "Rua Expedicionários",
        "zipcode": "13160-005"
    },
    {
        "city": "Artur Nogueira",
        "state": "SP",
        "district": "Residencial Dona Leda",
        "street": "Avenida Professora Magdalena Sanseverino Grosso",
        "zipcode": "13160-350"
    },
    {
        "city": "Artur Nogueira",
        "state": "SP",
        "district": "Nosso Sonho",
        "street": "Rua Edson Aparecido Capello",
        "zipcode": "13164-292"
    },
    {
        "city": "Artur Nogueira",
        "state": "SP",
        "district": "Jardim Conservani",
        "street": "Rua Deputado Federal Ulysses Guimarães",
        "zipcode": "13163-250"
    },
    {
        "city": "Artur Nogueira",
        "state": "SP",
        "district": "Parque das Flores",
        "street": "Rua Alfredo Bentlin",
        "zipcode": "13165-520"
    },
    {
        "city": "Artur Nogueira",
        "state": "SP",
        "district": "Parque Residencial Arrivabene",
        "street": "Rua Acrísio Arrivabene",
        "zipcode": "13165-152"
    },
    {
        "city": "Artur Nogueira",
        "state": "SP",
        "district": "Parque Industrial Itamaraty",
        "street": "Rua Fernando Sia",
        "zipcode": "13163-576"
    },
    {
        "city": "Artur Nogueira",
        "state": "SP",
        "district": "Cidade Jardim II",
        "street": "Avenida da Saudade",
        "zipcode": "13165-020"
    },
    {
        "city": "Artur Nogueira",
        "state": "SP",
        "district": "Residencial São Luiz",
        "street": "Rua Antônia dos Santos Bússulo",
        "zipcode": "13161-158"
    },
    {
        "city": "Artur Nogueira",
        "state": "SP",
        "district": "Parque Orlando Correa Barbosa",
        "street": "Rua Antonio Sia",
        "zipcode": "13164-126"
    },
    {
        "city": "Artur Nogueira",
        "state": "SP",
        "district": "Parque das Flores",
        "street": "Rua Agostinho Berne",
        "zipcode": "13165-550"
    },
    {
        "city": "Artur Nogueira",
        "state": "SP",
        "district": "Jardim Del Alamo",
        "street": "Rua Floriano Peixoto",
        "zipcode": "13160-003"
    },
    {
        "city": "Artur Nogueira",
        "state": "SP",
        "district": "Jardim Planalto",
        "street": "Rua Antônio Perez Júnior",
        "zipcode": "13167-498"
    },
    {
        "city": "Artur Nogueira",
        "state": "SP",
        "district": "Chácaras Benvenuto II",
        "street": "Rua Antônio Campinas",
        "zipcode": "13165-370"
    },
    {
        "city": "Artur Nogueira",
        "state": "SP",
        "district": "Jardim Vista Alegre",
        "street": "Rua Antônio de Fáveri",
        "zipcode": "13167-566"
    },
    {
        "city": "Artur Nogueira",
        "state": "SP",
        "district": "Jardim Planalto II",
        "street": "Rua Johannes Theodorus de Wit",
        "zipcode": "13167-208"
    },
    {
        "city": "Artur Nogueira",
        "state": "SP",
        "district": "Parque das Paineiras",
        "street": "Rua Duque de Caxias",
        "zipcode": "13167-164"
    },
    {
        "city": "Artur Nogueira",
        "state": "SP",
        "district": "Parque Residencial Arrivabene",
        "street": "Rua Eurides da Silva Caetano",
        "zipcode": "13165-150"
    },
    {
        "city": "Artur Nogueira",
        "state": "SP",
        "district": "Jardim Planalto",
        "street": "Rua João Teixeira Pinto",
        "zipcode": "13167-478"
    },
    {
        "city": "Artur Nogueira",
        "state": "SP",
        "district": "Portal dos Manacás",
        "street": "Alameda dos Manacás",
        "zipcode": "13162-332"
    },
    {
        "city": "Artur Nogueira",
        "state": "SP",
        "district": "Jardim Europa",
        "street": "Rua Adelino Fernandes",
        "zipcode": "13162-028"
    },
    {
        "city": "Artur Nogueira",
        "state": "SP",
        "district": "Jardim do Trevo",
        "street": "Avenida Marginal",
        "zipcode": "13160-290"
    },
    {
        "city": "Artur Nogueira",
        "state": "SP",
        "district": "Residencial da Torre",
        "street": "Alameda Doraci Tagliari Barbosa",
        "zipcode": "13165-616"
    },
    {
        "city": "Artur Nogueira",
        "state": "SP",
        "district": "Parque das Flores",
        "street": "Rua Antonio Franco Garcia",
        "zipcode": "13165-544"
    },
    {
        "city": "Artur Nogueira",
        "state": "SP",
        "district": "Residencial San Marino",
        "street": "Rua dos Flamboyant",
        "zipcode": "13161-140"
    },
    {
        "city": "Artur Nogueira",
        "state": "SP",
        "district": "Jardim dos Ipês",
        "street": "Rua Ângela de Fáveri Luiz",
        "zipcode": "13165-512"
    },
    {
        "city": "Artur Nogueira",
        "state": "SP",
        "district": "Parque das Paineiras",
        "street": "Rua Ângelo Tebaldi",
        "zipcode": "13167-188"
    },
    {
        "city": "Artur Nogueira",
        "state": "SP",
        "district": "Jardim Ricardo Duzzi",
        "street": "Rua Doutor Mário de Oliveira",
        "zipcode": "13161-028"
    },
    {
        "city": "Artur Nogueira",
        "state": "SP",
        "district": "Chácaras Benvenuto V",
        "street": "Rua Enrico Giovanni Chiste",
        "zipcode": "13165-340"
    },
    {
        "city": "Artur Nogueira",
        "state": "SP",
        "district": "Jardim da Saudade",
        "street": "Rua João Luiz Machado",
        "zipcode": "13165-040"
    },
    {
        "city": "Artur Nogueira",
        "state": "SP",
        "district": "Egydio Tagliari",
        "street": "Rua José Amaro Rodrigues",
        "zipcode": "13163-346"
    },
    {
        "city": "Artur Nogueira",
        "state": "SP",
        "district": "Vila Queiroz",
        "street": "Avenida Doutor Fernando Arens Junior",
        "zipcode": "13163-004"
    },
    {
        "city": "Artur Nogueira",
        "state": "SP",
        "district": "Vila São Vicente",
        "street": "Rua Florindo Caetano",
        "zipcode": "13163-192"
    },
    {
        "city": "Artur Nogueira",
        "state": "SP",
        "district": "Jardim Rezek II",
        "street": "Rua Jorge Rezek",
        "zipcode": "13160-336"
    },
    {
        "city": "Artur Nogueira",
        "state": "SP",
        "district": "Parque Residencial Itamaraty",
        "street": "Rua Nicolau de Sá",
        "zipcode": "13163-540"
    },
    {
        "city": "Artur Nogueira",
        "state": "SP",
        "district": "Jardim São José",
        "street": "Rua São Sebastião",
        "zipcode": "13160-230"
    },
    {
        "city": "Artur Nogueira",
        "state": "SP",
        "district": "Centro",
        "street": "Rua 1º de Janeiro",
        "zipcode": "13160-152"
    },
    {
        "city": "Artur Nogueira",
        "state": "SP",
        "district": "Jardim Olinda",
        "street": "Rua Nair Fontana Rodrigues",
        "zipcode": "13164-018"
    },
    {
        "city": "Artur Nogueira",
        "state": "SP",
        "district": "Jardim Rezek III",
        "street": "Rua Vereador Adelino Francisco Guímaro",
        "zipcode": "13160-302"
    },
    {
        "city": "Artur Nogueira",
        "state": "SP",
        "district": "Jardim de Faveri",
        "street": "Rua Presidente Marechal Humberto de Alencar Castello Branco",
        "zipcode": "13163-114"
    },
    {
        "city": "Artur Nogueira",
        "state": "SP",
        "district": "Parque Residencial Humberto Rossetti",
        "street": "Rua Sylvio Chiste",
        "zipcode": "13164-092"
    },
    {
        "city": "Artur Nogueira",
        "state": "SP",
        "district": "Parque Residencial Carolina",
        "street": "Rua Vereador Alfredo de Oliveira",
        "zipcode": "13164-152"
    },
    {
        "city": "Artur Nogueira",
        "state": "SP",
        "district": "Parque das Paineiras",
        "street": "Rua 10 de Abril",
        "zipcode": "13167-168"
    },
    {
        "city": "Artur Nogueira",
        "state": "SP",
        "district": "Centro",
        "street": "Rua José Amaro Rodrigues Filho",
        "zipcode": "13160-134"
    },
    {
        "city": "Artur Nogueira",
        "state": "SP",
        "district": "Jardim José Alves Carneiro",
        "street": "Rua Vereador Elysio Quinteiro",
        "zipcode": "13161-036"
    },
    {
        "city": "Artur Nogueira",
        "state": "SP",
        "district": "Parque Residencial Itamaraty",
        "street": "Rua José Ruivo Evangelista",
        "zipcode": "13163-554"
    },
    {
        "city": "Artur Nogueira",
        "state": "SP",
        "district": "Chácaras Benvenuto III",
        "street": "Rua José Joaquim de Santana",
        "zipcode": "13165-354"
    },
    {
        "city": "Artur Nogueira",
        "state": "SP",
        "district": "Parque Residencial Humberto Rossetti",
        "street": "Rua Sebastião Rodrigues",
        "zipcode": "13164-080"
    },
    {
        "city": "Artur Nogueira",
        "state": "SP",
        "district": "Jardim Europa",
        "street": "Rua Vereador Luciano Antônio Carmona",
        "zipcode": "13162-020"
    },
    {
        "city": "Artur Nogueira",
        "state": "SP",
        "district": "Parque Residencial Nosso Chão",
        "street": "Rua Waldemar Augusto Hobus",
        "zipcode": "13167-584"
    },
    {
        "city": "Artur Nogueira",
        "state": "SP",
        "district": "Parque Industrial Itamaraty",
        "street": "Rua José Tagliari",
        "zipcode": "13163-578"
    },
    {
        "city": "Artur Nogueira",
        "state": "SP",
        "district": "Jardim do Trevo",
        "street": "Rua Raul Grosso",
        "zipcode": "13160-286"
    },
    {
        "city": "Artur Nogueira",
        "state": "SP",
        "district": "Agostinho Del Alamo",
        "street": "Rua José DelAlamo",
        "zipcode": "13167-026"
    },
    {
        "city": "Artur Nogueira",
        "state": "SP",
        "district": "Parque das Orquídeas II",
        "street": "Rua Reynaldo Germano Stein",
        "zipcode": "13165-170"
    },
    {
        "city": "Artur Nogueira",
        "state": "SP",
        "district": "Jardim José Alves Carneiro",
        "street": "Rua Maria Simões Andrade",
        "zipcode": "13161-030"
    },
    {
        "city": "Artur Nogueira",
        "state": "SP",
        "district": "Jardim Planalto II",
        "street": "Rua Nossa Senhora das Dores",
        "zipcode": "13167-192"
    },
    {
        "city": "Artur Nogueira",
        "state": "SP",
        "district": "Campos Salles",
        "street": "Rua Tiradentes",
        "zipcode": "13162-000"
    },
    {
        "city": "Artur Nogueira",
        "state": "SP",
        "district": "Parque Residencial Itamaraty",
        "street": "Rua Máximo Gallo",
        "zipcode": "13163-530"
    },
    {
        "city": "Artur Nogueira",
        "state": "SP",
        "district": "Parque dos Trabalhadores",
        "street": "Rua José Aparecido Neves",
        "zipcode": "13167-532"
    },
    {
        "city": "Artur Nogueira",
        "state": "SP",
        "district": "Recanto Vale do Sol",
        "street": "Rua 06",
        "zipcode": "13167-790"
    },
    {
        "city": "Artur Nogueira",
        "state": "SP",
        "district": "Egydio Tagliari",
        "street": "Rua Sílvio Artuzi",
        "zipcode": "13163-344"
    },
    {
        "city": "Artur Nogueira",
        "state": "SP",
        "district": "Residencial Manhattan",
        "street": "Rua Osmildo Pedro Sia",
        "zipcode": "13162-084"
    },
    {
        "city": "Artur Nogueira",
        "state": "SP",
        "district": "Parque das Palmeiras",
        "street": "Rua Pedro Fernandes",
        "zipcode": "13165-584"
    },
    {
        "city": "Artur Nogueira",
        "state": "SP",
        "district": "Parque Residencial Itamaraty",
        "street": "Rua Mário de Almeida",
        "zipcode": "13163-562"
    },
    {
        "city": "Artur Nogueira",
        "state": "SP",
        "district": "Egydio Tagliari",
        "street": "Rua Oswaldo Cruz",
        "zipcode": "13163-354"
    },
    {
        "city": "Artur Nogueira",
        "state": "SP",
        "district": "Jardim José Alves Carneiro",
        "street": "Rua Vereador Luciano Antônio Carmona",
        "zipcode": "13161-038"
    },
    {
        "city": "Artur Nogueira",
        "state": "SP",
        "district": "Jardim Europa II",
        "street": "Rua José Amaro Rodrigues Filho",
        "zipcode": "13162-036"
    },
    {
        "city": "Artur Nogueira",
        "state": "SP",
        "district": "Jardim Planalto III",
        "street": "Rua Bruno Carlstron",
        "zipcode": "13167-224"
    },
    {
        "city": "Artur Nogueira",
        "state": "SP",
        "district": "Jardim Amaro",
        "street": "Rua Boa Vista",
        "zipcode": "13163-064"
    },
    {
        "city": "Artur Nogueira",
        "state": "SP",
        "district": "Residencial Dona Leda",
        "street": "Rua Avelino Magossi",
        "zipcode": "13160-358"
    },
    {
        "city": "Artur Nogueira",
        "state": "SP",
        "district": "Jardim São Francisco",
        "street": "Rua Ângela Piceferrari",
        "zipcode": "13160-200"
    },
    {
        "city": "Artur Nogueira",
        "state": "SP",
        "district": "Jardim Planalto III",
        "street": "Rua Benedito Antonio Ferreira",
        "zipcode": "13167-214"
    },
    {
        "city": "Artur Nogueira",
        "state": "SP",
        "district": "Jardim Paraíso",
        "street": "Rua Antônio Perez Júnior",
        "zipcode": "13167-450"
    },
    {
        "city": "Artur Nogueira",
        "state": "SP",
        "district": "Jardim Conservani",
        "street": "Rua Santo Bertaglia",
        "zipcode": "13163-254"
    },
    {
        "city": "Artur Nogueira",
        "state": "SP",
        "district": "Josephim Tagliari",
        "street": "Rua Santos Dumont",
        "zipcode": "13163-324"
    },
    {
        "city": "Artur Nogueira",
        "state": "SP",
        "district": "Egydio Tagliari",
        "street": "Rua Dario Custódio dos Santos",
        "zipcode": "13163-338"
    },
    {
        "city": "Artur Nogueira",
        "state": "SP",
        "district": "Parque Orlando Correa Barbosa",
        "street": "Rua Francisco Cabrino",
        "zipcode": "13164-110"
    },
    {
        "city": "Artur Nogueira",
        "state": "SP",
        "district": "Jardim Sacilotto II",
        "street": "Rua João Francisco Barbosa",
        "zipcode": "13167-348"
    },
    {
        "city": "Artur Nogueira",
        "state": "SP",
        "district": "Centro",
        "street": "Rua Rui Barbosa",
        "zipcode": "13160-088"
    },
    {
        "city": "Artur Nogueira",
        "state": "SP",
        "district": "Jardim Planalto",
        "street": "Rua Rosa Margarida Carmona",
        "zipcode": "13167-502"
    },
    {
        "city": "Artur Nogueira",
        "state": "SP",
        "district": "Residencial Boa Esperança",
        "street": "Rua Celestino Pereira da Silva",
        "zipcode": "13165-640"
    },
    {
        "city": "Artur Nogueira",
        "state": "SP",
        "district": "Jardim Planalto II",
        "street": "Rua Santo Amaro",
        "zipcode": "13167-196"
    },
    {
        "city": "Artur Nogueira",
        "state": "SP",
        "district": "Centro",
        "street": "Rua Humberto Rossetti",
        "zipcode": "13160-052"
    },
    {
        "city": "Artur Nogueira",
        "state": "SP",
        "district": "Nova Artur",
        "street": "Rua José Amaro Rodrigues Filho",
        "zipcode": "13162-056"
    },
    {
        "city": "Artur Nogueira",
        "state": "SP",
        "district": "Residencial Conquista",
        "street": "Rua Luiz Orlandini",
        "zipcode": "13160-446"
    },
    {
        "city": "Artur Nogueira",
        "state": "SP",
        "district": "Jardim de Faveri",
        "street": "Rua Laura Miranda",
        "zipcode": "13163-100"
    },
    {
        "city": "Artur Nogueira",
        "state": "SP",
        "district": "Jardim Rezek IV",
        "street": "Rua Manuel Machado",
        "zipcode": "13160-370"
    },
    {
        "city": "Artur Nogueira",
        "state": "SP",
        "district": "Jardim do Trevo",
        "street": "Rua Adhemar de Barros",
        "zipcode": "13160-280"
    },
    {
        "city": "Artur Nogueira",
        "state": "SP",
        "district": "Parque das Palmeiras",
        "street": "Rua Luiz Strassa",
        "zipcode": "13165-586"
    },
    {
        "city": "Artur Nogueira",
        "state": "SP",
        "district": "Residencial das Orquídeas",
        "street": "Rua Luiz Orlandini",
        "zipcode": "13160-470"
    },
    {
        "city": "Artur Nogueira",
        "state": "SP",
        "district": "Sítio Novo",
        "street": "Rodovia Professor Zeferino Vaz (SP",
        "zipcode": "13160-512"
    },
    {
        "city": "Artur Nogueira",
        "state": "SP",
        "district": "Jardim Arrivabene",
        "street": "Rua 24 de Outubro",
        "zipcode": "13163-146"
    },
    {
        "city": "Artur Nogueira",
        "state": "SP",
        "district": "Parque Residencial Itamaraty",
        "street": "Rua Carlos Alberto Alves de Carvalho Pinto",
        "zipcode": "13163-564"
    },
    {
        "city": "Artur Nogueira",
        "state": "SP",
        "district": "Vila São Vicente",
        "street": "Rua Santos Dumont",
        "zipcode": "13163-194"
    },
    {
        "city": "Artur Nogueira",
        "state": "SP",
        "district": "Parque Nosso Lar",
        "street": "Rua Gustavo Beck",
        "zipcode": "13167-258"
    },
    {
        "city": "Artur Nogueira",
        "state": "SP",
        "district": "Jardim Rezek I",
        "street": "Rua Professora Alcídia Teixeira Witaker Matteis",
        "zipcode": "13160-270"
    },
    {
        "city": "Artur Nogueira",
        "state": "SP",
        "district": "Parque Residencial Itamaraty",
        "street": "Rua Francisco Antônio Staiguer",
        "zipcode": "13163-560"
    },
    {
        "city": "Artur Nogueira",
        "state": "SP",
        "district": "Parque Nosso Recanto",
        "street": "Rua Letácio Moreira dos Santos",
        "zipcode": "13164-054"
    },
    {
        "city": "Artur Nogueira",
        "state": "SP",
        "district": "Jardim Arrivabene II",
        "street": "Rua 15 de Novembro",
        "zipcode": "13167-130"
    },
    {
        "city": "Artur Nogueira",
        "state": "SP",
        "district": "Centro",
        "street": "Rua São Sebastião",
        "zipcode": "13160-176"
    },
    {
        "city": "Artur Nogueira",
        "state": "SP",
        "district": "Residencial da Torre",
        "street": "Rua Maria Aparecida Andretto Filippini",
        "zipcode": "13165-628"
    },
    {
        "city": "Artur Nogueira",
        "state": "SP",
        "district": "Jardim Planalto",
        "street": "Rua 15 de Novembro",
        "zipcode": "13167-474"
    },
    {
        "city": "Artur Nogueira",
        "state": "SP",
        "district": "Parque Residencial Martinelli",
        "street": "Rua Conceição Fernandes Martinelli",
        "zipcode": "13162-302"
    },
    {
        "city": "Artur Nogueira",
        "state": "SP",
        "district": "Jardim Sacilotto II",
        "street": "Rua Dario Caetano",
        "zipcode": "13167-364"
    },
    {
        "city": "Artur Nogueira",
        "state": "SP",
        "district": "Jardim José Sampaio Pires",
        "street": "Rua 7 de Setembro",
        "zipcode": "13160-256"
    },
    {
        "city": "Artur Nogueira",
        "state": "SP",
        "district": "Parque dos Trabalhadores",
        "street": "Rua Ricardo Tagliari",
        "zipcode": "13167-510"
    },
    {
        "city": "Artur Nogueira",
        "state": "SP",
        "district": "Parque das Paineiras",
        "street": "Rua Geraldo Caetano",
        "zipcode": "13167-162"
    },
    {
        "city": "Artur Nogueira",
        "state": "SP",
        "district": "Jardim Arrivabene II",
        "street": "Rua Duque de Caxias",
        "zipcode": "13167-128"
    },
    {
        "city": "Artur Nogueira",
        "state": "SP",
        "district": "Parque Residencial Nosso Chão",
        "street": "Rua Julieta Caetano de Menezes",
        "zipcode": "13167-580"
    },
    {
        "city": "Artur Nogueira",
        "state": "SP",
        "district": "Jardim Santo Amaro",
        "street": "Rua Rui Barbosa",
        "zipcode": "13163-030"
    },
    {
        "city": "Artur Nogueira",
        "state": "SP",
        "district": "Residencial do Bosque",
        "street": "Rua Guilherme Luck",
        "zipcode": "13167-276"
    },
    {
        "city": "Artur Nogueira",
        "state": "SP",
        "district": "Jardim Bela Vista II",
        "street": "Rua Oliveira Jorge de Almeida",
        "zipcode": "13165-104"
    },
    {
        "city": "Artur Nogueira",
        "state": "SP",
        "district": "Jardim Bela Vista",
        "street": "Rua Jacob Stein",
        "zipcode": "13165-060"
    },
    {
        "city": "Artur Nogueira",
        "state": "SP",
        "district": "Residencial São Luiz",
        "street": "Rua Juvenal Baptista",
        "zipcode": "13161-156"
    },
    {
        "city": "Artur Nogueira",
        "state": "SP",
        "district": "Centro",
        "street": "Rua Laura Miranda",
        "zipcode": "13160-024"
    },
    {
        "city": "Artur Nogueira",
        "state": "SP",
        "district": "Jardim Planalto II",
        "street": "Rua Romão Del Alamo",
        "zipcode": "13167-204"
    },
    {
        "city": "Artur Nogueira",
        "state": "SP",
        "district": "José Capello",
        "street": "Rua Humberto Rossetti",
        "zipcode": "13167-008"
    },
    {
        "city": "Artur Nogueira",
        "state": "SP",
        "district": "Jardim Planalto",
        "street": "Rua Luiz Carlini",
        "zipcode": "13167-496"
    },
    {
        "city": "Artur Nogueira",
        "state": "SP",
        "district": "Cidade Jardim",
        "street": "Rua 15 de Novembro",
        "zipcode": "13165-010"
    },
    {
        "city": "Artur Nogueira",
        "state": "SP",
        "district": "Parque das Flores",
        "street": "Rua Frederico Luk",
        "zipcode": "13165-532"
    },
    {
        "city": "Artur Nogueira",
        "state": "SP",
        "district": "Jardim Ricardo Duzzi",
        "street": "Rua São Bento",
        "zipcode": "13161-002"
    },
    {
        "city": "Artur Nogueira",
        "state": "SP",
        "district": "Parque Nosso Recanto",
        "street": "Rua Santos Dumont",
        "zipcode": "13164-060"
    },
    {
        "city": "Artur Nogueira",
        "state": "SP",
        "district": "Chácaras de Recreio Sítio Novo",
        "street": "Rua Três",
        "zipcode": "13169-254"
    },
    {
        "city": "Artur Nogueira",
        "state": "SP",
        "district": "Centro",
        "street": "Avenida Doutor Fernando Arens Junior",
        "zipcode": "13160-156"
    },
    {
        "city": "Artur Nogueira",
        "state": "SP",
        "district": "Recanto Primavera",
        "street": "Rua Aristides Bervind",
        "zipcode": "13168-208"
    },
    {
        "city": "Artur Nogueira",
        "state": "SP",
        "district": "Parque Industrial Batistela",
        "street": "Rua Izabel de Campos Neves",
        "zipcode": "13167-542"
    },
    {
        "city": "Artur Nogueira",
        "state": "SP",
        "district": "Residencial Champs Elisée",
        "street": "Rua Paineira",
        "zipcode": "13167-800"
    },
    {
        "city": "Artur Nogueira",
        "state": "SP",
        "district": "Jardim Blumenau",
        "street": "Rua Campinas",
        "zipcode": "13169-228"
    },
    {
        "city": "Artur Nogueira",
        "state": "SP",
        "district": "Jardim do Lago",
        "street": "Rua João Montoya",
        "zipcode": "13163-486"
    },
    {
        "city": "Artur Nogueira",
        "state": "SP",
        "district": "Jardim Blumenau",
        "street": "Rua Conchal",
        "zipcode": "13169-224"
    },
    {
        "city": "Artur Nogueira",
        "state": "SP",
        "district": "Chácaras de Recreio Sítio Novo",
        "street": "Rua 06",
        "zipcode": "13169-260"
    },
    {
        "city": "Artur Nogueira",
        "state": "SP",
        "district": "Jardim Blumenau II",
        "street": "Rua Holambra",
        "zipcode": "13169-212"
    },
    {
        "city": "Artur Nogueira",
        "state": "SP",
        "district": "Recanto Primavera",
        "street": "Rua Antonio Mantovani",
        "zipcode": "13168-212"
    },
    {
        "city": "Artur Nogueira",
        "state": "SP",
        "district": "Jardim Blumenau III",
        "street": "Rua Conchal",
        "zipcode": "13169-202"
    },
    {
        "city": "Artur Nogueira",
        "state": "SP",
        "district": "Coração Criança",
        "street": "Rua Samuel Valle",
        "zipcode": "13167-604"
    },
    {
        "city": "Artur Nogueira",
        "state": "SP",
        "district": "Parque Residencial Ida Sia",
        "street": "Rua Basílio Antônio Fernandes",
        "zipcode": "13164-036"
    },
    {
        "city": "Artur Nogueira",
        "state": "SP",
        "district": "Jardim Santa Rosa",
        "street": "Rua de Santo Fáveri 739  AC Artur Nogueira",
        "zipcode": "13167-970"
    },
    {
        "city": "Artur Nogueira",
        "state": "SP",
        "district": "Jardim Blumenau",
        "street": "Rua Jaguariúna",
        "zipcode": "13169-232"
    },
    {
        "city": "Artur Nogueira",
        "state": "SP",
        "district": "Chácaras de Recreio Sítio Novo",
        "street": "Rua Dois",
        "zipcode": "13169-250"
    },
    {
        "city": "Artur Nogueira",
        "state": "SP",
        "district": "Jardim Rezek II",
        "street": "Avenida Doutor Tancredo de Almeida Neves",
        "zipcode": "13160-328"
    },
    {
        "city": "Artur Nogueira",
        "state": "SP",
        "district": "Jardim Arrivabene",
        "street": "Rua Vereador José Bervinde",
        "zipcode": "13163-150"
    },
    {
        "city": "Artur Nogueira",
        "state": "SP",
        "district": "Chácaras de Recreio Sítio Novo",
        "street": "Rua Fernando Gonçalves Dias",
        "zipcode": "13169-252"
    },
    {
        "city": "Artur Nogueira",
        "state": "SP",
        "district": "Jardim Bela Vista II",
        "street": "Rua Benedito Franco de Moraes",
        "zipcode": "13165-098"
    },
    {
        "city": "Artur Nogueira",
        "state": "SP",
        "district": "Parque Residencial Itamaraty",
        "street": "Rua José Sia",
        "zipcode": "13163-550"
    },
    {
        "city": "Artur Nogueira",
        "state": "SP",
        "district": "Residencial Champs Elisée",
        "street": "Rua Jatobá",
        "zipcode": "13167-810"
    },
    {
        "city": "Artur Nogueira",
        "state": "SP",
        "district": "Jardim Ouro Branco",
        "street": "Rua Humberto Rossetti",
        "zipcode": "13163-088"
    },
    {
        "city": "Artur Nogueira",
        "state": "SP",
        "district": "Recanto das Flores",
        "street": "Rua Dois",
        "zipcode": "13168-220"
    },
    {
        "city": "Artur Nogueira",
        "state": "SP",
        "district": "Recanto Primavera",
        "street": "Rua Francisco Daniel Sarpa",
        "zipcode": "13168-200"
    },
    {
        "city": "Artur Nogueira",
        "state": "SP",
        "district": "Jardim Blumenau III",
        "street": "Rua Jaguariúna",
        "zipcode": "13169-206"
    },
    {
        "city": "Artur Nogueira",
        "state": "SP",
        "district": "Jardim de Faveri",
        "street": "Rua 24 de Outubro",
        "zipcode": "13163-118"
    },
    {
        "city": "Artur Nogueira",
        "state": "SP",
        "district": "Jardim Blumenau",
        "street": "Rua Mogi Mirim",
        "zipcode": "13169-236"
    },
    {
        "city": "Artur Nogueira",
        "state": "SP",
        "district": "Parque das Paineiras",
        "street": "Rua Adhemar de Barros",
        "zipcode": "13167-166"
    },
    {
        "city": "Artur Nogueira",
        "state": "SP",
        "district": "São João dos Pinheiros",
        "street": "Rua Professor Edmo Wilson Cardoso",
        "zipcode": "13165-160"
    },
    {
        "city": "Artur Nogueira",
        "state": "SP",
        "district": "Jardim Blumenau",
        "street": "Rua Araras",
        "zipcode": "13169-220"
    },
    {
        "city": "Artur Nogueira",
        "state": "SP",
        "district": "Residencial Champs Elisée",
        "street": "Rua dos Ipês",
        "zipcode": "13167-802"
    },
    {
        "city": "Artur Nogueira",
        "state": "SP",
        "district": "Parque Residencial Ida Sia",
        "street": "Rua Letácio Moreira dos Santos",
        "zipcode": "13164-042"
    },
    {
        "city": "Artur Nogueira",
        "state": "SP",
        "district": "Jardim Arrivabene III",
        "street": "Rua 10 de Abril",
        "zipcode": "13167-094"
    },
    {
        "city": "Artur Nogueira",
        "state": "SP",
        "district": "Residencial Champs Elisée",
        "street": "Rua Jequitibá",
        "zipcode": "13167-812"
    },
    {
        "city": "Artur Nogueira",
        "state": "SP",
        "district": "Recanto Primavera",
        "street": "Rua Gregório da Cruz Andrade",
        "zipcode": "13168-206"
    },
    {
        "city": "Artur Nogueira",
        "state": "SP",
        "district": "Área Rural de Artur Nogueira",
        "street": "Área Rural",
        "zipcode": "13169-899"
    },
    {
        "city": "Artur Nogueira",
        "state": "SP",
        "district": "Recanto das Flores",
        "street": "Rua Um",
        "zipcode": "13168-222"
    },
    {
        "city": "Artur Nogueira",
        "state": "SP",
        "district": "Parque Residencial Nosso Chão",
        "street": "Rua Alcindo Simões",
        "zipcode": "13167-594"
    },
    {
        "city": "Artur Nogueira",
        "state": "SP",
        "district": "Recanto Primavera",
        "street": "Rua Martinho Steiger",
        "zipcode": "13168-210"
    },
    {
        "city": "Artur Nogueira",
        "state": "SP",
        "district": "Jardim Arrivabene",
        "street": "Rua Presidente Marechal Humberto de Alencar Castello Branco",
        "zipcode": "13163-156"
    },
    {
        "city": "Artur Nogueira",
        "state": "SP",
        "district": "Jardim Blumenau III",
        "street": "Rua Araras",
        "zipcode": "13169-200"
    },
    {
        "city": "Artur Nogueira",
        "state": "SP",
        "district": "Jardim São Francisco",
        "street": "Rua Nossa Senhora das Dores",
        "zipcode": "13160-202"
    },
    {
        "city": "Artur Nogueira",
        "state": "SP",
        "district": "Jardim Santa Rosa",
        "street": "Rua 10 de Abril",
        "zipcode": "13167-106"
    },
    {
        "city": "Artur Nogueira",
        "state": "SP",
        "district": "Nova Artur",
        "street": "Alameda Monsenhor Edisson Vieira Lício",
        "zipcode": "13162-062"
    },
    {
        "city": "Artur Nogueira",
        "state": "SP",
        "district": "Centro",
        "street": "Rua Antonio Matheus",
        "zipcode": "13160-106"
    },
    {
        "city": "Artur Nogueira",
        "state": "SP",
        "district": "Parque Orlando Correa Barbosa",
        "street": "Rua Sebastião Rodrigues",
        "zipcode": "13164-116"
    },
    {
        "city": "Artur Nogueira",
        "state": "SP",
        "district": "Jardim Blumenau II",
        "street": "Rua Jaguariúna",
        "zipcode": "13169-210"
    },
    {
        "city": "Artur Nogueira",
        "state": "SP",
        "district": "Parque Residencial Itamaraty",
        "street": "Rua Antônio Pinto de Oliveira",
        "zipcode": "13163-526"
    },
    {
        "city": "Artur Nogueira",
        "state": "SP",
        "district": "Antonio Modolo",
        "street": "Rua Expedicionários",
        "zipcode": "13163-238"
    },
    {
        "city": "Artur Nogueira",
        "state": "SP",
        "district": "Parque Industrial Itamaraty",
        "street": "Rua Francisco Antônio Staiguer",
        "zipcode": "13163-574"
    },
    {
        "city": "Artur Nogueira",
        "state": "SP",
        "district": "Centro",
        "street": "Rua Nossa Senhora das Dores",
        "zipcode": "13160-178"
    },
    {
        "city": "Artur Nogueira",
        "state": "SP",
        "district": "Centro",
        "street": "Rua Duque de Caxias",
        "zipcode": "13160-158"
    },
    {
        "city": "Artur Nogueira",
        "state": "SP",
        "district": "Jardim Blumenau",
        "street": "Rua Cosmópolis",
        "zipcode": "13169-230"
    },
    {
        "city": "Artur Nogueira",
        "state": "SP",
        "district": "Centro",
        "street": "Rua João Pulz",
        "zipcode": "13160-180"
    },
    {
        "city": "Artur Nogueira",
        "state": "SP",
        "district": "Residencial Villa Nogueira",
        "street": "Alameda Élcio Geraldo Sia",
        "zipcode": "13165-296"
    },
    {
        "city": "Artur Nogueira",
        "state": "SP",
        "district": "Nova Artur",
        "street": "Rua Zulmiro de Oliveira Boer",
        "zipcode": "13162-052"
    },
    {
        "city": "Artur Nogueira",
        "state": "SP",
        "district": "Jardim Ricardo Duzzi",
        "street": "Rua Raul Grosso",
        "zipcode": "13161-020"
    },
    {
        "city": "Artur Nogueira",
        "state": "SP",
        "district": "Parque das Flores",
        "street": "Rua Alberto Fischer",
        "zipcode": "13165-542"
    },
    {
        "city": "Artur Nogueira",
        "state": "SP",
        "district": "Vila São Vicente",
        "street": "Rua Laura Miranda",
        "zipcode": "13163-178"
    },
    {
        "city": "Artur Nogueira",
        "state": "SP",
        "district": "Parque Residencial Bom Jardim",
        "street": "Rua Francisco Malagó",
        "zipcode": "13165-326"
    },
    {
        "city": "Artur Nogueira",
        "state": "SP",
        "district": "Jardim Blumenau",
        "street": "Rua Sumaré",
        "zipcode": "13169-222"
    },
    {
        "city": "Artur Nogueira",
        "state": "SP",
        "district": "Jardim do Trevo",
        "street": "Rua José Amaro Rodrigues Filho",
        "zipcode": "13160-282"
    },
    {
        "city": "Artur Nogueira",
        "state": "SP",
        "district": "Parque Nosso Lar",
        "street": "Rua Bruno Carlstron",
        "zipcode": "13167-262"
    },
    {
        "city": "Artur Nogueira",
        "state": "SP",
        "district": "Residencial Champs Elisée",
        "street": "Rua das Orquídeas",
        "zipcode": "13167-804"
    },
    {
        "city": "Artur Nogueira",
        "state": "SP",
        "district": "Parque dos Trabalhadores",
        "street": "Rua Ricco Guidolin",
        "zipcode": "13167-528"
    },
    {
        "city": "Artur Nogueira",
        "state": "SP",
        "district": "Jardim Blumenau III",
        "street": "Rua Cosmópolis",
        "zipcode": "13169-204"
    },
    {
        "city": "Artur Nogueira",
        "state": "SP",
        "district": "Residencial São Luiz",
        "street": "Avenida Floresta",
        "zipcode": "13161-150"
    },
    {
        "city": "Artur Nogueira",
        "state": "SP",
        "district": "Jardim Bela Vista",
        "street": "Rua Antônio Villela",
        "zipcode": "13165-070"
    },
    {
        "city": "Artur Nogueira",
        "state": "SP",
        "district": "Residencial Champs Elisée",
        "street": "Rua Figueira",
        "zipcode": "13167-806"
    },
    {
        "city": "Artur Nogueira",
        "state": "SP",
        "district": "Residencial Champs Elisée",
        "street": "Rua Jacarandá",
        "zipcode": "13167-808"
    },
    {
        "city": "Artur Nogueira",
        "state": "SP",
        "district": "Jardim Blumenau II",
        "street": "Rua Conchal",
        "zipcode": "13169-216"
    },
    {
        "city": "Artur Nogueira",
        "state": "SP",
        "district": "Chácaras de Recreio Sítio Novo",
        "street": "Rua Cinco",
        "zipcode": "13169-258"
    },
    {
        "city": "Artur Nogueira",
        "state": "SP",
        "district": "Jardim Blumenau",
        "street": "Rua Santo Antônio de Posse",
        "zipcode": "13169-238"
    },
    {
        "city": "Artur Nogueira",
        "state": "SP",
        "district": "Vila São Vicente",
        "street": "Rua Presidente Marechal Humberto de Alencar Castello Branco",
        "zipcode": "13163-174"
    },
    {
        "city": "Artur Nogueira",
        "state": "SP",
        "district": "Chácaras de Recreio Sítio Novo",
        "street": "Rua Quatro",
        "zipcode": "13169-256"
    },
    {
        "city": "Artur Nogueira",
        "state": "SP",
        "district": "Jardim Blumenau II",
        "street": "Rua Araras",
        "zipcode": "13169-218"
    },
    {
        "city": "Artur Nogueira",
        "state": "SP",
        "district": "Jardim Santo Amaro",
        "street": "Rua Francisco Cabrino",
        "zipcode": "13163-042"
    },
    {
        "city": "Artur Nogueira",
        "state": "SP",
        "district": "Recanto Primavera",
        "street": "Rua João Mauro",
        "zipcode": "13168-204"
    },
    {
        "city": "Artur Nogueira",
        "state": "SP",
        "district": "Coração Criança",
        "street": "Rua Julieta Caetano de Menezes",
        "zipcode": "13167-612"
    },
    {
        "city": "Artur Nogueira",
        "state": "SP",
        "district": "Parque Residencial Humberto Rossetti",
        "street": "Rua Benedito Filippini",
        "zipcode": "13164-098"
    },
    {
        "city": "Artur Nogueira",
        "state": "SP",
        "district": "Jardim Blumenau II",
        "street": "Rua Cosmópolis",
        "zipcode": "13169-214"
    },
    {
        "city": "Artur Nogueira",
        "state": "SP",
        "district": "Vila Rodrigues",
        "street": "Rua Júlio Caetano",
        "zipcode": "13164-002"
    },
    {
        "city": "Artur Nogueira",
        "state": "SP",
        "district": "Jardim Rezek II",
        "street": "Rua 7 de Setembro",
        "zipcode": "13160-320"
    },
    {
        "city": "Artur Nogueira",
        "state": "SP",
        "district": "Jardim José Sampaio Pires",
        "street": "Rua João Pulz",
        "zipcode": "13160-250"
    },
    {
        "city": "Artur Nogueira",
        "state": "SP",
        "district": "Recanto Primavera",
        "street": "Rua Benedito Tancredo",
        "zipcode": "13168-202"
    },
    {
        "city": "Artur Nogueira",
        "state": "SP",
        "district": "Jardim Blumenau",
        "street": "Rua São Paulo",
        "zipcode": "13169-226"
    }
]